{"pageProps":{"locale":"en","admin2":{"geonameid":4702735,"name":"Kaufman County","country":"US","admin1":"TX","admin2":"257","admin3":"","latitude":"32.5993000","longitude":"-96.2878000","localeAltName":null},"admin1":{"geonameid":4736286,"name":"Texas","admin1":"TX","localeAltName":"Texas"},"locations":[{"geonameid":4682745,"name":"Combine","admin3":"","localeAltName":null},{"geonameid":4684056,"name":"Crandall","admin3":"","localeAltName":null},{"geonameid":4689115,"name":"Elmo","admin3":"","localeAltName":null},{"geonameid":4691833,"name":"Forney","admin3":"","localeAltName":null},{"geonameid":4702728,"name":"Kaufman","admin3":"","localeAltName":null},{"geonameid":4702914,"name":"Kemp","admin3":"","localeAltName":null},{"geonameid":4708535,"name":"Mabank","admin3":"","localeAltName":null},{"geonameid":4715808,"name":"Oak Grove","admin3":"","localeAltName":null},{"geonameid":4715935,"name":"Oak Ridge","admin3":"","localeAltName":null},{"geonameid":4720183,"name":"Post Oak Bend City","admin3":"","localeAltName":null},{"geonameid":4727571,"name":"Scurry","admin3":"","localeAltName":null},{"geonameid":4735524,"name":"Talty","admin3":"","localeAltName":null},{"geonameid":4736028,"name":"Terrell","admin3":"","localeAltName":null},{"geonameid":7315389,"name":"Travis Ranch","admin3":"","localeAltName":null}],"admin3":[{"geonameid":7173219,"name":"City of Combine","admin3":"7173219"},{"geonameid":7173242,"name":"City of Cottonwood","admin3":"7173242"},{"geonameid":7173254,"name":"City of Crandall","admin3":"7173254"},{"geonameid":7173441,"name":"City of Forney","admin3":"7173441"},{"geonameid":7174541,"name":"Town of Talty","admin3":"7174541"},{"geonameid":7174921,"name":"Town of Post Oak Bend City","admin3":"7174921"},{"geonameid":7175236,"name":"City of Kemp","admin3":"7175236"},{"geonameid":7175341,"name":"Town of Mabank","admin3":"7175341"},{"geonameid":7175470,"name":"Town of Oak Grove","admin3":"7175470"},{"geonameid":7175473,"name":"Town of Oak Ridge","admin3":"7175473"},{"geonameid":7175669,"name":"Town of Scurry","admin3":"7175669"},{"geonameid":7175950,"name":"Village of Grays Prairie","admin3":"7175950"},{"geonameid":7175978,"name":"Village of Rosser","admin3":"7175978"},{"geonameid":11788772,"name":"City of Terrell","admin3":"11788772"}],"alternateNames":[{"alternatenameId":1614423,"geonameid":4736286,"isoLanguage":"en","alternateName":"Texas","isPreferredName":true,"isShortName":true,"isColloquial":false,"isHistoric":false}]},"__N_SSG":true}