{"pageProps":{"locale":"en","admin2":{"geonameid":4741328,"name":"Wharton County","country":"US","admin1":"TX","admin2":"481","admin3":"","latitude":"29.2778600","longitude":"-96.2221000","localeAltName":null},"admin1":{"geonameid":4736286,"name":"Texas","admin1":"TX","localeAltName":"Texas"},"locations":[{"geonameid":4675525,"name":"Boling","admin3":"","localeAltName":null},{"geonameid":4687678,"name":"East Bernard","admin3":"","localeAltName":null},{"geonameid":4688506,"name":"El Campo","admin3":"","localeAltName":null},{"geonameid":4708089,"name":"Louise","admin3":"","localeAltName":null},{"geonameid":4741325,"name":"Wharton","admin3":"","localeAltName":null}],"admin3":[{"geonameid":7173343,"name":"City of East Bernard","admin3":"7173343"},{"geonameid":7173361,"name":"City of El Campo","admin3":"7173361"},{"geonameid":7174699,"name":"City of Wharton","admin3":"7174699"}],"alternateNames":[{"alternatenameId":1614423,"geonameid":4736286,"isoLanguage":"en","alternateName":"Texas","isPreferredName":true,"isShortName":true,"isColloquial":false,"isHistoric":false}]},"__N_SSG":true}