{"pageProps":{"locale":"en","admin2":{"geonameid":5372163,"name":"Mendocino County","country":"US","admin1":"CA","admin2":"045","admin3":"","latitude":"39.4336200","longitude":"-123.4315500"},"admin1":{"geonameid":5332921,"name":"California","admin1":"CA","localeAltName":"California"},"locations":[{"geonameid":5330040,"name":"Boonville","admin3":""},{"geonameid":5330993,"name":"Brooktrails","admin3":""},{"geonameid":5340160,"name":"Covelo","admin3":""},{"geonameid":5350039,"name":"Fort Bragg","admin3":""},{"geonameid":5365660,"name":"Laytonville","admin3":""},{"geonameid":5386943,"name":"Redwood Valley","admin3":""},{"geonameid":5400996,"name":"Talmage","admin3":""},{"geonameid":5404476,"name":"Ukiah","admin3":""},{"geonameid":5409500,"name":"Willits","admin3":""}],"admin3":[{"geonameid":11788329,"name":"City of Fort Bragg","admin3":"11788329"},{"geonameid":11788854,"name":"City of Willits","admin3":"11788854"},{"geonameid":11788962,"name":"City of Ukiah","admin3":"11788962"}],"alternateNames":[{"alternatenameId":1632217,"geonameid":5332921,"isoLanguage":"en","alternateName":"California","isPreferredName":true,"isShortName":true,"isColloquial":false,"isHistoric":false}]},"__N_SSG":true}