{"pageProps":{"locale":"en","admin2":{"geonameid":5387890,"name":"Riverside County","country":"US","admin1":"CA","admin2":"065","admin3":"","latitude":"33.7436800","longitude":"-115.9938600"},"admin1":{"geonameid":5332921,"name":"California","admin1":"CA","localeAltName":"California"},"locations":[{"geonameid":5322636,"name":"Aguanga","admin3":""},{"geonameid":5324249,"name":"Anza","admin3":""},{"geonameid":5326032,"name":"Banning","admin3":""},{"geonameid":5327098,"name":"Beaumont","admin3":""},{"geonameid":5327717,"name":"Bermuda Dunes","admin3":""},{"geonameid":5329649,"name":"Blythe","admin3":""},{"geonameid":5332374,"name":"Cabazon","admin3":""},{"geonameid":5332957,"name":"Calimesa","admin3":""},{"geonameid":5333976,"name":"Canyon Lake","admin3":""},{"geonameid":5335006,"name":"Cathedral City","admin3":""},{"geonameid":5336185,"name":"Cherry Valley","admin3":""},{"geonameid":5338166,"name":"Coachella","admin3":""},{"geonameid":5339631,"name":"Corona","admin3":""},{"geonameid":7220609,"name":"Desert Edge","admin3":""},{"geonameid":5342710,"name":"Desert Hot Springs","admin3":""},{"geonameid":5344942,"name":"East Hemet","admin3":""},{"geonameid":8096217,"name":"Eastvale","admin3":""},{"geonameid":5345624,"name":"El Cerrito Corona","admin3":""},{"geonameid":5351654,"name":"Garnet","admin3":""},{"geonameid":5352350,"name":"Glen Avon","admin3":""},{"geonameid":5353058,"name":"Good Hope","admin3":""},{"geonameid":5354008,"name":"Green Acres","admin3":""},{"geonameid":5356277,"name":"Hemet","admin3":""},{"geonameid":5356864,"name":"Highgrove","admin3":""},{"geonameid":5357731,"name":"Home Gardens","admin3":""},{"geonameid":5357755,"name":"Homeland","admin3":""},{"geonameid":5358901,"name":"Idyllwild","admin3":""},{"geonameid":7261464,"name":"Idyllwild-Pine Cove","admin3":""},{"geonameid":5359426,"name":"Indian Wells","admin3":""},{"geonameid":5359446,"name":"Indio","admin3":""},{"geonameid":5373492,"name":"Jurupa Valley","admin3":""},{"geonameid":5364079,"name":"La Quinta","admin3":""},{"geonameid":5364499,"name":"Lake Elsinore","admin3":""},{"geonameid":5364750,"name":"Lakeland Village","admin3":""},{"geonameid":5364826,"name":"Lakeview","admin3":""},{"geonameid":7261226,"name":"March Air Force Base","admin3":""},{"geonameid":5371858,"name":"Mead Valley","admin3":""},{"geonameid":7315200,"name":"Meadowbrook","admin3":""},{"geonameid":5371965,"name":"Mecca","admin3":""},{"geonameid":5372205,"name":"Menifee","admin3":""},{"geonameid":5372433,"name":"Mesa Verde","admin3":""},{"geonameid":5374732,"name":"Moreno Valley","admin3":""},{"geonameid":5375911,"name":"Murrieta","admin3":""},{"geonameid":5375916,"name":"Murrieta Hot Springs","admin3":""},{"geonameid":5377199,"name":"Norco","admin3":""},{"geonameid":5378087,"name":"Nuevo","admin3":""},{"geonameid":5378617,"name":"Oasis","admin3":""},{"geonameid":5380626,"name":"Palm Desert","admin3":""},{"geonameid":5380668,"name":"Palm Springs","admin3":""},{"geonameid":5381796,"name":"Pedley","admin3":""},{"geonameid":5382146,"name":"Perris","admin3":""},{"geonameid":5385346,"name":"Quail Valley","admin3":""},{"geonameid":5386015,"name":"Rancho Mirage","admin3":""},{"geonameid":5387877,"name":"Riverside","admin3":""},{"geonameid":5388644,"name":"Romoland","admin3":""},{"geonameid":5389213,"name":"Rubidoux","admin3":""},{"geonameid":5392090,"name":"San Jacinto","admin3":""},{"geonameid":5394273,"name":"Sedco Hills","admin3":""},{"geonameid":5396291,"name":"Sky Valley","admin3":""},{"geonameid":5399901,"name":"Sun City","admin3":""},{"geonameid":5400065,"name":"Sunnyslope","admin3":""},{"geonameid":5401395,"name":"Temecula","admin3":""},{"geonameid":5402152,"name":"Thermal","admin3":""},{"geonameid":5402415,"name":"Thousand Palms","admin3":""},{"geonameid":5405346,"name":"Valle Vista","admin3":""},{"geonameid":5406664,"name":"Vista Santa Rosa","admin3":""},{"geonameid":5409260,"name":"Wildomar","admin3":""},{"geonameid":5409959,"name":"Winchester","admin3":""},{"geonameid":5410382,"name":"Woodcrest","admin3":""}],"admin3":[{"geonameid":11788467,"name":"City of Coachella","admin3":"11788467"},{"geonameid":11788471,"name":"City of Desert Hot Springs","admin3":"11788471"},{"geonameid":11788497,"name":"City of Palm Desert","admin3":"11788497"},{"geonameid":11788501,"name":"City of Norco","admin3":"11788501"},{"geonameid":11788592,"name":"City of Lake Elsinore","admin3":"11788592"},{"geonameid":11788598,"name":"City of Moreno Valley","admin3":"11788598"},{"geonameid":11788602,"name":"City of Canyon Lake","admin3":"11788602"},{"geonameid":11788640,"name":"City of Beaumont","admin3":"11788640"},{"geonameid":11788652,"name":"City of La Quinta","admin3":"11788652"},{"geonameid":11788691,"name":"City of Perris","admin3":"11788691"},{"geonameid":11788698,"name":"City of Cathedral City","admin3":"11788698"},{"geonameid":11788758,"name":"City of Palm Springs","admin3":"11788758"},{"geonameid":11788808,"name":"City of Eastvale","admin3":"11788808"},{"geonameid":11788900,"name":"City of Riverside","admin3":"11788900"},{"geonameid":11788966,"name":"City of San Jacinto","admin3":"11788966"},{"geonameid":11788995,"name":"City of Jurupa Valley","admin3":"11788995"},{"geonameid":11789039,"name":"City of Indian Wells","admin3":"11789039"},{"geonameid":11789044,"name":"City of Rancho Mirage","admin3":"11789044"}],"alternateNames":[{"alternatenameId":1632217,"geonameid":5332921,"isoLanguage":"en","alternateName":"California","isPreferredName":true,"isShortName":true,"isColloquial":false,"isHistoric":false}]},"__N_SSG":true}