{"pageProps":{"locale":"en","admin2":{"geonameid":5403789,"name":"Tulare County","country":"US","admin1":"CA","admin2":"107","admin3":"","latitude":"36.2201600","longitude":"-118.8004700"},"admin1":{"geonameid":5332921,"name":"California","admin1":"CA","localeAltName":"California"},"locations":[{"geonameid":5323376,"name":"Alpaugh","admin3":""},{"geonameid":5341210,"name":"Cutler","admin3":""},{"geonameid":5343171,"name":"Dinuba","admin3":""},{"geonameid":5344702,"name":"Earlimart","admin3":""},{"geonameid":5345049,"name":"East Porterville","admin3":""},{"geonameid":5347239,"name":"Exeter","admin3":""},{"geonameid":5347742,"name":"Farmersville","admin3":""},{"geonameid":5353181,"name":"Goshen","admin3":""},{"geonameid":5359959,"name":"Ivanhoe","admin3":""},{"geonameid":5366604,"name":"Lindsay","admin3":""},{"geonameid":5367815,"name":"London","admin3":""},{"geonameid":7315551,"name":"Matheny","admin3":""},{"geonameid":5379755,"name":"Orosi","admin3":""},{"geonameid":7315552,"name":"Patterson Tract","admin3":""},{"geonameid":5383518,"name":"Pixley","admin3":""},{"geonameid":7262138,"name":"Poplar-Cotton Center","admin3":""},{"geonameid":5384471,"name":"Porterville","admin3":""},{"geonameid":5387411,"name":"Richgrove","admin3":""},{"geonameid":5399305,"name":"Strathmore","admin3":""},{"geonameid":5401670,"name":"Terra Bella","admin3":""},{"geonameid":7315561,"name":"Teviston","admin3":""},{"geonameid":5550366,"name":"Three Rivers","admin3":""},{"geonameid":5402740,"name":"Tipton","admin3":""},{"geonameid":5403783,"name":"Tulare","admin3":""},{"geonameid":5406567,"name":"Visalia","admin3":""},{"geonameid":5410416,"name":"Woodlake","admin3":""},{"geonameid":5410569,"name":"Woodville","admin3":""}],"admin3":[{"geonameid":11788417,"name":"City of Visalia","admin3":"11788417"},{"geonameid":11788528,"name":"City of Farmersville","admin3":"11788528"},{"geonameid":11788625,"name":"City of Porterville","admin3":"11788625"},{"geonameid":11788712,"name":"City of Exeter","admin3":"11788712"},{"geonameid":11788738,"name":"City of Lindsay","admin3":"11788738"},{"geonameid":11788882,"name":"City of Dinuba","admin3":"11788882"},{"geonameid":11788895,"name":"City of Woodlake","admin3":"11788895"}],"alternateNames":[{"alternatenameId":1632217,"geonameid":5332921,"isoLanguage":"en","alternateName":"California","isPreferredName":true,"isShortName":true,"isColloquial":false,"isHistoric":false}]},"__N_SSG":true}