{"pageProps":{"locale":"en","admin2":{"geonameid":5403973,"name":"Tuolumne County","country":"US","admin1":"CA","admin2":"109","admin3":"","latitude":"38.0276000","longitude":"-119.9547500"},"admin1":{"geonameid":5332921,"name":"California","admin1":"CA","localeAltName":"California"},"locations":[{"geonameid":5335256,"name":"Cedar Ridge","admin3":""},{"geonameid":5338800,"name":"Columbia","admin3":""},{"geonameid":5345098,"name":"East Sonora","admin3":""},{"geonameid":5360382,"name":"Jamestown","admin3":""},{"geonameid":5374128,"name":"Mono Vista","admin3":""},{"geonameid":8479427,"name":"Phoenix Lake","admin3":""},{"geonameid":5397165,"name":"Sonora","admin3":""},{"geonameid":5397227,"name":"Soulsbyville","admin3":""},{"geonameid":5403971,"name":"Tuolumne City","admin3":""},{"geonameid":5404141,"name":"Twain Harte","admin3":""}],"admin3":[{"geonameid":11788555,"name":"City of Sonora","admin3":"11788555"}],"alternateNames":[{"alternatenameId":1632217,"geonameid":5332921,"isoLanguage":"en","alternateName":"California","isPreferredName":true,"isShortName":true,"isColloquial":false,"isHistoric":false}]},"__N_SSG":true}