{"pageProps":{"locale":"en","admin2":{"geonameid":5411026,"name":"Yuba County","country":"US","admin1":"CA","admin2":"115","admin3":"","latitude":"39.2690200","longitude":"-121.3512600"},"admin1":{"geonameid":5332921,"name":"California","admin1":"CA","localeAltName":"California"},"locations":[{"geonameid":7260863,"name":"Beale Air Force Base","admin3":""},{"geonameid":7261058,"name":"Challenge-Brownsville","admin3":""},{"geonameid":5366531,"name":"Linda","admin3":""},{"geonameid":5367721,"name":"Loma Rica","admin3":""},{"geonameid":5370984,"name":"Marysville","admin3":""},{"geonameid":5379264,"name":"Olivehurst","admin3":""},{"geonameid":5383844,"name":"Plumas Lake","admin3":""},{"geonameid":5408617,"name":"Wheatland","admin3":""}],"admin3":[{"geonameid":11788364,"name":"City of Marysville","admin3":"11788364"},{"geonameid":11788594,"name":"City of Wheatland","admin3":"11788594"}],"alternateNames":[{"alternatenameId":1632217,"geonameid":5332921,"isoLanguage":"en","alternateName":"California","isPreferredName":true,"isShortName":true,"isColloquial":false,"isHistoric":false}]},"__N_SSG":true}