{"pageProps":{"locale":"en","admin2":{"geonameid":5917147,"name":"Carleton County","country":"CA","admin1":"04","admin2":"1311","admin3":"","latitude":"46.3333900","longitude":"-67.4156000"},"admin1":{"geonameid":6087430,"name":"New Brunswick/Nouveau-Brunswick","admin1":"04"},"locations":[{"geonameid":12089215,"name":"Argyle","admin3":""},{"geonameid":12095421,"name":"Armond","admin3":""},{"geonameid":12095422,"name":"Ashland","admin3":""},{"geonameid":12089437,"name":"Avondale","admin3":""},{"geonameid":12089438,"name":"Avondale Road","admin3":""},{"geonameid":12095423,"name":"Bannon","admin3":""},{"geonameid":12089206,"name":"Bath","admin3":""},{"geonameid":12077039,"name":"Beardsley","admin3":""},{"geonameid":12089216,"name":"Beaufort","admin3":""},{"geonameid":12089323,"name":"Beckim Settlement","admin3":""},{"geonameid":12095536,"name":"Bedell","admin3":""},{"geonameid":12089046,"name":"Beechwood","admin3":""},{"geonameid":12095537,"name":"Belleville","admin3":""},{"geonameid":12089218,"name":"Biggar Ridge","admin3":""},{"geonameid":12095443,"name":"Blowdown","admin3":""},{"geonameid":12089440,"name":"Bradley Corner","admin3":""},{"geonameid":12095554,"name":"Briggs Corner (Highway 550)","admin3":""},{"geonameid":12088910,"name":"Brighton","admin3":""},{"geonameid":12123374,"name":"Bristol","admin3":""},{"geonameid":12089441,"name":"Bristol Junction","admin3":""},{"geonameid":12095424,"name":"Bubartown","admin3":""},{"geonameid":12095425,"name":"Carlisle","admin3":""},{"geonameid":12089048,"name":"Carlow","admin3":""},{"geonameid":12089324,"name":"Carvell","admin3":""},{"geonameid":12089320,"name":"Centre Glassville","admin3":""},{"geonameid":12089219,"name":"Chapmanville","admin3":""},{"geonameid":12089442,"name":"Charleston","admin3":""},{"geonameid":12089051,"name":"Clearview","admin3":""},{"geonameid":12095426,"name":"Cloverdale","admin3":""},{"geonameid":12095427,"name":"Coldstream","admin3":""},{"geonameid":12089443,"name":"Connell","admin3":""},{"geonameid":12095444,"name":"Debec","admin3":""},{"geonameid":12095829,"name":"Debec Junction","admin3":""},{"geonameid":12089439,"name":"Deerville","admin3":""},{"geonameid":12096216,"name":"Dibblee","admin3":""},{"geonameid":12089326,"name":"Digby Corner","admin3":""},{"geonameid":12089220,"name":"Divide","admin3":""},{"geonameid":12095428,"name":"East Brighton","admin3":""},{"geonameid":12089444,"name":"East Centreville","admin3":""},{"geonameid":12095429,"name":"East Cloverdale","admin3":""},{"geonameid":12095430,"name":"East Coldstream","admin3":""},{"geonameid":12089321,"name":"East Glassville","admin3":""},{"geonameid":12095431,"name":"East Knowlesville","admin3":""},{"geonameid":12096343,"name":"East Newbridge","admin3":""},{"geonameid":12095445,"name":"Elmwood","admin3":""},{"geonameid":12095446,"name":"Elmwood Station","admin3":""},{"geonameid":12095432,"name":"Esdraelon","admin3":""},{"geonameid":12089445,"name":"Fielding","admin3":""},{"geonameid":12096302,"name":"Flemington","admin3":""},{"geonameid":8581594,"name":"Florenceville-Bristol","admin3":""},{"geonameid":12089225,"name":"Foreston","admin3":""},{"geonameid":12089052,"name":"Giberson Settlement","admin3":""},{"geonameid":12123274,"name":"Glassville","admin3":""},{"geonameid":12089436,"name":"Good Corner","admin3":""},{"geonameid":12089446,"name":"Gordonsville","admin3":""},{"geonameid":12096303,"name":"Grafton","admin3":""},{"geonameid":12096304,"name":"Grafton Hill","admin3":""},{"geonameid":12095454,"name":"Green Road","admin3":""},{"geonameid":12089447,"name":"Greenfield","admin3":""},{"geonameid":12089450,"name":"Gregg Settlement","admin3":""},{"geonameid":12095403,"name":"Hale","admin3":""},{"geonameid":12089053,"name":"Halls Corner","admin3":""},{"geonameid":12096344,"name":"Harten Corner","admin3":""},{"geonameid":12096305,"name":"Hartford","admin3":""},{"geonameid":12089434,"name":"Hartley Settlement","admin3":""},{"geonameid":12096306,"name":"Hay Settlement","admin3":""},{"geonameid":12089227,"name":"Hayden Ridge","admin3":""},{"geonameid":12095433,"name":"Hemphill Corner","admin3":""},{"geonameid":12095434,"name":"Highlands","admin3":""},{"geonameid":12096307,"name":"Hillman","admin3":""},{"geonameid":12089054,"name":"Holmesville","admin3":""},{"geonameid":12095405,"name":"Hunters Corner","admin3":""},{"geonameid":12095455,"name":"Jackson Falls","admin3":""},{"geonameid":12095406,"name":"Jacksontown","admin3":""},{"geonameid":12077040,"name":"Jacksonville","admin3":""},{"geonameid":12095435,"name":"Jericho","admin3":""},{"geonameid":12089055,"name":"Johnville","admin3":""},{"geonameid":12089232,"name":"Kenneth","admin3":""},{"geonameid":12095436,"name":"Ketchum Ridge","admin3":""},{"geonameid":12089056,"name":"Kilfoil","admin3":""},{"geonameid":12089133,"name":"Killoween","admin3":""},{"geonameid":12096345,"name":"Kilmarnock","admin3":""},{"geonameid":12123275,"name":"Knowlesville","admin3":""},{"geonameid":12123272,"name":"Knoxford","admin3":""},{"geonameid":12095407,"name":"Lamoreaux Corner","admin3":""},{"geonameid":12095408,"name":"Lansdowne","admin3":""},{"geonameid":12096308,"name":"Limestone","admin3":""},{"geonameid":12095411,"name":"Lindsay","admin3":""},{"geonameid":12089136,"name":"Listerville","admin3":""},{"geonameid":12095412,"name":"Lockharts Mill","admin3":""},{"geonameid":12089327,"name":"Long Settlement","admin3":""},{"geonameid":12095413,"name":"Lower Bloomfield","admin3":""},{"geonameid":12095437,"name":"Lower Brighton","admin3":""},{"geonameid":12089448,"name":"Lower Greenfield","admin3":""},{"geonameid":12089433,"name":"Lower Knoxford","admin3":""},{"geonameid":12096309,"name":"Lower Northampton","admin3":""},{"geonameid":12095415,"name":"Lower Royalton","admin3":""},{"geonameid":12096310,"name":"Lower Wakefield","admin3":""},{"geonameid":12095438,"name":"Lower Windsor","admin3":""},{"geonameid":12096311,"name":"Lower Woodstock","admin3":""},{"geonameid":12089234,"name":"MacIntosh Mill","admin3":""},{"geonameid":12095439,"name":"Mainstream","admin3":""},{"geonameid":12096312,"name":"Mapledale","admin3":""},{"geonameid":12089134,"name":"Maplehurst","admin3":""},{"geonameid":12089431,"name":"McGrath Corner","admin3":""},{"geonameid":12096313,"name":"McKenna","admin3":""},{"geonameid":12095533,"name":"McKenzie Corner","admin3":""},{"geonameid":12095416,"name":"McMonagle Corner","admin3":""},{"geonameid":12089137,"name":"Mineral","admin3":""},{"geonameid":12089138,"name":"Monquart","admin3":""},{"geonameid":12089139,"name":"Moose Mountain","admin3":""},{"geonameid":12089140,"name":"Murphy Corner","admin3":""},{"geonameid":12096314,"name":"Newbridge","admin3":""},{"geonameid":12096315,"name":"Newburg","admin3":""},{"geonameid":12096316,"name":"Newburg Junction","admin3":""},{"geonameid":12123228,"name":"North Ridge","admin3":""},{"geonameid":12123277,"name":"Northampton","admin3":""},{"geonameid":12095410,"name":"Oakland","admin3":""},{"geonameid":12077038,"name":"Oakville","admin3":""},{"geonameid":12089432,"name":"Orchards Corner","admin3":""},{"geonameid":12095404,"name":"Peel","admin3":""},{"geonameid":12077041,"name":"Pembroke","admin3":""},{"geonameid":12089141,"name":"Piercemont","admin3":""},{"geonameid":12096317,"name":"Plymouth","admin3":""},{"geonameid":12095440,"name":"Pole Hill","admin3":""},{"geonameid":12096856,"name":"Red Bridge","admin3":""},{"geonameid":12096402,"name":"Riceville","admin3":""},{"geonameid":12096319,"name":"Richmond Corner","admin3":""},{"geonameid":12096320,"name":"Richmond Settlement","admin3":""},{"geonameid":4960922,"name":"River De Chute","admin3":""},{"geonameid":12089143,"name":"River de Chute Siding","admin3":""},{"geonameid":12095417,"name":"Rockland","admin3":""},{"geonameid":12096321,"name":"Rosedale","admin3":""},{"geonameid":12123273,"name":"Royalton","admin3":""},{"geonameid":12095418,"name":"Somerville","admin3":""},{"geonameid":12095441,"name":"South Gordonsville","admin3":""},{"geonameid":12096322,"name":"South Greenfield","admin3":""},{"geonameid":12089142,"name":"South Johnville","admin3":""},{"geonameid":12095442,"name":"South Knowlesville","admin3":""},{"geonameid":12089243,"name":"South Ridge","admin3":""},{"geonameid":12096323,"name":"Speerville","admin3":""},{"geonameid":12095409,"name":"Stickney","admin3":""},{"geonameid":12095419,"name":"Strong Corner","admin3":""},{"geonameid":12089144,"name":"Tarrtown","admin3":""},{"geonameid":12096324,"name":"Teeds Mills","admin3":""},{"geonameid":12089435,"name":"Tracey Mills","admin3":""},{"geonameid":12089145,"name":"Tweedie","admin3":""},{"geonameid":12095534,"name":"Union Corner","admin3":""},{"geonameid":12095420,"name":"Upper Brighton","admin3":""},{"geonameid":12089146,"name":"Upper Kent","admin3":""},{"geonameid":12089211,"name":"Upper Knoxford","admin3":""},{"geonameid":12096325,"name":"Upper Northampton","admin3":""},{"geonameid":12089214,"name":"Upper Royalton","admin3":""},{"geonameid":12089147,"name":"Upper Wicklow","admin3":""},{"geonameid":12088907,"name":"Victoria Corner","admin3":""},{"geonameid":12089449,"name":"Wakem Corner","admin3":""},{"geonameid":12095535,"name":"Watson Settlement","admin3":""},{"geonameid":12089244,"name":"Welch","admin3":""},{"geonameid":12089322,"name":"West Glassville","admin3":""},{"geonameid":12095414,"name":"Weston","admin3":""},{"geonameid":12077037,"name":"Wicklow","admin3":""},{"geonameid":12123276,"name":"Windsor","admin3":""}],"admin3":[],"alternateNames":[]},"__N_SSG":true}