{"pageProps":{"locale":"it","admin2":{"geonameid":3167021,"name":"Provincia di Savona","country":"IT","admin1":"08","admin2":"SV","admin3":"","latitude":"44.3000000","longitude":"8.2666700","localeAltName":"Savona"},"admin1":{"geonameid":3174725,"name":"Liguria","admin1":"08","localeAltName":"Liguria"},"locations":[{"geonameid":3183366,"name":"Alassio","admin3":"009001","localeAltName":null},{"geonameid":3183343,"name":"Albenga","admin3":"009002","localeAltName":null},{"geonameid":3183314,"name":"Albisola Marina","admin3":"009003","localeAltName":null},{"geonameid":6534243,"name":"Albisola Superiore","admin3":"009004","localeAltName":null},{"geonameid":3183174,"name":"Altare","admin3":"009005","localeAltName":null},{"geonameid":6534432,"name":"Andora","admin3":"009006","localeAltName":null},{"geonameid":6534433,"name":"Arnasco","admin3":"009007","localeAltName":null},{"geonameid":3182365,"name":"Bardineto","admin3":"009009","localeAltName":null},{"geonameid":8949447,"name":"Bastia","admin3":"009002","localeAltName":null},{"geonameid":3182161,"name":"Bergeggi","admin3":"009010","localeAltName":null},{"geonameid":6535082,"name":"Boissano","admin3":"009011","localeAltName":null},{"geonameid":3181832,"name":"Borghetto Santo Spirito","admin3":"009012","localeAltName":null},{"geonameid":6534434,"name":"Borgio","admin3":"009013","localeAltName":null},{"geonameid":8948844,"name":"Bormida-Genepro","admin3":"009023","localeAltName":null},{"geonameid":3181259,"name":"Cairo Montenotte","admin3":"009015","localeAltName":null},{"geonameid":6535083,"name":"Calice Ligure","admin3":"009016","localeAltName":null},{"geonameid":3181186,"name":"Calizzano","admin3":"009017","localeAltName":null},{"geonameid":8949261,"name":"Campochiesa","admin3":"009002","localeAltName":null},{"geonameid":3180557,"name":"Carcare","admin3":"009018","localeAltName":null},{"geonameid":3179204,"name":"Celle Ligure","admin3":"009022","localeAltName":null},{"geonameid":3179079,"name":"Ceriale","admin3":"009024","localeAltName":null},{"geonameid":3178643,"name":"Cisano","admin3":"009025","localeAltName":null},{"geonameid":3177632,"name":"Dego","admin3":"009027","localeAltName":null},{"geonameid":8950322,"name":"Ellera","admin3":"009004","localeAltName":null},{"geonameid":8950136,"name":"Feglino","admin3":"009044","localeAltName":null},{"geonameid":3177092,"name":"Ferrania","admin3":"009015","localeAltName":null},{"geonameid":3176982,"name":"Finale Ligure","admin3":"009029","localeAltName":null},{"geonameid":3176297,"name":"Garlenda","admin3":"009030","localeAltName":null},{"geonameid":6534711,"name":"Giustenice","admin3":"009031","localeAltName":null},{"geonameid":8950356,"name":"Gorra","admin3":"009029","localeAltName":null},{"geonameid":3175239,"name":"Laigueglia","admin3":"009033","localeAltName":null},{"geonameid":3174649,"name":"Loano","admin3":"009034","localeAltName":null},{"geonameid":6534373,"name":"Magliolo","admin3":"009035","localeAltName":null},{"geonameid":6534374,"name":"Mallare","admin3":"009036","localeAltName":null},{"geonameid":3173937,"name":"Marina di Andora","admin3":"009006","localeAltName":null},{"geonameid":3173410,"name":"Millesimo","admin3":"009038","localeAltName":null},{"geonameid":3173229,"name":"Molino Nuovo","admin3":"009006","localeAltName":null},{"geonameid":3172444,"name":"Murialdo","admin3":"009040","localeAltName":null},{"geonameid":3172225,"name":"Noli","admin3":"009042","localeAltName":null},{"geonameid":6534714,"name":"Orco Feglino","admin3":"009044","localeAltName":null},{"geonameid":3171883,"name":"Ortovero","admin3":"009045","localeAltName":null},{"geonameid":3171589,"name":"Pallare","admin3":"009047","localeAltName":null},{"geonameid":3175561,"name":"Pero","admin3":"009065","localeAltName":null},{"geonameid":8949833,"name":"Pian Rosso-Costa","admin3":"009006","localeAltName":null},{"geonameid":3171027,"name":"Piana Crixia","admin3":"009048","localeAltName":null},{"geonameid":3170797,"name":"Pietra Ligure","admin3":"009049","localeAltName":null},{"geonameid":3169670,"name":"Quiliano","admin3":"009052","localeAltName":null},{"geonameid":6534715,"name":"Roccavignale","admin3":"009054","localeAltName":null},{"geonameid":8949674,"name":"Rocchetta Cairo","admin3":"009015","localeAltName":null},{"geonameid":8949110,"name":"San Fedele-Lusignano","admin3":"009002","localeAltName":null},{"geonameid":3168051,"name":"San Martino","admin3":"009058","localeAltName":null},{"geonameid":8949506,"name":"Sant'Ermete","admin3":"009064","localeAltName":null},{"geonameid":8949546,"name":"Santuario","admin3":"009056","localeAltName":null},{"geonameid":3167092,"name":"Sassello","admin3":"009055","localeAltName":null},{"geonameid":3167022,"name":"Savona","admin3":"009056","localeAltName":null},{"geonameid":3166228,"name":"Spotorno","admin3":"009057","localeAltName":null},{"geonameid":3166169,"name":"Stellanello","admin3":"009059","localeAltName":null},{"geonameid":3165601,"name":"Toirano","admin3":"009061","localeAltName":null},{"geonameid":6535087,"name":"Tovo San Giacomo","admin3":"009062","localeAltName":null},{"geonameid":3173840,"name":"Urbe","admin3":"009063","localeAltName":null},{"geonameid":8948779,"name":"Vado Centro","admin3":"009064","localeAltName":null},{"geonameid":3164988,"name":"Vado Ligure","admin3":"009064","localeAltName":null},{"geonameid":8949186,"name":"Valle di Vado","admin3":"009064","localeAltName":null},{"geonameid":8948867,"name":"Valleggia","admin3":"009052","localeAltName":null},{"geonameid":8950240,"name":"Valzemola","admin3":"009054","localeAltName":null},{"geonameid":3164709,"name":"Varazze","admin3":"009065","localeAltName":null},{"geonameid":3164693,"name":"Varigotti","admin3":"009029","localeAltName":null},{"geonameid":6534720,"name":"Vezzi Portio","admin3":"009067","localeAltName":null},{"geonameid":8949300,"name":"Villafranca","admin3":"009030","localeAltName":null},{"geonameid":3164185,"name":"Villanova d'Albenga","admin3":"009068","localeAltName":null},{"geonameid":3163941,"name":"Voze","admin3":"009042","localeAltName":null}],"admin3":[{"geonameid":3165037,"name":"Urbe","admin3":"009063","localeAltName":null},{"geonameid":3183313,"name":"Albisola Superiore","admin3":"009004","localeAltName":null},{"geonameid":6536080,"name":"Cairo Montenotte","admin3":"009015","localeAltName":null},{"geonameid":6536081,"name":"Calizzano","admin3":"009017","localeAltName":null},{"geonameid":6536082,"name":"Erli","admin3":"009028"},{"geonameid":6536083,"name":"Loano","admin3":"009034","localeAltName":null},{"geonameid":6536087,"name":"Millesimo","admin3":"009038","localeAltName":null},{"geonameid":6536088,"name":"Nasino","admin3":"009041"},{"geonameid":6536089,"name":"Varazze","admin3":"009065","localeAltName":null},{"geonameid":6536362,"name":"Cisano sul Neva","admin3":"009025","localeAltName":null},{"geonameid":6536363,"name":"Garlenda","admin3":"009030","localeAltName":null},{"geonameid":6536364,"name":"Piana Crixia","admin3":"009048","localeAltName":null},{"geonameid":6536365,"name":"Stellanello","admin3":"009059","localeAltName":null},{"geonameid":6536469,"name":"Alassio","admin3":"009001","localeAltName":null},{"geonameid":6536470,"name":"Bergeggi","admin3":"009010","localeAltName":null},{"geonameid":6537049,"name":"Altare","admin3":"009005","localeAltName":null},{"geonameid":6537050,"name":"Carcare","admin3":"009018","localeAltName":null},{"geonameid":6537051,"name":"Osiglia","admin3":"009046"},{"geonameid":6537052,"name":"Pietra Ligure","admin3":"009049","localeAltName":null},{"geonameid":6537053,"name":"Pontinvrea","admin3":"009051"},{"geonameid":6537054,"name":"Sassello","admin3":"009055","localeAltName":null},{"geonameid":6537055,"name":"Spotorno","admin3":"009057","localeAltName":null},{"geonameid":6539671,"name":"Albenga","admin3":"009002","localeAltName":null},{"geonameid":6539775,"name":"Zuccarello","admin3":"009069"},{"geonameid":6540146,"name":"Ceriale","admin3":"009024","localeAltName":null},{"geonameid":6540147,"name":"Testico","admin3":"009060"},{"geonameid":6540263,"name":"Cengio","admin3":"009023","localeAltName":null},{"geonameid":6540276,"name":"Murialdo","admin3":"009040","localeAltName":null},{"geonameid":6540320,"name":"Balestrino","admin3":"009008"},{"geonameid":6540554,"name":"Bardineto","admin3":"009009","localeAltName":null},{"geonameid":6540555,"name":"Dego","admin3":"009027","localeAltName":null},{"geonameid":6540556,"name":"Laigueglia","admin3":"009033","localeAltName":null},{"geonameid":6540557,"name":"Pallare","admin3":"009047","localeAltName":null},{"geonameid":6540558,"name":"Quiliano","admin3":"009052","localeAltName":null},{"geonameid":6540559,"name":"Toirano","admin3":"009061","localeAltName":null},{"geonameid":6541488,"name":"Noli","admin3":"009042","localeAltName":null},{"geonameid":6541489,"name":"Albissola Marina","admin3":"009003","localeAltName":null},{"geonameid":6541514,"name":"Celle Ligure","admin3":"009022","localeAltName":null},{"geonameid":6541515,"name":"Finale Ligure","admin3":"009029","localeAltName":null},{"geonameid":6541623,"name":"Villanova d'Albenga","admin3":"009068","localeAltName":null},{"geonameid":6541657,"name":"Borghetto Santo Spirito","admin3":"009012","localeAltName":null},{"geonameid":6541658,"name":"Ortovero","admin3":"009045","localeAltName":null},{"geonameid":6541659,"name":"Vado Ligure","admin3":"009064","localeAltName":null},{"geonameid":6542009,"name":"Savona","admin3":"009056","localeAltName":null},{"geonameid":6542440,"name":"Cosseria","admin3":"009026"},{"geonameid":6542441,"name":"Giusvalla","admin3":"009032"},{"geonameid":6542442,"name":"Magliolo","admin3":"009035","localeAltName":null},{"geonameid":6542443,"name":"Mallare","admin3":"009036","localeAltName":null},{"geonameid":6542448,"name":"Mioglia","admin3":"009039"},{"geonameid":6542449,"name":"Plodio","admin3":"009050"},{"geonameid":6542450,"name":"Rialto","admin3":"009053"},{"geonameid":6542498,"name":"Andora","admin3":"009006","localeAltName":null},{"geonameid":6542499,"name":"Arnasco","admin3":"009007","localeAltName":null},{"geonameid":6542500,"name":"Borgio Verezzi","admin3":"009013","localeAltName":null},{"geonameid":6542501,"name":"Bormida","admin3":"009014"},{"geonameid":6542745,"name":"Castelbianco","admin3":"009020"},{"geonameid":6542746,"name":"Giustenice","admin3":"009031","localeAltName":null},{"geonameid":6542748,"name":"Onzo","admin3":"009043"},{"geonameid":6542749,"name":"Orco Feglino","admin3":"009044","localeAltName":null},{"geonameid":6542750,"name":"Roccavignale","admin3":"009054","localeAltName":null},{"geonameid":6542751,"name":"Stella","admin3":"009058","localeAltName":null},{"geonameid":6542754,"name":"Vendone","admin3":"009066"},{"geonameid":6542755,"name":"Vezzi Portio","admin3":"009067","localeAltName":null},{"geonameid":6543068,"name":"Boissano","admin3":"009011","localeAltName":null},{"geonameid":6543069,"name":"Calice Ligure","admin3":"009016","localeAltName":null},{"geonameid":6543070,"name":"Casanova Lerrone","admin3":"009019"},{"geonameid":6543071,"name":"Castelvecchio di Rocca Barbena","admin3":"009021"},{"geonameid":6543072,"name":"Massimino","admin3":"009037"},{"geonameid":6543073,"name":"Tovo San Giacomo","admin3":"009062","localeAltName":null}],"alternateNames":[{"alternatenameId":1347941,"geonameid":3167021,"isoLanguage":"it","alternateName":"Savona","isPreferredName":true,"isShortName":true,"isColloquial":false,"isHistoric":false},{"alternatenameId":1350376,"geonameid":3174725,"isoLanguage":"it","alternateName":"Liguria","isPreferredName":true,"isShortName":true,"isColloquial":false,"isHistoric":false},{"alternatenameId":2254513,"geonameid":3174725,"isoLanguage":"en","alternateName":"Liguria","isPreferredName":true,"isShortName":true,"isColloquial":false,"isHistoric":false}]},"__N_SSG":true}