{"pageProps":{"locale":"en","admin2":{"geonameid":4243719,"name":"Macon County","country":"US","admin1":"IL","admin2":"115","admin3":"","latitude":"39.8600000","longitude":"-88.9616000","localeAltName":null},"admin1":{"geonameid":4896861,"name":"Illinois","admin1":"IL","localeAltName":"Illinois"},"locations":[{"geonameid":4232876,"name":"Argenta","admin3":"27988","localeAltName":null},{"geonameid":4234081,"name":"Blue Mound","admin3":"60677","localeAltName":null},{"geonameid":4235645,"name":"Chapin","admin3":"54859","localeAltName":null},{"geonameid":4236895,"name":"Decatur","admin3":"18836","localeAltName":null},{"geonameid":4238858,"name":"Forsyth","admin3":"34527","localeAltName":null},{"geonameid":4240306,"name":"Harristown","admin3":"33240","localeAltName":null},{"geonameid":4243455,"name":"Long Creek","admin3":"44511","localeAltName":null},{"geonameid":4243717,"name":"Macon","admin3":"70967","localeAltName":null},{"geonameid":4901249,"name":"Maroa","admin3":"47085","localeAltName":null},{"geonameid":4245174,"name":"Mount Zion","admin3":"51219","localeAltName":null},{"geonameid":4245709,"name":"Niantic","admin3":"52974","localeAltName":null},{"geonameid":4246442,"name":"Oreana","admin3":"81464","localeAltName":null},{"geonameid":4252469,"name":"Warrensburg","admin3":"37023","localeAltName":null}],"admin3":[{"geonameid":4233066,"name":"Township of Austin","admin3":"03051"},{"geonameid":4234087,"name":"Township of Blue Mound","admin3":"06769"},{"geonameid":4236910,"name":"Township of Decatur","admin3":"18836","localeAltName":null},{"geonameid":4240310,"name":"Township of Harristown","admin3":"33240","localeAltName":null},{"geonameid":4240641,"name":"Township of Hickory Point","admin3":"34527","localeAltName":null},{"geonameid":4241248,"name":"Township of Illini","admin3":"37023","localeAltName":null},{"geonameid":4243460,"name":"Township of Long Creek","admin3":"44511","localeAltName":null},{"geonameid":4245240,"name":"Township of Mount Zion","admin3":"51219","localeAltName":null},{"geonameid":4245710,"name":"Township of Niantic","admin3":"52974","localeAltName":null},{"geonameid":4246113,"name":"Township of Oakley","admin3":"54859","localeAltName":null},{"geonameid":4247299,"name":"Township of Pleasant View","admin3":"60677","localeAltName":null},{"geonameid":4250344,"name":"Township of South Macon","admin3":"70967","localeAltName":null},{"geonameid":4250388,"name":"Township of South Wheatland","admin3":"71357"},{"geonameid":4253059,"name":"Township of Whitmore","admin3":"81464","localeAltName":null},{"geonameid":4893230,"name":"Township of Friends Creek","admin3":"27988","localeAltName":null},{"geonameid":4901253,"name":"Township of Maroa","admin3":"47085","localeAltName":null}],"alternateNames":[{"alternatenameId":2089562,"geonameid":4896861,"isoLanguage":"en","alternateName":"Illinois","isPreferredName":true,"isShortName":true,"isColloquial":false,"isHistoric":false}]},"__N_SSG":true}