{"pageProps":{"locale":"en","admin2":{"geonameid":4912492,"name":"Stephenson County","country":"US","admin1":"IL","admin2":"177","admin3":"","latitude":"42.3517500","longitude":"-89.6623500","localeAltName":null},"admin1":{"geonameid":4896861,"name":"Illinois","admin1":"IL","localeAltName":"Illinois"},"locations":[{"geonameid":4886857,"name":"Cedarville","admin3":"09226","localeAltName":null},{"geonameid":4889481,"name":"Davis","admin3":"65143","localeAltName":null},{"geonameid":4893171,"name":"Freeport","admin3":"27897","localeAltName":null},{"geonameid":4832074,"name":"Lena","admin3":"80788","localeAltName":null},{"geonameid":4904882,"name":"Orangeville","admin3":"56120","localeAltName":null},{"geonameid":4905559,"name":"Pearl City","admin3":"44758","localeAltName":null}],"admin3":[{"geonameid":4885888,"name":"Township of Buckeye","admin3":"09226","localeAltName":null},{"geonameid":4889357,"name":"Township of Dakota","admin3":"18355"},{"geonameid":4891253,"name":"Township of Erin","admin3":"24413"},{"geonameid":4892674,"name":"Township of Florence","admin3":"26506"},{"geonameid":4893185,"name":"Township of Freeport","admin3":"27897","localeAltName":null},{"geonameid":4895135,"name":"Township of Harlem","admin3":"32902"},{"geonameid":4897823,"name":"Township of Jefferson","admin3":"38284"},{"geonameid":4898392,"name":"Township of Kent","admin3":"39610"},{"geonameid":4899297,"name":"Township of Lancaster","admin3":"41885"},{"geonameid":4900501,"name":"Township of Loran","admin3":"44758","localeAltName":null},{"geonameid":4904830,"name":"Township of Oneco","admin3":"56120","localeAltName":null},{"geonameid":4907586,"name":"Township of Ridott","admin3":"64057"},{"geonameid":4907905,"name":"Township of Rock Grove","admin3":"65065"},{"geonameid":4907944,"name":"Township of Rock Run","admin3":"65143","localeAltName":null},{"geonameid":4911492,"name":"Township of Silver Creek","admin3":"69953"},{"geonameid":4915289,"name":"Township of Waddams","admin3":"78318"},{"geonameid":4916069,"name":"Township of West Point","admin3":"80788","localeAltName":null},{"geonameid":4916881,"name":"Township of Winslow","admin3":"82556"}],"alternateNames":[{"alternatenameId":2089562,"geonameid":4896861,"isoLanguage":"en","alternateName":"Illinois","isPreferredName":true,"isShortName":true,"isColloquial":false,"isHistoric":false}]},"__N_SSG":true}