{"pageProps":{"locale":"en","admin2":{"geonameid":4552182,"name":"Stephens County","country":"US","admin1":"OK","admin2":"137","admin3":"","latitude":"34.4855900","longitude":"-97.8514800","localeAltName":null},"admin1":{"geonameid":4544379,"name":"Oklahoma","admin1":"OK","localeAltName":"Oklahoma"},"locations":[{"geonameid":4531300,"name":"Bray","admin3":"","localeAltName":null},{"geonameid":4532776,"name":"Central High","admin3":"","localeAltName":null},{"geonameid":4533928,"name":"Comanche","admin3":"","localeAltName":null},{"geonameid":4535389,"name":"Duncan","admin3":"","localeAltName":null},{"geonameid":4535949,"name":"Empire City","admin3":"","localeAltName":null},{"geonameid":4542179,"name":"Marlow","admin3":"","localeAltName":null},{"geonameid":4542643,"name":"Meridian","admin3":"","localeAltName":null},{"geonameid":4554395,"name":"Velma","admin3":"","localeAltName":null}],"admin3":[],"alternateNames":[{"alternatenameId":2089556,"geonameid":4544379,"isoLanguage":"en","alternateName":"Oklahoma","isPreferredName":true,"isShortName":true,"isColloquial":false,"isHistoric":false}]},"__N_SSG":true}