{"pageProps":{"locale":"en","admin2":{"geonameid":5880573,"name":"Bethel Census Area","country":"US","admin1":"AK","admin2":"050","admin3":"","latitude":"60.7505600","longitude":"-160.5005600","localeAltName":null},"admin1":{"geonameid":5879092,"name":"Alaska","admin1":"AK","localeAltName":"Alaska"},"locations":[{"geonameid":5878990,"name":"Akiachak","admin3":"","localeAltName":null},{"geonameid":5879487,"name":"Aniak","admin3":"","localeAltName":null},{"geonameid":5880568,"name":"Bethel","admin3":"","localeAltName":null},{"geonameid":5865891,"name":"Kasigluk","admin3":"","localeAltName":null},{"geonameid":5866390,"name":"Kipnuk","admin3":"","localeAltName":null},{"geonameid":5866985,"name":"Kwethluk","admin3":"","localeAltName":null},{"geonameid":5870502,"name":"Nunapitchuk","admin3":"","localeAltName":null},{"geonameid":5872343,"name":"Quinhagak","admin3":"","localeAltName":null},{"geonameid":5876385,"name":"Toksook Bay","admin3":"","localeAltName":null}],"admin3":[],"alternateNames":[{"alternatenameId":2089569,"geonameid":5879092,"isoLanguage":"en","alternateName":"Alaska","isPreferredName":true,"isShortName":true,"isColloquial":false,"isHistoric":false}]},"__N_SSG":true}