{"pageProps":{"locale":"it","admin2":{"geonameid":3177699,"name":"Provincia di Cuneo","country":"IT","admin1":"12","admin2":"CN","admin3":"","latitude":"44.5166700","longitude":"7.5666700","localeAltName":"Cuneo"},"admin1":{"geonameid":3170831,"name":"Piemonte","admin1":"12","localeAltName":null},"locations":[{"geonameid":3183364,"name":"Alba","admin3":"004003","localeAltName":null},{"geonameid":3182546,"name":"Bagnasco","admin3":"004008","localeAltName":null},{"geonameid":3182499,"name":"Bagnolo Piemonte","admin3":"004009","localeAltName":null},{"geonameid":8948958,"name":"Bandito","admin3":"004029","localeAltName":null},{"geonameid":8949699,"name":"Baraccone","admin3":"004046","localeAltName":null},{"geonameid":3182356,"name":"Barge","admin3":"004012","localeAltName":null},{"geonameid":3182244,"name":"Beinette","admin3":"004016","localeAltName":null},{"geonameid":3182181,"name":"Bene Vagienna","admin3":"004019","localeAltName":null},{"geonameid":6535841,"name":"Bernezzo","admin3":"004022","localeAltName":null},{"geonameid":8949287,"name":"Borgo","admin3":"004142","localeAltName":null},{"geonameid":8950255,"name":"Borgo","admin3":"004151","localeAltName":null},{"geonameid":3181757,"name":"Borgo San Dalmazzo","admin3":"004025","localeAltName":null},{"geonameid":8949863,"name":"Borgo San Martino","admin3":"004170","localeAltName":null},{"geonameid":3181673,"name":"Bossolasco","admin3":"004027","localeAltName":null},{"geonameid":3181648,"name":"Boves","admin3":"004028","localeAltName":null},{"geonameid":3181631,"name":"Bra","admin3":"004029","localeAltName":null},{"geonameid":8948728,"name":"Breo","admin3":"004130","localeAltName":null},{"geonameid":8949490,"name":"Bricco Favole","admin3":"004067","localeAltName":null},{"geonameid":3181503,"name":"Brossasco","admin3":"004033","localeAltName":null},{"geonameid":3181380,"name":"Busca","admin3":"004034","localeAltName":null},{"geonameid":6534353,"name":"Camerana","admin3":"004035","localeAltName":null},{"geonameid":3180898,"name":"Canale","admin3":"004037","localeAltName":null},{"geonameid":3180787,"name":"Canove","admin3":"004099","localeAltName":null},{"geonameid":3180597,"name":"Caraglio","admin3":"004040","localeAltName":null},{"geonameid":6535846,"name":"Caramagna Piemonte","admin3":"004041","localeAltName":null},{"geonameid":6535847,"name":"Cardè","admin3":"004042","localeAltName":null},{"geonameid":3180405,"name":"Carrù","admin3":"004043","localeAltName":null},{"geonameid":3180190,"name":"Casalgrasso","admin3":"004045","localeAltName":null},{"geonameid":3179760,"name":"Castagnito","admin3":"004046","localeAltName":null},{"geonameid":6535455,"name":"Castelletto Stura","admin3":"004049","localeAltName":null},{"geonameid":6535849,"name":"Castellinaldo","admin3":"004051","localeAltName":null},{"geonameid":8949825,"name":"Castelrotto","admin3":"004101","localeAltName":null},{"geonameid":3179325,"name":"Cavallermaggiore","admin3":"004059","localeAltName":null},{"geonameid":3179167,"name":"Centallo","admin3":"004061","localeAltName":null},{"geonameid":6535854,"name":"Ceresole Alba","admin3":"004062","localeAltName":null},{"geonameid":6535459,"name":"Cervasca","admin3":"004064","localeAltName":null},{"geonameid":3179001,"name":"Cervere","admin3":"004065","localeAltName":null},{"geonameid":3178930,"name":"Ceva","admin3":"004066","localeAltName":null},{"geonameid":3178899,"name":"Cherasco","admin3":"004067","localeAltName":null},{"geonameid":3178761,"name":"Chiusa di Pesio","admin3":"004068","localeAltName":null},{"geonameid":8949116,"name":"Cinzano","admin3":"004212","localeAltName":null},{"geonameid":6535857,"name":"Corneliano d'Alba","admin3":"004072","localeAltName":null},{"geonameid":3177976,"name":"Cortemilia","admin3":"004073","localeAltName":null},{"geonameid":3177880,"name":"Costigliole Saluzzo","admin3":"004075","localeAltName":null},{"geonameid":8949957,"name":"Crava","admin3":"004189","localeAltName":null},{"geonameid":3177700,"name":"Cuneo","admin3":"004078","localeAltName":null},{"geonameid":3177626,"name":"Demonte","admin3":"004079","localeAltName":null},{"geonameid":3177596,"name":"Diano d'Alba","admin3":"004080","localeAltName":null},{"geonameid":3177558,"name":"Dogliani","admin3":"004081","localeAltName":null},{"geonameid":3177474,"name":"Dronero","admin3":"004082","localeAltName":null},{"geonameid":3177384,"name":"Entracque","admin3":"004084","localeAltName":null},{"geonameid":3177381,"name":"Envie","admin3":"004085","localeAltName":null},{"geonameid":6535462,"name":"Farigliano","admin3":"004086","localeAltName":null},{"geonameid":3176639,"name":"Fossano","admin3":"004089","localeAltName":null},{"geonameid":3176309,"name":"Garessio","admin3":"004095","localeAltName":null},{"geonameid":3176220,"name":"Genola","admin3":"004096","localeAltName":null},{"geonameid":6535861,"name":"Govone","admin3":"004099","localeAltName":null},{"geonameid":6535853,"name":"Grinzane Cavour","admin3":"004100","localeAltName":null},{"geonameid":6535464,"name":"Guarene","admin3":"004101","localeAltName":null},{"geonameid":3175184,"name":"La Morra","admin3":"004105","localeAltName":null},{"geonameid":6535466,"name":"Lagnasco","admin3":"004104","localeAltName":null},{"geonameid":3174804,"name":"Levaldigi","admin3":"004215","localeAltName":null},{"geonameid":3174711,"name":"Limone Piemonte","admin3":"004110","localeAltName":null},{"geonameid":6534289,"name":"Magliano Alfieri","admin3":"004113","localeAltName":null},{"geonameid":3174262,"name":"Magliano Alpi","admin3":"004114","localeAltName":null},{"geonameid":3174086,"name":"Mango","admin3":"004115","localeAltName":null},{"geonameid":3174054,"name":"Manta","admin3":"004116","localeAltName":null},{"geonameid":3173971,"name":"Marene","admin3":"004117","localeAltName":null},{"geonameid":3173963,"name":"Margarita","admin3":"004118","localeAltName":null},{"geonameid":3173837,"name":"Martiniana Po","admin3":"004121","localeAltName":null},{"geonameid":6534359,"name":"Monastero di Vasco","admin3":"004126","localeAltName":null},{"geonameid":6535471,"name":"Monasterolo di Savigliano","admin3":"004128","localeAltName":null},{"geonameid":3173162,"name":"Mondovì","admin3":"004130","localeAltName":null},{"geonameid":3173158,"name":"Monesiglio","admin3":"004131","localeAltName":null},{"geonameid":3173149,"name":"Monforte d'Alba","admin3":"004132","localeAltName":null},{"geonameid":3173120,"name":"Montà","admin3":"004133","localeAltName":null},{"geonameid":6534364,"name":"Monticello d'Alba","admin3":"004142","localeAltName":null},{"geonameid":3172604,"name":"Moretta","admin3":"004143","localeAltName":null},{"geonameid":3172579,"name":"Morozzo","admin3":"004144","localeAltName":null},{"geonameid":3172450,"name":"Murazzano","admin3":"004145","localeAltName":null},{"geonameid":6534844,"name":"Murello","admin3":"004146","localeAltName":null},{"geonameid":8948903,"name":"Mussotto","admin3":"004003","localeAltName":null},{"geonameid":3172375,"name":"Narzole","admin3":"004147","localeAltName":null},{"geonameid":9036370,"name":"Neive-Borgonovo","admin3":"004148","localeAltName":null},{"geonameid":6534365,"name":"Niella Tanaro","admin3":"004151","localeAltName":null},{"geonameid":3172176,"name":"Novello","admin3":"004152","localeAltName":null},{"geonameid":3171942,"name":"Ormea","admin3":"004155","localeAltName":null},{"geonameid":3171711,"name":"Paesana","admin3":"004157","localeAltName":null},{"geonameid":3171422,"name":"Passatore","admin3":"004078","localeAltName":null},{"geonameid":3171074,"name":"Peveragno","admin3":"004163","localeAltName":null},{"geonameid":6534847,"name":"Pianfei","admin3":"004165","localeAltName":null},{"geonameid":3170918,"name":"Piasco","admin3":"004166","localeAltName":null},{"geonameid":8949149,"name":"Piazza","admin3":"004130","localeAltName":null},{"geonameid":3170679,"name":"Piobesi d'Alba","admin3":"004168","localeAltName":null},{"geonameid":3170678,"name":"Piobesi Torinese","admin3":"004146","localeAltName":null},{"geonameid":6534848,"name":"Pocapaglia","admin3":"004170","localeAltName":null},{"geonameid":7290481,"name":"Pollenzo","admin3":"004029","localeAltName":null},{"geonameid":6534849,"name":"Polonghera","admin3":"004171","localeAltName":null},{"geonameid":6535479,"name":"Priocca","admin3":"004176","localeAltName":null},{"geonameid":3169647,"name":"Racconigi","admin3":"004179","localeAltName":null},{"geonameid":3169465,"name":"Revello","admin3":"004180","localeAltName":null},{"geonameid":8949275,"name":"Ricca","admin3":"004080","localeAltName":null},{"geonameid":6535481,"name":"Rifreddo","admin3":"004181","localeAltName":null},{"geonameid":8950317,"name":"Rivoira","admin3":"004028","localeAltName":null},{"geonameid":8950137,"name":"Roata Chiusani","admin3":"004061","localeAltName":null},{"geonameid":8224079,"name":"Roata Rossi","admin3":"004078","localeAltName":null},{"geonameid":3169206,"name":"Robilante","admin3":"004185","localeAltName":null},{"geonameid":6534370,"name":"Roccabruna","admin3":"004187","localeAltName":null},{"geonameid":3169177,"name":"Roccaforte Mondovì","admin3":"004190","localeAltName":null},{"geonameid":3169122,"name":"Roccavione","admin3":"004192","localeAltName":null},{"geonameid":6534301,"name":"Roddi","admin3":"004194","localeAltName":null},{"geonameid":6534303,"name":"Rodello","admin3":"004196","localeAltName":null},{"geonameid":8948980,"name":"Roreto","admin3":"004067","localeAltName":null},{"geonameid":3168915,"name":"Rossana","admin3":"004197","localeAltName":null},{"geonameid":3168655,"name":"Saliceto","admin3":"004201","localeAltName":null},{"geonameid":3168609,"name":"Saluzzo","admin3":"004203","localeAltName":null},{"geonameid":3168579,"name":"Sampeyre","admin3":"004205","localeAltName":null},{"geonameid":8950171,"name":"San Biagio","admin3":"004061","localeAltName":null},{"geonameid":8949641,"name":"San Chiaffredo","admin3":"004034","localeAltName":null},{"geonameid":8949338,"name":"San Defendente","admin3":"004064","localeAltName":null},{"geonameid":8949824,"name":"San Giuseppe","admin3":"004046","localeAltName":null},{"geonameid":8950334,"name":"San Lorenzo","admin3":"004163","localeAltName":null},{"geonameid":3167957,"name":"San Michele Mondovì","admin3":"004210","localeAltName":null},{"geonameid":8949281,"name":"San Rocco","admin3":"004022","localeAltName":null},{"geonameid":3168358,"name":"Sanfrè","admin3":"004208","localeAltName":null},{"geonameid":3168357,"name":"Sanfront","admin3":"004209","localeAltName":null},{"geonameid":3167625,"name":"Sant'Albano Stura","admin3":"004211","localeAltName":null},{"geonameid":8949483,"name":"Sant'Anna Avagnina","admin3":"004130","localeAltName":null},{"geonameid":8949271,"name":"Sant'Antonio","admin3":"004113","localeAltName":null},{"geonameid":3167352,"name":"Santa Vittoria d'Alba","admin3":"004212","localeAltName":null},{"geonameid":3167249,"name":"Santo Stefano Belbo","admin3":"004213","localeAltName":null},{"geonameid":3167034,"name":"Savigliano","admin3":"004215","localeAltName":null},{"geonameid":3166958,"name":"Scarnafigi","admin3":"004217","localeAltName":null},{"geonameid":3166407,"name":"Sommariva del Bosco","admin3":"004222","localeAltName":null},{"geonameid":3166406,"name":"Sommariva Perno","admin3":"004223","localeAltName":null},{"geonameid":3165928,"name":"Tarantasca","admin3":"004225","localeAltName":null},{"geonameid":8949497,"name":"Tettorosso","admin3":"004187","localeAltName":null},{"geonameid":6534376,"name":"Torre Mondovì","admin3":"004227","localeAltName":null},{"geonameid":6534851,"name":"Torre San Giorgio","admin3":"004228","localeAltName":null},{"geonameid":3165168,"name":"Trinità","admin3":"004232","localeAltName":null},{"geonameid":8949348,"name":"Vaccheria","admin3":"004101","localeAltName":null},{"geonameid":3164614,"name":"Venasca","admin3":"004237","localeAltName":null},{"geonameid":3164538,"name":"Vernante","admin3":"004239","localeAltName":null},{"geonameid":3164499,"name":"Verzuolo","admin3":"004240","localeAltName":null},{"geonameid":6534853,"name":"Vezza d'Alba","admin3":"004241","localeAltName":null},{"geonameid":6535494,"name":"Vicoforte","admin3":"004242","localeAltName":null},{"geonameid":3164334,"name":"Vignolo","admin3":"004243","localeAltName":null},{"geonameid":8949279,"name":"Villa","admin3":"004223","localeAltName":null},{"geonameid":9036165,"name":"Villa-Borgo","admin3":"004212","localeAltName":null},{"geonameid":3164250,"name":"Villafalletto","admin3":"004244","localeAltName":null},{"geonameid":3164179,"name":"Villanova Mondovì","admin3":"004245","localeAltName":null},{"geonameid":6535495,"name":"Villanova Solaro","admin3":"004246","localeAltName":null}],"admin3":[{"geonameid":3179627,"name":"Castelletto Uzzone","admin3":"004050"},{"geonameid":6536033,"name":"Manta","admin3":"004116","localeAltName":null},{"geonameid":6536034,"name":"Martiniana Po","admin3":"004121","localeAltName":null},{"geonameid":6536035,"name":"Monforte d'Alba","admin3":"004132","localeAltName":null},{"geonameid":6536037,"name":"Roccavione","admin3":"004192","localeAltName":null},{"geonameid":6536038,"name":"Salmour","admin3":"004202"},{"geonameid":6536039,"name":"San Damiano Macra","admin3":"004207"},{"geonameid":6536040,"name":"Scarnafigi","admin3":"004217","localeAltName":null},{"geonameid":6536060,"name":"Cartignano","admin3":"004044"},{"geonameid":6536067,"name":"Crissolo","admin3":"004077"},{"geonameid":6536068,"name":"Elva","admin3":"004083"},{"geonameid":6536069,"name":"Monchiero","admin3":"004129"},{"geonameid":6536085,"name":"Santa Vittoria d'Alba","admin3":"004212","localeAltName":null},{"geonameid":6536086,"name":"Sommariva Perno","admin3":"004223","localeAltName":null},{"geonameid":6536417,"name":"Neive","admin3":"004148","localeAltName":null},{"geonameid":6536418,"name":"Niella Belbo","admin3":"004150"},{"geonameid":6536419,"name":"Novello","admin3":"004152","localeAltName":null},{"geonameid":6536420,"name":"Nucetto","admin3":"004153"},{"geonameid":6536421,"name":"Paesana","admin3":"004157","localeAltName":null},{"geonameid":6536422,"name":"Pamparato","admin3":"004159"},{"geonameid":6536423,"name":"Peveragno","admin3":"004163","localeAltName":null},{"geonameid":6536424,"name":"Piobesi d'Alba","admin3":"004168","localeAltName":null},{"geonameid":6536425,"name":"Pradleves","admin3":"004173"},{"geonameid":6536426,"name":"Villafalletto","admin3":"004244","localeAltName":null},{"geonameid":6538140,"name":"Bagnasco","admin3":"004008","localeAltName":null},{"geonameid":6538141,"name":"Beinette","admin3":"004016","localeAltName":null},{"geonameid":6538142,"name":"Belvedere Langhe","admin3":"004018"},{"geonameid":6538143,"name":"Bene Vagienna","admin3":"004019","localeAltName":null},{"geonameid":6538144,"name":"Bra","admin3":"004029","localeAltName":null},{"geonameid":6538145,"name":"Carrù","admin3":"004043","localeAltName":null},{"geonameid":6538146,"name":"Casalgrasso","admin3":"004045","localeAltName":null},{"geonameid":6538147,"name":"Casteldelfino","admin3":"004047"},{"geonameid":6538148,"name":"Centallo","admin3":"004061","localeAltName":null},{"geonameid":6538149,"name":"Ceva","admin3":"004066","localeAltName":null},{"geonameid":6538150,"name":"Cortemilia","admin3":"004073","localeAltName":null},{"geonameid":6538151,"name":"Costigliole Saluzzo","admin3":"004075","localeAltName":null},{"geonameid":6538152,"name":"Frabosa Soprana","admin3":"004090"},{"geonameid":6538153,"name":"Gorzegno","admin3":"004097"},{"geonameid":6538154,"name":"Melle","admin3":"004122"},{"geonameid":6538155,"name":"Monesiglio","admin3":"004131","localeAltName":null},{"geonameid":6538156,"name":"Monteu Roero","admin3":"004140"},{"geonameid":6538157,"name":"Revello","admin3":"004180","localeAltName":null},{"geonameid":6538158,"name":"Robilante","admin3":"004185","localeAltName":null},{"geonameid":6538159,"name":"Roccaforte Mondovì","admin3":"004190","localeAltName":null},{"geonameid":6538160,"name":"Ruffia","admin3":"004198"},{"geonameid":6538161,"name":"Sant'Albano Stura","admin3":"004211","localeAltName":null},{"geonameid":6538162,"name":"Sommariva del Bosco","admin3":"004222","localeAltName":null},{"geonameid":6538163,"name":"Tarantasca","admin3":"004225","localeAltName":null},{"geonameid":6538164,"name":"Vernante","admin3":"004239","localeAltName":null},{"geonameid":6538165,"name":"Verzuolo","admin3":"004240","localeAltName":null},{"geonameid":6538166,"name":"Vignolo","admin3":"004243","localeAltName":null},{"geonameid":6539559,"name":"Benevello","admin3":"004020"},{"geonameid":6539560,"name":"Borgomale","admin3":"004024"},{"geonameid":6539561,"name":"Brossasco","admin3":"004033","localeAltName":null},{"geonameid":6539562,"name":"Busca","admin3":"004034","localeAltName":null},{"geonameid":6539563,"name":"Caraglio","admin3":"004040","localeAltName":null},{"geonameid":6539564,"name":"Castagnito","admin3":"004046","localeAltName":null},{"geonameid":6539565,"name":"Castino","admin3":"004057"},{"geonameid":6539566,"name":"Cavallermaggiore","admin3":"004059","localeAltName":null},{"geonameid":6539567,"name":"Cervere","admin3":"004065","localeAltName":null},{"geonameid":6539568,"name":"Cherasco","admin3":"004067","localeAltName":null},{"geonameid":6539569,"name":"Diano d'Alba","admin3":"004080","localeAltName":null},{"geonameid":6539570,"name":"Entracque","admin3":"004084","localeAltName":null},{"geonameid":6539571,"name":"Envie","admin3":"004085","localeAltName":null},{"geonameid":6539572,"name":"Fossano","admin3":"004089","localeAltName":null},{"geonameid":6539573,"name":"Gaiola","admin3":"004093"},{"geonameid":6539574,"name":"Gambasca","admin3":"004094"},{"geonameid":6539575,"name":"La Morra","admin3":"004105","localeAltName":null},{"geonameid":6539576,"name":"Lesegno","admin3":"004108"},{"geonameid":6539577,"name":"Limone Piemonte","admin3":"004110","localeAltName":null},{"geonameid":6539604,"name":"Mango","admin3":"004115","localeAltName":null},{"geonameid":6539605,"name":"Saliceto","admin3":"004201","localeAltName":null},{"geonameid":6539610,"name":"Prazzo","admin3":"004174"},{"geonameid":6539666,"name":"Moretta","admin3":"004143","localeAltName":null},{"geonameid":6539907,"name":"Canale","admin3":"004037","localeAltName":null},{"geonameid":6539908,"name":"Priola","admin3":"004177"},{"geonameid":6539909,"name":"Saluzzo","admin3":"004203","localeAltName":null},{"geonameid":6539910,"name":"Valdieri","admin3":"004233"},{"geonameid":6539911,"name":"Viola","admin3":"004249"},{"geonameid":6540105,"name":"Frassino","admin3":"004092"},{"geonameid":6540131,"name":"Marene","admin3":"004117","localeAltName":null},{"geonameid":6540133,"name":"San Michele Mondovì","admin3":"004210","localeAltName":null},{"geonameid":6540134,"name":"Savigliano","admin3":"004215","localeAltName":null},{"geonameid":6540140,"name":"Castelmagno","admin3":"004053"},{"geonameid":6540143,"name":"Mondovì","admin3":"004130","localeAltName":null},{"geonameid":6540304,"name":"Morozzo","admin3":"004144","localeAltName":null},{"geonameid":6540305,"name":"Murazzano","admin3":"004145","localeAltName":null},{"geonameid":6540306,"name":"Pietraporzio","admin3":"004167"},{"geonameid":6540307,"name":"Trinità","admin3":"004232","localeAltName":null},{"geonameid":6540308,"name":"Villanova Mondovì","admin3":"004245","localeAltName":null},{"geonameid":6540309,"name":"Vinadio","admin3":"004248"},{"geonameid":6540670,"name":"Acceglio","admin3":"004001"},{"geonameid":6540671,"name":"Alba","admin3":"004003","localeAltName":null},{"geonameid":6540936,"name":"Argentera","admin3":"004006"},{"geonameid":6540937,"name":"Borgo San Dalmazzo","admin3":"004025","localeAltName":null},{"geonameid":6540938,"name":"Cravanzana","admin3":"004076"},{"geonameid":6540939,"name":"Dogliani","admin3":"004081","localeAltName":null},{"geonameid":6540940,"name":"Garessio","admin3":"004095","localeAltName":null},{"geonameid":6540941,"name":"Genola","admin3":"004096","localeAltName":null},{"geonameid":6540942,"name":"Narzole","admin3":"004147","localeAltName":null},{"geonameid":6540943,"name":"Piasco","admin3":"004166","localeAltName":null},{"geonameid":6540944,"name":"Rossana","admin3":"004197","localeAltName":null},{"geonameid":6540945,"name":"Sambuco","admin3":"004204"},{"geonameid":6540946,"name":"Sampeyre","admin3":"004205","localeAltName":null},{"geonameid":6540947,"name":"Sanfrè","admin3":"004208","localeAltName":null},{"geonameid":6540948,"name":"Santo Stefano Belbo","admin3":"004213","localeAltName":null},{"geonameid":6540949,"name":"Serravalle Langhe","admin3":"004219"},{"geonameid":6540950,"name":"Valgrana","admin3":"004234"},{"geonameid":6541451,"name":"Bagnolo Piemonte","admin3":"004009","localeAltName":null},{"geonameid":6541452,"name":"Bossolasco","admin3":"004027","localeAltName":null},{"geonameid":6541454,"name":"Chiusa di Pesio","admin3":"004068","localeAltName":null},{"geonameid":6541455,"name":"Demonte","admin3":"004079","localeAltName":null},{"geonameid":6541456,"name":"Dronero","admin3":"004082","localeAltName":null},{"geonameid":6541457,"name":"Levice","admin3":"004109"},{"geonameid":6541479,"name":"Margarita","admin3":"004118","localeAltName":null},{"geonameid":6541487,"name":"Stroppo","admin3":"004224"},{"geonameid":6541555,"name":"Ormea","admin3":"004155","localeAltName":null},{"geonameid":6541802,"name":"Magliano Alpi","admin3":"004114","localeAltName":null},{"geonameid":6541803,"name":"Montà","admin3":"004133","localeAltName":null},{"geonameid":6541804,"name":"Sanfront","admin3":"004209","localeAltName":null},{"geonameid":6541805,"name":"Venasca","admin3":"004237","localeAltName":null},{"geonameid":6541848,"name":"Barge","admin3":"004012","localeAltName":null},{"geonameid":6541849,"name":"Boves","admin3":"004028","localeAltName":null},{"geonameid":6541864,"name":"Cuneo","admin3":"004078","localeAltName":null},{"geonameid":6542008,"name":"Montelupo Albese","admin3":"004137"},{"geonameid":6542129,"name":"Racconigi","admin3":"004179","localeAltName":null},{"geonameid":6542359,"name":"Magliano Alfieri","admin3":"004113","localeAltName":null},{"geonameid":6542360,"name":"Moiola","admin3":"004123"},{"geonameid":6542361,"name":"Mombarcaro","admin3":"004124"},{"geonameid":6542362,"name":"Mombasiglio","admin3":"004125"},{"geonameid":6542363,"name":"Monasterolo Casotto","admin3":"004127"},{"geonameid":6542364,"name":"Montaldo di Mondovì","admin3":"004134"},{"geonameid":6542365,"name":"Rocca de' Baldi","admin3":"004189","localeAltName":null},{"geonameid":6542368,"name":"Priero","admin3":"004175"},{"geonameid":6542369,"name":"Roascio","admin3":"004184"},{"geonameid":6542370,"name":"Rocchetta Belbo","admin3":"004193"},{"geonameid":6542371,"name":"Roddi","admin3":"004194","localeAltName":null},{"geonameid":6542372,"name":"Roddino","admin3":"004195"},{"geonameid":6542373,"name":"Rodello","admin3":"004196","localeAltName":null},{"geonameid":6542374,"name":"Sale delle Langhe","admin3":"004199"},{"geonameid":6542375,"name":"San Benedetto Belbo","admin3":"004206"},{"geonameid":6542376,"name":"Sinio","admin3":"004220"},{"geonameid":6542420,"name":"Bellino","admin3":"004017"},{"geonameid":6542421,"name":"Briaglia","admin3":"004030"},{"geonameid":6542422,"name":"Briga Alta","admin3":"004031"},{"geonameid":6542423,"name":"Camerana","admin3":"004035","localeAltName":null},{"geonameid":6542424,"name":"Caprauna","admin3":"004039"},{"geonameid":6542425,"name":"Celle di Macra","admin3":"004060"},{"geonameid":6542428,"name":"Monastero di Vasco","admin3":"004126","localeAltName":null},{"geonameid":6542432,"name":"Montezemolo","admin3":"004141"},{"geonameid":6542433,"name":"Monticello d'Alba","admin3":"004142","localeAltName":null},{"geonameid":6542434,"name":"Niella Tanaro","admin3":"004151","localeAltName":null},{"geonameid":6542435,"name":"Ostana","admin3":"004156"},{"geonameid":6542436,"name":"Perlo","admin3":"004162"},{"geonameid":6542437,"name":"Pontechianale","admin3":"004172"},{"geonameid":6542438,"name":"Rittana","admin3":"004182"},{"geonameid":6542439,"name":"Roccabruna","admin3":"004187","localeAltName":null},{"geonameid":6542444,"name":"Scagnello","admin3":"004216"},{"geonameid":6542445,"name":"Torre Mondovì","admin3":"004227","localeAltName":null},{"geonameid":6542446,"name":"Valloriate","admin3":"004235"},{"geonameid":6542831,"name":"Montemale di Cuneo","admin3":"004138"},{"geonameid":6542832,"name":"Monterosso Grana","admin3":"004139"},{"geonameid":6542833,"name":"Murello","admin3":"004146","localeAltName":null},{"geonameid":6542834,"name":"Paroldo","admin3":"004160"},{"geonameid":6542835,"name":"Perletto","admin3":"004161"},{"geonameid":6542836,"name":"Pianfei","admin3":"004165","localeAltName":null},{"geonameid":6542837,"name":"Pocapaglia","admin3":"004170","localeAltName":null},{"geonameid":6542838,"name":"Polonghera","admin3":"004171","localeAltName":null},{"geonameid":6542839,"name":"Torre Bormida","admin3":"004226"},{"geonameid":6542840,"name":"Torre San Giorgio","admin3":"004228","localeAltName":null},{"geonameid":6542841,"name":"Verduno","admin3":"004238"},{"geonameid":6542842,"name":"Vezza d'Alba","admin3":"004241","localeAltName":null},{"geonameid":6542843,"name":"Villar San Costanzo","admin3":"004247"},{"geonameid":6543275,"name":"Aisone","admin3":"004002"},{"geonameid":6543276,"name":"Albaretto della Torre","admin3":"004004"},{"geonameid":6543431,"name":"Alto","admin3":"004005"},{"geonameid":6543432,"name":"Baldissero d'Alba","admin3":"004010"},{"geonameid":6543433,"name":"Barolo","admin3":"004013"},{"geonameid":6543434,"name":"Battifollo","admin3":"004015"},{"geonameid":6543435,"name":"Canosio","admin3":"004038"},{"geonameid":6543436,"name":"Castelletto Stura","admin3":"004049","localeAltName":null},{"geonameid":6543437,"name":"Castelnuovo di Ceva","admin3":"004054"},{"geonameid":6543438,"name":"Cavallerleone","admin3":"004058"},{"geonameid":6543439,"name":"Cerretto Langhe","admin3":"004063"},{"geonameid":6543440,"name":"Cervasca","admin3":"004064","localeAltName":null},{"geonameid":6543441,"name":"Clavesana","admin3":"004071"},{"geonameid":6543442,"name":"Cossano Belbo","admin3":"004074"},{"geonameid":6543443,"name":"Farigliano","admin3":"004086","localeAltName":null},{"geonameid":6543444,"name":"Frabosa Sottana","admin3":"004091"},{"geonameid":6543445,"name":"Guarene","admin3":"004101","localeAltName":null},{"geonameid":6543446,"name":"Igliano","admin3":"004102"},{"geonameid":6543447,"name":"Lagnasco","admin3":"004104","localeAltName":null},{"geonameid":6543448,"name":"Lequio Berria","admin3":"004106"},{"geonameid":6543449,"name":"Macra","admin3":"004112"},{"geonameid":6543450,"name":"Marmora","admin3":"004119"},{"geonameid":6543451,"name":"Marsaglia","admin3":"004120"},{"geonameid":6543452,"name":"Monasterolo di Savigliano","admin3":"004128","localeAltName":null},{"geonameid":6543453,"name":"Montaldo Roero","admin3":"004135"},{"geonameid":6543454,"name":"Montanera","admin3":"004136"},{"geonameid":6543455,"name":"Neviglie","admin3":"004149"},{"geonameid":6543456,"name":"Oncino","admin3":"004154"},{"geonameid":6543457,"name":"Pagno","admin3":"004158"},{"geonameid":6543458,"name":"Pezzolo Valle Uzzone","admin3":"004164"},{"geonameid":6543459,"name":"Piozzo","admin3":"004169"},{"geonameid":6543460,"name":"Priocca","admin3":"004176","localeAltName":null},{"geonameid":6543461,"name":"Prunetto","admin3":"004178"},{"geonameid":6543462,"name":"Rifreddo","admin3":"004181","localeAltName":null},{"geonameid":6543463,"name":"Roaschia","admin3":"004183"},{"geonameid":6543464,"name":"Roburent","admin3":"004186"},{"geonameid":6543465,"name":"Rocca Cigliè","admin3":"004188"},{"geonameid":6543466,"name":"Roccasparvera","admin3":"004191"},{"geonameid":6543467,"name":"Sale San Giovanni","admin3":"004200"},{"geonameid":6543468,"name":"Santo Stefano Roero","admin3":"004214"},{"geonameid":6543469,"name":"Serralunga d'Alba","admin3":"004218"},{"geonameid":6543470,"name":"Somano","admin3":"004221"},{"geonameid":6543471,"name":"Torresina","admin3":"004229"},{"geonameid":6543472,"name":"Treiso","admin3":"004230"},{"geonameid":6543473,"name":"Trezzo Tinella","admin3":"004231"},{"geonameid":6543475,"name":"Vicoforte","admin3":"004242","localeAltName":null},{"geonameid":6543476,"name":"Villanova Solaro","admin3":"004246","localeAltName":null},{"geonameid":6543477,"name":"Vottignasco","admin3":"004250"},{"geonameid":6543808,"name":"Arguello","admin3":"004007"},{"geonameid":6543809,"name":"Barbaresco","admin3":"004011"},{"geonameid":6543810,"name":"Bastia Mondovì","admin3":"004014"},{"geonameid":6543811,"name":"Bergolo","admin3":"004021"},{"geonameid":6543812,"name":"Bernezzo","admin3":"004022","localeAltName":null},{"geonameid":6543813,"name":"Bonvicino","admin3":"004023"},{"geonameid":6543814,"name":"Bosia","admin3":"004026"},{"geonameid":6543815,"name":"Brondello","admin3":"004032"},{"geonameid":6543817,"name":"Caramagna Piemonte","admin3":"004041","localeAltName":null},{"geonameid":6543818,"name":"Cardè","admin3":"004042","localeAltName":null},{"geonameid":6543820,"name":"Castellinaldo d'Alba","admin3":"004051","localeAltName":null},{"geonameid":6543821,"name":"Castellino Tanaro","admin3":"004052"},{"geonameid":6543822,"name":"Castiglione Falletto","admin3":"004055"},{"geonameid":6543823,"name":"Castiglione Tinella","admin3":"004056"},{"geonameid":6543824,"name":"Grinzane Cavour","admin3":"004100","localeAltName":null},{"geonameid":6543825,"name":"Ceresole Alba","admin3":"004062","localeAltName":null},{"geonameid":6543826,"name":"Cigliè","admin3":"004069"},{"geonameid":6543827,"name":"Cissone","admin3":"004070"},{"geonameid":6543828,"name":"Corneliano d'Alba","admin3":"004072","localeAltName":null},{"geonameid":6543829,"name":"Faule","admin3":"004087"},{"geonameid":6543830,"name":"Feisoglio","admin3":"004088"},{"geonameid":6543831,"name":"Gottasecca","admin3":"004098"},{"geonameid":6543832,"name":"Govone","admin3":"004099","localeAltName":null},{"geonameid":6543833,"name":"Isasca","admin3":"004103"},{"geonameid":6543834,"name":"Lequio Tanaro","admin3":"004107"},{"geonameid":6543835,"name":"Lisio","admin3":"004111"}],"alternateNames":[{"alternatenameId":1351374,"geonameid":3177699,"isoLanguage":"it","alternateName":"Cuneo","isPreferredName":true,"isShortName":true,"isColloquial":false,"isHistoric":false}]},"__N_SSG":true}