{"pageProps":{"locale":"it","admin2":{"geonameid":3182712,"name":"Provincia di Asti","country":"IT","admin1":"12","admin2":"AT","admin3":"","latitude":"44.9166700","longitude":"8.1666700","localeAltName":"Asti"},"admin1":{"geonameid":3170831,"name":"Piemonte","admin1":"12","localeAltName":null},"locations":[{"geonameid":8949562,"name":"Agliano","admin3":"005001","localeAltName":null},{"geonameid":6534378,"name":"Agliano Terme","admin3":"005001","localeAltName":null},{"geonameid":3182714,"name":"Asti","admin3":"005005","localeAltName":null},{"geonameid":3182462,"name":"Baldichieri d'Asti","admin3":"005007","localeAltName":null},{"geonameid":8949527,"name":"Boglietto","admin3":"005050","localeAltName":null},{"geonameid":6535499,"name":"Buttigliera d'Asti","admin3":"005012","localeAltName":null},{"geonameid":3181247,"name":"Calamandrana","admin3":"005013","localeAltName":null},{"geonameid":8949977,"name":"Callianetto","admin3":"005025","localeAltName":null},{"geonameid":3181182,"name":"Calliano","admin3":"005014","localeAltName":null},{"geonameid":3180850,"name":"Canelli","admin3":"005017","localeAltName":null},{"geonameid":3179805,"name":"Casorzo","admin3":"005020","localeAltName":null},{"geonameid":3179755,"name":"Castagnole delle Lanze","admin3":"005022","localeAltName":null},{"geonameid":3179754,"name":"Castagnole Monferrato","admin3":"005023","localeAltName":null},{"geonameid":3179663,"name":"Castell'Alfero","admin3":"005025","localeAltName":null},{"geonameid":3179591,"name":"Castello di Annone","admin3":"005028","localeAltName":null},{"geonameid":6535501,"name":"Castelnuovo Belbo","admin3":"005029","localeAltName":null},{"geonameid":3179518,"name":"Castelnuovo Don Bosco","admin3":"005031","localeAltName":null},{"geonameid":6535505,"name":"Cerro Tanaro","admin3":"005036","localeAltName":null},{"geonameid":3178632,"name":"Cisterna d'Asti","admin3":"005040","localeAltName":null},{"geonameid":3178526,"name":"Cocconato","admin3":"005042","localeAltName":null},{"geonameid":3177881,"name":"Costigliole d'Asti","admin3":"005050","localeAltName":null},{"geonameid":6534326,"name":"Ferrere","admin3":"005053","localeAltName":null},{"geonameid":8949210,"name":"Ghiare-Madonna","admin3":"005058","localeAltName":null},{"geonameid":6535508,"name":"Grana","admin3":"005056","localeAltName":null},{"geonameid":6534387,"name":"Incisa Scapaccino","admin3":"005058","localeAltName":null},{"geonameid":6534388,"name":"Isola d'Asti","admin3":"005059","localeAltName":null},{"geonameid":6534329,"name":"Mombaruzzo","admin3":"005065","localeAltName":null},{"geonameid":6534330,"name":"Mombercelli","admin3":"005066","localeAltName":null},{"geonameid":6534332,"name":"Monastero Bormida","admin3":"005068","localeAltName":null},{"geonameid":3173179,"name":"Moncalvo","admin3":"005069","localeAltName":null},{"geonameid":3172974,"name":"Montechiaro d'Asti","admin3":"005075","localeAltName":null},{"geonameid":3172892,"name":"Montegrosso","admin3":"005076","localeAltName":null},{"geonameid":3172850,"name":"Montemagno","admin3":"005077","localeAltName":null},{"geonameid":8950071,"name":"Motta","admin3":"005050","localeAltName":null},{"geonameid":3172253,"name":"Nizza Monferrato","admin3":"005080","localeAltName":null},{"geonameid":3170955,"name":"Piano-Molini d'Isola","admin3":"005059","localeAltName":null},{"geonameid":6535515,"name":"Portacomaro","admin3":"005087","localeAltName":null},{"geonameid":6534341,"name":"Refrancore","admin3":"005089","localeAltName":null},{"geonameid":6535519,"name":"Rocchetta Tanaro","admin3":"005096","localeAltName":null},{"geonameid":3168440,"name":"San Damiano d'Asti","admin3":"005097","localeAltName":null},{"geonameid":6534858,"name":"San Paolo Solbrito","admin3":"005101","localeAltName":null},{"geonameid":8950023,"name":"Stazione","admin3":"005118","localeAltName":null},{"geonameid":3165564,"name":"Tonco","admin3":"005109","localeAltName":null},{"geonameid":3164914,"name":"Valfenera","admin3":"005112","localeAltName":null},{"geonameid":3164243,"name":"Villafranca d'Asti","admin3":"005117","localeAltName":null},{"geonameid":3164183,"name":"Villanova d'Asti","admin3":"005118","localeAltName":null}],"admin3":[{"geonameid":6536041,"name":"Canelli","admin3":"005017","localeAltName":null},{"geonameid":6536042,"name":"Casorzo","admin3":"005020","localeAltName":null},{"geonameid":6536043,"name":"Cassinasco","admin3":"005021"},{"geonameid":6536044,"name":"Castell'Alfero","admin3":"005025","localeAltName":null},{"geonameid":6536046,"name":"Cisterna d'Asti","admin3":"005040","localeAltName":null},{"geonameid":6536047,"name":"Cocconato","admin3":"005042","localeAltName":null},{"geonameid":6536048,"name":"Cossombrato","admin3":"005049"},{"geonameid":6536049,"name":"Cunico","admin3":"005051"},{"geonameid":6536050,"name":"Moncalvo","admin3":"005069","localeAltName":null},{"geonameid":6536095,"name":"Montegrosso d'Asti","admin3":"005076","localeAltName":null},{"geonameid":6536427,"name":"San Damiano d'Asti","admin3":"005097","localeAltName":null},{"geonameid":6536428,"name":"Serole","admin3":"005104"},{"geonameid":6536429,"name":"Villanova d'Asti","admin3":"005118","localeAltName":null},{"geonameid":6536430,"name":"Villa San Secondo","admin3":"005119"},{"geonameid":6538167,"name":"Berzano di San Pietro","admin3":"005009"},{"geonameid":6538168,"name":"Calamandrana","admin3":"005013","localeAltName":null},{"geonameid":6538169,"name":"Castagnole Monferrato","admin3":"005023","localeAltName":null},{"geonameid":6538170,"name":"Castello di Annone","admin3":"005028","localeAltName":null},{"geonameid":6538171,"name":"Cessole","admin3":"005037"},{"geonameid":6538172,"name":"Cortanze","admin3":"005046"},{"geonameid":6538173,"name":"Cortazzone","admin3":"005047"},{"geonameid":6538174,"name":"Cortiglione","admin3":"005048"},{"geonameid":6538175,"name":"Costigliole d'Asti","admin3":"005050","localeAltName":null},{"geonameid":6538176,"name":"Fontanile","admin3":"005054"},{"geonameid":6538177,"name":"Mombaldone","admin3":"005064"},{"geonameid":6538178,"name":"Moncucco Torinese","admin3":"005070"},{"geonameid":6538179,"name":"Mongardino","admin3":"005071"},{"geonameid":6538180,"name":"Nizza Monferrato","admin3":"005080","localeAltName":null},{"geonameid":6538181,"name":"Piea","admin3":"005084"},{"geonameid":6538182,"name":"Valfenera","admin3":"005112","localeAltName":null},{"geonameid":6538183,"name":"Vesime","admin3":"005113"},{"geonameid":6538184,"name":"Villafranca d'Asti","admin3":"005117","localeAltName":null},{"geonameid":6539606,"name":"Asti","admin3":"005005","localeAltName":null},{"geonameid":6539607,"name":"Montemagno","admin3":"005077","localeAltName":null},{"geonameid":6540135,"name":"Bruno","admin3":"005010"},{"geonameid":6540136,"name":"Calliano","admin3":"005014","localeAltName":null},{"geonameid":6540951,"name":"Bubbio","admin3":"005011"},{"geonameid":6540952,"name":"Castelnuovo Don Bosco","admin3":"005031","localeAltName":null},{"geonameid":6540953,"name":"Cortandone","admin3":"005045"},{"geonameid":6540954,"name":"Grazzano Badoglio","admin3":"005057"},{"geonameid":6540955,"name":"Montechiaro d'Asti","admin3":"005075","localeAltName":null},{"geonameid":6540956,"name":"Tonco","admin3":"005109","localeAltName":null},{"geonameid":6541481,"name":"Baldichieri d'Asti","admin3":"005007","localeAltName":null},{"geonameid":6542157,"name":"Castelnuovo Calcea","admin3":"005030"},{"geonameid":6542159,"name":"Dusino San Michele","admin3":"005052"},{"geonameid":6542246,"name":"Castagnole delle Lanze","admin3":"005022","localeAltName":null},{"geonameid":6542280,"name":"Montiglio Monferrato","admin3":"005121"},{"geonameid":6542381,"name":"Belveglio","admin3":"005008"},{"geonameid":6542382,"name":"Cantarana","admin3":"005018"},{"geonameid":6542383,"name":"Capriglio","admin3":"005019"},{"geonameid":6542384,"name":"Castel Boglione","admin3":"005024"},{"geonameid":6542385,"name":"Castellero","admin3":"005026"},{"geonameid":6542386,"name":"Castelletto Molina","admin3":"005027"},{"geonameid":6542387,"name":"Cellarengo","admin3":"005033"},{"geonameid":6542393,"name":"Cinaglio","admin3":"005039"},{"geonameid":6542394,"name":"Coazzolo","admin3":"005041"},{"geonameid":6542395,"name":"Corsione","admin3":"005044"},{"geonameid":6542396,"name":"Ferrere","admin3":"005053","localeAltName":null},{"geonameid":6542397,"name":"Maranzana","admin3":"005061"},{"geonameid":6542398,"name":"Maretto","admin3":"005062"},{"geonameid":6542399,"name":"Mombaruzzo","admin3":"005065","localeAltName":null},{"geonameid":6542400,"name":"Mombercelli","admin3":"005066","localeAltName":null},{"geonameid":6542401,"name":"Monale","admin3":"005067"},{"geonameid":6542402,"name":"Monastero Bormida","admin3":"005068","localeAltName":null},{"geonameid":6542406,"name":"Montabone","admin3":"005072"},{"geonameid":6542407,"name":"Montafia","admin3":"005073"},{"geonameid":6542408,"name":"Montaldo Scarampi","admin3":"005074"},{"geonameid":6542409,"name":"Piov√† Massaia","admin3":"005086"},{"geonameid":6542410,"name":"Quaranti","admin3":"005088"},{"geonameid":6542411,"name":"Refrancore","admin3":"005089","localeAltName":null},{"geonameid":6542412,"name":"Roatto","admin3":"005091"},{"geonameid":6542413,"name":"Robella","admin3":"005092"},{"geonameid":6542414,"name":"Rocca d'Arazzo","admin3":"005093"},{"geonameid":6542447,"name":"Agliano Terme","admin3":"005001","localeAltName":null},{"geonameid":6542455,"name":"Camerano Casasco","admin3":"005016"},{"geonameid":6542456,"name":"Incisa Scapaccino","admin3":"005058","localeAltName":null},{"geonameid":6542457,"name":"Isola d'Asti","admin3":"005059","localeAltName":null},{"geonameid":6542458,"name":"Passerano Marmorito","admin3":"005082"},{"geonameid":6542844,"name":"Albugnano","admin3":"005002"},{"geonameid":6542845,"name":"Antignano","admin3":"005003"},{"geonameid":6542846,"name":"San Martino Alfieri","admin3":"005099"},{"geonameid":6542847,"name":"San Paolo Solbrito","admin3":"005101","localeAltName":null},{"geonameid":6542848,"name":"Soglio","admin3":"005107"},{"geonameid":6542849,"name":"Tigliole","admin3":"005108"},{"geonameid":6542850,"name":"Vaglio Serra","admin3":"005111"},{"geonameid":6542851,"name":"Viarigi","admin3":"005115"},{"geonameid":6542852,"name":"Vinchio","admin3":"005120"},{"geonameid":6543478,"name":"Aramengo","admin3":"005004"},{"geonameid":6543479,"name":"Azzano d'Asti","admin3":"005006"},{"geonameid":6543480,"name":"Buttigliera d'Asti","admin3":"005012","localeAltName":null},{"geonameid":6543481,"name":"Calosso","admin3":"005015"},{"geonameid":6543482,"name":"Castelnuovo Belbo","admin3":"005029","localeAltName":null},{"geonameid":6543483,"name":"Castel Rocchero","admin3":"005032"},{"geonameid":6543484,"name":"Celle Enomondo","admin3":"005034"},{"geonameid":6543485,"name":"Cerreto d'Asti","admin3":"005035"},{"geonameid":6543486,"name":"Cerro Tanaro","admin3":"005036","localeAltName":null},{"geonameid":6543487,"name":"Chiusano d'Asti","admin3":"005038"},{"geonameid":6543488,"name":"Frinco","admin3":"005055"},{"geonameid":6543489,"name":"Grana","admin3":"005056","localeAltName":null},{"geonameid":6543490,"name":"Loazzolo","admin3":"005060"},{"geonameid":6543491,"name":"Moasca","admin3":"005063"},{"geonameid":6543492,"name":"Moransengo","admin3":"005079"},{"geonameid":6543493,"name":"Olmo Gentile","admin3":"005081"},{"geonameid":6543494,"name":"Penango","admin3":"005083"},{"geonameid":6543495,"name":"Pino d'Asti","admin3":"005085"},{"geonameid":6543496,"name":"Portacomaro","admin3":"005087","localeAltName":null},{"geonameid":6543497,"name":"Revigliasco d'Asti","admin3":"005090"},{"geonameid":6543498,"name":"Roccaverano","admin3":"005094"},{"geonameid":6543499,"name":"Rocchetta Palafea","admin3":"005095"},{"geonameid":6543500,"name":"Rocchetta Tanaro","admin3":"005096","localeAltName":null},{"geonameid":6543501,"name":"San Giorgio Scarampi","admin3":"005098"},{"geonameid":6543502,"name":"San Marzano Oliveto","admin3":"005100"},{"geonameid":6543503,"name":"Scurzolengo","admin3":"005103"},{"geonameid":6543504,"name":"Sessame","admin3":"005105"},{"geonameid":6543505,"name":"Settime","admin3":"005106"},{"geonameid":6543506,"name":"Tonengo","admin3":"005110"},{"geonameid":6543507,"name":"Viale","admin3":"005114"},{"geonameid":6543508,"name":"Vigliano d'Asti","admin3":"005116"}],"alternateNames":[{"alternatenameId":1888,"geonameid":3182712,"isoLanguage":"it","alternateName":"Asti","isPreferredName":true,"isShortName":true,"isColloquial":false,"isHistoric":false}]},"__N_SSG":true}