{"pageProps":{"locale":"en","admin2":{"geonameid":2747999,"name":"Gemeente Roermond","country":"NL","admin1":"05","admin2":"0957","admin3":"","latitude":"51.1999900","longitude":"6.0090000","localeAltName":null},"admin1":{"geonameid":2751596,"name":"Provincie Limburg","admin1":"05","localeAltName":"Limburg"},"locations":[{"geonameid":6544793,"name":"Aan de Rijksweg","admin3":"","localeAltName":null},{"geonameid":2759644,"name":"Asenray","admin3":"","localeAltName":null},{"geonameid":2759635,"name":"Asselt","admin3":"","localeAltName":null},{"geonameid":2758516,"name":"Boukoul","admin3":"","localeAltName":null},{"geonameid":2758273,"name":"Broekhin","admin3":"","localeAltName":null},{"geonameid":2756951,"name":"De Weerd","admin3":"","localeAltName":null},{"geonameid":2756734,"name":"Donderberg","admin3":"","localeAltName":null},{"geonameid":2756257,"name":"Einde","admin3":"","localeAltName":null},{"geonameid":2755695,"name":"Gebroek","admin3":"","localeAltName":null},{"geonameid":2754774,"name":"Hatenboer","admin3":"","localeAltName":null},{"geonameid":2754597,"name":"Heide","admin3":"","localeAltName":null},{"geonameid":2754331,"name":"Herten","admin3":"","localeAltName":null},{"geonameid":6254916,"name":"Kapellerlaan","admin3":"","localeAltName":null},{"geonameid":2752820,"name":"Kitskensberg","admin3":"","localeAltName":null},{"geonameid":2751789,"name":"Leeuwen","admin3":"","localeAltName":null},{"geonameid":2751331,"name":"Maalbroek","admin3":"","localeAltName":null},{"geonameid":2751286,"name":"Maasniel","admin3":"","localeAltName":null},{"geonameid":2750932,"name":"Merum","admin3":"","localeAltName":null},{"geonameid":2750811,"name":"Mijnheerkens","admin3":"","localeAltName":null},{"geonameid":2749787,"name":"Notenboom","admin3":"","localeAltName":null},{"geonameid":2749695,"name":"Offerkamp","admin3":"","localeAltName":null},{"geonameid":2749563,"name":"Ool","admin3":"","localeAltName":null},{"geonameid":2748003,"name":"Roer","admin3":"","localeAltName":null},{"geonameid":2748000,"name":"Roermond","admin3":"","localeAltName":null},{"geonameid":2746923,"name":"Spik","admin3":"","localeAltName":null},{"geonameid":2746636,"name":"Straat","admin3":"","localeAltName":null},{"geonameid":2746548,"name":"Swalmen","admin3":"","localeAltName":null},{"geonameid":2746336,"name":"Thuserhof","admin3":"","localeAltName":null},{"geonameid":2744561,"name":"Wieler","admin3":"","localeAltName":null}],"admin3":[],"alternateNames":[{"alternatenameId":9073257,"geonameid":2751596,"isoLanguage":"en","alternateName":"Limburg","isPreferredName":true,"isShortName":true,"isColloquial":false,"isHistoric":false},{"alternatenameId":9073258,"geonameid":2751596,"isoLanguage":"de","alternateName":"Limburg","isPreferredName":true,"isShortName":true,"isColloquial":false,"isHistoric":false}]},"__N_SSG":true}