{"pageProps":{"locale":"en","admin2":{"geonameid":6119135,"name":"Regional District of Nanaimo","country":"CA","admin1":"02","admin2":"5921","admin3":"","latitude":"49.2495900","longitude":"-124.3361200"},"admin1":{"geonameid":5909050,"name":"British Columbia","admin1":"02"},"locations":[{"geonameid":5904742,"name":"Boat Harbour","admin3":""},{"geonameid":5906853,"name":"Bowser","admin3":""},{"geonameid":5918040,"name":"Cassidy","admin3":""},{"geonameid":5920398,"name":"Chase River","admin3":"5921007"},{"geonameid":5936888,"name":"Deep Bay","admin3":""},{"geonameid":5937950,"name":"Departure Bay","admin3":"5921007"},{"geonameid":5941017,"name":"Dolphin Beach","admin3":""},{"geonameid":5944266,"name":"Dunsmuir","admin3":""},{"geonameid":12076666,"name":"Englishman River South","admin3":""},{"geonameid":5950739,"name":"Extension","admin3":""},{"geonameid":12070756,"name":"Fairwinds","admin3":""},{"geonameid":5957946,"name":"French Creek","admin3":""},{"geonameid":5971046,"name":"Harmac","admin3":"5921007"},{"geonameid":8593677,"name":"Lantzville","admin3":"5921008"},{"geonameid":6085772,"name":"Nanaimo","admin3":"5921007"},{"geonameid":8504652,"name":"Nanoose Bay","admin3":""},{"geonameid":6098642,"name":"Parksville","admin3":"5921018"},{"geonameid":6114862,"name":"Qualicum Beach","admin3":"5921023"},{"geonameid":6147649,"name":"Silva Bay","admin3":""},{"geonameid":6152762,"name":"South Wellington","admin3":""}],"admin3":[{"geonameid":12031881,"name":"Nanaimo","admin3":"5921007"},{"geonameid":12031966,"name":"Lantzville","admin3":"5921008"},{"geonameid":12031967,"name":"Parksville","admin3":"5921018"},{"geonameid":12031968,"name":"Qualicum Beach","admin3":"5921023"}],"alternateNames":[]},"__N_SSG":true}