{"pageProps":{"locale":"en","admin2":{"geonameid":6119128,"name":"Regional District of Central Okanagan","country":"CA","admin1":"02","admin2":"5935","admin3":"","latitude":"49.9997800","longitude":"-119.4190800"},"admin1":{"geonameid":5909050,"name":"British Columbia","admin1":"02"},"locations":[{"geonameid":5898636,"name":"Benvoulin","admin3":"5935010"},{"geonameid":5907288,"name":"Braeloch","admin3":"5935010"},{"geonameid":5917613,"name":"Carrs","admin3":"5935016"},{"geonameid":5918817,"name":"Cedar Grove","admin3":"5935016"},{"geonameid":12070755,"name":"Duck Lake","admin3":""},{"geonameid":5945769,"name":"East Kelowna","admin3":"5935010"},{"geonameid":5960195,"name":"Gellatly","admin3":"5935029"},{"geonameid":5962076,"name":"Glenrosa","admin3":"5935029"},{"geonameid":5990579,"name":"Kelowna","admin3":"5935010"},{"geonameid":6183117,"name":"Lake Country","admin3":"5935016"},{"geonameid":6048785,"name":"Lakeview Heights","admin3":"5935029"},{"geonameid":6070311,"name":"McKinley Landing","admin3":"5935010"},{"geonameid":6092887,"name":"Okanagan Centre","admin3":"5935016"},{"geonameid":6092896,"name":"Okanagan Mission","admin3":"5935010"},{"geonameid":8062598,"name":"Oyama","admin3":"5935016"},{"geonameid":6095840,"name":"Oyama","admin3":"5935016"},{"geonameid":6100086,"name":"Peachland","admin3":"5935018"},{"geonameid":6105861,"name":"Pixie Beach","admin3":"5935016"},{"geonameid":6136777,"name":"Rutland","admin3":"5935010"},{"geonameid":6168302,"name":"Traders Cove","admin3":""},{"geonameid":7281936,"name":"West Kelowna","admin3":"5935029"},{"geonameid":6184313,"name":"Woodsdale","admin3":"5935016"}],"admin3":[{"geonameid":6048314,"name":"Lake Country","admin3":"5935016"},{"geonameid":12031890,"name":"Peachland","admin3":"5935018"},{"geonameid":12031891,"name":"West Kelowna","admin3":"5935029"},{"geonameid":12031984,"name":"Kelowna","admin3":"5935010"}],"alternateNames":[]},"__N_SSG":true}