{"pageProps":{"locale":"en","admin2":{"geonameid":4347820,"name":"City of Baltimore","country":"US","admin1":"MD","admin2":"510","admin3":"","latitude":"39.2903800","longitude":"-76.6121900","localeAltName":"Baltimore"},"admin1":{"geonameid":4361885,"name":"Maryland","admin1":"MD","localeAltName":"Maryland"},"locations":[{"geonameid":4347407,"name":"Arlington","admin3":"","localeAltName":null},{"geonameid":4347778,"name":"Baltimore","admin3":"","localeAltName":null},{"geonameid":4349594,"name":"Brooklyn","admin3":"","localeAltName":null},{"geonameid":4349947,"name":"Butcher's Hill","admin3":"","localeAltName":null},{"geonameid":4351065,"name":"Charles Village","admin3":"","localeAltName":null},{"geonameid":4357116,"name":"Gwynn Oak","admin3":"","localeAltName":null},{"geonameid":4359207,"name":"Irvington","admin3":"","localeAltName":null},{"geonameid":4828616,"name":"Mount Vernon","admin3":"","localeAltName":null},{"geonameid":4364260,"name":"Oaklee","admin3":"","localeAltName":null}],"admin3":[],"alternateNames":[{"alternatenameId":16782933,"geonameid":4347820,"isoLanguage":"en","alternateName":"Baltimore","isPreferredName":true,"isShortName":true,"isColloquial":false,"isHistoric":false},{"alternatenameId":1979906,"geonameid":4361885,"isoLanguage":"en","alternateName":"Maryland","isPreferredName":true,"isShortName":true,"isColloquial":false,"isHistoric":false}]},"__N_SSG":true}