{"pageProps":{"locale":"de","admin2":{"geonameid":8260146,"name":"Bezirk Kreuzlingen","country":"CH","admin1":"TG","admin2":"2013","admin3":"","latitude":"47.6304600","longitude":"9.1645800"},"admin1":{"geonameid":2658372,"name":"Kanton Thurgau","admin1":"TG"},"locations":[{"geonameid":2661768,"name":"Altnau","admin3":"4641"},{"geonameid":2661433,"name":"Bottighofen","admin3":"4643"},{"geonameid":2660869,"name":"Ermatingen","admin3":"4646"},{"geonameid":2660545,"name":"Gottlieben","admin3":"4651"},{"geonameid":2660432,"name":"Güttingen","admin3":"4656"},{"geonameid":2660108,"name":"Kreuzlingen","admin3":"4671"},{"geonameid":2660029,"name":"Langrickenbach","admin3":"4681"},{"geonameid":2659544,"name":"Münsterlingen","admin3":"4691"},{"geonameid":2659101,"name":"Raperswilen","admin3":"4846"},{"geonameid":2658432,"name":"Tägerwilen","admin3":"4696"},{"geonameid":2658068,"name":"Wäldi","admin3":"4701"}],"admin3":[{"geonameid":7285062,"name":"Altnau","admin3":"4641"},{"geonameid":7285305,"name":"Bottighofen","admin3":"4643"},{"geonameid":7285756,"name":"Ermatingen","admin3":"4646"},{"geonameid":7285948,"name":"Gottlieben","admin3":"4651"},{"geonameid":7286014,"name":"Güttingen","admin3":"4656"},{"geonameid":7286185,"name":"Kemmental","admin3":"4666"},{"geonameid":7286222,"name":"Kreuzlingen","admin3":"4671"},{"geonameid":7286262,"name":"Langrickenbach","admin3":"4681"},{"geonameid":7286314,"name":"Lengwil","admin3":"4683"},{"geonameid":7286592,"name":"Münsterlingen","admin3":"4691"},{"geonameid":7286857,"name":"Raperswilen","admin3":"4846"},{"geonameid":7287040,"name":"Salenstein","admin3":"4851"},{"geonameid":7287276,"name":"Tägerwilen","admin3":"4696"},{"geonameid":7287521,"name":"Wäldi","admin3":"4701"}],"alternateNames":[{"alternatenameId":6990605,"geonameid":2658372,"isoLanguage":"en","alternateName":"Thurgau","isPreferredName":true,"isShortName":true,"isColloquial":false,"isHistoric":false}]},"__N_SSG":true}