{"pageProps":{"locale":"de","admin2":{"geonameid":6458754,"name":"Broye District","country":"CH","admin1":"FR","admin2":"1001","admin3":"","latitude":"46.8221200","longitude":"6.9024900"},"admin1":{"geonameid":2660717,"name":"Canton de Fribourg","admin1":"FR"},"locations":[{"geonameid":2661676,"name":"Aumont","admin3":"2050"},{"geonameid":6941591,"name":"Bussy","admin3":"2054"},{"geonameid":2661179,"name":"Cheyres","admin3":"2055"},{"geonameid":2661064,"name":"Cugy","admin3":"2011"},{"geonameid":2660999,"name":"Domdidier","admin3":"2053"},{"geonameid":2660996,"name":"Dompierre","admin3":"2053"},{"geonameid":2660851,"name":"Estavayer-le-Lac","admin3":"2054"},{"geonameid":6941593,"name":"Gletterens","admin3":"2022"},{"geonameid":2659975,"name":"Léchelles","admin3":"2053"},{"geonameid":2659833,"name":"Lully","admin3":"2025"},{"geonameid":2659590,"name":"Morens","admin3":"2054"},{"geonameid":6941585,"name":"Murist","admin3":"2054"},{"geonameid":2659169,"name":"Portalban","admin3":"2051"}],"admin3":[{"geonameid":6941399,"name":"Vallon","admin3":"2045"},{"geonameid":7285482,"name":"Châtillon (FR)","admin3":"2008"},{"geonameid":7285604,"name":"Cugy (FR)","admin3":"2011"},{"geonameid":7285634,"name":"Delley-Portalban","admin3":"2051"},{"geonameid":7285814,"name":"Fétigny","admin3":"2016"},{"geonameid":7285929,"name":"Gletterens","admin3":"2022"},{"geonameid":7286331,"name":"Les Montets","admin3":"2050"},{"geonameid":7286386,"name":"Lully (FR)","admin3":"2025"},{"geonameid":7286484,"name":"Ménières","admin3":"2027"},{"geonameid":7286526,"name":"Montagny (FR)","admin3":"2029"},{"geonameid":7286670,"name":"Nuvilly","admin3":"2035"},{"geonameid":7286836,"name":"Prévondavaux","admin3":"2038"},{"geonameid":7287019,"name":"Saint-Aubin (FR)","admin3":"2041"},{"geonameid":7287159,"name":"Sévaz","admin3":"2043"},{"geonameid":7287267,"name":"Surpierre","admin3":"2044"},{"geonameid":11611711,"name":"Cheyres-Châbles","admin3":"2055"},{"geonameid":11611715,"name":"Estavayer","admin3":"2054"},{"geonameid":11611719,"name":"Belmont-Broye","admin3":"2053"}],"alternateNames":[]},"__N_SSG":true}