{"pageProps":{"locale":"de","admin2":{"geonameid":2660598,"name":"Glâne District","country":"CH","admin1":"FR","admin2":"1002","admin3":"","latitude":"46.6666700","longitude":"6.9166700"},"admin1":{"geonameid":2660717,"name":"Canton de Fribourg","admin1":"FR"},"locations":[{"geonameid":2660947,"name":"Ecublens","admin3":"2072"},{"geonameid":2659666,"name":"Mézières","admin3":"2087"},{"geonameid":2658982,"name":"Romont","admin3":"2096"},{"geonameid":2658936,"name":"Rue","admin3":"2097"},{"geonameid":2658570,"name":"Siviriez","admin3":"2099"},{"geonameid":2658124,"name":"Villaz-Saint-Pierre","admin3":"2117"}],"admin3":[{"geonameid":7285115,"name":"Auboranges","admin3":"2061"},{"geonameid":7285245,"name":"Billens-Hennens","admin3":"2063"},{"geonameid":7285473,"name":"Chapelle (Glâne)","admin3":"2066"},{"geonameid":7285484,"name":"Châtonnaye","admin3":"2068"},{"geonameid":7285697,"name":"Ecublens (FR)","admin3":"2072"},{"geonameid":7285968,"name":"Grangettes","admin3":"2079"},{"geonameid":7286296,"name":"Le Châtelard","admin3":"2067"},{"geonameid":7286452,"name":"Massonnens","admin3":"2086"},{"geonameid":7286503,"name":"Mézières (FR)","admin3":"2087"},{"geonameid":7286533,"name":"Montet (Glâne)","admin3":"2089"},{"geonameid":7286943,"name":"Romont (FR)","admin3":"2096"},{"geonameid":7286973,"name":"Rue","admin3":"2097"},{"geonameid":7287182,"name":"Siviriez","admin3":"2099"},{"geonameid":7287319,"name":"Torny","admin3":"2115"},{"geonameid":7287395,"name":"Ursy","admin3":"2102"},{"geonameid":7287481,"name":"Villorsonnens","admin3":"2114"},{"geonameid":7287507,"name":"Vuisternens-devant-Romont","admin3":"2113"},{"geonameid":12110843,"name":"Villaz","admin3":"2117"}],"alternateNames":[]},"__N_SSG":true}