{"pageProps":{"locale":"de","admin2":{"geonameid":6458796,"name":"Gruyère District","country":"CH","admin1":"FR","admin2":"1003","admin3":"","latitude":"46.6075300","longitude":"7.1074100"},"admin1":{"geonameid":2660717,"name":"Canton de Fribourg","admin1":"FR"},"locations":[{"geonameid":2661828,"name":"Albeuve","admin3":"2121"},{"geonameid":2661383,"name":"Broc","admin3":"2124"},{"geonameid":2661337,"name":"Bulle","admin3":"2125"},{"geonameid":2661234,"name":"Cerniat","admin3":"2163"},{"geonameid":2661211,"name":"Charmey","admin3":"2163"},{"geonameid":2660890,"name":"Enney","admin3":"2162"},{"geonameid":2660852,"name":"Estavannens-Dessus","admin3":"2162"},{"geonameid":2660527,"name":"Grandvillard","admin3":"2134"},{"geonameid":2660463,"name":"Gruyères","admin3":"2135"},{"geonameid":2660397,"name":"Hauteville","admin3":"2137"},{"geonameid":2660231,"name":"Jaun","admin3":"2138"},{"geonameid":2660016,"name":"La Roche","admin3":"2149"},{"geonameid":2660007,"name":"La Tour-de-Trême","admin3":"2125"},{"geonameid":2659980,"name":"Le Bry","admin3":"2122"},{"geonameid":2659915,"name":"Lessoc","admin3":"2121"},{"geonameid":2659755,"name":"Marsens","admin3":"2140"},{"geonameid":2659621,"name":"Montbovon","admin3":"2121"},{"geonameid":6941936,"name":"Neirivue","admin3":"2121"},{"geonameid":2659055,"name":"Riaz","admin3":"2148"},{"geonameid":2658932,"name":"Rueyres","admin3":"2152"},{"geonameid":2658852,"name":"Sâles","admin3":"2152"},{"geonameid":2658548,"name":"Sorens","admin3":"2153"},{"geonameid":2658177,"name":"Vaulruz","admin3":"2155"},{"geonameid":2658125,"name":"Villarvolard","admin3":"2129"},{"geonameid":2658090,"name":"Vuadens","admin3":"2160"}],"admin3":[{"geonameid":7285162,"name":"Bas-Intyamon","admin3":"2162"},{"geonameid":7285304,"name":"Botterens","admin3":"2123"},{"geonameid":7285344,"name":"Broc","admin3":"2124"},{"geonameid":7285381,"name":"Bulle","admin3":"2125"},{"geonameid":7285480,"name":"Châtel-sur-Montsalvens","admin3":"2128"},{"geonameid":7285548,"name":"Corbières","admin3":"2129"},{"geonameid":7285593,"name":"Crésuz","admin3":"2130"},{"geonameid":7285691,"name":"Echarlens","admin3":"2131"},{"geonameid":7285964,"name":"Grandvillard","admin3":"2134"},{"geonameid":7285996,"name":"Gruyères","admin3":"2135"},{"geonameid":7286042,"name":"Hauteville","admin3":"2137"},{"geonameid":7286043,"name":"Haut-Intyamon","admin3":"2121"},{"geonameid":7286158,"name":"Jaun","admin3":"2138"},{"geonameid":7286268,"name":"La Roche","admin3":"2149"},{"geonameid":7286319,"name":"Le Pâquier (FR)","admin3":"2145"},{"geonameid":7286440,"name":"Marsens","admin3":"2140"},{"geonameid":7286558,"name":"Morlon","admin3":"2143"},{"geonameid":7286814,"name":"Pont-en-Ogoz","admin3":"2122"},{"geonameid":7286817,"name":"Pont-la-Ville","admin3":"2147"},{"geonameid":7286893,"name":"Riaz","admin3":"2148"},{"geonameid":7287041,"name":"Sâles","admin3":"2152"},{"geonameid":7287195,"name":"Sorens","admin3":"2153"},{"geonameid":7287421,"name":"Vaulruz","admin3":"2155"},{"geonameid":7287498,"name":"Vuadens","admin3":"2160"},{"geonameid":8740954,"name":"Val-de-Charmey","admin3":"2163"}],"alternateNames":[]},"__N_SSG":true}