{"pageProps":{"locale":"ro","admin2":{"geonameid":670074,"name":"Comuna Poiana Lacului","country":"RO","admin1":"03","admin2":"18028","admin3":"","latitude":"44.8119900","longitude":"24.7129600"},"admin1":{"geonameid":686192,"name":"Argeş","admin1":"03"},"locations":[{"geonameid":682539,"name":"Cătunași","admin3":""},{"geonameid":682416,"name":"Cepari","admin3":""},{"geonameid":679673,"name":"Dealu Bârei","admin3":""},{"geonameid":679597,"name":"Dealu Orașului","admin3":""},{"geonameid":679570,"name":"Dealu Viilor","admin3":""},{"geonameid":679361,"name":"Dinculești","admin3":""},{"geonameid":677280,"name":"Gâlcești","admin3":""},{"geonameid":677651,"name":"Gălețeanu","admin3":""},{"geonameid":676823,"name":"Gărdinești","admin3":""},{"geonameid":674459,"name":"Lunca","admin3":""},{"geonameid":673500,"name":"Metofu","admin3":""},{"geonameid":671498,"name":"Păduroiu din Deal","admin3":""},{"geonameid":671497,"name":"Păduroiu din Vale","admin3":""},{"geonameid":670632,"name":"Piscu Popii","admin3":""},{"geonameid":670075,"name":"Poiana Lacului","admin3":""},{"geonameid":669878,"name":"Popeşti","admin3":""},{"geonameid":668121,"name":"Sămara","admin3":""},{"geonameid":665312,"name":"Teiuşu","admin3":""},{"geonameid":662172,"name":"Zlapia","admin3":""}],"admin3":[],"alternateNames":[]},"__N_SSG":true}