{"pageProps":{"locale":"en","admin2":{"geonameid":4983917,"name":"Alcona County","country":"US","admin1":"MI","admin2":"001","admin3":"","latitude":"44.7116100","longitude":"-83.3436600"},"admin1":{"geonameid":5001836,"name":"Michigan","admin1":"MI","localeAltName":"Michigan"},"locations":[{"geonameid":4996690,"name":"Hubbard Lake","admin3":"37220"}],"admin3":[{"geonameid":4983921,"name":"Township of Alcona","admin3":"01040"},{"geonameid":4987666,"name":"Township of Caledonia","admin3":"12460"},{"geonameid":4990207,"name":"Township of Curtis","admin3":"19320"},{"geonameid":4994694,"name":"Township of Greenbush","admin3":"34820"},{"geonameid":4994989,"name":"Township of Gustin","admin3":"35740"},{"geonameid":4995427,"name":"City of Harrisville","admin3":"36860"},{"geonameid":4995428,"name":"Township of Harrisville","admin3":"36880"},{"geonameid":4995563,"name":"Township of Hawes","admin3":"37220"},{"geonameid":4995642,"name":"Township of Haynes","admin3":"37380"},{"geonameid":5001947,"name":"Township of Mikado","admin3":"53880"},{"geonameid":5002034,"name":"Township of Millen","admin3":"54060"},{"geonameid":5002273,"name":"Township of Mitchell","admin3":"54740"}],"alternateNames":[{"alternatenameId":2124820,"geonameid":5001836,"isoLanguage":"en","alternateName":"Michigan","isPreferredName":true,"isShortName":true,"isColloquial":false,"isHistoric":false}]},"__N_SSG":true}