{"pageProps":{"locale":"en","admin2":{"geonameid":4999022,"name":"Leelanau County","country":"US","admin1":"MI","admin2":"089","admin3":"","latitude":"45.1517700","longitude":"-86.0385000"},"admin1":{"geonameid":5001836,"name":"Michigan","admin1":"MI","localeAltName":"Michigan"},"locations":[{"geonameid":4994793,"name":"Greilickville","admin3":"25700"}],"admin3":[{"geonameid":4986107,"name":"Township of Bingham","admin3":"08440"},{"geonameid":4988410,"name":"Township of Centerville","admin3":"14340"},{"geonameid":4989109,"name":"Township of Cleveland","admin3":"16400"},{"geonameid":4992075,"name":"Charter Township of Elmwood","admin3":"25700"},{"geonameid":4992152,"name":"Township of Empire","admin3":"26000"},{"geonameid":4994011,"name":"Township of Glen Arbor","admin3":"32380"},{"geonameid":4997832,"name":"Township of Kasson","admin3":"42320"},{"geonameid":4999027,"name":"Township of Leelanau","admin3":"46700"},{"geonameid":4999069,"name":"Township of Leland","admin3":"46820"},{"geonameid":5010330,"name":"Township of Solon","admin3":"74500"},{"geonameid":5011656,"name":"Township of Suttons Bay","admin3":"77620"}],"alternateNames":[{"alternatenameId":2124820,"geonameid":5001836,"isoLanguage":"en","alternateName":"Michigan","isPreferredName":true,"isShortName":true,"isColloquial":false,"isHistoric":false}]},"__N_SSG":true}