{"pageProps":{"locale":"en","admin2":{"geonameid":5000612,"name":"Manistee County","country":"US","admin1":"MI","admin2":"101","admin3":"","latitude":"44.2383100","longitude":"-86.2879900"},"admin1":{"geonameid":5001836,"name":"Michigan","admin1":"MI","localeAltName":"Michigan"},"locations":[{"geonameid":5000611,"name":"Manistee","admin3":"50720"}],"admin3":[{"geonameid":4984342,"name":"Township of Arcadia","admin3":"03320"},{"geonameid":4985323,"name":"Township of Bear Lake","admin3":"06480"},{"geonameid":4987146,"name":"Township of Brown","admin3":"11160"},{"geonameid":4989093,"name":"Township of Cleon","admin3":"16380"},{"geonameid":4990857,"name":"Township of Dickson","admin3":"22320"},{"geonameid":4992694,"name":"Charter Township of Filer","admin3":"28040"},{"geonameid":5000622,"name":"City of Manistee","admin3":"50720"},{"geonameid":5000623,"name":"Township of Manistee","admin3":"50740"},{"geonameid":5000740,"name":"Township of Maple Grove","admin3":"51000"},{"geonameid":5000869,"name":"Township of Marilla","admin3":"51580"},{"geonameid":5003581,"name":"Township of Norman","admin3":"57900"},{"geonameid":5004501,"name":"Township of Onekama","admin3":"60760"},{"geonameid":5006034,"name":"Township of Pleasanton","admin3":"64860"},{"geonameid":5010884,"name":"Township of Springdale","admin3":"75680"},{"geonameid":5011383,"name":"Township of Stronach","admin3":"76840"}],"alternateNames":[{"alternatenameId":2124820,"geonameid":5001836,"isoLanguage":"en","alternateName":"Michigan","isPreferredName":true,"isShortName":true,"isColloquial":false,"isHistoric":false}]},"__N_SSG":true}