{"pageProps":{"locale":"en","admin2":{"geonameid":5003426,"name":"Newaygo County","country":"US","admin1":"MI","admin2":"123","admin3":"","latitude":"43.5541700","longitude":"-85.8009100"},"admin1":{"geonameid":5001836,"name":"Michigan","admin1":"MI","localeAltName":"Michigan"},"locations":[{"geonameid":4993417,"name":"Fremont","admin3":"30700"},{"geonameid":5003424,"name":"Newaygo","admin3":"57080"},{"geonameid":5014811,"name":"White Cloud","admin3":"86680"}],"admin3":[{"geonameid":4984459,"name":"Township of Ashland","admin3":"03700"},{"geonameid":4985030,"name":"Township of Barton","admin3":"05620"},{"geonameid":4985458,"name":"Township of Beaver","admin3":"06580"},{"geonameid":4986016,"name":"Township of Big Prairie","admin3":"08280"},{"geonameid":4986971,"name":"Township of Bridgeton","admin3":"10500"},{"geonameid":4987078,"name":"Township of Brooks","admin3":"11060"},{"geonameid":4990053,"name":"Township of Croton","admin3":"18980"},{"geonameid":4990442,"name":"Township of Dayton","admin3":"19960"},{"geonameid":4990709,"name":"Township of Denver","admin3":"21700"},{"geonameid":4992183,"name":"Township of Ensley","admin3":"26160"},{"geonameid":4992315,"name":"Township of Everett","admin3":"26700"},{"geonameid":4993427,"name":"City of Fremont","admin3":"30700"},{"geonameid":4993711,"name":"Township of Garfield","admin3":"31640"},{"geonameid":4994151,"name":"Township of Goodwell","admin3":"33000"},{"geonameid":4994440,"name":"City of Grant","admin3":"34360"},{"geonameid":4994449,"name":"Township of Grant","admin3":"34380"},{"geonameid":4996366,"name":"Township of Home","admin3":"38860"},{"geonameid":4999216,"name":"Township of Lilley","admin3":"47440"},{"geonameid":4999354,"name":"Township of Lincoln","admin3":"47700"},{"geonameid":5001715,"name":"Township of Merrill","admin3":"53160"},{"geonameid":5002365,"name":"Township of Monroe","admin3":"55060"},{"geonameid":5003433,"name":"City of Newaygo","admin3":"57080"},{"geonameid":5004041,"name":"Township of Norwich","admin3":"59300"},{"geonameid":5009646,"name":"Charter Township of Sheridan","admin3":"73120"},{"geonameid":5009683,"name":"Township of Sherman","admin3":"73260"},{"geonameid":5012644,"name":"Township of Troy","admin3":"80680"},{"geonameid":5014817,"name":"City of White Cloud","admin3":"86680"},{"geonameid":5015019,"name":"Township of Wilcox","admin3":"87200"}],"alternateNames":[{"alternatenameId":2124820,"geonameid":5001836,"isoLanguage":"en","alternateName":"Michigan","isPreferredName":true,"isShortName":true,"isColloquial":false,"isHistoric":false}]},"__N_SSG":true}