{"pageProps":{"locale":"en","admin2":{"geonameid":5229622,"name":"McCook County","country":"US","admin1":"SD","admin2":"087","admin3":"","latitude":"43.6743100","longitude":"-97.3684400","localeAltName":null},"admin1":{"geonameid":5769223,"name":"South Dakota","admin1":"SD","localeAltName":"South Dakota"},"locations":[{"geonameid":5226708,"name":"Canistota","admin3":"09300","localeAltName":null},{"geonameid":5231228,"name":"Salem","admin3":"57340","localeAltName":null}],"admin3":[{"geonameid":5226241,"name":"Township of Benton","admin3":"04820"},{"geonameid":5226510,"name":"City of Bridgewater","admin3":"07180"},{"geonameid":5226511,"name":"Township of Bridgewater","admin3":"07220"},{"geonameid":5226567,"name":"Township of Brookfield","admin3":"07540"},{"geonameid":5226710,"name":"City of Canistota","admin3":"09300","localeAltName":null},{"geonameid":5226711,"name":"Township of Canistota","admin3":"09340"},{"geonameid":5227618,"name":"Township of Emery","admin3":"19460"},{"geonameid":5228186,"name":"Township of Grant","admin3":"25660"},{"geonameid":5228211,"name":"Township of Greenland","admin3":"25940"},{"geonameid":5228807,"name":"Township of Jefferson","admin3":"32580"},{"geonameid":5229834,"name":"City of Montrose","admin3":"43500"},{"geonameid":5229835,"name":"Township of Montrose","admin3":"43540"},{"geonameid":5230347,"name":"Township of Pearl","admin3":"48740"},{"geonameid":5230695,"name":"Township of Ramsey","admin3":"52900"},{"geonameid":5230832,"name":"Township of Richland","admin3":"54740"},{"geonameid":5231242,"name":"City of Salem","admin3":"57340","localeAltName":null},{"geonameid":5231244,"name":"Township of Salem","admin3":"57380"},{"geonameid":5231988,"name":"City of Spencer","admin3":"60060"},{"geonameid":5232064,"name":"Township of Spring Valley","admin3":"61060"},{"geonameid":5232221,"name":"Township of Sun Prairie","admin3":"62420"},{"geonameid":5232527,"name":"Township of Union","admin3":"65340"}],"alternateNames":[{"alternatenameId":2089551,"geonameid":5769223,"isoLanguage":"en","alternateName":"South Dakota","isPreferredName":true,"isShortName":true,"isColloquial":false,"isHistoric":false}]},"__N_SSG":true}