{"pageProps":{"locale":"en","admin2":{"geonameid":3333242,"name":"Conwy","country":"GB","admin1":"WLS","admin2":"X8","admin3":"","latitude":"53.0833300","longitude":"-3.7500000"},"admin1":{"geonameid":2634895,"name":"Wales","admin1":"WLS","localeAltName":"Wales"},"locations":[{"geonameid":2657812,"name":"Abergele"},{"geonameid":2655793,"name":"Betws-y-Coed"},{"geonameid":2655791,"name":"Betws-yn-Rhôs"},{"geonameid":2654094,"name":"Caerhûn"},{"geonameid":2653850,"name":"Capel Curig"},{"geonameid":2653848,"name":"Capel Garmon"},{"geonameid":2653422,"name":"Cerrigydrudion"},{"geonameid":2652513,"name":"Colwyn Bay"},{"geonameid":2652426,"name":"Conwy"},{"geonameid":9538851,"name":"Cwmpenanner"},{"geonameid":2651407,"name":"Deganwy"},{"geonameid":2651239,"name":"Dinorben"},{"geonameid":2651155,"name":"Dolgarrog"},{"geonameid":2651144,"name":"Dolwyddelan"},{"geonameid":2650177,"name":"Eglwys-Fâch"},{"geonameid":2649167,"name":"Foryd"},{"geonameid":2647714,"name":"Gwytherin"},{"geonameid":2645387,"name":"Kinmel"},{"geonameid":6695709,"name":"Kinmel Bay","localeAltName":"Kinmel Bay"},{"geonameid":2644173,"name":"Llanbedr-y-cennin"},{"geonameid":2644150,"name":"Llanddoget"},{"geonameid":2644148,"name":"Llanddulas"},{"geonameid":2644123,"name":"Llandrillo-yn-Rhôs"},{"geonameid":2644120,"name":"Llandudno"},{"geonameid":2644119,"name":"Llandudno Junction"},{"geonameid":2644103,"name":"Llanelian-yn-Rhôs"},{"geonameid":2644079,"name":"Llanfair Talhaiarn"},{"geonameid":2644081,"name":"Llanfairfechan"},{"geonameid":2644067,"name":"Llanfihangel-Glyn-Myfyr"},{"geonameid":2644032,"name":"Llangelynin"},{"geonameid":2644027,"name":"Llangernyw"},{"geonameid":2644011,"name":"Llangwm"},{"geonameid":2643975,"name":"Llannefydd"},{"geonameid":2643957,"name":"Llanrwst"},{"geonameid":2643953,"name":"Llansannan"},{"geonameid":2643951,"name":"Llansantffraid Glan Conwy"},{"geonameid":2643867,"name":"Llysfaen"},{"geonameid":2642401,"name":"Mochdre"},{"geonameid":2652514,"name":"Old Colwyn"},{"geonameid":2640454,"name":"Penmachno"},{"geonameid":2640452,"name":"Penmaenmawr"},{"geonameid":8063568,"name":"Penrhyn Bay"},{"geonameid":9613186,"name":"Pentre Du"},{"geonameid":2640396,"name":"Pentre-Foelas"},{"geonameid":9613187,"name":"Rhiwddolion"},{"geonameid":2639434,"name":"Rhôs-on-Sea"},{"geonameid":2636287,"name":"Tal-y-Cafn"},{"geonameid":2635532,"name":"Trefriw"},{"geonameid":9538850,"name":"Ty Mawr"},{"geonameid":2633339,"name":"Ysbyty Ifan"}],"admin3":[{"geonameid":7290870,"name":"Llangernyw","admin3":"00NE022"},{"geonameid":7290871,"name":"Llangwm","admin3":"00NE023"},{"geonameid":7291118,"name":"Pentrefoelas","admin3":"00NE032"},{"geonameid":7293059,"name":"Bro Machno","admin3":"00NE005"},{"geonameid":7293060,"name":"Dolgarrog","admin3":"00NE011"},{"geonameid":7293061,"name":"Llanddoged and Maenan","admin3":"00NE016"},{"geonameid":7293062,"name":"Llanddulas and Rhyd-y-Foel","admin3":"00NE017"},{"geonameid":7293063,"name":"Llanfairfechan","admin3":"00NE019"},{"geonameid":7293064,"name":"Llanrwst","admin3":"00NE025"},{"geonameid":7293065,"name":"Mochdre","admin3":"00NE029"},{"geonameid":7294415,"name":"Trefriw","admin3":"00NE034"},{"geonameid":7294422,"name":"Abergele","admin3":"00NE001"},{"geonameid":7294423,"name":"Caerhun","admin3":"00NE006"},{"geonameid":7294424,"name":"Dolwyddelan","admin3":"00NE012"},{"geonameid":7294425,"name":"Kinmel Bay and Towyn","admin3":"00NE015"},{"geonameid":7294426,"name":"Llandudno","admin3":"00NE018"},{"geonameid":7294613,"name":"Rhos-on-Sea","admin3":"00NE033"},{"geonameid":7294616,"name":"Colwyn Bay","admin3":"00NE009"},{"geonameid":7294617,"name":"Eglwysbach","admin3":"00NE013"},{"geonameid":7294618,"name":"Llysfaen","admin3":"00NE028"},{"geonameid":7296022,"name":"Conwy","admin3":"00NE010"},{"geonameid":7296208,"name":"Penmaenmawr","admin3":"00NE031"},{"geonameid":7299967,"name":"Old Colwyn","admin3":"00NE030"},{"geonameid":7299974,"name":"Ysbyty Ifan","admin3":"00NE035"},{"geonameid":7299980,"name":"Betws-y-Coed","admin3":"00NE002"},{"geonameid":7299981,"name":"Betws Yn Rhos","admin3":"00NE003"},{"geonameid":7299982,"name":"Bro Garmon","admin3":"00NE004"},{"geonameid":7299983,"name":"Capel Curig","admin3":"00NE007"},{"geonameid":7299984,"name":"Cerrigydrudion","admin3":"00NE008"},{"geonameid":7299985,"name":"Henryd","admin3":"00NE014"},{"geonameid":7299986,"name":"Llannefydd","admin3":"00NE024"},{"geonameid":7299987,"name":"Llansanffraid Glan Conwy","admin3":"00NE026"},{"geonameid":7299988,"name":"Llansannan","admin3":"00NE027"},{"geonameid":7301659,"name":"Llanfair Talhaiarn","admin3":"00NE020"},{"geonameid":7301660,"name":"Llanfihangel Glyn Myfyr","admin3":"00NE021"}],"alternateNames":[{"alternatenameId":1626654,"geonameid":2634895,"isoLanguage":"en","alternateName":"Wales","isPreferredName":true,"isShortName":true,"isColloquial":false,"isHistoric":false},{"alternatenameId":8666619,"geonameid":6695709,"isoLanguage":"en","alternateName":"Kinmel Bay","isPreferredName":true,"isShortName":true,"isColloquial":false,"isHistoric":false}]},"__N_SSG":true}