{"pageProps":{"locale":"en","location":{"geonameid":2655775,"name":"Bexley","country":"GB","admin1":"ENG","admin2":"GLA","admin3":"A6","latitude":"51.4416200","longitude":"0.1486600","alternatenames":"Bexley,Bexley keruelet,Bexley kerület,London Borough of Bexley,Londonska opshtina Beksli,bksly,bykzly  lndn,Лондонска општина Бексли,بکسلی,بیکزلی، لندن"},"country":{"geonameid":2635167,"name":"United Kingdom of Great Britain and Northern Ireland","country":"GB"},"admin1":{"geonameid":6269131,"name":"England","admin1":"ENG","localeAltName":"England"},"admin2":{"geonameid":2648110,"name":"Greater London","admin1":"ENG","admin2":"GLA","localeAltName":"Greater London"},"admin3":{"geonameid":3333124,"name":"Bexley","admin1":"ENG","admin2":"GLA","admin3":"A6","localeAltName":"Bexley"},"alternateNames":[{"geonameid":2635167,"isoLanguage":"en","alternateName":"United Kingdom"},{"geonameid":2648110,"isoLanguage":"en","alternateName":"Greater London"},{"geonameid":2655775,"isoLanguage":"en","alternateName":"Bexley"},{"geonameid":3333124,"isoLanguage":"en","alternateName":"Bexley"},{"geonameid":6269131,"isoLanguage":"en","alternateName":"England"}]},"__N_SSG":true}