{"pageProps":{"locale":"en","admin2":{"geonameid":6544249,"name":"Gemeente Alphen-Chaam","country":"NL","admin1":"06","admin2":"1723","admin3":"","latitude":"51.5034100","longitude":"4.8801300"},"admin1":{"geonameid":2749990,"name":"Provincie Noord-Brabant","admin1":"06"},"locations":[{"geonameid":2759877,"name":"Alphen","admin3":""},{"geonameid":2759871,"name":"Alphen-Oosterwijk","admin3":""},{"geonameid":2759721,"name":"Anneville","admin3":""},{"geonameid":2759462,"name":"Balleman","admin3":""},{"geonameid":11746706,"name":"Bavel AC","admin3":""},{"geonameid":2759873,"name":"Boshoven","admin3":""},{"geonameid":2758545,"name":"Boslust","admin3":""},{"geonameid":2757969,"name":"Chaam","admin3":""},{"geonameid":2757966,"name":"Chaamdijk","admin3":""},{"geonameid":2755395,"name":"Couwelaar","admin3":""},{"geonameid":2757826,"name":"Dassemus","admin3":""},{"geonameid":2756545,"name":"Druisdijk","admin3":""},{"geonameid":2755770,"name":"Galder","admin3":""},{"geonameid":2755676,"name":"Geersbroek","admin3":""},{"geonameid":2755503,"name":"Ginderdoor","admin3":""},{"geonameid":2755353,"name":"Grazen","admin3":""},{"geonameid":2754646,"name":"Heerstaaien","admin3":""},{"geonameid":2754542,"name":"Heikant","admin3":""},{"geonameid":2747753,"name":"Het Sas","admin3":""},{"geonameid":2753820,"name":"Hondseind","admin3":""},{"geonameid":2753818,"name":"Hondseinde","admin3":""},{"geonameid":2753550,"name":"Houtgoor","admin3":""},{"geonameid":2753133,"name":"Kalishoek","admin3":""},{"geonameid":2752909,"name":"Kersel","admin3":""},{"geonameid":2752633,"name":"Klooster","admin3":""},{"geonameid":2752144,"name":"Kwaalburg","admin3":""},{"geonameid":2751783,"name":"Leg","admin3":""},{"geonameid":2751458,"name":"Looneind","admin3":""},{"geonameid":2750989,"name":"Meijsberg","admin3":""},{"geonameid":2749785,"name":"Notsel","admin3":""},{"geonameid":2748346,"name":"Rakens","admin3":""},{"geonameid":2747049,"name":"Snijders-Chaam","admin3":""},{"geonameid":2746614,"name":"Strijbeek","admin3":""},{"geonameid":2746417,"name":"Terover","admin3":""},{"geonameid":11746818,"name":"Ulvenhout AC","admin3":""},{"geonameid":6544733,"name":"Venweg","admin3":""}],"admin3":[],"alternateNames":[{"alternatenameId":11907788,"geonameid":2749990,"isoLanguage":"de","alternateName":"Nordbrabant","isPreferredName":true,"isShortName":true,"isColloquial":false,"isHistoric":false}]},"__N_SSG":true}