{"pageProps":{"locale":"en","admin2":{"geonameid":2747233,"name":"Gemeente Sint-Michielsgestel","country":"NL","admin1":"06","admin2":"0845","admin3":"","latitude":"51.6607600","longitude":"5.3785100"},"admin1":{"geonameid":2749990,"name":"Provincie Noord-Brabant","admin1":"06"},"locations":[{"geonameid":2759346,"name":"Beek","admin3":""},{"geonameid":2759333,"name":"Beekkant","admin3":""},{"geonameid":2759329,"name":"Beekveld","admin3":""},{"geonameid":2759059,"name":"Berlicum","admin3":""},{"geonameid":2759042,"name":"Besselaar","admin3":""},{"geonameid":6544859,"name":"De Hogert","admin3":""},{"geonameid":2757324,"name":"De Loofaert","admin3":""},{"geonameid":2757237,"name":"Den Dungen","admin3":""},{"geonameid":2756681,"name":"Doornhoek","admin3":""},{"geonameid":2755603,"name":"Gemonde","admin3":""},{"geonameid":2755017,"name":"Haanwijk","admin3":""},{"geonameid":2754948,"name":"Halder","admin3":""},{"geonameid":2754526,"name":"Heikantse Hoeve","admin3":""},{"geonameid":2754430,"name":"Hemelrijk","admin3":""},{"geonameid":2754334,"name":"Hersend","admin3":""},{"geonameid":2754108,"name":"Hezelaar","admin3":""},{"geonameid":2754027,"name":"Hoek","admin3":""},{"geonameid":2753760,"name":"Hooge Heide","admin3":""},{"geonameid":2753571,"name":"Horzik","admin3":""},{"geonameid":2752078,"name":"Laar","admin3":""},{"geonameid":2751289,"name":"Maaskantje","admin3":""},{"geonameid":2750870,"name":"Middelrode","admin3":""},{"geonameid":2750041,"name":"Nijvelaar","admin3":""},{"geonameid":2748634,"name":"Pettelaar","admin3":""},{"geonameid":2748542,"name":"Plein","admin3":""},{"geonameid":2748543,"name":"Plein","admin3":""},{"geonameid":2748532,"name":"Poeldonk","admin3":""},{"geonameid":2747838,"name":"Ruimel","admin3":""},{"geonameid":2747234,"name":"Sint-Michielsgestel","admin3":""},{"geonameid":2746367,"name":"Theereheide","admin3":""},{"geonameid":6544862,"name":"Tielse Hoeve","admin3":""},{"geonameid":2745643,"name":"Venkant","admin3":""},{"geonameid":2745361,"name":"Vogelenzang","admin3":""},{"geonameid":2744557,"name":"Wielsche Hoeven","admin3":""},{"geonameid":2744165,"name":"Woud","admin3":""}],"admin3":[],"alternateNames":[{"alternatenameId":11907788,"geonameid":2749990,"isoLanguage":"de","alternateName":"Nordbrabant","isPreferredName":true,"isShortName":true,"isColloquial":false,"isHistoric":false}]},"__N_SSG":true}