{"pageProps":{"locale":"en","admin2":{"geonameid":2753556,"name":"Gemeente Houten","country":"NL","admin1":"09","admin2":"0321","admin3":"","latitude":"52.0268300","longitude":"5.1694100"},"admin1":{"geonameid":2745909,"name":"Provincie Utrecht","admin1":"09"},"locations":[{"geonameid":2757549,"name":"De Heul","admin3":""},{"geonameid":2755388,"name":"Goyse Dorp","admin3":""},{"geonameid":2754693,"name":"Heemstede","admin3":""},{"geonameid":2753805,"name":"Honswijk","admin3":""},{"geonameid":2753557,"name":"Houten","admin3":""},{"geonameid":2751839,"name":"Leebrug","admin3":""},{"geonameid":2751513,"name":"Loerik","admin3":""},{"geonameid":6544892,"name":"Molenbuurt","admin3":""},{"geonameid":2748885,"name":"Oud-Wulven","admin3":""},{"geonameid":2747703,"name":"Schalkwijk","admin3":""},{"geonameid":2747523,"name":"Schonauwen","admin3":""},{"geonameid":2746380,"name":"t Goy","admin3":""},{"geonameid":2746117,"name":"Tull","admin3":""},{"geonameid":2746085,"name":"Tull en 't Waal","admin3":""},{"geonameid":6698634,"name":"Wayen","admin3":""}],"admin3":[],"alternateNames":[{"alternatenameId":11907793,"geonameid":2745909,"isoLanguage":"de","alternateName":"Utrecht","isPreferredName":true,"isShortName":true,"isColloquial":false,"isHistoric":false}]},"__N_SSG":true}