{"pageProps":{"locale":"en","admin2":{"geonameid":4400561,"name":"Newton County","country":"US","admin1":"MO","admin2":"145","admin3":"","latitude":"36.9055100","longitude":"-94.3392500","localeAltName":null},"admin1":{"geonameid":4398678,"name":"Missouri","admin1":"MO","localeAltName":"Missouri"},"locations":[{"geonameid":4383865,"name":"Diamond","admin3":"46118","localeAltName":null},{"geonameid":4388409,"name":"Granby","admin3":"28126","localeAltName":null},{"geonameid":4394791,"name":"Leawood","admin3":"67610","localeAltName":null},{"geonameid":4396044,"name":"Loma Linda","admin3":"24346","localeAltName":null},{"geonameid":4400183,"name":"Neosho","admin3":"51590","localeAltName":null},{"geonameid":4408054,"name":"Seneca","admin3":"66692","localeAltName":null},{"geonameid":4408703,"name":"Silver Creek","admin3":"67610","localeAltName":null}],"admin3":[{"geonameid":4376604,"name":"Township of Benton","admin3":"04744"},{"geonameid":4376672,"name":"Township of Berwick","admin3":"05032"},{"geonameid":4379060,"name":"Township of Buffalo","admin3":"09586"},{"geonameid":4383492,"name":"Township of Dayton","admin3":"18622"},{"geonameid":4386622,"name":"Township of Five Mile","admin3":"24346","localeAltName":null},{"geonameid":4387213,"name":"Township of Franklin","admin3":"25696"},{"geonameid":4388412,"name":"Township of Granby","admin3":"28126","localeAltName":null},{"geonameid":4397121,"name":"Township of Marion","admin3":"46118","localeAltName":null},{"geonameid":4400187,"name":"Township of Neosho","admin3":"51590","localeAltName":null},{"geonameid":4400575,"name":"Township of Newtonia","admin3":"52310"},{"geonameid":4408059,"name":"Township of Seneca","admin3":"66692","localeAltName":null},{"geonameid":4408549,"name":"Township of Shoal Creek","admin3":"67610","localeAltName":null},{"geonameid":4412854,"name":"Township of Van Buren","admin3":"75616"},{"geonameid":4414046,"name":"Township of West Benton","admin3":"78568"}],"alternateNames":[{"alternatenameId":2089572,"geonameid":4398678,"isoLanguage":"en","alternateName":"Missouri","isPreferredName":true,"isShortName":true,"isColloquial":false,"isHistoric":false}]},"__N_SSG":true}