{"pageProps":{"locale":"en","admin2":{"geonameid":4379567,"name":"Callaway County","country":"US","admin1":"MO","admin2":"027","admin3":"","latitude":"38.8355200","longitude":"-91.9260100","localeAltName":null},"admin1":{"geonameid":4398678,"name":"Missouri","admin1":"MO","localeAltName":"Missouri"},"locations":[{"geonameid":4375379,"name":"Auxvasse","admin3":"35612","localeAltName":null},{"geonameid":4387496,"name":"Fulton","admin3":"78766","localeAltName":null},{"geonameid":4391029,"name":"Holts Summit","admin3":"71548","localeAltName":null},{"geonameid":4400236,"name":"New Bloomfield","admin3":"12160","localeAltName":null}],"admin3":[{"geonameid":4375396,"name":"Township of Auxvasse","admin3":"02656"},{"geonameid":4378031,"name":"Township of Bourbon","admin3":"07516"},{"geonameid":4379527,"name":"Township of Caldwell","admin3":"10414"},{"geonameid":4379618,"name":"Township of Calwood","admin3":"10666"},{"geonameid":4380657,"name":"Township of Cedar","admin3":"12160","localeAltName":null},{"geonameid":4381580,"name":"Township of Cleveland","admin3":"14752"},{"geonameid":4382469,"name":"Township of Cote Sans Dessein","admin3":"16642"},{"geonameid":4385012,"name":"Township of East Fulton","admin3":"20854"},{"geonameid":4389110,"name":"Township of Guthrie","admin3":"29800"},{"geonameid":4392221,"name":"Township of Jackson","admin3":"35612","localeAltName":null},{"geonameid":4395177,"name":"Township of Liberty","admin3":"41996"},{"geonameid":4397660,"name":"Township of McCredie","admin3":"44876"},{"geonameid":4400641,"name":"Township of Nine Mile Prairie","admin3":"52508"},{"geonameid":4406508,"name":"Township of Round Prairie","admin3":"63362"},{"geonameid":4406809,"name":"Township of Saint Aubert","admin3":"64010"},{"geonameid":4408218,"name":"Township of Shamrock","admin3":"66962"},{"geonameid":4410738,"name":"Township of Summit","admin3":"71548","localeAltName":null},{"geonameid":4414141,"name":"Township of West Fulton","admin3":"78766","localeAltName":null}],"alternateNames":[{"alternatenameId":2089572,"geonameid":4398678,"isoLanguage":"en","alternateName":"Missouri","isPreferredName":true,"isShortName":true,"isColloquial":false,"isHistoric":false}]},"__N_SSG":true}