{"pageProps":{"locale":"en","admin2":{"geonameid":2756722,"name":"Gemeente Dongen","country":"NL","admin1":"06","admin2":"0766","admin3":"","latitude":"51.6375400","longitude":"4.9536100"},"admin1":{"geonameid":2749990,"name":"Provincie Noord-Brabant","admin1":"06"},"locations":[{"geonameid":2747371,"name":"'s Gravenmoer","admin3":""},{"geonameid":2756723,"name":"Dongen","admin3":""},{"geonameid":2756720,"name":"Dongense Vaart","admin3":""},{"geonameid":2755275,"name":"Groenstraat","admin3":""},{"geonameid":2754288,"name":"Het Eind","admin3":""},{"geonameid":2753762,"name":"Hooge Ham","admin3":""},{"geonameid":2753589,"name":"Horst","admin3":""},{"geonameid":2752776,"name":"Klein-Dongen","admin3":""},{"geonameid":2752100,"name":"Laagstraat","admin3":""},{"geonameid":2752046,"name":"Lage Ham","admin3":""},{"geonameid":2747368,"name":"Vaart","admin3":""}],"admin3":[],"alternateNames":[{"alternatenameId":11907788,"geonameid":2749990,"isoLanguage":"de","alternateName":"Nordbrabant","isPreferredName":true,"isShortName":true,"isColloquial":false,"isHistoric":false}]},"__N_SSG":true}