{"pageProps":{"locale":"en","admin2":{"geonameid":3333224,"name":"Aberdeen City","country":"GB","admin1":"SCT","admin2":"T5","admin3":"","latitude":"57.1666700","longitude":"-2.1666700"},"admin1":{"geonameid":2638360,"name":"Scotland","admin1":"SCT"},"locations":[{"geonameid":2657832,"name":"Aberdeen","admin3":""},{"geonameid":6269400,"name":"Ashtown","admin3":""},{"geonameid":2656389,"name":"Bankhead","admin3":""},{"geonameid":6269388,"name":"Beidleston","admin3":""},{"geonameid":6269342,"name":"Berryhill","admin3":""},{"geonameid":2655701,"name":"Bieldside","admin3":""},{"geonameid":6269346,"name":"Bodachra","admin3":""},{"geonameid":9883875,"name":"Bridge of Don","admin3":""},{"geonameid":9883882,"name":"Bridge of Don Industrial Estate","admin3":""},{"geonameid":2654385,"name":"Bucksburn","admin3":""},{"geonameid":2653912,"name":"Camphill","admin3":""},{"geonameid":6269314,"name":"Charlestown","admin3":""},{"geonameid":6269341,"name":"Cloverhill","admin3":""},{"geonameid":2652227,"name":"Cove","admin3":""},{"geonameid":6269312,"name":"Craibstone","admin3":""},{"geonameid":2651722,"name":"Cults","admin3":""},{"geonameid":11550600,"name":"Danestone","admin3":""},{"geonameid":2651373,"name":"Denmore","admin3":""},{"geonameid":6269343,"name":"Dubford","admin3":""},{"geonameid":2650601,"name":"Dyce","admin3":""},{"geonameid":6269313,"name":"Forrit Brae","admin3":""},{"geonameid":11592169,"name":"Kingswells","admin3":""},{"geonameid":9883883,"name":"Kittybrewster","admin3":""},{"geonameid":6269349,"name":"Lower Bodachra","admin3":""},{"geonameid":6269379,"name":"Mains of Dyce","admin3":""},{"geonameid":6269381,"name":"Mains of Grandhome","admin3":""},{"geonameid":6269348,"name":"Middle Bodachra","admin3":""},{"geonameid":11550599,"name":"Middleton Park","admin3":""},{"geonameid":2642497,"name":"Milltimber","admin3":""},{"geonameid":2642459,"name":"Milton of Murtle","admin3":""},{"geonameid":9883876,"name":"Mundurno","admin3":""},{"geonameid":6269385,"name":"Nether Kirkton","admin3":""},{"geonameid":9883877,"name":"North Tarbothill","admin3":""},{"geonameid":2641045,"name":"Old Aberdeen","admin3":""},{"geonameid":6269345,"name":"Perwinnes","admin3":""},{"geonameid":2640352,"name":"Peterculter","admin3":""},{"geonameid":2639531,"name":"Redmoss","admin3":""},{"geonameid":6269344,"name":"Shielhill","admin3":""},{"geonameid":2636801,"name":"Stoneywood","admin3":""},{"geonameid":2635630,"name":"Torry","admin3":""},{"geonameid":6269386,"name":"Upper Kirkton","admin3":""},{"geonameid":6269311,"name":"Walton","admin3":""},{"geonameid":2634459,"name":"West Cults","admin3":""}],"admin3":[],"alternateNames":[]},"__N_SSG":true}