{"pageProps":{"locale":"en","admin2":{"geonameid":2657306,"name":"Angus","country":"GB","admin1":"SCT","admin2":"T7","admin3":"","latitude":"56.6666700","longitude":"-2.9166700"},"admin1":{"geonameid":2638360,"name":"Scotland","admin1":"SCT"},"locations":[{"geonameid":2657800,"name":"Aberlemno","admin3":""},{"geonameid":2657431,"name":"Alrick","admin3":""},{"geonameid":2657219,"name":"Arbirlot","admin3":""},{"geonameid":2657215,"name":"Arbroath","admin3":""},{"geonameid":2657129,"name":"Ardovie","admin3":""},{"geonameid":2656812,"name":"Auchmithie","admin3":""},{"geonameid":11397284,"name":"Auchronie","admin3":""},{"geonameid":10376269,"name":"Auchterforfar","admin3":""},{"geonameid":10376332,"name":"Balgavies","admin3":""},{"geonameid":2656576,"name":"Balintore","admin3":""},{"geonameid":2656445,"name":"Balnaboth","admin3":""},{"geonameid":9973404,"name":"Barns of Claverhouse","admin3":""},{"geonameid":2656234,"name":"Barry","admin3":""},{"geonameid":9883927,"name":"Braehead of Lunan","admin3":""},{"geonameid":9883929,"name":"Braehead Village","admin3":""},{"geonameid":2654824,"name":"Brechin","admin3":""},{"geonameid":2654768,"name":"Brewlands","admin3":""},{"geonameid":2654743,"name":"Bridge of Dun","admin3":""},{"geonameid":2654750,"name":"Bridgend of Lintrathen","admin3":""},{"geonameid":9973401,"name":"Brighty","admin3":""},{"geonameid":9973398,"name":"Bucklerheads","admin3":""},{"geonameid":6269316,"name":"Buddon","admin3":""},{"geonameid":10376270,"name":"Burnside","admin3":""},{"geonameid":2653801,"name":"Careston","admin3":""},{"geonameid":2653744,"name":"Carmyllie","admin3":""},{"geonameid":2653704,"name":"Carnoustie","admin3":""},{"geonameid":11524639,"name":"Charleston","admin3":""},{"geonameid":10104111,"name":"Clachnabrain","admin3":""},{"geonameid":10376264,"name":"Clocksbriggs","admin3":""},{"geonameid":2652552,"name":"Colliston","admin3":""},{"geonameid":2652309,"name":"Cortachy","admin3":""},{"geonameid":2652118,"name":"Craigo","admin3":""},{"geonameid":2650964,"name":"Dronley","admin3":""},{"geonameid":2650851,"name":"Dubton","admin3":""},{"geonameid":2650689,"name":"Dunnichen","admin3":""},{"geonameid":9973400,"name":"Duntrune","admin3":""},{"geonameid":2650516,"name":"Eassie and Nevay","admin3":""},{"geonameid":2650418,"name":"East Haven","admin3":""},{"geonameid":2650197,"name":"Edzell","admin3":""},{"geonameid":2649877,"name":"Ethie Haven","admin3":""},{"geonameid":2649662,"name":"Farnell","admin3":""},{"geonameid":2649523,"name":"Fern","admin3":""},{"geonameid":2649522,"name":"Fernybank","admin3":""},{"geonameid":2649517,"name":"Ferryden","admin3":""},{"geonameid":7576362,"name":"Finavon","admin3":""},{"geonameid":10103887,"name":"Folda","admin3":""},{"geonameid":2649207,"name":"Forfar","admin3":""},{"geonameid":2649182,"name":"Forter","admin3":""},{"geonameid":2649048,"name":"Friockheim","admin3":""},{"geonameid":2648893,"name":"Gannochy","admin3":""},{"geonameid":2648608,"name":"Glamis","admin3":""},{"geonameid":10104112,"name":"Glenclova","admin3":""},{"geonameid":2648449,"name":"Glenogil","admin3":""},{"geonameid":2647744,"name":"Guthrie","admin3":""},{"geonameid":2646887,"name":"Hillside","admin3":""},{"geonameid":2646768,"name":"Hole","admin3":""},{"geonameid":2646248,"name":"Inchbare","admin3":""},{"geonameid":2646234,"name":"Inchmill","admin3":""},{"geonameid":9973403,"name":"Inveraldie","admin3":""},{"geonameid":2646139,"name":"Inverarity","admin3":""},{"geonameid":2646110,"name":"Inverharity","admin3":""},{"geonameid":2646105,"name":"Inverkeilor","admin3":""},{"geonameid":2646082,"name":"Inverquharity","admin3":""},{"geonameid":9973397,"name":"Kellas","admin3":""},{"geonameid":2645552,"name":"Kilry","admin3":""},{"geonameid":2645454,"name":"Kingsmuir","admin3":""},{"geonameid":2645378,"name":"Kinnell","admin3":""},{"geonameid":2645317,"name":"Kirkbuddo","admin3":""},{"geonameid":2645217,"name":"Kirkton of Airlie","admin3":""},{"geonameid":2645216,"name":"Kirkton of Auchterhouse","admin3":""},{"geonameid":2645212,"name":"Kirkton of Glenisla","admin3":""},{"geonameid":2645211,"name":"Kirkton of Kingoldrum","admin3":""},{"geonameid":2645208,"name":"Kirkton of Menmuir","admin3":""},{"geonameid":2645206,"name":"Kirkton of Tealing","admin3":""},{"geonameid":2645191,"name":"Kirriemuir","admin3":""},{"geonameid":2644594,"name":"Letham","admin3":""},{"geonameid":8063332,"name":"Letham Grange","admin3":""},{"geonameid":2644518,"name":"Liff","admin3":""},{"geonameid":2644330,"name":"Little Forter","admin3":""},{"geonameid":2643765,"name":"Logie","admin3":""},{"geonameid":6269318,"name":"Lucknow","admin3":""},{"geonameid":2643395,"name":"Lunan","admin3":""},{"geonameid":9883930,"name":"Lunan Bay Hamlet","admin3":""},{"geonameid":10376268,"name":"Lunanhead","admin3":""},{"geonameid":2643389,"name":"Lundie","admin3":""},{"geonameid":10376331,"name":"Mains of Balgavies","admin3":""},{"geonameid":2642924,"name":"Maryton","admin3":""},{"geonameid":2642813,"name":"Meikle Forter","admin3":""},{"geonameid":10376333,"name":"Milldens","admin3":""},{"geonameid":2642342,"name":"Monifieth","admin3":""},{"geonameid":2642340,"name":"Monikie","admin3":""},{"geonameid":2642302,"name":"Montrose","admin3":""},{"geonameid":2642006,"name":"Muirhead","admin3":""},{"geonameid":2641952,"name":"Murroes","admin3":""},{"geonameid":9973402,"name":"Newbigging","admin3":""},{"geonameid":2641509,"name":"Newtyle","admin3":""},{"geonameid":2641468,"name":"Noranside","admin3":""},{"geonameid":2641111,"name":"Oathlaw","admin3":""},{"geonameid":2640662,"name":"Panbride","admin3":""},{"geonameid":2640541,"name":"Pearsie","admin3":""},{"geonameid":10376266,"name":"Pitscandly","admin3":""},{"geonameid":10376262,"name":"Rescobie","admin3":""},{"geonameid":10376265,"name":"Reswallie","admin3":""},{"geonameid":10104108,"name":"Rottal","admin3":""},{"geonameid":2638924,"name":"Ruthven","admin3":""},{"geonameid":2638688,"name":"Saint Vigeans","admin3":""},{"geonameid":2636741,"name":"Stracathro","admin3":""},{"geonameid":2636258,"name":"Tannadice","admin3":""},{"geonameid":2636221,"name":"Tarfside","admin3":""},{"geonameid":10104106,"name":"The Drums","admin3":""},{"geonameid":9973391,"name":"Upper Victoria","admin3":""},{"geonameid":2649364,"name":"Usan","admin3":""},{"geonameid":11592273,"name":"Wellbank","admin3":""},{"geonameid":2634334,"name":"Westmuir","admin3":""},{"geonameid":10104110,"name":"Wheen","admin3":""}],"admin3":[],"alternateNames":[]},"__N_SSG":true}