{"pageProps":{"locale":"en","admin2":{"geonameid":6457407,"name":"Argyll and Bute","country":"GB","admin1":"SCT","admin2":"T8","admin3":"","latitude":"56.0369300","longitude":"-5.4367900"},"admin1":{"geonameid":2638360,"name":"Scotland","admin1":"SCT"},"locations":[{"geonameid":2657769,"name":"Acha","admin3":""},{"geonameid":2657765,"name":"Achahoish","admin3":""},{"geonameid":2657756,"name":"Achallader","admin3":""},{"geonameid":9883816,"name":"Acharonich","admin3":""},{"geonameid":2657744,"name":"Acharosson","admin3":""},{"geonameid":2657724,"name":"Achnaba","admin3":""},{"geonameid":2656810,"name":"Achnacloich","admin3":""},{"geonameid":2657722,"name":"Achnacroish","admin3":""},{"geonameid":10277692,"name":"Ambrismore","admin3":""},{"geonameid":6619484,"name":"Appin","admin3":""},{"geonameid":8199226,"name":"Ardanaiseig","admin3":""},{"geonameid":2657203,"name":"Ardbeg","admin3":""},{"geonameid":12166926,"name":"Ardchattan","admin3":""},{"geonameid":2657199,"name":"Ardchonnell","admin3":""},{"geonameid":2657190,"name":"Ardentinny","admin3":""},{"geonameid":2657185,"name":"Ardfenaig","admin3":""},{"geonameid":2657184,"name":"Ardfern","admin3":""},{"geonameid":12172700,"name":"Ardfernal","admin3":""},{"geonameid":2657183,"name":"Ardfin","admin3":""},{"geonameid":2657165,"name":"Ardlui","admin3":""},{"geonameid":2657164,"name":"Ardlussa","admin3":""},{"geonameid":2657163,"name":"Ardmaddy","admin3":""},{"geonameid":2657159,"name":"Ardmaleish","admin3":""},{"geonameid":2657155,"name":"Ardmenish","admin3":""},{"geonameid":11551013,"name":"Ardminish","admin3":""},{"geonameid":9883796,"name":"Ardnacross Farm","admin3":""},{"geonameid":11550607,"name":"Ardnagowan","admin3":""},{"geonameid":2657138,"name":"Ardnave","admin3":""},{"geonameid":2657134,"name":"Ardno","admin3":""},{"geonameid":2657126,"name":"Ardrishaig","admin3":""},{"geonameid":10277691,"name":"Ardscalpsie","admin3":""},{"geonameid":2657114,"name":"Ardtalla","admin3":""},{"geonameid":2657112,"name":"Ardtarig","admin3":""},{"geonameid":11591727,"name":"Argyll and Bute","admin3":""},{"geonameid":2657085,"name":"Arinagour","admin3":""},{"geonameid":2657050,"name":"Arnabost","admin3":""},{"geonameid":2657039,"name":"Arnicle","admin3":""},{"geonameid":9883794,"name":"Aros","admin3":""},{"geonameid":2657018,"name":"Arrochar","admin3":""},{"geonameid":2656994,"name":"Ascog","admin3":""},{"geonameid":10104138,"name":"Auch","admin3":""},{"geonameid":10277884,"name":"Auchaleek","admin3":""},{"geonameid":2656831,"name":"Auchenbreck","admin3":""},{"geonameid":2656809,"name":"Auchnacraig","admin3":""},{"geonameid":2656806,"name":"Auchnangoul","admin3":""},{"geonameid":9884544,"name":"Baile Mor","admin3":""},{"geonameid":2656608,"name":"Balaruminmore","admin3":""},{"geonameid":2656589,"name":"Balemartine","admin3":""},{"geonameid":9883786,"name":"Balephetrish","admin3":""},{"geonameid":2656587,"name":"Balephuil","admin3":""},{"geonameid":9883781,"name":"Balevullin","admin3":""},{"geonameid":2656558,"name":"Ballimore","admin3":""},{"geonameid":2656559,"name":"Ballimore","admin3":""},{"geonameid":2656540,"name":"Ballochroy","admin3":""},{"geonameid":2656537,"name":"Ballure","admin3":""},{"geonameid":2656529,"name":"Ballychatrigan","admin3":""},{"geonameid":2656508,"name":"Ballygown","admin3":""},{"geonameid":2656506,"name":"Ballygrant","admin3":""},{"geonameid":11551015,"name":"Balmeanach","admin3":""},{"geonameid":11551017,"name":"Balnahard","admin3":""},{"geonameid":2656268,"name":"Barr","admin3":""},{"geonameid":9883791,"name":"Barrapoll","admin3":""},{"geonameid":2656250,"name":"Barrnacarry","admin3":""},{"geonameid":2656156,"name":"Baugh","admin3":""},{"geonameid":2656127,"name":"Beach","admin3":""},{"geonameid":9883813,"name":"Bearnus","admin3":""},{"geonameid":2655970,"name":"Bellanoch","admin3":""},{"geonameid":2655956,"name":"Bellochantuy","admin3":""},{"geonameid":2641575,"name":"Benderloch","admin3":""},{"geonameid":2655893,"name":"Benmore","admin3":""},{"geonameid":10104141,"name":"Black Mount","admin3":""},{"geonameid":2655391,"name":"Blairmore","admin3":""},{"geonameid":2655222,"name":"Bonawe","admin3":""},{"geonameid":2655086,"name":"Bousd","admin3":""},{"geonameid":2655051,"name":"Bowmore","admin3":""},{"geonameid":2654956,"name":"Braevallich","admin3":""},{"geonameid":2654738,"name":"Bridge of Orchy","admin3":""},{"geonameid":2654753,"name":"Bridgend","admin3":""},{"geonameid":2654754,"name":"Bridgend","admin3":""},{"geonameid":2654464,"name":"Bruichladdich","admin3":""},{"geonameid":2654329,"name":"Bunessan","admin3":""},{"geonameid":9883806,"name":"Burg","admin3":""},{"geonameid":2654306,"name":"Burgh","admin3":""},{"geonameid":2654116,"name":"Cadderlie","admin3":""},{"geonameid":8531872,"name":"Caddleton","admin3":""},{"geonameid":2654074,"name":"Cairnbaan","admin3":""},{"geonameid":2654069,"name":"Cairndow","admin3":""},{"geonameid":9883803,"name":"Calgary","admin3":""},{"geonameid":2653915,"name":"Campbeltown","admin3":""},{"geonameid":2653863,"name":"Caoles","admin3":""},{"geonameid":2653806,"name":"Cardross","admin3":""},{"geonameid":2653728,"name":"Carnassarie","admin3":""},{"geonameid":2653694,"name":"Carradale","admin3":""},{"geonameid":2653687,"name":"Carrick","admin3":""},{"geonameid":11591728,"name":"Carsaig","admin3":""},{"geonameid":2653655,"name":"Carsaig","admin3":""},{"geonameid":2653644,"name":"Carskey","admin3":""},{"geonameid":2653539,"name":"Castleton","admin3":""},{"geonameid":2652990,"name":"Clabhach","admin3":""},{"geonameid":2652988,"name":"Clachaig","admin3":""},{"geonameid":2652984,"name":"Clachan","admin3":""},{"geonameid":2652985,"name":"Clachan","admin3":""},{"geonameid":2652986,"name":"Clachan","admin3":""},{"geonameid":2652981,"name":"Clachan of Glendaruel","admin3":""},{"geonameid":11551016,"name":"Clachandhu","admin3":""},{"geonameid":2652972,"name":"Cladich","admin3":""},{"geonameid":2652954,"name":"Claonaig","admin3":""},{"geonameid":2652953,"name":"Claonairi","admin3":""},{"geonameid":2652872,"name":"Cleongart","admin3":""},{"geonameid":2652726,"name":"Clynder","admin3":""},{"geonameid":2652631,"name":"Coirantee","admin3":""},{"geonameid":2652576,"name":"Colintraive","admin3":""},{"geonameid":2652449,"name":"Connel","admin3":""},{"geonameid":2652250,"name":"Coulport","admin3":""},{"geonameid":2652234,"name":"Cour","admin3":""},{"geonameid":2652228,"name":"Cove","admin3":""},{"geonameid":2652136,"name":"Craighouse","admin3":""},{"geonameid":2652120,"name":"Craignure","admin3":""},{"geonameid":2652073,"name":"Crarae","admin3":""},{"geonameid":2652040,"name":"Creagan","admin3":""},{"geonameid":2652018,"name":"Creggans","admin3":""},{"geonameid":2652005,"name":"Cretshengan","admin3":""},{"geonameid":2651975,"name":"Crinan","admin3":""},{"geonameid":2651946,"name":"Croggan","admin3":""},{"geonameid":2651940,"name":"Croig","admin3":""},{"geonameid":2651888,"name":"Crossaig","admin3":""},{"geonameid":9883785,"name":"Crossapol","admin3":""},{"geonameid":2651887,"name":"Crossapol","admin3":""},{"geonameid":2651746,"name":"Cullipool","admin3":""},{"geonameid":2651616,"name":"Dail","admin3":""},{"geonameid":7302308,"name":"Dalavich","admin3":""},{"geonameid":2651577,"name":"Dalmally","admin3":""},{"geonameid":2651447,"name":"Dearg Phort","admin3":""},{"geonameid":2651323,"name":"Dervaig","admin3":""},{"geonameid":11591726,"name":"Dishig","admin3":""},{"geonameid":2650985,"name":"Drimfern","admin3":""},{"geonameid":2650931,"name":"Drumlemble","admin3":""},{"geonameid":10277885,"name":"Drumore","admin3":""},{"geonameid":2650778,"name":"Dunans","admin3":""},{"geonameid":11592143,"name":"Dunbeg","admin3":""},{"geonameid":2650682,"name":"Dunollie","admin3":""},{"geonameid":2650681,"name":"Dunoon","admin3":""},{"geonameid":10277879,"name":"East Darlochan","admin3":""},{"geonameid":10277892,"name":"Edendonich","admin3":""},{"geonameid":2650109,"name":"Ellary","admin3":""},{"geonameid":2650111,"name":"Ellenabeich","admin3":""},{"geonameid":9883805,"name":"Ensay","admin3":"2657088"},{"geonameid":2649950,"name":"Eredine","admin3":""},{"geonameid":2649943,"name":"Erines","admin3":""},{"geonameid":9883810,"name":"Fanmore","admin3":""},{"geonameid":2649536,"name":"Feolin Ferry","admin3":""},{"geonameid":2649535,"name":"Feorlean","admin3":""},{"geonameid":2649474,"name":"Fidden","admin3":""},{"geonameid":6695514,"name":"Fionnphort","admin3":""},{"geonameid":2649235,"name":"Ford","admin3":""},{"geonameid":10104142,"name":"Forest Lodge","admin3":""},{"geonameid":9883804,"name":"Frachadil","admin3":""},{"geonameid":2649054,"name":"Friesland","admin3":""},{"geonameid":2648981,"name":"Furnace","admin3":""},{"geonameid":2648877,"name":"Garelochhead","admin3":""},{"geonameid":2648810,"name":"Gartnagrenach","admin3":""},{"geonameid":2648527,"name":"Glenbarr","admin3":""},{"geonameid":10277882,"name":"Glencraigs","admin3":""},{"geonameid":11240116,"name":"Glenegedale","admin3":""},{"geonameid":9883800,"name":"Glengorm","admin3":""},{"geonameid":2648461,"name":"Glenmallan","admin3":""},{"geonameid":2648442,"name":"Glenreasdell","admin3":""},{"geonameid":9883814,"name":"Gometra","admin3":""},{"geonameid":9883815,"name":"Gometra House","admin3":""},{"geonameid":2648285,"name":"Gortinanane","admin3":""},{"geonameid":2647845,"name":"Grogport","admin3":""},{"geonameid":2647825,"name":"Gruinart","admin3":""},{"geonameid":9883820,"name":"Gruline","admin3":""},{"geonameid":2647259,"name":"Hayfield","admin3":""},{"geonameid":11551011,"name":"Hazelbank","admin3":""},{"geonameid":9883788,"name":"Heanish","admin3":""},{"geonameid":2647178,"name":"Helensburgh","admin3":""},{"geonameid":2646947,"name":"High Keil","admin3":""},{"geonameid":2646928,"name":"High Smerby","admin3":""},{"geonameid":9883792,"name":"Hough","admin3":""},{"geonameid":2646398,"name":"Hunters Quay","admin3":""},{"geonameid":2646321,"name":"Hynish","admin3":""},{"geonameid":2646187,"name":"Innellan","admin3":""},{"geonameid":2646140,"name":"Inveraray","admin3":""},{"geonameid":2646129,"name":"Inverchaolain","admin3":""},{"geonameid":2646128,"name":"Inverchapel","admin3":""},{"geonameid":2646107,"name":"Inverinan Beag","admin3":""},{"geonameid":12060168,"name":"Inverlussa","admin3":""},{"geonameid":2646085,"name":"Invernoaden","admin3":""},{"geonameid":8299622,"name":"Isle of Bute","admin3":""},{"geonameid":8316866,"name":"Isle of Coll","admin3":""},{"geonameid":8316647,"name":"Isle of Colonsay","admin3":""},{"geonameid":8316797,"name":"Isle of Gigha","admin3":""},{"geonameid":8316744,"name":"Isle of Iona","admin3":""},{"geonameid":8299862,"name":"Isle of Islay","admin3":""},{"geonameid":8299874,"name":"Isle of Jura","admin3":""},{"geonameid":7290043,"name":"Isle Of Mull","admin3":""},{"geonameid":2645929,"name":"Kames","admin3":""},{"geonameid":2645888,"name":"Keillmore","admin3":""},{"geonameid":12060164,"name":"Keils","admin3":""},{"geonameid":9883818,"name":"Kelklan","admin3":""},{"geonameid":2645819,"name":"Kenmore","admin3":""},{"geonameid":7114404,"name":"Kennacraig","admin3":""},{"geonameid":2645710,"name":"Kilbrandon","admin3":""},{"geonameid":9883811,"name":"Kilbrennan","admin3":""},{"geonameid":2645708,"name":"Kilbride","admin3":""},{"geonameid":2645698,"name":"Kilchattan","admin3":""},{"geonameid":2645699,"name":"Kilchattan","admin3":""},{"geonameid":2645696,"name":"Kilchenzie","admin3":""},{"geonameid":2645694,"name":"Kilchiaran","admin3":""},{"geonameid":2645690,"name":"Kilchoman","admin3":""},{"geonameid":2645689,"name":"Kilchrenan","admin3":""},{"geonameid":2645684,"name":"Kilcreggan","admin3":""},{"geonameid":2645682,"name":"Kildalloig","admin3":""},{"geonameid":2645668,"name":"Kilfinan","admin3":""},{"geonameid":2645666,"name":"Kilfinchen","admin3":""},{"geonameid":2645657,"name":"Kilkenneth","admin3":""},{"geonameid":2645646,"name":"Killean","admin3":""},{"geonameid":2645637,"name":"Killichronan","admin3":""},{"geonameid":9883817,"name":"Killiemor","admin3":""},{"geonameid":2645629,"name":"Killinallan","admin3":""},{"geonameid":2645619,"name":"Killunaig","admin3":""},{"geonameid":9883779,"name":"Kilmaluaig","admin3":""},{"geonameid":2645603,"name":"Kilmartin","admin3":""},{"geonameid":2645598,"name":"Kilmelfort","admin3":""},{"geonameid":10277883,"name":"Kilmichael","admin3":""},{"geonameid":2645594,"name":"Kilmichael Glassary","admin3":""},{"geonameid":2645593,"name":"Kilmichael of Inverlussa","admin3":""},{"geonameid":2645590,"name":"Kilmoluag","admin3":""},{"geonameid":2645585,"name":"Kilmore","admin3":""},{"geonameid":2645581,"name":"Kilmory","admin3":""},{"geonameid":2645572,"name":"Kilmun","admin3":""},{"geonameid":2645568,"name":"Kilninian","admin3":""},{"geonameid":2645567,"name":"Kilninver","admin3":""},{"geonameid":2645561,"name":"Kilpatrick","admin3":""},{"geonameid":2645506,"name":"Kingarth","admin3":""},{"geonameid":2645357,"name":"Kintour","admin3":""},{"geonameid":2645355,"name":"Kintra","admin3":""},{"geonameid":2645356,"name":"Kintra","admin3":""},{"geonameid":2645353,"name":"Kintraw","admin3":""},{"geonameid":2645350,"name":"Kinuachdrachd","admin3":""},{"geonameid":9883787,"name":"Kirkapol","admin3":""},{"geonameid":2645192,"name":"Kirn","admin3":""},{"geonameid":2645144,"name":"Knock","admin3":""},{"geonameid":12060165,"name":"Knockrome","admin3":""},{"geonameid":2645049,"name":"Lagavulin","admin3":""},{"geonameid":2645047,"name":"Lagg","admin3":""},{"geonameid":2645039,"name":"Lagganulva","admin3":""},{"geonameid":11551010,"name":"Laglingarten","admin3":""},{"geonameid":9883802,"name":"Langamull","admin3":""},{"geonameid":2644871,"name":"Laphroaig","admin3":""},{"geonameid":12060166,"name":"Leargybreck","admin3":""},{"geonameid":2644609,"name":"Lephinmore","admin3":""},{"geonameid":2644608,"name":"Lerags","admin3":""},{"geonameid":11240117,"name":"Lochawe","admin3":""},{"geonameid":2643843,"name":"Lochbuie","admin3":""},{"geonameid":2643839,"name":"Lochdon","admin3":""},{"geonameid":2643838,"name":"Lochead","admin3":""},{"geonameid":2643829,"name":"Lochgair","admin3":""},{"geonameid":2643825,"name":"Lochgilphead","admin3":""},{"geonameid":2643824,"name":"Lochgoilhead","admin3":""},{"geonameid":2643822,"name":"Lochhead","admin3":""},{"geonameid":10277876,"name":"Low Ballevain","admin3":""},{"geonameid":2643513,"name":"Lower Kilchattan","admin3":""},{"geonameid":2643375,"name":"Lunga","admin3":""},{"geonameid":2643351,"name":"Luss","admin3":""},{"geonameid":2643254,"name":"Machrihanish","admin3":""},{"geonameid":2643111,"name":"Mannel","admin3":""},{"geonameid":2642613,"name":"Middle Kames","admin3":""},{"geonameid":2642588,"name":"Middleton","admin3":""},{"geonameid":2642455,"name":"Minard","admin3":""},{"geonameid":9883793,"name":"Moss","admin3":""},{"geonameid":2642094,"name":"Mountstuart","admin3":""},{"geonameid":2641558,"name":"Newton","admin3":""},{"geonameid":2641507,"name":"Newyork","admin3":""},{"geonameid":9883809,"name":"Normann's Ruh","admin3":""},{"geonameid":2641381,"name":"North Crossaig","admin3":""},{"geonameid":2641240,"name":"North Tullich","admin3":""},{"geonameid":2641108,"name":"Oban","admin3":""},{"geonameid":2640954,"name":"Oragaig","admin3":""},{"geonameid":2640848,"name":"Otter Ferry","admin3":""},{"geonameid":11591729,"name":"Pennyghael","admin3":""},{"geonameid":2640432,"name":"Pennygown","admin3":""},{"geonameid":2640429,"name":"Pennymore","admin3":""},{"geonameid":2640164,"name":"Polloch","admin3":""},{"geonameid":2640148,"name":"Poltalloch","admin3":""},{"geonameid":2640081,"name":"Port Appin","admin3":""},{"geonameid":2640080,"name":"Port Askaig","admin3":""},{"geonameid":2640076,"name":"Port Bannatyne","admin3":""},{"geonameid":2640072,"name":"Port Charlotte","admin3":""},{"geonameid":2640067,"name":"Port Ellen","admin3":""},{"geonameid":2639986,"name":"Port Wemyss","admin3":""},{"geonameid":7117123,"name":"Portachoillan","admin3":""},{"geonameid":2640079,"name":"Portavadie","admin3":""},{"geonameid":2640042,"name":"Portincaple","admin3":""},{"geonameid":2640041,"name":"Portinnisherrich","admin3":""},{"geonameid":2640022,"name":"Portnacroish","admin3":""},{"geonameid":2640021,"name":"Portnahaven","admin3":""},{"geonameid":2639426,"name":"Rhu","admin3":""},{"geonameid":2639427,"name":"Rhu","admin3":""},{"geonameid":2639422,"name":"Rhunahaorine","admin3":""},{"geonameid":2639179,"name":"Ronachan","admin3":""},{"geonameid":2639134,"name":"Rosneath","admin3":""},{"geonameid":2639083,"name":"Rothesay","admin3":""},{"geonameid":9884546,"name":"Ruanaich","admin3":""},{"geonameid":2638887,"name":"Saddell","admin3":""},{"geonameid":2638837,"name":"Saint Catherines","admin3":""},{"geonameid":2638676,"name":"Salen","admin3":""},{"geonameid":2638623,"name":"Salum","admin3":""},{"geonameid":2638614,"name":"Sanaigmore","admin3":""},{"geonameid":9883790,"name":"Sandaig","admin3":""},{"geonameid":2638599,"name":"Sandbank","admin3":""},{"geonameid":2638450,"name":"Scalasaig","admin3":""},{"geonameid":2638409,"name":"Scarinish","admin3":""},{"geonameid":2638143,"name":"Shandon","admin3":""},{"geonameid":10277887,"name":"Skeroblingarry","admin3":""},{"geonameid":2637707,"name":"Skipness","admin3":""},{"geonameid":2637515,"name":"Sorisdale","admin3":""},{"geonameid":2637444,"name":"South Crossaig","admin3":""},{"geonameid":2637308,"name":"South Tullich","admin3":""},{"geonameid":2637434,"name":"Southend","admin3":""},{"geonameid":2636818,"name":"Stonefield","admin3":""},{"geonameid":2636739,"name":"Strachur","admin3":""},{"geonameid":2636711,"name":"Strathan","admin3":""},{"geonameid":2636631,"name":"Strone","admin3":""},{"geonameid":2636624,"name":"Stronmilchan","admin3":""},{"geonameid":2636536,"name":"Sunadale","admin3":""},{"geonameid":2636524,"name":"Sunipol","admin3":""},{"geonameid":10277890,"name":"Tangy","admin3":"2657088"},{"geonameid":12060167,"name":"Tarbert","admin3":""},{"geonameid":11551014,"name":"Tarbert","admin3":""},{"geonameid":2636241,"name":"Tarbert","admin3":""},{"geonameid":2636233,"name":"Tarbet","admin3":""},{"geonameid":2636163,"name":"Tayinloan","admin3":""},{"geonameid":2636161,"name":"Taynish","admin3":""},{"geonameid":2636159,"name":"Taynuilt","admin3":""},{"geonameid":2636156,"name":"Tayvallich","admin3":""},{"geonameid":9883782,"name":"The Green","admin3":""},{"geonameid":2635840,"name":"Tighnabruaich","admin3":""},{"geonameid":2635754,"name":"Tobermory","admin3":""},{"geonameid":2635753,"name":"Toberonochy","admin3":""},{"geonameid":9883808,"name":"Torloisk House","admin3":""},{"geonameid":2635645,"name":"Torrastan","admin3":""},{"geonameid":9883807,"name":"Tostarie","admin3":""},{"geonameid":9884542,"name":"Treshnish","admin3":"2657088"},{"geonameid":2635228,"name":"Ugadale","admin3":""},{"geonameid":2635211,"name":"Uisken","admin3":""},{"geonameid":2635120,"name":"Upper Kilchattan","admin3":""},{"geonameid":6957506,"name":"Urugaig","admin3":""},{"geonameid":2635002,"name":"Vaul","admin3":""},{"geonameid":10277878,"name":"West Darlochan","admin3":""},{"geonameid":2634382,"name":"West Kames","admin3":""},{"geonameid":2634255,"name":"West Tarbert","admin3":""},{"geonameid":10277875,"name":"Westport","admin3":""},{"geonameid":8128720,"name":"Whistlefield","admin3":""},{"geonameid":2634088,"name":"Whitehouse","admin3":""}],"admin3":[{"geonameid":2654165,"name":"Buteshire","admin3":"2654165"},{"geonameid":2657088,"name":"Argyllshire","admin3":"2657088"}],"alternateNames":[]},"__N_SSG":true}