{"pageProps":{"locale":"en","admin2":{"geonameid":3333226,"name":"East Ayrshire","country":"GB","admin1":"SCT","admin2":"U4","admin3":"","latitude":"55.5000000","longitude":"-4.2500000"},"admin1":{"geonameid":2638360,"name":"Scotland","admin1":"SCT"},"locations":[{"geonameid":2656818,"name":"Auchinleck","admin3":""},{"geonameid":10277932,"name":"Bellsbank","admin3":""},{"geonameid":2655057,"name":"Bowhouse","admin3":""},{"geonameid":10277933,"name":"Burnton","admin3":""},{"geonameid":2653504,"name":"Catrine","admin3":""},{"geonameid":10277935,"name":"Coalhall","admin3":""},{"geonameid":10277929,"name":"Craigengillan","admin3":""},{"geonameid":2651921,"name":"Cronberry","admin3":""},{"geonameid":2651870,"name":"Crosshouse","admin3":""},{"geonameid":2651706,"name":"Cumnock","admin3":""},{"geonameid":2651607,"name":"Dalblair","admin3":""},{"geonameid":2651581,"name":"Dalleagles","admin3":""},{"geonameid":2651575,"name":"Dalmellington","admin3":""},{"geonameid":2651559,"name":"Dalrymple","admin3":""},{"geonameid":2651496,"name":"Darvel","admin3":""},{"geonameid":11592136,"name":"Drongan","admin3":""},{"geonameid":2650710,"name":"Dunlop","admin3":""},{"geonameid":2649542,"name":"Fenwick","admin3":""},{"geonameid":2648909,"name":"Galston","admin3":""},{"geonameid":2648783,"name":"Gaswater","admin3":""},{"geonameid":2648519,"name":"Glenbuck","admin3":""},{"geonameid":2646367,"name":"Hurlford","admin3":""},{"geonameid":2645605,"name":"Kilmarnock","admin3":""},{"geonameid":2645599,"name":"Kilmaurs","admin3":""},{"geonameid":8299843,"name":"Kyle","admin3":""},{"geonameid":10345356,"name":"Logan","admin3":""},{"geonameid":2643419,"name":"Lugar","admin3":""},{"geonameid":2643413,"name":"Lugton","admin3":""},{"geonameid":2642904,"name":"Mauchline","admin3":""},{"geonameid":2642005,"name":"Muirkirk","admin3":""},{"geonameid":2641658,"name":"New Cumnock","admin3":""},{"geonameid":2641610,"name":"Newmilns","admin3":""},{"geonameid":2641098,"name":"Ochiltree","admin3":""},{"geonameid":2640574,"name":"Patna","admin3":""},{"geonameid":2639646,"name":"Rankinston","admin3":""},{"geonameid":10277934,"name":"Sinclairston","admin3":""},{"geonameid":2637514,"name":"Sorn","admin3":""},{"geonameid":2637115,"name":"Stair","admin3":""},{"geonameid":10277950,"name":"Stair, Trabboch","admin3":""},{"geonameid":2636932,"name":"Stewarton","admin3":""},{"geonameid":2635574,"name":"Trabboch","admin3":""}],"admin3":[],"alternateNames":[]},"__N_SSG":true}