{"pageProps":{"locale":"en","admin2":{"geonameid":2634428,"name":"Eilean Siar","country":"GB","admin1":"SCT","admin2":"W8","admin3":"","latitude":"57.6666700","longitude":"-7.1666700"},"admin1":{"geonameid":2638360,"name":"Scotland","admin1":"SCT"},"locations":[{"geonameid":10277710,"name":"Achadh Mor","admin3":""},{"geonameid":9883831,"name":"Aird","admin3":""},{"geonameid":10110022,"name":"Aird a Mhulaidh","admin3":""},{"geonameid":9883835,"name":"Aird a' Mhachair","admin3":""},{"geonameid":10109998,"name":"Aird Asaig","admin3":""},{"geonameid":2657604,"name":"Aird Tong","admin3":""},{"geonameid":2657603,"name":"Aird Uig","admin3":""},{"geonameid":2657350,"name":"Amhuinnsuidhe","admin3":""},{"geonameid":10110012,"name":"Ardinashaig","admin3":""},{"geonameid":9883833,"name":"Ardnamonie","admin3":""},{"geonameid":10277709,"name":"Arhmore, Lewis","admin3":""},{"geonameid":2657033,"name":"Arnol","admin3":""},{"geonameid":10110024,"name":"Ath Linne","admin3":""},{"geonameid":2656680,"name":"Back","admin3":""},{"geonameid":9883837,"name":"Baile","admin3":""},{"geonameid":9883836,"name":"Baile Charbhaidh","admin3":""},{"geonameid":9538985,"name":"Baile Mhartainn","admin3":""},{"geonameid":9883830,"name":"Baile nan Cailleach","admin3":""},{"geonameid":2656609,"name":"Balallan","admin3":""},{"geonameid":9538986,"name":"Baleloch","admin3":""},{"geonameid":9538984,"name":"Balelone","admin3":""},{"geonameid":9883821,"name":"Balivanich","admin3":""},{"geonameid":2656434,"name":"Balranald","admin3":""},{"geonameid":8299866,"name":"Barra","admin3":""},{"geonameid":2656204,"name":"Barvas","admin3":""},{"geonameid":2656140,"name":"Bayble","admin3":""},{"geonameid":8299868,"name":"Benbecula","admin3":""},{"geonameid":2655151,"name":"Borve","admin3":""},{"geonameid":2655153,"name":"Borve","admin3":""},{"geonameid":9538983,"name":"Botarua","admin3":""},{"geonameid":2654947,"name":"Bragar","admin3":""},{"geonameid":6693490,"name":"Branahuie","admin3":""},{"geonameid":2654837,"name":"Breaclete","admin3":""},{"geonameid":2654827,"name":"Breasclete","admin3":""},{"geonameid":2654792,"name":"Brenish","admin3":""},{"geonameid":10109981,"name":"Bunavoneader","admin3":""},{"geonameid":2653988,"name":"Callanish","admin3":""},{"geonameid":2653790,"name":"Carinish","admin3":""},{"geonameid":2653772,"name":"Carloway","admin3":""},{"geonameid":2653733,"name":"Carnan","admin3":""},{"geonameid":10110003,"name":"Carragrich","admin3":""},{"geonameid":2653609,"name":"Castlebay","admin3":""},{"geonameid":2652983,"name":"Clachan","admin3":""},{"geonameid":2652574,"name":"Coll","admin3":""},{"geonameid":2652037,"name":"Creagorry","admin3":""},{"geonameid":9883832,"name":"Creagorry","admin3":""},{"geonameid":2651923,"name":"Cromore","admin3":""},{"geonameid":2651889,"name":"Cross","admin3":""},{"geonameid":2651884,"name":"Crossbost","admin3":""},{"geonameid":2651596,"name":"Dalbeg","admin3":""},{"geonameid":2651589,"name":"Daliburgh","admin3":""},{"geonameid":2651398,"name":"Dell","admin3":""},{"geonameid":9883827,"name":"Dunganachy","admin3":""},{"geonameid":10110021,"name":"Eilean Anabuich","admin3":""},{"geonameid":2650139,"name":"Eishken","admin3":""},{"geonameid":2649966,"name":"Eoropie","admin3":""},{"geonameid":2649920,"name":"Ersary","admin3":""},{"geonameid":2648857,"name":"Garrabost","admin3":""},{"geonameid":2648788,"name":"Garynahine","admin3":""},{"geonameid":9883834,"name":"Geirinis","admin3":""},{"geonameid":7909717,"name":"Glen Kyles","admin3":""},{"geonameid":2648230,"name":"Gramisdale","admin3":""},{"geonameid":2648188,"name":"Gravir","admin3":""},{"geonameid":2647889,"name":"Grimersta","admin3":""},{"geonameid":9883829,"name":"Griminish","admin3":""},{"geonameid":9883822,"name":"Grimsay","admin3":""},{"geonameid":9538987,"name":"Hosta","admin3":""},{"geonameid":2646535,"name":"Hougharry","admin3":""},{"geonameid":2646487,"name":"Howmore","admin3":""},{"geonameid":11240118,"name":"Iochdar","admin3":""},{"geonameid":8299620,"name":"Isle of Lewis","admin3":""},{"geonameid":8299849,"name":"Isle of North Uist","admin3":""},{"geonameid":8316579,"name":"Isle of Scalpay","admin3":""},{"geonameid":8299850,"name":"Isle of South Uist","admin3":""},{"geonameid":11550850,"name":"Kennavay","admin3":""},{"geonameid":11239105,"name":"Kildonan","admin3":""},{"geonameid":2645142,"name":"Knock","admin3":""},{"geonameid":2645141,"name":"Knockaird","admin3":""},{"geonameid":10110007,"name":"Kyles Harris","admin3":""},{"geonameid":10110005,"name":"Kyles Scalpay","admin3":""},{"geonameid":9884657,"name":"Ledaig","admin3":""},{"geonameid":9884656,"name":"Leideag","admin3":""},{"geonameid":2644580,"name":"Leurbost","admin3":""},{"geonameid":7909718,"name":"Leverburgh","admin3":""},{"geonameid":2644423,"name":"Lionel","admin3":""},{"geonameid":2643844,"name":"Lochboisdale","admin3":""},{"geonameid":8285463,"name":"Lochcarnan","admin3":""},{"geonameid":2643811,"name":"Lochmaddy","admin3":""},{"geonameid":2643804,"name":"Lochs","admin3":""},{"geonameid":2643540,"name":"Lower Bayble","admin3":""},{"geonameid":2643505,"name":"Lower Shader","admin3":""},{"geonameid":2643353,"name":"Luskentyre","admin3":""},{"geonameid":2643117,"name":"Mangersta","admin3":""},{"geonameid":2643114,"name":"Manish","admin3":""},{"geonameid":10110019,"name":"Maraig","admin3":""},{"geonameid":2641377,"name":"North Dell","admin3":""},{"geonameid":2641351,"name":"North Galson","admin3":""},{"geonameid":2641242,"name":"North Tolsta","admin3":""},{"geonameid":11240119,"name":"Northton","admin3":""},{"geonameid":2641107,"name":"Obbe","admin3":""},{"geonameid":2640682,"name":"Paible","admin3":""},{"geonameid":2640168,"name":"Pollachar","admin3":""},{"geonameid":2640018,"name":"Port nan Long","admin3":""},{"geonameid":2640013,"name":"Port of Ness","admin3":""},{"geonameid":2639705,"name":"Ranish","admin3":""},{"geonameid":10110015,"name":"Rhenigidale","admin3":""},{"geonameid":10711846,"name":"Rodel","admin3":""},{"geonameid":2639118,"name":"Rossinish","admin3":""},{"geonameid":2638535,"name":"Sandwick","admin3":""},{"geonameid":10110010,"name":"Scalpay Village","admin3":""},{"geonameid":2638377,"name":"Scolpaig","admin3":""},{"geonameid":2638160,"name":"Shader","admin3":""},{"geonameid":10277721,"name":"Sildinis","admin3":""},{"geonameid":2637764,"name":"Skigersta","admin3":""},{"geonameid":2637545,"name":"Sollas","admin3":""},{"geonameid":2637440,"name":"South Dell","admin3":""},{"geonameid":11240120,"name":"Stilligarry","admin3":""},{"geonameid":2636790,"name":"Stornoway","admin3":""},{"geonameid":9538982,"name":"Struan","admin3":""},{"geonameid":9883825,"name":"Sunamul Island","admin3":""},{"geonameid":2636441,"name":"Swanibost","admin3":""},{"geonameid":2636365,"name":"Swordale","admin3":""},{"geonameid":2636239,"name":"Tarbert","admin3":""},{"geonameid":9883823,"name":"Teanamachar","admin3":""},{"geonameid":9538988,"name":"Tigh A' Gearraidh","admin3":""},{"geonameid":2635844,"name":"Tigharry","admin3":""},{"geonameid":9883828,"name":"Torium","admin3":""},{"geonameid":2635417,"name":"Trumisgarry","admin3":""},{"geonameid":9883826,"name":"Uachdar","admin3":""},{"geonameid":2635218,"name":"Uig","admin3":""},{"geonameid":2635147,"name":"Upper Bayble","admin3":""},{"geonameid":2635109,"name":"Upper Shader","admin3":""},{"geonameid":10110001,"name":"Urgha","admin3":""},{"geonameid":2635019,"name":"Valtos","admin3":""},{"geonameid":2635005,"name":"Vatisker","admin3":""},{"geonameid":2634412,"name":"West Gerinish","admin3":""},{"geonameid":10109996,"name":"West Tarbert","admin3":""}],"admin3":[],"alternateNames":[]},"__N_SSG":true}