{"pageProps":{"locale":"en","admin2":{"geonameid":2655192,"name":"The Scottish Borders","country":"GB","admin1":"SCT","admin2":"T9","admin3":"","latitude":"55.5833300","longitude":"-2.8333300"},"admin1":{"geonameid":2638360,"name":"Scotland","admin1":"SCT"},"locations":[{"geonameid":2657874,"name":"Abbey Saint Bathans","admin3":""},{"geonameid":2657867,"name":"Abbotsford","admin3":""},{"geonameid":2657494,"name":"Allanton","admin3":""},{"geonameid":2657327,"name":"Ancrum","admin3":"00EM130"},{"geonameid":2656949,"name":"Ashiesteel","admin3":""},{"geonameid":2656944,"name":"Ashkirk","admin3":""},{"geonameid":8285464,"name":"Auchencrow","admin3":""},{"geonameid":2656697,"name":"Ayton","admin3":""},{"geonameid":2656188,"name":"Bassendean","admin3":""},{"geonameid":2656036,"name":"Bedrule","admin3":"00EM090"},{"geonameid":2655617,"name":"Birgham","admin3":"00EM033"},{"geonameid":2655402,"name":"Blainslie","admin3":""},{"geonameid":2655219,"name":"Bonchester Bridge","admin3":"00EM090"},{"geonameid":2655070,"name":"Bowden","admin3":""},{"geonameid":2655058,"name":"Bowhill","admin3":""},{"geonameid":2654723,"name":"Briery Yards","admin3":""},{"geonameid":2654642,"name":"Broadmeadows","admin3":""},{"geonameid":2654503,"name":"Broughton","admin3":""},{"geonameid":2654429,"name":"Buccleuch","admin3":""},{"geonameid":2654262,"name":"Burnmouth","admin3":"00EM020"},{"geonameid":2654128,"name":"Byrecleugh","admin3":""},{"geonameid":2653807,"name":"Cardrona Mains","admin3":""},{"geonameid":2653773,"name":"Carlops","admin3":""},{"geonameid":2653540,"name":"Castleton","admin3":""},{"geonameid":2653365,"name":"Chapelhope","admin3":""},{"geonameid":2653221,"name":"Chesters","admin3":"00EM090"},{"geonameid":2653128,"name":"Chirnside","admin3":"00EM117"},{"geonameid":2652774,"name":"Clovenfords","admin3":""},{"geonameid":2652682,"name":"Cockburnspath","admin3":""},{"geonameid":2652670,"name":"Cocklawfoot","admin3":""},{"geonameid":2652608,"name":"Coldingham","admin3":"00EM020"},{"geonameid":2652601,"name":"Coldstream","admin3":"00EM040"},{"geonameid":2652101,"name":"Crailing","admin3":"00EM130"},{"geonameid":2652079,"name":"Cranshaws","admin3":""},{"geonameid":2651902,"name":"Crookston","admin3":""},{"geonameid":2651507,"name":"Darnick","admin3":""},{"geonameid":2651375,"name":"Denholm","admin3":"00EM090"},{"geonameid":2650927,"name":"Drumelzier","admin3":""},{"geonameid":2650725,"name":"Dunglass","admin3":""},{"geonameid":2650673,"name":"Duns","admin3":"00EM033"},{"geonameid":2650541,"name":"Earlston","admin3":""},{"geonameid":2650438,"name":"East Gordon","admin3":""},{"geonameid":2650277,"name":"Eccles","admin3":""},{"geonameid":2650266,"name":"Eckford","admin3":"00EM033"},{"geonameid":2650256,"name":"Eddleston","admin3":""},{"geonameid":2650208,"name":"Ednam","admin3":"00EM033"},{"geonameid":2650206,"name":"Edrom","admin3":"00EM117"},{"geonameid":2650107,"name":"Ellemford","admin3":""},{"geonameid":2649866,"name":"Ettrickbridge End","admin3":""},{"geonameid":2649784,"name":"Eyemouth","admin3":"00EM020"},{"geonameid":2649262,"name":"Fogo","admin3":"00EM033"},{"geonameid":2649148,"name":"Foulden","admin3":""},{"geonameid":2649138,"name":"Foulshiels","admin3":""},{"geonameid":2649137,"name":"Fountainhall","admin3":""},{"geonameid":2649028,"name":"Frogden","admin3":""},{"geonameid":2648928,"name":"Galashiels","admin3":""},{"geonameid":2648768,"name":"Gattonside","admin3":""},{"geonameid":2648521,"name":"Glenbreck","admin3":""},{"geonameid":2648312,"name":"Gordon","admin3":""},{"geonameid":2648204,"name":"Grantshouse","admin3":""},{"geonameid":2647954,"name":"Greenlaw","admin3":"00EM033"},{"geonameid":2647438,"name":"Harrietsfield","admin3":""},{"geonameid":2647297,"name":"Hawick","admin3":""},{"geonameid":2647069,"name":"Heriot","admin3":""},{"geonameid":2646821,"name":"Hobkirk","admin3":""},{"geonameid":2646593,"name":"Horncliffe","admin3":""},{"geonameid":2646591,"name":"Horndean","admin3":""},{"geonameid":2646518,"name":"Houndwood","admin3":"00EM117"},{"geonameid":2646486,"name":"Hownam","admin3":"00EM009"},{"geonameid":2646429,"name":"Hume","admin3":"00EM033"},{"geonameid":2646338,"name":"Hutton","admin3":""},{"geonameid":2646172,"name":"Innerleithen","admin3":""},{"geonameid":2645970,"name":"Jedburgh","admin3":""},{"geonameid":2645849,"name":"Kelso","admin3":"00EM033"},{"geonameid":2645195,"name":"Kirk Yetholm","admin3":"00EM091"},{"geonameid":2645267,"name":"Kirkhope","admin3":""},{"geonameid":2645221,"name":"Kirkton","admin3":""},{"geonameid":2645218,"name":"Kirkton Manor","admin3":""},{"geonameid":2645060,"name":"Ladykirk","admin3":"00EM117"},{"geonameid":2645004,"name":"Lamberton","admin3":"00EM020"},{"geonameid":2644879,"name":"Lanton","admin3":""},{"geonameid":2644818,"name":"Lauder","admin3":""},{"geonameid":2644672,"name":"Legerwood","admin3":""},{"geonameid":2644634,"name":"Leitholm","admin3":"00EM033"},{"geonameid":2644507,"name":"Lilliesleaf","admin3":""},{"geonameid":2644482,"name":"Lindean","admin3":""},{"geonameid":2644439,"name":"Lintalee","admin3":""},{"geonameid":2644431,"name":"Linton","admin3":""},{"geonameid":2643690,"name":"Longformacus","admin3":""},{"geonameid":2643654,"name":"Longnewton","admin3":""},{"geonameid":2642889,"name":"Maxton","admin3":""},{"geonameid":11592441,"name":"Maxwellheugh","admin3":""},{"geonameid":2642769,"name":"Melrose","admin3":""},{"geonameid":2642561,"name":"Midlem","admin3":""},{"geonameid":2642429,"name":"Minto","admin3":""},{"geonameid":2642231,"name":"Mordington Mains","admin3":""},{"geonameid":2642216,"name":"Morebattle","admin3":"00EM033"},{"geonameid":2641807,"name":"Nenthorn","admin3":"00EM033"},{"geonameid":2641778,"name":"Nether Monynut","admin3":""},{"geonameid":2641672,"name":"New Channelkirk","admin3":""},{"geonameid":2641675,"name":"Newcastleton","admin3":""},{"geonameid":6942440,"name":"Newstead","admin3":""},{"geonameid":2641513,"name":"Newtown St Boswells","admin3":""},{"geonameid":2641487,"name":"Nisbet","admin3":"00EM130"},{"geonameid":2640723,"name":"Oxnam","admin3":"00EM130"},{"geonameid":2640714,"name":"Oxton","admin3":""},{"geonameid":2640553,"name":"Paxton","admin3":"00EM085"},{"geonameid":2640526,"name":"Peebles","admin3":""},{"geonameid":7626444,"name":"Philiphaugh","admin3":""},{"geonameid":2640154,"name":"Polmood","admin3":""},{"geonameid":2640145,"name":"Polwarth","admin3":""},{"geonameid":2639893,"name":"Priesthaugh","admin3":""},{"geonameid":2639491,"name":"Renton Barns","admin3":""},{"geonameid":2639479,"name":"Reston","admin3":""},{"geonameid":2639285,"name":"Roberton","admin3":""},{"geonameid":2639197,"name":"Romannobridge","admin3":""},{"geonameid":2639034,"name":"Roxburgh","admin3":"00EM033"},{"geonameid":2638873,"name":"Saint Abbs","admin3":""},{"geonameid":2638869,"name":"Saint Agnes","admin3":""},{"geonameid":2638848,"name":"Saint Boswells","admin3":""},{"geonameid":2638493,"name":"Saughtree","admin3":"00EM090"},{"geonameid":2638229,"name":"Selkirk","admin3":""},{"geonameid":2637696,"name":"Skirling","admin3":""},{"geonameid":2637622,"name":"Smailholm","admin3":""},{"geonameid":2637441,"name":"Southdean","admin3":""},{"geonameid":2637182,"name":"Sprouston","admin3":"00EM033"},{"geonameid":2636926,"name":"Stichill","admin3":"00EM033"},{"geonameid":2636899,"name":"Stobo","admin3":""},{"geonameid":2636760,"name":"Stow","admin3":""},{"geonameid":2636371,"name":"Swinton","admin3":""},{"geonameid":2636073,"name":"Teviothead","admin3":""},{"geonameid":9952189,"name":"Tibbie Shiels","admin3":""},{"geonameid":2635621,"name":"Torwoodlee","admin3":""},{"geonameid":2635585,"name":"Town Yetholm","admin3":"00EM091"},{"geonameid":2635559,"name":"Traquair","admin3":""},{"geonameid":8740024,"name":"Tweedbank","admin3":""},{"geonameid":2635312,"name":"Tweedsmuir","admin3":""},{"geonameid":2634885,"name":"Walkerburn","admin3":""},{"geonameid":2634619,"name":"Wedderlie","admin3":""},{"geonameid":2634360,"name":"West Linton","admin3":""},{"geonameid":2634275,"name":"Westruther","admin3":""},{"geonameid":2634022,"name":"Whitsome","admin3":"00EM117"},{"geonameid":2634005,"name":"Whitton","admin3":""},{"geonameid":2633871,"name":"Wilton","admin3":""},{"geonameid":2633703,"name":"Wolfelee","admin3":""},{"geonameid":2633410,"name":"Yarrow","admin3":""}],"admin3":[{"geonameid":2638228,"name":"Selkirkshire","admin3":"2638228"},{"geonameid":2639033,"name":"Roxburghshire","admin3":"2639033"},{"geonameid":2640525,"name":"Peeblesshire","admin3":"2640525"},{"geonameid":2655820,"name":"Berwickshire","admin3":"2655820"}],"alternateNames":[]},"__N_SSG":true}