{"pageProps":{"locale":"en","admin2":{"geonameid":3333237,"name":"West Dunbartonshire","country":"GB","admin1":"SCT","admin2":"W7","admin3":"","latitude":"55.9666700","longitude":"-4.5333300"},"admin1":{"geonameid":2638360,"name":"Scotland","admin1":"SCT"},"locations":[{"geonameid":2657513,"name":"Alexandria","admin3":""},{"geonameid":2656545,"name":"Balloch","admin3":""},{"geonameid":2655214,"name":"Bonhill","admin3":""},{"geonameid":2655053,"name":"Bowling","admin3":""},{"geonameid":2652730,"name":"Clydebank","admin3":""},{"geonameid":2651570,"name":"Dalmuir","admin3":""},{"geonameid":2650802,"name":"Dumbarton","admin3":""},{"geonameid":2650646,"name":"Duntocher","admin3":""},{"geonameid":11592280,"name":"Faifley","admin3":""},{"geonameid":6696138,"name":"Gartocharn","admin3":""},{"geonameid":2645977,"name":"Jamestown","admin3":""},{"geonameid":11592287,"name":"Milton","admin3":""},{"geonameid":2641014,"name":"Old Kilpatrick","admin3":""},{"geonameid":2639492,"name":"Renton","admin3":""},{"geonameid":11592272,"name":"Vale of Leven","admin3":""}],"admin3":[{"geonameid":2650801,"name":"Dumbarton District","admin3":"2650801"}],"alternateNames":[]},"__N_SSG":true}