{"pageProps":{"locale":"en","admin2":{"geonameid":5058251,"name":"Benson County","country":"US","admin1":"ND","admin2":"005","admin3":"","latitude":"48.0693900","longitude":"-99.3660300","localeAltName":null},"admin1":{"geonameid":5690763,"name":"North Dakota","admin1":"ND","localeAltName":"North Dakota"},"locations":[{"geonameid":5059248,"name":"Fort Totten","admin3":"27750","localeAltName":null}],"admin3":[{"geonameid":5058040,"name":"Township of Albert","admin3":"00980"},{"geonameid":5058115,"name":"Township of Arne","admin3":"03180"},{"geonameid":5058155,"name":"Township of Aurora","admin3":"03860"},{"geonameid":5058231,"name":"Township of Beaver","admin3":"05620"},{"geonameid":5058421,"name":"City of Brinsmade","admin3":"09460"},{"geonameid":5058430,"name":"Township of Broe","admin3":"09740"},{"geonameid":5058488,"name":"Township of Butte Valley","admin3":"11260"},{"geonameid":5058966,"name":"Township of East Fork","admin3":"21620"},{"geonameid":5059033,"name":"Township of Eldon","admin3":"22780"},{"geonameid":5059129,"name":"City of Esmond","admin3":"24780"},{"geonameid":5059252,"name":"Unorganized Territory of Fort Totten","admin3":"27750","localeAltName":null},{"geonameid":5059641,"name":"Township of Hesper","admin3":"37660"},{"geonameid":5059797,"name":"Township of Impark","admin3":"39860"},{"geonameid":5059810,"name":"Township of Iowa","admin3":"40180"},{"geonameid":5059812,"name":"Township of Irvine","admin3":"40220"},{"geonameid":5059815,"name":"Township of Isabel","admin3":"40260"},{"geonameid":5059987,"name":"City of Knox","admin3":"43260"},{"geonameid":5060032,"name":"Township of Lake Ibsen","admin3":"43900"},{"geonameid":5060060,"name":"Unorganized Territory of Lallie North","admin3":"44425"},{"geonameid":5060061,"name":"Township of Lallie","admin3":"44420"},{"geonameid":5060108,"name":"City of Leeds","admin3":"45580"},{"geonameid":5060195,"name":"Township of Lohnes","admin3":"47620"},{"geonameid":5060268,"name":"City of Maddock","admin3":"49620"},{"geonameid":5060349,"name":"Township of McClellan","admin3":"48980"},{"geonameid":5060465,"name":"Township of Minco","admin3":"53060"},{"geonameid":5060472,"name":"City of Minnewaukan","admin3":"53220"},{"geonameid":5060489,"name":"Township of Mission","admin3":"53580"},{"geonameid":5060668,"name":"Township of Normania","admin3":"57580"},{"geonameid":5060711,"name":"Township of North Viking","admin3":"58180"},{"geonameid":5060770,"name":"City of Oberon","admin3":"59020"},{"geonameid":5060982,"name":"Township of Pleasant Lake","admin3":"63200"},{"geonameid":5061109,"name":"Township of Rich Valley","admin3":"66660"},{"geonameid":5061117,"name":"Township of Riggin","admin3":"66820"},{"geonameid":5061145,"name":"Township of Rock","admin3":"67300"},{"geonameid":5061982,"name":"Township of South Viking","admin3":"74380"},{"geonameid":5062244,"name":"Township of Twin Lake","admin3":"80380"},{"geonameid":5062253,"name":"Township of Twin Tree","admin3":"80420"},{"geonameid":5062405,"name":"City of Warwick","admin3":"83580"},{"geonameid":5062451,"name":"Township of West Antelope","admin3":"84540"},{"geonameid":5062453,"name":"Township of West Bay","admin3":"84620"},{"geonameid":5062571,"name":"Township of Wood Lake","admin3":"87420"},{"geonameid":5062599,"name":"City of York","admin3":"87860"},{"geonameid":7165552,"name":"Township of Esmond","admin3":"24820"},{"geonameid":7165575,"name":"Township of Knox","admin3":"43300"},{"geonameid":7165580,"name":"Township of Leeds","admin3":"45620"},{"geonameid":7165601,"name":"Township of Oberon","admin3":"59060"},{"geonameid":7165644,"name":"Township of Warwick","admin3":"83620"},{"geonameid":7165653,"name":"Township of York","admin3":"87900"}],"alternateNames":[{"alternatenameId":2080778,"geonameid":5690763,"isoLanguage":"en","alternateName":"North Dakota","isPreferredName":true,"isShortName":true,"isColloquial":false,"isHistoric":false}]},"__N_SSG":true}