{"pageProps":{"locale":"en","admin2":{"geonameid":4499428,"name":"Wilson County","country":"US","admin1":"NC","admin2":"195","admin3":"","latitude":"35.7050300","longitude":"-77.9186200","localeAltName":null},"admin1":{"geonameid":4482348,"name":"North Carolina","admin1":"NC","localeAltName":"North Carolina"},"locations":[{"geonameid":4456098,"name":"Black Creek","admin3":"90276","localeAltName":null},{"geonameid":4465251,"name":"Elm City","admin3":"93244","localeAltName":null},{"geonameid":4477495,"name":"Lucama","admin3":"90840","localeAltName":null},{"geonameid":4493250,"name":"Stantonsburg","admin3":"93096","localeAltName":null},{"geonameid":4499389,"name":"Wilson","admin3":"94048","localeAltName":null}],"admin3":[{"geonameid":4456101,"name":"Township of Black Creek","admin3":"90276","localeAltName":null},{"geonameid":4462592,"name":"Township of Cross Roads","admin3":"90840","localeAltName":null},{"geonameid":4467634,"name":"Township of Gardners","admin3":"91208"},{"geonameid":4483267,"name":"Township of Old Fields","admin3":"92380"},{"geonameid":4490380,"name":"Township of Saratoga","admin3":"92840"},{"geonameid":4493087,"name":"Township of Springhill","admin3":"93084"},{"geonameid":4493252,"name":"Township of Stantonsburg","admin3":"93096","localeAltName":null},{"geonameid":4494619,"name":"Township of Taylors","admin3":"93220"},{"geonameid":4495210,"name":"Township of Toisnot","admin3":"93244","localeAltName":null},{"geonameid":4499479,"name":"Township of Wilson","admin3":"94048","localeAltName":null}],"alternateNames":[{"alternatenameId":2089560,"geonameid":4482348,"isoLanguage":"en","alternateName":"North Carolina","isPreferredName":true,"isShortName":true,"isColloquial":false,"isHistoric":false}]},"__N_SSG":true}