{"pageProps":{"locale":"it","admin2":{"geonameid":6458615,"name":"Provincia di Crotone","country":"IT","admin1":"03","admin2":"KR","admin3":"","latitude":"39.1200700","longitude":"17.0813400","localeAltName":"Crotone"},"admin1":{"geonameid":2525468,"name":"Calabria","admin1":"03","localeAltName":"Calabria"},"locations":[{"geonameid":2525568,"name":"Belvedere Spinello","admin3":"101001","localeAltName":null},{"geonameid":2525475,"name":"Caccuri","admin3":"101002","localeAltName":null},{"geonameid":2525380,"name":"Capo Rizzuto","admin3":"101013","localeAltName":null},{"geonameid":2525354,"name":"Carfizzi","admin3":"101003","localeAltName":null},{"geonameid":2525328,"name":"Casabona","admin3":"101004","localeAltName":null},{"geonameid":6535376,"name":"Castelsilano","admin3":"101005","localeAltName":null},{"geonameid":2525025,"name":"Cerenzia","admin3":"101006","localeAltName":null},{"geonameid":2524980,"name":"Cirò","admin3":"101007","localeAltName":null},{"geonameid":2524979,"name":"Cirò Marina","admin3":"101008","localeAltName":null},{"geonameid":8949769,"name":"Contrada Sant'Anna Iv","admin3":"101013","localeAltName":null},{"geonameid":2524901,"name":"Cotronei","admin3":"101009","localeAltName":null},{"geonameid":2524881,"name":"Crotone","admin3":"101010","localeAltName":null},{"geonameid":2524880,"name":"Crucoli","admin3":"101011","localeAltName":null},{"geonameid":2524869,"name":"Cutro","admin3":"101012","localeAltName":null},{"geonameid":8949582,"name":"Farina IV","admin3":"101010","localeAltName":null},{"geonameid":8949277,"name":"Foresta","admin3":"101017","localeAltName":null},{"geonameid":2524495,"name":"Isola di Capo Rizzuto","admin3":"101013","localeAltName":null},{"geonameid":2524417,"name":"Le Castella","admin3":"101013","localeAltName":null},{"geonameid":2524185,"name":"Melissa","admin3":"101014","localeAltName":null},{"geonameid":2524172,"name":"Mesoraca","admin3":"101015","localeAltName":null},{"geonameid":2523928,"name":"Pagliarelle","admin3":"101017","localeAltName":null},{"geonameid":2523910,"name":"Pallagorio","admin3":"101016","localeAltName":null},{"geonameid":2523885,"name":"Papanice","admin3":"101010","localeAltName":null},{"geonameid":2523825,"name":"Petilia Policastro","admin3":"101017","localeAltName":null},{"geonameid":2523603,"name":"Rocca di Neto","admin3":"101019","localeAltName":null},{"geonameid":2523604,"name":"Roccabernarda","admin3":"101018","localeAltName":null},{"geonameid":8949754,"name":"San Leonardo di Cutro","admin3":"101012","localeAltName":null},{"geonameid":2523418,"name":"San Mauro Marchesato","admin3":"101020","localeAltName":null},{"geonameid":2523408,"name":"San Nicola dell'Alto","admin3":"101021","localeAltName":null},{"geonameid":2523286,"name":"Santa Severina","admin3":"101022","localeAltName":null},{"geonameid":2523215,"name":"Savelli","admin3":"101023","localeAltName":null},{"geonameid":2523202,"name":"Scandale","admin3":"101024","localeAltName":null},{"geonameid":2522990,"name":"Strongoli","admin3":"101025","localeAltName":null},{"geonameid":2522903,"name":"Torre Melissa","admin3":"101014","localeAltName":null},{"geonameid":2522892,"name":"Torretta","admin3":"101011","localeAltName":null},{"geonameid":8950120,"name":"Trafinello I","admin3":"101010","localeAltName":null},{"geonameid":8949073,"name":"Tronca","admin3":"101025","localeAltName":null},{"geonameid":2522779,"name":"Verzino","admin3":"101027","localeAltName":null}],"admin3":[{"geonameid":6538019,"name":"Petilia Policastro","admin3":"101017","localeAltName":null},{"geonameid":6538020,"name":"Roccabernarda","admin3":"101018","localeAltName":null},{"geonameid":6538021,"name":"Strongoli","admin3":"101025","localeAltName":null},{"geonameid":6538022,"name":"Umbriatico","admin3":"101026"},{"geonameid":6539423,"name":"Caccuri","admin3":"101002","localeAltName":null},{"geonameid":6539424,"name":"Cerenzia","admin3":"101006","localeAltName":null},{"geonameid":6539425,"name":"Cirò Marina","admin3":"101008","localeAltName":null},{"geonameid":6539426,"name":"Cotronei","admin3":"101009","localeAltName":null},{"geonameid":6539427,"name":"Crucoli","admin3":"101011","localeAltName":null},{"geonameid":6539428,"name":"Cutro","admin3":"101012","localeAltName":null},{"geonameid":6539429,"name":"Rocca di Neto","admin3":"101019","localeAltName":null},{"geonameid":6539430,"name":"San Mauro Marchesato","admin3":"101020","localeAltName":null},{"geonameid":6539431,"name":"Santa Severina","admin3":"101022","localeAltName":null},{"geonameid":6539892,"name":"Cirò","admin3":"101007","localeAltName":null},{"geonameid":6539893,"name":"Savelli","admin3":"101023","localeAltName":null},{"geonameid":6540083,"name":"Casabona","admin3":"101004","localeAltName":null},{"geonameid":6540302,"name":"Belvedere di Spinello","admin3":"101001","localeAltName":null},{"geonameid":6540899,"name":"Mesoraca","admin3":"101015","localeAltName":null},{"geonameid":6540900,"name":"San Nicola dell'Alto","admin3":"101021","localeAltName":null},{"geonameid":6541393,"name":"Carfizzi","admin3":"101003","localeAltName":null},{"geonameid":6541394,"name":"Melissa","admin3":"101014","localeAltName":null},{"geonameid":6541395,"name":"Pallagorio","admin3":"101016","localeAltName":null},{"geonameid":6541396,"name":"Scandale","admin3":"101024","localeAltName":null},{"geonameid":6541397,"name":"Verzino","admin3":"101027","localeAltName":null},{"geonameid":6541463,"name":"Crotone","admin3":"101010","localeAltName":null},{"geonameid":6542239,"name":"Isola di Capo Rizzuto","admin3":"101013","localeAltName":null},{"geonameid":6543359,"name":"Castelsilano","admin3":"101005","localeAltName":null}],"alternateNames":[{"alternatenameId":1621273,"geonameid":2525468,"isoLanguage":"it","alternateName":"Calabria","isPreferredName":true,"isShortName":true,"isColloquial":false,"isHistoric":false},{"alternatenameId":2431260,"geonameid":6458615,"isoLanguage":"it","alternateName":"Crotone","isPreferredName":true,"isShortName":true,"isColloquial":false,"isHistoric":false}]},"__N_SSG":true}