{"pageProps":{"locale":"en","admin2":{"geonameid":5881941,"name":"Abitibi-Témiscamingue","country":"CA","admin1":"10","admin2":"08","admin3":"","latitude":"48.1001800","longitude":"-77.7828000"},"admin1":{"geonameid":6115047,"name":"Québec","admin1":"10"},"locations":[{"geonameid":5881760,"name":"Abana","admin3":"87115"},{"geonameid":5884588,"name":"Amos","admin3":"88055"},{"geonameid":5884632,"name":"Amulet","admin3":"86042"},{"geonameid":5885237,"name":"Angliers","admin3":"85080"},{"geonameid":5887218,"name":"Arntfield","admin3":"86042"},{"geonameid":5888441,"name":"Authier","admin3":"87050"},{"geonameid":5888444,"name":"Authier-Nord","admin3":"87100"},{"geonameid":5890312,"name":"Baie-Dorval","admin3":""},{"geonameid":5894033,"name":"Barraute","admin3":"88022"},{"geonameid":5894503,"name":"Barville","admin3":"88022"},{"geonameid":5896151,"name":"Béarn","admin3":"85020"},{"geonameid":5896470,"name":"Beaudry","admin3":"86042"},{"geonameid":5897670,"name":"Belcourt","admin3":"89050"},{"geonameid":5897806,"name":"Bellecombe","admin3":"86042"},{"geonameid":5897816,"name":"Bellefeuille","admin3":"87050"},{"geonameid":5897874,"name":"Belleterre","admin3":"85065"},{"geonameid":5898886,"name":"Berry","admin3":"88070"},{"geonameid":5899467,"name":"Bienvenu","admin3":"87090"},{"geonameid":5906592,"name":"Bourlamaque","admin3":"89008"},{"geonameid":5913136,"name":"Cadillac","admin3":"86042"},{"geonameid":5917419,"name":"Caron","admin3":"86042"},{"geonameid":5918075,"name":"Castagnier","admin3":"88015"},{"geonameid":5919603,"name":"Champcoeur","admin3":"88015"},{"geonameid":5919693,"name":"Champneuf","admin3":"88005"},{"geonameid":5920520,"name":"Chazel","admin3":"87095"},{"geonameid":9034819,"name":"Chemin du Lac Matchi Manitou","admin3":"89008"},{"geonameid":5923871,"name":"Cléricy","admin3":"86042"},{"geonameid":5923882,"name":"Clerval","admin3":"87075"},{"geonameid":5924176,"name":"Cloutier","admin3":"86042"},{"geonameid":5924449,"name":"Coalpit Bay","admin3":"85010"},{"geonameid":5924939,"name":"Coin-du-Quatre","admin3":"87035"},{"geonameid":5926107,"name":"Colombourg","admin3":"87058"},{"geonameid":5926108,"name":"Colombourg-Station","admin3":"87058"},{"geonameid":5926125,"name":"Colonie-Cinq","admin3":"86042"},{"geonameid":5932611,"name":"Crique-La Corne","admin3":"89008"},{"geonameid":5934637,"name":"D'Alembert","admin3":"86042"},{"geonameid":5935308,"name":"Dasserat","admin3":"86042"},{"geonameid":5935373,"name":"Davangus","admin3":"86042"},{"geonameid":5938274,"name":"Despinassy","admin3":""},{"geonameid":5938305,"name":"Destor","admin3":"86042"},{"geonameid":5941931,"name":"Dorval-Lodge","admin3":""},{"geonameid":5943066,"name":"Dubuisson","admin3":"89008"},{"geonameid":5943678,"name":"Duhamel-Ouest","admin3":"85030"},{"geonameid":5944299,"name":"Duparquet","admin3":"87005"},{"geonameid":5944320,"name":"Duprat","admin3":"86042"},{"geonameid":5944335,"name":"Dupuy","admin3":"87085"},{"geonameid":5944337,"name":"Dupuy","admin3":"87085"},{"geonameid":5946154,"name":"East Sullivan Mines","admin3":"89008"},{"geonameid":5950812,"name":"Fabre","admin3":"85015"},{"geonameid":5950814,"name":"Fabre-Station","admin3":"85015"},{"geonameid":5951588,"name":"Farmborough","admin3":"86042"},{"geonameid":5952549,"name":"Fiedmont","admin3":"88022"},{"geonameid":5953377,"name":"Fisher","admin3":"88035"},{"geonameid":5955760,"name":"Forsythe","admin3":"89040"},{"geonameid":5958663,"name":"Fugèreville","admin3":"85055"},{"geonameid":5958972,"name":"Gagnon-Siding","admin3":"89040"},{"geonameid":5959140,"name":"Gallichan","admin3":"87020"},{"geonameid":5960324,"name":"Geoffroy","admin3":"85080"},{"geonameid":5963853,"name":"Gourd","admin3":"88085"},{"geonameid":5964206,"name":"Granada","admin3":"86042"},{"geonameid":5965346,"name":"Grassy Narrow","admin3":"85075"},{"geonameid":5967682,"name":"Guigues","admin3":"85045"},{"geonameid":5968601,"name":"Guyenne","admin3":""},{"geonameid":5985427,"name":"Jacola","admin3":"89008"},{"geonameid":5991387,"name":"Ketchen","admin3":"85005"},{"geonameid":5992712,"name":"Kipawa","admin3":"85010"},{"geonameid":6035849,"name":"La Corne","admin3":"88030"},{"geonameid":6049078,"name":"La Morandière","admin3":"88015"},{"geonameid":6049087,"name":"La Motte","admin3":"88045"},{"geonameid":6049953,"name":"La Reine","admin3":"87080"},{"geonameid":6050194,"name":"La Sarre","admin3":"87090"},{"geonameid":6003481,"name":"Lac-Castagnier","admin3":"88015"},{"geonameid":6003627,"name":"Lac-Caugnawana","admin3":""},{"geonameid":6015960,"name":"Lac-Dufault","admin3":"86042"},{"geonameid":6021312,"name":"Lac-Fortune","admin3":"86042"},{"geonameid":6022284,"name":"Lac-Gauvin","admin3":"88055"},{"geonameid":6028602,"name":"Lac-La Motte","admin3":"88045"},{"geonameid":6047882,"name":"Laforce","admin3":"85070"},{"geonameid":6049508,"name":"Languedoc","admin3":""},{"geonameid":6050408,"name":"Latulipe","admin3":"85060"},{"geonameid":6050410,"name":"Latulipe-et-Gaboury","admin3":"85060"},{"geonameid":6050696,"name":"Laverlochère","admin3":"85050"},{"geonameid":6052480,"name":"Le Petit-Canada","admin3":"85005"},{"geonameid":6053123,"name":"Letang","admin3":"85005"},{"geonameid":6060422,"name":"Lorrainville","admin3":"85037"},{"geonameid":6060926,"name":"Louvicourt","admin3":"89008"},{"geonameid":6062563,"name":"Macamic","admin3":"87058"},{"geonameid":6064704,"name":"Malartic","admin3":"89015"},{"geonameid":6065300,"name":"Manneville","admin3":"88085"},{"geonameid":6066053,"name":"Marcotte","admin3":"87115"},{"geonameid":6071295,"name":"McWatters","admin3":"86042"},{"geonameid":6075113,"name":"Miron","admin3":"85030"},{"geonameid":6075931,"name":"Moffet","admin3":"85075"},{"geonameid":6076235,"name":"Monet","admin3":"89040"},{"geonameid":6076795,"name":"Mont-Brun","admin3":"86042"},{"geonameid":6076764,"name":"Montbeillard","admin3":"86042"},{"geonameid":6079460,"name":"Moulin-Caron","admin3":"86042"},{"geonameid":6089250,"name":"Normétal","admin3":"87115"},{"geonameid":6091458,"name":"Notre-Dame-du-Nord","admin3":""},{"geonameid":6092191,"name":"Obaska","admin3":"89045"},{"geonameid":6096371,"name":"Palmarolle","admin3":"87025"},{"geonameid":6096713,"name":"Paquin","admin3":"85095"},{"geonameid":6096724,"name":"Paradis","admin3":"89040"},{"geonameid":6098933,"name":"Pascalis","admin3":"89008"},{"geonameid":6101438,"name":"Perron","admin3":"89008"},{"geonameid":6945998,"name":"Pikogan","admin3":""},{"geonameid":6105889,"name":"Place-Lepack","admin3":"89008"},{"geonameid":6106046,"name":"Plage-Normandin","admin3":"89010"},{"geonameid":6106047,"name":"Plage-Orange","admin3":"89010"},{"geonameid":6106936,"name":"Pointe-Antoine","admin3":"85005"},{"geonameid":6112433,"name":"Poularies","admin3":"87035"},{"geonameid":6112876,"name":"Preissac","admin3":"88090"},{"geonameid":6113126,"name":"Press","admin3":"89040"},{"geonameid":6116642,"name":"Rapide-Danseur","admin3":"87010"},{"geonameid":6116662,"name":"Rapide-Deux","admin3":"86042"},{"geonameid":6116962,"name":"Rapide-Sept","admin3":"86042"},{"geonameid":6119335,"name":"Rémigny","admin3":"85105"},{"geonameid":6119418,"name":"Reneault","admin3":"86042"},{"geonameid":6124068,"name":"Rivière-Héva","admin3":"89010"},{"geonameid":6125917,"name":"Roc-d'Or","admin3":"89015"},{"geonameid":6125931,"name":"Rochebaucourt","admin3":"88010"},{"geonameid":6127213,"name":"Rollet","admin3":"86042"},{"geonameid":6127445,"name":"Roquemaure","admin3":"87015"},{"geonameid":6128125,"name":"Rouleau-Siding","admin3":"89040"},{"geonameid":6128126,"name":"Roulier","admin3":"85100"},{"geonameid":6128577,"name":"Rouyn-Noranda","admin3":"86042"},{"geonameid":6137539,"name":"Saint-Bruno-de-Guigues","admin3":"85045"},{"geonameid":6137686,"name":"Saint-Dominique-du-Rosaire","admin3":"88065"},{"geonameid":6137826,"name":"Saint-Edmond","admin3":"89008"},{"geonameid":6138169,"name":"Saint-Eugène-de-Guigues","admin3":"85085"},{"geonameid":6138206,"name":"Saint-Félix-de-Dalquier","admin3":"88060"},{"geonameid":6138329,"name":"Saint-Guillaume-de-Granada","admin3":"86042"},{"geonameid":6138761,"name":"Saint-Mathieu-d'Harricana","admin3":"88050"},{"geonameid":6138776,"name":"Saint-Maurice-de-Dalquier","admin3":"88055"},{"geonameid":6138821,"name":"Saint-Nazaire-de-Berry","admin3":"88070"},{"geonameid":6139012,"name":"Saint-Roch","admin3":"86042"},{"geonameid":6139194,"name":"Saint-Vital-de-Clermont","admin3":"87110"},{"geonameid":6137905,"name":"Sainte-Germaine-Boulé","admin3":"87030"},{"geonameid":6137908,"name":"Sainte-Gertrude","admin3":"88085"},{"geonameid":6137915,"name":"Sainte-Gertrude-Manneville","admin3":"88085"},{"geonameid":6144195,"name":"Senneterre","admin3":"89040"},{"geonameid":6159072,"name":"Sullivan","admin3":"89008"},{"geonameid":6161761,"name":"Taschereau","admin3":"87042"},{"geonameid":6162476,"name":"Tee Lake","admin3":"85010"},{"geonameid":6162654,"name":"Témiscaming","admin3":"85005"},{"geonameid":6166286,"name":"Tiblemont","admin3":"89045"},{"geonameid":6171931,"name":"Uniacke","admin3":"89050"},{"geonameid":6173017,"name":"Val-d'Or","admin3":"89008"},{"geonameid":6173006,"name":"Val-des-Bois","admin3":"89008"},{"geonameid":6173015,"name":"Val-des-Vents","admin3":"89008"},{"geonameid":6173021,"name":"Val-du-Repos","admin3":"89008"},{"geonameid":6173267,"name":"Val-Saint-Gilles","admin3":"87105"},{"geonameid":6173271,"name":"Val-Senneville","admin3":"89008"},{"geonameid":6173558,"name":"Vassan","admin3":"89008"},{"geonameid":6173597,"name":"Vautrin","admin3":"88090"},{"geonameid":6174335,"name":"Ville-Marie","admin3":"85025"},{"geonameid":6174339,"name":"Villemontel","admin3":"88075"}],"admin3":[{"geonameid":5923880,"name":"Clermont","admin3":"87110"},{"geonameid":5967642,"name":"Guérin","admin3":"85095"},{"geonameid":6049268,"name":"Landrienne","admin3":"88035"},{"geonameid":6050461,"name":"Launay","admin3":"88080"},{"geonameid":6086552,"name":"Nédélec","admin3":"85100"},{"geonameid":6137852,"name":"Saint-Édouard-de-Fabre","admin3":"85015"},{"geonameid":6137926,"name":"Sainte-Hélène-de-Mancebourg","admin3":"87070"},{"geonameid":6138599,"name":"Saint-Lambert","admin3":"87120"},{"geonameid":6138716,"name":"Saint-Marc-de-Figuery","admin3":"88040"},{"geonameid":6144197,"name":"Senneterre","admin3":"89040"},{"geonameid":6168650,"name":"Trécesson","admin3":"88075"},{"geonameid":8672562,"name":"Palmarolle","admin3":"87025"},{"geonameid":8672641,"name":"Senneterre","admin3":"89045"},{"geonameid":8672661,"name":"Notre-Dame-du-Nord","admin3":"85090"},{"geonameid":8672830,"name":"Berry","admin3":"88070"},{"geonameid":8672923,"name":"Saint-Mathieu-d'Harricana","admin3":"88050"},{"geonameid":8672979,"name":"Champneuf","admin3":"88005"},{"geonameid":8672984,"name":"Normétal","admin3":"87115"},{"geonameid":8672995,"name":"La Motte","admin3":"88045"},{"geonameid":8673010,"name":"La Corne","admin3":"88030"},{"geonameid":8673051,"name":"Duhamel-Ouest","admin3":"85030"},{"geonameid":8673120,"name":"Belcourt","admin3":"89050"},{"geonameid":8673179,"name":"Authier","admin3":"87050"},{"geonameid":8673187,"name":"Barraute","admin3":"88022"},{"geonameid":8673210,"name":"Saint-Bruno-de-Guigues","admin3":"85045"},{"geonameid":8673222,"name":"Moffet","admin3":"85075"},{"geonameid":8673243,"name":"La Reine","admin3":"87080"},{"geonameid":8673343,"name":"Chazel","admin3":"87095"},{"geonameid":8673347,"name":"Lorrainville","admin3":"85037"},{"geonameid":8673402,"name":"Authier-Nord","admin3":"87100"},{"geonameid":8673425,"name":"Poularies","admin3":"87035"},{"geonameid":8673436,"name":"Rochebaucourt","admin3":"88010"},{"geonameid":8673453,"name":"Rémigny","admin3":"85105"},{"geonameid":8673476,"name":"Dupuy","admin3":"87085"},{"geonameid":8673495,"name":"Sainte-Germaine-Boulé","admin3":"87030"},{"geonameid":8673499,"name":"Saint-Eugène-de-Guigues","admin3":"85085"},{"geonameid":8673529,"name":"Val-Saint-Gilles","admin3":"87105"},{"geonameid":8673547,"name":"Laverlochère","admin3":"85050"},{"geonameid":8673568,"name":"Taschereau","admin3":"87042"},{"geonameid":8673576,"name":"Preissac","admin3":"88090"},{"geonameid":8673605,"name":"Rapide-Danseur","admin3":"87010"},{"geonameid":8673630,"name":"Saint-Dominique-du-Rosaire","admin3":"88065"},{"geonameid":8673651,"name":"Sainte-Gertrude-Manneville","admin3":"88085"},{"geonameid":8673656,"name":"Laforce","admin3":"85070"},{"geonameid":8673672,"name":"Fugèreville","admin3":"85055"},{"geonameid":8673702,"name":"Gallichan","admin3":"87020"},{"geonameid":8673739,"name":"Val-d'Or","admin3":"89008"},{"geonameid":8673760,"name":"Rivière-Héva","admin3":"89010"},{"geonameid":8673765,"name":"Ville-Marie","admin3":"85025"},{"geonameid":8673785,"name":"Belleterre","admin3":"85065"},{"geonameid":8673798,"name":"La Morandière","admin3":"88015"},{"geonameid":8673831,"name":"Amos","admin3":"88055"},{"geonameid":8673870,"name":"Clerval","admin3":"87075"},{"geonameid":8673894,"name":"Roquemaure","admin3":"87015"},{"geonameid":8673902,"name":"La Sarre","admin3":"87090"},{"geonameid":8673944,"name":"Macamic","admin3":"87058"},{"geonameid":8673950,"name":"Témiscaming","admin3":"85005"},{"geonameid":8673978,"name":"Béarn","admin3":"85020"},{"geonameid":8673983,"name":"Latulipe-et-Gaboury","admin3":"85060"},{"geonameid":8674120,"name":"Duparquet","admin3":"87005"},{"geonameid":8674144,"name":"Malartic","admin3":"89015"},{"geonameid":8674167,"name":"Angliers","admin3":"85080"},{"geonameid":8674209,"name":"Saint-Félix-de-Dalquier","admin3":"88060"},{"geonameid":8674217,"name":"Kipawa","admin3":"85010"}],"alternateNames":[]},"__N_SSG":true}