{"pageProps":{"locale":"en","admin2":{"geonameid":8449526,"name":"Centre-du-Québec","country":"CA","admin1":"10","admin2":"17","admin3":"","latitude":"46.0198500","longitude":"-71.9824200"},"admin1":{"geonameid":6115047,"name":"Québec","admin1":"10"},"locations":[{"geonameid":5887856,"name":"Aston Station","admin3":"50023"},{"geonameid":5887852,"name":"Aston-Jonction","admin3":"50013"},{"geonameid":5890404,"name":"Baie-du-Febvre","admin3":"50100"},{"geonameid":5896466,"name":"Beaudoin-Centre","admin3":"39005"},{"geonameid":5897209,"name":"Bécancour","admin3":"38010"},{"geonameid":8616964,"name":"Bernierville","admin3":"32013"},{"geonameid":5906428,"name":"Boulogne","admin3":"49048"},{"geonameid":5908302,"name":"Breault","admin3":"50023"},{"geonameid":5917301,"name":"Carmel","admin3":"49080"},{"geonameid":5921064,"name":"Chesterville","admin3":"39030"},{"geonameid":5924246,"name":"Club-du-Faisan","admin3":"49058"},{"geonameid":5924936,"name":"Coin-de-la-Petite-Mine","admin3":"39020"},{"geonameid":5924946,"name":"Coin-Saint-Philippe","admin3":"39030"},{"geonameid":5934873,"name":"Danby","admin3":"49020"},{"geonameid":5935388,"name":"Daveluyville","admin3":"39155"},{"geonameid":5937392,"name":"Defoy","admin3":"39150"},{"geonameid":5938263,"name":"Des Ormeaux","admin3":"38010"},{"geonameid":5938157,"name":"Deschaillons-sur-Saint-Laurent","admin3":"38070"},{"geonameid":5941064,"name":"Domaine-Bellevue","admin3":"49058"},{"geonameid":5941066,"name":"Domaine-Boisvert","admin3":"39010"},{"geonameid":5941076,"name":"Domaine-Brouillette","admin3":"49058"},{"geonameid":5941080,"name":"Domaine-Carillon","admin3":"39077"},{"geonameid":5941082,"name":"Domaine-Caya","admin3":"49058"},{"geonameid":5941120,"name":"Domaine-de-l'Oasis","admin3":"49070"},{"geonameid":5941101,"name":"Domaine-de-la-Belle-Plage","admin3":"49105"},{"geonameid":5941106,"name":"Domaine-de-la-Halte","admin3":"39030"},{"geonameid":5941109,"name":"Domaine-de-la-Paix","admin3":"49105"},{"geonameid":5941121,"name":"Domaine-Demers","admin3":"50005"},{"geonameid":5941126,"name":"Domaine-des-Bouleaux","admin3":"49070"},{"geonameid":5941168,"name":"Domaine-des-Sept-Chutes","admin3":"39010"},{"geonameid":5941182,"name":"Domaine-du-Chevreuil","admin3":"49070"},{"geonameid":5941190,"name":"Domaine-du-Lac-Ginette","admin3":"39165"},{"geonameid":5941212,"name":"Domaine-Francoeur","admin3":"49005"},{"geonameid":5941219,"name":"Domaine-Gamache","admin3":"49058"},{"geonameid":5941230,"name":"Domaine-Guaybois","admin3":"49005"},{"geonameid":5941241,"name":"Domaine-Jacques","admin3":"39170"},{"geonameid":5941247,"name":"Domaine-Lacoste","admin3":"49020"},{"geonameid":5941263,"name":"Domaine-Lemieux","admin3":"39097"},{"geonameid":5941264,"name":"Domaine-Lemire","admin3":"49030"},{"geonameid":5941265,"name":"Domaine-Lemoine","admin3":"49105"},{"geonameid":5941308,"name":"Domaine-Parent","admin3":"39105"},{"geonameid":5941320,"name":"Domaine-Quatre-Saisons","admin3":"49058"},{"geonameid":5941334,"name":"Domaine-Roy","admin3":"49105"},{"geonameid":5941355,"name":"Domaine-Thibodeau","admin3":"39130"},{"geonameid":5942845,"name":"Drummondville","admin3":"49058"},{"geonameid":5943862,"name":"Duncan","admin3":"49048"},{"geonameid":5944384,"name":"Durham-Sud","admin3":"49015"},{"geonameid":5955860,"name":"Fortierville","admin3":"38047"},{"geonameid":5957343,"name":"Francoeurville","admin3":"49005"},{"geonameid":5960304,"name":"Gentilly","admin3":"38010"},{"geonameid":5964693,"name":"Grand-Saint-Esprit","admin3":"50065"},{"geonameid":5964695,"name":"Grand-Saint-Louis","admin3":"38010"},{"geonameid":11257140,"name":"Ham-Nord","admin3":"39010"},{"geonameid":5973746,"name":"Hemmings Falls","admin3":"49058"},{"geonameid":5992424,"name":"Kingsey Falls","admin3":"39097"},{"geonameid":6050677,"name":"L'Avenir","admin3":"49025"},{"geonameid":6049727,"name":"La Petite-Floride","admin3":"38010"},{"geonameid":6050734,"name":"La Visitation","admin3":"50085"},{"geonameid":6050742,"name":"La Visitation-de-Yamaska","admin3":"50085"},{"geonameid":6040628,"name":"Lac-Rose","admin3":"38015"},{"geonameid":6050033,"name":"Larochelle","admin3":"38010"},{"geonameid":6050611,"name":"Laval","admin3":"38010"},{"geonameid":6052593,"name":"Le Plateau-Laval","admin3":"38010"},{"geonameid":6052813,"name":"Le Secteur-des-Lacs","admin3":"39025"},{"geonameid":6051726,"name":"Lefebvre","admin3":"49020"},{"geonameid":6052163,"name":"Lemieux","admin3":"38020"},{"geonameid":6054642,"name":"Lisgar Station","admin3":"49015"},{"geonameid":8593825,"name":"Lyster","admin3":"32065"},{"geonameid":6063920,"name":"Maddington Falls","admin3":"39165"},{"geonameid":6065427,"name":"Manseau","admin3":"38028"},{"geonameid":6088132,"name":"Nicolet","admin3":"50072"},{"geonameid":6091318,"name":"Notre-Dame-de-Ham","admin3":"39015"},{"geonameid":6091389,"name":"Notre-Dame-de-Pierreville","admin3":"50113"},{"geonameid":6091439,"name":"Notre-Dame-du-Bon-Conseil","admin3":"49075"},{"geonameid":6103506,"name":"Petit-Saint-Louis","admin3":"38010"},{"geonameid":6104329,"name":"Pierreville","admin3":"50113"},{"geonameid":6105871,"name":"Place-Bellerive","admin3":"49058"},{"geonameid":6105891,"name":"Place-Montmigny","admin3":"49058"},{"geonameid":6945991,"name":"Plessisville","admin3":"32040"},{"geonameid":11072142,"name":"Précieux-Sang","admin3":"38010"},{"geonameid":8379101,"name":"Princeville","admin3":"32033"},{"geonameid":6114375,"name":"Purtuniq","admin3":""},{"geonameid":6125458,"name":"Roberge","admin3":"39030"},{"geonameid":6137348,"name":"Saint-Albert","admin3":"39085"},{"geonameid":6137523,"name":"Saint-Bonaventure","admin3":"49125"},{"geonameid":6137566,"name":"Saint-Célestin","admin3":"50030"},{"geonameid":6137588,"name":"Saint-Charles-de-Drummond","admin3":"49058"},{"geonameid":6137649,"name":"Saint-Cyrille-de-Wendover","admin3":"49070"},{"geonameid":6138155,"name":"Saint-Eugène","admin3":"49105"},{"geonameid":6138208,"name":"Saint-Félix-de-Kingsey","admin3":"49005"},{"geonameid":8616965,"name":"Saint-Ferdinand","admin3":"32013"},{"geonameid":6138241,"name":"Saint-François-du-Lac","admin3":"50128"},{"geonameid":6138310,"name":"Saint-Germain-de-Grantham","admin3":"49048"},{"geonameid":6138319,"name":"Saint-Grégoire","admin3":"38010"},{"geonameid":6138321,"name":"Saint-Grégoire-le-Grand","admin3":"38010"},{"geonameid":6138327,"name":"Saint-Guillaume","admin3":"49113"},{"geonameid":6138512,"name":"Saint-Joachim-de-Courval","admin3":"49058"},{"geonameid":6138555,"name":"Saint-Joseph-de-Blandford","admin3":"38028"},{"geonameid":6138628,"name":"Saint-Léonard-d'Aston","admin3":"50042"},{"geonameid":6138825,"name":"Saint-Nicéphore","admin3":"49058"},{"geonameid":6138920,"name":"Saint-Pie-V","admin3":"49130"},{"geonameid":6138950,"name":"Saint-Pierre-les-Becquets","admin3":"38065"},{"geonameid":6138996,"name":"Saint-Rémi-de-Tingwick","admin3":"39020"},{"geonameid":6139037,"name":"Saint-Samuel","admin3":"39130"},{"geonameid":6139040,"name":"Saint-Samuel-de-Horton","admin3":"39130"},{"geonameid":6139101,"name":"Saint-Sylvère","admin3":"38005"},{"geonameid":6139166,"name":"Saint-Valère","admin3":"39135"},{"geonameid":6139198,"name":"Saint-Wenceslas","admin3":"50023"},{"geonameid":6137715,"name":"Sainte-Angèle-de-Laval","admin3":"38010"},{"geonameid":6137716,"name":"Sainte-Angèle-de-Laval","admin3":"38010"},{"geonameid":6137757,"name":"Sainte-Anne-du-Sault","admin3":"39150"},{"geonameid":6137796,"name":"Sainte-Cécile-de-Lévrard","admin3":"38060"},{"geonameid":6137820,"name":"Sainte-Clotilde-de-Horton","admin3":"39117"},{"geonameid":6137872,"name":"Sainte-Élisabeth-de-Warwick","admin3":"39090"},{"geonameid":6137878,"name":"Sainte-Eulalie","admin3":"50005"},{"geonameid":6137890,"name":"Sainte-Françoise","admin3":"38035"},{"geonameid":6137913,"name":"Sainte-Gertrude","admin3":"38010"},{"geonameid":9034821,"name":"Sainte-Hélène-de-Chester","admin3":"39035"},{"geonameid":6138006,"name":"Sainte-Marie-de-Blandford","admin3":"38015"},{"geonameid":6138055,"name":"Sainte-Monique","admin3":"50057"},{"geonameid":6139076,"name":"Saints-Martyrs","admin3":"39005"},{"geonameid":6151395,"name":"Soucy","admin3":"49113"},{"geonameid":6168756,"name":"Trenholm","admin3":"49005"},{"geonameid":11289421,"name":"Vianney","admin3":"32013"},{"geonameid":6174151,"name":"Victoriaville","admin3":"39062"},{"geonameid":6174283,"name":"Village-des-Chutes","admin3":"39010"},{"geonameid":6176393,"name":"Warwick","admin3":"39077"},{"geonameid":6179868,"name":"Wheatland","admin3":"49058"},{"geonameid":6181446,"name":"Wickham","admin3":"49040"}],"admin3":[{"geonameid":5921041,"name":"Sainte-Hélène-de-Chester","admin3":"39035"},{"geonameid":5969986,"name":"Ham-Nord","admin3":"39010"},{"geonameid":6063919,"name":"Maddington Falls","admin3":"39165"},{"geonameid":6091436,"name":"Notre-Dame-du-Bon-Conseil","admin3":"49075"},{"geonameid":6098378,"name":"Parisville","admin3":"38055"},{"geonameid":6137601,"name":"Saint-Christophe-d'Arthabaska","admin3":"39060"},{"geonameid":6137777,"name":"Sainte-Brigitte-des-Saults","admin3":"49085"},{"geonameid":6137833,"name":"Saint-Edmond-de-Grantham","admin3":"49100"},{"geonameid":6137962,"name":"Saint-Elphège","admin3":"50095"},{"geonameid":6138064,"name":"Sainte-Perpétue","admin3":"50050"},{"geonameid":6138101,"name":"Sainte-Séraphine","admin3":"39105"},{"geonameid":6138107,"name":"Sainte-Sophie-de-Lévrard","admin3":"38040"},{"geonameid":6138650,"name":"Saint-Louis-de-Blandford","admin3":"39170"},{"geonameid":6138686,"name":"Saint-Lucien","admin3":"49030"},{"geonameid":6138702,"name":"Saint-Majorique-de-Grantham","admin3":"49095"},{"geonameid":6138918,"name":"Saint-Pie-de-Guire","admin3":"49130"},{"geonameid":6139033,"name":"Saint-Rosaire","admin3":"39145"},{"geonameid":6139077,"name":"Saints-Martyrs-Canadiens","admin3":"39005"},{"geonameid":6139215,"name":"Saint-Zéphirin-de-Courval","admin3":"50090"},{"geonameid":6166831,"name":"Tingwick","admin3":"39025"},{"geonameid":8672583,"name":"Saint-Léonard-d'Aston","admin3":"50042"},{"geonameid":8672600,"name":"Inverness","admin3":"32058"},{"geonameid":8672616,"name":"Notre-Dame-du-Bon-Conseil","admin3":"49080"},{"geonameid":8672684,"name":"Sainte-Élizabeth-de-Warwick","admin3":"39090"},{"geonameid":8672727,"name":"Plessisville","admin3":"32045"},{"geonameid":8672744,"name":"Sainte-Cécile-de-Lévrard","admin3":"38060"},{"geonameid":8672786,"name":"Saint-Norbert-d'Arthabaska","admin3":"39043"},{"geonameid":8672847,"name":"Sainte-Sophie-d'Halifax","admin3":"32023"},{"geonameid":8672852,"name":"Laurierville","admin3":"32072"},{"geonameid":8672928,"name":"Villeroy","admin3":"32085"},{"geonameid":8672934,"name":"Fortierville","admin3":"38047"},{"geonameid":8672989,"name":"Saint-Wenceslas","admin3":"50023"},{"geonameid":8673011,"name":"Grand-Saint-Esprit","admin3":"50065"},{"geonameid":8673027,"name":"Notre-Dame-de-Ham","admin3":"39015"},{"geonameid":8673039,"name":"Sainte-Françoise","admin3":"38035"},{"geonameid":8673077,"name":"Sainte-Clotilde-de-Horton","admin3":"39117"},{"geonameid":8673094,"name":"Saint-Valère","admin3":"39135"},{"geonameid":8673101,"name":"Aston-Jonction","admin3":"50013"},{"geonameid":8673115,"name":"Saint-Eugène","admin3":"49105"},{"geonameid":8673123,"name":"Sainte-Eulalie","admin3":"50005"},{"geonameid":8673133,"name":"Sainte-Monique","admin3":"50057"},{"geonameid":8673201,"name":"Saint-Pierre-les-Becquets","admin3":"38065"},{"geonameid":8673216,"name":"Saint-Samuel","admin3":"39130"},{"geonameid":8673295,"name":"Saint-Pierre-Baptiste","admin3":"32050"},{"geonameid":8673308,"name":"Lyster","admin3":"32065"},{"geonameid":8673310,"name":"Daveluyville","admin3":"39155"},{"geonameid":8673357,"name":"Saint-Cyrille-de-Wendover","admin3":"49070"},{"geonameid":8673391,"name":"Lefebvre","admin3":"49020"},{"geonameid":8673427,"name":"Wickham","admin3":"49040"},{"geonameid":8673456,"name":"Sainte-Marie-de-Blandford","admin3":"38015"},{"geonameid":8673462,"name":"Saint-Bonaventure","admin3":"49125"},{"geonameid":8673491,"name":"Baie-du-Febvre","admin3":"50100"},{"geonameid":8673493,"name":"Saint-Ferdinand","admin3":"32013"},{"geonameid":8673512,"name":"Manseau","admin3":"38028"},{"geonameid":8673544,"name":"Chesterville","admin3":"39030"},{"geonameid":8673588,"name":"Saint-Célestin","admin3":"50030"},{"geonameid":8673590,"name":"Saint-Félix-de-Kingsey","admin3":"49005"},{"geonameid":8673609,"name":"Durham-Sud","admin3":"49015"},{"geonameid":8673612,"name":"Deschaillons-sur-Saint-Laurent","admin3":"38070"},{"geonameid":8673614,"name":"Saint-Germain-de-Grantham","admin3":"49048"},{"geonameid":8673640,"name":"La Visitation-de-Yamaska","admin3":"50085"},{"geonameid":8673643,"name":"Notre-Dame-de-Lourdes","admin3":"32080"},{"geonameid":8673650,"name":"Pierreville","admin3":"50113"},{"geonameid":8673652,"name":"Saint-Guillaume","admin3":"49113"},{"geonameid":8673663,"name":"L'Avenir","admin3":"49025"},{"geonameid":8673683,"name":"Lemieux","admin3":"38020"},{"geonameid":8673691,"name":"Saint-Rémi-de-Tingwick","admin3":"39020"},{"geonameid":8673723,"name":"Warwick","admin3":"39077"},{"geonameid":8673838,"name":"Saint-Albert","admin3":"39085"},{"geonameid":8673884,"name":"Saint-Célestin","admin3":"50035"},{"geonameid":8673956,"name":"Saint-Sylvère","admin3":"38005"},{"geonameid":8674000,"name":"Drummondville","admin3":"49058"},{"geonameid":8674003,"name":"Princeville","admin3":"32033"},{"geonameid":8674080,"name":"Victoriaville","admin3":"39062"},{"geonameid":8674085,"name":"Sainte-Anne-du-Sault","admin3":"39150"},{"geonameid":8674096,"name":"Plessisville","admin3":"32040"},{"geonameid":8674113,"name":"Bécancour","admin3":"38010"},{"geonameid":8674140,"name":"Saint-François-du-Lac","admin3":"50128"},{"geonameid":8674219,"name":"Nicolet","admin3":"50072"},{"geonameid":8674226,"name":"Kingsey Falls","admin3":"39097"}],"alternateNames":[]},"__N_SSG":true}