{"pageProps":{"locale":"en","admin2":{"geonameid":6691322,"name":"Chaudière-Appalaches","country":"CA","admin1":"10","admin2":"12","admin3":"","latitude":"46.5550000","longitude":"-70.8308000"},"admin1":{"geonameid":6115047,"name":"Québec","admin1":"10"},"locations":[{"geonameid":5882428,"name":"Adstock","admin3":"31056"},{"geonameid":6945982,"name":"Armagh","admin3":"19037"},{"geonameid":5887043,"name":"Armstrong","admin3":"29005"},{"geonameid":6295855,"name":"Beauceville","admin3":"27028"},{"geonameid":5896501,"name":"Beaulac-Garthby","admin3":"31008"},{"geonameid":6325476,"name":"Beaumont","admin3":"19105"},{"geonameid":5898119,"name":"Belmina","admin3":"31035"},{"geonameid":5898842,"name":"Bernatchez","admin3":"18015"},{"geonameid":6325480,"name":"Berthier-Sur-Mer","admin3":"18065"},{"geonameid":11352056,"name":"Black Lake","admin3":"31084"},{"geonameid":8131396,"name":"Breakeyville","admin3":"25213"},{"geonameid":6325484,"name":"Cap-Saint-Ignace","admin3":"18045"},{"geonameid":8593822,"name":"Charny","admin3":"25213"},{"geonameid":5925198,"name":"Coleraine","admin3":"31045"},{"geonameid":5939663,"name":"Disraeli","admin3":"31015"},{"geonameid":5941152,"name":"Domaine-des-Pins","admin3":"31045"},{"geonameid":11669522,"name":"Dosquet","admin3":"33040"},{"geonameid":8593823,"name":"East Broughton","admin3":"31122"},{"geonameid":10859991,"name":"Frampton","admin3":"26005"},{"geonameid":6325491,"name":"Île-Aux-Grues","admin3":"18070"},{"geonameid":5983857,"name":"Irlande","admin3":"31040"},{"geonameid":6325523,"name":"L'Islet","admin3":"17078"},{"geonameid":6941419,"name":"L'Islet-sur-Mer","admin3":"17078"},{"geonameid":6325495,"name":"La Durantaye","admin3":"19090"},{"geonameid":6048131,"name":"La Guadeloupe","admin3":"29025"},{"geonameid":11669714,"name":"Lac Frontière","admin3":"18010"},{"geonameid":6945981,"name":"Lac-Etchemin","admin3":"28053"},{"geonameid":11696033,"name":"Laurier-station","admin3":"33060"},{"geonameid":6051448,"name":"Leclercville","admin3":"33123"},{"geonameid":6325521,"name":"Lévis","admin3":"25213"},{"geonameid":6060697,"name":"Lotbinière","admin3":"33115"},{"geonameid":6945987,"name":"Mont-Fournier","admin3":"17045"},{"geonameid":6325529,"name":"Montmagny","admin3":"18050"},{"geonameid":11838451,"name":"Pintendre","admin3":"25213"},{"geonameid":11352058,"name":"Pontbriand","admin3":"31084"},{"geonameid":11352057,"name":"Robertsonville","admin3":"31084"},{"geonameid":8740846,"name":"Saint Romuald","admin3":"25213"},{"geonameid":11696032,"name":"Saint-Agapit","admin3":"33045"},{"geonameid":6945984,"name":"Saint-Anselme","admin3":"19062"},{"geonameid":8224455,"name":"Saint-Antoine-de-Tilly","admin3":"33095"},{"geonameid":8604651,"name":"Saint-Apollinaire","admin3":"33090"},{"geonameid":10280512,"name":"Saint-Aubert","admin3":"17078"},{"geonameid":11696030,"name":"Saint-Bernard","admin3":"26055"},{"geonameid":12076678,"name":"Saint-Bernard-de-l'Île-aux-Coudres","admin3":"18070"},{"geonameid":6137631,"name":"Saint-Côme--Linière","admin3":"29057"},{"geonameid":11102303,"name":"Saint-Damien-de-Buckland","admin3":"19030"},{"geonameid":8740844,"name":"Saint-Etienne-De-Lauzon","admin3":"25213"},{"geonameid":6138182,"name":"Saint-Évariste-de-Forsyth","admin3":"29025"},{"geonameid":12076655,"name":"Saint-Flavien","admin3":"33052"},{"geonameid":6138216,"name":"Saint-Fortunat","admin3":"31030"},{"geonameid":6138279,"name":"Saint-Gédéon-de-Beauce","admin3":"29013"},{"geonameid":6620953,"name":"Saint-Georges","admin3":"29073"},{"geonameid":8354586,"name":"Saint-Henri","admin3":"19068"},{"geonameid":6138365,"name":"Saint-Honoré-de-Shenley","admin3":"29038"},{"geonameid":6138415,"name":"Saint-Jacques-le-Majeur","admin3":"31025"},{"geonameid":7535693,"name":"Saint-Joseph-de-Beauce","admin3":"27043"},{"geonameid":6138558,"name":"Saint-Joseph-de-Coleraine","admin3":"31045"},{"geonameid":10292222,"name":"Saint-Just-de-Bretenières","admin3":"18005"},{"geonameid":8354587,"name":"Saint-Lambert-de-Lauzon","admin3":"26070"},{"geonameid":8617399,"name":"Saint-Léon-de-Standon","admin3":"19020"},{"geonameid":6138663,"name":"Saint-Louis-de-Gonzague","admin3":"28035"},{"geonameid":6945983,"name":"Saint-Malachie","admin3":"19025"},{"geonameid":6534210,"name":"Saint-Michel-de-Bellechasse","admin3":"19097"},{"geonameid":11696029,"name":"Saint-Odilon-de-Cranbourne","admin3":"27035"},{"geonameid":6945993,"name":"Saint-Pamphile","admin3":"17010"},{"geonameid":8593673,"name":"Saint-Paul-de-Montminy","admin3":"18030"},{"geonameid":8629280,"name":"Saint-Philémon","admin3":"19005"},{"geonameid":8672816,"name":"Saint-Pierre-de-Broughton","admin3":"31135"},{"geonameid":8425789,"name":"Saint-Roch-des-Aulnaies","admin3":"17065"},{"geonameid":6139113,"name":"Saint-Théophile","admin3":"29005"},{"geonameid":11822647,"name":"Saint-Zacharie","admin3":"28005"},{"geonameid":8617398,"name":"Sainte-Agathe","admin3":"33017"},{"geonameid":11696023,"name":"Sainte-Claire","admin3":"19055"},{"geonameid":6354898,"name":"Sainte-Euphémie-sur-Rivière-du-Sud","admin3":"18035"},{"geonameid":7534563,"name":"Sainte-Hélène-de-Breakeyville","admin3":"25213"},{"geonameid":11696028,"name":"Sainte-Justine","admin3":"28045"},{"geonameid":6945989,"name":"Sainte-Marie","admin3":"26030"},{"geonameid":6945994,"name":"Sainte-Marie-De-Beauce","admin3":"26030"},{"geonameid":11696027,"name":"Sainte-Perpétue","admin3":"17030"},{"geonameid":6140109,"name":"Sanborn","admin3":"31030"},{"geonameid":6620467,"name":"St-Jean-Port-Joli","admin3":"17070"},{"geonameid":6163038,"name":"Territoire-Coburn","admin3":"29005"},{"geonameid":6943827,"name":"Thetford-Mines","admin3":"31084"},{"geonameid":11352059,"name":"Thetford-Partie-Sud","admin3":"31084"},{"geonameid":10280514,"name":"Trois-Saumons","admin3":"17070"},{"geonameid":8593691,"name":"Vallée-Jonction","admin3":"26015"},{"geonameid":11352055,"name":"Vimy Ridge","admin3":"31045"}],"admin3":[{"geonameid":5939664,"name":"Disraeli","admin3":"31020"},{"geonameid":6138076,"name":"Sainte-Praxède","admin3":"31050"},{"geonameid":6138348,"name":"Saint-Hilaire-de-Dorset","admin3":"29020"},{"geonameid":6138418,"name":"Saint-Jacques-le-Majeur-de-Wolfestown","admin3":"31025"},{"geonameid":6138587,"name":"Saint-Julien","admin3":"31035"},{"geonameid":6138733,"name":"Saint-Martin","admin3":"29045"},{"geonameid":6138998,"name":"Saint-René","admin3":"29050"},{"geonameid":8672570,"name":"Saint-Benjamin","admin3":"28025"},{"geonameid":8672572,"name":"Notre-Dame-du-Sacré-Coeur-d'Issoudun","admin3":"33085"},{"geonameid":8672575,"name":"Berthier-sur-Mer","admin3":"18065"},{"geonameid":8672580,"name":"Saint-Janvier-de-Joly","admin3":"33065"},{"geonameid":8672585,"name":"Saint-Georges","admin3":"29073"},{"geonameid":8672597,"name":"Saint-Zacharie","admin3":"28005"},{"geonameid":8672606,"name":"Scott","admin3":"26048"},{"geonameid":8672609,"name":"Saint-Damien-de-Buckland","admin3":"19030"},{"geonameid":8672615,"name":"Sainte-Hénédine","admin3":"26040"},{"geonameid":8672617,"name":"Saint-Raphaël","admin3":"19082"},{"geonameid":8672618,"name":"Honfleur","admin3":"19070"},{"geonameid":8672619,"name":"Sainte-Rose-de-Watford","admin3":"28030"},{"geonameid":8672631,"name":"Saint-Jules","admin3":"27055"},{"geonameid":8672639,"name":"Saint-Michel-de-Bellechasse","admin3":"19110"},{"geonameid":8672646,"name":"Saint-Frédéric","admin3":"27065"},{"geonameid":8672649,"name":"Saint-Édouard-de-Lotbinière","admin3":"33080"},{"geonameid":8672653,"name":"Sainte-Claire","admin3":"19055"},{"geonameid":8672656,"name":"Saint-Isidore","admin3":"26063"},{"geonameid":8672660,"name":"Saint-Benoît-Labre","admin3":"29100"},{"geonameid":8672666,"name":"Sainte-Louise","admin3":"17060"},{"geonameid":8672671,"name":"Saint-Charles-de-Bellechasse","admin3":"19097"},{"geonameid":8672673,"name":"Thetford Mines","admin3":"31084"},{"geonameid":8672675,"name":"Saint-Elzéar","admin3":"26022"},{"geonameid":8672680,"name":"Sacré-Coeur-de-Jésus","admin3":"31130"},{"geonameid":8672685,"name":"Saint-Simon-les-Mines","admin3":"29125"},{"geonameid":8672689,"name":"Saint-Luc-de-Bellechasse","admin3":"28060"},{"geonameid":8672691,"name":"Saint-Prosper","admin3":"28020"},{"geonameid":8672703,"name":"Saint-Séverin","admin3":"27070"},{"geonameid":8672707,"name":"Saint-Antoine-de-l'Isle-aux-Grues","admin3":"18070"},{"geonameid":8672713,"name":"Sainte-Croix","admin3":"33102"},{"geonameid":8672724,"name":"Notre-Dame-Auxiliatrice-de-Buckland","admin3":"19010"},{"geonameid":8672733,"name":"Saint-Philibert","admin3":"29065"},{"geonameid":8672736,"name":"Saint-Victor","admin3":"27008"},{"geonameid":8672737,"name":"Saint-Gervais","admin3":"19075"},{"geonameid":8672743,"name":"Frampton","admin3":"26005"},{"geonameid":8672750,"name":"Saint-Sylvestre","admin3":"33007"},{"geonameid":8672758,"name":"Saint-Gilles","admin3":"33035"},{"geonameid":8672760,"name":"Saint-Jean-de-Brébeuf","admin3":"31100"},{"geonameid":8672764,"name":"Saint-Alfred","admin3":"27015"},{"geonameid":8672767,"name":"Saint-Narcisse-de-Beaurivage","admin3":"33030"},{"geonameid":8672776,"name":"Saint-Louis-de-Gonzague","admin3":"28035"},{"geonameid":8672781,"name":"Adstock","admin3":"31056"},{"geonameid":8672790,"name":"Saint-Éphrem-de-Beauce","admin3":"29112"},{"geonameid":8672791,"name":"Val-Alain","admin3":"33070"},{"geonameid":8672794,"name":"Saint-Nérée-de-Bellechasse","admin3":"19045"},{"geonameid":8672795,"name":"Saint-Adalbert","admin3":"17015"},{"geonameid":8672804,"name":"Saint-Flavien","admin3":"33052"},{"geonameid":8672806,"name":"Notre-Dame-du-Rosaire","admin3":"18040"},{"geonameid":8672808,"name":"Saint-Vallier","admin3":"19117"},{"geonameid":8672819,"name":"Sainte-Lucie-de-Beauregard","admin3":"18020"},{"geonameid":8672821,"name":"Saint-Jacques-de-Leeds","admin3":"31140"},{"geonameid":8672823,"name":"Sainte-Agathe-de-Lotbinière","admin3":"33017"},{"geonameid":8672824,"name":"Saint-Agapit","admin3":"33045"},{"geonameid":8672828,"name":"Kinnear's Mills","admin3":"31105"},{"geonameid":8672833,"name":"Laurier-Station","admin3":"33060"},{"geonameid":8672837,"name":"Saint-Marcel","admin3":"17020"},{"geonameid":8672845,"name":"Saint-Damase-de-L'Islet","admin3":"17040"},{"geonameid":8672846,"name":"Saint-Omer","admin3":"17005"},{"geonameid":8672853,"name":"Saint-Come-Liniere","admin3":"29057"},{"geonameid":8672859,"name":"La Guadeloupe","admin3":"29030"},{"geonameid":8672869,"name":"Sainte-Apolline-de-Patton","admin3":"18025"},{"geonameid":8672873,"name":"Saint-Adrien-d'Irlande","admin3":"31095"},{"geonameid":8672877,"name":"Sainte-Justine","admin3":"28045"},{"geonameid":8672879,"name":"Saint-Joseph-des-Érables","admin3":"27050"},{"geonameid":8672880,"name":"Saint-Bernard","admin3":"26055"},{"geonameid":8672885,"name":"Sainte-Clotilde-de-Beauce","admin3":"31060"},{"geonameid":8672898,"name":"Tourville","admin3":"17035"},{"geonameid":8672911,"name":"Saint-François-de-la-Rivière-du-Sud","admin3":"18060"},{"geonameid":8672913,"name":"Saint-Aubert","admin3":"17055"},{"geonameid":8672937,"name":"Beauceville","admin3":"27028"},{"geonameid":8672947,"name":"Saint-Roch-des-Aulnaies","admin3":"17065"},{"geonameid":8672951,"name":"Saint-Jean-Port-Joli","admin3":"17070"},{"geonameid":8672953,"name":"Lac-Frontière","admin3":"18010"},{"geonameid":8672956,"name":"Saint-Patrice-de-Beaurivage","admin3":"33025"},{"geonameid":8672962,"name":"Saint-Magloire","admin3":"28075"},{"geonameid":8672968,"name":"Saint-Just-de-Bretenières","admin3":"18005"},{"geonameid":8672969,"name":"Sainte-Aurélie","admin3":"28015"},{"geonameid":8672972,"name":"Notre-Dame-des-Pins","admin3":"29120"},{"geonameid":8672973,"name":"Tring-Jonction","admin3":"27060"},{"geonameid":8673034,"name":"Saint-Paul-de-Montminy","admin3":"18030"},{"geonameid":8673036,"name":"Vallée-Jonction","admin3":"26015"},{"geonameid":8673135,"name":"Beaulac-Garthby","admin3":"31008"},{"geonameid":8673148,"name":"L'Islet","admin3":"17078"},{"geonameid":8673162,"name":"Saint-Nazaire-de-Dorchester","admin3":"19015"},{"geonameid":8673181,"name":"Saint-Apollinaire","admin3":"33090"},{"geonameid":8673254,"name":"Sainte-Sabine","admin3":"28065"},{"geonameid":8673266,"name":"Saint-Camille-de-Lellis","admin3":"28070"},{"geonameid":8673271,"name":"Lac-Poulin","admin3":"29095"},{"geonameid":8673277,"name":"Irlande","admin3":"31040"},{"geonameid":8673349,"name":"Saint-Cyprien","admin3":"28040"},{"geonameid":8673373,"name":"East Broughton","admin3":"31122"},{"geonameid":8673386,"name":"Saint-Fortunat","admin3":"31030"},{"geonameid":8673389,"name":"Sainte-Marguerite","admin3":"26035"},{"geonameid":8673439,"name":"Sainte-Perpétue","admin3":"17030"},{"geonameid":8673484,"name":"Saint-Odilon-de-Cranbourne","admin3":"27035"},{"geonameid":8673534,"name":"Saint-Évariste-de-Forsyth","admin3":"29025"},{"geonameid":8673539,"name":"Saints-Anges","admin3":"26010"},{"geonameid":8673548,"name":"Saint-Honoré-de-Shenley","admin3":"29038"},{"geonameid":8673553,"name":"Sainte-Félicité","admin3":"17025"},{"geonameid":8673565,"name":"Saint-Fabien-de-Panet","admin3":"18015"},{"geonameid":8673625,"name":"Saint-Cyrille-de-Lessard","admin3":"17045"},{"geonameid":8673636,"name":"Dosquet","admin3":"33040"},{"geonameid":8673644,"name":"Saint-Pierre-de-la-Rivière-du-Sud","admin3":"18055"},{"geonameid":8673648,"name":"Armagh","admin3":"19037"},{"geonameid":8673666,"name":"Saint-Joseph-de-Coleraine","admin3":"31045"},{"geonameid":8673692,"name":"Saint-Gédéon-de-Beauce","admin3":"29013"},{"geonameid":8673734,"name":"Saint-Léon-de-Standon","admin3":"19020"},{"geonameid":8673745,"name":"Beaumont","admin3":"19105"},{"geonameid":8673748,"name":"Saint-Anselme","admin3":"19062"},{"geonameid":8673753,"name":"Cap-Saint-Ignace","admin3":"18045"},{"geonameid":8673763,"name":"Saint-Théophile","admin3":"29005"},{"geonameid":8673800,"name":"Saint-Pamphile","admin3":"17010"},{"geonameid":8673826,"name":"Saint-Lazare-de-Bellechasse","admin3":"19050"},{"geonameid":8673848,"name":"Disraeli","admin3":"31015"},{"geonameid":8673929,"name":"Lac-Etchemin","admin3":"28053"},{"geonameid":8673930,"name":"Saint-Malachie","admin3":"19025"},{"geonameid":8673932,"name":"Saint-Antoine-de-Tilly","admin3":"33095"},{"geonameid":8673986,"name":"Lotbinière","admin3":"33115"},{"geonameid":8673995,"name":"Sainte-Marie","admin3":"26030"},{"geonameid":8674052,"name":"Saint-Joseph-de-Beauce","admin3":"27043"},{"geonameid":8674064,"name":"La Durantaye","admin3":"19090"},{"geonameid":8674078,"name":"Leclercville","admin3":"33123"},{"geonameid":8674136,"name":"Saint-Lambert-de-Lauzon","admin3":"26070"},{"geonameid":8674147,"name":"Saint-Philémon","admin3":"19005"},{"geonameid":8674151,"name":"Lévis","admin3":"25213"},{"geonameid":8674155,"name":"Saint-Henri","admin3":"19068"},{"geonameid":8674159,"name":"Montmagny","admin3":"18050"},{"geonameid":8674186,"name":"Sainte-Euphémie-sur-Rivière-du-Sud","admin3":"18035"}],"alternateNames":[]},"__N_SSG":true}