{"pageProps":{"locale":"en","admin2":{"geonameid":5067019,"name":"Dixon County","country":"US","admin1":"NE","admin2":"051","admin3":"","latitude":"42.4931900","longitude":"-96.8677500","localeAltName":null},"admin1":{"geonameid":5073708,"name":"Nebraska","admin1":"NE","localeAltName":"Nebraska"},"locations":[{"geonameid":5067677,"name":"Emerson","admin3":"15745","localeAltName":null},{"geonameid":5075615,"name":"Ponca","admin3":"39695","localeAltName":null},{"geonameid":5081262,"name":"Wakefield","admin3":"51105","localeAltName":null}],"admin3":[{"geonameid":5065763,"name":"Township of Clark","admin3":"09130"},{"geonameid":5066091,"name":"Township of Concord","admin3":"10285"},{"geonameid":5066635,"name":"Township of Daily","admin3":"11965"},{"geonameid":5067689,"name":"Township of Emerson","admin3":"15745","localeAltName":null},{"geonameid":5068865,"name":"Township of Galena","admin3":"17915"},{"geonameid":5070350,"name":"Township of Hooker","admin3":"22955"},{"geonameid":5072235,"name":"Township of Logan","admin3":"28700"},{"geonameid":5073875,"name":"Township of Newcastle","admin3":"34125"},{"geonameid":5074663,"name":"Township of Ottercreek","admin3":"37665"},{"geonameid":5075640,"name":"City of Ponca","admin3":"39695","localeAltName":null},{"geonameid":5075641,"name":"Township of Ponca","admin3":"39730"},{"geonameid":5079014,"name":"Township of Silvercreek","admin3":"45365"},{"geonameid":5079483,"name":"Township of Springbank","admin3":"46415"},{"geonameid":5081270,"name":"Township of Wakefield","admin3":"51105","localeAltName":null}],"alternateNames":[{"alternatenameId":2124821,"geonameid":5073708,"isoLanguage":"en","alternateName":"Nebraska","isPreferredName":true,"isShortName":true,"isColloquial":false,"isHistoric":false}]},"__N_SSG":true}