{"pageProps":{"locale":"en","admin2":{"geonameid":4225814,"name":"Tattnall County","country":"US","admin1":"GA","admin2":"267","admin3":"","latitude":"32.0457500","longitude":"-82.0581800","localeAltName":null},"admin1":{"geonameid":4197000,"name":"Georgia","admin1":"GA","localeAltName":"Georgia"},"locations":[{"geonameid":4188852,"name":"Collins","admin3":"","localeAltName":null},{"geonameid":4197325,"name":"Glennville","admin3":"","localeAltName":null},{"geonameid":4218414,"name":"Reidsville","admin3":"","localeAltName":null}],"admin3":[{"geonameid":7169507,"name":"City of Glennville","admin3":"7169507"},{"geonameid":7169775,"name":"City of Cobbtown","admin3":"7169775"},{"geonameid":7169785,"name":"City of Collins","admin3":"7169785"},{"geonameid":7170122,"name":"City of Reidsville","admin3":"7170122"},{"geonameid":7170397,"name":"City of Manassas","admin3":"7170397"}],"alternateNames":[{"alternatenameId":2089570,"geonameid":4197000,"isoLanguage":"en","alternateName":"Georgia","isPreferredName":true,"isShortName":true,"isColloquial":false,"isHistoric":false}]},"__N_SSG":true}