{"pageProps":{"locale":"en","admin2":{"geonameid":4107139,"name":"Cross County","country":"US","admin1":"AR","admin2":"037","admin3":"","latitude":"35.2957300","longitude":"-90.7712300","localeAltName":null},"admin1":{"geonameid":4099753,"name":"Arkansas","admin1":"AR","localeAltName":"Arkansas"},"locations":[{"geonameid":4105468,"name":"Cherry Valley","admin3":"92526","localeAltName":null},{"geonameid":4125487,"name":"Parkin","admin3":"93657","localeAltName":null},{"geonameid":4137215,"name":"Wynne","admin3":"94125","localeAltName":null}],"admin3":[{"geonameid":4100940,"name":"Township of Bedford","admin3":"90204"},{"geonameid":4103409,"name":"Township of Brushy Lake","admin3":"90504"},{"geonameid":4106232,"name":"Township of Coldwater","admin3":"90894"},{"geonameid":4109894,"name":"Township of Ellis","admin3":"91227"},{"geonameid":4110224,"name":"Township of Fair Oaks","admin3":"91266"},{"geonameid":4114566,"name":"Township of Hickory Ridge","admin3":"91701"},{"geonameid":4121898,"name":"Township of Mitchell","admin3":"92526","localeAltName":null},{"geonameid":4130441,"name":"Township of Searcy","admin3":"93339"},{"geonameid":4131501,"name":"Township of Smith","admin3":"93408"},{"geonameid":4134192,"name":"Township of Twist","admin3":"93652"},{"geonameid":4134241,"name":"Township of Tyronza","admin3":"93657","localeAltName":null},{"geonameid":4137228,"name":"Township of Wynne","admin3":"94125","localeAltName":null}],"alternateNames":[{"alternatenameId":1979420,"geonameid":4099753,"isoLanguage":"en","alternateName":"Arkansas","isPreferredName":true,"isShortName":true,"isColloquial":false,"isHistoric":false}]},"__N_SSG":true}