{"pageProps":{"locale":"en","admin2":{"geonameid":4107572,"name":"Dallas County","country":"US","admin1":"AR","admin2":"039","admin3":"","latitude":"33.9698300","longitude":"-92.6544400","localeAltName":null},"admin1":{"geonameid":4099753,"name":"Arkansas","admin1":"AR","localeAltName":"Arkansas"},"locations":[{"geonameid":4111319,"name":"Fordyce","admin3":"91317","localeAltName":null}],"admin3":[{"geonameid":4103717,"name":"Township of Bunn","admin3":"90546"},{"geonameid":4105483,"name":"Township of Chester","admin3":"90780"},{"geonameid":4109160,"name":"Township of Dry Run","admin3":"91146"},{"geonameid":4111305,"name":"Township of Fordyce","admin3":"91317","localeAltName":null},{"geonameid":4115066,"name":"Township of Holly Springs","admin3":"91752"},{"geonameid":4116301,"name":"Township of Jackson","admin3":"91860"},{"geonameid":4118868,"name":"Township of Liberty","admin3":"92166"},{"geonameid":4120406,"name":"Township of Manchester","admin3":"92364"},{"geonameid":4123947,"name":"Township of Nix","admin3":"92697"},{"geonameid":4125132,"name":"Township of Owen","admin3":"92790"},{"geonameid":4127509,"name":"Township of Princeton","admin3":"93030"},{"geonameid":4131502,"name":"Township of Smith","admin3":"93411"},{"geonameid":4131784,"name":"Township of Southall","admin3":"93423"},{"geonameid":4136701,"name":"Township of Willow","admin3":"94071"}],"alternateNames":[{"alternatenameId":1979420,"geonameid":4099753,"isoLanguage":"en","alternateName":"Arkansas","isPreferredName":true,"isShortName":true,"isColloquial":false,"isHistoric":false}]},"__N_SSG":true}