{"pageProps":{"locale":"en","admin2":{"geonameid":4115463,"name":"Howard County","country":"US","admin1":"AR","admin2":"061","admin3":"","latitude":"34.0887400","longitude":"-93.9934900","localeAltName":null},"admin1":{"geonameid":4099753,"name":"Arkansas","admin1":"AR","localeAltName":"Arkansas"},"locations":[{"geonameid":4108212,"name":"Dierks","admin3":"92337","localeAltName":null},{"geonameid":4121792,"name":"Mineral Springs","admin3":"92505","localeAltName":null},{"geonameid":4123271,"name":"Nashville","admin3":"92661","localeAltName":null}],"admin3":[{"geonameid":4102132,"name":"Township of Blackland","admin3":"90327"},{"geonameid":4102286,"name":"Township of Blue Bayou","admin3":"90354"},{"geonameid":4102356,"name":"Township of Blue Ridge","admin3":"90369"},{"geonameid":4102943,"name":"Township of Brewer","admin3":"90465"},{"geonameid":4103525,"name":"Township of Buck Range","admin3":"90531"},{"geonameid":4103730,"name":"Township of Burg","admin3":"90552"},{"geonameid":4105135,"name":"Township of Center Point","admin3":"90747"},{"geonameid":4105907,"name":"Township of Clay","admin3":"90822"},{"geonameid":4106817,"name":"Township of County Line","admin3":"90933"},{"geonameid":4108234,"name":"Township of Dillard","admin3":"91104"},{"geonameid":4109187,"name":"Township of Duckett","admin3":"91152"},{"geonameid":4111608,"name":"Township of Franklin","admin3":"91350"},{"geonameid":4115046,"name":"Township of Holly Creek","admin3":"91749"},{"geonameid":4120281,"name":"Township of Madison","admin3":"92337","localeAltName":null},{"geonameid":4121798,"name":"Township of Mineral Springs","admin3":"92505","localeAltName":null},{"geonameid":4123011,"name":"Township of Mountain","admin3":"92595"},{"geonameid":4123108,"name":"Township of Muddy Fork","admin3":"92643"},{"geonameid":4123278,"name":"Township of Nashville","admin3":"92661","localeAltName":null},{"geonameid":4130054,"name":"Township of Saline","admin3":"93309"},{"geonameid":4130238,"name":"Township of Saratoga","admin3":"93324"},{"geonameid":4133653,"name":"Township of Tollette","admin3":"93615"},{"geonameid":4134254,"name":"Township of Umpire","admin3":"93663"}],"alternateNames":[{"alternatenameId":1979420,"geonameid":4099753,"isoLanguage":"en","alternateName":"Arkansas","isPreferredName":true,"isShortName":true,"isColloquial":false,"isHistoric":false}]},"__N_SSG":true}