{"pageProps":{"locale":"en","admin2":{"geonameid":5226553,"name":"Brown County","country":"US","admin1":"SD","admin2":"013","admin3":"","latitude":"45.5897200","longitude":"-98.3516100"},"admin1":{"geonameid":5769223,"name":"South Dakota","admin1":"SD","localeAltName":"South Dakota"},"locations":[{"geonameid":5225857,"name":"Aberdeen","admin3":"00100"},{"geonameid":5228242,"name":"Groton","admin3":"26340"}],"admin3":[{"geonameid":5225861,"name":"City of Aberdeen","admin3":"00100"},{"geonameid":5225862,"name":"Township of Aberdeen","admin3":"00140"},{"geonameid":5225935,"name":"Township of Allison","admin3":"00980"},{"geonameid":5226170,"name":"Township of Bates","admin3":"03780"},{"geonameid":5226174,"name":"Township of Bath","admin3":"03940"},{"geonameid":5226482,"name":"Township of Brainard","admin3":"06700"},{"geonameid":5226691,"name":"Township of Cambria","admin3":"09180"},{"geonameid":5226733,"name":"Township of Carlisle","admin3":"09860"},{"geonameid":5226899,"name":"Town of Claremont","admin3":"12100"},{"geonameid":5226900,"name":"Township of Claremont","admin3":"12140"},{"geonameid":5226999,"name":"City of Columbia","admin3":"13420"},{"geonameid":5227000,"name":"Township of Columbia","admin3":"13460"},{"geonameid":5227469,"name":"Township of East Hanson","admin3":"17820"},{"geonameid":5227480,"name":"Township of East Rondell","admin3":"17900"},{"geonameid":5227894,"name":"Township of Franklyn","admin3":"22820"},{"geonameid":5227906,"name":"Town of Frederick","admin3":"22860"},{"geonameid":5227907,"name":"Township of Frederick","admin3":"22900"},{"geonameid":5227971,"name":"Township of Garden Prairie","admin3":"23500"},{"geonameid":5227995,"name":"Township of Garland","admin3":"23780"},{"geonameid":5228018,"name":"Township of Gem","admin3":"24020"},{"geonameid":5228210,"name":"Township of Greenfield","admin3":"25820"},{"geonameid":5228245,"name":"City of Groton","admin3":"26340"},{"geonameid":5228246,"name":"Township of Groton","admin3":"26380"},{"geonameid":5228399,"name":"City of Hecla","admin3":"27980"},{"geonameid":5228400,"name":"Township of Hecla","admin3":"28020"},{"geonameid":5228424,"name":"Township of Henry","admin3":"28100"},{"geonameid":5228467,"name":"Township of Highland","admin3":"28660"},{"geonameid":5229230,"name":"Township of Lansing","admin3":"35860"},{"geonameid":5229297,"name":"Township of Liberty","admin3":"36780"},{"geonameid":5229329,"name":"Township of Lincoln","admin3":"37260"},{"geonameid":5229706,"name":"Township of Mercier","admin3":"42020"},{"geonameid":5229986,"name":"Township of New Hope","admin3":"44980"},{"geonameid":5230053,"name":"Township of North Detroit","admin3":"45540"},{"geonameid":5230229,"name":"Township of Oneota","admin3":"47100"},{"geonameid":5230241,"name":"Township of Ordway","admin3":"47420"},{"geonameid":5230261,"name":"Township of Osceola","admin3":"47740"},{"geonameid":5230298,"name":"Township of Palmyra","admin3":"48260"},{"geonameid":5230586,"name":"Township of Portage","admin3":"51380"},{"geonameid":5230629,"name":"Township of Prairiewood","admin3":"51720"},{"geonameid":5230666,"name":"Township of Putney","admin3":"52460"},{"geonameid":5230722,"name":"Township of Ravinia","admin3":"53180"},{"geonameid":5230827,"name":"Township of Richland","admin3":"54500"},{"geonameid":5230862,"name":"Township of Riverside","admin3":"54980"},{"geonameid":5231284,"name":"Township of Savo","admin3":"57660"},{"geonameid":5231785,"name":"Township of Shelby","admin3":"58380"},{"geonameid":5231940,"name":"Township of South Detroit","admin3":"59840"},{"geonameid":5232192,"name":"Town of Stratford","admin3":"62020"},{"geonameid":5232591,"name":"Town of Verdon","admin3":"66660"},{"geonameid":5232715,"name":"Town of Warner","admin3":"68740"},{"geonameid":5232716,"name":"Township of Warner","admin3":"68780"},{"geonameid":5232830,"name":"Township of West Hanson","admin3":"70380"},{"geonameid":5232850,"name":"Township of West Rondell","admin3":"70620"},{"geonameid":5232864,"name":"Town of Westport","admin3":"70540"},{"geonameid":5232865,"name":"Township of Westport","admin3":"70580"}],"alternateNames":[{"alternatenameId":2089551,"geonameid":5769223,"isoLanguage":"en","alternateName":"South Dakota","isPreferredName":true,"isShortName":true,"isColloquial":false,"isHistoric":false}]},"__N_SSG":true}