{"pageProps":{"locale":"en","admin2":{"geonameid":5228179,"name":"Grant County","country":"US","admin1":"SD","admin2":"051","admin3":"","latitude":"45.1719400","longitude":"-96.7676900"},"admin1":{"geonameid":5769223,"name":"South Dakota","admin1":"SD","localeAltName":"South Dakota"},"locations":[{"geonameid":5229737,"name":"Milbank","admin3":"42260"}],"admin3":[{"geonameid":5225872,"name":"Township of Adams","admin3":"00260"},{"geonameid":5225898,"name":"Township of Alban","admin3":"00580"},{"geonameid":5225901,"name":"Town of Albee","admin3":"00620"},{"geonameid":5226350,"name":"Township of Big Stone","admin3":"05500"},{"geonameid":5226403,"name":"Township of Blooming Valley","admin3":"06100"},{"geonameid":5227745,"name":"Township of Farmington","admin3":"21180"},{"geonameid":5228027,"name":"Township of Georgia","admin3":"24100"},{"geonameid":5228178,"name":"Township of Grant Center","admin3":"25740"},{"geonameid":5228983,"name":"Township of Kilborn","admin3":"33940"},{"geonameid":5229066,"name":"Town of La Bolt","admin3":"34540"},{"geonameid":5229474,"name":"Township of Lura","admin3":"39500"},{"geonameid":5229532,"name":"Township of Madison","admin3":"40180"},{"geonameid":5229591,"name":"Town of Marvin","admin3":"41220"},{"geonameid":5229618,"name":"Township of Mazeppa","admin3":"41580"},{"geonameid":5229693,"name":"Township of Melrose","admin3":"41940"},{"geonameid":5229741,"name":"City of Milbank","admin3":"42260"},{"geonameid":5230262,"name":"Township of Osceola","admin3":"47780"},{"geonameid":5230797,"name":"Town of Revillo","admin3":"54220"},{"geonameid":5232163,"name":"Town of Stockholm","admin3":"61740"},{"geonameid":5232164,"name":"Township of Stockholm","admin3":"61780"},{"geonameid":5232189,"name":"Town of Strandburg","admin3":"61980"},{"geonameid":5232432,"name":"Township of Troy","admin3":"64180"},{"geonameid":5232473,"name":"Town of Twin Brooks","admin3":"64700"},{"geonameid":5232474,"name":"Township of Twin Brooks","admin3":"64740"},{"geonameid":5232603,"name":"Township of Vernon","admin3":"66900"},{"geonameid":7316823,"name":"City of Big Stone City","admin3":"05540"}],"alternateNames":[{"alternatenameId":2089551,"geonameid":5769223,"isoLanguage":"en","alternateName":"South Dakota","isPreferredName":true,"isShortName":true,"isColloquial":false,"isHistoric":false}]},"__N_SSG":true}