{"pageProps":{"locale":"en","admin2":{"geonameid":5228302,"name":"Hand County","country":"US","admin1":"SD","admin2":"059","admin3":"","latitude":"44.5477800","longitude":"-99.0049400"},"admin1":{"geonameid":5769223,"name":"South Dakota","admin1":"SD","localeAltName":"South Dakota"},"locations":[{"geonameid":5229751,"name":"Miller","admin3":"42460"}],"admin3":[{"geonameid":5225916,"name":"Township of Alden","admin3":"00780"},{"geonameid":5225945,"name":"Township of Alpha","admin3":"01100"},{"geonameid":5226171,"name":"Township of Bates","admin3":"03820"},{"geonameid":5226622,"name":"Township of Burdette","admin3":"08540"},{"geonameid":5226707,"name":"Township of Campbell","admin3":"09220"},{"geonameid":5226741,"name":"Township of Carlton","admin3":"09940"},{"geonameid":5226787,"name":"Township of Cedar","admin3":"10700"},{"geonameid":5227006,"name":"Township of Como","admin3":"13540"},{"geonameid":5227820,"name":"Township of Florence","admin3":"21900"},{"geonameid":5228067,"name":"Township of Gilbert","admin3":"24340"},{"geonameid":5228081,"name":"Township of Glendale","admin3":"24500"},{"geonameid":5228160,"name":"Township of Grand","admin3":"25100"},{"geonameid":5228214,"name":"Township of Greenleaf","admin3":"25980"},{"geonameid":5228483,"name":"Township of Hiland","admin3":"29060"},{"geonameid":5228549,"name":"Township of Holden","admin3":"29660"},{"geonameid":5228656,"name":"Township of Hulbert","admin3":"30860"},{"geonameid":5229353,"name":"Township of Linn","admin3":"37780"},{"geonameid":5229381,"name":"Township of Logan","admin3":"38260"},{"geonameid":5229724,"name":"Township of Midland","admin3":"42180"},{"geonameid":5229760,"name":"City of Miller","admin3":"42460"},{"geonameid":5229761,"name":"Township of Miller","admin3":"42500"},{"geonameid":5229821,"name":"Township of Mondamin","admin3":"43300"},{"geonameid":5230096,"name":"Unorganized Territory of Northwest Hand","admin3":"45795"},{"geonameid":5230178,"name":"Township of Ohio","admin3":"46580"},{"geonameid":5230233,"name":"Township of Ontario","admin3":"47220"},{"geonameid":5230308,"name":"Township of Park","admin3":"48340"},{"geonameid":5230346,"name":"Township of Pearl","admin3":"48700"},{"geonameid":5230471,"name":"Township of Plato","admin3":"50220"},{"geonameid":5230530,"name":"Township of Pleasant Valley","admin3":"50820"},{"geonameid":5230759,"name":"Town of Ree Heights","admin3":"53940"},{"geonameid":5230864,"name":"Township of Riverside","admin3":"55100"},{"geonameid":5230887,"name":"Township of Rockdale","admin3":"55420"},{"geonameid":5230935,"name":"Township of Rose Hill","admin3":"56220"},{"geonameid":5231123,"name":"Town of Saint Lawrence","admin3":"57180"},{"geonameid":5231124,"name":"Township of Saint Lawrence","admin3":"57220"},{"geonameid":5232030,"name":"Township of Spring Hill","admin3":"60780"},{"geonameid":5232042,"name":"Township of Spring Lake","admin3":"60820"},{"geonameid":5232878,"name":"Township of Wheaton","admin3":"70860"},{"geonameid":5233065,"name":"Township of York","admin3":"73260"}],"alternateNames":[{"alternatenameId":2089551,"geonameid":5769223,"isoLanguage":"en","alternateName":"South Dakota","isPreferredName":true,"isShortName":true,"isColloquial":false,"isHistoric":false}]},"__N_SSG":true}