{"pageProps":{"locale":"en","admin2":{"geonameid":5228654,"name":"Hughes County","country":"US","admin1":"SD","admin2":"065","admin3":"","latitude":"44.3890300","longitude":"-99.9960500"},"admin1":{"geonameid":5769223,"name":"South Dakota","admin1":"SD","localeAltName":"South Dakota"},"locations":[{"geonameid":5767918,"name":"Pierre","admin3":"49600"}],"admin3":[{"geonameid":5226420,"name":"City of Blunt","admin3":"06180"},{"geonameid":5227143,"name":"Unorganized Territory of Crow Creek","admin3":"14835"},{"geonameid":5228350,"name":"Town of Harrold","admin3":"27420"},{"geonameid":5230060,"name":"Unorganized Territory of North Hughes","admin3":"45590"},{"geonameid":5230677,"name":"Township of Raber","admin3":"52620"},{"geonameid":5767924,"name":"City of Pierre","admin3":"49600"},{"geonameid":5770251,"name":"Unorganized Territory of West Hughes","admin3":"70390"}],"alternateNames":[{"alternatenameId":2089551,"geonameid":5769223,"isoLanguage":"en","alternateName":"South Dakota","isPreferredName":true,"isShortName":true,"isColloquial":false,"isHistoric":false}]},"__N_SSG":true}