{"pageProps":{"locale":"en","admin2":{"geonameid":5767033,"name":"Mellette County","country":"US","admin1":"SD","admin2":"095","admin3":"","latitude":"43.5812700","longitude":"-100.7599900"},"admin1":{"geonameid":5769223,"name":"South Dakota","admin1":"SD","localeAltName":"South Dakota"},"locations":[],"admin3":[{"geonameid":5762534,"name":"Township of Bad Nation","admin3":"03140"},{"geonameid":5762902,"name":"Township of Blackpipe","admin3":"05820"},{"geonameid":5763242,"name":"Township of Butte","admin3":"09060"},{"geonameid":5763479,"name":"Unorganized Territory of Cedarbutte","admin3":"10780"},{"geonameid":5763503,"name":"Unorganized Territory of Central Mellette","admin3":"11160"},{"geonameid":5763663,"name":"Township of Cody","admin3":"13100"},{"geonameid":5764681,"name":"Township of Fairview","admin3":"20860"},{"geonameid":5767235,"name":"Township of Mosher","admin3":"43980"},{"geonameid":5767382,"name":"Township of New Surprise Valley","admin3":"45040"},{"geonameid":5767464,"name":"Township of Norris","admin3":"45460"},{"geonameid":5768123,"name":"Township of Prospect","admin3":"52060"},{"geonameid":5768295,"name":"Township of Red Fish","admin3":"53540"},{"geonameid":5768442,"name":"Township of Ring Thunder","admin3":"54940"},{"geonameid":5768453,"name":"Township of Riverside","admin3":"55180"},{"geonameid":5768521,"name":"Township of Rocky Ford","admin3":"55660"},{"geonameid":5768570,"name":"Township of Rosebud","admin3":"55900"},{"geonameid":5768634,"name":"Township of Running Bird","admin3":"56780"},{"geonameid":5769550,"name":"Township of Surprise Valley","admin3":"62460"},{"geonameid":5770364,"name":"City of White River","admin3":"71340"},{"geonameid":5770523,"name":"Town of Wood","admin3":"72620"}],"alternateNames":[{"alternatenameId":2089551,"geonameid":5769223,"isoLanguage":"en","alternateName":"South Dakota","isPreferredName":true,"isShortName":true,"isColloquial":false,"isHistoric":false}]},"__N_SSG":true}