{"pageProps":{"locale":"en","admin2":{"geonameid":5767864,"name":"Perkins County","country":"US","admin1":"SD","admin2":"105","admin3":"","latitude":"45.4905100","longitude":"-102.4756300"},"admin1":{"geonameid":5769223,"name":"South Dakota","admin1":"SD","localeAltName":"South Dakota"},"locations":[{"geonameid":5766453,"name":"Lemmon","admin3":"36340"}],"admin3":[{"geonameid":5762301,"name":"Township of Ada","admin3":"00220"},{"geonameid":5762433,"name":"Township of Antelope","admin3":"01660"},{"geonameid":5762600,"name":"Township of Barrett","admin3":"03740"},{"geonameid":5762842,"name":"Town of Bison","admin3":"05620"},{"geonameid":5762843,"name":"Township of Bison","admin3":"05660"},{"geonameid":5763210,"name":"Township of Burdick","admin3":"08580"},{"geonameid":5763413,"name":"Township of Cash","admin3":"10300"},{"geonameid":5763518,"name":"Township of Chance","admin3":"11340"},{"geonameid":5763539,"name":"Township of Chaudoin","admin3":"11420"},{"geonameid":5763607,"name":"Township of Clark","admin3":"12300"},{"geonameid":5764024,"name":"Township of De Witt","admin3":"16460"},{"geonameid":5764289,"name":"Unorganized Territory of Duck Creek","admin3":"17170"},{"geonameid":5764295,"name":"Township of Duell","admin3":"17260"},{"geonameid":5764457,"name":"Unorganized Territory of Northeast Perkins","admin3":"45575"},{"geonameid":5764605,"name":"Township of Englewood","admin3":"19620"},{"geonameid":5764793,"name":"Township of Flat Creek","admin3":"21700"},{"geonameid":5764888,"name":"Township of Foster","admin3":"22460"},{"geonameid":5764927,"name":"Township of Fredlund","admin3":"22940"},{"geonameid":5765093,"name":"Township of Glendo","admin3":"24580"},{"geonameid":5765177,"name":"Township of Grand River","admin3":"25220"},{"geonameid":5765306,"name":"Township of Hall","admin3":"26620"},{"geonameid":5765723,"name":"Township of Horse Creek","admin3":"30060"},{"geonameid":5766460,"name":"City of Lemmon","admin3":"36340"},{"geonameid":5766499,"name":"Township of Liberty","admin3":"37020"},{"geonameid":5766529,"name":"Township of Lincoln","admin3":"37580"},{"geonameid":5766645,"name":"Township of Lodgepole","admin3":"38100"},{"geonameid":5766673,"name":"Township of Lone Tree","admin3":"38700"},{"geonameid":5766858,"name":"Township of Maltby","admin3":"40420"},{"geonameid":5766893,"name":"Township of Marshfield","admin3":"41060"},{"geonameid":5766900,"name":"Township of Martin","admin3":"41140"},{"geonameid":5767022,"name":"Township of Meadow","admin3":"41660"},{"geonameid":5767216,"name":"Township of Moreau","admin3":"43660"},{"geonameid":5767974,"name":"Township of Plateau","admin3":"50180"},{"geonameid":5768213,"name":"Township of Rainbow","admin3":"52700"},{"geonameid":5768518,"name":"Township of Rockford","admin3":"55500"},{"geonameid":5768920,"name":"Township of Scotch Cap","admin3":"57900"},{"geonameid":5769036,"name":"Township of Sidney","admin3":"58700"},{"geonameid":5769259,"name":"Unorganized Territory of South Perkins","admin3":"59880"},{"geonameid":5769488,"name":"Township of Strool","admin3":"62060"},{"geonameid":5769820,"name":"Township of Trail","admin3":"63860"},{"geonameid":5769951,"name":"Township of Vail","admin3":"65860"},{"geonameid":5770019,"name":"Township of Viking","admin3":"67300"},{"geonameid":5770043,"name":"Township of Vrooman","admin3":"67900"},{"geonameid":5770193,"name":"Township of Wells","admin3":"69960"},{"geonameid":5770313,"name":"Township of White Butte","admin3":"71060"},{"geonameid":5770478,"name":"Township of Wilson","admin3":"72020"},{"geonameid":7179379,"name":"Township of Beck-Highland","admin3":"04225"},{"geonameid":7274909,"name":"Unorganized Territory of Pleasant Valley","admin3":"50940"}],"alternateNames":[{"alternatenameId":2089551,"geonameid":5769223,"isoLanguage":"en","alternateName":"South Dakota","isPreferredName":true,"isShortName":true,"isColloquial":false,"isHistoric":false}]},"__N_SSG":true}