{"pageProps":{"locale":"en","admin2":{"geonameid":5230872,"name":"Roberts County","country":"US","admin1":"SD","admin2":"109","admin3":"","latitude":"45.6296500","longitude":"-96.9461200"},"admin1":{"geonameid":5769223,"name":"South Dakota","admin1":"SD","localeAltName":"South Dakota"},"locations":[{"geonameid":5231863,"name":"Sisseton","admin3":"59260"}],"admin3":[{"geonameid":5225957,"name":"Township of Alto","admin3":"01220"},{"geonameid":5225972,"name":"Township of Agency","admin3":"00500"},{"geonameid":5226208,"name":"Township of Becker","admin3":"04220"},{"geonameid":5226460,"name":"Township of Bossko","admin3":"06420"},{"geonameid":5226583,"name":"Township of Bryant","admin3":"08100"},{"geonameid":5226891,"name":"Town of Claire City","admin3":"12020"},{"geonameid":5227045,"name":"Town of Corona","admin3":"13940"},{"geonameid":5227408,"name":"Township of Dry Wood Lake","admin3":"17140"},{"geonameid":5227492,"name":"Township of Easter","admin3":"17780"},{"geonameid":5227637,"name":"Township of Enterprise","admin3":"19780"},{"geonameid":5227992,"name":"Township of Garfield","admin3":"23700"},{"geonameid":5228022,"name":"Township of Geneseo","admin3":"24060"},{"geonameid":5228114,"name":"Township of Goodwill","admin3":"24780"},{"geonameid":5228187,"name":"Township of Grant","admin3":"25700"},{"geonameid":5228328,"name":"Township of Harmon","admin3":"27020"},{"geonameid":5228352,"name":"Township of Hart","admin3":"27500"},{"geonameid":5229204,"name":"Township of Lake","admin3":"34980"},{"geonameid":5229247,"name":"Township of Lawrence","admin3":"36140"},{"geonameid":5229263,"name":"Township of Lee","admin3":"36300"},{"geonameid":5229302,"name":"Township of Lien","admin3":"37100"},{"geonameid":5229400,"name":"Township of Lockwood","admin3":"37980"},{"geonameid":5229413,"name":"Township of Long Hollow","admin3":"38780"},{"geonameid":5229784,"name":"Township of Minnesota","admin3":"42820"},{"geonameid":5229977,"name":"Town of New Effington","admin3":"44820"},{"geonameid":5230106,"name":"Township of Norway","admin3":"45940"},{"geonameid":5230225,"name":"Township of One Road","admin3":"47140"},{"geonameid":5230254,"name":"Town of Ortley","admin3":"47660"},{"geonameid":5230255,"name":"Township of Ortley","admin3":"47700"},{"geonameid":5230364,"name":"Town of Peever","admin3":"48940"},{"geonameid":5230962,"name":"Town of Rosholt","admin3":"56340"},{"geonameid":5231867,"name":"City of Sisseton","admin3":"59260"},{"geonameid":5231869,"name":"Township of Sisseton","admin3":"59300"},{"geonameid":5232027,"name":"Township of Spring Grove","admin3":"60740"},{"geonameid":5232076,"name":"Township of Springdale","admin3":"60620"},{"geonameid":5232210,"name":"Town of Summit","admin3":"62220"},{"geonameid":5232212,"name":"Township of Summit","admin3":"62260"},{"geonameid":5232612,"name":"Township of Victor","admin3":"67180"},{"geonameid":5232910,"name":"Town of White Rock","admin3":"71380"},{"geonameid":5232911,"name":"Township of White Rock","admin3":"71420"},{"geonameid":5232975,"name":"City of Wilmot","admin3":"71980"}],"alternateNames":[{"alternatenameId":2089551,"geonameid":5769223,"isoLanguage":"en","alternateName":"South Dakota","isPreferredName":true,"isShortName":true,"isColloquial":false,"isHistoric":false}]},"__N_SSG":true}