{"pageProps":{"locale":"en","admin2":{"geonameid":5236279,"name":"Franklin County","country":"US","admin1":"VT","admin2":"011","admin3":"","latitude":"44.8574800","longitude":"-72.9120000"},"admin1":{"geonameid":5242283,"name":"Vermont","admin1":"VT","localeAltName":"Vermont"},"locations":[{"geonameid":5235919,"name":"Enosburg Falls","admin3":"24050"},{"geonameid":5238678,"name":"Montgomery","admin3":"45850"},{"geonameid":5240267,"name":"Richford","admin3":"59125"},{"geonameid":5240569,"name":"Saint Albans","admin3":"61675"},{"geonameid":5241770,"name":"Swanton","admin3":"71725"}],"admin3":[{"geonameid":5233386,"name":"Town of Bakersfield","admin3":"02500"},{"geonameid":5233776,"name":"Town of Berkshire","admin3":"05425"},{"geonameid":5235931,"name":"Town of Enosburgh","admin3":"24050"},{"geonameid":5236014,"name":"Town of Fairfax","admin3":"24925"},{"geonameid":5236023,"name":"Town of Fairfield","admin3":"25225"},{"geonameid":5236207,"name":"Town of Fletcher","admin3":"26500"},{"geonameid":5236286,"name":"Town of Franklin","admin3":"27100"},{"geonameid":5236379,"name":"Town of Georgia","admin3":"27700"},{"geonameid":5237024,"name":"Town of Highgate","admin3":"33025"},{"geonameid":5238684,"name":"Town of Montgomery","admin3":"45850"},{"geonameid":5240274,"name":"Town of Richford","admin3":"59125"},{"geonameid":5240595,"name":"City of Saint Albans","admin3":"61675"},{"geonameid":5240596,"name":"Town of Saint Albans","admin3":"61750"},{"geonameid":5241042,"name":"Town of Sheldon","admin3":"64600"},{"geonameid":5241780,"name":"Town of Swanton","admin3":"71725"}],"alternateNames":[{"alternatenameId":1979591,"geonameid":5242283,"isoLanguage":"en","alternateName":"Vermont","isPreferredName":true,"isShortName":true,"isColloquial":false,"isHistoric":false}]},"__N_SSG":true}