{"pageProps":{"locale":"en","admin2":{"geonameid":5687646,"name":"Adams County","country":"US","admin1":"ND","admin2":"001","admin3":"","latitude":"46.0968400","longitude":"-102.5285300"},"admin1":{"geonameid":5690763,"name":"North Dakota","admin1":"ND","localeAltName":"North Dakota"},"locations":[{"geonameid":5689618,"name":"Hettinger","admin3":"37700"}],"admin3":[{"geonameid":5687897,"name":"Township of Beisigl","admin3":"05700"},{"geonameid":5688212,"name":"City of Bucyrus","admin3":"10300"},{"geonameid":5688213,"name":"Township of Bucyrus","admin3":"10340"},{"geonameid":5688396,"name":"Township of Cedar","admin3":"13100"},{"geonameid":5688401,"name":"Unorganized Territory of Central Adams","admin3":"13270"},{"geonameid":5688416,"name":"Township of Chandler","admin3":"13500"},{"geonameid":5688488,"name":"Township of Clermont","admin3":"14620"},{"geonameid":5688692,"name":"Township of Darling Springs","admin3":"18100"},{"geonameid":5688855,"name":"Township of Duck Creek","admin3":"20700"},{"geonameid":5688886,"name":"Unorganized Territory of East Adams","admin3":"21495"},{"geonameid":5689286,"name":"Township of Gilstrap","admin3":"30340"},{"geonameid":5689546,"name":"City of Haynes","admin3":"36540"},{"geonameid":5689623,"name":"City of Hettinger","admin3":"37700"},{"geonameid":5689624,"name":"Township of Hettinger","admin3":"37740"},{"geonameid":5690184,"name":"Township of Lightning Creek","admin3":"46500"},{"geonameid":5690353,"name":"Township of Maine","admin3":"49780"},{"geonameid":5690891,"name":"Township of Orange","admin3":"59620"},{"geonameid":5691242,"name":"City of Reeder","admin3":"65900"},{"geonameid":5691243,"name":"Township of Reeder","admin3":"65940"},{"geonameid":5692009,"name":"Township of Scott","admin3":"71380"},{"geonameid":5692218,"name":"Township of South Fork","admin3":"74140"},{"geonameid":5692516,"name":"Township of Taylor Butte","admin3":"78220"},{"geonameid":5693008,"name":"Township of Wolf Butte","admin3":"87140"},{"geonameid":7274921,"name":"Unorganized Territory of West Adams","admin3":"84480"}],"alternateNames":[{"alternatenameId":2080778,"geonameid":5690763,"isoLanguage":"en","alternateName":"North Dakota","isPreferredName":true,"isShortName":true,"isColloquial":false,"isHistoric":false}]},"__N_SSG":true}