{"pageProps":{"locale":"en","admin2":{"geonameid":5688108,"name":"Bottineau County","country":"US","admin1":"ND","admin2":"009","admin3":"","latitude":"48.7921600","longitude":"-100.8333300"},"admin1":{"geonameid":5690763,"name":"North Dakota","admin1":"ND","localeAltName":"North Dakota"},"locations":[{"geonameid":5688106,"name":"Bottineau","admin3":"08460"}],"admin3":[{"geonameid":5687699,"name":"Township of Amity","admin3":"02100"},{"geonameid":5687734,"name":"City of Antler","admin3":"02660"},{"geonameid":5687919,"name":"Township of Bentinck","admin3":"06020"},{"geonameid":5688059,"name":"Township of Blaine","admin3":"07540"},{"geonameid":5688110,"name":"City of Bottineau","admin3":"08460"},{"geonameid":5688167,"name":"Township of Brander","admin3":"09060"},{"geonameid":5688378,"name":"Township of Cecil","admin3":"13060"},{"geonameid":5688434,"name":"Township of Chatfield","admin3":"13780"},{"geonameid":5688547,"name":"Township of Cordelia","admin3":"15980"},{"geonameid":5688649,"name":"Township of Cut Bank","admin3":"17540"},{"geonameid":5688664,"name":"Township of Dalen","admin3":"17780"},{"geonameid":5688951,"name":"Township of Eidsvold","admin3":"22620"},{"geonameid":5688993,"name":"Township of Elms","admin3":"23780"},{"geonameid":5688996,"name":"Township of Elysian","admin3":"23980"},{"geonameid":5689234,"name":"City of Gardena","admin3":"29180"},{"geonameid":5689493,"name":"Township of Haram","admin3":"35220"},{"geonameid":5689516,"name":"Township of Hastings","admin3":"36060"},{"geonameid":5689676,"name":"Township of Hoffman","admin3":"38380"},{"geonameid":5689690,"name":"Township of Homen","admin3":"38540"},{"geonameid":5689918,"name":"Township of Kane","admin3":"41300"},{"geonameid":5690008,"name":"City of Kramer","admin3":"43500"},{"geonameid":5690086,"name":"City of Landa","admin3":"44700"},{"geonameid":5690096,"name":"City of Lansford","admin3":"44900"},{"geonameid":5690143,"name":"Township of Lewis","admin3":"46260"},{"geonameid":5690303,"name":"Township of Lordsburg","admin3":"48060"},{"geonameid":5690413,"name":"City of Maxbass","admin3":"51420"},{"geonameid":5690603,"name":"Township of Mount Rose","admin3":"54900"},{"geonameid":5690715,"name":"Township of Newborg","admin3":"55940"},{"geonameid":5690717,"name":"City of Newburg","admin3":"56020"},{"geonameid":5690851,"name":"Township of Oak Valley","admin3":"58860"},{"geonameid":5690872,"name":"Township of Oak Creek","admin3":"58700"},{"geonameid":5690899,"name":"Township of Ostby","admin3":"60180"},{"geonameid":5690924,"name":"City of Overly","admin3":"60380"},{"geonameid":5690973,"name":"Township of Peabody","admin3":"61180"},{"geonameid":5691028,"name":"Township of Pickering","admin3":"62300"},{"geonameid":5691265,"name":"Township of Renville","admin3":"66100"},{"geonameid":5691283,"name":"Township of Richburg","admin3":"66540"},{"geonameid":5691355,"name":"Township of Roland","admin3":"67740"},{"geonameid":5691698,"name":"Township of Scandia","admin3":"71060"},{"geonameid":5692008,"name":"Township of Scotia","admin3":"71340"},{"geonameid":5692027,"name":"Township of Sergius","admin3":"71820"},{"geonameid":5692078,"name":"Township of Sherman","admin3":"72500"},{"geonameid":5692198,"name":"City of Souris","admin3":"74020"},{"geonameid":5692347,"name":"Township of Starbuck","admin3":"75500"},{"geonameid":5692393,"name":"Township of Stone Creek","admin3":"76260"},{"geonameid":5692493,"name":"Township of Tacoma","admin3":"77740"},{"geonameid":5692818,"name":"Township of Wayne","admin3":"83980"},{"geonameid":5692826,"name":"Township of Wellington","admin3":"84340"},{"geonameid":5692869,"name":"City of Westhope","admin3":"85020"},{"geonameid":5692872,"name":"Township of Wheaton","admin3":"85260"},{"geonameid":5692884,"name":"Township of Whitby","admin3":"85420"},{"geonameid":5692928,"name":"Township of Whitteron","admin3":"85860"},{"geonameid":5692954,"name":"City of Willow City","admin3":"86380"},{"geonameid":5692968,"name":"Township of Willow Vale","admin3":"86500"},{"geonameid":7165520,"name":"Township of Antler","admin3":"02700"},{"geonameid":7165578,"name":"Township of Lansford","admin3":"44940"}],"alternateNames":[{"alternatenameId":2080778,"geonameid":5690763,"isoLanguage":"en","alternateName":"North Dakota","isPreferredName":true,"isShortName":true,"isColloquial":false,"isHistoric":false}]},"__N_SSG":true}