{"pageProps":{"locale":"en","admin2":{"geonameid":5688138,"name":"Bowman County","country":"US","admin1":"ND","admin2":"011","admin3":"","latitude":"46.1126100","longitude":"-103.5206700"},"admin1":{"geonameid":5690763,"name":"North Dakota","admin1":"ND","localeAltName":"North Dakota"},"locations":[{"geonameid":5688127,"name":"Bowman","admin3":"08700"}],"admin3":[{"geonameid":5687650,"name":"Township of Adelaide","admin3":"00540"},{"geonameid":5687700,"name":"Township of Amor","admin3":"02140"},{"geonameid":5688132,"name":"City of Bowman","admin3":"08700"},{"geonameid":5688133,"name":"Township of Bowman","admin3":"08740"},{"geonameid":5688150,"name":"Township of Boyesen","admin3":"08820"},{"geonameid":5688215,"name":"Township of Buena Vista","admin3":"10380"},{"geonameid":5689102,"name":"Township of Fischbein","admin3":"26540"},{"geonameid":5689250,"name":"City of Gascoyne","admin3":"29540"},{"geonameid":5689251,"name":"Township of Gascoyne","admin3":"29580"},{"geonameid":5689262,"name":"Township of Gem","admin3":"29740"},{"geonameid":5689318,"name":"Township of Goldfield","admin3":"31300"},{"geonameid":5689356,"name":"Township of Grainbelt","admin3":"31940"},{"geonameid":5689362,"name":"Township of Grand River","admin3":"32460"},{"geonameid":5689461,"name":"Township of Haley","admin3":"34260"},{"geonameid":5689510,"name":"Unorganized Territory of Hart","admin3":"35780"},{"geonameid":5690090,"name":"Township of Langberg","admin3":"44740"},{"geonameid":5690104,"name":"Township of Ladd","admin3":"43700"},{"geonameid":5690385,"name":"Township of Marion","admin3":"50740"},{"geonameid":5690528,"name":"Township of Minnehaha","admin3":"53140"},{"geonameid":5690668,"name":"Township of Nebo","admin3":"55580"},{"geonameid":5691270,"name":"City of Rhame","admin3":"66300"},{"geonameid":5691271,"name":"Township of Rhame","admin3":"66340"},{"geonameid":5692012,"name":"City of Scranton","admin3":"71500"},{"geonameid":5692346,"name":"Township of Star","admin3":"75460"},{"geonameid":5692377,"name":"Township of Stillwater","admin3":"76140"},{"geonameid":5692459,"name":"Township of Sunny Slope","admin3":"77060"},{"geonameid":5692497,"name":"Township of Talbot","admin3":"77900"},{"geonameid":5692830,"name":"Unorganized Territory of West Bowman","admin3":"84650"},{"geonameid":5692923,"name":"Township of Whiting","admin3":"85780"},{"geonameid":7165623,"name":"Township of Scranton","admin3":"71540"}],"alternateNames":[{"alternatenameId":2080778,"geonameid":5690763,"isoLanguage":"en","alternateName":"North Dakota","isPreferredName":true,"isShortName":true,"isColloquial":false,"isHistoric":false}]},"__N_SSG":true}