{"pageProps":{"locale":"en","admin2":{"geonameid":5058559,"name":"Cass County","country":"US","admin1":"ND","admin2":"017","admin3":"","latitude":"46.9329700","longitude":"-97.2480400"},"admin1":{"geonameid":5690763,"name":"North Dakota","admin1":"ND","localeAltName":"North Dakota"},"locations":[{"geonameid":5058560,"name":"Casselton","admin3":"12700"},{"geonameid":5059163,"name":"Fargo","admin3":"25700"},{"geonameid":5059734,"name":"Horace","admin3":"38900"},{"geonameid":5062458,"name":"West Fargo","admin3":"84780"}],"admin3":[{"geonameid":5058023,"name":"Township of Addison","admin3":"00500"},{"geonameid":5058050,"name":"City of Alice","admin3":"01420"},{"geonameid":5058075,"name":"City of Amenia","admin3":"01940"},{"geonameid":5058076,"name":"Township of Amenia","admin3":"01980"},{"geonameid":5058107,"name":"City of Argusville","admin3":"03020"},{"geonameid":5058126,"name":"City of Arthur","admin3":"03300"},{"geonameid":5058127,"name":"Township of Arthur","admin3":"03340"},{"geonameid":5058161,"name":"City of Ayr","admin3":"04020"},{"geonameid":5058162,"name":"Township of Ayr","admin3":"04060"},{"geonameid":5058190,"name":"Township of Barnes","admin3":"04900"},{"geonameid":5058237,"name":"Township of Bell","admin3":"05900"},{"geonameid":5058269,"name":"Township of Berlin","admin3":"06260"},{"geonameid":5058412,"name":"City of Briarwood","admin3":"09320"},{"geonameid":5058473,"name":"City of Buffalo","admin3":"10420"},{"geonameid":5058474,"name":"Township of Buffalo","admin3":"10460"},{"geonameid":5058561,"name":"City of Casselton","admin3":"12700"},{"geonameid":5058562,"name":"Township of Casselton","admin3":"12740"},{"geonameid":5058659,"name":"Township of Clifton","admin3":"14780"},{"geonameid":5058711,"name":"Township of Cornell","admin3":"16100"},{"geonameid":5058828,"name":"City of Davenport","admin3":"18180"},{"geonameid":5058829,"name":"Township of Davenport","admin3":"18220"},{"geonameid":5058907,"name":"Township of Dows","admin3":"20220"},{"geonameid":5058948,"name":"Township of Durbin","admin3":"21100"},{"geonameid":5059036,"name":"Township of Eldred","admin3":"22860"},{"geonameid":5059101,"name":"Township of Empire","admin3":"24140"},{"geonameid":5059123,"name":"Township of Erie","admin3":"24660"},{"geonameid":5059140,"name":"Township of Everest","admin3":"25020"},{"geonameid":5059168,"name":"City of Fargo","admin3":"25700"},{"geonameid":5059292,"name":"City of Frontier","admin3":"28720"},{"geonameid":5059318,"name":"City of Gardner","admin3":"29220"},{"geonameid":5059319,"name":"Township of Gardner","admin3":"29260"},{"geonameid":5059358,"name":"Township of Gill","admin3":"30260"},{"geonameid":5059450,"name":"City of Grandin","admin3":"32300"},{"geonameid":5059501,"name":"Township of Gunkel","admin3":"33820"},{"geonameid":5059571,"name":"Township of Harmony","admin3":"35580"},{"geonameid":5059585,"name":"City of Harwood","admin3":"35940"},{"geonameid":5059586,"name":"Township of Harwood","admin3":"35980"},{"geonameid":5059652,"name":"Township of Highland","admin3":"37900"},{"geonameid":5059657,"name":"Township of Hill","admin3":"38060"},{"geonameid":5059737,"name":"City of Horace","admin3":"38900"},{"geonameid":5059756,"name":"Township of Howes","admin3":"39140"},{"geonameid":5059767,"name":"City of Hunter","admin3":"39460"},{"geonameid":5059768,"name":"Township of Hunter","admin3":"39500"},{"geonameid":5059963,"name":"City of Kindred","admin3":"42780"},{"geonameid":5059971,"name":"Township of Kinyon","admin3":"42980"},{"geonameid":5060045,"name":"Township of Lake","admin3":"43780"},{"geonameid":5060126,"name":"City of Leonard","admin3":"45980"},{"geonameid":5060127,"name":"Township of Leonard","admin3":"46020"},{"geonameid":5060300,"name":"Township of Maple River","admin3":"50540"},{"geonameid":5060306,"name":"City of Mapleton","admin3":"50580"},{"geonameid":5060307,"name":"Township of Mapleton","admin3":"50620"},{"geonameid":5060645,"name":"Township of Noble","admin3":"57020"},{"geonameid":5060669,"name":"Township of Normanna","admin3":"57620"},{"geonameid":5060703,"name":"City of North River","admin3":"58120"},{"geonameid":5060844,"name":"City of Oxbow","admin3":"60480"},{"geonameid":5060847,"name":"City of Page","admin3":"60500"},{"geonameid":5060848,"name":"Township of Page","admin3":"60540"},{"geonameid":5060996,"name":"Township of Pleasant","admin3":"63100"},{"geonameid":5061004,"name":"Township of Pontiac","admin3":"63580"},{"geonameid":5061031,"name":"City of Prairie Rose","admin3":"64320"},{"geonameid":5061079,"name":"Township of Raymond","admin3":"65620"},{"geonameid":5061088,"name":"Township of Reed","admin3":"65860"},{"geonameid":5061095,"name":"City of Reile's Acres","admin3":"66040"},{"geonameid":5061110,"name":"Township of Rich","admin3":"66460"},{"geonameid":5061140,"name":"Township of Rochester","admin3":"67260"},{"geonameid":5061421,"name":"Township of Rush River","admin3":"69020"},{"geonameid":5062023,"name":"Township of Stanley","admin3":"75340"},{"geonameid":5062205,"name":"City of Tower City","admin3":"79340"},{"geonameid":5062208,"name":"Township of Tower","admin3":"79300"},{"geonameid":5062361,"name":"Township of Walburg","admin3":"82740"},{"geonameid":5062399,"name":"Township of Warren","admin3":"83500"},{"geonameid":5062423,"name":"Township of Watson","admin3":"83940"},{"geonameid":5062461,"name":"City of West Fargo","admin3":"84780"},{"geonameid":5062493,"name":"Township of Wheatland","admin3":"85220"},{"geonameid":5062551,"name":"Township of Wiser","admin3":"86980"},{"geonameid":7165553,"name":"Township of Fargo","admin3":"25740"}],"alternateNames":[{"alternatenameId":2080778,"geonameid":5690763,"isoLanguage":"en","alternateName":"North Dakota","isPreferredName":true,"isShortName":true,"isColloquial":false,"isHistoric":false}]},"__N_SSG":true}