{"pageProps":{"locale":"en","admin2":{"geonameid":5058571,"name":"Cavalier County","country":"US","admin1":"ND","admin2":"019","admin3":"","latitude":"48.7723000","longitude":"-98.4648600"},"admin1":{"geonameid":5690763,"name":"North Dakota","admin1":"ND","localeAltName":"North Dakota"},"locations":[{"geonameid":5060071,"name":"Langdon","admin3":"44780"}],"admin3":[{"geonameid":5058068,"name":"Township of Alma","admin3":"01660"},{"geonameid":5058071,"name":"City of Alsen","admin3":"01740"},{"geonameid":5058182,"name":"Township of Banner","admin3":"04660"},{"geonameid":5058319,"name":"Township of Billings","admin3":"06940"},{"geonameid":5058439,"name":"Township of Bruce","admin3":"09900"},{"geonameid":5058501,"name":"Township of Byron","admin3":"11460"},{"geonameid":5058508,"name":"City of Calio","admin3":"11580"},{"geonameid":5058525,"name":"City of Calvin","admin3":"11700"},{"geonameid":5058849,"name":"Township of Cypress","admin3":"17580"},{"geonameid":5058925,"name":"Township of Dresden","admin3":"20460"},{"geonameid":5058959,"name":"Township of Easby","admin3":"21460"},{"geonameid":5058961,"name":"Township of East Alma","admin3":"21500"},{"geonameid":5059042,"name":"Township of Elgin","admin3":"22980"},{"geonameid":5059277,"name":"Township of Fremont","admin3":"28540"},{"geonameid":5059372,"name":"Township of Glenila","admin3":"30780"},{"geonameid":5059408,"name":"Township of Gordon","admin3":"31620"},{"geonameid":5059486,"name":"Township of Grey","admin3":"33580"},{"geonameid":5059552,"name":"City of Hannah","admin3":"35060"},{"geonameid":5059582,"name":"Township of Harvey","admin3":"35860"},{"geonameid":5059598,"name":"Township of Hay","admin3":"36420"},{"geonameid":5059620,"name":"Township of Henderson","admin3":"37220"},{"geonameid":5059732,"name":"Township of Hope","admin3":"38820"},{"geonameid":5059772,"name":"Township of Huron","admin3":"39660"},{"geonameid":5060074,"name":"City of Langdon","admin3":"44780"},{"geonameid":5060158,"name":"Township of Linden","admin3":"46940"},{"geonameid":5060198,"name":"City of Loma","admin3":"47660"},{"geonameid":5060226,"name":"Township of Loam","admin3":"47380"},{"geonameid":5060281,"name":"Township of Manilla","admin3":"50100"},{"geonameid":5060464,"name":"City of Milton","admin3":"53020"},{"geonameid":5060486,"name":"Township of Minto","admin3":"53500"},{"geonameid":5060500,"name":"Township of Montrose","admin3":"54060"},{"geonameid":5060531,"name":"Township of Moscow","admin3":"54500"},{"geonameid":5060538,"name":"Township of Mount Carmel","admin3":"54820"},{"geonameid":5060557,"name":"City of Munich","admin3":"55020"},{"geonameid":5060672,"name":"City of Nekoma","admin3":"55740"},{"geonameid":5060690,"name":"Township of North Loma","admin3":"58020"},{"geonameid":5060695,"name":"Township of North Olga","admin3":"58060"},{"geonameid":5060816,"name":"Township of Osford","admin3":"59980"},{"geonameid":5060820,"name":"City of Osnabrock","admin3":"60100"},{"geonameid":5060907,"name":"Township of Perry","admin3":"61740"},{"geonameid":5061442,"name":"City of Sarles","admin3":"70780"},{"geonameid":5061827,"name":"Township of Seivert","admin3":"71620"},{"geonameid":5061963,"name":"Township of South Dresden","admin3":"74100"},{"geonameid":5061972,"name":"Township of South Olga","admin3":"74300"},{"geonameid":5062071,"name":"Township of Storlie","admin3":"76380"},{"geonameid":5062215,"name":"Township of Trier","admin3":"79540"},{"geonameid":5062369,"name":"City of Wales","admin3":"82940"},{"geonameid":5062420,"name":"Township of Waterloo","admin3":"83820"},{"geonameid":5062463,"name":"Township of West Hope","admin3":"85060"},{"geonameid":7165577,"name":"Township of Langdon","admin3":"44820"},{"geonameid":7165595,"name":"Township of Nekoma","admin3":"55780"},{"geonameid":7165603,"name":"Township of Osnabrock","admin3":"60140"}],"alternateNames":[{"alternatenameId":2080778,"geonameid":5690763,"isoLanguage":"en","alternateName":"North Dakota","isPreferredName":true,"isShortName":true,"isColloquial":false,"isHistoric":false}]},"__N_SSG":true}