{"pageProps":{"locale":"en","admin2":{"geonameid":5688792,"name":"Divide County","country":"US","admin1":"ND","admin2":"023","admin3":"","latitude":"48.8148900","longitude":"-103.4873500"},"admin1":{"geonameid":5690763,"name":"North Dakota","admin1":"ND","localeAltName":"North Dakota"},"locations":[{"geonameid":5688604,"name":"Crosby","admin3":"16940"}],"admin3":[{"geonameid":5687667,"name":"Township of Alexandria","admin3":"01300"},{"geonameid":5687691,"name":"City of Ambrose","admin3":"01860"},{"geonameid":5687692,"name":"Township of Ambrose","admin3":"01900"},{"geonameid":5688066,"name":"Township of Blooming Prairie","admin3":"07900"},{"geonameid":5688067,"name":"Township of Blooming Valley","admin3":"07940"},{"geonameid":5688103,"name":"Township of Border","admin3":"08340"},{"geonameid":5688252,"name":"Township of Burg","admin3":"10780"},{"geonameid":5688495,"name":"Township of Clinton","admin3":"14900"},{"geonameid":5688510,"name":"Township of Coalfield","admin3":"15020"},{"geonameid":5688608,"name":"City of Crosby","admin3":"16940"},{"geonameid":5688684,"name":"Township of Daneville","admin3":"17940"},{"geonameid":5688710,"name":"Township of De Witt","admin3":"19500"},{"geonameid":5688974,"name":"Township of Elkhorn","admin3":"23140"},{"geonameid":5689085,"name":"Township of Fertile Valley","admin3":"26140"},{"geonameid":5689089,"name":"Township of Fillmore","admin3":"26340"},{"geonameid":5689179,"name":"City of Fortuna","admin3":"27820"},{"geonameid":5689198,"name":"Township of Frederick","admin3":"28340"},{"geonameid":5689204,"name":"Township of Frazier","admin3":"28220"},{"geonameid":5689238,"name":"Township of Garnet","admin3":"29420"},{"geonameid":5689343,"name":"Township of Gooseneck","admin3":"31580"},{"geonameid":5689527,"name":"Township of Hawkeye","admin3":"36300"},{"geonameid":5689544,"name":"Township of Hayland","admin3":"36500"},{"geonameid":5690177,"name":"Township of Lincoln Valley","admin3":"46740"},{"geonameid":5690274,"name":"Township of Long Creek","admin3":"47780"},{"geonameid":5690485,"name":"Township of Mentor","admin3":"52260"},{"geonameid":5690733,"name":"City of Noonan","admin3":"57220"},{"geonameid":5690948,"name":"Township of Palmer","admin3":"60700"},{"geonameid":5691080,"name":"Township of Plumer","admin3":"63340"},{"geonameid":5692110,"name":"Township of Sioux Trail","admin3":"73420"},{"geonameid":5692163,"name":"Township of Smoky Butte","admin3":"73700"},{"geonameid":5692400,"name":"Township of Stoneview","admin3":"76300"},{"geonameid":5692638,"name":"Township of Troy","admin3":"79660"},{"geonameid":5692667,"name":"Township of Twin Butte","admin3":"80260"},{"geonameid":5692718,"name":"Township of Upland","admin3":"80900"},{"geonameid":5692859,"name":"Township of Westby","admin3":"84660"},{"geonameid":5693035,"name":"Township of Writing Rock","admin3":"87660"}],"alternateNames":[{"alternatenameId":2080778,"geonameid":5690763,"isoLanguage":"en","alternateName":"North Dakota","isPreferredName":true,"isShortName":true,"isColloquial":false,"isHistoric":false}]},"__N_SSG":true}