{"pageProps":{"locale":"en","admin2":{"geonameid":5060009,"name":"LaMoure County","country":"US","admin1":"ND","admin2":"045","admin3":"","latitude":"46.4569100","longitude":"-98.5354600"},"admin1":{"geonameid":5690763,"name":"North Dakota","admin1":"ND","localeAltName":"North Dakota"},"locations":[],"admin3":[{"geonameid":5058029,"name":"Township of Adrian","admin3":"00660"},{"geonameid":5058167,"name":"Township of Badger","admin3":"04180"},{"geonameid":5058268,"name":"City of Berlin","admin3":"06300"},{"geonameid":5058340,"name":"Township of Black Loam","admin3":"07420"},{"geonameid":5058364,"name":"Township of Bluebird","admin3":"07980"},{"geonameid":5058850,"name":"Township of Dean","admin3":"18420"},{"geonameid":5058883,"name":"City of Dickey","admin3":"19580"},{"geonameid":5059004,"name":"City of Edgeley","admin3":"22140"},{"geonameid":5059364,"name":"Township of Gladstone","admin3":"30420"},{"geonameid":5059366,"name":"Township of Glen","admin3":"30540"},{"geonameid":5059374,"name":"Township of Glenmore","admin3":"30820"},{"geonameid":5059383,"name":"Township of Golden Glen","admin3":"31100"},{"geonameid":5059442,"name":"Township of Grand Rapids","admin3":"32420"},{"geonameid":5059452,"name":"Township of Grandview","admin3":"32540"},{"geonameid":5059483,"name":"Township of Greenville","admin3":"33460"},{"geonameid":5059621,"name":"Township of Henrietta","admin3":"37300"},{"geonameid":5059881,"name":"City of Jud","admin3":"41180"},{"geonameid":5059947,"name":"Township of Kennison","admin3":"42140"},{"geonameid":5059998,"name":"City of Kulm","admin3":"43580"},{"geonameid":5060012,"name":"City of LaMoure","admin3":"44540"},{"geonameid":5060170,"name":"Township of Litchville","admin3":"47180"},{"geonameid":5060312,"name":"City of Marion","admin3":"50780"},{"geonameid":5060447,"name":"Township of Mikkelson","admin3":"52860"},{"geonameid":5060655,"name":"Township of Nora","admin3":"57300"},{"geonameid":5060656,"name":"Township of Norden","admin3":"57340"},{"geonameid":5060838,"name":"Township of Ovid","admin3":"60420"},{"geonameid":5060880,"name":"Township of Pearl Lake","admin3":"61380"},{"geonameid":5061002,"name":"Township of Pomona View","admin3":"63500"},{"geonameid":5061034,"name":"Township of Prairie","admin3":"64220"},{"geonameid":5061065,"name":"Township of Raney","admin3":"65260"},{"geonameid":5061077,"name":"Township of Ray","admin3":"65540"},{"geonameid":5061176,"name":"Township of Roscoe","admin3":"68060"},{"geonameid":5061241,"name":"Township of Russell","admin3":"69220"},{"geonameid":5061249,"name":"Township of Ryan","admin3":"69420"},{"geonameid":5061437,"name":"Township of Saratoga","admin3":"70660"},{"geonameid":5061869,"name":"Township of Sheridan","admin3":"72460"},{"geonameid":5062129,"name":"Township of Swede","admin3":"77380"},{"geonameid":5062323,"name":"City of Verona","admin3":"81900"},{"geonameid":5062395,"name":"Township of Wano","admin3":"83380"},{"geonameid":5062536,"name":"Township of Willowbank","admin3":"86340"}],"alternateNames":[{"alternatenameId":2080778,"geonameid":5690763,"isoLanguage":"en","alternateName":"North Dakota","isPreferredName":true,"isShortName":true,"isColloquial":false,"isHistoric":false}]},"__N_SSG":true}