{"pageProps":{"locale":"en","admin2":{"geonameid":5690436,"name":"McHenry County","country":"US","admin1":"ND","admin2":"049","admin3":"","latitude":"48.2345800","longitude":"-100.6362800"},"admin1":{"geonameid":5690763,"name":"North Dakota","admin1":"ND","localeAltName":"North Dakota"},"locations":[{"geonameid":5692751,"name":"Velva","admin3":"81620"}],"admin3":[{"geonameid":5687703,"name":"City of Anamoose","admin3":"02220"},{"geonameid":5687814,"name":"City of Balfour","admin3":"04460"},{"geonameid":5687825,"name":"City of Bantry","admin3":"04740"},{"geonameid":5687928,"name":"City of Bergen","admin3":"06180"},{"geonameid":5687944,"name":"Township of Berwick","admin3":"06580"},{"geonameid":5688031,"name":"Township of Bjornson","admin3":"07300"},{"geonameid":5688189,"name":"Township of Brown","admin3":"09860"},{"geonameid":5688573,"name":"Township of Cottonwood Lake","admin3":"16260"},{"geonameid":5688728,"name":"Township of Deep River","admin3":"18540"},{"geonameid":5688741,"name":"City of Deering","admin3":"18620"},{"geonameid":5688750,"name":"Township of Denbigh","admin3":"19020"},{"geonameid":5688828,"name":"City of Drake","admin3":"20300"},{"geonameid":5688910,"name":"Unorganized Territory of East McHenry","admin3":"21679"},{"geonameid":5688953,"name":"Township of Egg Creek","admin3":"22580"},{"geonameid":5689076,"name":"Township of Falsen","admin3":"25620"},{"geonameid":5689284,"name":"Township of Gilmore","admin3":"30300"},{"geonameid":5689379,"name":"City of Granville","admin3":"32660"},{"geonameid":5689416,"name":"Township of Grilley","admin3":"33700"},{"geonameid":5689605,"name":"Township of Hendrickson","admin3":"37260"},{"geonameid":5689923,"name":"City of Karlsruhe","admin3":"41380"},{"geonameid":5689952,"name":"City of Kief","admin3":"42660"},{"geonameid":5690005,"name":"Township of Kottke Valley","admin3":"43460"},{"geonameid":5690049,"name":"Township of Lake George","admin3":"43820"},{"geonameid":5690050,"name":"Township of Lake Hester","admin3":"43860"},{"geonameid":5690083,"name":"Township of Land","admin3":"44660"},{"geonameid":5690117,"name":"Township of Layton","admin3":"45380"},{"geonameid":5690119,"name":"Township of Lebanon","admin3":"45500"},{"geonameid":5690210,"name":"Township of Little Deep","admin3":"47260"},{"geonameid":5690457,"name":"Township of Meadow","admin3":"51660"},{"geonameid":5690622,"name":"Township of Mouse River","admin3":"54980"},{"geonameid":5690719,"name":"Township of Newport","admin3":"56540"},{"geonameid":5690740,"name":"Township of Normal","admin3":"57500"},{"geonameid":5690792,"name":"Township of North Prairie","admin3":"58100"},{"geonameid":5690805,"name":"Unorganized Territory of Northeast McHenry","admin3":"57727"},{"geonameid":5690824,"name":"Township of Norwich","admin3":"58660"},{"geonameid":5690859,"name":"Township of Odin","admin3":"59180"},{"geonameid":5690874,"name":"Township of Olivia","admin3":"59300"},{"geonameid":5691126,"name":"Township of Pratt","admin3":"64420"},{"geonameid":5691298,"name":"Township of Riga","admin3":"66780"},{"geonameid":5691376,"name":"Township of Rose Hill","admin3":"68310"},{"geonameid":5691417,"name":"Township of Round Lake","admin3":"68660"},{"geonameid":5691643,"name":"Township of Saline","admin3":"70340"},{"geonameid":5691711,"name":"Township of Schiller","admin3":"71180"},{"geonameid":5692287,"name":"Township of Spring Grove","admin3":"75020"},{"geonameid":5692443,"name":"Township of Strege","admin3":"76700"},{"geonameid":5692613,"name":"City of Towner","admin3":"79420"},{"geonameid":5692717,"name":"City of Upham","admin3":"80860"},{"geonameid":5692753,"name":"City of Velva","admin3":"81620"},{"geonameid":5692760,"name":"Township of Villard","admin3":"82220"},{"geonameid":5692768,"name":"City of Voltaire","admin3":"82380"},{"geonameid":5692778,"name":"Township of Wagar","admin3":"82580"},{"geonameid":5692971,"name":"Township of Willow Creek","admin3":"86420"},{"geonameid":7165518,"name":"Township of Anamoose","admin3":"02260"},{"geonameid":7165523,"name":"Township of Balfour","admin3":"04500"},{"geonameid":7165525,"name":"Township of Bantry","admin3":"04780"},{"geonameid":7165544,"name":"Township of Deering","admin3":"18660"},{"geonameid":7165560,"name":"Township of Granville","admin3":"32700"},{"geonameid":7165571,"name":"Township of Karlsruhe","admin3":"41420"},{"geonameid":7165639,"name":"Township of Velva","admin3":"81660"},{"geonameid":7165641,"name":"Township of Voltaire","admin3":"82420"}],"alternateNames":[{"alternatenameId":2080778,"geonameid":5690763,"isoLanguage":"en","alternateName":"North Dakota","isPreferredName":true,"isShortName":true,"isColloquial":false,"isHistoric":false}]},"__N_SSG":true}