{"pageProps":{"locale":"en","admin2":{"geonameid":5061114,"name":"Richland County","country":"US","admin1":"ND","admin2":"077","admin3":"","latitude":"46.2646600","longitude":"-96.9482800"},"admin1":{"geonameid":5690763,"name":"North Dakota","admin1":"ND","localeAltName":"North Dakota"},"locations":[{"geonameid":5062355,"name":"Wahpeton","admin3":"82660"}],"admin3":[{"geonameid":5058006,"name":"City of Abercrombie","admin3":"00100"},{"geonameid":5058007,"name":"Township of Abercrombie","admin3":"00140"},{"geonameid":5058099,"name":"Township of Antelope","admin3":"02540"},{"geonameid":5058192,"name":"City of Barney","admin3":"04940"},{"geonameid":5058193,"name":"Township of Barney","admin3":"04980"},{"geonameid":5058197,"name":"Township of Barrie","admin3":"05060"},{"geonameid":5058236,"name":"Township of Belford","admin3":"05860"},{"geonameid":5058401,"name":"Township of Brandenburg","admin3":"09020"},{"geonameid":5058415,"name":"Township of Brightwood","admin3":"09340"},{"geonameid":5058581,"name":"Township of Center","admin3":"13220"},{"geonameid":5058627,"name":"City of Christine","admin3":"14100"},{"geonameid":5058676,"name":"City of Colfax","admin3":"15180"},{"geonameid":5058677,"name":"Township of Colfax","admin3":"15220"},{"geonameid":5058819,"name":"Township of Danton","admin3":"17980"},{"geonameid":5058866,"name":"Township of Devillo","admin3":"19380"},{"geonameid":5058878,"name":"Township of Dexter","admin3":"19540"},{"geonameid":5058935,"name":"Township of Duerr","admin3":"20740"},{"geonameid":5058954,"name":"City of Dwight","admin3":"21220"},{"geonameid":5058955,"name":"Township of Dwight","admin3":"21260"},{"geonameid":5058957,"name":"Township of Eagle","admin3":"21300"},{"geonameid":5059082,"name":"Township of Elma","admin3":"23620"},{"geonameid":5059151,"name":"City of Fairmount","admin3":"25300"},{"geonameid":5059152,"name":"Township of Fairmount","admin3":"25340"},{"geonameid":5059275,"name":"Township of Freeman","admin3":"28500"},{"geonameid":5059314,"name":"Township of Garborg","admin3":"29060"},{"geonameid":5059454,"name":"Township of Grant","admin3":"32620"},{"geonameid":5059464,"name":"City of Great Bend","admin3":"32900"},{"geonameid":5059473,"name":"Township of Greendale","admin3":"33140"},{"geonameid":5059543,"name":"City of Hankinson","admin3":"34900"},{"geonameid":5059616,"name":"Township of Helendale","admin3":"37140"},{"geonameid":5059715,"name":"Township of Homestead","admin3":"38660"},{"geonameid":5059784,"name":"Township of Ibsen","admin3":"39700"},{"geonameid":5060007,"name":"Township of LaMars","admin3":"44500"},{"geonameid":5060137,"name":"Township of Liberty Grove","admin3":"46420"},{"geonameid":5060142,"name":"City of Lidgerwood","admin3":"46460"},{"geonameid":5060289,"name":"City of Mantador","admin3":"50380"},{"geonameid":5060515,"name":"City of Mooreton","admin3":"54220"},{"geonameid":5060516,"name":"Township of Mooreton","admin3":"54260"},{"geonameid":5060520,"name":"Township of Moran","admin3":"54340"},{"geonameid":5060570,"name":"Township of Nansen","admin3":"55340"},{"geonameid":5061882,"name":"Township of Sheyenne","admin3":"72620"},{"geonameid":5062104,"name":"Township of Summit","admin3":"76940"},{"geonameid":5062335,"name":"Township of Viking","admin3":"82140"},{"geonameid":5062358,"name":"City of Wahpeton","admin3":"82660"},{"geonameid":5062363,"name":"City of Walcott","admin3":"82780"},{"geonameid":5062364,"name":"Township of Walcott","admin3":"82820"},{"geonameid":5062367,"name":"Township of Waldo","admin3":"82900"},{"geonameid":5062455,"name":"Township of West End","admin3":"84700"},{"geonameid":5062595,"name":"City of Wyndmere","admin3":"87740"},{"geonameid":5062596,"name":"Township of Wyndmere","admin3":"87780"}],"alternateNames":[{"alternatenameId":2080778,"geonameid":5690763,"isoLanguage":"en","alternateName":"North Dakota","isPreferredName":true,"isShortName":true,"isColloquial":false,"isHistoric":false}]},"__N_SSG":true}