{"pageProps":{"locale":"en","admin2":{"geonameid":5692146,"name":"Slope County","country":"US","admin1":"ND","admin2":"087","admin3":"","latitude":"46.4472200","longitude":"-103.4599000"},"admin1":{"geonameid":5690763,"name":"North Dakota","admin1":"ND","localeAltName":"North Dakota"},"locations":[],"admin3":[{"geonameid":5687697,"name":"City of Amidon","admin3":"02060"},{"geonameid":5688207,"name":"Township of Bucklin","admin3":"10220"},{"geonameid":5688350,"name":"Township of Carroll","admin3":"12420"},{"geonameid":5688370,"name":"Township of Cash","admin3":"12620"},{"geonameid":5688418,"name":"Township of Cedar Creek","admin3":"13140"},{"geonameid":5688539,"name":"Township of Connor","admin3":"15740"},{"geonameid":5688586,"name":"Township of Crawford","admin3":"16620"},{"geonameid":5688878,"name":"Unorganized Territory of Northeast Slope","admin3":"57728"},{"geonameid":5689504,"name":"Township of Harper","admin3":"35620"},{"geonameid":5689730,"name":"Township of Hughes","admin3":"39300"},{"geonameid":5689736,"name":"Township of Hume","admin3":"39420"},{"geonameid":5690389,"name":"City of Marmarth","admin3":"50860"},{"geonameid":5690527,"name":"Township of Mineral Springs","admin3":"53100"},{"geonameid":5690572,"name":"Township of Moord","admin3":"54140"},{"geonameid":5690600,"name":"Township of Mound","admin3":"54700"},{"geonameid":5690822,"name":"Unorganized Territory of Northwest Slope","admin3":"58275"},{"geonameid":5690987,"name":"Township of Peaceful Valley","admin3":"61260"},{"geonameid":5691182,"name":"Township of Rainy Butte","admin3":"65060"},{"geonameid":5691285,"name":"Township of Richland Center","admin3":"66620"},{"geonameid":5691658,"name":"Township of Sand Creek","admin3":"70420"},{"geonameid":5692056,"name":"Township of Sheets","admin3":"72100"},{"geonameid":5692854,"name":"Unorganized Territory of West Slope","admin3":"85125"},{"geonameid":5692906,"name":"Township of White Lake","admin3":"85620"},{"geonameid":5693025,"name":"Township of Woodberry","admin3":"87340"},{"geonameid":7275317,"name":"Unorganized Territory of Central Slope","admin3":"13312"}],"alternateNames":[{"alternatenameId":2080778,"geonameid":5690763,"isoLanguage":"en","alternateName":"North Dakota","isPreferredName":true,"isShortName":true,"isColloquial":false,"isHistoric":false}]},"__N_SSG":true}