{"pageProps":{"locale":"en","admin2":{"geonameid":5062211,"name":"Traill County","country":"US","admin1":"ND","admin2":"097","admin3":"","latitude":"47.4541800","longitude":"-97.1615800"},"admin1":{"geonameid":5690763,"name":"North Dakota","admin1":"ND","localeAltName":"North Dakota"},"locations":[{"geonameid":5059660,"name":"Hillsboro","admin3":"38100"},{"geonameid":5060332,"name":"Mayville","admin3":"51500"}],"admin3":[{"geonameid":5058245,"name":"Township of Belmont","admin3":"05940"},{"geonameid":5058326,"name":"Township of Bingham","admin3":"07060"},{"geonameid":5058348,"name":"Township of Blanchard","admin3":"07660"},{"geonameid":5058354,"name":"Township of Bloomfield","admin3":"07820"},{"geonameid":5058369,"name":"Township of Bohnsack","admin3":"08140"},{"geonameid":5058495,"name":"City of Buxton","admin3":"11340"},{"geonameid":5058496,"name":"Township of Buxton","admin3":"11380"},{"geonameid":5058506,"name":"Township of Caledonia","admin3":"11540"},{"geonameid":5058657,"name":"City of Clifford","admin3":"14740"},{"geonameid":5059035,"name":"Township of Eldorado","admin3":"22820"},{"geonameid":5059077,"name":"Township of Elm River","admin3":"23740"},{"geonameid":5059126,"name":"Township of Ervin","admin3":"24740"},{"geonameid":5059307,"name":"City of Galesburg","admin3":"28980"},{"geonameid":5059308,"name":"Township of Galesburg","admin3":"29020"},{"geonameid":5059324,"name":"Township of Garfield","admin3":"29300"},{"geonameid":5059478,"name":"Township of Greenfield","admin3":"33340"},{"geonameid":5059590,"name":"City of Hatton","admin3":"36100"},{"geonameid":5059628,"name":"Township of Herberg","admin3":"37460"},{"geonameid":5059664,"name":"City of Hillsboro","admin3":"38100"},{"geonameid":5059665,"name":"Township of Hillsboro","admin3":"38140"},{"geonameid":5059944,"name":"Township of Kelso","admin3":"41860"},{"geonameid":5060156,"name":"Township of Lindaas","admin3":"46860"},{"geonameid":5060341,"name":"City of Mayville","admin3":"51500"},{"geonameid":5060342,"name":"Township of Mayville","admin3":"51540"},{"geonameid":5060523,"name":"Township of Morgan","admin3":"54380"},{"geonameid":5060667,"name":"Township of Norman","admin3":"57540"},{"geonameid":5060740,"name":"Township of Norway","admin3":"58540"},{"geonameid":5061014,"name":"City of Portland","admin3":"63900"},{"geonameid":5061105,"name":"City of Reynolds","admin3":"66260"},{"geonameid":5061202,"name":"Township of Roseville","admin3":"68500"},{"geonameid":5062033,"name":"Township of Stavanger","admin3":"75700"},{"geonameid":5062336,"name":"Township of Viking","admin3":"82180"},{"geonameid":5062562,"name":"Township of Wold","admin3":"87100"}],"alternateNames":[{"alternatenameId":2080778,"geonameid":5690763,"isoLanguage":"en","alternateName":"North Dakota","isPreferredName":true,"isShortName":true,"isColloquial":false,"isHistoric":false}]},"__N_SSG":true}