{"pageProps":{"locale":"en","admin2":{"geonameid":2751435,"name":"Gemeente Lopik","country":"NL","admin1":"09","admin2":"0331","admin3":"","latitude":"51.9899100","longitude":"4.9485100"},"admin1":{"geonameid":2745909,"name":"Provincie Utrecht","admin1":"09"},"locations":[{"geonameid":2759186,"name":"Benschop","admin3":""},{"geonameid":2758038,"name":"Cabauw","admin3":""},{"geonameid":2755387,"name":"Graaf","admin3":""},{"geonameid":2753294,"name":"Jaarsveld","admin3":""},{"geonameid":2751436,"name":"Lopik","admin3":""},{"geonameid":2751433,"name":"Lopikerkapel","admin3":""},{"geonameid":2748513,"name":"Polsbroek","admin3":""},{"geonameid":2748510,"name":"Polsbroekerdam","admin3":""},{"geonameid":2745961,"name":"Uitweg","admin3":""},{"geonameid":2744379,"name":"Willige Langerak","admin3":""},{"geonameid":2743940,"name":"Zevender","admin3":""}],"admin3":[],"alternateNames":[{"alternatenameId":11907793,"geonameid":2745909,"isoLanguage":"de","alternateName":"Utrecht","isPreferredName":true,"isShortName":true,"isColloquial":false,"isHistoric":false}]},"__N_SSG":true}