{"pageProps":{"locale":"en","admin2":{"geonameid":2757782,"name":"Gemeente De Bilt","country":"NL","admin1":"09","admin2":"0310","admin3":"","latitude":"52.1413700","longitude":"5.1682800"},"admin1":{"geonameid":2745909,"name":"Provincie Utrecht","admin1":"09"},"locations":[{"geonameid":2759992,"name":"Achterwetering","admin3":""},{"geonameid":2759977,"name":"Achttienhoven","admin3":""},{"geonameid":2758927,"name":"Bilthoven","admin3":""},{"geonameid":2758850,"name":"Blauwkapel","admin3":""},{"geonameid":2757783,"name":"De Bilt","admin3":""},{"geonameid":2755302,"name":"Groenekan","admin3":""},{"geonameid":2753908,"name":"Hollandsche Rading","admin3":""},{"geonameid":2751310,"name":"Maartensdijk","admin3":""},{"geonameid":2750214,"name":"Nieuwe-Wetering","admin3":""},{"geonameid":2744806,"name":"Westbroek","admin3":""}],"admin3":[],"alternateNames":[{"alternatenameId":11907793,"geonameid":2745909,"isoLanguage":"de","alternateName":"Utrecht","isPreferredName":true,"isShortName":true,"isColloquial":false,"isHistoric":false}]},"__N_SSG":true}