{"pageProps":{"locale":"en","admin2":{"geonameid":5106841,"name":"Albany County","country":"US","admin1":"NY","admin2":"001","admin3":"","latitude":"42.6001800","longitude":"-73.9735600","localeAltName":null},"admin1":{"geonameid":5128638,"name":"New York","admin1":"NY","localeAltName":"New York"},"locations":[{"geonameid":5106834,"name":"Albany","admin3":"01000","localeAltName":null},{"geonameid":5107075,"name":"Altamont","admin3":"31104","localeAltName":null},{"geonameid":5108881,"name":"Berne","admin3":"06211","localeAltName":null},{"geonameid":5113119,"name":"Coeymans","admin3":"16694","localeAltName":null},{"geonameid":5113142,"name":"Cohoes","admin3":"16749","localeAltName":null},{"geonameid":5113348,"name":"Colonie","admin3":"17343","localeAltName":null},{"geonameid":5114831,"name":"Delmar","admin3":"06354","localeAltName":null},{"geonameid":5119290,"name":"Green Island","admin3":"30532","localeAltName":null},{"geonameid":5124045,"name":"Latham","admin3":"17343","localeAltName":null},{"geonameid":5126419,"name":"McKownville","admin3":"31104","localeAltName":null},{"geonameid":5126588,"name":"Menands","admin3":"17343","localeAltName":null},{"geonameid":5133471,"name":"Ravena","admin3":"16694","localeAltName":null},{"geonameid":5134257,"name":"Roessleville","admin3":"17343","localeAltName":null},{"geonameid":5142415,"name":"Voorheesville","admin3":"50672","localeAltName":null},{"geonameid":4833276,"name":"Watervliet","admin3":"78674","localeAltName":null},{"geonameid":5143620,"name":"West Albany","admin3":"01000","localeAltName":null},{"geonameid":5144097,"name":"Westmere","admin3":"31104","localeAltName":null}],"admin3":[{"geonameid":5106851,"name":"City of Albany","admin3":"01000","localeAltName":null},{"geonameid":5108871,"name":"Town of Berne","admin3":"06211","localeAltName":null},{"geonameid":5108954,"name":"Town of Bethlehem","admin3":"06354","localeAltName":null},{"geonameid":5113124,"name":"Town of Coeymans","admin3":"16694","localeAltName":null},{"geonameid":5113136,"name":"City of Cohoes","admin3":"16749","localeAltName":null},{"geonameid":5113352,"name":"Town of Colonie","admin3":"17343","localeAltName":null},{"geonameid":5119299,"name":"Town of Green Island","admin3":"30532","localeAltName":null},{"geonameid":5119584,"name":"Town of Guilderland","admin3":"31104","localeAltName":null},{"geonameid":5123628,"name":"Town of Knox","admin3":"40002"},{"geonameid":5128563,"name":"Town of New Scotland","admin3":"50672","localeAltName":null},{"geonameid":5133677,"name":"Town of Rensselaerville","admin3":"61181"},{"geonameid":5143409,"name":"City of Watervliet","admin3":"78674","localeAltName":null},{"geonameid":5144076,"name":"Town of Westerlo","admin3":"79851"}],"alternateNames":[{"alternatenameId":1980360,"geonameid":5128638,"isoLanguage":"de","alternateName":"New York","isPreferredName":true,"isShortName":true,"isColloquial":false,"isHistoric":false},{"alternatenameId":1980362,"geonameid":5128638,"isoLanguage":"en","alternateName":"New York","isPreferredName":true,"isShortName":true,"isColloquial":false,"isHistoric":false}]},"__N_SSG":true}