{"pageProps":{"locale":"en","admin2":{"geonameid":5110253,"name":"Bronx County","country":"US","admin1":"NY","admin2":"005","admin3":"","latitude":"40.8273200","longitude":"-73.9235700","localeAltName":null},"admin1":{"geonameid":5128638,"name":"New York","admin1":"NY","localeAltName":"New York"},"locations":[{"geonameid":5108186,"name":"Baychester","admin3":"","localeAltName":null},{"geonameid":5112735,"name":"City Island","admin3":"","localeAltName":null},{"geonameid":5116083,"name":"East Tremont","admin3":"","localeAltName":null},{"geonameid":5116119,"name":"Eastchester","admin3":"","localeAltName":null},{"geonameid":5117549,"name":"Fordham","admin3":"","localeAltName":null},{"geonameid":5121666,"name":"Hunts Point","admin3":"","localeAltName":null},{"geonameid":5123443,"name":"Kings Bridge","admin3":"","localeAltName":null},{"geonameid":5126550,"name":"Melrose","admin3":"","localeAltName":null},{"geonameid":5127536,"name":"Morris Heights","admin3":"","localeAltName":null},{"geonameid":5127542,"name":"Morris Park","admin3":"","localeAltName":null},{"geonameid":5127550,"name":"Morrisania","admin3":"","localeAltName":null},{"geonameid":5127670,"name":"Mott Haven","admin3":"","localeAltName":null},{"geonameid":5130572,"name":"Parkchester","admin3":"","localeAltName":null},{"geonameid":5132023,"name":"Port Morris","admin3":"","localeAltName":null},{"geonameid":5133917,"name":"Riverdale","admin3":"","localeAltName":null},{"geonameid":5139356,"name":"Spuyten Duyvil","admin3":"","localeAltName":null},{"geonameid":5110266,"name":"The Bronx","admin3":"","localeAltName":null},{"geonameid":5140945,"name":"Throgs Neck","admin3":"","localeAltName":null},{"geonameid":5141342,"name":"Tremont","admin3":"","localeAltName":null},{"geonameid":5141930,"name":"Unionport","admin3":"","localeAltName":null},{"geonameid":5141963,"name":"University Heights","admin3":"","localeAltName":null},{"geonameid":5142182,"name":"Van Nest","admin3":"","localeAltName":null},{"geonameid":5143056,"name":"Wakefield","admin3":"","localeAltName":null},{"geonameid":5143795,"name":"West Farms","admin3":"","localeAltName":null},{"geonameid":5145005,"name":"Woodlawn","admin3":"","localeAltName":null}],"admin3":[],"alternateNames":[{"alternatenameId":1980360,"geonameid":5128638,"isoLanguage":"de","alternateName":"New York","isPreferredName":true,"isShortName":true,"isColloquial":false,"isHistoric":false},{"alternatenameId":1980362,"geonameid":5128638,"isoLanguage":"en","alternateName":"New York","isPreferredName":true,"isShortName":true,"isColloquial":false,"isHistoric":false}]},"__N_SSG":true}