{"pageProps":{"locale":"en","admin2":{"geonameid":5110365,"name":"Broome County","country":"US","admin1":"NY","admin2":"007","admin3":"","latitude":"42.1602200","longitude":"-75.8196200","localeAltName":null},"admin1":{"geonameid":5128638,"name":"New York","admin1":"NY","localeAltName":"New York"},"locations":[{"geonameid":5109177,"name":"Binghamton","admin3":"06607","localeAltName":null},{"geonameid":5112395,"name":"Chenango Bridge","admin3":"15110","localeAltName":null},{"geonameid":5114903,"name":"Deposit","admin3":"65112","localeAltName":null},{"geonameid":5116602,"name":"Endicott","admin3":"76056","localeAltName":null},{"geonameid":5116603,"name":"Endwell","admin3":"76056","localeAltName":null},{"geonameid":5122794,"name":"Johnson City","admin3":"76056","localeAltName":null},{"geonameid":5132005,"name":"Port Dickinson","admin3":"20588","localeAltName":null},{"geonameid":5142296,"name":"Vestal","admin3":"77255","localeAltName":null},{"geonameid":5144429,"name":"Whitney Point","admin3":"75319","localeAltName":null},{"geonameid":5144781,"name":"Windsor","admin3":"82535","localeAltName":null}],"admin3":[{"geonameid":5107933,"name":"Town of Barker","admin3":"04429"},{"geonameid":5109180,"name":"City of Binghamton","admin3":"06607","localeAltName":null},{"geonameid":5109181,"name":"Town of Binghamton","admin3":"06618"},{"geonameid":5112412,"name":"Town of Chenango","admin3":"15110","localeAltName":null},{"geonameid":5113286,"name":"Town of Colesville","admin3":"17046"},{"geonameid":5113527,"name":"Town of Conklin","admin3":"17772"},{"geonameid":5115036,"name":"Town of Dickinson","admin3":"20588","localeAltName":null},{"geonameid":5117012,"name":"Town of Fenton","admin3":"25604"},{"geonameid":5123535,"name":"Town of Kirkwood","admin3":"39837"},{"geonameid":5124538,"name":"Town of Lisle","admin3":"42653"},{"geonameid":5125682,"name":"Town of Maine","admin3":"44611"},{"geonameid":5128265,"name":"Town of Nanticoke","admin3":"49396"},{"geonameid":5136290,"name":"Town of Sanford","admin3":"65112","localeAltName":null},{"geonameid":5141364,"name":"Town of Triangle","admin3":"75319","localeAltName":null},{"geonameid":5141926,"name":"Town of Union","admin3":"76056","localeAltName":null},{"geonameid":5142302,"name":"Town of Vestal","admin3":"77255","localeAltName":null},{"geonameid":5144785,"name":"Town of Windsor","admin3":"82535","localeAltName":null}],"alternateNames":[{"alternatenameId":1980360,"geonameid":5128638,"isoLanguage":"de","alternateName":"New York","isPreferredName":true,"isShortName":true,"isColloquial":false,"isHistoric":false},{"alternatenameId":1980362,"geonameid":5128638,"isoLanguage":"en","alternateName":"New York","isPreferredName":true,"isShortName":true,"isColloquial":false,"isHistoric":false}]},"__N_SSG":true}