{"pageProps":{"locale":"en","admin2":{"geonameid":5113366,"name":"Columbia County","country":"US","admin1":"NY","admin2":"021","admin3":"","latitude":"42.2500800","longitude":"-73.6318500","localeAltName":null},"admin1":{"geonameid":5128638,"name":"New York","admin1":"NY","localeAltName":"New York"},"locations":[{"geonameid":5112335,"name":"Chatham","admin3":"14014","localeAltName":null},{"geonameid":7258125,"name":"Claverack-Red Mills","admin3":"16045","localeAltName":null},{"geonameid":5113676,"name":"Copake Lake","admin3":"18102","localeAltName":null},{"geonameid":5118454,"name":"Germantown","admin3":"28772","localeAltName":null},{"geonameid":5118481,"name":"Ghent","admin3":"28871","localeAltName":null},{"geonameid":5121509,"name":"Hudson","admin3":"35969","localeAltName":null},{"geonameid":5123400,"name":"Kinderhook","admin3":"39573","localeAltName":null},{"geonameid":5125295,"name":"Lorenz Park","admin3":"30565","localeAltName":null},{"geonameid":5128833,"name":"Niverville","admin3":"39573","localeAltName":null},{"geonameid":5129540,"name":"Oakdale","admin3":"35969","localeAltName":null},{"geonameid":5131121,"name":"Philmont","admin3":"16045","localeAltName":null},{"geonameid":5139953,"name":"Stottville","admin3":"71443","localeAltName":null},{"geonameid":5142075,"name":"Valatie","admin3":"39573","localeAltName":null}],"admin3":[{"geonameid":5107165,"name":"Town of Ancram","admin3":"02099"},{"geonameid":5107538,"name":"Town of Austerlitz","admin3":"03287"},{"geonameid":5111377,"name":"Town of Canaan","admin3":"12056"},{"geonameid":5112340,"name":"Town of Chatham","admin3":"14014","localeAltName":null},{"geonameid":5112876,"name":"Town of Claverack","admin3":"16045","localeAltName":null},{"geonameid":5112924,"name":"Town of Clermont","admin3":"16177"},{"geonameid":5113678,"name":"Town of Copake","admin3":"18102","localeAltName":null},{"geonameid":5118190,"name":"Town of Gallatin","admin3":"28068"},{"geonameid":5118457,"name":"Town of Germantown","admin3":"28772","localeAltName":null},{"geonameid":5118479,"name":"Town of Ghent","admin3":"28871","localeAltName":null},{"geonameid":5119388,"name":"Town of Greenport","admin3":"30565","localeAltName":null},{"geonameid":5120822,"name":"Town of Hillsdale","admin3":"34748"},{"geonameid":5121528,"name":"City of Hudson","admin3":"35969","localeAltName":null},{"geonameid":5123403,"name":"Town of Kinderhook","admin3":"39573","localeAltName":null},{"geonameid":5124934,"name":"Town of Livingston","admin3":"42917"},{"geonameid":5128525,"name":"Town of New Lebanon","admin3":"50452"},{"geonameid":5139781,"name":"Town of Stockport","admin3":"71443","localeAltName":null},{"geonameid":5140041,"name":"Town of Stuyvesant","admin3":"71850"},{"geonameid":5140446,"name":"Town of Taghkanic","admin3":"73077"}],"alternateNames":[{"alternatenameId":1980360,"geonameid":5128638,"isoLanguage":"de","alternateName":"New York","isPreferredName":true,"isShortName":true,"isColloquial":false,"isHistoric":false},{"alternatenameId":1980362,"geonameid":5128638,"isoLanguage":"en","alternateName":"New York","isPreferredName":true,"isShortName":true,"isColloquial":false,"isHistoric":false}]},"__N_SSG":true}