{"pageProps":{"locale":"en","admin2":{"geonameid":5116680,"name":"Essex County","country":"US","admin1":"NY","admin2":"031","admin3":"","latitude":"44.1172200","longitude":"-73.7727100","localeAltName":null},"admin1":{"geonameid":5128638,"name":"New York","admin1":"NY","localeAltName":"New York"},"locations":[{"geonameid":5114246,"name":"Crown Point","admin3":"19246","localeAltName":null},{"geonameid":5116380,"name":"Elizabethtown","admin3":"23833","localeAltName":null},{"geonameid":5123173,"name":"Keeseville","admin3":"15330","localeAltName":null},{"geonameid":5123831,"name":"Lake Placid","admin3":"51935","localeAltName":null},{"geonameid":5127150,"name":"Mineville","admin3":"48428","localeAltName":null},{"geonameid":5129029,"name":"North Elba","admin3":"51935","localeAltName":null},{"geonameid":5132011,"name":"Port Henry","admin3":"48428","localeAltName":null},{"geonameid":5137353,"name":"Schroon Lake","admin3":"65629","localeAltName":null},{"geonameid":5141002,"name":"Ticonderoga","admin3":"73891","localeAltName":null},{"geonameid":5144140,"name":"Westport","admin3":"80775","localeAltName":null},{"geonameid":5144668,"name":"Willsboro","admin3":"82271","localeAltName":null},{"geonameid":5144682,"name":"Wilmington","admin3":"82315","localeAltName":null}],"admin3":[{"geonameid":5112478,"name":"Town of Chesterfield","admin3":"15330","localeAltName":null},{"geonameid":5114249,"name":"Town of Crown Point","admin3":"19246","localeAltName":null},{"geonameid":5116382,"name":"Town of Elizabethtown","admin3":"23833","localeAltName":null},{"geonameid":5116683,"name":"Town of Essex","admin3":"24768"},{"geonameid":5122571,"name":"Town of Jay","admin3":"38396"},{"geonameid":5123164,"name":"Town of Keene","admin3":"39067"},{"geonameid":5124300,"name":"Town of Lewis","admin3":"42114"},{"geonameid":5127152,"name":"Town of Minerva","admin3":"47669"},{"geonameid":5127518,"name":"Town of Moriah","admin3":"48428","localeAltName":null},{"geonameid":5128679,"name":"Town of Newcomb","admin3":"50144"},{"geonameid":5129031,"name":"Town of North Elba","admin3":"51935","localeAltName":null},{"geonameid":5129103,"name":"Town of North Hudson","admin3":"53077"},{"geonameid":5134958,"name":"Town of Saint Armand","admin3":"64529"},{"geonameid":5137357,"name":"Town of Schroon","admin3":"65629","localeAltName":null},{"geonameid":5140995,"name":"Town of Ticonderoga","admin3":"73891","localeAltName":null},{"geonameid":5144119,"name":"Town of Westport","admin3":"80775","localeAltName":null},{"geonameid":5144671,"name":"Town of Willsboro","admin3":"82271","localeAltName":null},{"geonameid":5144685,"name":"Town of Wilmington","admin3":"82315","localeAltName":null}],"alternateNames":[{"alternatenameId":1980360,"geonameid":5128638,"isoLanguage":"de","alternateName":"New York","isPreferredName":true,"isShortName":true,"isColloquial":false,"isHistoric":false},{"alternatenameId":1980362,"geonameid":5128638,"isoLanguage":"en","alternateName":"New York","isPreferredName":true,"isShortName":true,"isColloquial":false,"isHistoric":false}]},"__N_SSG":true}