{"pageProps":{"locale":"en","admin2":{"geonameid":5119847,"name":"Hamilton County","country":"US","admin1":"NY","admin2":"041","admin3":"","latitude":"43.6611200","longitude":"-74.4973600","localeAltName":null},"admin1":{"geonameid":5128638,"name":"New York","admin1":"NY","localeAltName":"New York"},"locations":[{"geonameid":5123834,"name":"Lake Pleasant","admin3":"40794","localeAltName":null},{"geonameid":5125139,"name":"Long Lake","admin3":"43412","localeAltName":null}],"admin3":[{"geonameid":5107327,"name":"Town of Arietta","admin3":"02572"},{"geonameid":5108814,"name":"Town of Benson","admin3":"05958"},{"geonameid":5121248,"name":"Town of Hope","admin3":"35496"},{"geonameid":5121882,"name":"Town of Indian Lake","admin3":"37374"},{"geonameid":5121953,"name":"Town of Inlet","admin3":"37495"},{"geonameid":5123835,"name":"Town of Lake Pleasant","admin3":"40794","localeAltName":null},{"geonameid":5125172,"name":"Town of Long Lake","admin3":"43412","localeAltName":null},{"geonameid":5127486,"name":"Town of Morehouse","admin3":"48340"},{"geonameid":5143584,"name":"Town of Wells","admin3":"79059"}],"alternateNames":[{"alternatenameId":1980360,"geonameid":5128638,"isoLanguage":"de","alternateName":"New York","isPreferredName":true,"isShortName":true,"isColloquial":false,"isHistoric":false},{"alternatenameId":1980362,"geonameid":5128638,"isoLanguage":"en","alternateName":"New York","isPreferredName":true,"isShortName":true,"isColloquial":false,"isHistoric":false}]},"__N_SSG":true}