{"pageProps":{"locale":"en","admin2":{"geonameid":5128594,"name":"New York County","country":"US","admin1":"NY","admin2":"061","admin3":"","latitude":"40.7742700","longitude":"-73.9698100","localeAltName":null},"admin1":{"geonameid":5128638,"name":"New York","admin1":"NY","localeAltName":"New York"},"locations":[{"geonameid":5112540,"name":"Chinatown","admin3":"","localeAltName":null},{"geonameid":6332428,"name":"East Harlem","admin3":"","localeAltName":null},{"geonameid":5116093,"name":"East Village","admin3":"","localeAltName":null},{"geonameid":8436473,"name":"Financial District","admin3":"","localeAltName":null},{"geonameid":7184841,"name":"Gramercy Park","admin3":"","localeAltName":null},{"geonameid":5120034,"name":"Harlem","admin3":"","localeAltName":null},{"geonameid":5120442,"name":"Hell's Kitchen","admin3":"","localeAltName":null},{"geonameid":5122280,"name":"Inwood","admin3":"","localeAltName":null},{"geonameid":5125771,"name":"Manhattan","admin3":"","localeAltName":"Manhattan"},{"geonameid":6332422,"name":"Morningside Heights","admin3":"","localeAltName":null},{"geonameid":5143307,"name":"Washington Heights","admin3":"","localeAltName":null}],"admin3":[],"alternateNames":[{"alternatenameId":7486927,"geonameid":5125771,"isoLanguage":"en","alternateName":"Manhattan","isPreferredName":true,"isShortName":true,"isColloquial":false,"isHistoric":false},{"alternatenameId":1980360,"geonameid":5128638,"isoLanguage":"de","alternateName":"New York","isPreferredName":true,"isShortName":true,"isColloquial":false,"isHistoric":false},{"alternatenameId":1980362,"geonameid":5128638,"isoLanguage":"en","alternateName":"New York","isPreferredName":true,"isShortName":true,"isColloquial":false,"isHistoric":false}]},"__N_SSG":true}