{"pageProps":{"locale":"en","admin2":{"geonameid":5129867,"name":"Onondaga County","country":"US","admin1":"NY","admin2":"067","admin3":"","latitude":"43.0058000","longitude":"-76.1946400","localeAltName":null},"admin1":{"geonameid":5128638,"name":"New York","admin1":"NY","localeAltName":"New York"},"locations":[{"geonameid":5107785,"name":"Baldwinsville","admin3":"44039","localeAltName":null},{"geonameid":5110090,"name":"Brewerton","admin3":"15704","localeAltName":null},{"geonameid":4833098,"name":"Camillus","admin3":"11913","localeAltName":null},{"geonameid":5112710,"name":"Cicero","admin3":"15704","localeAltName":null},{"geonameid":5112861,"name":"Clay","admin3":"16067","localeAltName":null},{"geonameid":5116079,"name":"East Syracuse","admin3":"20478","localeAltName":null},{"geonameid":5116342,"name":"Elbridge","admin3":"23800","localeAltName":null},{"geonameid":5116811,"name":"Fairmount","admin3":"11913","localeAltName":null},{"geonameid":5116968,"name":"Fayetteville","admin3":"45029","localeAltName":null},{"geonameid":5118185,"name":"Galeville","admin3":"64815","localeAltName":null},{"geonameid":5122893,"name":"Jordan","admin3":"23800","localeAltName":null},{"geonameid":5123524,"name":"Kirkville","admin3":"45029","localeAltName":null},{"geonameid":5123872,"name":"Lakeland","admin3":"28519","localeAltName":null},{"geonameid":5124925,"name":"Liverpool","admin3":"64815","localeAltName":null},{"geonameid":5125529,"name":"Lyncourt","admin3":"64815","localeAltName":null},{"geonameid":5125790,"name":"Manlius","admin3":"45029","localeAltName":null},{"geonameid":5125966,"name":"Marcellus","admin3":"45491","localeAltName":null},{"geonameid":5126246,"name":"Mattydale","admin3":"64815","localeAltName":null},{"geonameid":5127179,"name":"Minoa","admin3":"45029","localeAltName":null},{"geonameid":5128368,"name":"Nedrow","admin3":"54958","localeAltName":null},{"geonameid":5129242,"name":"North Syracuse","admin3":"16067","localeAltName":null},{"geonameid":5131010,"name":"Peru","admin3":"23800","localeAltName":null},{"geonameid":5137631,"name":"Seneca Knolls","admin3":"76760","localeAltName":null},{"geonameid":5138286,"name":"Skaneateles","admin3":"67521","localeAltName":null},{"geonameid":5138674,"name":"Solvay","admin3":"28519","localeAltName":null},{"geonameid":5140405,"name":"Syracuse","admin3":"73000","localeAltName":null},{"geonameid":5141549,"name":"Tully","admin3":"75638","localeAltName":null},{"geonameid":5142343,"name":"Village Green","admin3":"76760","localeAltName":null},{"geonameid":5144123,"name":"Westvale","admin3":"28519","localeAltName":null}],"admin3":[{"geonameid":5111175,"name":"Town of Camillus","admin3":"11913","localeAltName":null},{"geonameid":5112716,"name":"Town of Cicero","admin3":"15704","localeAltName":null},{"geonameid":5112867,"name":"Town of Clay","admin3":"16067","localeAltName":null},{"geonameid":5114604,"name":"Town of De Witt","admin3":"20478","localeAltName":null},{"geonameid":5116344,"name":"Town of Elbridge","admin3":"23800","localeAltName":null},{"geonameid":5116781,"name":"Town of Fabius","admin3":"24878"},{"geonameid":5118346,"name":"Town of Geddes","admin3":"28519","localeAltName":null},{"geonameid":5123707,"name":"Town of LaFayette","admin3":"40266"},{"geonameid":5125574,"name":"Town of Lysander","admin3":"44039","localeAltName":null},{"geonameid":5125793,"name":"Town of Manlius","admin3":"45029","localeAltName":null},{"geonameid":5125969,"name":"Town of Marcellus","admin3":"45491","localeAltName":null},{"geonameid":5129884,"name":"Town of Onondaga","admin3":"54958","localeAltName":null},{"geonameid":5130101,"name":"Town of Otisco","admin3":"55651"},{"geonameid":5131905,"name":"Town of Pompey","admin3":"59036"},{"geonameid":5136105,"name":"Town of Salina","admin3":"64815","localeAltName":null},{"geonameid":5138292,"name":"Town of Skaneateles","admin3":"67521","localeAltName":null},{"geonameid":5139092,"name":"Town of Spafford","admin3":"70057"},{"geonameid":5140410,"name":"City of Syracuse","admin3":"73000","localeAltName":null},{"geonameid":5141564,"name":"Town of Tully","admin3":"75638","localeAltName":null},{"geonameid":5142144,"name":"Town of Van Buren","admin3":"76760","localeAltName":null}],"alternateNames":[{"alternatenameId":1980360,"geonameid":5128638,"isoLanguage":"de","alternateName":"New York","isPreferredName":true,"isShortName":true,"isColloquial":false,"isHistoric":false},{"alternatenameId":1980362,"geonameid":5128638,"isoLanguage":"en","alternateName":"New York","isPreferredName":true,"isShortName":true,"isColloquial":false,"isHistoric":false}]},"__N_SSG":true}