{"pageProps":{"locale":"en","admin2":{"geonameid":5134189,"name":"Rockland County","country":"US","admin1":"NY","admin2":"087","admin3":"","latitude":"41.1524300","longitude":"-74.0240900","localeAltName":null},"admin1":{"geonameid":5128638,"name":"New York","admin1":"NY","localeAltName":"New York"},"locations":[{"geonameid":5106817,"name":"Airmont","admin3":"60510","localeAltName":null},{"geonameid":5107893,"name":"Bardonia","admin3":"15968","localeAltName":null},{"geonameid":5109479,"name":"Blauvelt","admin3":"55211","localeAltName":null},{"geonameid":5112493,"name":"Chestnut Ridge","admin3":"60510","localeAltName":null},{"geonameid":5113500,"name":"Congers","admin3":"15968","localeAltName":null},{"geonameid":5120238,"name":"Haverstraw","admin3":"32765","localeAltName":null},{"geonameid":5120794,"name":"Hillburn","admin3":"60510","localeAltName":null},{"geonameid":5120797,"name":"Hillcrest","admin3":"60510","localeAltName":null},{"geonameid":5123109,"name":"Kaser","admin3":"60510","localeAltName":null},{"geonameid":5127315,"name":"Monsey","admin3":"60510","localeAltName":null},{"geonameid":5127335,"name":"Montebello","admin3":"60510","localeAltName":null},{"geonameid":5127741,"name":"Mount Ivy","admin3":"32765","localeAltName":null},{"geonameid":5128266,"name":"Nanuet","admin3":"15968","localeAltName":null},{"geonameid":5128481,"name":"New City","admin3":"15968","localeAltName":null},{"geonameid":5120479,"name":"New Hempstead","admin3":"60510","localeAltName":null},{"geonameid":5128568,"name":"New Square","admin3":"60510","localeAltName":null},{"geonameid":5129433,"name":"Nyack","admin3":"55211","localeAltName":null},{"geonameid":5129923,"name":"Orangeburg","admin3":"55211","localeAltName":null},{"geonameid":5130780,"name":"Pearl River","admin3":"55211","localeAltName":null},{"geonameid":5131248,"name":"Piermont","admin3":"55211","localeAltName":null},{"geonameid":5131894,"name":"Pomona","admin3":"60510","localeAltName":null},{"geonameid":5138414,"name":"Sloatsburg","admin3":"60510","localeAltName":null},{"geonameid":5138940,"name":"South Nyack","admin3":"55211","localeAltName":null},{"geonameid":5139097,"name":"Sparkill","admin3":"55211","localeAltName":null},{"geonameid":5139301,"name":"Spring Valley","admin3":"60510","localeAltName":null},{"geonameid":5139927,"name":"Stony Point","admin3":"71674","localeAltName":null},{"geonameid":5140072,"name":"Suffern","admin3":"60510","localeAltName":null},{"geonameid":5140532,"name":"Tappan","admin3":"55211","localeAltName":null},{"geonameid":5140789,"name":"Thiells","admin3":"32765","localeAltName":null},{"geonameid":5142011,"name":"Upper Nyack","admin3":"15968","localeAltName":null},{"geonameid":5142101,"name":"Valley Cottage","admin3":"15968","localeAltName":null},{"geonameid":5142362,"name":"Viola","admin3":"60510","localeAltName":null},{"geonameid":5143610,"name":"Wesley Hills","admin3":"60510","localeAltName":null},{"geonameid":5143830,"name":"West Haverstraw","admin3":"32765","localeAltName":null},{"geonameid":5143946,"name":"West Nyack","admin3":"15968","localeAltName":null}],"admin3":[{"geonameid":5112845,"name":"Town of Clarkstown","admin3":"15968","localeAltName":null},{"geonameid":5120240,"name":"Town of Haverstraw","admin3":"32765","localeAltName":null},{"geonameid":5129926,"name":"Town of Orangetown","admin3":"55211","localeAltName":null},{"geonameid":5133374,"name":"Town of Ramapo","admin3":"60510","localeAltName":null},{"geonameid":5139931,"name":"Town of Stony Point","admin3":"71674","localeAltName":null}],"alternateNames":[{"alternatenameId":1980360,"geonameid":5128638,"isoLanguage":"de","alternateName":"New York","isPreferredName":true,"isShortName":true,"isColloquial":false,"isHistoric":false},{"alternatenameId":1980362,"geonameid":5128638,"isoLanguage":"en","alternateName":"New York","isPreferredName":true,"isShortName":true,"isColloquial":false,"isHistoric":false}]},"__N_SSG":true}