{"pageProps":{"locale":"en","admin2":{"geonameid":5136325,"name":"Saratoga County","country":"US","admin1":"NY","admin2":"091","admin3":"","latitude":"43.1073800","longitude":"-73.8639000","localeAltName":null},"admin1":{"geonameid":5128638,"name":"New York","admin1":"NY","localeAltName":"New York"},"locations":[{"geonameid":5107811,"name":"Ballston Lake","admin3":"16353","localeAltName":null},{"geonameid":5107812,"name":"Ballston Spa","admin3":"47537","localeAltName":null},{"geonameid":5112961,"name":"Clifton Park","admin3":"16353","localeAltName":null},{"geonameid":5113723,"name":"Corinth","admin3":"18223","localeAltName":null},{"geonameid":5113850,"name":"Country Knolls","admin3":"16353","localeAltName":null},{"geonameid":5116248,"name":"Edinburg","admin3":"23591","localeAltName":null},{"geonameid":5119689,"name":"Hadley","admin3":"31269","localeAltName":null},{"geonameid":5126510,"name":"Mechanicville","admin3":"46360","localeAltName":null},{"geonameid":5127098,"name":"Milton","admin3":"47537","localeAltName":null},{"geonameid":7258360,"name":"North Ballston Spa","admin3":"47537","localeAltName":null},{"geonameid":5129310,"name":"Northumberland","admin3":"53737","localeAltName":null},{"geonameid":5134479,"name":"Round Lake","admin3":"44743","localeAltName":null},{"geonameid":5136334,"name":"Saratoga Springs","admin3":"65255","localeAltName":null},{"geonameid":5137380,"name":"Schuylerville","admin3":"65244","localeAltName":null},{"geonameid":5138847,"name":"South Glens Falls","admin3":"48318","localeAltName":null},{"geonameid":5139732,"name":"Stillwater","admin3":"71333","localeAltName":null},{"geonameid":5142326,"name":"Victory Mills","admin3":"65244","localeAltName":null},{"geonameid":5143370,"name":"Waterford","admin3":"78531","localeAltName":null}],"admin3":[{"geonameid":5107815,"name":"Town of Ballston","admin3":"04220"},{"geonameid":5112300,"name":"Town of Charlton","admin3":"13926"},{"geonameid":5112963,"name":"Town of Clifton Park","admin3":"16353","localeAltName":null},{"geonameid":5113725,"name":"Town of Corinth","admin3":"18223","localeAltName":null},{"geonameid":5114575,"name":"Town of Day","admin3":"19807"},{"geonameid":5116251,"name":"Town of Edinburg","admin3":"23591","localeAltName":null},{"geonameid":5118212,"name":"Town of Galway","admin3":"28112"},{"geonameid":5119370,"name":"Town of Greenfield","admin3":"30444"},{"geonameid":5119693,"name":"Town of Hadley","admin3":"31269","localeAltName":null},{"geonameid":5119755,"name":"Town of Halfmoon","admin3":"31489"},{"geonameid":5125727,"name":"Town of Malta","admin3":"44743","localeAltName":null},{"geonameid":5126512,"name":"City of Mechanicville","admin3":"46360","localeAltName":null},{"geonameid":5127108,"name":"Town of Milton","admin3":"47537","localeAltName":null},{"geonameid":5127482,"name":"Town of Moreau","admin3":"48318","localeAltName":null},{"geonameid":5129311,"name":"Town of Northumberland","admin3":"53737","localeAltName":null},{"geonameid":5132333,"name":"Town of Providence","admin3":"59949"},{"geonameid":5136335,"name":"City of Saratoga Springs","admin3":"65255","localeAltName":null},{"geonameid":5136336,"name":"Town of Saratoga","admin3":"65244","localeAltName":null},{"geonameid":5139756,"name":"Town of Stillwater","admin3":"71333","localeAltName":null},{"geonameid":5143372,"name":"Town of Waterford","admin3":"78531","localeAltName":null},{"geonameid":5144734,"name":"Town of Wilton","admin3":"82403"}],"alternateNames":[{"alternatenameId":1980360,"geonameid":5128638,"isoLanguage":"de","alternateName":"New York","isPreferredName":true,"isShortName":true,"isColloquial":false,"isHistoric":false},{"alternatenameId":1980362,"geonameid":5128638,"isoLanguage":"en","alternateName":"New York","isPreferredName":true,"isShortName":true,"isColloquial":false,"isHistoric":false}]},"__N_SSG":true}