{"pageProps":{"locale":"en","admin2":{"geonameid":5137620,"name":"Seneca County","country":"US","admin1":"NY","admin2":"099","admin3":"","latitude":"42.7810800","longitude":"-76.8237800","localeAltName":null},"admin1":{"geonameid":5128638,"name":"New York","admin1":"NY","localeAltName":"New York"},"locations":[{"geonameid":5110133,"name":"Bridgeport","admin3":"66333","localeAltName":null},{"geonameid":5122269,"name":"Interlaken","admin3":"18663","localeAltName":null},{"geonameid":5130258,"name":"Ovid","admin3":"55827","localeAltName":null},{"geonameid":5137622,"name":"Seneca Falls","admin3":"66333","localeAltName":null},{"geonameid":5143380,"name":"Waterloo","admin3":"78564","localeAltName":null}],"admin3":[{"geonameid":5113897,"name":"Town of Covert","admin3":"18663","localeAltName":null},{"geonameid":5116967,"name":"Town of Fayette","admin3":"25505"},{"geonameid":5123074,"name":"Town of Junius","admin3":"38858"},{"geonameid":5125050,"name":"Town of Lodi","admin3":"43225"},{"geonameid":5130261,"name":"Town of Ovid","admin3":"55827","localeAltName":null},{"geonameid":5134308,"name":"Town of Romulus","admin3":"63440"},{"geonameid":5137625,"name":"Town of Seneca Falls","admin3":"66333","localeAltName":null},{"geonameid":5141774,"name":"Town of Tyre","admin3":"75902"},{"geonameid":5142230,"name":"Town of Varick","admin3":"76958"},{"geonameid":5143378,"name":"Town of Waterloo","admin3":"78564","localeAltName":null}],"alternateNames":[{"alternatenameId":1980360,"geonameid":5128638,"isoLanguage":"de","alternateName":"New York","isPreferredName":true,"isShortName":true,"isColloquial":false,"isHistoric":false},{"alternatenameId":1980362,"geonameid":5128638,"isoLanguage":"en","alternateName":"New York","isPreferredName":true,"isShortName":true,"isColloquial":false,"isHistoric":false}]},"__N_SSG":true}