{"pageProps":{"locale":"en","admin2":{"geonameid":5135484,"name":"St. Lawrence County","country":"US","admin1":"NY","admin2":"089","admin3":"","latitude":"44.5006200","longitude":"-75.1163100","localeAltName":null},"admin1":{"geonameid":5128638,"name":"New York","admin1":"NY","localeAltName":"New York"},"locations":[{"geonameid":5110029,"name":"Brasher Falls","admin3":"07938","localeAltName":null},{"geonameid":5111484,"name":"Canton","admin3":"12342","localeAltName":null},{"geonameid":5114593,"name":"De Kalb Junction","admin3":"20038","localeAltName":null},{"geonameid":5118939,"name":"Gouverneur","admin3":"29608","localeAltName":null},{"geonameid":5119719,"name":"Hailesboro","admin3":"27100","localeAltName":null},{"geonameid":5119946,"name":"Hannawa Falls","admin3":"57771","localeAltName":null},{"geonameid":5120588,"name":"Heuvelton","admin3":"55563","localeAltName":null},{"geonameid":5125646,"name":"Madrid","admin3":"44490","localeAltName":null},{"geonameid":5126194,"name":"Massena","admin3":"46030","localeAltName":null},{"geonameid":5128862,"name":"Norfolk","admin3":"51330","localeAltName":null},{"geonameid":5129364,"name":"Norwood","admin3":"59575","localeAltName":null},{"geonameid":5129626,"name":"Ogdensburg","admin3":"54485","localeAltName":null},{"geonameid":5130532,"name":"Parishville","admin3":"56374","localeAltName":null},{"geonameid":5132103,"name":"Potsdam","admin3":"59575","localeAltName":null},{"geonameid":5139473,"name":"Star Lake","admin3":"25791","localeAltName":null},{"geonameid":5143016,"name":"Waddington","admin3":"77739","localeAltName":null},{"geonameid":5144830,"name":"Winthrop","admin3":"71410","localeAltName":null}],"admin3":[{"geonameid":5110032,"name":"Town of Brasher","admin3":"07938","localeAltName":null},{"geonameid":5111486,"name":"Town of Canton","admin3":"12342","localeAltName":null},{"geonameid":5112782,"name":"Town of Clare","admin3":"15792"},{"geonameid":5112967,"name":"Town of Clifton","admin3":"16287"},{"geonameid":5113361,"name":"Town of Colton","admin3":"17409"},{"geonameid":5114594,"name":"Town of De Kalb","admin3":"20038","localeAltName":null},{"geonameid":5114599,"name":"Town of De Peyster","admin3":"20335"},{"geonameid":5116286,"name":"Town of Edwards","admin3":"23646"},{"geonameid":5117115,"name":"Town of Fine","admin3":"25791","localeAltName":null},{"geonameid":5117784,"name":"Town of Fowler","admin3":"27100","localeAltName":null},{"geonameid":5118942,"name":"Town of Gouverneur","admin3":"29608","localeAltName":null},{"geonameid":5119891,"name":"Town of Hammond","admin3":"31841"},{"geonameid":5120560,"name":"Town of Hermon","admin3":"34176"},{"geonameid":5121268,"name":"Town of Hopkinton","admin3":"35595"},{"geonameid":5124107,"name":"Town of Lawrence","admin3":"41564"},{"geonameid":5124534,"name":"Town of Lisbon","admin3":"42631"},{"geonameid":5125371,"name":"Town of Louisville","admin3":"43588"},{"geonameid":5125609,"name":"Town of Macomb","admin3":"44391"},{"geonameid":5125648,"name":"Town of Madrid","admin3":"44490","localeAltName":null},{"geonameid":5126204,"name":"Town of Massena","admin3":"46030","localeAltName":null},{"geonameid":5127560,"name":"Town of Morristown","admin3":"48582"},{"geonameid":5128863,"name":"Town of Norfolk","admin3":"51330","localeAltName":null},{"geonameid":5129630,"name":"City of Ogdensburg","admin3":"54485","localeAltName":null},{"geonameid":5130067,"name":"Town of Oswegatchie","admin3":"55563","localeAltName":null},{"geonameid":5130534,"name":"Town of Parishville","admin3":"56374","localeAltName":null},{"geonameid":5131244,"name":"Town of Piercefield","admin3":"57716"},{"geonameid":5131254,"name":"Town of Pierrepont","admin3":"57771","localeAltName":null},{"geonameid":5131598,"name":"Town of Pitcairn","admin3":"58266"},{"geonameid":5132106,"name":"Town of Potsdam","admin3":"59575","localeAltName":null},{"geonameid":5134440,"name":"Town of Rossie","admin3":"63858"},{"geonameid":5134667,"name":"Town of Russell","admin3":"64221"},{"geonameid":5139774,"name":"Town of Stockholm","admin3":"71410","localeAltName":null},{"geonameid":5143018,"name":"Town of Waddington","admin3":"77739","localeAltName":null}],"alternateNames":[{"alternatenameId":1980360,"geonameid":5128638,"isoLanguage":"de","alternateName":"New York","isPreferredName":true,"isShortName":true,"isColloquial":false,"isHistoric":false},{"alternatenameId":1980362,"geonameid":5128638,"isoLanguage":"en","alternateName":"New York","isPreferredName":true,"isShortName":true,"isColloquial":false,"isHistoric":false},{"alternatenameId":5700131,"geonameid":5134667,"isoLanguage":"en","alternateName":"Russell","isPreferredName":true,"isShortName":true,"isColloquial":false,"isHistoric":false}]},"__N_SSG":true}