{"pageProps":{"locale":"en","admin2":{"geonameid":5143455,"name":"Wayne County","country":"US","admin1":"NY","admin2":"117","admin3":"","latitude":"43.0658800","longitude":"-76.9784500","localeAltName":null},"admin1":{"geonameid":5128638,"name":"New York","admin1":"NY","localeAltName":"New York"},"locations":[{"geonameid":4833108,"name":"Clyde","admin3":"28013","localeAltName":null},{"geonameid":5125554,"name":"Lyons","admin3":"43973","localeAltName":null},{"geonameid":5125591,"name":"Macedon","admin3":"44160","localeAltName":null},{"geonameid":5126015,"name":"Marion","admin3":"45645","localeAltName":null},{"geonameid":5128639,"name":"Newark","admin3":"02440","localeAltName":null},{"geonameid":5129196,"name":"North Rose","admin3":"63605","localeAltName":null},{"geonameid":5129887,"name":"Ontario","admin3":"55013","localeAltName":null},{"geonameid":5130441,"name":"Palmyra","admin3":"56198","localeAltName":null},{"geonameid":5133101,"name":"Pultneyville","admin3":"82040","localeAltName":null},{"geonameid":5133538,"name":"Red Creek","admin3":"82689","localeAltName":null},{"geonameid":5136368,"name":"Savannah","admin3":"65343","localeAltName":null},{"geonameid":5138652,"name":"Sodus","admin3":"68220","localeAltName":null},{"geonameid":5138660,"name":"Sodus Point","admin3":"68220","localeAltName":null},{"geonameid":5144583,"name":"Williamson","admin3":"82040","localeAltName":null},{"geonameid":5144861,"name":"Wolcott","admin3":"82689","localeAltName":null}],"admin3":[{"geonameid":5107295,"name":"Town of Arcadia","admin3":"02440","localeAltName":null},{"geonameid":5110946,"name":"Town of Butler","admin3":"11473"},{"geonameid":5118182,"name":"Town of Galen","admin3":"28013","localeAltName":null},{"geonameid":5121685,"name":"Town of Huron","admin3":"37165"},{"geonameid":5125566,"name":"Town of Lyons","admin3":"43973","localeAltName":null},{"geonameid":5125594,"name":"Town of Macedon","admin3":"44160","localeAltName":null},{"geonameid":5126021,"name":"Town of Marion","admin3":"45645","localeAltName":null},{"geonameid":5129895,"name":"Town of Ontario","admin3":"55013","localeAltName":null},{"geonameid":5130443,"name":"Town of Palmyra","admin3":"56198","localeAltName":null},{"geonameid":5134390,"name":"Town of Rose","admin3":"63605","localeAltName":null},{"geonameid":5136369,"name":"Town of Savannah","admin3":"65343","localeAltName":null},{"geonameid":5138661,"name":"Town of Sodus","admin3":"68220","localeAltName":null},{"geonameid":5143178,"name":"Town of Walworth","admin3":"78102"},{"geonameid":5144584,"name":"Town of Williamson","admin3":"82040","localeAltName":null},{"geonameid":5144868,"name":"Town of Wolcott","admin3":"82689","localeAltName":null}],"alternateNames":[{"alternatenameId":1980360,"geonameid":5128638,"isoLanguage":"de","alternateName":"New York","isPreferredName":true,"isShortName":true,"isColloquial":false,"isHistoric":false},{"alternatenameId":1980362,"geonameid":5128638,"isoLanguage":"en","alternateName":"New York","isPreferredName":true,"isShortName":true,"isColloquial":false,"isHistoric":false}]},"__N_SSG":true}