{"pageProps":{"locale":"en","admin2":{"geonameid":5145163,"name":"Wyoming County","country":"US","admin1":"NY","admin2":"121","admin3":"","latitude":"42.7023800","longitude":"-78.2244400","localeAltName":null},"admin1":{"geonameid":5128638,"name":"New York","admin1":"NY","localeAltName":"New York"},"locations":[{"geonameid":5107290,"name":"Arcade","admin3":"02418","localeAltName":null},{"geonameid":5107486,"name":"Attica","admin3":"03012","localeAltName":null},{"geonameid":5109527,"name":"Bliss","admin3":"21369","localeAltName":null},{"geonameid":5111721,"name":"Castile","admin3":"12782","localeAltName":null},{"geonameid":5130979,"name":"Perry","admin3":"57254","localeAltName":null},{"geonameid":5138211,"name":"Silver Springs","admin3":"27980","localeAltName":null},{"geonameid":5140009,"name":"Strykersville","admin3":"66773","localeAltName":null},{"geonameid":5143282,"name":"Warsaw","admin3":"78344","localeAltName":null}],"admin3":[{"geonameid":5107293,"name":"Town of Arcade","admin3":"02418","localeAltName":null},{"geonameid":5107491,"name":"Town of Attica","admin3":"03012","localeAltName":null},{"geonameid":5108807,"name":"Town of Bennington","admin3":"05936"},{"geonameid":5111723,"name":"Town of Castile","admin3":"12782","localeAltName":null},{"geonameid":5113904,"name":"Town of Covington","admin3":"18696"},{"geonameid":5115672,"name":"Town of Eagle","admin3":"21369","localeAltName":null},{"geonameid":5118177,"name":"Town of Gainesville","admin3":"27980","localeAltName":null},{"geonameid":5118383,"name":"Town of Genesee Falls","admin3":"28596"},{"geonameid":5122565,"name":"Town of Java","admin3":"38341"},{"geonameid":5126844,"name":"Town of Middlebury","admin3":"46877"},{"geonameid":5129928,"name":"Town of Orangeville","admin3":"55222"},{"geonameid":5130994,"name":"Town of Perry","admin3":"57254","localeAltName":null},{"geonameid":5131283,"name":"Town of Pike","admin3":"57826"},{"geonameid":5137873,"name":"Town of Sheldon","admin3":"66773","localeAltName":null},{"geonameid":5143284,"name":"Town of Warsaw","admin3":"78344","localeAltName":null},{"geonameid":5144138,"name":"Town of Wethersfield","admin3":"81325"}],"alternateNames":[{"alternatenameId":1980360,"geonameid":5128638,"isoLanguage":"de","alternateName":"New York","isPreferredName":true,"isShortName":true,"isColloquial":false,"isHistoric":false},{"alternatenameId":1980362,"geonameid":5128638,"isoLanguage":"en","alternateName":"New York","isPreferredName":true,"isShortName":true,"isColloquial":false,"isHistoric":false}]},"__N_SSG":true}