{"pageProps":{"locale":"en","admin2":{"geonameid":4570292,"name":"Beaufort County","country":"US","admin1":"SC","admin2":"013","admin3":"","latitude":"32.3570600","longitude":"-80.6921700"},"admin1":{"geonameid":4597040,"name":"South Carolina","admin1":"SC","localeAltName":"South Carolina"},"locations":[{"geonameid":4570284,"name":"Beaufort","admin3":""},{"geonameid":4571722,"name":"Bluffton","admin3":""},{"geonameid":4572881,"name":"Burton","admin3":""},{"geonameid":4581833,"name":"Hilton Head","admin3":"","localeAltName":"Hilton Head"},{"geonameid":4581832,"name":"Hilton Head Island","admin3":""},{"geonameid":4584683,"name":"Laurel Bay","admin3":""},{"geonameid":4591896,"name":"Port Royal","admin3":""},{"geonameid":4595568,"name":"Shell Point","admin3":""}],"admin3":[],"alternateNames":[{"alternatenameId":2730143,"geonameid":4581833,"isoLanguage":"en","alternateName":"Hilton Head","isPreferredName":true,"isShortName":true,"isColloquial":false,"isHistoric":false},{"alternatenameId":2089561,"geonameid":4597040,"isoLanguage":"en","alternateName":"South Carolina","isPreferredName":true,"isShortName":true,"isColloquial":false,"isHistoric":false}]},"__N_SSG":true}