{"pageProps":{"locale":"en","admin2":{"geonameid":4340186,"name":"Saint Martin Parish","country":"US","admin1":"LA","admin2":"099","admin3":"","latitude":"30.1290700","longitude":"-91.6083000","localeAltName":null},"admin1":{"geonameid":4331987,"name":"Louisiana","admin1":"LA","localeAltName":"Louisiana"},"locations":[{"geonameid":4317801,"name":"Breaux Bridge","admin3":"","localeAltName":null},{"geonameid":4318541,"name":"Cade","admin3":"","localeAltName":null},{"geonameid":4319261,"name":"Catahoula","admin3":"","localeAltName":null},{"geonameid":4319339,"name":"Cecilia","admin3":"","localeAltName":null},{"geonameid":4327245,"name":"Henderson","admin3":"","localeAltName":null},{"geonameid":4336552,"name":"Parks","admin3":"","localeAltName":null},{"geonameid":4340196,"name":"Saint Martinville","admin3":"","localeAltName":null}],"admin3":[],"alternateNames":[{"alternatenameId":2089571,"geonameid":4331987,"isoLanguage":"en","alternateName":"Louisiana","isPreferredName":true,"isShortName":true,"isColloquial":false,"isHistoric":false}]},"__N_SSG":true}