{"pageProps":{"locale":"en","admin2":{"geonameid":2747020,"name":"Gemeente Someren","country":"NL","admin1":"06","admin2":"0847","admin3":"","latitude":"51.3823300","longitude":"5.7104900"},"admin1":{"geonameid":2749990,"name":"Provincie Noord-Brabant","admin1":"06"},"locations":[{"geonameid":2760044,"name":"Achterbroek","admin3":""},{"geonameid":2759091,"name":"Berkeindje","admin3":""},{"geonameid":2758643,"name":"Boomen","admin3":""},{"geonameid":2758255,"name":"Broekkant","admin3":""},{"geonameid":6544852,"name":"De Hoef","admin3":""},{"geonameid":2757480,"name":"De Hutten","admin3":""},{"geonameid":2756250,"name":"Eindje","admin3":""},{"geonameid":2755699,"name":"Gebergte","admin3":""},{"geonameid":2755191,"name":"Groote Hoeven","admin3":""},{"geonameid":2754569,"name":"Heieind","admin3":""},{"geonameid":2754547,"name":"Heikant","admin3":""},{"geonameid":2754336,"name":"Hersel","admin3":""},{"geonameid":2752743,"name":"Kleine Hoeven","admin3":""},{"geonameid":2751634,"name":"Lierop","admin3":""},{"geonameid":2750611,"name":"Moorsel","admin3":""},{"geonameid":2750275,"name":"Nieuwe-Parochie","admin3":""},{"geonameid":2749719,"name":"Oeijenbraak","admin3":""},{"geonameid":2749204,"name":"Otterdijk","admin3":""},{"geonameid":2747166,"name":"Slieven","admin3":""},{"geonameid":2747112,"name":"Sluis Dertien","admin3":""},{"geonameid":2747021,"name":"Someren","admin3":""},{"geonameid":2747019,"name":"Someren-Eind","admin3":""},{"geonameid":2747018,"name":"Someren-Heide","admin3":""},{"geonameid":2746696,"name":"Stipdonk","admin3":""},{"geonameid":2745899,"name":"Vaarsche Hoef","admin3":""},{"geonameid":2745898,"name":"Vaarsel","admin3":""},{"geonameid":2745452,"name":"Vlas","admin3":""},{"geonameid":2745433,"name":"Vlerken","admin3":""},{"geonameid":2744347,"name":"Winkelstraat","admin3":""},{"geonameid":6544833,"name":"Zomerven","admin3":""}],"admin3":[],"alternateNames":[{"alternatenameId":11907788,"geonameid":2749990,"isoLanguage":"de","alternateName":"Nordbrabant","isPreferredName":true,"isShortName":true,"isColloquial":false,"isHistoric":false}]},"__N_SSG":true}