{"pageProps":{"locale":"en","admin2":{"geonameid":2751271,"name":"Gemeente Drimmelen","country":"NL","admin1":"06","admin2":"1719","admin3":"","latitude":"51.6666700","longitude":"4.7833300"},"admin1":{"geonameid":2749990,"name":"Provincie Noord-Brabant","admin1":"06"},"locations":[{"geonameid":2758903,"name":"Binnen-Moerdijk","admin3":""},{"geonameid":2758855,"name":"Blauwe Sluis","admin3":""},{"geonameid":2756569,"name":"Drimmelen","admin3":""},{"geonameid":2755777,"name":"Gaete","admin3":""},{"geonameid":2754469,"name":"Helkant","admin3":""},{"geonameid":2754170,"name":"Het Zand","admin3":""},{"geonameid":2753700,"name":"Hooge Zwaluwe","admin3":""},{"geonameid":2752009,"name":"Lage Zwaluwe","admin3":""},{"geonameid":2751272,"name":"Made","admin3":""},{"geonameid":2749163,"name":"Oud-Drimmelen","admin3":""},{"geonameid":2746806,"name":"Steelhoven","admin3":""},{"geonameid":2746569,"name":"Stuivezand","admin3":""},{"geonameid":2746456,"name":"Terheijden","admin3":""},{"geonameid":2745091,"name":"Wagenberg","admin3":""}],"admin3":[],"alternateNames":[{"alternatenameId":11907788,"geonameid":2749990,"isoLanguage":"de","alternateName":"Nordbrabant","isPreferredName":true,"isShortName":true,"isColloquial":false,"isHistoric":false}]},"__N_SSG":true}