{"pageProps":{"locale":"en","admin2":{"geonameid":2759039,"name":"Gemeente Best","country":"NL","admin1":"06","admin2":"0753","admin3":"","latitude":"51.5000000","longitude":"5.3833300"},"admin1":{"geonameid":2749990,"name":"Provincie Noord-Brabant","admin1":"06"},"locations":[{"geonameid":2760090,"name":"Aarle","admin3":""},{"geonameid":2759386,"name":"Batadorp","admin3":""},{"geonameid":2759040,"name":"Best","admin3":""},{"geonameid":2756605,"name":"Driehoek","admin3":""},{"geonameid":2750589,"name":"Mosselaar","admin3":""},{"geonameid":2750515,"name":"Naastenbest","admin3":""},{"geonameid":6640199,"name":"Salderes","admin3":""},{"geonameid":6640198,"name":"Speelheide","admin3":""},{"geonameid":2746768,"name":"Steenweg","admin3":""},{"geonameid":2745596,"name":"Verrenbest","admin3":""},{"geonameid":2745432,"name":"Vleut","admin3":""},{"geonameid":2744424,"name":"Wilhelminadorp","admin3":""}],"admin3":[],"alternateNames":[{"alternatenameId":11907788,"geonameid":2749990,"isoLanguage":"de","alternateName":"Nordbrabant","isPreferredName":true,"isShortName":true,"isColloquial":false,"isHistoric":false}]},"__N_SSG":true}