{"pageProps":{"locale":"en","admin2":{"geonameid":2759144,"name":"Gemeente Bergen op Zoom","country":"NL","admin1":"06","admin2":"0748","admin3":"","latitude":"51.5045100","longitude":"4.2910800"},"admin1":{"geonameid":2749990,"name":"Provincie Noord-Brabant","admin1":"06"},"locations":[{"geonameid":2759145,"name":"Bergen op Zoom","admin3":""},{"geonameid":2754922,"name":"Halsteren","admin3":""},{"geonameid":6544861,"name":"Heihoefke","admin3":""},{"geonameid":2754509,"name":"Heimolen","admin3":""},{"geonameid":2753275,"name":"JanKenberg","admin3":""},{"geonameid":2752840,"name":"Kijkuit","admin3":""},{"geonameid":2752812,"name":"Kladde","admin3":""},{"geonameid":2752595,"name":"Klutsdorp","admin3":""},{"geonameid":2751709,"name":"Lepelstraat","admin3":""},{"geonameid":2750364,"name":"Nieuw-Borgvliet","admin3":""},{"geonameid":2750293,"name":"Nieuwe Molen","admin3":""},{"geonameid":2749892,"name":"Noordgeest","admin3":""},{"geonameid":2749059,"name":"Oude Molen","admin3":""},{"geonameid":2747155,"name":"Slikkenburg","admin3":""},{"geonameid":2746919,"name":"Spinolaberg","admin3":""},{"geonameid":6544840,"name":"Vetterik","admin3":""},{"geonameid":2745362,"name":"Vogelenzang","admin3":""},{"geonameid":2744969,"name":"Waterkant","admin3":""},{"geonameid":2743713,"name":"Zuidgeest","admin3":""}],"admin3":[],"alternateNames":[{"alternatenameId":11907788,"geonameid":2749990,"isoLanguage":"de","alternateName":"Nordbrabant","isPreferredName":true,"isShortName":true,"isColloquial":false,"isHistoric":false}]},"__N_SSG":true}