{"pageProps":{"locale":"en","admin2":{"geonameid":2747350,"name":"Gemeente 's-Hertogenbosch","country":"NL","admin1":"06","admin2":"0796","admin3":"","latitude":"51.6826700","longitude":"5.3005600"},"admin1":{"geonameid":2749990,"name":"Provincie Noord-Brabant","admin1":"06"},"locations":[{"geonameid":2747351,"name":"'s-Hertogenbosch","admin3":""},{"geonameid":2758708,"name":"Bokhoven","admin3":""},{"geonameid":2758200,"name":"Bruggen","admin3":""},{"geonameid":2757386,"name":"De Kruiskamp","admin3":""},{"geonameid":2757155,"name":"De Pettelaar","admin3":""},{"geonameid":2757089,"name":"De Rompert","admin3":""},{"geonameid":2756999,"name":"Deuteren","admin3":""},{"geonameid":2756860,"name":"Dieskant","admin3":""},{"geonameid":2756472,"name":"Duyn en Dael","admin3":""},{"geonameid":2756116,"name":"Empel","admin3":""},{"geonameid":2756096,"name":"Engelen","admin3":""},{"geonameid":2755549,"name":"Gewande","admin3":""},{"geonameid":2754633,"name":"Heeseind","admin3":""},{"geonameid":2754504,"name":"Heinis","admin3":""},{"geonameid":2754321,"name":"Herven","admin3":""},{"geonameid":2754193,"name":"Het Ven","admin3":""},{"geonameid":2754051,"name":"Hintham","admin3":""},{"geonameid":2753157,"name":"Kaathoven","admin3":""},{"geonameid":2752622,"name":"Kloosterhoek","admin3":""},{"geonameid":2752184,"name":"Kruisstraat","admin3":""},{"geonameid":2752039,"name":"Lagekant","admin3":""},{"geonameid":2751237,"name":"Maliskamp","admin3":""},{"geonameid":2751026,"name":"Meerwijk","admin3":""},{"geonameid":2750694,"name":"Molenhoek","admin3":""},{"geonameid":2749772,"name":"Nuland","admin3":""},{"geonameid":2749248,"name":"Orthen","admin3":""},{"geonameid":6544856,"name":"Oud-Empel","admin3":""},{"geonameid":2747910,"name":"Rosmalen","admin3":""},{"geonameid":2747473,"name":"Schotsheuvel","admin3":""},{"geonameid":2746891,"name":"Sprokkelbosch","admin3":""},{"geonameid":2745806,"name":"Varkenshoek","admin3":""},{"geonameid":2745503,"name":"Vinkel","admin3":""}],"admin3":[],"alternateNames":[{"alternatenameId":11907788,"geonameid":2749990,"isoLanguage":"de","alternateName":"Nordbrabant","isPreferredName":true,"isShortName":true,"isColloquial":false,"isHistoric":false}]},"__N_SSG":true}