{"pageProps":{"locale":"en","admin2":{"geonameid":11669500,"name":"Meierijstad","country":"NL","admin1":"06","admin2":"1948","admin3":"","latitude":"51.5996800","longitude":"5.5027800"},"admin1":{"geonameid":2749990,"name":"Provincie Noord-Brabant","admin1":"06"},"locations":[{"geonameid":2760007,"name":"Achterste Hermalen","admin3":""},{"geonameid":2759024,"name":"Beukelaar","admin3":""},{"geonameid":2758742,"name":"Boerdonk","admin3":""},{"geonameid":2758713,"name":"Bogaard","admin3":""},{"geonameid":2758683,"name":"Bolst","admin3":""},{"geonameid":2758599,"name":"Borne","admin3":""},{"geonameid":2758566,"name":"Boschweg","admin3":""},{"geonameid":2758575,"name":"Boskant","admin3":""},{"geonameid":2758204,"name":"Brug","admin3":""},{"geonameid":2758072,"name":"Bus","admin3":""},{"geonameid":2757715,"name":"De Bus","admin3":""},{"geonameid":2757716,"name":"De Bus","admin3":""},{"geonameid":2757373,"name":"De Laren","admin3":""},{"geonameid":6544814,"name":"Dijk","admin3":""},{"geonameid":2756682,"name":"Doornhoek","admin3":""},{"geonameid":2756660,"name":"Dorshout","admin3":""},{"geonameid":2756595,"name":"Driehuizen","admin3":""},{"geonameid":2756529,"name":"Duin","admin3":""},{"geonameid":2756349,"name":"Eerde","admin3":""},{"geonameid":2756343,"name":"Eerschot","admin3":""},{"geonameid":2756230,"name":"Elde","admin3":""},{"geonameid":2756035,"name":"Erp","admin3":""},{"geonameid":2755964,"name":"Everse","admin3":""},{"geonameid":2754914,"name":"Ham","admin3":""},{"geonameid":2754753,"name":"Havelt","admin3":""},{"geonameid":2754347,"name":"Hermalen","admin3":""},{"geonameid":2754129,"name":"Heuvel","admin3":""},{"geonameid":2754127,"name":"Heuvelberg","admin3":""},{"geonameid":2754028,"name":"Hoek","admin3":""},{"geonameid":2753976,"name":"Hoeves","admin3":""},{"geonameid":2753772,"name":"Hoogebiezen","admin3":""},{"geonameid":2753553,"name":"Houterd","admin3":""},{"geonameid":2753405,"name":"Hurkske","admin3":""},{"geonameid":6544820,"name":"Kapeleind","admin3":""},{"geonameid":2752969,"name":"Keldonk","admin3":""},{"geonameid":2752963,"name":"Kempkens","admin3":""},{"geonameid":2752877,"name":"Keur","admin3":""},{"geonameid":2752549,"name":"Koevering","admin3":""},{"geonameid":2752341,"name":"Kraanmeer","admin3":""},{"geonameid":6544832,"name":"Kremselen","admin3":""},{"geonameid":2752056,"name":"Lagebiezen","admin3":""},{"geonameid":2751795,"name":"Leest","admin3":""},{"geonameid":2751628,"name":"Lieseind","admin3":""},{"geonameid":2751469,"name":"Looieind","admin3":""},{"geonameid":2751193,"name":"Mariaheide","admin3":""},{"geonameid":6544844,"name":"Meijldoorn","admin3":""},{"geonameid":2750602,"name":"Morsche Hoef","admin3":""},{"geonameid":2750596,"name":"Mosbulten","admin3":""},{"geonameid":2750291,"name":"Nieuwe Molenheide","admin3":""},{"geonameid":2750048,"name":"Nijnsel","admin3":""},{"geonameid":2749701,"name":"Oetelaar","admin3":""},{"geonameid":2749627,"name":"Olland","admin3":""},{"geonameid":2748894,"name":"Oudveld","admin3":""},{"geonameid":2748544,"name":"Plein","admin3":""},{"geonameid":6544854,"name":"Rijkerbeek","admin3":""},{"geonameid":2747584,"name":"Schijndel","admin3":""},{"geonameid":2746141,"name":"Schoor","admin3":""},{"geonameid":2747227,"name":"Sint-Oedenrode","admin3":""},{"geonameid":2745726,"name":"Veghel","admin3":""},{"geonameid":2745655,"name":"Ven","admin3":""},{"geonameid":2745627,"name":"Venushoek","admin3":""},{"geonameid":2745598,"name":"Vernhout","admin3":""},{"geonameid":2745228,"name":"Vossenberg","admin3":""},{"geonameid":2745192,"name":"Vressel","admin3":""},{"geonameid":2744874,"name":"Weiven","admin3":""},{"geonameid":2744516,"name":"Wijbosch","admin3":""},{"geonameid":2744408,"name":"Willibrordushoek","admin3":""},{"geonameid":2743877,"name":"Zijtaart","admin3":""},{"geonameid":2743843,"name":"Zondveld","admin3":""},{"geonameid":2743489,"name":"Zwijnsbergen","admin3":""}],"admin3":[],"alternateNames":[{"alternatenameId":11907788,"geonameid":2749990,"isoLanguage":"de","alternateName":"Nordbrabant","isPreferredName":true,"isShortName":true,"isColloquial":false,"isHistoric":false}]},"__N_SSG":true}