{"pageProps":{"locale":"ro","admin1":{"geonameid":677104,"name":"Giurgiu","country":"RO","admin1":"42","latitude":"44.1666700","longitude":"25.9166700","localeAltName":null},"admin2":[{"geonameid":686653,"name":"Comuna Adunaţii-Copăceni","admin2":"100781","localeAltName":null},{"geonameid":685472,"name":"Comuna Băneasa","admin2":"101001","localeAltName":null},{"geonameid":684268,"name":"Comuna Bolintin Deal","admin2":"101163","localeAltName":null},{"geonameid":683527,"name":"Comuna Bucşani","admin2":"101378","localeAltName":null},{"geonameid":683327,"name":"Comuna Bulbucata","admin2":"101519","localeAltName":null},{"geonameid":683131,"name":"Comuna Buturugeni","admin2":"101617","localeAltName":null},{"geonameid":682898,"name":"Comuna Călugăreni","admin2":"101662","localeAltName":null},{"geonameid":681337,"name":"Comuna Clejani","admin2":"101984","localeAltName":null},{"geonameid":681105,"name":"Comuna Colibaşi","admin2":"102071","localeAltName":null},{"geonameid":681033,"name":"Comuna Comana","admin2":"102106","localeAltName":null},{"geonameid":680606,"name":"Comuna Cosoba","admin2":"179748","localeAltName":null},{"geonameid":680255,"name":"Comuna Crevedia Mare","admin2":"102348","localeAltName":null},{"geonameid":679815,"name":"Comuna Daia","admin2":"102446","localeAltName":null},{"geonameid":678038,"name":"Comună Floreşti-Stoeneşti","admin2":"102794","localeAltName":null},{"geonameid":677916,"name":"Comuna Frăteşti","admin2":"102909","localeAltName":null},{"geonameid":8334841,"name":"Comuna Gãiseni","admin2":"103087","localeAltName":null},{"geonameid":677575,"name":"Comuna Găujani","admin2":"103194","localeAltName":null},{"geonameid":677369,"name":"Comuna Ghimpaţi","admin2":"103238","localeAltName":null},{"geonameid":676980,"name":"Comuna Gogoşari","admin2":"103309","localeAltName":null},{"geonameid":676861,"name":"Comuna Goştinari","admin2":"103372","localeAltName":null},{"geonameid":676857,"name":"Comuna Gostinu","admin2":"103354","localeAltName":null},{"geonameid":676826,"name":"Comuna Grădinari","admin2":"103407","localeAltName":null},{"geonameid":676772,"name":"Comuna Greaca","admin2":"103470","localeAltName":null},{"geonameid":676242,"name":"Comuna Herăşti","admin2":"179757","localeAltName":null},{"geonameid":675966,"name":"Comuna Hotarele","admin2":"103639","localeAltName":null},{"geonameid":678554,"name":"Comuna Iepureşti","admin2":"103693","localeAltName":null},{"geonameid":675372,"name":"Comuna Isvoarele","admin2":"179766","localeAltName":null},{"geonameid":675373,"name":"Comuna Izvoarele","admin2":"103899","localeAltName":null},{"geonameid":675191,"name":"Comuna Joiţa","admin2":"103997","localeAltName":null},{"geonameid":674831,"name":"Comuna Letca Nouă","admin2":"104047","localeAltName":null},{"geonameid":673991,"name":"Comuna Malu","admin2":"179739","localeAltName":null},{"geonameid":673091,"name":"Comuna Mârşa","admin2":"104225","localeAltName":null},{"geonameid":673400,"name":"Comuna Mihai Bravu","admin2":"104118","localeAltName":null},{"geonameid":671932,"name":"Comuna Ogrezeni","admin2":"104485","localeAltName":null},{"geonameid":671901,"name":"Comuna Oinacu","admin2":"104519","localeAltName":null},{"geonameid":669541,"name":"Comuna Prundu","admin2":"104680","localeAltName":null},{"geonameid":669441,"name":"Comuna Putineiu","admin2":"104715","localeAltName":null},{"geonameid":669125,"name":"Comuna Răsuceni","admin2":"104788","localeAltName":null},{"geonameid":8334869,"name":"Comuna Roata De Jos","admin2":"104831","localeAltName":null},{"geonameid":668361,"name":"Comuna Săbăreni","admin2":"179775","localeAltName":null},{"geonameid":8334639,"name":"Comuna Schitu","admin2":"104975","localeAltName":null},{"geonameid":667019,"name":"Comuna Singureni","admin2":"105106","localeAltName":null},{"geonameid":666685,"name":"Comuna Slobozia","admin2":"100549","localeAltName":null},{"geonameid":666295,"name":"Comuna Stăneşti","admin2":"105295","localeAltName":null},{"geonameid":666065,"name":"Comuna Stoeneşti","admin2":"105348","localeAltName":null},{"geonameid":664723,"name":"Comuna Toporu","admin2":"154709","localeAltName":null},{"geonameid":8334678,"name":"Comuna Ulmi","admin2":"105623","localeAltName":null},{"geonameid":663776,"name":"Comuna Valea Dragului","admin2":"105776","localeAltName":null},{"geonameid":662823,"name":"Comuna Vânătorii Mici","admin2":"105972","localeAltName":null},{"geonameid":663195,"name":"Comuna Vărăşti","admin2":"105874","localeAltName":null},{"geonameid":663084,"name":"Comuna Vedea","admin2":"105909","localeAltName":null},{"geonameid":8334712,"name":"Municipiul Giurgiu","admin2":"100521","localeAltName":null},{"geonameid":684265,"name":"Oraş Bolintin-Vale","admin2":"101190","localeAltName":null},{"geonameid":673385,"name":"Oraş Mihãileşti","admin2":"104136","localeAltName":null}],"admin3":[],"country":{"geonameid":798549,"country":"RO","name":"România","localeAltName":"România"},"alternateNames":[{"alternatenameId":490801,"geonameid":798549,"isoLanguage":"ro","alternateName":"România","isPreferredName":true,"isShortName":true,"isColloquial":false,"isHistoric":false}]},"__N_SSG":true}