{"pageProps":{"locale":"en","admin2":{"geonameid":4831207,"name":"Baldwin County","country":"US","admin1":"AL","admin2":"003","admin3":"","latitude":"30.6609700","longitude":"-87.7498400"},"admin1":{"geonameid":4829764,"name":"Alabama","admin1":"AL","localeAltName":"Alabama"},"locations":[{"geonameid":4046255,"name":"Bay Minette","admin3":""},{"geonameid":4058219,"name":"Daphne","admin3":""},{"geonameid":4060381,"name":"Elberta","admin3":""},{"geonameid":4061234,"name":"Fairhope","admin3":""},{"geonameid":4062644,"name":"Foley","admin3":""},{"geonameid":4065552,"name":"Gulf Shores","admin3":""},{"geonameid":4073897,"name":"Loxley","admin3":""},{"geonameid":4081696,"name":"Orange Beach","admin3":""},{"geonameid":4084324,"name":"Point Clear","admin3":""},{"geonameid":4086363,"name":"Robertsdale","admin3":""},{"geonameid":4091136,"name":"Spanish Fort","admin3":""},{"geonameid":4092347,"name":"Summerdale","admin3":""}],"admin3":[],"alternateNames":[{"alternatenameId":1632834,"geonameid":4829764,"isoLanguage":"en","alternateName":"Alabama","isPreferredName":true,"isShortName":true,"isColloquial":false,"isHistoric":false}]},"__N_SSG":true}