{"pageProps":{"locale":"en","admin2":{"geonameid":4060563,"name":"Elmore County","country":"US","admin1":"AL","admin2":"051","admin3":"","latitude":"32.5966500","longitude":"-86.1491500"},"admin1":{"geonameid":4829764,"name":"Alabama","admin1":"AL","localeAltName":"Alabama"},"locations":[{"geonameid":4050879,"name":"Blue Ridge","admin3":""},{"geonameid":4056837,"name":"Coosada","admin3":""},{"geonameid":4058543,"name":"Deatsville","admin3":""},{"geonameid":4060176,"name":"Eclectic","admin3":""},{"geonameid":4828090,"name":"Elmore","admin3":""},{"geonameid":7315157,"name":"Emerald Mountain","admin3":""},{"geonameid":4067862,"name":"Holtville","admin3":""},{"geonameid":4076239,"name":"Millbrook","admin3":""},{"geonameid":4092853,"name":"Tallassee","admin3":""},{"geonameid":4097257,"name":"Wetumpka","admin3":""}],"admin3":[],"alternateNames":[{"alternatenameId":1632834,"geonameid":4829764,"isoLanguage":"en","alternateName":"Alabama","isPreferredName":true,"isShortName":true,"isColloquial":false,"isHistoric":false}]},"__N_SSG":true}