{"pageProps":{"locale":"en","admin2":{"geonameid":4087481,"name":"Saint Clair County","country":"US","admin1":"AL","admin2":"115","admin3":"","latitude":"33.7157000","longitude":"-86.3146900"},"admin1":{"geonameid":4829764,"name":"Alabama","admin1":"AL","localeAltName":"Alabama"},"locations":[{"geonameid":4830707,"name":"Ashville","admin3":""},{"geonameid":4074599,"name":"Margaret","admin3":""},{"geonameid":4076842,"name":"Moody","admin3":""},{"geonameid":4081166,"name":"Odenville","admin3":""},{"geonameid":4082589,"name":"Pell City","admin3":""},{"geonameid":4085311,"name":"Ragland","admin3":""},{"geonameid":4086224,"name":"Riverside","admin3":""},{"geonameid":4091542,"name":"Springville","admin3":""},{"geonameid":4091755,"name":"Steele","admin3":""}],"admin3":[{"geonameid":11788468,"name":"City of Pell City","admin3":"11788468"}],"alternateNames":[{"alternatenameId":1632834,"geonameid":4829764,"isoLanguage":"en","alternateName":"Alabama","isPreferredName":true,"isShortName":true,"isColloquial":false,"isHistoric":false}]},"__N_SSG":true}