{"pageProps":{"locale":"en","admin2":{"geonameid":4454373,"name":"Beaufort County","country":"US","admin1":"NC","admin2":"013","admin3":"","latitude":"35.4858300","longitude":"-76.8451600"},"admin1":{"geonameid":4482348,"name":"North Carolina","admin1":"NC","localeAltName":"North Carolina"},"locations":[{"geonameid":4454761,"name":"Belhaven","admin3":"92436"},{"geonameid":4488122,"name":"River Road","admin3":"91896"},{"geonameid":4497666,"name":"Washington","admin3":"93904"}],"admin3":[{"geonameid":4453927,"name":"Township of Bath","admin3":"90168"},{"geonameid":4460692,"name":"Township of Chocowinity","admin3":"90664"},{"geonameid":4476905,"name":"Township of Long Acre","admin3":"91896"},{"geonameid":4483918,"name":"Township of Pantego","admin3":"92436"},{"geonameid":4487943,"name":"Township of Richland","admin3":"92664"},{"geonameid":4497700,"name":"Township of Washington","admin3":"93904"}],"alternateNames":[{"alternatenameId":2089560,"geonameid":4482348,"isoLanguage":"en","alternateName":"North Carolina","isPreferredName":true,"isShortName":true,"isColloquial":false,"isHistoric":false}]},"__N_SSG":true}