{"pageProps":{"locale":"en","admin2":{"geonameid":4461503,"name":"Columbus County","country":"US","admin1":"NC","admin2":"047","admin3":"","latitude":"34.2654000","longitude":"-78.6550700"},"admin1":{"geonameid":4482348,"name":"North Carolina","admin1":"NC","localeAltName":"North Carolina"},"locations":[{"geonameid":4457578,"name":"Brunswick","admin3":"94000"},{"geonameid":4460084,"name":"Chadbourn","admin3":"90612"},{"geonameid":4474919,"name":"Lake Waccamaw","admin3":"93872"},{"geonameid":4494408,"name":"Tabor City","admin3":"93072"},{"geonameid":4498899,"name":"Whiteville","admin3":"94000"}],"admin3":[{"geonameid":4456598,"name":"Township of Bogue","admin3":"90316"},{"geonameid":4456628,"name":"Township of Bolton","admin3":"90320"},{"geonameid":4458012,"name":"Township of Bug Hill","admin3":"90436"},{"geonameid":4460082,"name":"Township of Cerro Gordo","admin3":"90608"},{"geonameid":4460088,"name":"Township of Chadbourn","admin3":"90612"},{"geonameid":4465639,"name":"Township of Fair Bluff","admin3":"91044"},{"geonameid":4475565,"name":"Township of Lees","admin3":"91764"},{"geonameid":4487159,"name":"Township of Ransom","admin3":"92624"},{"geonameid":4492691,"name":"Township of South Williams","admin3":"93072"},{"geonameid":4494566,"name":"Township of Tatums","admin3":"93216"},{"geonameid":4497220,"name":"Township of Waccamaw","admin3":"93872"},{"geonameid":4498001,"name":"Township of Welches Creek","admin3":"93928"},{"geonameid":4498374,"name":"Township of Western Prong","admin3":"93944"},{"geonameid":4498907,"name":"Township of Whiteville","admin3":"94000"},{"geonameid":4499266,"name":"Township of Williams","admin3":"94020"}],"alternateNames":[{"alternatenameId":2089560,"geonameid":4482348,"isoLanguage":"en","alternateName":"North Carolina","isPreferredName":true,"isShortName":true,"isColloquial":false,"isHistoric":false}]},"__N_SSG":true}