{"pageProps":{"locale":"en","admin2":{"geonameid":4477724,"name":"Macon County","country":"US","admin1":"NC","admin2":"113","admin3":"","latitude":"35.1503800","longitude":"-83.4221000"},"admin1":{"geonameid":4482348,"name":"North Carolina","admin1":"NC","localeAltName":"North Carolina"},"locations":[{"geonameid":4467128,"name":"Franklin","admin3":"91156"}],"admin3":[{"geonameid":4049658,"name":"Township of Cartoogechaye","admin3":"90524"},{"geonameid":4458258,"name":"Township of Burningtown","admin3":"90448"},{"geonameid":4462202,"name":"Township of Cowee","admin3":"90792"},{"geonameid":4465208,"name":"Township of Ellijay","admin3":"91024"},{"geonameid":4466511,"name":"Township of Flats","admin3":"91124"},{"geonameid":4467157,"name":"Township of Franklin","admin3":"91156"},{"geonameid":4471129,"name":"Township of Highlands","admin3":"91480"},{"geonameid":4479653,"name":"Township of Millshoal","admin3":"92072"},{"geonameid":4481484,"name":"Township of Nantahala","admin3":"92204"},{"geonameid":4492178,"name":"Township of Smithbridge","admin3":"92974"},{"geonameid":4493906,"name":"Township of Sugarfork","admin3":"93164"}],"alternateNames":[{"alternatenameId":2089560,"geonameid":4482348,"isoLanguage":"en","alternateName":"North Carolina","isPreferredName":true,"isShortName":true,"isColloquial":false,"isHistoric":false}]},"__N_SSG":true}