{"pageProps":{"locale":"en","admin2":{"geonameid":4481757,"name":"New Hanover County","country":"US","admin1":"NC","admin2":"129","admin3":"","latitude":"34.1814100","longitude":"-77.8656100"},"admin1":{"geonameid":4482348,"name":"North Carolina","admin1":"NC","localeAltName":"North Carolina"},"locations":[{"geonameid":4454034,"name":"Bayshore","admin3":"91404"},{"geonameid":4459261,"name":"Carolina Beach","admin3":"91092"},{"geonameid":4459530,"name":"Castle Hayne","admin3":"90508"},{"geonameid":4474382,"name":"Kings Grant","admin3":"91404"},{"geonameid":4474609,"name":"Kure Beach","admin3":"91092"},{"geonameid":4478253,"name":"Masonboro","admin3":"94044"},{"geonameid":4481345,"name":"Murraysville","admin3":"90508"},{"geonameid":4481385,"name":"Myrtle Grove","admin3":"92008"},{"geonameid":7315335,"name":"Northchase","admin3":"90508"},{"geonameid":4483174,"name":"Ogden","admin3":"91404"},{"geonameid":4490671,"name":"Sea Breeze","admin3":"91092"},{"geonameid":4490689,"name":"Seagate","admin3":"94044"},{"geonameid":4491715,"name":"Silver Lake","admin3":"92008"},{"geonameid":4491896,"name":"Skippers Corner","admin3":"90508"},{"geonameid":4499379,"name":"Wilmington","admin3":"94044"},{"geonameid":4500088,"name":"Wrightsboro","admin3":"90508"},{"geonameid":4500092,"name":"Wrightsville Beach","admin3":"91404"}],"admin3":[{"geonameid":4459162,"name":"Township of Cape Fear","admin3":"90508"},{"geonameid":4466040,"name":"Township of Federal Point","admin3":"91092"},{"geonameid":4470006,"name":"Township of Harnett","admin3":"91404"},{"geonameid":4478259,"name":"Township of Masonboro","admin3":"92008"},{"geonameid":4499381,"name":"Township of Wilmington","admin3":"94044"}],"alternateNames":[{"alternatenameId":2089560,"geonameid":4482348,"isoLanguage":"en","alternateName":"North Carolina","isPreferredName":true,"isShortName":true,"isColloquial":false,"isHistoric":false}]},"__N_SSG":true}