{"pageProps":{"locale":"en","admin2":{"geonameid":4155535,"name":"Flagler County","country":"US","admin1":"FL","admin2":"035","admin3":"","latitude":"29.4711500","longitude":"-81.2929900"},"admin1":{"geonameid":4155751,"name":"Florida","admin1":"FL","localeAltName":"Florida"},"locations":[{"geonameid":4149363,"name":"Bunnell","admin3":""},{"geonameid":4155533,"name":"Flagler Beach","admin3":""},{"geonameid":4167538,"name":"Palm Coast","admin3":""}],"admin3":[{"geonameid":7169447,"name":"City of Flagler Beach","admin3":"7169447"},{"geonameid":7169681,"name":"City of Bunnell","admin3":"7169681"},{"geonameid":7170026,"name":"City of Palm Coast","admin3":"7170026"},{"geonameid":7170630,"name":"Town of Beverly Beach","admin3":"7170630"},{"geonameid":7171341,"name":"Town of Marineland","admin3":"7171341"}],"alternateNames":[{"alternatenameId":2080779,"geonameid":4155751,"isoLanguage":"en","alternateName":"Florida","isPreferredName":true,"isShortName":true,"isColloquial":false,"isHistoric":false}]},"__N_SSG":true}