{"pageProps":{"locale":"en","admin2":{"geonameid":12022124,"name":"Westerwolde","country":"NL","admin1":"04","admin2":"1950","admin3":"","latitude":"53.0280000","longitude":"7.1567100"},"admin1":{"geonameid":2755249,"name":"Provincie Groningen","admin1":"04"},"locations":[{"geonameid":2746368,"name":"â€™t Heem","admin3":""},{"geonameid":2759933,"name":"Agodorp","admin3":""},{"geonameid":2759404,"name":"Barnflair","admin3":""},{"geonameid":2759247,"name":"Bellingwolde","admin3":""},{"geonameid":2758815,"name":"Blijham","admin3":""},{"geonameid":2758615,"name":"Borgertange","admin3":""},{"geonameid":6544926,"name":"Borgerveld","admin3":""},{"geonameid":2758514,"name":"Bourtange","admin3":""},{"geonameid":2758091,"name":"Burgemeester Beinsdorp","admin3":""},{"geonameid":2757733,"name":"De Bruil","admin3":""},{"geonameid":2757724,"name":"De Bult","admin3":""},{"geonameid":2757352,"name":"De Lethe","admin3":""},{"geonameid":2751097,"name":"De Maten","admin3":""},{"geonameid":2757223,"name":"Den Ham","admin3":""},{"geonameid":2756195,"name":"Ellersinghuizen","admin3":""},{"geonameid":2754809,"name":"Harpel","admin3":""},{"geonameid":2754721,"name":"Hebrecht","admin3":""},{"geonameid":2753637,"name":"Hoorn","admin3":""},{"geonameid":2753630,"name":"Hoornderveen","admin3":""},{"geonameid":2753247,"name":"Jipsingboermussel","admin3":""},{"geonameid":2753246,"name":"Jipsingboertange","admin3":""},{"geonameid":2753245,"name":"Jipsinghuizen","admin3":""},{"geonameid":2752670,"name":"Klein-Ulsda","admin3":""},{"geonameid":2752379,"name":"Koudehoek","admin3":""},{"geonameid":2751996,"name":"Lammerweg","admin3":""},{"geonameid":2751863,"name":"Laude","admin3":""},{"geonameid":2751861,"name":"Laudermarke","admin3":""},{"geonameid":6544919,"name":"Lauderzwarteveen","admin3":""},{"geonameid":2751825,"name":"Leemdobben","admin3":""},{"geonameid":2751502,"name":"Lokstreek","admin3":""},{"geonameid":2751374,"name":"Lutjeloo","admin3":""},{"geonameid":2750605,"name":"Morige","admin3":""},{"geonameid":2750554,"name":"Munnekemoer","admin3":""},{"geonameid":2749010,"name":"Oudeschans","admin3":""},{"geonameid":2748856,"name":"Over de Dijk","admin3":""},{"geonameid":2757171,"name":"Pallert","admin3":""},{"geonameid":2748568,"name":"Plaggenborg","admin3":""},{"geonameid":6544917,"name":"Poldert","admin3":""},{"geonameid":2748233,"name":"Renneborg","admin3":""},{"geonameid":2748198,"name":"Rhederbrug","admin3":""},{"geonameid":2748194,"name":"Rhederveld","admin3":""},{"geonameid":2748088,"name":"Rijsdam","admin3":""},{"geonameid":2748010,"name":"Roelage","admin3":""},{"geonameid":2747400,"name":"Sellingen","admin3":""},{"geonameid":2747399,"name":"Sellingerbeetse","admin3":""},{"geonameid":2747397,"name":"Sellingerzwarteveen","admin3":""},{"geonameid":6544918,"name":"Slegge","admin3":""},{"geonameid":2746851,"name":"Stakenborg","admin3":""},{"geonameid":2746689,"name":"Stobben","admin3":""},{"geonameid":2746475,"name":"Ter Apel","admin3":""},{"geonameid":2746471,"name":"Ter Apelkanaal","admin3":""},{"geonameid":2746467,"name":"Ter Borg","admin3":""},{"geonameid":2746459,"name":"Ter Haar","admin3":""},{"geonameid":6544923,"name":"Ter Walslage","admin3":""},{"geonameid":2746399,"name":"Ter Wisch","admin3":""},{"geonameid":2746277,"name":"Tjabbesoord","admin3":""},{"geonameid":6544928,"name":"Tjabbesstreek","admin3":""},{"geonameid":2745788,"name":"Veele","admin3":""},{"geonameid":2745787,"name":"Veelerveen","admin3":""},{"geonameid":2745731,"name":"Veerster Veldhuis","admin3":""},{"geonameid":2745461,"name":"Vlagtwedde","admin3":""},{"geonameid":2745459,"name":"Vlagtwedder-Veldhuis","admin3":""},{"geonameid":2745187,"name":"Vriescheloo","admin3":""},{"geonameid":2744944,"name":"Wedde","admin3":""},{"geonameid":2744942,"name":"Wedderheide","admin3":""},{"geonameid":2744940,"name":"Wedderveer","admin3":""},{"geonameid":2744934,"name":"Weende","admin3":""},{"geonameid":2744923,"name":"Weerdingermond","admin3":""},{"geonameid":2744877,"name":"Weite","admin3":""},{"geonameid":2744810,"name":"Wessingtange","admin3":""},{"geonameid":2744793,"name":"Westeind","admin3":""},{"geonameid":2744340,"name":"Winschoterzijl","admin3":""},{"geonameid":2744201,"name":"Wollingboermarke","admin3":""},{"geonameid":2744200,"name":"Wollinghuizen","admin3":""},{"geonameid":2744049,"name":"Zandstroom","admin3":""},{"geonameid":2743650,"name":"Zuidveld","admin3":""}],"admin3":[],"alternateNames":[{"alternatenameId":11907791,"geonameid":2755249,"isoLanguage":"de","alternateName":"Groningen","isPreferredName":true,"isShortName":true,"isColloquial":false,"isHistoric":false}]},"__N_SSG":true}