{"pageProps":{"locale":"it","admin2":{"geonameid":3168670,"name":"Provincia di Salerno","country":"IT","admin1":"04","admin2":"SA","admin3":"","latitude":"40.4500000","longitude":"15.2666700","localeAltName":"Salerno"},"admin1":{"geonameid":3181042,"name":"Campania","admin1":"04","localeAltName":"Campania"},"locations":[{"geonameid":3183551,"name":"Acciaroli","admin3":"065098","localeAltName":null},{"geonameid":3183544,"name":"Acerno","admin3":"065001","localeAltName":null},{"geonameid":8949898,"name":"Acquarola","admin3":"065067","localeAltName":null},{"geonameid":3183505,"name":"Acquavella","admin3":"065028","localeAltName":null},{"geonameid":3183504,"name":"Acquavena","admin3":"065107","localeAltName":null},{"geonameid":8950230,"name":"Agnone","admin3":"065071","localeAltName":null},{"geonameid":3183412,"name":"Agropoli","admin3":"065002","localeAltName":null},{"geonameid":8950104,"name":"Alano","admin3":"065031","localeAltName":null},{"geonameid":3183362,"name":"Albanella","admin3":"065003","localeAltName":null},{"geonameid":3183294,"name":"Alfano","admin3":"065004","localeAltName":null},{"geonameid":3183170,"name":"Altavilla Silentina","admin3":"065005","localeAltName":null},{"geonameid":3183130,"name":"Amalfi","admin3":"065006","localeAltName":null},{"geonameid":3183063,"name":"Angri","admin3":"065007","localeAltName":null},{"geonameid":8948843,"name":"Antessano","admin3":"065013","localeAltName":null},{"geonameid":3182951,"name":"Aquara","admin3":"065008","localeAltName":null},{"geonameid":3182889,"name":"Arenabianca","admin3":"065076","localeAltName":null},{"geonameid":8949074,"name":"Ariano","admin3":"065082","localeAltName":null},{"geonameid":3182754,"name":"Ascea","admin3":"065009","localeAltName":null},{"geonameid":3182702,"name":"Atena Lucana","admin3":"065010","localeAltName":null},{"geonameid":3182698,"name":"Atrani","admin3":"065011","localeAltName":null},{"geonameid":3182687,"name":"Auletta","admin3":"065012","localeAltName":null},{"geonameid":3182337,"name":"Baronissi","admin3":"065013","localeAltName":null},{"geonameid":3182272,"name":"Battipaglia","admin3":"065014","localeAltName":null},{"geonameid":6534272,"name":"Bellizzi","admin3":"065158","localeAltName":null},{"geonameid":3182212,"name":"Bellosguardo","admin3":"065015","localeAltName":null},{"geonameid":9036148,"name":"Bivio Acquavella-Ponte","admin3":"065028","localeAltName":null},{"geonameid":8948960,"name":"Bivio Santa Cecilia","admin3":"065050","localeAltName":null},{"geonameid":8949652,"name":"Borgo Carillia","admin3":"065005","localeAltName":null},{"geonameid":3181622,"name":"Bracigliano","admin3":"065016","localeAltName":null},{"geonameid":3181458,"name":"Buccino","admin3":"065017","localeAltName":null},{"geonameid":3181411,"name":"Buonabitacolo","admin3":"065018","localeAltName":null},{"geonameid":8949492,"name":"Cafasso-Borgo Nuovo","admin3":"065025","localeAltName":null},{"geonameid":3181278,"name":"Caggiano","admin3":"065019","localeAltName":null},{"geonameid":3181160,"name":"Calvanico","admin3":"065020","localeAltName":null},{"geonameid":3181091,"name":"Camerota","admin3":"065021","localeAltName":null},{"geonameid":3181066,"name":"Campagna","admin3":"065022","localeAltName":null},{"geonameid":8949518,"name":"Campigliano","admin3":"065118","localeAltName":null},{"geonameid":8949609,"name":"Campinola","admin3":"065151","localeAltName":null},{"geonameid":3180827,"name":"Cannalonga","admin3":"065024","localeAltName":null},{"geonameid":3180746,"name":"Capaccio","admin3":"065025","localeAltName":null},{"geonameid":8948808,"name":"Capaccio Scalo","admin3":"065025","localeAltName":null},{"geonameid":8948984,"name":"Capezzano Inferiore","admin3":"065090","localeAltName":null},{"geonameid":8948870,"name":"Capezzano-Cologna","admin3":"065090","localeAltName":null},{"geonameid":3180710,"name":"Capitello","admin3":"065059","localeAltName":null},{"geonameid":6534800,"name":"Capitignano","admin3":"065055","localeAltName":null},{"geonameid":8950038,"name":"Caprecano","admin3":"065013","localeAltName":null},{"geonameid":8949247,"name":"Capriglia","admin3":"065090","localeAltName":null},{"geonameid":3180544,"name":"Cardile","admin3":"065057","localeAltName":null},{"geonameid":8949130,"name":"Carifi-Torello-Priscoli","admin3":"065067","localeAltName":null},{"geonameid":8949875,"name":"Casa Rocco d'Amato","admin3":"065116","localeAltName":null},{"geonameid":8950055,"name":"Casaburi","admin3":"065039","localeAltName":null},{"geonameid":3180155,"name":"Casal Velino","admin3":"065028","localeAltName":null},{"geonameid":3180243,"name":"Casalbuono","admin3":"065026","localeAltName":null},{"geonameid":3180194,"name":"Casaletto Spartano","admin3":"065027","localeAltName":null},{"geonameid":8948890,"name":"Casali-San Potito","admin3":"065108","localeAltName":null},{"geonameid":3179913,"name":"Caselle in Pittari","admin3":"065029","localeAltName":null},{"geonameid":3179488,"name":"Castel San Giorgio","admin3":"065034","localeAltName":null},{"geonameid":3179484,"name":"Castel San Lorenzo","admin3":"065035","localeAltName":null},{"geonameid":3179729,"name":"Castelcivita","admin3":"065030","localeAltName":null},{"geonameid":3179667,"name":"Castellabate","admin3":"065031","localeAltName":null},{"geonameid":3179525,"name":"Castelnuovo di Conza","admin3":"065033","localeAltName":null},{"geonameid":3179422,"name":"Castiglione del Genovesi","admin3":"065036","localeAltName":null},{"geonameid":3179337,"name":"Cava DÃ¨ Tirreni","admin3":"065037","localeAltName":null},{"geonameid":3179206,"name":"Celle di Bulgheria","admin3":"065038","localeAltName":null},{"geonameid":3179157,"name":"Centola","admin3":"065039","localeAltName":null},{"geonameid":8950312,"name":"Centro Urbano","admin3":"065033","localeAltName":null},{"geonameid":3179135,"name":"Ceraso","admin3":"065040","localeAltName":null},{"geonameid":8949466,"name":"Cerrelli","admin3":"065005","localeAltName":null},{"geonameid":8950293,"name":"Cessuta","admin3":"065076","localeAltName":null},{"geonameid":3178937,"name":"Cetara","admin3":"065041","localeAltName":null},{"geonameid":3178725,"name":"Cicerale","admin3":"065042","localeAltName":null},{"geonameid":8949911,"name":"Ciorani","admin3":"065067","localeAltName":null},{"geonameid":3178320,"name":"Colliano","admin3":"065043","localeAltName":null},{"geonameid":3178210,"name":"Conca dei Marini","admin3":"065044","localeAltName":null},{"geonameid":3178152,"name":"Controne","admin3":"065045","localeAltName":null},{"geonameid":3178151,"name":"Contursi Terme","admin3":"065046","localeAltName":null},{"geonameid":8948889,"name":"Coperchia","admin3":"065090","localeAltName":null},{"geonameid":3178142,"name":"Copersito","admin3":"065147","localeAltName":null},{"geonameid":3178129,"name":"Corbara","admin3":"065047","localeAltName":null},{"geonameid":3178091,"name":"Corleto Monforte","admin3":"065048","localeAltName":null},{"geonameid":8950388,"name":"Corpo di Cava","admin3":"065037","localeAltName":null},{"geonameid":8950060,"name":"Corvinia","admin3":"065099","localeAltName":null},{"geonameid":3177737,"name":"Cuccaro Vetere","admin3":"065049","localeAltName":null},{"geonameid":8950343,"name":"Curti","admin3":"065056","localeAltName":null},{"geonameid":8949051,"name":"Dragonea","admin3":"065157","localeAltName":null},{"geonameid":3177438,"name":"Eboli","admin3":"065050","localeAltName":null},{"geonameid":3177278,"name":"Faiano","admin3":"065099","localeAltName":null},{"geonameid":8949383,"name":"Faraldo-Nocelleto","admin3":"065052","localeAltName":null},{"geonameid":3177175,"name":"Fasana","admin3":"065115","localeAltName":null},{"geonameid":6535643,"name":"Felitto","admin3":"065051","localeAltName":null},{"geonameid":3176949,"name":"Fisciano","admin3":"065052","localeAltName":null},{"geonameid":8950267,"name":"Fontana Vaglio","admin3":"065126","localeAltName":null},{"geonameid":3176750,"name":"Foria","admin3":"065039","localeAltName":null},{"geonameid":8949257,"name":"Fuorni","admin3":"065116","localeAltName":null},{"geonameid":3176472,"name":"Furore","admin3":"065053","localeAltName":null},{"geonameid":3176456,"name":"Futani","admin3":"065054","localeAltName":null},{"geonameid":8949444,"name":"Gaiano","admin3":"065052","localeAltName":null},{"geonameid":8949653,"name":"Gauro","admin3":"065073","localeAltName":null},{"geonameid":3176125,"name":"Giffoni Valle Piana","admin3":"065056","localeAltName":null},{"geonameid":3176092,"name":"Gioi","admin3":"065057","localeAltName":null},{"geonameid":8948771,"name":"Lancusi-Penta-Bolano","admin3":"065052","localeAltName":null},{"geonameid":8948777,"name":"Lanzara","admin3":"065034","localeAltName":null},{"geonameid":8949093,"name":"Laura","admin3":"065025","localeAltName":null},{"geonameid":3175032,"name":"Laurino","admin3":"065061","localeAltName":null},{"geonameid":3175031,"name":"Laurito","admin3":"065062","localeAltName":null},{"geonameid":3174994,"name":"Laviano","admin3":"065063","localeAltName":null},{"geonameid":8950169,"name":"Le Selve","admin3":"065052","localeAltName":null},{"geonameid":3174883,"name":"Lentiscosa","admin3":"065021","localeAltName":null},{"geonameid":9036400,"name":"Licinella-Torre di Paestum","admin3":"065025","localeAltName":null},{"geonameid":3174751,"name":"Licusati","admin3":"065021","localeAltName":null},{"geonameid":8949009,"name":"Macchia","admin3":"065073","localeAltName":null},{"geonameid":8950087,"name":"Magazzeno","admin3":"065099","localeAltName":null},{"geonameid":8950026,"name":"Magorno","admin3":"065076","localeAltName":null},{"geonameid":3174214,"name":"Maiori","admin3":"065066","localeAltName":null},{"geonameid":8949316,"name":"Malche-Santa Croce-Serroni","admin3":"065055","localeAltName":null},{"geonameid":2524270,"name":"Marina di Camerota","admin3":"065021","localeAltName":null},{"geonameid":8643374,"name":"Marina di Casal Velino","admin3":"065028","localeAltName":null},{"geonameid":8949025,"name":"Matinella","admin3":"065003","localeAltName":null},{"geonameid":8950196,"name":"Mattine","admin3":"065002","localeAltName":null},{"geonameid":3173561,"name":"Mercato","admin3":"065056","localeAltName":null},{"geonameid":3173560,"name":"Mercato San Severino","admin3":"065067","localeAltName":null},{"geonameid":3173392,"name":"Minori","admin3":"065068","localeAltName":null},{"geonameid":3173306,"name":"Moio della Civitella-Pellare","admin3":"065069","localeAltName":null},{"geonameid":8949587,"name":"Molina","admin3":"065157","localeAltName":null},{"geonameid":3173068,"name":"Montano Antilia","admin3":"065070","localeAltName":null},{"geonameid":3172759,"name":"Monte San Giacomo","admin3":"065075","localeAltName":null},{"geonameid":6534801,"name":"Montecorvino Pugliano","admin3":"065072","localeAltName":null},{"geonameid":3172963,"name":"Montecorvino Rovella","admin3":"065073","localeAltName":null},{"geonameid":3172923,"name":"Monteforte Cilento","admin3":"065074","localeAltName":null},{"geonameid":8949846,"name":"Montepertuso","admin3":"065100","localeAltName":null},{"geonameid":8950098,"name":"Montesano Scalo","admin3":"065076","localeAltName":null},{"geonameid":3172753,"name":"Montesano sulla Marcellana","admin3":"065076","localeAltName":null},{"geonameid":3172688,"name":"Monticelli","admin3":"065082","localeAltName":null},{"geonameid":3172244,"name":"Nocera Inferiore","admin3":"065078","localeAltName":null},{"geonameid":3172243,"name":"Nocera Superiore","admin3":"065079","localeAltName":null},{"geonameid":3172169,"name":"Novi Velia","admin3":"065080","localeAltName":null},{"geonameid":3172098,"name":"Ogliastro Cilento","admin3":"065081","localeAltName":null},{"geonameid":3172073,"name":"Olevano sul Tusciano","admin3":"065082","localeAltName":null},{"geonameid":3172051,"name":"Oliveto Citra","admin3":"065083","localeAltName":null},{"geonameid":3172019,"name":"Omignano Scalo","admin3":"065084","localeAltName":null},{"geonameid":3171917,"name":"Orria","admin3":"065085","localeAltName":null},{"geonameid":3171781,"name":"Ottati","admin3":"065086","localeAltName":null},{"geonameid":3171718,"name":"Padula","admin3":"065087","localeAltName":null},{"geonameid":3171703,"name":"Pagani","admin3":"065088","localeAltName":null},{"geonameid":8949060,"name":"Pagliarone","admin3":"065072","localeAltName":null},{"geonameid":3171598,"name":"Palinuro","admin3":"065039","localeAltName":null},{"geonameid":3171283,"name":"Pellezzano","admin3":"065090","localeAltName":null},{"geonameid":3171112,"name":"Petina","admin3":"065094","localeAltName":null},{"geonameid":8948927,"name":"Pezzano-Filetta","admin3":"065118","localeAltName":null},{"geonameid":3171046,"name":"Piaggine","admin3":"065095","localeAltName":null},{"geonameid":8948776,"name":"Piazza del Galdo-Sant'Angelo","admin3":"065067","localeAltName":null},{"geonameid":3171527,"name":"Piazza di Pandola","admin3":"065052","localeAltName":null},{"geonameid":8949133,"name":"Piegolelle-San Bartolomeo","admin3":"065116","localeAltName":null},{"geonameid":8949262,"name":"Pietre","admin3":"065151","localeAltName":null},{"geonameid":3170630,"name":"Pisciotta","admin3":"065096","localeAltName":null},{"geonameid":8950199,"name":"Pizzolano","admin3":"065052","localeAltName":null},{"geonameid":3170519,"name":"Poderia","admin3":"065038","localeAltName":null},{"geonameid":3170386,"name":"Policastro Bussentino","admin3":"065127","localeAltName":null},{"geonameid":3170376,"name":"Polla","admin3":"065097","localeAltName":null},{"geonameid":8950243,"name":"Ponte Barizzo","admin3":"065025","localeAltName":null},{"geonameid":8949659,"name":"Ponte San Michele","admin3":"065135","localeAltName":null},{"geonameid":3170293,"name":"Pontecagnano","admin3":"065099","localeAltName":null},{"geonameid":3170051,"name":"Positano","admin3":"065100","localeAltName":null},{"geonameid":3170035,"name":"Postiglione","admin3":"065101","localeAltName":null},{"geonameid":3169956,"name":"Praiano","admin3":"065102","localeAltName":null},{"geonameid":8950241,"name":"Prato Comune","admin3":"065076","localeAltName":null},{"geonameid":8948856,"name":"Prato Perillo","admin3":"065146","localeAltName":null},{"geonameid":8948876,"name":"Pratole","admin3":"065072","localeAltName":null},{"geonameid":8949369,"name":"Prepezzano","admin3":"065055","localeAltName":null},{"geonameid":3169824,"name":"Prignano Cilento","admin3":"065103","localeAltName":null},{"geonameid":8949399,"name":"Pugliano","admin3":"065072","localeAltName":null},{"geonameid":8949605,"name":"Puglietta","admin3":"065022","localeAltName":null},{"geonameid":8948768,"name":"Quadrivio","admin3":"065022","localeAltName":null},{"geonameid":7290088,"name":"Raito","admin3":"065157","localeAltName":null},{"geonameid":3169562,"name":"Ravello","admin3":"065104","localeAltName":null},{"geonameid":8949178,"name":"Rettifilo-Vannullo","admin3":"065025","localeAltName":null},{"geonameid":3169419,"name":"Ricigliano","admin3":"065105","localeAltName":null},{"geonameid":3169191,"name":"Roccadaspide","admin3":"065106","localeAltName":null},{"geonameid":3169173,"name":"Roccagloriosa","admin3":"065107","localeAltName":null},{"geonameid":3169156,"name":"Roccapiemonte","admin3":"065108","localeAltName":null},{"geonameid":3169089,"name":"Rofrano","admin3":"065109","localeAltName":null},{"geonameid":3168947,"name":"Roscigno","admin3":"065111","localeAltName":null},{"geonameid":3168774,"name":"Rutino","admin3":"065112","localeAltName":null},{"geonameid":3168699,"name":"Sala Consilina","admin3":"065114","localeAltName":null},{"geonameid":3168676,"name":"Salento","admin3":"065115","localeAltName":null},{"geonameid":3168673,"name":"Salerno","admin3":"065116","localeAltName":null},{"geonameid":8949499,"name":"Salicuneta","admin3":"065032","localeAltName":null},{"geonameid":3168640,"name":"Salitto-Valle","admin3":"065082","localeAltName":null},{"geonameid":3168475,"name":"San Cipriano Picentino","admin3":"065118","localeAltName":null},{"geonameid":3168258,"name":"San Giovanni A Piro","admin3":"065119","localeAltName":null},{"geonameid":3168286,"name":"San Giovanni-Santa Caterina","admin3":"065056","localeAltName":null},{"geonameid":3168189,"name":"San Gregorio Magno","admin3":"065120","localeAltName":null},{"geonameid":8949366,"name":"San Lorenzo","admin3":"065130","localeAltName":null},{"geonameid":3168097,"name":"San Mango Piemonte","admin3":"065121","localeAltName":null},{"geonameid":8643147,"name":"San Marco","admin3":"065031","localeAltName":null},{"geonameid":3167996,"name":"San Marzano sul Sarno","admin3":"065122","localeAltName":null},{"geonameid":8950315,"name":"San Michele","admin3":"065053","localeAltName":null},{"geonameid":3167836,"name":"San Pietro al Tanagro","admin3":"065125","localeAltName":null},{"geonameid":3167759,"name":"San Rufo","admin3":"065126","localeAltName":null},{"geonameid":3167219,"name":"San Valentino Torio","admin3":"065132","localeAltName":null},{"geonameid":3167455,"name":"Sant'Angelo A Fasanella","admin3":"065128","localeAltName":null},{"geonameid":8950142,"name":"Sant'Anna I","admin3":"065037","localeAltName":null},{"geonameid":8948796,"name":"Sant'Antonio","admin3":"065099","localeAltName":null},{"geonameid":3167367,"name":"Sant'Arsenio","admin3":"065129","localeAltName":null},{"geonameid":6534271,"name":"Sant'Egidio del Monte Albino","admin3":"065130","localeAltName":null},{"geonameid":3167707,"name":"Santa Barbara","admin3":"065040","localeAltName":null},{"geonameid":8950382,"name":"Santa Lucia-Santa Maria la Nova","admin3":"065022","localeAltName":null},{"geonameid":3167551,"name":"Santa Maria","admin3":"065031","localeAltName":null},{"geonameid":3167361,"name":"Santa Tecla-Castelpagano","admin3":"065072","localeAltName":null},{"geonameid":8949903,"name":"Santa Venere","admin3":"065025","localeAltName":null},{"geonameid":3167169,"name":"Sanza","admin3":"065133","localeAltName":null},{"geonameid":3167152,"name":"Sapri","admin3":"065134","localeAltName":null},{"geonameid":3167116,"name":"Sarno","admin3":"065135","localeAltName":null},{"geonameid":3167097,"name":"Sassano","admin3":"065136","localeAltName":null},{"geonameid":3167010,"name":"Scafati","admin3":"065137","localeAltName":null},{"geonameid":3167009,"name":"Scala","admin3":"065138","localeAltName":null},{"geonameid":3166963,"name":"Scario","admin3":"065119","localeAltName":null},{"geonameid":3166633,"name":"Serre","admin3":"065140","localeAltName":null},{"geonameid":3166561,"name":"Siano","admin3":"065142","localeAltName":null},{"geonameid":3166556,"name":"Sicignano degli Alburni","admin3":"065143","localeAltName":null},{"geonameid":3166545,"name":"Sieti","admin3":"065055","localeAltName":null},{"geonameid":8950018,"name":"Silla","admin3":"065136","localeAltName":null},{"geonameid":8949663,"name":"Soccorso","admin3":"065052","localeAltName":null},{"geonameid":8949861,"name":"Spiano","admin3":"065067","localeAltName":null},{"geonameid":3166133,"name":"Stio","admin3":"065145","localeAltName":null},{"geonameid":8950188,"name":"Tardiano","admin3":"065076","localeAltName":null},{"geonameid":3165851,"name":"Teggiano-Macchiaroli","admin3":"065146","localeAltName":null},{"geonameid":8950077,"name":"Tempa la Mandra","admin3":"065076","localeAltName":null},{"geonameid":3165536,"name":"Torchiara","admin3":"065147","localeAltName":null},{"geonameid":3165490,"name":"Torraca","admin3":"065148","localeAltName":null},{"geonameid":3165430,"name":"Torre Orsaia","admin3":"065149","localeAltName":null},{"geonameid":3165327,"name":"Tramonti","admin3":"065151","localeAltName":null},{"geonameid":3165245,"name":"Trentinara","admin3":"065152","localeAltName":null},{"geonameid":3164794,"name":"Vallo della Lucania","admin3":"065154","localeAltName":null},{"geonameid":3164746,"name":"Valva","admin3":"065155","localeAltName":null},{"geonameid":8949558,"name":"Varco Notar Ercole","admin3":"065136","localeAltName":null},{"geonameid":8949503,"name":"Velina","admin3":"065032","localeAltName":null},{"geonameid":3164429,"name":"Vibonati","admin3":"065156","localeAltName":null},{"geonameid":3164385,"name":"Vietri sul Mare","admin3":"065157","localeAltName":null},{"geonameid":8949603,"name":"Villa","admin3":"065052","localeAltName":null},{"geonameid":3164259,"name":"Villa Littorio","admin3":"065061","localeAltName":null},{"geonameid":3164202,"name":"Villammare","admin3":"065156","localeAltName":null}],"admin3":[{"geonameid":3170292,"name":"Pontecagnano Faiano","admin3":"065099","localeAltName":null},{"geonameid":6536397,"name":"Castelnuovo di Conza","admin3":"065033","localeAltName":null},{"geonameid":6537389,"name":"Acerno","admin3":"065001","localeAltName":null},{"geonameid":6537390,"name":"Altavilla Silentina","admin3":"065005","localeAltName":null},{"geonameid":6537391,"name":"Amalfi","admin3":"065006","localeAltName":null},{"geonameid":6537392,"name":"Ascea","admin3":"065009","localeAltName":null},{"geonameid":6537393,"name":"Casaletto Spartano","admin3":"065027","localeAltName":null},{"geonameid":6537394,"name":"Caselle in Pittari","admin3":"065029","localeAltName":null},{"geonameid":6537395,"name":"Magliano Vetere","admin3":"065065"},{"geonameid":6537396,"name":"Mercato San Severino","admin3":"065067","localeAltName":null},{"geonameid":6537397,"name":"Minori","admin3":"065068","localeAltName":null},{"geonameid":6537398,"name":"Montecorice","admin3":"065071","localeAltName":null},{"geonameid":6537399,"name":"Monteforte Cilento","admin3":"065074","localeAltName":null},{"geonameid":6537400,"name":"Morigerati","admin3":"065077"},{"geonameid":6537401,"name":"Ogliastro Cilento","admin3":"065081","localeAltName":null},{"geonameid":6537402,"name":"Oliveto Citra","admin3":"065083","localeAltName":null},{"geonameid":6537403,"name":"Orria","admin3":"065085","localeAltName":null},{"geonameid":6537404,"name":"Ottati","admin3":"065086","localeAltName":null},{"geonameid":6537405,"name":"Petina","admin3":"065094","localeAltName":null},{"geonameid":6537406,"name":"Praiano","admin3":"065102","localeAltName":null},{"geonameid":6537407,"name":"Prignano Cilento","admin3":"065103","localeAltName":null},{"geonameid":6537408,"name":"Ravello","admin3":"065104","localeAltName":null},{"geonameid":6537409,"name":"Ricigliano","admin3":"065105","localeAltName":null},{"geonameid":6537410,"name":"Roccagloriosa","admin3":"065107","localeAltName":null},{"geonameid":6537411,"name":"Romagnano al Monte","admin3":"065110"},{"geonameid":6537412,"name":"San Cipriano Picentino","admin3":"065118","localeAltName":null},{"geonameid":6537413,"name":"San Giovanni a Piro","admin3":"065119","localeAltName":null},{"geonameid":6537414,"name":"San Mango Piemonte","admin3":"065121","localeAltName":null},{"geonameid":6537415,"name":"Sant'Arsenio","admin3":"065129","localeAltName":null},{"geonameid":6537416,"name":"San Valentino Torio","admin3":"065132","localeAltName":null},{"geonameid":6537417,"name":"Sapri","admin3":"065134","localeAltName":null},{"geonameid":6537418,"name":"Sicignano degli Alburni","admin3":"065143","localeAltName":null},{"geonameid":6537419,"name":"Stella Cilento","admin3":"065144"},{"geonameid":6537420,"name":"Stio","admin3":"065145","localeAltName":null},{"geonameid":6537421,"name":"Teggiano","admin3":"065146","localeAltName":null},{"geonameid":6537422,"name":"Torchiara","admin3":"065147","localeAltName":null},{"geonameid":6537423,"name":"Torre Orsaia","admin3":"065149","localeAltName":null},{"geonameid":6537424,"name":"Vallo della Lucania","admin3":"065154","localeAltName":null},{"geonameid":6537425,"name":"Vietri sul Mare","admin3":"065157","localeAltName":null},{"geonameid":6538200,"name":"Castel San Lorenzo","admin3":"065035","localeAltName":null},{"geonameid":6538201,"name":"Celle di Bulgheria","admin3":"065038","localeAltName":null},{"geonameid":6538202,"name":"Cetara","admin3":"065041","localeAltName":null},{"geonameid":6538203,"name":"Cicerale","admin3":"065042","localeAltName":null},{"geonameid":6538204,"name":"Conca dei Marini","admin3":"065044","localeAltName":null},{"geonameid":6538205,"name":"Gioi","admin3":"065057","localeAltName":null},{"geonameid":6538206,"name":"Giungano","admin3":"065058"},{"geonameid":6538207,"name":"Laureana Cilento","admin3":"065060"},{"geonameid":6538208,"name":"Laurito","admin3":"065062","localeAltName":null},{"geonameid":6538209,"name":"Lustra","admin3":"065064"},{"geonameid":6538802,"name":"Atena Lucana","admin3":"065010","localeAltName":null},{"geonameid":6538803,"name":"Atrani","admin3":"065011","localeAltName":null},{"geonameid":6538804,"name":"Auletta","admin3":"065012","localeAltName":null},{"geonameid":6538805,"name":"Bracigliano","admin3":"065016","localeAltName":null},{"geonameid":6538806,"name":"Buccino","admin3":"065017","localeAltName":null},{"geonameid":6538807,"name":"Buonabitacolo","admin3":"065018","localeAltName":null},{"geonameid":6538808,"name":"Caggiano","admin3":"065019","localeAltName":null},{"geonameid":6538809,"name":"Cannalonga","admin3":"065024","localeAltName":null},{"geonameid":6538810,"name":"Capaccio Paestum","admin3":"065025","localeAltName":null},{"geonameid":6538811,"name":"Casalbuono","admin3":"065026","localeAltName":null},{"geonameid":6538812,"name":"Castelnuovo Cilento","admin3":"065032","localeAltName":null},{"geonameid":6538813,"name":"Castel San Giorgio","admin3":"065034","localeAltName":null},{"geonameid":6538814,"name":"Cava de' Tirreni","admin3":"065037","localeAltName":null},{"geonameid":6538815,"name":"Centola","admin3":"065039","localeAltName":null},{"geonameid":6538816,"name":"Fisciano","admin3":"065052","localeAltName":null},{"geonameid":6538817,"name":"Futani","admin3":"065054","localeAltName":null},{"geonameid":6538818,"name":"Laviano","admin3":"065063","localeAltName":null},{"geonameid":6538819,"name":"Maiori","admin3":"065066","localeAltName":null},{"geonameid":6538820,"name":"Montano Antilia","admin3":"065070","localeAltName":null},{"geonameid":6538821,"name":"Pagani","admin3":"065088","localeAltName":null},{"geonameid":6538822,"name":"Palomonte","admin3":"065089"},{"geonameid":6538823,"name":"Perdifumo","admin3":"065091"},{"geonameid":6538824,"name":"Perito","admin3":"065092"},{"geonameid":6538825,"name":"Piaggine","admin3":"065095","localeAltName":null},{"geonameid":6538826,"name":"Pisciotta","admin3":"065096","localeAltName":null},{"geonameid":6538827,"name":"Positano","admin3":"065100","localeAltName":null},{"geonameid":6538828,"name":"Rutino","admin3":"065112","localeAltName":null},{"geonameid":6538829,"name":"Sala Consilina","admin3":"065114","localeAltName":null},{"geonameid":6538830,"name":"San Gregorio Magno","admin3":"065120","localeAltName":null},{"geonameid":6538831,"name":"San Marzano sul Sarno","admin3":"065122","localeAltName":null},{"geonameid":6538832,"name":"San Mauro Cilento","admin3":"065123"},{"geonameid":6538833,"name":"San Mauro la Bruca","admin3":"065124"},{"geonameid":6538834,"name":"San Pietro al Tanagro","admin3":"065125","localeAltName":null},{"geonameid":6538835,"name":"San Rufo","admin3":"065126","localeAltName":null},{"geonameid":6538836,"name":"Sanza","admin3":"065133","localeAltName":null},{"geonameid":6538837,"name":"Serramezzana","admin3":"065139"},{"geonameid":6538838,"name":"Torraca","admin3":"065148","localeAltName":null},{"geonameid":6538839,"name":"Valva","admin3":"065155","localeAltName":null},{"geonameid":6538840,"name":"Vibonati","admin3":"065156","localeAltName":null},{"geonameid":6539590,"name":"Furore","admin3":"065053","localeAltName":null},{"geonameid":6539656,"name":"Castellabate","admin3":"065031","localeAltName":null},{"geonameid":6539819,"name":"Omignano","admin3":"065084","localeAltName":null},{"geonameid":6539820,"name":"Santa Marina","admin3":"065127","localeAltName":null},{"geonameid":6539821,"name":"Scala","admin3":"065138","localeAltName":null},{"geonameid":6539915,"name":"Laurino","admin3":"065061","localeAltName":null},{"geonameid":6540000,"name":"Alfano","admin3":"065004","localeAltName":null},{"geonameid":6540001,"name":"Bellosguardo","admin3":"065015","localeAltName":null},{"geonameid":6540002,"name":"Camerota","admin3":"065021","localeAltName":null},{"geonameid":6540003,"name":"Campagna","admin3":"065022","localeAltName":null},{"geonameid":6540004,"name":"Corbara","admin3":"065047","localeAltName":null},{"geonameid":6540005,"name":"Padula","admin3":"065087","localeAltName":null},{"geonameid":6540006,"name":"Salento","admin3":"065115","localeAltName":null},{"geonameid":6540007,"name":"Sarno","admin3":"065135","localeAltName":null},{"geonameid":6540008,"name":"Serre","admin3":"065140","localeAltName":null},{"geonameid":6540009,"name":"Siano","admin3":"065142","localeAltName":null},{"geonameid":6540288,"name":"Moio della Civitella","admin3":"065069","localeAltName":null},{"geonameid":6540289,"name":"Olevano sul Tusciano","admin3":"065082","localeAltName":null},{"geonameid":6540290,"name":"Tramonti","admin3":"065151","localeAltName":null},{"geonameid":6540696,"name":"Calvanico","admin3":"065020","localeAltName":null},{"geonameid":6540697,"name":"Montecorvino Rovella","admin3":"065073","localeAltName":null},{"geonameid":6540698,"name":"Montesano sulla Marcellana","admin3":"065076","localeAltName":null},{"geonameid":6540699,"name":"Nocera Superiore","admin3":"065079","localeAltName":null},{"geonameid":6540700,"name":"Polla","admin3":"065097","localeAltName":null},{"geonameid":6540701,"name":"Roccapiemonte","admin3":"065108","localeAltName":null},{"geonameid":6540702,"name":"Sassano","admin3":"065136","localeAltName":null},{"geonameid":6540703,"name":"Sessa Cilento","admin3":"065141"},{"geonameid":6540963,"name":"Colliano","admin3":"065043","localeAltName":null},{"geonameid":6540964,"name":"Controne","admin3":"065045","localeAltName":null},{"geonameid":6540965,"name":"Corleto Monforte","admin3":"065048","localeAltName":null},{"geonameid":6541176,"name":"Agropoli","admin3":"065002","localeAltName":null},{"geonameid":6541177,"name":"Angri","admin3":"065007","localeAltName":null},{"geonameid":6541178,"name":"Aquara","admin3":"065008","localeAltName":null},{"geonameid":6541179,"name":"Campora","admin3":"065023"},{"geonameid":6541180,"name":"Casal Velino","admin3":"065028","localeAltName":null},{"geonameid":6541181,"name":"Castelcivita","admin3":"065030","localeAltName":null},{"geonameid":6541182,"name":"Ceraso","admin3":"065040","localeAltName":null},{"geonameid":6541183,"name":"Monte San Giacomo","admin3":"065075","localeAltName":null},{"geonameid":6541184,"name":"Novi Velia","admin3":"065080","localeAltName":null},{"geonameid":6541185,"name":"Pellezzano","admin3":"065090","localeAltName":null},{"geonameid":6541186,"name":"Pertosa","admin3":"065093"},{"geonameid":6541187,"name":"Pollica","admin3":"065098","localeAltName":null},{"geonameid":6541188,"name":"Roccadaspide","admin3":"065106","localeAltName":null},{"geonameid":6541189,"name":"Roscigno","admin3":"065111","localeAltName":null},{"geonameid":6541190,"name":"Sacco","admin3":"065113"},{"geonameid":6541191,"name":"Salvitelle","admin3":"065117"},{"geonameid":6541192,"name":"Sant'Angelo a Fasanella","admin3":"065128","localeAltName":null},{"geonameid":6541193,"name":"Santomenna","admin3":"065131"},{"geonameid":6541194,"name":"Scafati","admin3":"065137","localeAltName":null},{"geonameid":6541195,"name":"Tortorella","admin3":"065150"},{"geonameid":6541196,"name":"Trentinara","admin3":"065152","localeAltName":null},{"geonameid":6541579,"name":"Giffoni Valle Piana","admin3":"065056","localeAltName":null},{"geonameid":6541686,"name":"Baronissi","admin3":"065013","localeAltName":null},{"geonameid":6541687,"name":"Nocera Inferiore","admin3":"065078","localeAltName":null},{"geonameid":6541688,"name":"Postiglione","admin3":"065101","localeAltName":null},{"geonameid":6541689,"name":"Rofrano","admin3":"065109","localeAltName":null},{"geonameid":6541807,"name":"Eboli","admin3":"065050","localeAltName":null},{"geonameid":6541913,"name":"Battipaglia","admin3":"065014","localeAltName":null},{"geonameid":6541914,"name":"Cuccaro Vetere","admin3":"065049","localeAltName":null},{"geonameid":6542064,"name":"Albanella","admin3":"065003","localeAltName":null},{"geonameid":6542096,"name":"Valle dell'Angelo","admin3":"065153"},{"geonameid":6542117,"name":"Salerno","admin3":"065116","localeAltName":null},{"geonameid":6542247,"name":"Contursi Terme","admin3":"065046","localeAltName":null},{"geonameid":6542264,"name":"Castiglione del Genovesi","admin3":"065036","localeAltName":null},{"geonameid":6542343,"name":"Sant'Egidio del Monte Albino","admin3":"065130","localeAltName":null},{"geonameid":6542344,"name":"Bellizzi","admin3":"065158","localeAltName":null},{"geonameid":6542799,"name":"Giffoni Sei Casali","admin3":"065055","localeAltName":null},{"geonameid":6542800,"name":"Montecorvino Pugliano","admin3":"065072","localeAltName":null},{"geonameid":6543534,"name":"Ispani","admin3":"065059","localeAltName":null},{"geonameid":6543622,"name":"Felitto","admin3":"065051","localeAltName":null}],"alternateNames":[{"alternatenameId":1348502,"geonameid":3168670,"isoLanguage":"it","alternateName":"Salerno","isPreferredName":true,"isShortName":true,"isColloquial":false,"isHistoric":false},{"alternatenameId":1352304,"geonameid":3181042,"isoLanguage":"it","alternateName":"Campania","isPreferredName":true,"isShortName":true,"isColloquial":false,"isHistoric":false}]},"__N_SSG":true}