{"pageProps":{"locale":"en","admin2":{"geonameid":5055119,"name":"Gentry County","country":"US","admin1":"MO","admin2":"075","admin3":"","latitude":"40.2121100","longitude":"-94.4099200"},"admin1":{"geonameid":4398678,"name":"Missouri","admin1":"MO","localeAltName":"Missouri"},"locations":[{"geonameid":5053875,"name":"Albany","admin3":"02386"},{"geonameid":5055773,"name":"King City","admin3":"35774"},{"geonameid":5057401,"name":"Stanberry","admin3":"16282"}],"admin3":[{"geonameid":5053944,"name":"Township of Athens","admin3":"02386"},{"geonameid":5054165,"name":"Township of Bogle","admin3":"06868"},{"geonameid":5054590,"name":"Township of Cooper","admin3":"16282"},{"geonameid":5055569,"name":"Township of Howard","admin3":"33328"},{"geonameid":5055577,"name":"Township of Huggins","admin3":"33598"},{"geonameid":5055644,"name":"Township of Jackson","admin3":"35774"},{"geonameid":5056305,"name":"Township of Miller","admin3":"48224"},{"geonameid":5057908,"name":"Township of Wilson","admin3":"80188"}],"alternateNames":[{"alternatenameId":2089572,"geonameid":4398678,"isoLanguage":"en","alternateName":"Missouri","isPreferredName":true,"isShortName":true,"isColloquial":false,"isHistoric":false}]},"__N_SSG":true}