{"pageProps":{"locale":"en","admin2":{"geonameid":4397108,"name":"Marion County","country":"US","admin1":"MO","admin2":"127","admin3":"","latitude":"39.8059600","longitude":"-91.6223500"},"admin1":{"geonameid":4398678,"name":"Missouri","admin1":"MO","localeAltName":"Missouri"},"locations":[{"geonameid":4389418,"name":"Hannibal","admin3":"46658"},{"geonameid":4402381,"name":"Palmyra","admin3":"42230"}],"admin3":[{"geonameid":4385992,"name":"Township of Fabius","admin3":"23176"},{"geonameid":4395186,"name":"Township of Liberty","admin3":"42230"},{"geonameid":4397377,"name":"Township of Mason","admin3":"46658"},{"geonameid":4398427,"name":"Township of Miller","admin3":"48278"},{"geonameid":4406479,"name":"Township of Round Grove","admin3":"63344"},{"geonameid":4409498,"name":"Township of South River","admin3":"69050"},{"geonameid":4412655,"name":"Township of Union","admin3":"74788"},{"geonameid":4413593,"name":"Township of Warren","admin3":"77074"}],"alternateNames":[{"alternatenameId":2089572,"geonameid":4398678,"isoLanguage":"en","alternateName":"Missouri","isPreferredName":true,"isShortName":true,"isColloquial":false,"isHistoric":false}]},"__N_SSG":true}