{"pageProps":{"locale":"en","admin2":{"geonameid":4400430,"name":"New Madrid County","country":"US","admin1":"MO","admin2":"143","admin3":"","latitude":"36.5946500","longitude":"-89.6518300"},"admin1":{"geonameid":4398678,"name":"Missouri","admin1":"MO","localeAltName":"Missouri"},"locations":[{"geonameid":4387885,"name":"Gideon","admin3":"01234"},{"geonameid":4395275,"name":"Lilbourn","admin3":"41816"},{"geonameid":4400427,"name":"New Madrid","admin3":"52094"},{"geonameid":4404267,"name":"Portageville","admin3":"59132"}],"admin3":[{"geonameid":4374845,"name":"Township of Anderson","admin3":"01234"},{"geonameid":4377059,"name":"Township of Big Prairie","admin3":"05518"},{"geonameid":4382050,"name":"Township of Como","admin3":"15832"},{"geonameid":4391335,"name":"Township of Hough","admin3":"33166"},{"geonameid":4393976,"name":"Township of La Font","admin3":"39710"},{"geonameid":4394749,"name":"Township of Le Sieur","admin3":"41654"},{"geonameid":4395033,"name":"Township of Lewis","admin3":"41816"},{"geonameid":4400434,"name":"Township of New Madrid","admin3":"52094"},{"geonameid":4404277,"name":"Township of Portage","admin3":"59132"},{"geonameid":4406950,"name":"Township of Saint John","admin3":"64460"},{"geonameid":4414248,"name":"Township of West","admin3":"78478"}],"alternateNames":[{"alternatenameId":2089572,"geonameid":4398678,"isoLanguage":"en","alternateName":"Missouri","isPreferredName":true,"isShortName":true,"isColloquial":false,"isHistoric":false}]},"__N_SSG":true}