{"pageProps":{"locale":"en","admin2":{"geonameid":5056963,"name":"Putnam County","country":"US","admin1":"MO","admin2":"171","admin3":"","latitude":"40.4789100","longitude":"-93.0161300"},"admin1":{"geonameid":4398678,"name":"Missouri","admin1":"MO","localeAltName":"Missouri"},"locations":[{"geonameid":5057511,"name":"Terre Haute","admin3":"47126"},{"geonameid":5057655,"name":"Unionville","admin3":"74896"}],"admin3":[{"geonameid":5054886,"name":"Township of Elm","admin3":"21952"},{"geonameid":5055206,"name":"Township of Grant","admin3":"28522"},{"geonameid":5055646,"name":"Township of Jackson","admin3":"36026"},{"geonameid":5055928,"name":"Township of Liberty","admin3":"42284"},{"geonameid":5055958,"name":"Township of Lincoln","admin3":"42842"},{"geonameid":5056224,"name":"Township of Medicine","admin3":"47126"},{"geonameid":5057025,"name":"Township of Richland","admin3":"61580"},{"geonameid":5057251,"name":"Township of Sherman","admin3":"67466"},{"geonameid":5057651,"name":"Township of Union","admin3":"74896"},{"geonameid":5057910,"name":"Township of Wilson","admin3":"80242"},{"geonameid":5057987,"name":"Township of York","admin3":"81340"}],"alternateNames":[{"alternatenameId":2089572,"geonameid":4398678,"isoLanguage":"en","alternateName":"Missouri","isPreferredName":true,"isShortName":true,"isColloquial":false,"isHistoric":false}]},"__N_SSG":true}