{"pageProps":{"locale":"en","admin2":{"geonameid":4406835,"name":"Saint Charles County","country":"US","admin1":"MO","admin2":"183","admin3":"","latitude":"38.7819200","longitude":"-90.6749000"},"admin1":{"geonameid":4398678,"name":"Missouri","admin1":"MO","localeAltName":"Missouri"},"locations":[{"geonameid":4382491,"name":"Cottleville","admin3":"18244"},{"geonameid":4383306,"name":"Dardenne Prairie","admin3":"78316"},{"geonameid":4394302,"name":"Lake Saint Louis","admin3":""},{"geonameid":4401242,"name":"O'Fallon","admin3":"54080"},{"geonameid":4406831,"name":"Saint Charles","admin3":"62112"},{"geonameid":4407186,"name":"Saint Paul","admin3":"78448"},{"geonameid":4407237,"name":"Saint Peters","admin3":"62112"},{"geonameid":4413926,"name":"Weldon Spring","admin3":"78316"},{"geonameid":4414001,"name":"Wentzville","admin3":"78448"}],"admin3":[{"geonameid":4377944,"name":"Township of Boone","admin3":"07232"},{"geonameid":4383308,"name":"Township of Dardenne","admin3":"18244"},{"geonameid":4401244,"name":"Township of O'Fallon","admin3":"54080"},{"geonameid":4413931,"name":"Township of Weldon Spring","admin3":"78316"},{"geonameid":4414003,"name":"Township of Wentzville","admin3":"78448"},{"geonameid":7165540,"name":"Township of Cottleville","admin3":"16681"},{"geonameid":7165556,"name":"Township of Frontier","admin3":"26120"},{"geonameid":7165564,"name":"Township of Harvester","admin3":"30812"},{"geonameid":7165581,"name":"Township of Lindenwood","admin3":"43026"},{"geonameid":7165614,"name":"Township of Rivers","admin3":"62112"},{"geonameid":7165626,"name":"Township of Spencer Creek","admin3":"69434"},{"geonameid":7165655,"name":"Township of Zumbehl","admin3":"81555"}],"alternateNames":[{"alternatenameId":2089572,"geonameid":4398678,"isoLanguage":"en","alternateName":"Missouri","isPreferredName":true,"isShortName":true,"isColloquial":false,"isHistoric":false}]},"__N_SSG":true}