{"pageProps":{"locale":"en","admin2":{"geonameid":4407074,"name":"Saint Louis County","country":"US","admin1":"MO","admin2":"189","admin3":"","latitude":"38.6406800","longitude":"-90.4434100"},"admin1":{"geonameid":4398678,"name":"Missouri","admin1":"MO","localeAltName":"Missouri"},"locations":[{"geonameid":4374513,"name":"Affton","admin3":"16048"},{"geonameid":4375663,"name":"Ballwin","admin3":"39682"},{"geonameid":4376350,"name":"Bel-Nor","admin3":"52814"},{"geonameid":4376352,"name":"Bel-Ridge","admin3":"52814"},{"geonameid":4376444,"name":"Bellefontaine Neighbors","admin3":"64208"},{"geonameid":4376623,"name":"Berkeley","admin3":"53448"},{"geonameid":4377295,"name":"Black Jack","admin3":"69284"},{"geonameid":4378291,"name":"Breckenridge Hills","admin3":"47918"},{"geonameid":4378312,"name":"Brentwood","admin3":"14590"},{"geonameid":4378391,"name":"Bridgeton","admin3":"53360"},{"geonameid":4379611,"name":"Calverton Park","admin3":"24004"},{"geonameid":4380287,"name":"Castle Point","admin3":"64208"},{"geonameid":4380976,"name":"Charlack","admin3":"47918"},{"geonameid":4381072,"name":"Chesterfield","admin3":"13605"},{"geonameid":4381423,"name":"Clarkson Valley","admin3":"13605"},{"geonameid":4381478,"name":"Clayton","admin3":"29818"},{"geonameid":4382072,"name":"Concord","admin3":"16048"},{"geonameid":4382223,"name":"Cool Valley","admin3":"52814"},{"geonameid":4382559,"name":"Country Club Hills","admin3":"52814"},{"geonameid":4382833,"name":"Crestwood","admin3":"28792"},{"geonameid":4382837,"name":"Creve Coeur","admin3":"17290"},{"geonameid":4383713,"name":"Dellwood","admin3":"24004"},{"geonameid":4383778,"name":"Des Peres","admin3":"48989"},{"geonameid":4385494,"name":"Ellisville","admin3":"79801"},{"geonameid":4385835,"name":"Eureka","admin3":"47450"},{"geonameid":4386381,"name":"Fenton","admin3":"07066"},{"geonameid":4386387,"name":"Ferguson","admin3":"53448"},{"geonameid":4386802,"name":"Florissant","admin3":"24796"},{"geonameid":4387435,"name":"Frontenac","admin3":"48989"},{"geonameid":4388005,"name":"Glasgow Village","admin3":"64208"},{"geonameid":4388036,"name":"Glendale","admin3":"36962"},{"geonameid":4388732,"name":"Green Park","admin3":"16048"},{"geonameid":4389411,"name":"Hanley Hills","admin3":"75210"},{"geonameid":4389967,"name":"Hazelwood","admin3":"00406"},{"geonameid":4390708,"name":"Hillsdale","admin3":"75210"},{"geonameid":4392445,"name":"Jennings","admin3":"53448"},{"geonameid":4393739,"name":"Kirkwood","admin3":"07066"},{"geonameid":4394084,"name":"Ladue","admin3":"14590"},{"geonameid":4394440,"name":"Lakeshire","admin3":"16048"},{"geonameid":4394905,"name":"Lemay","admin3":"41456"},{"geonameid":4396915,"name":"Manchester","admin3":"39682"},{"geonameid":4397042,"name":"Maplewood","admin3":"29818"},{"geonameid":4397163,"name":"Marlborough","admin3":"36962"},{"geonameid":4397340,"name":"Maryland Heights","admin3":"47918"},{"geonameid":4397962,"name":"Mehlville","admin3":"41456"},{"geonameid":4398755,"name":"Moline Acres","admin3":"53448"},{"geonameid":4400737,"name":"Normandy","admin3":"52814"},{"geonameid":4400962,"name":"Northwoods","admin3":"52814"},{"geonameid":4401560,"name":"Oakland","admin3":"07066"},{"geonameid":4401618,"name":"Oakville","admin3":"53880"},{"geonameid":7315274,"name":"Old Jamestown","admin3":"69284"},{"geonameid":4401938,"name":"Olivette","admin3":"17290"},{"geonameid":4402178,"name":"Overland","admin3":"47918"},{"geonameid":4402331,"name":"Pagedale","admin3":"75210"},{"geonameid":4403385,"name":"Pine Lawn","admin3":"52814"},{"geonameid":4405589,"name":"Richmond Heights","admin3":"29818"},{"geonameid":4405816,"name":"Riverview","admin3":"64208"},{"geonameid":4406041,"name":"Rock Hill","admin3":"14590"},{"geonameid":4406783,"name":"Saint Ann","admin3":"00406"},{"geonameid":4406895,"name":"Saint George","admin3":"16048"},{"geonameid":4406941,"name":"Saint John","admin3":"47918"},{"geonameid":4406951,"name":"Saint Johns","admin3":"47918"},{"geonameid":4407617,"name":"Sappington","admin3":"28792"},{"geonameid":4408611,"name":"Shrewsbury","admin3":"36962"},{"geonameid":4409591,"name":"Spanish Lake","admin3":"69284"},{"geonameid":4410836,"name":"Sunset Hills","admin3":"28792"},{"geonameid":4411912,"name":"Town and Country","admin3":"48989"},{"geonameid":4412697,"name":"University City","admin3":"29818"},{"geonameid":4412820,"name":"Valley Park","admin3":"60363"},{"geonameid":4412975,"name":"Velda Village","admin3":"52814"},{"geonameid":4412976,"name":"Velda Village Hills","admin3":"75210"},{"geonameid":4413136,"name":"Vinita Park","admin3":"47918"},{"geonameid":4413602,"name":"Warson Woods","admin3":"36962"},{"geonameid":4413872,"name":"Webster Groves","admin3":"36962"},{"geonameid":4413977,"name":"Wellston","admin3":"75210"},{"geonameid":4414749,"name":"Wildwood","admin3":"13605"},{"geonameid":4415065,"name":"Winchester","admin3":"79801"},{"geonameid":4415434,"name":"Woodson Terrace","admin3":"00406"}],"admin3":[{"geonameid":4374541,"name":"Township of Airport","admin3":"00406"},{"geonameid":4377895,"name":"Township of Bonhomme","admin3":"07066"},{"geonameid":4381486,"name":"Township of Clayton","admin3":"14590"},{"geonameid":4382117,"name":"Township of Concord","admin3":"16048"},{"geonameid":4382844,"name":"Township of Creve Coeur","admin3":"17290"},{"geonameid":4386398,"name":"Township of Ferguson","admin3":"24004"},{"geonameid":4386803,"name":"Township of Florissant","admin3":"24796"},{"geonameid":4388615,"name":"Township of Gravois","admin3":"28792"},{"geonameid":4389163,"name":"Township of Hadley","admin3":"29818"},{"geonameid":4392422,"name":"Township of Jefferson","admin3":"36962"},{"geonameid":4394906,"name":"Township of Lemay","admin3":"41456"},{"geonameid":4395031,"name":"Township of Lewis and Clark","admin3":"41825"},{"geonameid":4398044,"name":"Township of Meramec","admin3":"47450"},{"geonameid":4398198,"name":"Township of Midland","admin3":"47918"},{"geonameid":4398682,"name":"Township of Missouri River","admin3":"48989"},{"geonameid":4400742,"name":"Township of Normandy","admin3":"52814"},{"geonameid":4400956,"name":"Township of Northwest","admin3":"53360"},{"geonameid":4404897,"name":"Township of Queeny","admin3":"60363"},{"geonameid":4406865,"name":"Township of Saint Ferdinand","admin3":"64208"},{"geonameid":4409592,"name":"Township of Spanish Lake","admin3":"69284"},{"geonameid":4414748,"name":"Township of Wildhorse","admin3":"79801"},{"geonameid":7165537,"name":"Township of Chesterfield","admin3":"13605"},{"geonameid":7165576,"name":"Township of Lafayette","admin3":"39682"},{"geonameid":7165585,"name":"Township of Maryland Heights","admin3":"46590"},{"geonameid":7165599,"name":"Township of Norwood","admin3":"53448"},{"geonameid":7165600,"name":"Township of Oakville","admin3":"53880"},{"geonameid":7165634,"name":"Township of Tesson Ferry","admin3":"72794"},{"geonameid":7165638,"name":"Township of University","admin3":"75210"}],"alternateNames":[{"alternatenameId":2089572,"geonameid":4398678,"isoLanguage":"en","alternateName":"Missouri","isPreferredName":true,"isShortName":true,"isColloquial":false,"isHistoric":false}]},"__N_SSG":true}