{"pageProps":{"locale":"en","admin2":{"geonameid":4406842,"name":"Saint Clair County","country":"US","admin1":"MO","admin2":"185","admin3":"","latitude":"38.0371800","longitude":"-93.7759800"},"admin1":{"geonameid":4398678,"name":"Missouri","admin1":"MO","localeAltName":"Missouri"},"locations":[{"geonameid":4374993,"name":"Appleton City","admin3":"01504"}],"admin3":[{"geonameid":4374998,"name":"Township of Appleton","admin3":"01504"},{"geonameid":4379354,"name":"Township of Butler","admin3":"10108"},{"geonameid":4380765,"name":"Township of Center","admin3":"12628"},{"geonameid":4380883,"name":"Township of Chalk Level","admin3":"13024"},{"geonameid":4381972,"name":"Township of Collins","admin3":"15580"},{"geonameid":4383241,"name":"Township of Dallas","admin3":"18100"},{"geonameid":4384423,"name":"Township of Doyal","admin3":"20008"},{"geonameid":4392243,"name":"Township of Jackson","admin3":"36080"},{"geonameid":4398775,"name":"Township of Monegaw","admin3":"49142"},{"geonameid":4402076,"name":"Township of Osage","admin3":"55208"},{"geonameid":4402104,"name":"Township of Osceola","admin3":"55406"},{"geonameid":4404140,"name":"Township of Polk","admin3":"58862"},{"geonameid":4406359,"name":"Township of Roscoe","admin3":"63092"},{"geonameid":4409632,"name":"Township of Speedwell","admin3":"69356"},{"geonameid":4411081,"name":"Township of Taber","admin3":"72124"},{"geonameid":4413699,"name":"Township of Washington","admin3":"77686"}],"alternateNames":[{"alternatenameId":2089572,"geonameid":4398678,"isoLanguage":"en","alternateName":"Missouri","isPreferredName":true,"isShortName":true,"isColloquial":false,"isHistoric":false}]},"__N_SSG":true}