{"pageProps":{"locale":"en","admin2":{"geonameid":4410296,"name":"Stoddard County","country":"US","admin1":"MO","admin2":"207","admin3":"","latitude":"36.8556200","longitude":"-89.9443100"},"admin1":{"geonameid":4398678,"name":"Missouri","admin1":"MO","localeAltName":"Missouri"},"locations":[{"geonameid":4374502,"name":"Advance","admin3":"57548"},{"geonameid":4376632,"name":"Bernie","admin3":"42356"},{"geonameid":4377531,"name":"Bloomfield","admin3":"11980"},{"geonameid":4383857,"name":"Dexter","admin3":"42356"}],"admin3":[{"geonameid":4380307,"name":"Township of Castor","admin3":"11980"},{"geonameid":4384676,"name":"Township of Duck Creek","admin3":"20260"},{"geonameid":4385415,"name":"Township of Elk","admin3":"21592"},{"geonameid":4395191,"name":"Township of Liberty","admin3":"42356"},{"geonameid":4400422,"name":"Township of New Lisbon","admin3":"52040"},{"geonameid":4403238,"name":"Township of Pike","admin3":"57548"},{"geonameid":4405583,"name":"Township of Richland","admin3":"61616"}],"alternateNames":[{"alternatenameId":2089572,"geonameid":4398678,"isoLanguage":"en","alternateName":"Missouri","isPreferredName":true,"isShortName":true,"isColloquial":false,"isHistoric":false}]},"__N_SSG":true}