{"pageProps":{"locale":"en","admin2":{"geonameid":4411468,"name":"Texas County","country":"US","admin1":"MO","admin2":"215","admin3":"","latitude":"37.3173100","longitude":"-91.9650500"},"admin1":{"geonameid":4398678,"name":"Missouri","admin1":"MO","localeAltName":"Missouri"},"locations":[{"geonameid":4379478,"name":"Cabool","admin3":"09766"},{"geonameid":4391354,"name":"Houston","admin3":"57890"},{"geonameid":4395255,"name":"Licking","admin3":"67520"}],"admin3":[{"geonameid":4377945,"name":"Township of Boone","admin3":"07246"},{"geonameid":4379163,"name":"Township of Burdine","admin3":"09766"},{"geonameid":4380144,"name":"Township of Carroll","admin3":"11548"},{"geonameid":4380272,"name":"Township of Cass","admin3":"11854"},{"geonameid":4381655,"name":"Township of Clinton","admin3":"15022"},{"geonameid":4383139,"name":"Township of Current","admin3":"17848"},{"geonameid":4383334,"name":"Township of Date","admin3":"18334"},{"geonameid":4392245,"name":"Township of Jackson","admin3":"36170"},{"geonameid":4396667,"name":"Township of Lynch","admin3":"44660"},{"geonameid":4399112,"name":"Township of Morris","admin3":"50042"},{"geonameid":4402286,"name":"Township of Ozark","admin3":"55820"},{"geonameid":4403197,"name":"Township of Pierce","admin3":"57476"},{"geonameid":4403471,"name":"Township of Piney","admin3":"57890"},{"geonameid":4406458,"name":"Township of Roubidoux","admin3":"63290"},{"geonameid":4407641,"name":"Township of Sargent","admin3":"66026"},{"geonameid":4408434,"name":"Township of Sherrill","admin3":"67520"},{"geonameid":4412757,"name":"Township of Upton","admin3":"75292"}],"alternateNames":[{"alternatenameId":2089572,"geonameid":4398678,"isoLanguage":"en","alternateName":"Missouri","isPreferredName":true,"isShortName":true,"isColloquial":false,"isHistoric":false}]},"__N_SSG":true}