{"pageProps":{"locale":"en","admin2":{"geonameid":5565500,"name":"Humboldt County","country":"US","admin1":"CA","admin2":"023","admin3":"","latitude":"40.7050100","longitude":"-123.9158200","localeAltName":null},"admin1":{"geonameid":5332921,"name":"California","admin1":"CA","localeAltName":"California"},"locations":[{"geonameid":5558953,"name":"Arcata","admin3":"","localeAltName":null},{"geonameid":5559320,"name":"Bayside","admin3":"","localeAltName":null},{"geonameid":5559327,"name":"Bayview","admin3":"","localeAltName":null},{"geonameid":5560020,"name":"Blue Lake","admin3":"","localeAltName":null},{"geonameid":5562199,"name":"Cutten","admin3":"","localeAltName":null},{"geonameid":5563397,"name":"Eureka","admin3":"","localeAltName":null},{"geonameid":5563573,"name":"Ferndale","admin3":"","localeAltName":null},{"geonameid":5563602,"name":"Fieldbrook","admin3":"","localeAltName":null},{"geonameid":5563839,"name":"Fortuna","admin3":"","localeAltName":null},{"geonameid":5564067,"name":"Garberville","admin3":"","localeAltName":null},{"geonameid":5565511,"name":"Humboldt Hill","admin3":"","localeAltName":null},{"geonameid":5565589,"name":"Hydesville","admin3":"","localeAltName":null},{"geonameid":5565711,"name":"Indianola","admin3":"","localeAltName":null},{"geonameid":5553637,"name":"Indianola","admin3":"","localeAltName":null},{"geonameid":5567069,"name":"Loleta","admin3":"","localeAltName":null},{"geonameid":5567477,"name":"Manila","admin3":"","localeAltName":null},{"geonameid":5567770,"name":"McKinleyville","admin3":"","localeAltName":null},{"geonameid":5568092,"name":"Miranda","admin3":"","localeAltName":null},{"geonameid":5568514,"name":"Myrtletown","admin3":"","localeAltName":null},{"geonameid":5569523,"name":"Pine Hills","admin3":"","localeAltName":null},{"geonameid":5570171,"name":"Redway","admin3":"","localeAltName":null},{"geonameid":5570299,"name":"Rio Dell","admin3":"","localeAltName":null},{"geonameid":5570950,"name":"Scotia","admin3":"","localeAltName":null},{"geonameid":5571188,"name":"Shelter Cove","admin3":"","localeAltName":null},{"geonameid":7262521,"name":"Westhaven-Moonstone","admin3":"","localeAltName":null},{"geonameid":5573817,"name":"Willow Creek","admin3":"","localeAltName":null}],"admin3":[{"geonameid":11788551,"name":"City of Ferndale","admin3":"11788551"},{"geonameid":11788609,"name":"City of Eureka","admin3":"11788609"},{"geonameid":11788709,"name":"City of Arcata","admin3":"11788709"},{"geonameid":11788888,"name":"City of Blue Lake","admin3":"11788888"}],"alternateNames":[{"alternatenameId":1632217,"geonameid":5332921,"isoLanguage":"en","alternateName":"California","isPreferredName":true,"isShortName":true,"isColloquial":false,"isHistoric":false}]},"__N_SSG":true}