{"pageProps":{"locale":"en","admin2":{"geonameid":5369578,"name":"Madera County","country":"US","admin1":"CA","admin2":"039","admin3":"","latitude":"37.2180400","longitude":"-119.7626500","localeAltName":null},"admin1":{"geonameid":5332921,"name":"California","admin1":"CA","localeAltName":"California"},"locations":[{"geonameid":5322652,"name":"Ahwahnee","admin3":"","localeAltName":null},{"geonameid":5326418,"name":"Bass Lake","admin3":"","localeAltName":null},{"geonameid":7260929,"name":"Bonadelle Ranchos-Madera Ranchos","admin3":"","localeAltName":null},{"geonameid":5336667,"name":"Chowchilla","admin3":"","localeAltName":null},{"geonameid":5338225,"name":"Coarsegold","admin3":"","localeAltName":null},{"geonameid":5347359,"name":"Fairmead","admin3":"","localeAltName":null},{"geonameid":5369568,"name":"Madera","admin3":"","localeAltName":null},{"geonameid":5369569,"name":"Madera Acres","admin3":"","localeAltName":null},{"geonameid":5378529,"name":"Oakhurst","admin3":"","localeAltName":null},{"geonameid":5381276,"name":"Parksdale","admin3":"","localeAltName":null},{"geonameid":5381320,"name":"Parkwood","admin3":"","localeAltName":null},{"geonameid":5388594,"name":"Rolling Hills","admin3":"","localeAltName":null},{"geonameid":5410943,"name":"Yosemite Lakes","admin3":"","localeAltName":null}],"admin3":[{"geonameid":11788423,"name":"City of Madera","admin3":"11788423"},{"geonameid":11788825,"name":"City of Chowchilla","admin3":"11788825"}],"alternateNames":[{"alternatenameId":1632217,"geonameid":5332921,"isoLanguage":"en","alternateName":"California","isPreferredName":true,"isShortName":true,"isColloquial":false,"isHistoric":false}]},"__N_SSG":true}