{"pageProps":{"locale":"en","admin2":{"geonameid":2638918,"name":"District of Rutland","country":"GB","admin1":"ENG","admin2":"L4","admin3":"","latitude":"52.6666700","longitude":"-0.6666700"},"admin1":{"geonameid":6269131,"name":"England","admin1":"ENG","localeAltName":"England"},"locations":[{"geonameid":2656910,"name":"Ashwell"},{"geonameid":2655935,"name":"Belton"},{"geonameid":2654860,"name":"Braunston"},{"geonameid":2654566,"name":"Brooke"},{"geonameid":2654286,"name":"Burley"},{"geonameid":2654029,"name":"Caldecott"},{"geonameid":2653617,"name":"Casterton"},{"geonameid":2652823,"name":"Clipsham"},{"geonameid":2652264,"name":"Cottesmore"},{"geonameid":2650217,"name":"Edith Weston"},{"geonameid":2650006,"name":"Empingham"},{"geonameid":2649892,"name":"Essendine"},{"geonameid":2649796,"name":"Exton"},{"geonameid":2647934,"name":"Greetham"},{"geonameid":2645741,"name":"Ketton"},{"geonameid":2644932,"name":"Langham"},{"geonameid":2644525,"name":"Lyddington"},{"geonameid":2643090,"name":"Manton"},{"geonameid":2643024,"name":"Market Overton"},{"geonameid":2642235,"name":"Morcott"},{"geonameid":2641310,"name":"North Luffenham"},{"geonameid":2641128,"name":"Oakham"},{"geonameid":2640307,"name":"Pickworth"},{"geonameid":2639914,"name":"Preston"},{"geonameid":2639367,"name":"Ridlington"},{"geonameid":2638902,"name":"Ryhall"},{"geonameid":2638277,"name":"Seaton"},{"geonameid":2637380,"name":"South Luffenham"},{"geonameid":2635860,"name":"Tickencote"},{"geonameid":2635787,"name":"Tinwell"},{"geonameid":2635127,"name":"Upper Hambleton"},{"geonameid":2635101,"name":"Uppingham"},{"geonameid":11592745,"name":"Whissendine"},{"geonameid":2633829,"name":"Wing"}],"admin3":[{"geonameid":7290956,"name":"Exton","admin3":"00FP019"},{"geonameid":7292030,"name":"Morcott","admin3":"00FP035"},{"geonameid":7292225,"name":"Barrowden","admin3":"00FP005"},{"geonameid":7292226,"name":"Bisbrooke","admin3":"00FP008"},{"geonameid":7292227,"name":"Braunston-in-Rutland","admin3":"00FP009"},{"geonameid":7292228,"name":"Clipsham","admin3":"00FP013"},{"geonameid":7292229,"name":"Empingham","admin3":"00FP017"},{"geonameid":7292230,"name":"Essendine","admin3":"00FP018"},{"geonameid":7292231,"name":"Great Casterton","admin3":"00FP021"},{"geonameid":7292232,"name":"Greetham","admin3":"00FP022"},{"geonameid":7292233,"name":"Lyndon","admin3":"00FP031"},{"geonameid":7292234,"name":"Normanton","admin3":"00FP036"},{"geonameid":7292235,"name":"North Luffenham","admin3":"00FP037"},{"geonameid":7292236,"name":"Preston","admin3":"00FP041"},{"geonameid":7292237,"name":"Ryhall","admin3":"00FP043"},{"geonameid":7292238,"name":"South Luffenham","admin3":"00FP045"},{"geonameid":7292239,"name":"Stoke Dry","admin3":"00FP046"},{"geonameid":7292240,"name":"Stretton","admin3":"00FP047"},{"geonameid":7292241,"name":"Thistleton","admin3":"00FP049"},{"geonameid":7292242,"name":"Wing","admin3":"00FP058"},{"geonameid":7293931,"name":"Tickencote","admin3":"00FP051"},{"geonameid":7296053,"name":"Egleton","admin3":"00FP016"},{"geonameid":7297071,"name":"Barrow","admin3":"00FP004"},{"geonameid":7297072,"name":"Beaumont Chase","admin3":"00FP006"},{"geonameid":7297073,"name":"Burley","admin3":"00FP011"},{"geonameid":7297074,"name":"Gunthorpe","admin3":"00FP023"},{"geonameid":7297075,"name":"Hambleton","admin3":"00FP024"},{"geonameid":7297076,"name":"Thorpe By Water","admin3":"00FP050"},{"geonameid":7297077,"name":"Tixover","admin3":"00FP053"},{"geonameid":7297078,"name":"Whitwell","admin3":"00FP057"},{"geonameid":7297079,"name":"Leighfield","admin3":"00FP028"},{"geonameid":7297080,"name":"Martinsthorpe","admin3":"00FP034"},{"geonameid":7297081,"name":"Seaton","admin3":"00FP044"},{"geonameid":7297736,"name":"Belton-in-Rutland","admin3":"00FP007"},{"geonameid":7299052,"name":"Brooke","admin3":"00FP010"},{"geonameid":7300633,"name":"Glaston","admin3":"00FP020"},{"geonameid":7300900,"name":"Barleythorpe","admin3":"00FP003"},{"geonameid":7301035,"name":"Cottesmore","admin3":"00FP014"},{"geonameid":7301042,"name":"Ashwell","admin3":"00FP001"},{"geonameid":7301043,"name":"Ayston","admin3":"00FP002"},{"geonameid":7301044,"name":"Caldecott","admin3":"00FP012"},{"geonameid":7301045,"name":"Tinwell","admin3":"00FP052"},{"geonameid":7301046,"name":"Uppingham","admin3":"00FP054"},{"geonameid":7301047,"name":"Wardley","admin3":"00FP055"},{"geonameid":7301048,"name":"Whissendine","admin3":"00FP056"},{"geonameid":7301049,"name":"Market Overton","admin3":"00FP033"},{"geonameid":7301050,"name":"Oakham","admin3":"00FP038"},{"geonameid":7301051,"name":"Pickworth","admin3":"00FP039"},{"geonameid":7301052,"name":"Ridlington","admin3":"00FP042"},{"geonameid":7301094,"name":"Edith Weston","admin3":"00FP015"},{"geonameid":7301398,"name":"Ketton","admin3":"00FP026"},{"geonameid":7301399,"name":"Langham","admin3":"00FP027"},{"geonameid":7301400,"name":"Little Casterton","admin3":"00FP029"},{"geonameid":7301401,"name":"Lyddington","admin3":"00FP030"},{"geonameid":7301402,"name":"Manton","admin3":"00FP032"},{"geonameid":7301403,"name":"Pilton","admin3":"00FP040"},{"geonameid":7301404,"name":"Teigh","admin3":"00FP048"},{"geonameid":7301630,"name":"Horn","admin3":"00FP025"}],"alternateNames":[{"alternatenameId":1626647,"geonameid":6269131,"isoLanguage":"en","alternateName":"England","isPreferredName":true,"isShortName":true,"isColloquial":false,"isHistoric":false}]},"__N_SSG":true}