{"pageProps":{"locale":"en","admin2":{"geonameid":2648110,"name":"Greater London","country":"GB","admin1":"ENG","admin2":"GLA","admin3":"","latitude":"51.5000000","longitude":"-0.1666700","localeAltName":"Greater London"},"admin1":{"geonameid":6269131,"name":"England","admin1":"ENG","localeAltName":"England"},"locations":[{"geonameid":12048007,"name":"Abbey"},{"geonameid":12048352,"name":"Abbey"},{"geonameid":12048423,"name":"Abbey Road"},{"geonameid":7302135,"name":"Abbey Wood"},{"geonameid":12048178,"name":"Abingdon"},{"geonameid":2657697,"name":"Acton"},{"geonameid":12047983,"name":"Acton Central"},{"geonameid":2657678,"name":"Addington"},{"geonameid":12047937,"name":"Addiscombe"},{"geonameid":12048267,"name":"Addison"},{"geonameid":12048204,"name":"Aldborough"},{"geonameid":11550771,"name":"Aldersbrook"},{"geonameid":12048321,"name":"Aldersgate"},{"geonameid":11550773,"name":"Aldgate"},{"geonameid":12048407,"name":"Alexandra"},{"geonameid":12047910,"name":"Alexandra"},{"geonameid":12048280,"name":"Alibon"},{"geonameid":12048118,"name":"Alperton"},{"geonameid":7289509,"name":"Anerley"},{"geonameid":11777624,"name":"Archway"},{"geonameid":9072593,"name":"Arkley"},{"geonameid":12047932,"name":"Ashburton"},{"geonameid":12048263,"name":"Askew"},{"geonameid":12048262,"name":"Avonmore and Brook Green"},{"geonameid":6691486,"name":"Baker Street"},{"geonameid":2656580,"name":"Balham"},{"geonameid":12048203,"name":"Balham"},{"geonameid":11550785,"name":"Bank"},{"geonameid":6690593,"name":"Barbican"},{"geonameid":2656333,"name":"Barking"},{"geonameid":2656330,"name":"Barkingside"},{"geonameid":12048339,"name":"Barkingside"},{"geonameid":12048148,"name":"Barnehurst"},{"geonameid":2656296,"name":"Barnes"},{"geonameid":2656295,"name":"Barnet"},{"geonameid":12048001,"name":"Barnhill"},{"geonameid":12048062,"name":"Barnhill"},{"geonameid":6690590,"name":"Barnsbury"},{"geonameid":12048296,"name":"Barnsbury"},{"geonameid":8199317,"name":"Barons Court"},{"geonameid":12047931,"name":"Bassishaw"},{"geonameid":6690602,"name":"Battersea"},{"geonameid":12048430,"name":"Bayswater"},{"geonameid":6545243,"name":"Bayswater"},{"geonameid":2656065,"name":"Beckenham"},{"geonameid":2656052,"name":"Beckton"},{"geonameid":6690870,"name":"Becontree"},{"geonameid":12048350,"name":"Becontree"},{"geonameid":6690872,"name":"Becontree Heath"},{"geonameid":6547120,"name":"Beddington Corner"},{"geonameid":10104037,"name":"Beddington Hill"},{"geonameid":12048227,"name":"Beddington North"},{"geonameid":12048215,"name":"Beddington South"},{"geonameid":12047956,"name":"Bedfont"},{"geonameid":12048201,"name":"Bedford"},{"geonameid":6545247,"name":"Belgravia"},{"geonameid":12048100,"name":"Bellingham"},{"geonameid":12048041,"name":"Belmont"},{"geonameid":10104034,"name":"Belmont"},{"geonameid":12048394,"name":"Belsize"},{"geonameid":6690581,"name":"Belsize Park"},{"geonameid":2655929,"name":"Belvedere"},{"geonameid":12047927,"name":"Bensham Manor"},{"geonameid":2655853,"name":"Bermondsey"},{"geonameid":6690818,"name":"Berry's Green"},{"geonameid":12047907,"name":"Berrylands"},{"geonameid":6690989,"name":"Bethnal Green"},{"geonameid":12048288,"name":"Bethnal Green North"},{"geonameid":12048391,"name":"Bethnal Green South"},{"geonameid":12047911,"name":"Beverley"},{"geonameid":2655775,"name":"Bexley","localeAltName":"Bexley"},{"geonameid":2655774,"name":"Bexleyheath"},{"geonameid":2655721,"name":"Bickley"},{"geonameid":2655690,"name":"Biggin Hill"},{"geonameid":11550776,"name":"Billingsgate"},{"geonameid":12048026,"name":"Billingsgate"},{"geonameid":12048081,"name":"Bishop's"},{"geonameid":12048367,"name":"Bishopsgate"},{"geonameid":12048131,"name":"Blackfen and Lamorbey"},{"geonameid":11550821,"name":"Blackfriars"},{"geonameid":6947041,"name":"Blackheath"},{"geonameid":12048119,"name":"Blackheath Westcombe"},{"geonameid":2655438,"name":"Blackwall"},{"geonameid":12048286,"name":"Blackwall and Cubitt Town"},{"geonameid":12048140,"name":"Blendon and Penhill"},{"geonameid":2655333,"name":"Bloomsbury"},{"geonameid":12048275,"name":"Bloomsbury"},{"geonameid":12048333,"name":"Boleyn"},{"geonameid":12048023,"name":"Botwell"},{"geonameid":12048404,"name":"Bounds Green"},{"geonameid":2655076,"name":"Bow"},{"geonameid":12048297,"name":"Bow East"},{"geonameid":12048295,"name":"Bow West"},{"geonameid":12048170,"name":"Bowes"},{"geonameid":12048144,"name":"Brampton"},{"geonameid":12048415,"name":"Bread Street"},{"geonameid":2654789,"name":"Brent"},{"geonameid":2654787,"name":"Brentford"},{"geonameid":12047967,"name":"Brentford"},{"geonameid":7302129,"name":"Brick Lane"},{"geonameid":12048206,"name":"Bridge"},{"geonameid":12048324,"name":"Bridge"},{"geonameid":6690877,"name":"Brixton"},{"geonameid":6692466,"name":"Brixton Hill"},{"geonameid":12047924,"name":"Broad Green"},{"geonameid":12048416,"name":"Broad Street"},{"geonameid":11551040,"name":"Brockley"},{"geonameid":6697033,"name":"Brockley Hill"},{"geonameid":2654588,"name":"Bromley"},{"geonameid":12047952,"name":"Bromley Common and Keston"},{"geonameid":12047942,"name":"Bromley Town"},{"geonameid":12048291,"name":"Bromley-by-Bow"},{"geonameid":12048236,"name":"Brompton"},{"geonameid":12048046,"name":"Brondesbury Park"},{"geonameid":6615602,"name":"Brook Green"},{"geonameid":12047987,"name":"Brooklands"},{"geonameid":12048013,"name":"Brownswood"},{"geonameid":12048399,"name":"Bruce Grove"},{"geonameid":12048019,"name":"Brunel"},{"geonameid":12048074,"name":"Brunswick Park"},{"geonameid":12048089,"name":"Brunswick Park"},{"geonameid":12047929,"name":"Bryanston and Dorset Square"},{"geonameid":12048298,"name":"Bunhill"},{"geonameid":8394363,"name":"Burnt Oak"},{"geonameid":12048173,"name":"Bush Hill Park"},{"geonameid":10104887,"name":"Bushey Mead"},{"geonameid":12048395,"name":"Caledonian"},{"geonameid":3345438,"name":"Camberwell"},{"geonameid":12048087,"name":"Camberwell Green"},{"geonameid":11875492,"name":"Camden Area"},{"geonameid":3345437,"name":"Camden Town"},{"geonameid":12048277,"name":"Camden Town with Primrose Hill"},{"geonameid":12048384,"name":"Campden"},{"geonameid":6692280,"name":"Canary Wharf"},{"geonameid":12047909,"name":"Canbury"},{"geonameid":12048436,"name":"Candlewick"},{"geonameid":12048190,"name":"Cann Hall"},{"geonameid":11549407,"name":"Canning Town"},{"geonameid":12048411,"name":"Canning Town North"},{"geonameid":12048331,"name":"Canning Town South"},{"geonameid":12048373,"name":"Cannon Hill"},{"geonameid":11552742,"name":"Cannon Street"},{"geonameid":12048301,"name":"Canonbury"},{"geonameid":12048037,"name":"Canons"},{"geonameid":8394364,"name":"Canons Park"},{"geonameid":12048278,"name":"Cantelowes"},{"geonameid":2653646,"name":"Carshalton"},{"geonameid":10104036,"name":"Carshalton Beeches"},{"geonameid":12048222,"name":"Carshalton Central"},{"geonameid":10104035,"name":"Carshalton on the Hill"},{"geonameid":12048213,"name":"Carshalton South and Clockhouse"},{"geonameid":6690797,"name":"Castelnau"},{"geonameid":12048363,"name":"Castle Baynard"},{"geonameid":2653516,"name":"Catford"},{"geonameid":12048195,"name":"Catford South"},{"geonameid":12048171,"name":"Cathall"},{"geonameid":12048093,"name":"Cathedrals"},{"geonameid":12047985,"name":"Cavendish"},{"geonameid":12048310,"name":"Cazenove"},{"geonameid":12048344,"name":"Chadwell"},{"geonameid":6690869,"name":"Chadwell Heath"},{"geonameid":12048357,"name":"Chadwell Heath"},{"geonameid":6690583,"name":"Chalk Farm"},{"geonameid":12048187,"name":"Chapel End"},{"geonameid":2653341,"name":"Charing Cross"},{"geonameid":8741036,"name":"Charlton"},{"geonameid":12048031,"name":"Charville"},{"geonameid":12048248,"name":"Chase"},{"geonameid":12048313,"name":"Chatham"},{"geonameid":12048096,"name":"Chaucer"},{"geonameid":2653289,"name":"Cheam"},{"geonameid":12047943,"name":"Cheap"},{"geonameid":2653265,"name":"Chelsea"},{"geonameid":8531799,"name":"Chelsea Embankment"},{"geonameid":2653264,"name":"Chelsfield"},{"geonameid":12047955,"name":"Chelsfield and Pratts Bottom"},{"geonameid":2653229,"name":"Chessington"},{"geonameid":12048434,"name":"Chessington North and Hook"},{"geonameid":12047905,"name":"Chessington South"},{"geonameid":12048066,"name":"Childs Hill"},{"geonameid":2653148,"name":"Chingford"},{"geonameid":12048183,"name":"Chingford Green"},{"geonameid":2653123,"name":"Chislehurst"},{"geonameid":2653121,"name":"Chiswick"},{"geonameid":12047969,"name":"Chiswick Homefields"},{"geonameid":12048003,"name":"Chiswick Riverside"},{"geonameid":12048136,"name":"Christchurch"},{"geonameid":12048209,"name":"Church End"},{"geonameid":12048390,"name":"Church Street"},{"geonameid":12048020,"name":"Churchill"},{"geonameid":2643741,"name":"City of London"},{"geonameid":2634341,"name":"City of Westminster"},{"geonameid":2652951,"name":"Clapham"},{"geonameid":12048151,"name":"Clapham Common"},{"geonameid":6929936,"name":"Clapham Junction"},{"geonameid":8224902,"name":"Clapham North"},{"geonameid":12048075,"name":"Clapham Town"},{"geonameid":12048340,"name":"Clayhall"},{"geonameid":12048334,"name":"Clementswood"},{"geonameid":6690574,"name":"Clerkenwell"},{"geonameid":12047981,"name":"Cleveland"},{"geonameid":12047988,"name":"Clissold"},{"geonameid":12047938,"name":"Clock House"},{"geonameid":2652672,"name":"Cockfosters"},{"geonameid":11552485,"name":"Coldblow"},{"geonameid":12048154,"name":"Coldharbour"},{"geonameid":12048113,"name":"Coldharbour and New Eltham"},{"geonameid":12048175,"name":"Coleman Street"},{"geonameid":8394367,"name":"Colindale"},{"geonameid":12048082,"name":"College"},{"geonameid":12048266,"name":"College Park and Old Oak"},{"geonameid":6690802,"name":"Collier Row"},{"geonameid":6691837,"name":"Colliers Wood"},{"geonameid":12048264,"name":"Colville"},{"geonameid":12048150,"name":"Colyers"},{"geonameid":12047915,"name":"Coombe Hill"},{"geonameid":12048428,"name":"Coombe Vale"},{"geonameid":12047949,"name":"Copers Cope"},{"geonameid":12048139,"name":"Coppetts"},{"geonameid":12048015,"name":"Cordwainer"},{"geonameid":12048351,"name":"Cornhill"},{"geonameid":2652249,"name":"Coulsdon"},{"geonameid":12047918,"name":"Coulsdon East"},{"geonameid":12047920,"name":"Coulsdon West"},{"geonameid":12048226,"name":"Courtfield"},{"geonameid":2652222,"name":"Covent Garden"},{"geonameid":2652192,"name":"Cowley"},{"geonameid":12048197,"name":"Cranbrook"},{"geonameid":2652085,"name":"Cranford"},{"geonameid":6690806,"name":"Cranham"},{"geonameid":12048221,"name":"Cray Meadows"},{"geonameid":12047917,"name":"Cray Valley East"},{"geonameid":12047960,"name":"Cray Valley West"},{"geonameid":12048133,"name":"Crayford"},{"geonameid":12048358,"name":"Cremorne"},{"geonameid":12048241,"name":"Cricket Green"},{"geonameid":2651984,"name":"Cricklewood"},{"geonameid":12048365,"name":"Cripplegate"},{"geonameid":11551042,"name":"Crofton Park"},{"geonameid":12047930,"name":"Croham"},{"geonameid":6690565,"name":"Crouch End"},{"geonameid":2651817,"name":"Croydon"},{"geonameid":6693937,"name":"Crystal Palace"},{"geonameid":2651790,"name":"Cubitt Town"},{"geonameid":2651779,"name":"Cudham"},{"geonameid":12048335,"name":"Custom House"},{"geonameid":2651621,"name":"Dagenham"},{"geonameid":12048306,"name":"Dalston"},{"geonameid":6695926,"name":"Dalston"},{"geonameid":12048141,"name":"Danson Park"},{"geonameid":12047941,"name":"Darwin"},{"geonameid":12048403,"name":"De Beauvoir"},{"geonameid":2651349,"name":"Deptford"},{"geonameid":2651149,"name":"Dollis Hill"},{"geonameid":12047947,"name":"Dormers Wells"},{"geonameid":12048323,"name":"Dowgate"},{"geonameid":2651033,"name":"Downe"},{"geonameid":12048102,"name":"Downham"},{"geonameid":12048065,"name":"Dudden Hill"},{"geonameid":2650803,"name":"Dulwich"},{"geonameid":12048167,"name":"Dundonald"},{"geonameid":2650567,"name":"Ealing"},{"geonameid":12047989,"name":"Ealing Broadway"},{"geonameid":9409254,"name":"Ealing Broadway"},{"geonameid":12047925,"name":"Ealing Common"},{"geonameid":2650549,"name":"Earls Court"},{"geonameid":8063096,"name":"Earlsfield"},{"geonameid":12048251,"name":"Earlsfield"},{"geonameid":8259942,"name":"East Acton"},{"geonameid":12048142,"name":"East Barnet"},{"geonameid":2650502,"name":"East Barnet"},{"geonameid":10345365,"name":"East Bedfont"},{"geonameid":2650467,"name":"East Dulwich"},{"geonameid":12047975,"name":"East Dulwich"},{"geonameid":2650444,"name":"East Finchley"},{"geonameid":2650430,"name":"East Ham"},{"geonameid":12048412,"name":"East Ham Central"},{"geonameid":12048317,"name":"East Ham North"},{"geonameid":12048320,"name":"East Ham South"},{"geonameid":12048290,"name":"East India and Lansbury"},{"geonameid":6692464,"name":"East London"},{"geonameid":12048149,"name":"East Putney"},{"geonameid":11551053,"name":"East Sheen"},{"geonameid":12048172,"name":"East Walworth"},{"geonameid":12048237,"name":"East Wickham"},{"geonameid":12048359,"name":"Eastbrook"},{"geonameid":12048137,"name":"Eastbury"},{"geonameid":2650479,"name":"Eastcote"},{"geonameid":12048028,"name":"Eastcote and East Ruislip"},{"geonameid":2650228,"name":"Edgware"},{"geonameid":12048054,"name":"Edgware"},{"geonameid":2650209,"name":"Edmonton"},{"geonameid":12048158,"name":"Edmonton Green"},{"geonameid":6691964,"name":"Elephant & Castle"},{"geonameid":12047986,"name":"Elm Park"},{"geonameid":6690805,"name":"Elm Park"},{"geonameid":2650077,"name":"Elmers End"},{"geonameid":2650042,"name":"Eltham"},{"geonameid":12048116,"name":"Eltham North"},{"geonameid":12048114,"name":"Eltham South"},{"geonameid":12048117,"name":"Eltham West"},{"geonameid":12047957,"name":"Elthorne"},{"geonameid":12048035,"name":"Emerson Park"},{"geonameid":12048192,"name":"Endlebury"},{"geonameid":12048168,"name":"Enfield Highway"},{"geonameid":2649996,"name":"Enfield Lock"},{"geonameid":2649997,"name":"Enfield Town","localeAltName":"Enfield"},{"geonameid":2649937,"name":"Erith"},{"geonameid":6690576,"name":"Euston"},{"geonameid":12048196,"name":"Evelyn"},{"geonameid":12047926,"name":"Fairfield"},{"geonameid":12048254,"name":"Fairfield"},{"geonameid":12048202,"name":"Fairlop"},{"geonameid":11550851,"name":"Fairlop Waters"},{"geonameid":12048135,"name":"Falconwood and Welling"},{"geonameid":12047966,"name":"Faraday"},{"geonameid":2649671,"name":"Farnborough"},{"geonameid":12047940,"name":"Farnborough and Crofton"},{"geonameid":6690573,"name":"Farringdon"},{"geonameid":12048360,"name":"Farringdon Within"},{"geonameid":12048364,"name":"Farringdon Without"},{"geonameid":2649571,"name":"Feltham"},{"geonameid":12047972,"name":"Feltham North"},{"geonameid":12047970,"name":"Feltham West"},{"geonameid":11552736,"name":"Fenchurch Street"},{"geonameid":12048067,"name":"Ferndale"},{"geonameid":12047936,"name":"Fieldway"},{"geonameid":12048244,"name":"Figge's Marsh"},{"geonameid":2649441,"name":"Finchley"},{"geonameid":12048070,"name":"Finchley Church End"},{"geonameid":2649400,"name":"Finsbury"},{"geonameid":6690588,"name":"Finsbury Park"},{"geonameid":12048078,"name":"Finsbury Park"},{"geonameid":6545172,"name":"Fitzrovia"},{"geonameid":11552741,"name":"Fleet Street"},{"geonameid":2649244,"name":"Foots Cray"},{"geonameid":12048159,"name":"Forest"},{"geonameid":6690991,"name":"Forest Gate"},{"geonameid":12048101,"name":"Forest Gate North"},{"geonameid":12048337,"name":"Forest Gate South"},{"geonameid":12048157,"name":"Forest Hill"},{"geonameid":2649216,"name":"Forest Hill"},{"geonameid":12048322,"name":"Fortis Green"},{"geonameid":12048281,"name":"Fortune Green"},{"geonameid":2649055,"name":"Friern Barnet"},{"geonameid":12048283,"name":"Frognal and Fitzjohns"},{"geonameid":12048058,"name":"Fryent"},{"geonameid":2648997,"name":"Fulham"},{"geonameid":12048258,"name":"Fulham Broadway"},{"geonameid":12048214,"name":"Fulham Reach"},{"geonameid":12048210,"name":"Fullwell"},{"geonameid":12048234,"name":"Fulwell and Hampton Hill"},{"geonameid":12048252,"name":"Furzedown"},{"geonameid":11550603,"name":"Furzedown"},{"geonameid":11777627,"name":"Gants Hill"},{"geonameid":12048068,"name":"Garden Suburb"},{"geonameid":12048345,"name":"Gascoigne"},{"geonameid":6690864,"name":"Gidea Park"},{"geonameid":12048071,"name":"Gipsy Hill"},{"geonameid":12048126,"name":"Glyndon"},{"geonameid":12048270,"name":"Golborne"},{"geonameid":7535506,"name":"Golders Green"},{"geonameid":12048125,"name":"Golders Green"},{"geonameid":2648330,"name":"Goodmayes"},{"geonameid":12048008,"name":"Gooshays"},{"geonameid":12048342,"name":"Goresbrook"},{"geonameid":12048387,"name":"Gospel Oak"},{"geonameid":12048164,"name":"Grange"},{"geonameid":12048094,"name":"Grange"},{"geonameid":12048161,"name":"Graveney"},{"geonameid":12048188,"name":"Graveney"},{"geonameid":12048057,"name":"Green Street East"},{"geonameid":12048044,"name":"Green Street West"},{"geonameid":2647972,"name":"Greenford"},{"geonameid":12047976,"name":"Greenford Broadway"},{"geonameid":12047982,"name":"Greenford Green"},{"geonameid":6693776,"name":"Greenhill"},{"geonameid":2647937,"name":"Greenwich"},{"geonameid":12048120,"name":"Greenwich West"},{"geonameid":12048427,"name":"Grove"},{"geonameid":12048129,"name":"Grove Green"},{"geonameid":12048097,"name":"Grove Park"},{"geonameid":9884146,"name":"Grove Park"},{"geonameid":10272879,"name":"Gunnersbury"},{"geonameid":2647703,"name":"Hackbridge"},{"geonameid":2647694,"name":"Hackney"},{"geonameid":12048312,"name":"Hackney Central"},{"geonameid":12047964,"name":"Hackney Downs"},{"geonameid":12047994,"name":"Hacton"},{"geonameid":6693771,"name":"Hadley Wood"},{"geonameid":12048294,"name":"Haggerston"},{"geonameid":6690865,"name":"Hainault"},{"geonameid":12048435,"name":"Hale"},{"geonameid":10104879,"name":"Hale End"},{"geonameid":12048189,"name":"Hale End and Highams Park"},{"geonameid":6949212,"name":"Ham"},{"geonameid":12048231,"name":"Ham, Petersham and Richmond Riverside"},{"geonameid":2647567,"name":"Hammersmith"},{"geonameid":12048260,"name":"Hammersmith Broadway"},{"geonameid":2647553,"name":"Hampstead"},{"geonameid":12048285,"name":"Hampstead Town"},{"geonameid":2647550,"name":"Hampton"},{"geonameid":6620446,"name":"Hampton Court"},{"geonameid":2647547,"name":"Hampton Hill"},{"geonameid":12048165,"name":"Hampton North"},{"geonameid":12048229,"name":"Hampton Wick"},{"geonameid":9613008,"name":"Hampton Wick"},{"geonameid":10104883,"name":"Hamsey Green"},{"geonameid":12047984,"name":"Hanger Hill"},{"geonameid":12048402,"name":"Hans Town"},{"geonameid":2647516,"name":"Hanwell"},{"geonameid":2647514,"name":"Hanworth"},{"geonameid":12047990,"name":"Hanworth Park"},{"geonameid":2647487,"name":"Harefield"},{"geonameid":2647476,"name":"Haringey"},{"geonameid":2647468,"name":"Harlesden"},{"geonameid":7522532,"name":"Harlington"},{"geonameid":6951076,"name":"Harmondsworth"},{"geonameid":6690868,"name":"Harold Wood"},{"geonameid":8581595,"name":"Harringay"},{"geonameid":2647425,"name":"Harrow"},{"geonameid":2647421,"name":"Harrow on the Hill"},{"geonameid":12048417,"name":"Harrow Road"},{"geonameid":2647420,"name":"Harrow Weald"},{"geonameid":12048105,"name":"Haselbury"},{"geonameid":2647351,"name":"Hatch End"},{"geonameid":12048194,"name":"Hatch Lane"},{"geonameid":2647307,"name":"Havering atte Bower"},{"geonameid":12048005,"name":"Havering Park"},{"geonameid":12048388,"name":"Haverstock"},{"geonameid":2647261,"name":"Hayes"},{"geonameid":2647262,"name":"Hayes"},{"geonameid":12047951,"name":"Hayes and Coney Hall"},{"geonameid":10345364,"name":"Headstone"},{"geonameid":12048088,"name":"Headstone North"},{"geonameid":12048022,"name":"Headstone South"},{"geonameid":12048355,"name":"Heath"},{"geonameid":12047935,"name":"Heathfield"},{"geonameid":12048230,"name":"Heathfield"},{"geonameid":7284876,"name":"Heathrow"},{"geonameid":12048047,"name":"Heathrow Villages"},{"geonameid":12048006,"name":"Heaton"},{"geonameid":12048143,"name":"Hendon"},{"geonameid":2647116,"name":"Hendon"},{"geonameid":6941035,"name":"Herne Hill"},{"geonameid":12048080,"name":"Herne Hill"},{"geonameid":2647027,"name":"Heston"},{"geonameid":12047973,"name":"Heston Central"},{"geonameid":12047963,"name":"Heston East"},{"geonameid":12047962,"name":"Heston West"},{"geonameid":6941037,"name":"High Barnet"},{"geonameid":12048179,"name":"High Street"},{"geonameid":9883957,"name":"Higham Hill"},{"geonameid":10104878,"name":"Highams Park"},{"geonameid":2646976,"name":"Highbury"},{"geonameid":12048299,"name":"Highbury East"},{"geonameid":12047933,"name":"Highbury West"},{"geonameid":2646958,"name":"Highgate"},{"geonameid":12048318,"name":"Highgate"},{"geonameid":12048160,"name":"Highlands"},{"geonameid":2646895,"name":"Hillingdon"},{"geonameid":12048021,"name":"Hillingdon East"},{"geonameid":12048303,"name":"Hillrise"},{"geonameid":12048247,"name":"Hillside"},{"geonameid":11611173,"name":"Hither Green"},{"geonameid":12047979,"name":"Hobbayne"},{"geonameid":12048180,"name":"Hoe Street"},{"geonameid":2646781,"name":"Holborn"},{"geonameid":12048276,"name":"Holborn and Covent Garden"},{"geonameid":12048268,"name":"Holland"},{"geonameid":8315400,"name":"Holloway"},{"geonameid":6940958,"name":"Honor Oak Park"},{"geonameid":2646653,"name":"Hook"},{"geonameid":6690863,"name":"Hornchurch"},{"geonameid":2646580,"name":"Hornsey"},{"geonameid":2646517,"name":"Hounslow"},{"geonameid":12048421,"name":"Hounslow Central"},{"geonameid":6690874,"name":"Hounslow East"},{"geonameid":12047971,"name":"Hounslow Heath"},{"geonameid":12047950,"name":"Hounslow South"},{"geonameid":6690873,"name":"Hounslow West"},{"geonameid":2646476,"name":"Hoxton"},{"geonameid":12048386,"name":"Hyde Park"},{"geonameid":12048009,"name":"Hylands"},{"geonameid":2646306,"name":"Ickenham"},{"geonameid":2646277,"name":"Ilford"},{"geonameid":12048002,"name":"Isleworth"},{"geonameid":2646004,"name":"Isleworth"},{"geonameid":2646003,"name":"Islington"},{"geonameid":12048166,"name":"Jubilee"},{"geonameid":12048289,"name":"Junction"},{"geonameid":12047958,"name":"Kelsey and Eden Park"},{"geonameid":2645821,"name":"Kenley"},{"geonameid":6545174,"name":"Kennington"},{"geonameid":6941039,"name":"Kensal Green"},{"geonameid":2645801,"name":"Kensington"},{"geonameid":6690587,"name":"Kentish Town"},{"geonameid":2645788,"name":"Kenton"},{"geonameid":12048064,"name":"Kenton"},{"geonameid":12048098,"name":"Kenton East"},{"geonameid":12048034,"name":"Kenton West"},{"geonameid":2645758,"name":"Keston"},{"geonameid":2645740,"name":"Kew"},{"geonameid":2645738,"name":"Kew Gardens"},{"geonameid":2645737,"name":"Kew Green"},{"geonameid":2645726,"name":"Kidbrooke"},{"geonameid":12048122,"name":"Kidbrooke with Hornfair"},{"geonameid":6690572,"name":"Kilburn"},{"geonameid":12048274,"name":"Kilburn"},{"geonameid":12048052,"name":"Kilburn"},{"geonameid":6690589,"name":"King's Cross"},{"geonameid":12048279,"name":"King's Cross"},{"geonameid":12048308,"name":"King's Park"},{"geonameid":7302144,"name":"Kings Cross"},{"geonameid":8394366,"name":"Kingsbury"},{"geonameid":9257619,"name":"Kingsland"},{"geonameid":6690829,"name":"Kingston upon Thames"},{"geonameid":12048121,"name":"Knight's Hill"},{"geonameid":6690580,"name":"Knightsbridge"},{"geonameid":12048010,"name":"Knightsbridge and Belgravia"},{"geonameid":12047923,"name":"Lady Margaret"},{"geonameid":11551041,"name":"Ladywell"},{"geonameid":6545250,"name":"Lambeth"},{"geonameid":12048385,"name":"Lancaster Gate"},{"geonameid":12048414,"name":"Langbourn"},{"geonameid":12048156,"name":"Larkhall"},{"geonameid":12048191,"name":"Larkswood"},{"geonameid":12048372,"name":"Latchmere"},{"geonameid":12048207,"name":"Lavender Fields"},{"geonameid":12048185,"name":"Lea Bridge"},{"geonameid":12048307,"name":"Leabridge"},{"geonameid":10104060,"name":"Leaves Green"},{"geonameid":9730993,"name":"Lee"},{"geonameid":12048024,"name":"Lee Green"},{"geonameid":12048153,"name":"Lesnes Abbey"},{"geonameid":2644556,"name":"Lewisham"},{"geonameid":12048108,"name":"Lewisham Central"},{"geonameid":2644542,"name":"Leyton"},{"geonameid":12048292,"name":"Leyton"},{"geonameid":6692921,"name":"Leytonstone"},{"geonameid":12048147,"name":"Lime Street"},{"geonameid":2644497,"name":"Limehouse"},{"geonameid":12048343,"name":"Little Ilford"},{"geonameid":12048389,"name":"Little Venice"},{"geonameid":12048091,"name":"Livesey"},{"geonameid":9072609,"name":"Locksbottom"},{"geonameid":2643743,"name":"London"},{"geonameid":12048354,"name":"Longbridge"},{"geonameid":12048128,"name":"Longlands"},{"geonameid":12048246,"name":"Longthornton"},{"geonameid":12048314,"name":"Lordship"},{"geonameid":6691845,"name":"Lower Clapton"},{"geonameid":12048162,"name":"Lower Edmonton"},{"geonameid":8128644,"name":"Lower Edmonton"},{"geonameid":2643516,"name":"Lower Holloway"},{"geonameid":12048374,"name":"Lower Morden"},{"geonameid":12048169,"name":"Loxford"},{"geonameid":11552738,"name":"Ludgate Hill"},{"geonameid":6690798,"name":"Maida Hill"},{"geonameid":2643190,"name":"Maida Vale"},{"geonameid":2643162,"name":"Malden"},{"geonameid":12047977,"name":"Manor"},{"geonameid":11550772,"name":"Manor Park"},{"geonameid":11550791,"name":"Mansion House"},{"geonameid":12048053,"name":"Mapesbury"},{"geonameid":7536164,"name":"Marble Arch"},{"geonameid":12048186,"name":"Markhouse"},{"geonameid":11591731,"name":"Marks Gate"},{"geonameid":12048039,"name":"Marlborough"},{"geonameid":6545170,"name":"Marylebone"},{"geonameid":12048425,"name":"Marylebone High Street"},{"geonameid":6690803,"name":"Mawneys"},{"geonameid":12048347,"name":"Mayesbrook"},{"geonameid":2642878,"name":"Mayfair"},{"geonameid":12048182,"name":"Mayfield"},{"geonameid":6544930,"name":"Merton Park"},{"geonameid":12048112,"name":"Middle Park and Sutcliffe"},{"geonameid":10177320,"name":"Middlesex"},{"geonameid":12048304,"name":"Mildmay"},{"geonameid":6690990,"name":"Mile End"},{"geonameid":12048392,"name":"Mile End and Globe Town"},{"geonameid":12048396,"name":"Mile End East"},{"geonameid":2642514,"name":"Mill Hill"},{"geonameid":8394365,"name":"Mill Hill East"},{"geonameid":2642487,"name":"Millwall"},{"geonameid":2642414,"name":"Mitcham"},{"geonameid":12048212,"name":"Monkhams"},{"geonameid":11550790,"name":"Monument"},{"geonameid":2642233,"name":"Morden"},{"geonameid":11551058,"name":"Mortlake"},{"geonameid":12048233,"name":"Mortlake and Barnes Common"},{"geonameid":6690816,"name":"Mottingham","localeAltName":"Mottingham"},{"geonameid":12047959,"name":"Mottingham and Chislehurst North"},{"geonameid":6690175,"name":"Mount Pleasant"},{"geonameid":12048382,"name":"Munster"},{"geonameid":6694222,"name":"Muswell Hill"},{"geonameid":2641844,"name":"Neasden"},{"geonameid":12047928,"name":"New Addington"},{"geonameid":2641727,"name":"New Barnet"},{"geonameid":2641725,"name":"New Bedfont"},{"geonameid":12048110,"name":"New Cross"},{"geonameid":2641661,"name":"New Cross"},{"geonameid":6690817,"name":"New Eltham","localeAltName":"New Eltham"},{"geonameid":2641617,"name":"New Malden"},{"geonameid":12048309,"name":"New River"},{"geonameid":2641569,"name":"New Southgate"},{"geonameid":12048198,"name":"Newbury"},{"geonameid":12047995,"name":"Newington"},{"geonameid":12047968,"name":"Nightingale"},{"geonameid":6690821,"name":"Nine Elms","localeAltName":"Nine Elms"},{"geonameid":12048408,"name":"Noel Park"},{"geonameid":12048211,"name":"Nonsuch"},{"geonameid":9409273,"name":"Norbiton"},{"geonameid":2641462,"name":"Norbury"},{"geonameid":12048269,"name":"Norland"},{"geonameid":2641437,"name":"North Acton"},{"geonameid":10377793,"name":"North Cheam"},{"geonameid":12048228,"name":"North End"},{"geonameid":12048127,"name":"North End"},{"geonameid":6694203,"name":"North Finchley"},{"geonameid":12047978,"name":"North Greenford"},{"geonameid":2641326,"name":"North Kensington"},{"geonameid":6692461,"name":"North London"},{"geonameid":2641291,"name":"North Ockendon"},{"geonameid":12048232,"name":"North Richmond"},{"geonameid":6692462,"name":"North West London"},{"geonameid":2641215,"name":"North Woolwich"},{"geonameid":12048255,"name":"Northcote"},{"geonameid":12048011,"name":"Northfield"},{"geonameid":2641290,"name":"Northolt"},{"geonameid":12048012,"name":"Northolt Mandeville"},{"geonameid":12047974,"name":"Northolt West End"},{"geonameid":12048146,"name":"Northumberland Heath"},{"geonameid":12048329,"name":"Northumberland Park"},{"geonameid":12048055,"name":"Northwick Park"},{"geonameid":2641216,"name":"Northwood"},{"geonameid":12048029,"name":"Northwood Hills"},{"geonameid":2641179,"name":"Norwood"},{"geonameid":6690875,"name":"Norwood Green"},{"geonameid":12048261,"name":"Notting Barns"},{"geonameid":2641168,"name":"Notting Hill"},{"geonameid":8199010,"name":"Notting Hill Gate"},{"geonameid":6941034,"name":"Nunhead"},{"geonameid":12048072,"name":"Oakleigh"},{"geonameid":6690783,"name":"Oakwood"},{"geonameid":6619881,"name":"Old Bailey"},{"geonameid":8030214,"name":"Old Coulsdon"},{"geonameid":7302128,"name":"Old Kent Road"},{"geonameid":12047912,"name":"Old Malden"},{"geonameid":8449549,"name":"Old Oak Common"},{"geonameid":6690594,"name":"Old Street"},{"geonameid":2640894,"name":"Orpington"},{"geonameid":8604716,"name":"Osterley"},{"geonameid":12047965,"name":"Osterley and Spring Grove"},{"geonameid":6690601,"name":"Oval"},{"geonameid":6691484,"name":"Oxford Circus"},{"geonameid":2640692,"name":"Paddington"},{"geonameid":12048381,"name":"Palace Riverside"},{"geonameid":2640667,"name":"Palmers Green"},{"geonameid":11669856,"name":"Park Royal"},{"geonameid":12048362,"name":"Parsloes"},{"geonameid":12048378,"name":"Parsons Green and Walham"},{"geonameid":8224580,"name":"Peckham"},{"geonameid":12048086,"name":"Peckham Rye"},{"geonameid":12048193,"name":"Pembridge"},{"geonameid":6941038,"name":"Penge"},{"geonameid":12047944,"name":"Penge and Cator"},{"geonameid":12048115,"name":"Peninsula"},{"geonameid":2640368,"name":"Perivale"},{"geonameid":12048177,"name":"Perry Vale"},{"geonameid":12047993,"name":"Pettits"},{"geonameid":12047946,"name":"Petts Wood and Knoll"},{"geonameid":6545249,"name":"Pimlico"},{"geonameid":12048030,"name":"Pinkwell"},{"geonameid":2640275,"name":"Pinner"},{"geonameid":12048036,"name":"Pinner South"},{"geonameid":8128646,"name":"Plaistow"},{"geonameid":12047953,"name":"Plaistow and Sundridge"},{"geonameid":12048376,"name":"Plaistow North"},{"geonameid":12048336,"name":"Plaistow South"},{"geonameid":2640201,"name":"Plumstead"},{"geonameid":12048124,"name":"Plumstead"},{"geonameid":12048245,"name":"Pollards Hill"},{"geonameid":2640140,"name":"Ponders End"},{"geonameid":2640091,"name":"Poplar"},{"geonameid":12048155,"name":"Portsoken"},{"geonameid":2639919,"name":"Preston"},{"geonameid":6690582,"name":"Primrose Hill"},{"geonameid":12047939,"name":"Prince's"},{"geonameid":2639868,"name":"Puddle Dock"},{"geonameid":2639842,"name":"Purley"},{"geonameid":7281588,"name":"Purley Way"},{"geonameid":2639835,"name":"Putney"},{"geonameid":9884533,"name":"Putney Village"},{"geonameid":12048253,"name":"Queen's Gate"},{"geonameid":12048426,"name":"Queen's Park"},{"geonameid":12048413,"name":"Queenhithe"},{"geonameid":6940959,"name":"Queens Park"},{"geonameid":12048410,"name":"Queensbridge"},{"geonameid":12048040,"name":"Queensbury"},{"geonameid":12048050,"name":"Queensbury"},{"geonameid":12048257,"name":"Queenstown"},{"geonameid":2639690,"name":"Rainham"},{"geonameid":12048017,"name":"Rainham and Wennington"},{"geonameid":12048371,"name":"Ravensbury"},{"geonameid":12048259,"name":"Ravenscourt Park"},{"geonameid":12048045,"name":"Rayners Lane"},{"geonameid":2639581,"name":"Raynes Park"},{"geonameid":11550852,"name":"Redbridge"},{"geonameid":12048271,"name":"Redcliffe"},{"geonameid":12048393,"name":"Regent's Park"},{"geonameid":12048420,"name":"Regent's Park"},{"geonameid":2639389,"name":"Richmond"},{"geonameid":12048348,"name":"River"},{"geonameid":11591737,"name":"Riverside"},{"geonameid":12048083,"name":"Riverside"},{"geonameid":12048200,"name":"Roding"},{"geonameid":2639223,"name":"Roehampton"},{"geonameid":12048249,"name":"Roehampton and Putney Heath"},{"geonameid":2639192,"name":"Romford"},{"geonameid":12047991,"name":"Romford Town"},{"geonameid":2639091,"name":"Rotherhithe"},{"geonameid":12048048,"name":"Roxbourne"},{"geonameid":12048033,"name":"Roxeth"},{"geonameid":12048330,"name":"Royal Docks"},{"geonameid":12048273,"name":"Royal Hospital"},{"geonameid":2638976,"name":"Ruislip"},{"geonameid":6690804,"name":"Rush Green","localeAltName":"Rush Green"},{"geonameid":12048106,"name":"Rushey Green"},{"geonameid":10858976,"name":"Russell Square"},{"geonameid":2638707,"name":"Saint Pancras"},{"geonameid":2638595,"name":"Sanderstead"},{"geonameid":9353159,"name":"Sands End"},{"geonameid":12048419,"name":"Selhurst"},{"geonameid":10104884,"name":"Selsdon"},{"geonameid":12047919,"name":"Selsdon and Ballards"},{"geonameid":2638188,"name":"Seven Kings"},{"geonameid":8199318,"name":"Seven Sisters"},{"geonameid":12048325,"name":"Seven Sisters"},{"geonameid":6690595,"name":"Shadwell"},{"geonameid":12048375,"name":"Shaftesbury"},{"geonameid":12048265,"name":"Shepherd's Bush Green"},{"geonameid":2638043,"name":"Shepherds Bush"},{"geonameid":2637935,"name":"Shirley"},{"geonameid":2637920,"name":"Shooters Hill"},{"geonameid":2637918,"name":"Shoreditch"},{"geonameid":10793747,"name":"Shortlands"},{"geonameid":2637861,"name":"Sidcup"},{"geonameid":2637825,"name":"Silvertown"},{"geonameid":10377777,"name":"Single Street"},{"geonameid":2637678,"name":"Slade Green"},{"geonameid":2637595,"name":"Snaresbrook"},{"geonameid":6545173,"name":"Soho"},{"geonameid":12047948,"name":"South Acton"},{"geonameid":6545251,"name":"South Bank"},{"geonameid":6692465,"name":"South Bermondsey"},{"geonameid":12048085,"name":"South Camberwell"},{"geonameid":6690862,"name":"South Croydon"},{"geonameid":6690988,"name":"South Hackney"},{"geonameid":8299557,"name":"South Hampstead"},{"geonameid":12048018,"name":"South Hornchurch"},{"geonameid":2637395,"name":"South Kensington"},{"geonameid":6690822,"name":"South Lambeth","localeAltName":"South Lambeth"},{"geonameid":2637357,"name":"South Norwood"},{"geonameid":12048239,"name":"South Richmond"},{"geonameid":12048027,"name":"South Ruislip"},{"geonameid":12048356,"name":"South Twickenham"},{"geonameid":6692463,"name":"South West London"},{"geonameid":6691840,"name":"South Wimbledon"},{"geonameid":6696365,"name":"South Woodford"},{"geonameid":2637490,"name":"Southall"},{"geonameid":12047954,"name":"Southall Broadway"},{"geonameid":12048004,"name":"Southall Green"},{"geonameid":12048109,"name":"Southbury"},{"geonameid":12047921,"name":"Southfield"},{"geonameid":6941032,"name":"Southfields"},{"geonameid":12048174,"name":"Southgate"},{"geonameid":2637418,"name":"Southgate"},{"geonameid":12048282,"name":"Southgate Green"},{"geonameid":2637299,"name":"Southwark"},{"geonameid":2637221,"name":"Spitalfields"},{"geonameid":12048397,"name":"Spitalfields and Banglatown"},{"geonameid":12048315,"name":"Springfield"},{"geonameid":12047998,"name":"Squirrel's Heath"},{"geonameid":6615507,"name":"St James's"},{"geonameid":2638768,"name":"St John's Wood"},{"geonameid":2638739,"name":"St Mary Cray"},{"geonameid":11550783,"name":"St Paul's"},{"geonameid":12047996,"name":"St. Andrew's"},{"geonameid":12048409,"name":"St. Ann's"},{"geonameid":12048383,"name":"St. Charles"},{"geonameid":12048433,"name":"St. Dunstan's and Stepney Green"},{"geonameid":12048302,"name":"St. George's"},{"geonameid":12048238,"name":"St. Helier"},{"geonameid":12048353,"name":"St. Helier"},{"geonameid":12048429,"name":"St. James"},{"geonameid":12048284,"name":"St. Katharine's and Wapping"},{"geonameid":12048042,"name":"St. Leonard's"},{"geonameid":12048370,"name":"St. Margarets and North Twickenham"},{"geonameid":12047916,"name":"St. Mark's"},{"geonameid":12048134,"name":"St. Mary's"},{"geonameid":12048380,"name":"St. Mary's"},{"geonameid":12048256,"name":"St. Mary's Park"},{"geonameid":12048092,"name":"St. Michael's"},{"geonameid":12048079,"name":"St. Pancras and Somers Town"},{"geonameid":12048398,"name":"St. Peter's"},{"geonameid":11669854,"name":"Stamford Hill"},{"geonameid":12048272,"name":"Stanley"},{"geonameid":2637063,"name":"Stanmore"},{"geonameid":12048043,"name":"Stanmore Park"},{"geonameid":2636948,"name":"Stepney"},{"geonameid":6690823,"name":"Stockwell","localeAltName":"Stockwell"},{"geonameid":12048424,"name":"Stockwell"},{"geonameid":2636843,"name":"Stoke Newington"},{"geonameid":12048400,"name":"Stoke Newington Central"},{"geonameid":12048056,"name":"Stonebridge"},{"geonameid":12048223,"name":"Stonecot"},{"geonameid":2636714,"name":"Stratford"},{"geonameid":12048332,"name":"Stratford and New Town"},{"geonameid":2636677,"name":"Strawberry Hill"},{"geonameid":2636675,"name":"Streatham"},{"geonameid":6691950,"name":"Streatham Hill"},{"geonameid":12048077,"name":"Streatham South"},{"geonameid":12048051,"name":"Streatham Wells"},{"geonameid":12048405,"name":"Stroud Green"},{"geonameid":2636565,"name":"Sudbury"},{"geonameid":11551080,"name":"Summerstown"},{"geonameid":6690866,"name":"Surbiton"},{"geonameid":12047913,"name":"Surbiton Hill"},{"geonameid":12048095,"name":"Surrey Docks"},{"geonameid":6941040,"name":"Surrey Quays"},{"geonameid":2636503,"name":"Sutton"},{"geonameid":12048361,"name":"Sutton Central"},{"geonameid":12048220,"name":"Sutton North"},{"geonameid":12048145,"name":"Sutton South"},{"geonameid":12048219,"name":"Sutton West"},{"geonameid":6941041,"name":"Swiss Cottage"},{"geonameid":6693031,"name":"Sydenham"},{"geonameid":12047961,"name":"Syon"},{"geonameid":12048401,"name":"Tachbrook"},{"geonameid":2636147,"name":"Teddington"},{"geonameid":12047980,"name":"Telegraph Hill"},{"geonameid":12048346,"name":"Thames"},{"geonameid":12048250,"name":"Thamesfield"},{"geonameid":11551039,"name":"Thamesmead"},{"geonameid":12047999,"name":"Thamesmead East"},{"geonameid":12048152,"name":"Thamesmead Moorings"},{"geonameid":2636038,"name":"The Hyde"},{"geonameid":12048090,"name":"The Lane"},{"geonameid":6690799,"name":"The Ridgeway"},{"geonameid":12048224,"name":"The Wrythe"},{"geonameid":12048061,"name":"Thornton"},{"geonameid":2635963,"name":"Thornton Heath"},{"geonameid":12048073,"name":"Thurlow Park"},{"geonameid":12048059,"name":"Tokyngton"},{"geonameid":12048300,"name":"Tollington"},{"geonameid":6690827,"name":"Tolworth"},{"geonameid":12047908,"name":"Tolworth and Hook Rise"},{"geonameid":6690824,"name":"Tooting"},{"geonameid":12048184,"name":"Tooting"},{"geonameid":11551072,"name":"Tooting Bec"},{"geonameid":11551079,"name":"Tooting Broadway"},{"geonameid":11551078,"name":"Tooting Graveney"},{"geonameid":2635608,"name":"Tottenham"},{"geonameid":6691483,"name":"Tottenham Court Road"},{"geonameid":12048326,"name":"Tottenham Green"},{"geonameid":12048327,"name":"Tottenham Hale"},{"geonameid":2635607,"name":"Totteridge"},{"geonameid":12048366,"name":"Tower"},{"geonameid":11552734,"name":"Tower Hamlets"},{"geonameid":11550787,"name":"Tower Hill"},{"geonameid":11591743,"name":"Tower of London"},{"geonameid":12048176,"name":"Town"},{"geonameid":12048205,"name":"Town"},{"geonameid":12047997,"name":"Townfield"},{"geonameid":12048377,"name":"Trinity"},{"geonameid":12048418,"name":"Tudor"},{"geonameid":6690586,"name":"Tufnell Park"},{"geonameid":12048063,"name":"Tulse Hill"},{"geonameid":12048111,"name":"Turkey Street"},{"geonameid":12047945,"name":"Turnham Green"},{"geonameid":2635308,"name":"Twickenham"},{"geonameid":12048369,"name":"Twickenham Riverside"},{"geonameid":12048130,"name":"Underhill"},{"geonameid":2635150,"name":"Upminster"},{"geonameid":2635138,"name":"Upper Clapton"},{"geonameid":8128645,"name":"Upper Edmonton"},{"geonameid":2635123,"name":"Upper Holloway"},{"geonameid":2635113,"name":"Upper Norwood"},{"geonameid":11551076,"name":"Upper Tooting"},{"geonameid":6690992,"name":"Upton Park"},{"geonameid":2635042,"name":"Uxbridge"},{"geonameid":7645989,"name":"Uxbridge"},{"geonameid":12048000,"name":"Uxbridge North"},{"geonameid":12048016,"name":"Uxbridge South"},{"geonameid":12048287,"name":"Valence"},{"geonameid":12048208,"name":"Valentines"},{"geonameid":12048181,"name":"Valley"},{"geonameid":12048069,"name":"Vassall"},{"geonameid":6545171,"name":"Vauxhall"},{"geonameid":6690579,"name":"Victoria"},{"geonameid":12048311,"name":"Victoria"},{"geonameid":2634960,"name":"Victoria Park"},{"geonameid":12048243,"name":"Village"},{"geonameid":12048084,"name":"Village"},{"geonameid":12048349,"name":"Village"},{"geonameid":12048032,"name":"Vincent Square"},{"geonameid":12047992,"name":"Vintry"},{"geonameid":12047922,"name":"Waddon"},{"geonameid":12047906,"name":"Walbrook"},{"geonameid":12048341,"name":"Wall End"},{"geonameid":2634867,"name":"Wallington"},{"geonameid":12048368,"name":"Wallington North"},{"geonameid":12048225,"name":"Wallington South"},{"geonameid":12047914,"name":"Walpole"},{"geonameid":2634838,"name":"Walthamstow"},{"geonameid":2634821,"name":"Walworth"},{"geonameid":12048217,"name":"Wandle Valley"},{"geonameid":2634812,"name":"Wandsworth"},{"geonameid":12048218,"name":"Wandsworth Common"},{"geonameid":2634803,"name":"Wanstead"},{"geonameid":12048316,"name":"Wanstead"},{"geonameid":6941036,"name":"Wapping"},{"geonameid":12048431,"name":"Warwick"},{"geonameid":6931001,"name":"Waterloo"},{"geonameid":2634636,"name":"Wealdstone"},{"geonameid":12048038,"name":"Wealdstone"},{"geonameid":12048293,"name":"Weavers"},{"geonameid":2634579,"name":"Welling"},{"geonameid":12048060,"name":"Welsh Harp"},{"geonameid":2634549,"name":"Wembley"},{"geonameid":12048099,"name":"Wembley Central"},{"geonameid":10104888,"name":"West Barnes"},{"geonameid":2634492,"name":"West Brompton"},{"geonameid":12048014,"name":"West Drayton"},{"geonameid":2634451,"name":"West Drayton"},{"geonameid":2634449,"name":"West Dulwich"},{"geonameid":7302137,"name":"West Ealing"},{"geonameid":12048199,"name":"West End"},{"geonameid":6615338,"name":"West End of London"},{"geonameid":12048076,"name":"West Finchley"},{"geonameid":12048406,"name":"West Green"},{"geonameid":2634403,"name":"West Ham"},{"geonameid":6615314,"name":"West Hampstead"},{"geonameid":12048049,"name":"West Harrow"},{"geonameid":12048132,"name":"West Hendon"},{"geonameid":12048240,"name":"West Hill"},{"geonameid":6615603,"name":"West Holland Park"},{"geonameid":2634380,"name":"West Kensington"},{"geonameid":2634330,"name":"West Norwood"},{"geonameid":12048242,"name":"West Putney"},{"geonameid":12048025,"name":"West Ruislip"},{"geonameid":12047934,"name":"West Thornton"},{"geonameid":12048235,"name":"West Twickenham"},{"geonameid":2634234,"name":"West Wickham"},{"geonameid":6690825,"name":"West Wimbledon","localeAltName":"West Wimbledon"},{"geonameid":12048432,"name":"Westbourne"},{"geonameid":11591738,"name":"Westminster Abbey"},{"geonameid":12048338,"name":"Whalebone"},{"geonameid":2634157,"name":"Whetstone"},{"geonameid":12048328,"name":"White Hart Lane"},{"geonameid":2634112,"name":"Whitechapel"},{"geonameid":12048104,"name":"Whitefoot"},{"geonameid":2634004,"name":"Whitton"},{"geonameid":12048305,"name":"Wick"},{"geonameid":2633907,"name":"Willesden"},{"geonameid":2633906,"name":"Willesden Green"},{"geonameid":12048107,"name":"William Morris"},{"geonameid":2633866,"name":"Wimbledon","localeAltName":"Wimbledon"},{"geonameid":6691839,"name":"Wimbledon Park"},{"geonameid":2633856,"name":"Winchmore Hill"},{"geonameid":2633653,"name":"Wood Green"},{"geonameid":12048163,"name":"Wood Street"},{"geonameid":2633658,"name":"Woodford"},{"geonameid":2633655,"name":"Woodford Green"},{"geonameid":12048138,"name":"Woodhouse"},{"geonameid":12048422,"name":"Woodside"},{"geonameid":12048319,"name":"Woodside"},{"geonameid":2633583,"name":"Woolwich"},{"geonameid":12048123,"name":"Woolwich Common"},{"geonameid":12048103,"name":"Woolwich Riverside"},{"geonameid":12048216,"name":"Worcester Park"},{"geonameid":2633561,"name":"Worcester Park"},{"geonameid":12048379,"name":"Wormholt and White City"},{"geonameid":6690876,"name":"Yeading"},{"geonameid":2633363,"name":"Yiewsley"}],"admin3":[{"geonameid":2635594,"name":"Tower Hamlets","admin3":"O5"},{"geonameid":2641639,"name":"Newham","admin3":"I8"},{"geonameid":2643744,"name":"City of London","admin3":"H9"},{"geonameid":3333120,"name":"Barking and Dagenham","admin3":"A1"},{"geonameid":3333121,"name":"Barnet","admin3":"A2"},{"geonameid":3333124,"name":"Bexley","admin3":"A6"},{"geonameid":3333132,"name":"Brent","admin3":"B5"},{"geonameid":3333135,"name":"Bromley","admin3":"B8"},{"geonameid":3333138,"name":"Camden","admin3":"C4"},{"geonameid":3333140,"name":"Croydon","admin3":"C8"},{"geonameid":3333145,"name":"Ealing","admin3":"D9"},{"geonameid":3333146,"name":"Enfield","admin3":"E3"},{"geonameid":3333147,"name":"Greenwich","admin3":"E7"},{"geonameid":3333148,"name":"Hackney","admin3":"E8"},{"geonameid":3333149,"name":"Hammersmith and Fulham","admin3":"F1"},{"geonameid":3333150,"name":"Haringey","admin3":"F3"},{"geonameid":3333151,"name":"Harrow","admin3":"F4"},{"geonameid":3333153,"name":"Havering","admin3":"F6"},{"geonameid":3333154,"name":"Hillingdon","admin3":"F9"},{"geonameid":3333155,"name":"Hounslow","admin3":"G1"},{"geonameid":3333156,"name":"Islington","admin3":"G3"},{"geonameid":3333157,"name":"Royal Kensington and Chelsea","admin3":"G4"},{"geonameid":3333160,"name":"Royal Kingston upon Thames","admin3":"G7"},{"geonameid":3333163,"name":"Lambeth","admin3":"H1"},{"geonameid":3333166,"name":"Lewisham","admin3":"H6"},{"geonameid":3333171,"name":"Merton","admin3":"I4"},{"geonameid":3333185,"name":"Redbridge","admin3":"K8"},{"geonameid":3333187,"name":"Richmond upon Thames","admin3":"L1"},{"geonameid":3333200,"name":"Southwark","admin3":"M8"},{"geonameid":3333206,"name":"Sutton","admin3":"N8"},{"geonameid":3333214,"name":"Waltham Forest","admin3":"O9"},{"geonameid":3333215,"name":"Wandsworth","admin3":"P1"},{"geonameid":3333218,"name":"City of Westminster","admin3":"P5"}],"alternateNames":[{"alternatenameId":1626647,"geonameid":6269131,"isoLanguage":"en","alternateName":"England","isPreferredName":true,"isShortName":true,"isColloquial":false,"isHistoric":false},{"alternatenameId":3074748,"geonameid":2648110,"isoLanguage":"en","alternateName":"Greater London","isPreferredName":true,"isShortName":true,"isColloquial":false,"isHistoric":false},{"alternatenameId":2254237,"geonameid":2635594,"isoLanguage":"en","alternateName":"Tower Hamlets","isPreferredName":true,"isShortName":true,"isColloquial":false,"isHistoric":false},{"alternatenameId":2254257,"geonameid":2641639,"isoLanguage":"en","alternateName":"Newham","isPreferredName":true,"isShortName":true,"isColloquial":false,"isHistoric":false},{"alternatenameId":2254261,"geonameid":2643744,"isoLanguage":"en","alternateName":"City of London","isPreferredName":true,"isShortName":true,"isColloquial":false,"isHistoric":false},{"alternatenameId":3074719,"geonameid":3333120,"isoLanguage":"en","alternateName":"Barking and Dagenham","isPreferredName":true,"isShortName":true,"isColloquial":false,"isHistoric":false},{"alternatenameId":3074732,"geonameid":3333121,"isoLanguage":"en","alternateName":"Barnet","isPreferredName":true,"isShortName":true,"isColloquial":false,"isHistoric":false},{"alternatenameId":3074731,"geonameid":3333124,"isoLanguage":"en","alternateName":"Bexley","isPreferredName":true,"isShortName":true,"isColloquial":false,"isHistoric":false},{"alternatenameId":3074723,"geonameid":3333132,"isoLanguage":"en","alternateName":"Brent","isPreferredName":true,"isShortName":true,"isColloquial":false,"isHistoric":false},{"alternatenameId":3074713,"geonameid":3333135,"isoLanguage":"en","alternateName":"Bromley","isPreferredName":true,"isShortName":true,"isColloquial":false,"isHistoric":false},{"alternatenameId":3074700,"geonameid":3333138,"isoLanguage":"en","alternateName":"Camden","isPreferredName":true,"isShortName":true,"isColloquial":false,"isHistoric":false},{"alternatenameId":3074702,"geonameid":3333140,"isoLanguage":"en","alternateName":"Croydon","isPreferredName":true,"isShortName":true,"isColloquial":false,"isHistoric":false},{"alternatenameId":3074726,"geonameid":3333145,"isoLanguage":"en","alternateName":"Ealing","isPreferredName":true,"isShortName":true,"isColloquial":false,"isHistoric":false},{"alternatenameId":3074699,"geonameid":3333146,"isoLanguage":"en","alternateName":"Enfield","isPreferredName":true,"isShortName":true,"isColloquial":false,"isHistoric":false},{"alternatenameId":3074741,"geonameid":3333147,"isoLanguage":"en","alternateName":"Greenwich","isPreferredName":true,"isShortName":true,"isColloquial":false,"isHistoric":false},{"alternatenameId":3074721,"geonameid":3333148,"isoLanguage":"en","alternateName":"Hackney","isPreferredName":true,"isShortName":true,"isColloquial":false,"isHistoric":false},{"alternatenameId":3074714,"geonameid":3333149,"isoLanguage":"en","alternateName":"Hammersmith and Fulham","isPreferredName":true,"isShortName":true,"isColloquial":false,"isHistoric":false},{"alternatenameId":3074704,"geonameid":3333150,"isoLanguage":"en","alternateName":"Haringey","isPreferredName":true,"isShortName":true,"isColloquial":false,"isHistoric":false},{"alternatenameId":3074717,"geonameid":3333151,"isoLanguage":"en","alternateName":"Harrow","isPreferredName":true,"isShortName":true,"isColloquial":false,"isHistoric":false},{"alternatenameId":3074724,"geonameid":3333153,"isoLanguage":"en","alternateName":"Havering","isPreferredName":true,"isShortName":true,"isColloquial":false,"isHistoric":false},{"alternatenameId":3074711,"geonameid":3333154,"isoLanguage":"en","alternateName":"Hillingdon","isPreferredName":true,"isShortName":true,"isColloquial":false,"isHistoric":false},{"alternatenameId":3074709,"geonameid":3333155,"isoLanguage":"en","alternateName":"Hounslow","isPreferredName":true,"isShortName":true,"isColloquial":false,"isHistoric":false},{"alternatenameId":3074737,"geonameid":3333156,"isoLanguage":"en","alternateName":"Islington","isPreferredName":true,"isShortName":true,"isColloquial":false,"isHistoric":false},{"alternatenameId":3074736,"geonameid":3333157,"isoLanguage":"en","alternateName":"Royal Kensington and Chelsea","isPreferredName":true,"isShortName":true,"isColloquial":false,"isHistoric":false},{"alternatenameId":2184581,"geonameid":3333160,"isoLanguage":"en","alternateName":"Kingston upon Thames","isPreferredName":true,"isShortName":true,"isColloquial":false,"isHistoric":false},{"alternatenameId":3074742,"geonameid":3333163,"isoLanguage":"en","alternateName":"Lambeth","isPreferredName":true,"isShortName":true,"isColloquial":false,"isHistoric":false},{"alternatenameId":3074740,"geonameid":3333166,"isoLanguage":"en","alternateName":"Lewisham","isPreferredName":true,"isShortName":true,"isColloquial":false,"isHistoric":false},{"alternatenameId":3074718,"geonameid":3333171,"isoLanguage":"en","alternateName":"Merton","isPreferredName":true,"isShortName":true,"isColloquial":false,"isHistoric":false},{"alternatenameId":3074720,"geonameid":3333185,"isoLanguage":"en","alternateName":"Redbridge","isPreferredName":true,"isShortName":true,"isColloquial":false,"isHistoric":false},{"alternatenameId":3074705,"geonameid":3333187,"isoLanguage":"en","alternateName":"Richmond upon Thames","isPreferredName":true,"isShortName":true,"isColloquial":false,"isHistoric":false},{"alternatenameId":3074729,"geonameid":3333206,"isoLanguage":"en","alternateName":"Sutton","isPreferredName":true,"isShortName":true,"isColloquial":false,"isHistoric":false},{"alternatenameId":3074715,"geonameid":3333214,"isoLanguage":"en","alternateName":"Waltham Forest","isPreferredName":true,"isShortName":true,"isColloquial":false,"isHistoric":false},{"alternatenameId":3074734,"geonameid":3333215,"isoLanguage":"en","alternateName":"Wandsworth","isPreferredName":true,"isShortName":true,"isColloquial":false,"isHistoric":false},{"alternatenameId":3242053,"geonameid":2655775,"isoLanguage":"en","alternateName":"Bexley","isPreferredName":true,"isShortName":true,"isColloquial":false,"isHistoric":false},{"alternatenameId":11107501,"geonameid":2649997,"isoLanguage":"en","alternateName":"Enfield","isPreferredName":true,"isShortName":true,"isColloquial":false,"isHistoric":false},{"alternatenameId":8666612,"geonameid":6690816,"isoLanguage":"en","alternateName":"Mottingham","isPreferredName":true,"isShortName":true,"isColloquial":false,"isHistoric":false},{"alternatenameId":8666613,"geonameid":6690817,"isoLanguage":"en","alternateName":"New Eltham","isPreferredName":true,"isShortName":true,"isColloquial":false,"isHistoric":false},{"alternatenameId":8666615,"geonameid":6690821,"isoLanguage":"en","alternateName":"Nine Elms","isPreferredName":true,"isShortName":true,"isColloquial":false,"isHistoric":false},{"alternatenameId":8666608,"geonameid":6690804,"isoLanguage":"en","alternateName":"Rush Green","isPreferredName":true,"isShortName":true,"isColloquial":false,"isHistoric":false},{"alternatenameId":8666616,"geonameid":6690822,"isoLanguage":"en","alternateName":"South Lambeth","isPreferredName":true,"isShortName":true,"isColloquial":false,"isHistoric":false},{"alternatenameId":8666617,"geonameid":6690823,"isoLanguage":"en","alternateName":"Stockwell","isPreferredName":true,"isShortName":true,"isColloquial":false,"isHistoric":false},{"alternatenameId":8666618,"geonameid":6690825,"isoLanguage":"en","alternateName":"West Wimbledon","isPreferredName":true,"isShortName":true,"isColloquial":false,"isHistoric":false},{"alternatenameId":2254516,"geonameid":2633866,"isoLanguage":"en","alternateName":"Wimbledon","isPreferredName":true,"isShortName":true,"isColloquial":false,"isHistoric":false}]},"__N_SSG":true}