{"pageProps":{"locale":"en","admin2":{"geonameid":2647043,"name":"Hertfordshire","country":"GB","admin1":"ENG","admin2":"F8","admin3":"","latitude":"51.8333300","longitude":"-0.2500000","localeAltName":"Hertfordshire"},"admin1":{"geonameid":6269131,"name":"England","admin1":"ENG","localeAltName":"England"},"locations":[{"geonameid":2657863,"name":"Abbots Langley"},{"geonameid":2657567,"name":"Albury"},{"geonameid":2657559,"name":"Aldbury"},{"geonameid":2657553,"name":"Aldenham"},{"geonameid":2657269,"name":"Anstey"},{"geonameid":7303831,"name":"Apsley"},{"geonameid":2657193,"name":"Ardeley"},{"geonameid":9257652,"name":"Ashbrook"},{"geonameid":2656911,"name":"Ashwell"},{"geonameid":2656890,"name":"Aspenden"},{"geonameid":2656871,"name":"Aston"},{"geonameid":2656863,"name":"Aston End"},{"geonameid":2656710,"name":"Ayot Saint Lawrence"},{"geonameid":2656709,"name":"Ayot Saint Peter"},{"geonameid":2656594,"name":"Baldock"},{"geonameid":2656326,"name":"Barkway"},{"geonameid":2656321,"name":"Barley"},{"geonameid":2656136,"name":"Bayford"},{"geonameid":11550602,"name":"Bedmond"},{"geonameid":2655898,"name":"Benington"},{"geonameid":2655858,"name":"Berkhamsted"},{"geonameid":6615332,"name":"Bernards Heath"},{"geonameid":2655562,"name":"Bishops Stortford"},{"geonameid":2655186,"name":"Borehamwood"},{"geonameid":2655096,"name":"Bourne End"},{"geonameid":2655079,"name":"Bovingdon"},{"geonameid":2654930,"name":"Bramfield"},{"geonameid":2654863,"name":"Braughing"},{"geonameid":2654784,"name":"Brent Pelham"},{"geonameid":11888136,"name":"Bricket Wood"},{"geonameid":11593113,"name":"Brookmans Park"},{"geonameid":2654481,"name":"Broxbourne"},{"geonameid":2654404,"name":"Buckland"},{"geonameid":2654323,"name":"Buntingford"},{"geonameid":2654179,"name":"Bushey"},{"geonameid":2654177,"name":"Bushey Heath"},{"geonameid":2654134,"name":"Bygrave"},{"geonameid":2654031,"name":"Caldecote"},{"geonameid":2654032,"name":"Caldecote"},{"geonameid":9409259,"name":"Chapmore End"},{"geonameid":10377015,"name":"Charlton"},{"geonameid":2653232,"name":"Cheshunt"},{"geonameid":2653142,"name":"Chipperfield"},{"geonameid":2653085,"name":"Chorleywood"},{"geonameid":11550819,"name":"Churchgate"},{"geonameid":2652786,"name":"Clothall"},{"geonameid":2652656,"name":"Codicote"},{"geonameid":2652590,"name":"Cole Green"},{"geonameid":2652539,"name":"Colney Heath"},{"geonameid":2652267,"name":"Cottered"},{"geonameid":2651826,"name":"Croxley Green"},{"geonameid":2651777,"name":"Cuffley"},{"geonameid":2651491,"name":"Datchworth"},{"geonameid":2651261,"name":"Digswell"},{"geonameid":8129271,"name":"Dudswell"},{"geonameid":12047678,"name":"Eastbury"},{"geonameid":11550754,"name":"Eastwick"},{"geonameid":2650047,"name":"Elstree"},{"geonameid":2649891,"name":"Essendon"},{"geonameid":6695413,"name":"Felden"},{"geonameid":2649334,"name":"Flamstead","localeAltName":"Flamstead"},{"geonameid":11550818,"name":"Flamstead End"},{"geonameid":2649328,"name":"Flaunden"},{"geonameid":6619860,"name":"Fleetville"},{"geonameid":2648976,"name":"Furneux Pelham"},{"geonameid":2648828,"name":"Garston"},{"geonameid":11552292,"name":"Gilston Park"},{"geonameid":2648362,"name":"Goffs Oak"},{"geonameid":11979580,"name":"Gosmore"},{"geonameid":2648195,"name":"Graveley"},{"geonameid":2648175,"name":"Great Amwell"},{"geonameid":2648101,"name":"Great Gaddesden"},{"geonameid":2648078,"name":"Great Hormead"},{"geonameid":2648053,"name":"Great Munden"},{"geonameid":2648047,"name":"Great Offley"},{"geonameid":2647986,"name":"Great Wymondley"},{"geonameid":10104075,"name":"Green End"},{"geonameid":11592721,"name":"Hadham Cross"},{"geonameid":11550820,"name":"Hammond Street"},{"geonameid":2647451,"name":"Harpenden"},{"geonameid":2647349,"name":"Hatfield"},{"geonameid":11550609,"name":"Hatfield Hyde"},{"geonameid":10104074,"name":"Haultwick"},{"geonameid":2647138,"name":"Hemel Hempstead"},{"geonameid":2647044,"name":"Hertford"},{"geonameid":11593299,"name":"Hertford Heath"},{"geonameid":2647042,"name":"Hertingfordbury"},{"geonameid":2647006,"name":"Hexton"},{"geonameid":2646918,"name":"High Welwyn"},{"geonameid":10244605,"name":"Highfield"},{"geonameid":2646839,"name":"Hinxworth"},{"geonameid":2646826,"name":"Hitchin"},{"geonameid":6621558,"name":"Hockerill"},{"geonameid":2646807,"name":"Hoddesdon"},{"geonameid":10376600,"name":"Holdbrook North"},{"geonameid":2646690,"name":"Holwell"},{"geonameid":2646604,"name":"Hormead"},{"geonameid":11593309,"name":"Hunsdon"},{"geonameid":2646305,"name":"Ickleford"},{"geonameid":2646061,"name":"Ippollitts"},{"geonameid":2645850,"name":"Kelshall"},{"geonameid":2645532,"name":"Kimpton"},{"geonameid":2645460,"name":"Kings Langley"},{"geonameid":2645422,"name":"Kings Walden"},{"geonameid":2645488,"name":"Kinsbourne Green"},{"geonameid":2645161,"name":"Knebworth"},{"geonameid":2644720,"name":"Leavesden Green"},{"geonameid":12200399,"name":"Letchmore Heath"},{"geonameid":8224216,"name":"Letchworth Garden City"},{"geonameid":8520850,"name":"Letty Green","localeAltName":"Letty Green"},{"geonameid":10104078,"name":"Levens Green"},{"geonameid":2644565,"name":"Leverstock Green"},{"geonameid":2644508,"name":"Lilley"},{"geonameid":2644381,"name":"Little Amwell"},{"geonameid":2644372,"name":"Little Berkhamstead"},{"geonameid":2644329,"name":"Little Gaddesden"},{"geonameid":2644322,"name":"Little Hadham"},{"geonameid":2644310,"name":"Little Hormead"},{"geonameid":2644283,"name":"Little Munden"},{"geonameid":2644214,"name":"Little Wymondley"},{"geonameid":2643738,"name":"London Colney"},{"geonameid":2643666,"name":"Long Marston"},{"geonameid":8260197,"name":"Maple Cross"},{"geonameid":2643011,"name":"Markyate"},{"geonameid":2642827,"name":"Meesden"},{"geonameid":6547224,"name":"Moor Park"},{"geonameid":2642057,"name":"Much Hadham"},{"geonameid":6615343,"name":"Napsbury Park"},{"geonameid":10104073,"name":"Nasty"},{"geonameid":2641643,"name":"Newgate Street"},{"geonameid":2641604,"name":"Newnham"},{"geonameid":2641305,"name":"North Mymms"},{"geonameid":6559327,"name":"North Watford"},{"geonameid":2641427,"name":"Northaw"},{"geonameid":2641394,"name":"Northchurch"},{"geonameid":2641205,"name":"Norton"},{"geonameid":10104079,"name":"Old Hall Green"},{"geonameid":2640647,"name":"Panshanger"},{"geonameid":2640600,"name":"Park Street"},{"geonameid":11593367,"name":"Perry Green"},{"geonameid":10244606,"name":"Piccotts End"},{"geonameid":2640267,"name":"Pirton"},{"geonameid":2639970,"name":"Potters Bar"},{"geonameid":2639917,"name":"Preston"},{"geonameid":2639870,"name":"Puckeridge"},{"geonameid":2639832,"name":"Puttenham"},{"geonameid":2639720,"name":"Radlett"},{"geonameid":2639712,"name":"Radwell"},{"geonameid":2639567,"name":"Redbourn"},{"geonameid":2639520,"name":"Reed"},{"geonameid":2639381,"name":"Rickmansworth"},{"geonameid":2639376,"name":"Ridge"},{"geonameid":2639018,"name":"Royston"},{"geonameid":2638947,"name":"Rushden"},{"geonameid":2638890,"name":"Sacombe"},{"geonameid":2638704,"name":"Saint Pauls Walden"},{"geonameid":2638570,"name":"Sandon"},{"geonameid":2638560,"name":"Sandridge"},{"geonameid":2638501,"name":"Sarratt"},{"geonameid":2638481,"name":"Sawbridgeworth"},{"geonameid":2638051,"name":"Shenley"},{"geonameid":2638044,"name":"Shephall"},{"geonameid":8605059,"name":"Smallford"},{"geonameid":2637375,"name":"South Mimms"},{"geonameid":6690815,"name":"South Oxhey","localeAltName":"South Oxney"},{"geonameid":2638867,"name":"St Albans","localeAltName":"St Albans"},{"geonameid":2637094,"name":"Standon"},{"geonameid":2637054,"name":"Stanstead Abbotts"},{"geonameid":2637024,"name":"Stapleford"},{"geonameid":2636940,"name":"Stevenage"},{"geonameid":8714627,"name":"Stevenage Old Town"},{"geonameid":2636889,"name":"Stocking Pelham"},{"geonameid":2636072,"name":"Tewin"},{"geonameid":6615329,"name":"The Camp"},{"geonameid":2636034,"name":"Therfield"},{"geonameid":2636009,"name":"Thorley"},{"geonameid":2635901,"name":"Thundridge"},{"geonameid":9409258,"name":"Tonwell"},{"geonameid":2635459,"name":"Tring"},{"geonameid":8604598,"name":"Trowley Bottom","localeAltName":"Trowley Bottom"},{"geonameid":6951041,"name":"Wadesmill"},{"geonameid":2634881,"name":"Walkern"},{"geonameid":2634866,"name":"Wallington"},{"geonameid":2634842,"name":"Waltham Cross"},{"geonameid":2634777,"name":"Ware"},{"geonameid":2634677,"name":"Watford"},{"geonameid":2634660,"name":"Watton at Stone"},{"geonameid":11549421,"name":"Welham Green"},{"geonameid":2634553,"name":"Welwyn"},{"geonameid":2634552,"name":"Welwyn Garden City"},{"geonameid":9884078,"name":"West Hyde"},{"geonameid":2634342,"name":"Westmill"},{"geonameid":2634327,"name":"Weston"},{"geonameid":2634172,"name":"Wheathampstead"},{"geonameid":2634163,"name":"Whempstead"},{"geonameid":2634001,"name":"Whitwell"},{"geonameid":2633956,"name":"Widford"},{"geonameid":2633945,"name":"Wigginton"},{"geonameid":6696168,"name":"Woolmer Green"},{"geonameid":2633535,"name":"Wormley"},{"geonameid":2633461,"name":"Wyddial"},{"geonameid":6947745,"name":"Zouches Farm"}],"admin3":[{"geonameid":2634551,"name":"Welwyn Hatfield","admin3":"26UL"},{"geonameid":2635925,"name":"Three Rivers","admin3":"26UJ"},{"geonameid":6615330,"name":"City and District of St. Albans","admin3":"6615330"},{"geonameid":7290563,"name":"Broxbourne District","admin3":"26UB"},{"geonameid":7290564,"name":"Dacorum District","admin3":"26UC"},{"geonameid":7290565,"name":"East Hertfordshire District","admin3":"26UD"},{"geonameid":7290566,"name":"Hertsmere District","admin3":"26UE"},{"geonameid":7290567,"name":"North Hertfordshire District","admin3":"26UF"},{"geonameid":7290568,"name":"Stevenage District","admin3":"26UH"},{"geonameid":7290569,"name":"Watford District","admin3":"26UK"}],"alternateNames":[{"alternatenameId":1645592,"geonameid":2638867,"isoLanguage":"en","alternateName":"St Albans","isPreferredName":true,"isShortName":true,"isColloquial":false,"isHistoric":false},{"alternatenameId":2254270,"geonameid":2647043,"isoLanguage":"en","alternateName":"Hertfordshire","isPreferredName":true,"isShortName":true,"isColloquial":false,"isHistoric":false},{"alternatenameId":3241466,"geonameid":2649334,"isoLanguage":"en","alternateName":"Flamstead","isPreferredName":true,"isShortName":true,"isColloquial":false,"isHistoric":false},{"alternatenameId":1626647,"geonameid":6269131,"isoLanguage":"en","alternateName":"England","isPreferredName":true,"isShortName":true,"isColloquial":false,"isHistoric":false},{"alternatenameId":8666622,"geonameid":6690815,"isoLanguage":"en","alternateName":"South Oxney","isPreferredName":true,"isShortName":true,"isColloquial":false,"isHistoric":false},{"alternatenameId":8145462,"geonameid":8520850,"isoLanguage":"en","alternateName":"Letty Green","isPreferredName":true,"isShortName":true,"isColloquial":false,"isHistoric":false},{"alternatenameId":8434924,"geonameid":8604598,"isoLanguage":"en","alternateName":"Trowley Bottom","isPreferredName":true,"isShortName":true,"isColloquial":false,"isHistoric":false}]},"__N_SSG":true}