{"pageProps":{"locale":"en","admin2":{"geonameid":3333201,"name":"St. Helens","country":"GB","admin1":"ENG","admin2":"N1","admin3":"","latitude":"53.4166700","longitude":"-2.7500000","localeAltName":"St. Helens"},"admin1":{"geonameid":6269131,"name":"England","admin1":"ENG","localeAltName":"England"},"locations":[{"geonameid":2655666,"name":"Billinge"},{"geonameid":7870364,"name":"Bold Heath"},{"geonameid":2652811,"name":"Clock Face"},{"geonameid":2652083,"name":"Crank"},{"geonameid":2650556,"name":"Earlestown"},{"geonameid":2650272,"name":"Eccleston"},{"geonameid":2648826,"name":"Garswood"},{"geonameid":2647265,"name":"Haydock"},{"geonameid":2641705,"name":"New Boston"},{"geonameid":2641548,"name":"Newton in Makerfield"},{"geonameid":2641546,"name":"Newton-le-Willows"},{"geonameid":2641040,"name":"Old Boston"},{"geonameid":2639693,"name":"Rainford"},{"geonameid":2639689,"name":"Rainhill"},{"geonameid":2638785,"name":"St Helens"},{"geonameid":2636048,"name":"Thatto Heath"}],"admin3":[{"geonameid":7292492,"name":"Rainhill","admin3":"00BZ005"},{"geonameid":7292493,"name":"Windle","admin3":"00BZ007"},{"geonameid":7297266,"name":"Seneley Green","admin3":"00BZ006"},{"geonameid":7299562,"name":"Bold","admin3":"00BZ002"},{"geonameid":7301314,"name":"Billinge Chapel End","admin3":"00BZ001"},{"geonameid":7301315,"name":"Eccleston","admin3":"00BZ003"},{"geonameid":7301316,"name":"Rainford","admin3":"00BZ004"}],"alternateNames":[{"alternatenameId":8666526,"geonameid":3333201,"isoLanguage":"en","alternateName":"St. Helens","isPreferredName":true,"isShortName":true,"isColloquial":false,"isHistoric":false},{"alternatenameId":1626647,"geonameid":6269131,"isoLanguage":"en","alternateName":"England","isPreferredName":true,"isShortName":true,"isColloquial":false,"isHistoric":false}]},"__N_SSG":true}