{"pageProps":{"locale":"en","admin2":{"geonameid":5243559,"name":"Adams County","country":"US","admin1":"WI","admin2":"001","admin3":"","latitude":"43.9696300","longitude":"-89.7706400","localeAltName":null},"admin1":{"geonameid":5279468,"name":"Wisconsin","admin1":"WI","localeAltName":"Wisconsin"},"locations":[{"geonameid":5243553,"name":"Adams","admin3":"00275","localeAltName":null},{"geonameid":5250440,"name":"Dellwood","admin3":"77800","localeAltName":null},{"geonameid":5251410,"name":"Easton","admin3":"22000","localeAltName":null},{"geonameid":5253884,"name":"Friendship","admin3":"27950","localeAltName":null},{"geonameid":8503114,"name":"Rome","admin3":"69275","localeAltName":null}],"admin3":[{"geonameid":4833916,"name":"Town of Leola","admin3":"43425"},{"geonameid":5243577,"name":"City of Adams","admin3":"00275","localeAltName":null},{"geonameid":5243578,"name":"Town of Adams","admin3":"00300"},{"geonameid":5245797,"name":"Town of Big Flats","admin3":"07300"},{"geonameid":5249093,"name":"Town of Colburn","admin3":"16075"},{"geonameid":5250417,"name":"Town of Dell Prairie","admin3":"19575"},{"geonameid":5251418,"name":"Town of Easton","admin3":"22000","localeAltName":null},{"geonameid":5253900,"name":"Village of Friendship","admin3":"27950","localeAltName":null},{"geonameid":5257710,"name":"Town of Jackson","admin3":"37625"},{"geonameid":5260090,"name":"Town of Lincoln","admin3":"44250"},{"geonameid":5263351,"name":"Town of Monroe","admin3":"53725"},{"geonameid":5264395,"name":"Town of New Chester","admin3":"56525"},{"geonameid":5264420,"name":"Town of New Haven","admin3":"56750"},{"geonameid":5268060,"name":"Town of Preston","admin3":"65450"},{"geonameid":5268231,"name":"Town of Quincy","admin3":"65825"},{"geonameid":5268842,"name":"Town of Richfield","admin3":"67425"},{"geonameid":5269447,"name":"Town of Rome","admin3":"69275","localeAltName":null},{"geonameid":5274360,"name":"Town of Springville","admin3":"76350"},{"geonameid":5274839,"name":"Town of Strongs Prairie","admin3":"77800","localeAltName":null}],"alternateNames":[{"alternatenameId":2089565,"geonameid":5279468,"isoLanguage":"en","alternateName":"Wisconsin","isPreferredName":true,"isShortName":true,"isColloquial":false,"isHistoric":false}]},"__N_SSG":true}