{"pageProps":{"locale":"en","admin2":{"geonameid":5246898,"name":"Brown County","country":"US","admin1":"WI","admin2":"009","admin3":"","latitude":"44.4743300","longitude":"-87.9928700","localeAltName":null},"admin1":{"geonameid":5279468,"name":"Wisconsin","admin1":"WI","localeAltName":"Wisconsin"},"locations":[{"geonameid":5243770,"name":"Allouez","admin3":"01150","localeAltName":null},{"geonameid":5244267,"name":"Ashwaubenon","admin3":"03425","localeAltName":null},{"geonameid":5245359,"name":"Bellevue","admin3":"06350","localeAltName":null},{"geonameid":5250201,"name":"De Pere","admin3":"19775","localeAltName":null},{"geonameid":5250470,"name":"Denmark","admin3":"19700","localeAltName":null},{"geonameid":5254419,"name":"Glenmore","admin3":"29550","localeAltName":null},{"geonameid":5254962,"name":"Green Bay","admin3":"31000","localeAltName":null},{"geonameid":5255091,"name":"Greenleaf","admin3":"89175","localeAltName":null},{"geonameid":8478940,"name":"Hobart","admin3":"35150","localeAltName":null},{"geonameid":5257029,"name":"Howard","admin3":"35950","localeAltName":null},{"geonameid":5265724,"name":"Oneida","admin3":"35150","localeAltName":null},{"geonameid":5268148,"name":"Pulaski","admin3":"65675","localeAltName":null},{"geonameid":5274887,"name":"Suamico","admin3":"77975","localeAltName":null},{"geonameid":5279757,"name":"Wrightstown","admin3":"89150","localeAltName":null}],"admin3":[{"geonameid":5243776,"name":"Village of Allouez","admin3":"01150","localeAltName":null},{"geonameid":5244272,"name":"Village of Ashwaubenon","admin3":"03425","localeAltName":null},{"geonameid":5245365,"name":"Village of Bellevue","admin3":"06350","localeAltName":null},{"geonameid":5250207,"name":"City of De Pere","admin3":"19775","localeAltName":null},{"geonameid":5250473,"name":"Village of Denmark","admin3":"19700","localeAltName":null},{"geonameid":5251433,"name":"Town of Eaton","admin3":"22225"},{"geonameid":5254421,"name":"Town of Glenmore","admin3":"29550","localeAltName":null},{"geonameid":5254974,"name":"City of Green Bay","admin3":"31000","localeAltName":null},{"geonameid":5254975,"name":"Town of Green Bay","admin3":"31025"},{"geonameid":5256503,"name":"Village of Hobart","admin3":"35150","localeAltName":null},{"geonameid":5256590,"name":"Town of Holland","admin3":"35325"},{"geonameid":5257038,"name":"Village of Howard","admin3":"35950","localeAltName":null},{"geonameid":5257125,"name":"Town of Humboldt","admin3":"36425"},{"geonameid":5259623,"name":"Town of Lawrence","admin3":"42900"},{"geonameid":5259680,"name":"Town of Ledgeview","admin3":"43090"},{"geonameid":5263535,"name":"Town of Morrison","admin3":"54300"},{"geonameid":5264401,"name":"Town of New Denmark","admin3":"56575"},{"geonameid":5267264,"name":"Town of Pittsfield","admin3":"63075"},{"geonameid":5268162,"name":"Village of Pulaski","admin3":"65675","localeAltName":null},{"geonameid":5269322,"name":"Town of Rockland","admin3":"68875"},{"geonameid":5272556,"name":"Town of Scott","admin3":"72200"},{"geonameid":5274893,"name":"Village of Suamico","admin3":"77975","localeAltName":null},{"geonameid":5279758,"name":"Town of Wrightstown","admin3":"89175","localeAltName":null},{"geonameid":5279759,"name":"Village of Wrightstown","admin3":"89150","localeAltName":null}],"alternateNames":[{"alternatenameId":2089565,"geonameid":5279468,"isoLanguage":"en","alternateName":"Wisconsin","isPreferredName":true,"isShortName":true,"isColloquial":false,"isHistoric":false}]},"__N_SSG":true}