{"pageProps":{"locale":"en","admin2":{"geonameid":5253400,"name":"Forest County","country":"US","admin1":"WI","admin2":"041","admin3":"","latitude":"45.6672600","longitude":"-88.7703800","localeAltName":null},"admin1":{"geonameid":5279468,"name":"Wisconsin","admin1":"WI","localeAltName":"Wisconsin"},"locations":[{"geonameid":5249670,"name":"Crandon","admin3":"17425","localeAltName":null},{"geonameid":5259510,"name":"Laona","admin3":"42500","localeAltName":null},{"geonameid":5264161,"name":"Nashville","admin3":"55575","localeAltName":null},{"geonameid":5277667,"name":"Wabeno","admin3":"83025","localeAltName":null}],"admin3":[{"geonameid":5243842,"name":"Town of Alvin","admin3":"01625"},{"geonameid":5244136,"name":"Town of Argonne","admin3":"02625"},{"geonameid":5244173,"name":"Town of Armstrong Creek","admin3":"02950"},{"geonameid":5246158,"name":"Town of Blackwell","admin3":"07950"},{"geonameid":5248005,"name":"Town of Caswell","admin3":"13125"},{"geonameid":5249675,"name":"City of Crandon","admin3":"17425","localeAltName":null},{"geonameid":5249676,"name":"Town of Crandon","admin3":"17450"},{"geonameid":5253806,"name":"Town of Freedom","admin3":"27600"},{"geonameid":5256301,"name":"Town of Hiles","admin3":"34650"},{"geonameid":5259515,"name":"Town of Laona","admin3":"42500","localeAltName":null},{"geonameid":5260095,"name":"Town of Lincoln","admin3":"44375"},{"geonameid":5264163,"name":"Town of Nashville","admin3":"55575","localeAltName":null},{"geonameid":5267743,"name":"Town of Popple River","admin3":"64050"},{"geonameid":5269573,"name":"Town of Ross","admin3":"69625"},{"geonameid":5277668,"name":"Town of Wabeno","admin3":"83025","localeAltName":null}],"alternateNames":[{"alternatenameId":2089565,"geonameid":5279468,"isoLanguage":"en","alternateName":"Wisconsin","isPreferredName":true,"isShortName":true,"isColloquial":false,"isHistoric":false}]},"__N_SSG":true}