{"pageProps":{"locale":"en","admin2":{"geonameid":5263335,"name":"Monroe County","country":"US","admin1":"WI","admin2":"081","admin3":"","latitude":"43.9457500","longitude":"-90.6178700","localeAltName":null},"admin1":{"geonameid":5279468,"name":"Wisconsin","admin1":"WI","localeAltName":"Wisconsin"},"locations":[{"geonameid":5247945,"name":"Cashton","admin3":"12950","localeAltName":null},{"geonameid":5265065,"name":"Norwalk","admin3":"58575","localeAltName":null},{"geonameid":5267820,"name":"Portland","admin3":"64425","localeAltName":null},{"geonameid":5273927,"name":"Sparta","admin3":"75325","localeAltName":null},{"geonameid":5275871,"name":"Tomah","admin3":"80075","localeAltName":null},{"geonameid":5279272,"name":"Wilton","admin3":"87525","localeAltName":null}],"admin3":[{"geonameid":5243597,"name":"Town of Adrian","admin3":"00475"},{"geonameid":5243975,"name":"Town of Angelo","admin3":"02025"},{"geonameid":5247368,"name":"Town of Byron","admin3":"11625"},{"geonameid":5247948,"name":"Village of Cashton","admin3":"12950","localeAltName":null},{"geonameid":5248966,"name":"Town of Clifton","admin3":"15550"},{"geonameid":5254414,"name":"Town of Glendale","admin3":"29450"},{"geonameid":5254871,"name":"Town of Grant","admin3":"30325"},{"geonameid":5255082,"name":"Town of Greenfield","admin3":"31225"},{"geonameid":5257832,"name":"Town of Jefferson","admin3":"37950"},{"geonameid":5258370,"name":"Village of Kendall","admin3":"39150"},{"geonameid":5258988,"name":"Town of La Grange","admin3":"41000"},{"geonameid":5259066,"name":"Town of Lafayette","admin3":"40925"},{"geonameid":5259802,"name":"Town of Leon","admin3":"43475"},{"geonameid":5260096,"name":"Town of Lincoln","admin3":"44450"},{"geonameid":5260320,"name":"Town of Little Falls","admin3":"44975"},{"geonameid":5262541,"name":"Village of Melvina","admin3":"50800"},{"geonameid":5264463,"name":"Town of New Lyme","admin3":"56950"},{"geonameid":5265066,"name":"Village of Norwalk","admin3":"58575","localeAltName":null},{"geonameid":5265402,"name":"Town of Oakdale","admin3":"58875"},{"geonameid":5265403,"name":"Village of Oakdale","admin3":"58850"},{"geonameid":5267826,"name":"Town of Portland","admin3":"64425","localeAltName":null},{"geonameid":5268899,"name":"Town of Ridgeville","admin3":"67850"},{"geonameid":5272561,"name":"Town of Scott","admin3":"72325"},{"geonameid":5272945,"name":"Town of Sheldon","admin3":"73150"},{"geonameid":5273935,"name":"City of Sparta","admin3":"75325","localeAltName":null},{"geonameid":5273936,"name":"Town of Sparta","admin3":"75350"},{"geonameid":5275882,"name":"City of Tomah","admin3":"80075","localeAltName":null},{"geonameid":5275883,"name":"Town of Tomah","admin3":"80100"},{"geonameid":5277844,"name":"Village of Warrens","admin3":"83450"},{"geonameid":5278332,"name":"Town of Wellington","admin3":"85125"},{"geonameid":5278342,"name":"Town of Wells","admin3":"85150"},{"geonameid":5279273,"name":"Town of Wilton","admin3":"87550"},{"geonameid":5279274,"name":"Village of Wilton","admin3":"87525","localeAltName":null},{"geonameid":5279774,"name":"Village of Wyeville","admin3":"89275"}],"alternateNames":[{"alternatenameId":2089565,"geonameid":5279468,"isoLanguage":"en","alternateName":"Wisconsin","isPreferredName":true,"isShortName":true,"isColloquial":false,"isHistoric":false}]},"__N_SSG":true}