{"pageProps":{"locale":"en","admin2":{"geonameid":5270199,"name":"Saint Croix County","country":"US","admin1":"WI","admin2":"109","admin3":"","latitude":"45.0340700","longitude":"-92.4527800","localeAltName":null},"admin1":{"geonameid":5279468,"name":"Wisconsin","admin1":"WI","localeAltName":"Wisconsin"},"locations":[{"geonameid":5244570,"name":"Baldwin","admin3":"04400","localeAltName":null},{"geonameid":5254435,"name":"Glenwood City","admin3":"29625","localeAltName":null},{"geonameid":5255427,"name":"Hammond","admin3":"32325","localeAltName":null},{"geonameid":5257080,"name":"Hudson","admin3":"36250","localeAltName":null},{"geonameid":5264475,"name":"New Richmond","admin3":"57100","localeAltName":null},{"geonameid":5264862,"name":"North Hudson","admin3":"58050","localeAltName":null},{"geonameid":5269165,"name":"Roberts","admin3":"68475","localeAltName":null},{"geonameid":5273620,"name":"Somerset","admin3":"74675","localeAltName":null},{"geonameid":5274510,"name":"Star Prairie","admin3":"76825","localeAltName":null},{"geonameid":5279715,"name":"Woodville","admin3":"89025","localeAltName":null}],"admin3":[{"geonameid":5244581,"name":"Town of Baldwin","admin3":"04425"},{"geonameid":5244582,"name":"Village of Baldwin","admin3":"04400","localeAltName":null},{"geonameid":5247399,"name":"Town of Cady","admin3":"11775"},{"geonameid":5249971,"name":"Town of Cylon","admin3":"18300"},{"geonameid":5250362,"name":"Village of Deer Park","admin3":"19325"},{"geonameid":5251465,"name":"Town of Eau Galle","admin3":"22400"},{"geonameid":5251914,"name":"Town of Emerald","admin3":"23925"},{"geonameid":5252089,"name":"Town of Erin Prairie","admin3":"24275"},{"geonameid":5253478,"name":"Town of Forest","admin3":"26525"},{"geonameid":5254436,"name":"City of Glenwood City","admin3":"29625","localeAltName":null},{"geonameid":5254440,"name":"Town of Glenwood","admin3":"29600"},{"geonameid":5255435,"name":"Town of Hammond","admin3":"32350"},{"geonameid":5255436,"name":"Village of Hammond","admin3":"32325","localeAltName":null},{"geonameid":5257092,"name":"City of Hudson","admin3":"36250","localeAltName":null},{"geonameid":5257093,"name":"Town of Hudson","admin3":"36275"},{"geonameid":5258683,"name":"Town of Kinnickinnic","admin3":"39825"},{"geonameid":5264484,"name":"City of New Richmond","admin3":"57100","localeAltName":null},{"geonameid":5264865,"name":"Village of North Hudson","admin3":"58050","localeAltName":null},{"geonameid":5267490,"name":"Town of Pleasant Valley","admin3":"63425"},{"geonameid":5268875,"name":"Town of Richmond","admin3":"67650"},{"geonameid":5269172,"name":"Village of Roberts","admin3":"68475","localeAltName":null},{"geonameid":5269769,"name":"Town of Rush River","admin3":"70200"},{"geonameid":5270856,"name":"Town of Saint Joseph","admin3":"70825"},{"geonameid":5273623,"name":"Town of Somerset","admin3":"74700"},{"geonameid":5273624,"name":"Village of Somerset","admin3":"74675","localeAltName":null},{"geonameid":5274343,"name":"Town of Springfield","admin3":"75950"},{"geonameid":5274489,"name":"Town of Stanton","admin3":"76675"},{"geonameid":5274512,"name":"Town of Star Prairie","admin3":"76850"},{"geonameid":5274513,"name":"Village of Star Prairie","admin3":"76825","localeAltName":null},{"geonameid":5276354,"name":"Town of Troy","admin3":"80800"},{"geonameid":5277839,"name":"Town of Warren","admin3":"83400"},{"geonameid":5279269,"name":"Village of Wilson","admin3":"87475"},{"geonameid":5279720,"name":"Village of Woodville","admin3":"89025","localeAltName":null}],"alternateNames":[{"alternatenameId":2089565,"geonameid":5279468,"isoLanguage":"en","alternateName":"Wisconsin","isPreferredName":true,"isShortName":true,"isColloquial":false,"isHistoric":false}]},"__N_SSG":true}