{"pageProps":{"locale":"en","admin2":{"geonameid":5277134,"name":"Vernon County","country":"US","admin1":"WI","admin2":"123","admin3":"","latitude":"43.5938600","longitude":"-90.8343800","localeAltName":null},"admin1":{"geonameid":5279468,"name":"Wisconsin","admin1":"WI","localeAltName":"Wisconsin"},"locations":[{"geonameid":5249428,"name":"Coon Valley","admin3":"16900","localeAltName":null},{"geonameid":5255103,"name":"Greenwood","admin3":"31625","localeAltName":null},{"geonameid":5256376,"name":"Hillsboro","admin3":"34825","localeAltName":null},{"geonameid":5258975,"name":"La Farge","admin3":"40875","localeAltName":null},{"geonameid":5259868,"name":"Liberty","admin3":"43900","localeAltName":null},{"geonameid":5265748,"name":"Ontario","admin3":"60075","localeAltName":null},{"geonameid":5274709,"name":"Stoddard","admin3":"77550","localeAltName":null},{"geonameid":5277255,"name":"Viola","admin3":"82900","localeAltName":null},{"geonameid":5277276,"name":"Viroqua","admin3":"82925","localeAltName":null},{"geonameid":5278652,"name":"Westby","admin3":"85475","localeAltName":null}],"admin3":[{"geonameid":5245484,"name":"Town of Bergen","admin3":"06900"},{"geonameid":5248364,"name":"Village of Chaseburg","admin3":"14150"},{"geonameid":5248627,"name":"Town of Christiana","admin3":"14675"},{"geonameid":5248983,"name":"Town of Clinton","admin3":"15675"},{"geonameid":5249410,"name":"Village of Coon Valley","admin3":"16900","localeAltName":null},{"geonameid":5249411,"name":"Town of Coon","admin3":"16875"},{"geonameid":5250211,"name":"Village of De Soto","admin3":"19850"},{"geonameid":5253479,"name":"Town of Forest","admin3":"26550"},{"geonameid":5253759,"name":"Town of Franklin","admin3":"27400"},{"geonameid":5254155,"name":"Town of Genoa","admin3":"28650"},{"geonameid":5254156,"name":"Village of Genoa","admin3":"28625"},{"geonameid":5255151,"name":"Town of Greenwood","admin3":"31625","localeAltName":null},{"geonameid":5255400,"name":"Town of Hamburg","admin3":"32225"},{"geonameid":5255574,"name":"Town of Harmony","admin3":"32725"},{"geonameid":5256383,"name":"City of Hillsboro","admin3":"34825","localeAltName":null},{"geonameid":5256384,"name":"Town of Hillsboro","admin3":"34850"},{"geonameid":5257833,"name":"Town of Jefferson","admin3":"37975"},{"geonameid":5258521,"name":"Town of Kickapoo","admin3":"39475"},{"geonameid":5258978,"name":"Village of La Farge","admin3":"40875","localeAltName":null},{"geonameid":5259907,"name":"Town of Liberty","admin3":"43900","localeAltName":null},{"geonameid":5265749,"name":"Village of Ontario","admin3":"60075","localeAltName":null},{"geonameid":5268458,"name":"Village of Readstown","admin3":"66450"},{"geonameid":5274522,"name":"Town of Stark","admin3":"76725"},{"geonameid":5274620,"name":"Town of Sterling","admin3":"77075"},{"geonameid":5274713,"name":"Village of Stoddard","admin3":"77550","localeAltName":null},{"geonameid":5276764,"name":"Town of Union","admin3":"81675"},{"geonameid":5277263,"name":"Village of Viola","admin3":"82900","localeAltName":null},{"geonameid":5277281,"name":"City of Viroqua","admin3":"82925","localeAltName":null},{"geonameid":5277282,"name":"Town of Viroqua","admin3":"82950"},{"geonameid":5278276,"name":"Town of Webster","admin3":"85050"},{"geonameid":5278656,"name":"City of Westby","admin3":"85475","localeAltName":null},{"geonameid":5278748,"name":"Town of Wheatland","admin3":"86525"},{"geonameid":5278936,"name":"Town of Whitestown","admin3":"86900"}],"alternateNames":[{"alternatenameId":2089565,"geonameid":5279468,"isoLanguage":"en","alternateName":"Wisconsin","isPreferredName":true,"isShortName":true,"isColloquial":false,"isHistoric":false}]},"__N_SSG":true}