{"pageProps":{"locale":"en","admin2":{"geonameid":5277222,"name":"Vilas County","country":"US","admin1":"WI","admin2":"125","admin3":"","latitude":"46.0528900","longitude":"-89.5147700","localeAltName":null},"admin1":{"geonameid":5279468,"name":"Wisconsin","admin1":"WI","localeAltName":"Wisconsin"},"locations":[{"geonameid":5251171,"name":"Eagle River","admin3":"21625","localeAltName":null},{"geonameid":5259036,"name":"Lac du Flambeau","admin3":"40687","localeAltName":null}],"admin3":[{"geonameid":5244097,"name":"Town of Arbor Vitae","admin3":"02450"},{"geonameid":5246529,"name":"Town of Boulder Junction","admin3":"08950"},{"geonameid":5249026,"name":"Town of Cloverland","admin3":"15850"},{"geonameid":5249320,"name":"Town of Conover","admin3":"16750"},{"geonameid":5251177,"name":"City of Eagle River","admin3":"21625","localeAltName":null},{"geonameid":5259039,"name":"Town of Lac du Flambeau","admin3":"40687","localeAltName":null},{"geonameid":5259464,"name":"Town of Land O'Lakes","admin3":"42325"},{"geonameid":5260099,"name":"Town of Lincoln","admin3":"44525"},{"geonameid":5261584,"name":"Town of Manitowish Waters","admin3":"48462"},{"geonameid":5266756,"name":"Town of Phelps","admin3":"62425"},{"geonameid":5267568,"name":"Town of Plum Lake","admin3":"63625"},{"geonameid":5268056,"name":"Town of Presque Isle","admin3":"65425"},{"geonameid":5270820,"name":"Town of Saint Germain","admin3":"70725"},{"geonameid":5277969,"name":"Town of Washington","admin3":"83750"},{"geonameid":5279282,"name":"Town of Winchester","admin3":"87600"}],"alternateNames":[{"alternatenameId":2089565,"geonameid":5279468,"isoLanguage":"en","alternateName":"Wisconsin","isPreferredName":true,"isShortName":true,"isColloquial":false,"isHistoric":false}]},"__N_SSG":true}