{"pageProps":{"locale":"en","admin2":{"geonameid":5277773,"name":"Walworth County","country":"US","admin1":"WI","admin2":"127","admin3":"","latitude":"42.6684800","longitude":"-88.5419200","localeAltName":null},"admin1":{"geonameid":5279468,"name":"Wisconsin","admin1":"WI","localeAltName":"Wisconsin"},"locations":[{"geonameid":5249259,"name":"Como","admin3":"28550","localeAltName":null},{"geonameid":5250104,"name":"Darien","admin3":"18825","localeAltName":null},{"geonameid":5250399,"name":"Delavan","admin3":"19450","localeAltName":null},{"geonameid":5250402,"name":"Delavan Lake","admin3":"19475","localeAltName":null},{"geonameid":5251390,"name":"East Troy","admin3":"22100","localeAltName":null},{"geonameid":5251729,"name":"Elkhorn","admin3":"23300","localeAltName":null},{"geonameid":5253369,"name":"Fontana","admin3":"26350","localeAltName":null},{"geonameid":5254150,"name":"Genoa City","admin3":"28675","localeAltName":null},{"geonameid":5259169,"name":"Lake Geneva","admin3":"41450","localeAltName":null},{"geonameid":5266483,"name":"Pell Lake","admin3":"","localeAltName":null},{"geonameid":5267881,"name":"Potter Lake","admin3":"22125","localeAltName":null},{"geonameid":5268869,"name":"Richmond","admin3":"67725","localeAltName":null},{"geonameid":5272851,"name":"Sharon","admin3":"72875","localeAltName":null},{"geonameid":5277801,"name":"Walworth","admin3":"83250","localeAltName":null},{"geonameid":5278931,"name":"Whitewater","admin3":"86925","localeAltName":null},{"geonameid":5279098,"name":"Williams Bay","admin3":"87200","localeAltName":null}],"admin3":[{"geonameid":5246242,"name":"Town of Bloomfield","admin3":"08275"},{"geonameid":5250107,"name":"Town of Darien","admin3":"18850"},{"geonameid":5250108,"name":"Village of Darien","admin3":"18825","localeAltName":null},{"geonameid":5250405,"name":"City of Delavan","admin3":"19450","localeAltName":null},{"geonameid":5250406,"name":"Town of Delavan","admin3":"19475","localeAltName":null},{"geonameid":5251383,"name":"Town of East Troy","admin3":"22125","localeAltName":null},{"geonameid":5251384,"name":"Village of East Troy","admin3":"22100","localeAltName":null},{"geonameid":5251732,"name":"City of Elkhorn","admin3":"23300","localeAltName":null},{"geonameid":5253371,"name":"Village of Fontana-on-Geneva Lake","admin3":"26350","localeAltName":null},{"geonameid":5254147,"name":"Town of Geneva","admin3":"28550","localeAltName":null},{"geonameid":5254151,"name":"Village of Genoa City","admin3":"28675","localeAltName":null},{"geonameid":5258989,"name":"Town of La Grange","admin3":"41050"},{"geonameid":5259067,"name":"Town of Lafayette","admin3":"40950"},{"geonameid":5259179,"name":"City of Lake Geneva","admin3":"41450","localeAltName":null},{"geonameid":5260150,"name":"Town of Linn","admin3":"44750"},{"geonameid":5261404,"name":"Town of Lyons","admin3":"46725"},{"geonameid":5268876,"name":"Town of Richmond","admin3":"67725","localeAltName":null},{"geonameid":5272855,"name":"Town of Sharon","admin3":"72900"},{"geonameid":5272856,"name":"Village of Sharon","admin3":"72875","localeAltName":null},{"geonameid":5274275,"name":"Town of Spring Prairie","admin3":"76175"},{"geonameid":5274925,"name":"Town of Sugar Creek","admin3":"78100"},{"geonameid":5276355,"name":"Town of Troy","admin3":"80875"},{"geonameid":5277780,"name":"Town of Walworth","admin3":"83275"},{"geonameid":5277781,"name":"Village of Walworth","admin3":"83250","localeAltName":null},{"geonameid":5278942,"name":"City of Whitewater","admin3":"86925","localeAltName":null},{"geonameid":5278943,"name":"Town of Whitewater","admin3":"86950"},{"geonameid":5279101,"name":"Village of Williams Bay","admin3":"87200","localeAltName":null}],"alternateNames":[{"alternatenameId":2089565,"geonameid":5279468,"isoLanguage":"en","alternateName":"Wisconsin","isPreferredName":true,"isShortName":true,"isColloquial":false,"isHistoric":false}]},"__N_SSG":true}