{"pageProps":{"locale":"en","admin2":{"geonameid":5278089,"name":"Waupaca County","country":"US","admin1":"WI","admin2":"135","admin3":"","latitude":"44.4704300","longitude":"-88.9648200","localeAltName":null},"admin1":{"geonameid":5279468,"name":"Wisconsin","admin1":"WI","localeAltName":"Wisconsin"},"locations":[{"geonameid":5248985,"name":"Clintonville","admin3":"15725","localeAltName":null},{"geonameid":5253823,"name":"Fremont","admin3":"27800","localeAltName":null},{"geonameid":5257499,"name":"Iola","admin3":"37025","localeAltName":null},{"geonameid":5258592,"name":"King","admin3":"25400","localeAltName":null},{"geonameid":5261556,"name":"Manawa","admin3":"48350","localeAltName":null},{"geonameid":5261872,"name":"Marion","admin3":"49400","localeAltName":null},{"geonameid":5264455,"name":"New London","admin3":"56925","localeAltName":null},{"geonameid":5278083,"name":"Waupaca","admin3":"84375","localeAltName":null},{"geonameid":5278723,"name":"Weyauwega","admin3":"86400","localeAltName":null}],"admin3":[{"geonameid":5245048,"name":"Town of Bear Creek","admin3":"05625"},{"geonameid":5245794,"name":"Village of Big Falls","admin3":"07250"},{"geonameid":5247426,"name":"Town of Caledonia","admin3":"12000"},{"geonameid":5248992,"name":"City of Clintonville","admin3":"15725","localeAltName":null},{"geonameid":5250187,"name":"Town of Dayton","admin3":"19025"},{"geonameid":5251055,"name":"Town of Dupont","admin3":"21200"},{"geonameid":5251933,"name":"Village of Embarrass","admin3":"23850"},{"geonameid":5252537,"name":"Town of Farmington","admin3":"25400","localeAltName":null},{"geonameid":5253828,"name":"Town of Fremont","admin3":"27850"},{"geonameid":5253829,"name":"Village of Fremont","admin3":"27800","localeAltName":null},{"geonameid":5255618,"name":"Town of Harrison","admin3":"32925"},{"geonameid":5256001,"name":"Town of Helvetia","admin3":"33850"},{"geonameid":5257505,"name":"Town of Iola","admin3":"37050"},{"geonameid":5257506,"name":"Village of Iola","admin3":"37025","localeAltName":null},{"geonameid":5259534,"name":"Town of Larrabee","admin3":"42650"},{"geonameid":5259672,"name":"Town of Lebanon","admin3":"43075"},{"geonameid":5260108,"name":"Town of Lind","admin3":"44575"},{"geonameid":5260638,"name":"Town of Little Wolf","admin3":"45300"},{"geonameid":5261561,"name":"City of Manawa","admin3":"48350","localeAltName":null},{"geonameid":5261885,"name":"City of Marion","admin3":"49400","localeAltName":null},{"geonameid":5262076,"name":"Town of Matteson","admin3":"49975"},{"geonameid":5263964,"name":"Town of Mukwa","admin3":"55025"},{"geonameid":5264462,"name":"City of New London","admin3":"56925","localeAltName":null},{"geonameid":5265565,"name":"Village of Ogdensburg","admin3":"59475"},{"geonameid":5269683,"name":"Town of Royalton","admin3":"69900"},{"geonameid":5270958,"name":"Town of Saint Lawrence","admin3":"70900"},{"geonameid":5272315,"name":"Town of Scandinavia","admin3":"72000"},{"geonameid":5272316,"name":"Village of Scandinavia","admin3":"71975"},{"geonameid":5276765,"name":"Town of Union","admin3":"81700"},{"geonameid":5278099,"name":"City of Waupaca","admin3":"84375","localeAltName":null},{"geonameid":5278100,"name":"Town of Waupaca","admin3":"84400"},{"geonameid":5278728,"name":"City of Weyauwega","admin3":"86400","localeAltName":null},{"geonameid":5278729,"name":"Town of Weyauwega","admin3":"86425"},{"geonameid":5279795,"name":"Town of Wyoming","admin3":"89375"}],"alternateNames":[{"alternatenameId":2089565,"geonameid":5279468,"isoLanguage":"en","alternateName":"Wisconsin","isPreferredName":true,"isShortName":true,"isColloquial":false,"isHistoric":false}]},"__N_SSG":true}