{"pageProps":{"locale":"en","admin2":{"geonameid":5279557,"name":"Wood County","country":"US","admin1":"WI","admin2":"141","admin3":"","latitude":"44.4553200","longitude":"-90.0415800","localeAltName":null},"admin1":{"geonameid":5279468,"name":"Wisconsin","admin1":"WI","localeAltName":"Wisconsin"},"locations":[{"geonameid":5244355,"name":"Auburndale","admin3":"03775","localeAltName":null},{"geonameid":5245993,"name":"Biron","admin3":"07650","localeAltName":null},{"geonameid":5256114,"name":"Hewitt","admin3":"34250","localeAltName":null},{"geonameid":5259304,"name":"Lake Wazeecha","admin3":"30125","localeAltName":null},{"geonameid":5261969,"name":"Marshfield","admin3":"49675","localeAltName":null},{"geonameid":5264253,"name":"Nekoosa","admin3":"55875","localeAltName":null},{"geonameid":5267265,"name":"Pittsville","admin3":"63100","localeAltName":null},{"geonameid":5267769,"name":"Port Edwards","admin3":"64175","localeAltName":null},{"geonameid":4833986,"name":"Sherry","admin3":"73475","localeAltName":null},{"geonameid":5277149,"name":"Vesper","admin3":"82650","localeAltName":null},{"geonameid":5279436,"name":"Wisconsin Rapids","admin3":"88200","localeAltName":null}],"admin3":[{"geonameid":5244193,"name":"Town of Arpin","admin3":"03050"},{"geonameid":5244194,"name":"Village of Arpin","admin3":"03025"},{"geonameid":5244359,"name":"Town of Auburndale","admin3":"03800"},{"geonameid":5244360,"name":"Village of Auburndale","admin3":"03775","localeAltName":null},{"geonameid":5245997,"name":"Village of Biron","admin3":"07650","localeAltName":null},{"geonameid":5247566,"name":"Town of Cameron","admin3":"12275"},{"geonameid":5247914,"name":"Town of Cary","admin3":"12775"},{"geonameid":5249692,"name":"Town of Cranmoor","admin3":"17525"},{"geonameid":5250566,"name":"Town of Dexter","admin3":"20075"},{"geonameid":5254775,"name":"Town of Grand Rapids","admin3":"30125","localeAltName":null},{"geonameid":5255484,"name":"Town of Hansen","admin3":"32575"},{"geonameid":5256119,"name":"Village of Hewitt","admin3":"34250","localeAltName":null},{"geonameid":5256302,"name":"Town of Hiles","admin3":"34675"},{"geonameid":5260100,"name":"Town of Lincoln","admin3":"44550"},{"geonameid":5261979,"name":"City of Marshfield","admin3":"49675","localeAltName":null},{"geonameid":5261981,"name":"Town of Marshfield","admin3":"49700"},{"geonameid":5262966,"name":"Town of Milladore","admin3":"51900"},{"geonameid":5262967,"name":"Village of Milladore","admin3":"51875"},{"geonameid":5264260,"name":"City of Nekoosa","admin3":"55875","localeAltName":null},{"geonameid":5267266,"name":"City of Pittsville","admin3":"63100","localeAltName":null},{"geonameid":5267773,"name":"Town of Port Edwards","admin3":"64200"},{"geonameid":5267774,"name":"Village of Port Edwards","admin3":"64175","localeAltName":null},{"geonameid":5268636,"name":"Town of Remington","admin3":"67000"},{"geonameid":5268844,"name":"Town of Richfield","admin3":"67500"},{"geonameid":5269303,"name":"Town of Rock","admin3":"68625"},{"geonameid":5269714,"name":"Town of Rudolph","admin3":"70025"},{"geonameid":5269715,"name":"Village of Rudolph","admin3":"70000"},{"geonameid":5272208,"name":"Town of Saratoga","admin3":"71600"},{"geonameid":5272667,"name":"Town of Seneca","admin3":"72575"},{"geonameid":5273017,"name":"Town of Sherry","admin3":"73475","localeAltName":null},{"geonameid":5273145,"name":"Town of Sigel","admin3":"73900"},{"geonameid":5277153,"name":"Village of Vesper","admin3":"82650","localeAltName":null},{"geonameid":5279441,"name":"City of Wisconsin Rapids","admin3":"88200","localeAltName":null},{"geonameid":5279591,"name":"Town of Wood","admin3":"88575"}],"alternateNames":[{"alternatenameId":2089565,"geonameid":5279468,"isoLanguage":"en","alternateName":"Wisconsin","isPreferredName":true,"isShortName":true,"isColloquial":false,"isHistoric":false}]},"__N_SSG":true}