{"pageProps":{"locale":"en","admin2":{"geonameid":2650345,"name":"East Riding of Yorkshire","country":"GB","admin1":"ENG","admin2":"E1","admin3":"","latitude":"53.9166700","longitude":"-0.5000000","localeAltName":null},"admin1":{"geonameid":6269131,"name":"England","admin1":"ENG","localeAltName":"England"},"locations":[{"geonameid":2657669,"name":"Adlingfleet","admin3":"00FB150","localeAltName":null},{"geonameid":2657594,"name":"Airmyn","admin3":"00FB001","localeAltName":null},{"geonameid":2657561,"name":"Aldbrough","admin3":"00FB002","localeAltName":null},{"geonameid":2657024,"name":"Arram","admin3":"00FB087","localeAltName":null},{"geonameid":2657022,"name":"Arras","admin3":"00FB093","localeAltName":null},{"geonameid":2656834,"name":"Atwick","admin3":"00FB005","localeAltName":null},{"geonameid":2656785,"name":"Aughton","admin3":"00FB044","localeAltName":null},{"geonameid":2656619,"name":"Bainton","admin3":"00FB006","localeAltName":null},{"geonameid":2656574,"name":"Balkholme","admin3":"00FB082","localeAltName":null},{"geonameid":2656315,"name":"Barmby on the Marsh","admin3":"00FB008","localeAltName":null},{"geonameid":2656314,"name":"Barmby on the Moor","admin3":"00FB007","localeAltName":null},{"geonameid":2656308,"name":"Barmston","admin3":"00FB009","localeAltName":null},{"geonameid":2656023,"name":"Beeford","admin3":"00FB010","localeAltName":null},{"geonameid":2655923,"name":"Bempton","admin3":"00FB012","localeAltName":null},{"geonameid":2655881,"name":"Bentley","admin3":"00FB120","localeAltName":null},{"geonameid":2655812,"name":"Bessingby","admin3":"00FB169","localeAltName":null},{"geonameid":2655785,"name":"Beverley","admin3":"00FB166","localeAltName":null},{"geonameid":2655779,"name":"Bewholme","admin3":"00FB014","localeAltName":null},{"geonameid":11593094,"name":"Bielby","admin3":"00FB011","localeAltName":null},{"geonameid":2655580,"name":"Bishop Burton","admin3":"00FB016","localeAltName":null},{"geonameid":2655547,"name":"Bishop Wilton","admin3":"00FB017","localeAltName":null},{"geonameid":2655440,"name":"Blacktoft","admin3":"00FB018","localeAltName":null},{"geonameid":2655029,"name":"Boynton","admin3":"00FB019","localeAltName":null},{"geonameid":2654898,"name":"Brandesburton","admin3":"00FB020","localeAltName":null},{"geonameid":2654877,"name":"Brantingham","admin3":"00FB021","localeAltName":null},{"geonameid":6453268,"name":"Breighton","admin3":"00FB023","localeAltName":null},{"geonameid":2654728,"name":"Bridlington","admin3":"00FB169","localeAltName":null},{"geonameid":2654718,"name":"Brigham","admin3":"00FB053","localeAltName":null},{"geonameid":2654549,"name":"Broomfleet","admin3":"00FB022","localeAltName":null},{"geonameid":2654532,"name":"Brough","admin3":"00FB045","localeAltName":null},{"geonameid":2654430,"name":"Bubwith","admin3":"00FB023","localeAltName":null},{"geonameid":2654370,"name":"Bugthorpe","admin3":"00FB024","localeAltName":null},{"geonameid":2654227,"name":"Burshill","admin3":"00FB020","localeAltName":null},{"geonameid":2654220,"name":"Burstwick","admin3":"00FB025","localeAltName":null},{"geonameid":2654214,"name":"Burton Agnes","admin3":"00FB026","localeAltName":null},{"geonameid":2654211,"name":"Burton Constable","admin3":"00FB027","localeAltName":null},{"geonameid":2654203,"name":"Burton Pidsea","admin3":"00FB029","localeAltName":null},{"geonameid":2653742,"name":"Carnaby","admin3":"00FB030","localeAltName":null},{"geonameid":2653490,"name":"Catwick","admin3":"00FB032","localeAltName":null},{"geonameid":2653243,"name":"Cherry Burton","admin3":"00FB033","localeAltName":null},{"geonameid":2652276,"name":"Cotness","admin3":"00FB086","localeAltName":null},{"geonameid":2652262,"name":"Cottingham","admin3":"00FB167","localeAltName":null},{"geonameid":2652194,"name":"Cowlam","admin3":"00FB035","localeAltName":null},{"geonameid":2652077,"name":"Cranswick","admin3":"00FB078","localeAltName":null},{"geonameid":2651255,"name":"Dimlington","admin3":"00FB039","localeAltName":null},{"geonameid":2648120,"name":"Driffield","admin3":"00FB038","localeAltName":null},{"geonameid":2650686,"name":"Dunnington","admin3":"00FB014","localeAltName":null},{"geonameid":2650649,"name":"Dunswell","admin3":"00FB163","localeAltName":null},{"geonameid":2650519,"name":"Easington","admin3":"00FB039","localeAltName":null},{"geonameid":2650478,"name":"East Cottingwith","admin3":"00FB036","localeAltName":null},{"geonameid":2650344,"name":"Eastrington","admin3":"00FB041","localeAltName":null},{"geonameid":2650100,"name":"Ellerker","admin3":"00FB043","localeAltName":null},{"geonameid":2650099,"name":"Ellerton","admin3":"00FB044","localeAltName":null},{"geonameid":2650083,"name":"Elloughton","admin3":"00FB045","localeAltName":null},{"geonameid":2649868,"name":"Etton","admin3":"00FB047","localeAltName":null},{"geonameid":2649841,"name":"Everingham","admin3":"00FB048","localeAltName":null},{"geonameid":6693762,"name":"Everthorpe","admin3":"00FB102","localeAltName":null},{"geonameid":2649710,"name":"Fangfoss","admin3":"00FB049","localeAltName":null},{"geonameid":2649326,"name":"Faxfleet","admin3":"00FB018","localeAltName":null},{"geonameid":2649451,"name":"Fimber","admin3":"00FB050","localeAltName":null},{"geonameid":2649337,"name":"Flamborough","admin3":"00FB051","localeAltName":null},{"geonameid":2649299,"name":"Flinton","admin3":"00FB077","localeAltName":null},{"geonameid":2649264,"name":"Foggathorpe","admin3":"00FB052","localeAltName":null},{"geonameid":2649227,"name":"Fordon","admin3":"00FB162","localeAltName":null},{"geonameid":2649157,"name":"Foston on the Wolds","admin3":"00FB053","localeAltName":null},{"geonameid":2649107,"name":"Fraisthorpe","admin3":"00FB009","localeAltName":null},{"geonameid":2649056,"name":"Fridaythorpe","admin3":"00FB054","localeAltName":null},{"geonameid":2648993,"name":"Full Sutton","admin3":"00FB055","localeAltName":null},{"geonameid":2648807,"name":"Garton","admin3":"00FB040","localeAltName":null},{"geonameid":2648806,"name":"Garton on the Wolds","admin3":"00FB056","localeAltName":null},{"geonameid":2648675,"name":"Gilberdyke","admin3":"00FB057","localeAltName":null},{"geonameid":2648331,"name":"Goodmanham","admin3":"00FB058","localeAltName":null},{"geonameid":2648319,"name":"Goole","admin3":"00FB059","localeAltName":null},{"geonameid":11593284,"name":"Gowdall","admin3":"00FB061","localeAltName":null},{"geonameid":2648252,"name":"Goxhill","admin3":"00FB065","localeAltName":null},{"geonameid":2648130,"name":"Great Cowden","admin3":"00FB092","localeAltName":null},{"geonameid":2648099,"name":"Great Givendale","admin3":"00FB096","localeAltName":null},{"geonameid":2647870,"name":"Grindale","admin3":"00FB062","localeAltName":null},{"geonameid":2647606,"name":"Halsham","admin3":"00FB063","localeAltName":null},{"geonameid":2647448,"name":"Harpham","admin3":"00FB064","localeAltName":null},{"geonameid":2647418,"name":"Harswell","admin3":"00FB048","localeAltName":null},{"geonameid":2647250,"name":"Hayton","admin3":"00FB066","localeAltName":null},{"geonameid":2647191,"name":"Hedon","admin3":"00FB067","localeAltName":null},{"geonameid":2647034,"name":"Hessle","admin3":"00FB068","localeAltName":null},{"geonameid":2646973,"name":"High Catton","admin3":"00FB031","localeAltName":null},{"geonameid":6947734,"name":"High Hunsley","admin3":"00FB120","localeAltName":null},{"geonameid":2646962,"name":"Highfield","admin3":"00FB023","localeAltName":null},{"geonameid":2646877,"name":"Hilston","admin3":"00FB118","localeAltName":null},{"geonameid":2646736,"name":"Hollym","admin3":"00FB069","localeAltName":null},{"geonameid":2646718,"name":"Holme upon Spalding Moor","admin3":"00FB070","localeAltName":null},{"geonameid":2646712,"name":"Holmpton","admin3":"00FB071","localeAltName":null},{"geonameid":2646652,"name":"Hook","admin3":"00FB072","localeAltName":null},{"geonameid":2646583,"name":"Hornsea","admin3":"00FB073","localeAltName":null},{"geonameid":2646537,"name":"Hotham","admin3":"00FB074","localeAltName":null},{"geonameid":2646499,"name":"Howden","admin3":"00FB075","localeAltName":null},{"geonameid":10376006,"name":"Howden Dyke","admin3":"00FB082","localeAltName":null},{"geonameid":2646456,"name":"Huggate","admin3":"00FB076","localeAltName":null},{"geonameid":2646431,"name":"Humbleton","admin3":"00FB077","localeAltName":null},{"geonameid":2646339,"name":"Hutton","admin3":"00FB078","localeAltName":null},{"geonameid":9884060,"name":"Kelleythorpe","admin3":"00FB084","localeAltName":null},{"geonameid":2645734,"name":"Keyingham","admin3":"00FB080","localeAltName":null},{"geonameid":2645662,"name":"Kilham","admin3":"00FB081","localeAltName":null},{"geonameid":2645566,"name":"Kilnsea","admin3":"00FB039","localeAltName":null},{"geonameid":2645564,"name":"Kilnwick","admin3":"00FB013","localeAltName":null},{"geonameid":2645558,"name":"Kilpin","admin3":"00FB082","localeAltName":null},{"geonameid":10376007,"name":"Kilpin Pike","admin3":"00FB082","localeAltName":null},{"geonameid":2645333,"name":"Kirby Underdale","admin3":"00FB083","localeAltName":null},{"geonameid":2645283,"name":"Kirk Ella","admin3":"00FB170","localeAltName":null},{"geonameid":2645316,"name":"Kirkburn","admin3":"00FB084","localeAltName":null},{"geonameid":2645160,"name":"Knedlington","admin3":"00FB004","localeAltName":null},{"geonameid":11592753,"name":"Langtoft","admin3":"00FB085","localeAltName":null},{"geonameid":2644773,"name":"Laxton","admin3":"00FB086","localeAltName":null},{"geonameid":2644710,"name":"Leconfield","admin3":"00FB087","localeAltName":null},{"geonameid":2644578,"name":"Leven","admin3":"00FB088","localeAltName":null},{"geonameid":2644396,"name":"Lissett","admin3":"00FB151","localeAltName":null},{"geonameid":2644336,"name":"Little Driffield","admin3":"00FB056","localeAltName":null},{"geonameid":2644224,"name":"Little Weighton","admin3":"00FB120","localeAltName":null},{"geonameid":2643788,"name":"Lockington","admin3":"00FB089","localeAltName":null},{"geonameid":2643745,"name":"Londesborough","admin3":"00FB090","localeAltName":null},{"geonameid":2643643,"name":"Long Riston","admin3":"00FB117","localeAltName":null},{"geonameid":2643544,"name":"Low Catton","admin3":"00FB031","localeAltName":null},{"geonameid":2643471,"name":"Lowthorpe","admin3":"00FB064","localeAltName":null},{"geonameid":2643390,"name":"Lund","admin3":"00FB091","localeAltName":null},{"geonameid":2643079,"name":"Mappleton","admin3":"00FB092","localeAltName":null},{"geonameid":2643021,"name":"Market Weighton","admin3":"00FB093","localeAltName":null},{"geonameid":2642842,"name":"Meaux","admin3":"00FB155","localeAltName":null},{"geonameid":2642800,"name":"Melbourne","admin3":"00FB094","localeAltName":null},{"geonameid":2642581,"name":"Middleton on the Wolds","admin3":"00FB095","localeAltName":null},{"geonameid":2642512,"name":"Millington","admin3":"00FB096","localeAltName":null},{"geonameid":2641915,"name":"Nafferton","admin3":"00FB098","localeAltName":null},{"geonameid":2641594,"name":"Newport","admin3":"00FB100","localeAltName":null},{"geonameid":2641410,"name":"North Burton","admin3":"00FB028","localeAltName":null},{"geonameid":2641404,"name":"North Cave","admin3":"00FB102","localeAltName":null},{"geonameid":2641393,"name":"North Cliffe","admin3":"00FB136","localeAltName":null},{"geonameid":2641378,"name":"North Dalton","admin3":"00FB103","localeAltName":null},{"geonameid":2641356,"name":"North Ferriby","admin3":"00FB104","localeAltName":null},{"geonameid":11593351,"name":"North Frodingham","admin3":"00FB105","localeAltName":null},{"geonameid":2641352,"name":"North Frodingham","admin3":"00FB084","localeAltName":null},{"geonameid":2641294,"name":"North Newbald","admin3":"00FB099","localeAltName":null},{"geonameid":2641158,"name":"Nunburnholme","admin3":"00FB106","localeAltName":null},{"geonameid":2640833,"name":"Ottringham","admin3":"00FB107","localeAltName":null},{"geonameid":2640815,"name":"Ousefleet","admin3":"00FB150","localeAltName":null},{"geonameid":2640786,"name":"Out Newton","admin3":"00FB039","localeAltName":null},{"geonameid":2640571,"name":"Patrington","admin3":"00FB108","localeAltName":null},{"geonameid":2640561,"name":"Paull","admin3":"00FB109","localeAltName":null},{"geonameid":2640185,"name":"Pocklington","admin3":"00FB110","localeAltName":null},{"geonameid":2640166,"name":"Pollington","admin3":"00FB111","localeAltName":null},{"geonameid":2639913,"name":"Preston","admin3":"00FB112","localeAltName":null},{"geonameid":2639590,"name":"Rawcliffe","admin3":"00FB113","localeAltName":null},{"geonameid":2639518,"name":"Reedness","admin3":"00FB114","localeAltName":null},{"geonameid":2639350,"name":"Rimswell","admin3":"00FB115","localeAltName":null},{"geonameid":2639316,"name":"Rise","admin3":"00FB116","localeAltName":null},{"geonameid":2639166,"name":"Roos","admin3":"00FB118","localeAltName":null},{"geonameid":2639071,"name":"Rotsea","admin3":"00FB078","localeAltName":null},{"geonameid":2639052,"name":"Routh","admin3":"00FB119","localeAltName":null},{"geonameid":2638986,"name":"Rudston","admin3":"00FB121","localeAltName":null},{"geonameid":2638929,"name":"Ruston Parva","admin3":"00FB064","localeAltName":null},{"geonameid":2638900,"name":"Ryehill","admin3":"00FB145","localeAltName":null},{"geonameid":2638634,"name":"Saltmarshe","admin3":"00FB086","localeAltName":null},{"geonameid":2638612,"name":"Sancton","admin3":"00FB122","localeAltName":null},{"geonameid":10376004,"name":"Sandhall","admin3":"00FB082","localeAltName":null},{"geonameid":2638582,"name":"Sandholme","admin3":"00FB057","localeAltName":null},{"geonameid":2638448,"name":"Scalby","admin3":"00FB100","localeAltName":null},{"geonameid":2638370,"name":"Scorborough","admin3":"00FB087","localeAltName":null},{"geonameid":2638269,"name":"Seaton Ross","admin3":"00FB124","localeAltName":null},{"geonameid":2637951,"name":"Shiptonthorpe","admin3":"00FB125","localeAltName":null},{"geonameid":2637850,"name":"Sigglesthorne","admin3":"00FB126","localeAltName":null},{"geonameid":2637766,"name":"Skeffling","admin3":"00FB127","localeAltName":null},{"geonameid":2637748,"name":"Skelton","admin3":"00FB082","localeAltName":null},{"geonameid":2637737,"name":"Skerne","admin3":"00FB128","localeAltName":null},{"geonameid":2637716,"name":"Skidby","admin3":"00FB129","localeAltName":null},{"geonameid":2637703,"name":"Skipsea","admin3":"00FB130","localeAltName":null},{"geonameid":2637695,"name":"Skirpenbeck","admin3":"00FB132","localeAltName":null},{"geonameid":2637656,"name":"Sledmere","admin3":"00FB133","localeAltName":null},{"geonameid":2637599,"name":"Snaith","admin3":"00FB134","localeAltName":null},{"geonameid":2637461,"name":"South Cave","admin3":"00FB135","localeAltName":null},{"geonameid":2637442,"name":"South Dalton","admin3":"00FB037","localeAltName":null},{"geonameid":2637361,"name":"South Newbald","admin3":"00FB099","localeAltName":null},{"geonameid":2637468,"name":"Southburn","admin3":"00FB084","localeAltName":null},{"geonameid":2637263,"name":"Spaldington","admin3":"00FB137","localeAltName":null},{"geonameid":2637185,"name":"Sproatley","admin3":"00FB138","localeAltName":null},{"geonameid":2637147,"name":"Staddlethorpe","admin3":"00FB057","localeAltName":null},{"geonameid":2637102,"name":"Stamford Bridge","admin3":"00FB139","localeAltName":null},{"geonameid":2636522,"name":"Sunk Island","admin3":"00FB140","localeAltName":null},{"geonameid":2636468,"name":"Sutton upon Derwent","admin3":"00FB141","localeAltName":null},{"geonameid":2636440,"name":"Swanland","admin3":"00FB142","localeAltName":null},{"geonameid":2636387,"name":"Swine","admin3":"00FB143","localeAltName":null},{"geonameid":2636386,"name":"Swinefleet","admin3":"00FB144","localeAltName":null},{"geonameid":2636019,"name":"Thirtleby","admin3":"00FB034","localeAltName":null},{"geonameid":2635988,"name":"Thorngumbald","admin3":"00FB145","localeAltName":null},{"geonameid":2635971,"name":"Thornton","admin3":"00FB146","localeAltName":null},{"geonameid":2635871,"name":"Thwing","admin3":"00FB147","localeAltName":null},{"geonameid":2635863,"name":"Tibthorpe","admin3":"00FB148","localeAltName":null},{"geonameid":2635856,"name":"Tickton","admin3":"00FB149","localeAltName":null},{"geonameid":2635354,"name":"Tunstall","admin3":"00FB118","localeAltName":null},{"geonameid":2635189,"name":"Ulrome","admin3":"00FB151","localeAltName":null},{"geonameid":2634879,"name":"Walkington","admin3":"00FB152","localeAltName":null},{"geonameid":2634804,"name":"Wansford","admin3":"00FB128","localeAltName":null},{"geonameid":2634733,"name":"Warter","admin3":"00FB153","localeAltName":null},{"geonameid":2634661,"name":"Watton","admin3":"00FB154","localeAltName":null},{"geonameid":2634657,"name":"Wauldby","admin3":"00FB156","localeAltName":null},{"geonameid":2634644,"name":"Wawne","admin3":"00FB155","localeAltName":null},{"geonameid":2634642,"name":"Waxholme","admin3":"00FB115","localeAltName":null},{"geonameid":2634557,"name":"Welton","admin3":"00FB156","localeAltName":null},{"geonameid":2634554,"name":"Welwick","admin3":"00FB157","localeAltName":null},{"geonameid":2634208,"name":"Wetwang","admin3":"00FB158","localeAltName":null},{"geonameid":2634045,"name":"Whitgift","admin3":"00FB150","localeAltName":null},{"geonameid":2633926,"name":"Wilberfoss","admin3":"00FB159","localeAltName":null},{"geonameid":2633911,"name":"Willerby","admin3":"00FB171","localeAltName":null},{"geonameid":2633836,"name":"Winestead","admin3":"00FB108","localeAltName":null},{"geonameid":2633744,"name":"Withernsea","admin3":"00FB160","localeAltName":null},{"geonameid":2633743,"name":"Withernwick","admin3":"00FB161","localeAltName":null},{"geonameid":2633705,"name":"Wold Newton","admin3":"00FB162","localeAltName":null},{"geonameid":2633487,"name":"Wressell","admin3":"00FB164","localeAltName":null},{"geonameid":2633430,"name":"Wyton","admin3":"00FB015","localeAltName":null},{"geonameid":2633354,"name":"Yokefleet","admin3":"00FB018","localeAltName":null}],"admin3":[{"geonameid":7290789,"name":"Hook","admin3":"00FB072","localeAltName":null},{"geonameid":7290820,"name":"Thorngumbald","admin3":"00FB145","localeAltName":null},{"geonameid":7291293,"name":"Swine","admin3":"00FB143","localeAltName":null},{"geonameid":7293337,"name":"Barmby Moor","admin3":"00FB007","localeAltName":null},{"geonameid":7293446,"name":"Allerthorpe","admin3":"00FB003"},{"geonameid":7293447,"name":"Beeford","admin3":"00FB010","localeAltName":null},{"geonameid":7293448,"name":"Bempton","admin3":"00FB012","localeAltName":null},{"geonameid":7293449,"name":"Bilton","admin3":"00FB015","localeAltName":null},{"geonameid":7293450,"name":"Bishop Burton","admin3":"00FB016","localeAltName":null},{"geonameid":7293451,"name":"Burstwick","admin3":"00FB025","localeAltName":null},{"geonameid":7293452,"name":"Burton Agnes","admin3":"00FB026","localeAltName":null},{"geonameid":7293453,"name":"Burton Constable","admin3":"00FB027","localeAltName":null},{"geonameid":7293454,"name":"Cottingwith","admin3":"00FB036","localeAltName":null},{"geonameid":7293455,"name":"Dalton Holme","admin3":"00FB037","localeAltName":null},{"geonameid":7293456,"name":"Ellerker","admin3":"00FB043","localeAltName":null},{"geonameid":7293457,"name":"Flamborough","admin3":"00FB051","localeAltName":null},{"geonameid":7293458,"name":"Foggathorpe","admin3":"00FB052","localeAltName":null},{"geonameid":7293459,"name":"Foston","admin3":"00FB053","localeAltName":null},{"geonameid":7293460,"name":"Fridaythorpe","admin3":"00FB054","localeAltName":null},{"geonameid":7293461,"name":"Gowdall","admin3":"00FB061","localeAltName":null},{"geonameid":7293462,"name":"Keyingham","admin3":"00FB080","localeAltName":null},{"geonameid":7293463,"name":"Kirkburn","admin3":"00FB084","localeAltName":null},{"geonameid":7293464,"name":"Langtoft","admin3":"00FB085","localeAltName":null},{"geonameid":7293465,"name":"Tickton","admin3":"00FB149","localeAltName":null},{"geonameid":7293466,"name":"Ulrome","admin3":"00FB151","localeAltName":null},{"geonameid":7293467,"name":"Wetwang","admin3":"00FB158","localeAltName":null},{"geonameid":7295033,"name":"Aldbrough","admin3":"00FB002","localeAltName":null},{"geonameid":7295035,"name":"Bewholme","admin3":"00FB014","localeAltName":null},{"geonameid":7295045,"name":"Bishop Wilton","admin3":"00FB017","localeAltName":null},{"geonameid":7295046,"name":"Goole Fields","admin3":"00FB060"},{"geonameid":7295047,"name":"Bubwith","admin3":"00FB023","localeAltName":null},{"geonameid":7295048,"name":"Burton Pidsea","admin3":"00FB029","localeAltName":null},{"geonameid":7295049,"name":"Catton","admin3":"00FB031","localeAltName":null},{"geonameid":7295050,"name":"Cherry Burton","admin3":"00FB033","localeAltName":null},{"geonameid":7295051,"name":"Driffield","admin3":"00FB038","localeAltName":null},{"geonameid":7295052,"name":"Easington","admin3":"00FB039","localeAltName":null},{"geonameid":7295053,"name":"Ellerby","admin3":"00FB042"},{"geonameid":7295054,"name":"Fangfoss","admin3":"00FB049","localeAltName":null},{"geonameid":7295055,"name":"Hedon","admin3":"00FB067","localeAltName":null},{"geonameid":7295056,"name":"Hollym","admin3":"00FB069","localeAltName":null},{"geonameid":7295057,"name":"Holmpton","admin3":"00FB071","localeAltName":null},{"geonameid":7295058,"name":"Kilham","admin3":"00FB081","localeAltName":null},{"geonameid":7295059,"name":"Kirby Underdale","admin3":"00FB083","localeAltName":null},{"geonameid":7295060,"name":"Laxton","admin3":"00FB086","localeAltName":null},{"geonameid":7295061,"name":"Leconfield","admin3":"00FB087","localeAltName":null},{"geonameid":7295062,"name":"Lockington","admin3":"00FB089","localeAltName":null},{"geonameid":7295063,"name":"Patrington","admin3":"00FB108","localeAltName":null},{"geonameid":7295064,"name":"Pocklington","admin3":"00FB110","localeAltName":null},{"geonameid":7295065,"name":"Pollington","admin3":"00FB111","localeAltName":null},{"geonameid":7295066,"name":"Rimswell","admin3":"00FB115","localeAltName":null},{"geonameid":7295067,"name":"Rudston","admin3":"00FB121","localeAltName":null},{"geonameid":7295068,"name":"Skipsea","admin3":"00FB130","localeAltName":null},{"geonameid":7295069,"name":"Sledmere","admin3":"00FB133","localeAltName":null},{"geonameid":7295070,"name":"Wawne","admin3":"00FB155","localeAltName":null},{"geonameid":7295071,"name":"Welwick","admin3":"00FB157","localeAltName":null},{"geonameid":7295072,"name":"Wilberfoss","admin3":"00FB159","localeAltName":null},{"geonameid":7295073,"name":"Withernwick","admin3":"00FB161","localeAltName":null},{"geonameid":7296024,"name":"Newport","admin3":"00FB100","localeAltName":null},{"geonameid":7296042,"name":"Hatfield","admin3":"00FB065","localeAltName":null},{"geonameid":7296228,"name":"Molescroft","admin3":"00FB097"},{"geonameid":7296229,"name":"Nafferton","admin3":"00FB098","localeAltName":null},{"geonameid":7296230,"name":"North Frodingham","admin3":"00FB105","localeAltName":null},{"geonameid":7296231,"name":"Ottringham","admin3":"00FB107","localeAltName":null},{"geonameid":7296232,"name":"Paull","admin3":"00FB109","localeAltName":null},{"geonameid":7296233,"name":"Preston","admin3":"00FB112","localeAltName":null},{"geonameid":7296234,"name":"Reedness","admin3":"00FB114","localeAltName":null},{"geonameid":7296235,"name":"Shipton Thorpe","admin3":"00FB125","localeAltName":null},{"geonameid":7296236,"name":"Skerne and Wansford","admin3":"00FB128","localeAltName":null},{"geonameid":7296237,"name":"Snaith and Cowick","admin3":"00FB134","localeAltName":null},{"geonameid":7296487,"name":"Atwick","admin3":"00FB005","localeAltName":null},{"geonameid":7296488,"name":"Barmby on the Marsh","admin3":"00FB008","localeAltName":null},{"geonameid":7296546,"name":"Lund","admin3":"00FB091","localeAltName":null},{"geonameid":7296622,"name":"Brantingham","admin3":"00FB021","localeAltName":null},{"geonameid":7296623,"name":"Goole Township","admin3":"00FB059","localeAltName":null},{"geonameid":7296624,"name":"Catwick","admin3":"00FB032","localeAltName":null},{"geonameid":7296625,"name":"Yapham","admin3":"00FB165"},{"geonameid":7297354,"name":"Thornton","admin3":"00FB146","localeAltName":null},{"geonameid":7297986,"name":"Barmston","admin3":"00FB009","localeAltName":null},{"geonameid":7297987,"name":"Broomfleet","admin3":"00FB022","localeAltName":null},{"geonameid":7297988,"name":"Millington","admin3":"00FB096","localeAltName":null},{"geonameid":7297989,"name":"Stamford Bridge","admin3":"00FB139","localeAltName":null},{"geonameid":7298006,"name":"Huggate","admin3":"00FB076","localeAltName":null},{"geonameid":7298403,"name":"Anlaby with Anlaby Common","admin3":"00FB168"},{"geonameid":7298430,"name":"Bainton","admin3":"00FB006","localeAltName":null},{"geonameid":7298431,"name":"Bielby","admin3":"00FB011","localeAltName":null},{"geonameid":7298432,"name":"Bugthorpe","admin3":"00FB024","localeAltName":null},{"geonameid":7298433,"name":"Burton Fleming","admin3":"00FB028","localeAltName":null},{"geonameid":7298434,"name":"Carnaby","admin3":"00FB030","localeAltName":null},{"geonameid":7298435,"name":"Coniston","admin3":"00FB034","localeAltName":null},{"geonameid":7298436,"name":"Cottam","admin3":"00FB035","localeAltName":null},{"geonameid":7298437,"name":"Ellerton","admin3":"00FB044","localeAltName":null},{"geonameid":7298438,"name":"Elloughton-cum-Brough","admin3":"00FB045","localeAltName":null},{"geonameid":7298439,"name":"Etton","admin3":"00FB047","localeAltName":null},{"geonameid":7298440,"name":"Everingham","admin3":"00FB048","localeAltName":null},{"geonameid":7298441,"name":"Fimber","admin3":"00FB050","localeAltName":null},{"geonameid":7298442,"name":"Hessle","admin3":"00FB068","localeAltName":null},{"geonameid":7298443,"name":"Hornsea","admin3":"00FB073","localeAltName":null},{"geonameid":7298444,"name":"Hotham","admin3":"00FB074","localeAltName":null},{"geonameid":7298445,"name":"Howden","admin3":"00FB075","localeAltName":null},{"geonameid":7298446,"name":"Humbleton","admin3":"00FB077","localeAltName":null},{"geonameid":7298447,"name":"Kilpin","admin3":"00FB082","localeAltName":null},{"geonameid":7298448,"name":"Leven","admin3":"00FB088","localeAltName":null},{"geonameid":7298449,"name":"Market Weighton","admin3":"00FB093","localeAltName":null},{"geonameid":7298450,"name":"Middleton","admin3":"00FB095","localeAltName":null},{"geonameid":7298451,"name":"Newton on Derwent","admin3":"00FB101"},{"geonameid":7298452,"name":"North Dalton","admin3":"00FB103","localeAltName":null},{"geonameid":7298453,"name":"Nunburnholme","admin3":"00FB106","localeAltName":null},{"geonameid":7298454,"name":"Rise","admin3":"00FB116","localeAltName":null},{"geonameid":7298455,"name":"Roos","admin3":"00FB118","localeAltName":null},{"geonameid":7298456,"name":"Sancton","admin3":"00FB122","localeAltName":null},{"geonameid":7298457,"name":"Seaton","admin3":"00FB123"},{"geonameid":7298458,"name":"Seaton Ross","admin3":"00FB124","localeAltName":null},{"geonameid":7298459,"name":"Skidby","admin3":"00FB129","localeAltName":null},{"geonameid":7298460,"name":"Skirpenbeck","admin3":"00FB132","localeAltName":null},{"geonameid":7298461,"name":"South Cave","admin3":"00FB135","localeAltName":null},{"geonameid":7298462,"name":"South Cliffe","admin3":"00FB136","localeAltName":null},{"geonameid":7298463,"name":"Spaldington","admin3":"00FB137","localeAltName":null},{"geonameid":7298464,"name":"Thwing","admin3":"00FB147","localeAltName":null},{"geonameid":7298465,"name":"Tibthorpe","admin3":"00FB148","localeAltName":null},{"geonameid":7298466,"name":"Walkington","admin3":"00FB152","localeAltName":null},{"geonameid":7298467,"name":"Warter","admin3":"00FB153","localeAltName":null},{"geonameid":7298468,"name":"Watton","admin3":"00FB154","localeAltName":null},{"geonameid":7298469,"name":"Wold Newton","admin3":"00FB162","localeAltName":null},{"geonameid":7298470,"name":"Woodmansey","admin3":"00FB163","localeAltName":null},{"geonameid":7298471,"name":"Wressle","admin3":"00FB164","localeAltName":null},{"geonameid":7298472,"name":"Beverley","admin3":"00FB166","localeAltName":null},{"geonameid":7298473,"name":"Cottingham","admin3":"00FB167","localeAltName":null},{"geonameid":7298474,"name":"Willerby","admin3":"00FB171","localeAltName":null},{"geonameid":7298926,"name":"Full Sutton","admin3":"00FB055","localeAltName":null},{"geonameid":7298927,"name":"Skirlaugh","admin3":"00FB131"},{"geonameid":7299641,"name":"Blacktoft","admin3":"00FB018","localeAltName":null},{"geonameid":7300431,"name":"Airmyn","admin3":"00FB001","localeAltName":null},{"geonameid":7300432,"name":"Asselby","admin3":"00FB004","localeAltName":null},{"geonameid":7300433,"name":"Beswick","admin3":"00FB013","localeAltName":null},{"geonameid":7300434,"name":"Boynton","admin3":"00FB019","localeAltName":null},{"geonameid":7300435,"name":"Brandesburton","admin3":"00FB020","localeAltName":null},{"geonameid":7300436,"name":"East Garton","admin3":"00FB040","localeAltName":null},{"geonameid":7300437,"name":"Eastrington","admin3":"00FB041","localeAltName":null},{"geonameid":7300438,"name":"Elstronwick","admin3":"00FB046"},{"geonameid":7300439,"name":"Garton","admin3":"00FB056","localeAltName":null},{"geonameid":7300440,"name":"Gilberdyke","admin3":"00FB057","localeAltName":null},{"geonameid":7300441,"name":"Goodmanham","admin3":"00FB058","localeAltName":null},{"geonameid":7300442,"name":"Grindale","admin3":"00FB062","localeAltName":null},{"geonameid":7300443,"name":"Halsham","admin3":"00FB063","localeAltName":null},{"geonameid":7300444,"name":"Harpham","admin3":"00FB064","localeAltName":null},{"geonameid":7300445,"name":"Hayton","admin3":"00FB066","localeAltName":null},{"geonameid":7300446,"name":"Holme upon Spalding Moor","admin3":"00FB070","localeAltName":null},{"geonameid":7300447,"name":"Hutton Cranswick","admin3":"00FB078","localeAltName":null},{"geonameid":7300448,"name":"Kelk","admin3":"00FB079"},{"geonameid":7300449,"name":"Londesborough","admin3":"00FB090","localeAltName":null},{"geonameid":7300450,"name":"Mappleton","admin3":"00FB092","localeAltName":null},{"geonameid":7300451,"name":"Melbourne","admin3":"00FB094","localeAltName":null},{"geonameid":7300452,"name":"Newbald","admin3":"00FB099","localeAltName":null},{"geonameid":7300453,"name":"North Cave","admin3":"00FB102","localeAltName":null},{"geonameid":7300454,"name":"North Ferriby","admin3":"00FB104","localeAltName":null},{"geonameid":7300455,"name":"Rawcliffe","admin3":"00FB113","localeAltName":null},{"geonameid":7300456,"name":"Riston","admin3":"00FB117","localeAltName":null},{"geonameid":7300457,"name":"Routh","admin3":"00FB119","localeAltName":null},{"geonameid":7300458,"name":"Rowley","admin3":"00FB120","localeAltName":null},{"geonameid":7300459,"name":"Sigglesthorne","admin3":"00FB126","localeAltName":null},{"geonameid":7300460,"name":"Skeffling","admin3":"00FB127","localeAltName":null},{"geonameid":7300461,"name":"Sproatley","admin3":"00FB138","localeAltName":null},{"geonameid":7300462,"name":"Sunk Island","admin3":"00FB140","localeAltName":null},{"geonameid":7300463,"name":"Sutton upon Derwent","admin3":"00FB141","localeAltName":null},{"geonameid":7300464,"name":"Swanland","admin3":"00FB142","localeAltName":null},{"geonameid":7300465,"name":"Swinefleet","admin3":"00FB144","localeAltName":null},{"geonameid":7300466,"name":"Twin Rivers","admin3":"00FB150","localeAltName":null},{"geonameid":7300467,"name":"Melton","admin3":"00FB156","localeAltName":null},{"geonameid":7300468,"name":"Withernsea","admin3":"00FB160","localeAltName":null},{"geonameid":7300469,"name":"Bridlington","admin3":"00FB169","localeAltName":null},{"geonameid":7300470,"name":"Kirk Ella","admin3":"00FB170","localeAltName":null}],"alternateNames":[{"alternatenameId":1626647,"geonameid":6269131,"isoLanguage":"en","alternateName":"England","isPreferredName":true,"isShortName":true,"isColloquial":false,"isHistoric":false}]},"__N_SSG":true}