{"pageProps":{"locale":"en","admin2":{"geonameid":4694710,"name":"Grayson County","country":"US","admin1":"TX","admin2":"181","admin3":"","latitude":"33.6268100","longitude":"-96.6777200"},"admin1":{"geonameid":4736286,"name":"Texas","admin1":"TX","localeAltName":"Texas"},"locations":[{"geonameid":4673390,"name":"Bells","admin3":""},{"geonameid":4682536,"name":"Collinsville","admin3":""},{"geonameid":4685892,"name":"Denison","admin3":""},{"geonameid":4695553,"name":"Gunter","admin3":""},{"geonameid":4699204,"name":"Howe","admin3":""},{"geonameid":4720314,"name":"Pottsboro","admin3":""},{"geonameid":4720583,"name":"Preston","admin3":""},{"geonameid":4728328,"name":"Sherman","admin3":""},{"geonameid":4728357,"name":"Sherwood Shores","admin3":""},{"geonameid":4733321,"name":"Southmayd","admin3":""},{"geonameid":4737052,"name":"Tom Bean","admin3":""},{"geonameid":4738884,"name":"Van Alstyne","admin3":""},{"geonameid":4741677,"name":"Whitesboro","admin3":""},{"geonameid":4741691,"name":"Whitewright","admin3":""}],"admin3":[{"geonameid":7173300,"name":"City of Denison","admin3":"7173300"},{"geonameid":7173558,"name":"City of Gunter","admin3":"7173558"},{"geonameid":7174280,"name":"Town of Bells","admin3":"7174280"},{"geonameid":7174355,"name":"City of Sadler","admin3":"7174355"},{"geonameid":7174435,"name":"City of Sherman","admin3":"7174435"},{"geonameid":7174476,"name":"City of Southmayd","admin3":"7174476"},{"geonameid":7174578,"name":"City of Tom Bean","admin3":"7174578"},{"geonameid":7174624,"name":"City of Van Alstyne","admin3":"7174624"},{"geonameid":7174705,"name":"City of Whitesboro","admin3":"7174705"},{"geonameid":7174923,"name":"Town of Pottsboro","admin3":"7174923"},{"geonameid":7175187,"name":"Town of Howe","admin3":"7175187"},{"geonameid":7175630,"name":"Town of Collinsville","admin3":"7175630"},{"geonameid":7175791,"name":"Town of Tioga","admin3":"7175791"},{"geonameid":7175879,"name":"Town of Whitewright","admin3":"7175879"},{"geonameid":7175959,"name":"City of Knollwood","admin3":"7175959"}],"alternateNames":[{"alternatenameId":1614423,"geonameid":4736286,"isoLanguage":"en","alternateName":"Texas","isPreferredName":true,"isShortName":true,"isColloquial":false,"isHistoric":false}]},"__N_SSG":true}