{"pageProps":{"locale":"en","admin2":{"geonameid":4737316,"name":"Travis County","country":"US","admin1":"TX","admin2":"453","admin3":"","latitude":"30.3346900","longitude":"-97.7819500"},"admin1":{"geonameid":4736286,"name":"Texas","admin1":"TX","localeAltName":"Texas"},"locations":[{"geonameid":4671654,"name":"Austin","admin3":""},{"geonameid":4672494,"name":"Barton Creek","admin3":""},{"geonameid":4673132,"name":"Bee Cave","admin3":""},{"geonameid":4676287,"name":"Briarcliff","admin3":""},{"geonameid":4692997,"name":"Garfield","admin3":""},{"geonameid":4698809,"name":"Hornsby Bend","admin3":""},{"geonameid":4699304,"name":"Hudson Bend","admin3":""},{"geonameid":4701592,"name":"Jonestown","admin3":""},{"geonameid":4704276,"name":"Lago Vista","admin3":""},{"geonameid":4705041,"name":"Lakeway","admin3":"7174228"},{"geonameid":4708016,"name":"Lost Creek","admin3":""},{"geonameid":4708936,"name":"Manchaca","admin3":""},{"geonameid":4708989,"name":"Manor","admin3":""},{"geonameid":4716734,"name":"Onion Creek","admin3":""},{"geonameid":4718711,"name":"Pflugerville","admin3":""},{"geonameid":4723734,"name":"Rollingwood","admin3":""},{"geonameid":4728052,"name":"Shady Hollow","admin3":""},{"geonameid":4736420,"name":"The Hills","admin3":""},{"geonameid":4740584,"name":"Wells Branch","admin3":""},{"geonameid":4740928,"name":"West Lake Hills","admin3":""},{"geonameid":4742527,"name":"Windemere","admin3":""}],"admin3":[{"geonameid":7173174,"name":"City of Jonestown","admin3":"7173174"},{"geonameid":7173257,"name":"City of Creedmoor","admin3":"7173257"},{"geonameid":7173781,"name":"City of Rollingwood","admin3":"7173781"},{"geonameid":7173802,"name":"City of Manor","admin3":"7173802"},{"geonameid":7174082,"name":"City of Pflugerville","admin3":"7174082"},{"geonameid":7174214,"name":"City of Lago Vista","admin3":"7174214"},{"geonameid":7174228,"name":"City of Lakeway","admin3":"7174228"},{"geonameid":7174530,"name":"City of Sunset Valley","admin3":"7174530"},{"geonameid":7174681,"name":"City of West Lake Hills","admin3":"7174681"},{"geonameid":7175928,"name":"City of Bee Cave","admin3":"7175928"},{"geonameid":7175931,"name":"Village of Briarcliff","admin3":"7175931"},{"geonameid":7175974,"name":"Village of Point Venture","admin3":"7175974"},{"geonameid":7175983,"name":"Village of San Leanna","admin3":"7175983"},{"geonameid":7175987,"name":"Village of The Hills","admin3":"7175987"},{"geonameid":7175993,"name":"Village of Volente","admin3":"7175993"},{"geonameid":7175995,"name":"Village of Webberville","admin3":"7175995"},{"geonameid":11788623,"name":"City of Austin","admin3":"11788623"}],"alternateNames":[{"alternatenameId":1614423,"geonameid":4736286,"isoLanguage":"en","alternateName":"Texas","isPreferredName":true,"isShortName":true,"isColloquial":false,"isHistoric":false}]},"__N_SSG":true}