{"pageProps":{"locale":"en","admin2":{"geonameid":4916845,"name":"Winnebago County","country":"US","admin1":"IL","admin2":"201","admin3":"","latitude":"42.3362600","longitude":"-89.1608500","localeAltName":null},"admin1":{"geonameid":4896861,"name":"Illinois","admin1":"IL","localeAltName":"Illinois"},"locations":[{"geonameid":4887364,"name":"Cherry Valley","admin3":"13087","localeAltName":null},{"geonameid":4890327,"name":"Durand","admin3":"21293","localeAltName":null},{"geonameid":4899135,"name":"Lake Summerset","admin3":"42054","localeAltName":null},{"geonameid":4900579,"name":"Loves Park","admin3":"65013","localeAltName":null},{"geonameid":4900801,"name":"Machesney Park","admin3":"32928","localeAltName":null},{"geonameid":4903568,"name":"New Milford","admin3":"65013","localeAltName":null},{"geonameid":4905572,"name":"Pecatonica","admin3":"58421","localeAltName":null},{"geonameid":4907959,"name":"Rockford","admin3":"65013","localeAltName":null},{"geonameid":4907985,"name":"Rockton","admin3":"65169","localeAltName":null},{"geonameid":4908126,"name":"Roscoe","admin3":"65624","localeAltName":null},{"geonameid":4911830,"name":"South Beloit","admin3":"65169","localeAltName":null},{"geonameid":4916843,"name":"Winnebago","admin3":"82504","localeAltName":null}],"admin3":[{"geonameid":4886096,"name":"Township of Burritt","admin3":"09915"},{"geonameid":4887369,"name":"Township of Cherry Valley","admin3":"13087","localeAltName":null},{"geonameid":4890333,"name":"Township of Durand","admin3":"21293","localeAltName":null},{"geonameid":4895136,"name":"Township of Harlem","admin3":"32928","localeAltName":null},{"geonameid":4895239,"name":"Township of Harrison","admin3":"33188"},{"geonameid":4899360,"name":"Township of Laona","admin3":"42054","localeAltName":null},{"geonameid":4905166,"name":"Township of Owen","admin3":"57069"},{"geonameid":4905582,"name":"Township of Pecatonica","admin3":"58421","localeAltName":null},{"geonameid":4907983,"name":"Township of Rockford","admin3":"65013","localeAltName":null},{"geonameid":4907993,"name":"Township of Rockton","admin3":"65169","localeAltName":null},{"geonameid":4908130,"name":"Township of Roscoe","admin3":"65624","localeAltName":null},{"geonameid":4911145,"name":"Township of Seward","admin3":"68783"},{"geonameid":4911386,"name":"Township of Shirland","admin3":"69615"},{"geonameid":4916860,"name":"Township of Winnebago","admin3":"82504","localeAltName":null}],"alternateNames":[{"alternatenameId":2089562,"geonameid":4896861,"isoLanguage":"en","alternateName":"Illinois","isPreferredName":true,"isShortName":true,"isColloquial":false,"isHistoric":false}]},"__N_SSG":true}