{"pageProps":{"locale":"en","admin2":{"geonameid":11353070,"name":"Causeway Coast and Glens","country":"GB","admin1":"NIR","admin2":"N09000004","admin3":"","latitude":"55.0601400","longitude":"-6.5908100"},"admin1":{"geonameid":2641364,"name":"Northern Ireland","admin1":"NIR"},"locations":[{"geonameid":2657645,"name":"Aghadowey"},{"geonameid":2657641,"name":"Aghanloo"},{"geonameid":2657619,"name":"Aird"},{"geonameid":2657413,"name":"Altmover"},{"geonameid":2657151,"name":"Ardmore"},{"geonameid":2657053,"name":"Armoy"},{"geonameid":2657005,"name":"Articlave"},{"geonameid":2657003,"name":"Artikelly"},{"geonameid":2656548,"name":"Ballintoy"},{"geonameid":8449353,"name":"Ballintoy Harbour"},{"geonameid":2656534,"name":"Ballybogy"},{"geonameid":2656531,"name":"Ballycastle"},{"geonameid":2656523,"name":"Ballydarrog"},{"geonameid":2656522,"name":"Ballydivity"},{"geonameid":2656521,"name":"Ballydonegan"},{"geonameid":2656519,"name":"Ballydullaghan"},{"geonameid":2656500,"name":"Ballykelly"},{"geonameid":2656495,"name":"Ballymaconnelly"},{"geonameid":2656488,"name":"Ballymoney"},{"geonameid":2656486,"name":"Ballynacanon"},{"geonameid":2656480,"name":"Ballynameen"},{"geonameid":11776668,"name":"Ballypatrick"},{"geonameid":2656466,"name":"Ballyvoy"},{"geonameid":2656437,"name":"Balnamore"},{"geonameid":2656373,"name":"Baranailt"},{"geonameid":8063576,"name":"Bellarena"},{"geonameid":2655658,"name":"Billy"},{"geonameid":2655483,"name":"Blackheath"},{"geonameid":2655083,"name":"Bovevagh"},{"geonameid":2654175,"name":"Bushmills"},{"geonameid":2654085,"name":"Caheny"},{"geonameid":2653857,"name":"Cape Castle"},{"geonameid":2653743,"name":"Carn"},{"geonameid":2653720,"name":"Carneatly"},{"geonameid":8440085,"name":"Carrowclare"},{"geonameid":2653554,"name":"Castlerock"},{"geonameid":2653480,"name":"Causeway Head"},{"geonameid":2652803,"name":"Clogh Mills"},{"geonameid":2652769,"name":"Cloyfin"},{"geonameid":2652586,"name":"Coleraine"},{"geonameid":2652444,"name":"Conogher"},{"geonameid":2652370,"name":"Corkey"},{"geonameid":2652152,"name":"Craigavole"},{"geonameid":2652112,"name":"Craigs"},{"geonameid":2652111,"name":"Craigs Lower"},{"geonameid":2652110,"name":"Craigs Middle"},{"geonameid":2652108,"name":"Craigs Upper"},{"geonameid":2651972,"name":"Crindle"},{"geonameid":2651676,"name":"Cushendall"},{"geonameid":2651675,"name":"Cushendun"},{"geonameid":2651333,"name":"Derrykeighan"},{"geonameid":2651328,"name":"Derryork"},{"geonameid":2651322,"name":"Dervock"},{"geonameid":2650909,"name":"Drumsurn"},{"geonameid":2650726,"name":"Dungiven"},{"geonameid":2650709,"name":"Dunloy"},{"geonameid":2650666,"name":"Dunseverick"},{"geonameid":2649589,"name":"Feeny"},{"geonameid":2649395,"name":"Finvoy"},{"geonameid":2649368,"name":"Fish Loughan"},{"geonameid":2648836,"name":"Garryduff"},{"geonameid":2648803,"name":"Garvagh"},{"geonameid":2648538,"name":"Glenariff"},{"geonameid":2648247,"name":"Gracehill"},{"geonameid":8063577,"name":"Greysteel"},{"geonameid":2645647,"name":"Killeague"},{"geonameid":2645617,"name":"Killure"},{"geonameid":2645557,"name":"Kilraghts"},{"geonameid":2645555,"name":"Kilrea"},{"geonameid":2645109,"name":"Knocknacarry"},{"geonameid":2645076,"name":"Lackagh"},{"geonameid":2644501,"name":"Limavady"},{"geonameid":2644408,"name":"Lislane"},{"geonameid":2644402,"name":"Lisnagunogue"},{"geonameid":6695747,"name":"Lissanduff"},{"geonameid":2643569,"name":"Loughan"},{"geonameid":2643261,"name":"Macfinn Lower"},{"geonameid":2643244,"name":"Macosquin"},{"geonameid":2642507,"name":"Mill Loughan"},{"geonameid":2642351,"name":"Moneydig"},{"geonameid":2642141,"name":"Moss-side"},{"geonameid":2642071,"name":"Moyarget"},{"geonameid":2640325,"name":"Pharis"},{"geonameid":6695746,"name":"Portballintrae"},{"geonameid":2640004,"name":"Portrush"},{"geonameid":2639991,"name":"Portstewart"},{"geonameid":2639628,"name":"Rasharkin"},{"geonameid":2639340,"name":"Ringsend"},{"geonameid":2639244,"name":"Rock Port"},{"geonameid":2636731,"name":"Straid"},{"geonameid":2636720,"name":"Stranocum"},{"geonameid":2636088,"name":"Terrydremont"},{"geonameid":2650968,"name":"The Drones"},{"geonameid":2635701,"name":"Tonduff"},{"geonameid":2635685,"name":"Toor"},{"geonameid":2635648,"name":"Torr"},{"geonameid":2635366,"name":"Tullyverry"}],"admin3":[],"alternateNames":[]},"__N_SSG":true}