{"pageProps":{"locale":"en","admin2":{"geonameid":2745911,"name":"Gemeente Utrecht","country":"NL","admin1":"09","admin2":"0344","admin3":"","latitude":"52.0967500","longitude":"5.0370800"},"admin1":{"geonameid":2745909,"name":"Provincie Utrecht","admin1":"09"},"locations":[{"geonameid":2759905,"name":"Alendorp","admin3":""},{"geonameid":6956042,"name":"De Balije, Hoge Veld","admin3":""},{"geonameid":6956041,"name":"De Balije, Lage Veld","admin3":""},{"geonameid":2757295,"name":"De Meern","admin3":""},{"geonameid":2757015,"name":"De Uithof","admin3":""},{"geonameid":2757226,"name":"Den Ham","admin3":""},{"geonameid":2754981,"name":"Haarzuilens","admin3":""},{"geonameid":2753676,"name":"Hoograven","admin3":""},{"geonameid":2753082,"name":"Kanaleneiland","admin3":""},{"geonameid":2752014,"name":"Lage Weide","admin3":""},{"geonameid":2751494,"name":"Lombok","admin3":""},{"geonameid":6698635,"name":"Lunetten","admin3":""},{"geonameid":2749737,"name":"Ockhuizen","admin3":""},{"geonameid":2749573,"name":"Oog in Al","admin3":""},{"geonameid":2749037,"name":"Oudenrijn","admin3":""},{"geonameid":2748815,"name":"Overvecht","admin3":""},{"geonameid":2748814,"name":"Overvecht-Noord","admin3":""},{"geonameid":2746865,"name":"Stadsdam","admin3":""},{"geonameid":2746603,"name":"Strijkviertel","admin3":""},{"geonameid":6544893,"name":"Themaat","admin3":""},{"geonameid":2746222,"name":"Tolsteeg","admin3":""},{"geonameid":2746124,"name":"Tuindorp","admin3":""},{"geonameid":2745912,"name":"Utrecht","admin3":""},{"geonameid":2745702,"name":"Veldhuizen","admin3":""},{"geonameid":2745431,"name":"Vleuten","admin3":""},{"geonameid":2743628,"name":"Zuilen","admin3":""}],"admin3":[],"alternateNames":[{"alternatenameId":11907793,"geonameid":2745909,"isoLanguage":"de","alternateName":"Utrecht","isPreferredName":true,"isShortName":true,"isColloquial":false,"isHistoric":false}]},"__N_SSG":true}