{"pageProps":{"locale":"en","admin2":{"geonameid":8260047,"name":"Stichtse Vecht","country":"NL","admin1":"09","admin2":"1904","admin3":"","latitude":"52.1767900","longitude":"5.0125900"},"admin1":{"geonameid":2745909,"name":"Provincie Utrecht","admin1":"09"},"locations":[{"geonameid":2758333,"name":"Breukelen","admin3":""},{"geonameid":2755538,"name":"Gieltjesdorp","admin3":""},{"geonameid":2747137,"name":"Kerklaan","admin3":""},{"geonameid":2752581,"name":"Kockengen","admin3":""},{"geonameid":2752393,"name":"Kortrijk","admin3":""},{"geonameid":2752106,"name":"Laag-Nieuwkoop","admin3":""},{"geonameid":2751523,"name":"Loenen aan de Vecht","admin3":""},{"geonameid":2751517,"name":"Loenersloot","admin3":""},{"geonameid":2751316,"name":"Maarssen","admin3":""},{"geonameid":2751314,"name":"Maarssenbroek","admin3":""},{"geonameid":2751312,"name":"Maarsseveen","admin3":""},{"geonameid":2750813,"name":"Mijnden","admin3":""},{"geonameid":2750254,"name":"Nieuwer Ter Aa","admin3":""},{"geonameid":2750268,"name":"Nieuwerhoek","admin3":""},{"geonameid":2750255,"name":"Nieuwersluis","admin3":""},{"geonameid":2750106,"name":"Nigtevecht","admin3":""},{"geonameid":6544898,"name":"Noordeinde","admin3":""},{"geonameid":12207018,"name":"Op Buuren","admin3":""},{"geonameid":2749192,"name":"Oud-Aa","admin3":""},{"geonameid":2748924,"name":"Oud-Maarsseveen","admin3":""},{"geonameid":2748883,"name":"Oud-Zuilen","admin3":""},{"geonameid":2748881,"name":"Oukoop","admin3":""},{"geonameid":2748486,"name":"Portengen","admin3":""},{"geonameid":6544895,"name":"Portengense Brug","admin3":""},{"geonameid":6544890,"name":"Scheendijk","admin3":""},{"geonameid":8449928,"name":"Spechtenkamp","admin3":""},{"geonameid":2746952,"name":"Spengen","admin3":""},{"geonameid":2746320,"name":"Tienhoven","admin3":""},{"geonameid":2745196,"name":"Vreeland","admin3":""},{"geonameid":12207019,"name":"Zandweg-Oostwaard","admin3":""},{"geonameid":6544896,"name":"Zuideinde","admin3":""}],"admin3":[],"alternateNames":[{"alternatenameId":11907793,"geonameid":2745909,"isoLanguage":"de","alternateName":"Utrecht","isPreferredName":true,"isShortName":true,"isColloquial":false,"isHistoric":false}]},"__N_SSG":true}