{"pageProps":{"locale":"en","admin2":{"geonameid":4470398,"name":"Haywood County","country":"US","admin1":"NC","admin2":"087","admin3":"","latitude":"35.5560500","longitude":"-82.9822400","localeAltName":null},"admin1":{"geonameid":4482348,"name":"North Carolina","admin1":"NC","localeAltName":"North Carolina"},"locations":[{"geonameid":4459120,"name":"Canton","admin3":"90196","localeAltName":null},{"geonameid":4461150,"name":"Clyde","admin3":"90704","localeAltName":null},{"geonameid":4462104,"name":"Cove Creek","admin3":"91680","localeAltName":null},{"geonameid":4470416,"name":"Hazelwood","admin3":"93920","localeAltName":null},{"geonameid":4474773,"name":"Lake Junaluska","admin3":"93920","localeAltName":null},{"geonameid":4477757,"name":"Maggie Valley","admin3":"91608","localeAltName":null},{"geonameid":4497868,"name":"Waynesville","admin3":"93920","localeAltName":null},{"geonameid":4498173,"name":"West Canton","admin3":"90196","localeAltName":null}],"admin3":[{"geonameid":4454560,"name":"Township of Beaverdam","admin3":"90196","localeAltName":null},{"geonameid":4459568,"name":"Township of Cataloochee","admin3":"90552"},{"geonameid":4459681,"name":"Township of Cecil","admin3":"90568"},{"geonameid":4461155,"name":"Township of Clyde","admin3":"90704","localeAltName":null},{"geonameid":4462326,"name":"Township of Crabtree","admin3":"90800"},{"geonameid":4464601,"name":"Township of East Fork","admin3":"90956"},{"geonameid":4466174,"name":"Township of Fines Creek","admin3":"91104"},{"geonameid":4472780,"name":"Township of Iron Duff","admin3":"91592"},{"geonameid":4472905,"name":"Township of Ivy Hill","admin3":"91608","localeAltName":null},{"geonameid":4473671,"name":"Township of Jonathan Creek","admin3":"91680","localeAltName":null},{"geonameid":4484934,"name":"Township of Pigeon","admin3":"92488"},{"geonameid":4497875,"name":"Township of Waynesville","admin3":"93920","localeAltName":null},{"geonameid":4498706,"name":"Township of White Oak","admin3":"93972"}],"alternateNames":[{"alternatenameId":2089560,"geonameid":4482348,"isoLanguage":"en","alternateName":"North Carolina","isPreferredName":true,"isShortName":true,"isColloquial":false,"isHistoric":false}]},"__N_SSG":true}