{"pageProps":{"locale":"en","admin2":{"geonameid":5117867,"name":"Franklin County","country":"US","admin1":"NY","admin2":"033","admin3":"","latitude":"44.5929300","longitude":"-74.3037600","localeAltName":null},"admin1":{"geonameid":5128638,"name":"New York","admin1":"NY","localeAltName":"New York"},"locations":[{"geonameid":5112327,"name":"Chateaugay","admin3":"13992","localeAltName":null},{"geonameid":7315329,"name":"Fort Covington Hamlet","admin3":"26737","localeAltName":null},{"geonameid":5125717,"name":"Malone","admin3":"44721","localeAltName":null},{"geonameid":5130708,"name":"Paul Smiths","admin3":"08213","localeAltName":null},{"geonameid":5136322,"name":"Saranac Lake","admin3":"32314","localeAltName":null},{"geonameid":5141580,"name":"Tupper Lake","admin3":"75676","localeAltName":null}],"admin3":[{"geonameid":5107849,"name":"Town of Bangor","admin3":"04319"},{"geonameid":5108706,"name":"Town of Bellmont","admin3":"05716"},{"geonameid":5109719,"name":"Town of Bombay","admin3":"07278"},{"geonameid":5109992,"name":"Town of Brandon","admin3":"07839"},{"geonameid":5110166,"name":"Town of Brighton","admin3":"08213","localeAltName":null},{"geonameid":5110781,"name":"Town of Burke","admin3":"11165"},{"geonameid":5112342,"name":"Town of Chateaugay","admin3":"13992","localeAltName":null},{"geonameid":5113563,"name":"Town of Constable","admin3":"17871"},{"geonameid":5115037,"name":"Town of Dickinson","admin3":"20610"},{"geonameid":5115391,"name":"Town of Duane","admin3":"20973"},{"geonameid":5117654,"name":"Town of Fort Covington","admin3":"26737","localeAltName":null},{"geonameid":5117900,"name":"Town of Franklin","admin3":"27243"},{"geonameid":5120059,"name":"Town of Harrietstown","admin3":"32314","localeAltName":null},{"geonameid":5125719,"name":"Town of Malone","admin3":"44721","localeAltName":null},{"geonameid":5127259,"name":"Town of Moira","admin3":"47933"},{"geonameid":5136301,"name":"Town of Santa Clara","admin3":"65178"},{"geonameid":5141571,"name":"Town of Tupper Lake","admin3":"75676","localeAltName":null},{"geonameid":5143441,"name":"Town of Waverly","admin3":"78795"},{"geonameid":5144131,"name":"Town of Westville","admin3":"81215"}],"alternateNames":[{"alternatenameId":1980360,"geonameid":5128638,"isoLanguage":"de","alternateName":"New York","isPreferredName":true,"isShortName":true,"isColloquial":false,"isHistoric":false},{"alternatenameId":1980362,"geonameid":5128638,"isoLanguage":"en","alternateName":"New York","isPreferredName":true,"isShortName":true,"isColloquial":false,"isHistoric":false}]},"__N_SSG":true}