{"pageProps":{"locale":"en","admin2":{"geonameid":5136495,"name":"Schoharie County","country":"US","admin1":"NY","admin2":"095","admin3":"","latitude":"42.5882200","longitude":"-74.4421200","localeAltName":null},"admin1":{"geonameid":5128638,"name":"New York","admin1":"NY","localeAltName":"New York"},"locations":[{"geonameid":5112051,"name":"Central Bridge","admin3":"65596","localeAltName":null},{"geonameid":5113095,"name":"Cobleskill","admin3":"16639","localeAltName":null},{"geonameid":5126828,"name":"Middleburgh","admin3":"46855","localeAltName":null},{"geonameid":5133816,"name":"Richmondville","admin3":"61599","localeAltName":null},{"geonameid":5136494,"name":"Schoharie","admin3":"65596","localeAltName":null},{"geonameid":5137788,"name":"Sharon Springs","admin3":"66641","localeAltName":null}],"admin3":[{"geonameid":5109491,"name":"Town of Blenheim","admin3":"06893"},{"geonameid":5110368,"name":"Town of Broome","admin3":"10154"},{"geonameid":5111544,"name":"Town of Carlisle","admin3":"12452"},{"geonameid":5113098,"name":"Town of Cobleskill","admin3":"16639","localeAltName":null},{"geonameid":5113476,"name":"Town of Conesville","admin3":"17651"},{"geonameid":5116676,"name":"Town of Esperance","admin3":"24724"},{"geonameid":5118129,"name":"Town of Fulton","admin3":"27826"},{"geonameid":5118532,"name":"Town of Gilboa","admin3":"28981"},{"geonameid":5122603,"name":"Town of Jefferson","admin3":"38440"},{"geonameid":5126829,"name":"Town of Middleburgh","admin3":"46855","localeAltName":null},{"geonameid":5133817,"name":"Town of Richmondville","admin3":"61599","localeAltName":null},{"geonameid":5136505,"name":"Town of Schoharie","admin3":"65596","localeAltName":null},{"geonameid":5137712,"name":"Town of Seward","admin3":"66542"},{"geonameid":5137790,"name":"Town of Sharon","admin3":"66641","localeAltName":null},{"geonameid":5140182,"name":"Town of Summit","admin3":"72070"},{"geonameid":5145121,"name":"Town of Wright","admin3":"83195"}],"alternateNames":[{"alternatenameId":1980360,"geonameid":5128638,"isoLanguage":"de","alternateName":"New York","isPreferredName":true,"isShortName":true,"isColloquial":false,"isHistoric":false},{"alternatenameId":1980362,"geonameid":5128638,"isoLanguage":"en","alternateName":"New York","isPreferredName":true,"isShortName":true,"isColloquial":false,"isHistoric":false}]},"__N_SSG":true}