{"pageProps":{"locale":"ro","admin2":{"geonameid":668814,"name":"Comuna Râu de Mori","country":"RO","admin1":"21","admin2":"90878","admin3":"","latitude":"45.5071700","longitude":"22.8646300"},"admin1":{"geonameid":675917,"name":"Hunedoara","admin1":"21"},"locations":[{"geonameid":685705,"name":"Bălan","admin3":""},{"geonameid":683773,"name":"Brazi","admin3":""},{"geonameid":681299,"name":"Clopotiva","admin3":""},{"geonameid":676996,"name":"Goeni","admin3":""},{"geonameid":671920,"name":"Ohaba de sub Munte","admin3":""},{"geonameid":671910,"name":"Ohaba-Sibișel","admin3":""},{"geonameid":671633,"name":"Ostrov","admin3":""},{"geonameid":671627,"name":"Ostrovel","admin3":""},{"geonameid":671613,"name":"Ostrovu Mic","admin3":""},{"geonameid":668815,"name":"Râu de Mori","admin3":""},{"geonameid":8199218,"name":"Râuşor","admin3":""},{"geonameid":667274,"name":"Sibișel","admin3":""},{"geonameid":665696,"name":"Suseni","admin3":""},{"geonameid":664274,"name":"Unciuc","admin3":""},{"geonameid":663784,"name":"Valea Dâljii","admin3":""}],"admin3":[],"alternateNames":[]},"__N_SSG":true}