{"pageProps":{"locale":"ro","admin2":{"geonameid":664222,"name":"Comuna Ungureni","country":"RO","admin1":"07","admin2":"39417","admin3":"","latitude":"47.9038400","longitude":"26.7605100"},"admin1":{"geonameid":684038,"name":"Botoşani","admin1":"07"},"locations":[{"geonameid":684131,"name":"Borzești","admin3":""},{"geonameid":682899,"name":"Călugăreni","admin3":""},{"geonameid":682894,"name":"Călugărenii Noi","admin3":""},{"geonameid":678604,"name":"Durnești","admin3":""},{"geonameid":678559,"name":"Epureni","admin3":""},{"geonameid":673212,"name":"Mândrești","admin3":""},{"geonameid":673364,"name":"Mihai Viteazu","admin3":""},{"geonameid":670462,"name":"Plopenii Mari","admin3":""},{"geonameid":670461,"name":"Plopenii Mici","admin3":""},{"geonameid":668070,"name":"Sapoveni","admin3":""},{"geonameid":665388,"name":"Tăutești","admin3":""},{"geonameid":10942155,"name":"Ungureni","admin3":""},{"geonameid":664220,"name":"Ungureni-Cloşca","admin3":""},{"geonameid":664219,"name":"Ungureni-Crişan","admin3":""},{"geonameid":664218,"name":"Ungureni-Horia","admin3":""},{"geonameid":664216,"name":"Ungureni-Isăcescu","admin3":""},{"geonameid":664215,"name":"Ungureni-Jianu","admin3":""},{"geonameid":662998,"name":"Vicoleni","admin3":""},{"geonameid":662997,"name":"Vicolenii Mari","admin3":""},{"geonameid":662996,"name":"Vicolenii Mici","admin3":""},{"geonameid":662995,"name":"Vicolenii Noi","admin3":""}],"admin3":[],"alternateNames":[]},"__N_SSG":true}