{"pageProps":{"locale":"ro","admin2":{"geonameid":662467,"name":"Comuna Vorona","country":"RO","admin1":"07","admin2":"39872","admin3":"","latitude":"47.5785900","longitude":"26.6138000"},"admin1":{"geonameid":684038,"name":"Botoşani","admin1":"07"},"locations":[{"geonameid":682015,"name":"Chiscovată","admin3":""},{"geonameid":675753,"name":"Icușeni","admin3":""},{"geonameid":675187,"name":"Joldești","admin3":""},{"geonameid":674023,"name":"Măldăreşti","admin3":""},{"geonameid":673233,"name":"Mânăstirea Vorona","admin3":""},{"geonameid":670123,"name":"Poiana","admin3":""},{"geonameid":669560,"name":"Protopopeni","admin3":""},{"geonameid":669559,"name":"Protopopeni-Vale","admin3":""},{"geonameid":662468,"name":"Vorona","admin3":""},{"geonameid":662466,"name":"Vorona Deal","admin3":""},{"geonameid":662464,"name":"Vorona Mare","admin3":""},{"geonameid":662463,"name":"Vorona Teodoru","admin3":""},{"geonameid":662465,"name":"Vorona-Dobrovolschi","admin3":""}],"admin3":[],"alternateNames":[]},"__N_SSG":true}