{"pageProps":{"locale":"en","admin2":{"geonameid":2646944,"name":"Highland","country":"GB","admin1":"SCT","admin2":"V3","admin3":"","latitude":"57.5000000","longitude":"-5.0000000"},"admin1":{"geonameid":2638360,"name":"Scotland","admin1":"SCT"},"locations":[{"geonameid":11551027,"name":"A'Chill"},{"geonameid":2657853,"name":"Aberarder"},{"geonameid":2657842,"name":"Aberchalder"},{"geonameid":6458622,"name":"Abriachan"},{"geonameid":2657767,"name":"Achagarve"},{"geonameid":2657766,"name":"Achagate"},{"geonameid":2657754,"name":"Achanalt"},{"geonameid":2657751,"name":"Achany"},{"geonameid":2657750,"name":"Achaphubuil"},{"geonameid":2657749,"name":"Acharacle"},{"geonameid":2657747,"name":"Acharn"},{"geonameid":2657743,"name":"Acharra"},{"geonameid":2657741,"name":"Acheninver"},{"geonameid":2657740,"name":"Achentoul"},{"geonameid":2657738,"name":"Achfary"},{"geonameid":2657737,"name":"Achiltibuie"},{"geonameid":2657736,"name":"Achinduich"},{"geonameid":2657734,"name":"Achintee"},{"geonameid":2657733,"name":"Achintraid"},{"geonameid":2657732,"name":"Achlain"},{"geonameid":10103883,"name":"Achlean"},{"geonameid":2657729,"name":"Achlyness"},{"geonameid":2657728,"name":"Achmelvich"},{"geonameid":2657725,"name":"Achmore"},{"geonameid":2657720,"name":"Achnahanat"},{"geonameid":2657718,"name":"Achnasheen"},{"geonameid":2657714,"name":"Achness"},{"geonameid":11071772,"name":"Achosnich"},{"geonameid":2657711,"name":"Achriesgill"},{"geonameid":11049116,"name":"Achtoly"},{"geonameid":11071774,"name":"Achvaich"},{"geonameid":10245165,"name":"Achvarasdal"},{"geonameid":2657707,"name":"Ackergill"},{"geonameid":2657659,"name":"Advie"},{"geonameid":2657614,"name":"Aird of Sleat"},{"geonameid":2657593,"name":"Airor"},{"geonameid":2657496,"name":"Allanfearn"},{"geonameid":2657464,"name":"Alltbeath"},{"geonameid":2657462,"name":"Alltnacaillich"},{"geonameid":2657461,"name":"Alltsigh"},{"geonameid":2657445,"name":"Alness"},{"geonameid":2657422,"name":"Altandhu"},{"geonameid":2657421,"name":"Altanduin"},{"geonameid":2657411,"name":"Altnaharra"},{"geonameid":2657386,"name":"Alvie"},{"geonameid":2657317,"name":"An Gallanach"},{"geonameid":2657304,"name":"Ankerville"},{"geonameid":2657303,"name":"Ankerville Corner"},{"geonameid":2657237,"name":"Applecross"},{"geonameid":2657200,"name":"Ardcharnich"},{"geonameid":2657198,"name":"Ardclach"},{"geonameid":6458621,"name":"Ardendrain"},{"geonameid":2657187,"name":"Ardersier"},{"geonameid":8260058,"name":"Ardgay"},{"geonameid":2657180,"name":"Ardgour"},{"geonameid":2657178,"name":"Ardheslaig"},{"geonameid":2657160,"name":"Ardmair"},{"geonameid":6458681,"name":"Ardnagrask"},{"geonameid":2657140,"name":"Ardnarff"},{"geonameid":2657139,"name":"Ardnastang"},{"geonameid":11071768,"name":"Ardshave"},{"geonameid":2657121,"name":"Ardshealach"},{"geonameid":2657116,"name":"Ardslignish"},{"geonameid":2657111,"name":"Ardtoe"},{"geonameid":2657107,"name":"Ardullie"},{"geonameid":2657106,"name":"Ardvar"},{"geonameid":2657204,"name":"Ardvasar"},{"geonameid":2657105,"name":"Ardverikie"},{"geonameid":2657084,"name":"Arisaig"},{"geonameid":2657066,"name":"Armadale"},{"geonameid":2657038,"name":"Arnisdale"},{"geonameid":2657036,"name":"Arnish"},{"geonameid":11072184,"name":"Aryhoulan"},{"geonameid":2656880,"name":"Astle"},{"geonameid":2656846,"name":"Athnamulloch"},{"geonameid":2656805,"name":"Auchness"},{"geonameid":10104104,"name":"Auchtercairn"},{"geonameid":2656798,"name":"Auchterneed"},{"geonameid":2656795,"name":"Auckingill"},{"geonameid":2656783,"name":"Auldearn"},{"geonameid":6544996,"name":"Ault a' chruinn"},{"geonameid":2656779,"name":"Aultbea"},{"geonameid":2656777,"name":"Aultgrishan"},{"geonameid":2656774,"name":"Aultivullin"},{"geonameid":2656771,"name":"Aultnaharrie"},{"geonameid":2656752,"name":"Aviemore"},{"geonameid":2656750,"name":"Avoch"},{"geonameid":2656674,"name":"Backies"},{"geonameid":2656663,"name":"Badbea"},{"geonameid":2656660,"name":"Badcall"},{"geonameid":2656661,"name":"Badcall"},{"geonameid":2656658,"name":"Badcaul"},{"geonameid":8199471,"name":"Baddidarroch"},{"geonameid":2656652,"name":"Badenscallie"},{"geonameid":2656645,"name":"Badluchrach"},{"geonameid":11071766,"name":"Badninish"},{"geonameid":2656643,"name":"Badrallach"},{"geonameid":2656610,"name":"Balaldie"},{"geonameid":2656607,"name":"Balavil"},{"geonameid":2656604,"name":"Balblair"},{"geonameid":2656605,"name":"Balblair"},{"geonameid":2656601,"name":"Balchladich"},{"geonameid":9884117,"name":"Balchrick"},{"geonameid":2656575,"name":"Balintore"},{"geonameid":2656569,"name":"Ballachulish"},{"geonameid":11592108,"name":"Balloch"},{"geonameid":2656459,"name":"Balmacara"},{"geonameid":2656448,"name":"Balmore"},{"geonameid":2656444,"name":"Balnacarn"},{"geonameid":6620351,"name":"Balnain"},{"geonameid":2656441,"name":"Balnakeil"},{"geonameid":2656409,"name":"Banavie"},{"geonameid":2656370,"name":"Barbaraville"},{"geonameid":2656349,"name":"Barevan"},{"geonameid":2656267,"name":"Barr"},{"geonameid":2656254,"name":"Barrisdale"},{"geonameid":2656087,"name":"Bearnock"},{"geonameid":2656076,"name":"Beauly"},{"geonameid":2655975,"name":"Belladrum"},{"geonameid":2655957,"name":"Belloch"},{"geonameid":2655950,"name":"Belmaduthy"},{"geonameid":2655845,"name":"Bernisdale"},{"geonameid":2655843,"name":"Berriedale"},{"geonameid":2655790,"name":"Bettyhill"},{"geonameid":2655680,"name":"Big Sand"},{"geonameid":2655675,"name":"Bilbster"},{"geonameid":11071765,"name":"Birichen"},{"geonameid":2655405,"name":"Blaich"},{"geonameid":2655404,"name":"Blain"},{"geonameid":9884118,"name":"Blairmore"},{"geonameid":2655299,"name":"Boat of Garten"},{"geonameid":2655300,"name":"Boath"},{"geonameid":11071993,"name":"Boghole Farm"},{"geonameid":2655257,"name":"Bohenie"},{"geonameid":2655255,"name":"Bohuntine"},{"geonameid":2655248,"name":"Boleskine"},{"geonameid":2655223,"name":"Bonar Bridge"},{"geonameid":2655212,"name":"Bonnavoulin"},{"geonameid":2655183,"name":"Boreraig"},{"geonameid":2655176,"name":"Borgue"},{"geonameid":2655152,"name":"Borve"},{"geonameid":2655066,"name":"Bowermadden"},{"geonameid":2655063,"name":"Bowertower"},{"geonameid":2655020,"name":"Bracadale"},{"geonameid":6948343,"name":"Bracara"},{"geonameid":2655011,"name":"Brackley"},{"geonameid":2655010,"name":"Brackloch"},{"geonameid":2655005,"name":"Bracora"},{"geonameid":6948344,"name":"Bracorina"},{"geonameid":2654961,"name":"Braemore"},{"geonameid":2654962,"name":"Braemore"},{"geonameid":2654854,"name":"Brawl"},{"geonameid":2654834,"name":"Breakish"},{"geonameid":2654751,"name":"Bridgend"},{"geonameid":2654691,"name":"Brin"},{"geonameid":2654653,"name":"Broadford"},{"geonameid":2654619,"name":"Brochel"},{"geonameid":2654545,"name":"Brora"},{"geonameid":2654530,"name":"Brough"},{"geonameid":2654432,"name":"Bualintur"},{"geonameid":2654331,"name":"Bundalloch"},{"geonameid":2653982,"name":"Calligarry"},{"geonameid":2653973,"name":"Calrossie"},{"geonameid":2653954,"name":"Camasterach"},{"geonameid":2653953,"name":"Camastianavaig"},{"geonameid":2653952,"name":"Camasunary"},{"geonameid":6458595,"name":"Camault Muir"},{"geonameid":11071762,"name":"Camore"},{"geonameid":2653893,"name":"Canisbay"},{"geonameid":2653886,"name":"Cannich"},{"geonameid":6269280,"name":"Caol"},{"geonameid":2653836,"name":"Caradal"},{"geonameid":2653831,"name":"Carbost"},{"geonameid":2653740,"name":"Carnach"},{"geonameid":2653741,"name":"Carnach"},{"geonameid":2653721,"name":"Carndearg"},{"geonameid":2653706,"name":"Carnoch"},{"geonameid":6458674,"name":"Carnoch"},{"geonameid":2653690,"name":"Carrbridge"},{"geonameid":2653625,"name":"Cashel Dhu"},{"geonameid":2653536,"name":"Castletown"},{"geonameid":2653506,"name":"Catlodge"},{"geonameid":2653470,"name":"Cawdor"},{"geonameid":2653000,"name":"Cilmalieu"},{"geonameid":2652978,"name":"Clachtoll"},{"geonameid":6269284,"name":"Claggan"},{"geonameid":11071780,"name":"Clashban"},{"geonameid":2652930,"name":"Clashmore"},{"geonameid":2652929,"name":"Clashnessie"},{"geonameid":2652896,"name":"Cleadale"},{"geonameid":2652772,"name":"Clovullin"},{"geonameid":2652755,"name":"Clunas"},{"geonameid":2652753,"name":"Clune"},{"geonameid":2652752,"name":"Clunes"},{"geonameid":2652723,"name":"Clynekirkton"},{"geonameid":2652636,"name":"Coignashie"},{"geonameid":2652634,"name":"Coillemore"},{"geonameid":2652633,"name":"Coillore"},{"geonameid":2652620,"name":"Colbost"},{"geonameid":2652439,"name":"Conon Bridge"},{"geonameid":6950948,"name":"Cononbridge"},{"geonameid":2652433,"name":"Contin"},{"geonameid":6269281,"name":"Corpach"},{"geonameid":2652346,"name":"Corran"},{"geonameid":2652347,"name":"Corran"},{"geonameid":2652332,"name":"Corrimony"},{"geonameid":2652329,"name":"Corrlarach"},{"geonameid":8317220,"name":"Corrour"},{"geonameid":11551026,"name":"Corrour Shooting Lodge"},{"geonameid":2652328,"name":"Corrybrough"},{"geonameid":11072182,"name":"Corrychurrachan"},{"geonameid":2652326,"name":"Corrykinloch"},{"geonameid":10245397,"name":"Corsback"},{"geonameid":2652259,"name":"Cougie"},{"geonameid":2652258,"name":"Coul"},{"geonameid":2652257,"name":"Coulags"},{"geonameid":2652226,"name":"Cove"},{"geonameid":2652168,"name":"Craggie"},{"geonameid":2652157,"name":"Craig"},{"geonameid":2652158,"name":"Craig"},{"geonameid":6693102,"name":"Craig Dunain"},{"geonameid":6458676,"name":"Craigdhu"},{"geonameid":6458675,"name":"Crask Of Aigas"},{"geonameid":2652071,"name":"Craskie"},{"geonameid":6458686,"name":"Crelevan"},{"geonameid":2651968,"name":"Croachy"},{"geonameid":2651942,"name":"Croick"},{"geonameid":2651936,"name":"Cromarty"},{"geonameid":2651932,"name":"Cromdale"},{"geonameid":2651883,"name":"Crossburn"},{"geonameid":2651865,"name":"Crosskirk"},{"geonameid":2651819,"name":"Croy"},{"geonameid":2651792,"name":"Cuaig"},{"geonameid":2651776,"name":"Cuil"},{"geonameid":2651765,"name":"Culbokie"},{"geonameid":6458597,"name":"Culburnie"},{"geonameid":2651757,"name":"Culkein"},{"geonameid":6458684,"name":"Culligran"},{"geonameid":11240121,"name":"Culloden"},{"geonameid":2651735,"name":"Culmaily"},{"geonameid":11240122,"name":"Culnacnoc"},{"geonameid":2651729,"name":"Culrain"},{"geonameid":11071776,"name":"Cuthill"},{"geonameid":2651608,"name":"Dalbeg"},{"geonameid":2651603,"name":"Dalchreichart"},{"geonameid":2651601,"name":"Dalcross"},{"geonameid":2651594,"name":"Dalelia"},{"geonameid":2651572,"name":"Dalmigavie"},{"geonameid":2651568,"name":"Dalnahaitnach"},{"geonameid":2651565,"name":"Dalness"},{"geonameid":2651563,"name":"Dalroy"},{"geonameid":2651543,"name":"Dalwhinnie"},{"geonameid":6620262,"name":"Daviot"},{"geonameid":2651340,"name":"Derraid"},{"geonameid":2651277,"name":"Diabaig"},{"geonameid":2651272,"name":"Dibidil"},{"geonameid":8643135,"name":"Digg"},{"geonameid":2651245,"name":"Dingwall"},{"geonameid":2651096,"name":"Dores"},{"geonameid":2651089,"name":"Dornie"},{"geonameid":2651088,"name":"Dornoch"},{"geonameid":2651083,"name":"Dorrery"},{"geonameid":2651057,"name":"Dounreay"},{"geonameid":2650984,"name":"Drimnin"},{"geonameid":6458687,"name":"Druimkinnerras"},{"geonameid":2650951,"name":"Drumbeg"},{"geonameid":2650940,"name":"Drumfearn"},{"geonameid":2650938,"name":"Drumgask"},{"geonameid":2650918,"name":"Drumnadrochit"},{"geonameid":2650892,"name":"Drynoch"},{"geonameid":2650820,"name":"Duirinish"},{"geonameid":2650817,"name":"Duisky"},{"geonameid":9072587,"name":"Dulnain Bridge"},{"geonameid":2650805,"name":"Dulsie"},{"geonameid":2650780,"name":"Dunan"},{"geonameid":2650774,"name":"Dunbeath"},{"geonameid":6639621,"name":"Dundonnell"},{"geonameid":2650743,"name":"Dundreggan"},{"geonameid":2650693,"name":"Dunnet"},{"geonameid":2650641,"name":"Dunvegan"},{"geonameid":2650621,"name":"Durness"},{"geonameid":2650607,"name":"Duthil"},{"geonameid":2650582,"name":"Eabost"},{"geonameid":2650553,"name":"Earlish"},{"geonameid":2650487,"name":"East Canisbay"},{"geonameid":2650474,"name":"East Croachy"},{"geonameid":2650401,"name":"East Laroch"},{"geonameid":2650465,"name":"Easter Clynekirkton"},{"geonameid":2650463,"name":"Easter Fearn"},{"geonameid":2650452,"name":"Easter Rarichie"},{"geonameid":2650448,"name":"Easter Urray"},{"geonameid":2650257,"name":"Edderton"},{"geonameid":2650226,"name":"Edinbain"},{"geonameid":6619382,"name":"Edinbane"},{"geonameid":2650160,"name":"Eil"},{"geonameid":2650121,"name":"Elgol"},{"geonameid":2650065,"name":"Elphin"},{"geonameid":2650012,"name":"Embo"},{"geonameid":11071759,"name":"Embo Street"},{"geonameid":2649953,"name":"Erbusaig"},{"geonameid":6458688,"name":"Erchless Castle"},{"geonameid":2649949,"name":"Eriboll"},{"geonameid":2649922,"name":"Errogie"},{"geonameid":2649902,"name":"Eskadale"},{"geonameid":2649870,"name":"Etteridge"},{"geonameid":2649851,"name":"Evanton"},{"geonameid":2649848,"name":"Evelix"},{"geonameid":2649772,"name":"Eyre"},{"geonameid":6946947,"name":"Faichem"},{"geonameid":6946951,"name":"Faichemard Farm"},{"geonameid":2649751,"name":"Faillie"},{"geonameid":2649749,"name":"Fain"},{"geonameid":2649648,"name":"Farr"},{"geonameid":2649649,"name":"Farr"},{"geonameid":2649636,"name":"Faskadale"},{"geonameid":2649630,"name":"Fasnakyle"},{"geonameid":2649628,"name":"Fassfern"},{"geonameid":2649595,"name":"Fearnmore"},{"geonameid":2649529,"name":"Ferness"},{"geonameid":2649524,"name":"Fernilea"},{"geonameid":2649505,"name":"Feshiebridge"},{"geonameid":2649362,"name":"Fiskavaig"},{"geonameid":2648987,"name":"Fiunary"},{"geonameid":2649330,"name":"Flashader"},{"geonameid":2649283,"name":"Flodigarry"},{"geonameid":2649265,"name":"Fodderty"},{"geonameid":2649190,"name":"Forse"},{"geonameid":2649187,"name":"Forsinain"},{"geonameid":2649186,"name":"Forsinard"},{"geonameid":2649183,"name":"Fort Augustus"},{"geonameid":2649180,"name":"Fort George"},{"geonameid":2649169,"name":"Fort William"},{"geonameid":2649171,"name":"Fortrose"},{"geonameid":11071758,"name":"Fourpenny"},{"geonameid":6458689,"name":"Foxhole"},{"geonameid":2649113,"name":"Foyers"},{"geonameid":10245166,"name":"Fresgoe"},{"geonameid":2649064,"name":"Freswick"},{"geonameid":2648237,"name":"Gaick Lodge"},{"geonameid":2648941,"name":"Gairloch"},{"geonameid":2648939,"name":"Gairlochy"},{"geonameid":2648911,"name":"Galmisdale"},{"geonameid":2648905,"name":"Galtrigill"},{"geonameid":2648888,"name":"Garbat"},{"geonameid":2648856,"name":"Garrafad"},{"geonameid":2648799,"name":"Garvan"},{"geonameid":2648797,"name":"Garve"},{"geonameid":11072187,"name":"Gaul / Camusnagaul"},{"geonameid":2648743,"name":"Geary"},{"geonameid":2648655,"name":"Gills"},{"geonameid":6458682,"name":"Glassburn"},{"geonameid":11072020,"name":"Glenbeg"},{"geonameid":2648522,"name":"Glenborrodale"},{"geonameid":2648510,"name":"Glenceitlein"},{"geonameid":7874330,"name":"Glencoe"},{"geonameid":2648507,"name":"Glencripesdale"},{"geonameid":11427403,"name":"Glendale"},{"geonameid":2648494,"name":"Glenelg"},{"geonameid":2648483,"name":"Glenfinnan"},{"geonameid":2648457,"name":"Glenmore"},{"geonameid":2648458,"name":"Glenmore"},{"geonameid":6951022,"name":"Glenmoriston"},{"geonameid":2648439,"name":"Glenrossal"},{"geonameid":2648417,"name":"Glenurguhart"},{"geonameid":2648374,"name":"Gobernuisgeach"},{"geonameid":11072183,"name":"Goirtean a' Chladaich"},{"geonameid":2648341,"name":"Golspie"},{"geonameid":2648311,"name":"Gordonbush"},{"geonameid":2648289,"name":"Gorstan"},{"geonameid":2648288,"name":"Gorteneorn"},{"geonameid":2648287,"name":"Gortenfern"},{"geonameid":2648205,"name":"Grantown on Spey"},{"geonameid":2647973,"name":"Greenfield"},{"geonameid":2647955,"name":"Greenland"},{"geonameid":2647918,"name":"Greshornish"},{"geonameid":2647822,"name":"Grumbeg"},{"geonameid":2647631,"name":"Halistra"},{"geonameid":2647630,"name":"Halkirk"},{"geonameid":2647617,"name":"Hallin"},{"geonameid":10245395,"name":"Ham"},{"geonameid":12196311,"name":"Heast"},{"geonameid":2647184,"name":"Heilam"},{"geonameid":2647152,"name":"Helmsdale"},{"geonameid":11551029,"name":"Highland"},{"geonameid":11591741,"name":"Highland"},{"geonameid":2649602,"name":"Hill of Fearn"},{"geonameid":2646870,"name":"Hilton of Cadboll"},{"geonameid":2646423,"name":"Huna"},{"geonameid":10245392,"name":"Hunspow"},{"geonameid":2646350,"name":"Husabost"},{"geonameid":2646289,"name":"Idrigil"},{"geonameid":2646249,"name":"Inchbae Lodge"},{"geonameid":2646241,"name":"Inchlaggan"},{"geonameid":2646231,"name":"Inchnadamph"},{"geonameid":11072179,"name":"Inchree"},{"geonameid":2646156,"name":"Insh"},{"geonameid":2646154,"name":"Inshes"},{"geonameid":2646149,"name":"Inver"},{"geonameid":2646094,"name":"Inver Mallie"},{"geonameid":2646146,"name":"Inverailort"},{"geonameid":2646144,"name":"Inveralligin"},{"geonameid":2646141,"name":"Inveran"},{"geonameid":2646136,"name":"Inverasdale"},{"geonameid":2646133,"name":"Inverbroom"},{"geonameid":2646132,"name":"Invercannich"},{"geonameid":2646131,"name":"Invercassley"},{"geonameid":2646126,"name":"Invercoe"},{"geonameid":2646125,"name":"Inverdruie"},{"geonameid":2646120,"name":"Inverfarigaig"},{"geonameid":2646119,"name":"Invergarry"},{"geonameid":2646115,"name":"Invergordon"},{"geonameid":2646112,"name":"Inverguseran"},{"geonameid":2646108,"name":"Inverie"},{"geonameid":2646106,"name":"Inverinate"},{"geonameid":2646101,"name":"Inverkirkaig"},{"geonameid":2646100,"name":"Inverlael"},{"geonameid":2646099,"name":"Inverlaidnan"},{"geonameid":2646098,"name":"Inverlair"},{"geonameid":6269283,"name":"Inverlochy"},{"geonameid":2646091,"name":"Invermoriston"},{"geonameid":2646090,"name":"Invernaver"},{"geonameid":2646088,"name":"Inverness"},{"geonameid":2646081,"name":"Inversanda"},{"geonameid":2646080,"name":"Invershiel"},{"geonameid":2646079,"name":"Invershin"},{"geonameid":10245164,"name":"Isauld"},{"geonameid":8317154,"name":"Isle of Canna"},{"geonameid":8317353,"name":"Isle of Eigg"},{"geonameid":8317647,"name":"Isle of Rum"},{"geonameid":2646006,"name":"Isleornsay"},{"geonameid":12032349,"name":"Iverness"},{"geonameid":2645976,"name":"Jamestown"},{"geonameid":2645974,"name":"Janetstown"},{"geonameid":2645965,"name":"Jemimaville"},{"geonameid":7870366,"name":"John O' Groats"},{"geonameid":11903565,"name":"Kalnakill"},{"geonameid":2645907,"name":"Kearvaig"},{"geonameid":2645882,"name":"Keiss"},{"geonameid":2645817,"name":"Kenmore"},{"geonameid":2645797,"name":"Kentallen"},{"geonameid":2645785,"name":"Kentra"},{"geonameid":2645781,"name":"Keoldale"},{"geonameid":11072180,"name":"Keppenach"},{"geonameid":2645768,"name":"Kerrysdale"},{"geonameid":2645760,"name":"Kessock"},{"geonameid":2645707,"name":"Kilbride"},{"geonameid":2645695,"name":"Kilcheran"},{"geonameid":2645692,"name":"Kilchoan"},{"geonameid":2645677,"name":"Kildonan"},{"geonameid":2645672,"name":"Kildonnan"},{"geonameid":2645664,"name":"Kilfinnan"},{"geonameid":2645634,"name":"Killilan"},{"geonameid":2645610,"name":"Kilmaluag"},{"geonameid":2645606,"name":"Kilmarie"},{"geonameid":2645589,"name":"Kilmorack"},{"geonameid":2645584,"name":"Kilmore"},{"geonameid":2645579,"name":"Kilmory"},{"geonameid":2645580,"name":"Kilmory"},{"geonameid":2645577,"name":"Kilmote"},{"geonameid":2645573,"name":"Kilmuir"},{"geonameid":2645574,"name":"Kilmuir"},{"geonameid":2645575,"name":"Kilmuir"},{"geonameid":2645576,"name":"Kilmuir"},{"geonameid":2645562,"name":"Kilournan"},{"geonameid":6458596,"name":"Kiltarlity"},{"geonameid":2645545,"name":"Kilvaxter"},{"geonameid":2645527,"name":"Kinbrace"},{"geonameid":2645524,"name":"Kincardine"},{"geonameid":2645518,"name":"Kincraig"},{"geonameid":2645484,"name":"Kingsburgh"},{"geonameid":2645409,"name":"Kingussie"},{"geonameid":2645403,"name":"Kinloch"},{"geonameid":2645404,"name":"Kinloch"},{"geonameid":2645396,"name":"Kinloch Hourn"},{"geonameid":2645401,"name":"Kinlochbervie"},{"geonameid":2645399,"name":"Kinlocheil"},{"geonameid":2645398,"name":"Kinlochewe"},{"geonameid":2645395,"name":"Kinlochleven"},{"geonameid":2645393,"name":"Kinlochmoidart"},{"geonameid":2645392,"name":"Kinlochmore"},{"geonameid":2645389,"name":"Kinlochteacuis"},{"geonameid":2645366,"name":"Kinrara"},{"geonameid":2645354,"name":"Kintradwell"},{"geonameid":2645272,"name":"Kirkhill"},{"geonameid":11071755,"name":"Kirkton"},{"geonameid":2645220,"name":"Kirkton"},{"geonameid":2645185,"name":"Kirtomy"},{"geonameid":2645179,"name":"Kishorn"},{"geonameid":2645173,"name":"Klibreck"},{"geonameid":2645140,"name":"Knockan"},{"geonameid":2645135,"name":"Knockbain"},{"geonameid":2645122,"name":"Knockfin"},{"geonameid":2645090,"name":"Kyle of Lochalsh"},{"geonameid":2645091,"name":"Kyleakin"},{"geonameid":2645089,"name":"Kylerhea"},{"geonameid":2645088,"name":"Kylesmorar"},{"geonameid":2645087,"name":"Kylestrome"},{"geonameid":2645046,"name":"Laggan"},{"geonameid":6696999,"name":"Laid"},{"geonameid":2645037,"name":"Laide"},{"geonameid":2645027,"name":"Lairg"},{"geonameid":2644895,"name":"Langwell"},{"geonameid":2644844,"name":"Laroch"},{"geonameid":2644825,"name":"Latheron"},{"geonameid":2644713,"name":"Leckmelm"},{"geonameid":2644708,"name":"Ledbeg"},{"geonameid":2644705,"name":"Ledmore"},{"geonameid":2644589,"name":"Letterewe"},{"geonameid":2644588,"name":"Letterfearn"},{"geonameid":2644587,"name":"Letterfinlay"},{"geonameid":2644555,"name":"Lewiston"},{"geonameid":2644527,"name":"Liddesdale"},{"geonameid":2644344,"name":"Little Creich"},{"geonameid":2644325,"name":"Little Gruinard"},{"geonameid":11071753,"name":"Little Torboll"},{"geonameid":2644331,"name":"Littleferry"},{"geonameid":7910406,"name":"Loch Assynt"},{"geonameid":2643857,"name":"Lochailort"},{"geonameid":2643855,"name":"Lochaline"},{"geonameid":2643842,"name":"Lochcarron"},{"geonameid":2643834,"name":"Lochend"},{"geonameid":2643818,"name":"Lochinver"},{"geonameid":2643800,"name":"Lochtreighead"},{"geonameid":11072188,"name":"Lochyside"},{"geonameid":2643746,"name":"Lonbain"},{"geonameid":10103801,"name":"Londubh"},{"geonameid":2643732,"name":"Lone"},{"geonameid":11071775,"name":"Lonemore"},{"geonameid":2643594,"name":"Lorgill"},{"geonameid":2643580,"name":"Lothbeg"},{"geonameid":2643527,"name":"Lower Derraid"},{"geonameid":2643526,"name":"Lower Diabaig"},{"geonameid":2643525,"name":"Lower Dounreay"},{"geonameid":2643522,"name":"Lower Gledfield"},{"geonameid":2643452,"name":"Lubcroy"},{"geonameid":11591730,"name":"Luibeilt"},{"geonameid":2643355,"name":"Lusa"},{"geonameid":2643345,"name":"Lusta"},{"geonameid":2643331,"name":"Lybster"},{"geonameid":11240123,"name":"Lyth"},{"geonameid":2643174,"name":"Mains of Dalvey"},{"geonameid":2643156,"name":"Mallaig"},{"geonameid":11592278,"name":"Maryburgh"},{"geonameid":6458683,"name":"Mauld"},{"geonameid":11071777,"name":"Meikle Ferry"},{"geonameid":2642788,"name":"Melgarve"},{"geonameid":2642779,"name":"Mellon Charles"},{"geonameid":2642771,"name":"Melness"},{"geonameid":2642761,"name":"Melvaig"},{"geonameid":2642759,"name":"Melvich"},{"geonameid":2642682,"name":"Mey"},{"geonameid":10104102,"name":"Mial"},{"geonameid":2642631,"name":"Mid Clyth"},{"geonameid":2642555,"name":"Midtown Brae"},{"geonameid":2642481,"name":"Milovaig"},{"geonameid":2642473,"name":"Milton"},{"geonameid":11592183,"name":"Milton of Leys"},{"geonameid":2642352,"name":"Monessie"},{"geonameid":2642325,"name":"Monkstadt"},{"geonameid":6692509,"name":"Morar"},{"geonameid":2642156,"name":"Morvich"},{"geonameid":2642076,"name":"Moy"},{"geonameid":6458677,"name":"Muchrachd"},{"geonameid":2642017,"name":"Mugeary"},{"geonameid":2642001,"name":"Muir of Ord"},{"geonameid":6948345,"name":"Munerigie"},{"geonameid":2641959,"name":"Munlochy"},{"geonameid":2641936,"name":"Mybster"},{"geonameid":2641910,"name":"Nairn"},{"geonameid":2641864,"name":"Naust"},{"geonameid":2641855,"name":"Navidale"},{"geonameid":2641832,"name":"Nedd"},{"geonameid":6620364,"name":"Nethy Bridge"},{"geonameid":2641628,"name":"New Kelso"},{"geonameid":2641542,"name":"Newtonmore"},{"geonameid":2641496,"name":"Nigg"},{"geonameid":2641426,"name":"North Ballachulish"},{"geonameid":2641363,"name":"North Erradale"},{"geonameid":2641325,"name":"North Kessock"},{"geonameid":2641104,"name":"Obinan"},{"geonameid":2641101,"name":"Occumster"},{"geonameid":2641095,"name":"Ochtow"},{"geonameid":2641091,"name":"Ockle"},{"geonameid":2641044,"name":"Oldany"},{"geonameid":2640994,"name":"Oldshore"},{"geonameid":2640993,"name":"Oldshore Beg"},{"geonameid":2640992,"name":"Oldshoremore"},{"geonameid":6458678,"name":"Oldtown Of Aigas"},{"geonameid":2640978,"name":"Ollach"},{"geonameid":2640960,"name":"Onich"},{"geonameid":2640951,"name":"Orbost"},{"geonameid":2640944,"name":"Ord"},{"geonameid":11240124,"name":"Ose"},{"geonameid":2640770,"name":"Overscaig"},{"geonameid":2640707,"name":"Oykell Bridge"},{"geonameid":2640542,"name":"Peanmeanach"},{"geonameid":11071760,"name":"Pilburdy"},{"geonameid":2640213,"name":"Plockton"},{"geonameid":2640178,"name":"Polbain"},{"geonameid":2640172,"name":"Polglass"},{"geonameid":6697001,"name":"Polla"},{"geonameid":2640097,"name":"Poolewe"},{"geonameid":2640050,"name":"Port Henderson"},{"geonameid":2640020,"name":"Port na Long"},{"geonameid":2640057,"name":"Portgower"},{"geonameid":2640027,"name":"Portmahomack"},{"geonameid":2640019,"name":"Portnancon"},{"geonameid":2640006,"name":"Portree"},{"geonameid":2640000,"name":"Portskerra"},{"geonameid":2639879,"name":"Proncy"},{"geonameid":2639854,"name":"Pulrossie"},{"geonameid":2639696,"name":"Rahoy"},{"geonameid":2639679,"name":"Ramasaig"},{"geonameid":2639631,"name":"Rarichie"},{"geonameid":9072603,"name":"Ratagan"},{"geonameid":11071770,"name":"Rearquhar"},{"geonameid":2639573,"name":"Reay"},{"geonameid":2639561,"name":"Redcastle"},{"geonameid":2639507,"name":"Reiff"},{"geonameid":2639488,"name":"Reraig"},{"geonameid":2639485,"name":"Resipol"},{"geonameid":2639483,"name":"Resolis"},{"geonameid":2639468,"name":"Rhefail"},{"geonameid":6458680,"name":"Rheindown"},{"geonameid":2639465,"name":"Rhian"},{"geonameid":2639463,"name":"Rhiconich"},{"geonameid":2639457,"name":"Rhilochan"},{"geonameid":2639396,"name":"Ribigill"},{"geonameid":2639306,"name":"Rispond"},{"geonameid":2639294,"name":"Roag"},{"geonameid":2639251,"name":"Rockfield"},{"geonameid":2639217,"name":"Rogart"},{"geonameid":2639146,"name":"Rosehall"},{"geonameid":2639142,"name":"Rosemarkie"},{"geonameid":2639136,"name":"Roshven"},{"geonameid":11240125,"name":"Roskhill"},{"geonameid":2639117,"name":"Rosskeen"},{"geonameid":2639080,"name":"Rothiemurchus"},{"geonameid":2639021,"name":"Roybridge"},{"geonameid":6458679,"name":"Ruilick"},{"geonameid":2638922,"name":"Ruthven"},{"geonameid":2638923,"name":"Ruthven"},{"geonameid":2638685,"name":"Salachadh"},{"geonameid":2638675,"name":"Salen"},{"geonameid":2638660,"name":"Sallachan"},{"geonameid":2638659,"name":"Sallachy"},{"geonameid":2638611,"name":"Sand"},{"geonameid":2638532,"name":"Sandwood"},{"geonameid":2638526,"name":"Sangobeg"},{"geonameid":2638512,"name":"Sarclet"},{"geonameid":2638432,"name":"Scamadale"},{"geonameid":2638429,"name":"Scamodale"},{"geonameid":2638413,"name":"Scardroy"},{"geonameid":2638411,"name":"Scarfskerry"},{"geonameid":2638373,"name":"Sconser"},{"geonameid":2638371,"name":"Scoraig"},{"geonameid":2638351,"name":"Scotstown"},{"geonameid":2638344,"name":"Scourie"},{"geonameid":2638339,"name":"Scrabster"},{"geonameid":2638142,"name":"Shandwick"},{"geonameid":2638073,"name":"Sheigra"},{"geonameid":6544998,"name":"Shiel Bridge"},{"geonameid":2637996,"name":"Shiel Bridge"},{"geonameid":2637993,"name":"Shieldaig"},{"geonameid":2637994,"name":"Shieldaig"},{"geonameid":2637964,"name":"Shinness"},{"geonameid":2637932,"name":"Shirramore"},{"geonameid":2637792,"name":"Skail"},{"geonameid":2637790,"name":"Skaill"},{"geonameid":2637771,"name":"Skeabost"},{"geonameid":2637760,"name":"Skelbo"},{"geonameid":11071757,"name":"Skelbo Street"},{"geonameid":11049117,"name":"Skerray"},{"geonameid":2637711,"name":"Skinidin"},{"geonameid":2637686,"name":"Skudiburgh"},{"geonameid":2637684,"name":"Skullomie"},{"geonameid":2637680,"name":"Skye of Curr"},{"geonameid":2637677,"name":"Slaggan"},{"geonameid":2637648,"name":"Slickly"},{"geonameid":10104099,"name":"Smithstown"},{"geonameid":6640071,"name":"Smithton"},{"geonameid":2637497,"name":"Sourlies"},{"geonameid":10345358,"name":"South Ballachulish"},{"geonameid":2637428,"name":"South Erradale"},{"geonameid":2637393,"name":"South Kessock"},{"geonameid":2637248,"name":"Spean Bridge"},{"geonameid":2637223,"name":"Spinningdale"},{"geonameid":2637144,"name":"Staffin"},{"geonameid":2636986,"name":"Staxigoe"},{"geonameid":2636961,"name":"Stein"},{"geonameid":2636952,"name":"Stenscholl"},{"geonameid":2636906,"name":"Stittenham"},{"geonameid":2636874,"name":"Stoer"},{"geonameid":2636778,"name":"Stoul"},{"geonameid":10104101,"name":"Strath"},{"geonameid":2636698,"name":"Strath"},{"geonameid":2636704,"name":"Strathcarron"},{"geonameid":2636689,"name":"Strathpeffer"},{"geonameid":2636688,"name":"Strathy"},{"geonameid":2636648,"name":"Strollamus"},{"geonameid":2636641,"name":"Stromeferry"},{"geonameid":11072185,"name":"Stronchreggan"},{"geonameid":2636621,"name":"Strontian"},{"geonameid":2636613,"name":"Struan"},{"geonameid":2636606,"name":"Struy"},{"geonameid":2636383,"name":"Swiney"},{"geonameid":2636345,"name":"Syre"},{"geonameid":2636321,"name":"Tain"},{"geonameid":2636306,"name":"Talisker"},{"geonameid":2636295,"name":"Talmine"},{"geonameid":2636240,"name":"Tarbert"},{"geonameid":2636232,"name":"Tarbet"},{"geonameid":2636196,"name":"Tarskavaig"},{"geonameid":2636152,"name":"Teangue"},{"geonameid":11071751,"name":"The Mound"},{"geonameid":2635912,"name":"Thrumster"},{"geonameid":10245405,"name":"Thurdistoft"},{"geonameid":2635881,"name":"Thurso"},{"geonameid":2635733,"name":"Tokavaig"},{"geonameid":2635730,"name":"Tole"},{"geonameid":2635710,"name":"Tomatin"},{"geonameid":2635709,"name":"Tomcrasky"},{"geonameid":2635708,"name":"Tomdoun"},{"geonameid":2635707,"name":"Tomich"},{"geonameid":6458685,"name":"Tomnacross"},{"geonameid":2635693,"name":"Tongue"},{"geonameid":2635677,"name":"Torboll"},{"geonameid":2635676,"name":"Torcastle"},{"geonameid":2635674,"name":"Tordarroch"},{"geonameid":2635672,"name":"Tore"},{"geonameid":2635671,"name":"Tòrgulbin"},{"geonameid":6620456,"name":"Torlundy"},{"geonameid":2635666,"name":"Tormore"},{"geonameid":2635659,"name":"Torness"},{"geonameid":6639625,"name":"Torridon"},{"geonameid":2635637,"name":"Torrin"},{"geonameid":11049115,"name":"Torrisdale"},{"geonameid":2635632,"name":"Torroble"},{"geonameid":2635619,"name":"Toscaig"},{"geonameid":2635614,"name":"Totaig"},{"geonameid":2635562,"name":"Trantlebeg"},{"geonameid":11072186,"name":"Trioslaig / Trislaig"},{"geonameid":2635415,"name":"Trumpan"},{"geonameid":2635390,"name":"Tuirnaig"},{"geonameid":2635252,"name":"Uags"},{"geonameid":2635219,"name":"Uig"},{"geonameid":2635220,"name":"Uig"},{"geonameid":2635207,"name":"Ulbster"},{"geonameid":2635199,"name":"Ullapool"},{"geonameid":2635178,"name":"Unapool"},{"geonameid":2635168,"name":"Unish"},{"geonameid":2635140,"name":"Upper Camster"},{"geonameid":2635134,"name":"Upper Derraid"},{"geonameid":2635133,"name":"Upper Diabaig"},{"geonameid":2635132,"name":"Upper Dounreay"},{"geonameid":2635130,"name":"Upper Eathie"},{"geonameid":2635074,"name":"Urchany"},{"geonameid":2635056,"name":"Urray"},{"geonameid":11240126,"name":"Waternish"},{"geonameid":2634667,"name":"Watten"},{"geonameid":2634476,"name":"West Canisbay"},{"geonameid":2634460,"name":"West Croachy"},{"geonameid":10245387,"name":"West Dunnet"},{"geonameid":2634370,"name":"West Langwell"},{"geonameid":2634369,"name":"West Laroch"},{"geonameid":2634443,"name":"Wester Clynekirkton"},{"geonameid":2634440,"name":"Wester Fearn"},{"geonameid":11071783,"name":"Wester Gruinards"},{"geonameid":2634432,"name":"Wester Inverwick"},{"geonameid":2634425,"name":"Wester Rarichie"},{"geonameid":2634422,"name":"Wester Urray"},{"geonameid":2634441,"name":"Westerdale"},{"geonameid":11592297,"name":"Westhill"},{"geonameid":2634193,"name":"Whaligoe"},{"geonameid":2633982,"name":"Wick"},{"geonameid":2633620,"name":"Woodside"}],"admin3":[{"geonameid":2636507,"name":"Sutherlandshire","admin3":"2636507"},{"geonameid":2641907,"name":"Nairnshire","admin3":"2641907"},{"geonameid":2646086,"name":"Inverness-shire","admin3":"2646086"},{"geonameid":2654041,"name":"Caithness-shire","admin3":"2654041"}],"alternateNames":[]},"__N_SSG":true}