{"pageProps":{"locale":"en","admin2":{"geonameid":6544244,"name":"Gemeente Maasgouw","country":"NL","admin1":"05","admin2":"1641","admin3":"","latitude":"51.1542600","longitude":"5.8771200","localeAltName":null},"admin1":{"geonameid":2751596,"name":"Provincie Limburg","admin1":"05","localeAltName":"Limburg"},"locations":[{"geonameid":2759534,"name":"Baarstraat","admin3":"","localeAltName":null},{"geonameid":2759353,"name":"Beegden","admin3":"","localeAltName":null},{"geonameid":6544692,"name":"Bilt","admin3":"","localeAltName":null},{"geonameid":2758429,"name":"Brachterbeek","admin3":"","localeAltName":null},{"geonameid":2758406,"name":"Brandt","admin3":"","localeAltName":null},{"geonameid":2756268,"name":"Eiland","admin3":"","localeAltName":null},{"geonameid":2754706,"name":"Heel","admin3":"","localeAltName":null},{"geonameid":2752092,"name":"Laak","admin3":"","localeAltName":null},{"geonameid":2751566,"name":"Linne","admin3":"","localeAltName":null},{"geonameid":2751303,"name":"Maasbracht","admin3":"","localeAltName":null},{"geonameid":2749692,"name":"Oh√© en Laak","admin3":"","localeAltName":null},{"geonameid":2749239,"name":"Osen","admin3":"","localeAltName":null},{"geonameid":2748746,"name":"Panheel","admin3":"","localeAltName":null},{"geonameid":2748526,"name":"Pol","admin3":"","localeAltName":null},{"geonameid":2746714,"name":"Stevensweert","admin3":"","localeAltName":null},{"geonameid":2746342,"name":"Thorn","admin3":"","localeAltName":null},{"geonameid":2744930,"name":"Weerd","admin3":"","localeAltName":null},{"geonameid":2744815,"name":"Wessem","admin3":"","localeAltName":null}],"admin3":[],"alternateNames":[{"alternatenameId":9073257,"geonameid":2751596,"isoLanguage":"en","alternateName":"Limburg","isPreferredName":true,"isShortName":true,"isColloquial":false,"isHistoric":false},{"alternatenameId":9073258,"geonameid":2751596,"isoLanguage":"de","alternateName":"Limburg","isPreferredName":true,"isShortName":true,"isColloquial":false,"isHistoric":false}]},"__N_SSG":true}