{"pageProps":{"locale":"en","admin2":{"geonameid":2752922,"name":"Gemeente Kerkrade","country":"NL","admin1":"05","admin2":"0928","admin3":"","latitude":"50.8733700","longitude":"6.0487600","localeAltName":null},"admin1":{"geonameid":2751596,"name":"Provincie Limburg","admin1":"05","localeAltName":"Limburg"},"locations":[{"geonameid":2758839,"name":"Bleijerheide","admin3":"","localeAltName":null},{"geonameid":2758237,"name":"Broekveld","admin3":"","localeAltName":null},{"geonameid":6619678,"name":"Chevremont","admin3":"","localeAltName":null},{"geonameid":2756285,"name":"Eygelshoven","admin3":"","localeAltName":null},{"geonameid":2755381,"name":"Gracht","admin3":"","localeAltName":null},{"geonameid":2755021,"name":"Haanrade","admin3":"","localeAltName":null},{"geonameid":2754912,"name":"Ham","admin3":"","localeAltName":null},{"geonameid":2753841,"name":"Holz","admin3":"","localeAltName":null},{"geonameid":2753615,"name":"Hopel","admin3":"","localeAltName":null},{"geonameid":2753167,"name":"Kaalheide","admin3":"","localeAltName":null},{"geonameid":2752923,"name":"Kerkrade","admin3":"","localeAltName":null},{"geonameid":2751534,"name":"Locht","admin3":"","localeAltName":null},{"geonameid":2746956,"name":"Spekholzerheide","admin3":"","localeAltName":null},{"geonameid":2746400,"name":"Terwinselen","admin3":"","localeAltName":null},{"geonameid":2745508,"name":"Vink","admin3":"","localeAltName":null}],"admin3":[],"alternateNames":[{"alternatenameId":9073257,"geonameid":2751596,"isoLanguage":"en","alternateName":"Limburg","isPreferredName":true,"isShortName":true,"isColloquial":false,"isHistoric":false},{"alternatenameId":9073258,"geonameid":2751596,"isoLanguage":"de","alternateName":"Limburg","isPreferredName":true,"isShortName":true,"isColloquial":false,"isHistoric":false}]},"__N_SSG":true}