{"pageProps":{"locale":"en","admin2":{"geonameid":6544264,"name":"Gemeente Roerdalen","country":"NL","admin1":"05","admin2":"1669","admin3":"","latitude":"51.1349200","longitude":"6.0354200","localeAltName":null},"admin1":{"geonameid":2751596,"name":"Provincie Limburg","admin1":"05","localeAltName":"Limburg"},"locations":[{"geonameid":2760115,"name":"Aan de Berg","admin3":"","localeAltName":null},{"geonameid":2760108,"name":"Aan het Broek","admin3":"","localeAltName":null},{"geonameid":2759728,"name":"Annendaal","admin3":"","localeAltName":null},{"geonameid":2756930,"name":"De Winkel","admin3":"","localeAltName":null},{"geonameid":2755997,"name":"Etsberg","admin3":"","localeAltName":null},{"geonameid":2754352,"name":"Herkenbosch","admin3":"","localeAltName":null},{"geonameid":2753879,"name":"Holst","admin3":"","localeAltName":null},{"geonameid":2751707,"name":"Lerop","admin3":"","localeAltName":null},{"geonameid":2750978,"name":"Melick","admin3":"","localeAltName":null},{"geonameid":2750624,"name":"Montfort","admin3":"","localeAltName":null},{"geonameid":2748784,"name":"Paarlo","admin3":"","localeAltName":null},{"geonameid":2748481,"name":"Posterholt","admin3":"","localeAltName":null},{"geonameid":2748211,"name":"Reutje","admin3":"","localeAltName":null},{"geonameid":2747911,"name":"Roskam","admin3":"","localeAltName":null},{"geonameid":2747899,"name":"Rothenbach","admin3":"","localeAltName":null},{"geonameid":2747229,"name":"Sint OdiliÃ«nberg","admin3":"","localeAltName":null},{"geonameid":2746101,"name":"Tusschen de Bruggen","admin3":"","localeAltName":null},{"geonameid":2745382,"name":"Vlodrop","admin3":"","localeAltName":null},{"geonameid":2745380,"name":"Vlodrop-Station","admin3":"","localeAltName":null},{"geonameid":2745299,"name":"Voorst","admin3":"","localeAltName":null},{"geonameid":2745282,"name":"Voorsterveld","admin3":"","localeAltName":null},{"geonameid":2743865,"name":"Zittard","admin3":"","localeAltName":null}],"admin3":[],"alternateNames":[{"alternatenameId":9073257,"geonameid":2751596,"isoLanguage":"en","alternateName":"Limburg","isPreferredName":true,"isShortName":true,"isColloquial":false,"isHistoric":false},{"alternatenameId":9073258,"geonameid":2751596,"isoLanguage":"de","alternateName":"Limburg","isPreferredName":true,"isShortName":true,"isColloquial":false,"isHistoric":false}]},"__N_SSG":true}