{"pageProps":{"locale":"en","admin2":{"geonameid":2750620,"name":"Gemeente Mook en Middelaar","country":"NL","admin1":"05","admin2":"0944","admin3":"","latitude":"51.7477700","longitude":"5.9020000","localeAltName":null},"admin1":{"geonameid":2751596,"name":"Provincie Limburg","admin1":"05","localeAltName":"Limburg"},"locations":[{"geonameid":2758887,"name":"Bisselt","admin3":"","localeAltName":null},{"geonameid":2754529,"name":"Heikant","admin3":"","localeAltName":null},{"geonameid":2753044,"name":"Katerbosch","admin3":"","localeAltName":null},{"geonameid":2750905,"name":"Middelaar","admin3":"","localeAltName":null},{"geonameid":2750692,"name":"Molenhoek","admin3":"","localeAltName":null},{"geonameid":2750621,"name":"Mook","admin3":"","localeAltName":null},{"geonameid":2748555,"name":"Plasmolen","admin3":"","localeAltName":null},{"geonameid":2748151,"name":"Riethorst","admin3":"","localeAltName":null}],"admin3":[],"alternateNames":[{"alternatenameId":9073257,"geonameid":2751596,"isoLanguage":"en","alternateName":"Limburg","isPreferredName":true,"isShortName":true,"isColloquial":false,"isHistoric":false},{"alternatenameId":9073258,"geonameid":2751596,"isoLanguage":"de","alternateName":"Limburg","isPreferredName":true,"isShortName":true,"isColloquial":false,"isHistoric":false}]},"__N_SSG":true}