{"pageProps":{"locale":"it","admin2":{"geonameid":3165802,"name":"Provincia di Teramo","country":"IT","admin1":"01","admin2":"TE","admin3":"","latitude":"42.6500000","longitude":"13.6833300","localeAltName":"Teramo"},"admin1":{"geonameid":3183560,"name":"Abruzzo","admin1":"01","localeAltName":"Abruzzo"},"locations":[{"geonameid":6534273,"name":"Alba Adriatica","admin3":"067001","localeAltName":null},{"geonameid":3183093,"name":"Ancarano","admin3":"067002","localeAltName":null},{"geonameid":3182697,"name":"Atri","admin3":"067004","localeAltName":null},{"geonameid":3182316,"name":"Basciano","admin3":"067005","localeAltName":null},{"geonameid":3182226,"name":"Bellante","admin3":"067006","localeAltName":null},{"geonameid":8948846,"name":"Bellante Stazione","admin3":"067006","localeAltName":null},{"geonameid":3182003,"name":"Bisenti","admin3":"067007","localeAltName":null},{"geonameid":8948919,"name":"Borgo Santa Maria Immacolata","admin3":"067035","localeAltName":null},{"geonameid":3180814,"name":"Cannelli","admin3":"067041","localeAltName":null},{"geonameid":3179827,"name":"Casoli","admin3":"067004","localeAltName":null},{"geonameid":8949786,"name":"Castelnuovo","admin3":"067008","localeAltName":null},{"geonameid":8948826,"name":"Castelnuovo Vomano","admin3":"067011","localeAltName":null},{"geonameid":3179193,"name":"Cellino Attanasio","admin3":"067015","localeAltName":null},{"geonameid":3179116,"name":"Cerchiara","admin3":"067026","localeAltName":null},{"geonameid":3179068,"name":"Cermignano","admin3":"067016","localeAltName":null},{"geonameid":3178574,"name":"Civitella del Tronto","admin3":"067017","localeAltName":null},{"geonameid":3178435,"name":"Colle Santa Maria-Varano","admin3":"067041","localeAltName":null},{"geonameid":3178426,"name":"Colleatterrato Alto","admin3":"067041","localeAltName":null},{"geonameid":3178412,"name":"Colledara","admin3":"067018","localeAltName":null},{"geonameid":8949173,"name":"Colleranesco","admin3":"067025","localeAltName":null},{"geonameid":3178291,"name":"Cologna Paese","admin3":"067037","localeAltName":null},{"geonameid":8659112,"name":"Cologna Spiaggia","admin3":"067037","localeAltName":null},{"geonameid":3178266,"name":"Colonnella","admin3":"067019","localeAltName":null},{"geonameid":3178153,"name":"Controguerra","admin3":"067020","localeAltName":null},{"geonameid":3178012,"name":"Corropoli","admin3":"067021","localeAltName":null},{"geonameid":3176806,"name":"Fontanelle","admin3":"067004","localeAltName":null},{"geonameid":3176053,"name":"Giulianova","admin3":"067025","localeAltName":null},{"geonameid":3175429,"name":"Isola del Gran Sasso d'Italia","admin3":"067026","localeAltName":null},{"geonameid":3173833,"name":"Martinsicuro","admin3":"067047","localeAltName":null},{"geonameid":3172810,"name":"Montepagano","admin3":"067037","localeAltName":null},{"geonameid":3172646,"name":"Montorio al Vomano","admin3":"067028","localeAltName":null},{"geonameid":3172535,"name":"Mosciano Sant'Angelo","admin3":"067030","localeAltName":null},{"geonameid":3172412,"name":"Mutignano","admin3":"067035","localeAltName":null},{"geonameid":3172323,"name":"Nepezzano","admin3":"067041","localeAltName":null},{"geonameid":3172311,"name":"Nereto","admin3":"067031","localeAltName":null},{"geonameid":3172199,"name":"Notaresco","admin3":"067032","localeAltName":null},{"geonameid":8949092,"name":"Pagliare","admin3":"067029","localeAltName":null},{"geonameid":8949488,"name":"Petriccione","admin3":"067011","localeAltName":null},{"geonameid":8690179,"name":"Pianacce","admin3":"067040","localeAltName":null},{"geonameid":8950105,"name":"Piano d'Accio","admin3":"067041","localeAltName":null},{"geonameid":8949162,"name":"Pianura Vomano","admin3":"067032","localeAltName":null},{"geonameid":3170692,"name":"Pineto","admin3":"067035","localeAltName":null},{"geonameid":8949819,"name":"Putignano","admin3":"067041","localeAltName":null},{"geonameid":3168936,"name":"Roseto degli Abruzzi","admin3":"067037","localeAltName":null},{"geonameid":8949347,"name":"Salino","admin3":"067044","localeAltName":null},{"geonameid":8950031,"name":"San Giovanni","admin3":"067019","localeAltName":null},{"geonameid":8659114,"name":"San Giovanni","admin3":"067037","localeAltName":null},{"geonameid":8948781,"name":"San Nicol√≤ a Tordino","admin3":"067041","localeAltName":null},{"geonameid":8949916,"name":"Sant'Atto","admin3":"067041","localeAltName":null},{"geonameid":3167347,"name":"Sant'Egidio alla Vibrata","admin3":"067038","localeAltName":null},{"geonameid":3167281,"name":"Sant'Omero","admin3":"067039","localeAltName":null},{"geonameid":3176905,"name":"Sant'Onofrio-Floriano","admin3":"067008","localeAltName":null},{"geonameid":8949746,"name":"Santa Croce","admin3":"067017","localeAltName":null},{"geonameid":8949983,"name":"Santa Lucia","admin3":"067037","localeAltName":null},{"geonameid":8949976,"name":"Santa Maria a Valle","admin3":"067035","localeAltName":null},{"geonameid":3166944,"name":"Scerne","admin3":"067035","localeAltName":null},{"geonameid":3166520,"name":"Silvi","admin3":"067040","localeAltName":null},{"geonameid":3166519,"name":"Silvi Paese","admin3":"067040","localeAltName":null},{"geonameid":3165803,"name":"Teramo","admin3":"067041","localeAltName":null},{"geonameid":3165549,"name":"Torano Nuovo","admin3":"067042","localeAltName":null},{"geonameid":8949437,"name":"Tordinia-Villa Ripa","admin3":"067041","localeAltName":null},{"geonameid":3165396,"name":"Torricella","admin3":"067043","localeAltName":null},{"geonameid":3165365,"name":"Tortoreto","admin3":"067044","localeAltName":null},{"geonameid":6589958,"name":"Tortoreto Lido","admin3":"067044","localeAltName":null},{"geonameid":9036138,"name":"Val Vomano","admin3":"067033","localeAltName":null},{"geonameid":3164823,"name":"Valle San Giovanni","admin3":"067041","localeAltName":null},{"geonameid":3174899,"name":"Villa Lempa","admin3":"067017","localeAltName":null},{"geonameid":8948802,"name":"Villa Rosa","admin3":"067047","localeAltName":null},{"geonameid":3164110,"name":"Villa Vomano","admin3":"067041","localeAltName":null},{"geonameid":8950309,"name":"Villa Zaccheo","admin3":"067011","localeAltName":null},{"geonameid":8949695,"name":"Zona P.E.E.P.","admin3":"067035","localeAltName":null}],"admin3":[{"geonameid":3169137,"name":"Rocca Santa Maria","admin3":"067036"},{"geonameid":6536352,"name":"Crognaleto","admin3":"067023"},{"geonameid":6536399,"name":"Castiglione Messer Raimondo","admin3":"067013"},{"geonameid":6537455,"name":"Bisenti","admin3":"067007","localeAltName":null},{"geonameid":6537456,"name":"Civitella del Tronto","admin3":"067017","localeAltName":null},{"geonameid":6537457,"name":"Colledara","admin3":"067018","localeAltName":null},{"geonameid":6537458,"name":"Colonnella","admin3":"067019","localeAltName":null},{"geonameid":6537459,"name":"Controguerra","admin3":"067020","localeAltName":null},{"geonameid":6537460,"name":"Fano Adriano","admin3":"067024"},{"geonameid":6537461,"name":"Montorio al Vomano","admin3":"067028","localeAltName":null},{"geonameid":6537462,"name":"Tossicia","admin3":"067045"},{"geonameid":6537463,"name":"Martinsicuro","admin3":"067047","localeAltName":null},{"geonameid":6538855,"name":"Arsita","admin3":"067003"},{"geonameid":6538856,"name":"Castilenti","admin3":"067014"},{"geonameid":6538857,"name":"Mosciano Sant'Angelo","admin3":"067030","localeAltName":null},{"geonameid":6538858,"name":"Nereto","admin3":"067031","localeAltName":null},{"geonameid":6538859,"name":"Penna Sant'Andrea","admin3":"067033","localeAltName":null},{"geonameid":6538860,"name":"Pietracamela","admin3":"067034"},{"geonameid":6539628,"name":"Canzano","admin3":"067009"},{"geonameid":6539827,"name":"Castelli","admin3":"067012"},{"geonameid":6540012,"name":"Ancarano","admin3":"067002","localeAltName":null},{"geonameid":6540293,"name":"Torricella Sicura","admin3":"067043","localeAltName":null},{"geonameid":6540714,"name":"Basciano","admin3":"067005","localeAltName":null},{"geonameid":6540715,"name":"Bellante","admin3":"067006","localeAltName":null},{"geonameid":6540716,"name":"Corropoli","admin3":"067021","localeAltName":null},{"geonameid":6540717,"name":"Giulianova","admin3":"067025","localeAltName":null},{"geonameid":6540718,"name":"Montefino","admin3":"067027"},{"geonameid":6540719,"name":"Notaresco","admin3":"067032","localeAltName":null},{"geonameid":6540720,"name":"Pineto","admin3":"067035","localeAltName":null},{"geonameid":6540721,"name":"Torano Nuovo","admin3":"067042","localeAltName":null},{"geonameid":6540722,"name":"Tortoreto","admin3":"067044","localeAltName":null},{"geonameid":6540723,"name":"Valle Castellana","admin3":"067046"},{"geonameid":6541209,"name":"Castellalto","admin3":"067011","localeAltName":null},{"geonameid":6541210,"name":"Cermignano","admin3":"067016","localeAltName":null},{"geonameid":6541211,"name":"Sant'Omero","admin3":"067039","localeAltName":null},{"geonameid":6541519,"name":"Campli","admin3":"067008","localeAltName":null},{"geonameid":6541700,"name":"Morro d'Oro","admin3":"067029","localeAltName":null},{"geonameid":6541856,"name":"Teramo","admin3":"067041","localeAltName":null},{"geonameid":6541923,"name":"Atri","admin3":"067004","localeAltName":null},{"geonameid":6541924,"name":"Cellino Attanasio","admin3":"067015","localeAltName":null},{"geonameid":6541925,"name":"Roseto degli Abruzzi","admin3":"067037","localeAltName":null},{"geonameid":6541926,"name":"Sant'Egidio alla Vibrata","admin3":"067038","localeAltName":null},{"geonameid":6542265,"name":"Isola del Gran Sasso d'Italia","admin3":"067026","localeAltName":null},{"geonameid":6542292,"name":"Silvi","admin3":"067040","localeAltName":null},{"geonameid":6542345,"name":"Alba Adriatica","admin3":"067001","localeAltName":null},{"geonameid":6542719,"name":"Cortino","admin3":"067022"},{"geonameid":6543626,"name":"Castel Castagna","admin3":"067010"}],"alternateNames":[{"alternatenameId":1347629,"geonameid":3165802,"isoLanguage":"it","alternateName":"Teramo","isPreferredName":true,"isShortName":true,"isColloquial":false,"isHistoric":false},{"alternatenameId":2254448,"geonameid":3183560,"isoLanguage":"it","alternateName":"Abruzzo","isPreferredName":true,"isShortName":true,"isColloquial":false,"isHistoric":false}]},"__N_SSG":true}