{"pageProps":{"locale":"it","admin2":{"geonameid":3173718,"name":"Provincia di Matera","country":"IT","admin1":"02","admin2":"MT","admin3":"","latitude":"40.5000000","longitude":"16.4166700","localeAltName":"Matera"},"admin1":{"geonameid":3182306,"name":"Basilicata","admin1":"02","localeAltName":"Basilicata"},"locations":[{"geonameid":3183554,"name":"Accettura","admin3":"077001","localeAltName":null},{"geonameid":3183280,"name":"Aliano","admin3":"077002","localeAltName":null},{"geonameid":3182153,"name":"Bernalda","admin3":"077003","localeAltName":null},{"geonameid":3181228,"name":"Calciano","admin3":"077004","localeAltName":null},{"geonameid":3178292,"name":"Colobraro","admin3":"077006","localeAltName":null},{"geonameid":8949988,"name":"Craco Peschiera","admin3":"077007","localeAltName":null},{"geonameid":3177094,"name":"Ferrandina","admin3":"077008","localeAltName":null},{"geonameid":3176324,"name":"Garaguso","admin3":"077009","localeAltName":null},{"geonameid":3175994,"name":"Gorgoglione","admin3":"077010","localeAltName":null},{"geonameid":3175880,"name":"Grassano","admin3":"077011","localeAltName":null},{"geonameid":3175760,"name":"Grottole","admin3":"077012","localeAltName":null},{"geonameid":3175466,"name":"Irsina","admin3":"077013","localeAltName":null},{"geonameid":3173853,"name":"La Martella","admin3":"077014","localeAltName":null},{"geonameid":8949268,"name":"Lido","admin3":"077021","localeAltName":null},{"geonameid":8224859,"name":"Marconia","admin3":"077020","localeAltName":null},{"geonameid":3173721,"name":"Matera","admin3":"077014","localeAltName":null},{"geonameid":3173519,"name":"Metaponto","admin3":"077003","localeAltName":null},{"geonameid":3173444,"name":"Miglionico","admin3":"077015","localeAltName":null},{"geonameid":3173098,"name":"Montalbano Jonico","admin3":"077016","localeAltName":null},{"geonameid":3172739,"name":"Montescaglioso","admin3":"077017","localeAltName":null},{"geonameid":3172187,"name":"Nova Siri","admin3":"077018","localeAltName":null},{"geonameid":6951083,"name":"Nova Siri Scalo","admin3":"077018","localeAltName":null},{"geonameid":3170622,"name":"Pisticci","admin3":"077020","localeAltName":null},{"geonameid":9036196,"name":"Pisticci Scalo","admin3":"077020","localeAltName":null},{"geonameid":3170384,"name":"Policoro","admin3":"077021","localeAltName":null},{"geonameid":3170350,"name":"Pomarico","admin3":"077022","localeAltName":null},{"geonameid":3168895,"name":"Rotondella","admin3":"077023","localeAltName":null},{"geonameid":3168695,"name":"Salandra","admin3":"077024","localeAltName":null},{"geonameid":3168293,"name":"San Giorgio Lucano","admin3":"077025","localeAltName":null},{"geonameid":3167981,"name":"San Mauro Forte","admin3":"077026","localeAltName":null},{"geonameid":3166974,"name":"Scanzano Jonico","admin3":"077031","localeAltName":null},{"geonameid":3166141,"name":"Stigliano","admin3":"077027","localeAltName":null},{"geonameid":3165191,"name":"Tricarico","admin3":"077028","localeAltName":null},{"geonameid":3165084,"name":"Tursi","admin3":"077029","localeAltName":null},{"geonameid":3164756,"name":"Valsinni","admin3":"077030","localeAltName":null}],"admin3":[{"geonameid":6537645,"name":"Craco","admin3":"077007","localeAltName":null},{"geonameid":6537646,"name":"Garaguso","admin3":"077009","localeAltName":null},{"geonameid":6537647,"name":"Irsina","admin3":"077013","localeAltName":null},{"geonameid":6537648,"name":"Miglionico","admin3":"077015","localeAltName":null},{"geonameid":6537649,"name":"Montescaglioso","admin3":"077017","localeAltName":null},{"geonameid":6537650,"name":"Nova Siri","admin3":"077018","localeAltName":null},{"geonameid":6537651,"name":"Pisticci","admin3":"077020","localeAltName":null},{"geonameid":6537652,"name":"San Giorgio Lucano","admin3":"077025","localeAltName":null},{"geonameid":6537653,"name":"Tricarico","admin3":"077028","localeAltName":null},{"geonameid":6537654,"name":"Valsinni","admin3":"077030","localeAltName":null},{"geonameid":6539019,"name":"Aliano","admin3":"077002","localeAltName":null},{"geonameid":6539020,"name":"Calciano","admin3":"077004","localeAltName":null},{"geonameid":6539021,"name":"Cirigliano","admin3":"077005"},{"geonameid":6539022,"name":"Colobraro","admin3":"077006","localeAltName":null},{"geonameid":6539023,"name":"Grassano","admin3":"077011","localeAltName":null},{"geonameid":6539024,"name":"Grottole","admin3":"077012","localeAltName":null},{"geonameid":6539025,"name":"Oliveto Lucano","admin3":"077019"},{"geonameid":6539026,"name":"Pomarico","admin3":"077022","localeAltName":null},{"geonameid":6539027,"name":"San Mauro Forte","admin3":"077026","localeAltName":null},{"geonameid":6539028,"name":"Tursi","admin3":"077029","localeAltName":null},{"geonameid":6539843,"name":"Stigliano","admin3":"077027","localeAltName":null},{"geonameid":6540035,"name":"Rotondella","admin3":"077023","localeAltName":null},{"geonameid":6540110,"name":"Matera","admin3":"077014","localeAltName":null},{"geonameid":6540780,"name":"Salandra","admin3":"077024","localeAltName":null},{"geonameid":6541276,"name":"Accettura","admin3":"077001","localeAltName":null},{"geonameid":6541277,"name":"Gorgoglione","admin3":"077010","localeAltName":null},{"geonameid":6541278,"name":"Montalbano Jonico","admin3":"077016","localeAltName":null},{"geonameid":6541279,"name":"Policoro","admin3":"077021","localeAltName":null},{"geonameid":6541744,"name":"Bernalda","admin3":"077003","localeAltName":null},{"geonameid":6541947,"name":"Ferrandina","admin3":"077008","localeAltName":null},{"geonameid":6542232,"name":"Scanzano Jonico","admin3":"077031","localeAltName":null}],"alternateNames":[{"alternatenameId":1350031,"geonameid":3173718,"isoLanguage":"it","alternateName":"Matera","isPreferredName":true,"isShortName":true,"isColloquial":false,"isHistoric":false},{"alternatenameId":1352626,"geonameid":3182306,"isoLanguage":"it","alternateName":"Basilicata","isPreferredName":true,"isShortName":true,"isColloquial":false,"isHistoric":false}]},"__N_SSG":true}