{"pageProps":{"locale":"en","admin2":{"geonameid":5227752,"name":"Faulk County","country":"US","admin1":"SD","admin2":"049","admin3":"","latitude":"45.0710100","longitude":"-99.1452500"},"admin1":{"geonameid":5769223,"name":"South Dakota","admin1":"SD","localeAltName":"South Dakota"},"locations":[],"admin3":[{"geonameid":5226021,"name":"Township of Arcade","admin3":"01940"},{"geonameid":5226582,"name":"Township of Bryant","admin3":"08020"},{"geonameid":5226809,"name":"Township of Centerville","admin3":"11020"},{"geonameid":5226857,"name":"Town of Chelsea","admin3":"11500"},{"geonameid":5226913,"name":"Township of Clark","admin3":"12260"},{"geonameid":5227122,"name":"Town of Cresbard","admin3":"14580"},{"geonameid":5227303,"name":"Township of Devoe","admin3":"16340"},{"geonameid":5227584,"name":"Township of Ellisville","admin3":"18900"},{"geonameid":5227615,"name":"Township of Emerson","admin3":"19380"},{"geonameid":5227635,"name":"Township of Enterprise","admin3":"19700"},{"geonameid":5227725,"name":"Township of Fairview","admin3":"20660"},{"geonameid":5227758,"name":"City of Faulkton","admin3":"21260"},{"geonameid":5227911,"name":"Township of Freedom","admin3":"22980"},{"geonameid":5228500,"name":"Township of Hillsdale","admin3":"29180"},{"geonameid":5228761,"name":"Township of Irving","admin3":"32080"},{"geonameid":5229094,"name":"Township of Lafoon","admin3":"34700"},{"geonameid":5229930,"name":"Township of Myron","admin3":"44420"},{"geonameid":5230131,"name":"Township of O'Neil","admin3":"47060"},{"geonameid":5230223,"name":"Town of Onaka","admin3":"46980"},{"geonameid":5230243,"name":"Town of Orient","admin3":"47460"},{"geonameid":5230244,"name":"Township of Orient","admin3":"47500"},{"geonameid":5230440,"name":"Township of Pioneer","admin3":"49780"},{"geonameid":5230891,"name":"Town of Rockham","admin3":"55540"},{"geonameid":5231271,"name":"Township of Saratoga","admin3":"57620"},{"geonameid":5231756,"name":"Town of Seneca","admin3":"58180"},{"geonameid":5231797,"name":"Township of Sherman","admin3":"58540"},{"geonameid":5231980,"name":"Unorganized Territory of Southwest Faulk","admin3":"59960"},{"geonameid":5232309,"name":"Township of Tamworth","admin3":"62940"},{"geonameid":5232524,"name":"Township of Union","admin3":"65140"},{"geonameid":5232797,"name":"Township of Wesley","admin3":"70100"},{"geonameid":5233077,"name":"Township of Zell","admin3":"73340"}],"alternateNames":[{"alternatenameId":2089551,"geonameid":5769223,"isoLanguage":"en","alternateName":"South Dakota","isPreferredName":true,"isShortName":true,"isColloquial":false,"isHistoric":false}]},"__N_SSG":true}