{"pageProps":{"locale":"en","admin2":{"geonameid":5229128,"name":"Lake County","country":"US","admin1":"SD","admin2":"079","admin3":"","latitude":"44.0220400","longitude":"-97.1293800"},"admin1":{"geonameid":5769223,"name":"South Dakota","admin1":"SD","localeAltName":"South Dakota"},"locations":[{"geonameid":5229526,"name":"Madison","admin3":"40220"}],"admin3":[{"geonameid":5226119,"name":"Township of Badus","admin3":"03180"},{"geonameid":5226864,"name":"Township of Chester","admin3":"11700"},{"geonameid":5226916,"name":"Township of Clarno","admin3":"12380"},{"geonameid":5227007,"name":"Township of Concord","admin3":"13660"},{"geonameid":5227746,"name":"Township of Farmington","admin3":"21220"},{"geonameid":5227892,"name":"Township of Franklin","admin3":"22780"},{"geonameid":5228428,"name":"Township of Herman","admin3":"28260"},{"geonameid":5229193,"name":"Township of Lake View","admin3":"35660"},{"geonameid":5229249,"name":"Township of Le Roy","admin3":"36500"},{"geonameid":5229529,"name":"City of Madison","admin3":"40220"},{"geonameid":5230124,"name":"Town of Nunda","admin3":"46060"},{"geonameid":5230125,"name":"Township of Nunda","admin3":"46100"},{"geonameid":5230249,"name":"Township of Orland","admin3":"47580"},{"geonameid":5230691,"name":"Town of Ramona","admin3":"52860"},{"geonameid":5231009,"name":"Township of Rutland","admin3":"57020"},{"geonameid":5232211,"name":"Township of Summit","admin3":"62180"},{"geonameid":5232759,"name":"Township of Wayne","admin3":"69580"},{"geonameid":5232791,"name":"Township of Wentworth","admin3":"70060"},{"geonameid":5232792,"name":"Village of Wentworth","admin3":"70020"},{"geonameid":5232990,"name":"Township of Winfred","admin3":"72140"}],"alternateNames":[{"alternatenameId":2089551,"geonameid":5769223,"isoLanguage":"en","alternateName":"South Dakota","isPreferredName":true,"isShortName":true,"isColloquial":false,"isHistoric":false}]},"__N_SSG":true}