{"pageProps":{"locale":"en","admin2":{"geonameid":5232417,"name":"Tripp County","country":"US","admin1":"SD","admin2":"123","admin3":"","latitude":"43.3458700","longitude":"-99.8840000"},"admin1":{"geonameid":5769223,"name":"South Dakota","admin1":"SD","localeAltName":"South Dakota"},"locations":[{"geonameid":5232994,"name":"Winner","admin3":"72180"}],"admin3":[{"geonameid":5226154,"name":"Township of Banner","admin3":"03620"},{"geonameid":5226399,"name":"Township of Black","admin3":"05700"},{"geonameid":5226573,"name":"Township of Brunson","admin3":"07900"},{"geonameid":5226610,"name":"Township of Bull Creek","admin3":"08420"},{"geonameid":5226989,"name":"City of Colome","admin3":"13300"},{"geonameid":5226990,"name":"Township of Colome","admin3":"13340"},{"geonameid":5227013,"name":"Township of Condon","admin3":"13780"},{"geonameid":5227350,"name":"Township of Dog Ear","admin3":"16780"},{"geonameid":5227582,"name":"Township of Elliston","admin3":"18860"},{"geonameid":5228701,"name":"Township of Ideal","admin3":"31260"},{"geonameid":5228762,"name":"Township of Irwin","admin3":"32100"},{"geonameid":5228976,"name":"Township of Keyapaha","admin3":"33780"},{"geonameid":5228994,"name":"Township of King","admin3":"34060"},{"geonameid":5229206,"name":"Township of Lake","admin3":"35060"},{"geonameid":5229221,"name":"Township of Lamro","admin3":"35700"},{"geonameid":5229339,"name":"Township of Lincoln","admin3":"37700"},{"geonameid":5229397,"name":"Township of Lone Star","admin3":"38580"},{"geonameid":5229650,"name":"Township of McNeely","admin3":"40100"},{"geonameid":5230461,"name":"Township of Plainview","admin3":"49940"},{"geonameid":5230533,"name":"Township of Pleasant Valley","admin3":"50980"},{"geonameid":5230551,"name":"Township of Pleasant View","admin3":"51100"},{"geonameid":5230688,"name":"Township of Rames","admin3":"52820"},{"geonameid":5230949,"name":"Township of Roseland","admin3":"56260"},{"geonameid":5232108,"name":"Township of Star Valley","admin3":"61500"},{"geonameid":5232143,"name":"Township of Stewart","admin3":"61660"},{"geonameid":5232203,"name":"Township of Sully","admin3":"62140"},{"geonameid":5232568,"name":"Township of Valley","admin3":"66220"},{"geonameid":5232762,"name":"Township of Weaver","admin3":"69660"},{"geonameid":5232959,"name":"Township of Willow Creek","admin3":"71860"},{"geonameid":5232981,"name":"Township of Wilson","admin3":"72060"},{"geonameid":5232995,"name":"City of Winner","admin3":"72180"},{"geonameid":5762684,"name":"Township of Beaver Creek","admin3":"04140"},{"geonameid":5763397,"name":"Township of Carter","admin3":"10180"},{"geonameid":5763906,"name":"Township of Curlew","admin3":"15020"},{"geonameid":5765235,"name":"Township of Greenwood","admin3":"26140"},{"geonameid":5765669,"name":"Township of Holsclaw","admin3":"29780"},{"geonameid":5765771,"name":"Township of Huggins","admin3":"30820"},{"geonameid":5766110,"name":"Township of Jordan","admin3":"32980"},{"geonameid":5766674,"name":"Township of Lone Tree","admin3":"38740"},{"geonameid":5767113,"name":"Township of Millboro","admin3":"42420"},{"geonameid":5767387,"name":"Town of New Witten","admin3":"45100"},{"geonameid":5768572,"name":"Township of Rosedale","admin3":"56100"},{"geonameid":5769396,"name":"Township of Star Prairie","admin3":"61380"},{"geonameid":5769630,"name":"Township of Taylor","admin3":"63060"},{"geonameid":5770501,"name":"Township of Witten","admin3":"72380"},{"geonameid":5770537,"name":"Township of Wortman","admin3":"72860"},{"geonameid":5770545,"name":"Township of Wright","admin3":"72940"}],"alternateNames":[{"alternatenameId":2089551,"geonameid":5769223,"isoLanguage":"en","alternateName":"South Dakota","isPreferredName":true,"isShortName":true,"isColloquial":false,"isHistoric":false}]},"__N_SSG":true}