{"pageProps":{"locale":"it","admin2":{"geonameid":3175080,"name":"Provincia di La Spezia","country":"IT","admin1":"08","admin2":"SP","admin3":"","latitude":"44.2500000","longitude":"9.7000000","localeAltName":"La Spezia"},"admin1":{"geonameid":3174725,"name":"Liguria","admin1":"08","localeAltName":"Liguria"},"locations":[{"geonameid":3183114,"name":"Ameglia","admin3":"011001","localeAltName":null},{"geonameid":3182908,"name":"Arcola","admin3":"011002","localeAltName":null},{"geonameid":3181934,"name":"Bolano","admin3":"011004","localeAltName":null},{"geonameid":3181897,"name":"Bonassola","admin3":"011005","localeAltName":null},{"geonameid":3181836,"name":"Borghetto di Vara","admin3":"011006","localeAltName":null},{"geonameid":3181493,"name":"Brugnato","admin3":"011007","localeAltName":null},{"geonameid":6534725,"name":"Carrodano","admin3":"011010","localeAltName":null},{"geonameid":8948761,"name":"Casano-Dogana-Isola","admin3":"011020","localeAltName":null},{"geonameid":3179149,"name":"Ceparana-Carpena","admin3":"011004","localeAltName":null},{"geonameid":8948757,"name":"Colombiera-Molicciara","admin3":"011011","localeAltName":null},{"geonameid":3177631,"name":"Deiva Marina","admin3":"011012","localeAltName":null},{"geonameid":3177056,"name":"Fezzano","admin3":"011022","localeAltName":null},{"geonameid":9036152,"name":"Fiumaretta di Ameglia","admin3":"011001","localeAltName":null},{"geonameid":3176607,"name":"Framura","admin3":"011014","localeAltName":null},{"geonameid":3175081,"name":"La Spezia","admin3":"011015","localeAltName":null},{"geonameid":3174916,"name":"Le Grazie","admin3":"011022","localeAltName":null},{"geonameid":3174856,"name":"Lerici","admin3":"011016","localeAltName":null},{"geonameid":3174793,"name":"Levanto","admin3":"011017","localeAltName":null},{"geonameid":6697611,"name":"Luni Mare","admin3":"011020","localeAltName":null},{"geonameid":3172769,"name":"Monterosso al Mare","admin3":"011019","localeAltName":null},{"geonameid":3171030,"name":"Piana Battolla","admin3":"011013","localeAltName":null},{"geonameid":3170946,"name":"Piano di Follo","admin3":"011013","localeAltName":null},{"geonameid":8949540,"name":"Piano di Valeriano-Bottagna","admin3":"011031","localeAltName":null},{"geonameid":6534438,"name":"Pieve di Zignago","admin3":"011032","localeAltName":null},{"geonameid":8949423,"name":"Pitelli","admin3":"011015","localeAltName":null},{"geonameid":3170065,"name":"Portovenere","admin3":"011022","localeAltName":null},{"geonameid":3169423,"name":"Riccò del Golfo","admin3":"011023","localeAltName":null},{"geonameid":3169333,"name":"Riomaggiore","admin3":"011024","localeAltName":null},{"geonameid":8948912,"name":"Romito Magra","admin3":"011002","localeAltName":null},{"geonameid":3168555,"name":"San Benedetto","admin3":"011023","localeAltName":null},{"geonameid":3167323,"name":"San Terenzo","admin3":"011016","localeAltName":null},{"geonameid":3167243,"name":"Santo Stefano di Magra","admin3":"011026","localeAltName":null},{"geonameid":3167104,"name":"Sarzana","admin3":"011027","localeAltName":null},{"geonameid":3166608,"name":"Sesta Godano","admin3":"011028","localeAltName":null},{"geonameid":8948874,"name":"Stazione-Fornola","admin3":"011031","localeAltName":null},{"geonameid":6544066,"name":"Tellaro","admin3":"011016","localeAltName":null},{"geonameid":3164696,"name":"Varese Ligure","admin3":"011029","localeAltName":null},{"geonameid":3164535,"name":"Vernazza","admin3":"011030","localeAltName":null},{"geonameid":3164451,"name":"Vezzano Ligure","admin3":"011031","localeAltName":null}],"admin3":[{"geonameid":3180410,"name":"Carrodano","admin3":"011010","localeAltName":null},{"geonameid":6536367,"name":"Framura","admin3":"011014","localeAltName":null},{"geonameid":6536368,"name":"Riccò del Golfo di Spezia","admin3":"011023","localeAltName":null},{"geonameid":6536471,"name":"Bonassola","admin3":"011005","localeAltName":null},{"geonameid":6536472,"name":"Brugnato","admin3":"011007","localeAltName":null},{"geonameid":6536473,"name":"Lerici","admin3":"011016","localeAltName":null},{"geonameid":6536474,"name":"Rocchetta di Vara","admin3":"011025"},{"geonameid":6536475,"name":"Sesta Godano","admin3":"011028","localeAltName":null},{"geonameid":6537067,"name":"Bolano","admin3":"011004","localeAltName":null},{"geonameid":6537068,"name":"Borghetto di Vara","admin3":"011006","localeAltName":null},{"geonameid":6537069,"name":"Calice al Cornoviglio","admin3":"011008"},{"geonameid":6537070,"name":"Castelnuovo Magra","admin3":"011011","localeAltName":null},{"geonameid":6537071,"name":"Monterosso al Mare","admin3":"011019","localeAltName":null},{"geonameid":6537072,"name":"Riomaggiore","admin3":"011024","localeAltName":null},{"geonameid":6537073,"name":"Vernazza","admin3":"011030","localeAltName":null},{"geonameid":6539612,"name":"Carro","admin3":"011009"},{"geonameid":6539672,"name":"Sarzana","admin3":"011027","localeAltName":null},{"geonameid":6540154,"name":"Ameglia","admin3":"011001","localeAltName":null},{"geonameid":6540155,"name":"Arcola","admin3":"011002","localeAltName":null},{"geonameid":6540156,"name":"La Spezia","admin3":"011015","localeAltName":null},{"geonameid":6540564,"name":"Pignone","admin3":"011021"},{"geonameid":6540565,"name":"Portovenere","admin3":"011022","localeAltName":null},{"geonameid":6541412,"name":"Luni","admin3":"011020","localeAltName":null},{"geonameid":6541516,"name":"Deiva Marina","admin3":"011012","localeAltName":null},{"geonameid":6541556,"name":"Varese Ligure","admin3":"011029","localeAltName":null},{"geonameid":6541573,"name":"Follo","admin3":"011013","localeAltName":null},{"geonameid":6541582,"name":"Levanto","admin3":"011017","localeAltName":null},{"geonameid":6541626,"name":"Maissana","admin3":"011018"},{"geonameid":6541627,"name":"Santo Stefano di Magra","admin3":"011026","localeAltName":null},{"geonameid":6541628,"name":"Vezzano Ligure","admin3":"011031","localeAltName":null},{"geonameid":6542454,"name":"Beverino","admin3":"011003"},{"geonameid":6542504,"name":"Zignago","admin3":"011032","localeAltName":null}],"alternateNames":[{"alternatenameId":1350376,"geonameid":3174725,"isoLanguage":"it","alternateName":"Liguria","isPreferredName":true,"isShortName":true,"isColloquial":false,"isHistoric":false},{"alternatenameId":2254513,"geonameid":3174725,"isoLanguage":"en","alternateName":"Liguria","isPreferredName":true,"isShortName":true,"isColloquial":false,"isHistoric":false},{"alternatenameId":1350506,"geonameid":3175080,"isoLanguage":"it","alternateName":"La Spezia","isPreferredName":true,"isShortName":true,"isColloquial":false,"isHistoric":false}]},"__N_SSG":true}