{"pageProps":{"locale":"ro","admin2":{"geonameid":8334678,"name":"Comuna Ulmi","country":"RO","admin1":"42","admin2":"105623","admin3":"","latitude":"44.4934000","longitude":"25.7668700"},"admin1":{"geonameid":677104,"name":"Giurgiu","admin1":"42"},"locations":[{"geonameid":682617,"name":"Căscioarele","admin3":""},{"geonameid":679536,"name":"Deleni","admin3":""},{"geonameid":679005,"name":"Drăgăneasca","admin3":""},{"geonameid":677340,"name":"Ghionea","admin3":""},{"geonameid":675758,"name":"Icoana","admin3":""},{"geonameid":672800,"name":"Moșteni","admin3":""},{"geonameid":671900,"name":"Oineşti","admin3":""},{"geonameid":670249,"name":"Poenari","admin3":""},{"geonameid":666345,"name":"Spiridon","admin3":""},{"geonameid":664628,"name":"Trestieni","admin3":""},{"geonameid":664540,"name":"Tufenii","admin3":""},{"geonameid":664295,"name":"Ulmi","admin3":""},{"geonameid":664290,"name":"Ulmi-Oineşti","admin3":""},{"geonameid":662559,"name":"Vlăsceni","admin3":""}],"admin3":[],"alternateNames":[]},"__N_SSG":true}