{"pageProps":{"locale":"en","admin2":{"geonameid":2641235,"name":"Northumberland","country":"GB","admin1":"ENG","admin2":"J6","admin3":"","latitude":"55.2500000","longitude":"-2.0000000"},"admin1":{"geonameid":6269131,"name":"England","admin1":"ENG","localeAltName":"England"},"locations":[{"geonameid":2657705,"name":"Acklington"},{"geonameid":2657700,"name":"Acomb"},{"geonameid":2657579,"name":"Akeld"},{"geonameid":2657487,"name":"Allendale Town"},{"geonameid":2657486,"name":"Allenheads"},{"geonameid":2657483,"name":"Allerdean"},{"geonameid":2657442,"name":"Alnham"},{"geonameid":2657441,"name":"Alnmouth"},{"geonameid":2657438,"name":"Alnwick"},{"geonameid":2657376,"name":"Alwinton"},{"geonameid":2657362,"name":"Amble"},{"geonameid":2657328,"name":"Ancroft"},{"geonameid":2656946,"name":"Ashington"},{"geonameid":2656722,"name":"Aydon"},{"geonameid":2656721,"name":"Ayle"},{"geonameid":2656672,"name":"Backworth"},{"geonameid":2656425,"name":"Bamburgh"},{"geonameid":2656357,"name":"Bardon Mill"},{"geonameid":2656262,"name":"Barrasford"},{"geonameid":2656119,"name":"Beadnell"},{"geonameid":2656103,"name":"Beal"},{"geonameid":2656096,"name":"Beanley"},{"geonameid":2656068,"name":"Bebside"},{"geonameid":2656039,"name":"Bedlington"},{"geonameid":2655981,"name":"Belford"},{"geonameid":2655958,"name":"Bellingham"},{"geonameid":2655941,"name":"Belsay"},{"geonameid":2655823,"name":"Berwick Hill"},{"geonameid":2655819,"name":"Berwick-Upon-Tweed"},{"geonameid":6941088,"name":"Bingfield"},{"geonameid":2655588,"name":"Birtley"},{"geonameid":2655379,"name":"Blanchland"},{"geonameid":2655315,"name":"Blyth"},{"geonameid":2655251,"name":"Bolam"},{"geonameid":2655133,"name":"Bothal"},{"geonameid":2655108,"name":"Boulmer"},{"geonameid":2655048,"name":"Bowsden"},{"geonameid":2654873,"name":"Branxton"},{"geonameid":2654548,"name":"Broomhill"},{"geonameid":6957013,"name":"Butteryhaugh"},{"geonameid":2654127,"name":"Byrness"},{"geonameid":2653991,"name":"Callaly"},{"geonameid":2653946,"name":"Cambois"},{"geonameid":2653840,"name":"Capheaton"},{"geonameid":2653793,"name":"Carham"},{"geonameid":2653522,"name":"Catcleugh"},{"geonameid":2653491,"name":"Catton"},{"geonameid":8223946,"name":"Chathill"},{"geonameid":2653295,"name":"Chatton"},{"geonameid":2653222,"name":"Chesters"},{"geonameid":2653213,"name":"Cheswick"},{"geonameid":2653162,"name":"Chillingham"},{"geonameid":2653098,"name":"Chollerford"},{"geonameid":2653097,"name":"Chollerton"},{"geonameid":2653089,"name":"Choppington"},{"geonameid":2652706,"name":"Coalcleugh"},{"geonameid":2652697,"name":"Coanwood"},{"geonameid":2652517,"name":"Colwell"},{"geonameid":2652382,"name":"Corbridge"},{"geonameid":6619987,"name":"Cornhill on Tweed"},{"geonameid":2652320,"name":"Corsenside"},{"geonameid":2652187,"name":"Cowpen"},{"geonameid":7535379,"name":"Cragside"},{"geonameid":2652095,"name":"Cramlington"},{"geonameid":2652070,"name":"Craster"},{"geonameid":2652009,"name":"Cresswell"},{"geonameid":2651907,"name":"Crookham"},{"geonameid":2651553,"name":"Dalton"},{"geonameid":6696772,"name":"Darras Hall"},{"geonameid":2651304,"name":"Detchant"},{"geonameid":2651179,"name":"Doddington"},{"geonameid":2650845,"name":"Duddo"},{"geonameid":2650557,"name":"Earle"},{"geonameid":2650531,"name":"Earsdon"},{"geonameid":2650484,"name":"East Chevington"},{"geonameid":2650359,"name":"East Ord"},{"geonameid":2650326,"name":"East Thirston"},{"geonameid":2650307,"name":"East Woodburn"},{"geonameid":2650215,"name":"Edlingham"},{"geonameid":2650185,"name":"Eglingham"},{"geonameid":9884086,"name":"Elford"},{"geonameid":2650093,"name":"Ellingham"},{"geonameid":2650090,"name":"Ellington"},{"geonameid":2650063,"name":"Elrington"},{"geonameid":2650062,"name":"Elsdon"},{"geonameid":2650016,"name":"Embleton"},{"geonameid":2649883,"name":"Etal"},{"geonameid":2649713,"name":"Falstone"},{"geonameid":2649569,"name":"Felton"},{"geonameid":2649560,"name":"Fenham"},{"geonameid":2649551,"name":"Fenrother"},{"geonameid":2649545,"name":"Fentonhill"},{"geonameid":2649543,"name":"Fenwick"},{"geonameid":2649236,"name":"Ford"},{"geonameid":2649130,"name":"Fourstones"},{"geonameid":2648645,"name":"Gilsland"},{"geonameid":2648600,"name":"Glanton"},{"geonameid":2648007,"name":"Great Swinburn"},{"geonameid":2647969,"name":"Greenhaugh"},{"geonameid":2647967,"name":"Greenhead"},{"geonameid":2647864,"name":"Grindon"},{"geonameid":11550996,"name":"Guide Post"},{"geonameid":2647762,"name":"Gunnerton"},{"geonameid":2647740,"name":"Guyzance"},{"geonameid":3210209,"name":"Hadston"},{"geonameid":2647593,"name":"Haltwhistle"},{"geonameid":2647506,"name":"Harbottle"},{"geonameid":2647460,"name":"Harlow Hill"},{"geonameid":2647458,"name":"Harnham"},{"geonameid":2647416,"name":"Hartburn"},{"geonameid":2647397,"name":"Hartley"},{"geonameid":2647263,"name":"Haydon Bridge"},{"geonameid":2647230,"name":"Healey"},{"geonameid":2647202,"name":"Hebron"},{"geonameid":2647195,"name":"Heddon on the Wall"},{"geonameid":2647082,"name":"Hepburn"},{"geonameid":2647081,"name":"Hepple"},{"geonameid":2647080,"name":"Hepscott"},{"geonameid":2647007,"name":"Hexham"},{"geonameid":2646975,"name":"High Buston"},{"geonameid":8063588,"name":"Hipsburn"},{"geonameid":2646831,"name":"Hirst"},{"geonameid":2646776,"name":"Holburn"},{"geonameid":11610810,"name":"Holy Island"},{"geonameid":2646676,"name":"Holystone"},{"geonameid":2646553,"name":"Horsley"},{"geonameid":2646490,"name":"Howick"},{"geonameid":2646424,"name":"Humshaugh"},{"geonameid":2646278,"name":"Ilderton"},{"geonameid":2646204,"name":"Ingoe"},{"geonameid":2646199,"name":"Ingram"},{"geonameid":6957014,"name":"Kielder"},{"geonameid":2645276,"name":"Kirkharle"},{"geonameid":2645274,"name":"Kirkheaton"},{"geonameid":2645242,"name":"Kirknewton"},{"geonameid":2645196,"name":"Kirkwhelpington"},{"geonameid":2645162,"name":"Knarsdale"},{"geonameid":2645086,"name":"Kyloe"},{"geonameid":2644920,"name":"Langley"},{"geonameid":2644604,"name":"Lesbury"},{"geonameid":2644481,"name":"Linden"},{"geonameid":2643688,"name":"Longframlington"},{"geonameid":2643681,"name":"Longhirst"},{"geonameid":2643677,"name":"Longhorsley"},{"geonameid":2643676,"name":"Longhoughton"},{"geonameid":2643612,"name":"Longwitton"},{"geonameid":2643597,"name":"Lorbottle"},{"geonameid":2643482,"name":"Lowick"},{"geonameid":2643444,"name":"Lucker"},{"geonameid":3210207,"name":"Lynemouth"},{"geonameid":2642987,"name":"Marshall Meadows"},{"geonameid":2642916,"name":"Matfen"},{"geonameid":2642793,"name":"Meldon"},{"geonameid":2642635,"name":"Mickley"},{"geonameid":2642609,"name":"Middle Ord"},{"geonameid":2642547,"name":"Milbourne"},{"geonameid":2642539,"name":"Milfield"},{"geonameid":8315061,"name":"Mindrum"},{"geonameid":2642409,"name":"Mitford"},{"geonameid":2642182,"name":"Morpeth"},{"geonameid":2641769,"name":"Netherwitton"},{"geonameid":2641723,"name":"New Bewick"},{"geonameid":2641718,"name":"Newbiggin-by-the-Sea"},{"geonameid":2641695,"name":"Newbrough"},{"geonameid":2641638,"name":"Newham"},{"geonameid":9884084,"name":"Newham Hall"},{"geonameid":2641625,"name":"Newlands"},{"geonameid":2641573,"name":"Newsham"},{"geonameid":2641554,"name":"Newton by the Sea"},{"geonameid":2641540,"name":"Newton on the Moor"},{"geonameid":2641454,"name":"Norham"},{"geonameid":2641396,"name":"North Charlton"},{"geonameid":2641268,"name":"North Seaton"},{"geonameid":2641253,"name":"North Sunderland"},{"geonameid":2640964,"name":"Once Brewed"},{"geonameid":2640852,"name":"Otterburn"},{"geonameid":11593355,"name":"Ouston"},{"geonameid":2640755,"name":"Ovingham"},{"geonameid":2640517,"name":"Pegswood"},{"geonameid":2640131,"name":"Ponteland"},{"geonameid":2639931,"name":"Prendwick"},{"geonameid":2639911,"name":"Preston"},{"geonameid":2639874,"name":"Prudhoe"},{"geonameid":8299845,"name":"Riding Mill"},{"geonameid":2639370,"name":"Ridingmill"},{"geonameid":2639366,"name":"Ridsdale"},{"geonameid":2639267,"name":"Rochester"},{"geonameid":2639263,"name":"Rock"},{"geonameid":2639101,"name":"Rothbury"},{"geonameid":2639075,"name":"Rothley"},{"geonameid":2638916,"name":"Ryal"},{"geonameid":2638583,"name":"Sandhoe"},{"geonameid":11550998,"name":"Scotland Gate"},{"geonameid":6269319,"name":"Scremerston"},{"geonameid":2638301,"name":"Seahouses"},{"geonameid":2638273,"name":"Seaton Delaval"},{"geonameid":3235950,"name":"Seaton Sluice"},{"geonameid":2638248,"name":"Seghill"},{"geonameid":2638119,"name":"Sharperton"},{"geonameid":11550997,"name":"Sheepwash"},{"geonameid":2637984,"name":"Shilbottle"},{"geonameid":2637823,"name":"Simonburn"},{"geonameid":2637676,"name":"Slaggyford"},{"geonameid":2637671,"name":"Slaley"},{"geonameid":2637612,"name":"Smeafield"},{"geonameid":2637577,"name":"Snitter"},{"geonameid":2637456,"name":"South Charlton"},{"geonameid":2637217,"name":"Spittal"},{"geonameid":2637135,"name":"Stagshaw Bank"},{"geonameid":11550994,"name":"Stakeford"},{"geonameid":2637101,"name":"Stamfordham"},{"geonameid":8199370,"name":"Stannersburn"},{"geonameid":2637057,"name":"Stannington"},{"geonameid":2636880,"name":"Stocksfield"},{"geonameid":2636599,"name":"Studdon"},{"geonameid":2636421,"name":"Swarland"},{"geonameid":2636380,"name":"Swinhoe"},{"geonameid":2636017,"name":"Thockrington"},{"geonameid":10377330,"name":"Thorney Gate"},{"geonameid":2635989,"name":"Thorngrafton"},{"geonameid":2635914,"name":"Thropton"},{"geonameid":2635314,"name":"Tweedmouth"},{"geonameid":2635201,"name":"Ulgham"},{"geonameid":2634877,"name":"Wall"},{"geonameid":2634870,"name":"Wall Houses"},{"geonameid":2634790,"name":"Warden"},{"geonameid":2634775,"name":"Warenford"},{"geonameid":2634766,"name":"Wark"},{"geonameid":2634767,"name":"Wark"},{"geonameid":2634762,"name":"Warkworth"},{"geonameid":2634473,"name":"West Chevington"},{"geonameid":2634298,"name":"West Ord"},{"geonameid":2634253,"name":"West Thirston"},{"geonameid":2634227,"name":"West Woodburn"},{"geonameid":2634331,"name":"Westnewton"},{"geonameid":2634188,"name":"Whalton"},{"geonameid":2634047,"name":"Whitfield"},{"geonameid":2634018,"name":"Whittingham"},{"geonameid":2634003,"name":"Whittonstall"},{"geonameid":2633962,"name":"Widdrington"},{"geonameid":6269321,"name":"Wideopen"},{"geonameid":2633825,"name":"Wingates"},{"geonameid":2633642,"name":"Woodhorn"},{"geonameid":2633606,"name":"Wooler"},{"geonameid":2633581,"name":"Wooperton"},{"geonameid":2633453,"name":"Wylam"},{"geonameid":2633367,"name":"Yetlington"}],"admin3":[{"geonameid":2641453,"name":"Norham","admin3":"00EM117"},{"geonameid":7290725,"name":"Ellington and Linton","admin3":"00EM054"},{"geonameid":7290726,"name":"Heddon-on-the-Wall","admin3":"00EM073"},{"geonameid":7290888,"name":"Adderstone with Lucker","admin3":"00EM003"},{"geonameid":7290889,"name":"Allendale","admin3":"00EM005"},{"geonameid":7290890,"name":"Bamburgh","admin3":"00EM013"},{"geonameid":7290891,"name":"Bardon Mill","admin3":"00EM014"},{"geonameid":7290989,"name":"Wall","admin3":"00EM150"},{"geonameid":7291368,"name":"Acklington","admin3":"00EM001"},{"geonameid":7291369,"name":"Akeld","admin3":"00EM004"},{"geonameid":7291370,"name":"Alnmouth","admin3":"00EM007"},{"geonameid":7291371,"name":"Alwinton","admin3":"00EM009"},{"geonameid":7291372,"name":"Ancroft","admin3":"00EM011"},{"geonameid":7291373,"name":"Blanchland","admin3":"00EM024"},{"geonameid":7291374,"name":"Bowsden","admin3":"00EM025"},{"geonameid":7291375,"name":"Callaly","admin3":"00EM031"},{"geonameid":7291376,"name":"Carham","admin3":"00EM033"},{"geonameid":7291377,"name":"Cartington","admin3":"00EM034"},{"geonameid":7291378,"name":"Chatton","admin3":"00EM035"},{"geonameid":7291379,"name":"Chillingham","admin3":"00EM036"},{"geonameid":7291380,"name":"Cresswell","admin3":"00EM043"},{"geonameid":7291381,"name":"Doddington","admin3":"00EM045"},{"geonameid":7291382,"name":"Denwick","admin3":"00EM044"},{"geonameid":7291383,"name":"Elsdon","admin3":"00EM055"},{"geonameid":7291384,"name":"Embleton","admin3":"00EM056"},{"geonameid":7291385,"name":"Ewart","admin3":"00EM057"},{"geonameid":7291386,"name":"Featherstone","admin3":"00EM059"},{"geonameid":7291387,"name":"Felton","admin3":"00EM060"},{"geonameid":7291388,"name":"Glanton","admin3":"00EM062"},{"geonameid":7291389,"name":"Harbottle","admin3":"00EM066"},{"geonameid":7291390,"name":"Hartleyburn","admin3":"00EM068"},{"geonameid":7291392,"name":"Hedgeley","admin3":"00EM074"},{"geonameid":7291393,"name":"Henshaw","admin3":"00EM076"},{"geonameid":7291394,"name":"Hesleyhurst","admin3":"00EM079"},{"geonameid":7291395,"name":"Hexham","admin3":"00EM080"},{"geonameid":7291396,"name":"Hexhamshire","admin3":"00EM081"},{"geonameid":7291397,"name":"Hollinghill","admin3":"00EM083"},{"geonameid":7291398,"name":"Horsley","admin3":"00EM086"},{"geonameid":7291399,"name":"Longframlington","admin3":"00EM098"},{"geonameid":7291451,"name":"Longhirst","admin3":"00EM099"},{"geonameid":7291452,"name":"Longhorsley","admin3":"00EM100"},{"geonameid":7291453,"name":"Netherwitton","admin3":"00EM112"},{"geonameid":7291454,"name":"Newbrough","admin3":"00EM114"},{"geonameid":7291455,"name":"Nunnykirk","admin3":"00EM120"},{"geonameid":7291456,"name":"Ovingham","admin3":"00EM123"},{"geonameid":7291457,"name":"Ovington","admin3":"00EM124"},{"geonameid":7291458,"name":"Plenmeller with Whitfield","admin3":"00EM126"},{"geonameid":7291459,"name":"Prudhoe","admin3":"00EM128"},{"geonameid":7291470,"name":"Rochester","admin3":"00EM130"},{"geonameid":7291471,"name":"Roddam","admin3":"00EM131"},{"geonameid":7291472,"name":"Shoreswood","admin3":"00EM136"},{"geonameid":7291473,"name":"Snitter","admin3":"00EM140"},{"geonameid":7291474,"name":"Stamfordham","admin3":"00EM141"},{"geonameid":7291475,"name":"Stannington","admin3":"00EM142"},{"geonameid":7291476,"name":"Thirlwall","admin3":"00EM144"},{"geonameid":7291477,"name":"Togston","admin3":"00EM147"},{"geonameid":7291478,"name":"Wark","admin3":"00EM153"},{"geonameid":7291479,"name":"West Bedlington","admin3":"00EM156"},{"geonameid":7291480,"name":"Widdrington Station and Stobswood","admin3":"00EM161"},{"geonameid":7291481,"name":"Wooler","admin3":"00EM163"},{"geonameid":7291482,"name":"Wylam","admin3":"00EM164"},{"geonameid":7291483,"name":"Blyth","admin3":"00EM165"},{"geonameid":7291512,"name":"Broomhaugh and Riding","admin3":"00EM028"},{"geonameid":7291796,"name":"Healey","admin3":"00EM071"},{"geonameid":7291797,"name":"Kirknewton","admin3":"00EM092"},{"geonameid":7291798,"name":"Kyloe","admin3":"00EM095"},{"geonameid":7291799,"name":"Longhoughton","admin3":"00EM101"},{"geonameid":7291800,"name":"Lowick","admin3":"00EM102"},{"geonameid":7291801,"name":"Lynemouth","admin3":"00EM103"},{"geonameid":7291802,"name":"Mitford","admin3":"00EM109"},{"geonameid":7291803,"name":"Newton-by-the-Sea","admin3":"00EM115"},{"geonameid":7291804,"name":"Rothbury","admin3":"00EM132"},{"geonameid":7291805,"name":"Slaley","admin3":"00EM139"},{"geonameid":7291806,"name":"Tarset","admin3":"00EM143"},{"geonameid":7291807,"name":"Ulgham","admin3":"00EM149"},{"geonameid":7291808,"name":"Warkworth","admin3":"00EM154"},{"geonameid":7291809,"name":"Widdrington Village","admin3":"00EM162"},{"geonameid":7291810,"name":"Seaton Valley","admin3":"00EM167"},{"geonameid":7293982,"name":"Birtley","admin3":"00EM023"},{"geonameid":7293983,"name":"Coanwood","admin3":"00EM038"},{"geonameid":7293984,"name":"Corsenside","admin3":"00EM041"},{"geonameid":7293985,"name":"Hartburn","admin3":"00EM067"},{"geonameid":7293986,"name":"Hauxley","admin3":"00EM069"},{"geonameid":7296126,"name":"Ilderton","admin3":"00EM088"},{"geonameid":7296127,"name":"Kilham","admin3":"00EM091"},{"geonameid":7296745,"name":"Acomb","admin3":"00EM002"},{"geonameid":7296746,"name":"Alnham","admin3":"00EM006"},{"geonameid":7296747,"name":"Ashington","admin3":"00EM012"},{"geonameid":7296748,"name":"Beadnell","admin3":"00EM016"},{"geonameid":7296749,"name":"Broomley and Stocksfield","admin3":"00EM029"},{"geonameid":7296750,"name":"Bywell","admin3":"00EM030"},{"geonameid":7296751,"name":"Chollerton","admin3":"00EM037"},{"geonameid":7296752,"name":"Edlingham","admin3":"00EM051"},{"geonameid":7296753,"name":"Hepscott","admin3":"00EM078"},{"geonameid":7296754,"name":"Horncliffe","admin3":"00EM085"},{"geonameid":7296755,"name":"Humshaugh","admin3":"00EM087"},{"geonameid":7296756,"name":"Lesbury","admin3":"00EM096"},{"geonameid":7296757,"name":"Matfen","admin3":"00EM104"},{"geonameid":7296758,"name":"Meldon","admin3":"00EM105"},{"geonameid":7296759,"name":"Morpeth","admin3":"00EM110"},{"geonameid":7296760,"name":"Netherton","admin3":"00EM111"},{"geonameid":7296761,"name":"Newton-on-the-Moor and Swarland","admin3":"00EM116"},{"geonameid":7296762,"name":"North Bedlington","admin3":"00EM118"},{"geonameid":7296763,"name":"Otterburn","admin3":"00EM122"},{"geonameid":7296764,"name":"Pegswood","admin3":"00EM125"},{"geonameid":7296765,"name":"Ponteland","admin3":"00EM127"},{"geonameid":7296766,"name":"Rennington","admin3":"00EM129"},{"geonameid":7296767,"name":"Shilbottle","admin3":"00EM135"},{"geonameid":7296768,"name":"Shotley Low Quarter","admin3":"00EM137"},{"geonameid":7296769,"name":"Thirston","admin3":"00EM145"},{"geonameid":7296770,"name":"Whalton","admin3":"00EM157"},{"geonameid":7296771,"name":"Whittingham","admin3":"00EM158"},{"geonameid":7296772,"name":"Whitton and Tosson","admin3":"00EM160"},{"geonameid":7297704,"name":"Kielder","admin3":"00EM090"},{"geonameid":7297705,"name":"Newbiggin by the Sea","admin3":"00EM113"},{"geonameid":7297836,"name":"Holy Island","admin3":"00EM084"},{"geonameid":7297837,"name":"Ingram","admin3":"00EM089"},{"geonameid":7297838,"name":"West Allen","admin3":"00EM155"},{"geonameid":7298817,"name":"Kirkwhelpington","admin3":"00EM093"},{"geonameid":7298818,"name":"Knaresdale with Kirkhaugh","admin3":"00EM094"},{"geonameid":7298819,"name":"Lilburn","admin3":"00EM097"},{"geonameid":7298820,"name":"Melkridge","admin3":"00EM106"},{"geonameid":7298821,"name":"Middleton","admin3":"00EM107"},{"geonameid":7298822,"name":"Milfield","admin3":"00EM108"},{"geonameid":7298823,"name":"North Sunderland","admin3":"00EM119"},{"geonameid":7298824,"name":"Ord","admin3":"00EM121"},{"geonameid":7298825,"name":"Rothley","admin3":"00EM133"},{"geonameid":7298826,"name":"Sandhoe","admin3":"00EM134"},{"geonameid":7298827,"name":"Simonburn","admin3":"00EM138"},{"geonameid":7298828,"name":"Thropton","admin3":"00EM146"},{"geonameid":7300204,"name":"Belsay","admin3":"00EM019"},{"geonameid":7300674,"name":"Bavington","admin3":"00EM015"},{"geonameid":7300675,"name":"Belford","admin3":"00EM017"},{"geonameid":7300676,"name":"Bellingham","admin3":"00EM018"},{"geonameid":7300677,"name":"Branxton","admin3":"00EM026"},{"geonameid":7300678,"name":"Capheaton","admin3":"00EM032"},{"geonameid":7300679,"name":"Corbridge","admin3":"00EM039"},{"geonameid":7300680,"name":"Craster","admin3":"00EM042"},{"geonameid":7300681,"name":"Easington","admin3":"00EM048"},{"geonameid":7300682,"name":"Eglingham","admin3":"00EM052"},{"geonameid":7300683,"name":"Haltwhistle","admin3":"00EM065"},{"geonameid":7300684,"name":"Hebron","admin3":"00EM072"},{"geonameid":7300685,"name":"Hedley","admin3":"00EM075"},{"geonameid":7300686,"name":"Hepple","admin3":"00EM077"},{"geonameid":7300687,"name":"Hexhamshire Low Quarter","admin3":"00EM082"},{"geonameid":7300689,"name":"Tritlington and West Chevington","admin3":"00EM148"},{"geonameid":7300690,"name":"Wallington Demesne","admin3":"00EM151"},{"geonameid":7300691,"name":"Warden","admin3":"00EM152"},{"geonameid":7300692,"name":"Whittington","admin3":"00EM159"},{"geonameid":7300693,"name":"Cramlington","admin3":"00EM166"},{"geonameid":7301617,"name":"Berwick-upon-Tweed","admin3":"00EM020"},{"geonameid":7301990,"name":"Alnwick","admin3":"00EM008"},{"geonameid":7301991,"name":"Amble By the Sea","admin3":"00EM010"},{"geonameid":7301992,"name":"Bewick","admin3":"00EM021"},{"geonameid":7301993,"name":"Biddlestone","admin3":"00EM022"},{"geonameid":7301994,"name":"Brinkburn","admin3":"00EM027"},{"geonameid":7301995,"name":"Cornhill-on-Tweed","admin3":"00EM040"},{"geonameid":7301996,"name":"Duddo","admin3":"00EM046"},{"geonameid":7301997,"name":"Earle","admin3":"00EM047"},{"geonameid":7301998,"name":"East Bedlington","admin3":"00EM049"},{"geonameid":7301999,"name":"East Chevington","admin3":"00EM050"},{"geonameid":7302000,"name":"Ellingham","admin3":"00EM053"},{"geonameid":7302001,"name":"Falstone","admin3":"00EM058"},{"geonameid":7302002,"name":"Ford","admin3":"00EM061"},{"geonameid":7302003,"name":"Greenhead","admin3":"00EM063"},{"geonameid":7302004,"name":"Greystead","admin3":"00EM064"},{"geonameid":7302005,"name":"Haydon","admin3":"00EM070"}],"alternateNames":[{"alternatenameId":1626647,"geonameid":6269131,"isoLanguage":"en","alternateName":"England","isPreferredName":true,"isShortName":true,"isColloquial":false,"isHistoric":false}]},"__N_SSG":true}