{"pageProps":{"locale":"it","admin2":{"geonameid":3171172,"name":"Provincia di Pesaro e Urbino","country":"IT","admin1":"10","admin2":"PU","admin3":"","latitude":"43.6666700","longitude":"12.6333300","localeAltName":"Pesaro e Urbino"},"admin1":{"geonameid":3174004,"name":"Marche","admin1":"10","localeAltName":"Marche"},"locations":[{"geonameid":3183522,"name":"Acqualagna","admin3":"041001","localeAltName":null},{"geonameid":3182992,"name":"Apecchio","admin3":"041002","localeAltName":null},{"geonameid":6535032,"name":"Barchi","admin3":"041070","localeAltName":null},{"geonameid":3182239,"name":"Belforte","admin3":"041005","localeAltName":null},{"geonameid":8949707,"name":"Bellaria-Pole-Petriccio","admin3":"041001","localeAltName":null},{"geonameid":3182214,"name":"Bellocchi","admin3":"041013","localeAltName":null},{"geonameid":8950326,"name":"Borgaccio","admin3":"041069","localeAltName":null},{"geonameid":8949236,"name":"Borgo Massano","admin3":"041030","localeAltName":null},{"geonameid":3181752,"name":"Borgo Santa Maria","admin3":"041044","localeAltName":null},{"geonameid":8949022,"name":"Bottega","admin3":"041068","localeAltName":null},{"geonameid":8949500,"name":"Ca' Gallo","admin3":"041030","localeAltName":null},{"geonameid":3181277,"name":"Cagli","admin3":"041007","localeAltName":null},{"geonameid":3181222,"name":"Calcinelli","admin3":"041069","localeAltName":null},{"geonameid":8949373,"name":"Canavaccio","admin3":"041067","localeAltName":null},{"geonameid":3180873,"name":"Candelara","admin3":"041044","localeAltName":null},{"geonameid":3180768,"name":"Cantiano","admin3":"041008","localeAltName":null},{"geonameid":8948920,"name":"Cappone","admin3":"041068","localeAltName":null},{"geonameid":3180455,"name":"Carpegna","admin3":"041009","localeAltName":null},{"geonameid":8468678,"name":"Case Badioli","admin3":"041019","localeAltName":null},{"geonameid":8688648,"name":"Case Bruciate","admin3":"041044","localeAltName":null},{"geonameid":3175341,"name":"Casinina","admin3":"041071","localeAltName":null},{"geonameid":3179463,"name":"Castelvecchio","admin3":"041038","localeAltName":null},{"geonameid":8688380,"name":"Centinarola","admin3":"041013","localeAltName":null},{"geonameid":8949956,"name":"Colombarone","admin3":"041044","localeAltName":null},{"geonameid":3177728,"name":"Cuccurano","admin3":"041013","localeAltName":null},{"geonameid":8949229,"name":"Fanano","admin3":"041020","localeAltName":null},{"geonameid":3177219,"name":"Fano","admin3":"041013","localeAltName":null},{"geonameid":8688393,"name":"Fenile","admin3":"041013","localeAltName":null},{"geonameid":3177100,"name":"Fermignano","admin3":"041014","localeAltName":null},{"geonameid":3176630,"name":"Fossombrone","admin3":"041015","localeAltName":null},{"geonameid":8949501,"name":"Fratte","admin3":"041060","localeAltName":null},{"geonameid":6324600,"name":"Fratte Rosa","admin3":"041016","localeAltName":null},{"geonameid":3176516,"name":"Frontone","admin3":"041018","localeAltName":null},{"geonameid":3176444,"name":"Gabicce Mare","admin3":"041019","localeAltName":null},{"geonameid":8949795,"name":"Gadana","admin3":"041067","localeAltName":null},{"geonameid":8948976,"name":"Gallo","admin3":"041045","localeAltName":null},{"geonameid":8688545,"name":"Ghetto di Trebbiantico","admin3":"041044","localeAltName":null},{"geonameid":3175965,"name":"Gradara","admin3":"041020","localeAltName":null},{"geonameid":3174508,"name":"Lucrezia","admin3":"041010","localeAltName":null},{"geonameid":3174472,"name":"Lunano","admin3":"041022","localeAltName":null},{"geonameid":3174377,"name":"Macerata Feltria","admin3":"041023","localeAltName":null},{"geonameid":3173877,"name":"Marotta","admin3":"041029","localeAltName":null},{"geonameid":3173568,"name":"Mercatale","admin3":"041071","localeAltName":null},{"geonameid":3173562,"name":"Mercatello sul Metauro","admin3":"041025","localeAltName":null},{"geonameid":6535605,"name":"Mercatino Conca","admin3":"041026","localeAltName":null},{"geonameid":3173169,"name":"Mondavio","admin3":"041028","localeAltName":null},{"geonameid":3173164,"name":"Mondolfo","admin3":"041029","localeAltName":null},{"geonameid":6535606,"name":"Monte Porzio","admin3":"041038","localeAltName":null},{"geonameid":3172971,"name":"Monteciccardo","admin3":"041032","localeAltName":null},{"geonameid":3172883,"name":"Montelabbate","admin3":"041036","localeAltName":null},{"geonameid":3171977,"name":"Orciano di Pesaro","admin3":"041070","localeAltName":null},{"geonameid":8949039,"name":"Padiglione","admin3":"041065","localeAltName":null},{"geonameid":3171212,"name":"Pergola","admin3":"041043","localeAltName":null},{"geonameid":3171173,"name":"Pesaro","admin3":"041044","localeAltName":null},{"geonameid":3171050,"name":"Piagge","admin3":"041070","localeAltName":null},{"geonameid":3171001,"name":"Piandimeleto","admin3":"041047","localeAltName":null},{"geonameid":3170680,"name":"Piobbico","admin3":"041049","localeAltName":null},{"geonameid":8950352,"name":"Ponte Armellina Zona Residenziale","admin3":"041067","localeAltName":null},{"geonameid":9036385,"name":"Ponte Sasso","admin3":"041013","localeAltName":null},{"geonameid":8949176,"name":"Rio Salso-Case Bernardi","admin3":"041065","localeAltName":null},{"geonameid":3168948,"name":"Rosciano","admin3":"041013","localeAltName":null},{"geonameid":3168625,"name":"Saltara","admin3":"041069","localeAltName":null},{"geonameid":3168458,"name":"San Costanzo","admin3":"041051","localeAltName":null},{"geonameid":3168301,"name":"San Giorgio di Pesaro","admin3":"041070","localeAltName":null},{"geonameid":3168113,"name":"San Lorenzo in Campo","admin3":"041054","localeAltName":null},{"geonameid":8949218,"name":"San Michele","admin3":"041028","localeAltName":null},{"geonameid":3167442,"name":"Sant'Angelo in Vado","admin3":"041057","localeAltName":null},{"geonameid":3167296,"name":"Sant'Ippolito","admin3":"041058","localeAltName":null},{"geonameid":3167074,"name":"Sassocorvaro","admin3":"041071","localeAltName":null},{"geonameid":8950372,"name":"Solfanuccio","admin3":"041051","localeAltName":null},{"geonameid":3165880,"name":"Tavernelle","admin3":"041069","localeAltName":null},{"geonameid":3165865,"name":"Tavoleto","admin3":"041064","localeAltName":null},{"geonameid":3165862,"name":"Tavullia","admin3":"041065","localeAltName":null},{"geonameid":8949604,"name":"Tombaccia","admin3":"041013","localeAltName":null},{"geonameid":6693802,"name":"Trasanni","admin3":"041067","localeAltName":null},{"geonameid":3165038,"name":"Urbania","admin3":"041066","localeAltName":null},{"geonameid":3165035,"name":"Urbino","admin3":"041067","localeAltName":null},{"geonameid":8948992,"name":"Villa Ceccolini","admin3":"041044","localeAltName":null},{"geonameid":6534666,"name":"Villagrande","admin3":"041033","localeAltName":null},{"geonameid":8950173,"name":"Villagrande","admin3":"041027","localeAltName":null},{"geonameid":8949135,"name":"Villanova","admin3":"041069","localeAltName":null}],"admin3":[{"geonameid":3172968,"name":"Montecopiolo","admin3":"041033","localeAltName":null},{"geonameid":6536289,"name":"Belforte all'Isauro","admin3":"041005","localeAltName":null},{"geonameid":6536761,"name":"Cagli","admin3":"041007","localeAltName":null},{"geonameid":6536762,"name":"Fratte Rosa","admin3":"041016","localeAltName":null},{"geonameid":6536763,"name":"Frontino","admin3":"041017"},{"geonameid":6536764,"name":"Lunano","admin3":"041022","localeAltName":null},{"geonameid":6536765,"name":"Macerata Feltria","admin3":"041023","localeAltName":null},{"geonameid":6536766,"name":"Mercatello sul Metauro","admin3":"041025","localeAltName":null},{"geonameid":6536767,"name":"Montecalvo in Foglia","admin3":"041030","localeAltName":null},{"geonameid":6536768,"name":"Monte Cerignone","admin3":"041031"},{"geonameid":6536771,"name":"Petriano","admin3":"041045","localeAltName":null},{"geonameid":6536774,"name":"Tavullia","admin3":"041065","localeAltName":null},{"geonameid":6538493,"name":"Frontone","admin3":"041018","localeAltName":null},{"geonameid":6538494,"name":"Isola del Piano","admin3":"041021"},{"geonameid":6538495,"name":"Mombaroccio","admin3":"041027","localeAltName":null},{"geonameid":6538496,"name":"Mondavio","admin3":"041028","localeAltName":null},{"geonameid":6538497,"name":"Mondolfo","admin3":"041029","localeAltName":null},{"geonameid":6538498,"name":"Monteciccardo","admin3":"041032","localeAltName":null},{"geonameid":6538499,"name":"Montelabbate","admin3":"041036","localeAltName":null},{"geonameid":6538500,"name":"Piandimeleto","admin3":"041047","localeAltName":null},{"geonameid":6538501,"name":"Piobbico","admin3":"041049","localeAltName":null},{"geonameid":6538504,"name":"Sant'Angelo in Vado","admin3":"041057","localeAltName":null},{"geonameid":6538505,"name":"Serra Sant'Abbondio","admin3":"041061"},{"geonameid":6538506,"name":"Urbania","admin3":"041066","localeAltName":null},{"geonameid":6539719,"name":"Carpegna","admin3":"041009","localeAltName":null},{"geonameid":6539720,"name":"San Costanzo","admin3":"041051","localeAltName":null},{"geonameid":6539722,"name":"Sant'Ippolito","admin3":"041058","localeAltName":null},{"geonameid":6540442,"name":"Apecchio","admin3":"041002","localeAltName":null},{"geonameid":6540443,"name":"Borgo Pace","admin3":"041006"},{"geonameid":6540445,"name":"Peglio","admin3":"041041"},{"geonameid":6540446,"name":"Pergola","admin3":"041043","localeAltName":null},{"geonameid":6541048,"name":"Acqualagna","admin3":"041001","localeAltName":null},{"geonameid":6541049,"name":"Cantiano","admin3":"041008","localeAltName":null},{"geonameid":6541050,"name":"Fano","admin3":"041013","localeAltName":null},{"geonameid":6541051,"name":"Fossombrone","admin3":"041015","localeAltName":null},{"geonameid":6541052,"name":"Gradara","admin3":"041020","localeAltName":null},{"geonameid":6541053,"name":"San Lorenzo in Campo","admin3":"041054","localeAltName":null},{"geonameid":6541054,"name":"Tavoleto","admin3":"041064","localeAltName":null},{"geonameid":6541472,"name":"Urbino","admin3":"041067","localeAltName":null},{"geonameid":6541839,"name":"Fermignano","admin3":"041014","localeAltName":null},{"geonameid":6542003,"name":"Pesaro","admin3":"041044","localeAltName":null},{"geonameid":6542211,"name":"Gabicce Mare","admin3":"041019","localeAltName":null},{"geonameid":6542253,"name":"Sassofeltrio","admin3":"041060","localeAltName":null},{"geonameid":6542712,"name":"Monte Grimano Terme","admin3":"041035"},{"geonameid":6542713,"name":"Pietrarubbia","admin3":"041048"},{"geonameid":6543020,"name":"Montefelcino","admin3":"041034"},{"geonameid":6543584,"name":"Cartoceto","admin3":"041010","localeAltName":null},{"geonameid":6543585,"name":"Mercatino Conca","admin3":"041026","localeAltName":null},{"geonameid":6543586,"name":"Monte Porzio","admin3":"041038","localeAltName":null},{"geonameid":8659022,"name":"Vallefoglia","admin3":"041068","localeAltName":null},{"geonameid":11550070,"name":"Terre Roveresche","admin3":"041070","localeAltName":null},{"geonameid":11550073,"name":"Colli al Metauro","admin3":"041069","localeAltName":null},{"geonameid":12032195,"name":"Sassocorvaro Auditore","admin3":"041071","localeAltName":null}],"alternateNames":[{"alternatenameId":1349260,"geonameid":3171172,"isoLanguage":"it","alternateName":"Pesaro e Urbino","isPreferredName":true,"isShortName":true,"isColloquial":false,"isHistoric":false},{"alternatenameId":2431313,"geonameid":3171172,"isoLanguage":"de","alternateName":"Pesaro-Urbino","isPreferredName":true,"isShortName":true,"isColloquial":false,"isHistoric":false},{"alternatenameId":2431314,"geonameid":3171172,"isoLanguage":"en","alternateName":"Pesaro and Urbino","isPreferredName":true,"isShortName":true,"isColloquial":false,"isHistoric":false},{"alternatenameId":1350130,"geonameid":3174004,"isoLanguage":"it","alternateName":"Marche","isPreferredName":true,"isShortName":true,"isColloquial":false,"isHistoric":false},{"alternatenameId":1350131,"geonameid":3174004,"isoLanguage":"en","alternateName":"The Marches","isPreferredName":true,"isShortName":true,"isColloquial":false,"isHistoric":false}]},"__N_SSG":true}