{"pageProps":{"locale":"en","admin2":{"geonameid":3333169,"name":"Manchester","country":"GB","admin1":"ENG","admin2":"I2","admin3":"","latitude":"53.4166700","longitude":"-2.2500000","localeAltName":"Manchester"},"admin1":{"geonameid":6269131,"name":"England","admin1":"ENG","localeAltName":"England"},"locations":[{"geonameid":9884104,"name":"Ancoats"},{"geonameid":2656629,"name":"Baguley"},{"geonameid":6691222,"name":"Blackley"},{"geonameid":6691251,"name":"Burnage"},{"geonameid":9884113,"name":"Castlefield"},{"geonameid":6691216,"name":"Cheetham Hill"},{"geonameid":6691248,"name":"Chorlton cum Hardy"},{"geonameid":2653083,"name":"Chorlton upon Medlock"},{"geonameid":6691217,"name":"Collyhurst"},{"geonameid":6691221,"name":"Crumpsall"},{"geonameid":6620310,"name":"Didsbury"},{"geonameid":6692985,"name":"Egerton"},{"geonameid":6301953,"name":"Ellenbrook"},{"geonameid":6691219,"name":"Failsworth"},{"geonameid":6691252,"name":"Fallowfield"},{"geonameid":2648280,"name":"Gorton"},{"geonameid":9884106,"name":"Green Quarter"},{"geonameid":6640028,"name":"Hale"},{"geonameid":11979027,"name":"Harpurhey"},{"geonameid":6691253,"name":"Heaton Chapel"},{"geonameid":6691235,"name":"Heywood"},{"geonameid":6691215,"name":"Higher Broughton"},{"geonameid":6691226,"name":"Hollins"},{"geonameid":6691257,"name":"Hulme"},{"geonameid":6691250,"name":"Ladybarn"},{"geonameid":2644568,"name":"Levenshulme"},{"geonameid":6691766,"name":"Longsight"},{"geonameid":2643123,"name":"Manchester"},{"geonameid":7281603,"name":"Manchester City Centre"},{"geonameid":11550985,"name":"Moss Nook"},{"geonameid":11669842,"name":"Moss Side"},{"geonameid":6691220,"name":"Moston"},{"geonameid":2641550,"name":"Newton Heath"},{"geonameid":9884105,"name":"Noma"},{"geonameid":9884103,"name":"North Quarter"},{"geonameid":2641367,"name":"Northenden"},{"geonameid":2640955,"name":"Openshaw"},{"geonameid":2639335,"name":"Ringway"},{"geonameid":2638942,"name":"Rusholme"},{"geonameid":9884107,"name":"Strangeways"},{"geonameid":2636373,"name":"Swinton"},{"geonameid":6930366,"name":"West Didsbury"},{"geonameid":2634410,"name":"West Gorton"},{"geonameid":6691247,"name":"Whalley Range"},{"geonameid":6691249,"name":"Withington"},{"geonameid":2633432,"name":"Wythenshawe"}],"admin3":[{"geonameid":7295552,"name":"Ringway","admin3":"00BN001"}],"alternateNames":[{"alternatenameId":8666503,"geonameid":3333169,"isoLanguage":"en","alternateName":"Manchester","isPreferredName":true,"isShortName":true,"isColloquial":false,"isHistoric":false},{"alternatenameId":1626647,"geonameid":6269131,"isoLanguage":"en","alternateName":"England","isPreferredName":true,"isShortName":true,"isColloquial":false,"isHistoric":false}]},"__N_SSG":true}