{"pageProps":{"locale":"en","admin2":{"geonameid":2748391,"name":"Gemeente Putten","country":"NL","admin1":"03","admin2":"0273","admin3":"","latitude":"52.2443800","longitude":"5.5782700"},"admin1":{"geonameid":2755634,"name":"Provincie Gelderland","admin1":"03"},"locations":[{"geonameid":2759378,"name":"Batoâ€™s Erf","admin3":""},{"geonameid":2758944,"name":"Bijsteren","admin3":""},{"geonameid":2756861,"name":"Diermen","admin3":""},{"geonameid":2755567,"name":"Gerven","admin3":""},{"geonameid":2754915,"name":"Halvinkhuizen","admin3":""},{"geonameid":2754468,"name":"Hell","admin3":""},{"geonameid":2754033,"name":"Hoef","admin3":""},{"geonameid":2753519,"name":"Huinen","admin3":""},{"geonameid":2753518,"name":"Huinerbroek","admin3":""},{"geonameid":2753517,"name":"Huinerwal","admin3":""},{"geonameid":2752368,"name":"Koudhoorn","admin3":""},{"geonameid":2752321,"name":"Krachtighuizen","admin3":""},{"geonameid":2749798,"name":"Norden","admin3":""},{"geonameid":2748392,"name":"Putten","admin3":""},{"geonameid":2748232,"name":"Renselaar","admin3":""},{"geonameid":2746788,"name":"Steenenkamer","admin3":""},{"geonameid":2746238,"name":"t Oever","admin3":""},{"geonameid":2745758,"name":"Veenhuizerveld","admin3":""}],"admin3":[],"alternateNames":[{"alternatenameId":11907787,"geonameid":2755634,"isoLanguage":"de","alternateName":"Gelderland","isPreferredName":true,"isShortName":true,"isColloquial":false,"isHistoric":false}]},"__N_SSG":true}