{"pageProps":{"locale":"en","admin2":{"geonameid":12022127,"name":"West Betuwe","country":"NL","admin1":"03","admin2":"1960","admin3":"","latitude":"51.8615800","longitude":"5.2093500"},"admin1":{"geonameid":2755634,"name":"Provincie Gelderland","admin1":"03"},"locations":[{"geonameid":2759975,"name":"Acquoy","admin3":""},{"geonameid":2759643,"name":"Asperen","admin3":""},{"geonameid":2759288,"name":"Beesd","admin3":""},{"geonameid":2758052,"name":"Buurmalsen","admin3":""},{"geonameid":2757880,"name":"Crob","admin3":""},{"geonameid":2757478,"name":"Deil","admin3":""},{"geonameid":2756140,"name":"Emmawijk","admin3":""},{"geonameid":2756066,"name":"Enspijk","admin3":""},{"geonameid":2756003,"name":"Est","admin3":""},{"geonameid":2755808,"name":"Friezenwijk","admin3":""},{"geonameid":2755633,"name":"Geldermalsen","admin3":""},{"geonameid":2755631,"name":"Geldermalsen-Oost","admin3":""},{"geonameid":2755630,"name":"Geldermalsen-West","admin3":""},{"geonameid":2755611,"name":"Gellicum","admin3":""},{"geonameid":2755039,"name":"Haaften","admin3":""},{"geonameid":2754769,"name":"Hattelaar","admin3":""},{"geonameid":2754632,"name":"Heesselt","admin3":""},{"geonameid":2754450,"name":"Hellouw","admin3":""},{"geonameid":2754318,"name":"Herwijnen","admin3":""},{"geonameid":2754150,"name":"Heukelum","admin3":""},{"geonameid":2752117,"name":"Laageinde","admin3":""},{"geonameid":2751679,"name":"Leuven","admin3":""},{"geonameid":2751168,"name":"MariÃ«nwaard","admin3":""},{"geonameid":2751143,"name":"Markt","admin3":""},{"geonameid":2750921,"name":"Meteren","admin3":""},{"geonameid":2750444,"name":"Neerijnen","admin3":""},{"geonameid":2749298,"name":"Ophemert","admin3":""},{"geonameid":2749290,"name":"Opijnen","admin3":""},{"geonameid":2748183,"name":"Rhenoy","admin3":""},{"geonameid":2747808,"name":"Rumpt","admin3":""},{"geonameid":2747055,"name":"Snelleveld","admin3":""},{"geonameid":2746938,"name":"Spijk","admin3":""},{"geonameid":2746162,"name":"Tricht","admin3":""},{"geonameid":2746130,"name":"Tuil","admin3":""},{"geonameid":2745808,"name":"Varik","admin3":""},{"geonameid":2745354,"name":"Vogelswerf","admin3":""},{"geonameid":2745143,"name":"Vuren","admin3":""},{"geonameid":2745116,"name":"Waardenburg","admin3":""}],"admin3":[],"alternateNames":[{"alternatenameId":11907787,"geonameid":2755634,"isoLanguage":"de","alternateName":"Gelderland","isPreferredName":true,"isShortName":true,"isColloquial":false,"isHistoric":false}]},"__N_SSG":true}