{"pageProps":{"locale":"ro","admin2":{"geonameid":8334643,"name":"Comuna Dorna-Arini","country":"RO","admin1":"34","admin2":"148131","admin3":"","latitude":"47.3592800","longitude":"25.4438300"},"admin1":{"geonameid":665849,"name":"Suceava","admin1":"34"},"locations":[{"geonameid":686160,"name":"Arin","admin3":""},{"geonameid":682948,"name":"Călineşti","admin3":""},{"geonameid":680414,"name":"Cozăneşti","admin3":""},{"geonameid":7576007,"name":"Dorna-Arini","admin3":""},{"geonameid":677455,"name":"Gheorghițeni","admin3":""},{"geonameid":676513,"name":"Gura Negri","admin3":""},{"geonameid":679092,"name":"Ortoaia","admin3":""},{"geonameid":671646,"name":"Osoiu","admin3":""},{"geonameid":668421,"name":"Rusca","admin3":""},{"geonameid":665770,"name":"Sunători","admin3":""},{"geonameid":662122,"name":"Zugreni","admin3":""}],"admin3":[],"alternateNames":[{"alternatenameId":393492,"geonameid":665849,"isoLanguage":"en","alternateName":"Suceava","isPreferredName":true,"isShortName":true,"isColloquial":false,"isHistoric":false}]},"__N_SSG":true}