{"pageProps":{"locale":"en","admin2":{"geonameid":5583239,"name":"Weld County","country":"US","admin1":"CO","admin2":"123","admin3":"","latitude":"40.5548400","longitude":"-104.3925300","localeAltName":null},"admin1":{"geonameid":5417618,"name":"Colorado","admin1":"CO","localeAltName":"Colorado"},"locations":[{"geonameid":5574368,"name":"Aristocrat Ranchettes","admin3":"","localeAltName":null},{"geonameid":5574410,"name":"Ault","admin3":"","localeAltName":null},{"geonameid":5576177,"name":"Dacono","admin3":"","localeAltName":null},{"geonameid":5576690,"name":"Eaton","admin3":"","localeAltName":null},{"geonameid":5576909,"name":"Evans","admin3":"","localeAltName":null},{"geonameid":5577008,"name":"Firestone","admin3":"","localeAltName":null},{"geonameid":5577153,"name":"Fort Lupton","admin3":"","localeAltName":null},{"geonameid":5577217,"name":"Frederick","admin3":"","localeAltName":null},{"geonameid":5577350,"name":"Gilcrest","admin3":"","localeAltName":null},{"geonameid":5577592,"name":"Greeley","admin3":"","localeAltName":null},{"geonameid":5578235,"name":"Hudson","admin3":"","localeAltName":null},{"geonameid":5578536,"name":"Johnstown","admin3":"","localeAltName":null},{"geonameid":5578653,"name":"Keenesburg","admin3":"","localeAltName":null},{"geonameid":5578683,"name":"Kersey","admin3":"","localeAltName":null},{"geonameid":5578793,"name":"La Salle","admin3":"","localeAltName":null},{"geonameid":5579170,"name":"Lochbuie","admin3":"","localeAltName":null},{"geonameid":5579737,"name":"Mead","admin3":"","localeAltName":null},{"geonameid":5579899,"name":"Milliken","admin3":"","localeAltName":null},{"geonameid":5580868,"name":"Pierce","admin3":"","localeAltName":null},{"geonameid":5580947,"name":"Platteville","admin3":"","localeAltName":null},{"geonameid":5581845,"name":"Severance","admin3":"","localeAltName":null},{"geonameid":5583509,"name":"Windsor","admin3":"","localeAltName":null}],"admin3":[{"geonameid":7175316,"name":"Town of Lochbuie","admin3":"7175316"}],"alternateNames":[{"alternatenameId":2089564,"geonameid":5417618,"isoLanguage":"en","alternateName":"Colorado","isPreferredName":true,"isShortName":true,"isColloquial":false,"isHistoric":false}]},"__N_SSG":true}