{"pageProps":{"locale":"ro","admin2":{"geonameid":8334801,"name":"Comuna Bulzeştii De Sus","country":"RO","admin1":"21","admin2":"88920","admin3":"","latitude":"46.2938300","longitude":"22.7776600"},"admin1":{"geonameid":675917,"name":"Hunedoara","admin1":"21"},"locations":[{"geonameid":686078,"name":"Aslaneşti","admin3":""},{"geonameid":685609,"name":"Băliteşti","admin3":""},{"geonameid":683300,"name":"Bulzeștii de Jos","admin3":""},{"geonameid":683304,"name":"Bulzeștii de Sus","admin3":""},{"geonameid":678973,"name":"Drăgeşti","admin3":""},{"geonameid":677765,"name":"Furdeşti","admin3":""},{"geonameid":677116,"name":"Giurgești","admin3":""},{"geonameid":676687,"name":"Grohot","admin3":""},{"geonameid":675557,"name":"Ionăşeşti","admin3":""},{"geonameid":674262,"name":"Lupteşti","admin3":""},{"geonameid":673850,"name":"Mărcuşeşti","admin3":""},{"geonameid":671226,"name":"Păulești","admin3":""},{"geonameid":669447,"name":"Putinari","admin3":""},{"geonameid":668661,"name":"Roşeşti","admin3":""},{"geonameid":668399,"name":"Rusești","admin3":""},{"geonameid":666535,"name":"Soiceşti","admin3":""},{"geonameid":666310,"name":"Stănculești","admin3":""},{"geonameid":666000,"name":"Străuţi","admin3":""},{"geonameid":665178,"name":"Ticera","admin3":""},{"geonameid":664809,"name":"Tomnatec","admin3":""},{"geonameid":664807,"name":"Tomnatecu de Sus","admin3":""}],"admin3":[],"alternateNames":[]},"__N_SSG":true}