{"pageProps":{"locale":"en","admin2":{"geonameid":2646007,"name":"Isle of Wight","country":"GB","admin1":"ENG","admin2":"G2","admin3":"","latitude":"50.6666700","longitude":"-1.3333300"},"admin1":{"geonameid":6269131,"name":"England","admin1":"ENG"},"locations":[{"geonameid":2657391,"name":"Alverstone"},{"geonameid":9883997,"name":"Alverstone Garden Village"},{"geonameid":2657021,"name":"Arreton"},{"geonameid":2655925,"name":"Bembridge"},{"geonameid":2655436,"name":"Blackwater"},{"geonameid":2655218,"name":"Bonchurch"},{"geonameid":10376284,"name":"Bouldnor"},{"geonameid":2655071,"name":"Bowcombe"},{"geonameid":2654990,"name":"Brading"},{"geonameid":2654713,"name":"Brighstone"},{"geonameid":2654571,"name":"Brook"},{"geonameid":2654036,"name":"Calbourne"},{"geonameid":2653789,"name":"Carisbrooke"},{"geonameid":2653396,"name":"Chale"},{"geonameid":2653395,"name":"Chalegreen"},{"geonameid":2652204,"name":"Cowes"},{"geonameid":10376283,"name":"Cranmore"},{"geonameid":2651032,"name":"Downend"},{"geonameid":3234498,"name":"East Cowes"},{"geonameid":2649378,"name":"Fishbourne"},{"geonameid":10376280,"name":"Five Houses"},{"geonameid":2649069,"name":"Freshwater"},{"geonameid":2648365,"name":"Godshill"},{"geonameid":2647752,"name":"Gurnard"},{"geonameid":10376282,"name":"Hamstead"},{"geonameid":2647312,"name":"Havenstreet"},{"geonameid":2646577,"name":"Horringford"},{"geonameid":2645439,"name":"Kingston"},{"geonameid":2642709,"name":"Merstone"},{"geonameid":2642132,"name":"Mottistone"},{"geonameid":6252038,"name":"Nettlestone"},{"geonameid":2641701,"name":"Newbridge"},{"geonameid":2641669,"name":"Newchurch"},{"geonameid":2641599,"name":"Newport"},{"geonameid":2641525,"name":"Newtown"},{"geonameid":10376281,"name":"Ningwood"},{"geonameid":2641480,"name":"Niton"},{"geonameid":2641217,"name":"Northwood"},{"geonameid":2640880,"name":"Osborne"},{"geonameid":9883998,"name":"Queen's Bower"},{"geonameid":2639169,"name":"Rookley"},{"geonameid":6947727,"name":"Rowridge"},{"geonameid":2638911,"name":"Ryde"},{"geonameid":2638761,"name":"Saint Lawrence"},{"geonameid":2638568,"name":"Sandown"},{"geonameid":2638264,"name":"Seaview"},{"geonameid":2638151,"name":"Shalfleet"},{"geonameid":2638138,"name":"Shanklin"},{"geonameid":2638001,"name":"Shide"},{"geonameid":2637911,"name":"Shorwell"},{"geonameid":7932001,"name":"St Lawrence"},{"geonameid":2638786,"name":"St. Helens"},{"geonameid":9538944,"name":"St. Helens, Ryde"},{"geonameid":2635613,"name":"Totland"},{"geonameid":8031355,"name":"Totland Bay"},{"geonameid":2634985,"name":"Ventnor"},{"geonameid":2634150,"name":"Whippingham"},{"geonameid":2634002,"name":"Whitwell"},{"geonameid":2633578,"name":"Wootton"},{"geonameid":2633570,"name":"Wootton Bridge"},{"geonameid":2633475,"name":"Wroxall"},{"geonameid":2633414,"name":"Yarmouth"}],"admin3":[{"geonameid":7291356,"name":"Yarmouth","admin3":"00MW026"},{"geonameid":7291461,"name":"East Cowes","admin3":"00MW027"},{"geonameid":7291462,"name":"St. Helens","admin3":"00MW017"},{"geonameid":7291787,"name":"Niton and Whitwell","admin3":"00MW015"},{"geonameid":7291788,"name":"Havenstreet and Ashey","admin3":"00MW029"},{"geonameid":7291789,"name":"Whippingham","admin3":"00MW033"},{"geonameid":7291790,"name":"Newchurch","admin3":"00MW014"},{"geonameid":7291791,"name":"Northwood","admin3":"00MW031"},{"geonameid":7293722,"name":"Fishbourne","admin3":"00MW028"},{"geonameid":7293723,"name":"Shorwell","admin3":"00MW021"},{"geonameid":7293726,"name":"Ventnor","admin3":"00MW023"},{"geonameid":7293727,"name":"Brading","admin3":"00MW003"},{"geonameid":7293728,"name":"Calbourne","admin3":"00MW005"},{"geonameid":7293729,"name":"Gatcombe","admin3":"00MW009"},{"geonameid":7293730,"name":"Gurnard","admin3":"00MW011"},{"geonameid":7295274,"name":"Wroxall","admin3":"00MW025"},{"geonameid":7295275,"name":"Sandown","admin3":"00MW018"},{"geonameid":7295276,"name":"Wootton Bridge","admin3":"00MW024"},{"geonameid":7295277,"name":"Freshwater","admin3":"00MW008"},{"geonameid":7295840,"name":"Shalfleet","admin3":"00MW019"},{"geonameid":7295843,"name":"Arreton","admin3":"00MW001"},{"geonameid":7295844,"name":"Bembridge","admin3":"00MW002"},{"geonameid":7295845,"name":"Cowes","admin3":"00MW007"},{"geonameid":7297503,"name":"Nettlestone and Seaview","admin3":"00MW013"},{"geonameid":7298022,"name":"Chale","admin3":"00MW006"},{"geonameid":7298788,"name":"Shanklin","admin3":"00MW020"},{"geonameid":7298789,"name":"Totland","admin3":"00MW022"},{"geonameid":7298793,"name":"Brighstone","admin3":"00MW004"},{"geonameid":7298794,"name":"Godshill","admin3":"00MW010"},{"geonameid":7299167,"name":"Ryde","admin3":"00MW032"},{"geonameid":7299168,"name":"Lake","admin3":"00MW012"},{"geonameid":7299169,"name":"Rookley","admin3":"00MW016"},{"geonameid":7301611,"name":"Newport","admin3":"00MW030"}],"alternateNames":[]},"__N_SSG":true}