{"pageProps":{"locale":"en","admin2":{"geonameid":4265618,"name":"Switzerland County","country":"US","admin1":"IN","admin2":"155","admin3":"","latitude":"38.8261600","longitude":"-85.0370000","localeAltName":null},"admin1":{"geonameid":4921868,"name":"Indiana","admin1":"IN","localeAltName":"Indiana"},"locations":[{"geonameid":4266278,"name":"Vevay","admin3":"38232","localeAltName":null}],"admin3":[{"geonameid":4256194,"name":"Township of Cotton","admin3":"15328"},{"geonameid":4256244,"name":"Township of Craig","admin3":"15580"},{"geonameid":4259667,"name":"Township of Jefferson","admin3":"38232","localeAltName":null},{"geonameid":4263203,"name":"Township of Pleasant","admin3":"60480"},{"geonameid":4263305,"name":"Township of Posey","admin3":"61380"},{"geonameid":4267282,"name":"Township of York","admin3":"86048"}],"alternateNames":[{"alternatenameId":2124819,"geonameid":4921868,"isoLanguage":"en","alternateName":"Indiana","isPreferredName":true,"isShortName":true,"isColloquial":false,"isHistoric":false}]},"__N_SSG":true}