{"pageProps":{"locale":"de","locations":[{"geonameid":2959390,"name":"Adorf","admin3":"14523","localeAltName":null},{"geonameid":2958648,"name":"Albertstadt","admin3":"14612","localeAltName":null},{"geonameid":2957834,"name":"Altenberg","admin3":"14628","localeAltName":null},{"geonameid":2956987,"name":"Altmittweida","admin3":"14522","localeAltName":null},{"geonameid":2956005,"name":"Annaberg-Buchholz","admin3":"14521","localeAltName":null},{"geonameid":2955367,"name":"Arzberg","admin3":"14730","localeAltName":null},{"geonameid":2954695,"name":"Aue","admin3":"14521","localeAltName":null},{"geonameid":2954602,"name":"Auerbach","admin3":"14523","localeAltName":null},{"geonameid":2954127,"name":"Augustusburg","admin3":"14522","localeAltName":null},{"geonameid":2953538,"name":"Bad Brambach","admin3":"14523","localeAltName":null},{"geonameid":2953524,"name":"Bad Düben","admin3":"14730","localeAltName":null},{"geonameid":2953509,"name":"Bad Elster","admin3":"14523","localeAltName":null},{"geonameid":2953411,"name":"Bad Lausick","admin3":"14729","localeAltName":null},{"geonameid":2953397,"name":"Bad Muskau","admin3":"14626","localeAltName":null},{"geonameid":2953352,"name":"Bad Schandau","admin3":"14628","localeAltName":null},{"geonameid":2838671,"name":"Bad Schlema","admin3":"14521","localeAltName":null},{"geonameid":2952916,"name":"Bannewitz","admin3":"14628","localeAltName":null},{"geonameid":2952702,"name":"Bärenstein","admin3":"14628","localeAltName":null},{"geonameid":2952703,"name":"Bärenstein","admin3":"14521","localeAltName":null},{"geonameid":2951881,"name":"Bautzen","admin3":"14625","localeAltName":null},{"geonameid":2951404,"name":"Beierfeld","admin3":"14521","localeAltName":null},{"geonameid":2951397,"name":"Beiersdorf","admin3":"14626","localeAltName":null},{"geonameid":2951352,"name":"Beilrode","admin3":"14730","localeAltName":null},{"geonameid":2951258,"name":"Belgern","admin3":"14730","localeAltName":null},{"geonameid":2951254,"name":"Belgershain","admin3":"14729","localeAltName":null},{"geonameid":2951026,"name":"Bennewitz","admin3":"14729","localeAltName":null},{"geonameid":2950626,"name":"Bergen","admin3":"14523","localeAltName":null},{"geonameid":2949970,"name":"Bernsbach","admin3":"14521","localeAltName":null},{"geonameid":2949961,"name":"Bernsdorf","admin3":"14625","localeAltName":null},{"geonameid":2949967,"name":"Bernsdorf","admin3":"14524","localeAltName":null},{"geonameid":2949949,"name":"Bernstadt","admin3":"14626","localeAltName":null},{"geonameid":2949880,"name":"Berthelsdorf","admin3":"14628","localeAltName":null},{"geonameid":6548670,"name":"Bertsdorf-Hörnitz","admin3":"14626","localeAltName":null},{"geonameid":2948267,"name":"Bischofswerda","admin3":"14625","localeAltName":null},{"geonameid":2947403,"name":"Bockau","admin3":"14521","localeAltName":null},{"geonameid":2947372,"name":"Bockelwitz","admin3":"14522","localeAltName":null},{"geonameid":2946980,"name":"Böhlen","admin3":"14729","localeAltName":null},{"geonameid":2946172,"name":"Borna","admin3":"14729","localeAltName":null},{"geonameid":2946097,"name":"Börnichen","admin3":"14521","localeAltName":null},{"geonameid":2946016,"name":"Borsdorf","admin3":"14729","localeAltName":null},{"geonameid":2945980,"name":"Borstendorf","admin3":"14521","localeAltName":null},{"geonameid":2945891,"name":"Bösenbrunn","admin3":"14523","localeAltName":null},{"geonameid":2945698,"name":"Boxberg","admin3":"14626","localeAltName":null},{"geonameid":2945341,"name":"Brand-Erbisdorf","admin3":"14522","localeAltName":null},{"geonameid":2945270,"name":"Brandis","admin3":"14729","localeAltName":null},{"geonameid":2944630,"name":"Breitenbrunn","admin3":"14521","localeAltName":null},{"geonameid":2915172,"name":"Budestecy","admin3":"14625","localeAltName":null},{"geonameid":2941150,"name":"Burgstädt","admin3":"14522","localeAltName":null},{"geonameid":2941028,"name":"Burkau","admin3":"14625","localeAltName":null},{"geonameid":2940993,"name":"Burkhardtsdorf","admin3":"14521","localeAltName":null},{"geonameid":2940397,"name":"Callenberg","admin3":"14524","localeAltName":null},{"geonameid":2940218,"name":"Cavertitz","admin3":"14730","localeAltName":null},{"geonameid":2940132,"name":"Chemnitz","admin3":"14511","localeAltName":null},{"geonameid":2939997,"name":"Claußnitz","admin3":"14522","localeAltName":null},{"geonameid":2939927,"name":"Colditz","admin3":"14729","localeAltName":null},{"geonameid":2939820,"name":"Coswig","admin3":"14627","localeAltName":null},{"geonameid":2939747,"name":"Crimmitschau","admin3":"14524","localeAltName":null},{"geonameid":2939717,"name":"Crostau","admin3":"14625","localeAltName":null},{"geonameid":2939714,"name":"Crostwitz","admin3":"14625","localeAltName":null},{"geonameid":2939710,"name":"Crottendorf","admin3":"14521","localeAltName":null},{"geonameid":2939687,"name":"Cunewalde","admin3":"14625","localeAltName":null},{"geonameid":2939434,"name":"Dahlen","admin3":"14730","localeAltName":null},{"geonameid":2938376,"name":"Delitzsch","admin3":"14730","localeAltName":null},{"geonameid":2938298,"name":"Demeusel","admin3":"14523","localeAltName":null},{"geonameid":2938295,"name":"Demitz-Thumitz","admin3":"14625","localeAltName":null},{"geonameid":2938223,"name":"Dennheritz","admin3":"14524","localeAltName":null},{"geonameid":2937789,"name":"Deutzen","admin3":"14729","localeAltName":null},{"geonameid":2936842,"name":"Dippoldiswalde","admin3":"14628","localeAltName":null},{"geonameid":2936658,"name":"Döbeln","admin3":"14522","localeAltName":null},{"geonameid":2936623,"name":"Döbernitz","admin3":"14730","localeAltName":null},{"geonameid":2936620,"name":"Doberschau","admin3":"14625","localeAltName":null},{"geonameid":2936616,"name":"Doberschütz","admin3":"14730","localeAltName":null},{"geonameid":2936473,"name":"Dohma","admin3":"14628","localeAltName":null},{"geonameid":2936470,"name":"Dohna","admin3":"14628","localeAltName":null},{"geonameid":2936280,"name":"Dommitzsch","admin3":"14730","localeAltName":null},{"geonameid":2936120,"name":"Dorfchemnitz","admin3":"14521","localeAltName":null},{"geonameid":2936089,"name":"Dorfhain","admin3":"14628","localeAltName":null},{"geonameid":2935303,"name":"Drebach","admin3":"14521","localeAltName":null},{"geonameid":2935022,"name":"Dresden","admin3":"14612","localeAltName":null},{"geonameid":2934324,"name":"Dürrhennersdorf","admin3":"14626","localeAltName":null},{"geonameid":2934286,"name":"Dürrröhrsdorf","admin3":"14628","localeAltName":null},{"geonameid":3209001,"name":"Ebersbach","admin3":"14627","localeAltName":null},{"geonameid":2933963,"name":"Ebersbach","admin3":"14522","localeAltName":null},{"geonameid":2933965,"name":"Ebersbach","admin3":"14626","localeAltName":null},{"geonameid":2933721,"name":"Eckartsberg","admin3":"14626","localeAltName":null},{"geonameid":2932828,"name":"Ehrenfriedersdorf","admin3":"14521","localeAltName":null},{"geonameid":2932756,"name":"Eibau","admin3":"14626","localeAltName":null},{"geonameid":2932738,"name":"Eibenstock","admin3":"14521","localeAltName":null},{"geonameid":2932119,"name":"Eichigt","admin3":"14523","localeAltName":null},{"geonameid":2931871,"name":"Eilenburg","admin3":"14730","localeAltName":null},{"geonameid":2931097,"name":"Ellefeld","admin3":"14523","localeAltName":null},{"geonameid":2930708,"name":"Elsnig","admin3":"14730","localeAltName":null},{"geonameid":2930687,"name":"Elsterberg","admin3":"14523","localeAltName":null},{"geonameid":2930682,"name":"Elstertrebnitz","admin3":"14729","localeAltName":null},{"geonameid":2930672,"name":"Elstra","admin3":"14625","localeAltName":null},{"geonameid":2930662,"name":"Elterlein","admin3":"14521","localeAltName":null},{"geonameid":2929855,"name":"Eppendorf","admin3":"14522","localeAltName":null},{"geonameid":2929593,"name":"Erlabrunn","admin3":"14521","localeAltName":null},{"geonameid":2929557,"name":"Erlau","admin3":"14522","localeAltName":null},{"geonameid":2929541,"name":"Erlbach","admin3":"14523","localeAltName":null},{"geonameid":2928862,"name":"Espenhain","admin3":"14729","localeAltName":null},{"geonameid":2928047,"name":"Falkenau","admin3":"14522","localeAltName":null},{"geonameid":2927959,"name":"Falkenhain","admin3":"14729","localeAltName":null},{"geonameid":2927913,"name":"Falkenstein","admin3":"14523","localeAltName":null},{"geonameid":11102926,"name":"Feldschlößchen","admin3":"14625","localeAltName":null},{"geonameid":2926147,"name":"Flöha","admin3":"14522","localeAltName":null},{"geonameid":2925630,"name":"Frankenberg","admin3":"14522","localeAltName":null},{"geonameid":2925557,"name":"Frankenstein","admin3":"14522","localeAltName":null},{"geonameid":2925548,"name":"Frankenthal","admin3":"14625","localeAltName":null},{"geonameid":2925306,"name":"Frauenstein","admin3":"14522","localeAltName":null},{"geonameid":2925267,"name":"Fraureuth","admin3":"14524","localeAltName":null},{"geonameid":2925192,"name":"Freiberg","admin3":"14522","localeAltName":null},{"geonameid":2925017,"name":"Freital","admin3":"14628","localeAltName":null},{"geonameid":2924722,"name":"Friedersdorf","admin3":"14626","localeAltName":null},{"geonameid":2924313,"name":"Frohburg","admin3":"14729","localeAltName":null},{"geonameid":2923444,"name":"Gablenz","admin3":"14626","localeAltName":null},{"geonameid":2923351,"name":"Gahlenz","admin3":"14522","localeAltName":null},{"geonameid":2921684,"name":"Geising","admin3":"14628","localeAltName":null},{"geonameid":2921566,"name":"Geithain","admin3":"14729","localeAltName":null},{"geonameid":2921522,"name":"Gelenau","admin3":"14521","localeAltName":null},{"geonameid":2921089,"name":"Geringswalde","admin3":"14522","localeAltName":null},{"geonameid":2920934,"name":"Gersdorf","admin3":"14522","localeAltName":null},{"geonameid":2920939,"name":"Gersdorf","admin3":"14524","localeAltName":null},{"geonameid":2920728,"name":"Geyer","admin3":"14521","localeAltName":null},{"geonameid":2920104,"name":"Glashütte","admin3":"14628","localeAltName":null},{"geonameid":2920027,"name":"Glaubitz","admin3":"14627","localeAltName":null},{"geonameid":2920020,"name":"Glauchau","admin3":"14524","localeAltName":null},{"geonameid":2919609,"name":"Göda","admin3":"14625","localeAltName":null},{"geonameid":2918987,"name":"Görlitz","admin3":"14626","localeAltName":null},{"geonameid":2918970,"name":"Gornau","admin3":"14521","localeAltName":null},{"geonameid":2918951,"name":"Gornsdorf","admin3":"14521","localeAltName":null},{"geonameid":2917325,"name":"Grimma","admin3":"14729","localeAltName":null},{"geonameid":2917170,"name":"Groitzsch","admin3":"14729","localeAltName":null},{"geonameid":2916840,"name":"Groß Düben","admin3":"14626","localeAltName":null},{"geonameid":2917014,"name":"Großbardau","admin3":"14729","localeAltName":null},{"geonameid":2916937,"name":"Großbothen","admin3":"14729","localeAltName":null},{"geonameid":2916839,"name":"Großdubrau","admin3":"14625","localeAltName":null},{"geonameid":2916630,"name":"Großenhain","admin3":"14627","localeAltName":null},{"geonameid":2915552,"name":"Großharthau","admin3":"14625","localeAltName":null},{"geonameid":2915550,"name":"Großhartmannsdorf","admin3":"14522","localeAltName":null},{"geonameid":2915523,"name":"Großhennersdorf","admin3":"14626","localeAltName":null},{"geonameid":2915343,"name":"Großlehna","admin3":"14729","localeAltName":null},{"geonameid":2915238,"name":"Großnaundorf","admin3":"14625","localeAltName":null},{"geonameid":2915209,"name":"Großolbersdorf","admin3":"14521","localeAltName":null},{"geonameid":2915173,"name":"Großpösna","admin3":"14729","localeAltName":null},{"geonameid":2915124,"name":"Großröhrsdorf","admin3":"14625","localeAltName":null},{"geonameid":2915111,"name":"Großrückerswalde","admin3":"14521","localeAltName":null},{"geonameid":2915076,"name":"Großschirma","admin3":"14522","localeAltName":null},{"geonameid":2915067,"name":"Großschönau","admin3":"14626","localeAltName":null},{"geonameid":2915046,"name":"Großschweidnitz","admin3":"14626","localeAltName":null},{"geonameid":2914872,"name":"Großweitzschen","admin3":"14522","localeAltName":null},{"geonameid":2914457,"name":"Grünbach","admin3":"14523","localeAltName":null},{"geonameid":2914188,"name":"Grünhain","admin3":"14521","localeAltName":null},{"geonameid":2914186,"name":"Grünhainichen","admin3":"14521","localeAltName":null},{"geonameid":2913328,"name":"Guttau","admin3":"14625","localeAltName":null},{"geonameid":2912184,"name":"Hähnichen","admin3":"14626","localeAltName":null},{"geonameid":2911833,"name":"Hainewalde","admin3":"14626","localeAltName":null},{"geonameid":2911795,"name":"Hainichen","admin3":"14522","localeAltName":null},{"geonameid":2911426,"name":"Halsbrücke","admin3":"14522","localeAltName":null},{"geonameid":2911145,"name":"Hammerbrücke","admin3":"14523","localeAltName":null},{"geonameid":2910167,"name":"Hartenstein","admin3":"14524","localeAltName":null},{"geonameid":2910140,"name":"Hartha","admin3":"14522","localeAltName":null},{"geonameid":2910048,"name":"Hartmannsdorf","admin3":"14522","localeAltName":null},{"geonameid":2910051,"name":"Hartmannsdorf","admin3":"14524","localeAltName":null},{"geonameid":2909328,"name":"Haßlau","admin3":"14522","localeAltName":null},{"geonameid":2908678,"name":"Hauswalde","admin3":"14625","localeAltName":null},{"geonameid":2907887,"name":"Heidenau","admin3":"14628","localeAltName":null},{"geonameid":2907794,"name":"Heidersdorf","admin3":"14521","localeAltName":null},{"geonameid":2905915,"name":"Hermsdorf","admin3":"14628","localeAltName":null},{"geonameid":2905643,"name":"Herrnhut","admin3":"14626","localeAltName":null},{"geonameid":2905045,"name":"Heuersdorf","admin3":"14729","localeAltName":null},{"geonameid":2904816,"name":"Hilbersdorf","admin3":"14511","localeAltName":null},{"geonameid":2903663,"name":"Hirschfeld","admin3":"14524","localeAltName":null},{"geonameid":2903658,"name":"Hirschfelde","admin3":"14626","localeAltName":null},{"geonameid":2903125,"name":"Hochkirch","admin3":"14625","localeAltName":null},{"geonameid":2902855,"name":"Höckendorf","admin3":"14625","localeAltName":null},{"geonameid":2902230,"name":"Hohburg","admin3":"14729","localeAltName":null},{"geonameid":2901420,"name":"Hohenstein-Ernstthal","admin3":"14524","localeAltName":null},{"geonameid":2900889,"name":"Hohndorf","admin3":"14521","localeAltName":null},{"geonameid":2900844,"name":"Hohnstein","admin3":"14628","localeAltName":null},{"geonameid":2899013,"name":"Horka","admin3":"14625","localeAltName":null},{"geonameid":2898960,"name":"Hormersdorf","admin3":"14521","localeAltName":null},{"geonameid":2898304,"name":"Hoyerswerda","admin3":"14625","localeAltName":null},{"geonameid":2922233,"name":"Huska","admin3":"14625","localeAltName":null},{"geonameid":2895284,"name":"Jahnsdorf","admin3":"14521","localeAltName":null},{"geonameid":2894970,"name":"Jesewitz","admin3":"14730","localeAltName":null},{"geonameid":2894814,"name":"Johanngeorgenstadt","admin3":"14521","localeAltName":null},{"geonameid":2894737,"name":"Jöhstadt","admin3":"14521","localeAltName":null},{"geonameid":2893437,"name":"Kamenz","admin3":"14625","localeAltName":null},{"geonameid":2890657,"name":"Kirchberg","admin3":"14521","localeAltName":null},{"geonameid":2890659,"name":"Kirchberg","admin3":"14524","localeAltName":null},{"geonameid":2890273,"name":"Kirschau","admin3":"14625","localeAltName":null},{"geonameid":2890168,"name":"Kitzen","admin3":"14729","localeAltName":null},{"geonameid":2890155,"name":"Kitzscher","admin3":"14729","localeAltName":null},{"geonameid":2887713,"name":"Klingenthal","admin3":"14523","localeAltName":null},{"geonameid":2887645,"name":"Klipphausen","admin3":"14627","localeAltName":null},{"geonameid":2887637,"name":"Klitten","admin3":"14626","localeAltName":null},{"geonameid":2887259,"name":"Knappenrode","admin3":"14625","localeAltName":null},{"geonameid":2886846,"name":"Kodersdorf","admin3":"14626","localeAltName":null},{"geonameid":2885910,"name":"Königsbrück","admin3":"14625","localeAltName":null},{"geonameid":2885883,"name":"Königsfeld","admin3":"14522","localeAltName":null},{"geonameid":2885863,"name":"Königshain","admin3":"14626","localeAltName":null},{"geonameid":2885764,"name":"Königstein","admin3":"14628","localeAltName":null},{"geonameid":2885746,"name":"Königswalde","admin3":"14521","localeAltName":null},{"geonameid":2885742,"name":"Königswartha","admin3":"14625","localeAltName":null},{"geonameid":2885326,"name":"Kossa","admin3":"14730","localeAltName":null},{"geonameid":2884656,"name":"Krauschwitz","admin3":"14626","localeAltName":null},{"geonameid":2884451,"name":"Kreischa","admin3":"14628","localeAltName":null},{"geonameid":2883986,"name":"Kriebstein","admin3":"14522","localeAltName":null},{"geonameid":2883552,"name":"Krostitz","admin3":"14730","localeAltName":null},{"geonameid":2883170,"name":"Kubschütz","admin3":"14625","localeAltName":null},{"geonameid":2882335,"name":"Kurort Gohrisch","admin3":"14628","localeAltName":null},{"geonameid":2882334,"name":"Kurort Jonsdorf","admin3":"14626","localeAltName":null},{"geonameid":2882332,"name":"Kurort Oberwiesenthal","admin3":"14521","localeAltName":null},{"geonameid":2882331,"name":"Kurort Oybin","admin3":"14626","localeAltName":null},{"geonameid":2881682,"name":"Lampertswalde","admin3":"14627","localeAltName":null},{"geonameid":2881154,"name":"Langenbernsdorf","admin3":"14524","localeAltName":null},{"geonameid":2880002,"name":"Laußig","admin3":"14730","localeAltName":null},{"geonameid":2880001,"name":"Laußnitz","admin3":"14625","localeAltName":null},{"geonameid":2879964,"name":"Lauter","admin3":"14521","localeAltName":null},{"geonameid":2879846,"name":"Lawalde","admin3":"14626","localeAltName":null},{"geonameid":2879139,"name":"Leipzig","admin3":"14713","localeAltName":null},{"geonameid":2879109,"name":"Leisnig","admin3":"14522","localeAltName":null},{"geonameid":2878878,"name":"Lengefeld","admin3":"14521","localeAltName":null},{"geonameid":2878852,"name":"Lengenfeld","admin3":"14523","localeAltName":null},{"geonameid":2878387,"name":"Leubnitz","admin3":"14524","localeAltName":null},{"geonameid":2878382,"name":"Leubsdorf","admin3":"14522","localeAltName":null},{"geonameid":2878290,"name":"Leutersdorf","admin3":"14626","localeAltName":null},{"geonameid":2878109,"name":"Lichtenberg","admin3":"14625","localeAltName":null},{"geonameid":2878111,"name":"Lichtenberg","admin3":"14522","localeAltName":null},{"geonameid":2878037,"name":"Lichtenstein","admin3":"14524","localeAltName":null},{"geonameid":2878027,"name":"Lichtentanne","admin3":"14524","localeAltName":null},{"geonameid":2877891,"name":"Liebstadt","admin3":"14628","localeAltName":null},{"geonameid":2877683,"name":"Limbach","admin3":"14523","localeAltName":null},{"geonameid":2877673,"name":"Limbach-Oberfrohna","admin3":"14524","localeAltName":null},{"geonameid":2876755,"name":"Löbau","admin3":"14626","localeAltName":null},{"geonameid":2876698,"name":"Löbnitz","admin3":"14730","localeAltName":null},{"geonameid":2876685,"name":"Lobstädt","admin3":"14729","localeAltName":null},{"geonameid":2876212,"name":"Lohmen","admin3":"14628","localeAltName":null},{"geonameid":2876117,"name":"Lohsa","admin3":"14625","localeAltName":null},{"geonameid":2876009,"name":"Lommatzsch","admin3":"14627","localeAltName":null},{"geonameid":2875799,"name":"Lößnitz","admin3":"14521","localeAltName":null},{"geonameid":2875286,"name":"Lugau","admin3":"14521","localeAltName":null},{"geonameid":2875067,"name":"Lunzenau","admin3":"14522","localeAltName":null},{"geonameid":2874642,"name":"Machern","admin3":"14729","localeAltName":null},{"geonameid":2874042,"name":"Malschwitz","admin3":"14625","localeAltName":null},{"geonameid":2874023,"name":"Maltitz","admin3":"14625","localeAltName":null},{"geonameid":2873632,"name":"Marienberg","admin3":"14521","localeAltName":null},{"geonameid":2873409,"name":"Markersbach","admin3":"14521","localeAltName":null},{"geonameid":2873400,"name":"Markersdorf","admin3":"14626","localeAltName":null},{"geonameid":2873352,"name":"Markkleeberg","admin3":"14729","localeAltName":null},{"geonameid":2873340,"name":"Markneukirchen","admin3":"14523","localeAltName":null},{"geonameid":2873331,"name":"Markranstädt","admin3":"14729","localeAltName":null},{"geonameid":2872682,"name":"Maxen","admin3":"14628","localeAltName":null},{"geonameid":2872519,"name":"Meerane","admin3":"14524","localeAltName":null},{"geonameid":2872409,"name":"Mehltheuer","admin3":"14523","localeAltName":null},{"geonameid":2872155,"name":"Meissen","admin3":"14627","localeAltName":null},{"geonameid":2871967,"name":"Mengelsdorf","admin3":"14626","localeAltName":null},{"geonameid":2871142,"name":"Mildenau","admin3":"14521","localeAltName":null},{"geonameid":2870687,"name":"Mittelherwigsdorf","admin3":"14626","localeAltName":null},{"geonameid":2870318,"name":"Mittweida","admin3":"14522","localeAltName":null},{"geonameid":2870304,"name":"Mochau","admin3":"14522","localeAltName":null},{"geonameid":2870266,"name":"Mockrehna","admin3":"14730","localeAltName":null},{"geonameid":2869268,"name":"Morgenröthe-Rautenkranz","admin3":"14523","localeAltName":null},{"geonameid":2869244,"name":"Moritzburg","admin3":"14627","localeAltName":null},{"geonameid":2868923,"name":"Mücka","admin3":"14626","localeAltName":null},{"geonameid":2868842,"name":"Mügeln","admin3":"14730","localeAltName":null},{"geonameid":2868782,"name":"Mühlau","admin3":"14522","localeAltName":null},{"geonameid":2867888,"name":"Mühltroff","admin3":"14523","localeAltName":null},{"geonameid":2867863,"name":"Mulda","admin3":"14522","localeAltName":null},{"geonameid":2867753,"name":"Mülsen","admin3":"14524","localeAltName":null},{"geonameid":2867286,"name":"Mutzschen","admin3":"14729","localeAltName":null},{"geonameid":2867274,"name":"Mylau","admin3":"14523","localeAltName":null},{"geonameid":2867066,"name":"Narsdorf","admin3":"14729","localeAltName":null},{"geonameid":2866885,"name":"Naundorf","admin3":"14730","localeAltName":null},{"geonameid":2866889,"name":"Naundorf","admin3":"14625","localeAltName":null},{"geonameid":2866861,"name":"Naunhof","admin3":"14729","localeAltName":null},{"geonameid":2866834,"name":"Nauwalde","admin3":"14627","localeAltName":null},{"geonameid":2866810,"name":"Nebelschütz","admin3":"14625","localeAltName":null},{"geonameid":2866492,"name":"Nerchau","admin3":"14729","localeAltName":null},{"geonameid":2866466,"name":"Neschwitz","admin3":"14625","localeAltName":null},{"geonameid":2866304,"name":"Netzschkau","admin3":"14523","localeAltName":null},{"geonameid":2865575,"name":"Neuensalz","admin3":"14523","localeAltName":null},{"geonameid":2865293,"name":"Neugersdorf","admin3":"14626","localeAltName":null},{"geonameid":2865098,"name":"Neuhausen","admin3":"14522","localeAltName":null},{"geonameid":2864778,"name":"Neukieritzsch","admin3":"14729","localeAltName":null},{"geonameid":2864770,"name":"Neukirch","admin3":"14625","localeAltName":null},{"geonameid":2864771,"name":"Neukirch/Lausitz","admin3":"14625","localeAltName":null},{"geonameid":2864749,"name":"Neukirchen","admin3":"14524","localeAltName":null},{"geonameid":2864750,"name":"Neukirchen","admin3":"14521","localeAltName":null},{"geonameid":2864558,"name":"Neumark","admin3":"14523","localeAltName":null},{"geonameid":2864265,"name":"Neusalza-Spremberg","admin3":"14626","localeAltName":null},{"geonameid":2864089,"name":"Neustadt in Sachsen","admin3":"14628","localeAltName":null},{"geonameid":2864098,"name":"Neustadt Vogtland","admin3":"14523","localeAltName":"Neustadt/Vogtl."},{"geonameid":2863643,"name":"Niederau","admin3":"14627","localeAltName":null},{"geonameid":2863545,"name":"Niedercunnersdorf","admin3":"14626","localeAltName":null},{"geonameid":2863523,"name":"Niederdorf","admin3":"14521","localeAltName":null},{"geonameid":2863429,"name":"Niederfrohna","admin3":"14524","localeAltName":null},{"geonameid":2862893,"name":"Niederschöna","admin3":"14522","localeAltName":null},{"geonameid":2862818,"name":"Niederstriegis","admin3":"14522","localeAltName":null},{"geonameid":2862724,"name":"Niederwiesa","admin3":"14522","localeAltName":null},{"geonameid":2862460,"name":"Niesky","admin3":"14626","localeAltName":null},{"geonameid":2861788,"name":"Nossen","admin3":"14627","localeAltName":null},{"geonameid":2861671,"name":"Nünchritz","admin3":"14627","localeAltName":null},{"geonameid":2861136,"name":"Obercunnersdorf","admin3":"14628","localeAltName":null},{"geonameid":2860537,"name":"Obergurig","admin3":"14625","localeAltName":null},{"geonameid":2859903,"name":"Oberlichtenau","admin3":"14625","localeAltName":null},{"geonameid":2859843,"name":"Oberlungwitz","admin3":"14524","localeAltName":null},{"geonameid":2859119,"name":"Oberschöna","admin3":"14522","localeAltName":null},{"geonameid":2859040,"name":"Oberseifersdorf","admin3":"14626","localeAltName":null},{"geonameid":2858548,"name":"Oberwiera","admin3":"14524","localeAltName":null},{"geonameid":2857970,"name":"Oederan","admin3":"14522","localeAltName":null},{"geonameid":2857918,"name":"Oelsnitz","admin3":"14521","localeAltName":null},{"geonameid":2857919,"name":"Oelsnitz","admin3":"14523","localeAltName":null},{"geonameid":2857603,"name":"Ohorn","admin3":"14625","localeAltName":null},{"geonameid":2857484,"name":"Olbernhau","admin3":"14521","localeAltName":null},{"geonameid":2857481,"name":"Olbersdorf","admin3":"14626","localeAltName":null},{"geonameid":2857182,"name":"Oppach","admin3":"14626","localeAltName":null},{"geonameid":2856944,"name":"Oschatz","admin3":"14730","localeAltName":null},{"geonameid":2856839,"name":"Oßling","admin3":"14625","localeAltName":null},{"geonameid":2856217,"name":"Ostrau","admin3":"14729","localeAltName":null},{"geonameid":2856205,"name":"Ostritz","admin3":"14626","localeAltName":null},{"geonameid":2856107,"name":"Ottendorf-Okrilla","admin3":"14625","localeAltName":null},{"geonameid":2855982,"name":"Otterwisch","admin3":"14729","localeAltName":null},{"geonameid":2855574,"name":"Panschwitz-Kuckau","admin3":"14625","localeAltName":null},{"geonameid":2855175,"name":"Pausa","admin3":"14523","localeAltName":null},{"geonameid":2855068,"name":"Pegau","admin3":"14729","localeAltName":null},{"geonameid":2854967,"name":"Penig","admin3":"14522","localeAltName":null},{"geonameid":2854298,"name":"Pfaffroda","admin3":"14524","localeAltName":null},{"geonameid":2853572,"name":"Pirna","admin3":"14628","localeAltName":null},{"geonameid":2853292,"name":"Plauen","admin3":"14523","localeAltName":null},{"geonameid":2853085,"name":"Pobershau","admin3":"14521","localeAltName":null},{"geonameid":2853071,"name":"Pockau","admin3":"14521","localeAltName":null},{"geonameid":2852991,"name":"Pöhla","admin3":"14521","localeAltName":null},{"geonameid":2852591,"name":"Porschdorf","admin3":"14628","localeAltName":null},{"geonameid":2852154,"name":"Pretzschendorf","admin3":"14628","localeAltName":null},{"geonameid":2852054,"name":"Priestewitz","admin3":"14627","localeAltName":null},{"geonameid":2851631,"name":"Puschwitz","admin3":"14625","localeAltName":null},{"geonameid":2851310,"name":"Quitzdorf","admin3":"14626","localeAltName":null},{"geonameid":2851262,"name":"Rabenau","admin3":"14628","localeAltName":null},{"geonameid":2851132,"name":"Räckelwitz","admin3":"14625","localeAltName":null},{"geonameid":2851113,"name":"Rackwitz","admin3":"14730","localeAltName":null},{"geonameid":2851079,"name":"Radeberg","admin3":"14625","localeAltName":null},{"geonameid":2851077,"name":"Radebeul","admin3":"14627","localeAltName":null},{"geonameid":2851074,"name":"Radeburg","admin3":"14627","localeAltName":null},{"geonameid":2850980,"name":"Radibor","admin3":"14625","localeAltName":null},{"geonameid":2850648,"name":"Rammenau","admin3":"14625","localeAltName":null},{"geonameid":2850303,"name":"Raschau","admin3":"14521","localeAltName":null},{"geonameid":2882330,"name":"Rathen","admin3":"14628","localeAltName":null},{"geonameid":2850195,"name":"Rathmannsdorf","admin3":"14628","localeAltName":null},{"geonameid":2849727,"name":"Rechenberg-Bienenmühle","admin3":"14522","localeAltName":null},{"geonameid":2849464,"name":"Regis-Breitingen","admin3":"14729","localeAltName":null},{"geonameid":2849145,"name":"Reichenbach","admin3":"14626","localeAltName":null},{"geonameid":2849156,"name":"Reichenbach/Vogtland","admin3":"14523","localeAltName":null},{"geonameid":2848779,"name":"Reinhardtsgrimma","admin3":"14628","localeAltName":null},{"geonameid":2848737,"name":"Reinsberg","admin3":"14522","localeAltName":null},{"geonameid":2848725,"name":"Reinsdorf","admin3":"14524","localeAltName":null},{"geonameid":2848269,"name":"Remse","admin3":"14524","localeAltName":null},{"geonameid":2847765,"name":"Reuth","admin3":"14523","localeAltName":null},{"geonameid":2846939,"name":"Riesa","admin3":"14627","localeAltName":null},{"geonameid":2846806,"name":"Rietschen","admin3":"14626","localeAltName":null},{"geonameid":2846622,"name":"Ringenhain","admin3":"14625","localeAltName":null},{"geonameid":2846378,"name":"Rittersgrün","admin3":"14521","localeAltName":null},{"geonameid":2846261,"name":"Rochlitz","admin3":"14522","localeAltName":null},{"geonameid":2845953,"name":"Rodewisch","admin3":"14523","localeAltName":null},{"geonameid":3209193,"name":"Rossau","admin3":"14522","localeAltName":null},{"geonameid":2844604,"name":"Roßwein","admin3":"14522","localeAltName":null},{"geonameid":2844245,"name":"Rötha","admin3":"14729","localeAltName":null},{"geonameid":2844062,"name":"Rothenburg","admin3":"14626","localeAltName":null},{"geonameid":2841639,"name":"Sankt Egidien","admin3":"14524","localeAltName":null},{"geonameid":2841047,"name":"Sayda","admin3":"14522","localeAltName":null},{"geonameid":2840337,"name":"Scharfenstein","admin3":"14521","localeAltName":null},{"geonameid":2840021,"name":"Scheibenberg","admin3":"14521","localeAltName":null},{"geonameid":2839303,"name":"Schildau","admin3":"14730","localeAltName":null},{"geonameid":2839090,"name":"Schirgiswalde","admin3":"14625","localeAltName":null},{"geonameid":2839050,"name":"Schkeuditz","admin3":"14730","localeAltName":null},{"geonameid":2838793,"name":"Schlegel","admin3":"14626","localeAltName":null},{"geonameid":2838725,"name":"Schleife","admin3":"14626","localeAltName":null},{"geonameid":2838628,"name":"Schlettau","admin3":"14521","localeAltName":null},{"geonameid":2837788,"name":"Schmiedeberg","admin3":"14628","localeAltName":null},{"geonameid":2837470,"name":"Schneeberg","admin3":"14521","localeAltName":null},{"geonameid":2837041,"name":"Schönau-Berzdorf","admin3":"14626","localeAltName":null},{"geonameid":2837022,"name":"Schönbach","admin3":"14626","localeAltName":null},{"geonameid":2836952,"name":"Schönberg","admin3":"14524","localeAltName":null},{"geonameid":2836772,"name":"Schöneck","admin3":"14523","localeAltName":null},{"geonameid":2836658,"name":"Schönfeld","admin3":"14627","localeAltName":null},{"geonameid":2836581,"name":"Schönheide","admin3":"14521","localeAltName":null},{"geonameid":2834978,"name":"Schwarzenberg","admin3":"14521","localeAltName":null},{"geonameid":2834296,"name":"Schwepnitz","admin3":"14625","localeAltName":null},{"geonameid":2834102,"name":"Sebnitz","admin3":"14628","localeAltName":null},{"geonameid":2833654,"name":"Seelitz","admin3":"14522","localeAltName":null},{"geonameid":2882329,"name":"Seiffen","admin3":"14521","localeAltName":null},{"geonameid":2833365,"name":"Seifhennersdorf","admin3":"14626","localeAltName":null},{"geonameid":2831685,"name":"Sohland","admin3":"14625","localeAltName":null},{"geonameid":2831684,"name":"Sohland am Rotstein","admin3":"14626","localeAltName":null},{"geonameid":2830912,"name":"Sosa","admin3":"14521","localeAltName":null},{"geonameid":2829734,"name":"Stadt Wehlen","admin3":"14628","localeAltName":null},{"geonameid":2829402,"name":"Stauchitz","admin3":"14627","localeAltName":null},{"geonameid":2828923,"name":"Steina","admin3":"14625","localeAltName":null},{"geonameid":2827907,"name":"Steinigtwolmsdorf","admin3":"14625","localeAltName":null},{"geonameid":2826584,"name":"Stollberg","admin3":"14521","localeAltName":null},{"geonameid":2826532,"name":"Stolpen","admin3":"14628","localeAltName":null},{"geonameid":3209142,"name":"Strahwalde","admin3":"14626","localeAltName":null},{"geonameid":2826136,"name":"Straßgräbchen","admin3":"14625","localeAltName":null},{"geonameid":2826033,"name":"Strehla","admin3":"14627","localeAltName":null},{"geonameid":2825620,"name":"Struppen","admin3":"14628","localeAltName":null},{"geonameid":2825275,"name":"Stützengrün","admin3":"14521","localeAltName":null},{"geonameid":2824448,"name":"Syrau","admin3":"14523","localeAltName":null},{"geonameid":2824152,"name":"Tannenberg","admin3":"14521","localeAltName":null},{"geonameid":2824148,"name":"Tannenbergsthal","admin3":"14523","localeAltName":null},{"geonameid":2823836,"name":"Taucha","admin3":"14730","localeAltName":null},{"geonameid":2823795,"name":"Taura","admin3":"14522","localeAltName":null},{"geonameid":2823788,"name":"Tauscha","admin3":"14627","localeAltName":null},{"geonameid":2823081,"name":"Thalheim","admin3":"14521","localeAltName":null},{"geonameid":2823049,"name":"Thallwitz","admin3":"14729","localeAltName":null},{"geonameid":2822939,"name":"Tharandt","admin3":"14628","localeAltName":null},{"geonameid":2822822,"name":"Theuma","admin3":"14523","localeAltName":null},{"geonameid":2822786,"name":"Thiendorf","admin3":"14627","localeAltName":null},{"geonameid":2822595,"name":"Thum","admin3":"14521","localeAltName":null},{"geonameid":2822104,"name":"Tirpersdorf","admin3":"14523","localeAltName":null},{"geonameid":2821807,"name":"Torgau","admin3":"14730","localeAltName":null},{"geonameid":2821450,"name":"Trebendorf","admin3":"14626","localeAltName":null},{"geonameid":2821418,"name":"Trebsen","admin3":"14729","localeAltName":null},{"geonameid":2821251,"name":"Treuen","admin3":"14523","localeAltName":null},{"geonameid":3210420,"name":"Triebel","admin3":"14523","localeAltName":null},{"geonameid":2820974,"name":"Trossin","admin3":"14730","localeAltName":null},{"geonameid":2820314,"name":"Uhyst","admin3":"14626","localeAltName":null},{"geonameid":2817616,"name":"Venusberg","admin3":"14521","localeAltName":null},{"geonameid":2815782,"name":"Wachau","admin3":"14625","localeAltName":null},{"geonameid":2815074,"name":"Waldenburg","admin3":"14524","localeAltName":null},{"geonameid":2814956,"name":"Waldheim","admin3":"14522","localeAltName":null},{"geonameid":2814878,"name":"Waldkirchen","admin3":"14523","localeAltName":null},{"geonameid":2813524,"name":"Wechselburg","admin3":"14522","localeAltName":null},{"geonameid":2812865,"name":"Weifa","admin3":"14625","localeAltName":null},{"geonameid":2812225,"name":"Weinböhla","admin3":"14627","localeAltName":null},{"geonameid":2812104,"name":"Weischlitz","admin3":"14523","localeAltName":null},{"geonameid":2811941,"name":"Weißenberg","admin3":"14625","localeAltName":null},{"geonameid":2811937,"name":"Weißenborn","admin3":"14524","localeAltName":null},{"geonameid":2811715,"name":"Weißig","admin3":"14627","localeAltName":null},{"geonameid":2811713,"name":"Weißkeißel","admin3":"14626","localeAltName":null},{"geonameid":2811701,"name":"Weißnaußlitz","admin3":"14625","localeAltName":null},{"geonameid":2811698,"name":"Weißwasser","admin3":"14626","localeAltName":null},{"geonameid":2810970,"name":"Werda","admin3":"14523","localeAltName":null},{"geonameid":2810969,"name":"Werdau","admin3":"14524","localeAltName":null},{"geonameid":2810848,"name":"Wermsdorf","admin3":"14730","localeAltName":null},{"geonameid":2809628,"name":"Wiedemar","admin3":"14730","localeAltName":null},{"geonameid":2809550,"name":"Wiednitz","admin3":"14625","localeAltName":null},{"geonameid":2809367,"name":"Wiesa","admin3":"14521","localeAltName":null},{"geonameid":2808956,"name":"Wildenfels","admin3":"14524","localeAltName":null},{"geonameid":2808947,"name":"Wildenhain","admin3":"14627","localeAltName":null},{"geonameid":2808644,"name":"Wilkau-Haßlau","admin3":"14524","localeAltName":null},{"geonameid":2808436,"name":"Wilsdruff","admin3":"14628","localeAltName":null},{"geonameid":2808406,"name":"Wilthen","admin3":"14625","localeAltName":null},{"geonameid":2807279,"name":"Wittgensdorf","admin3":"14511","localeAltName":null},{"geonameid":2807265,"name":"Wittichenau","admin3":"14625","localeAltName":null},{"geonameid":2806474,"name":"Wolkenstein","admin3":"14521","localeAltName":null},{"geonameid":2805861,"name":"Wülknitz","admin3":"14627","localeAltName":null},{"geonameid":2805597,"name":"Wurzen","admin3":"14729","localeAltName":null},{"geonameid":2805365,"name":"Zabeltitz","admin3":"14627","localeAltName":null},{"geonameid":2804939,"name":"Zeithain","admin3":"14627","localeAltName":null},{"geonameid":2804674,"name":"Zettlitz","admin3":"14522","localeAltName":null},{"geonameid":2804121,"name":"Zinna","admin3":"14730","localeAltName":null},{"geonameid":2804008,"name":"Zittau","admin3":"14626","localeAltName":null},{"geonameid":2803972,"name":"Zöblitz","admin3":"14521","localeAltName":null},{"geonameid":2803848,"name":"Zschadrass","admin3":"14729","localeAltName":null},{"geonameid":2803827,"name":"Zschepplin","admin3":"14730","localeAltName":null},{"geonameid":2803798,"name":"Zschopau","admin3":"14521","localeAltName":null},{"geonameid":2803786,"name":"Zschorlau","admin3":"14521","localeAltName":null},{"geonameid":2803776,"name":"Zschortau","admin3":"14730","localeAltName":null},{"geonameid":2803588,"name":"Zwenkau","admin3":"14729","localeAltName":null},{"geonameid":2803560,"name":"Zwickau","admin3":"14524","localeAltName":null},{"geonameid":2803489,"name":"Zwochau","admin3":"14730","localeAltName":null},{"geonameid":2803476,"name":"Zwönitz","admin3":"14521","localeAltName":null},{"geonameid":2803474,"name":"Zwota","admin3":"14523","localeAltName":null}],"admin1":{"geonameid":2842566,"name":"Saxony","admin1":"13","localeAltName":"Sachsen"},"admin2":"no-adm2","admin3":{"geonameid":3305812,"name":"Landkreis Sächsische Schweiz","country":"DE","admin1":"13","admin2":"00","admin3":"14628","latitude":"50.9505600","longitude":"14.0805600","localeAltName":null},"admin4":[{"geonameid":6547400,"name":"Niederdorf","admin3":"14521","localeAltName":null},{"geonameid":6547464,"name":"St. Egidien","admin3":"14524","localeAltName":null},{"geonameid":6547465,"name":"Neuensalz","admin3":"14523","localeAltName":null},{"geonameid":6547466,"name":"Mühlau","admin3":"14522","localeAltName":null},{"geonameid":6547467,"name":"Neukirch","admin3":"14625","localeAltName":null},{"geonameid":6548487,"name":"Chemnitz","admin3":"14511","localeAltName":"Chemnitz"},{"geonameid":6548488,"name":"Plauen","admin3":"14523","localeAltName":null},{"geonameid":6548489,"name":"Zwickau","admin3":"14524","localeAltName":null},{"geonameid":6548490,"name":"Bärenstein","admin3":"14521","localeAltName":null},{"geonameid":6548491,"name":"Crottendorf","admin3":"14521","localeAltName":null},{"geonameid":6548493,"name":"Königswalde","admin3":"14521","localeAltName":null},{"geonameid":6548494,"name":"Mildenau","admin3":"14521","localeAltName":null},{"geonameid":6548495,"name":"Sehmatal","admin3":"14521","localeAltName":null},{"geonameid":6548497,"name":"Tannenberg","admin3":"14521","localeAltName":null},{"geonameid":6548500,"name":"Bernsdorf","admin3":"14524","localeAltName":null},{"geonameid":6548501,"name":"Callenberg","admin3":"14524","localeAltName":null},{"geonameid":6548502,"name":"Gersdorf","admin3":"14524","localeAltName":null},{"geonameid":6548504,"name":"Niederfrohna","admin3":"14524","localeAltName":null},{"geonameid":6548506,"name":"Oberwiera","admin3":"14524","localeAltName":null},{"geonameid":6548508,"name":"Remse","admin3":"14524","localeAltName":null},{"geonameid":6548509,"name":"Schönberg","admin3":"14524","localeAltName":null},{"geonameid":6548511,"name":"Dorfchemnitz","admin3":"14522","localeAltName":null},{"geonameid":6548512,"name":"Eppendorf","admin3":"14522","localeAltName":null},{"geonameid":6548517,"name":"Großhartmannsdorf","admin3":"14522","localeAltName":null},{"geonameid":6548518,"name":"Halsbrücke","admin3":"14522","localeAltName":null},{"geonameid":6548520,"name":"Leubsdorf","admin3":"14522","localeAltName":null},{"geonameid":6548522,"name":"Niederwiesa","admin3":"14522","localeAltName":null},{"geonameid":6548524,"name":"Oberschöna","admin3":"14522","localeAltName":null},{"geonameid":6548525,"name":"Rechenberg-Bienenmühle","admin3":"14522","localeAltName":null},{"geonameid":6548526,"name":"Reinsberg","admin3":"14522","localeAltName":null},{"geonameid":6548527,"name":"Bad Brambach","admin3":"14523","localeAltName":null},{"geonameid":6548528,"name":"Bergen","admin3":"14523","localeAltName":null},{"geonameid":6548529,"name":"Bösenbrunn","admin3":"14523","localeAltName":null},{"geonameid":6548531,"name":"Eichigt","admin3":"14523","localeAltName":null},{"geonameid":6548532,"name":"Ellefeld","admin3":"14523","localeAltName":null},{"geonameid":6548535,"name":"Heinsdorfergrund","admin3":"14523","localeAltName":null},{"geonameid":6548536,"name":"Limbach","admin3":"14523","localeAltName":null},{"geonameid":6548539,"name":"Neumark","admin3":"14523","localeAltName":null},{"geonameid":6548540,"name":"Pöhl","admin3":"14523","localeAltName":null},{"geonameid":6548542,"name":"Steinberg","admin3":"14523","localeAltName":null},{"geonameid":6548544,"name":"Theuma","admin3":"14523","localeAltName":null},{"geonameid":6548545,"name":"Tirpersdorf","admin3":"14523","localeAltName":null},{"geonameid":6548546,"name":"Weischlitz","admin3":"14523","localeAltName":null},{"geonameid":6548547,"name":"Werda","admin3":"14523","localeAltName":null},{"geonameid":6548549,"name":"Amtsberg","admin3":"14521","localeAltName":null},{"geonameid":6548551,"name":"Deutschneudorf","admin3":"14521","localeAltName":null},{"geonameid":6548552,"name":"Großolbersdorf","admin3":"14521","localeAltName":null},{"geonameid":6548553,"name":"Großrückerswalde","admin3":"14521","localeAltName":null},{"geonameid":6548554,"name":"Grünhainichen","admin3":"14521","localeAltName":null},{"geonameid":6548555,"name":"Heidersdorf","admin3":"14521","localeAltName":null},{"geonameid":6548560,"name":"Altmittweida","admin3":"14522","localeAltName":null},{"geonameid":6548561,"name":"Lichtenau","admin3":"14522","localeAltName":null},{"geonameid":6548562,"name":"Claußnitz","admin3":"14522","localeAltName":null},{"geonameid":6548563,"name":"Erlau","admin3":"14522","localeAltName":null},{"geonameid":6548564,"name":"Hartmannsdorf","admin3":"14522","localeAltName":null},{"geonameid":6548565,"name":"Königsfeld","admin3":"14522","localeAltName":null},{"geonameid":6548566,"name":"Königshain-Wiederau","admin3":"14522","localeAltName":null},{"geonameid":6548567,"name":"Kriebstein","admin3":"14522","localeAltName":null},{"geonameid":6548568,"name":"Rossau","admin3":"14522","localeAltName":null},{"geonameid":6548569,"name":"Seelitz","admin3":"14522","localeAltName":null},{"geonameid":6548570,"name":"Striegistal","admin3":"14522","localeAltName":null},{"geonameid":6548571,"name":"Taura","admin3":"14522","localeAltName":null},{"geonameid":6548573,"name":"Wechselburg","admin3":"14522","localeAltName":null},{"geonameid":6548574,"name":"Zettlitz","admin3":"14522","localeAltName":null},{"geonameid":6548575,"name":"Auerbach","admin3":"14521","localeAltName":null},{"geonameid":6548576,"name":"Burkhardtsdorf","admin3":"14521","localeAltName":null},{"geonameid":6548578,"name":"Gornsdorf","admin3":"14521","localeAltName":null},{"geonameid":6548579,"name":"Hohndorf","admin3":"14521","localeAltName":null},{"geonameid":6548581,"name":"Niederwürschnitz","admin3":"14521","localeAltName":null},{"geonameid":6548582,"name":"Grünhain-Beierfeld","admin3":"14521","localeAltName":null},{"geonameid":6548584,"name":"Bockau","admin3":"14521","localeAltName":null},{"geonameid":6548591,"name":"Schönheide","admin3":"14521","localeAltName":null},{"geonameid":6548593,"name":"Stützengrün","admin3":"14521","localeAltName":null},{"geonameid":6548594,"name":"Zschorlau","admin3":"14521","localeAltName":null},{"geonameid":6548595,"name":"Crinitzberg","admin3":"14524","localeAltName":null},{"geonameid":6548596,"name":"Dennheritz","admin3":"14524","localeAltName":null},{"geonameid":6548597,"name":"Fraureuth","admin3":"14524","localeAltName":null},{"geonameid":6548598,"name":"Hirschfeld","admin3":"14524","localeAltName":null},{"geonameid":6548599,"name":"Langenbernsdorf","admin3":"14524","localeAltName":null},{"geonameid":6548600,"name":"Lichtentanne","admin3":"14524","localeAltName":null},{"geonameid":6548601,"name":"Reinsdorf","admin3":"14524","localeAltName":null},{"geonameid":6548602,"name":"Görlitz","admin3":"14626","localeAltName":null},{"geonameid":6548603,"name":"Burkau","admin3":"14625","localeAltName":null},{"geonameid":6548605,"name":"Cunewalde","admin3":"14625","localeAltName":null},{"geonameid":6548606,"name":"Demitz-Thumitz","admin3":"14625","localeAltName":null},{"geonameid":6548607,"name":"Doberschau-Gaußig","admin3":"14625","localeAltName":null},{"geonameid":6548608,"name":"Frankenthal","admin3":"14625","localeAltName":null},{"geonameid":6548609,"name":"Göda","admin3":"14625","localeAltName":null},{"geonameid":6548610,"name":"Großdubrau","admin3":"14625","localeAltName":null},{"geonameid":6548611,"name":"Großharthau","admin3":"14625","localeAltName":null},{"geonameid":6548613,"name":"Hochkirch","admin3":"14625","localeAltName":null},{"geonameid":6548615,"name":"Königswartha","admin3":"14625","localeAltName":null},{"geonameid":6548616,"name":"Kubschütz","admin3":"14625","localeAltName":null},{"geonameid":6548617,"name":"Malschwitz","admin3":"14625","localeAltName":null},{"geonameid":6548618,"name":"Neschwitz","admin3":"14625","localeAltName":null},{"geonameid":6548619,"name":"Obergurig","admin3":"14625","localeAltName":null},{"geonameid":6548620,"name":"Puschwitz","admin3":"14625","localeAltName":null},{"geonameid":6548621,"name":"Radibor","admin3":"14625","localeAltName":null},{"geonameid":6548622,"name":"Rammenau","admin3":"14625","localeAltName":null},{"geonameid":6548623,"name":"Schmölln-Putzkau","admin3":"14625","localeAltName":null},{"geonameid":6548624,"name":"Steinigtwolmsdorf","admin3":"14625","localeAltName":null},{"geonameid":6548625,"name":"Diera-Zehren","admin3":"14627","localeAltName":null},{"geonameid":6548626,"name":"Käbschütztal","admin3":"14627","localeAltName":null},{"geonameid":6548628,"name":"Klipphausen","admin3":"14627","localeAltName":null},{"geonameid":6548630,"name":"Moritzburg","admin3":"14627","localeAltName":null},{"geonameid":6548631,"name":"Niederau","admin3":"14627","localeAltName":null},{"geonameid":6548633,"name":"Weinböhla","admin3":"14627","localeAltName":null},{"geonameid":6548634,"name":"Gablenz","admin3":"14626","localeAltName":null},{"geonameid":6548635,"name":"Groß Düben","admin3":"14626","localeAltName":null},{"geonameid":6548636,"name":"Hähnichen","admin3":"14626","localeAltName":null},{"geonameid":6548637,"name":"Hohendubrau","admin3":"14626","localeAltName":null},{"geonameid":6548638,"name":"Horka","admin3":"14626","localeAltName":null},{"geonameid":6548639,"name":"Kodersdorf","admin3":"14626","localeAltName":null},{"geonameid":6548640,"name":"Königshain","admin3":"14626","localeAltName":null},{"geonameid":6548641,"name":"Krauschwitz","admin3":"14626","localeAltName":null},{"geonameid":6548642,"name":"Kreba-Neudorf","admin3":"14626","localeAltName":null},{"geonameid":6548643,"name":"Markersdorf","admin3":"14626","localeAltName":null},{"geonameid":6548644,"name":"Mücka","admin3":"14626","localeAltName":null},{"geonameid":6548645,"name":"Neißeaue","admin3":"14626","localeAltName":null},{"geonameid":6548646,"name":"Quitzdorf am See","admin3":"14626","localeAltName":null},{"geonameid":6548647,"name":"Rietschen","admin3":"14626","localeAltName":null},{"geonameid":6548648,"name":"Schleife","admin3":"14626","localeAltName":null},{"geonameid":6548649,"name":"Schöpstal","admin3":"14626","localeAltName":null},{"geonameid":6548650,"name":"Trebendorf","admin3":"14626","localeAltName":null},{"geonameid":6548651,"name":"Vierkirchen","admin3":"14626","localeAltName":null},{"geonameid":6548652,"name":"Waldhufen","admin3":"14626","localeAltName":null},{"geonameid":6548653,"name":"Ebersbach","admin3":"14627","localeAltName":null},{"geonameid":6548654,"name":"Glaubitz","admin3":"14627","localeAltName":null},{"geonameid":6548655,"name":"Lampertswalde","admin3":"14627","localeAltName":null},{"geonameid":6548656,"name":"Hirschstein","admin3":"14627","localeAltName":null},{"geonameid":6548658,"name":"Nünchritz","admin3":"14627","localeAltName":null},{"geonameid":6548659,"name":"Priestewitz","admin3":"14627","localeAltName":null},{"geonameid":6548660,"name":"Schönfeld","admin3":"14627","localeAltName":null},{"geonameid":6548661,"name":"Stauchitz","admin3":"14627","localeAltName":null},{"geonameid":6548663,"name":"Thiendorf","admin3":"14627","localeAltName":null},{"geonameid":6548665,"name":"Wülknitz","admin3":"14627","localeAltName":null},{"geonameid":6548667,"name":"Zeithain","admin3":"14627","localeAltName":null},{"geonameid":6548668,"name":"Beiersdorf","admin3":"14626","localeAltName":null},{"geonameid":6548674,"name":"Großschönau","admin3":"14626","localeAltName":null},{"geonameid":6548675,"name":"Großschweidnitz","admin3":"14626","localeAltName":null},{"geonameid":6548676,"name":"Hainewalde","admin3":"14626","localeAltName":null},{"geonameid":6548677,"name":"Lawalde","admin3":"14626","localeAltName":null},{"geonameid":6548678,"name":"Leutersdorf","admin3":"14626","localeAltName":null},{"geonameid":6548679,"name":"Mittelherwigsdorf","admin3":"14626","localeAltName":null},{"geonameid":6548682,"name":"Oderwitz","admin3":"14626","localeAltName":null},{"geonameid":6548683,"name":"Olbersdorf","admin3":"14626","localeAltName":null},{"geonameid":6548684,"name":"Oppach","admin3":"14626","localeAltName":null},{"geonameid":6548685,"name":"Oybin","admin3":"14626","localeAltName":null},{"geonameid":6548686,"name":"Rosenbach","admin3":"14626","localeAltName":null},{"geonameid":6548688,"name":"Schönbach","admin3":"14626","localeAltName":null},{"geonameid":6548690,"name":"Bahretal","admin3":"14628","localeAltName":null},{"geonameid":6548691,"name":"Dohma","admin3":"14628","localeAltName":null},{"geonameid":6548692,"name":"Dürrröhrsdorf-Dittersbach","admin3":"14628","localeAltName":null},{"geonameid":6548693,"name":"Gohrisch","admin3":"14628","localeAltName":null},{"geonameid":6548696,"name":"Lohmen","admin3":"14628","localeAltName":null},{"geonameid":6548697,"name":"Müglitztal","admin3":"14628","localeAltName":null},{"geonameid":6548699,"name":"Rathmannsdorf","admin3":"14628","localeAltName":null},{"geonameid":6548700,"name":"Reinhardtsdorf-Schöna","admin3":"14628","localeAltName":null},{"geonameid":6548701,"name":"Rosenthal-Bielatal","admin3":"14628","localeAltName":null},{"geonameid":6548702,"name":"Stadt Wehlen","admin3":"14628","localeAltName":null},{"geonameid":6548703,"name":"Struppen","admin3":"14628","localeAltName":null},{"geonameid":6548704,"name":"Bannewitz","admin3":"14628","localeAltName":null},{"geonameid":6548705,"name":"Dorfhain","admin3":"14628","localeAltName":null},{"geonameid":6548707,"name":"Kreischa","admin3":"14628","localeAltName":null},{"geonameid":6548711,"name":"Arnsdorf","admin3":"14625","localeAltName":null},{"geonameid":6548713,"name":"Crostwitz","admin3":"14625","localeAltName":null},{"geonameid":6548714,"name":"Elsterheide","admin3":"14625","localeAltName":null},{"geonameid":6548715,"name":"Großnaundorf","admin3":"14625","localeAltName":null},{"geonameid":6548716,"name":"Haselbachtal","admin3":"14625","localeAltName":null},{"geonameid":6548718,"name":"Laußnitz","admin3":"14625","localeAltName":null},{"geonameid":6548720,"name":"Lichtenberg","admin3":"14625","localeAltName":null},{"geonameid":6548721,"name":"Lohsa","admin3":"14625","localeAltName":null},{"geonameid":6548722,"name":"Nebelschütz","admin3":"14625","localeAltName":null},{"geonameid":6548724,"name":"Ohorn","admin3":"14625","localeAltName":null},{"geonameid":6548725,"name":"Oßling","admin3":"14625","localeAltName":null},{"geonameid":6548726,"name":"Ottendorf-Okrilla","admin3":"14625","localeAltName":null},{"geonameid":6548727,"name":"Panschwitz-Kuckau","admin3":"14625","localeAltName":null},{"geonameid":6548728,"name":"Räckelwitz","admin3":"14625","localeAltName":null},{"geonameid":6548729,"name":"Ralbitz-Rosenthal","admin3":"14625","localeAltName":null},{"geonameid":6548731,"name":"Schwepnitz","admin3":"14625","localeAltName":null},{"geonameid":6548732,"name":"Spreetal","admin3":"14625","localeAltName":null},{"geonameid":6548733,"name":"Steina","admin3":"14625","localeAltName":null},{"geonameid":6548735,"name":"Wachau","admin3":"14625","localeAltName":null},{"geonameid":6548737,"name":"Leipzig","admin3":"14713","localeAltName":"Leipzig"},{"geonameid":6548738,"name":"Doberschütz","admin3":"14730","localeAltName":null},{"geonameid":6548739,"name":"Jesewitz","admin3":"14730","localeAltName":null},{"geonameid":6548741,"name":"Krostitz","admin3":"14730","localeAltName":null},{"geonameid":6548742,"name":"Laußig","admin3":"14730","localeAltName":null},{"geonameid":6548743,"name":"Löbnitz","admin3":"14730","localeAltName":null},{"geonameid":6548745,"name":"Rackwitz","admin3":"14730","localeAltName":null},{"geonameid":6548746,"name":"Schönwölkau","admin3":"14730","localeAltName":null},{"geonameid":6548747,"name":"Wiedemar","admin3":"14730","localeAltName":null},{"geonameid":6548748,"name":"Zschepplin","admin3":"14730","localeAltName":null},{"geonameid":6548752,"name":"Großweitzschen","admin3":"14522","localeAltName":null},{"geonameid":6548755,"name":"Ostrau","admin3":"14522","localeAltName":null},{"geonameid":6548757,"name":"Zschaitz-Ottewig","admin3":"14522","localeAltName":null},{"geonameid":6548759,"name":"Elstertrebnitz","admin3":"14729","localeAltName":null},{"geonameid":6548763,"name":"Großpösna","admin3":"14729","localeAltName":null},{"geonameid":6548767,"name":"Neukieritzsch","admin3":"14729","localeAltName":null},{"geonameid":6548768,"name":"Belgershain","admin3":"14729","localeAltName":null},{"geonameid":6548769,"name":"Bennewitz","admin3":"14729","localeAltName":null},{"geonameid":6548770,"name":"Borsdorf","admin3":"14729","localeAltName":null},{"geonameid":6548776,"name":"Machern","admin3":"14729","localeAltName":null},{"geonameid":6548777,"name":"Otterwisch","admin3":"14729","localeAltName":null},{"geonameid":6548778,"name":"Parthenstein","admin3":"14729","localeAltName":null},{"geonameid":6548779,"name":"Thallwitz","admin3":"14729","localeAltName":null},{"geonameid":6548782,"name":"Arzberg","admin3":"14730","localeAltName":null},{"geonameid":6548783,"name":"Beilrode","admin3":"14730","localeAltName":null},{"geonameid":6548784,"name":"Cavertitz","admin3":"14730","localeAltName":null},{"geonameid":6548785,"name":"Dreiheide","admin3":"14730","localeAltName":null},{"geonameid":6548786,"name":"Elsnig","admin3":"14730","localeAltName":null},{"geonameid":6548788,"name":"Liebschützberg","admin3":"14730","localeAltName":null},{"geonameid":6548789,"name":"Mockrehna","admin3":"14730","localeAltName":null},{"geonameid":6548791,"name":"Trossin","admin3":"14730","localeAltName":null},{"geonameid":6548792,"name":"Wermsdorf","admin3":"14730","localeAltName":null},{"geonameid":6550739,"name":"Annaberg-Buchholz","admin3":"14521","localeAltName":null},{"geonameid":6550740,"name":"Ehrenfriedersdorf","admin3":"14521","localeAltName":null},{"geonameid":6550741,"name":"Elterlein","admin3":"14521","localeAltName":null},{"geonameid":6550742,"name":"Geyer","admin3":"14521","localeAltName":null},{"geonameid":6550743,"name":"Jöhstadt","admin3":"14521","localeAltName":null},{"geonameid":6550744,"name":"Scheibenberg","admin3":"14521","localeAltName":null},{"geonameid":6550745,"name":"Schlettau","admin3":"14521","localeAltName":null},{"geonameid":6550746,"name":"Thum","admin3":"14521","localeAltName":null},{"geonameid":6550747,"name":"Glauchau","admin3":"14524","localeAltName":null},{"geonameid":6550748,"name":"Hohenstein-Ernstthal","admin3":"14524","localeAltName":null},{"geonameid":6550749,"name":"Limbach-Oberfrohna","admin3":"14524","localeAltName":null},{"geonameid":6550750,"name":"Meerane","admin3":"14524","localeAltName":null},{"geonameid":6550751,"name":"Oberlungwitz","admin3":"14524","localeAltName":null},{"geonameid":6550752,"name":"Waldenburg","admin3":"14524","localeAltName":null},{"geonameid":6550753,"name":"Augustusburg","admin3":"14522","localeAltName":"Augustusburg"},{"geonameid":6550754,"name":"Brand-Erbisdorf","admin3":"14522","localeAltName":null},{"geonameid":6550755,"name":"Flöha","admin3":"14522","localeAltName":null},{"geonameid":6550756,"name":"Frauenstein","admin3":"14522","localeAltName":null},{"geonameid":6550757,"name":"Freiberg","admin3":"14522","localeAltName":null},{"geonameid":6550758,"name":"Großschirma","admin3":"14522","localeAltName":null},{"geonameid":6550759,"name":"Oederan","admin3":"14522","localeAltName":null},{"geonameid":6550760,"name":"Adorf","admin3":"14523","localeAltName":null},{"geonameid":6550761,"name":"Bad Elster","admin3":"14523","localeAltName":null},{"geonameid":6550762,"name":"Elsterberg","admin3":"14523","localeAltName":null},{"geonameid":6550763,"name":"Lengenfeld","admin3":"14523","localeAltName":null},{"geonameid":6550764,"name":"Markneukirchen","admin3":"14523","localeAltName":null},{"geonameid":6550767,"name":"Netzschkau","admin3":"14523","localeAltName":null},{"geonameid":6550768,"name":"Oelsnitz","admin3":"14523","localeAltName":null},{"geonameid":6550769,"name":"Rodewisch","admin3":"14523","localeAltName":null},{"geonameid":6550770,"name":"Treuen","admin3":"14523","localeAltName":null},{"geonameid":6550772,"name":"Marienberg","admin3":"14521","localeAltName":null},{"geonameid":6550773,"name":"Olbernhau","admin3":"14521","localeAltName":null},{"geonameid":6550774,"name":"Wolkenstein","admin3":"14521","localeAltName":null},{"geonameid":6550776,"name":"Zschopau","admin3":"14521","localeAltName":null},{"geonameid":6550777,"name":"Burgstädt","admin3":"14522","localeAltName":null},{"geonameid":6550778,"name":"Geringswalde","admin3":"14522","localeAltName":null},{"geonameid":6550779,"name":"Hainichen","admin3":"14522","localeAltName":null},{"geonameid":6550780,"name":"Lunzenau","admin3":"14522","localeAltName":null},{"geonameid":6550781,"name":"Penig","admin3":"14522","localeAltName":null},{"geonameid":6550782,"name":"Rochlitz","admin3":"14522","localeAltName":null},{"geonameid":6550783,"name":"Zwönitz","admin3":"14521","localeAltName":null},{"geonameid":6550785,"name":"Eibenstock","admin3":"14521","localeAltName":null},{"geonameid":6550787,"name":"Johanngeorgenstadt","admin3":"14521","localeAltName":null},{"geonameid":6550788,"name":"Lößnitz","admin3":"14521","localeAltName":null},{"geonameid":6550789,"name":"Schneeberg","admin3":"14521","localeAltName":null},{"geonameid":6550790,"name":"Crimmitschau","admin3":"14524","localeAltName":null},{"geonameid":6550791,"name":"Werdau","admin3":"14524","localeAltName":null},{"geonameid":6550792,"name":"Wilkau-Haßlau","admin3":"14524","localeAltName":null},{"geonameid":6550793,"name":"Hoyerswerda","admin3":"14625","localeAltName":null},{"geonameid":6550794,"name":"Bautzen","admin3":"14625","localeAltName":null},{"geonameid":6550795,"name":"Bischofswerda","admin3":"14625","localeAltName":null},{"geonameid":6550797,"name":"Weißenberg","admin3":"14625","localeAltName":null},{"geonameid":6550798,"name":"Wilthen","admin3":"14625","localeAltName":null},{"geonameid":6550799,"name":"Coswig","admin3":"14627","localeAltName":null},{"geonameid":6550800,"name":"Lommatzsch","admin3":"14627","localeAltName":null},{"geonameid":6550801,"name":"Meißen","admin3":"14627","localeAltName":null},{"geonameid":6550802,"name":"Nossen","admin3":"14627","localeAltName":null},{"geonameid":6550803,"name":"Radebeul","admin3":"14627","localeAltName":null},{"geonameid":6550804,"name":"Radeburg","admin3":"14627","localeAltName":null},{"geonameid":6550805,"name":"Bad Muskau","admin3":"14626","localeAltName":null},{"geonameid":6550806,"name":"Niesky","admin3":"14626","localeAltName":null},{"geonameid":6550807,"name":"Gröditz","admin3":"14627","localeAltName":null},{"geonameid":6550808,"name":"Großenhain","admin3":"14627","localeAltName":null},{"geonameid":6550809,"name":"Riesa","admin3":"14627","localeAltName":null},{"geonameid":6550810,"name":"Strehla","admin3":"14627","localeAltName":null},{"geonameid":6550811,"name":"Herrnhut","admin3":"14626","localeAltName":null},{"geonameid":6550813,"name":"Neusalza-Spremberg","admin3":"14626","localeAltName":null},{"geonameid":6550814,"name":"Ostritz","admin3":"14626","localeAltName":null},{"geonameid":6550815,"name":"Seifhennersdorf","admin3":"14626","localeAltName":null},{"geonameid":6550816,"name":"Bad Gottleuba-Berggießhübel","admin3":"14628","localeAltName":null},{"geonameid":6550817,"name":"Bad Schandau","admin3":"14628","localeAltName":null},{"geonameid":6550818,"name":"Dohna","admin3":"14628","localeAltName":null},{"geonameid":6550819,"name":"Heidenau","admin3":"14628","localeAltName":null},{"geonameid":6550820,"name":"Hohnstein","admin3":"14628","localeAltName":null},{"geonameid":6550821,"name":"Liebstadt","admin3":"14628","localeAltName":null},{"geonameid":6550822,"name":"Pirna","admin3":"14628","localeAltName":null},{"geonameid":6550823,"name":"Sebnitz","admin3":"14628","localeAltName":null},{"geonameid":6550824,"name":"Stolpen","admin3":"14628","localeAltName":null},{"geonameid":6550825,"name":"Altenberg","admin3":"14628","localeAltName":null},{"geonameid":6550826,"name":"Dippoldiswalde","admin3":"14628","localeAltName":null},{"geonameid":6550827,"name":"Freital","admin3":"14628","localeAltName":null},{"geonameid":6550829,"name":"Glashütte","admin3":"14628","localeAltName":null},{"geonameid":6550830,"name":"Rabenau","admin3":"14628","localeAltName":null},{"geonameid":6550831,"name":"Tharandt","admin3":"14628","localeAltName":null},{"geonameid":6550832,"name":"Wilsdruff","admin3":"14628","localeAltName":null},{"geonameid":6550833,"name":"Bernsdorf","admin3":"14625","localeAltName":null},{"geonameid":6550834,"name":"Elstra","admin3":"14625","localeAltName":null},{"geonameid":6550835,"name":"Großröhrsdorf","admin3":"14625","localeAltName":null},{"geonameid":6550836,"name":"Kamenz","admin3":"14625","localeAltName":null},{"geonameid":6550837,"name":"Königsbrück","admin3":"14625","localeAltName":null},{"geonameid":6550838,"name":"Lauta","admin3":"14625","localeAltName":null},{"geonameid":6550839,"name":"Pulsnitz","admin3":"14625","localeAltName":null},{"geonameid":6550840,"name":"Radeberg","admin3":"14625","localeAltName":null},{"geonameid":6550841,"name":"Wittichenau","admin3":"14625","localeAltName":null},{"geonameid":6550842,"name":"Bad Düben","admin3":"14730","localeAltName":null},{"geonameid":6550843,"name":"Eilenburg","admin3":"14730","localeAltName":null},{"geonameid":6550844,"name":"Schkeuditz","admin3":"14730","localeAltName":null},{"geonameid":6550845,"name":"Taucha","admin3":"14730","localeAltName":null},{"geonameid":6550846,"name":"Hartha","admin3":"14522","localeAltName":null},{"geonameid":6550847,"name":"Leisnig","admin3":"14522","localeAltName":null},{"geonameid":6550848,"name":"Roßwein","admin3":"14522","localeAltName":null},{"geonameid":6550849,"name":"Waldheim","admin3":"14522","localeAltName":null},{"geonameid":6550850,"name":"Böhlen","admin3":"14729","localeAltName":null},{"geonameid":6550851,"name":"Borna","admin3":"14729","localeAltName":null},{"geonameid":6550852,"name":"Frohburg","admin3":"14729","localeAltName":null},{"geonameid":6550853,"name":"Geithain","admin3":"14729","localeAltName":null},{"geonameid":6550854,"name":"Groitzsch","admin3":"14729","localeAltName":null},{"geonameid":6550855,"name":"Kitzscher","admin3":"14729","localeAltName":null},{"geonameid":6550857,"name":"Markkleeberg","admin3":"14729","localeAltName":null},{"geonameid":6550858,"name":"Markranstädt","admin3":"14729","localeAltName":null},{"geonameid":6550859,"name":"Pegau","admin3":"14729","localeAltName":null},{"geonameid":6550860,"name":"Regis-Breitingen","admin3":"14729","localeAltName":null},{"geonameid":6550861,"name":"Rötha","admin3":"14729","localeAltName":null},{"geonameid":6550862,"name":"Zwenkau","admin3":"14729","localeAltName":null},{"geonameid":6550863,"name":"Bad Lausick","admin3":"14729","localeAltName":null},{"geonameid":6550864,"name":"Brandis","admin3":"14729","localeAltName":null},{"geonameid":6550865,"name":"Colditz","admin3":"14729","localeAltName":null},{"geonameid":6550866,"name":"Grimma","admin3":"14729","localeAltName":null},{"geonameid":6550868,"name":"Naunhof","admin3":"14729","localeAltName":null},{"geonameid":6550870,"name":"Wurzen","admin3":"14729","localeAltName":null},{"geonameid":6550872,"name":"Dahlen","admin3":"14730","localeAltName":null},{"geonameid":6550873,"name":"Dommitzsch","admin3":"14730","localeAltName":null},{"geonameid":6550874,"name":"Mügeln","admin3":"14730","localeAltName":null},{"geonameid":6551120,"name":"Sayda","admin3":"14522","localeAltName":null},{"geonameid":6551121,"name":"Mittweida","admin3":"14522","localeAltName":null},{"geonameid":6551122,"name":"Hartenstein","admin3":"14524","localeAltName":null},{"geonameid":6551123,"name":"Kirchberg","admin3":"14524","localeAltName":null},{"geonameid":6551124,"name":"Langenweißbach","admin3":"14524","localeAltName":null},{"geonameid":6551125,"name":"Mülsen","admin3":"14524","localeAltName":null},{"geonameid":6551126,"name":"Wildenfels","admin3":"14524","localeAltName":null},{"geonameid":6551127,"name":"Dresden","admin3":"14612","localeAltName":"Dresden"},{"geonameid":6551129,"name":"Löbau","admin3":"14626","localeAltName":null},{"geonameid":6551130,"name":"Zittau","admin3":"14626","localeAltName":null},{"geonameid":6551131,"name":"Delitzsch","admin3":"14730","localeAltName":null},{"geonameid":6551132,"name":"Döbeln","admin3":"14522","localeAltName":null},{"geonameid":6551133,"name":"Oschatz","admin3":"14730","localeAltName":null},{"geonameid":6551134,"name":"Torgau","admin3":"14730","localeAltName":null},{"geonameid":6551201,"name":"Oberwiesenthal, Kurort","admin3":"14521","localeAltName":null},{"geonameid":6551202,"name":"Grünbach, Höhenluftkurort","admin3":"14523","localeAltName":null},{"geonameid":6551203,"name":"Hartmannsdorf b. Kirchberg","admin3":"14524","localeAltName":null},{"geonameid":6551204,"name":"Sohland a. d. Spree","admin3":"14625","localeAltName":null},{"geonameid":6551207,"name":"Bernstadt a. d. Eigen","admin3":"14626","localeAltName":null},{"geonameid":6551208,"name":"Jonsdorf, Kurort","admin3":"14626","localeAltName":null},{"geonameid":6551209,"name":"Schönau-Berzdorf a. d. Eigen","admin3":"14626","localeAltName":null},{"geonameid":6551210,"name":"Neustadt i. Sa.","admin3":"14628","localeAltName":null},{"geonameid":6551211,"name":"Rathen, Kurort","admin3":"14628","localeAltName":null},{"geonameid":6551272,"name":"Pausa/Vogtl.","admin3":"14523","localeAltName":null},{"geonameid":6551273,"name":"Weißwasser/O.L.","admin3":"14626","localeAltName":null},{"geonameid":6559268,"name":"Reichenbach im Vogtland","admin3":"14523","localeAltName":null},{"geonameid":6559269,"name":"Drebach","admin3":"14521","localeAltName":null},{"geonameid":6559271,"name":"Neukirchen/Pleiße","admin3":"14524","localeAltName":null},{"geonameid":6559272,"name":"Röderaue","admin3":"14627","localeAltName":null},{"geonameid":6559273,"name":"Königstein/Sächs. Schw.","admin3":"14628","localeAltName":null},{"geonameid":6559274,"name":"Hermsdorf/Erzgeb.","admin3":"14628","localeAltName":null},{"geonameid":6559275,"name":"Naundorf","admin3":"14730","localeAltName":null},{"geonameid":7602418,"name":"Gelenau/Erzgeb.","admin3":"14521","localeAltName":null},{"geonameid":7602419,"name":"Thermalbad Wiesenbad","admin3":"14521","localeAltName":null},{"geonameid":7602420,"name":"Frankenberg/Sa.","admin3":"14522","localeAltName":null},{"geonameid":7602421,"name":"Falkenstein/Vogtl.","admin3":"14523","localeAltName":null},{"geonameid":7602422,"name":"Neustadt/Vogtl.","admin3":"14523","localeAltName":null},{"geonameid":7602423,"name":"Lichtenstein/Sa.","admin3":"14524","localeAltName":null},{"geonameid":7602424,"name":"Reichenbach/O.L.","admin3":"14626","localeAltName":null},{"geonameid":7602444,"name":"Schwarzenberg/Erzgeb.","admin3":"14521","localeAltName":null},{"geonameid":7602445,"name":"Stollberg/Erzgeb.","admin3":"14521","localeAltName":null},{"geonameid":7602446,"name":"Thalheim/Erzgeb.","admin3":"14521","localeAltName":null},{"geonameid":7602447,"name":"Auerbach/Vogtl.","admin3":"14523","localeAltName":null},{"geonameid":7602449,"name":"Schöneck/Vogtl.","admin3":"14523","localeAltName":null},{"geonameid":7602450,"name":"Triebel/Vogtl.","admin3":"14523","localeAltName":null},{"geonameid":7602451,"name":"Dürrhennersdorf","admin3":"14626","localeAltName":null},{"geonameid":7602453,"name":"Trebsen/Mulde","admin3":"14729","localeAltName":null},{"geonameid":7602465,"name":"Börnichen/Erzgeb.","admin3":"14521","localeAltName":null},{"geonameid":7602466,"name":"Gornau/Erzgeb.","admin3":"14521","localeAltName":null},{"geonameid":7602467,"name":"Jahnsdorf/Erzgeb.","admin3":"14521","localeAltName":null},{"geonameid":7602469,"name":"Lugau/Erzgeb.","admin3":"14521","localeAltName":null},{"geonameid":7602470,"name":"Neukirchen/Erzgeb.","admin3":"14521","localeAltName":null},{"geonameid":7602471,"name":"Neuhausen/Erzgeb.","admin3":"14522","localeAltName":null},{"geonameid":7602472,"name":"Muldenhammer","admin3":"14523","localeAltName":null},{"geonameid":7602473,"name":"Großpostwitz/O.L.","admin3":"14625","localeAltName":null},{"geonameid":7602485,"name":"Breitenbrunn/Erzgeb.","admin3":"14521","localeAltName":null},{"geonameid":7602486,"name":"Oelsnitz/Erzgeb.","admin3":"14521","localeAltName":null},{"geonameid":7602487,"name":"Klingenthal","admin3":"14523","localeAltName":null},{"geonameid":7602574,"name":"Seiffen/Erzgeb., Kurort","admin3":"14521","localeAltName":null},{"geonameid":7602575,"name":"Lichtenberg/Erzgeb.","admin3":"14522","localeAltName":null},{"geonameid":7602576,"name":"Mulda/Sa.","admin3":"14522","localeAltName":null},{"geonameid":7602577,"name":"Weißenborn/Erzgeb.","admin3":"14522","localeAltName":null},{"geonameid":7602578,"name":"Bertsdorf-Hörnitz","admin3":"14626","localeAltName":null},{"geonameid":7602579,"name":"Boxberg/O.L.","admin3":"14626","localeAltName":null},{"geonameid":7602580,"name":"Rothenburg/O.L.","admin3":"14626","localeAltName":null},{"geonameid":7602581,"name":"Weißkeißel","admin3":"14626","localeAltName":null},{"geonameid":7602601,"name":"Raschau-Markersbach","admin3":"14521","localeAltName":null},{"geonameid":7602602,"name":"Mühlental","admin3":"14523","localeAltName":null},{"geonameid":7602603,"name":"Hartmannsdorf-Reichenau","admin3":"14628","localeAltName":null},{"geonameid":8051234,"name":"Neukirch/Lausitz","admin3":"14625","localeAltName":null},{"geonameid":8658974,"name":"Lauter-Bernsbach","admin3":"14521","localeAltName":null},{"geonameid":8658975,"name":"Bobritzsch-Hilbersdorf","admin3":"14522","localeAltName":null},{"geonameid":8658979,"name":"Schirgiswalde-Kirschau","admin3":"14625","localeAltName":null},{"geonameid":8658980,"name":"Rosenbach/Vogtl.","admin3":"14523","localeAltName":null},{"geonameid":8658981,"name":"Ebersbach-Neugersdorf","admin3":"14626","localeAltName":null},{"geonameid":8658982,"name":"Kottmar","admin3":"14626","localeAltName":null},{"geonameid":8658983,"name":"Klingenberg","admin3":"14628","localeAltName":null},{"geonameid":8658984,"name":"Lossatal","admin3":"14729","localeAltName":null},{"geonameid":8658985,"name":"Belgern-Schildau","admin3":"14730","localeAltName":null},{"geonameid":10942660,"name":"Pockau-Lengefeld","admin3":"14521","localeAltName":null},{"geonameid":12032327,"name":"Stadt Aue-Bad Schlema","admin3":"14521","localeAltName":null}]},"__N_SSG":true}