{"pageProps":{"locale":"en","admin2":{"geonameid":5652361,"name":"Flathead County","country":"US","admin1":"MT","admin2":"029","admin3":"","latitude":"48.2951600","longitude":"-114.0498100"},"admin1":{"geonameid":5667009,"name":"Montana","admin1":"MT","localeAltName":"Montana"},"locations":[{"geonameid":5640284,"name":"Bigfork","admin3":""},{"geonameid":5645859,"name":"Columbia Falls","admin3":""},{"geonameid":5651289,"name":"Evergreen","admin3":""},{"geonameid":5660340,"name":"Kalispell","admin3":""},{"geonameid":5661473,"name":"Lakeside","admin3":""},{"geonameid":5678822,"name":"Somers","admin3":""},{"geonameid":5686121,"name":"Whitefish","admin3":""}],"admin3":[{"geonameid":11788725,"name":"City of Whitefish","admin3":"11788725"},{"geonameid":11788890,"name":"City of Kalispell","admin3":"11788890"}],"alternateNames":[{"alternatenameId":2089563,"geonameid":5667009,"isoLanguage":"en","alternateName":"Montana","isPreferredName":true,"isShortName":true,"isColloquial":false,"isHistoric":false}]},"__N_SSG":true}