{"pageProps":{"locale":"de","admin2":{"geonameid":6458790,"name":"Franches-Montagnes District","country":"CH","admin1":"JU","admin2":"2602","admin3":"","latitude":"47.2493500","longitude":"7.0456200"},"admin1":{"geonameid":2660207,"name":"Jura","admin1":"JU"},"locations":[{"geonameid":2660077,"name":"La Chaux-des-Breuleux","admin3":"6744"},{"geonameid":2660052,"name":"Lajoux","admin3":"6750"},{"geonameid":2659955,"name":"Le Noirmont","admin3":"6754"},{"geonameid":2659947,"name":"Le Peuchapatte","admin3":"6754"},{"geonameid":2659939,"name":"Les Bois","admin3":"6742"},{"geonameid":2659937,"name":"Les Breuleux","admin3":"6743"},{"geonameid":2659926,"name":"Les Genevez","admin3":"6748"},{"geonameid":2659918,"name":"Les Pommerats","admin3":"6757"},{"geonameid":2659614,"name":"Montfaucon","admin3":"6751"},{"geonameid":2658882,"name":"Saignelégier","admin3":"6757"},{"geonameid":2658877,"name":"Saint-Brais","admin3":"6758"},{"geonameid":2658542,"name":"Soubey","admin3":"6759"}],"admin3":[{"geonameid":7286241,"name":"La Chaux-des-Breuleux","admin3":"6744"},{"geonameid":7286250,"name":"Lajoux (JU)","admin3":"6750"},{"geonameid":7286294,"name":"Le Bémont (JU)","admin3":"6741"},{"geonameid":7286316,"name":"Le Noirmont","admin3":"6754"},{"geonameid":7286322,"name":"Les Bois","admin3":"6742"},{"geonameid":7286324,"name":"Les Breuleux","admin3":"6743"},{"geonameid":7286327,"name":"Les Enfers","admin3":"6745"},{"geonameid":7286329,"name":"Les Genevez (JU)","admin3":"6748"},{"geonameid":7286534,"name":"Montfaucon","admin3":"6751"},{"geonameid":7286600,"name":"Muriaux","admin3":"6753"},{"geonameid":7287017,"name":"Saignelégier","admin3":"6757"},{"geonameid":7287023,"name":"Saint-Brais","admin3":"6758"},{"geonameid":7287199,"name":"Soubey","admin3":"6759"}],"alternateNames":[]},"__N_SSG":true}