{"pageProps":{"locale":"ro","admin2":{"geonameid":663034,"name":"Comuna Verneşti","country":"RO","admin1":"11","admin2":"50102","admin3":"","latitude":"45.2080400","longitude":"26.6965000"},"admin1":{"geonameid":683121,"name":"Buzău","admin1":"11"},"locations":[{"geonameid":686598,"name":"Agudu"},{"geonameid":683966,"name":"Brădeanca"},{"geonameid":682892,"name":"Călugări"},{"geonameid":681821,"name":"Cândeşti"},{"geonameid":681809,"name":"Cândeştii de Jos"},{"geonameid":681545,"name":"Cârlomănești"},{"geonameid":681325,"name":"Clinciu"},{"geonameid":674640,"name":"Livezile"},{"geonameid":674345,"name":"Lunceni"},{"geonameid":673253,"name":"Mânăstirea Ciolanu"},{"geonameid":673435,"name":"Mierea"},{"geonameid":673432,"name":"Mierea Până ân Gârlă"},{"geonameid":672315,"name":"Nenciu"},{"geonameid":672211,"name":"Nișcov"},{"geonameid":672208,"name":"Nişcov Peste Gârlă"},{"geonameid":672207,"name":"Nisip"},{"geonameid":671564,"name":"Păcurile"},{"geonameid":667906,"name":"Săsenii Noi"},{"geonameid":667908,"name":"Săsenii pe Vale"},{"geonameid":667907,"name":"Săsenii Vechi"},{"geonameid":663364,"name":"Valea Teancului"},{"geonameid":663035,"name":"Verneşti"},{"geonameid":662138,"name":"Zorești"}],"admin3":[],"alternateNames":[]},"__N_SSG":true}