{"pageProps":{"locale":"en","admin2":{"geonameid":5028232,"name":"Goodhue County","country":"US","admin1":"MN","admin2":"049","admin3":"","latitude":"44.4098500","longitude":"-92.7225900","localeAltName":null},"admin1":{"geonameid":5037779,"name":"Minnesota","admin1":"MN","localeAltName":"Minnesota"},"locations":[{"geonameid":5020281,"name":"Cannon Falls","admin3":"09730","localeAltName":null},{"geonameid":5028230,"name":"Goodhue","admin3":"24398","localeAltName":null},{"geonameid":5033090,"name":"Kenyon","admin3":"32840","localeAltName":null},{"geonameid":5041581,"name":"Pine Island","admin3":"51136","localeAltName":null},{"geonameid":5042773,"name":"Red Wing","admin3":"53620","localeAltName":null},{"geonameid":5051806,"name":"Wanamingo","admin3":"67972","localeAltName":null},{"geonameid":5053812,"name":"Zumbrota","admin3":"72328","localeAltName":null}],"admin3":[{"geonameid":5017755,"name":"Township of Belle Creek","admin3":"04816"},{"geonameid":5017775,"name":"City of Bellechester","admin3":"04798"},{"geonameid":5017814,"name":"Township of Belvidere","admin3":"05032"},{"geonameid":5020297,"name":"City of Cannon Falls","admin3":"09730","localeAltName":null},{"geonameid":5020298,"name":"Township of Cannon Falls","admin3":"09748"},{"geonameid":5020979,"name":"Township of Cherry Grove","admin3":"11188"},{"geonameid":5024210,"name":"City of Dennison","admin3":"15706"},{"geonameid":5026377,"name":"Township of Featherstone","admin3":"20780"},{"geonameid":5026980,"name":"Township of Florence","admin3":"21392"},{"geonameid":5028242,"name":"City of Goodhue","admin3":"24398","localeAltName":null},{"geonameid":5028243,"name":"Township of Goodhue","admin3":"24416"},{"geonameid":5029620,"name":"Township of Hay Creek","admin3":"27818"},{"geonameid":5030380,"name":"Township of Holden","admin3":"29546"},{"geonameid":5033102,"name":"City of Kenyon","admin3":"32840","localeAltName":null},{"geonameid":5033103,"name":"Township of Kenyon","admin3":"32858"},{"geonameid":5034482,"name":"Township of Leon","admin3":"36476"},{"geonameid":5037675,"name":"Township of Minneola","admin3":"43072"},{"geonameid":5041603,"name":"City of Pine Island","admin3":"51136","localeAltName":null},{"geonameid":5041604,"name":"Township of Pine Island","admin3":"51154"},{"geonameid":5042788,"name":"City of Red Wing","admin3":"53620","localeAltName":null},{"geonameid":5043709,"name":"Township of Roscoe","admin3":"55492"},{"geonameid":5048554,"name":"Township of Stanton","admin3":"62428"},{"geonameid":5051271,"name":"Township of Vasa","admin3":"66640"},{"geonameid":5051653,"name":"Township of Wacouta","admin3":"67486"},{"geonameid":5051813,"name":"City of Wanamingo","admin3":"67972","localeAltName":null},{"geonameid":5051814,"name":"Township of Wanamingo","admin3":"67990"},{"geonameid":5051898,"name":"Township of Warsaw","admin3":"68242"},{"geonameid":5052219,"name":"Township of Welch","admin3":"69052"},{"geonameid":5053826,"name":"City of Zumbrota","admin3":"72328","localeAltName":null},{"geonameid":5053827,"name":"Township of Zumbrota","admin3":"72346"}],"alternateNames":[{"alternatenameId":2089541,"geonameid":5037779,"isoLanguage":"en","alternateName":"Minnesota","isPreferredName":true,"isShortName":true,"isColloquial":false,"isHistoric":false}]},"__N_SSG":true}