{"pageProps":{"locale":"en","admin2":{"geonameid":5037515,"name":"Mille Lacs County","country":"US","admin1":"MN","admin2":"095","admin3":"","latitude":"45.9380500","longitude":"-93.6300900","localeAltName":null},"admin1":{"geonameid":5037779,"name":"Minnesota","admin1":"MN","localeAltName":"Minnesota"},"locations":[{"geonameid":5027135,"name":"Foreston","admin3":"21824","localeAltName":null},{"geonameid":5031601,"name":"Isle","admin3":"31472","localeAltName":null},{"geonameid":5037456,"name":"Milaca","admin3":"42110","localeAltName":null},{"geonameid":5040253,"name":"Onamia","admin3":"48310","localeAltName":null},{"geonameid":5042360,"name":"Princeton","admin3":"52522","localeAltName":null},{"geonameid":5051443,"name":"Vineland","admin3":"32516","localeAltName":null}],"admin3":[{"geonameid":5018859,"name":"City of Bock","admin3":"06814"},{"geonameid":5018905,"name":"Township of Bogus Brook","admin3":"06850"},{"geonameid":5018985,"name":"Township of Borgholm","admin3":"07012"},{"geonameid":5019090,"name":"Township of Bradbury","admin3":"07210"},{"geonameid":5023740,"name":"Township of Dailey","admin3":"14500"},{"geonameid":5025077,"name":"Township of East Side","admin3":"17810"},{"geonameid":5027136,"name":"City of Foreston","admin3":"21824","localeAltName":null},{"geonameid":5028791,"name":"Township of Greenbush","admin3":"25586"},{"geonameid":5029667,"name":"Township of Hayland","admin3":"27908"},{"geonameid":5031606,"name":"Township of Isle Harbor","admin3":"31490"},{"geonameid":5031608,"name":"City of Isle","admin3":"31472","localeAltName":null},{"geonameid":5032933,"name":"Township of Kathio","admin3":"32516","localeAltName":null},{"geonameid":5034543,"name":"Township of Lewis","admin3":"36782"},{"geonameid":5037458,"name":"City of Milaca","admin3":"42110","localeAltName":null},{"geonameid":5037459,"name":"Township of Milaca","admin3":"42128"},{"geonameid":5037586,"name":"Township of Milo","admin3":"42326"},{"geonameid":5038718,"name":"Township of Mudgett","admin3":"44710"},{"geonameid":5040256,"name":"City of Onamia","admin3":"48310","localeAltName":null},{"geonameid":5040257,"name":"Township of Onamia","admin3":"48328"},{"geonameid":5040721,"name":"Township of Page","admin3":"49480"},{"geonameid":5041014,"name":"City of Pease","admin3":"50056"},{"geonameid":5042364,"name":"City of Princeton","admin3":"52522","localeAltName":null},{"geonameid":5042365,"name":"Township of Princeton","admin3":"52540"},{"geonameid":5047968,"name":"Township of South Harbor","admin3":"61384"},{"geonameid":5051687,"name":"City of Wahkon","admin3":"67558"}],"alternateNames":[{"alternatenameId":2089541,"geonameid":5037779,"isoLanguage":"en","alternateName":"Minnesota","isPreferredName":true,"isShortName":true,"isColloquial":false,"isHistoric":false}]},"__N_SSG":true}