{"pageProps":{"locale":"en","admin2":{"geonameid":4993785,"name":"Genesee County","country":"US","admin1":"MI","admin2":"049","admin3":"","latitude":"43.0217200","longitude":"-83.7067100","localeAltName":null},"admin1":{"geonameid":5001836,"name":"Michigan","admin1":"MI","localeAltName":"Michigan"},"locations":[{"geonameid":4984361,"name":"Argentine","admin3":"03420","localeAltName":null},{"geonameid":4985521,"name":"Beecher","admin3":"55980","localeAltName":null},{"geonameid":4987482,"name":"Burton","admin3":"12060","localeAltName":null},{"geonameid":4989153,"name":"Clio","admin3":"16620","localeAltName":null},{"geonameid":4990400,"name":"Davison","admin3":"19880","localeAltName":null},{"geonameid":4992612,"name":"Fenton","admin3":"27760","localeAltName":null},{"geonameid":4992982,"name":"Flint","admin3":"29000","localeAltName":null},{"geonameid":4993022,"name":"Flushing","admin3":"29200","localeAltName":null},{"geonameid":4994154,"name":"Goodrich","admin3":"04000","localeAltName":null},{"geonameid":4994320,"name":"Grand Blanc","admin3":"33280","localeAltName":null},{"geonameid":4998543,"name":"Lake Fenton","admin3":"27780","localeAltName":null},{"geonameid":4999360,"name":"Linden","admin3":"47820","localeAltName":null},{"geonameid":5002411,"name":"Montrose","admin3":"55280","localeAltName":null},{"geonameid":5002699,"name":"Mount Morris","admin3":"55960","localeAltName":null},{"geonameid":5004656,"name":"Otisville","admin3":"29420","localeAltName":null},{"geonameid":5011701,"name":"Swartz Creek","admin3":"77700","localeAltName":null}],"admin3":[{"geonameid":4984370,"name":"Township of Argentine","admin3":"03420","localeAltName":null},{"geonameid":4984508,"name":"Township of Atlas","admin3":"04000","localeAltName":null},{"geonameid":4987494,"name":"City of Burton","admin3":"12060","localeAltName":null},{"geonameid":4989026,"name":"Charter Township of Clayton","admin3":"16260"},{"geonameid":4989155,"name":"City of Clio","admin3":"16620","localeAltName":null},{"geonameid":4990409,"name":"City of Davison","admin3":"19880","localeAltName":null},{"geonameid":4990410,"name":"Township of Davison","admin3":"19900"},{"geonameid":4992616,"name":"City of Fenton","admin3":"27760","localeAltName":null},{"geonameid":4992618,"name":"Charter Township of Fenton","admin3":"27780","localeAltName":null},{"geonameid":4992979,"name":"City of Flint","admin3":"29000","localeAltName":null},{"geonameid":4992980,"name":"Charter Township of Flint","admin3":"29020"},{"geonameid":4993026,"name":"City of Flushing","admin3":"29200","localeAltName":null},{"geonameid":4993027,"name":"Charter Township of Flushing","admin3":"29220"},{"geonameid":4993154,"name":"Township of Forest","admin3":"29420","localeAltName":null},{"geonameid":4993597,"name":"Township of Gaines","admin3":"31220"},{"geonameid":4993791,"name":"Charter Township of Genesee","admin3":"31800"},{"geonameid":4994321,"name":"City of Grand Blanc","admin3":"33280","localeAltName":null},{"geonameid":4994322,"name":"Charter Township of Grand Blanc","admin3":"33300"},{"geonameid":4999365,"name":"City of Linden","admin3":"47820","localeAltName":null},{"geonameid":5002403,"name":"Charter Township of Montrose","admin3":"55300"},{"geonameid":5002700,"name":"City of Mount Morris","admin3":"55960","localeAltName":null},{"geonameid":5002701,"name":"Township of Mount Morris","admin3":"55980","localeAltName":null},{"geonameid":5003058,"name":"Township of Mundy","admin3":"56160"},{"geonameid":5007111,"name":"Township of Richfield","admin3":"68180"},{"geonameid":5011703,"name":"City of Swartz Creek","admin3":"77700","localeAltName":null},{"geonameid":5012059,"name":"Township of Thetford","admin3":"79460"},{"geonameid":5013274,"name":"Charter Township of Vienna","admin3":"82380"},{"geonameid":5281108,"name":"City of Montrose","admin3":"55280","localeAltName":null}],"alternateNames":[{"alternatenameId":2124820,"geonameid":5001836,"isoLanguage":"en","alternateName":"Michigan","isPreferredName":true,"isShortName":true,"isColloquial":false,"isHistoric":false}]},"__N_SSG":true}