{"pageProps":{"locale":"de","locations":[{"geonameid":2959875,"name":"Abbesbüttel","admin3":"03151"},{"geonameid":2959681,"name":"Achim","admin3":"03361"},{"geonameid":2959682,"name":"Achim","admin3":"03158"},{"geonameid":2959548,"name":"Adelebsen","admin3":"03159"},{"geonameid":2959538,"name":"Adelheidsdorf","admin3":"03351"},{"geonameid":2959482,"name":"Adenbüttel","admin3":"03151"},{"geonameid":2959479,"name":"Adendorf","admin3":"03355"},{"geonameid":2959475,"name":"Adenstedt","admin3":"03254"},{"geonameid":2959374,"name":"Aerzen","admin3":"03252"},{"geonameid":2959341,"name":"Affinghausen","admin3":"03251"},{"geonameid":2959318,"name":"Agathenburg","admin3":"03359"},{"geonameid":2959272,"name":"Ahausen","admin3":"03357"},{"geonameid":2959237,"name":"Ahlden","admin3":"03358"},{"geonameid":2959205,"name":"Ahlerstedt","admin3":"03359"},{"geonameid":2959150,"name":"Ahnsbeck","admin3":"03351"},{"geonameid":2959146,"name":"Ahnsen","admin3":"03257"},{"geonameid":2959043,"name":"Ahsen-Oetzen","admin3":"03361"},{"geonameid":2958533,"name":"Alfeld","admin3":"03254"},{"geonameid":2958523,"name":"Alfhausen","admin3":"03459"},{"geonameid":2958518,"name":"Alfstedt","admin3":"03357"},{"geonameid":2958509,"name":"Algermissen","admin3":"03254"},{"geonameid":2958415,"name":"Allenbüttel","admin3":"03151"},{"geonameid":10793683,"name":"Allerbüttel","admin3":"03151"},{"geonameid":2958211,"name":"Almstedt","admin3":"03254"},{"geonameid":12110939,"name":"Alt - Lehndorf","admin3":"03101"},{"geonameid":2956781,"name":"Alt Wallmoden","admin3":"03153"},{"geonameid":2957880,"name":"Altenau","admin3":"03153"},{"geonameid":2957538,"name":"Altenmedingen","admin3":"03360"},{"geonameid":12110932,"name":"Altes Hochschulviertel","admin3":"03101"},{"geonameid":12110931,"name":"Altewiek","admin3":"03101"},{"geonameid":2956991,"name":"Altmerdingsen","admin3":"03241"},{"geonameid":12110941,"name":"Am Hagenring","admin3":"03101"},{"geonameid":12110946,"name":"Am Südsee","admin3":"03101"},{"geonameid":2956584,"name":"Amelinghausen","admin3":"03355"},{"geonameid":2956212,"name":"Anderlingen","admin3":"03357"},{"geonameid":2956185,"name":"Andervenne Oberdorf","admin3":"03454"},{"geonameid":2956014,"name":"Ankum","admin3":"03459"},{"geonameid":2955822,"name":"Apelern","admin3":"03257"},{"geonameid":2955817,"name":"Apen","admin3":"03451"},{"geonameid":2955815,"name":"Apensen","admin3":"03359"},{"geonameid":2955762,"name":"Appel","admin3":"03353"},{"geonameid":2955751,"name":"Appeln","admin3":"03352"},{"geonameid":2955598,"name":"Arholzen","admin3":"03255"},{"geonameid":2955538,"name":"Armstorf","admin3":"03352"},{"geonameid":2955416,"name":"Arpke","admin3":"03241"},{"geonameid":2955389,"name":"Artlenburg","admin3":"03355"},{"geonameid":2955126,"name":"Asendorf","admin3":"03353"},{"geonameid":2955127,"name":"Asendorf","admin3":"03251"},{"geonameid":9072532,"name":"Auf der Horst","admin3":"03241"},{"geonameid":2954123,"name":"Auhagen","admin3":"03257"},{"geonameid":2954006,"name":"Aurich","admin3":"03452"},{"geonameid":2953840,"name":"Axstedt","admin3":"03356"},{"geonameid":2953552,"name":"Bad Bentheim","admin3":"03456"},{"geonameid":2949511,"name":"Bad Bevensen","admin3":"03360"},{"geonameid":2953516,"name":"Bad Eilsen","admin3":"03257"},{"geonameid":2953464,"name":"Bad Essen","admin3":"03459"},{"geonameid":2927871,"name":"Bad Fallingbostel","admin3":"03358"},{"geonameid":2953456,"name":"Bad Gandersheim","admin3":"03155"},{"geonameid":2953451,"name":"Bad Grund","admin3":"03159"},{"geonameid":2953449,"name":"Bad Harzburg","admin3":"03153"},{"geonameid":2953430,"name":"Bad Iburg","admin3":"03459"},{"geonameid":2881972,"name":"Bad Laer","admin3":"03459"},{"geonameid":2953410,"name":"Bad Lauterberg im Harz","admin3":"03159"},{"geonameid":2953400,"name":"Bad Münder am Deister","admin3":"03252"},{"geonameid":2953394,"name":"Bad Nenndorf","admin3":"03257"},{"geonameid":2953379,"name":"Bad Pyrmont","admin3":"03252"},{"geonameid":2953367,"name":"Bad Rothenfelde","admin3":"03459"},{"geonameid":2953364,"name":"Bad Sachsa","admin3":"03159"},{"geonameid":2953362,"name":"Bad Salzdetfurth","admin3":"03254"},{"geonameid":2953310,"name":"Bad Zwischenahn","admin3":"03451"},{"geonameid":2953550,"name":"Badbergen","admin3":"03459"},{"geonameid":2953531,"name":"Baddeckenstedt","admin3":"03158"},{"geonameid":2953493,"name":"Badenhausen","admin3":"03159"},{"geonameid":2953247,"name":"Bahrdorf","admin3":"03154"},{"geonameid":2953240,"name":"Bahrenborstel","admin3":"03251"},{"geonameid":2953136,"name":"Bakum","admin3":"03460"},{"geonameid":2953100,"name":"Balge","admin3":"03256"},{"geonameid":2953088,"name":"Balje","admin3":"03359"},{"geonameid":2953006,"name":"Baltrum","admin3":"03452"},{"geonameid":2952884,"name":"Banteln","admin3":"03254"},{"geonameid":2952835,"name":"Barchel","admin3":"03357"},{"geonameid":2952814,"name":"Bardowick","admin3":"03355"},{"geonameid":2952767,"name":"Barenburg","admin3":"03251"},{"geonameid":2952762,"name":"Barendorf","admin3":"03355"},{"geonameid":2952637,"name":"Bargstedt","admin3":"03359"},{"geonameid":2952458,"name":"Barnstedt","admin3":"03355"},{"geonameid":2952452,"name":"Barnstorf","admin3":"03251"},{"geonameid":2952406,"name":"Barsinghausen","admin3":"03241"},{"geonameid":2952398,"name":"Barßel","admin3":"03453"},{"geonameid":2952339,"name":"Barum","admin3":"03355"},{"geonameid":2952340,"name":"Barum","admin3":"03360"},{"geonameid":2952330,"name":"Barver","admin3":"03251"},{"geonameid":2952324,"name":"Barwedel","admin3":"03151"},{"geonameid":2952304,"name":"Basdahl","admin3":"03357"},{"geonameid":2952252,"name":"Bassum","admin3":"03251"},{"geonameid":2951863,"name":"Bawinkel","admin3":"03454"},{"geonameid":12110962,"name":"Bebelhof","admin3":"03101"},{"geonameid":2951733,"name":"Bechtsbüttel","admin3":"03151"},{"geonameid":2951725,"name":"Beckdorf","admin3":"03359"},{"geonameid":2951717,"name":"Beckedorf","admin3":"03257"},{"geonameid":2951711,"name":"Beckeln","admin3":"03458"},{"geonameid":2951616,"name":"Beedenbostel","admin3":"03351"},{"geonameid":2951526,"name":"Beesten","admin3":"03454"},{"geonameid":2951428,"name":"Bei der Höhne","admin3":"03357"},{"geonameid":2951387,"name":"Beierstedt","admin3":"03154"},{"geonameid":2951175,"name":"Belm","admin3":"03459"},{"geonameid":2951147,"name":"Belum","admin3":"03352"},{"geonameid":2951115,"name":"Bendestorf","admin3":"03353"},{"geonameid":2950982,"name":"Bensersiel","admin3":"03462"},{"geonameid":2950660,"name":"Berge","admin3":"03459"},{"geonameid":2950622,"name":"Bergen","admin3":"03351"},{"geonameid":2950621,"name":"Bergen an der Dumme","admin3":"03354"},{"geonameid":2950556,"name":"Bergfeld","admin3":"03151"},{"geonameid":7731708,"name":"Bernser Landwehr","admin3":"03257"},{"geonameid":2949906,"name":"Bersenbrück","admin3":"03459"},{"geonameid":2949855,"name":"Berumbur","admin3":"03452"},{"geonameid":2949765,"name":"Betheln","admin3":"03254"},{"geonameid":2949661,"name":"Betzendorf","admin3":"03355"},{"geonameid":2949512,"name":"Bevenrode","admin3":"03101"},{"geonameid":2949489,"name":"Bevern","admin3":"03255"},{"geonameid":2949482,"name":"Beverstedt","admin3":"03352"},{"geonameid":2949150,"name":"Bienenbüttel","admin3":"03360"},{"geonameid":2949133,"name":"Bienrode","admin3":"03101"},{"geonameid":2948895,"name":"Bilshausen","admin3":"03159"},{"geonameid":2948810,"name":"Binnen","admin3":"03256"},{"geonameid":2948733,"name":"Bippen","admin3":"03459"},{"geonameid":2948222,"name":"Bispingen","admin3":"03358"},{"geonameid":2948212,"name":"Bissendorf","admin3":"03459"},{"geonameid":2947894,"name":"Bleckede","admin3":"03355"},{"geonameid":2947810,"name":"Blender","admin3":"03361"},{"geonameid":2947769,"name":"Bliedersdorf","admin3":"03359"},{"geonameid":2947646,"name":"Blomberg","admin3":"03462"},{"geonameid":2947359,"name":"Bockenem","admin3":"03254"},{"geonameid":2947312,"name":"Bockhorn","admin3":"03455"},{"geonameid":2947299,"name":"Bockhorst","admin3":"03454"},{"geonameid":2947139,"name":"Bodenfelde","admin3":"03155"},{"geonameid":2947110,"name":"Bodensee","admin3":"03159"},{"geonameid":2947092,"name":"Bodenwerder","admin3":"03255"},{"geonameid":2947038,"name":"Boffzen","admin3":"03255"},{"geonameid":2946952,"name":"Böhme","admin3":"03358"},{"geonameid":2946923,"name":"Bohmte","admin3":"03459"},{"geonameid":2946830,"name":"Boitze","admin3":"03355"},{"geonameid":2946801,"name":"Bokel","admin3":"03352"},{"geonameid":2946765,"name":"Bokensdorf","admin3":"03151"},{"geonameid":2946524,"name":"Bomlitz","admin3":"03358"},{"geonameid":2946290,"name":"Börger","admin3":"03454"},{"geonameid":2946206,"name":"Borkum","admin3":"03457"},{"geonameid":2946007,"name":"Börßum","admin3":"03158"},{"geonameid":2945995,"name":"Borstel","admin3":"03251"},{"geonameid":2945907,"name":"Bösel","admin3":"03453"},{"geonameid":2945807,"name":"Bötersen","admin3":"03357"},{"geonameid":2945802,"name":"Bothel","admin3":"03357"},{"geonameid":2945726,"name":"Bovenden","admin3":"03159"},{"geonameid":2945600,"name":"Brackel","admin3":"03353"},{"geonameid":2945545,"name":"Brake (Unterweser)","admin3":"03461"},{"geonameid":2945474,"name":"Bramsche","admin3":"03459"},{"geonameid":2945469,"name":"Bramstedt","admin3":"03352"},{"geonameid":2945055,"name":"Braunlage","admin3":"03153"},{"geonameid":2945024,"name":"Braunschweig","admin3":"03101"},{"geonameid":2944948,"name":"Breddenberg","admin3":"03454"},{"geonameid":2944944,"name":"Breddorf","admin3":"03357"},{"geonameid":2944354,"name":"Bremervörde","admin3":"03357"},{"geonameid":2944213,"name":"Brest","admin3":"03359"},{"geonameid":2944159,"name":"Brevörde","admin3":"03255"},{"geonameid":2944093,"name":"Brietlingen","admin3":"03355"},{"geonameid":2944038,"name":"Brinkum","admin3":"03457"},{"geonameid":2943997,"name":"Brockel","admin3":"03357"},{"geonameid":2943945,"name":"Brockum","admin3":"03251"},{"geonameid":2943855,"name":"Broitzem","admin3":"03101"},{"geonameid":2943795,"name":"Brome","admin3":"03151"},{"geonameid":2943587,"name":"Bruchhausen-Vilsen","admin3":"03251"},{"geonameid":2943335,"name":"Brüggen","admin3":"03254"},{"geonameid":2942358,"name":"Buchholz","admin3":"03357"},{"geonameid":2942367,"name":"Buchholz","admin3":"03257"},{"geonameid":2942323,"name":"Buchholz in der Nordheide","admin3":"03353"},{"geonameid":2942159,"name":"Bückeburg","admin3":"03257"},{"geonameid":2942154,"name":"Bücken","admin3":"03256"},{"geonameid":3208594,"name":"Büddenstedt","admin3":"03154"},{"geonameid":2941877,"name":"Bühren","admin3":"03453"},{"geonameid":2941880,"name":"Bühren","admin3":"03159"},{"geonameid":2941831,"name":"Bülkau","admin3":"03352"},{"geonameid":2941693,"name":"Bunde","admin3":"03457"},{"geonameid":12110965,"name":"Bundesanstalten","admin3":"03101"},{"geonameid":2941405,"name":"Burgdorf","admin3":"03241"},{"geonameid":12110945,"name":"Bürgerpark","admin3":"03101"},{"geonameid":2940920,"name":"Burweg","admin3":"03359"},{"geonameid":3336894,"name":"Butjadingen","admin3":"03461"},{"geonameid":2940451,"name":"Buxtehude","admin3":"03359"},{"geonameid":2940430,"name":"Cadenberge","admin3":"03352"},{"geonameid":2940416,"name":"Calberlah","admin3":"03151"},{"geonameid":2940322,"name":"Cappel","admin3":"03352"},{"geonameid":2940317,"name":"Cappeln","admin3":"03453"},{"geonameid":2940261,"name":"Carolinensiel","admin3":"03462"},{"geonameid":2940213,"name":"Celle","admin3":"03351"},{"geonameid":2939995,"name":"Clausthal-Zellerfeld","admin3":"03153"},{"geonameid":2939983,"name":"Clenze","admin3":"03354"},{"geonameid":2939969,"name":"Cloppenburg","admin3":"03453"},{"geonameid":2939900,"name":"Colnrade","admin3":"03458"},{"geonameid":2939862,"name":"Coppenbrügge","admin3":"03252"},{"geonameid":2939860,"name":"Coppengrave","admin3":"03254"},{"geonameid":2939788,"name":"Cramme","admin3":"03158"},{"geonameid":2939763,"name":"Cremlingen","admin3":"03158"},{"geonameid":2939658,"name":"Cuxhaven","admin3":"03352"},{"geonameid":2939441,"name":"Dahlem","admin3":"03355"},{"geonameid":2939426,"name":"Dahlenburg","admin3":"03355"},{"geonameid":3208595,"name":"Dahlum","admin3":"03158"},{"geonameid":2939167,"name":"Damme","admin3":"03460"},{"geonameid":2939093,"name":"Damnatz","admin3":"03354"},{"geonameid":2939000,"name":"Danndorf","admin3":"03154"},{"geonameid":2938991,"name":"Dannenberg","admin3":"03354"},{"geonameid":2938813,"name":"Dassel","admin3":"03155"},{"geonameid":2938619,"name":"Dedelstorf","admin3":"03151"},{"geonameid":2938598,"name":"Deensen","admin3":"03255"},{"geonameid":2938430,"name":"Deinste","admin3":"03359"},{"geonameid":2938429,"name":"Deinstedt","admin3":"03357"},{"geonameid":2938344,"name":"Delligsen","admin3":"03255"},{"geonameid":2938323,"name":"Delmenhorst","admin3":"03401"},{"geonameid":2938132,"name":"Derental","admin3":"03255"},{"geonameid":2938004,"name":"Dersum","admin3":"03454"},{"geonameid":2937949,"name":"Destedt","admin3":"03158"},{"geonameid":2937944,"name":"Detern","admin3":"03457"},{"geonameid":2937937,"name":"Detmerode","admin3":"03103"},{"geonameid":2937889,"name":"Dettum","admin3":"03158"},{"geonameid":2937809,"name":"Deutsch Evern","admin3":"03355"},{"geonameid":2937737,"name":"Dibbesdorf","admin3":"03101"},{"geonameid":2937714,"name":"Dickel","admin3":"03251"},{"geonameid":2937641,"name":"Didderse","admin3":"03151"},{"geonameid":2937449,"name":"Diekholzen","admin3":"03254"},{"geonameid":2937399,"name":"Dielmissen","admin3":"03255"},{"geonameid":2937317,"name":"Diepholz","admin3":"03251"},{"geonameid":2936881,"name":"Dinklage","admin3":"03460"},{"geonameid":2936787,"name":"Dissen","admin3":"03459"},{"geonameid":2936454,"name":"Dohren","admin3":"03353"},{"geonameid":3208422,"name":"Dohren","admin3":"03454"},{"geonameid":2936385,"name":"Dollbergen","admin3":"03241"},{"geonameid":2936369,"name":"Dollern","admin3":"03359"},{"geonameid":2935633,"name":"Dornum","admin3":"03452"},{"geonameid":2935631,"name":"Dornumersiel","admin3":"03452"},{"geonameid":2935597,"name":"Dörpen","admin3":"03454"},{"geonameid":2935532,"name":"Dorstadt","admin3":"03158"},{"geonameid":2935494,"name":"Dorum","admin3":"03352"},{"geonameid":2935491,"name":"Dörverden","admin3":"03361"},{"geonameid":2935441,"name":"Dötlingen","admin3":"03458"},{"geonameid":2935375,"name":"Drage","admin3":"03353"},{"geonameid":2935341,"name":"Drakenburg","admin3":"03256"},{"geonameid":2935334,"name":"Drangstedt","admin3":"03352"},{"geonameid":2935326,"name":"Dransfeld","admin3":"03159"},{"geonameid":2935041,"name":"Drentwede","admin3":"03251"},{"geonameid":2935006,"name":"Drestedt","admin3":"03353"},{"geonameid":2934945,"name":"Driftsethe","admin3":"03352"},{"geonameid":2934915,"name":"Drochtersen","admin3":"03359"},{"geonameid":2934740,"name":"Düdenbüttel","admin3":"03359"},{"geonameid":2934728,"name":"Duderstadt","admin3":"03159"},{"geonameid":2934697,"name":"Duingen","admin3":"03254"},{"geonameid":2934548,"name":"Dünsen","admin3":"03458"},{"geonameid":2934541,"name":"Dunum","admin3":"03462"},{"geonameid":2934009,"name":"Ebergötzen","admin3":"03159"},{"geonameid":2933994,"name":"Eberholzen","admin3":"03254"},{"geonameid":2933916,"name":"Ebersdorf","admin3":"03357"},{"geonameid":2933817,"name":"Ebstorf","admin3":"03360"},{"geonameid":2933808,"name":"Echem","admin3":"03355"},{"geonameid":2933442,"name":"Edemissen","admin3":"03157"},{"geonameid":2933364,"name":"Edewecht","admin3":"03451"},{"geonameid":2933187,"name":"Egestorf","admin3":"03353"},{"geonameid":2933188,"name":"Egestorf","admin3":"03241"},{"geonameid":3204947,"name":"Eggermühlen","admin3":"03459"},{"geonameid":2932841,"name":"Ehrenburg","admin3":"03251"},{"geonameid":2932024,"name":"Eickeloh","admin3":"03358"},{"geonameid":2931988,"name":"Eickhorst","admin3":"03151"},{"geonameid":2931985,"name":"Eicklingen","admin3":"03351"},{"geonameid":2931828,"name":"Eime","admin3":"03254"},{"geonameid":2931825,"name":"Eimen","admin3":"03255"},{"geonameid":2931818,"name":"Eimke","admin3":"03360"},{"geonameid":2931804,"name":"Einbeck","admin3":"03155"},{"geonameid":2931594,"name":"Eisdorf am Harz","admin3":"03159"},{"geonameid":3208598,"name":"Elbe","admin3":"03158"},{"geonameid":2931246,"name":"Elbingerode","admin3":"03159"},{"geonameid":2931210,"name":"Eldingen","admin3":"03351"},{"geonameid":2930832,"name":"Elmlohe","admin3":"03352"},{"geonameid":2930776,"name":"Elsdorf","admin3":"03357"},{"geonameid":2930726,"name":"Elsfleth","admin3":"03461"},{"geonameid":2930622,"name":"Elze","admin3":"03241"},{"geonameid":2930623,"name":"Elze","admin3":"03254"},{"geonameid":2930602,"name":"Embsen","admin3":"03355"},{"geonameid":2930596,"name":"Emden","admin3":"03402"},{"geonameid":2930546,"name":"Emlichheim","admin3":"03456"},{"geonameid":2930521,"name":"Emmendorf","admin3":"03360"},{"geonameid":2930454,"name":"Emsbüren","admin3":"03454"},{"geonameid":2930426,"name":"Emstek","admin3":"03453"},{"geonameid":2930417,"name":"Emtinghausen","admin3":"03361"},{"geonameid":2930338,"name":"Engden","admin3":"03456"},{"geonameid":2930278,"name":"Engeln","admin3":"03251"},{"geonameid":2930237,"name":"Engelschoff","admin3":"03359"},{"geonameid":2929610,"name":"Erkerode","admin3":"03158"},{"geonameid":2929131,"name":"Esche","admin3":"03456"},{"geonameid":2929122,"name":"Eschede","admin3":"03351"},{"geonameid":2929008,"name":"Eschershausen","admin3":"03255"},{"geonameid":2929009,"name":"Eschershausen","admin3":"03155"},{"geonameid":2928911,"name":"Esens","admin3":"03462"},{"geonameid":2928821,"name":"Essel","admin3":"03358"},{"geonameid":2928809,"name":"Essen","admin3":"03453"},{"geonameid":2928717,"name":"Esterwegen","admin3":"03454"},{"geonameid":2928711,"name":"Estorf","admin3":"03359"},{"geonameid":2928712,"name":"Estorf","admin3":"03256"},{"geonameid":2928344,"name":"Everode","admin3":"03254"},{"geonameid":2928325,"name":"Eversmeer","admin3":"03462"},{"geonameid":2928315,"name":"Evessen","admin3":"03158"},{"geonameid":2928261,"name":"Eydelstedt","admin3":"03251"},{"geonameid":2928258,"name":"Eyendorf","admin3":"03353"},{"geonameid":2928239,"name":"Eystrup","admin3":"03256"},{"geonameid":2927777,"name":"Farven","admin3":"03357"},{"geonameid":2927750,"name":"Faßberg","admin3":"03351"},{"geonameid":2927621,"name":"Fedderwarden","admin3":"03405"},{"geonameid":2926858,"name":"Filsum","admin3":"03457"},{"geonameid":2926667,"name":"Fintel","admin3":"03357"},{"geonameid":2926658,"name":"Firrel","admin3":"03457"},{"geonameid":2926154,"name":"Flögeln","admin3":"03352"},{"geonameid":3208599,"name":"Flöthe","admin3":"03158"},{"geonameid":2925611,"name":"Frankenfeld","admin3":"03358"},{"geonameid":2925234,"name":"Freden","admin3":"03254"},{"geonameid":2925181,"name":"Freiburg/Elbe","admin3":"03359"},{"geonameid":2925027,"name":"Freistatt","admin3":"03251"},{"geonameid":2925003,"name":"Frellstedt","admin3":"03154"},{"geonameid":2925001,"name":"Frelsdorf","admin3":"03352"},{"geonameid":2924967,"name":"Freren","admin3":"03454"},{"geonameid":2924958,"name":"Fresenburg","admin3":"03454"},{"geonameid":2924788,"name":"Friedeburg","admin3":"03462"},{"geonameid":9972705,"name":"Friedland","admin3":"03159"},{"geonameid":2924360,"name":"Friesoythe","admin3":"03453"},{"geonameid":2923658,"name":"Fürstenau","admin3":"03459"},{"geonameid":2923659,"name":"Fürstenau","admin3":"03157"},{"geonameid":2923638,"name":"Fürstenberg","admin3":"03255"},{"geonameid":2922731,"name":"Ganderkesee","admin3":"03458"},{"geonameid":2922728,"name":"Gandesbergen","admin3":"03256"},{"geonameid":2922586,"name":"Garbsen","admin3":"03241"},{"geonameid":7732633,"name":"Garbsen-Mitte","admin3":"03241"},{"geonameid":2922539,"name":"Garlstorf","admin3":"03353"},{"geonameid":2922511,"name":"Garrel","admin3":"03453"},{"geonameid":2922484,"name":"Garstedt","admin3":"03353"},{"geonameid":12110957,"name":"Gartenstadt","admin3":"03101"},{"geonameid":2922438,"name":"Gartow","admin3":"03354"},{"geonameid":2922112,"name":"Geeste","admin3":"03454"},{"geonameid":2922012,"name":"Gehrde","admin3":"03459"},{"geonameid":2922008,"name":"Gehrden","admin3":"03241"},{"geonameid":2921571,"name":"Geitelde","admin3":"03101"},{"geonameid":2924681,"name":"Gemeinde Friedland","admin3":"03159"},{"geonameid":2921252,"name":"Georgsdorf","admin3":"03456"},{"geonameid":2921242,"name":"Georgsmarienhütte","admin3":"03459"},{"geonameid":2921162,"name":"Gerdau","admin3":"03360"},{"geonameid":2920914,"name":"Gersten","admin3":"03454"},{"geonameid":2920786,"name":"Getelo","admin3":"03456"},{"geonameid":2920747,"name":"Gevensleben","admin3":"03154"},{"geonameid":2920744,"name":"Geversdorf","admin3":"03352"},{"geonameid":2920645,"name":"Gieboldehausen","admin3":"03159"},{"geonameid":2920632,"name":"Gielde","admin3":"03158"},{"geonameid":3206402,"name":"Giesen","admin3":"03254"},{"geonameid":2920478,"name":"Gifhorn","admin3":"03151"},{"geonameid":2920386,"name":"Gilten","admin3":"03358"},{"geonameid":2920268,"name":"Gittelde","admin3":"03159"},{"geonameid":2920205,"name":"Glandorf","admin3":"03459"},{"geonameid":2919896,"name":"Gliesmarode","admin3":"03101"},{"geonameid":2919692,"name":"Gnarrenburg","admin3":"03357"},{"geonameid":2919569,"name":"Gödenstorf","admin3":"03353"},{"geonameid":2919310,"name":"Goldenstedt","admin3":"03460"},{"geonameid":2919270,"name":"Gölenkamp","admin3":"03456"},{"geonameid":2919197,"name":"Golmbach","admin3":"03255"},{"geonameid":2918989,"name":"Gorleben","admin3":"03354"},{"geonameid":2918840,"name":"Goslar","admin3":"03153"},{"geonameid":2918632,"name":"Göttingen","admin3":"03159"},{"geonameid":2918253,"name":"Grafhorst","admin3":"03154"},{"geonameid":2918041,"name":"Grasberg","admin3":"03356"},{"geonameid":2917991,"name":"Grasleben","admin3":"03154"},{"geonameid":2917596,"name":"Grethem","admin3":"03358"},{"geonameid":2917139,"name":"Gronau","admin3":"03254"},{"geonameid":2916974,"name":"Groß Berßen","admin3":"03454"},{"geonameid":2915459,"name":"Groß Ippener","admin3":"03458"},{"geonameid":2915283,"name":"Groß Meckelsen","admin3":"03357"},{"geonameid":2915241,"name":"Groß Munzel","admin3":"03241"},{"geonameid":2915212,"name":"Groß Oesingen","admin3":"03151"},{"geonameid":2914932,"name":"Groß Twülpstedt","admin3":"03154"},{"geonameid":2916611,"name":"Großenkneten","admin3":"03458"},{"geonameid":2916567,"name":"Großenwörden","admin3":"03359"},{"geonameid":2915592,"name":"Großgoltern","admin3":"03241"},{"geonameid":2914263,"name":"Grünendeich","admin3":"03359"},{"geonameid":2913888,"name":"Guderhandviertel","admin3":"03359"},{"geonameid":2913280,"name":"Gyhum","admin3":"03357"},{"geonameid":2912811,"name":"Hademstorf","admin3":"03358"},{"geonameid":12110942,"name":"Hafen","admin3":"03101"},{"geonameid":2912681,"name":"Hage","admin3":"03452"},{"geonameid":2912618,"name":"Hagen","admin3":"03459"},{"geonameid":2912496,"name":"Hagen im Bremischen","admin3":"03352"},{"geonameid":2912534,"name":"Hagenburg","admin3":"03257"},{"geonameid":2912448,"name":"Hagermarsch","admin3":"03452"},{"geonameid":2912392,"name":"Hahausen","admin3":"03153"},{"geonameid":2911683,"name":"Halbemond","admin3":"03452"},{"geonameid":2911519,"name":"Halle","admin3":"03256"},{"geonameid":2911521,"name":"Halle","admin3":"03255"},{"geonameid":2911379,"name":"Halvesbostel","admin3":"03353"},{"geonameid":2911322,"name":"Hambergen","admin3":"03356"},{"geonameid":2911300,"name":"Hambühren","admin3":"03351"},{"geonameid":2911275,"name":"Hämelhausen","admin3":"03256"},{"geonameid":2911271,"name":"Hameln","admin3":"03252"},{"geonameid":2911260,"name":"Hamersen","admin3":"03357"},{"geonameid":2911230,"name":"Hammah","admin3":"03359"},{"geonameid":2910992,"name":"Handeloh","admin3":"03353"},{"geonameid":2910973,"name":"Handorf","admin3":"03355"},{"geonameid":2910971,"name":"Handrup","admin3":"03454"},{"geonameid":2910875,"name":"Hänigsen","admin3":"03241"},{"geonameid":2910863,"name":"Hankensbüttel","admin3":"03151"},{"geonameid":2910831,"name":"Hannover","admin3":"03241"},{"geonameid":2867613,"name":"Hannoversch Münden","admin3":"03159"},{"geonameid":2910762,"name":"Hanstedt","admin3":"03353"},{"geonameid":2910760,"name":"Hanstedt Eins","admin3":"03360"},{"geonameid":2910709,"name":"Harbarnsen","admin3":"03254"},{"geonameid":2910663,"name":"Hardegsen","admin3":"03155"},{"geonameid":7668889,"name":"Hardesse","admin3":"03151"},{"geonameid":2910514,"name":"Haren","admin3":"03454"},{"geonameid":2910384,"name":"Harmstorf","admin3":"03353"},{"geonameid":2910344,"name":"Harpstedt","admin3":"03458"},{"geonameid":2910280,"name":"Harsefeld","admin3":"03359"},{"geonameid":2910269,"name":"Harsum","admin3":"03254"},{"geonameid":2909973,"name":"Harvesse","admin3":"03157"},{"geonameid":2909970,"name":"Harxbüttel","admin3":"03101"},{"geonameid":2909915,"name":"Hasbergen","admin3":"03459"},{"geonameid":2909761,"name":"Haselünne","admin3":"03454"},{"geonameid":2909460,"name":"Haßbergen","admin3":"03256"},{"geonameid":2909444,"name":"Hassel","admin3":"03251"},{"geonameid":2909350,"name":"Hassendorf","admin3":"03357"},{"geonameid":2909296,"name":"Haste","admin3":"03257"},{"geonameid":2909268,"name":"Hatten","admin3":"03458"},{"geonameid":2909226,"name":"Hattorf","admin3":"03159"},{"geonameid":12110940,"name":"Hauptbahnhof","admin3":"03101"},{"geonameid":12110930,"name":"Hauptfriedhof","admin3":"03101"},{"geonameid":3206408,"name":"Häuslingen","admin3":"03358"},{"geonameid":2908614,"name":"Haverlah","admin3":"03254"},{"geonameid":2908486,"name":"Hechthausen","admin3":"03352"},{"geonameid":2908379,"name":"Hedeper","admin3":"03158"},{"geonameid":2908350,"name":"Heede","admin3":"03454"},{"geonameid":2908324,"name":"Heemsen","admin3":"03256"},{"geonameid":3208605,"name":"Heere","admin3":"03158"},{"geonameid":2908292,"name":"Heerstedt","admin3":"03352"},{"geonameid":2908273,"name":"Heeslingen","admin3":"03357"},{"geonameid":2908268,"name":"Heeßen","admin3":"03257"},{"geonameid":2908165,"name":"Hehlen","admin3":"03255"},{"geonameid":11611204,"name":"Heidberg","admin3":"03101"},{"geonameid":2907886,"name":"Heidenau","admin3":"03353"},{"geonameid":2907349,"name":"Heinade","admin3":"03255"},{"geonameid":2907343,"name":"Heinbockel","admin3":"03359"},{"geonameid":2907278,"name":"Heiningen","admin3":"03158"},{"geonameid":2907195,"name":"Heinsen","admin3":"03254"},{"geonameid":2906759,"name":"Hellwege","admin3":"03357"},{"geonameid":2906676,"name":"Helmstedt","admin3":"03154"},{"geonameid":2906660,"name":"Helpsen","admin3":"03257"},{"geonameid":2906629,"name":"Helvesiek","admin3":"03357"},{"geonameid":2906530,"name":"Hemmingen","admin3":"03241"},{"geonameid":2906524,"name":"Hemmoor","admin3":"03352"},{"geonameid":2906510,"name":"Hemsbünde","admin3":"03357"},{"geonameid":2906500,"name":"Hemslingen","admin3":"03357"},{"geonameid":2906499,"name":"Hemsloh","admin3":"03251"},{"geonameid":2906256,"name":"Hepstedt","admin3":"03357"},{"geonameid":2906015,"name":"Hermannsburg","admin3":"03351"},{"geonameid":2905991,"name":"Herrmannshöhe","admin3":"03101"},{"geonameid":2905496,"name":"Herzberg am Harz","admin3":"03159"},{"geonameid":2905466,"name":"Herzlake","admin3":"03454"},{"geonameid":2905421,"name":"Hesel","admin3":"03457"},{"geonameid":2905394,"name":"Hespe","admin3":"03257"},{"geonameid":2905290,"name":"Hessisch Oldendorf","admin3":"03252"},{"geonameid":2905044,"name":"Heuerßen","admin3":"03257"},{"geonameid":2904915,"name":"Heyen","admin3":"03255"},{"geonameid":2904906,"name":"Heyersum","admin3":"03254"},{"geonameid":2904789,"name":"Hildesheim","admin3":"03254"},{"geonameid":2904748,"name":"Hilgermissen","admin3":"03256"},{"geonameid":2904735,"name":"Hilkenbrook","admin3":"03454"},{"geonameid":2904698,"name":"Hillerse","admin3":"03155"},{"geonameid":2904607,"name":"Hilter","admin3":"03459"},{"geonameid":2904574,"name":"Himbergen","admin3":"03360"},{"geonameid":2904543,"name":"Himmelpforten","admin3":"03359"},{"geonameid":2904397,"name":"Hinte","admin3":"03452"},{"geonameid":2903841,"name":"Hipstedt","admin3":"03357"},{"geonameid":2903480,"name":"Hittbergen","admin3":"03355"},{"geonameid":2903470,"name":"Hitzacker","admin3":"03354"},{"geonameid":2902818,"name":"Hodenhagen","admin3":"03358"},{"geonameid":2902618,"name":"Höfer","admin3":"03351"},{"geonameid":2901731,"name":"Hohenhameln","admin3":"03157"},{"geonameid":12110949,"name":"Hohetor","admin3":"03101"},{"geonameid":2900865,"name":"Hohnhorst","admin3":"03257"},{"geonameid":2900740,"name":"Holdorf","admin3":"03460"},{"geonameid":2900623,"name":"Holle","admin3":"03254"},{"geonameid":2900595,"name":"Hollen","admin3":"03352"},{"geonameid":2900520,"name":"Hollenstedt","admin3":"03353"},{"geonameid":2900391,"name":"Hollnseth","admin3":"03352"},{"geonameid":2900105,"name":"Holtland","admin3":"03457"},{"geonameid":2899913,"name":"Holzen","admin3":"03255"},{"geonameid":2899601,"name":"Holzminden","admin3":"03255"},{"geonameid":2899396,"name":"Hondelage","admin3":"03101"},{"geonameid":2899291,"name":"Hoogstede","admin3":"03456"},{"geonameid":2899066,"name":"Hörden","admin3":"03159"},{"geonameid":2898863,"name":"Hornburg","admin3":"03158"},{"geonameid":2898847,"name":"Horneburg","admin3":"03359"},{"geonameid":2898608,"name":"Horstedt","admin3":"03357"},{"geonameid":2898316,"name":"Hoya","admin3":"03256"},{"geonameid":2898312,"name":"Hoyerhagen","admin3":"03256"},{"geonameid":2898308,"name":"Hoyershausen","admin3":"03254"},{"geonameid":2898079,"name":"Hude","admin3":"03458"},{"geonameid":2898081,"name":"Hüde","admin3":"03251"},{"geonameid":2897800,"name":"Hülsede","admin3":"03257"},{"geonameid":2897136,"name":"Husum","admin3":"03256"},{"geonameid":2896852,"name":"Hüven","admin3":"03454"},{"geonameid":2896648,"name":"Ihlienworth","admin3":"03352"},{"geonameid":3208606,"name":"Ilsede","admin3":"03157"},{"geonameid":2896023,"name":"Ingeleben","admin3":"03154"},{"geonameid":2895688,"name":"Isenbüttel","admin3":"03151"},{"geonameid":2895664,"name":"Isernhagen Farster Bauerschaft","admin3":"03241"},{"geonameid":3208432,"name":"Isterberg","admin3":"03456"},{"geonameid":2895582,"name":"Itterbeck","admin3":"03456"},{"geonameid":2895226,"name":"Jameln","admin3":"03354"},{"geonameid":2895056,"name":"Jelmstorf","admin3":"03360"},{"geonameid":2895053,"name":"Jembke","admin3":"03151"},{"geonameid":2895051,"name":"Jemgum","admin3":"03457"},{"geonameid":2894988,"name":"Jerxheim","admin3":"03154"},{"geonameid":2894945,"name":"Jesteburg","admin3":"03353"},{"geonameid":2894897,"name":"Jever","admin3":"03455"},{"geonameid":2894702,"name":"Jork","admin3":"03359"},{"geonameid":2894576,"name":"Jühnde","admin3":"03159"},{"geonameid":2894569,"name":"Juist","admin3":"03452"},{"geonameid":2893954,"name":"Kakenstorf","admin3":"03353"},{"geonameid":2893938,"name":"Kalbe","admin3":"03357"},{"geonameid":2893868,"name":"Kalefeld","admin3":"03155"},{"geonameid":3208608,"name":"Kanzlerfeld","admin3":"03101"},{"geonameid":2892612,"name":"Karwitz","admin3":"03354"},{"geonameid":3207077,"name":"Katlenburg-Lindau","admin3":"03155"},{"geonameid":2891310,"name":"Kettenkamp","admin3":"03459"},{"geonameid":2890635,"name":"Kirchbrak","admin3":"03255"},{"geonameid":2890609,"name":"Kirchdorf","admin3":"03251"},{"geonameid":2890511,"name":"Kirchgellersen","admin3":"03355"},{"geonameid":2890420,"name":"Kirchlinteln","admin3":"03361"},{"geonameid":2890382,"name":"Kirchseelte","admin3":"03458"},{"geonameid":2890353,"name":"Kirchtimke","admin3":"03357"},{"geonameid":2890344,"name":"Kirchwalsede","admin3":"03357"},{"geonameid":2890330,"name":"Kirchwistedt","admin3":"03352"},{"geonameid":2890204,"name":"Kissenbrück","admin3":"03158"},{"geonameid":2889729,"name":"Klein Berßen","admin3":"03454"},{"geonameid":2888812,"name":"Klein Gusborn","admin3":"03354"},{"geonameid":2888511,"name":"Klein Meckelsen","admin3":"03357"},{"geonameid":2888222,"name":"Klein Schwülper","admin3":"03151"},{"geonameid":2887315,"name":"Kluse","admin3":"03454"},{"geonameid":2887207,"name":"Kneitlingen","admin3":"03158"},{"geonameid":2886705,"name":"Köhlen","admin3":"03352"},{"geonameid":2885800,"name":"Königslutter am Elm","admin3":"03154"},{"geonameid":2885797,"name":"Königsmoor","admin3":"03353"},{"geonameid":2884845,"name":"Kralenriede","admin3":"03101"},{"geonameid":2884778,"name":"Kranenburg","admin3":"03359"},{"geonameid":2884597,"name":"Krebeck","admin3":"03159"},{"geonameid":2884482,"name":"Kreiensen","admin3":"03155"},{"geonameid":2883329,"name":"Krummendeich","admin3":"03359"},{"geonameid":2882681,"name":"Kührstedt","admin3":"03352"},{"geonameid":2882243,"name":"Küsten","admin3":"03354"},{"geonameid":2882224,"name":"Kutenholz","admin3":"03359"},{"geonameid":2882115,"name":"Laar","admin3":"03459"},{"geonameid":2882087,"name":"Laatzen","admin3":"03241"},{"geonameid":2882028,"name":"Lachendorf","admin3":"03351"},{"geonameid":2881921,"name":"Lähden","admin3":"03454"},{"geonameid":2881910,"name":"Lahn","admin3":"03454"},{"geonameid":2881749,"name":"Lamme","admin3":"03101"},{"geonameid":2881661,"name":"Lamspringe","admin3":"03254"},{"geonameid":2881659,"name":"Lamstedt","admin3":"03352"},{"geonameid":2881599,"name":"Landesbergen","admin3":"03256"},{"geonameid":2881526,"name":"Landolfshausen","admin3":"03159"},{"geonameid":2881291,"name":"Langelsheim","admin3":"03153"},{"geonameid":2881276,"name":"Langen","admin3":"03352"},{"geonameid":2881278,"name":"Langen","admin3":"03454"},{"geonameid":2881106,"name":"Langendorf","admin3":"03354"},{"geonameid":2881062,"name":"Langenhagen","admin3":"03241"},{"geonameid":2880861,"name":"Langeoog","admin3":"03462"},{"geonameid":2880613,"name":"Langlingen","admin3":"03351"},{"geonameid":2880547,"name":"Langwedel","admin3":"03361"},{"geonameid":2880357,"name":"Lastrup","admin3":"03453"},{"geonameid":2880351,"name":"Lathen","admin3":"03454"},{"geonameid":2880189,"name":"Lauenau","admin3":"03257"},{"geonameid":2880184,"name":"Lauenbrück","admin3":"03357"},{"geonameid":2880176,"name":"Lauenhagen","admin3":"03257"},{"geonameid":2879697,"name":"Leer","admin3":"03457"},{"geonameid":2879685,"name":"Leese","admin3":"03256"},{"geonameid":2879668,"name":"Leezdorf","admin3":"03452"},{"geonameid":2879621,"name":"Lehe","admin3":"03454"},{"geonameid":2879434,"name":"Lehndorf","admin3":"03101"},{"geonameid":2879378,"name":"Lehre","admin3":"03154"},{"geonameid":2879367,"name":"Lehrte","admin3":"03241"},{"geonameid":2879276,"name":"Leiferde","admin3":"03101"},{"geonameid":2878946,"name":"Lembruch","admin3":"03251"},{"geonameid":2878944,"name":"Lemförde","admin3":"03251"},{"geonameid":2878912,"name":"Lemwerder","admin3":"03461"},{"geonameid":2878879,"name":"Lengede","admin3":"03157"},{"geonameid":2878863,"name":"Lengenbostel","admin3":"03357"},{"geonameid":2878838,"name":"Lengerich","admin3":"03454"},{"geonameid":2878795,"name":"Lenne","admin3":"03255"},{"geonameid":2877979,"name":"Liebenau","admin3":"03256"},{"geonameid":2877969,"name":"Liebenburg","admin3":"03153"},{"geonameid":2877709,"name":"Lilienthal","admin3":"03356"},{"geonameid":2877335,"name":"Lindenberg","admin3":"03101"},{"geonameid":2877171,"name":"Lindhorst","admin3":"03257"},{"geonameid":2877104,"name":"Lindwedel","admin3":"03358"},{"geonameid":2877088,"name":"Lingen","admin3":"03454"},{"geonameid":2877011,"name":"Linsburg","admin3":"03256"},{"geonameid":2876963,"name":"Lintig","admin3":"03352"},{"geonameid":2876185,"name":"Lohne","admin3":"03460"},{"geonameid":2876186,"name":"Lohne","admin3":"03456"},{"geonameid":2875987,"name":"Löningen","admin3":"03453"},{"geonameid":2875870,"name":"Lorup","admin3":"03454"},{"geonameid":2875645,"name":"Loxstedt","admin3":"03352"},{"geonameid":2875608,"name":"Lübberstedt","admin3":"03356"},{"geonameid":2875603,"name":"Lübbow","admin3":"03354"},{"geonameid":2875542,"name":"Lüchow","admin3":"03354"},{"geonameid":2875508,"name":"Luckau","admin3":"03354"},{"geonameid":2875456,"name":"Lüder","admin3":"03360"},{"geonameid":2875438,"name":"Lüdersburg","admin3":"03355"},{"geonameid":2875427,"name":"Lüdersfeld","admin3":"03257"},{"geonameid":2875314,"name":"Lüerdissen","admin3":"03255"},{"geonameid":2875250,"name":"Luhden","admin3":"03257"},{"geonameid":2875115,"name":"Lüneburg","admin3":"03355"},{"geonameid":2875102,"name":"Lunestedt","admin3":"03352"},{"geonameid":3208438,"name":"Lünne","admin3":"03454"},{"geonameid":2874955,"name":"Lütetsburg","admin3":"03452"},{"geonameid":2874832,"name":"Lutter am Barenberge","admin3":"03153"},{"geonameid":2874665,"name":"Maasen","admin3":"03251"},{"geonameid":2873581,"name":"Marienhafe","admin3":"03452"},{"geonameid":2873578,"name":"Marienhagen","admin3":"03254"},{"geonameid":2873499,"name":"Mariental","admin3":"03154"},{"geonameid":2873343,"name":"Marklohe","admin3":"03256"},{"geonameid":2873262,"name":"Marl","admin3":"03251"},{"geonameid":3209070,"name":"Marschacht","admin3":"03353"},{"geonameid":2873153,"name":"Martfeld","admin3":"03251"},{"geonameid":2873087,"name":"Marxen","admin3":"03353"},{"geonameid":2873032,"name":"Mascherode","admin3":"03101"},{"geonameid":2872602,"name":"Mechtersen","admin3":"03355"},{"geonameid":2872512,"name":"Meerbeck","admin3":"03257"},{"geonameid":2872503,"name":"Meerdorf","admin3":"03157"},{"geonameid":2872244,"name":"Meinersen","admin3":"03151"},{"geonameid":2872117,"name":"Melbeck","admin3":"03355"},{"geonameid":2872079,"name":"Melle","admin3":"03459"},{"geonameid":2872056,"name":"Mellinghausen","admin3":"03251"},{"geonameid":2872020,"name":"Melverode","admin3":"03101"},{"geonameid":2871889,"name":"Menslage","admin3":"03459"},{"geonameid":2871845,"name":"Meppen","admin3":"03454"},{"geonameid":2871690,"name":"Merzen","admin3":"03459"},{"geonameid":2871623,"name":"Messenkamp","admin3":"03257"},{"geonameid":2871613,"name":"Messingen","admin3":"03454"},{"geonameid":2871244,"name":"Midlum","admin3":"03352"},{"geonameid":2870962,"name":"Misselwarden","admin3":"03352"},{"geonameid":2870911,"name":"Mittegroßefehn","admin3":"03452"},{"geonameid":2870627,"name":"Mittelnkirchen","admin3":"03359"},{"geonameid":2870549,"name":"Mittelstenahe","admin3":"03352"},{"geonameid":2870110,"name":"Moisburg","admin3":"03353"},{"geonameid":2870094,"name":"Molbergen","admin3":"03453"},{"geonameid":2869592,"name":"Moorweg","admin3":"03462"},{"geonameid":2869257,"name":"Moringen","admin3":"03155"},{"geonameid":2869147,"name":"Morsum","admin3":"03361"},{"geonameid":2868861,"name":"Müden","admin3":"03151"},{"geonameid":2867748,"name":"Mulsum","admin3":"03352"},{"geonameid":2867542,"name":"Munster","admin3":"03358"},{"geonameid":2867146,"name":"Nahrendorf","admin3":"03355"},{"geonameid":2866981,"name":"Natendorf","admin3":"03360"},{"geonameid":12110954,"name":"Naturschutzgebiet","admin3":"03101"},{"geonameid":2866664,"name":"Negenborn","admin3":"03241"},{"geonameid":2866529,"name":"Nenndorf","admin3":"03454"},{"geonameid":2866046,"name":"Neu Darchau","admin3":"03354"},{"geonameid":2863795,"name":"Neu Wulmstorf","admin3":"03353"},{"geonameid":2866150,"name":"Neubörger","admin3":"03454"},{"geonameid":2866108,"name":"Neubrück","admin3":"03157"},{"geonameid":2865635,"name":"Neuenkirchen","admin3":"03359"},{"geonameid":2865636,"name":"Neuenkirchen","admin3":"03356"},{"geonameid":2865637,"name":"Neuenkirchen","admin3":"03358"},{"geonameid":2865638,"name":"Neuenkirchen","admin3":"03251"},{"geonameid":2865639,"name":"Neuenkirchen","admin3":"03460"},{"geonameid":2865642,"name":"Neuenkirchen","admin3":"03459"},{"geonameid":12110938,"name":"Neues Hochschulviertel","admin3":"03101"},{"geonameid":2865219,"name":"Neuharlingersiel","admin3":"03462"},{"geonameid":2865130,"name":"Neuhaus an der Oste","admin3":"03352"},{"geonameid":3208505,"name":"Neukamperfehn","admin3":"03457"},{"geonameid":2864621,"name":"Neulehe","admin3":"03454"},{"geonameid":2864058,"name":"Neustadt am Rübenberge","admin3":"03241"},{"geonameid":2863185,"name":"Niederlangen","admin3":"03454"},{"geonameid":2863031,"name":"Niedernwöhren","admin3":"03257"},{"geonameid":2862620,"name":"Nienburg","admin3":"03256"},{"geonameid":2862541,"name":"Nienstädt","admin3":"03257"},{"geonameid":12110950,"name":"Nordbahnhof","admin3":"03101"},{"geonameid":2862136,"name":"Norddeich","admin3":"03452"},{"geonameid":2862118,"name":"Norden","admin3":"03452"},{"geonameid":2862104,"name":"Nordenham","admin3":"03461"},{"geonameid":2862041,"name":"Norderney","admin3":"03452"},{"geonameid":2861939,"name":"Nordholz","admin3":"03352"},{"geonameid":2861934,"name":"Nordhorn","admin3":"03456"},{"geonameid":2861919,"name":"Nordleda","admin3":"03352"},{"geonameid":2861873,"name":"Nordsehl","admin3":"03257"},{"geonameid":2861866,"name":"Nordstemmen","admin3":"03254"},{"geonameid":2861817,"name":"Nörten-Hardenberg","admin3":"03155"},{"geonameid":2861814,"name":"Northeim","admin3":"03155"},{"geonameid":2861807,"name":"Nortmoor","admin3":"03457"},{"geonameid":2861802,"name":"Nortrup","admin3":"03459"},{"geonameid":2861743,"name":"Nottensdorf","admin3":"03359"},{"geonameid":2859983,"name":"Oberlangen","admin3":"03454"},{"geonameid":2859600,"name":"Oberndorf","admin3":"03352"},{"geonameid":2859562,"name":"Obernfeld","admin3":"03159"},{"geonameid":3208615,"name":"Obernholz","admin3":"03151"},{"geonameid":2859532,"name":"Obernkirchen","admin3":"03257"},{"geonameid":2858013,"name":"Odisheim","admin3":"03352"},{"geonameid":2858071,"name":"Oederquart","admin3":"03359"},{"geonameid":2857105,"name":"Oerel","admin3":"03357"},{"geonameid":2857619,"name":"Ohne","admin3":"03456"},{"geonameid":2857547,"name":"Ohrum","admin3":"03158"},{"geonameid":2857458,"name":"Oldenburg","admin3":"03403"},{"geonameid":2857432,"name":"Oldendorf","admin3":"03359"},{"geonameid":2857438,"name":"Oldendorf","admin3":"03355"},{"geonameid":2857299,"name":"Ölper","admin3":"03101"},{"geonameid":12110934,"name":"Ölper - Holz","admin3":"03101"},{"geonameid":2856888,"name":"Osloß","admin3":"03151"},{"geonameid":2856883,"name":"Osnabrück","admin3":"03404"},{"geonameid":2856801,"name":"Osteel","admin3":"03452"},{"geonameid":2856792,"name":"Osten","admin3":"03352"},{"geonameid":2856647,"name":"Osterbruch","admin3":"03352"},{"geonameid":2856629,"name":"Ostercappeln","admin3":"03459"},{"geonameid":2856611,"name":"Ostereistedt","admin3":"03357"},{"geonameid":2856500,"name":"Osterholz-Scharmbeck","admin3":"03356"},{"geonameid":2856213,"name":"Ostrhauderfehn","admin3":"03457"},{"geonameid":2856070,"name":"Ottenstein","admin3":"03255"},{"geonameid":2856061,"name":"Otter","admin3":"03353"},{"geonameid":2856024,"name":"Otterndorf","admin3":"03352"},{"geonameid":2856014,"name":"Ottersberg","admin3":"03361"},{"geonameid":2855881,"name":"Ovelgönne","admin3":"03461"},{"geonameid":2855794,"name":"Oyten","admin3":"03361"},{"geonameid":2855737,"name":"Padingbüttel","admin3":"03352"},{"geonameid":2855643,"name":"Palmpohl","admin3":"03453"},{"geonameid":2855525,"name":"Papenburg","admin3":"03454"},{"geonameid":12110952,"name":"Pappelberg","admin3":"03101"},{"geonameid":2855390,"name":"Parsau","admin3":"03151"},{"geonameid":2855243,"name":"Pattensen","admin3":"03241"},{"geonameid":2855066,"name":"Pegestorf","admin3":"03255"},{"geonameid":2855047,"name":"Peine","admin3":"03157"},{"geonameid":2854947,"name":"Pennigsehl","admin3":"03256"},{"geonameid":12110959,"name":"Petritor - Nord","admin3":"03101"},{"geonameid":12110943,"name":"Petritor - Ost","admin3":"03101"},{"geonameid":12110935,"name":"Petritor - West","admin3":"03101"},{"geonameid":2852978,"name":"Pohle","admin3":"03257"},{"geonameid":2852858,"name":"Polle","admin3":"03255"},{"geonameid":2852847,"name":"Pollhagen","admin3":"03257"},{"geonameid":2852135,"name":"Prezelle","admin3":"03354"},{"geonameid":12110956,"name":"Prinzenpark","admin3":"03101"},{"geonameid":2852013,"name":"Prinzhöfte","admin3":"03458"},{"geonameid":2851523,"name":"Quakenbrück","admin3":"03459"},{"geonameid":3204963,"name":"Quendorf","admin3":"03456"},{"geonameid":2851395,"name":"Querenhorst","admin3":"03154"},{"geonameid":2851381,"name":"Quernheim","admin3":"03251"},{"geonameid":12110944,"name":"Querum -  Wabenkamp","admin3":"03101"},{"geonameid":12110960,"name":"Querumer Forst","admin3":"03101"},{"geonameid":2851158,"name":"Räbke","admin3":"03154"},{"geonameid":2851100,"name":"Radbruch","admin3":"03355"},{"geonameid":2851096,"name":"Raddestorf","admin3":"03256"},{"geonameid":2850254,"name":"Rastdorf","admin3":"03454"},{"geonameid":2850253,"name":"Rastede","admin3":"03451"},{"geonameid":2850104,"name":"Rätzlingen","admin3":"03360"},{"geonameid":2849825,"name":"Rautheim","admin3":"03101"},{"geonameid":2849694,"name":"Rechtsupweg","admin3":"03452"},{"geonameid":2849528,"name":"Reeßum","admin3":"03357"},{"geonameid":2849467,"name":"Regesbostel","admin3":"03353"},{"geonameid":2849371,"name":"Rehburg-Loccum","admin3":"03256"},{"geonameid":2849369,"name":"Rehden","admin3":"03251"},{"geonameid":2849296,"name":"Rehlingen","admin3":"03355"},{"geonameid":2848689,"name":"Reinstorf","admin3":"03355"},{"geonameid":2848308,"name":"Remlingen","admin3":"03158"},{"geonameid":2848207,"name":"Renkenberge","admin3":"03454"},{"geonameid":2848203,"name":"Rennau","admin3":"03154"},{"geonameid":2848110,"name":"Reppenstedt","admin3":"03355"},{"geonameid":2848051,"name":"Rethem","admin3":"03358"},{"geonameid":2848048,"name":"Rethen","admin3":"03151"},{"geonameid":2847708,"name":"Rhade","admin3":"03357"},{"geonameid":2847688,"name":"Rhede","admin3":"03454"},{"geonameid":2847686,"name":"Rheden","admin3":"03254"},{"geonameid":2847547,"name":"Rhumspringe","admin3":"03159"},{"geonameid":2847529,"name":"Ribbesbüttel","admin3":"03151"},{"geonameid":2847423,"name":"Riddagshausen","admin3":"03101"},{"geonameid":2847271,"name":"Riede","admin3":"03361"},{"geonameid":2846853,"name":"Rieste","admin3":"03459"},{"geonameid":2846582,"name":"Ringstedt","admin3":"03352"},{"geonameid":2846523,"name":"Rinteln","admin3":"03257"},{"geonameid":2846398,"name":"Ritterhude","admin3":"03356"},{"geonameid":2846040,"name":"Rodenberg","admin3":"03257"},{"geonameid":2845540,"name":"Rohrsen","admin3":"03256"},{"geonameid":2845466,"name":"Roklum","admin3":"03158"},{"geonameid":2845389,"name":"Rollshausen","admin3":"03159"},{"geonameid":2845264,"name":"Römstedt","admin3":"03360"},{"geonameid":2845222,"name":"Ronnenberg","admin3":"03241"},{"geonameid":2845146,"name":"Rosche","admin3":"03360"},{"geonameid":2845131,"name":"Rosdorf","admin3":"03159"},{"geonameid":2844437,"name":"Rotenburg","admin3":"03357"},{"geonameid":2844274,"name":"Rötgesbüttel","admin3":"03151"},{"geonameid":12110948,"name":"Rothenburg","admin3":"03101"},{"geonameid":11073051,"name":"Rothenfelde","admin3":"03103"},{"geonameid":2843404,"name":"Rüdershausen","admin3":"03159"},{"geonameid":2843272,"name":"Rühen","admin3":"03151"},{"geonameid":12110933,"name":"Rühme - Lincolnsdlg.","admin3":"03101"},{"geonameid":12110961,"name":"Rühme - Vorwerksdlg.","admin3":"03101"},{"geonameid":12110936,"name":"Rühme - West","admin3":"03101"},{"geonameid":2843148,"name":"Rullstorf","admin3":"03355"},{"geonameid":2843043,"name":"Rüningen","admin3":"03101"},{"geonameid":2843020,"name":"Rüper","admin3":"03157"},{"geonameid":2842531,"name":"Sachsenhagen","admin3":"03257"},{"geonameid":2842175,"name":"Salzbergen","admin3":"03454"},{"geonameid":2842150,"name":"Salzgitter","admin3":"03102"},{"geonameid":2842144,"name":"Salzhausen","admin3":"03353"},{"geonameid":2842143,"name":"Salzhemmendorf","admin3":"03252"},{"geonameid":2842082,"name":"Samern","admin3":"03456"},{"geonameid":2841910,"name":"Sandbostel","admin3":"03357"},{"geonameid":2841895,"name":"Sande","admin3":"03455"},{"geonameid":2841731,"name":"Sandstedt","admin3":"03352"},{"geonameid":2841672,"name":"Sankt Andreasberg","admin3":"03153"},{"geonameid":2841386,"name":"Sarstedt","admin3":"03254"},{"geonameid":3208618,"name":"Sassenburg","admin3":"03151"},{"geonameid":2841204,"name":"Sauensiek","admin3":"03359"},{"geonameid":2840419,"name":"Schapen","admin3":"03454"},{"geonameid":2840420,"name":"Schapen","admin3":"03101"},{"geonameid":2840297,"name":"Scharnebeck","admin3":"03355"},{"geonameid":2840288,"name":"Scharnhorst","admin3":"03361"},{"geonameid":3207220,"name":"Scheden","admin3":"03159"},{"geonameid":2840070,"name":"Scheeßel","admin3":"03357"},{"geonameid":2839819,"name":"Schellerten","admin3":"03254"},{"geonameid":2839345,"name":"Schiffdorf","admin3":"03352"},{"geonameid":2839229,"name":"Schillig","admin3":"03455"},{"geonameid":2839010,"name":"Schladen","admin3":"03158"},{"geonameid":2837601,"name":"Schnackenburg","admin3":"03354"},{"geonameid":2837441,"name":"Schnega","admin3":"03354"},{"geonameid":2837291,"name":"Schneverdingen","admin3":"03358"},{"geonameid":2837181,"name":"Scholen","admin3":"03251"},{"geonameid":2836675,"name":"Schönewörde","admin3":"03151"},{"geonameid":2836543,"name":"Schöningen","admin3":"03154"},{"geonameid":2836396,"name":"Schöppenstedt","admin3":"03158"},{"geonameid":2836282,"name":"Schortens","admin3":"03455"},{"geonameid":12110929,"name":"Schuntersdlg - West","admin3":"03101"},{"geonameid":2835587,"name":"Schüttorf","admin3":"03456"},{"geonameid":2835454,"name":"Schwaförden","admin3":"03251"},{"geonameid":2835260,"name":"Schwanewede","admin3":"03356"},{"geonameid":2835223,"name":"Schwarme","admin3":"03251"},{"geonameid":2835220,"name":"Schwarmstedt","admin3":"03358"},{"geonameid":12110955,"name":"Schwarzer Berg","admin3":"03101"},{"geonameid":2834275,"name":"Schweringen","admin3":"03256"},{"geonameid":2834271,"name":"Schwerinsdorf","admin3":"03457"},{"geonameid":3208619,"name":"Schwienau","admin3":"03360"},{"geonameid":2834124,"name":"Schwüblingsen","admin3":"03241"},{"geonameid":2833903,"name":"Seeburg","admin3":"03159"},{"geonameid":2833884,"name":"Seedorf","admin3":"03357"},{"geonameid":2833641,"name":"Seelze","admin3":"03241"},{"geonameid":2833592,"name":"Seesen","admin3":"03153"},{"geonameid":2833564,"name":"Seevetal","admin3":"03353"},{"geonameid":2833521,"name":"Seggebruch","admin3":"03257"},{"geonameid":2833495,"name":"Sehlde","admin3":"03158"},{"geonameid":2833491,"name":"Sehlem","admin3":"03254"},{"geonameid":2833475,"name":"Sehnde","admin3":"03241"},{"geonameid":2833154,"name":"Selsingen","admin3":"03357"},{"geonameid":2833099,"name":"Semmenstedt","admin3":"03158"},{"geonameid":2832867,"name":"Seulingen","admin3":"03159"},{"geonameid":2832819,"name":"Sibbesse","admin3":"03254"},{"geonameid":3208620,"name":"Sickte","admin3":"03158"},{"geonameid":2832597,"name":"Siedenburg","admin3":"03251"},{"geonameid":2832558,"name":"Siedlung Mastbruch","admin3":"03101"},{"geonameid":12110937,"name":"Siegfriedviertel","admin3":"03101"},{"geonameid":2832078,"name":"Sillenstede","admin3":"03455"},{"geonameid":2831802,"name":"Sittensen","admin3":"03357"},{"geonameid":2831715,"name":"Soderstorf","admin3":"03355"},{"geonameid":2831699,"name":"Sögel","admin3":"03454"},{"geonameid":2831671,"name":"Söhlde","admin3":"03254"},{"geonameid":2831515,"name":"Söllingen","admin3":"03154"},{"geonameid":2831486,"name":"Soltau","admin3":"03358"},{"geonameid":2831479,"name":"Soltendieck","admin3":"03360"},{"geonameid":2830880,"name":"Sottrum","admin3":"03357"},{"geonameid":2830652,"name":"Spelle","admin3":"03454"},{"geonameid":2830534,"name":"Spiekeroog","admin3":"03462"},{"geonameid":2830121,"name":"Sprakensehl","admin3":"03151"},{"geonameid":2830035,"name":"Springe","admin3":"03241"},{"geonameid":2829901,"name":"Stade","admin3":"03359"},{"geonameid":2829858,"name":"Stadensen","admin3":"03360"},{"geonameid":2829777,"name":"Stadthagen","admin3":"03257"},{"geonameid":12110953,"name":"Stadtkern","admin3":"03101"},{"geonameid":2829753,"name":"Stadtoldendorf","admin3":"03255"},{"geonameid":2829698,"name":"Staffhorst","admin3":"03251"},{"geonameid":2829218,"name":"Stedesdorf","admin3":"03462"},{"geonameid":2828993,"name":"Steimbke","admin3":"03256"},{"geonameid":2828873,"name":"Steinau","admin3":"03352"},{"geonameid":2828136,"name":"Steinfeld","admin3":"03460"},{"geonameid":2827951,"name":"Steinhorst","admin3":"03151"},{"geonameid":2827862,"name":"Steinkirchen","admin3":"03359"},{"geonameid":2827574,"name":"Stelle","admin3":"03353"},{"geonameid":2827501,"name":"Stemmen","admin3":"03357"},{"geonameid":2827481,"name":"Stemshorn","admin3":"03251"},{"geonameid":2827166,"name":"Steyerberg","admin3":"03256"},{"geonameid":2827135,"name":"Stiddien","admin3":"03101"},{"geonameid":2826986,"name":"Stinstedt","admin3":"03352"},{"geonameid":2826749,"name":"Stöckheim","admin3":"03101"},{"geonameid":2826681,"name":"Stöckse","admin3":"03256"},{"geonameid":2826636,"name":"Stoetze","admin3":"03360"},{"geonameid":2826503,"name":"Stolzenau","admin3":"03256"},{"geonameid":2825422,"name":"Stuhr","admin3":"03251"},{"geonameid":2825225,"name":"Suddendorf","admin3":"03456"},{"geonameid":2825180,"name":"Suderburg","admin3":"03360"},{"geonameid":2825148,"name":"Südergellersen","admin3":"03355"},{"geonameid":11608790,"name":"Südstadt","admin3":"03101"},{"geonameid":2824967,"name":"Sudwalde","admin3":"03251"},{"geonameid":2824940,"name":"Suhlendorf","admin3":"03360"},{"geonameid":2824902,"name":"Sulingen","admin3":"03251"},{"geonameid":2824603,"name":"Süpplingen","admin3":"03154"},{"geonameid":2824602,"name":"Süpplingenburg","admin3":"03154"},{"geonameid":2824572,"name":"Surwold","admin3":"03454"},{"geonameid":2824525,"name":"Süstedt","admin3":"03251"},{"geonameid":2824522,"name":"Sustrum","admin3":"03454"},{"geonameid":2824461,"name":"Syke","admin3":"03251"},{"geonameid":2824000,"name":"Tappenbeck","admin3":"03151"},{"geonameid":2823989,"name":"Tarmstedt","admin3":"03357"},{"geonameid":2823426,"name":"Tespe","admin3":"03353"},{"geonameid":2822930,"name":"Thedinghausen","admin3":"03361"},{"geonameid":2822703,"name":"Thomasburg","admin3":"03355"},{"geonameid":2822607,"name":"Thuine","admin3":"03454"},{"geonameid":2822570,"name":"Thune","admin3":"03101"},{"geonameid":2822471,"name":"Tiddische","admin3":"03151"},{"geonameid":2822151,"name":"Timmerlah","admin3":"03101"},{"geonameid":2822087,"name":"Tiste","admin3":"03357"},{"geonameid":2821843,"name":"Toppenstedt","admin3":"03353"},{"geonameid":2821736,"name":"Tostedt","admin3":"03353"},{"geonameid":2821734,"name":"Tosterglope","admin3":"03355"},{"geonameid":2914935,"name":"Trebel","admin3":"03354"},{"geonameid":2820823,"name":"Tülau","admin3":"03151"},{"geonameid":2820665,"name":"Twieflingen","admin3":"03154"},{"geonameid":2820643,"name":"Twistringen","admin3":"03251"},{"geonameid":2820537,"name":"Uchte","admin3":"03256"},{"geonameid":2820322,"name":"Uehrde","admin3":"03158"},{"geonameid":2820458,"name":"Uelsen","admin3":"03456"},{"geonameid":2820456,"name":"Uelzen","admin3":"03360"},{"geonameid":2820436,"name":"Uetze","admin3":"03241"},{"geonameid":2820172,"name":"Ummern","admin3":"03151"},{"geonameid":2820151,"name":"Undeloh","admin3":"03353"},{"geonameid":2819117,"name":"Unterlüß","admin3":"03351"},{"geonameid":2818297,"name":"Upgant-Schott","admin3":"03452"},{"geonameid":2818094,"name":"Uslar","admin3":"03155"},{"geonameid":2818080,"name":"Utarp","admin3":"03462"},{"geonameid":2818059,"name":"Uthlede","admin3":"03352"},{"geonameid":3208627,"name":"Vahlberg","admin3":"03158"},{"geonameid":2817951,"name":"Vahlbruch","admin3":"03255"},{"geonameid":2817950,"name":"Vahlde","admin3":"03357"},{"geonameid":2817873,"name":"Varel","admin3":"03455"},{"geonameid":2817841,"name":"Varrel","admin3":"03251"},{"geonameid":2817823,"name":"Vastorf","admin3":"03355"},{"geonameid":2817813,"name":"Vechelde","admin3":"03157"},{"geonameid":2817812,"name":"Vechta","admin3":"03460"},{"geonameid":2817679,"name":"Velpke","admin3":"03154"},{"geonameid":2817673,"name":"Veltenhof","admin3":"03101"},{"geonameid":2817668,"name":"Veltheim","admin3":"03158"},{"geonameid":2817599,"name":"Verden","admin3":"03361"},{"geonameid":2817394,"name":"Vienenburg","admin3":"03153"},{"geonameid":2817376,"name":"Vierden","admin3":"03357"},{"geonameid":2817346,"name":"Vierhöfen","admin3":"03353"},{"geonameid":12110958,"name":"Viewegs Garten","admin3":"03101"},{"geonameid":2817139,"name":"Visbek","admin3":"03460"},{"geonameid":2817130,"name":"Visselhövede","admin3":"03357"},{"geonameid":2816874,"name":"Vögelsen","admin3":"03355"},{"geonameid":2816690,"name":"Völkenrode","admin3":"03101"},{"geonameid":2816619,"name":"Volkmarode","admin3":"03101"},{"geonameid":2816578,"name":"Vollersode","admin3":"03356"},{"geonameid":2816527,"name":"Voltlage","admin3":"03459"},{"geonameid":2816127,"name":"Vordorf","admin3":"03151"},{"geonameid":2815987,"name":"Vorwerk","admin3":"03357"},{"geonameid":2815823,"name":"Vrees","admin3":"03454"},{"geonameid":2815807,"name":"Waake","admin3":"03159"},{"geonameid":2815579,"name":"Waddeweitz","admin3":"03354"},{"geonameid":2815523,"name":"Wagenfeld","admin3":"03251"},{"geonameid":2815507,"name":"Wagenhoff","admin3":"03151"},{"geonameid":2815488,"name":"Waggum","admin3":"03101"},{"geonameid":2815345,"name":"Wahrenholz","admin3":"03151"},{"geonameid":2815218,"name":"Walchum","admin3":"03454"},{"geonameid":2814733,"name":"Walkenried","admin3":"03159"},{"geonameid":2814632,"name":"Wallenhorst","admin3":"03459"},{"geonameid":2814462,"name":"Walsrode","admin3":"03358"},{"geonameid":2814288,"name":"Wangelnstedt","admin3":"03255"},{"geonameid":2814266,"name":"Wangerooge","admin3":"03455"},{"geonameid":2814241,"name":"Wanna","admin3":"03352"},{"geonameid":2814157,"name":"Warberg","admin3":"03154"},{"geonameid":2814146,"name":"Wardenburg","admin3":"03458"},{"geonameid":2814066,"name":"Warmsen","admin3":"03256"},{"geonameid":2814031,"name":"Warpe","admin3":"03256"},{"geonameid":2813860,"name":"Wasbüttel","admin3":"03151"},{"geonameid":2813681,"name":"Watenbüttel","admin3":"03101"},{"geonameid":2813660,"name":"Wathlingen","admin3":"03351"},{"geonameid":2813433,"name":"Weener","admin3":"03457"},{"geonameid":2813431,"name":"Weenzen","admin3":"03254"},{"geonameid":2813266,"name":"Wehnsen","admin3":"03157"},{"geonameid":2813246,"name":"Wehrbleck","admin3":"03251"},{"geonameid":12110947,"name":"Weinberg","admin3":"03101"},{"geonameid":2811537,"name":"Welle","admin3":"03353"},{"geonameid":2811317,"name":"Wendeburg","admin3":"03157"},{"geonameid":2811277,"name":"Wenden","admin3":"03101"},{"geonameid":2811227,"name":"Wendisch Evern","admin3":"03355"},{"geonameid":2811072,"name":"Wennigsen","admin3":"03241"},{"geonameid":2811057,"name":"Wense","admin3":"03157"},{"geonameid":2811011,"name":"Wenzendorf","admin3":"03353"},{"geonameid":2810917,"name":"Werdum","admin3":"03462"},{"geonameid":2810874,"name":"Werlaburgdorf","admin3":"03158"},{"geonameid":2810860,"name":"Werlte","admin3":"03454"},{"geonameid":2810763,"name":"Werpeloh","admin3":"03454"},{"geonameid":2810659,"name":"Wesendorf","admin3":"03151"},{"geonameid":2810559,"name":"Weste","admin3":"03360"},{"geonameid":2810364,"name":"Westergellersen","admin3":"03355"},{"geonameid":2810317,"name":"Westerholt","admin3":"03462"},{"geonameid":2810188,"name":"Westerstede","admin3":"03451"},{"geonameid":2810178,"name":"Westertimke","admin3":"03357"},{"geonameid":2810168,"name":"Westerwalsede","admin3":"03357"},{"geonameid":2810148,"name":"Westfeld","admin3":"03254"},{"geonameid":11101906,"name":"Westhagen","admin3":"03103"},{"geonameid":2810014,"name":"Wetschen","admin3":"03251"},{"geonameid":2809917,"name":"Wettrup","admin3":"03454"},{"geonameid":2809837,"name":"Weyhausen","admin3":"03151"},{"geonameid":2809645,"name":"Wieda","admin3":"03159"},{"geonameid":2809587,"name":"Wiedensahl","admin3":"03257"},{"geonameid":2809544,"name":"Wiefelstede","admin3":"03451"},{"geonameid":2809491,"name":"Wielen","admin3":"03456"},{"geonameid":2809444,"name":"Wienhausen","admin3":"03351"},{"geonameid":2809415,"name":"Wieren","admin3":"03360"},{"geonameid":2809134,"name":"Wiesmoor","admin3":"03452"},{"geonameid":2809100,"name":"Wietmarschen","admin3":"03456"},{"geonameid":2809092,"name":"Wietze","admin3":"03351"},{"geonameid":2809089,"name":"Wietzen","admin3":"03256"},{"geonameid":2809085,"name":"Wietzendorf","admin3":"03358"},{"geonameid":2808987,"name":"Wildemann","admin3":"03153"},{"geonameid":2808893,"name":"Wildeshausen","admin3":"03458"},{"geonameid":12110964,"name":"Wilhelmitor - Nord","admin3":"03101"},{"geonameid":12110951,"name":"Wilhelmitor - Süd","admin3":"03101"},{"geonameid":2808720,"name":"Wilhelmshaven","admin3":"03405"},{"geonameid":2808417,"name":"Wilstedt","admin3":"03357"},{"geonameid":2808408,"name":"Wilsum","admin3":"03456"},{"geonameid":2808189,"name":"Windhausen","admin3":"03159"},{"geonameid":2808048,"name":"Wingst","admin3":"03352"},{"geonameid":2807956,"name":"Winkelsett","admin3":"03458"},{"geonameid":2807862,"name":"Winnigstedt","admin3":"03158"},{"geonameid":2807845,"name":"Winsen","admin3":"03353"},{"geonameid":2807846,"name":"Winsen","admin3":"03351"},{"geonameid":2807647,"name":"Winzenburg","admin3":"03254"},{"geonameid":2807584,"name":"Wippingen","admin3":"03454"},{"geonameid":2807558,"name":"Wirdum","admin3":"03452"},{"geonameid":2807484,"name":"Wischhafen","admin3":"03359"},{"geonameid":2807411,"name":"Wistedt","admin3":"03353"},{"geonameid":2807257,"name":"Wittingen","admin3":"03151"},{"geonameid":2807229,"name":"Wittmar","admin3":"03158"},{"geonameid":2807218,"name":"Wittmund","admin3":"03462"},{"geonameid":2807213,"name":"Wittorf","admin3":"03355"},{"geonameid":2807214,"name":"Wittorf","admin3":"03357"},{"geonameid":2807010,"name":"Wohnste","admin3":"03357"},{"geonameid":2806914,"name":"Wolfenbüttel","admin3":"03158"},{"geonameid":2806654,"name":"Wolfsburg","admin3":"03103"},{"geonameid":2806439,"name":"Wollbrandshausen","admin3":"03159"},{"geonameid":2806414,"name":"Wollershausen","admin3":"03159"},{"geonameid":2806320,"name":"Wölpinghausen","admin3":"03257"},{"geonameid":2806310,"name":"Wolsdorf","admin3":"03154"},{"geonameid":2806285,"name":"Woltersdorf","admin3":"03354"},{"geonameid":2806276,"name":"Woltershausen","admin3":"03254"},{"geonameid":2806108,"name":"Worpswede","admin3":"03356"},{"geonameid":2806011,"name":"Wremen","admin3":"03352"},{"geonameid":2806007,"name":"Wrestedt","admin3":"03360"},{"geonameid":2806002,"name":"Wriedel","admin3":"03360"},{"geonameid":2805891,"name":"Wulfsen","admin3":"03353"},{"geonameid":2805870,"name":"Wulften","admin3":"03159"},{"geonameid":2805825,"name":"Wulsbüttel","admin3":"03352"},{"geonameid":2805761,"name":"Wunstorf","admin3":"03241"},{"geonameid":2805451,"name":"Wustrow","admin3":"03354"},{"geonameid":2804729,"name":"Zernien","admin3":"03354"},{"geonameid":2804697,"name":"Zetel","admin3":"03455"},{"geonameid":2804642,"name":"Zeven","admin3":"03357"},{"geonameid":2803889,"name":"Zorge","admin3":"03159"},{"geonameid":12110963,"name":"Zuckerberg","admin3":"03101"}],"admin1":{"geonameid":2862926,"name":"Lower Saxony","admin1":"06"},"admin2":"no-adm2","admin3":{"geonameid":2803461,"name":"Landkreis Hildesheim","country":"DE","admin1":"06","admin2":"00","admin3":"03254","latitude":"52.1266700","longitude":"9.9650000"},"admin4":[{"geonameid":2810060,"name":"Westoverledingen","admin3":"03457"},{"geonameid":2814549,"name":"Wallmoden","admin3":"03153"},{"geonameid":2815524,"name":"Wagenfeld","admin3":"03251"},{"geonameid":2817876,"name":"Varel","admin3":"03455"},{"geonameid":2818269,"name":"Uplengen","admin3":"03457"},{"geonameid":2820822,"name":"Tülau","admin3":"03151"},{"geonameid":2821459,"name":"Trebel","admin3":"03354"},{"geonameid":2830856,"name":"Spahnharrenstätte","admin3":"03454"},{"geonameid":2834122,"name":"Schwülper","admin3":"03151"},{"geonameid":2842083,"name":"Samern","admin3":"03456"},{"geonameid":2845012,"name":"Rosengarten","admin3":"03353"},{"geonameid":2856358,"name":"Osterwald","admin3":"03456"},{"geonameid":2862540,"name":"Nienstädt","admin3":"03257"},{"geonameid":2864204,"name":"Neuschoo","admin3":"03462"},{"geonameid":2875248,"name":"Luhden","admin3":"03257"},{"geonameid":2878941,"name":"Lemgow","admin3":"03354"},{"geonameid":2879759,"name":"Merzen","admin3":"03459"},{"geonameid":2895482,"name":"Jade","admin3":"03461"},{"geonameid":2899290,"name":"Hoogstede","admin3":"03456"},{"geonameid":2900273,"name":"Holste","admin3":"03356"},{"geonameid":2903421,"name":"Höhbeck","admin3":"03354"},{"geonameid":2905389,"name":"Hespe","admin3":"03257"},{"geonameid":2911527,"name":"Halle","admin3":"03456"},{"geonameid":2915535,"name":"Großheide","admin3":"03452"},{"geonameid":2930484,"name":"Emmerthal","admin3":"03252"},{"geonameid":2932872,"name":"Ehra-Lessien","admin3":"03151"},{"geonameid":2941747,"name":"Bülstedt","admin3":"03357"},{"geonameid":2947319,"name":"Bockhorn","admin3":"03455"},{"geonameid":2950050,"name":"Berne","admin3":"03461"},{"geonameid":2956187,"name":"Andervenne","admin3":"03454"},{"geonameid":3206591,"name":"Rodewald","admin3":"03256"},{"geonameid":3207210,"name":"Gleichen","admin3":"03159"},{"geonameid":3207215,"name":"Niemetal","admin3":"03159"},{"geonameid":3208192,"name":"Butjadingen","admin3":"03461"},{"geonameid":3208260,"name":"Stadland","admin3":"03461"},{"geonameid":3209065,"name":"Gusborn","admin3":"03354"},{"geonameid":3212794,"name":"Staufenberg","admin3":"03159"},{"geonameid":3213143,"name":"Wangerland","admin3":"03455"},{"geonameid":3213268,"name":"Isernhagen","admin3":"03241"},{"geonameid":3213271,"name":"Burgwedel","admin3":"03241"},{"geonameid":3213273,"name":"Wedemark","admin3":"03241"},{"geonameid":6547414,"name":"Helpsen","admin3":"03257"},{"geonameid":6547422,"name":"Freistatt","admin3":"03251"},{"geonameid":6547423,"name":"Haste","admin3":"03257"},{"geonameid":6547425,"name":"Dahlem","admin3":"03355"},{"geonameid":6547426,"name":"Wardenburg","admin3":"03458"},{"geonameid":6547478,"name":"Seelze","admin3":"03241"},{"geonameid":6552297,"name":"Braunschweig","admin3":"03101"},{"geonameid":6552298,"name":"Wolfsburg","admin3":"03103"},{"geonameid":6552299,"name":"Adenbüttel","admin3":"03151"},{"geonameid":6552300,"name":"Barwedel","admin3":"03151"},{"geonameid":6552301,"name":"Bergfeld","admin3":"03151"},{"geonameid":6552302,"name":"Bokensdorf","admin3":"03151"},{"geonameid":6552303,"name":"Calberlah","admin3":"03151"},{"geonameid":6552304,"name":"Dedelstorf","admin3":"03151"},{"geonameid":6552305,"name":"Groß Oesingen","admin3":"03151"},{"geonameid":6552306,"name":"Hankensbüttel","admin3":"03151"},{"geonameid":6552307,"name":"Hillerse","admin3":"03151"},{"geonameid":6552308,"name":"Isenbüttel","admin3":"03151"},{"geonameid":6552309,"name":"Jembke","admin3":"03151"},{"geonameid":6552310,"name":"Leiferde","admin3":"03151"},{"geonameid":6552311,"name":"Meine","admin3":"03151"},{"geonameid":6552312,"name":"Meinersen","admin3":"03151"},{"geonameid":6552313,"name":"Müden (Aller)","admin3":"03151"},{"geonameid":6552314,"name":"Obernholz","admin3":"03151"},{"geonameid":6552315,"name":"Osloß","admin3":"03151"},{"geonameid":6552316,"name":"Parsau","admin3":"03151"},{"geonameid":6552317,"name":"Ribbesbüttel","admin3":"03151"},{"geonameid":6552318,"name":"Rötgesbüttel","admin3":"03151"},{"geonameid":6552319,"name":"Rühen","admin3":"03151"},{"geonameid":6552320,"name":"Sassenburg","admin3":"03151"},{"geonameid":6552321,"name":"Schönewörde","admin3":"03151"},{"geonameid":6552322,"name":"Sprakensehl","admin3":"03151"},{"geonameid":6552323,"name":"Steinhorst","admin3":"03151"},{"geonameid":6552324,"name":"Tappenbeck","admin3":"03151"},{"geonameid":6552325,"name":"Tiddische","admin3":"03151"},{"geonameid":6552326,"name":"Ummern","admin3":"03151"},{"geonameid":6552327,"name":"Vordorf","admin3":"03151"},{"geonameid":6552328,"name":"Wagenhoff","admin3":"03151"},{"geonameid":6552329,"name":"Wahrenholz","admin3":"03151"},{"geonameid":6552330,"name":"Wasbüttel","admin3":"03151"},{"geonameid":6552331,"name":"Wesendorf","admin3":"03151"},{"geonameid":6552332,"name":"Weyhausen","admin3":"03151"},{"geonameid":6552333,"name":"Didderse","admin3":"03151"},{"geonameid":6552334,"name":"Bilshausen","admin3":"03159"},{"geonameid":6552335,"name":"Bodensee","admin3":"03159"},{"geonameid":6552336,"name":"Bühren","admin3":"03159"},{"geonameid":6552337,"name":"Ebergötzen","admin3":"03159"},{"geonameid":6552338,"name":"Friedland","admin3":"03159"},{"geonameid":6552339,"name":"Jühnde","admin3":"03159"},{"geonameid":6552340,"name":"Krebeck","admin3":"03159"},{"geonameid":6552341,"name":"Landolfshausen","admin3":"03159"},{"geonameid":6552342,"name":"Obernfeld","admin3":"03159"},{"geonameid":6552343,"name":"Rhumspringe","admin3":"03159"},{"geonameid":6552344,"name":"Rollshausen","admin3":"03159"},{"geonameid":6552345,"name":"Rosdorf","admin3":"03159"},{"geonameid":6552346,"name":"Rüdershausen","admin3":"03159"},{"geonameid":6552347,"name":"Scheden","admin3":"03159"},{"geonameid":6552348,"name":"Seeburg","admin3":"03159"},{"geonameid":6552349,"name":"Seulingen","admin3":"03159"},{"geonameid":6552350,"name":"Waake","admin3":"03159"},{"geonameid":6552351,"name":"Wollbrandshausen","admin3":"03159"},{"geonameid":6552352,"name":"Wollershausen","admin3":"03159"},{"geonameid":6552353,"name":"Hahausen","admin3":"03153"},{"geonameid":6552354,"name":"Liebenburg","admin3":"03153"},{"geonameid":6552356,"name":"Bahrdorf","admin3":"03154"},{"geonameid":6552357,"name":"Beierstedt","admin3":"03154"},{"geonameid":6552359,"name":"Danndorf","admin3":"03154"},{"geonameid":6552360,"name":"Frellstedt","admin3":"03154"},{"geonameid":6552361,"name":"Gevensleben","admin3":"03154"},{"geonameid":6552362,"name":"Grafhorst","admin3":"03154"},{"geonameid":6552363,"name":"Grasleben","admin3":"03154"},{"geonameid":6552364,"name":"Groß Twülpstedt","admin3":"03154"},{"geonameid":6552366,"name":"Jerxheim","admin3":"03154"},{"geonameid":6552367,"name":"Lehre","admin3":"03154"},{"geonameid":6552368,"name":"Mariental","admin3":"03154"},{"geonameid":6552369,"name":"Querenhorst","admin3":"03154"},{"geonameid":6552370,"name":"Räbke","admin3":"03154"},{"geonameid":6552371,"name":"Rennau","admin3":"03154"},{"geonameid":6552372,"name":"Söllingen","admin3":"03154"},{"geonameid":6552373,"name":"Süpplingen","admin3":"03154"},{"geonameid":6552374,"name":"Süpplingenburg","admin3":"03154"},{"geonameid":6552376,"name":"Velpke","admin3":"03154"},{"geonameid":6552377,"name":"Warberg","admin3":"03154"},{"geonameid":6552378,"name":"Wolsdorf","admin3":"03154"},{"geonameid":6552379,"name":"Kalefeld","admin3":"03155"},{"geonameid":6552380,"name":"Katlenburg-Lindau","admin3":"03155"},{"geonameid":6552384,"name":"Elbingerode","admin3":"03159"},{"geonameid":6552385,"name":"Hattorf am Harz","admin3":"03159"},{"geonameid":6552386,"name":"Hörden am Harz","admin3":"03159"},{"geonameid":6552387,"name":"Walkenried","admin3":"03159"},{"geonameid":6552390,"name":"Wulften am Harz","admin3":"03159"},{"geonameid":6552392,"name":"Edemissen","admin3":"03157"},{"geonameid":6552393,"name":"Hohenhameln","admin3":"03157"},{"geonameid":6552396,"name":"Lengede","admin3":"03157"},{"geonameid":6552397,"name":"Vechelde","admin3":"03157"},{"geonameid":6552398,"name":"Wendeburg","admin3":"03157"},{"geonameid":6552400,"name":"Baddeckenstedt","admin3":"03158"},{"geonameid":6552401,"name":"Börßum","admin3":"03158"},{"geonameid":6552402,"name":"Burgdorf","admin3":"03158"},{"geonameid":6552403,"name":"Cramme","admin3":"03158"},{"geonameid":6552404,"name":"Cremlingen","admin3":"03158"},{"geonameid":6552405,"name":"Dahlum","admin3":"03158"},{"geonameid":6552406,"name":"Denkte","admin3":"03158"},{"geonameid":6552407,"name":"Dettum","admin3":"03158"},{"geonameid":6552408,"name":"Dorstadt","admin3":"03158"},{"geonameid":6552409,"name":"Elbe","admin3":"03158"},{"geonameid":6552410,"name":"Erkerode","admin3":"03158"},{"geonameid":6552411,"name":"Evessen","admin3":"03158"},{"geonameid":6552412,"name":"Flöthe","admin3":"03158"},{"geonameid":6552414,"name":"Haverlah","admin3":"03158"},{"geonameid":6552415,"name":"Hedeper","admin3":"03158"},{"geonameid":6552416,"name":"Heere","admin3":"03158"},{"geonameid":6552417,"name":"Heiningen","admin3":"03158"},{"geonameid":6552418,"name":"Kissenbrück","admin3":"03158"},{"geonameid":6552419,"name":"Kneitlingen","admin3":"03158"},{"geonameid":6552420,"name":"Ohrum","admin3":"03158"},{"geonameid":6552422,"name":"Roklum","admin3":"03158"},{"geonameid":6552424,"name":"Sehlde","admin3":"03158"},{"geonameid":6552426,"name":"Sickte","admin3":"03158"},{"geonameid":6552427,"name":"Uehrde","admin3":"03158"},{"geonameid":6552428,"name":"Vahlberg","admin3":"03158"},{"geonameid":6552430,"name":"Winnigstedt","admin3":"03158"},{"geonameid":6552431,"name":"Wittmar","admin3":"03158"},{"geonameid":6552432,"name":"Uetze","admin3":"03241"},{"geonameid":6552433,"name":"Affinghausen","admin3":"03251"},{"geonameid":6552434,"name":"Asendorf","admin3":"03251"},{"geonameid":6552435,"name":"Bahrenborstel","admin3":"03251"},{"geonameid":6552436,"name":"Barver","admin3":"03251"},{"geonameid":6552437,"name":"Borstel","admin3":"03251"},{"geonameid":6552438,"name":"Brockum","admin3":"03251"},{"geonameid":6552439,"name":"Dickel","admin3":"03251"},{"geonameid":6552440,"name":"Drebber","admin3":"03251"},{"geonameid":6552442,"name":"Drentwede","admin3":"03251"},{"geonameid":6552443,"name":"Ehrenburg","admin3":"03251"},{"geonameid":6552445,"name":"Eydelstedt","admin3":"03251"},{"geonameid":6552446,"name":"Hemsloh","admin3":"03251"},{"geonameid":6552447,"name":"Hüde","admin3":"03251"},{"geonameid":6552448,"name":"Kirchdorf","admin3":"03251"},{"geonameid":6552449,"name":"Lembruch","admin3":"03251"},{"geonameid":6552450,"name":"Maasen","admin3":"03251"},{"geonameid":6552451,"name":"Marl","admin3":"03251"},{"geonameid":6552452,"name":"Martfeld","admin3":"03251"},{"geonameid":6552453,"name":"Mellinghausen","admin3":"03251"},{"geonameid":6552454,"name":"Neuenkirchen","admin3":"03251"},{"geonameid":6552455,"name":"Quernheim","admin3":"03251"},{"geonameid":6552456,"name":"Rehden","admin3":"03251"},{"geonameid":6552457,"name":"Scholen","admin3":"03251"},{"geonameid":6552458,"name":"Schwaförden","admin3":"03251"},{"geonameid":6552459,"name":"Schwarme","admin3":"03251"},{"geonameid":6552460,"name":"Staffhorst","admin3":"03251"},{"geonameid":6552461,"name":"Stemshorn","admin3":"03251"},{"geonameid":6552462,"name":"Stuhr","admin3":"03251"},{"geonameid":6552463,"name":"Sudwalde","admin3":"03251"},{"geonameid":6552465,"name":"Varrel","admin3":"03251"},{"geonameid":6552466,"name":"Wehrbleck","admin3":"03251"},{"geonameid":6552467,"name":"Wetschen","admin3":"03251"},{"geonameid":6552468,"name":"Weyhe","admin3":"03251"},{"geonameid":6552470,"name":"Algermissen","admin3":"03254"},{"geonameid":6552476,"name":"Diekholzen","admin3":"03254"},{"geonameid":6552479,"name":"Freden (Leine)","admin3":"03254"},{"geonameid":6552480,"name":"Giesen","admin3":"03254"},{"geonameid":6552482,"name":"Harsum","admin3":"03254"},{"geonameid":6552483,"name":"Holle","admin3":"03254"},{"geonameid":6552485,"name":"Nordstemmen","admin3":"03254"},{"geonameid":6552487,"name":"Schellerten","admin3":"03254"},{"geonameid":6552489,"name":"Sibbesse","admin3":"03254"},{"geonameid":6552490,"name":"Söhlde","admin3":"03254"},{"geonameid":6552497,"name":"Arholzen","admin3":"03255"},{"geonameid":6552498,"name":"Boffzen","admin3":"03255"},{"geonameid":6552499,"name":"Brevörde","admin3":"03255"},{"geonameid":6552500,"name":"Deensen","admin3":"03255"},{"geonameid":6552501,"name":"Derental","admin3":"03255"},{"geonameid":6552502,"name":"Dielmissen","admin3":"03255"},{"geonameid":6552503,"name":"Eimen","admin3":"03255"},{"geonameid":6552504,"name":"Fürstenberg","admin3":"03255"},{"geonameid":6552505,"name":"Golmbach","admin3":"03255"},{"geonameid":6552506,"name":"Halle","admin3":"03255"},{"geonameid":6552507,"name":"Hehlen","admin3":"03255"},{"geonameid":6552508,"name":"Heinade","admin3":"03255"},{"geonameid":6552509,"name":"Heinsen","admin3":"03255"},{"geonameid":6552510,"name":"Heyen","admin3":"03255"},{"geonameid":6552511,"name":"Holenberg","admin3":"03255"},{"geonameid":6552512,"name":"Holzen","admin3":"03255"},{"geonameid":6552513,"name":"Kirchbrak","admin3":"03255"},{"geonameid":6552514,"name":"Lenne","admin3":"03255"},{"geonameid":6552515,"name":"Lüerdissen","admin3":"03255"},{"geonameid":6552516,"name":"Negenborn","admin3":"03255"},{"geonameid":6552517,"name":"Pegestorf","admin3":"03255"},{"geonameid":6552518,"name":"Vahlbruch","admin3":"03255"},{"geonameid":6552519,"name":"Wangelnstedt","admin3":"03255"},{"geonameid":6552520,"name":"Balge","admin3":"03256"},{"geonameid":6552521,"name":"Binnen","admin3":"03256"},{"geonameid":6552522,"name":"Eystrup","admin3":"03256"},{"geonameid":6552523,"name":"Gandesbergen","admin3":"03256"},{"geonameid":6552524,"name":"Hämelhausen","admin3":"03256"},{"geonameid":6552525,"name":"Hassel (Weser)","admin3":"03256"},{"geonameid":6552526,"name":"Haßbergen","admin3":"03256"},{"geonameid":6552527,"name":"Hilgermissen","admin3":"03256"},{"geonameid":6552528,"name":"Hoyerhagen","admin3":"03256"},{"geonameid":6552529,"name":"Husum","admin3":"03256"},{"geonameid":6552530,"name":"Leese","admin3":"03256"},{"geonameid":6552531,"name":"Linsburg","admin3":"03256"},{"geonameid":6552532,"name":"Marklohe","admin3":"03256"},{"geonameid":6552533,"name":"Pennigsehl","admin3":"03256"},{"geonameid":6552534,"name":"Raddestorf","admin3":"03256"},{"geonameid":6552535,"name":"Rohrsen","admin3":"03256"},{"geonameid":6552536,"name":"Stöckse","admin3":"03256"},{"geonameid":6552537,"name":"Warmsen","admin3":"03256"},{"geonameid":6552538,"name":"Warpe","admin3":"03256"},{"geonameid":6552539,"name":"Wietzen","admin3":"03256"},{"geonameid":6552540,"name":"Ahnsen","admin3":"03257"},{"geonameid":6552541,"name":"Bad Eilsen","admin3":"03257"},{"geonameid":6552542,"name":"Beckedorf","admin3":"03257"},{"geonameid":6552543,"name":"Buchholz","admin3":"03257"},{"geonameid":6552544,"name":"Heeßen","admin3":"03257"},{"geonameid":6552545,"name":"Niedernwöhren","admin3":"03257"},{"geonameid":6552546,"name":"Nordsehl","admin3":"03257"},{"geonameid":6552547,"name":"Pohle","admin3":"03257"},{"geonameid":6552548,"name":"Pollhagen","admin3":"03257"},{"geonameid":6552549,"name":"Adelheidsdorf","admin3":"03351"},{"geonameid":6552550,"name":"Ahnsbeck","admin3":"03351"},{"geonameid":6552551,"name":"Beedenbostel","admin3":"03351"},{"geonameid":6552552,"name":"Bröckel","admin3":"03351"},{"geonameid":6552553,"name":"Eicklingen","admin3":"03351"},{"geonameid":6552554,"name":"Eldingen","admin3":"03351"},{"geonameid":6552556,"name":"Faßberg","admin3":"03351"},{"geonameid":6552558,"name":"Hambühren","admin3":"03351"},{"geonameid":6552561,"name":"Hohne","admin3":"03351"},{"geonameid":6552562,"name":"Lachendorf","admin3":"03351"},{"geonameid":6552563,"name":"Langlingen","admin3":"03351"},{"geonameid":6552564,"name":"Nienhagen","admin3":"03351"},{"geonameid":6552567,"name":"Wathlingen","admin3":"03351"},{"geonameid":6552568,"name":"Wienhausen","admin3":"03351"},{"geonameid":6552569,"name":"Wietze","admin3":"03351"},{"geonameid":6552570,"name":"Winsen (Aller)","admin3":"03351"},{"geonameid":6552572,"name":"Armstorf","admin3":"03352"},{"geonameid":6552573,"name":"Belum","admin3":"03352"},{"geonameid":6552576,"name":"Bülkau","admin3":"03352"},{"geonameid":6552577,"name":"Cadenberge","admin3":"03352"},{"geonameid":6552587,"name":"Hechthausen","admin3":"03352"},{"geonameid":6552590,"name":"Hollnseth","admin3":"03352"},{"geonameid":6552591,"name":"Ihlienworth","admin3":"03352"},{"geonameid":6552595,"name":"Lamstedt","admin3":"03352"},{"geonameid":6552597,"name":"Loxstedt","admin3":"03352"},{"geonameid":6552601,"name":"Mittelstenahe","admin3":"03352"},{"geonameid":6552603,"name":"Neuenkirchen","admin3":"03352"},{"geonameid":6552605,"name":"Nordleda","admin3":"03352"},{"geonameid":6552606,"name":"Oberndorf","admin3":"03352"},{"geonameid":6552607,"name":"Odisheim","admin3":"03352"},{"geonameid":6552608,"name":"Osten","admin3":"03352"},{"geonameid":6552609,"name":"Osterbruch","admin3":"03352"},{"geonameid":6552612,"name":"Schiffdorf","admin3":"03352"},{"geonameid":6552613,"name":"Steinau","admin3":"03352"},{"geonameid":6552614,"name":"Stinstedt","admin3":"03352"},{"geonameid":6552617,"name":"Wanna","admin3":"03352"},{"geonameid":6552620,"name":"Appel","admin3":"03353"},{"geonameid":6552621,"name":"Asendorf","admin3":"03353"},{"geonameid":6552622,"name":"Bendestorf","admin3":"03353"},{"geonameid":6552623,"name":"Brackel","admin3":"03353"},{"geonameid":6552624,"name":"Dohren","admin3":"03353"},{"geonameid":6552625,"name":"Drage","admin3":"03353"},{"geonameid":6552626,"name":"Drestedt","admin3":"03353"},{"geonameid":6552627,"name":"Egestorf","admin3":"03353"},{"geonameid":6552628,"name":"Eyendorf","admin3":"03353"},{"geonameid":6552629,"name":"Garlstorf","admin3":"03353"},{"geonameid":6552630,"name":"Garstedt","admin3":"03353"},{"geonameid":6552631,"name":"Gödenstorf","admin3":"03353"},{"geonameid":6552632,"name":"Halvesbostel","admin3":"03353"},{"geonameid":6552633,"name":"Handeloh","admin3":"03353"},{"geonameid":6552634,"name":"Hanstedt","admin3":"03353"},{"geonameid":6552635,"name":"Harmstorf","admin3":"03353"},{"geonameid":6552636,"name":"Heidenau","admin3":"03353"},{"geonameid":6552637,"name":"Hollenstedt","admin3":"03353"},{"geonameid":6552638,"name":"Jesteburg","admin3":"03353"},{"geonameid":6552639,"name":"Kakenstorf","admin3":"03353"},{"geonameid":6552641,"name":"Königsmoor","admin3":"03353"},{"geonameid":6552642,"name":"Marschacht","admin3":"03353"},{"geonameid":6552643,"name":"Marxen","admin3":"03353"},{"geonameid":6552644,"name":"Moisburg","admin3":"03353"},{"geonameid":6552645,"name":"Neu Wulmstorf","admin3":"03353"},{"geonameid":6552646,"name":"Otter","admin3":"03353"},{"geonameid":6552647,"name":"Regesbostel","admin3":"03353"},{"geonameid":6552648,"name":"Salzhausen","admin3":"03353"},{"geonameid":6552649,"name":"Seevetal","admin3":"03353"},{"geonameid":6552650,"name":"Stelle","admin3":"03353"},{"geonameid":6552651,"name":"Tespe","admin3":"03353"},{"geonameid":6552652,"name":"Toppenstedt","admin3":"03353"},{"geonameid":6552653,"name":"Tostedt","admin3":"03353"},{"geonameid":6552654,"name":"Undeloh","admin3":"03353"},{"geonameid":6552655,"name":"Vierhöfen","admin3":"03353"},{"geonameid":6552656,"name":"Welle","admin3":"03353"},{"geonameid":6552657,"name":"Wenzendorf","admin3":"03353"},{"geonameid":6552658,"name":"Wistedt","admin3":"03353"},{"geonameid":6552659,"name":"Wulfsen","admin3":"03353"},{"geonameid":6552660,"name":"Langendorf","admin3":"03354"},{"geonameid":6552661,"name":"Lübbow","admin3":"03354"},{"geonameid":6552662,"name":"Neu Darchau","admin3":"03354"},{"geonameid":6552663,"name":"Prezelle","admin3":"03354"},{"geonameid":6552664,"name":"Woltersdorf","admin3":"03354"},{"geonameid":6552665,"name":"Zernien","admin3":"03354"},{"geonameid":6552666,"name":"Adendorf","admin3":"03355"},{"geonameid":6552667,"name":"Amelinghausen","admin3":"03355"},{"geonameid":6552668,"name":"Barendorf","admin3":"03355"},{"geonameid":6552669,"name":"Barnstedt","admin3":"03355"},{"geonameid":6552670,"name":"Barum","admin3":"03355"},{"geonameid":6552671,"name":"Betzendorf","admin3":"03355"},{"geonameid":6552672,"name":"Boitze","admin3":"03355"},{"geonameid":6552673,"name":"Brietlingen","admin3":"03355"},{"geonameid":6552674,"name":"Deutsch Evern","admin3":"03355"},{"geonameid":6552675,"name":"Echem","admin3":"03355"},{"geonameid":6552676,"name":"Embsen","admin3":"03355"},{"geonameid":6552677,"name":"Handorf","admin3":"03355"},{"geonameid":6552678,"name":"Hittbergen","admin3":"03355"},{"geonameid":6552679,"name":"Hohnstorf (Elbe)","admin3":"03355"},{"geonameid":6552680,"name":"Kirchgellersen","admin3":"03355"},{"geonameid":6552681,"name":"Lüdersburg","admin3":"03355"},{"geonameid":6552682,"name":"Mechtersen","admin3":"03355"},{"geonameid":6552683,"name":"Melbeck","admin3":"03355"},{"geonameid":6552684,"name":"Nahrendorf","admin3":"03355"},{"geonameid":6552685,"name":"Neetze","admin3":"03355"},{"geonameid":6552686,"name":"Oldendorf (Luhe)","admin3":"03355"},{"geonameid":6552687,"name":"Radbruch","admin3":"03355"},{"geonameid":6552688,"name":"Rehlingen","admin3":"03355"},{"geonameid":6552689,"name":"Reinstorf","admin3":"03355"},{"geonameid":6552690,"name":"Reppenstedt","admin3":"03355"},{"geonameid":6552691,"name":"Rullstorf","admin3":"03355"},{"geonameid":6552692,"name":"Scharnebeck","admin3":"03355"},{"geonameid":6552693,"name":"Soderstorf","admin3":"03355"},{"geonameid":6552694,"name":"Südergellersen","admin3":"03355"},{"geonameid":6552695,"name":"Thomasburg","admin3":"03355"},{"geonameid":6552696,"name":"Tosterglope","admin3":"03355"},{"geonameid":6552697,"name":"Vastorf","admin3":"03355"},{"geonameid":6552698,"name":"Vögelsen","admin3":"03355"},{"geonameid":6552699,"name":"Wendisch Evern","admin3":"03355"},{"geonameid":6552700,"name":"Westergellersen","admin3":"03355"},{"geonameid":6552701,"name":"Wittorf","admin3":"03355"},{"geonameid":6552702,"name":"Amt Neuhaus","admin3":"03355"},{"geonameid":6552703,"name":"Axstedt","admin3":"03356"},{"geonameid":6552704,"name":"Grasberg","admin3":"03356"},{"geonameid":6552705,"name":"Hambergen","admin3":"03356"},{"geonameid":6552706,"name":"Lilienthal","admin3":"03356"},{"geonameid":6552707,"name":"Lübberstedt","admin3":"03356"},{"geonameid":6552708,"name":"Ritterhude","admin3":"03356"},{"geonameid":6552709,"name":"Schwanewede","admin3":"03356"},{"geonameid":6552710,"name":"Vollersode","admin3":"03356"},{"geonameid":6552711,"name":"Worpswede","admin3":"03356"},{"geonameid":6552712,"name":"Ahausen","admin3":"03357"},{"geonameid":6552713,"name":"Alfstedt","admin3":"03357"},{"geonameid":6552714,"name":"Anderlingen","admin3":"03357"},{"geonameid":6552715,"name":"Basdahl","admin3":"03357"},{"geonameid":6552716,"name":"Bötersen","admin3":"03357"},{"geonameid":6552717,"name":"Bothel","admin3":"03357"},{"geonameid":6552718,"name":"Breddorf","admin3":"03357"},{"geonameid":6552719,"name":"Brockel","admin3":"03357"},{"geonameid":6552720,"name":"Deinstedt","admin3":"03357"},{"geonameid":6552721,"name":"Ebersdorf","admin3":"03357"},{"geonameid":6552722,"name":"Elsdorf","admin3":"03357"},{"geonameid":6552723,"name":"Farven","admin3":"03357"},{"geonameid":6552724,"name":"Fintel","admin3":"03357"},{"geonameid":6552725,"name":"Gnarrenburg","admin3":"03357"},{"geonameid":6552726,"name":"Groß Meckelsen","admin3":"03357"},{"geonameid":6552727,"name":"Gyhum","admin3":"03357"},{"geonameid":6552728,"name":"Hamersen","admin3":"03357"},{"geonameid":6552729,"name":"Hassendorf","admin3":"03357"},{"geonameid":6552730,"name":"Heeslingen","admin3":"03357"},{"geonameid":6552731,"name":"Hellwege","admin3":"03357"},{"geonameid":6552732,"name":"Helvesiek","admin3":"03357"},{"geonameid":6552733,"name":"Hemsbünde","admin3":"03357"},{"geonameid":6552734,"name":"Hemslingen","admin3":"03357"},{"geonameid":6552735,"name":"Hepstedt","admin3":"03357"},{"geonameid":6552736,"name":"Hipstedt","admin3":"03357"},{"geonameid":6552737,"name":"Horstedt","admin3":"03357"},{"geonameid":6552738,"name":"Kalbe","admin3":"03357"},{"geonameid":6552739,"name":"Kirchtimke","admin3":"03357"},{"geonameid":6552740,"name":"Kirchwalsede","admin3":"03357"},{"geonameid":6552741,"name":"Klein Meckelsen","admin3":"03357"},{"geonameid":6552742,"name":"Lauenbrück","admin3":"03357"},{"geonameid":6552743,"name":"Lengenbostel","admin3":"03357"},{"geonameid":6552744,"name":"Oerel","admin3":"03357"},{"geonameid":6552745,"name":"Ostereistedt","admin3":"03357"},{"geonameid":6552746,"name":"Reeßum","admin3":"03357"},{"geonameid":6552747,"name":"Rhade","admin3":"03357"},{"geonameid":6552748,"name":"Sandbostel","admin3":"03357"},{"geonameid":6552749,"name":"Scheeßel","admin3":"03357"},{"geonameid":6552750,"name":"Seedorf","admin3":"03357"},{"geonameid":6552751,"name":"Selsingen","admin3":"03357"},{"geonameid":6552752,"name":"Sittensen","admin3":"03357"},{"geonameid":6552753,"name":"Sottrum","admin3":"03357"},{"geonameid":6552754,"name":"Stemmen","admin3":"03357"},{"geonameid":6552755,"name":"Tarmstedt","admin3":"03357"},{"geonameid":6552756,"name":"Tiste","admin3":"03357"},{"geonameid":6552757,"name":"Vahlde","admin3":"03357"},{"geonameid":6552758,"name":"Vierden","admin3":"03357"},{"geonameid":6552759,"name":"Vorwerk","admin3":"03357"},{"geonameid":6552760,"name":"Westertimke","admin3":"03357"},{"geonameid":6552761,"name":"Westerwalsede","admin3":"03357"},{"geonameid":6552762,"name":"Wilstedt","admin3":"03357"},{"geonameid":6552763,"name":"Wohnste","admin3":"03357"},{"geonameid":6552764,"name":"Bispingen","admin3":"03358"},{"geonameid":6552765,"name":"Böhme","admin3":"03358"},{"geonameid":6552767,"name":"Buchholz (Aller)","admin3":"03358"},{"geonameid":6552768,"name":"Eickeloh","admin3":"03358"},{"geonameid":6552769,"name":"Essel","admin3":"03358"},{"geonameid":6552770,"name":"Frankenfeld","admin3":"03358"},{"geonameid":6552771,"name":"Gilten","admin3":"03358"},{"geonameid":6552772,"name":"Grethem","admin3":"03358"},{"geonameid":6552773,"name":"Hademstorf","admin3":"03358"},{"geonameid":6552774,"name":"Häuslingen","admin3":"03358"},{"geonameid":6552775,"name":"Hodenhagen","admin3":"03358"},{"geonameid":6552776,"name":"Lindwedel","admin3":"03358"},{"geonameid":6552777,"name":"Neuenkirchen","admin3":"03358"},{"geonameid":6552778,"name":"Schwarmstedt","admin3":"03358"},{"geonameid":6552779,"name":"Wietzendorf","admin3":"03358"},{"geonameid":6552780,"name":"Agathenburg","admin3":"03359"},{"geonameid":6552781,"name":"Ahlerstedt","admin3":"03359"},{"geonameid":6552782,"name":"Apensen","admin3":"03359"},{"geonameid":6552783,"name":"Balje","admin3":"03359"},{"geonameid":6552784,"name":"Bargstedt","admin3":"03359"},{"geonameid":6552785,"name":"Beckdorf","admin3":"03359"},{"geonameid":6552786,"name":"Bliedersdorf","admin3":"03359"},{"geonameid":6552787,"name":"Brest","admin3":"03359"},{"geonameid":6552788,"name":"Burweg","admin3":"03359"},{"geonameid":6552789,"name":"Deinste","admin3":"03359"},{"geonameid":6552790,"name":"Dollern","admin3":"03359"},{"geonameid":6552791,"name":"Drochtersen","admin3":"03359"},{"geonameid":6552792,"name":"Düdenbüttel","admin3":"03359"},{"geonameid":6552793,"name":"Engelschoff","admin3":"03359"},{"geonameid":6552794,"name":"Estorf","admin3":"03359"},{"geonameid":6552795,"name":"Fredenbeck","admin3":"03359"},{"geonameid":6552796,"name":"Großenwörden","admin3":"03359"},{"geonameid":6552797,"name":"Grünendeich","admin3":"03359"},{"geonameid":6552798,"name":"Guderhandviertel","admin3":"03359"},{"geonameid":6552799,"name":"Hammah","admin3":"03359"},{"geonameid":6552800,"name":"Heinbockel","admin3":"03359"},{"geonameid":6552801,"name":"Himmelpforten","admin3":"03359"},{"geonameid":6552802,"name":"Hollern-Twielenfleth","admin3":"03359"},{"geonameid":6552803,"name":"Jork","admin3":"03359"},{"geonameid":6552804,"name":"Kranenburg","admin3":"03359"},{"geonameid":6552805,"name":"Krummendeich","admin3":"03359"},{"geonameid":6552806,"name":"Kutenholz","admin3":"03359"},{"geonameid":6552807,"name":"Mittelnkirchen","admin3":"03359"},{"geonameid":6552808,"name":"Neuenkirchen","admin3":"03359"},{"geonameid":6552809,"name":"Nottensdorf","admin3":"03359"},{"geonameid":6552810,"name":"Oederquart","admin3":"03359"},{"geonameid":6552811,"name":"Oldendorf","admin3":"03359"},{"geonameid":6552812,"name":"Sauensiek","admin3":"03359"},{"geonameid":6552813,"name":"Steinkirchen","admin3":"03359"},{"geonameid":6552814,"name":"Wischhafen","admin3":"03359"},{"geonameid":6552815,"name":"Altenmedingen","admin3":"03360"},{"geonameid":6552816,"name":"Barum","admin3":"03360"},{"geonameid":6552817,"name":"Bienenbüttel","admin3":"03360"},{"geonameid":6552818,"name":"Eimke","admin3":"03360"},{"geonameid":6552819,"name":"Emmendorf","admin3":"03360"},{"geonameid":6552820,"name":"Gerdau","admin3":"03360"},{"geonameid":6552821,"name":"Hanstedt","admin3":"03360"},{"geonameid":6552822,"name":"Himbergen","admin3":"03360"},{"geonameid":6552823,"name":"Jelmstorf","admin3":"03360"},{"geonameid":6552824,"name":"Lüder","admin3":"03360"},{"geonameid":6552825,"name":"Natendorf","admin3":"03360"},{"geonameid":6552826,"name":"Oetzen","admin3":"03360"},{"geonameid":6552827,"name":"Rätzlingen","admin3":"03360"},{"geonameid":6552828,"name":"Römstedt","admin3":"03360"},{"geonameid":6552829,"name":"Rosche","admin3":"03360"},{"geonameid":6552830,"name":"Schwienau","admin3":"03360"},{"geonameid":6552831,"name":"Soltendieck","admin3":"03360"},{"geonameid":6552833,"name":"Stoetze","admin3":"03360"},{"geonameid":6552834,"name":"Suderburg","admin3":"03360"},{"geonameid":6552835,"name":"Suhlendorf","admin3":"03360"},{"geonameid":6552836,"name":"Weste","admin3":"03360"},{"geonameid":6552838,"name":"Wrestedt","admin3":"03360"},{"geonameid":6552839,"name":"Wriedel","admin3":"03360"},{"geonameid":6552840,"name":"Blender","admin3":"03361"},{"geonameid":6552841,"name":"Dörverden","admin3":"03361"},{"geonameid":6552842,"name":"Emtinghausen","admin3":"03361"},{"geonameid":6552843,"name":"Kirchlinteln","admin3":"03361"},{"geonameid":6552845,"name":"Oyten","admin3":"03361"},{"geonameid":6552846,"name":"Riede","admin3":"03361"},{"geonameid":6552847,"name":"Thedinghausen","admin3":"03361"},{"geonameid":6552848,"name":"Delmenhorst","admin3":"03401"},{"geonameid":6552849,"name":"Emden","admin3":"03402"},{"geonameid":6552850,"name":"Oldenburg","admin3":"03403"},{"geonameid":6552851,"name":"Osnabrück","admin3":"03404"},{"geonameid":6552852,"name":"Wilhelmshaven","admin3":"03405"},{"geonameid":6552853,"name":"Apen","admin3":"03451"},{"geonameid":6552854,"name":"Bad Zwischenahn","admin3":"03451"},{"geonameid":6552855,"name":"Edewecht","admin3":"03451"},{"geonameid":6552856,"name":"Rastede","admin3":"03451"},{"geonameid":6552857,"name":"Wiefelstede","admin3":"03451"},{"geonameid":6552858,"name":"Baltrum","admin3":"03452"},{"geonameid":6552859,"name":"Berumbur","admin3":"03452"},{"geonameid":6552860,"name":"Hagermarsch","admin3":"03452"},{"geonameid":6552861,"name":"Halbemond","admin3":"03452"},{"geonameid":6552862,"name":"Juist","admin3":"03452"},{"geonameid":6552863,"name":"Leezdorf","admin3":"03452"},{"geonameid":6552864,"name":"Lütetsburg","admin3":"03452"},{"geonameid":6552865,"name":"Osteel","admin3":"03452"},{"geonameid":6552866,"name":"Rechtsupweg","admin3":"03452"},{"geonameid":6552867,"name":"Upgant-Schott","admin3":"03452"},{"geonameid":6552868,"name":"Wirdum","admin3":"03452"},{"geonameid":6552869,"name":"Barßel","admin3":"03453"},{"geonameid":6552870,"name":"Bösel","admin3":"03453"},{"geonameid":6552871,"name":"Cappeln (Oldenburg)","admin3":"03453"},{"geonameid":6552872,"name":"Emstek","admin3":"03453"},{"geonameid":6552873,"name":"Essen (Oldenburg)","admin3":"03453"},{"geonameid":6552874,"name":"Garrel","admin3":"03453"},{"geonameid":6552875,"name":"Lastrup","admin3":"03453"},{"geonameid":6552876,"name":"Lindern (Oldenburg)","admin3":"03453"},{"geonameid":6552877,"name":"Molbergen","admin3":"03453"},{"geonameid":6552878,"name":"Saterland","admin3":"03453"},{"geonameid":6552879,"name":"Bawinkel","admin3":"03454"},{"geonameid":6552880,"name":"Beesten","admin3":"03454"},{"geonameid":6552881,"name":"Bockhorst","admin3":"03454"},{"geonameid":6552882,"name":"Börger","admin3":"03454"},{"geonameid":6552883,"name":"Breddenberg","admin3":"03454"},{"geonameid":6552884,"name":"Dersum","admin3":"03454"},{"geonameid":6552885,"name":"Dörpen","admin3":"03454"},{"geonameid":6552886,"name":"Dohren","admin3":"03454"},{"geonameid":6552887,"name":"Emsbüren","admin3":"03454"},{"geonameid":6552888,"name":"Esterwegen","admin3":"03454"},{"geonameid":6552889,"name":"Fresenburg","admin3":"03454"},{"geonameid":6552890,"name":"Geeste","admin3":"03454"},{"geonameid":6552891,"name":"Gersten","admin3":"03454"},{"geonameid":6552892,"name":"Groß Berßen","admin3":"03454"},{"geonameid":6552893,"name":"Handrup","admin3":"03454"},{"geonameid":6552894,"name":"Heede","admin3":"03454"},{"geonameid":6552895,"name":"Herzlake","admin3":"03454"},{"geonameid":6552896,"name":"Hilkenbrook","admin3":"03454"},{"geonameid":6552897,"name":"Hüven","admin3":"03454"},{"geonameid":6552898,"name":"Klein Berßen","admin3":"03454"},{"geonameid":6552899,"name":"Kluse","admin3":"03454"},{"geonameid":6552900,"name":"Lähden","admin3":"03454"},{"geonameid":6552901,"name":"Lahn","admin3":"03454"},{"geonameid":6552902,"name":"Langen","admin3":"03454"},{"geonameid":6552904,"name":"Lathen","admin3":"03454"},{"geonameid":6552905,"name":"Lehe","admin3":"03454"},{"geonameid":6552906,"name":"Lengerich","admin3":"03454"},{"geonameid":6552907,"name":"Lorup","admin3":"03454"},{"geonameid":6552908,"name":"Lünne","admin3":"03454"},{"geonameid":6552909,"name":"Messingen","admin3":"03454"},{"geonameid":6552910,"name":"Neubörger","admin3":"03454"},{"geonameid":6552911,"name":"Neulehe","admin3":"03454"},{"geonameid":6552912,"name":"Niederlangen","admin3":"03454"},{"geonameid":6552913,"name":"Oberlangen","admin3":"03454"},{"geonameid":6552914,"name":"Rastdorf","admin3":"03454"},{"geonameid":6552915,"name":"Renkenberge","admin3":"03454"},{"geonameid":6552916,"name":"Salzbergen","admin3":"03454"},{"geonameid":6552917,"name":"Schapen","admin3":"03454"},{"geonameid":6552918,"name":"Sögel","admin3":"03454"},{"geonameid":6552919,"name":"Spelle","admin3":"03454"},{"geonameid":6552920,"name":"Stavern","admin3":"03454"},{"geonameid":6552921,"name":"Surwold","admin3":"03454"},{"geonameid":6552922,"name":"Sustrum","admin3":"03454"},{"geonameid":6552923,"name":"Thuine","admin3":"03454"},{"geonameid":6552924,"name":"Twist","admin3":"03454"},{"geonameid":6552925,"name":"Vrees","admin3":"03454"},{"geonameid":6552926,"name":"Walchum","admin3":"03454"},{"geonameid":6552927,"name":"Werlte","admin3":"03454"},{"geonameid":6552928,"name":"Werpeloh","admin3":"03454"},{"geonameid":6552929,"name":"Wettrup","admin3":"03454"},{"geonameid":6552930,"name":"Wippingen","admin3":"03454"},{"geonameid":6552931,"name":"Emlichheim","admin3":"03456"},{"geonameid":6552932,"name":"Engden","admin3":"03456"},{"geonameid":6552933,"name":"Esche","admin3":"03456"},{"geonameid":6552934,"name":"Georgsdorf","admin3":"03456"},{"geonameid":6552935,"name":"Getelo","admin3":"03456"},{"geonameid":6552936,"name":"Gölenkamp","admin3":"03456"},{"geonameid":6552937,"name":"Isterberg","admin3":"03456"},{"geonameid":6552938,"name":"Itterbeck","admin3":"03456"},{"geonameid":6552939,"name":"Laar","admin3":"03456"},{"geonameid":6552940,"name":"Lage","admin3":"03456"},{"geonameid":6552941,"name":"Ohne","admin3":"03456"},{"geonameid":6552942,"name":"Quendorf","admin3":"03456"},{"geonameid":6552943,"name":"Ringe","admin3":"03456"},{"geonameid":6552945,"name":"Uelsen","admin3":"03456"},{"geonameid":6552946,"name":"Wietmarschen","admin3":"03456"},{"geonameid":6552947,"name":"Wilsum","admin3":"03456"},{"geonameid":6552948,"name":"Brinkum","admin3":"03457"},{"geonameid":6552949,"name":"Filsum","admin3":"03457"},{"geonameid":6552950,"name":"Firrel","admin3":"03457"},{"geonameid":6552951,"name":"Hesel","admin3":"03457"},{"geonameid":6552952,"name":"Holtland","admin3":"03457"},{"geonameid":6552953,"name":"Jemgum","admin3":"03457"},{"geonameid":6552954,"name":"Moormerland","admin3":"03457"},{"geonameid":6552955,"name":"Neukamperfehn","admin3":"03457"},{"geonameid":6552956,"name":"Nortmoor","admin3":"03457"},{"geonameid":6552957,"name":"Ostrhauderfehn","admin3":"03457"},{"geonameid":6552958,"name":"Rhauderfehn","admin3":"03457"},{"geonameid":6552959,"name":"Schwerinsdorf","admin3":"03457"},{"geonameid":6552960,"name":"Bunde","admin3":"03457"},{"geonameid":6552961,"name":"Beckeln","admin3":"03458"},{"geonameid":6552962,"name":"Colnrade","admin3":"03458"},{"geonameid":6552963,"name":"Dötlingen","admin3":"03458"},{"geonameid":6552964,"name":"Dünsen","admin3":"03458"},{"geonameid":6552965,"name":"Ganderkesee","admin3":"03458"},{"geonameid":6552966,"name":"Groß Ippener","admin3":"03458"},{"geonameid":6552967,"name":"Großenkneten","admin3":"03458"},{"geonameid":6552968,"name":"Hatten","admin3":"03458"},{"geonameid":6552969,"name":"Hude (Oldenburg)","admin3":"03458"},{"geonameid":6552970,"name":"Kirchseelte","admin3":"03458"},{"geonameid":6552971,"name":"Prinzhöfte","admin3":"03458"},{"geonameid":6552972,"name":"Winkelsett","admin3":"03458"},{"geonameid":6552973,"name":"Alfhausen","admin3":"03459"},{"geonameid":6552974,"name":"Ankum","admin3":"03459"},{"geonameid":6552975,"name":"Bad Essen","admin3":"03459"},{"geonameid":6552976,"name":"Bad Laer","admin3":"03459"},{"geonameid":6552977,"name":"Bad Rothenfelde","admin3":"03459"},{"geonameid":6552978,"name":"Badbergen","admin3":"03459"},{"geonameid":6552979,"name":"Belm","admin3":"03459"},{"geonameid":6552980,"name":"Berge","admin3":"03459"},{"geonameid":6552981,"name":"Bippen","admin3":"03459"},{"geonameid":6552982,"name":"Bissendorf","admin3":"03459"},{"geonameid":6552983,"name":"Bohmte","admin3":"03459"},{"geonameid":6552984,"name":"Eggermühlen","admin3":"03459"},{"geonameid":6552985,"name":"Gehrde","admin3":"03459"},{"geonameid":6552986,"name":"Hagen am Teutoburger Wald","admin3":"03459"},{"geonameid":6552987,"name":"Hasbergen","admin3":"03459"},{"geonameid":6552988,"name":"Hilter am Teutoburger Wald","admin3":"03459"},{"geonameid":6552989,"name":"Kettenkamp","admin3":"03459"},{"geonameid":6552990,"name":"Menslage","admin3":"03459"},{"geonameid":6552991,"name":"Neuenkirchen","admin3":"03459"},{"geonameid":6552992,"name":"Nortrup","admin3":"03459"},{"geonameid":6552993,"name":"Ostercappeln","admin3":"03459"},{"geonameid":6552994,"name":"Rieste","admin3":"03459"},{"geonameid":6552995,"name":"Voltlage","admin3":"03459"},{"geonameid":6552996,"name":"Wallenhorst","admin3":"03459"},{"geonameid":6552997,"name":"Glandorf","admin3":"03459"},{"geonameid":6552998,"name":"Bakum","admin3":"03460"},{"geonameid":6552999,"name":"Goldenstedt","admin3":"03460"},{"geonameid":6553000,"name":"Holdorf","admin3":"03460"},{"geonameid":6553001,"name":"Neuenkirchen-Vörden","admin3":"03460"},{"geonameid":6553002,"name":"Steinfeld (Oldenburg)","admin3":"03460"},{"geonameid":6553003,"name":"Visbek","admin3":"03460"},{"geonameid":6553004,"name":"Lemwerder","admin3":"03461"},{"geonameid":6553005,"name":"Ovelgönne","admin3":"03461"},{"geonameid":6553006,"name":"Blomberg","admin3":"03462"},{"geonameid":6553007,"name":"Dunum","admin3":"03462"},{"geonameid":6553008,"name":"Eversmeer","admin3":"03462"},{"geonameid":6553009,"name":"Holtgast","admin3":"03462"},{"geonameid":6553010,"name":"Langeoog","admin3":"03462"},{"geonameid":6553011,"name":"Moorweg","admin3":"03462"},{"geonameid":6553012,"name":"Nenndorf","admin3":"03462"},{"geonameid":6553013,"name":"Neuharlingersiel","admin3":"03462"},{"geonameid":6553014,"name":"Schweindorf","admin3":"03462"},{"geonameid":6553015,"name":"Spiekeroog","admin3":"03462"},{"geonameid":6553016,"name":"Stedesdorf","admin3":"03462"},{"geonameid":6553017,"name":"Utarp","admin3":"03462"},{"geonameid":6553018,"name":"Werdum","admin3":"03462"},{"geonameid":6553019,"name":"Westerholt","admin3":"03462"},{"geonameid":6557316,"name":"Damme","admin3":"03460"},{"geonameid":6557369,"name":"Gifhorn","admin3":"03151"},{"geonameid":6557370,"name":"Wittingen","admin3":"03151"},{"geonameid":6557371,"name":"Dransfeld","admin3":"03159"},{"geonameid":6557372,"name":"Duderstadt","admin3":"03159"},{"geonameid":6557373,"name":"Göttingen","admin3":"03159"},{"geonameid":6557374,"name":"Braunlage","admin3":"03153"},{"geonameid":6557375,"name":"Langelsheim","admin3":"03153"},{"geonameid":6557376,"name":"Seesen","admin3":"03153"},{"geonameid":6557378,"name":"Helmstedt","admin3":"03154"},{"geonameid":6557379,"name":"Königslutter am Elm","admin3":"03154"},{"geonameid":6557380,"name":"Schöningen","admin3":"03154"},{"geonameid":6557381,"name":"Bad Gandersheim","admin3":"03155"},{"geonameid":6557382,"name":"Dassel","admin3":"03155"},{"geonameid":6557383,"name":"Einbeck","admin3":"03155"},{"geonameid":6557384,"name":"Hardegsen","admin3":"03155"},{"geonameid":6557385,"name":"Moringen","admin3":"03155"},{"geonameid":6557386,"name":"Northeim","admin3":"03155"},{"geonameid":6557387,"name":"Uslar","admin3":"03155"},{"geonameid":6557388,"name":"Bad Lauterberg im Harz","admin3":"03159"},{"geonameid":6557389,"name":"Bad Sachsa","admin3":"03159"},{"geonameid":6557390,"name":"Herzberg am Harz","admin3":"03159"},{"geonameid":6557391,"name":"Osterode am Harz","admin3":"03159"},{"geonameid":6557392,"name":"Peine","admin3":"03157"},{"geonameid":6557394,"name":"Schöppenstedt","admin3":"03158"},{"geonameid":6557395,"name":"Wolfenbüttel","admin3":"03158"},{"geonameid":6557396,"name":"Barsinghausen","admin3":"03241"},{"geonameid":6557397,"name":"Burgdorf","admin3":"03241"},{"geonameid":6557398,"name":"Garbsen","admin3":"03241"},{"geonameid":6557399,"name":"Gehrden","admin3":"03241"},{"geonameid":6557400,"name":"Hemmingen","admin3":"03241"},{"geonameid":6557401,"name":"Laatzen","admin3":"03241"},{"geonameid":6557402,"name":"Langenhagen","admin3":"03241"},{"geonameid":6557403,"name":"Lehrte","admin3":"03241"},{"geonameid":6557404,"name":"Neustadt am Rübenberge","admin3":"03241"},{"geonameid":6557405,"name":"Pattensen","admin3":"03241"},{"geonameid":6557406,"name":"Ronnenberg","admin3":"03241"},{"geonameid":6557407,"name":"Sehnde","admin3":"03241"},{"geonameid":6557408,"name":"Springe","admin3":"03241"},{"geonameid":6557409,"name":"Wunstorf","admin3":"03241"},{"geonameid":6557410,"name":"Bassum","admin3":"03251"},{"geonameid":6557411,"name":"Diepholz","admin3":"03251"},{"geonameid":6557412,"name":"Sulingen","admin3":"03251"},{"geonameid":6557413,"name":"Syke","admin3":"03251"},{"geonameid":6557414,"name":"Twistringen","admin3":"03251"},{"geonameid":6557415,"name":"Bad Münder am Deister","admin3":"03252"},{"geonameid":6557416,"name":"Bad Pyrmont","admin3":"03252"},{"geonameid":6557417,"name":"Hameln","admin3":"03252"},{"geonameid":6557418,"name":"Hessisch Oldendorf","admin3":"03252"},{"geonameid":6557419,"name":"Alfeld (Leine)","admin3":"03254"},{"geonameid":6557420,"name":"Bad Salzdetfurth","admin3":"03254"},{"geonameid":6557421,"name":"Bockenem","admin3":"03254"},{"geonameid":6557422,"name":"Elze","admin3":"03254"},{"geonameid":6557423,"name":"Gronau (Leine)","admin3":"03254"},{"geonameid":6557424,"name":"Hildesheim","admin3":"03254"},{"geonameid":6557425,"name":"Sarstedt","admin3":"03254"},{"geonameid":6557426,"name":"Bodenwerder","admin3":"03255"},{"geonameid":6557427,"name":"Eschershausen","admin3":"03255"},{"geonameid":6557428,"name":"Holzminden","admin3":"03255"},{"geonameid":6557429,"name":"Stadtoldendorf","admin3":"03255"},{"geonameid":6557430,"name":"Hoya","admin3":"03256"},{"geonameid":6557431,"name":"Bergen","admin3":"03351"},{"geonameid":6557432,"name":"Celle","admin3":"03351"},{"geonameid":6557433,"name":"Cuxhaven","admin3":"03352"},{"geonameid":6557434,"name":"Hemmoor","admin3":"03352"},{"geonameid":6557436,"name":"Otterndorf","admin3":"03352"},{"geonameid":6557437,"name":"Buchholz in der Nordheide","admin3":"03353"},{"geonameid":6557438,"name":"Winsen (Luhe)","admin3":"03353"},{"geonameid":6557439,"name":"Schnackenburg","admin3":"03354"},{"geonameid":6557440,"name":"Bleckede","admin3":"03355"},{"geonameid":6557441,"name":"Lüneburg","admin3":"03355"},{"geonameid":6557442,"name":"Osterholz-Scharmbeck","admin3":"03356"},{"geonameid":6557443,"name":"Bremervörde","admin3":"03357"},{"geonameid":6557444,"name":"Rotenburg (Wümme)","admin3":"03357"},{"geonameid":6557445,"name":"Visselhövede","admin3":"03357"},{"geonameid":6557446,"name":"Zeven","admin3":"03357"},{"geonameid":6557447,"name":"Munster","admin3":"03358"},{"geonameid":6557448,"name":"Rethem (Aller)","admin3":"03358"},{"geonameid":6557449,"name":"Schneverdingen","admin3":"03358"},{"geonameid":6557450,"name":"Soltau","admin3":"03358"},{"geonameid":6557452,"name":"Buxtehude","admin3":"03359"},{"geonameid":6557453,"name":"Stade","admin3":"03359"},{"geonameid":6557454,"name":"Bad Bevensen","admin3":"03360"},{"geonameid":6557455,"name":"Uelzen","admin3":"03360"},{"geonameid":6557456,"name":"Achim","admin3":"03361"},{"geonameid":6557457,"name":"Verden (Aller)","admin3":"03361"},{"geonameid":6557458,"name":"Westerstede","admin3":"03451"},{"geonameid":6557459,"name":"Aurich","admin3":"03452"},{"geonameid":6557460,"name":"Norderney","admin3":"03452"},{"geonameid":6557461,"name":"Cloppenburg","admin3":"03453"},{"geonameid":6557462,"name":"Friesoythe","admin3":"03453"},{"geonameid":6557463,"name":"Löningen","admin3":"03453"},{"geonameid":6557464,"name":"Freren","admin3":"03454"},{"geonameid":6557465,"name":"Haselünne","admin3":"03454"},{"geonameid":6557466,"name":"Meppen","admin3":"03454"},{"geonameid":6557467,"name":"Papenburg","admin3":"03454"},{"geonameid":6557468,"name":"Bad Bentheim","admin3":"03456"},{"geonameid":6557469,"name":"Neuenhaus","admin3":"03456"},{"geonameid":6557470,"name":"Nordhorn","admin3":"03456"},{"geonameid":6557471,"name":"Schüttorf","admin3":"03456"},{"geonameid":6557472,"name":"Borkum","admin3":"03457"},{"geonameid":6557473,"name":"Leer (Ostfriesland)","admin3":"03457"},{"geonameid":6557474,"name":"Weener","admin3":"03457"},{"geonameid":6557475,"name":"Wildeshausen","admin3":"03458"},{"geonameid":6557476,"name":"Bad Iburg","admin3":"03459"},{"geonameid":6557477,"name":"Bersenbrück","admin3":"03459"},{"geonameid":6557478,"name":"Bramsche","admin3":"03459"},{"geonameid":6557479,"name":"Dissen am Teutoburger Wald","admin3":"03459"},{"geonameid":6557480,"name":"Fürstenau","admin3":"03459"},{"geonameid":6557481,"name":"Georgsmarienhütte","admin3":"03459"},{"geonameid":6557482,"name":"Melle","admin3":"03459"},{"geonameid":6557483,"name":"Quakenbrück","admin3":"03459"},{"geonameid":6557484,"name":"Dinklage","admin3":"03460"},{"geonameid":6557485,"name":"Lohne (Oldenburg)","admin3":"03460"},{"geonameid":6557486,"name":"Vechta","admin3":"03460"},{"geonameid":6557487,"name":"Elsfleth","admin3":"03461"},{"geonameid":6557488,"name":"Nordenham","admin3":"03461"},{"geonameid":6557489,"name":"Esens","admin3":"03462"},{"geonameid":6558431,"name":"Salzgitter","admin3":"03102"},{"geonameid":6558432,"name":"Bad Harzburg","admin3":"03153"},{"geonameid":6558434,"name":"Estorf","admin3":"03256"},{"geonameid":6558435,"name":"Heemsen","admin3":"03256"},{"geonameid":6558436,"name":"Landesbergen","admin3":"03256"},{"geonameid":6558437,"name":"Nienburg/Weser","admin3":"03256"},{"geonameid":6558438,"name":"Rehburg-Loccum","admin3":"03256"},{"geonameid":6558439,"name":"Steimbke","admin3":"03256"},{"geonameid":6558440,"name":"Stolzenau","admin3":"03256"},{"geonameid":6558441,"name":"Apelern","admin3":"03257"},{"geonameid":6558442,"name":"Auetal","admin3":"03257"},{"geonameid":6558443,"name":"Auhagen","admin3":"03257"},{"geonameid":6558444,"name":"Bad Nenndorf","admin3":"03257"},{"geonameid":6558445,"name":"Bückeburg","admin3":"03257"},{"geonameid":6558446,"name":"Heuerßen","admin3":"03257"},{"geonameid":6558447,"name":"Hohnhorst","admin3":"03257"},{"geonameid":6558448,"name":"Hülsede","admin3":"03257"},{"geonameid":6558449,"name":"Lauenhagen","admin3":"03257"},{"geonameid":6558450,"name":"Lindhorst","admin3":"03257"},{"geonameid":6558451,"name":"Lüdersfeld","admin3":"03257"},{"geonameid":6558452,"name":"Meerbeck","admin3":"03257"},{"geonameid":6558453,"name":"Messenkamp","admin3":"03257"},{"geonameid":6558454,"name":"Obernkirchen","admin3":"03257"},{"geonameid":6558455,"name":"Rinteln","admin3":"03257"},{"geonameid":6558456,"name":"Rodenberg","admin3":"03257"},{"geonameid":6558457,"name":"Sachsenhagen","admin3":"03257"},{"geonameid":6558458,"name":"Seggebruch","admin3":"03257"},{"geonameid":6558459,"name":"Stadthagen","admin3":"03257"},{"geonameid":6558460,"name":"Suthfeld","admin3":"03257"},{"geonameid":6558461,"name":"Wölpinghausen","admin3":"03257"},{"geonameid":6558462,"name":"Damnatz","admin3":"03354"},{"geonameid":6558463,"name":"Dannenberg (Elbe)","admin3":"03354"},{"geonameid":6558464,"name":"Göhrde","admin3":"03354"},{"geonameid":6558465,"name":"Gorleben","admin3":"03354"},{"geonameid":6558466,"name":"Jameln","admin3":"03354"},{"geonameid":6558467,"name":"Karwitz","admin3":"03354"},{"geonameid":6558468,"name":"Küsten","admin3":"03354"},{"geonameid":6558469,"name":"Schnega","admin3":"03354"},{"geonameid":6558470,"name":"Waddeweitz","admin3":"03354"},{"geonameid":6558471,"name":"Großefehn","admin3":"03452"},{"geonameid":6558472,"name":"Hinte","admin3":"03452"},{"geonameid":6558473,"name":"Ihlow","admin3":"03452"},{"geonameid":6558474,"name":"Krummhörn","admin3":"03452"},{"geonameid":6558475,"name":"Norden","admin3":"03452"},{"geonameid":6558476,"name":"Südbrookmerland","admin3":"03452"},{"geonameid":6558477,"name":"Wiesmoor","admin3":"03452"},{"geonameid":6558478,"name":"Dornum","admin3":"03452"},{"geonameid":6558479,"name":"Jever","admin3":"03455"},{"geonameid":6558480,"name":"Sande","admin3":"03455"},{"geonameid":6558481,"name":"Schortens","admin3":"03455"},{"geonameid":6558482,"name":"Zetel","admin3":"03455"},{"geonameid":6558483,"name":"Friedeburg","admin3":"03462"},{"geonameid":6558484,"name":"Ochtersum","admin3":"03462"},{"geonameid":6558485,"name":"Wittmund","admin3":"03462"},{"geonameid":6558860,"name":"Gieboldehausen, Flecken","admin3":"03159"},{"geonameid":6558862,"name":"Lutter am Barenberge, Flecken","admin3":"03153"},{"geonameid":6558863,"name":"Bodenfelde, Flecken","admin3":"03155"},{"geonameid":6558866,"name":"Veltheim (Ohe)","admin3":"03158"},{"geonameid":6558867,"name":"Barenburg, Flecken","admin3":"03251"},{"geonameid":6558868,"name":"Barnstorf, Flecken","admin3":"03251"},{"geonameid":6558869,"name":"Bruchhausen-Vilsen, Flecken","admin3":"03251"},{"geonameid":6558870,"name":"Lemförde, Flecken","admin3":"03251"},{"geonameid":6558871,"name":"Siedenburg, Flecken","admin3":"03251"},{"geonameid":6558872,"name":"Lamspringe","admin3":"03254"},{"geonameid":6558873,"name":"Polle, Flecken","admin3":"03255"},{"geonameid":6558874,"name":"Bücken, Flecken","admin3":"03256"},{"geonameid":6558876,"name":"Beverstedt","admin3":"03352"},{"geonameid":6558877,"name":"Neuhaus (Oste), Flecken","admin3":"03352"},{"geonameid":6558878,"name":"Bardowick","admin3":"03355"},{"geonameid":6558879,"name":"Dahlenburg, Flecken","admin3":"03355"},{"geonameid":6558880,"name":"Ahlden (Aller), Flecken","admin3":"03358"},{"geonameid":6558881,"name":"Harsefeld, Flecken","admin3":"03359"},{"geonameid":6558882,"name":"Horneburg, Flecken","admin3":"03359"},{"geonameid":6558883,"name":"Hage, Flecken","admin3":"03452"},{"geonameid":6558884,"name":"Marienhafe, Flecken","admin3":"03452"},{"geonameid":6558885,"name":"Harpstedt, Flecken","admin3":"03458"},{"geonameid":6559058,"name":"Brome, Flecken","admin3":"03151"},{"geonameid":6559059,"name":"Adelebsen, Flecken","admin3":"03159"},{"geonameid":6559060,"name":"Bovenden, Flecken","admin3":"03159"},{"geonameid":6559064,"name":"Nörten-Hardenberg, Flecken","admin3":"03155"},{"geonameid":6559065,"name":"Hannover, Landeshauptstadt","admin3":"03241"},{"geonameid":6559066,"name":"Wennigsen (Deister)","admin3":"03241"},{"geonameid":6559067,"name":"Aerzen, Flecken","admin3":"03252"},{"geonameid":6559068,"name":"Coppenbrügge, Flecken","admin3":"03252"},{"geonameid":6559069,"name":"Salzhemmendorf, Flecken","admin3":"03252"},{"geonameid":6559070,"name":"Eime, Flecken","admin3":"03254"},{"geonameid":6559071,"name":"Duingen, Flecken","admin3":"03254"},{"geonameid":6559072,"name":"Bevern, Flecken","admin3":"03255"},{"geonameid":6559073,"name":"Delligsen, Flecken","admin3":"03255"},{"geonameid":6559074,"name":"Lauenförde, Flecken","admin3":"03255"},{"geonameid":6559075,"name":"Ottenstein, Flecken","admin3":"03255"},{"geonameid":6559076,"name":"Diepenau, Flecken","admin3":"03256"},{"geonameid":6559077,"name":"Drakenburg, Flecken","admin3":"03256"},{"geonameid":6559078,"name":"Liebenau, Flecken","admin3":"03256"},{"geonameid":6559079,"name":"Uchte, Flecken","admin3":"03256"},{"geonameid":6559080,"name":"Wiedensahl, Flecken","admin3":"03257"},{"geonameid":6559081,"name":"Luckau (Wendland)","admin3":"03354"},{"geonameid":6559082,"name":"Lüchow (Wendland)","admin3":"03354"},{"geonameid":6559083,"name":"Wustrow (Wendland)","admin3":"03354"},{"geonameid":6559084,"name":"Artlenburg, Flecken","admin3":"03355"},{"geonameid":6559085,"name":"Freiburg (Elbe), Flecken","admin3":"03359"},{"geonameid":6559086,"name":"Bad Bodenteich, Flecken","admin3":"03360"},{"geonameid":6559087,"name":"Ebstorf, Flecken","admin3":"03360"},{"geonameid":6559088,"name":"Langwedel, Flecken","admin3":"03361"},{"geonameid":6559089,"name":"Ottersberg, Flecken","admin3":"03361"},{"geonameid":6559090,"name":"Haren (Ems)","admin3":"03454"},{"geonameid":6559091,"name":"Lingen (Ems)","admin3":"03454"},{"geonameid":6559092,"name":"Rhede (Ems)","admin3":"03454"},{"geonameid":6559093,"name":"Wangerooge, Nordseebad","admin3":"03455"},{"geonameid":6559094,"name":"Detern, Flecken","admin3":"03457"},{"geonameid":6559095,"name":"Brake (Unterweser)","admin3":"03461"},{"geonameid":6559325,"name":"Wielen","admin3":"03456"},{"geonameid":7602410,"name":"Bad Fallingbostel","admin3":"03358"},{"geonameid":7602428,"name":"Schweringen","admin3":"03256"},{"geonameid":7602429,"name":"Steyerberg, Flecken","admin3":"03256"},{"geonameid":7602430,"name":"Lauenau, Flecken","admin3":"03257"},{"geonameid":7602459,"name":"Hagenburg, Flecken","admin3":"03257"},{"geonameid":7602460,"name":"Clenze, Flecken","admin3":"03354"},{"geonameid":7602461,"name":"Hitzacker (Elbe)","admin3":"03354"},{"geonameid":7602478,"name":"Wingst","admin3":"03352"},{"geonameid":7602479,"name":"Gartow, Flecken","admin3":"03354"},{"geonameid":7602563,"name":"Hann. Münden","admin3":"03159"},{"geonameid":7602582,"name":"Bergen an der Dumme, Flecken","admin3":"03354"},{"geonameid":8658965,"name":"Bad Grund (Harz)","admin3":"03159"},{"geonameid":10942643,"name":"Goslar","admin3":"03153"},{"geonameid":10942645,"name":"Clausthal-Zellerfeld","admin3":"03153"},{"geonameid":10942646,"name":"Schladen-Werla","admin3":"03158"},{"geonameid":10942647,"name":"Wurster Nordseeküste","admin3":"03352"},{"geonameid":10942653,"name":"Eschede","admin3":"03351"},{"geonameid":10942654,"name":"Ilsede","admin3":"03157"},{"geonameid":10942655,"name":"Südheide","admin3":"03351"},{"geonameid":10942656,"name":"Hagen im Bremischen","admin3":"03352"},{"geonameid":10942661,"name":"Geestland","admin3":"03352"},{"geonameid":11856413,"name":"Remlingen-Semmenstedt","admin3":"03158"},{"geonameid":12166281,"name":"Walsrode","admin3":"03358"}]},"__N_SSG":true}