{"pageProps":{"locale":"en","admin2":{"geonameid":5789829,"name":"Chelan County","country":"US","admin1":"WA","admin2":"007","admin3":"","latitude":"47.8691000","longitude":"-120.6189100"},"admin1":{"geonameid":5815135,"name":"Washington","admin1":"WA","localeAltName":"Washington"},"locations":[{"geonameid":5789342,"name":"Cashmere","admin3":""},{"geonameid":5789826,"name":"Chelan","admin3":""},{"geonameid":5793817,"name":"Entiat","admin3":""},{"geonameid":5795988,"name":"Granite Falls","admin3":""},{"geonameid":5800683,"name":"Leavenworth","admin3":""},{"geonameid":5802291,"name":"Manson","admin3":""},{"geonameid":7261826,"name":"South Wenatchee","admin3":""},{"geonameid":5812626,"name":"Sunnyslope","admin3":""},{"geonameid":5815342,"name":"Wenatchee","admin3":""},{"geonameid":5815609,"name":"West Wenatchee","admin3":""}],"admin3":[{"geonameid":7172815,"name":"City of Cashmere","admin3":"7172815"},{"geonameid":7173389,"name":"City of Entiat","admin3":"7173389"},{"geonameid":7173657,"name":"City of Leavenworth","admin3":"7173657"},{"geonameid":7174673,"name":"City of Wenatchee","admin3":"7174673"}],"alternateNames":[{"alternatenameId":2089568,"geonameid":5815135,"isoLanguage":"en","alternateName":"Washington","isPreferredName":true,"isShortName":true,"isColloquial":false,"isHistoric":false}]},"__N_SSG":true}