{"pageProps":{"locale":"en","admin2":{"geonameid":5806002,"name":"Pacific County","country":"US","admin1":"WA","admin2":"049","admin3":"","latitude":"46.5512800","longitude":"-123.7788600"},"admin1":{"geonameid":5815135,"name":"Washington","admin1":"WA","localeAltName":"Washington"},"locations":[{"geonameid":5801520,"name":"Long Beach","admin3":""},{"geonameid":5805503,"name":"Ocean Park","admin3":""},{"geonameid":5807986,"name":"Raymond","admin3":""},{"geonameid":5811211,"name":"South Bend","admin3":""}],"admin3":[{"geonameid":7173138,"name":"City of Ilwaco","admin3":"7173138"},{"geonameid":7173692,"name":"City of Long Beach","admin3":"7173692"},{"geonameid":7174166,"name":"City of Raymond","admin3":"7174166"},{"geonameid":11788355,"name":"City of South Bend","admin3":"11788355"}],"alternateNames":[{"alternatenameId":2089568,"geonameid":5815135,"isoLanguage":"en","alternateName":"Washington","isPreferredName":true,"isShortName":true,"isColloquial":false,"isHistoric":false}]},"__N_SSG":true}