{"pageProps":{"locale":"en","admin2":{"geonameid":5806769,"name":"Pierce County","country":"US","admin1":"WA","admin2":"053","admin3":"","latitude":"47.0376400","longitude":"-122.1373500"},"admin1":{"geonameid":5815135,"name":"Washington","admin1":"WA","localeAltName":"Washington"},"locations":[{"geonameid":5785450,"name":"Alderton","admin3":""},{"geonameid":5785909,"name":"Artondale","admin3":""},{"geonameid":5787776,"name":"Bonney Lake","admin3":""},{"geonameid":5788254,"name":"Browns Point","admin3":""},{"geonameid":5788409,"name":"Buckley","admin3":""},{"geonameid":5789048,"name":"Canterwood","admin3":""},{"geonameid":7315411,"name":"Crocker","admin3":""},{"geonameid":5792869,"name":"DuPont","admin3":""},{"geonameid":5793321,"name":"Eatonville","admin3":""},{"geonameid":5793406,"name":"Edgewood","admin3":""},{"geonameid":5793609,"name":"Elk Plain","admin3":""},{"geonameid":5794328,"name":"Fife","admin3":""},{"geonameid":5794330,"name":"Fife Heights","admin3":""},{"geonameid":5794416,"name":"Fircrest","admin3":""},{"geonameid":5794940,"name":"Fox Island","admin3":""},{"geonameid":5795011,"name":"Frederickson","admin3":""},{"geonameid":5795440,"name":"Gig Harbor","admin3":""},{"geonameid":5795906,"name":"Graham","admin3":""},{"geonameid":5797582,"name":"Home","admin3":""},{"geonameid":7261292,"name":"Joint Base Lewis McChord","admin3":""},{"geonameid":5799692,"name":"Key Center","admin3":""},{"geonameid":5800420,"name":"Lakewood","admin3":""},{"geonameid":5801595,"name":"Longbranch","admin3":""},{"geonameid":5802349,"name":"Maplewood","admin3":""},{"geonameid":7261245,"name":"McChord Air Force Base","admin3":""},{"geonameid":5802950,"name":"McMillin","admin3":""},{"geonameid":5803357,"name":"Midland","admin3":""},{"geonameid":5803556,"name":"Milton","admin3":""},{"geonameid":7315420,"name":"North Fort Lewis","admin3":""},{"geonameid":5805248,"name":"North Puyallup","admin3":""},{"geonameid":5805849,"name":"Orting","admin3":""},{"geonameid":5806253,"name":"Parkland","admin3":""},{"geonameid":7315422,"name":"Prairie Heights","admin3":""},{"geonameid":5807367,"name":"Prairie Ridge","admin3":""},{"geonameid":5807558,"name":"Purdy","admin3":""},{"geonameid":5807575,"name":"Puyallup","admin3":""},{"geonameid":5808834,"name":"Rosedale","admin3":""},{"geonameid":5811456,"name":"South Hill","admin3":""},{"geonameid":5811581,"name":"Spanaway","admin3":""},{"geonameid":5812092,"name":"Steilacoom","admin3":""},{"geonameid":5812505,"name":"Summit","admin3":""},{"geonameid":7315426,"name":"Summit View","admin3":""},{"geonameid":5812543,"name":"Sumner","admin3":""},{"geonameid":5812944,"name":"Tacoma","admin3":""},{"geonameid":5814450,"name":"University Place","admin3":""},{"geonameid":5814941,"name":"Waller","admin3":""},{"geonameid":5815213,"name":"Wauna","admin3":""},{"geonameid":5816413,"name":"Wollochet","admin3":""}],"admin3":[{"geonameid":7173044,"name":"City of Bonney Lake","admin3":"7173044"},{"geonameid":7173083,"name":"City of Buckley","admin3":"7173083"},{"geonameid":7173334,"name":"City of DuPont","admin3":"7173334"},{"geonameid":7173355,"name":"City of Edgewood","admin3":"7173355"},{"geonameid":7173428,"name":"City of Fife","admin3":"7173428"},{"geonameid":7173431,"name":"City of Fircrest","admin3":"7173431"},{"geonameid":7173490,"name":"City of Gig Harbor","admin3":"7173490"},{"geonameid":7173795,"name":"City of Roy","admin3":"7173795"},{"geonameid":7173865,"name":"City of Milton","admin3":"7173865"},{"geonameid":7174028,"name":"City of Orting","admin3":"7174028"},{"geonameid":7174149,"name":"City of Puyallup","admin3":"7174149"},{"geonameid":7174229,"name":"City of Lakewood","admin3":"7174229"},{"geonameid":7174518,"name":"City of Sumner","admin3":"7174518"},{"geonameid":7174537,"name":"City of Tacoma","admin3":"7174537"},{"geonameid":7174618,"name":"City of University Place","admin3":"7174618"},{"geonameid":7174885,"name":"Town of Eatonville","admin3":"7174885"},{"geonameid":7175003,"name":"Town of Ruston","admin3":"7175003"},{"geonameid":7175571,"name":"Town of Carbonado","admin3":"7175571"},{"geonameid":7175711,"name":"Town of South Prairie","admin3":"7175711"},{"geonameid":7175733,"name":"Town of Steilacoom","admin3":"7175733"},{"geonameid":7175886,"name":"Town of Wilkeson","admin3":"7175886"}],"alternateNames":[{"alternatenameId":2089568,"geonameid":5815135,"isoLanguage":"en","alternateName":"Washington","isPreferredName":true,"isShortName":true,"isColloquial":false,"isHistoric":false}]},"__N_SSG":true}