{"pageProps":{"locale":"en","admin2":{"geonameid":5815675,"name":"Whatcom County","country":"US","admin1":"WA","admin2":"073","admin3":"","latitude":"48.8297500","longitude":"-121.8728300"},"admin1":{"geonameid":5815135,"name":"Washington","admin1":"WA","localeAltName":"Washington"},"locations":[{"geonameid":5786899,"name":"Bellingham","admin3":""},{"geonameid":5787316,"name":"Birch Bay","admin3":""},{"geonameid":5787475,"name":"Blaine","admin3":""},{"geonameid":5794011,"name":"Everson","admin3":""},{"geonameid":5794276,"name":"Ferndale","admin3":""},{"geonameid":5795348,"name":"Geneva","admin3":""},{"geonameid":5802035,"name":"Lynden","admin3":""},{"geonameid":5802418,"name":"Marietta","admin3":""},{"geonameid":7261228,"name":"Marietta-Alderwood","admin3":""},{"geonameid":5804860,"name":"Nooksack","admin3":""},{"geonameid":7176028,"name":"Peaceful Valley","admin3":""},{"geonameid":5807107,"name":"Point Roberts","admin3":""},{"geonameid":5812434,"name":"Sudden Valley","admin3":""},{"geonameid":5812494,"name":"Sumas","admin3":""}],"admin3":[{"geonameid":7173007,"name":"City of Bellingham","admin3":"7173007"},{"geonameid":7173031,"name":"City of Blaine","admin3":"7173031"},{"geonameid":7173409,"name":"City of Everson","admin3":"7173409"},{"geonameid":7173425,"name":"City of Ferndale","admin3":"7173425"},{"geonameid":7173718,"name":"City of Lynden","admin3":"7173718"},{"geonameid":7173975,"name":"City of Nooksack","admin3":"7173975"},{"geonameid":7174517,"name":"City of Sumas","admin3":"7174517"}],"alternateNames":[{"alternatenameId":2089568,"geonameid":5815135,"isoLanguage":"en","alternateName":"Washington","isPreferredName":true,"isShortName":true,"isColloquial":false,"isHistoric":false}]},"__N_SSG":true}