{"pageProps":{"locale":"en","admin2":{"geonameid":6119132,"name":"Regional District of Kitimat-Stikine","country":"CA","admin1":"02","admin2":"5949","admin3":"","latitude":"55.3328900","longitude":"-129.0036200"},"admin1":{"geonameid":5909050,"name":"British Columbia","admin1":"02"},"locations":[{"geonameid":5883655,"name":"Alice Arm","admin3":""},{"geonameid":5950736,"name":"Exstew","admin3":""},{"geonameid":5954565,"name":"Fleming","admin3":"5949024"},{"geonameid":5961436,"name":"Gingolx","admin3":"5949035"},{"geonameid":5961546,"name":"Gitwinksihlkw","admin3":"5949035"},{"geonameid":5964705,"name":"Granduc","admin3":"5949032"},{"geonameid":5968924,"name":"Hagwilget","admin3":"5949024"},{"geonameid":5990677,"name":"Kemano","admin3":""},{"geonameid":5992983,"name":"Kitamaat Village","admin3":""},{"geonameid":5993072,"name":"Kitimat","admin3":"5949005"},{"geonameid":5993102,"name":"Kitsault","admin3":""},{"geonameid":5993139,"name":"Kitsumkalum","admin3":"5949011"},{"geonameid":5993349,"name":"Klemtu","admin3":""},{"geonameid":6050945,"name":"Laxgalts'ap","admin3":"5949035"},{"geonameid":6073742,"name":"Mill Bay","admin3":"5949035"},{"geonameid":6086189,"name":"Nass Camp","admin3":"5949035"},{"geonameid":6086511,"name":"Nechako","admin3":"5949005"},{"geonameid":6087386,"name":"New Aiyansh","admin3":"5949035"},{"geonameid":6087624,"name":"New Hazelton","admin3":"5949024"},{"geonameid":6093333,"name":"Old Remo","admin3":""},{"geonameid":6112882,"name":"Premier","admin3":"5949032"},{"geonameid":6119346,"name":"Remo","admin3":""},{"geonameid":6156427,"name":"Stewart","admin3":"5949032"},{"geonameid":6162579,"name":"Telegraph Creek","admin3":""},{"geonameid":6162949,"name":"Terrace","admin3":"5949011"},{"geonameid":6165685,"name":"Thornhill","admin3":""},{"geonameid":6177675,"name":"Weewanie","admin3":""}],"admin3":[{"geonameid":12031902,"name":"Kitimat","admin3":"5949005"},{"geonameid":12031903,"name":"Nisga'a","admin3":"5949035"},{"geonameid":12031931,"name":"New Hazelton","admin3":"5949024"},{"geonameid":12031997,"name":"Hazelton","admin3":"5949022"},{"geonameid":12031998,"name":"Stewart","admin3":"5949032"},{"geonameid":12031999,"name":"Terrace","admin3":"5949011"}],"alternateNames":[]},"__N_SSG":true}