{"pageProps":{"locale":"en","admin2":{"geonameid":6154640,"name":"Squamish-Lillooet Regional District","country":"CA","admin1":"02","admin2":"5931","admin3":"","latitude":"50.4997000","longitude":"-123.0027600"},"admin1":{"geonameid":5909050,"name":"British Columbia","admin1":"02"},"locations":[{"geonameid":5884197,"name":"Alpine Meadows","admin3":"5931020"},{"geonameid":5884233,"name":"Alta Lake","admin3":"5931020"},{"geonameid":5907106,"name":"Brackendale","admin3":"5931006"},{"geonameid":5909028,"name":"Britannia Beach","admin3":""},{"geonameid":5920523,"name":"Cheakamus","admin3":"5931006"},{"geonameid":5920580,"name":"Cheekye","admin3":"5931006"},{"geonameid":5935258,"name":"Darrell Bay","admin3":"5931006"},{"geonameid":5937932,"name":"Dentville","admin3":"5931006"},{"geonameid":5944890,"name":"Eagle Run","admin3":"5931006"},{"geonameid":5958812,"name":"Furry Creek","admin3":""},{"geonameid":5959636,"name":"Garibaldi Estates","admin3":"5931006"},{"geonameid":7290228,"name":"Garibaldi Highlands","admin3":"5931006"},{"geonameid":5977607,"name":"Hospital Hill","admin3":"5931006"},{"geonameid":6945979,"name":"Lillooet","admin3":"5931026"},{"geonameid":6069789,"name":"McGuire","admin3":"5931020"},{"geonameid":6074469,"name":"Minaty Bay","admin3":""},{"geonameid":12076656,"name":"Mount Currie 6","admin3":""},{"geonameid":6087151,"name":"Nesters","admin3":"5931020"},{"geonameid":6090504,"name":"Northridge","admin3":"5931006"},{"geonameid":6093563,"name":"Oliver's Landing","admin3":""},{"geonameid":6096785,"name":"Paradise Valley","admin3":"5931006"},{"geonameid":6100799,"name":"Pemberton","admin3":"5931012"},{"geonameid":6111734,"name":"Porteau","admin3":""},{"geonameid":6154322,"name":"Sproatt","admin3":"5931020"},{"geonameid":6154636,"name":"Squamish","admin3":"5931006"},{"geonameid":6161429,"name":"Tamarisk","admin3":"5931020"},{"geonameid":6173155,"name":"Valleycliffe","admin3":"5931006"},{"geonameid":6180144,"name":"Whistler","admin3":"5931020"},{"geonameid":6180149,"name":"Whistler Creek","admin3":"5931020"},{"geonameid":6184095,"name":"Woodfibre","admin3":"5931006"}],"admin3":[{"geonameid":6053923,"name":"Lillooet","admin3":"5931026"},{"geonameid":12031886,"name":"Pemberton","admin3":"5931012"},{"geonameid":12031887,"name":"Squamish","admin3":"5931006"},{"geonameid":12031888,"name":"Whistler","admin3":"5931020"}],"alternateNames":[]},"__N_SSG":true}