{"pageProps":{"locale":"de","admin2":{"geonameid":2860681,"name":"Upper Franconia","country":"DE","admin1":"02","admin2":"094","admin3":"","latitude":"49.8333300","longitude":"11.3333300","localeAltName":"Oberfranken"},"admin1":{"geonameid":2951839,"name":"Bavaria","admin1":"02","localeAltName":"Bayern"},"locations":[{"geonameid":2959140,"name":"Ahorn","admin3":"09473","localeAltName":null},{"geonameid":2957733,"name":"Altendorf","admin3":"09478","localeAltName":null},{"geonameid":2957555,"name":"Altenkunstadt","admin3":"09478","localeAltName":null},{"geonameid":2955368,"name":"Arzberg","admin3":"09479","localeAltName":null},{"geonameid":2954213,"name":"Aufseß","admin3":"09472","localeAltName":null},{"geonameid":2958545,"name":"Bad Alexandersbad","admin3":"09479","localeAltName":null},{"geonameid":2953544,"name":"Bad Berneck im Fichtelgebirge","admin3":"09472","localeAltName":null},{"geonameid":2829701,"name":"Bad Staffelstein","admin3":"09478","localeAltName":null},{"geonameid":2953334,"name":"Bad Steben","admin3":"09475","localeAltName":null},{"geonameid":2952984,"name":"Bamberg","admin3":"09461","localeAltName":null},{"geonameid":2951926,"name":"Baunach","admin3":"09471","localeAltName":null},{"geonameid":2951825,"name":"Bayreuth","admin3":"09462","localeAltName":null},{"geonameid":2950722,"name":"Berg","admin3":"09475","localeAltName":null},{"geonameid":2948840,"name":"Bindlach","admin3":"09472","localeAltName":null},{"geonameid":2948339,"name":"Bischberg","admin3":"09471","localeAltName":null},{"geonameid":2948292,"name":"Bischofsgrün","admin3":"09472","localeAltName":null},{"geonameid":2944599,"name":"Breitengüßbach","admin3":"09471","localeAltName":null},{"geonameid":2941403,"name":"Burgebrach","admin3":"09471","localeAltName":null},{"geonameid":2941207,"name":"Burgkunstadt","admin3":"09478","localeAltName":null},{"geonameid":2941052,"name":"Burgwindheim","admin3":"09471","localeAltName":null},{"geonameid":2940613,"name":"Buttenheim","admin3":"09471","localeAltName":null},{"geonameid":2939951,"name":"Coburg","admin3":"09463","localeAltName":null},{"geonameid":2939756,"name":"Creußen","admin3":"09472","localeAltName":null},{"geonameid":2936497,"name":"Döhlau","admin3":"09475","localeAltName":null},{"geonameid":2935816,"name":"Dormitz","admin3":"09474","localeAltName":null},{"geonameid":2934033,"name":"Ebensfeld","admin3":"09478","localeAltName":null},{"geonameid":2933986,"name":"Ebermannstadt","admin3":"09474","localeAltName":null},{"geonameid":2933922,"name":"Ebersdorf","admin3":"09473","localeAltName":null},{"geonameid":2933607,"name":"Eckersdorf","admin3":"09477","localeAltName":null},{"geonameid":2933287,"name":"Effeltrich","admin3":"09474","localeAltName":null},{"geonameid":2933019,"name":"Eggolsheim","admin3":"09474","localeAltName":null},{"geonameid":2932987,"name":"Egloffstein","admin3":"09474","localeAltName":null},{"geonameid":2930416,"name":"Emtmannsberg","admin3":"09472","localeAltName":null},{"geonameid":2927510,"name":"Feilitzsch","admin3":"09475","localeAltName":null},{"geonameid":2926981,"name":"Fichtelberg","admin3":"09472","localeAltName":null},{"geonameid":2925910,"name":"Forchheim","admin3":"09474","localeAltName":null},{"geonameid":2924983,"name":"Frensdorf","admin3":"09471","localeAltName":null},{"geonameid":3209181,"name":"Gattendorf","admin3":"09475","localeAltName":null},{"geonameid":2922085,"name":"Gefrees","admin3":"09472","localeAltName":null},{"geonameid":2921223,"name":"Gerach","admin3":"09471","localeAltName":null},{"geonameid":2920979,"name":"Geroldsgrün","admin3":"09475","localeAltName":null},{"geonameid":2920835,"name":"Gesees","admin3":"09472","localeAltName":null},{"geonameid":2920086,"name":"Glashütten","admin3":"09472","localeAltName":null},{"geonameid":2919290,"name":"Goldkronach","admin3":"09472","localeAltName":null},{"geonameid":2918767,"name":"Gößweinstein","admin3":"09474","localeAltName":null},{"geonameid":2918350,"name":"Gräfenberg","admin3":"09474","localeAltName":null},{"geonameid":2918324,"name":"Grafengehaig","admin3":"09477","localeAltName":null},{"geonameid":2915529,"name":"Großheirath","admin3":"09473","localeAltName":null},{"geonameid":2914661,"name":"Grub","admin3":"09479","localeAltName":null},{"geonameid":2913692,"name":"Gundelsheim","admin3":"09471","localeAltName":null},{"geonameid":2913318,"name":"Guttenberg","admin3":"09477","localeAltName":null},{"geonameid":2913227,"name":"Haag","admin3":"09475","localeAltName":null},{"geonameid":2911491,"name":"Hallerndorf","admin3":"09474","localeAltName":null},{"geonameid":2911463,"name":"Hallstadt","admin3":"09471","localeAltName":null},{"geonameid":2910283,"name":"Harsdorf","admin3":"09477","localeAltName":null},{"geonameid":2908888,"name":"Hausen","admin3":"09474","localeAltName":null},{"geonameid":2907546,"name":"Heiligenstadt","admin3":"09471","localeAltName":null},{"geonameid":2906744,"name":"Helmbrechts","admin3":"09475","localeAltName":null},{"geonameid":2905881,"name":"Heroldsbach","admin3":"09474","localeAltName":null},{"geonameid":2905164,"name":"Hetzles","admin3":"09474","localeAltName":null},{"geonameid":2904600,"name":"Hiltpoltstein","admin3":"09474","localeAltName":null},{"geonameid":2904552,"name":"Himmelkron","admin3":"09477","localeAltName":null},{"geonameid":2903810,"name":"Hirschaid","admin3":"09471","localeAltName":null},{"geonameid":2903013,"name":"Hochstadt am Main","admin3":"09478","localeAltName":null},{"geonameid":2903011,"name":"Höchstädt bei Thiersheim","admin3":"09479","localeAltName":null},{"geonameid":2902768,"name":"Hof","admin3":"09464","localeAltName":null},{"geonameid":2901906,"name":"Hohenberg an der Eger","admin3":"09479","localeAltName":null},{"geonameid":2900453,"name":"Hollfeld","admin3":"09472","localeAltName":null},{"geonameid":2896689,"name":"Igensdorf","admin3":"09474","localeAltName":null},{"geonameid":2892563,"name":"Kasendorf","admin3":"09477","localeAltName":null},{"geonameid":2891687,"name":"Kemmern","admin3":"09471","localeAltName":null},{"geonameid":2890592,"name":"Kirchehrenbach","admin3":"09474","localeAltName":null},{"geonameid":2890544,"name":"Kirchenlamitz","admin3":"09479","localeAltName":null},{"geonameid":2890539,"name":"Kirchenpingarten","admin3":"09472","localeAltName":null},{"geonameid":2888210,"name":"Kleinsendelbach","admin3":"09474","localeAltName":null},{"geonameid":2886843,"name":"Köditz","admin3":"09475","localeAltName":null},{"geonameid":2886839,"name":"Ködnitz","admin3":"09477","localeAltName":null},{"geonameid":2885885,"name":"Königsfeld","admin3":"09471","localeAltName":null},{"geonameid":2885688,"name":"Konradsreuth","admin3":"09475","localeAltName":null},{"geonameid":2883784,"name":"Kronach","admin3":"09476","localeAltName":null},{"geonameid":2882588,"name":"Kulmbach","admin3":"09477","localeAltName":null},{"geonameid":2882464,"name":"Kunreuth","admin3":"09477","localeAltName":null},{"geonameid":2882417,"name":"Kupferberg","admin3":"09477","localeAltName":null},{"geonameid":2882366,"name":"Küps","admin3":"09476","localeAltName":null},{"geonameid":2880912,"name":"Langensendelbach","admin3":"09474","localeAltName":null},{"geonameid":2879966,"name":"Lauter","admin3":"09471","localeAltName":null},{"geonameid":3207405,"name":"Lautertal","admin3":"09473","localeAltName":null},{"geonameid":2878342,"name":"Leupoldsgrün","admin3":"09475","localeAltName":null},{"geonameid":2878310,"name":"Leutenbach","admin3":"09474","localeAltName":null},{"geonameid":2878114,"name":"Lichtenberg","admin3":"09475","localeAltName":null},{"geonameid":2878074,"name":"Lichtenfels","admin3":"09478","localeAltName":null},{"geonameid":2876787,"name":"Litzendorf","admin3":"09471","localeAltName":null},{"geonameid":2875388,"name":"Ludwigschorgast","admin3":"09477","localeAltName":null},{"geonameid":2875330,"name":"Ludwigsstadt","admin3":"09476","localeAltName":null},{"geonameid":2874239,"name":"Mainleus","admin3":"09477","localeAltName":null},{"geonameid":2873302,"name":"Marktgraitz","admin3":"09478","localeAltName":null},{"geonameid":2873296,"name":"Marktleugast","admin3":"09477","localeAltName":null},{"geonameid":2873295,"name":"Marktleuthen","admin3":"09479","localeAltName":null},{"geonameid":2873289,"name":"Marktredwitz","admin3":"09479","localeAltName":null},{"geonameid":3210390,"name":"Marktrodach","admin3":"09476","localeAltName":null},{"geonameid":2873286,"name":"Marktschorgast","admin3":"09477","localeAltName":null},{"geonameid":2873278,"name":"Marktzeuln","admin3":"09478","localeAltName":null},{"geonameid":2872527,"name":"Meeder","admin3":"09473","localeAltName":null},{"geonameid":2872417,"name":"Mehlmeisel","admin3":"09472","localeAltName":null},{"geonameid":2872003,"name":"Memmelsdorf","admin3":"09471","localeAltName":null},{"geonameid":2871367,"name":"Michelau","admin3":"09478","localeAltName":null},{"geonameid":2870936,"name":"Mistelgau","admin3":"09472","localeAltName":null},{"geonameid":2870315,"name":"Mitwitz","admin3":"09476","localeAltName":null},{"geonameid":2867726,"name":"Münchberg","admin3":"09475","localeAltName":null},{"geonameid":2867198,"name":"Nagel","admin3":"09479","localeAltName":null},{"geonameid":2867138,"name":"Naila","admin3":"09475","localeAltName":null},{"geonameid":2865906,"name":"Neudrossenfeld","admin3":"09477","localeAltName":null},{"geonameid":2865603,"name":"Neuenmarkt","admin3":"09477","localeAltName":null},{"geonameid":6694210,"name":"Neunkirchen am Brand","admin3":"09474","localeAltName":null},{"geonameid":2864422,"name":"Neunkirchen am Main","admin3":"09472","localeAltName":null},{"geonameid":2864053,"name":"Neustadt bei Coburg","admin3":"09473","localeAltName":null},{"geonameid":2863428,"name":"Niederfüllbach","admin3":"09473","localeAltName":null},{"geonameid":2861990,"name":"Nordhalben","admin3":"09476","localeAltName":null},{"geonameid":8260424,"name":"Obere Zeitelwaidt","admin3":"09475","localeAltName":null},{"geonameid":2860510,"name":"Oberhaid","admin3":"09475","localeAltName":null},{"geonameid":2860021,"name":"Oberkotzau","admin3":"09475","localeAltName":null},{"geonameid":2858765,"name":"Obertrubach","admin3":"09474","localeAltName":null},{"geonameid":2855065,"name":"Pegnitz","admin3":"09472","localeAltName":null},{"geonameid":2854557,"name":"Pettstadt","admin3":"09471","localeAltName":null},{"geonameid":2853627,"name":"Pinzberg","admin3":"09474","localeAltName":null},{"geonameid":2853442,"name":"Plankenfels","admin3":"09472","localeAltName":null},{"geonameid":2852757,"name":"Pommersfelden","admin3":"09471","localeAltName":null},{"geonameid":2852440,"name":"Pottenstein","admin3":"09472","localeAltName":null},{"geonameid":2852394,"name":"Poxdorf","admin3":"09471","localeAltName":null},{"geonameid":2852299,"name":"Prebitz","admin3":"09472","localeAltName":null},{"geonameid":2852197,"name":"Presseck","admin3":"09477","localeAltName":null},{"geonameid":2852190,"name":"Pressig","admin3":"09476","localeAltName":null},{"geonameid":2852162,"name":"Pretzfeld","admin3":"09474","localeAltName":null},{"geonameid":2852082,"name":"Priesendorf","admin3":"09471","localeAltName":null},{"geonameid":2850161,"name":"Rattelsdorf","admin3":"09471","localeAltName":null},{"geonameid":2849566,"name":"Redwitz an der Rodach","admin3":"09478","localeAltName":null},{"geonameid":2849455,"name":"Regnitzlosau","admin3":"09475","localeAltName":null},{"geonameid":2849446,"name":"Rehau","admin3":"09475","localeAltName":null},{"geonameid":2849161,"name":"Reichenbach","admin3":"09477","localeAltName":null},{"geonameid":2847774,"name":"Reuth","admin3":"09472","localeAltName":null},{"geonameid":3207410,"name":"Rödental","admin3":"09473","localeAltName":null},{"geonameid":3207412,"name":"Röslau","admin3":"09479","localeAltName":null},{"geonameid":2843318,"name":"Rugendorf","admin3":"09477","localeAltName":null},{"geonameid":2840179,"name":"Schauenstein","admin3":"09475","localeAltName":null},{"geonameid":2839613,"name":"Scheßlitz","admin3":"09471","localeAltName":null},{"geonameid":2839066,"name":"Schirnding","admin3":"09479","localeAltName":null},{"geonameid":2838167,"name":"Schlüsselfeld","admin3":"09471","localeAltName":null},{"geonameid":2837606,"name":"Schnabelwaid","admin3":"09472","localeAltName":null},{"geonameid":2837507,"name":"Schneckenlohe","admin3":"09476","localeAltName":null},{"geonameid":2836450,"name":"Schönwald","admin3":"09479","localeAltName":null},{"geonameid":2835018,"name":"Schwarzenbach an der Saale","admin3":"09475","localeAltName":null},{"geonameid":2833296,"name":"Selb","admin3":"09479","localeAltName":null},{"geonameid":2833269,"name":"Selbitz","admin3":"09475","localeAltName":null},{"geonameid":2832921,"name":"Seßlach","admin3":"09473","localeAltName":null},{"geonameid":2832838,"name":"Seybothenreuth","admin3":"09472","localeAltName":null},{"geonameid":2831239,"name":"Sonnefeld","admin3":"09473","localeAltName":null},{"geonameid":2830790,"name":"Sparneck","admin3":"09475","localeAltName":null},{"geonameid":2830670,"name":"Speichersdorf","admin3":"09472","localeAltName":null},{"geonameid":2829876,"name":"Stadelhofen","admin3":"09471","localeAltName":null},{"geonameid":2829742,"name":"Stadtsteinach","admin3":"09477","localeAltName":null},{"geonameid":2829595,"name":"Stammbach","admin3":"09475","localeAltName":null},{"geonameid":2829145,"name":"Stegaurach","admin3":"09471","localeAltName":null},{"geonameid":2828805,"name":"Steinbach","admin3":"09477","localeAltName":null},{"geonameid":2827610,"name":"Steinwiesen","admin3":"09476","localeAltName":null},{"geonameid":2826743,"name":"Stockheim","admin3":"09476","localeAltName":null},{"geonameid":2825638,"name":"Strullendorf","admin3":"09471","localeAltName":null},{"geonameid":2823395,"name":"Tettau","admin3":"09476","localeAltName":null},{"geonameid":2823245,"name":"Teuschnitz","admin3":"09476","localeAltName":null},{"geonameid":2822737,"name":"Thiersheim","admin3":"09479","localeAltName":null},{"geonameid":2822736,"name":"Thierstein","admin3":"09479","localeAltName":null},{"geonameid":2822522,"name":"Thurnau","admin3":"09477","localeAltName":null},{"geonameid":2821864,"name":"Töpen","admin3":"09475","localeAltName":null},{"geonameid":2821444,"name":"Trebgast","admin3":"09477","localeAltName":null},{"geonameid":2821043,"name":"Trogen","admin3":"09475","localeAltName":null},{"geonameid":2820967,"name":"Tröstau","admin3":"09479","localeAltName":null},{"geonameid":2820866,"name":"Tschirn","admin3":"09476","localeAltName":null},{"geonameid":2819595,"name":"Untere Zeitelwaidt","admin3":"09475","localeAltName":null},{"geonameid":2819167,"name":"Unterleinleiter","admin3":"09474","localeAltName":null},{"geonameid":2818677,"name":"Untersiemau","admin3":"09473","localeAltName":null},{"geonameid":2818632,"name":"Untersteinach","admin3":"09477","localeAltName":null},{"geonameid":3207000,"name":"Viereth-Trunstadt","admin3":"09471","localeAltName":null},{"geonameid":2815297,"name":"Waischenfeld","admin3":"09472","localeAltName":null},{"geonameid":2814637,"name":"Wallenfels","admin3":"09476","localeAltName":null},{"geonameid":2814478,"name":"Walsdorf","admin3":"09471","localeAltName":null},{"geonameid":2814077,"name":"Warmensteinach","admin3":"09472","localeAltName":null},{"geonameid":2813641,"name":"Wattendorf","admin3":"09471","localeAltName":null},{"geonameid":2812931,"name":"Weidhausen bei Coburg","admin3":"09473","localeAltName":null},{"geonameid":3207003,"name":"Weilersbach","admin3":"09474","localeAltName":null},{"geonameid":2812067,"name":"Weismain","admin3":"09478","localeAltName":null},{"geonameid":2812009,"name":"Weißdorf","admin3":"09475","localeAltName":null},{"geonameid":2811918,"name":"Weißenbrunn","admin3":"09476","localeAltName":null},{"geonameid":2811870,"name":"Weißenohe","admin3":"09474","localeAltName":null},{"geonameid":2811852,"name":"Weißenstadt","admin3":"09479","localeAltName":null},{"geonameid":2811611,"name":"Weitramsdorf","admin3":"09473","localeAltName":null},{"geonameid":2809192,"name":"Wiesenthau","admin3":"09474","localeAltName":null},{"geonameid":2808657,"name":"Wilhelmsthal","admin3":"09476","localeAltName":null},{"geonameid":2807528,"name":"Wirsberg","admin3":"09477","localeAltName":null},{"geonameid":2806232,"name":"Wonsees","admin3":"09477","localeAltName":null},{"geonameid":2805762,"name":"Wunsiedel","admin3":"09479","localeAltName":null},{"geonameid":2805228,"name":"Zapfendorf","admin3":"09471","localeAltName":null},{"geonameid":2804880,"name":"Zell im Fichtelgebirge","admin3":"09475","localeAltName":null}],"admin3":[{"geonameid":2883782,"name":"Landkreis Kronach","admin3":"09476","localeAltName":null},{"geonameid":2939950,"name":"Landkreis Coburg","admin3":"09473","localeAltName":null},{"geonameid":3220843,"name":"Kreisfreie Stadt Bamberg","admin3":"09461","localeAltName":null},{"geonameid":3220844,"name":"Landkreis Bamberg","admin3":"09471","localeAltName":null},{"geonameid":3220845,"name":"Kreisfreie Stadt Bayreuth","admin3":"09462","localeAltName":null},{"geonameid":3220846,"name":"Landkreis Bayreuth","admin3":"09472","localeAltName":null},{"geonameid":3220847,"name":"Kreisfreie Stadt Coburg","admin3":"09463","localeAltName":null},{"geonameid":3220848,"name":"Landkreis Forchheim","admin3":"09474","localeAltName":null},{"geonameid":3220849,"name":"Kreisfreie Stadt Hof","admin3":"09464","localeAltName":null},{"geonameid":3220850,"name":"Landkreis Hof","admin3":"09475","localeAltName":null},{"geonameid":3220851,"name":"Landkreis Kulmbach","admin3":"09477","localeAltName":null},{"geonameid":3220852,"name":"Landkreis Lichtenfels","admin3":"09478","localeAltName":null},{"geonameid":3220853,"name":"Landkreis Wunsiedel im Fichtelgebirge","admin3":"09479","localeAltName":null}],"alternateNames":[{"alternatenameId":16359857,"geonameid":2860681,"isoLanguage":"de","alternateName":"Oberfranken","isPreferredName":true,"isShortName":true,"isColloquial":false,"isHistoric":false},{"alternatenameId":1894550,"geonameid":2951839,"isoLanguage":"de","alternateName":"Bayern","isPreferredName":true,"isShortName":true,"isColloquial":false,"isHistoric":false},{"alternatenameId":1894551,"geonameid":2951839,"isoLanguage":"en","alternateName":"Bavaria","isPreferredName":true,"isShortName":true,"isColloquial":false,"isHistoric":false}]},"__N_SSG":true}