{"pageProps":{"locale":"de","admin2":{"geonameid":2859444,"name":"Upper Palatinate","country":"DE","admin1":"02","admin2":"093","admin3":"","latitude":"49.5000000","longitude":"12.0000000","localeAltName":null},"admin1":{"geonameid":2951839,"name":"Bavaria","admin1":"02","localeAltName":"Bayern"},"locations":[{"geonameid":2957938,"name":"Alteglofsheim","admin3":"09375","localeAltName":null},{"geonameid":2957735,"name":"Altendorf","admin3":"09376","localeAltName":null},{"geonameid":2957439,"name":"Altenthann","admin3":"09375","localeAltName":null},{"geonameid":2956656,"name":"Amberg","admin3":"09361","localeAltName":null},{"geonameid":2958092,"name":"Ammerthal","admin3":"09371","localeAltName":null},{"geonameid":2955464,"name":"Arnschwang","admin3":"09372","localeAltName":null},{"geonameid":2955410,"name":"Arrach","admin3":"09372","localeAltName":null},{"geonameid":2954603,"name":"Auerbach","admin3":"09371","localeAltName":null},{"geonameid":2954244,"name":"Aufhausen","admin3":"09375","localeAltName":null},{"geonameid":2953712,"name":"Bach","admin3":"09376","localeAltName":null},{"geonameid":2952842,"name":"Barbing","admin3":"09375","localeAltName":null},{"geonameid":2952527,"name":"Bärnau","admin3":"09377","localeAltName":null},{"geonameid":2951732,"name":"Bechtsrieth","admin3":"09374","localeAltName":null},{"geonameid":2950898,"name":"Beratzhausen","admin3":"09375","localeAltName":null},{"geonameid":2950882,"name":"Berching","admin3":"09373","localeAltName":null},{"geonameid":2950725,"name":"Berg","admin3":"09374","localeAltName":null},{"geonameid":2950037,"name":"Berngau","admin3":"09373","localeAltName":null},{"geonameid":2950019,"name":"Bernhardswald","admin3":"09375","localeAltName":null},{"geonameid":2948115,"name":"Blaibach","admin3":"09372","localeAltName":null},{"geonameid":2947090,"name":"Bodenwöhr","admin3":"09376","localeAltName":null},{"geonameid":2945429,"name":"Brand","admin3":"09377","localeAltName":null},{"geonameid":2944636,"name":"Breitenbrunn","admin3":"09371","localeAltName":null},{"geonameid":2944288,"name":"Brennberg","admin3":"09375","localeAltName":null},{"geonameid":2943425,"name":"Bruck in der Oberpfalz","admin3":"09376","localeAltName":null},{"geonameid":2943217,"name":"Brunn","admin3":"09376","localeAltName":null},{"geonameid":2941190,"name":"Burglengenfeld","admin3":"09376","localeAltName":null},{"geonameid":2940204,"name":"Cham","admin3":"09372","localeAltName":null},{"geonameid":2940201,"name":"Chamerau","admin3":"09372","localeAltName":null},{"geonameid":2938441,"name":"Deining","admin3":"09373","localeAltName":null},{"geonameid":2937865,"name":"Deuerling","admin3":"09375","localeAltName":null},{"geonameid":2937115,"name":"Dieterskirchen","admin3":"09376","localeAltName":null},{"geonameid":2937110,"name":"Dietfurt","admin3":"09373","localeAltName":null},{"geonameid":2936259,"name":"Donaustauf","admin3":"09375","localeAltName":null},{"geonameid":2934707,"name":"Duggendorf","admin3":"09375","localeAltName":null},{"geonameid":2933987,"name":"Ebermannsdorf","admin3":"09371","localeAltName":null},{"geonameid":2933840,"name":"Ebnath","admin3":"09377","localeAltName":null},{"geonameid":2933452,"name":"Edelsfeld","admin3":"09371","localeAltName":null},{"geonameid":2930018,"name":"Ensdorf","admin3":"09371","localeAltName":null},{"geonameid":2929783,"name":"Erbendorf","admin3":"09377","localeAltName":null},{"geonameid":2928979,"name":"Eschlkam","admin3":"09372","localeAltName":null},{"geonameid":8425925,"name":"Eschlsaign","admin3":"09372","localeAltName":null},{"geonameid":2928894,"name":"Eslarn","admin3":"09374","localeAltName":null},{"geonameid":2928583,"name":"Etzelwang","admin3":"09371","localeAltName":null},{"geonameid":2928564,"name":"Etzenricht","admin3":"09374","localeAltName":null},{"geonameid":2928016,"name":"Falkenberg","admin3":"09377","localeAltName":null},{"geonameid":2927917,"name":"Falkenstein","admin3":"09372","localeAltName":null},{"geonameid":2926119,"name":"Floß","admin3":"09374","localeAltName":null},{"geonameid":2926107,"name":"Flossenbürg","admin3":"09374","localeAltName":null},{"geonameid":2925086,"name":"Freihung","admin3":"09371","localeAltName":null},{"geonameid":2924917,"name":"Freudenberg","admin3":"09371","localeAltName":null},{"geonameid":2924854,"name":"Freystadt","admin3":"09373","localeAltName":null},{"geonameid":2924766,"name":"Friedenfels","admin3":"09377","localeAltName":null},{"geonameid":2923907,"name":"Fuchsmühl","admin3":"09377","localeAltName":null},{"geonameid":2923529,"name":"Furth im Wald","admin3":"09372","localeAltName":null},{"geonameid":2922207,"name":"Gebenbach","admin3":"09371","localeAltName":null},{"geonameid":2921288,"name":"Georgenberg","admin3":"09374","localeAltName":null},{"geonameid":2919977,"name":"Gleiritsch","admin3":"09376","localeAltName":null},{"geonameid":2919961,"name":"Gleißenberg","admin3":"09372","localeAltName":null},{"geonameid":2918260,"name":"Grafenwiesen","admin3":"09372","localeAltName":null},{"geonameid":2918258,"name":"Grafenwöhr","admin3":"09374","localeAltName":null},{"geonameid":2913394,"name":"Guteneck","admin3":"09376","localeAltName":null},{"geonameid":2912646,"name":"Hagelstadt","admin3":"09375","localeAltName":null},{"geonameid":2912351,"name":"Hahnbach","admin3":"09371","localeAltName":null},{"geonameid":2906625,"name":"Hemau","admin3":"09375","localeAltName":null},{"geonameid":2903806,"name":"Hirschau","admin3":"09371","localeAltName":null},{"geonameid":2903794,"name":"Hirschbach","admin3":"09371","localeAltName":null},{"geonameid":2901849,"name":"Hohenburg","admin3":"09371","localeAltName":null},{"geonameid":2901774,"name":"Hohenfels","admin3":"09373","localeAltName":null},{"geonameid":2901360,"name":"Hohenwarth","admin3":"09372","localeAltName":null},{"geonameid":2899710,"name":"Holzheim bei Oder","admin3":"09376","localeAltName":null},{"geonameid":2896523,"name":"Illschwang","admin3":"09371","localeAltName":null},{"geonameid":2896273,"name":"Immenreuth","admin3":"09377","localeAltName":null},{"geonameid":2895854,"name":"Irchenrieth","admin3":"09374","localeAltName":null},{"geonameid":2893721,"name":"Kallmünz","admin3":"09375","localeAltName":null},{"geonameid":2892459,"name":"Kastl","admin3":"09377","localeAltName":null},{"geonameid":2892460,"name":"Kastl","admin3":"09371","localeAltName":null},{"geonameid":2891668,"name":"Kemnath","admin3":"09377","localeAltName":null},{"geonameid":2890567,"name":"Kirchendemenreuth","admin3":"09374","localeAltName":null},{"geonameid":2890526,"name":"Kirchenthumbach","admin3":"09374","localeAltName":null},{"geonameid":2886832,"name":"Köfering","admin3":"09375","localeAltName":null},{"geonameid":2886730,"name":"Kohlberg","admin3":"09374","localeAltName":null},{"geonameid":2885765,"name":"Königstein","admin3":"09371","localeAltName":null},{"geonameid":2885714,"name":"Konradsreuth","admin3":"09374","localeAltName":null},{"geonameid":2885070,"name":"Kötzting","admin3":"09372","localeAltName":null},{"geonameid":2883317,"name":"Krummennaab","admin3":"09377","localeAltName":null},{"geonameid":2882589,"name":"Kulmain","admin3":"09377","localeAltName":null},{"geonameid":2882529,"name":"Kümmersbruck","admin3":"09371","localeAltName":null},{"geonameid":2881786,"name":"Lam","admin3":"09372","localeAltName":null},{"geonameid":2880425,"name":"Lappersdorf","admin3":"09375","localeAltName":null},{"geonameid":2879892,"name":"Lauterhofen","admin3":"09373","localeAltName":null},{"geonameid":2878693,"name":"Leonberg","admin3":"09377","localeAltName":null},{"geonameid":2878375,"name":"Leuchtenberg","admin3":"09374","localeAltName":null},{"geonameid":2876357,"name":"Lohberg","admin3":"09372","localeAltName":null},{"geonameid":2875246,"name":"Luhe-Wildenau","admin3":"09374","localeAltName":null},{"geonameid":2875060,"name":"Lupburg","admin3":"09373","localeAltName":null},{"geonameid":2874423,"name":"Mähring","admin3":"09377","localeAltName":null},{"geonameid":2873841,"name":"Mantel","admin3":"09374","localeAltName":null},{"geonameid":2872670,"name":"Maxhütte-Haidhof","admin3":"09376","localeAltName":null},{"geonameid":2871287,"name":"Michelsneukirchen","admin3":"09372","localeAltName":null},{"geonameid":2871082,"name":"Miltach","admin3":"09372","localeAltName":null},{"geonameid":2870996,"name":"Mintraching","admin3":"09375","localeAltName":null},{"geonameid":2870355,"name":"Mitterteich","admin3":"09377","localeAltName":null},{"geonameid":2869488,"name":"Moosbach","admin3":"09374","localeAltName":null},{"geonameid":2868968,"name":"Mötzing","admin3":"09375","localeAltName":null},{"geonameid":2867262,"name":"Nabburg","admin3":"09376","localeAltName":null},{"geonameid":2866291,"name":"Neualbenreuth","admin3":"09377","localeAltName":null},{"geonameid":2864759,"name":"Neukirchen","admin3":"09372","localeAltName":null},{"geonameid":2864728,"name":"Neukirchen beim Heiligen Blut","admin3":"09372","localeAltName":null},{"geonameid":2864730,"name":"Neukirchen-Balbini","admin3":"09376","localeAltName":null},{"geonameid":2864549,"name":"Neumarkt in der Oberpfalz","admin3":"09373","localeAltName":null},{"geonameid":2864468,"name":"Neunburg vorm Wald","admin3":"09376","localeAltName":null},{"geonameid":2864131,"name":"Neusorg","admin3":"09377","localeAltName":null},{"geonameid":2864055,"name":"Neustadt an der Waldnaab","admin3":"09374","localeAltName":null},{"geonameid":2863953,"name":"Neutraubling","admin3":"09375","localeAltName":null},{"geonameid":2863095,"name":"Niedermurach","admin3":"09376","localeAltName":null},{"geonameid":2862348,"name":"Nittenau","admin3":"09376","localeAltName":null},{"geonameid":2862347,"name":"Nittendorf","admin3":"09375","localeAltName":null},{"geonameid":2858773,"name":"Obertraubling","admin3":"09375","localeAltName":null},{"geonameid":2858729,"name":"Oberviechtach","admin3":"09376","localeAltName":null},{"geonameid":2855416,"name":"Parkstein","admin3":"09374","localeAltName":null},{"geonameid":2855388,"name":"Parsberg","admin3":"09373","localeAltName":null},{"geonameid":2855145,"name":"Pechbrunn","admin3":"09377","localeAltName":null},{"geonameid":2854974,"name":"Pemfling","admin3":"09372","localeAltName":null},{"geonameid":2854928,"name":"Pentling","admin3":"09375","localeAltName":null},{"geonameid":2854574,"name":"Pettendorf","admin3":"09376","localeAltName":null},{"geonameid":2854272,"name":"Pfakofen","admin3":"09375","localeAltName":null},{"geonameid":2854165,"name":"Pfatter","admin3":"09375","localeAltName":null},{"geonameid":2853961,"name":"Pfreimd","admin3":"09376","localeAltName":null},{"geonameid":2853844,"name":"Pielenhofen","admin3":"09375","localeAltName":null},{"geonameid":2853700,"name":"Pilsach","admin3":"09373","localeAltName":null},{"geonameid":2853599,"name":"Pirk","admin3":"09374","localeAltName":null},{"geonameid":2853202,"name":"Pleystein","admin3":"09374","localeAltName":null},{"geonameid":2853146,"name":"Plößberg","admin3":"09377","localeAltName":null},{"geonameid":2852637,"name":"Poppenricht","admin3":"09371","localeAltName":null},{"geonameid":2852535,"name":"Pösing","admin3":"09372","localeAltName":null},{"geonameid":3206934,"name":"Postbauer-Heng","admin3":"09373","localeAltName":null},{"geonameid":2852198,"name":"Pressath","admin3":"09374","localeAltName":null},{"geonameid":2851784,"name":"Püchersreuth","admin3":"09374","localeAltName":null},{"geonameid":2851734,"name":"Pullenreuth","admin3":"09377","localeAltName":null},{"geonameid":2851543,"name":"Pyrbaum","admin3":"09373","localeAltName":null},{"geonameid":2849483,"name":"Regensburg","admin3":"09362","localeAltName":null},{"geonameid":2849476,"name":"Regenstauf","admin3":"09375","localeAltName":null},{"geonameid":2849170,"name":"Reichenbach","admin3":"09372","localeAltName":null},{"geonameid":2848766,"name":"Reinhausen","admin3":"09362","localeAltName":null},{"geonameid":2847993,"name":"Rettenbach","admin3":"09372","localeAltName":null},{"geonameid":2847242,"name":"Rieden","admin3":"09371","localeAltName":null},{"geonameid":2847005,"name":"Riekofen","admin3":"09375","localeAltName":null},{"geonameid":2846756,"name":"Rimbach","admin3":"09372","localeAltName":null},{"geonameid":2845924,"name":"Roding","admin3":"09372","localeAltName":null},{"geonameid":2843617,"name":"Rötz","admin3":"09372","localeAltName":null},{"geonameid":2843054,"name":"Runding","admin3":"09372","localeAltName":null},{"geonameid":2839393,"name":"Schierling","admin3":"09375","localeAltName":null},{"geonameid":2839074,"name":"Schirmitz","admin3":"09374","localeAltName":null},{"geonameid":2838924,"name":"Schlammersdorf","admin3":"09374","localeAltName":null},{"geonameid":2837885,"name":"Schmidgaden","admin3":"09376","localeAltName":null},{"geonameid":2837850,"name":"Schmidmühlen","admin3":"09371","localeAltName":null},{"geonameid":2837569,"name":"Schnaittenbach","admin3":"09371","localeAltName":null},{"geonameid":2836480,"name":"Schönsee","admin3":"09376","localeAltName":null},{"geonameid":2836460,"name":"Schönthal","admin3":"09372","localeAltName":null},{"geonameid":2836319,"name":"Schorndorf","admin3":"09372","localeAltName":null},{"geonameid":2835297,"name":"Schwandorf in Bayern","admin3":"09376","localeAltName":null},{"geonameid":2835034,"name":"Schwarzenbach","admin3":"09377","localeAltName":null},{"geonameid":2834945,"name":"Schwarzenfeld","admin3":"09376","localeAltName":null},{"geonameid":2834733,"name":"Schwarzhofen","admin3":"09376","localeAltName":null},{"geonameid":2833050,"name":"Sengenthal","admin3":"09373","localeAltName":null},{"geonameid":2832884,"name":"Seubersdorf","admin3":"09373","localeAltName":null},{"geonameid":2831847,"name":"Sinzing","admin3":"09375","localeAltName":null},{"geonameid":2830661,"name":"Speinshart","admin3":"09374","localeAltName":null},{"geonameid":2829825,"name":"Stadlern","admin3":"09376","localeAltName":null},{"geonameid":2829569,"name":"Stamsried","admin3":"09372","localeAltName":null},{"geonameid":2826863,"name":"Stöckelsberg","admin3":"09373","localeAltName":null},{"geonameid":2826380,"name":"Störnstein","admin3":"09374","localeAltName":null},{"geonameid":2825406,"name":"Stulln","admin3":"09376","localeAltName":null},{"geonameid":2824801,"name":"Sulzbach-Rosenberg","admin3":"09371","localeAltName":null},{"geonameid":2824687,"name":"Sünching","admin3":"09375","localeAltName":null},{"geonameid":2824063,"name":"Tännesberg","admin3":"09374","localeAltName":null},{"geonameid":2823682,"name":"Tegernheim","admin3":"09375","localeAltName":null},{"geonameid":2823360,"name":"Teublitz","admin3":"09376","localeAltName":null},{"geonameid":2823257,"name":"Teunz","admin3":"09376","localeAltName":null},{"geonameid":2823045,"name":"Thalmassing","admin3":"09375","localeAltName":null},{"geonameid":2822941,"name":"Thanstein","admin3":"09376","localeAltName":null},{"geonameid":2822883,"name":"Theisseil","admin3":"09374","localeAltName":null},{"geonameid":2822436,"name":"Tiefenbach","admin3":"09376","localeAltName":null},{"geonameid":2822100,"name":"Tirschenreuth","admin3":"09377","localeAltName":null},{"geonameid":2821687,"name":"Trabitz","admin3":"09374","localeAltName":null},{"geonameid":2821617,"name":"Traitsching","admin3":"09372","localeAltName":null},{"geonameid":2821504,"name":"Trausnitz","admin3":"09376","localeAltName":null},{"geonameid":2821400,"name":"Treffelstein","admin3":"09372","localeAltName":null},{"geonameid":2818155,"name":"Ursensollen","admin3":"09371","localeAltName":null},{"geonameid":2817722,"name":"Velburg","admin3":"09373","localeAltName":null},{"geonameid":2817207,"name":"Vilseck","admin3":"09371","localeAltName":null},{"geonameid":2816770,"name":"Vohenstrauß","admin3":"09374","localeAltName":null},{"geonameid":2816503,"name":"Vorbach","admin3":"09374","localeAltName":null},{"geonameid":2815598,"name":"Wackersdorf","admin3":"09376","localeAltName":null},{"geonameid":2815552,"name":"Waffenbrunn","admin3":"09372","localeAltName":null},{"geonameid":2815317,"name":"Waidhaus","admin3":"09374","localeAltName":null},{"geonameid":2815198,"name":"Wald","admin3":"09372","localeAltName":null},{"geonameid":2815059,"name":"Walderbach","admin3":"09372","localeAltName":null},{"geonameid":2815048,"name":"Waldershof","admin3":"09377","localeAltName":null},{"geonameid":2814846,"name":"Waldmünchen","admin3":"09372","localeAltName":null},{"geonameid":2814815,"name":"Waldsassen","admin3":"09377","localeAltName":null},{"geonameid":2814765,"name":"Waldthurn","admin3":"09374","localeAltName":null},{"geonameid":2813040,"name":"Weiden","admin3":"09363","localeAltName":null},{"geonameid":2812917,"name":"Weiding","admin3":"09372","localeAltName":null},{"geonameid":2812855,"name":"Weigendorf","admin3":"09371","localeAltName":null},{"geonameid":2812752,"name":"Weiherhammer","admin3":"09374","localeAltName":null},{"geonameid":2811013,"name":"Wenzenbach","admin3":"09375","localeAltName":null},{"geonameid":2810840,"name":"Wernberg-Köblitz","admin3":"09376","localeAltName":null},{"geonameid":2809362,"name":"Wiesau","admin3":"09377","localeAltName":null},{"geonameid":2809210,"name":"Wiesent","admin3":"09375","localeAltName":null},{"geonameid":2808514,"name":"Willmering","admin3":"09372","localeAltName":null},{"geonameid":2808148,"name":"Windischeschenbach","admin3":"09374","localeAltName":null},{"geonameid":2807916,"name":"Winklarn","admin3":"09376","localeAltName":null},{"geonameid":2806633,"name":"Wolfsegg","admin3":"09375","localeAltName":null},{"geonameid":2806080,"name":"Wörth an der Donau","admin3":"09375","localeAltName":null},{"geonameid":2805264,"name":"Zandt","admin3":"09372","localeAltName":null},{"geonameid":2804933,"name":"Zeitlarn","admin3":"09375","localeAltName":null}],"admin3":[{"geonameid":2822099,"name":"Landkreis Tirschenreuth","admin3":"09377","localeAltName":null},{"geonameid":2864548,"name":"Landkreis Neumarkt in der Oberpfalz","admin3":"09373","localeAltName":null},{"geonameid":2940202,"name":"Landkreis Cham","admin3":"09372","localeAltName":null},{"geonameid":3220854,"name":"Kreisfreie Stadt Amberg","admin3":"09361","localeAltName":null},{"geonameid":3220855,"name":"Landkreis Amberg-Sulzbach","admin3":"09371","localeAltName":null},{"geonameid":3220856,"name":"Landkreis Neustadt an der Waldnaab","admin3":"09374","localeAltName":null},{"geonameid":3220857,"name":"Kreisfreie Stadt Regensburg","admin3":"09362","localeAltName":"Regensburg"},{"geonameid":3220858,"name":"Landkreis Regensburg","admin3":"09375","localeAltName":null},{"geonameid":3220859,"name":"Landkreis Schwandorf","admin3":"09376","localeAltName":null},{"geonameid":3220860,"name":"Kreisfreie Stadt Weiden in der Oberpfalz","admin3":"09363","localeAltName":null}],"alternateNames":[{"alternatenameId":1894550,"geonameid":2951839,"isoLanguage":"de","alternateName":"Bayern","isPreferredName":true,"isShortName":true,"isColloquial":false,"isHistoric":false},{"alternatenameId":1894551,"geonameid":2951839,"isoLanguage":"en","alternateName":"Bavaria","isPreferredName":true,"isShortName":true,"isColloquial":false,"isHistoric":false},{"alternatenameId":9495761,"geonameid":3220857,"isoLanguage":"de","alternateName":"Regensburg","isPreferredName":true,"isShortName":true,"isColloquial":false,"isHistoric":false}]},"__N_SSG":true}