{"pageProps":{"locale":"it","admin2":{"geonameid":3165924,"name":"Provincia di Taranto","country":"IT","admin1":"13","admin2":"TA","admin3":"","latitude":"40.6166700","longitude":"17.2500000","localeAltName":"Taranto"},"admin1":{"geonameid":3169778,"name":"Puglia","admin1":"13","localeAltName":null},"locations":[{"geonameid":3182637,"name":"Avetrana","admin3":"073001","localeAltName":null},{"geonameid":3180466,"name":"Carosino","admin3":"073002","localeAltName":null},{"geonameid":3179655,"name":"Castellaneta","admin3":"073003","localeAltName":null},{"geonameid":6619298,"name":"Castellaneta Marina","admin3":"073003","localeAltName":null},{"geonameid":3177808,"name":"Crispiano","admin3":"073004","localeAltName":null},{"geonameid":3177286,"name":"Faggiano","admin3":"073005","localeAltName":null},{"geonameid":3176616,"name":"Fragagnano","admin3":"073006","localeAltName":null},{"geonameid":3176097,"name":"Ginosa","admin3":"073007","localeAltName":null},{"geonameid":3175773,"name":"Grottaglie","admin3":"073008","localeAltName":null},{"geonameid":3175064,"name":"Laterza","admin3":"073009","localeAltName":null},{"geonameid":3174865,"name":"Leporano","admin3":"073010","localeAltName":null},{"geonameid":9036387,"name":"Leporano Marina","admin3":"073010","localeAltName":null},{"geonameid":8949998,"name":"Lido Azzurro","admin3":"073027","localeAltName":null},{"geonameid":3174653,"name":"Lizzano","admin3":"073011","localeAltName":null},{"geonameid":3174096,"name":"Manduria","admin3":"073012","localeAltName":null},{"geonameid":3176096,"name":"Marina di Ginosa","admin3":"073007","localeAltName":null},{"geonameid":3173841,"name":"Martina Franca","admin3":"073013","localeAltName":null},{"geonameid":3173830,"name":"Maruggio","admin3":"073014","localeAltName":null},{"geonameid":3173762,"name":"Massafra","admin3":"073015","localeAltName":null},{"geonameid":3172886,"name":"Monteiasi","admin3":"073016","localeAltName":null},{"geonameid":3172838,"name":"Montemesola","admin3":"073017","localeAltName":null},{"geonameid":3172808,"name":"Monteparano","admin3":"073018","localeAltName":null},{"geonameid":8949182,"name":"Monti d'Arena-Bosco Caggione","admin3":"073022","localeAltName":null},{"geonameid":3172499,"name":"Mottola","admin3":"073019","localeAltName":null},{"geonameid":3171665,"name":"Palagianello","admin3":"073020","localeAltName":null},{"geonameid":3171664,"name":"Palagiano","admin3":"073021","localeAltName":null},{"geonameid":8948709,"name":"Paolo VI","admin3":"073027","localeAltName":null},{"geonameid":8950298,"name":"Parco di Guerra","admin3":"073015","localeAltName":null},{"geonameid":3169760,"name":"Pulsano","admin3":"073022","localeAltName":null},{"geonameid":3169176,"name":"Roccaforzata","admin3":"073023","localeAltName":null},{"geonameid":3168295,"name":"San Giorgio Ionico","admin3":"073024","localeAltName":null},{"geonameid":3167997,"name":"San Marzano di San Giuseppe","admin3":"073025","localeAltName":null},{"geonameid":8949768,"name":"San Pietro Specchiarica","admin3":"073012","localeAltName":null},{"geonameid":3167044,"name":"Sava","admin3":"073026","localeAltName":null},{"geonameid":3166189,"name":"Statte","admin3":"073029","localeAltName":null},{"geonameid":3165926,"name":"Taranto","admin3":"073027","localeAltName":null},{"geonameid":3165403,"name":"Torricella","admin3":"073028","localeAltName":null},{"geonameid":3165064,"name":"Uggiano Montefusco","admin3":"073012","localeAltName":null}],"admin3":[{"geonameid":6537561,"name":"Castellaneta","admin3":"073003","localeAltName":null},{"geonameid":6537562,"name":"Crispiano","admin3":"073004","localeAltName":null},{"geonameid":6537563,"name":"Grottaglie","admin3":"073008","localeAltName":null},{"geonameid":6537564,"name":"Massafra","admin3":"073015","localeAltName":null},{"geonameid":6537565,"name":"Monteparano","admin3":"073018","localeAltName":null},{"geonameid":6537566,"name":"Mottola","admin3":"073019","localeAltName":null},{"geonameid":6537567,"name":"Palagiano","admin3":"073021","localeAltName":null},{"geonameid":6537568,"name":"Pulsano","admin3":"073022","localeAltName":null},{"geonameid":6537569,"name":"Roccaforzata","admin3":"073023","localeAltName":null},{"geonameid":6537570,"name":"San Marzano di San Giuseppe","admin3":"073025","localeAltName":null},{"geonameid":6537571,"name":"Sava","admin3":"073026","localeAltName":null},{"geonameid":6537676,"name":"Statte","admin3":"073029","localeAltName":null},{"geonameid":6538951,"name":"Fragagnano","admin3":"073006","localeAltName":null},{"geonameid":6538952,"name":"Leporano","admin3":"073010","localeAltName":null},{"geonameid":6538953,"name":"Manduria","admin3":"073012","localeAltName":null},{"geonameid":6538954,"name":"Martina Franca","admin3":"073013","localeAltName":null},{"geonameid":6538955,"name":"Maruggio","admin3":"073014","localeAltName":null},{"geonameid":6538956,"name":"Monteiasi","admin3":"073016","localeAltName":null},{"geonameid":6538957,"name":"Montemesola","admin3":"073017","localeAltName":null},{"geonameid":6538958,"name":"San Giorgio Ionico","admin3":"073024","localeAltName":null},{"geonameid":6539835,"name":"Faggiano","admin3":"073005","localeAltName":null},{"geonameid":6539836,"name":"Ginosa","admin3":"073007","localeAltName":null},{"geonameid":6540024,"name":"Lizzano","admin3":"073011","localeAltName":null},{"geonameid":6540750,"name":"Palagianello","admin3":"073020","localeAltName":null},{"geonameid":6541261,"name":"Laterza","admin3":"073009","localeAltName":null},{"geonameid":6541735,"name":"Avetrana","admin3":"073001","localeAltName":null},{"geonameid":6541939,"name":"Carosino","admin3":"073002","localeAltName":null},{"geonameid":6541940,"name":"Torricella","admin3":"073028","localeAltName":null},{"geonameid":6542154,"name":"Taranto","admin3":"073027","localeAltName":null}],"alternateNames":[{"alternatenameId":1347674,"geonameid":3165924,"isoLanguage":"it","alternateName":"Taranto","isPreferredName":true,"isShortName":true,"isColloquial":false,"isHistoric":false},{"alternatenameId":2431330,"geonameid":3165924,"isoLanguage":"de","alternateName":"Tarent","isPreferredName":true,"isShortName":true,"isColloquial":false,"isHistoric":false}]},"__N_SSG":true}