{"pageProps":{"locale":"ro","admin2":{"geonameid":672982,"name":"Comuna Mociu","country":"RO","admin1":"13","admin2":"58623","admin3":"","latitude":"46.7923200","longitude":"24.0285300"},"admin1":{"geonameid":681291,"name":"Cluj","admin1":"13"},"locations":[{"geonameid":684081,"name":"Boteni","admin3":""},{"geonameid":682180,"name":"Chesău","admin3":""},{"geonameid":680193,"name":"Crișeni","admin3":""},{"geonameid":678445,"name":"Falca","admin3":""},{"geonameid":677762,"name":"Furduică","admin3":""},{"geonameid":677314,"name":"Ghirișu Român","admin3":""},{"geonameid":676260,"name":"Heler","admin3":""},{"geonameid":672983,"name":"Mociu","admin3":""},{"geonameid":672792,"name":"Moştercut","admin3":""},{"geonameid":672007,"name":"Ocoliş","admin3":""},{"geonameid":668634,"name":"Roșieni","admin3":""},{"geonameid":666415,"name":"Soşba","admin3":""},{"geonameid":666409,"name":"Soşpatac","admin3":""},{"geonameid":10942370,"name":"Turmași","admin3":""},{"geonameid":662139,"name":"Zorenii de Vale","admin3":""}],"admin3":[],"alternateNames":[]},"__N_SSG":true}