{"pageProps":{"locale":"en","admin2":{"geonameid":4205152,"name":"Laurens County","country":"US","admin1":"GA","admin2":"175","admin3":"","latitude":"32.4636600","longitude":"-82.9222400","localeAltName":null},"admin1":{"geonameid":4197000,"name":"Georgia","admin1":"GA","localeAltName":"Georgia"},"locations":[{"geonameid":4185607,"name":"Cadwell","admin3":"","localeAltName":null},{"geonameid":4191408,"name":"Dexter","admin3":"","localeAltName":null},{"geonameid":4192205,"name":"Dublin","admin3":"","localeAltName":null},{"geonameid":4192271,"name":"Dudley","admin3":"","localeAltName":null},{"geonameid":4192606,"name":"East Dublin","admin3":"","localeAltName":null}],"admin3":[{"geonameid":7169377,"name":"City of Dudley","admin3":"7169377"},{"geonameid":7169391,"name":"City of East Dublin","admin3":"7169391"},{"geonameid":7170125,"name":"City of Rentz","admin3":"7170125"}],"alternateNames":[{"alternatenameId":2089570,"geonameid":4197000,"isoLanguage":"en","alternateName":"Georgia","isPreferredName":true,"isShortName":true,"isColloquial":false,"isHistoric":false}]},"__N_SSG":true}