{"pageProps":{"locale":"en","admin2":{"geonameid":5549225,"name":"Washington County","country":"US","admin1":"UT","admin2":"053","admin3":"","latitude":"37.2803600","longitude":"-113.5049400","localeAltName":null},"admin1":{"geonameid":5549030,"name":"Utah","admin1":"UT","localeAltName":"Utah"},"locations":[{"geonameid":5534525,"name":"Apple Valley","admin3":"","localeAltName":null},{"geonameid":5536743,"name":"Central","admin3":"","localeAltName":null},{"geonameid":7225903,"name":"Dammeron Valley","admin3":"","localeAltName":null},{"geonameid":5538929,"name":"Enterprise","admin3":"","localeAltName":null},{"geonameid":5540444,"name":"Hildale","admin3":"","localeAltName":null},{"geonameid":5540831,"name":"Hurricane","admin3":"","localeAltName":null},{"geonameid":5541061,"name":"Ivins","admin3":"","localeAltName":null},{"geonameid":5541693,"name":"LaVerkin","admin3":"","localeAltName":null},{"geonameid":5541871,"name":"Leeds","admin3":"","localeAltName":null},{"geonameid":5546220,"name":"Saint George","admin3":"","localeAltName":null},{"geonameid":5546441,"name":"Santa Clara","admin3":"","localeAltName":null},{"geonameid":5547516,"name":"Springdale","admin3":"","localeAltName":null},{"geonameid":5548621,"name":"Toquerville","admin3":"","localeAltName":null},{"geonameid":5549106,"name":"Virgin","admin3":"","localeAltName":null},{"geonameid":5549222,"name":"Washington","admin3":"","localeAltName":null}],"admin3":[{"geonameid":11788659,"name":"City of Washington","admin3":"11788659"},{"geonameid":11788724,"name":"City of Saint George","admin3":"11788724"},{"geonameid":11788757,"name":"City of Santa Clara","admin3":"11788757"},{"geonameid":11788818,"name":"City of Enterprise","admin3":"11788818"},{"geonameid":11788937,"name":"City of Hurricane","admin3":"11788937"}],"alternateNames":[{"alternatenameId":2089567,"geonameid":5549030,"isoLanguage":"en","alternateName":"Utah","isPreferredName":true,"isShortName":true,"isColloquial":false,"isHistoric":false}]},"__N_SSG":true}