{"pageProps":{"locale":"de","locations":[{"geonameid":2958105,"name":"Alsterdorf","admin3":"02000","localeAltName":null},{"geonameid":2911296,"name":"Altona","admin3":"02000","localeAltName":null},{"geonameid":2953235,"name":"Bahrenfeld","admin3":"02000","localeAltName":null},{"geonameid":7932342,"name":"Barmbek-Nord","admin3":"02000","localeAltName":null},{"geonameid":7290243,"name":"Bergedorf","admin3":"02000","localeAltName":null},{"geonameid":2950265,"name":"Bergstedt","admin3":"02000","localeAltName":null},{"geonameid":2946281,"name":"Borgfelde","admin3":"02000","localeAltName":null},{"geonameid":2934163,"name":"Duvenstedt","admin3":"02000","localeAltName":null},{"geonameid":7274677,"name":"Eidelstedt","admin3":"02000","localeAltName":null},{"geonameid":2911293,"name":"Eimsbüttel","admin3":"02000","localeAltName":null},{"geonameid":7932386,"name":"Farmsen-Berne","admin3":"02000","localeAltName":null},{"geonameid":2923850,"name":"Fuhlsbüttel","admin3":"02000","localeAltName":null},{"geonameid":2911298,"name":"Hamburg","admin3":"02000","localeAltName":null},{"geonameid":2956829,"name":"Hamburg-Altstadt","admin3":"02000","localeAltName":null},{"geonameid":2911288,"name":"Hamburg-Mitte","admin3":"02000","localeAltName":null},{"geonameid":8354626,"name":"Hamburg-Nord","admin3":"02000","localeAltName":null},{"geonameid":7932378,"name":"Hammerbrook","admin3":"02000","localeAltName":null},{"geonameid":2910685,"name":"Harburg","admin3":"02000","localeAltName":null},{"geonameid":2897674,"name":"Hummelsbüttel","admin3":"02000","localeAltName":null},{"geonameid":7932486,"name":"Kleiner Grasbrook","admin3":"02000","localeAltName":null},{"geonameid":2832561,"name":"Langenhorn","admin3":"02000","localeAltName":null},{"geonameid":2878918,"name":"Lemsahl-Mellingstedt","admin3":"02000","localeAltName":null},{"geonameid":2875023,"name":"Lurup","admin3":"02000","localeAltName":null},{"geonameid":2911287,"name":"Marienthal","admin3":"02000","localeAltName":null},{"geonameid":2864067,"name":"Neustadt","admin3":"02000","localeAltName":null},{"geonameid":2857650,"name":"Ohlsdorf","admin3":"02000","localeAltName":null},{"geonameid":2856075,"name":"Ottensen","admin3":"02000","localeAltName":null},{"geonameid":2852673,"name":"Poppenbüttel","admin3":"02000","localeAltName":null},{"geonameid":6694704,"name":"Rothenburgsort","admin3":"02000","localeAltName":null},{"geonameid":2841374,"name":"Sasel","admin3":"02000","localeAltName":null},{"geonameid":2841631,"name":"St. Georg","admin3":"02000","localeAltName":null},{"geonameid":6944296,"name":"St. Pauli","admin3":"02000","localeAltName":null},{"geonameid":2828994,"name":"Steilshoop","admin3":"02000","localeAltName":null},{"geonameid":2827552,"name":"Stellingen","admin3":"02000","localeAltName":null},{"geonameid":11611370,"name":"Sülldorf","admin3":"02000","localeAltName":null},{"geonameid":2911285,"name":"Wandsbek","admin3":"02000","localeAltName":null},{"geonameid":2811461,"name":"Wellingsbüttel","admin3":"02000","localeAltName":null},{"geonameid":2807748,"name":"Winterhude","admin3":"02000","localeAltName":null},{"geonameid":2807068,"name":"Wohldorf-Ohlstedt","admin3":"02000","localeAltName":null}],"admin1":{"geonameid":2911297,"name":"Free and Hanseatic City of Hamburg","admin1":"04","localeAltName":"Hamburg"},"admin2":"no-adm2","admin3":{"geonameid":6547395,"name":"Hamburg, Freie und Hansestadt","country":"DE","admin1":"04","admin2":"00","admin3":"02000","latitude":"53.5500000","longitude":"10.0000000","localeAltName":null},"admin4":[{"geonameid":7602585,"name":"Hamburg, Freie und Hansestadt","admin3":"02000","localeAltName":null}]},"__N_SSG":true}