{"pageProps":{"locale":"en","admin2":{"geonameid":2757834,"name":"Gemeente Dantumadiel","country":"NL","admin1":"02","admin2":"1891","admin3":"","latitude":"53.2911300","longitude":"5.9954500"},"admin1":{"geonameid":2755812,"name":"Provincie Friesland","admin1":"02"},"locations":[{"geonameid":2759924,"name":"Akkerwoude","admin3":""},{"geonameid":2758239,"name":"Broeksterwâld","admin3":""},{"geonameid":2757838,"name":"Damwâld","admin3":""},{"geonameid":2757833,"name":"Dantumawoude","admin3":""},{"geonameid":2756993,"name":"De Falom","admin3":""},{"geonameid":2743590,"name":"De Westereen","admin3":""},{"geonameid":2756577,"name":"Driezum","admin3":""},{"geonameid":2745743,"name":"Feanwâlden","admin3":""},{"geonameid":2747948,"name":"Readtsjerk","admin3":""},{"geonameid":2748051,"name":"Rinsumageast","admin3":""},{"geonameid":2747328,"name":"Sibrandahûs","admin3":""},{"geonameid":2744147,"name":"Wâlterswâld","admin3":""}],"admin3":[],"alternateNames":[{"alternatenameId":5463435,"geonameid":2755812,"isoLanguage":"de","alternateName":"Friesland","isPreferredName":true,"isShortName":true,"isColloquial":false,"isHistoric":false}]},"__N_SSG":true}