{"pageProps":{"locale":"en","admin2":{"geonameid":2654408,"name":"Buckinghamshire","country":"GB","admin1":"ENG","admin2":"B9","admin3":"","latitude":"51.7500000","longitude":"-0.7500000","localeAltName":"Buckinghamshire"},"admin1":{"geonameid":6269131,"name":"England","admin1":"ENG","localeAltName":"England"},"locations":[{"geonameid":2657677,"name":"Addington"},{"geonameid":2657663,"name":"Adstock"},{"geonameid":2657578,"name":"Akeley"},{"geonameid":2657356,"name":"Amersham"},{"geonameid":6690592,"name":"Amersham on the Hill"},{"geonameid":2656960,"name":"Ashendon"},{"geonameid":9657632,"name":"Asheridge"},{"geonameid":11593085,"name":"Ashley Green"},{"geonameid":11593087,"name":"Aston Abbotts"},{"geonameid":2656864,"name":"Aston Clinton"},{"geonameid":2656719,"name":"Aylesbury"},{"geonameid":2656126,"name":"Beachampton"},{"geonameid":2656120,"name":"Beaconsfield"},{"geonameid":9657328,"name":"Bellingdon"},{"geonameid":2655711,"name":"Biddlesden"},{"geonameid":2655699,"name":"Bierton"},{"geonameid":2655360,"name":"Bledlow"},{"geonameid":11593099,"name":"Bledlow Ridge"},{"geonameid":2655301,"name":"Boarstall"},{"geonameid":7648912,"name":"Booker"},{"geonameid":2655127,"name":"Botolph Claydon"},{"geonameid":2655097,"name":"Bourne End"},{"geonameid":6946033,"name":"Boveney"},{"geonameid":6941796,"name":"Bradenham"},{"geonameid":2654701,"name":"Brill"},{"geonameid":2654410,"name":"Buckingham"},{"geonameid":2654405,"name":"Buckland"},{"geonameid":2654274,"name":"Burnham"},{"geonameid":11548422,"name":"Cadmore End"},{"geonameid":2653393,"name":"Chalfont Saint Peter"},{"geonameid":2653394,"name":"Chalfont St Giles","localeAltName":"Chalfont St Giles"},{"geonameid":9657631,"name":"Chartridge"},{"geonameid":2653288,"name":"Chearsley"},{"geonameid":2653280,"name":"Cheddington"},{"geonameid":7874409,"name":"Chelmscote"},{"geonameid":2653257,"name":"Chenies"},{"geonameid":11902765,"name":"Chequers"},{"geonameid":2653235,"name":"Chesham"},{"geonameid":11550849,"name":"Chesham Bois"},{"geonameid":2653208,"name":"Chetwode"},{"geonameid":2653154,"name":"Chilton"},{"geonameid":11071847,"name":"Chivery"},{"geonameid":2653099,"name":"Cholesbury"},{"geonameid":2653084,"name":"Chorleywood West"},{"geonameid":2652817,"name":"Cliveden"},{"geonameid":11550834,"name":"Cryers Hill"},{"geonameid":2651789,"name":"Cublington"},{"geonameid":2651781,"name":"Cuddington"},{"geonameid":11071848,"name":"Dancers End"},{"geonameid":2651378,"name":"Denham"},{"geonameid":11593168,"name":"Denham Green"},{"geonameid":2651235,"name":"Dinton"},{"geonameid":2651091,"name":"Dorney"},{"geonameid":6946034,"name":"Dorney Reach"},{"geonameid":2651077,"name":"Dorton"},{"geonameid":6950941,"name":"Drayton Parslow"},{"geonameid":10377172,"name":"Dunton"},{"geonameid":2650480,"name":"East Claydon"},{"geonameid":2650235,"name":"Edgcott"},{"geonameid":2650216,"name":"Edlesborough"},{"geonameid":2650098,"name":"Ellesborough"},{"geonameid":7287967,"name":"Farnham Common"},{"geonameid":2649657,"name":"Farnham Royal"},{"geonameid":2649616,"name":"Fawley"},{"geonameid":12076712,"name":"Fawley Bottom"},{"geonameid":2649424,"name":"Fingest"},{"geonameid":12217158,"name":"Flackwell Heath"},{"geonameid":9538955,"name":"Frieth"},{"geonameid":2648992,"name":"Fulmer"},{"geonameid":2648762,"name":"Gawcott"},{"geonameid":6620359,"name":"George Green"},{"geonameid":6620444,"name":"Gerrards Cross"},{"geonameid":2648224,"name":"Granborough"},{"geonameid":2648150,"name":"Great Brickhill"},{"geonameid":2648088,"name":"Great Hampden"},{"geonameid":2648076,"name":"Great Horwood"},{"geonameid":2648073,"name":"Great Kimble"},{"geonameid":11550836,"name":"Great Kingshill"},{"geonameid":2648057,"name":"Great Missenden"},{"geonameid":2647922,"name":"Grendon Underwood"},{"geonameid":2647688,"name":"Haddenham"},{"geonameid":2647600,"name":"Halton"},{"geonameid":11071846,"name":"Halton Camp"},{"geonameid":2647583,"name":"Hambleden"},{"geonameid":2647558,"name":"Hampden Row"},{"geonameid":2647493,"name":"Hardwick"},{"geonameid":2647277,"name":"Hawridge"},{"geonameid":11550835,"name":"Hazlemere"},{"geonameid":2647193,"name":"Hedgerley"},{"geonameid":2647190,"name":"Hedsor"},{"geonameid":2646914,"name":"High Wycombe"},{"geonameid":2646794,"name":"Hoggeston"},{"geonameid":11550832,"name":"Holmer Green"},{"geonameid":2646454,"name":"Hughenden"},{"geonameid":2646447,"name":"Hulcott"},{"geonameid":11550848,"name":"Hyde Heath"},{"geonameid":2646310,"name":"Ibstone"},{"geonameid":11072643,"name":"Ickford"},{"geonameid":2645990,"name":"Iver"},{"geonameid":7290170,"name":"Iver Heath"},{"geonameid":2645989,"name":"Ivinghoe"},{"geonameid":2645946,"name":"Jordans"},{"geonameid":2645468,"name":"Kingsey"},{"geonameid":11593317,"name":"Lacey Green"},{"geonameid":11593318,"name":"Lane End"},{"geonameid":2644820,"name":"Latimer"},{"geonameid":2644715,"name":"Leckhampstead"},{"geonameid":2644698,"name":"Lee"},{"geonameid":2644506,"name":"Lillingstone Dayrell"},{"geonameid":2644364,"name":"Little Brickhill"},{"geonameid":6690591,"name":"Little Chalfont"},{"geonameid":9538956,"name":"Little Frieth"},{"geonameid":2644320,"name":"Little Hampden"},{"geonameid":2644308,"name":"Little Horwood"},{"geonameid":2644303,"name":"Little Kimble"},{"geonameid":11593324,"name":"Little Kingshill"},{"geonameid":2644291,"name":"Little Marlow"},{"geonameid":2644285,"name":"Little Missenden"},{"geonameid":10377173,"name":"Littlecote"},{"geonameid":2643707,"name":"Long Crendon"},{"geonameid":2643614,"name":"Longwick"},{"geonameid":2643570,"name":"Loudwater"},{"geonameid":6693077,"name":"Lower Hartwell"},{"geonameid":2643496,"name":"Lower Winchendon"},{"geonameid":2643428,"name":"Ludgershall"},{"geonameid":2643180,"name":"Maids Moreton"},{"geonameid":2643003,"name":"Marlow"},{"geonameid":2642979,"name":"Marsh Gibbon"},{"geonameid":2642961,"name":"Marsworth"},{"geonameid":2642834,"name":"Medmenham"},{"geonameid":2642740,"name":"Mentmore"},{"geonameid":2642620,"name":"Middle Claydon"},{"geonameid":6692376,"name":"Mill End"},{"geonameid":2642326,"name":"Monks Risborough"},{"geonameid":2641950,"name":"Mursley"},{"geonameid":2641872,"name":"Nash"},{"geonameid":2641545,"name":"Newton Longville"},{"geonameid":2641308,"name":"North Marston"},{"geonameid":2641368,"name":"Northend"},{"geonameid":2641122,"name":"Oakley"},{"geonameid":2640757,"name":"Oving"},{"geonameid":2640693,"name":"Padbury"},{"geonameid":2640448,"name":"Penn"},{"geonameid":2640244,"name":"Pitstone"},{"geonameid":2639955,"name":"Poundon"},{"geonameid":2639909,"name":"Preston Bisset"},{"geonameid":11592597,"name":"Prestwood"},{"geonameid":2639888,"name":"Princes Risborough"},{"geonameid":6947744,"name":"Quaindon Hill"},{"geonameid":2639814,"name":"Quainton"},{"geonameid":2639718,"name":"Radnage"},{"geonameid":11593379,"name":"Richings Park"},{"geonameid":2638558,"name":"Sands"},{"geonameid":2638488,"name":"Saunderton"},{"geonameid":7521859,"name":"Seer Green"},{"geonameid":2638162,"name":"Shabbington"},{"geonameid":2638146,"name":"Shalstone"},{"geonameid":2637667,"name":"Slapton"},{"geonameid":2637506,"name":"Soulbury"},{"geonameid":10377171,"name":"Southend"},{"geonameid":2636967,"name":"Steeple Claydon"},{"geonameid":2636930,"name":"Stewkley"},{"geonameid":2636850,"name":"Stoke Hammond"},{"geonameid":2636845,"name":"Stoke Mandeville"},{"geonameid":2636840,"name":"Stoke Poges"},{"geonameid":2636844,"name":"Stokenchurch"},{"geonameid":2636824,"name":"Stone"},{"geonameid":7287954,"name":"Stowe"},{"geonameid":2636442,"name":"Swanbourne"},{"geonameid":2636250,"name":"Taplow"},{"geonameid":2636004,"name":"Thornborough"},{"geonameid":2635976,"name":"Thornton"},{"geonameid":2635796,"name":"Tingewick"},{"geonameid":2635326,"name":"Turville"},{"geonameid":2635102,"name":"Upper Winchendon"},{"geonameid":2634925,"name":"Waddesdon"},{"geonameid":11550847,"name":"Walton"},{"geonameid":2634614,"name":"Weedon"},{"geonameid":2634538,"name":"Wendover"},{"geonameid":6941795,"name":"West Wycombe"},{"geonameid":2634482,"name":"Westbury"},{"geonameid":2634464,"name":"Westcott"},{"geonameid":2634307,"name":"Weston Turville"},{"geonameid":2634200,"name":"Whaddon"},{"geonameid":2634125,"name":"Whitchurch"},{"geonameid":2633830,"name":"Wing"},{"geonameid":2633820,"name":"Wingrave"},{"geonameid":2633808,"name":"Winslow"},{"geonameid":2633675,"name":"Wooburn"},{"geonameid":12217157,"name":"Wooburn Green"},{"geonameid":11071845,"name":"World's End"},{"geonameid":2633540,"name":"Worminghall"},{"geonameid":2633510,"name":"Wotton Underwood"},{"geonameid":11550831,"name":"Wycombe Marsh"}],"admin3":[{"geonameid":2633462,"name":"Wycombe","admin3":"11UF"},{"geonameid":2656718,"name":"Aylesbury Vale","admin3":"11UB"},{"geonameid":7290538,"name":"Chiltern District","admin3":"11UC"},{"geonameid":7290659,"name":"South Bucks District","admin3":"11UE"}],"alternateNames":[{"alternatenameId":7480960,"geonameid":2653394,"isoLanguage":"en","alternateName":"Chalfont St Giles","isPreferredName":true,"isShortName":true,"isColloquial":false,"isHistoric":false},{"alternatenameId":8666550,"geonameid":2654408,"isoLanguage":"en","alternateName":"Buckinghamshire","isPreferredName":true,"isShortName":true,"isColloquial":false,"isHistoric":false},{"alternatenameId":1626647,"geonameid":6269131,"isoLanguage":"en","alternateName":"England","isPreferredName":true,"isShortName":true,"isColloquial":false,"isHistoric":false}]},"__N_SSG":true}