{"pageProps":{"locale":"en","admin2":{"geonameid":5688859,"name":"Dunn County","country":"US","admin1":"ND","admin2":"025","admin3":"","latitude":"47.3567500","longitude":"-102.6182400"},"admin1":{"geonameid":5690763,"name":"North Dakota","admin1":"ND","localeAltName":"North Dakota"},"locations":[{"geonameid":5689955,"name":"Killdeer","admin3":"42700"}],"admin3":[{"geonameid":5688799,"name":"City of Dodge","admin3":"19820"},{"geonameid":5688858,"name":"City of Dunn Center","admin3":"20940"},{"geonameid":5689469,"name":"City of Halliday","admin3":"34340"},{"geonameid":5689470,"name":"Unorganized Territory of Halliday","admin3":"34350"},{"geonameid":5689959,"name":"City of Killdeer","admin3":"42700"},{"geonameid":5689960,"name":"Unorganized Territory of Killdeer","admin3":"42705"},{"geonameid":5692210,"name":"Unorganized Territory of South Dunn","admin3":"74105"},{"geonameid":7274880,"name":"Unorganized Territory of Fort Berthold","admin3":"27330"}],"alternateNames":[{"alternatenameId":2080778,"geonameid":5690763,"isoLanguage":"en","alternateName":"North Dakota","isPreferredName":true,"isShortName":true,"isColloquial":false,"isHistoric":false}]},"__N_SSG":true}