{"pageProps":{"locale":"en","admin2":{"geonameid":5062096,"name":"Stutsman County","country":"US","admin1":"ND","admin2":"093","admin3":"","latitude":"46.9792500","longitude":"-98.9588300"},"admin1":{"geonameid":5690763,"name":"North Dakota","admin1":"ND","localeAltName":"North Dakota"},"locations":[{"geonameid":5059836,"name":"Jamestown","admin3":"40580"}],"admin3":[{"geonameid":5058047,"name":"Township of Alexander","admin3":"01260"},{"geonameid":5058134,"name":"Township of Ashland","admin3":"03500"},{"geonameid":5058351,"name":"Township of Bloom","admin3":"07740"},{"geonameid":5058352,"name":"Township of Bloomenfield","admin3":"07780"},{"geonameid":5058455,"name":"City of Buchanan","admin3":"10060"},{"geonameid":5058456,"name":"Township of Buchanan","admin3":"10100"},{"geonameid":5058617,"name":"Township of Chicago","admin3":"13940"},{"geonameid":5058653,"name":"City of Cleveland","admin3":"14660"},{"geonameid":5058692,"name":"Township of Conklin","admin3":"15700"},{"geonameid":5058709,"name":"Township of Corinne","admin3":"16020"},{"geonameid":5058712,"name":"Township of Corwin","admin3":"16140"},{"geonameid":5058766,"name":"City of Courtenay","admin3":"16380"},{"geonameid":5058767,"name":"Township of Courtenay","admin3":"16420"},{"geonameid":5058806,"name":"Township of Cusator","admin3":"17460"},{"geonameid":5058855,"name":"Township of Deer Lake","admin3":"18700"},{"geonameid":5058949,"name":"Township of Durham","admin3":"21140"},{"geonameid":5059014,"name":"Township of Edmunds","admin3":"22420"},{"geonameid":5059041,"name":"Township of Eldridge","admin3":"22940"},{"geonameid":5059216,"name":"Township of Flint","admin3":"26740"},{"geonameid":5059284,"name":"Township of Fried","admin3":"28700"},{"geonameid":5059336,"name":"Township of Gerber","admin3":"29860"},{"geonameid":5059343,"name":"Township of Germania","admin3":"29940"},{"geonameid":5059362,"name":"Township of Glacier","admin3":"30380"},{"geonameid":5059462,"name":"Township of Gray","admin3":"32860"},{"geonameid":5059488,"name":"Township of Griffin","admin3":"33660"},{"geonameid":5059684,"name":"Township of Hidden","admin3":"37820"},{"geonameid":5059712,"name":"Township of Homer","admin3":"38620"},{"geonameid":5059808,"name":"Township of Iosco","admin3":"40100"},{"geonameid":5059845,"name":"City of Jamestown","admin3":"40580"},{"geonameid":5059858,"name":"Township of Jim River Valley","admin3":"40780"},{"geonameid":5059949,"name":"City of Kensal","admin3":"42180"},{"geonameid":5059950,"name":"Township of Kensal","admin3":"42220"},{"geonameid":5060122,"name":"Township of Lenton","admin3":"45940"},{"geonameid":5060161,"name":"Township of Lippert","admin3":"47060"},{"geonameid":5060233,"name":"Township of Lowery","admin3":"48300"},{"geonameid":5060258,"name":"Township of Lyon","admin3":"48740"},{"geonameid":5060286,"name":"Township of Manns","admin3":"50300"},{"geonameid":5060317,"name":"Township of Marstonmoor","admin3":"51020"},{"geonameid":5060392,"name":"City of Medina","admin3":"51860"},{"geonameid":5060443,"name":"Township of Midway","admin3":"52820"},{"geonameid":5060498,"name":"City of Montpelier","admin3":"53980"},{"geonameid":5060499,"name":"Township of Montpelier","admin3":"54020"},{"geonameid":5060504,"name":"Township of Moon Lake","admin3":"54100"},{"geonameid":5060624,"name":"Township of Newbury","admin3":"56100"},{"geonameid":5060646,"name":"Township of Nogosek","admin3":"57060"},{"geonameid":5060719,"name":"Unorganized Territory of Northwest Stutsman","admin3":"58280"},{"geonameid":5060854,"name":"Township of Paris","admin3":"60780"},{"geonameid":5060924,"name":"Township of Peterson","admin3":"61940"},{"geonameid":5060952,"name":"City of Pingree","admin3":"62620"},{"geonameid":5060953,"name":"Township of Pingree","admin3":"62660"},{"geonameid":5060964,"name":"Township of Pipestem Valley","admin3":"62740"},{"geonameid":5060975,"name":"Township of Plainview","admin3":"62940"},{"geonameid":5061184,"name":"Township of Rose","admin3":"68100"},{"geonameid":5061215,"name":"Township of Round Top","admin3":"68740"},{"geonameid":5061380,"name":"Township of Saint Paul","admin3":"70180"},{"geonameid":5061839,"name":"Township of Severn","admin3":"71860"},{"geonameid":5061845,"name":"Township of Sharlow","admin3":"71900"},{"geonameid":5061923,"name":"Township of Sinclair","admin3":"73340"},{"geonameid":5061998,"name":"City of Spiritwood Lake","admin3":"74740"},{"geonameid":5061999,"name":"Township of Spiritwood","admin3":"74700"},{"geonameid":5062057,"name":"Township of Stirton","admin3":"76180"},{"geonameid":5062089,"name":"City of Streeter","admin3":"76620"},{"geonameid":5062090,"name":"Township of Streeter","admin3":"76660"},{"geonameid":5062093,"name":"Township of Strong","admin3":"76780"},{"geonameid":5062144,"name":"Township of Sydney","admin3":"77620"},{"geonameid":5062301,"name":"Township of Valley Spring","admin3":"81260"},{"geonameid":5062351,"name":"Township of Wadsworth","admin3":"82540"},{"geonameid":5062389,"name":"Township of Walters","admin3":"83260"},{"geonameid":5062440,"name":"Township of Weld","admin3":"84300"},{"geonameid":5062545,"name":"Township of Windsor","admin3":"86700"},{"geonameid":5062547,"name":"Township of Winfield","admin3":"86740"},{"geonameid":5062578,"name":"Township of Woodbury","admin3":"87380"},{"geonameid":5062584,"name":"City of Woodworth","admin3":"87580"},{"geonameid":5062608,"name":"Township of Ypsilanti","admin3":"88060"}],"alternateNames":[{"alternatenameId":2080778,"geonameid":5690763,"isoLanguage":"en","alternateName":"North Dakota","isPreferredName":true,"isShortName":true,"isColloquial":false,"isHistoric":false}]},"__N_SSG":true}