{"pageProps":{"locale":"en","admin2":{"geonameid":5062384,"name":"Walsh County","country":"US","admin1":"ND","admin2":"099","admin3":"","latitude":"48.3694600","longitude":"-97.7213700"},"admin1":{"geonameid":5690763,"name":"North Dakota","admin1":"ND","localeAltName":"North Dakota"},"locations":[{"geonameid":5059419,"name":"Grafton","admin3":"31820"},{"geonameid":5060860,"name":"Park River","admin3":"60900"}],"admin3":[{"geonameid":5058012,"name":"Township of Acton","admin3":"00260"},{"geonameid":5058018,"name":"City of Adams","admin3":"00340"},{"geonameid":5058019,"name":"Township of Adams","admin3":"00380"},{"geonameid":5058103,"name":"City of Ardoch","admin3":"02860"},{"geonameid":5058104,"name":"Township of Ardoch","admin3":"02900"},{"geonameid":5058654,"name":"Township of Cleveland","admin3":"14700"},{"geonameid":5058695,"name":"City of Conway","admin3":"15820"},{"geonameid":5058876,"name":"Township of Dewey","admin3":"19460"},{"geonameid":5058944,"name":"Township of Dundee","admin3":"20900"},{"geonameid":5058998,"name":"Township of Eden","admin3":"22020"},{"geonameid":5059006,"name":"City of Edinburg","admin3":"22260"},{"geonameid":5059146,"name":"City of Fairdale","admin3":"25180"},{"geonameid":5059173,"name":"Township of Farmington","admin3":"25860"},{"geonameid":5059180,"name":"Township of Fertile","admin3":"26100"},{"geonameid":5059229,"name":"City of Fordville","admin3":"27060"},{"geonameid":5059235,"name":"City of Forest River","admin3":"27100"},{"geonameid":5059236,"name":"Township of Forest River","admin3":"27140"},{"geonameid":5059375,"name":"Township of Glenwood","admin3":"30940"},{"geonameid":5059392,"name":"Township of Golden","admin3":"31060"},{"geonameid":5059423,"name":"City of Grafton","admin3":"31820"},{"geonameid":5059424,"name":"Township of Grafton","admin3":"31860"},{"geonameid":5059574,"name":"Township of Harriston","admin3":"35740"},{"geonameid":5059722,"name":"City of Hoople","admin3":"38780"},{"geonameid":5059953,"name":"Township of Kensington","admin3":"42260"},{"geonameid":5059969,"name":"Township of Kinloss","admin3":"42900"},{"geonameid":5060067,"name":"Township of Lampton","admin3":"44620"},{"geonameid":5060077,"name":"City of Lankin","admin3":"44860"},{"geonameid":5060093,"name":"Township of Latona","admin3":"45260"},{"geonameid":5060320,"name":"Township of Martin","admin3":"51140"},{"geonameid":5060387,"name":"Township of Medford","admin3":"51780"},{"geonameid":5060485,"name":"City of Minto","admin3":"53540"},{"geonameid":5060728,"name":"Township of Norton","admin3":"58380"},{"geonameid":5060768,"name":"Township of Oakwood","admin3":"58980"},{"geonameid":5060805,"name":"Township of Ops","admin3":"59540"},{"geonameid":5060864,"name":"City of Park River","admin3":"60900"},{"geonameid":5060912,"name":"Township of Perth","admin3":"61820"},{"geonameid":5060966,"name":"City of Pisek","admin3":"62780"},{"geonameid":5061025,"name":"Township of Prairie Centre","admin3":"64270"},{"geonameid":5061049,"name":"Township of Pulaski","admin3":"64860"},{"geonameid":5061236,"name":"Township of Rushford","admin3":"68940"},{"geonameid":5061265,"name":"Township of Saint Andrews","admin3":"69620"},{"geonameid":5061447,"name":"Township of Sauter","admin3":"70940"},{"geonameid":5061864,"name":"Township of Shepherd","admin3":"72380"},{"geonameid":5061919,"name":"Township of Silvesta","admin3":"73220"},{"geonameid":5062183,"name":"Township of Tiber","admin3":"78820"},{"geonameid":5062321,"name":"Township of Vernon","admin3":"81860"},{"geonameid":5062327,"name":"Township of Vesta","admin3":"81980"},{"geonameid":5062383,"name":"Township of Walsh Centre","admin3":"83180"},{"geonameid":5062388,"name":"Township of Walshville","admin3":"83220"}],"alternateNames":[{"alternatenameId":2080778,"geonameid":5690763,"isoLanguage":"en","alternateName":"North Dakota","isPreferredName":true,"isShortName":true,"isColloquial":false,"isHistoric":false}]},"__N_SSG":true}