{"pageProps":{"locale":"en","admin2":{"geonameid":4501019,"name":"Camden County","country":"US","admin1":"NJ","admin2":"007","admin3":"","latitude":"39.8035300","longitude":"-74.9597600"},"admin1":{"geonameid":5101760,"name":"New Jersey","admin1":"NJ","localeAltName":"New Jersey"},"locations":[{"geonameid":4500538,"name":"Ashland","admin3":"12280"},{"geonameid":4500541,"name":"Atco","admin3":"77630"},{"geonameid":4500572,"name":"Audubon","admin3":"02200"},{"geonameid":4500574,"name":"Audubon Park","admin3":"02230"},{"geonameid":4500653,"name":"Barrington","admin3":"03250"},{"geonameid":4500750,"name":"Bellmawr","admin3":"04750"},{"geonameid":4500771,"name":"Berlin","admin3":"05440"},{"geonameid":4500845,"name":"Blackwood","admin3":"26760"},{"geonameid":4500950,"name":"Brooklawn","admin3":"08170"},{"geonameid":4501018,"name":"Camden","admin3":"10000"},{"geonameid":4501198,"name":"Cherry Hill","admin3":"12280"},{"geonameid":4501204,"name":"Cherry Hill Mall","admin3":"12280"},{"geonameid":4501210,"name":"Chesilhurst","admin3":"12550"},{"geonameid":4501269,"name":"Clementon","admin3":"13420"},{"geonameid":4501306,"name":"Collingswood","admin3":"14260"},{"geonameid":4501632,"name":"Echelon","admin3":"76220"},{"geonameid":4501677,"name":"Ellisburg","admin3":"12280"},{"geonameid":4828864,"name":"Florence","admin3":"81740"},{"geonameid":4501919,"name":"Gibbsboro","admin3":"26070"},{"geonameid":4501940,"name":"Glendora","admin3":"26760"},{"geonameid":4501943,"name":"Gloucester City","admin3":"26820"},{"geonameid":4501956,"name":"Golden Triangle","admin3":"12280"},{"geonameid":4502049,"name":"Greentree","admin3":"12280"},{"geonameid":4502093,"name":"Haddon Heights","admin3":"28800"},{"geonameid":4502103,"name":"Haddonfield","admin3":"28770"},{"geonameid":4502434,"name":"Jackson","admin3":"77630"},{"geonameid":4502543,"name":"Kingston Estates","admin3":"12280"},{"geonameid":4502649,"name":"Laurel Springs","admin3":"39210"},{"geonameid":4502641,"name":"Lawnside","admin3":"39420"},{"geonameid":4502687,"name":"Lindenwold","admin3":"39210"},{"geonameid":4502833,"name":"Magnolia","admin3":"42630"},{"geonameid":4828862,"name":"Merchantville","admin3":"57660"},{"geonameid":4503132,"name":"Mount Ephraim","admin3":"48750"},{"geonameid":4503339,"name":"Oaklyn","admin3":"53880"},{"geonameid":4503548,"name":"Pennsauken","admin3":"57660"},{"geonameid":4503606,"name":"Pine Hill","admin3":"58770"},{"geonameid":4503953,"name":"Runnemede","admin3":"65160"},{"geonameid":4504118,"name":"Sicklerville","admin3":"81740"},{"geonameid":4504180,"name":"Somerdale","admin3":"68340"},{"geonameid":4504250,"name":"Springdale","admin3":"12280"},{"geonameid":4504336,"name":"Stratford","admin3":"71220"},{"geonameid":4504910,"name":"Wood-Lynne","admin3":"82450"}],"admin3":[{"geonameid":4500575,"name":"Borough of Audubon Park","admin3":"02230"},{"geonameid":4500576,"name":"Borough of Audubon","admin3":"02200"},{"geonameid":4500651,"name":"Borough of Barrington","admin3":"03250"},{"geonameid":4500751,"name":"Borough of Bellmawr","admin3":"04750"},{"geonameid":4500776,"name":"Borough of Berlin","admin3":"05440"},{"geonameid":4500777,"name":"Township of Berlin","admin3":"05470"},{"geonameid":4500952,"name":"Borough of Brooklawn","admin3":"08170"},{"geonameid":4501026,"name":"City of Camden","admin3":"10000"},{"geonameid":4501206,"name":"Township of Cherry Hill","admin3":"12280"},{"geonameid":4501211,"name":"Borough of Chesilhurst","admin3":"12550"},{"geonameid":4501272,"name":"Borough of Clementon","admin3":"13420"},{"geonameid":4501308,"name":"Borough of Collingswood","admin3":"14260"},{"geonameid":4501920,"name":"Borough of Gibbsboro","admin3":"26070"},{"geonameid":4501942,"name":"City of Gloucester City","admin3":"26820"},{"geonameid":4501947,"name":"Township of Gloucester","admin3":"26760"},{"geonameid":4502095,"name":"Borough of Haddon Heights","admin3":"28800"},{"geonameid":4502102,"name":"Township of Haddon","admin3":"28740"},{"geonameid":4502104,"name":"Borough of Haddonfield","admin3":"28770"},{"geonameid":4502225,"name":"Borough of Hi-Nella","admin3":"32220"},{"geonameid":4502632,"name":"Borough of Laurel Springs","admin3":"39210"},{"geonameid":4502645,"name":"Borough of Lawnside","admin3":"39420"},{"geonameid":4502688,"name":"Borough of Lindenwold","admin3":"40440"},{"geonameid":4502837,"name":"Borough of Magnolia","admin3":"42630"},{"geonameid":4503002,"name":"Borough of Merchantville","admin3":"45510"},{"geonameid":4503133,"name":"Borough of Mount Ephraim","admin3":"48750"},{"geonameid":4503340,"name":"Borough of Oaklyn","admin3":"53880"},{"geonameid":4503554,"name":"Township of Pennsauken","admin3":"57660"},{"geonameid":4503609,"name":"Borough of Pine Hill","admin3":"58770"},{"geonameid":4503620,"name":"Borough of Pine Valley","admin3":"58920"},{"geonameid":4503834,"name":"Borough of Runnemede","admin3":"65160"},{"geonameid":4504183,"name":"Borough of Somerdale","admin3":"68340"},{"geonameid":4504339,"name":"Borough of Stratford","admin3":"71220"},{"geonameid":4504417,"name":"Borough of Tavistock","admin3":"72240"},{"geonameid":4504635,"name":"Township of Voorhees","admin3":"76220"},{"geonameid":4504735,"name":"Township of Waterford","admin3":"77630"},{"geonameid":4504900,"name":"Township of Winslow","admin3":"81740"},{"geonameid":4504936,"name":"Borough of Woodlynne","admin3":"82450"}],"alternateNames":[{"alternatenameId":2089555,"geonameid":5101760,"isoLanguage":"en","alternateName":"New Jersey","isPreferredName":true,"isShortName":true,"isColloquial":false,"isHistoric":false}]},"__N_SSG":true}