{"pageProps":{"locale":"de","admin2":{"geonameid":6458783,"name":"Geneva","country":"CH","admin1":"GE","admin2":"2500","admin3":"","latitude":"46.2080400","longitude":"6.1273700"},"admin1":{"geonameid":2660645,"name":"Genève","admin1":"GE"},"locations":[{"geonameid":6946577,"name":"Aire-la-Ville","admin3":"6601"},{"geonameid":2661745,"name":"Anières","admin3":"6602"},{"geonameid":2661568,"name":"Bellevue","admin3":"6622"},{"geonameid":2661547,"name":"Bernex","admin3":"6607"},{"geonameid":2661265,"name":"Carouge","admin3":"6608"},{"geonameid":2661263,"name":"Cartigny","admin3":"6609"},{"geonameid":2661240,"name":"Céligny","admin3":"6610"},{"geonameid":2661219,"name":"Chancy","admin3":"6611"},{"geonameid":3209498,"name":"Chêne-Bougeries","admin3":"6612"},{"geonameid":2661191,"name":"Chêne-Bourg","admin3":"6613"},{"geonameid":2661132,"name":"Confignon","admin3":"6618"},{"geonameid":2661111,"name":"Corsier","admin3":"6619"},{"geonameid":2661046,"name":"Dardagny","admin3":"6620"},{"geonameid":2660646,"name":"Genève","admin3":"6621"},{"geonameid":2660364,"name":"Hermance","admin3":"6625"},{"geonameid":2660205,"name":"Jussy","admin3":"6626"},{"geonameid":6691640,"name":"Lancy","admin3":"6628"},{"geonameid":2660532,"name":"Le Grand-Saconnex","admin3":"6634"},{"geonameid":7779000,"name":"Les Avanchets","admin3":"6643"},{"geonameid":3209502,"name":"Meinier","admin3":"6629"},{"geonameid":2659667,"name":"Meyrin","admin3":"6630"},{"geonameid":2659296,"name":"Onex","admin3":"6631"},{"geonameid":2659190,"name":"Plan-les-Ouates","admin3":"6633"},{"geonameid":2659138,"name":"Presinge","admin3":"6635"},{"geonameid":3209504,"name":"Puplinge","admin3":"6636"},{"geonameid":2658916,"name":"Russin","admin3":"6637"},{"geonameid":2658782,"name":"Satigny","admin3":"6638"},{"geonameid":2658551,"name":"Soral","admin3":"6639"},{"geonameid":3209505,"name":"Thônex","admin3":"6640"},{"geonameid":6691631,"name":"Troinex","admin3":"6641"},{"geonameid":2658188,"name":"Vandœuvres","admin3":"6642"},{"geonameid":2658154,"name":"Vernier","admin3":"6643"},{"geonameid":2658151,"name":"Versoix","admin3":"6644"},{"geonameid":2658143,"name":"Veyrier","admin3":"6645"}],"admin3":[{"geonameid":2659140,"name":"Pregny-Chambésy","admin3":"6634"},{"geonameid":2660046,"name":"Lancy","admin3":"6628"},{"geonameid":2661145,"name":"Cologny","admin3":"6617"},{"geonameid":3209499,"name":"Collonge-Bellerive","admin3":"6616"},{"geonameid":3209503,"name":"Perly-Certoux","admin3":"6632"},{"geonameid":7285043,"name":"Aire-la-Ville","admin3":"6601"},{"geonameid":7285080,"name":"Anières","admin3":"6602"},{"geonameid":7285129,"name":"Avully","admin3":"6603"},{"geonameid":7285130,"name":"Avusy","admin3":"6604"},{"geonameid":7285154,"name":"Bardonnex","admin3":"6605"},{"geonameid":7285187,"name":"Bellevue","admin3":"6606"},{"geonameid":7285214,"name":"Bernex","admin3":"6607"},{"geonameid":7285435,"name":"Carouge (GE)","admin3":"6608"},{"geonameid":7285437,"name":"Cartigny","admin3":"6609"},{"geonameid":7285451,"name":"Céligny","admin3":"6610"},{"geonameid":7285471,"name":"Chancy","admin3":"6611"},{"geonameid":7285493,"name":"Chêne-Bougeries","admin3":"6612"},{"geonameid":7285494,"name":"Chêne-Bourg","admin3":"6613"},{"geonameid":7285514,"name":"Choulex","admin3":"6614"},{"geonameid":7285527,"name":"Collex-Bossy","admin3":"6615"},{"geonameid":7285540,"name":"Confignon","admin3":"6618"},{"geonameid":7285566,"name":"Corsier (GE)","admin3":"6619"},{"geonameid":7285624,"name":"Dardagny","admin3":"6620"},{"geonameid":7285902,"name":"Genève","admin3":"6621"},{"geonameid":7285904,"name":"Genthod","admin3":"6622"},{"geonameid":7286015,"name":"Gy","admin3":"6624"},{"geonameid":7286069,"name":"Hermance","admin3":"6625"},{"geonameid":7286169,"name":"Jussy","admin3":"6626"},{"geonameid":7286244,"name":"Laconnex","admin3":"6627"},{"geonameid":7286302,"name":"Le Grand-Saconnex","admin3":"6623"},{"geonameid":7286473,"name":"Meinier","admin3":"6629"},{"geonameid":7286502,"name":"Meyrin","admin3":"6630"},{"geonameid":7286740,"name":"Onex","admin3":"6631"},{"geonameid":7286803,"name":"Plan-les-Ouates","admin3":"6633"},{"geonameid":7286834,"name":"Presinge","admin3":"6635"},{"geonameid":7286843,"name":"Puplinge","admin3":"6636"},{"geonameid":7286993,"name":"Russin","admin3":"6637"},{"geonameid":7287059,"name":"Satigny","admin3":"6638"},{"geonameid":7287193,"name":"Soral","admin3":"6639"},{"geonameid":7287304,"name":"Thônex","admin3":"6640"},{"geonameid":7287338,"name":"Troinex","admin3":"6641"},{"geonameid":7287416,"name":"Vandoeuvres","admin3":"6642"},{"geonameid":7287438,"name":"Vernier","admin3":"6643"},{"geonameid":7287442,"name":"Versoix","admin3":"6644"},{"geonameid":7287447,"name":"Veyrier","admin3":"6645"}],"alternateNames":[]},"__N_SSG":true}