{"pageProps":{"locale":"en","admin2":{"geonameid":5966925,"name":"Grey County","country":"CA","admin1":"08","admin2":"3542","admin3":"","latitude":"44.3333900","longitude":"-80.7497200"},"admin1":{"geonameid":6093943,"name":"Ontario","admin1":"08"},"locations":[{"geonameid":5881865,"name":"Aberdeen","admin3":"3542004"},{"geonameid":5883804,"name":"Allan Park","admin3":"3542004"},{"geonameid":5884215,"name":"Alsfeldt","admin3":"3542004"},{"geonameid":5884281,"name":"Alvanley","admin3":"3542053"},{"geonameid":5887204,"name":"Arnott","admin3":"3542037"},{"geonameid":5888745,"name":"Ayton","admin3":"3542004"},{"geonameid":5889229,"name":"Badjeros","admin3":"3542015"},{"geonameid":5892355,"name":"Balmy Beach","admin3":"3542053"},{"geonameid":5894163,"name":"Barrhead","admin3":"3542004"},{"geonameid":5896737,"name":"Beaverdale","admin3":"3542015"},{"geonameid":5898581,"name":"Bentinck","admin3":"3542004"},{"geonameid":5899464,"name":"Bieman's Corners","admin3":"3542004"},{"geonameid":5901749,"name":"Birdell","admin3":"3542005"},{"geonameid":5903705,"name":"Blantyre","admin3":"3542015"},{"geonameid":5905797,"name":"Boothville","admin3":"3542005"},{"geonameid":5909452,"name":"Brooke","admin3":"3542053"},{"geonameid":5911295,"name":"Bunessan","admin3":"3542004"},{"geonameid":5913380,"name":"Calderwood","admin3":"3542004"},{"geonameid":5918930,"name":"Cedarville","admin3":"3542005"},{"geonameid":5919304,"name":"Ceylon","admin3":"3542015"},{"geonameid":5920470,"name":"Chatsworth","admin3":"3542037"},{"geonameid":5927603,"name":"Copperkettle","admin3":"3542053"},{"geonameid":5931969,"name":"Crawford","admin3":"3542004"},{"geonameid":5933537,"name":"Cruickshank","admin3":"3542053"},{"geonameid":5942732,"name":"Dromore","admin3":"3542005"},{"geonameid":5943864,"name":"Duncan","admin3":"3542015"},{"geonameid":5943968,"name":"Dundalk","admin3":"3542005"},{"geonameid":5944368,"name":"Durham","admin3":"3542004"},{"geonameid":5945828,"name":"East Linton","admin3":"3542053"},{"geonameid":5946643,"name":"Edge Hill","admin3":"3542004"},{"geonameid":5949128,"name":"Epping","admin3":"3542015"},{"geonameid":5950344,"name":"Eugenia","admin3":"3542015"},{"geonameid":5951010,"name":"Fairmount","admin3":"3542015"},{"geonameid":5954617,"name":"Flesherton","admin3":"3542015"},{"geonameid":5961104,"name":"Gildale","admin3":"3542005"},{"geonameid":5961713,"name":"Glascott","admin3":"3542004"},{"geonameid":5961817,"name":"Glen","admin3":"3542004"},{"geonameid":5961928,"name":"Glenelg Centre","admin3":"3542004"},{"geonameid":5963607,"name":"Goring","admin3":"3542015"},{"geonameid":5967163,"name":"Grimston","admin3":"3542037"},{"geonameid":5968723,"name":"Habermehl","admin3":"3542004"},{"geonameid":5969993,"name":"Hampden","admin3":"3542004"},{"geonameid":5970977,"name":"Harkaway","admin3":"3542015"},{"geonameid":5971953,"name":"Hatherton","admin3":"3542015"},{"geonameid":5973753,"name":"Hemstock Mills","admin3":"3542037"},{"geonameid":5975897,"name":"Hogg","admin3":"3542053"},{"geonameid":5976089,"name":"Holford","admin3":"3542037"},{"geonameid":5976861,"name":"Hopeville","admin3":"3542005"},{"geonameid":5978953,"name":"Hutchisons Corners","admin3":"3542015"},{"geonameid":5983207,"name":"Inglis Falls","admin3":"3542053"},{"geonameid":5983820,"name":"Irish Lake","admin3":"3542015"},{"geonameid":5985235,"name":"Jackson","admin3":"3542053"},{"geonameid":5991514,"name":"Keward","admin3":"3542037"},{"geonameid":5992058,"name":"Kimberley","admin3":"3542015"},{"geonameid":5992290,"name":"Kinghurst","admin3":"3542037"},{"geonameid":5992400,"name":"Kingscote","admin3":"3542005"},{"geonameid":6047745,"name":"Lady Bank","admin3":"3542015"},{"geonameid":6048301,"name":"Lake Charles","admin3":"3542053"},{"geonameid":6049037,"name":"Lamlash","admin3":"3542004"},{"geonameid":6049207,"name":"Landerkin","admin3":"3542005"},{"geonameid":6050429,"name":"Lauderbach","admin3":"3542004"},{"geonameid":6050590,"name":"Lauriston","admin3":"3542004"},{"geonameid":6053201,"name":"Letterbreen","admin3":"3542004"},{"geonameid":6054026,"name":"Lily Oak","admin3":"3542037"},{"geonameid":6054320,"name":"Lindenwood","admin3":"3542053"},{"geonameid":6060802,"name":"Louise","admin3":"3542004"},{"geonameid":6061879,"name":"Lueck Mill","admin3":"3542037"},{"geonameid":6065652,"name":"Maple Lane","admin3":"3542005"},{"geonameid":6066504,"name":"Markdale","admin3":"3542015"},{"geonameid":6066651,"name":"Marmion","admin3":"3542037"},{"geonameid":6068245,"name":"Maxwell","admin3":"3542015"},{"geonameid":6069905,"name":"McIntyre","admin3":"3542015"},{"geonameid":6077793,"name":"Mooresburg","admin3":"3542037"},{"geonameid":6084121,"name":"Mulock","admin3":"3542004"},{"geonameid":6087010,"name":"Nenagh","admin3":"3542004"},{"geonameid":6094234,"name":"Orchardville","admin3":"3542005"},{"geonameid":6100041,"name":"Peabody","admin3":"3542037"},{"geonameid":6109110,"name":"Pomona","admin3":"3542004"},{"geonameid":6111927,"name":"Port Law","admin3":"3542015"},{"geonameid":6113249,"name":"Priceville","admin3":"3542004"},{"geonameid":6125872,"name":"Rob Roy","admin3":"3542015"},{"geonameid":6125454,"name":"Robbtown","admin3":"3542005"},{"geonameid":6126454,"name":"Rock Mills","admin3":"3542015"},{"geonameid":6126301,"name":"Rockford","admin3":"3542053"},{"geonameid":6126932,"name":"Rocky Saugeen","admin3":"3542004"},{"geonameid":6141150,"name":"Sarawak","admin3":"3542053"},{"geonameid":6147132,"name":"Shouldice","admin3":"3542053"},{"geonameid":6154260,"name":"Springmount","admin3":"3542053"},{"geonameid":6154802,"name":"Squire","admin3":"3542053"},{"geonameid":6157985,"name":"Strathavon","admin3":"3542037"},{"geonameid":6160679,"name":"Swinton Park","admin3":"3542005"},{"geonameid":6161738,"name":"Tartan","admin3":"3542005"},{"geonameid":6162684,"name":"Temple Hill","admin3":"3542015"},{"geonameid":6165259,"name":"Thistle","admin3":"3542005"},{"geonameid":6167747,"name":"Topcliff","admin3":"3542004"},{"geonameid":6168579,"name":"Traverston","admin3":"3542004"},{"geonameid":6173353,"name":"Vandeleur","admin3":"3542015"},{"geonameid":6173525,"name":"Varney","admin3":"3542004"},{"geonameid":6173724,"name":"Ventry","admin3":"3542005"},{"geonameid":6174000,"name":"Vickers","admin3":"3542004"},{"geonameid":6176193,"name":"Wareham","admin3":"3542015"},{"geonameid":6177122,"name":"Waudby","admin3":"3542004"},{"geonameid":6177781,"name":"Welbeck","admin3":"3542004"},{"geonameid":6181695,"name":"Wilcox Lake","admin3":"3542015"},{"geonameid":6183591,"name":"Wodehouse","admin3":"3542015"},{"geonameid":6183883,"name":"Wolseley","admin3":"3542053"},{"geonameid":6185476,"name":"Yeovil","admin3":"3542005"},{"geonameid":6186122,"name":"Zion","admin3":"3542053"},{"geonameid":6186124,"name":"Zion","admin3":"3542004"}],"admin3":[{"geonameid":5920471,"name":"Chatsworth","admin3":"3542037"},{"geonameid":5960556,"name":"Georgian Bluffs","admin3":"3542053"},{"geonameid":5966943,"name":"Grey Highlands","admin3":"3542015"},{"geonameid":6152164,"name":"Southgate","admin3":"3542005"},{"geonameid":6178945,"name":"West Grey","admin3":"3542004"}],"alternateNames":[]},"__N_SSG":true}