{"pageProps":{"locale":"en","admin2":{"geonameid":6073256,"name":"Middlesex County","country":"CA","admin1":"08","admin2":"3539","admin3":"","latitude":"43.0000900","longitude":"-81.4164600"},"admin1":{"geonameid":6093943,"name":"Ontario","admin1":"08"},"locations":[{"geonameid":5882330,"name":"Adelaide","admin3":"3539047"},{"geonameid":5882765,"name":"Ailsa Craig","admin3":"3539041"},{"geonameid":5886409,"name":"Appin","admin3":"3539005"},{"geonameid":5887443,"name":"Arva","admin3":"3539033"},{"geonameid":5888551,"name":"Avon","admin3":"3539027"},{"geonameid":5892329,"name":"Ballymote","admin3":"3539033"},{"geonameid":5897461,"name":"Beechwood","admin3":"3539041"},{"geonameid":5898155,"name":"Belton","admin3":"3539027"},{"geonameid":5901884,"name":"Birr","admin3":"3539033"},{"geonameid":5905964,"name":"Bornish","admin3":"3539041"},{"geonameid":5906837,"name":"Bowood","admin3":"3539033"},{"geonameid":5908956,"name":"Brinsley","admin3":"3539041"},{"geonameid":5910361,"name":"Bryanston","admin3":"3539033"},{"geonameid":5913259,"name":"Cairngorm","admin3":"3539047"},{"geonameid":5916694,"name":"Caradoc","admin3":"3539015"},{"geonameid":5919115,"name":"Centralia","admin3":"3539060"},{"geonameid":5920932,"name":"Cherry Grove","admin3":"3539027"},{"geonameid":5921884,"name":"Christina","admin3":"3539015"},{"geonameid":5923012,"name":"Clandeboye","admin3":"3539060"},{"geonameid":5924533,"name":"Cobble Hill","admin3":"3539027"},{"geonameid":5925057,"name":"Coldstream","admin3":"3539033"},{"geonameid":5927733,"name":"Corbett","admin3":"3539041"},{"geonameid":5931600,"name":"Crampton","admin3":"3539027"},{"geonameid":5931951,"name":"Crathie","admin3":"3539047"},{"geonameid":5937435,"name":"Dejong","admin3":"3539047"},{"geonameid":5937497,"name":"Delaware","admin3":"3539033"},{"geonameid":5937499,"name":"Delaware West","admin3":"3539015"},{"geonameid":5937775,"name":"Denfield","admin3":"3539033"},{"geonameid":5938118,"name":"Derwent","admin3":"3539027"},{"geonameid":5938781,"name":"Devizes","admin3":"3539033"},{"geonameid":5941761,"name":"Dorchester","admin3":"3539027"},{"geonameid":5943966,"name":"Duncrief","admin3":"3539033"},{"geonameid":5947282,"name":"Ekfrid","admin3":"3539005"},{"geonameid":5947595,"name":"Elginfield","admin3":"3539060"},{"geonameid":5950313,"name":"Ettrick","admin3":"3539033"},{"geonameid":5950525,"name":"Evelyn","admin3":"3539027"},{"geonameid":5951191,"name":"Falconbridge","admin3":"3539015"},{"geonameid":5952367,"name":"Fernhill","admin3":"3539033"},{"geonameid":5958332,"name":"Friendly Corners","admin3":"3539027"},{"geonameid":5961653,"name":"Gladstone","admin3":"3539027"},{"geonameid":5962044,"name":"Glen Oak","admin3":"3539015"},{"geonameid":5961876,"name":"Glencoe","admin3":"3539005"},{"geonameid":5964960,"name":"Granton","admin3":"3539060"},{"geonameid":5966666,"name":"Greenway","admin3":"3539041"},{"geonameid":5971238,"name":"Harrietsville","admin3":"3539027"},{"geonameid":5974594,"name":"Hickory Corner","admin3":"3539047"},{"geonameid":5979458,"name":"Ilderton","admin3":"3539033"},{"geonameid":5984802,"name":"Ivan","admin3":"3539033"},{"geonameid":5991335,"name":"Kerwood","admin3":"3539047"},{"geonameid":5991577,"name":"Keyser","admin3":"3539047"},{"geonameid":5991990,"name":"Kilmartin","admin3":"3539005"},{"geonameid":5993934,"name":"Komoka","admin3":"3539033"},{"geonameid":6053362,"name":"Lewis Corners","admin3":"3539005"},{"geonameid":6053723,"name":"Lieury","admin3":"3539041"},{"geonameid":6057816,"name":"Littlewood","admin3":"3539033"},{"geonameid":6058068,"name":"Lobo","admin3":"3539033"},{"geonameid":6058320,"name":"Lockwood Park","admin3":"3539033"},{"geonameid":6059910,"name":"Longwood","admin3":"3539015"},{"geonameid":6061745,"name":"Lucan","admin3":"3539060"},{"geonameid":6063443,"name":"Macksville","admin3":"3539005"},{"geonameid":6065603,"name":"Maple Grove","admin3":"3539033"},{"geonameid":6068319,"name":"Mayfair","admin3":"3539005"},{"geonameid":6071949,"name":"Melrose","admin3":"3539033"},{"geonameid":6073124,"name":"Middlemiss","admin3":"3539005"},{"geonameid":6077842,"name":"Mooresville","admin3":"3539060"},{"geonameid":6078437,"name":"Moray","admin3":"3539041"},{"geonameid":6079324,"name":"Mossley","admin3":"3539027"},{"geonameid":6080088,"name":"Mount Brydges","admin3":"3539015"},{"geonameid":6084071,"name":"Mullifarry","admin3":"3539047"},{"geonameid":6084162,"name":"Muncey","admin3":"3539015"},{"geonameid":6085594,"name":"Nairn","admin3":"3539041"},{"geonameid":6085947,"name":"Napier","admin3":"3539047"},{"geonameid":6085980,"name":"Napperton","admin3":"3539047"},{"geonameid":6088303,"name":"Nilestown","admin3":"3539027"},{"geonameid":6089886,"name":"North Ekfrid","admin3":"3539005"},{"geonameid":6098542,"name":"Parkhill","admin3":"3539041"},{"geonameid":6106422,"name":"Plover Mills","admin3":"3539027"},{"geonameid":6110957,"name":"Poplar Hill","admin3":"3539033"},{"geonameid":6114449,"name":"Putnam","admin3":"3539027"},{"geonameid":6122718,"name":"Riverside","admin3":"3539005"},{"geonameid":6137001,"name":"Sable","admin3":"3539041"},{"geonameid":6139659,"name":"Salmonville","admin3":"3539027"},{"geonameid":6145292,"name":"Sharon","admin3":"3539033"},{"geonameid":6152163,"name":"Southgate","admin3":"3539033"},{"geonameid":6154083,"name":"Springbank","admin3":"3539041"},{"geonameid":6154183,"name":"Springfield","admin3":"3539047"},{"geonameid":6156858,"name":"St. Ives","admin3":"3539027"},{"geonameid":6157986,"name":"Strathburn","admin3":"3539005"},{"geonameid":6158027,"name":"Strathroy","admin3":"3539015"},{"geonameid":6160796,"name":"Sylvan","admin3":"3539041"},{"geonameid":6161880,"name":"Tate Corners","admin3":"3539005"},{"geonameid":6162604,"name":"Telfer","admin3":"3539033"},{"geonameid":6165651,"name":"Thorndale","admin3":"3539027"},{"geonameid":6165800,"name":"Three Bridges","admin3":"3539027"},{"geonameid":6173435,"name":"Vanneck","admin3":"3539033"},{"geonameid":6175330,"name":"Walkers","admin3":"3539047"},{"geonameid":6177881,"name":"Wellburn","admin3":"3539027"},{"geonameid":6179171,"name":"West McGillivray","admin3":"3539041"},{"geonameid":6179750,"name":"Whalen Corners","admin3":"3539060"},{"geonameid":6184111,"name":"Woodgreen","admin3":"3539005"},{"geonameid":6184782,"name":"Wrightmans Corners","admin3":"3539047"}],"admin3":[{"geonameid":5882340,"name":"Adelaide Metcalfe","admin3":"3539047"},{"geonameid":6061746,"name":"Lucan Biddulph","admin3":"3539060"},{"geonameid":6073257,"name":"Middlesex Centre","admin3":"3539033"},{"geonameid":6090305,"name":"North Middlesex","admin3":"3539041"},{"geonameid":6152925,"name":"Southwest Middlesex","admin3":"3539005"},{"geonameid":6158028,"name":"Strathroy-Caradoc","admin3":"3539015"},{"geonameid":6163222,"name":"Thames Centre","admin3":"3539027"}],"alternateNames":[]},"__N_SSG":true}