{"pageProps":{"locale":"en","admin2":{"geonameid":6098746,"name":"Parry Sound District","country":"CA","admin1":"08","admin2":"3549","admin3":"","latitude":"45.7501100","longitude":"-79.8329700"},"admin1":{"geonameid":6093943,"name":"Ontario","admin1":"08"},"locations":[{"geonameid":5882298,"name":"Adanac","admin3":"3549036"},{"geonameid":5882700,"name":"Ahmic Lake","admin3":"3549043"},{"geonameid":5884207,"name":"Alsace","admin3":"3549071"},{"geonameid":5886759,"name":"Ardbeg","admin3":"3549039"},{"geonameid":5888635,"name":"Axe Lake","admin3":"3549012"},{"geonameid":5889217,"name":"Badger's Corners","admin3":"3549031"},{"geonameid":5892477,"name":"Banbury","admin3":"3549012"},{"geonameid":5898878,"name":"Berriedale","admin3":"3549019"},{"geonameid":5903370,"name":"Blackstone Lake","admin3":"3549005"},{"geonameid":5905260,"name":"Bolger","admin3":"3549039"},{"geonameid":5906559,"name":"Bourdeau","admin3":"3549024"},{"geonameid":5908149,"name":"Bray Lake","admin3":"3549054"},{"geonameid":5909093,"name":"Broadbent","admin3":"3549028"},{"geonameid":5909559,"name":"Brooks Landing","admin3":"3549036"},{"geonameid":5912248,"name":"Burton","admin3":"3549039"},{"geonameid":5917177,"name":"Carling","admin3":"3549036"},{"geonameid":5918725,"name":"Cecebe","admin3":"3549043"},{"geonameid":5918804,"name":"Cedar Croft","admin3":"3549043"},{"geonameid":5919996,"name":"Chapman's Landing","admin3":"3549071"},{"geonameid":5921090,"name":"Chetwynd","admin3":"3549019"},{"geonameid":5921310,"name":"Chikopi","admin3":"3549043"},{"geonameid":5921811,"name":"Christian Valley","admin3":"3549071"},{"geonameid":5923594,"name":"Clear Lake","admin3":"3549014"},{"geonameid":5926350,"name":"Commanda","admin3":"3549071"},{"geonameid":5927574,"name":"Copperhead","admin3":"3549005"},{"geonameid":5938000,"name":"Depot Harbour","admin3":"3549036"},{"geonameid":5939381,"name":"Dillon","admin3":"3549036"},{"geonameid":5940633,"name":"Doe Lake","admin3":"3549024"},{"geonameid":5943545,"name":"Dufferin Bridge","admin3":"3549043"},{"geonameid":5944779,"name":"Eagle Lake","admin3":"3549046"},{"geonameid":5948729,"name":"Emsdale","admin3":"3549014"},{"geonameid":5950970,"name":"Fairholme","admin3":"3549039"},{"geonameid":5951219,"name":"Falding","admin3":"3549003"},{"geonameid":5952366,"name":"Fern Glen","admin3":"3549014"},{"geonameid":5963418,"name":"Gordon Bay","admin3":"3549003"},{"geonameid":5969029,"name":"Haines Lake","admin3":"3549003"},{"geonameid":5969086,"name":"Haldane Hill","admin3":"3549012"},{"geonameid":5969772,"name":"Hamer Bay","admin3":"3549003"},{"geonameid":5971553,"name":"Hartfell","admin3":"3549046"},{"geonameid":5972589,"name":"Hayes Corners","admin3":"3549003"},{"geonameid":5977393,"name":"Horseshoe Lake","admin3":"3549003"},{"geonameid":5977646,"name":"Hotham","admin3":"3549071"},{"geonameid":5978466,"name":"Humphrey","admin3":"3549003"},{"geonameid":5978796,"name":"Hurdville","admin3":"3549028"},{"geonameid":5983268,"name":"Inholmes","admin3":"3549028"},{"geonameid":5989721,"name":"Katrine","admin3":"3549019"},{"geonameid":5991936,"name":"Killbear Park","admin3":"3549036"},{"geonameid":6048271,"name":"Lake Bernard","admin3":"3549046"},{"geonameid":6060339,"name":"Lorimer Lake","admin3":"3549039"},{"geonameid":6064025,"name":"Maecks Subdivision","admin3":"3549054"},{"geonameid":8593832,"name":"Magnetawan","admin3":"3549043"},{"geonameid":6065620,"name":"Maple Island","admin3":"3549039"},{"geonameid":6070873,"name":"McMurrich","admin3":"3549012"},{"geonameid":6073373,"name":"Midlothian","admin3":"3549024"},{"geonameid":8556034,"name":"Nipissing","admin3":"3549071"},{"geonameid":6088505,"name":"Nipissing Beach","admin3":"3549071"},{"geonameid":6088681,"name":"Niweme","admin3":"3549005"},{"geonameid":6088734,"name":"Nobel","admin3":"3549031"},{"geonameid":6090601,"name":"North Seguin","admin3":"3549043"},{"geonameid":6091529,"name":"Novar","admin3":"3549014"},{"geonameid":6092867,"name":"Ojibway Island","admin3":"3549005"},{"geonameid":6094204,"name":"Oranmore","admin3":"3549043"},{"geonameid":6094447,"name":"Orrville","admin3":"3549003"},{"geonameid":6095015,"name":"Otter Lake","admin3":"3549003"},{"geonameid":6098747,"name":"Parry Sound","admin3":""},{"geonameid":6100171,"name":"Pearceley","admin3":"3549043"},{"geonameid":6103633,"name":"Pevensey","admin3":"3549046"},{"geonameid":6104078,"name":"Pickerel Lake","admin3":"3549019"},{"geonameid":6107000,"name":"Pointe au Baril","admin3":"3549005"},{"geonameid":6107003,"name":"Pointe au Baril Station","admin3":"3549005"},{"geonameid":6111651,"name":"Port Anson","admin3":"3549024"},{"geonameid":6111695,"name":"Port Carmen","admin3":"3549043"},{"geonameid":6111703,"name":"Port Cockburn","admin3":"3549003"},{"geonameid":6126547,"name":"Rockwynn","admin3":"3549024"},{"geonameid":6127724,"name":"Rose Point","admin3":"3549003"},{"geonameid":6127859,"name":"Rosseau","admin3":"3549003"},{"geonameid":6127867,"name":"Rosseau Road","admin3":"3549003"},{"geonameid":6141034,"name":"Sans Souci","admin3":"3549005"},{"geonameid":6142469,"name":"Scotia","admin3":"3549014"},{"geonameid":6143806,"name":"Seguin Falls","admin3":"3549003"},{"geonameid":6144515,"name":"Seven Mile Narrows","admin3":"3549005"},{"geonameid":6145451,"name":"Shawanaga Landing","admin3":"3549005"},{"geonameid":6145651,"name":"Shebeshekong","admin3":"3549036"},{"geonameid":6148835,"name":"Skerryvore","admin3":"3549005"},{"geonameid":6150903,"name":"Snug Harbour","admin3":"3549036"},{"geonameid":6150910,"name":"Snug Haven","admin3":"3549036"},{"geonameid":6152352,"name":"South Magnetawan","admin3":"3549039"},{"geonameid":6152561,"name":"South River","admin3":"3549054"},{"geonameid":6153448,"name":"Spence","admin3":"3549043"},{"geonameid":6154378,"name":"Sprucedale","admin3":"3549012"},{"geonameid":6155219,"name":"Stanley House","admin3":"3549003"},{"geonameid":6155498,"name":"Starrat","admin3":"3549024"},{"geonameid":6156831,"name":"Stirling Falls","admin3":"3549046"},{"geonameid":6157631,"name":"Storie","admin3":"3549071"},{"geonameid":6158253,"name":"Strong","admin3":"3549046"},{"geonameid":6159619,"name":"Sunny Slope","admin3":"3549039"},{"geonameid":6160666,"name":"Swindon","admin3":"3549014"},{"geonameid":6170612,"name":"Turtle Lake","admin3":"3549003"},{"geonameid":6174923,"name":"Wade's Landing","admin3":"3549071"},{"geonameid":6175043,"name":"Wahwashkesh","admin3":"3549039"},{"geonameid":6175569,"name":"Walls","admin3":"3549014"},{"geonameid":6177105,"name":"Waubamik","admin3":"3549031"},{"geonameid":6180461,"name":"Whitehall","admin3":"3549012"},{"geonameid":6181131,"name":"Whitestone","admin3":"3549039"},{"geonameid":6183420,"name":"Wisemans Corners","admin3":"3549024"},{"geonameid":6184296,"name":"Woods","admin3":"3549036"},{"geonameid":6184299,"name":"Woods Bay","admin3":"3549005"}],"admin3":[{"geonameid":5887018,"name":"Armour","admin3":"3549019"},{"geonameid":5917179,"name":"Carling","admin3":"3549036"},{"geonameid":5987684,"name":"Joly","admin3":"3549051"},{"geonameid":6062988,"name":"Machar","admin3":"3549054"},{"geonameid":6064132,"name":"Magnetawan","admin3":"3549043"},{"geonameid":6069357,"name":"McDougall","admin3":"3549031"},{"geonameid":6070145,"name":"McKellar","admin3":"3549028"},{"geonameid":6070875,"name":"McMurrich/Monteith","admin3":"3549012"},{"geonameid":6088504,"name":"Nipissing","admin3":"3549071"},{"geonameid":6101451,"name":"Perry","admin3":"3549014"},{"geonameid":6136905,"name":"Ryerson","admin3":"3549024"},{"geonameid":6143804,"name":"Seguin","admin3":"3549003"},{"geonameid":6158254,"name":"Strong","admin3":"3549046"},{"geonameid":6163273,"name":"The Archipelago","admin3":"3549005"},{"geonameid":6181132,"name":"Whitestone","admin3":"3549039"}],"alternateNames":[]},"__N_SSG":true}