{"pageProps":{"locale":"en","admin2":{"geonameid":6116135,"name":"Rainy River District","country":"CA","admin1":"08","admin2":"3559","admin3":"","latitude":"48.4998100","longitude":"-92.5003100"},"admin1":{"geonameid":6093943,"name":"Ontario","admin1":"08"},"locations":[{"geonameid":5888001,"name":"Atikokan","admin3":"3559001"},{"geonameid":5888728,"name":"Aylsworth","admin3":"3559019"},{"geonameid":5893266,"name":"Barnhart","admin3":"3559019"},{"geonameid":5894506,"name":"Barwick","admin3":"3559024"},{"geonameid":5898749,"name":"Bergland","admin3":"3559047"},{"geonameid":5899962,"name":"Big Fork","admin3":"3559016"},{"geonameid":5902671,"name":"Black Hawk","admin3":"3559024"},{"geonameid":5906874,"name":"Box Alder","admin3":"3559016"},{"geonameid":5912182,"name":"Burriss","admin3":"3559016"},{"geonameid":5912183,"name":"Burriss","admin3":"3559016"},{"geonameid":5931383,"name":"Cozy Corners","admin3":"3559047"},{"geonameid":5933512,"name":"Crozier","admin3":"3559011"},{"geonameid":5936279,"name":"Dearlock","admin3":"3559031"},{"geonameid":5938088,"name":"Dermid","admin3":"3559019"},{"geonameid":5948682,"name":"Emo","admin3":"3559019"},{"geonameid":5952836,"name":"Finland","admin3":"3559024"},{"geonameid":5955826,"name":"Fort Frances","admin3":""},{"geonameid":6048806,"name":"Lake Wasaw","admin3":"3559016"},{"geonameid":6058660,"name":"Lone Pine","admin3":"3559001"},{"geonameid":6069651,"name":"McGinnis Creek","admin3":"3559040"},{"geonameid":6074435,"name":"Minahico","admin3":"3559047"},{"geonameid":6078970,"name":"Morson","admin3":"3559047"},{"geonameid":6085913,"name":"Naongashing","admin3":"3559047"},{"geonameid":6089487,"name":"North Branch","admin3":"3559031"},{"geonameid":6090896,"name":"Northwest Bay","admin3":""},{"geonameid":6105284,"name":"Pinewood","admin3":"3559040"},{"geonameid":6146046,"name":"Shenston","admin3":"3559024"},{"geonameid":6156031,"name":"Steep Rock Lake","admin3":"3559001"}],"admin3":[{"geonameid":5883168,"name":"Alberton","admin3":"3559011"},{"geonameid":5888000,"name":"Atikokan","admin3":"3559001"},{"geonameid":5920015,"name":"Chapple","admin3":"3559024"},{"geonameid":5935789,"name":"Dawson","admin3":"3559040"},{"geonameid":5948684,"name":"Emo","admin3":"3559019"},{"geonameid":6048589,"name":"Lake of the Woods","admin3":"3559047"},{"geonameid":6050621,"name":"La Vallee","admin3":"3559016"},{"geonameid":6078651,"name":"Morley","admin3":"3559031"}],"alternateNames":[]},"__N_SSG":true}