{"pageProps":{"locale":"de","admin2":{"geonameid":8260137,"name":"Seeland District","country":"CH","admin1":"BE","admin2":"243","admin3":"","latitude":"47.0663500","longitude":"7.2633300"},"admin1":{"geonameid":2661551,"name":"Canton de Berne","admin1":"BE"},"locations":[{"geonameid":2661880,"name":"Aarberg","admin3":"301"},{"geonameid":2661729,"name":"Arch","admin3":"381"},{"geonameid":2661621,"name":"Bangerten","admin3":"310"},{"geonameid":2661363,"name":"Brüttelen","admin3":"491"},{"geonameid":2661324,"name":"Büren an der Aare","admin3":"383"},{"geonameid":2660874,"name":"Erlach","admin3":"492"},{"geonameid":2660673,"name":"Gals","admin3":"494"},{"geonameid":2660671,"name":"Gampelen","admin3":"495"},{"geonameid":2660491,"name":"Grossaffoltern","admin3":"303"},{"geonameid":2660423,"name":"Hagneck","admin3":"736"},{"geonameid":2660254,"name":"Ins","admin3":"496"},{"geonameid":2660195,"name":"Kallnach","admin3":"304"},{"geonameid":2660187,"name":"Kappelen","admin3":"302"},{"geonameid":2659904,"name":"Leuzigen","admin3":"388"},{"geonameid":2659808,"name":"Lyss","admin3":"306"},{"geonameid":2659542,"name":"Müntschemier","admin3":"498"},{"geonameid":2659115,"name":"Radelfingen","admin3":"309"},{"geonameid":2658691,"name":"Schüpfen","admin3":"311"},{"geonameid":2658653,"name":"Seedorf","admin3":"312"},{"geonameid":2658574,"name":"Siselen","admin3":"499"},{"geonameid":2658417,"name":"Täuffelen","admin3":"751"},{"geonameid":2658019,"name":"Wengi","admin3":"394"},{"geonameid":2657953,"name":"Worben","admin3":"755"}],"admin3":[{"geonameid":7285014,"name":"Aarberg","admin3":"301"},{"geonameid":7285090,"name":"Arch","admin3":"381"},{"geonameid":7285156,"name":"Bargen (BE)","admin3":"302"},{"geonameid":7285358,"name":"Brüttelen","admin3":"491"},{"geonameid":7285377,"name":"Büetigen","admin3":"382"},{"geonameid":7285378,"name":"Bühl","admin3":"734"},{"geonameid":7285387,"name":"Büren an der Aare","admin3":"383"},{"geonameid":7285649,"name":"Diessbach bei Büren","admin3":"385"},{"geonameid":7285673,"name":"Dotzigen","admin3":"386"},{"geonameid":7285743,"name":"Epsach","admin3":"735"},{"geonameid":7285748,"name":"Erlach","admin3":"492"},{"geonameid":7285827,"name":"Finsterhennen","admin3":"493"},{"geonameid":7285888,"name":"Gals","admin3":"494"},{"geonameid":7285890,"name":"Gampelen","admin3":"495"},{"geonameid":7285988,"name":"Grossaffoltern","admin3":"303"},{"geonameid":7286025,"name":"Hagneck","admin3":"736"},{"geonameid":7286073,"name":"Hermrigen","admin3":"737"},{"geonameid":7286142,"name":"Ins","admin3":"496"},{"geonameid":7286162,"name":"Jens","admin3":"738"},{"geonameid":7286174,"name":"Kallnach","admin3":"304"},{"geonameid":7286181,"name":"Kappelen","admin3":"305"},{"geonameid":7286341,"name":"Leuzigen","admin3":"388"},{"geonameid":7286394,"name":"Lüscherz","admin3":"497"},{"geonameid":7286410,"name":"Lyss","admin3":"306"},{"geonameid":7286469,"name":"Meienried","admin3":"389"},{"geonameid":7286493,"name":"Merzligen","admin3":"741"},{"geonameid":7286594,"name":"Müntschemier","admin3":"498"},{"geonameid":7286720,"name":"Oberwil bei Büren","admin3":"391"},{"geonameid":7286847,"name":"Radelfingen","admin3":"309"},{"geonameid":7286858,"name":"Rapperswil (BE)","admin3":"310"},{"geonameid":7286998,"name":"Rüti bei Büren","admin3":"393"},{"geonameid":7287116,"name":"Schüpfen","admin3":"311"},{"geonameid":7287132,"name":"Seedorf (BE)","admin3":"312"},{"geonameid":7287178,"name":"Siselen","admin3":"499"},{"geonameid":7287251,"name":"Studen (BE)","admin3":"749"},{"geonameid":7287283,"name":"Täuffelen","admin3":"751"},{"geonameid":7287324,"name":"Treiten","admin3":"500"},{"geonameid":7287348,"name":"Tschugg","admin3":"501"},{"geonameid":7287483,"name":"Vinelz","admin3":"502"},{"geonameid":7287532,"name":"Walperswil","admin3":"754"},{"geonameid":7287559,"name":"Wengi","admin3":"394"},{"geonameid":7287611,"name":"Worben","admin3":"755"}],"alternateNames":[]},"__N_SSG":true}