{"pageProps":{"locale":"en","admin2":{"geonameid":5301323,"name":"La Paz County","country":"US","admin1":"AZ","admin2":"012","admin3":"","latitude":"33.7292600","longitude":"-113.9813400","localeAltName":null},"admin1":{"geonameid":5551752,"name":"Arizona","admin1":"AZ","localeAltName":"Arizona"},"locations":[{"geonameid":5286242,"name":"Bluewater","admin3":"","localeAltName":null},{"geonameid":5286650,"name":"Bouse","admin3":"","localeAltName":null},{"geonameid":5286841,"name":"Brenda","admin3":"","localeAltName":null},{"geonameid":5289863,"name":"Cienega Springs","admin3":"","localeAltName":null},{"geonameid":5293951,"name":"Ehrenberg","admin3":"","localeAltName":null},{"geonameid":5301325,"name":"La Paz Valley","admin3":"","localeAltName":null},{"geonameid":5308116,"name":"Parker","admin3":"","localeAltName":null},{"geonameid":7176026,"name":"Parker Strip","admin3":"","localeAltName":null},{"geonameid":5310183,"name":"Quartzsite","admin3":"","localeAltName":null},{"geonameid":5312677,"name":"Salome","admin3":"","localeAltName":null},{"geonameid":5319489,"name":"Vicksburg","admin3":"","localeAltName":null},{"geonameid":5320172,"name":"Wenden","admin3":"","localeAltName":null}],"admin3":[],"alternateNames":[{"alternatenameId":1979309,"geonameid":5551752,"isoLanguage":"en","alternateName":"Arizona","isPreferredName":true,"isShortName":true,"isColloquial":false,"isHistoric":false}]},"__N_SSG":true}