{"pageProps":{"locale":"en","admin2":{"geonameid":5308916,"name":"Pinal County","country":"US","admin1":"AZ","admin2":"021","admin3":"","latitude":"32.9043100","longitude":"-111.3447100","localeAltName":null},"admin1":{"geonameid":5551752,"name":"Arizona","admin1":"AZ","localeAltName":"Arizona"},"locations":[{"geonameid":5551044,"name":"Ak-Chin Village","admin3":"","localeAltName":null},{"geonameid":5551535,"name":"Apache Junction","admin3":"","localeAltName":null},{"geonameid":5551665,"name":"Arizona City","admin3":"","localeAltName":null},{"geonameid":5285857,"name":"Blackwater","admin3":"","localeAltName":null},{"geonameid":5288066,"name":"Cactus Forest","admin3":"","localeAltName":null},{"geonameid":5288629,"name":"Casa Blanca","admin3":"","localeAltName":null},{"geonameid":5288636,"name":"Casa Grande","admin3":"","localeAltName":null},{"geonameid":5290663,"name":"Coolidge","admin3":"","localeAltName":null},{"geonameid":5293390,"name":"Dudleyville","admin3":"","localeAltName":null},{"geonameid":5294167,"name":"Eloy","admin3":"","localeAltName":null},{"geonameid":5294902,"name":"Florence","admin3":"","localeAltName":null},{"geonameid":5296106,"name":"Gold Camp","admin3":"","localeAltName":null},{"geonameid":7261353,"name":"Gold Canyon","admin3":"","localeAltName":null},{"geonameid":5300854,"name":"Kearny","admin3":"","localeAltName":null},{"geonameid":5303587,"name":"Mammoth","admin3":"","localeAltName":null},{"geonameid":5303752,"name":"Maricopa","admin3":"","localeAltName":null},{"geonameid":5307460,"name":"Oracle","admin3":"","localeAltName":null},{"geonameid":5310199,"name":"Queen Valley","admin3":"","localeAltName":null},{"geonameid":5312393,"name":"Sacaton","admin3":"","localeAltName":null},{"geonameid":7249307,"name":"Saddle Brooke","admin3":"","localeAltName":null},{"geonameid":5312933,"name":"San Manuel","admin3":"","localeAltName":null},{"geonameid":7310164,"name":"San Tan Valley","admin3":"","localeAltName":null},{"geonameid":5313200,"name":"Santan","admin3":"","localeAltName":null},{"geonameid":5315688,"name":"Stanfield","admin3":"","localeAltName":null},{"geonameid":5316405,"name":"Superior","admin3":"","localeAltName":null}],"admin3":[],"alternateNames":[{"alternatenameId":1979309,"geonameid":5551752,"isoLanguage":"en","alternateName":"Arizona","isPreferredName":true,"isShortName":true,"isColloquial":false,"isHistoric":false}]},"__N_SSG":true}