{"pageProps":{"locale":"en","admin2":{"geonameid":2642559,"name":"Midlothian","country":"GB","admin1":"SCT","admin2":"V5","admin3":"","latitude":"55.8234700","longitude":"-3.0933400"},"admin1":{"geonameid":2638360,"name":"Scotland","admin1":"SCT"},"locations":[{"geonameid":2656826,"name":"Auchendinny"},{"geonameid":6930999,"name":"Bilston"},{"geonameid":2655449,"name":"Blackshiels"},{"geonameid":2655210,"name":"Bonnyrigg"},{"geonameid":2655159,"name":"Borthwick"},{"geonameid":2653672,"name":"Carrington"},{"geonameid":9884603,"name":"Crichton"},{"geonameid":2651587,"name":"Dalkeith"},{"geonameid":7644900,"name":"Danderhall"},{"geonameid":9613001,"name":"Eskbank"},{"geonameid":2649728,"name":"Fala"},{"geonameid":2649727,"name":"Fala Dam"},{"geonameid":2648974,"name":"Fushiebridge"},{"geonameid":2648308,"name":"Gorebridge"},{"geonameid":2647272,"name":"Hawthornden"},{"geonameid":2646491,"name":"Howgate"},{"geonameid":2644832,"name":"Lasswade"},{"geonameid":2644753,"name":"Leadburn"},{"geonameid":2643862,"name":"Loanhead"},{"geonameid":6930997,"name":"Loanstone"},{"geonameid":11592286,"name":"Mayfield"},{"geonameid":9884595,"name":"Middleton Village"},{"geonameid":2642520,"name":"Millerhill"},{"geonameid":8063587,"name":"Milton Bridge"},{"geonameid":2641726,"name":"Newbattle"},{"geonameid":2641551,"name":"Newtongrange"},{"geonameid":2641492,"name":"Nine Mile Burn"},{"geonameid":6640070,"name":"North Middleton"},{"geonameid":2640465,"name":"Penicuik"},{"geonameid":2640146,"name":"Polton"},{"geonameid":2640143,"name":"Pomathorn"},{"geonameid":8299860,"name":"Rosewell"},{"geonameid":6930998,"name":"Roslin"},{"geonameid":2636124,"name":"Temple"},{"geonameid":9884597,"name":"Tynehead"},{"geonameid":2634293,"name":"West Pilton"}],"admin3":[{"geonameid":12195663,"name":"Cockpen","admin3":"12195663"}],"alternateNames":[]},"__N_SSG":true}