{"pageProps":{"locale":"en","admin2":{"geonameid":2638010,"name":"Shetland Islands","country":"GB","admin1":"SCT","admin2":"W3","admin3":"","latitude":"60.3333300","longitude":"-1.3333300"},"admin1":{"geonameid":2638360,"name":"Scotland","admin1":"SCT"},"locations":[{"geonameid":10277904,"name":"Aith"},{"geonameid":2657586,"name":"Aith"},{"geonameid":10277952,"name":"Baliasta"},{"geonameid":2656431,"name":"Baltasound"},{"geonameid":2655947,"name":"Belmont"},{"geonameid":11240127,"name":"Bigton"},{"geonameid":2655287,"name":"Boddam"},{"geonameid":2654970,"name":"Brae"},{"geonameid":10277906,"name":"Brough Lodge"},{"geonameid":11240128,"name":"Burrafirth"},{"geonameid":2654243,"name":"Burravoe"},{"geonameid":2654244,"name":"Burravoe"},{"geonameid":2654245,"name":"Burravoe"},{"geonameid":6619444,"name":"Busta"},{"geonameid":2653517,"name":"Catfirth"},{"geonameid":2651557,"name":"Dalsetter"},{"geonameid":2650453,"name":"Easter Quarff"},{"geonameid":7670886,"name":"Fetlar"},{"geonameid":2648985,"name":"Funzie"},{"geonameid":11072618,"name":"Gulberwick"},{"geonameid":2647748,"name":"Gutcher"},{"geonameid":2647689,"name":"Hadd"},{"geonameid":2647588,"name":"Ham"},{"geonameid":8531879,"name":"Ham"},{"geonameid":2647454,"name":"Haroldswick"},{"geonameid":2646885,"name":"Hillswick"},{"geonameid":11240129,"name":"Hoswick"},{"geonameid":10277903,"name":"Houbie"},{"geonameid":2646509,"name":"Housetter"},{"geonameid":10277955,"name":"Hulland"},{"geonameid":11611017,"name":"Hultness"},{"geonameid":12195583,"name":"Laxo"},{"geonameid":2644605,"name":"Lerwick"},{"geonameid":2643119,"name":"Mangaster"},{"geonameid":2642554,"name":"Mid Yell"},{"geonameid":2642147,"name":"Mossbank"},{"geonameid":2641273,"name":"North Roe"},{"geonameid":2640979,"name":"Ollaberry"},{"geonameid":2639807,"name":"Quarff"},{"geonameid":2638571,"name":"Sandness"},{"geonameid":2638534,"name":"Sandwick"},{"geonameid":2638439,"name":"Scalloway"},{"geonameid":2636980,"name":"Stebbligrind"},{"geonameid":2636544,"name":"Sumburgh"},{"geonameid":8426371,"name":"Symbister"},{"geonameid":11240130,"name":"Tangwick"},{"geonameid":2635795,"name":"Tingwall"},{"geonameid":2635713,"name":"Toab"},{"geonameid":10277905,"name":"Tresta"},{"geonameid":2635486,"name":"Tresta"},{"geonameid":2635320,"name":"Twatt"},{"geonameid":2635188,"name":"Ulsta"},{"geonameid":8426372,"name":"Uyeasound"},{"geonameid":11240131,"name":"Valsgarth"},{"geonameid":6693639,"name":"Veensgarth"},{"geonameid":2634950,"name":"Virkie"},{"geonameid":2634946,"name":"Voe"},{"geonameid":2634947,"name":"Voe"},{"geonameid":2634865,"name":"Walls"},{"geonameid":11256862,"name":"Weisdale"},{"geonameid":2634426,"name":"Wester Quarff"}],"admin3":[],"alternateNames":[]},"__N_SSG":true}