{"pageProps":{"locale":"ro","admin1":{"geonameid":664517,"name":"Tulcea","country":"RO","admin1":"37","latitude":"45.0000000","longitude":"28.8333300","localeAltName":null},"admin2":[{"geonameid":685839,"name":"Comuna Baia","admin2":"159785","localeAltName":null},{"geonameid":685181,"name":"Comuna Beidaud","admin2":"159847","localeAltName":null},{"geonameid":684963,"name":"Comuna Beştepe","admin2":"161552","localeAltName":null},{"geonameid":682677,"name":"Comuna C.A. Rosetti","admin2":"159883","localeAltName":null},{"geonameid":682689,"name":"Comuna Carcaliu","admin2":"159945","localeAltName":null},{"geonameid":680634,"name":"Comuna Casimcea","admin2":"159963","localeAltName":null},{"geonameid":682477,"name":"Comuna Ceamurlia de Jos","admin2":"160092","localeAltName":null},{"geonameid":682468,"name":"Comuna Ceatalchioi","admin2":"160047","localeAltName":null},{"geonameid":682339,"name":"Comuna Cerna","admin2":"160127","localeAltName":null},{"geonameid":682116,"name":"Comuna Chilia Veche","admin2":"160172","localeAltName":null},{"geonameid":681472,"name":"Comuna Ciucurova","admin2":"160225","localeAltName":null},{"geonameid":680201,"name":"Comuna Crişan","admin2":"160261","localeAltName":null},{"geonameid":679829,"name":"Comuna Dăeni","admin2":"160305","localeAltName":null},{"geonameid":679069,"name":"Comuna Dorobanţu","admin2":"160323","localeAltName":null},{"geonameid":677901,"name":"Comuna Frecăţei","admin2":"160387","localeAltName":null},{"geonameid":676752,"name":"Comuna Greci","admin2":"160430","localeAltName":null},{"geonameid":676717,"name":"Comuna Grindu","admin2":"160458","localeAltName":null},{"geonameid":676342,"name":"Comuna Hamcearca","admin2":"160476","localeAltName":null},{"geonameid":676005,"name":"Comuna Horia","admin2":"160528","localeAltName":null},{"geonameid":8334803,"name":"Comuna I.C.Brãtianu","admin2":"161525","localeAltName":null},{"geonameid":8334670,"name":"Comuna Izvoarele","admin2":"160564","localeAltName":null},{"geonameid":675234,"name":"Comuna Jijila","admin2":"160617","localeAltName":null},{"geonameid":675129,"name":"Comuna Jurilovca","admin2":"160644","localeAltName":null},{"geonameid":674347,"name":"Comuna Luncaviţa","admin2":"160680","localeAltName":null},{"geonameid":674077,"name":"Comuna Mahmudia","admin2":"160724","localeAltName":null},{"geonameid":8334846,"name":"Comuna Maliuc","admin2":"160779","localeAltName":null},{"geonameid":673398,"name":"Comuna Mihai Bravu","admin2":"160831","localeAltName":null},{"geonameid":673371,"name":"Comuna Mihail Kogălniceanu","admin2":"160877","localeAltName":null},{"geonameid":672601,"name":"Comuna Murighiol","admin2":"160911","localeAltName":null},{"geonameid":672531,"name":"Comuna Nalbant","admin2":"160993","localeAltName":null},{"geonameid":672228,"name":"Comuna Niculiţel","admin2":"161035","localeAltName":null},{"geonameid":672127,"name":"Comuna Nufăru","admin2":"161053","localeAltName":null},{"geonameid":671630,"name":"Comuna Ostrov","admin2":"161106","localeAltName":null},{"geonameid":671347,"name":"Comuna Pardina","admin2":"161133","localeAltName":null},{"geonameid":671189,"name":"Comuna Peceneaga","admin2":"161151","localeAltName":null},{"geonameid":667990,"name":"Comuna Sarichioi","admin2":"161179","localeAltName":null},{"geonameid":667299,"name":"Comuna Sfântu Gheorghe","admin2":"161231","localeAltName":null},{"geonameid":666739,"name":"Comuna Slava Cercheză","admin2":"161259","localeAltName":null},{"geonameid":666620,"name":"Comuna Smârdan","admin2":"161286","localeAltName":null},{"geonameid":666450,"name":"Comuna Somova","admin2":"161302","localeAltName":null},{"geonameid":666177,"name":"Comuna Stejaru","admin2":"161348","localeAltName":null},{"geonameid":664734,"name":"Comuna Topolog","admin2":"161384","localeAltName":null},{"geonameid":664463,"name":"Comuna Turcoaia","admin2":"161464","localeAltName":null},{"geonameid":664043,"name":"Comuna Văcăreni","admin2":"161543","localeAltName":null},{"geonameid":663547,"name":"Comuna Valea Nucarilor","admin2":"161482","localeAltName":null},{"geonameid":8334920,"name":"Comuna Valea Teilor","admin2":"161561","localeAltName":null},{"geonameid":8334861,"name":"Municipiul Tulcea","admin2":"159614","localeAltName":null},{"geonameid":8334805,"name":"Oraş Babadag","admin2":"159650","localeAltName":null},{"geonameid":8334862,"name":"Oraş Isaccea","admin2":"159687","localeAltName":null},{"geonameid":8334949,"name":"Oraş Mãcin","admin2":"159730","localeAltName":null},{"geonameid":8334744,"name":"Oraş Sulina","admin2":"159767","localeAltName":null}],"admin3":[],"country":{"geonameid":798549,"country":"RO","name":"România","localeAltName":"România"},"alternateNames":[{"alternatenameId":490801,"geonameid":798549,"isoLanguage":"ro","alternateName":"România","isPreferredName":true,"isShortName":true,"isColloquial":false,"isHistoric":false}]},"__N_SSG":true}