{"pageProps":{"locale":"en","admin2":{"geonameid":4167218,"name":"Osceola County","country":"US","admin1":"FL","admin2":"097","admin3":"","latitude":"28.0626600","longitude":"-81.1494800","localeAltName":null},"admin1":{"geonameid":4155751,"name":"Florida","admin1":"FL","localeAltName":"Florida"},"locations":[{"geonameid":4149269,"name":"Buenaventura Lakes","admin3":"","localeAltName":null},{"geonameid":4149845,"name":"Campbell","admin3":"","localeAltName":null},{"geonameid":4150394,"name":"Celebration","admin3":"","localeAltName":null},{"geonameid":4160983,"name":"Kissimmee","admin3":"","localeAltName":null},{"geonameid":4168930,"name":"Poinciana","admin3":"","localeAltName":null},{"geonameid":4170965,"name":"Saint Cloud","admin3":"","localeAltName":null}],"admin3":[{"geonameid":7170285,"name":"City of Kissimmee","admin3":"7170285"},{"geonameid":7170761,"name":"City of Saint Cloud","admin3":"7170761"}],"alternateNames":[{"alternatenameId":2080779,"geonameid":4155751,"isoLanguage":"en","alternateName":"Florida","isPreferredName":true,"isShortName":true,"isColloquial":false,"isHistoric":false}]},"__N_SSG":true}