{"pageProps":{"locale":"en","admin2":{"geonameid":2745295,"name":"Gemeente Voorst","country":"NL","admin1":"03","admin2":"0285","admin3":"","latitude":"52.2296500","longitude":"6.0999200"},"admin1":{"geonameid":2755634,"name":"Provincie Gelderland","admin1":"03"},"locations":[{"geonameid":2759689,"name":"Appen","admin3":""},{"geonameid":2758065,"name":"Bussloo","admin3":""},{"geonameid":2757463,"name":"De Kar","admin3":""},{"geonameid":2756991,"name":"De Vecht","admin3":""},{"geonameid":2756977,"name":"De Vijfhoek","admin3":""},{"geonameid":6544764,"name":"De Wijk","admin3":""},{"geonameid":2756514,"name":"Duistervoorde","admin3":""},{"geonameid":2755528,"name":"Gietelo","admin3":""},{"geonameid":2752790,"name":"Klein Amsterdam","admin3":""},{"geonameid":6621557,"name":"Middelburg","admin3":""},{"geonameid":2750102,"name":"Nijbroek","admin3":""},{"geonameid":2749965,"name":"Noord-Empe","admin3":""},{"geonameid":2748482,"name":"Posterenk","admin3":""},{"geonameid":2746958,"name":"Spekhoek","admin3":""},{"geonameid":2746789,"name":"Steenenkamer","admin3":""},{"geonameid":2746395,"name":"Terwolde","admin3":""},{"geonameid":2746387,"name":"Teuge","admin3":""},{"geonameid":2746060,"name":"Twello","admin3":""},{"geonameid":2745297,"name":"Voorst","admin3":""},{"geonameid":2744373,"name":"Wilp","admin3":""},{"geonameid":2744372,"name":"Wilp-Achterhoek","admin3":""}],"admin3":[],"alternateNames":[{"alternatenameId":11907787,"geonameid":2755634,"isoLanguage":"de","alternateName":"Gelderland","isPreferredName":true,"isShortName":true,"isColloquial":false,"isHistoric":false}]},"__N_SSG":true}