{"pageProps":{"locale":"de","admin2":{"geonameid":6458844,"name":"Visp District","country":"CH","admin1":"VS","admin2":"2313","admin3":"","latitude":"46.1761200","longitude":"7.8560900"},"admin1":{"geonameid":2658205,"name":"Canton du Valais","admin1":"VS"},"locations":[{"geonameid":2661624,"name":"Baltschieder","admin3":"6281"},{"geonameid":2660921,"name":"Eisten","admin3":"6282"},{"geonameid":2660914,"name":"Embd","admin3":"6283"},{"geonameid":2660542,"name":"Grächen","admin3":"6292"},{"geonameid":2660051,"name":"Lalden","admin3":"6286"},{"geonameid":2659107,"name":"Randa","admin3":"6287"},{"geonameid":2658900,"name":"Saas-Balen","admin3":"6289"},{"geonameid":2658898,"name":"Saas-Fee","admin3":"6290"},{"geonameid":2658897,"name":"Saas-Grund","admin3":"6291"},{"geonameid":2658811,"name":"Sankt Niklaus","admin3":"6292"},{"geonameid":2658512,"name":"Stalden","admin3":"6293"},{"geonameid":2658509,"name":"Staldenried","admin3":"6294"},{"geonameid":2658418,"name":"Täsch","admin3":"6295"},{"geonameid":2658350,"name":"Törbel","admin3":"6296"},{"geonameid":2658112,"name":"Visp","admin3":"6297"},{"geonameid":2658110,"name":"Visperterminen","admin3":"6298"},{"geonameid":2657929,"name":"Zeneggen","admin3":"6299"},{"geonameid":2657928,"name":"Zermatt","admin3":"6300"}],"admin3":[{"geonameid":7285149,"name":"Baltschieder","admin3":"6281"},{"geonameid":7285717,"name":"Eisten","admin3":"6282"},{"geonameid":7285723,"name":"Embd","admin3":"6283"},{"geonameid":7285953,"name":"Grächen","admin3":"6285"},{"geonameid":7286251,"name":"Lalden","admin3":"6286"},{"geonameid":7286855,"name":"Randa","admin3":"6287"},{"geonameid":7287006,"name":"Saas-Almagell","admin3":"6288"},{"geonameid":7287007,"name":"Saas-Balen","admin3":"6289"},{"geonameid":7287008,"name":"Saas-Fee","admin3":"6290"},{"geonameid":7287009,"name":"Saas-Grund","admin3":"6291"},{"geonameid":7287213,"name":"Staldenried","admin3":"6294"},{"geonameid":7287214,"name":"Stalden (VS)","admin3":"6293"},{"geonameid":7287246,"name":"St. Niklaus","admin3":"6292"},{"geonameid":7287282,"name":"Täsch","admin3":"6295"},{"geonameid":7287318,"name":"Törbel","admin3":"6296"},{"geonameid":7287487,"name":"Visp","admin3":"6297"},{"geonameid":7287488,"name":"Visperterminen","admin3":"6298"},{"geonameid":7287630,"name":"Zeneggen","admin3":"6299"},{"geonameid":7287631,"name":"Zermatt","admin3":"6300"}],"alternateNames":[]},"__N_SSG":true}