{"pageProps":{"locale":"en","admin2":{"geonameid":4660813,"name":"Sullivan County","country":"US","admin1":"TN","admin2":"163","admin3":"","latitude":"36.5129200","longitude":"-82.3041400","localeAltName":null},"admin1":{"geonameid":4662168,"name":"Tennessee","admin1":"TN","localeAltName":"Tennessee"},"locations":[{"geonameid":4607177,"name":"Bloomingdale","admin3":"","localeAltName":null},{"geonameid":4607201,"name":"Blountville","admin3":"","localeAltName":null},{"geonameid":4607414,"name":"Bluff City","admin3":"","localeAltName":null},{"geonameid":4608657,"name":"Bristol","admin3":"","localeAltName":null},{"geonameid":4614843,"name":"Colonial Heights","admin3":"","localeAltName":null},{"geonameid":4621470,"name":"Fairmount","admin3":"","localeAltName":null},{"geonameid":4634662,"name":"Kingsport","admin3":"","localeAltName":null},{"geonameid":4665680,"name":"Walnut Hill","admin3":"","localeAltName":null}],"admin3":[],"alternateNames":[{"alternatenameId":2089557,"geonameid":4662168,"isoLanguage":"en","alternateName":"Tennessee","isPreferredName":true,"isShortName":true,"isColloquial":false,"isHistoric":false}]},"__N_SSG":true}