{"pageProps":{"locale":"en","admin2":{"geonameid":4897897,"name":"Jo Daviess County","country":"US","admin1":"IL","admin2":"085","admin3":"","latitude":"42.3657100","longitude":"-90.2124100","localeAltName":null},"admin1":{"geonameid":4896861,"name":"Illinois","admin1":"IL","localeAltName":"Illinois"},"locations":[{"geonameid":8480033,"name":"Apple Canyon Lake","admin3":"75146","localeAltName":null},{"geonameid":4890497,"name":"East Dubuque","admin3":"21202","localeAltName":null},{"geonameid":4890905,"name":"Elizabeth","admin3":"23178","localeAltName":null},{"geonameid":4893384,"name":"Galena","admin3":"80359","localeAltName":null},{"geonameid":4895059,"name":"Hanover","admin3":"32720","localeAltName":null},{"geonameid":4912583,"name":"Stockton","admin3":"72793","localeAltName":null},{"geonameid":7315248,"name":"The Galena Territory","admin3":"31979","localeAltName":null},{"geonameid":4915497,"name":"Warren","admin3":"78864","localeAltName":null}],"admin3":[{"geonameid":4883480,"name":"Township of Apple River","admin3":"01686"},{"geonameid":4884586,"name":"Township of Berreman","admin3":"05495"},{"geonameid":4888886,"name":"Township of Council Hill","admin3":"16639"},{"geonameid":4889771,"name":"Township of Derinda","admin3":"19551"},{"geonameid":4890313,"name":"Township of Dunleith","admin3":"21202","localeAltName":null},{"geonameid":4890518,"name":"Township of East Galena","admin3":"21813"},{"geonameid":4890914,"name":"Township of Elizabeth","admin3":"23178","localeAltName":null},{"geonameid":4894847,"name":"Township of Guilford","admin3":"31979","localeAltName":null},{"geonameid":4895071,"name":"Township of Hanover","admin3":"32720","localeAltName":null},{"geonameid":4901972,"name":"Township of Menominee","admin3":"48372"},{"geonameid":4903773,"name":"Township of Nora","admin3":"53208"},{"geonameid":4906326,"name":"Township of Pleasant Valley","admin3":"60664"},{"geonameid":4907183,"name":"Township of Rawlins","admin3":"62926"},{"geonameid":4907451,"name":"Township of Rice","admin3":"63472"},{"geonameid":4908319,"name":"Township of Rush","admin3":"66326"},{"geonameid":4910689,"name":"Township of Scales Mound","admin3":"67938"},{"geonameid":4912592,"name":"Township of Stockton","admin3":"72793","localeAltName":null},{"geonameid":4913579,"name":"Township of Thompson","admin3":"75146","localeAltName":null},{"geonameid":4914880,"name":"Township of Vinegar Hill","admin3":"78084"},{"geonameid":4915488,"name":"Township of Wards Grove","admin3":"78799"},{"geonameid":4915521,"name":"Township of Warren","admin3":"78864","localeAltName":null},{"geonameid":4916002,"name":"Township of West Galena","admin3":"80359","localeAltName":null},{"geonameid":4916998,"name":"Township of Woodbine","admin3":"82907"}],"alternateNames":[{"alternatenameId":2089562,"geonameid":4896861,"isoLanguage":"en","alternateName":"Illinois","isPreferredName":true,"isShortName":true,"isColloquial":false,"isHistoric":false}]},"__N_SSG":true}