{"pageProps":{"locale":"en","admin2":{"geonameid":5033637,"name":"Lac qui Parle County","country":"US","admin1":"MN","admin2":"073","admin3":"","latitude":"44.9954900","longitude":"-96.1734800","localeAltName":null},"admin1":{"geonameid":5037779,"name":"Minnesota","admin1":"MN","localeAltName":"Minnesota"},"locations":[{"geonameid":5023932,"name":"Dawson","admin3":"14968","localeAltName":null},{"geonameid":5036210,"name":"Madison","admin3":"39266","localeAltName":null}],"admin3":[{"geonameid":5015938,"name":"Township of Agassiz","admin3":"00352"},{"geonameid":5016563,"name":"Township of Arena","admin3":"02062"},{"geonameid":5016853,"name":"Township of Augusta","admin3":"02800"},{"geonameid":5017400,"name":"Township of Baxter","admin3":"04060"},{"geonameid":5017787,"name":"City of Bellingham","admin3":"04960"},{"geonameid":5019073,"name":"City of Boyd","admin3":"07138"},{"geonameid":5020190,"name":"Township of Camp Release","admin3":"09550"},{"geonameid":5020827,"name":"Township of Cerro Gordo","admin3":"10774"},{"geonameid":5023955,"name":"City of Dawson","admin3":"14968","localeAltName":null},{"geonameid":5027426,"name":"Township of Freeland","admin3":"22616"},{"geonameid":5027701,"name":"Township of Garfield","admin3":"23138"},{"geonameid":5029204,"name":"Township of Hamlin","admin3":"26774"},{"geonameid":5029325,"name":"Township of Hantho","admin3":"27044"},{"geonameid":5033652,"name":"Township of Lac qui Parle","admin3":"33848"},{"geonameid":5033923,"name":"Township of Lake Shore","admin3":"34946"},{"geonameid":5035836,"name":"City of Louisburg","admin3":"38258"},{"geonameid":5036245,"name":"City of Madison","admin3":"39266","localeAltName":null},{"geonameid":5036246,"name":"Township of Madison","admin3":"39284"},{"geonameid":5036407,"name":"Township of Manfred","admin3":"39788"},{"geonameid":5036662,"name":"City of Marietta","admin3":"40526"},{"geonameid":5036890,"name":"Township of Maxwell","admin3":"41084"},{"geonameid":5037215,"name":"Township of Mehurin","admin3":"41516"},{"geonameid":5038925,"name":"City of Nassau","admin3":"45016"},{"geonameid":5041215,"name":"Township of Perry","admin3":"50524"},{"geonameid":5042404,"name":"Township of Providence","admin3":"52702"},{"geonameid":5043402,"name":"Township of Riverside","admin3":"54646"},{"geonameid":5049824,"name":"Township of Ten Mile Lake","admin3":"64408"},{"geonameid":5051784,"name":"Township of Walter","admin3":"67882"},{"geonameid":5053574,"name":"Township of Yellow Bank","admin3":"72058"}],"alternateNames":[{"alternatenameId":2089541,"geonameid":5037779,"isoLanguage":"en","alternateName":"Minnesota","isPreferredName":true,"isShortName":true,"isColloquial":false,"isHistoric":false}]},"__N_SSG":true}