{"pageProps":{"locale":"en","admin2":{"geonameid":7535498,"name":"Gemeente  Oldambt","country":"NL","admin1":"04","admin2":"1895","admin3":"","latitude":"53.1685900","longitude":"7.0422400"},"admin1":{"geonameid":2755249,"name":"Provincie Groningen","admin1":"04"},"locations":[{"geonameid":2750250,"name":"Bad Nieuweschans","admin3":""},{"geonameid":2759299,"name":"Beersterhoogen","admin3":""},{"geonameid":2759298,"name":"Beerta","admin3":""},{"geonameid":2758938,"name":"Bikkershorn","admin3":""},{"geonameid":8299268,"name":"Blauwestad","admin3":""},{"geonameid":2758636,"name":"Booneschans","admin3":""},{"geonameid":2756616,"name":"Drieborg","admin3":""},{"geonameid":2756316,"name":"Eexta","admin3":""},{"geonameid":6544916,"name":"Eextahaven","admin3":""},{"geonameid":2756243,"name":"Ekamp","admin3":""},{"geonameid":2755905,"name":"Finsterwolde","admin3":""},{"geonameid":2755903,"name":"Finsterwolderhamrik","admin3":""},{"geonameid":2755744,"name":"Ganzedijk","admin3":""},{"geonameid":2755460,"name":"Goldhoorn","admin3":""},{"geonameid":2754910,"name":"Hamdijk","admin3":""},{"geonameid":2754860,"name":"Hardenberg","admin3":""},{"geonameid":2754519,"name":"Heiligerlee","admin3":""},{"geonameid":2753809,"name":"Hongerige Wolf","admin3":""},{"geonameid":2752385,"name":"Kostverloren","admin3":""},{"geonameid":2752252,"name":"Kromme Elleboog","admin3":""},{"geonameid":2751045,"name":"Meerland","admin3":""},{"geonameid":2750832,"name":"Midwolda","admin3":""},{"geonameid":2750505,"name":"Napels","admin3":""},{"geonameid":2750381,"name":"Niesoord","admin3":""},{"geonameid":2750372,"name":"Nieuw-Beerta","admin3":""},{"geonameid":2750137,"name":"Nieuw-Scheemda","admin3":""},{"geonameid":2750238,"name":"Nieuwe Statenzijl","admin3":""},{"geonameid":2750154,"name":"Nieuwolda","admin3":""},{"geonameid":2750152,"name":"Nieuwolda-Oost","admin3":""},{"geonameid":2749478,"name":"Oostereinde","admin3":""},{"geonameid":2749325,"name":"Oostwold","admin3":""},{"geonameid":2749323,"name":"Oostwolderhamrik","admin3":""},{"geonameid":2749322,"name":"Oostwolderpolder","admin3":""},{"geonameid":2749000,"name":"Oude Statenzijl","admin3":""},{"geonameid":2749145,"name":"Oudedijk","admin3":""},{"geonameid":2748962,"name":"Oudezijl","admin3":""},{"geonameid":2747661,"name":"Scheemda","admin3":""},{"geonameid":2747659,"name":"Scheemdermeer","admin3":""},{"geonameid":2747658,"name":"Scheemderzwaag","admin3":""},{"geonameid":2747212,"name":"Sint Vitusholt","admin3":""},{"geonameid":2746083,"name":"t Waar","admin3":""},{"geonameid":2746175,"name":"Tranendal","admin3":""},{"geonameid":2745942,"name":"Ulsda","admin3":""},{"geonameid":2744791,"name":"Westeind","admin3":""},{"geonameid":2744715,"name":"Westerlee","admin3":""},{"geonameid":2744344,"name":"Winschoten","admin3":""},{"geonameid":2744341,"name":"Winschoterhoogebrug","admin3":""},{"geonameid":2743721,"name":"Zuiderveen","admin3":""}],"admin3":[],"alternateNames":[{"alternatenameId":11907791,"geonameid":2755249,"isoLanguage":"de","alternateName":"Groningen","isPreferredName":true,"isShortName":true,"isColloquial":false,"isHistoric":false}]},"__N_SSG":true}