{"pageProps":{"locale":"de","admin2":{"geonameid":6458846,"name":"Bezirk Aarau","country":"CH","admin1":"AG","admin2":"1901","admin3":"","latitude":"47.3770600","longitude":"8.0523500"},"admin1":{"geonameid":2661876,"name":"Kanton Aargau","admin1":"AG"},"locations":[{"geonameid":2661881,"name":"Aarau","admin3":"4001"},{"geonameid":2661348,"name":"Buchs","admin3":"4003"},{"geonameid":2661034,"name":"Densbüren","admin3":"4004"},{"geonameid":2660523,"name":"Gränichen","admin3":"4006"},{"geonameid":2660086,"name":"Küttigen","admin3":"4008"},{"geonameid":2659564,"name":"Muhen","admin3":"4009"},{"geonameid":2659391,"name":"Oberentfelden","admin3":"4010"},{"geonameid":2658457,"name":"Suhr","admin3":"4012"}],"admin3":[{"geonameid":7285013,"name":"Aarau","admin3":"4001"},{"geonameid":7285237,"name":"Biberstein","admin3":"4002"},{"geonameid":7285371,"name":"Buchs","admin3":"4003"},{"geonameid":7285639,"name":"Densbüren","admin3":"4004"},{"geonameid":7285754,"name":"Erlinsbach","admin3":"4005"},{"geonameid":7285969,"name":"Gränichen","admin3":"4006"},{"geonameid":7286088,"name":"Hirschthal","admin3":"4007"},{"geonameid":7286231,"name":"Küttigen","admin3":"4008"},{"geonameid":7286569,"name":"Muhen","admin3":"4009"},{"geonameid":7286687,"name":"Oberentfelden","admin3":"4010"},{"geonameid":7287258,"name":"Suhr","admin3":"4012"},{"geonameid":7287378,"name":"Unterentfelden","admin3":"4013"}],"alternateNames":[]},"__N_SSG":true}