{"pageProps":{"locale":"ro","admin2":{"geonameid":662800,"name":"Comuna Vintilă Vodă","country":"RO","admin1":"11","admin2":"50228","admin3":"","latitude":"45.4546100","longitude":"26.7238500"},"admin1":{"geonameid":683121,"name":"Buzău","admin1":"11"},"locations":[{"geonameid":684792,"name":"Bârleşti"},{"geonameid":685891,"name":"Bodinești"},{"geonameid":681848,"name":"Câmpulungeanca"},{"geonameid":681243,"name":"Coca-Antimirești"},{"geonameid":681235,"name":"Coca-Niculești"},{"geonameid":675317,"name":"Izvorul"},{"geonameid":674482,"name":"Lunca"},{"geonameid":674406,"name":"Lunca Gantei"},{"geonameid":673264,"name":"Mânăstirea"},{"geonameid":673585,"name":"Merei"},{"geonameid":672235,"name":"Niculești"},{"geonameid":671016,"name":"Petrăchești"},{"geonameid":670449,"name":"Plopii"},{"geonameid":670286,"name":"Podu Muncii"},{"geonameid":666858,"name":"Sârbești"},{"geonameid":667701,"name":"Scheiu"},{"geonameid":666639,"name":"Smeești"},{"geonameid":662801,"name":"Vintilă Vodă"}],"admin3":[],"alternateNames":[]},"__N_SSG":true}