{"pageProps":{"locale":"it","admin2":{"geonameid":3166546,"name":"Provincia di Siena","country":"IT","admin1":"16","admin2":"SI","admin3":"","latitude":"43.2166700","longitude":"11.4000000","localeAltName":"Siena"},"admin1":{"geonameid":3165361,"name":"Toscana","admin1":"16","localeAltName":"Toscana"},"locations":[{"geonameid":3183581,"name":"Abbadia San Salvatore","admin3":"052001","localeAltName":null},{"geonameid":3183502,"name":"Acquaviva","admin3":"052015","localeAltName":null},{"geonameid":9036379,"name":"Arbia","admin3":"052002","localeAltName":null},{"geonameid":3182750,"name":"Asciano","admin3":"052002","localeAltName":null},{"geonameid":3182588,"name":"Badesse","admin3":"052016","localeAltName":null},{"geonameid":9036141,"name":"Badia A Elmi","admin3":"052028","localeAltName":null},{"geonameid":8949129,"name":"Bellavista","admin3":"052022","localeAltName":null},{"geonameid":8949290,"name":"Belverde","admin3":"052016","localeAltName":null},{"geonameid":3182100,"name":"Bettolle","admin3":"052033","localeAltName":null},{"geonameid":3181407,"name":"Buonconvento","admin3":"052003","localeAltName":null},{"geonameid":8949522,"name":"Campiglia","admin3":"052012","localeAltName":null},{"geonameid":6639960,"name":"Casciano","admin3":"052019","localeAltName":null},{"geonameid":3179829,"name":"Casole d'Elsa","admin3":"052004","localeAltName":null},{"geonameid":3179623,"name":"Castellina in Chianti","admin3":"052005","localeAltName":null},{"geonameid":6544019,"name":"Castellina Scalo","admin3":"052016","localeAltName":null},{"geonameid":3179535,"name":"Castelnuovo Berardenga","admin3":"052006","localeAltName":null},{"geonameid":3179411,"name":"Castiglione d'Orcia","admin3":"052007","localeAltName":null},{"geonameid":3178933,"name":"Cetona","admin3":"052008","localeAltName":null},{"geonameid":3178874,"name":"Chianciano Terme","admin3":"052009","localeAltName":null},{"geonameid":3178756,"name":"Chiusdino","admin3":"052010","localeAltName":null},{"geonameid":3178754,"name":"Chiusi","admin3":"052011","localeAltName":null},{"geonameid":9036391,"name":"Chiusi Scalo","admin3":"052011","localeAltName":null},{"geonameid":3178402,"name":"Colle di Val d'Elsa","admin3":"052012","localeAltName":null},{"geonameid":3176411,"name":"Gaiole in Chianti","admin3":"052013","localeAltName":null},{"geonameid":3175966,"name":"Gracciano","admin3":"052015","localeAltName":null},{"geonameid":3175689,"name":"Guazzino","admin3":"052033","localeAltName":null},{"geonameid":3175442,"name":"Isola D'Arbia","admin3":"052032","localeAltName":null},{"geonameid":3173096,"name":"Montalcino","admin3":"052037","localeAltName":null},{"geonameid":3173039,"name":"Monteaperti","admin3":"052006","localeAltName":null},{"geonameid":3172794,"name":"Montepulciano","admin3":"052015","localeAltName":null},{"geonameid":3172792,"name":"Montepulciano Stazione","admin3":"052015","localeAltName":null},{"geonameid":3172775,"name":"Monteroni d'Arbia","admin3":"052017","localeAltName":null},{"geonameid":3172680,"name":"Monticiano","admin3":"052018","localeAltName":null},{"geonameid":3171016,"name":"Piancastagnaio","admin3":"052020","localeAltName":null},{"geonameid":3170987,"name":"Pianella","admin3":"052006","localeAltName":null},{"geonameid":3174868,"name":"Piazze","admin3":"052008","localeAltName":null},{"geonameid":3170829,"name":"Pienza","admin3":"052021","localeAltName":null},{"geonameid":3170504,"name":"Poggibonsi","admin3":"052022","localeAltName":null},{"geonameid":6544053,"name":"Ponte A Bozzone","admin3":"052006","localeAltName":null},{"geonameid":3170299,"name":"Ponte A Tressa","admin3":"052017","localeAltName":null},{"geonameid":3169644,"name":"Radda in Chianti","admin3":"052023","localeAltName":null},{"geonameid":3169640,"name":"Radicofani","admin3":"052024","localeAltName":null},{"geonameid":3169639,"name":"Radicondoli","admin3":"052025","localeAltName":null},{"geonameid":3169592,"name":"Rapolano Terme","admin3":"052026","localeAltName":null},{"geonameid":3168933,"name":"Rosia","admin3":"052034","localeAltName":null},{"geonameid":3168499,"name":"San Casciano dei Bagni","admin3":"052027","localeAltName":null},{"geonameid":3168320,"name":"San Gimignano","admin3":"052028","localeAltName":null},{"geonameid":3167783,"name":"San Quirico d'Orcia","admin3":"052030","localeAltName":null},{"geonameid":8949267,"name":"Sant'Albino","admin3":"052015","localeAltName":null},{"geonameid":3172986,"name":"Sant'Andrea A Montecchio","admin3":"052032","localeAltName":null},{"geonameid":3167109,"name":"Sarteano","admin3":"052031","localeAltName":null},{"geonameid":3166632,"name":"Serre di Rapolano","admin3":"052026","localeAltName":null},{"geonameid":3166548,"name":"Siena","admin3":"052032","localeAltName":null},{"geonameid":3166516,"name":"Sinalunga","admin3":"052033","localeAltName":null},{"geonameid":3166318,"name":"Sovicille","admin3":"052034","localeAltName":null},{"geonameid":3166214,"name":"Staggia","admin3":"052022","localeAltName":null},{"geonameid":3165884,"name":"Taverne D'Arbia","admin3":"052032","localeAltName":null},{"geonameid":3165432,"name":"Torrenieri","admin3":"052037","localeAltName":null},{"geonameid":3165381,"name":"Torrita di Siena","admin3":"052035","localeAltName":null},{"geonameid":8950006,"name":"Tre Berte","admin3":"052015","localeAltName":null},{"geonameid":8950373,"name":"Ulignano","admin3":"052028","localeAltName":null},{"geonameid":8949639,"name":"Vescovado","admin3":"052019","localeAltName":null},{"geonameid":3164010,"name":"Vivo d'Orcia","admin3":"052007","localeAltName":null}],"admin3":[{"geonameid":6536847,"name":"Castellina in Chianti","admin3":"052005","localeAltName":null},{"geonameid":6536848,"name":"Cetona","admin3":"052008","localeAltName":null},{"geonameid":6536849,"name":"Chiusdino","admin3":"052010","localeAltName":null},{"geonameid":6536850,"name":"Monteriggioni","admin3":"052016","localeAltName":null},{"geonameid":6536851,"name":"Monteroni d'Arbia","admin3":"052017","localeAltName":null},{"geonameid":6536852,"name":"Piancastagnaio","admin3":"052020","localeAltName":null},{"geonameid":6536853,"name":"Poggibonsi","admin3":"052022","localeAltName":null},{"geonameid":6536854,"name":"Radda in Chianti","admin3":"052023","localeAltName":null},{"geonameid":6536855,"name":"Rapolano Terme","admin3":"052026","localeAltName":null},{"geonameid":6536856,"name":"Sovicille","admin3":"052034","localeAltName":null},{"geonameid":6538595,"name":"Buonconvento","admin3":"052003","localeAltName":null},{"geonameid":6538596,"name":"Castelnuovo Berardenga","admin3":"052006","localeAltName":null},{"geonameid":6538597,"name":"Castiglione d'Orcia","admin3":"052007","localeAltName":null},{"geonameid":6538598,"name":"Gaiole in Chianti","admin3":"052013","localeAltName":null},{"geonameid":6538599,"name":"Monticiano","admin3":"052018","localeAltName":null},{"geonameid":6538600,"name":"Radicofani","admin3":"052024","localeAltName":null},{"geonameid":6538601,"name":"San Casciano dei Bagni","admin3":"052027","localeAltName":null},{"geonameid":6538603,"name":"San Quirico d'Orcia","admin3":"052030","localeAltName":null},{"geonameid":6538604,"name":"Sarteano","admin3":"052031","localeAltName":null},{"geonameid":6538605,"name":"Trequanda","admin3":"052036"},{"geonameid":6539740,"name":"Chiusi","admin3":"052011","localeAltName":null},{"geonameid":6539741,"name":"San Gimignano","admin3":"052028","localeAltName":null},{"geonameid":6540267,"name":"Murlo","admin3":"052019","localeAltName":null},{"geonameid":6540483,"name":"Abbadia San Salvatore","admin3":"052001","localeAltName":null},{"geonameid":6540484,"name":"Casole d'Elsa","admin3":"052004","localeAltName":null},{"geonameid":6540485,"name":"Pienza","admin3":"052021","localeAltName":null},{"geonameid":6540486,"name":"Torrita di Siena","admin3":"052035","localeAltName":null},{"geonameid":6541102,"name":"Colle di Val d'Elsa","admin3":"052012","localeAltName":null},{"geonameid":6541104,"name":"Radicondoli","admin3":"052025","localeAltName":null},{"geonameid":6541466,"name":"Siena","admin3":"052032","localeAltName":null},{"geonameid":6541611,"name":"Montepulciano","admin3":"052015","localeAltName":null},{"geonameid":6541647,"name":"Asciano","admin3":"052002","localeAltName":null},{"geonameid":6541648,"name":"Sinalunga","admin3":"052033","localeAltName":null},{"geonameid":6541884,"name":"Chianciano Terme","admin3":"052009","localeAltName":null},{"geonameid":11550072,"name":"Montalcino","admin3":"052037","localeAltName":null}],"alternateNames":[{"alternatenameId":1347493,"geonameid":3165361,"isoLanguage":"it","alternateName":"Toscana","isPreferredName":true,"isShortName":true,"isColloquial":false,"isHistoric":false},{"alternatenameId":1347833,"geonameid":3166546,"isoLanguage":"it","alternateName":"Siena","isPreferredName":true,"isShortName":true,"isColloquial":false,"isHistoric":false}]},"__N_SSG":true}