{"pageProps":{"locale":"en","admin2":{"geonameid":5278147,"name":"Waushara County","country":"US","admin1":"WI","admin2":"137","admin3":"","latitude":"44.1131200","longitude":"-89.2428800","localeAltName":null},"admin1":{"geonameid":5279468,"name":"Wisconsin","admin1":"WI","localeAltName":"Wisconsin"},"locations":[{"geonameid":5250016,"name":"Dakota","admin3":"18475","localeAltName":null},{"geonameid":5263682,"name":"Mount Morris","admin3":"54825","localeAltName":null},{"geonameid":5267288,"name":"Plainfield","admin3":"63150","localeAltName":null},{"geonameid":5268544,"name":"Redgranite","admin3":"66625","localeAltName":null},{"geonameid":5272285,"name":"Saxeville","admin3":"71825","localeAltName":null},{"geonameid":5273224,"name":"Silver Lake","admin3":"49425","localeAltName":null},{"geonameid":5278148,"name":"Wautoma","admin3":"84625","localeAltName":null},{"geonameid":5279018,"name":"Wild Rose","admin3":"87075","localeAltName":null}],"admin3":[{"geonameid":5244388,"name":"Town of Aurora","admin3":"03925"},{"geonameid":5246243,"name":"Town of Bloomfield","admin3":"08300"},{"geonameid":5249182,"name":"Town of Coloma","admin3":"16400"},{"geonameid":5249183,"name":"Village of Coloma","admin3":"16375"},{"geonameid":5250017,"name":"Town of Dakota","admin3":"18475","localeAltName":null},{"geonameid":5250372,"name":"Town of Deerfield","admin3":"19300"},{"geonameid":5255453,"name":"Town of Hancock","admin3":"32475"},{"geonameid":5255454,"name":"Village of Hancock","admin3":"32450"},{"geonameid":5259803,"name":"Town of Leon","admin3":"43500"},{"geonameid":5260724,"name":"Village of Lohrville","admin3":"45425"},{"geonameid":5261888,"name":"Town of Marion","admin3":"49425","localeAltName":null},{"geonameid":5263685,"name":"Town of Mount Morris","admin3":"54825","localeAltName":null},{"geonameid":5265491,"name":"Town of Oasis","admin3":"59225"},{"geonameid":5267293,"name":"Town of Plainfield","admin3":"63175"},{"geonameid":5267294,"name":"Village of Plainfield","admin3":"63150","localeAltName":null},{"geonameid":5267929,"name":"Town of Poy Sippi","admin3":"64975"},{"geonameid":5268546,"name":"Village of Redgranite","admin3":"66625","localeAltName":null},{"geonameid":5268847,"name":"Town of Richford","admin3":"67550"},{"geonameid":5269516,"name":"Town of Rose","admin3":"69425"},{"geonameid":5272286,"name":"Town of Saxeville","admin3":"71825","localeAltName":null},{"geonameid":5274364,"name":"Town of Springwater","admin3":"76400"},{"geonameid":5277840,"name":"Town of Warren","admin3":"83425"},{"geonameid":5278156,"name":"City of Wautoma","admin3":"84625","localeAltName":null},{"geonameid":5278158,"name":"Town of Wautoma","admin3":"84650"},{"geonameid":5279031,"name":"Village of Wild Rose","admin3":"87075","localeAltName":null}],"alternateNames":[{"alternatenameId":2089565,"geonameid":5279468,"isoLanguage":"en","alternateName":"Wisconsin","isPreferredName":true,"isShortName":true,"isColloquial":false,"isHistoric":false}]},"__N_SSG":true}