{"pageProps":{"locale":"it","admin2":{"geonameid":2525065,"name":"Catania","country":"IT","admin1":"15","admin2":"CT","admin3":"","latitude":"37.4716900","longitude":"14.8473100","localeAltName":"Catania"},"admin1":{"geonameid":2523119,"name":"Sicilia","admin1":"15","localeAltName":null},"locations":[{"geonameid":2525793,"name":"Aci Bonaccorsi","admin3":"087001","localeAltName":null},{"geonameid":2525792,"name":"Aci Castello","admin3":"087002","localeAltName":null},{"geonameid":2525791,"name":"Aci Catena","admin3":"087003","localeAltName":null},{"geonameid":2525789,"name":"Aci Sant'Antonio","admin3":"087005","localeAltName":null},{"geonameid":6559422,"name":"Aci Trezza","admin3":"087002","localeAltName":null},{"geonameid":2525790,"name":"Acireale","admin3":"087004","localeAltName":null},{"geonameid":6950976,"name":"Acitrezza","admin3":"","localeAltName":null},{"geonameid":2525769,"name":"Adrano","admin3":"087006","localeAltName":null},{"geonameid":2525571,"name":"Belpasso","admin3":"087007","localeAltName":null},{"geonameid":8949115,"name":"Belvedere-Piano Tavola","admin3":"087030","localeAltName":null},{"geonameid":2525560,"name":"Biancavilla","admin3":"087008","localeAltName":null},{"geonameid":2525498,"name":"Bronte","admin3":"087009","localeAltName":null},{"geonameid":2525459,"name":"Calatabiano","admin3":"087010","localeAltName":null},{"geonameid":2525450,"name":"Caltagirone","admin3":"087011","localeAltName":null},{"geonameid":6535326,"name":"Camporotondo Etneo","admin3":"087012","localeAltName":null},{"geonameid":8948756,"name":"Canalicchio","admin3":"087051","localeAltName":null},{"geonameid":6955475,"name":"Carruba","admin3":"087017","localeAltName":null},{"geonameid":8948861,"name":"Carrubazza-Motta","admin3":"087042","localeAltName":null},{"geonameid":2525338,"name":"Carrubbo","admin3":"087013","localeAltName":null},{"geonameid":2525101,"name":"Castel di Judica","admin3":"087013","localeAltName":null},{"geonameid":2525079,"name":"Castiglione di Sicilia","admin3":"087014","localeAltName":null},{"geonameid":2525068,"name":"Catania","admin3":"087015","localeAltName":null},{"geonameid":8948865,"name":"Cerza","admin3":"087042","localeAltName":null},{"geonameid":8949901,"name":"Cinquegrana","admin3":"087013","localeAltName":null},{"geonameid":2524742,"name":"Fiumefreddo Sicilia","admin3":"087016","localeAltName":null},{"geonameid":8949445,"name":"Fondaco-Margherito","admin3":"087057","localeAltName":null},{"geonameid":2524618,"name":"Giarre","admin3":"087017","localeAltName":null},{"geonameid":2524596,"name":"Giumarra","admin3":"087013","localeAltName":null},{"geonameid":2524583,"name":"Grammichele","admin3":"087018","localeAltName":null},{"geonameid":6534275,"name":"Gravina di Catania","admin3":"087019","localeAltName":null},{"geonameid":8949187,"name":"Lavinaio-Monterosso","admin3":"087005","localeAltName":null},{"geonameid":2524392,"name":"Licodia Eubea","admin3":"087020","localeAltName":null},{"geonameid":2524384,"name":"Linera","admin3":"087048","localeAltName":null},{"geonameid":2524382,"name":"Linguaglossa","admin3":"087021","localeAltName":null},{"geonameid":2524322,"name":"Maletto","admin3":"087022","localeAltName":null},{"geonameid":6534815,"name":"Maniace","admin3":"087057","localeAltName":null},{"geonameid":2524237,"name":"Mascali","admin3":"087023","localeAltName":null},{"geonameid":2524236,"name":"Mascalucia","admin3":"087024","localeAltName":null},{"geonameid":8948946,"name":"Maugeri","admin3":"087052","localeAltName":null},{"geonameid":6535329,"name":"Mazzarrone","admin3":"087056","localeAltName":null},{"geonameid":2524145,"name":"Militello in Val di Catania","admin3":"087025","localeAltName":null},{"geonameid":2524143,"name":"Milo","admin3":"087026","localeAltName":null},{"geonameid":2524142,"name":"Mineo","admin3":"087027","localeAltName":null},{"geonameid":2524135,"name":"Mirabella Imbaccari","admin3":"087028","localeAltName":null},{"geonameid":2524123,"name":"Misterbianco","admin3":"087029","localeAltName":null},{"geonameid":8949793,"name":"Monterosso","admin3":"087053","localeAltName":null},{"geonameid":2524041,"name":"Motta Sant'Anastasia","admin3":"087030","localeAltName":null},{"geonameid":2524010,"name":"Nicolosi","admin3":"087031","localeAltName":null},{"geonameid":2523991,"name":"Nunziata","admin3":"087023","localeAltName":null},{"geonameid":2523927,"name":"Palagonia","admin3":"087032","localeAltName":null},{"geonameid":8949104,"name":"Palazzolo","admin3":"087007","localeAltName":null},{"geonameid":8949364,"name":"Pasteria-Lapide","admin3":"087010","localeAltName":null},{"geonameid":2523866,"name":"Paternò","admin3":"087033","localeAltName":null},{"geonameid":2523850,"name":"Pedara","admin3":"087034","localeAltName":null},{"geonameid":8949319,"name":"Pennisi","admin3":"087004","localeAltName":null},{"geonameid":8949288,"name":"Petrosino","admin3":"087057","localeAltName":null},{"geonameid":2523793,"name":"Piedimonte Etneo","admin3":"087035","localeAltName":null},{"geonameid":2523656,"name":"Raddusa","admin3":"087036","localeAltName":null},{"geonameid":6535330,"name":"Ragalna","admin3":"087058","localeAltName":null},{"geonameid":2523644,"name":"Ramacca","admin3":"087037","localeAltName":null},{"geonameid":2523641,"name":"Randazzo","admin3":"087038","localeAltName":null},{"geonameid":2523612,"name":"Riposto","admin3":"087039","localeAltName":null},{"geonameid":2523509,"name":"San Cono","admin3":"087040","localeAltName":null},{"geonameid":8949048,"name":"San Giovanni","admin3":"087017","localeAltName":null},{"geonameid":2523460,"name":"San Giovanni la Punta","admin3":"087041","localeAltName":null},{"geonameid":2523448,"name":"San Gregorio di Catania","admin3":"087042","localeAltName":null},{"geonameid":2523416,"name":"San Michele di Ganzaria","admin3":"087043","localeAltName":null},{"geonameid":6535327,"name":"San Pietro Clarenza","admin3":"087044","localeAltName":null},{"geonameid":6534276,"name":"Sant'Agata Li Battiati","admin3":"087045","localeAltName":null},{"geonameid":2523338,"name":"Sant'Alfio","admin3":"087046","localeAltName":null},{"geonameid":8581478,"name":"Sant'Anna","admin3":"087023","localeAltName":null},{"geonameid":2523320,"name":"Santa Maria di Licodia","admin3":"087047","localeAltName":null},{"geonameid":9036389,"name":"Santa Maria la Stella","admin3":"087005","localeAltName":null},{"geonameid":8950268,"name":"Santa Venera-Portosalvo","admin3":"087023","localeAltName":null},{"geonameid":2523280,"name":"Santa Venerina","admin3":"087048","localeAltName":null},{"geonameid":2523180,"name":"Scordia","admin3":"087049","localeAltName":null},{"geonameid":8950174,"name":"Solicchiata","admin3":"087014","localeAltName":null},{"geonameid":2522865,"name":"Trecastagni","admin3":"087050","localeAltName":null},{"geonameid":6534257,"name":"Tremestieri Etneo","admin3":"087051","localeAltName":null},{"geonameid":8949590,"name":"Vaccarizzo-Delfino","admin3":"087015","localeAltName":null},{"geonameid":6535328,"name":"Valverde","admin3":"087052","localeAltName":null},{"geonameid":6690966,"name":"Vambolieri","admin3":"087002","localeAltName":null},{"geonameid":2522777,"name":"Viagrande","admin3":"087053","localeAltName":null},{"geonameid":8948994,"name":"Villaggio del Pino-Le Ginestre","admin3":"087007","localeAltName":null},{"geonameid":2522709,"name":"Vizzini","admin3":"087054","localeAltName":null},{"geonameid":2522696,"name":"Zafferana Etnea","admin3":"087055","localeAltName":null}],"admin3":[{"geonameid":6537800,"name":"Aci Bonaccorsi","admin3":"087001","localeAltName":null},{"geonameid":6537801,"name":"Aci Castello","admin3":"087002","localeAltName":null},{"geonameid":6537802,"name":"Aci Catena","admin3":"087003","localeAltName":null},{"geonameid":6537803,"name":"Aci Sant'Antonio","admin3":"087005","localeAltName":null},{"geonameid":6537804,"name":"Adrano","admin3":"087006","localeAltName":null},{"geonameid":6537805,"name":"Castiglione di Sicilia","admin3":"087014","localeAltName":null},{"geonameid":6537806,"name":"Mineo","admin3":"087027","localeAltName":null},{"geonameid":6537807,"name":"Nicolosi","admin3":"087031","localeAltName":null},{"geonameid":6537808,"name":"Ramacca","admin3":"087037","localeAltName":null},{"geonameid":6537809,"name":"San Michele di Ganzaria","admin3":"087043","localeAltName":null},{"geonameid":6537810,"name":"Santa Maria di Licodia","admin3":"087047","localeAltName":null},{"geonameid":6537811,"name":"Scordia","admin3":"087049","localeAltName":null},{"geonameid":6537812,"name":"Trecastagni","admin3":"087050","localeAltName":null},{"geonameid":6539194,"name":"Bronte","admin3":"087009","localeAltName":null},{"geonameid":6539195,"name":"Calatabiano","admin3":"087010","localeAltName":null},{"geonameid":6539196,"name":"Grammichele","admin3":"087018","localeAltName":null},{"geonameid":6539197,"name":"Licodia Eubea","admin3":"087020","localeAltName":null},{"geonameid":6539198,"name":"Mascali","admin3":"087023","localeAltName":null},{"geonameid":6539199,"name":"Motta Sant'Anastasia","admin3":"087030","localeAltName":null},{"geonameid":6539200,"name":"Raddusa","admin3":"087036","localeAltName":null},{"geonameid":6539201,"name":"Randazzo","admin3":"087038","localeAltName":null},{"geonameid":6539202,"name":"San Cono","admin3":"087040","localeAltName":null},{"geonameid":6539203,"name":"Santa Venerina","admin3":"087048","localeAltName":null},{"geonameid":6539204,"name":"Vizzini","admin3":"087054","localeAltName":null},{"geonameid":6539205,"name":"Zafferana Etnea","admin3":"087055","localeAltName":null},{"geonameid":6539872,"name":"Paternò","admin3":"087033","localeAltName":null},{"geonameid":6540062,"name":"Riposto","admin3":"087039","localeAltName":null},{"geonameid":6540297,"name":"Fiumefreddo di Sicilia","admin3":"087016","localeAltName":null},{"geonameid":6540849,"name":"Acireale","admin3":"087004","localeAltName":null},{"geonameid":6540850,"name":"Linguaglossa","admin3":"087021","localeAltName":null},{"geonameid":6540851,"name":"San Gregorio di Catania","admin3":"087042","localeAltName":null},{"geonameid":6540852,"name":"Sant'Alfio","admin3":"087046","localeAltName":null},{"geonameid":6541347,"name":"Biancavilla","admin3":"087008","localeAltName":null},{"geonameid":6541348,"name":"Giarre","admin3":"087017","localeAltName":null},{"geonameid":6541349,"name":"Militello in Val di Catania","admin3":"087025","localeAltName":null},{"geonameid":6541350,"name":"Mirabella Imbaccari","admin3":"087028","localeAltName":null},{"geonameid":6541351,"name":"Palagonia","admin3":"087032","localeAltName":null},{"geonameid":6541468,"name":"Catania","admin3":"087015","localeAltName":null},{"geonameid":6541769,"name":"Milo","admin3":"087026","localeAltName":null},{"geonameid":6541770,"name":"Pedara","admin3":"087034","localeAltName":null},{"geonameid":6541966,"name":"Belpasso","admin3":"087007","localeAltName":null},{"geonameid":6541967,"name":"Caltagirone","admin3":"087011","localeAltName":null},{"geonameid":6541968,"name":"Maletto","admin3":"087022","localeAltName":null},{"geonameid":6541969,"name":"Piedimonte Etneo","admin3":"087035","localeAltName":null},{"geonameid":6541970,"name":"San Giovanni la Punta","admin3":"087041","localeAltName":null},{"geonameid":6541971,"name":"Viagrande","admin3":"087053","localeAltName":null},{"geonameid":6542070,"name":"Mascalucia","admin3":"087024","localeAltName":null},{"geonameid":6542104,"name":"Misterbianco","admin3":"087029","localeAltName":null},{"geonameid":6542331,"name":"Tremestieri Etneo","admin3":"087051","localeAltName":null},{"geonameid":6542346,"name":"Gravina di Catania","admin3":"087019","localeAltName":null},{"geonameid":6542347,"name":"Sant'Agata li Battiati","admin3":"087045","localeAltName":null},{"geonameid":6542808,"name":"Maniace","admin3":"087057","localeAltName":null},{"geonameid":6543310,"name":"Camporotondo Etneo","admin3":"087012","localeAltName":null},{"geonameid":6543311,"name":"San Pietro Clarenza","admin3":"087044","localeAltName":null},{"geonameid":6543312,"name":"Valverde","admin3":"087052","localeAltName":null},{"geonameid":6543313,"name":"Mazzarrone","admin3":"087056","localeAltName":null},{"geonameid":6543314,"name":"Ragalna","admin3":"087058","localeAltName":null},{"geonameid":6543646,"name":"Castel di Iudica","admin3":"087013","localeAltName":null}],"alternateNames":[{"alternatenameId":1980456,"geonameid":2523119,"isoLanguage":"en","alternateName":"Sicily","isPreferredName":true,"isShortName":true,"isColloquial":false,"isHistoric":false},{"alternatenameId":1183567,"geonameid":2525065,"isoLanguage":"it","alternateName":"Catania","isPreferredName":true,"isShortName":true,"isColloquial":false,"isHistoric":false}]},"__N_SSG":true}