{"pageProps":{"locale":"en","admin2":{"geonameid":4901299,"name":"Marshall County","country":"US","admin1":"IL","admin2":"123","admin3":"","latitude":"41.0331700","longitude":"-89.3447800","localeAltName":null},"admin1":{"geonameid":4896861,"name":"Illinois","admin1":"IL","localeAltName":"Illinois"},"locations":[{"geonameid":4895593,"name":"Henry","admin3":"34176","localeAltName":null},{"geonameid":4898920,"name":"Lacon","admin3":"40572","localeAltName":null},{"geonameid":4913760,"name":"Toluca","admin3":"05235","localeAltName":null},{"geonameid":4915884,"name":"Wenona","admin3":"24569","localeAltName":null}],"admin3":[{"geonameid":4884395,"name":"Township of Bell Plain","admin3":"04949"},{"geonameid":4884505,"name":"Township of Bennington","admin3":"05235","localeAltName":null},{"geonameid":4891380,"name":"Township of Evans","admin3":"24569","localeAltName":null},{"geonameid":4895616,"name":"Township of Henry","admin3":"34176","localeAltName":null},{"geonameid":4896452,"name":"Township of Hopewell","admin3":"36152"},{"geonameid":4898872,"name":"Township of La Prairie","admin3":"42093"},{"geonameid":4898924,"name":"Township of Lacon","admin3":"40572","localeAltName":null},{"geonameid":4907502,"name":"Township of Richland","admin3":"63589"},{"geonameid":4907843,"name":"Township of Roberts","admin3":"64668"},{"geonameid":4910602,"name":"Township of Saratoga","admin3":"67691"},{"geonameid":4912515,"name":"Township of Steuben","admin3":"72585"},{"geonameid":4916422,"name":"Township of Whitefield","admin3":"81230"}],"alternateNames":[{"alternatenameId":2089562,"geonameid":4896861,"isoLanguage":"en","alternateName":"Illinois","isPreferredName":true,"isShortName":true,"isColloquial":false,"isHistoric":false}]},"__N_SSG":true}