{"pageProps":{"locale":"en","admin2":{"geonameid":2642240,"name":"Moray","country":"GB","admin1":"SCT","admin2":"V6","admin3":"","latitude":"57.4166700","longitude":"-3.2500000"},"admin1":{"geonameid":2638360,"name":"Scotland","admin1":"SCT"},"locations":[{"geonameid":2657715,"name":"Achnastank"},{"geonameid":2657580,"name":"Aitnoch"},{"geonameid":2657209,"name":"Archiestown"},{"geonameid":2657100,"name":"Ardwell"},{"geonameid":2656820,"name":"Auchindachy"},{"geonameid":2642488,"name":"Auchindoun"},{"geonameid":11071984,"name":"Auchtertyre"},{"geonameid":2656773,"name":"Aultmore"},{"geonameid":8299846,"name":"Ballindalloch"},{"geonameid":11071988,"name":"Birnie"},{"geonameid":11071977,"name":"Bishopmill"},{"geonameid":2654899,"name":"Branderburgh"},{"geonameid":2654749,"name":"Bridge of Achbreck"},{"geonameid":2654739,"name":"Bridge of Lossie"},{"geonameid":11071998,"name":"Brodie"},{"geonameid":2654411,"name":"Buckie"},{"geonameid":2654303,"name":"Burghead"},{"geonameid":2654121,"name":"Cabrach"},{"geonameid":2653668,"name":"Carron"},{"geonameid":2657798,"name":"Charlestown of Aberlour"},{"geonameid":11071985,"name":"Cloddach"},{"geonameid":2652526,"name":"Coltfield"},{"geonameid":11071991,"name":"Conicavel"},{"geonameid":2652144,"name":"Craigellachie"},{"geonameid":2651904,"name":"Crook of Alves"},{"geonameid":2651753,"name":"Cullen"},{"geonameid":2651707,"name":"Cummingstown"},{"geonameid":2651584,"name":"Dallas"},{"geonameid":2651394,"name":"Delnabo"},{"geonameid":2650935,"name":"Drumin"},{"geonameid":2650902,"name":"Drybridge"},{"geonameid":2650833,"name":"Dufftown"},{"geonameid":2650832,"name":"Duffus"},{"geonameid":2650592,"name":"Dyke"},{"geonameid":2650464,"name":"Easter Elchies"},{"geonameid":2650459,"name":"Easter Gaulrig"},{"geonameid":2648766,"name":"Easter Gaulrig"},{"geonameid":2650122,"name":"Elgin"},{"geonameid":2649471,"name":"Fife Keith"},{"geonameid":2649438,"name":"Findhorn"},{"geonameid":6621351,"name":"Findhorn Community"},{"geonameid":2649433,"name":"Findochty"},{"geonameid":2649269,"name":"Fochabers"},{"geonameid":11071989,"name":"Fogwatt"},{"geonameid":2649192,"name":"Forres"},{"geonameid":2648866,"name":"Garmouth"},{"geonameid":2646630,"name":"Hopeman"},{"geonameid":2646313,"name":"Ianstown"},{"geonameid":2646230,"name":"Inchrory"},{"geonameid":2645880,"name":"Keith"},{"geonameid":2645866,"name":"Kellas"},{"geonameid":2645432,"name":"Kingston"},{"geonameid":2645388,"name":"Kinloss"},{"geonameid":2645360,"name":"Kintessack"},{"geonameid":2645201,"name":"Kirktown of Deskford"},{"geonameid":2645200,"name":"Kirktown of Mortlach"},{"geonameid":2645143,"name":"Knock"},{"geonameid":2645139,"name":"Knockandhu"},{"geonameid":2645138,"name":"Knockando"},{"geonameid":2644586,"name":"Letterfourie"},{"geonameid":2644540,"name":"Lhanbryde"},{"geonameid":2643660,"name":"Longmorn"},{"geonameid":2643587,"name":"Lossiemouth"},{"geonameid":2643302,"name":"Lyne"},{"geonameid":11071992,"name":"Mains of Sluie"},{"geonameid":2642489,"name":"Milltown"},{"geonameid":11071982,"name":"Miltonduff"},{"geonameid":11592192,"name":"Mosstodloch"},{"geonameid":2641996,"name":"Mulben"},{"geonameid":11072001,"name":"Mundole"},{"geonameid":2641614,"name":"Newmill"},{"geonameid":11071999,"name":"Newton of Dalvey"},{"geonameid":2640953,"name":"Orbliston"},{"geonameid":11071986,"name":"Paddockhaugh"},{"geonameid":11071980,"name":"Palmerscross"},{"geonameid":11071996,"name":"Phorp"},{"geonameid":11071981,"name":"Pittendreich"},{"geonameid":2640062,"name":"Portessie"},{"geonameid":2640058,"name":"Portgordon"},{"geonameid":2640035,"name":"Portknockie"},{"geonameid":11071997,"name":"Presley"},{"geonameid":2639825,"name":"Pyke"},{"geonameid":2639703,"name":"Rafford"},{"geonameid":2639613,"name":"Rathven"},{"geonameid":2639086,"name":"Rothes"},{"geonameid":2636784,"name":"Stotfield"},{"geonameid":11071987,"name":"Thomshill"},{"geonameid":2635706,"name":"Tomintoul"},{"geonameid":2635704,"name":"Tomnavoulin"},{"geonameid":2635060,"name":"Urquhart"},{"geonameid":2634436,"name":"Wester Gaulrig"},{"geonameid":11071994,"name":"Whitemire"}],"admin3":[{"geonameid":2656399,"name":"Banffshire","admin3":"2656399"}],"alternateNames":[]},"__N_SSG":true}