{"pageProps":{"locale":"en","admin2":{"geonameid":2749233,"name":"Gemeente Oss","country":"NL","admin1":"06","admin2":"0828","admin3":"","latitude":"51.7810300","longitude":"5.5811100"},"admin1":{"geonameid":2749990,"name":"Provincie Noord-Brabant","admin1":"06"},"locations":[{"geonameid":2760009,"name":"Achterste Heide","admin3":""},{"geonameid":2759805,"name":"Amsteleind","admin3":""},{"geonameid":2759221,"name":"Benedeneind","admin3":""},{"geonameid":2759126,"name":"Berghem","admin3":""},{"geonameid":2759104,"name":"Bergstraat","admin3":""},{"geonameid":2758502,"name":"Boveneind","admin3":""},{"geonameid":2757559,"name":"De Helluw","admin3":""},{"geonameid":2757292,"name":"Demen","admin3":""},{"geonameid":2757200,"name":"Dennenburg","admin3":""},{"geonameid":2757002,"name":"Deursen","admin3":""},{"geonameid":11746814,"name":"Deursen-Dennenburg","admin3":""},{"geonameid":2756892,"name":"Dieden","admin3":""},{"geonameid":2756479,"name":"Duurendseind","admin3":""},{"geonameid":6544732,"name":"Elst","admin3":""},{"geonameid":2755645,"name":"Geffen","admin3":""},{"geonameid":2755606,"name":"Gement","admin3":""},{"geonameid":2754842,"name":"Haren","admin3":""},{"geonameid":2754562,"name":"Heihoek","admin3":""},{"geonameid":2754339,"name":"Herpen","admin3":""},{"geonameid":2754177,"name":"Het Wild","admin3":""},{"geonameid":2754125,"name":"Heuveleind","admin3":""},{"geonameid":2754123,"name":"Heuvels","admin3":""},{"geonameid":2753572,"name":"Horszak","admin3":""},{"geonameid":2753505,"name":"Huisseling","admin3":""},{"geonameid":2752992,"name":"Keent","admin3":""},{"geonameid":2752905,"name":"Kessel","admin3":""},{"geonameid":2752682,"name":"Klein Koolwijk","admin3":""},{"geonameid":6544827,"name":"Kleine Koolwijk","admin3":""},{"geonameid":2755118,"name":"Koolwijk","admin3":""},{"geonameid":2751950,"name":"Langel","admin3":""},{"geonameid":2751543,"name":"Lith","admin3":""},{"geonameid":2751541,"name":"Lithoijen","admin3":""},{"geonameid":2751274,"name":"Macharen","admin3":""},{"geonameid":2751204,"name":"Maren","admin3":""},{"geonameid":2751203,"name":"Maren-Kessel","admin3":""},{"geonameid":2751002,"name":"Megen","admin3":""},{"geonameid":6544847,"name":"Neerlangel","admin3":""},{"geonameid":2750441,"name":"Neerloon","admin3":""},{"geonameid":2749689,"name":"Oijen","admin3":""},{"geonameid":2749234,"name":"Oss","admin3":""},{"geonameid":2748834,"name":"Overlangel","admin3":""},{"geonameid":2748730,"name":"Papendijk","admin3":""},{"geonameid":2748308,"name":"Ravenstein","admin3":""},{"geonameid":2747807,"name":"Run","admin3":""},{"geonameid":2747789,"name":"Ruwaard","admin3":""},{"geonameid":2746510,"name":"Teeffelen","admin3":""}],"admin3":[],"alternateNames":[{"alternatenameId":11907788,"geonameid":2749990,"isoLanguage":"de","alternateName":"Nordbrabant","isPreferredName":true,"isShortName":true,"isColloquial":false,"isHistoric":false}]},"__N_SSG":true}