{"pageProps":{"locale":"en","admin2":{"geonameid":2758877,"name":"Gemeente Bladel","country":"NL","admin1":"06","admin2":"1728","admin3":"","latitude":"51.3500000","longitude":"5.2166700"},"admin1":{"geonameid":2749990,"name":"Provincie Noord-Brabant","admin1":"06"},"locations":[{"geonameid":2758961,"name":"Biezenheuvel","admin3":""},{"geonameid":2758878,"name":"Bladel","admin3":""},{"geonameid":2758282,"name":"Broekenseind","admin3":""},{"geonameid":2757993,"name":"Casteren","admin3":""},{"geonameid":2757859,"name":"Dalem","admin3":""},{"geonameid":2757168,"name":"De Pan","admin3":""},{"geonameid":2755833,"name":"Franse Hoef","admin3":""},{"geonameid":2754872,"name":"Hapert","admin3":""},{"geonameid":2754570,"name":"Heieind","admin3":""},{"geonameid":2754545,"name":"Heikant","admin3":""},{"geonameid":2754455,"name":"Helleneind","admin3":""},{"geonameid":2754297,"name":"Het Bosch","admin3":""},{"geonameid":2753963,"name":"Hofstad","admin3":""},{"geonameid":2753782,"name":"Hoogcasteren","admin3":""},{"geonameid":2753741,"name":"Hoogeloon","admin3":""},{"geonameid":2751984,"name":"Landorp","admin3":""},{"geonameid":2751735,"name":"Lemel","admin3":""},{"geonameid":2750407,"name":"Netersel","admin3":""},{"geonameid":2746482,"name":"Ten Vorsel","admin3":""}],"admin3":[],"alternateNames":[{"alternatenameId":11907788,"geonameid":2749990,"isoLanguage":"de","alternateName":"Nordbrabant","isPreferredName":true,"isShortName":true,"isColloquial":false,"isHistoric":false}]},"__N_SSG":true}