{"pageProps":{"locale":"en","admin2":{"geonameid":2751455,"name":"Gemeente Loon op Zand","country":"NL","admin1":"06","admin2":"0809","admin3":"","latitude":"51.6378200","longitude":"5.0486000"},"admin1":{"geonameid":2749990,"name":"Provincie Noord-Brabant","admin1":"06"},"locations":[{"geonameid":2757281,"name":"De Moer","admin3":""},{"geonameid":2756530,"name":"Duiksehoef","admin3":""},{"geonameid":2754533,"name":"Heikant","admin3":""},{"geonameid":2754081,"name":"Hil","admin3":""},{"geonameid":2753703,"name":"Hooge Zandschel","admin3":""},{"geonameid":2753156,"name":"Kaatsheuvel","admin3":""},{"geonameid":2752635,"name":"Klokkenberg","admin3":""},{"geonameid":2752339,"name":"Kraanven","admin3":""},{"geonameid":2752011,"name":"Lage Zandschel","admin3":""},{"geonameid":6544837,"name":"Land van Kleef","admin3":""},{"geonameid":2751456,"name":"Loon op Zand","admin3":""},{"geonameid":2751451,"name":"Loons Hoekje","admin3":""},{"geonameid":2751454,"name":"Loonschedijk","admin3":""},{"geonameid":2750711,"name":"Moleneind","admin3":""},{"geonameid":2750660,"name":"Molenstraat","admin3":""},{"geonameid":2748295,"name":"Rechtvaart","admin3":""},{"geonameid":2746901,"name":"Sprangsevaart","admin3":""}],"admin3":[],"alternateNames":[{"alternatenameId":11907788,"geonameid":2749990,"isoLanguage":"de","alternateName":"Nordbrabant","isPreferredName":true,"isShortName":true,"isColloquial":false,"isHistoric":false}]},"__N_SSG":true}