{"pageProps":{"locale":"en","admin2":{"geonameid":6544266,"name":"Gemeente Laarbeek","country":"NL","admin1":"06","admin2":"1659","admin3":"","latitude":"51.5264300","longitude":"5.6128300"},"admin1":{"geonameid":2749990,"name":"Provincie Noord-Brabant","admin1":"06"},"locations":[{"geonameid":2760089,"name":"Aarle","admin3":""},{"geonameid":6698718,"name":"Aarle-Rixtel","admin3":""},{"geonameid":2760045,"name":"Achterbosch","admin3":""},{"geonameid":2759349,"name":"Beek","admin3":""},{"geonameid":8436503,"name":"Beek en Donk","admin3":""},{"geonameid":2759321,"name":"Beemdkant","admin3":""},{"geonameid":2759227,"name":"Bemmer","admin3":""},{"geonameid":2758297,"name":"Broek","admin3":""},{"geonameid":2758254,"name":"Broekkant","admin3":""},{"geonameid":2757877,"name":"Croy","admin3":""},{"geonameid":6544812,"name":"De Wolfsputten","admin3":""},{"geonameid":6544741,"name":"Deense Hoek","admin3":""},{"geonameid":2756706,"name":"Donk","admin3":""},{"geonameid":2756699,"name":"Donkersvoort","admin3":""},{"geonameid":2755502,"name":"Ginderdoor","admin3":""},{"geonameid":2755288,"name":"Groenewoud","admin3":""},{"geonameid":2754676,"name":"Heereind","admin3":""},{"geonameid":2754541,"name":"Heikant","admin3":""},{"geonameid":2754264,"name":"Het Hool","admin3":""},{"geonameid":2753053,"name":"Karstraat","admin3":""},{"geonameid":2752081,"name":"Laar","admin3":""},{"geonameid":2751627,"name":"Lieshout","admin3":""},{"geonameid":2751189,"name":"Mariahout","admin3":""},{"geonameid":6544746,"name":"Peeldijk","admin3":""},{"geonameid":2748037,"name":"Rixtel","admin3":""},{"geonameid":2747656,"name":"Scheepstal","admin3":""},{"geonameid":2746601,"name":"Strijp","admin3":""},{"geonameid":6544744,"name":"t Hof","admin3":""},{"geonameid":2745349,"name":"Vogelzang","admin3":""}],"admin3":[],"alternateNames":[{"alternatenameId":11907788,"geonameid":2749990,"isoLanguage":"de","alternateName":"Nordbrabant","isPreferredName":true,"isShortName":true,"isColloquial":false,"isHistoric":false}]},"__N_SSG":true}