{"pageProps":{"locale":"en","admin2":{"geonameid":2756252,"name":"Gemeente Eindhoven","country":"NL","admin1":"06","admin2":"0772","admin3":"","latitude":"51.4503700","longitude":"5.4527900"},"admin1":{"geonameid":2749990,"name":"Provincie Noord-Brabant","admin1":"06"},"locations":[{"geonameid":2746354,"name":"'t Hofke","admin3":""},{"geonameid":2746344,"name":"’t Hool","admin3":""},{"geonameid":2746090,"name":"’t Ven","admin3":""},{"geonameid":2760106,"name":"Aanschot","admin3":""},{"geonameid":2760050,"name":"Acht","admin3":""},{"geonameid":2759980,"name":"Achtsehoek","admin3":""},{"geonameid":2758959,"name":"Biezenkuilen","admin3":""},{"geonameid":2758880,"name":"Blaarthem","admin3":""},{"geonameid":2758699,"name":"Bokt","admin3":""},{"geonameid":2757718,"name":"De Burgh","admin3":""},{"geonameid":2757685,"name":"De Doornakkers","admin3":""},{"geonameid":2748393,"name":"De Putten","admin3":""},{"geonameid":2757026,"name":"De Tempel","admin3":""},{"geonameid":2756435,"name":"Eckart","admin3":""},{"geonameid":2756253,"name":"Eindhoven","admin3":""},{"geonameid":6544841,"name":"Esp","admin3":""},{"geonameid":2755585,"name":"Gennep","admin3":""},{"geonameid":2755562,"name":"Gestel","admin3":""},{"geonameid":6695505,"name":"Grasrijk","admin3":""},{"geonameid":2754631,"name":"Heesterakker","admin3":""},{"geonameid":2754495,"name":"Heistraat","admin3":""},{"geonameid":2754296,"name":"Het Broek","admin3":""},{"geonameid":6929983,"name":"Het Busselke","admin3":""},{"geonameid":2753282,"name":"Jagershoef","admin3":""},{"geonameid":6929981,"name":"Karpen","admin3":""},{"geonameid":6929982,"name":"Koudenhoven","admin3":""},{"geonameid":2752280,"name":"Kreitenmolen","admin3":""},{"geonameid":6929985,"name":"Lakerlopen","admin3":""},{"geonameid":2751615,"name":"Lievendaal","admin3":""},{"geonameid":6695503,"name":"Meerhoven","admin3":""},{"geonameid":2750953,"name":"Mensfort","admin3":""},{"geonameid":6929980,"name":"Muschberg en Geestenberg","admin3":""},{"geonameid":2750377,"name":"Nieuw Acht","admin3":""},{"geonameid":2749571,"name":"Ooievaarsnest","admin3":""},{"geonameid":2749124,"name":"Oude Gracht","admin3":""},{"geonameid":2748622,"name":"Philipswijk","admin3":""},{"geonameid":2748449,"name":"Prinsejacht","admin3":""},{"geonameid":2748165,"name":"Riel","admin3":""},{"geonameid":2747165,"name":"Sliffert","admin3":""},{"geonameid":2746624,"name":"Stratum","admin3":""},{"geonameid":2746599,"name":"Strijp","admin3":""},{"geonameid":2746513,"name":"t Coll","admin3":""},{"geonameid":2746282,"name":"Tivoli","admin3":""},{"geonameid":2746215,"name":"Tongelre","admin3":""},{"geonameid":2745927,"name":"Urkhoven","admin3":""},{"geonameid":2745896,"name":"Vaartbroek","admin3":""},{"geonameid":6929984,"name":"Villapark","admin3":""},{"geonameid":2745373,"name":"Vlokhoven","admin3":""},{"geonameid":2744849,"name":"Welschap","admin3":""},{"geonameid":2744251,"name":"Woensel","admin3":""},{"geonameid":2744250,"name":"Woenselse Heide","admin3":""},{"geonameid":6695504,"name":"Zandrijk","admin3":""}],"admin3":[],"alternateNames":[{"alternatenameId":11907788,"geonameid":2749990,"isoLanguage":"de","alternateName":"Nordbrabant","isPreferredName":true,"isShortName":true,"isColloquial":false,"isHistoric":false}]},"__N_SSG":true}