{"pageProps":{"locale":"en","admin2":{"geonameid":2746801,"name":"Gemeente Steenbergen","country":"NL","admin1":"06","admin2":"0851","admin3":"","latitude":"51.6008100","longitude":"4.3207700"},"admin1":{"geonameid":2749990,"name":"Provincie Noord-Brabant","admin1":"06"},"locations":[{"geonameid":2758856,"name":"Blauwe Sluis","admin3":""},{"geonameid":2758640,"name":"Boompjesdijk","admin3":""},{"geonameid":6544846,"name":"De Bocht","admin3":""},{"geonameid":2757574,"name":"De Heen","admin3":""},{"geonameid":6544864,"name":"De Overval","admin3":""},{"geonameid":2756800,"name":"Dinteloord","admin3":""},{"geonameid":2754689,"name":"Heensche Molen","admin3":""},{"geonameid":2753938,"name":"Hogendijk","admin3":""},{"geonameid":2752550,"name":"Koevering","admin3":""},{"geonameid":2752192,"name":"Kruisland","admin3":""},{"geonameid":2750117,"name":"Nieuw-Vossemeer","admin3":""},{"geonameid":2749786,"name":"Notendaal","admin3":""},{"geonameid":2748658,"name":"Pelsendijk","admin3":""},{"geonameid":2747980,"name":"Rolaf","admin3":""},{"geonameid":2746804,"name":"Steenbergen","admin3":""},{"geonameid":2746376,"name":"t Haantje","admin3":""},{"geonameid":2745488,"name":"Visberg","admin3":""},{"geonameid":2744869,"name":"Welberg","admin3":""},{"geonameid":2743534,"name":"Zwarte Ruiter","admin3":""}],"admin3":[],"alternateNames":[{"alternatenameId":11907788,"geonameid":2749990,"isoLanguage":"de","alternateName":"Nordbrabant","isPreferredName":true,"isShortName":true,"isColloquial":false,"isHistoric":false}]},"__N_SSG":true}