{"pageProps":{"locale":"en","admin2":{"geonameid":2747929,"name":"Roosendaal","country":"NL","admin1":"06","admin2":"1674","admin3":"","latitude":"51.5114900","longitude":"4.4226000"},"admin1":{"geonameid":2749990,"name":"Provincie Noord-Brabant","admin1":"06"},"locations":[{"geonameid":2759927,"name":"Akker","admin3":""},{"geonameid":2759110,"name":"Bergsebaan","admin3":""},{"geonameid":2758761,"name":"Boeiink","admin3":""},{"geonameid":2758627,"name":"Borchwerf","admin3":""},{"geonameid":2758583,"name":"Borteldonk","admin3":""},{"geonameid":2758348,"name":"Brembosch","admin3":""},{"geonameid":2758121,"name":"Bulkenaar","admin3":""},{"geonameid":2757973,"name":"Centrum","admin3":""},{"geonameid":2757393,"name":"De Kroeven","admin3":""},{"geonameid":2757083,"name":"De Rotting","admin3":""},{"geonameid":2755968,"name":"Everland","admin3":""},{"geonameid":6544748,"name":"Haiink","admin3":""},{"geonameid":2754735,"name":"Hazelaar","admin3":""},{"geonameid":2754653,"name":"Heerle","admin3":""},{"geonameid":6544745,"name":"Heijbeek","admin3":""},{"geonameid":6544727,"name":"Hollandsdiep","admin3":""},{"geonameid":2753448,"name":"Hulsdonk","admin3":""},{"geonameid":2753123,"name":"Kalsdonk","admin3":""},{"geonameid":2752410,"name":"Kortendijk","admin3":""},{"geonameid":2752186,"name":"Kruisstraat","admin3":""},{"geonameid":2751967,"name":"Langdonk","admin3":""},{"geonameid":2751260,"name":"Majoppeveld","admin3":""},{"geonameid":2750754,"name":"Moerstraten","admin3":""},{"geonameid":2750289,"name":"Nieuwenberg","admin3":""},{"geonameid":2750035,"name":"Nispen","admin3":""},{"geonameid":2749358,"name":"Oostlaar","admin3":""},{"geonameid":6544730,"name":"Plantage Centrum","admin3":""},{"geonameid":2748153,"name":"Rietgoor","admin3":""},{"geonameid":2747930,"name":"Roosendaal","admin3":""},{"geonameid":8224620,"name":"Roosendaalwest","admin3":""},{"geonameid":2746235,"name":"Tolberg","admin3":""},{"geonameid":2746111,"name":"Turfhoofd","admin3":""},{"geonameid":2745536,"name":"Vijfhoek","admin3":""},{"geonameid":6830985,"name":"Vijfhuizenberg","admin3":""},{"geonameid":2745501,"name":"Vinkenbroek","admin3":""},{"geonameid":2745484,"name":"Visdonk","admin3":""},{"geonameid":2745436,"name":"Vleet","admin3":""},{"geonameid":2745171,"name":"Vroenhout","admin3":""},{"geonameid":2744145,"name":"Wouw","admin3":""},{"geonameid":2744142,"name":"Wouwse Hil","admin3":""},{"geonameid":2744140,"name":"Wouwse Plantage","admin3":""},{"geonameid":2743825,"name":"Zoomvliet","admin3":""}],"admin3":[],"alternateNames":[{"alternatenameId":11907788,"geonameid":2749990,"isoLanguage":"de","alternateName":"Nordbrabant","isPreferredName":true,"isShortName":true,"isColloquial":false,"isHistoric":false}]},"__N_SSG":true}