{"pageProps":{"locale":"en","admin2":{"geonameid":5212857,"name":"Somerset County","country":"US","admin1":"PA","admin2":"111","admin3":"","latitude":"39.9724400","longitude":"-79.0282700","localeAltName":null},"admin1":{"geonameid":6254927,"name":"Pennsylvania","admin1":"PA","localeAltName":"Pennsylvania"},"locations":[{"geonameid":4556518,"name":"Berlin","admin3":"05776","localeAltName":null},{"geonameid":5181248,"name":"Boswell","admin3":"07712","localeAltName":null},{"geonameid":5182704,"name":"Cairnbrook","admin3":"69448","localeAltName":null},{"geonameid":5183709,"name":"Central City","admin3":"12296","localeAltName":null},{"geonameid":4557319,"name":"Confluence","admin3":"15680","localeAltName":null},{"geonameid":5186420,"name":"Davidsville","admin3":"15568","localeAltName":null},{"geonameid":5190547,"name":"Friedens","admin3":"71784","localeAltName":null},{"geonameid":5194159,"name":"Hooversville","admin3":"35608","localeAltName":null},{"geonameid":5195377,"name":"Jennerstown","admin3":"38048","localeAltName":null},{"geonameid":5195405,"name":"Jerome","admin3":"15568","localeAltName":null},{"geonameid":4559619,"name":"Meyersdale","admin3":"48912","localeAltName":null},{"geonameid":4559647,"name":"Milford","admin3":"06640","localeAltName":null},{"geonameid":5204895,"name":"Paint","admin3":"57544","localeAltName":null},{"geonameid":4560776,"name":"Rockwood","admin3":"65736","localeAltName":null},{"geonameid":4561064,"name":"Salisbury","admin3":"67584","localeAltName":null},{"geonameid":5212853,"name":"Somerset","admin3":"71776","localeAltName":null},{"geonameid":5219722,"name":"Windber","admin3":"85632","localeAltName":null}],"admin3":[{"geonameid":4556235,"name":"Borough of Addison","admin3":"00396"},{"geonameid":4556236,"name":"Township of Addison","admin3":"00404"},{"geonameid":4556520,"name":"Borough of Berlin","admin3":"05776","localeAltName":null},{"geonameid":4556634,"name":"Township of Black","admin3":"06640","localeAltName":null},{"geonameid":4556806,"name":"Township of Brothersvalley","admin3":"09256"},{"geonameid":4557029,"name":"Borough of Casselman","admin3":"11624"},{"geonameid":4557321,"name":"Borough of Confluence","admin3":"15680","localeAltName":null},{"geonameid":4557773,"name":"Township of Elk Lick","admin3":"23168"},{"geonameid":4557867,"name":"Township of Fairhope","admin3":"24680"},{"geonameid":4558150,"name":"Borough of Garrett","admin3":"28520"},{"geonameid":4558396,"name":"Township of Greenville","admin3":"31336"},{"geonameid":4559086,"name":"Township of Larimer","admin3":"41568"},{"geonameid":4559358,"name":"Township of Lower Turkeyfoot","admin3":"45136"},{"geonameid":4559622,"name":"Borough of Meyersdale","admin3":"48912","localeAltName":null},{"geonameid":4559955,"name":"Borough of New Baltimore","admin3":"53168"},{"geonameid":4559959,"name":"Borough of New Centerville","admin3":"53416"},{"geonameid":4560050,"name":"Township of Northampton","admin3":"54704"},{"geonameid":4560780,"name":"Borough of Rockwood","admin3":"65736","localeAltName":null},{"geonameid":4561066,"name":"Borough of Salisbury","admin3":"67584","localeAltName":null},{"geonameid":4561370,"name":"Township of Southampton","admin3":"71920"},{"geonameid":4561533,"name":"Township of Stonycreek","admin3":"74440"},{"geonameid":4561608,"name":"Township of Summit","admin3":"75232"},{"geonameid":4561890,"name":"Township of Upper Turkeyfoot","admin3":"79336"},{"geonameid":4561896,"name":"Borough of Ursina","admin3":"79424"},{"geonameid":4562096,"name":"Borough of Wellersburg","admin3":"82128"},{"geonameid":5178085,"name":"Township of Allegheny","admin3":"00876"},{"geonameid":5180001,"name":"Borough of Benson","admin3":"05648"},{"geonameid":5181250,"name":"Borough of Boswell","admin3":"07712","localeAltName":null},{"geonameid":5183711,"name":"Borough of Central City","admin3":"12296","localeAltName":null},{"geonameid":5185145,"name":"Township of Conemaugh","admin3":"15568","localeAltName":null},{"geonameid":5194161,"name":"Borough of Hooversville","admin3":"35608","localeAltName":null},{"geonameid":5194817,"name":"Borough of Indian Lake","admin3":"36888"},{"geonameid":5195340,"name":"Township of Jefferson","admin3":"37920"},{"geonameid":5195374,"name":"Township of Jenner","admin3":"38032"},{"geonameid":5195380,"name":"Borough of Jennerstown","admin3":"38048","localeAltName":null},{"geonameid":5198125,"name":"Township of Lincoln","admin3":"43440"},{"geonameid":5201012,"name":"Township of Middlecreek","admin3":"49024"},{"geonameid":5201131,"name":"Township of Milford","admin3":"49416"},{"geonameid":5204257,"name":"Township of Ogle","admin3":"56352"},{"geonameid":5204905,"name":"Borough of Paint","admin3":"57544","localeAltName":null},{"geonameid":5204906,"name":"Township of Paint","admin3":"57552"},{"geonameid":5207428,"name":"Township of Quemahoning","admin3":"63144"},{"geonameid":5211484,"name":"Borough of Seven Springs","admin3":"69336"},{"geonameid":5211541,"name":"Township of Shade","admin3":"69448","localeAltName":null},{"geonameid":5211656,"name":"Borough of Shanksville","admin3":"69680"},{"geonameid":5212867,"name":"Borough of Somerset","admin3":"71776","localeAltName":null},{"geonameid":5212868,"name":"Township of Somerset","admin3":"71784","localeAltName":null},{"geonameid":5214457,"name":"Borough of Stoystown","admin3":"74672"},{"geonameid":5219725,"name":"Borough of Windber","admin3":"85632","localeAltName":null},{"geonameid":6326716,"name":"Borough of Callimont","admin3":"10808"}],"alternateNames":[{"alternatenameId":2186547,"geonameid":6254927,"isoLanguage":"en","alternateName":"Pennsylvania","isPreferredName":true,"isShortName":true,"isColloquial":false,"isHistoric":false}]},"__N_SSG":true}