{"pageProps":{"locale":"en","admin2":{"geonameid":5149311,"name":"Carroll County","country":"US","admin1":"OH","admin2":"019","admin3":"","latitude":"40.5795900","longitude":"-81.0897200"},"admin1":{"geonameid":5165418,"name":"Ohio","admin1":"OH","localeAltName":"Ohio"},"locations":[{"geonameid":5149327,"name":"Carrollton","admin3":"12896"},{"geonameid":5160171,"name":"Lake Mohawk","admin3":"09400"},{"geonameid":5161684,"name":"Malvern","admin3":"09400"}],"admin3":[{"geonameid":5146219,"name":"Township of Augusta","admin3":"03030"},{"geonameid":5148422,"name":"Township of Brown","admin3":"09400"},{"geonameid":5149589,"name":"Township of Center","admin3":"12896"},{"geonameid":5152816,"name":"Township of East","admin3":"23226"},{"geonameid":5155059,"name":"Township of Fox","admin3":"28126"},{"geonameid":5156994,"name":"Township of Harrison","admin3":"33782"},{"geonameid":5160526,"name":"Township of Lee","admin3":"42434"},{"geonameid":5161338,"name":"Township of Loudon","admin3":"45038"},{"geonameid":5163332,"name":"Township of Monroe","admin3":"51324"},{"geonameid":5165710,"name":"Township of Orange","admin3":"58576"},{"geonameid":5166498,"name":"Township of Perry","admin3":"61784"},{"geonameid":5168653,"name":"Township of Rose","admin3":"68420"},{"geonameid":5174732,"name":"Township of Union","admin3":"78260"},{"geonameid":5175800,"name":"Township of Washington","admin3":"81116"}],"alternateNames":[{"alternatenameId":2089549,"geonameid":5165418,"isoLanguage":"en","alternateName":"Ohio","isPreferredName":true,"isShortName":true,"isColloquial":false,"isHistoric":false}]},"__N_SSG":true}