{"pageProps":{"locale":"en","admin2":{"geonameid":4513583,"name":"Hamilton County","country":"US","admin1":"OH","admin2":"061","admin3":"","latitude":"39.1955300","longitude":"-84.5427700"},"admin1":{"geonameid":5165418,"name":"Ohio","admin1":"OH","localeAltName":"Ohio"},"locations":[{"geonameid":4505215,"name":"Amberley","admin3":"01672"},{"geonameid":4506754,"name":"Blue Ash","admin3":"07300"},{"geonameid":4507067,"name":"Bridgetown","admin3":"31752"},{"geonameid":4508395,"name":"Cherry Grove","admin3":"01980"},{"geonameid":4508465,"name":"Cheviot","admin3":"14128"},{"geonameid":4508722,"name":"Cincinnati","admin3":"15000"},{"geonameid":4508944,"name":"Cleves","admin3":"49364"},{"geonameid":4509506,"name":"Covedale","admin3":"15000"},{"geonameid":4509986,"name":"Deer Park","admin3":"21266"},{"geonameid":4050006,"name":"Delhi Hills","admin3":"21504"},{"geonameid":4510062,"name":"Dent","admin3":"31752"},{"geonameid":4510143,"name":"Dillonvale","admin3":"75973"},{"geonameid":4510329,"name":"Dry Ridge","admin3":"16616"},{"geonameid":4510342,"name":"Dry Run","admin3":"01980"},{"geonameid":4510456,"name":"Dunlap","admin3":"16616"},{"geonameid":4510996,"name":"Elmwood Place","admin3":"25186"},{"geonameid":4511196,"name":"Evendale","admin3":"25802"},{"geonameid":4511274,"name":"Fairfax","admin3":"25942"},{"geonameid":4511642,"name":"Finneytown","admin3":"15000"},{"geonameid":4512060,"name":"Forest Park","admin3":"27706"},{"geonameid":4512083,"name":"Forestville","admin3":"01980"},{"geonameid":4512378,"name":"Fruit Hill","admin3":"01980"},{"geonameid":4512773,"name":"Glendale","admin3":"30380"},{"geonameid":4512862,"name":"Golf Manor","admin3":"30786"},{"geonameid":4513047,"name":"Grandview","admin3":"49364"},{"geonameid":4513309,"name":"Greenhills","admin3":"32158"},{"geonameid":4513394,"name":"Groesbeck","admin3":"16616"},{"geonameid":4513805,"name":"Harrison","admin3":""},{"geonameid":4514228,"name":"Highpoint","admin3":"75973"},{"geonameid":4515813,"name":"Kenwood","admin3":"75973"},{"geonameid":4516677,"name":"Lincoln Heights","admin3":"43722"},{"geonameid":4516931,"name":"Lockland","admin3":"44366"},{"geonameid":4517140,"name":"Loveland","admin3":"45108"},{"geonameid":4517323,"name":"Mack","admin3":"31752"},{"geonameid":4517353,"name":"Madeira","admin3":"46312"},{"geonameid":4517580,"name":"Mariemont","admin3":"47600"},{"geonameid":4518151,"name":"Miami Heights","admin3":"49364"},{"geonameid":4518202,"name":"Miamitown","admin3":"84938"},{"geonameid":4518596,"name":"Monfort Heights","admin3":"31752"},{"geonameid":4518597,"name":"Montgomery","admin3":"51716"},{"geonameid":4518890,"name":"Mount Healthy","admin3":"52752"},{"geonameid":4518892,"name":"Mount Healthy Heights","admin3":"16616"},{"geonameid":4519486,"name":"New Burlington","admin3":"74121"},{"geonameid":4519761,"name":"Newtown","admin3":"55678"},{"geonameid":4519853,"name":"North College Hill","admin3":"56322"},{"geonameid":4519924,"name":"Northbrook","admin3":"16616"},{"geonameid":4519938,"name":"Northgate","admin3":"16616"},{"geonameid":4519995,"name":"Norwood","admin3":"57386"},{"geonameid":4521565,"name":"Pleasant Run","admin3":"16616"},{"geonameid":4521571,"name":"Pleasant Run Farm","admin3":"74121"},{"geonameid":4522228,"name":"Reading","admin3":"65732"},{"geonameid":4522916,"name":"Rossmoyne","admin3":"75973"},{"geonameid":4523190,"name":"Saint Bernard","admin3":"69470"},{"geonameid":4523769,"name":"Salem Heights","admin3":"01980"},{"geonameid":4524499,"name":"Sharonville","admin3":"71892"},{"geonameid":4524626,"name":"Sherwood","admin3":"01980"},{"geonameid":4524753,"name":"Silverton","admin3":"72522"},{"geonameid":4524804,"name":"Sixteen Mile Stand","admin3":"76028"},{"geonameid":4524817,"name":"Skyline Acres","admin3":"74121"},{"geonameid":4525310,"name":"Springdale","admin3":"74104"},{"geonameid":4526172,"name":"Terrace Park","admin3":"76428"},{"geonameid":4526225,"name":"The Village of Indian Hill","admin3":""},{"geonameid":4050118,"name":"Turpin Hills","admin3":"01980"},{"geonameid":4528259,"name":"White Oak","admin3":"16616"},{"geonameid":4528695,"name":"Woodlawn","admin3":"86366"},{"geonameid":4528793,"name":"Wyoming","admin3":"86730"}],"admin3":[{"geonameid":4505216,"name":"Village of Amberley","admin3":"01672"},{"geonameid":4505269,"name":"Township of Anderson","admin3":"01980"},{"geonameid":4505423,"name":"Village of Arlington Heights","admin3":"02428"},{"geonameid":4506769,"name":"City of Blue Ash","admin3":"07300"},{"geonameid":4508471,"name":"City of Cheviot","admin3":"14128"},{"geonameid":4508770,"name":"City of Cincinnati","admin3":"15000","localeAltName":"Cincinnati"},{"geonameid":4509113,"name":"Township of Colerain","admin3":"16616"},{"geonameid":4509174,"name":"Township of Columbia","admin3":"16882"},{"geonameid":4509649,"name":"Township of Crosby","admin3":"19470"},{"geonameid":4509992,"name":"City of Deer Park","admin3":"21266"},{"geonameid":4510029,"name":"Township of Delhi","admin3":"21504"},{"geonameid":4511002,"name":"Village of Elmwood Place","admin3":"25186"},{"geonameid":4511200,"name":"Village of Evendale","admin3":"25802"},{"geonameid":4512067,"name":"City of Forest Park","admin3":"27706"},{"geonameid":4512785,"name":"Village of Glendale","admin3":"30380"},{"geonameid":4512863,"name":"Village of Golf Manor","admin3":"30786"},{"geonameid":4513237,"name":"Township of Green","admin3":"31752"},{"geonameid":4513316,"name":"Village of Greenhills","admin3":"32158"},{"geonameid":4513833,"name":"Township of Harrison","admin3":"33852"},{"geonameid":4516685,"name":"Village of Lincoln Heights","admin3":"43722"},{"geonameid":4516941,"name":"Village of Lockland","admin3":"44366"},{"geonameid":4517146,"name":"City of Loveland","admin3":"45108"},{"geonameid":4517360,"name":"City of Madeira","admin3":"46312"},{"geonameid":4517585,"name":"Village of Mariemont","admin3":"47600"},{"geonameid":4518185,"name":"Township of Miami","admin3":"49364"},{"geonameid":4518896,"name":"City of Mount Healthy","admin3":"52752"},{"geonameid":4519766,"name":"Village of Newtown","admin3":"55678"},{"geonameid":4519857,"name":"City of North College Hill","admin3":"56322"},{"geonameid":4520020,"name":"City of Norwood","admin3":"57386"},{"geonameid":4522233,"name":"City of Reading","admin3":"65732"},{"geonameid":4524510,"name":"City of Sharonville","admin3":"71892"},{"geonameid":4524758,"name":"Village of Silverton","admin3":"72522"},{"geonameid":4525321,"name":"City of Springdale","admin3":"74104"},{"geonameid":4525344,"name":"Township of Springfield","admin3":"74121"},{"geonameid":4525375,"name":"Village of Saint Bernard","admin3":"69470"},{"geonameid":4526006,"name":"Township of Sycamore","admin3":"75973"},{"geonameid":4526025,"name":"Township of Symmes","admin3":"76028"},{"geonameid":4526176,"name":"Village of Terrace Park","admin3":"76428"},{"geonameid":4528339,"name":"Township of Whitewater","admin3":"84938"},{"geonameid":4528704,"name":"Village of Woodlawn","admin3":"86366"},{"geonameid":4528804,"name":"City of Wyoming","admin3":"86730"},{"geonameid":7163908,"name":"City of Montgomery","admin3":"51716"},{"geonameid":7317531,"name":"Village of Fairfax","admin3":"25942"}],"alternateNames":[{"alternatenameId":2426133,"geonameid":4508770,"isoLanguage":"en","alternateName":"Cincinnati","isPreferredName":true,"isShortName":true,"isColloquial":false,"isHistoric":false},{"alternatenameId":2089549,"geonameid":5165418,"isoLanguage":"en","alternateName":"Ohio","isPreferredName":true,"isShortName":true,"isColloquial":false,"isHistoric":false}]},"__N_SSG":true}