{"pageProps":{"locale":"en","admin2":{"geonameid":5157338,"name":"Henry County","country":"US","admin1":"OH","admin2":"069","admin3":"","latitude":"41.3338900","longitude":"-84.0682300"},"admin1":{"geonameid":5165418,"name":"Ohio","admin1":"OH","localeAltName":"Ohio"},"locations":[{"geonameid":5152017,"name":"Deshler","admin3":"04052"},{"geonameid":5157742,"name":"Holgate","admin3":"63296"},{"geonameid":5160667,"name":"Liberty Center","admin3":"43176"},{"geonameid":5164057,"name":"Napoleon","admin3":"53564"}],"admin3":[{"geonameid":5146562,"name":"Township of Bartlow","admin3":"04052"},{"geonameid":5151671,"name":"Township of Damascus","admin3":"20016"},{"geonameid":5154677,"name":"Township of Flatrock","admin3":"27342"},{"geonameid":5155187,"name":"Township of Freedom","admin3":"28700"},{"geonameid":5156996,"name":"Township of Harrison","admin3":"33866"},{"geonameid":5160715,"name":"Township of Liberty","admin3":"43176"},{"geonameid":5161934,"name":"Township of Marion","admin3":"47726"},{"geonameid":5163336,"name":"Township of Monroe","admin3":"51408"},{"geonameid":5164061,"name":"Township of Napoleon","admin3":"53564"},{"geonameid":5167120,"name":"Township of Pleasant","admin3":"63296"},{"geonameid":5168033,"name":"Township of Richfield","admin3":"66502"},{"geonameid":5168145,"name":"Township of Ridgeville","admin3":"67062"},{"geonameid":5175810,"name":"Township of Washington","admin3":"81326"}],"alternateNames":[{"alternatenameId":2089549,"geonameid":5165418,"isoLanguage":"en","alternateName":"Ohio","isPreferredName":true,"isShortName":true,"isColloquial":false,"isHistoric":false}]},"__N_SSG":true}