{"pageProps":{"locale":"en","admin2":{"geonameid":5161640,"name":"Mahoning County","country":"US","admin1":"OH","admin2":"099","admin3":"","latitude":"41.0146400","longitude":"-80.7762900"},"admin1":{"geonameid":5165418,"name":"Ohio","admin1":"OH","localeAltName":"Ohio"},"locations":[{"geonameid":5146256,"name":"Austintown","admin3":"03198"},{"geonameid":5147784,"name":"Boardman","admin3":"07468"},{"geonameid":5149149,"name":"Campbell","admin3":"11066"},{"geonameid":5149205,"name":"Canfield","admin3":"11374"},{"geonameid":5151317,"name":"Craig Beach","admin3":"50638"},{"geonameid":5161382,"name":"Lowellville","admin3":"45178"},{"geonameid":5164371,"name":"New Middletown","admin3":"55118"},{"geonameid":5167196,"name":"Poland","admin3":"63968"},{"geonameid":5171555,"name":"Sebring","admin3":"71220"},{"geonameid":5173256,"name":"Struthers","admin3":"75126"},{"geonameid":5177568,"name":"Youngstown","admin3":"88000"}],"admin3":[{"geonameid":5146263,"name":"Township of Austintown","admin3":"03198"},{"geonameid":5146809,"name":"Township of Beaver","admin3":"04668"},{"geonameid":5147156,"name":"Township of Berlin","admin3":"05858"},{"geonameid":5147798,"name":"Township of Boardman","admin3":"07468"},{"geonameid":5149160,"name":"City of Campbell","admin3":"11066"},{"geonameid":5149214,"name":"Township of Canfield","admin3":"11374"},{"geonameid":5150713,"name":"Township of Coitsville","admin3":"16476"},{"geonameid":5153148,"name":"Township of Ellsworth","admin3":"25088"},{"geonameid":5156038,"name":"Township of Goshen","admin3":"31038"},{"geonameid":5156430,"name":"Township of Green","admin3":"31794"},{"geonameid":5159008,"name":"Township of Jackson","admin3":"37884"},{"geonameid":5163126,"name":"Township of Milton","admin3":"50638"},{"geonameid":5164372,"name":"Village of New Middletown","admin3":"55118"},{"geonameid":5167212,"name":"Township of Poland","admin3":"63968"},{"geonameid":5171562,"name":"Village of Sebring","admin3":"71220"},{"geonameid":5172309,"name":"Township of Smith","admin3":"72740"},{"geonameid":5172838,"name":"Township of Springfield","admin3":"74124"},{"geonameid":5173263,"name":"City of Struthers","admin3":"75126"},{"geonameid":5177578,"name":"City of Youngstown","admin3":"88000"},{"geonameid":7166868,"name":"Village of Lowellville","admin3":"45178"}],"alternateNames":[{"alternatenameId":2089549,"geonameid":5165418,"isoLanguage":"en","alternateName":"Ohio","isPreferredName":true,"isShortName":true,"isColloquial":false,"isHistoric":false}]},"__N_SSG":true}