{"pageProps":{"locale":"en","admin2":{"geonameid":4521245,"name":"Pike County","country":"US","admin1":"OH","admin2":"131","admin3":"","latitude":"39.0773700","longitude":"-83.0668500"},"admin1":{"geonameid":5165418,"name":"Ohio","admin1":"OH","localeAltName":"Ohio"},"locations":[{"geonameid":4521268,"name":"Piketon","admin3":"71171"},{"geonameid":4527760,"name":"Waverly","admin3":"61434"}],"admin3":[{"geonameid":4506007,"name":"Township of Beaver","admin3":"04710"},{"geonameid":4506228,"name":"Township of Benton","admin3":"05648"},{"geonameid":4507790,"name":"Township of Camp Creek","admin3":"11122"},{"geonameid":4515377,"name":"Township of Jackson","admin3":"37996"},{"geonameid":4517614,"name":"Township of Marion","admin3":"47824"},{"geonameid":4518297,"name":"Township of Mifflin","admin3":"50078"},{"geonameid":4519757,"name":"Township of Newton","admin3":"55622"},{"geonameid":4520993,"name":"Township of Pebble","admin3":"61392"},{"geonameid":4521010,"name":"Township of Pee Pee","admin3":"61434"},{"geonameid":4521125,"name":"Township of Perry","admin3":"62022"},{"geonameid":4524251,"name":"Township of Scioto","admin3":"70884"},{"geonameid":4524295,"name":"Township of Seal","admin3":"71171"},{"geonameid":4525869,"name":"Township of Sunfish","admin3":"75637"},{"geonameid":4526901,"name":"Township of Union","admin3":"78512"}],"alternateNames":[{"alternatenameId":2089549,"geonameid":5165418,"isoLanguage":"en","alternateName":"Ohio","isPreferredName":true,"isShortName":true,"isColloquial":false,"isHistoric":false}]},"__N_SSG":true}