{"pageProps":{"locale":"ro","admin2":{"geonameid":664721,"name":"Comuna Topraisar","country":"RO","admin1":"14","admin2":"63072","admin3":"","latitude":"44.0312600","longitude":"28.4884500","localeAltName":null},"admin1":{"geonameid":680962,"name":"Constanța","admin1":"14","localeAltName":"Constanța"},"locations":[{"geonameid":684737,"name":"Biruința","admin3":"","localeAltName":null},{"geonameid":672723,"name":"Movilița","admin3":"","localeAltName":null},{"geonameid":672641,"name":"Muratan","admin3":"","localeAltName":null},{"geonameid":672636,"name":"Muratanu Mare","admin3":"","localeAltName":null},{"geonameid":672635,"name":"Muratanu Mic","admin3":"","localeAltName":null},{"geonameid":669758,"name":"Potârnichea","admin3":"","localeAltName":null},{"geonameid":664722,"name":"Topraisar","admin3":"","localeAltName":null},{"geonameid":664138,"name":"Urlichioi","admin3":"","localeAltName":null}],"admin3":[],"alternateNames":[{"alternatenameId":402149,"geonameid":680962,"isoLanguage":"ro","alternateName":"Constanța","isPreferredName":true,"isShortName":true,"isColloquial":false,"isHistoric":false}]},"__N_SSG":true}