{"pageProps":{"locale":"en","admin2":{"geonameid":5688254,"name":"Burke County","country":"US","admin1":"ND","admin2":"013","admin3":"","latitude":"48.7910000","longitude":"-102.5182600"},"admin1":{"geonameid":5690763,"name":"North Dakota","admin1":"ND","localeAltName":"North Dakota"},"locations":[],"admin3":[{"geonameid":5687846,"name":"Township of Battleview","admin3":"05380"},{"geonameid":5688122,"name":"City of Bowbells","admin3":"08500"},{"geonameid":5688355,"name":"Township of Carter","admin3":"12500"},{"geonameid":5688477,"name":"Township of Clayton","admin3":"14300"},{"geonameid":5688487,"name":"Township of Cleary","admin3":"14500"},{"geonameid":5688527,"name":"City of Columbus","admin3":"15460"},{"geonameid":5688529,"name":"Township of Colville","admin3":"15500"},{"geonameid":5688663,"name":"Township of Dale","admin3":"17740"},{"geonameid":5688791,"name":"Township of Dimond","admin3":"19660"},{"geonameid":5689081,"name":"Township of Fay","admin3":"25940"},{"geonameid":5689131,"name":"City of Flaxton","admin3":"26700"},{"geonameid":5689145,"name":"Township of Foothills","admin3":"26940"},{"geonameid":5689177,"name":"Township of Forthun","admin3":"27460"},{"geonameid":5689237,"name":"Township of Garness","admin3":"29380"},{"geonameid":5689501,"name":"Township of Harmonious","admin3":"35540"},{"geonameid":5689915,"name":"Township of Kandiyohi","admin3":"41280"},{"geonameid":5689930,"name":"Township of Keller","admin3":"41660"},{"geonameid":5690080,"name":"Township of Lakeview","admin3":"44020"},{"geonameid":5690115,"name":"Township of Leaf Mountain","admin3":"45420"},{"geonameid":5690156,"name":"City of Lignite","admin3":"46540"},{"geonameid":5690320,"name":"Township of Lucy","admin3":"48420"},{"geonameid":5690529,"name":"Township of Minnesota","admin3":"53180"},{"geonameid":5690755,"name":"Unorganized Territory of North Burke","admin3":"57715"},{"geonameid":5690798,"name":"Township of North Star","admin3":"58140"},{"geonameid":5691107,"name":"City of Portal","admin3":"63740"},{"geonameid":5691116,"name":"City of Powers Lake","admin3":"64140"},{"geonameid":5691287,"name":"Township of Richland","admin3":"66580"},{"geonameid":5691388,"name":"Township of Roseland","admin3":"68340"},{"geonameid":5692083,"name":"Township of Short Creek","admin3":"72740"},{"geonameid":5692192,"name":"Township of Soo","admin3":"73900"},{"geonameid":5692564,"name":"Township of Thorson","admin3":"78780"},{"geonameid":5692727,"name":"Township of Vale","admin3":"81020"},{"geonameid":5692748,"name":"Township of Vanville","admin3":"81500"},{"geonameid":5692802,"name":"Township of Ward","admin3":"83420"},{"geonameid":7165531,"name":"Township of Bowbells","admin3":"08540"},{"geonameid":7165608,"name":"Township of Portal","admin3":"63780"}],"alternateNames":[{"alternatenameId":2080778,"geonameid":5690763,"isoLanguage":"en","alternateName":"North Dakota","isPreferredName":true,"isShortName":true,"isColloquial":false,"isHistoric":false}]},"__N_SSG":true}