{"pageProps":{"locale":"en","admin2":{"geonameid":5689621,"name":"Hettinger County","country":"US","admin1":"ND","admin2":"041","admin3":"","latitude":"46.4325300","longitude":"-102.4603600"},"admin1":{"geonameid":5690763,"name":"North Dakota","admin1":"ND","localeAltName":"North Dakota"},"locations":[],"admin3":[{"geonameid":5554471,"name":"Township of Tepee Butte","admin3":"78460"},{"geonameid":5687645,"name":"Township of Acme","admin3":"00220"},{"geonameid":5687766,"name":"Township of Ashby","admin3":"03460"},{"geonameid":5687803,"name":"Township of Baer","admin3":"04220"},{"geonameid":5687894,"name":"Township of Beery","admin3":"05680"},{"geonameid":5688035,"name":"Township of Black Butte","admin3":"07380"},{"geonameid":5688174,"name":"Township of Brittian","admin3":"09580"},{"geonameid":5688327,"name":"Township of Campbell","admin3":"11820"},{"geonameid":5688333,"name":"Township of Cannon Ball","admin3":"11980"},{"geonameid":5688365,"name":"Township of Castle Rock","admin3":"12780"},{"geonameid":5688451,"name":"Township of Chilton","admin3":"13980"},{"geonameid":5688468,"name":"Township of Clark","admin3":"14220"},{"geonameid":5689088,"name":"Township of Farina","admin3":"25780"},{"geonameid":5689521,"name":"Township of Havelock","admin3":"36220"},{"geonameid":5689647,"name":"Township of Highland","admin3":"37940"},{"geonameid":5689940,"name":"Township of Kennedy","admin3":"42100"},{"geonameid":5689944,"name":"Township of Kern","admin3":"42420"},{"geonameid":5690017,"name":"Township of Kunze","admin3":"43620"},{"geonameid":5690349,"name":"Township of Madison","admin3":"49660"},{"geonameid":5690505,"name":"Township of Merrill","admin3":"52540"},{"geonameid":5690597,"name":"City of Mott","admin3":"54620"},{"geonameid":5690695,"name":"City of New England","admin3":"56180"},{"geonameid":5690696,"name":"Township of New England","admin3":"56220"},{"geonameid":5690858,"name":"Township of Odessa","admin3":"59100"},{"geonameid":5691254,"name":"City of Regent","admin3":"66020"},{"geonameid":5691295,"name":"Township of Rifle","admin3":"66740"},{"geonameid":5691496,"name":"Township of Saint Croix","admin3":"69820"},{"geonameid":5692190,"name":"Township of Solon","admin3":"73860"},{"geonameid":5692357,"name":"Township of Steiner","admin3":"75860"},{"geonameid":5692435,"name":"Township of Strehlow","admin3":"76740"},{"geonameid":5692779,"name":"Township of Wagendorf","admin3":"82620"},{"geonameid":5692782,"name":"Township of Walker","admin3":"83060"},{"geonameid":7165593,"name":"Township of Mott","admin3":"54660"},{"geonameid":7274869,"name":"Unorganized Territory of Central Hettinger","admin3":"13282"}],"alternateNames":[{"alternatenameId":2080778,"geonameid":5690763,"isoLanguage":"en","alternateName":"North Dakota","isPreferredName":true,"isShortName":true,"isColloquial":false,"isHistoric":false}]},"__N_SSG":true}