{"pageProps":{"locale":"en","admin2":{"geonameid":5059961,"name":"Kidder County","country":"US","admin1":"ND","admin2":"043","admin3":"","latitude":"46.9801400","longitude":"-99.7800900"},"admin1":{"geonameid":5690763,"name":"North Dakota","admin1":"ND","localeAltName":"North Dakota"},"locations":[],"admin3":[{"geonameid":5058065,"name":"Township of Allen","admin3":"01580"},{"geonameid":5058149,"name":"Township of Atwood","admin3":"03700"},{"geonameid":5058458,"name":"Township of Buckeye","admin3":"10180"},{"geonameid":5058478,"name":"Township of Bunker","admin3":"10740"},{"geonameid":5058643,"name":"Township of Clear Lake","admin3":"14420"},{"geonameid":5058796,"name":"Township of Crystal Springs","admin3":"17220"},{"geonameid":5058833,"name":"City of Dawson","admin3":"18260"},{"geonameid":5059141,"name":"Township of Excelsior","admin3":"25100"},{"geonameid":5059282,"name":"Township of Frettim","admin3":"28620"},{"geonameid":5059418,"name":"Township of Graf","admin3":"31780"},{"geonameid":5059599,"name":"Township of Haynes","admin3":"36580"},{"geonameid":5060044,"name":"Township of Lake Williams","admin3":"44180"},{"geonameid":5060285,"name":"Township of Manning","admin3":"50260"},{"geonameid":5060412,"name":"Township of Merkel","admin3":"52420"},{"geonameid":5060875,"name":"Township of Peace","admin3":"61220"},{"geonameid":5060926,"name":"Township of Petersville","admin3":"61980"},{"geonameid":5060930,"name":"City of Pettibone","admin3":"62060"},{"geonameid":5061057,"name":"Township of Quinby","admin3":"64940"},{"geonameid":5061103,"name":"Township of Rexine","admin3":"66220"},{"geonameid":5061137,"name":"Township of Robinson","admin3":"67220"},{"geonameid":5061149,"name":"City of Robinson","admin3":"67180"},{"geonameid":5061899,"name":"Township of Sibley","admin3":"72860"},{"geonameid":5061967,"name":"Unorganized Territory of Liberty","admin3":"46320"},{"geonameid":5062039,"name":"City of Steele","admin3":"75780"},{"geonameid":5062048,"name":"Township of Stewart","admin3":"76060"},{"geonameid":5062153,"name":"Township of Tanner","admin3":"77940"},{"geonameid":5062156,"name":"City of Tappen","admin3":"77980"},{"geonameid":5062241,"name":"City of Tuttle","admin3":"80140"},{"geonameid":5062306,"name":"Township of Valley","admin3":"81140"},{"geonameid":5062320,"name":"Township of Vernon","admin3":"81820"},{"geonameid":5062377,"name":"Township of Wallace","admin3":"83100"},{"geonameid":5062437,"name":"Township of Weiser","admin3":"84260"},{"geonameid":5062483,"name":"Township of Westford","admin3":"84980"},{"geonameid":5062525,"name":"Township of Williams","admin3":"86100"},{"geonameid":5062580,"name":"Township of Woodlawn","admin3":"87460"},{"geonameid":5687804,"name":"Township of Baker","admin3":"04300"},{"geonameid":5688441,"name":"Township of Chestina","admin3":"13900"},{"geonameid":5688621,"name":"Township of Crown Hill","admin3":"17020"},{"geonameid":5690816,"name":"Township of Northwest","admin3":"58260"},{"geonameid":5691061,"name":"Township of Pleasant Hill","admin3":"63140"},{"geonameid":5692663,"name":"Township of Tuttle","admin3":"80180"},{"geonameid":7165605,"name":"Township of Pettibone","admin3":"62100"},{"geonameid":7165633,"name":"Township of Tappen","admin3":"78020"}],"alternateNames":[{"alternatenameId":2080778,"geonameid":5690763,"isoLanguage":"en","alternateName":"North Dakota","isPreferredName":true,"isShortName":true,"isColloquial":false,"isHistoric":false}]},"__N_SSG":true}