{"pageProps":{"locale":"en","admin2":{"geonameid":5690448,"name":"McLean County","country":"US","admin1":"ND","admin2":"055","admin3":"","latitude":"47.6069600","longitude":"-101.3218300"},"admin1":{"geonameid":5690763,"name":"North Dakota","admin1":"ND","localeAltName":"North Dakota"},"locations":[{"geonameid":5689239,"name":"Garrison","admin3":"29460"},{"geonameid":5692806,"name":"Washburn","admin3":"83700"}],"admin3":[{"geonameid":5687701,"name":"Township of Amundsville","admin3":"02180"},{"geonameid":5687713,"name":"Township of Andrews","admin3":"02340"},{"geonameid":5687778,"name":"Township of Aurena","admin3":"03820"},{"geonameid":5687913,"name":"City of Benedict","admin3":"05980"},{"geonameid":5688057,"name":"Township of Blackwater","admin3":"07500"},{"geonameid":5688075,"name":"Township of Blue Hill","admin3":"08060"},{"geonameid":5688284,"name":"City of Butte","admin3":"11180"},{"geonameid":5688289,"name":"Township of Byersville","admin3":"11420"},{"geonameid":5688517,"name":"City of Coleharbor","admin3":"15140"},{"geonameid":5688595,"name":"Township of Cremerville","admin3":"16700"},{"geonameid":5688734,"name":"Township of Deepwater","admin3":"18580"},{"geonameid":5688802,"name":"Township of Dogden","admin3":"19860"},{"geonameid":5688819,"name":"Township of Douglas","admin3":"19980"},{"geonameid":5688912,"name":"Unorganized Territory of East McLean","admin3":"21690"},{"geonameid":5689245,"name":"City of Garrison","admin3":"29460"},{"geonameid":5689304,"name":"Township of Gate","admin3":"29660"},{"geonameid":5689396,"name":"Township of Greatstone","admin3":"32940"},{"geonameid":5689734,"name":"Township of Horseshoe Valley","admin3":"38940"},{"geonameid":5690073,"name":"Township of Lake Williams","admin3":"44220"},{"geonameid":5690289,"name":"Township of Longfellow","admin3":"47820"},{"geonameid":5690296,"name":"Township of Loquemont","admin3":"47940"},{"geonameid":5690358,"name":"Township of Malcolm","admin3":"49860"},{"geonameid":5690410,"name":"City of Max","admin3":"51380"},{"geonameid":5690431,"name":"Township of McGinnis","admin3":"49180"},{"geonameid":5690461,"name":"Township of Medicine Hill","admin3":"51820"},{"geonameid":5690490,"name":"City of Mercer","admin3":"52340"},{"geonameid":5690758,"name":"Unorganized Territory of North Central McLean","admin3":"57720"},{"geonameid":5690901,"name":"Township of Otis","admin3":"60260"},{"geonameid":5691306,"name":"City of Riverdale","admin3":"66980"},{"geonameid":5691384,"name":"Township of Roseglen","admin3":"68260"},{"geonameid":5691390,"name":"Township of Rosemont","admin3":"68420"},{"geonameid":5691442,"name":"City of Ruso","admin3":"69140"},{"geonameid":5691565,"name":"Township of Saint Mary","admin3":"70060"},{"geonameid":5692179,"name":"Township of Snow","admin3":"73780"},{"geonameid":5692222,"name":"Unorganized Territory of South McLean","admin3":"74200"},{"geonameid":5692657,"name":"City of Turtle Lake","admin3":"79940"},{"geonameid":5692696,"name":"City of Underwood","admin3":"80660"},{"geonameid":5692697,"name":"Unorganized Territory of Underwood","admin3":"80670"},{"geonameid":5692758,"name":"Township of Victoria","admin3":"82060"},{"geonameid":5692808,"name":"City of Washburn","admin3":"83700"},{"geonameid":5692895,"name":"Unorganized Territory of West McLean","admin3":"85070"},{"geonameid":5692976,"name":"City of Wilton","admin3":"86580"},{"geonameid":5692997,"name":"Township of Wise","admin3":"86940"},{"geonameid":7165592,"name":"Township of Mercer","admin3":"52380"},{"geonameid":7165635,"name":"Township of Turtle Lake","admin3":"79980"},{"geonameid":7172162,"name":"Township of Butte","admin3":"11220"},{"geonameid":7274882,"name":"Unorganized Territory of Fort Berthold","admin3":"27334"}],"alternateNames":[{"alternatenameId":2080778,"geonameid":5690763,"isoLanguage":"en","alternateName":"North Dakota","isPreferredName":true,"isShortName":true,"isColloquial":false,"isHistoric":false}]},"__N_SSG":true}