{"pageProps":{"locale":"en","admin2":{"geonameid":5690614,"name":"Mountrail County","country":"US","admin1":"ND","admin2":"061","admin3":"","latitude":"48.2013300","longitude":"-102.3556500"},"admin1":{"geonameid":5690763,"name":"North Dakota","admin1":"ND","localeAltName":"North Dakota"},"locations":[{"geonameid":5690711,"name":"New Town","admin3":"56740"},{"geonameid":5690958,"name":"Parshall","admin3":"60940"},{"geonameid":5692337,"name":"Stanley","admin3":"75380"}],"admin3":[{"geonameid":5687668,"name":"Township of Alger","admin3":"01380"},{"geonameid":5687780,"name":"Township of Austin","admin3":"03900"},{"geonameid":5687823,"name":"Township of Banner","admin3":"04700"},{"geonameid":5687997,"name":"Township of Bicker","admin3":"06700"},{"geonameid":5687999,"name":"Township of Big Bend","admin3":"06800"},{"geonameid":5688179,"name":"Township of Brookbank","admin3":"09780"},{"geonameid":5688255,"name":"Township of Burke","admin3":"10860"},{"geonameid":5688486,"name":"Township of Clearwater","admin3":"14460"},{"geonameid":5688574,"name":"Township of Cottonwood","admin3":"16220"},{"geonameid":5688588,"name":"Township of Crane Creek","admin3":"16540"},{"geonameid":5688614,"name":"Township of Crowfoot","admin3":"16980"},{"geonameid":5688717,"name":"Township of Debing","admin3":"18460"},{"geonameid":5688943,"name":"Township of Egan","admin3":"22500"},{"geonameid":5689086,"name":"Township of Fertile","admin3":"26060"},{"geonameid":5689724,"name":"Township of Howie","admin3":"39180"},{"geonameid":5689745,"name":"Township of Idaho","admin3":"39740"},{"geonameid":5689809,"name":"Township of James Hill","admin3":"40500"},{"geonameid":5689948,"name":"Township of Kickapoo","admin3":"42620"},{"geonameid":5689988,"name":"Township of Knife River","admin3":"43220"},{"geonameid":5690148,"name":"Township of Liberty","admin3":"46340"},{"geonameid":5690312,"name":"Township of Lostwood","admin3":"48220"},{"geonameid":5690317,"name":"Township of Lowland","admin3":"48340"},{"geonameid":5690378,"name":"Township of Manitou","admin3":"50180"},{"geonameid":5690417,"name":"Township of McAlmond","admin3":"48860"},{"geonameid":5690430,"name":"Township of McGahan","admin3":"49140"},{"geonameid":5690550,"name":"Township of Model","admin3":"53700"},{"geonameid":5690615,"name":"Township of Mountrail","admin3":"54860"},{"geonameid":5690651,"name":"Township of Myrtle","admin3":"55300"},{"geonameid":5690714,"name":"City of New Town","admin3":"56740"},{"geonameid":5690854,"name":"Township of Oakland","admin3":"58820"},{"geonameid":5690896,"name":"Township of Osborn","admin3":"59940"},{"geonameid":5690898,"name":"Township of Osloe","admin3":"60060"},{"geonameid":5690944,"name":"City of Palermo","admin3":"60620"},{"geonameid":5690945,"name":"Township of Palermo","admin3":"60660"},{"geonameid":5690960,"name":"City of Parshall","admin3":"60940"},{"geonameid":5690961,"name":"Township of Parshall","admin3":"60980"},{"geonameid":5691058,"name":"City of Plaza","admin3":"62980"},{"geonameid":5691059,"name":"Township of Plaza","admin3":"63020"},{"geonameid":5691117,"name":"Township of Powers Lake","admin3":"64180"},{"geonameid":5691118,"name":"Township of Powers","admin3":"64100"},{"geonameid":5691148,"name":"Township of Purcell","admin3":"64900"},{"geonameid":5691198,"name":"Township of Rat Lake","admin3":"65420"},{"geonameid":5691236,"name":"Township of Redmond","admin3":"65740"},{"geonameid":5691402,"name":"City of Ross","admin3":"68540"},{"geonameid":5691403,"name":"Township of Ross","admin3":"68580"},{"geonameid":5692063,"name":"Township of Shell","admin3":"72220"},{"geonameid":5692092,"name":"Township of Sidonia","admin3":"73020"},{"geonameid":5692097,"name":"Township of Sikes","admin3":"73060"},{"geonameid":5692195,"name":"Township of Sorkness","admin3":"73980"},{"geonameid":5692239,"name":"Unorganized Territory of Southwest Mountrail","admin3":"74515"},{"geonameid":5692265,"name":"Township of Spring Coulee","admin3":"74860"},{"geonameid":5692341,"name":"City of Stanley","admin3":"75380"},{"geonameid":5692350,"name":"Township of Stave","admin3":"75740"},{"geonameid":5692737,"name":"Township of Van Hook","admin3":"81420"},{"geonameid":5692819,"name":"Township of Wayzetta","admin3":"84020"},{"geonameid":5692848,"name":"Unorganized Territory of West Mountrail","admin3":"85085"},{"geonameid":5692899,"name":"Township of White Earth","admin3":"85580"},{"geonameid":5692918,"name":"City of White Earth","admin3":"85540"}],"alternateNames":[{"alternatenameId":2080778,"geonameid":5690763,"isoLanguage":"en","alternateName":"North Dakota","isPreferredName":true,"isShortName":true,"isColloquial":false,"isHistoric":false}]},"__N_SSG":true}