{"pageProps":{"locale":"en","admin2":{"geonameid":4974522,"name":"Oxford County","country":"US","admin1":"ME","admin2":"017","admin3":"","latitude":"44.4997700","longitude":"-70.7565700"},"admin1":{"geonameid":4971068,"name":"Maine","admin1":"ME"},"locations":[{"geonameid":4956740,"name":"Andover","admin3":"01325"},{"geonameid":4958084,"name":"Bethel","admin3":"04825"},{"geonameid":4959433,"name":"Brownfield","admin3":"08150"},{"geonameid":4959521,"name":"Buckfield","admin3":"08710"},{"geonameid":4960064,"name":"Canton","admin3":"10005"},{"geonameid":4962442,"name":"Denmark","admin3":"17250"},{"geonameid":4962589,"name":"Dixfield","admin3":"17740"},{"geonameid":4964996,"name":"Fryeburg","admin3":"26910"},{"geonameid":4965991,"name":"Greenwood","admin3":"29710"},{"geonameid":4966616,"name":"Hartford","admin3":"31670"},{"geonameid":4966883,"name":"Hebron","admin3":"32370"},{"geonameid":4967237,"name":"Hiram","admin3":"33315"},{"geonameid":4970644,"name":"Lovell","admin3":"41365"},{"geonameid":4971871,"name":"Mexico","admin3":"45285"},{"geonameid":4973840,"name":"Norway","admin3":"54000"},{"geonameid":4974537,"name":"Oxford","admin3":"56310"},{"geonameid":4974617,"name":"Paris","admin3":"56625"},{"geonameid":4975080,"name":"Peru","admin3":"58270"},{"geonameid":4975783,"name":"Porter","admin3":"60405"},{"geonameid":4977125,"name":"Rumford","admin3":"64290"},{"geonameid":4979220,"name":"South Paris","admin3":"56625"},{"geonameid":4980182,"name":"Sumner","admin3":"75035"},{"geonameid":4982671,"name":"West Paris","admin3":"83890"},{"geonameid":9180038,"name":"Woodstock","admin3":"87355"}],"admin3":[{"geonameid":4956746,"name":"Town of Andover","admin3":"01325"},{"geonameid":4958093,"name":"Town of Bethel","admin3":"04825"},{"geonameid":4959436,"name":"Town of Brownfield","admin3":"08150"},{"geonameid":4959525,"name":"Town of Buckfield","admin3":"08710"},{"geonameid":4959814,"name":"Town of Byron","admin3":"09550"},{"geonameid":4960070,"name":"Town of Canton","admin3":"10005"},{"geonameid":4962440,"name":"Town of Denmark","admin3":"17250"},{"geonameid":4962594,"name":"Town of Dixfield","admin3":"17740"},{"geonameid":4965004,"name":"Town of Fryeburg","admin3":"26910"},{"geonameid":4965218,"name":"Town of Gilead","admin3":"27505"},{"geonameid":4965989,"name":"Town of Greenwood","admin3":"29710"},{"geonameid":4966423,"name":"Town of Hanover","admin3":"31110"},{"geonameid":4966621,"name":"Town of Hartford","admin3":"31670"},{"geonameid":4966891,"name":"Town of Hebron","admin3":"32370"},{"geonameid":4967240,"name":"Town of Hiram","admin3":"33315"},{"geonameid":4969602,"name":"Plantation of Lincoln","admin3":"39422"},{"geonameid":4970642,"name":"Town of Lovell","admin3":"41365"},{"geonameid":4970972,"name":"Plantation of Magalloway","admin3":"42835"},{"geonameid":4971875,"name":"Town of Mexico","admin3":"45285"},{"geonameid":4973344,"name":"Town of Newry","admin3":"49275"},{"geonameid":4973629,"name":"Unorganized Territory of North Oxford","admin3":"52575"},{"geonameid":4973863,"name":"Town of Norway","admin3":"54000"},{"geonameid":4974361,"name":"Town of Otisfield","admin3":"55960"},{"geonameid":4974534,"name":"Town of Oxford","admin3":"56310"},{"geonameid":4974624,"name":"Town of Paris","admin3":"56625"},{"geonameid":4975082,"name":"Town of Peru","admin3":"58270"},{"geonameid":4975797,"name":"Town of Porter","admin3":"60405"},{"geonameid":4977091,"name":"Town of Roxbury","admin3":"64185"},{"geonameid":4977135,"name":"Town of Rumford","admin3":"64290"},{"geonameid":4979219,"name":"Unorganized Territory of South Oxford","admin3":"71755"},{"geonameid":4979967,"name":"Town of Stoneham","admin3":"74510"},{"geonameid":4980025,"name":"Town of Stow","admin3":"74685"},{"geonameid":4980187,"name":"Town of Sumner","admin3":"75035"},{"geonameid":4980298,"name":"Town of Sweden","admin3":"75595"},{"geonameid":4981688,"name":"Town of Upton","admin3":"78465"},{"geonameid":4982225,"name":"Town of Waterford","admin3":"80635"},{"geonameid":4982675,"name":"Town of West Paris","admin3":"83890"},{"geonameid":4983495,"name":"Town of Woodstock","admin3":"87355"}],"alternateNames":[]},"__N_SSG":true}