{"pageProps":{"locale":"en","admin2":{"geonameid":4978972,"name":"Somerset County","country":"US","admin1":"ME","admin2":"025","admin3":"","latitude":"45.5138500","longitude":"-69.9588200"},"admin1":{"geonameid":4971068,"name":"Maine","admin1":"ME"},"locations":[{"geonameid":4956792,"name":"Anson","admin3":"01395"},{"geonameid":4956946,"name":"Athens","admin3":"01885"},{"geonameid":4958327,"name":"Bingham","admin3":"05000"},{"geonameid":4959902,"name":"Cambridge","admin3":"09655"},{"geonameid":4960036,"name":"Canaan","admin3":"09935"},{"geonameid":4961518,"name":"Cornville","admin3":"14555"},{"geonameid":4962481,"name":"Detroit","admin3":"17460"},{"geonameid":4963749,"name":"Embden","admin3":"23410"},{"geonameid":4963932,"name":"Fairfield","admin3":"24320"},{"geonameid":4966539,"name":"Harmony","admin3":"31355"},{"geonameid":4966624,"name":"Hartland","admin3":"31740"},{"geonameid":4968168,"name":"Jackman","admin3":"35345"},{"geonameid":4970954,"name":"Madison","admin3":"42660"},{"geonameid":4971771,"name":"Mercer","admin3":"45110"},{"geonameid":4972660,"name":"Moscow","admin3":"47455"},{"geonameid":4973282,"name":"New Portland","admin3":"49205"},{"geonameid":4973430,"name":"Norridgewock","admin3":"49835"},{"geonameid":4974597,"name":"Palmyra","admin3":"56520"},{"geonameid":4975446,"name":"Pittsfield","admin3":"59005"},{"geonameid":4977288,"name":"Saint Albans","admin3":"64850"},{"geonameid":4978701,"name":"Skowhegan","admin3":"68910"},{"geonameid":4978861,"name":"Smithfield","admin3":"69155"},{"geonameid":4978963,"name":"Solon","admin3":"69505"},{"geonameid":4979778,"name":"Starks","admin3":"73845"}],"admin3":[{"geonameid":4956795,"name":"Town of Anson","admin3":"01395"},{"geonameid":4956950,"name":"Town of Athens","admin3":"01885"},{"geonameid":4958329,"name":"Town of Bingham","admin3":"05000"},{"geonameid":4959300,"name":"Plantation of Brighton","admin3":"07380"},{"geonameid":4959907,"name":"Town of Cambridge","admin3":"09655"},{"geonameid":4960043,"name":"Town of Canaan","admin3":"09935"},{"geonameid":4960124,"name":"Town of Caratunk","admin3":"10495"},{"geonameid":4960559,"name":"Unorganized Territory of Central Somerset","admin3":"11820"},{"geonameid":4962455,"name":"Plantation of Dennistown","admin3":"17285"},{"geonameid":4962482,"name":"Town of Detroit","admin3":"17460"},{"geonameid":4963753,"name":"Town of Embden","admin3":"23410"},{"geonameid":4963942,"name":"Town of Fairfield","admin3":"24320"},{"geonameid":4966544,"name":"Town of Harmony","admin3":"31355"},{"geonameid":4966630,"name":"Town of Hartland","admin3":"31740"},{"geonameid":4967139,"name":"Plantation of Highland","admin3":"32895"},{"geonameid":4968173,"name":"Town of Jackman","admin3":"35345"},{"geonameid":4970961,"name":"Town of Madison","admin3":"42660"},{"geonameid":4971775,"name":"Town of Mercer","admin3":"45110"},{"geonameid":4972552,"name":"Town of Moose River","admin3":"47140"},{"geonameid":4972662,"name":"Town of Moscow","admin3":"47455"},{"geonameid":4973285,"name":"Town of New Portland","admin3":"49205"},{"geonameid":4973432,"name":"Town of Norridgewock","admin3":"49835"},{"geonameid":4973760,"name":"Unorganized Territory of Northeast Somerset","admin3":"51114"},{"geonameid":4973813,"name":"Unorganized Territory of Northwest Somerset","admin3":"53636"},{"geonameid":4974600,"name":"Town of Palmyra","admin3":"56520"},{"geonameid":4975450,"name":"Town of Pittsfield","admin3":"59005"},{"geonameid":4975533,"name":"Plantation of Pleasant Ridge","admin3":"59705"},{"geonameid":4976611,"name":"Town of Ripley","admin3":"62995"},{"geonameid":4977294,"name":"Town of Saint Albans","admin3":"64850"},{"geonameid":4978183,"name":"Unorganized Territory of Seboomook Lake","admin3":"67238"},{"geonameid":4978712,"name":"Town of Skowhegan","admin3":"68910"},{"geonameid":4978863,"name":"Town of Smithfield","admin3":"69155"},{"geonameid":4978966,"name":"Town of Solon","admin3":"69505"},{"geonameid":4979781,"name":"Town of Starks","admin3":"73845"},{"geonameid":4980529,"name":"Plantation of The Forks","admin3":"76190"},{"geonameid":4982631,"name":"Plantation of West Forks","admin3":"82840"},{"geonameid":5281059,"name":"Town of Cornville","admin3":"14555"}],"alternateNames":[]},"__N_SSG":true}