{"pageProps":{"locale":"en","admin2":{"geonameid":5883638,"name":"Algoma","country":"CA","admin1":"08","admin2":"3557","admin3":"","latitude":"47.8836400","longitude":"-84.4240600"},"admin1":{"geonameid":6093943,"name":"Ontario","admin1":"08"},"locations":[{"geonameid":5883640,"name":"Algoma Mills","admin3":"3557040"},{"geonameid":5886094,"name":"Ansonia","admin3":"3557035"},{"geonameid":11186271,"name":"Bar River","admin3":"3557011"},{"geonameid":5894257,"name":"Bar River","admin3":"3557051"},{"geonameid":5895464,"name":"Bayview","admin3":""},{"geonameid":5909233,"name":"Broadview Gardens","admin3":""},{"geonameid":5909466,"name":"Brookfield","admin3":""},{"geonameid":5910662,"name":"Buckley","admin3":""},{"geonameid":5917761,"name":"Carterton","admin3":"3557001"},{"geonameid":5924149,"name":"Cloudslee","admin3":"3557019"},{"geonameid":5932104,"name":"Cree","admin3":"3557096"},{"geonameid":5935899,"name":"Day Mills","admin3":"3557035"},{"geonameid":5935925,"name":"Dayton","admin3":"3557035"},{"geonameid":5936245,"name":"Dean Lake","admin3":"3557035"},{"geonameid":6944118,"name":"Dubreuilville","admin3":"3557079"},{"geonameid":5946385,"name":"Echo Bay","admin3":"3557051"},{"geonameid":5946464,"name":"Echo River","admin3":"3557051"},{"geonameid":5963470,"name":"Gordon Lake","admin3":"3557016"},{"geonameid":5967354,"name":"Gros Cap","admin3":"3557066"},{"geonameid":5971072,"name":"Harmony","admin3":"3557008"},{"geonameid":5977046,"name":"Hornepayne","admin3":"3557096"},{"geonameid":9947746,"name":"Iron Bridge","admin3":"3557035"},{"geonameid":5991147,"name":"Kentvale","admin3":"3557008"},{"geonameid":6048195,"name":"Laird","admin3":"3557011"},{"geonameid":6057056,"name":"Little Rapids","admin3":"3557035"},{"geonameid":6057882,"name":"Livingstone Creek","admin3":"3557035"},{"geonameid":6063538,"name":"MacLennan","admin3":"3557014"},{"geonameid":6073659,"name":"Milford Haven","admin3":"3557004"},{"geonameid":6095415,"name":"Outlook","admin3":"3557001"},{"geonameid":6106467,"name":"Plummer","admin3":"3557019"},{"geonameid":6107147,"name":"Pointe aux Pins","admin3":""},{"geonameid":6108069,"name":"Pointe Louise","admin3":""},{"geonameid":6111849,"name":"Port Findlay","admin3":"3557014"},{"geonameid":6111932,"name":"Portlock","admin3":"3557016"},{"geonameid":6121946,"name":"Richards Landing","admin3":"3557008"},{"geonameid":6136876,"name":"Rydal Bank","admin3":"3557019"},{"geonameid":6137309,"name":"Sailors Encampment","admin3":"3557008"},{"geonameid":6141438,"name":"Sault Ship Canal","admin3":""},{"geonameid":6141439,"name":"Sault Ste. Marie","admin3":""},{"geonameid":6146255,"name":"Sherwood","admin3":"3557035"},{"geonameid":6153045,"name":"Sowerby","admin3":"3557035"},{"geonameid":6155967,"name":"Steelton","admin3":""},{"geonameid":6160816,"name":"Sylvan Valley","admin3":"3557051"},{"geonameid":6162730,"name":"Tenby Bay","admin3":"3557001"},{"geonameid":6177178,"name":"Wawa","admin3":""},{"geonameid":6696813,"name":"White River","admin3":"3557091"}],"admin3":[{"geonameid":5943058,"name":"Dubreuilville","admin3":"3557079"},{"geonameid":5975401,"name":"Hilton","admin3":"3557004"},{"geonameid":5977045,"name":"Hornepayne","admin3":"3557096"},{"geonameid":5978843,"name":"Huron Shores","admin3":"3557035"},{"geonameid":5986802,"name":"Jocelyn","admin3":"3557001"},{"geonameid":5987288,"name":"Johnson","admin3":"3557016"},{"geonameid":6048196,"name":"Laird","admin3":"3557011"},{"geonameid":6062744,"name":"Macdonald, Meredith and Aberdeen Additional","admin3":"3557051"},{"geonameid":6106469,"name":"Plummer Additional","admin3":"3557019"},{"geonameid":6113331,"name":"Prince","admin3":"3557066"},{"geonameid":6156928,"name":"St. Joseph","admin3":"3557008"},{"geonameid":6161654,"name":"Tarbutt and Tarbutt Additional","admin3":"3557014"},{"geonameid":6164415,"name":"The North Shore","admin3":"3557040"},{"geonameid":6180918,"name":"White River","admin3":"3557091"}],"alternateNames":[]},"__N_SSG":true}