{"pageProps":{"locale":"en","admin2":{"geonameid":5943542,"name":"Dufferin County","country":"CA","admin1":"08","admin2":"3522","admin3":"","latitude":"44.0834000","longitude":"-80.2496800"},"admin1":{"geonameid":6093943,"name":"Ontario","admin1":"08"},"locations":[{"geonameid":5884343,"name":"Amaranth Station","admin3":"3522008"},{"geonameid":5892519,"name":"Banda","admin3":"3522016"},{"geonameid":5902149,"name":"Black Bank","admin3":"3522016"},{"geonameid":5903315,"name":"Blacks Corners","admin3":"3522008"},{"geonameid":5906799,"name":"Bowling Green","admin3":"3522008"},{"geonameid":5913964,"name":"Campania","admin3":"3522008"},{"geonameid":5924959,"name":"Colbeck","admin3":"3522010"},{"geonameid":5926894,"name":"Conover","admin3":"3522019"},{"geonameid":5927750,"name":"Corbetton","admin3":"3522019"},{"geonameid":5931557,"name":"Craigsholme","admin3":"3522001"},{"geonameid":5932782,"name":"Crombies","admin3":"3522008"},{"geonameid":5944993,"name":"Earnscliffe","admin3":"3522016"},{"geonameid":5951619,"name":"Farmington","admin3":"3522008"},{"geonameid":5957674,"name":"Fraxa Junction","admin3":"3522008"},{"geonameid":5959429,"name":"Garafraxa Woods","admin3":"3522001"},{"geonameid":5964707,"name":"Grand Valley","admin3":"3522010"},{"geonameid":5974145,"name":"Hereward","admin3":"3522001"},{"geonameid":5976557,"name":"Honeywood","admin3":"3522016"},{"geonameid":5977103,"name":"Horning's Mills","admin3":"3522019"},{"geonameid":5986464,"name":"Jessopville","admin3":"3522019"},{"geonameid":5990371,"name":"Keldon","admin3":"3522010"},{"geonameid":5991857,"name":"Kilgorie","admin3":"3522016"},{"geonameid":6050506,"name":"Laurel","admin3":"3522008"},{"geonameid":6051829,"name":"Leggatt","admin3":"3522010"},{"geonameid":6065440,"name":"Mansfield","admin3":"3522016"},{"geonameid":8556285,"name":"Mansfield","admin3":"3522016"},{"geonameid":6065605,"name":"Maple Grove","admin3":"3522008"},{"geonameid":6066973,"name":"Marsville","admin3":"3522001"},{"geonameid":6071823,"name":"Melancthon","admin3":"3522019"},{"geonameid":6077065,"name":"Monticello","admin3":"3522010"},{"geonameid":6094454,"name":"Orton","admin3":"3522001"},{"geonameid":6100498,"name":"Peepabun","admin3":"3522010"},{"geonameid":6101387,"name":"Perm","admin3":"3522016"},{"geonameid":6113243,"name":"Prices Corner","admin3":"3522001"},{"geonameid":6116453,"name":"Randwick","admin3":"3522016"},{"geonameid":6117783,"name":"Reading","admin3":"3522001"},{"geonameid":6118361,"name":"Redickville","admin3":"3522019"},{"geonameid":6136557,"name":"Ruskview","admin3":"3522016"},{"geonameid":6147164,"name":"Shrigley","admin3":"3522019"},{"geonameid":6154304,"name":"Springwater Lakes","admin3":"3522016"},{"geonameid":6155314,"name":"Stanton","admin3":"3522016"},{"geonameid":6161646,"name":"Tarbert","admin3":"3522010"},{"geonameid":6162978,"name":"Terra Nova","admin3":"3522016"},{"geonameid":6164205,"name":"The Maples","admin3":"3522001"},{"geonameid":6175182,"name":"Waldemar","admin3":"3522008"},{"geonameid":6178184,"name":"Wesley","admin3":"3522010"},{"geonameid":6181224,"name":"Whitfield","admin3":"3522016"},{"geonameid":6181332,"name":"Whittington","admin3":"3522008"}],"admin3":[{"geonameid":5884341,"name":"Amaranth","admin3":"3522008"},{"geonameid":5945684,"name":"East Garafraxa","admin3":"3522001"},{"geonameid":5945843,"name":"Grand Valley","admin3":"3522010"},{"geonameid":6071824,"name":"Melancthon","admin3":"3522019"},{"geonameid":6084118,"name":"Mulmur","admin3":"3522016"}],"alternateNames":[]},"__N_SSG":true}