{"pageProps":{"locale":"en","admin2":{"geonameid":5969392,"name":"Haliburton County","country":"CA","admin1":"08","admin2":"3546","admin3":"","latitude":"45.1668200","longitude":"-78.4995500"},"admin1":{"geonameid":6093943,"name":"Ontario","admin1":"08"},"locations":[{"geonameid":5884066,"name":"Allsaw","admin3":"3546015"},{"geonameid":5903522,"name":"Blairhampton","admin3":"3546015"},{"geonameid":5906012,"name":"Boskung","admin3":"3546018"},{"geonameid":5907263,"name":"Brady Lake","admin3":"3546015"},{"geonameid":5911046,"name":"Buller","admin3":"3546015"},{"geonameid":5912697,"name":"Buttermilk Falls","admin3":"3546018"},{"geonameid":8556305,"name":"Cardiff","admin3":"3546005"},{"geonameid":5917342,"name":"Carnarvon","admin3":"3546018"},{"geonameid":5920569,"name":"Cheddar","admin3":"3546005"},{"geonameid":5936878,"name":"Deep Bay","admin3":"3546015"},{"geonameid":5937279,"name":"Deer Lake","admin3":"3546005"},{"geonameid":5944473,"name":"Dutch Line","admin3":"3546015"},{"geonameid":5949546,"name":"Essonville","admin3":"3546005"},{"geonameid":5955819,"name":"Fortescue","admin3":"3546005"},{"geonameid":5958801,"name":"Furnace Falls","admin3":"3546015"},{"geonameid":5960193,"name":"Gelert","admin3":"3546015"},{"geonameid":5962861,"name":"Gooderham","admin3":"3546005"},{"geonameid":12076628,"name":"Haliburton Village","admin3":""},{"geonameid":5969614,"name":"Halls Lake","admin3":"3546018"},{"geonameid":5974962,"name":"Highland Grove","admin3":"3546005"},{"geonameid":5975456,"name":"Hindon","admin3":"3546015"},{"geonameid":5975458,"name":"Hindon Hill","admin3":"3546015"},{"geonameid":5977394,"name":"Horseshoe Lake","admin3":"3546015"},{"geonameid":5977669,"name":"Hotspur","admin3":"3546005"},{"geonameid":5977952,"name":"Howland","admin3":"3546015"},{"geonameid":5983222,"name":"Ingoldsby","admin3":"3546015"},{"geonameid":5983895,"name":"Irondale","admin3":"3546015"},{"geonameid":5983974,"name":"Ironsides","admin3":"3546005"},{"geonameid":5991823,"name":"Kilcoo Camp","admin3":"3546015"},{"geonameid":6055976,"name":"Little Hawk Lake","admin3":"3546018"},{"geonameid":6058191,"name":"Lochlin","admin3":"3546015"},{"geonameid":6062178,"name":"Lutterworth","admin3":"3546015"},{"geonameid":6065635,"name":"Maple Lake","admin3":"3546018"},{"geonameid":8556036,"name":"Minden","admin3":"3546015"},{"geonameid":6074592,"name":"Miners Bay","admin3":"3546015"},{"geonameid":6077707,"name":"Moore Falls","admin3":"3546015"},{"geonameid":6099769,"name":"Paudash Lake","admin3":"3546005"},{"geonameid":6101786,"name":"Peterson Corner","admin3":"3546018"},{"geonameid":6114395,"name":"Pusey","admin3":"3546005"},{"geonameid":6115636,"name":"Rackety","admin3":"3546015"},{"geonameid":6152996,"name":"South Wilberforce","admin3":"3546005"},{"geonameid":12188905,"name":"Tory Hill","admin3":"3546005"},{"geonameid":6172806,"name":"Ursa","admin3":"3546005"},{"geonameid":6181662,"name":"Wilberforce","admin3":"3546005"}],"admin3":[{"geonameid":5883643,"name":"Algonquin Highlands","admin3":"3546018"},{"geonameid":5974994,"name":"Highlands East","admin3":"3546005"},{"geonameid":6074491,"name":"Minden Hills","admin3":"3546015"}],"alternateNames":[]},"__N_SSG":true}