{"pageProps":{"locale":"en","admin2":{"geonameid":6049019,"name":"Lambton County","country":"CA","admin1":"08","admin2":"3538","admin3":"","latitude":"42.7500800","longitude":"-82.0831100"},"admin1":{"geonameid":6093943,"name":"Ontario","admin1":"08"},"locations":[{"geonameid":5881885,"name":"Aberfeldy","admin3":"3538015"},{"geonameid":5884296,"name":"Alvinston","admin3":"3538015"},{"geonameid":5888578,"name":"Avonry","admin3":"3538003"},{"geonameid":5888869,"name":"Babys Point","admin3":"3538003"},{"geonameid":5896987,"name":"Beaver Meadow","admin3":"3538003"},{"geonameid":5897216,"name":"Becher","admin3":"3538003"},{"geonameid":5898619,"name":"Bentpath","admin3":"3538007"},{"geonameid":5899402,"name":"Bickford","admin3":"3538003"},{"geonameid":5901869,"name":"Birnam","admin3":"3538043"},{"geonameid":5907243,"name":"Bradshaw","admin3":"3538003"},{"geonameid":5913292,"name":"Cairo","admin3":"3538007"},{"geonameid":5920092,"name":"Charlemont","admin3":"3538003"},{"geonameid":5925292,"name":"Colinville","admin3":"3538003"},{"geonameid":5928119,"name":"Coronation Park","admin3":""},{"geonameid":5930917,"name":"Courtright","admin3":"3538003"},{"geonameid":5932773,"name":"Cromar","admin3":"3538003"},{"geonameid":5935787,"name":"Dawn Valley","admin3":"3538007"},{"geonameid":5944498,"name":"Duthill","admin3":"3538003"},{"geonameid":5946939,"name":"Edys Mills","admin3":"3538007"},{"geonameid":5962069,"name":"Glen Rae","admin3":"3538016"},{"geonameid":5965691,"name":"Grays","admin3":"3538015"},{"geonameid":5978222,"name":"Huffs Corners","admin3":"3538007"},{"geonameid":5983649,"name":"Inwood","admin3":"3538015"},{"geonameid":5992043,"name":"Kimball","admin3":"3538003"},{"geonameid":6047815,"name":"Ladysmith","admin3":"3538003"},{"geonameid":6067043,"name":"Marthaville","admin3":"3538016"},{"geonameid":6077687,"name":"Moore Centre","admin3":"3538003"},{"geonameid":6091929,"name":"Oakdale","admin3":"3538007"},{"geonameid":6094504,"name":"Osborne","admin3":"3538003"},{"geonameid":6099970,"name":"Payne","admin3":"3538003"},{"geonameid":6103581,"name":"Petrolia","admin3":"3538016"},{"geonameid":9858349,"name":"Port Lambton","admin3":"3538003"},{"geonameid":6127178,"name":"Rokeby","admin3":"3538015"},{"geonameid":6136726,"name":"Rutherford","admin3":"3538007"},{"geonameid":6141190,"name":"Sarnia","admin3":""},{"geonameid":6143377,"name":"Seckerton","admin3":"3538003"},{"geonameid":6146308,"name":"Shetland","admin3":"3538007"},{"geonameid":6160061,"name":"Sutorville","admin3":"3538015"},{"geonameid":6160790,"name":"Sykeston","admin3":"3538003"},{"geonameid":6162926,"name":"Terminus","admin3":"3538003"},{"geonameid":6165717,"name":"Thornyhurst","admin3":"3538003"},{"geonameid":6175597,"name":"Walnut","admin3":"3538015"},{"geonameid":6175609,"name":"Walpole Island","admin3":""},{"geonameid":6176902,"name":"Watford","admin3":"3538043"},{"geonameid":6177110,"name":"Waubuno","admin3":"3538003"},{"geonameid":6177699,"name":"Weidmann","admin3":"3538016"},{"geonameid":6178330,"name":"West Becher","admin3":"3538003"},{"geonameid":6181998,"name":"Wilkesport","admin3":"3538003"},{"geonameid":6183396,"name":"Wisbeach","admin3":"3538043"}],"admin3":[{"geonameid":5909453,"name":"Brooke-Alvinston","admin3":"3538015"},{"geonameid":5935777,"name":"Dawn-Euphemia","admin3":"3538007"},{"geonameid":5948976,"name":"Enniskillen","admin3":"3538016"},{"geonameid":6155749,"name":"St. Clair","admin3":"3538003"},{"geonameid":6176398,"name":"Warwick","admin3":"3538043"}],"alternateNames":[]},"__N_SSG":true}