{"pageProps":{"locale":"en","admin2":{"geonameid":8581623,"name":"Ottawa","country":"CA","admin1":"08","admin2":"3506","admin3":"","latitude":"45.4185800","longitude":"-75.6971700"},"admin1":{"geonameid":6093943,"name":"Ontario","admin1":"08"},"locations":[{"geonameid":5884238,"name":"Alta Vista","admin3":"3506008"},{"geonameid":5886277,"name":"Antrim","admin3":"3506008"},{"geonameid":5886464,"name":"Applewood Acres","admin3":"3506008"},{"geonameid":5886555,"name":"Arbeatha Park","admin3":"3506008"},{"geonameid":5886950,"name":"Arlington Woods","admin3":"3506008"},{"geonameid":5894162,"name":"Barrhaven","admin3":"3506008"},{"geonameid":5895246,"name":"Baxters Corners","admin3":"3506008"},{"geonameid":5895432,"name":"Bayshore","admin3":"3506008"},{"geonameid":12070718,"name":"Beacon Heights","admin3":"3506008"},{"geonameid":5895603,"name":"Beacon Heights","admin3":"3506008"},{"geonameid":5895611,"name":"Beacon Hill North","admin3":"3506008"},{"geonameid":5895612,"name":"Beacon Hill South","admin3":"3506008"},{"geonameid":5895656,"name":"Beaconwood","admin3":"3506008"},{"geonameid":5895760,"name":"Bearbrook","admin3":"3506008"},{"geonameid":12070741,"name":"Beaverbrook","admin3":"3506008"},{"geonameid":5897255,"name":"Becketts Creek","admin3":"3506008"},{"geonameid":5897257,"name":"Becketts Landing","admin3":"3506008"},{"geonameid":5897613,"name":"Bel Air Heights","admin3":"3506008"},{"geonameid":5897615,"name":"Bel Air Park","admin3":"3506008"},{"geonameid":5898070,"name":"Bells Corners","admin3":"3506008"},{"geonameid":5898114,"name":"Bellwood","admin3":"3506008"},{"geonameid":5898118,"name":"Belmeade","admin3":"3506008"},{"geonameid":5901120,"name":"Billings Bridge","admin3":"3506008"},{"geonameid":5902353,"name":"Blackburn Hamlet","admin3":"3506008"},{"geonameid":5904032,"name":"Blossom Park","admin3":"3506008"},{"geonameid":12070727,"name":"Borden Farm","admin3":"3506008"},{"geonameid":5906752,"name":"Bowesville","admin3":"3506008"},{"geonameid":5907291,"name":"Braemar Park","admin3":"3506008"},{"geonameid":5908608,"name":"Briargreen","admin3":"3506008"},{"geonameid":5908737,"name":"Bridlewood","admin3":"3506008"},{"geonameid":5909024,"name":"Britannia","admin3":"3506008"},{"geonameid":5909026,"name":"Britannia Bay","admin3":"3506008"},{"geonameid":5909034,"name":"Britannia Heights","admin3":"3506008"},{"geonameid":12070720,"name":"Brookfield Gardens","admin3":"3506008"},{"geonameid":12070730,"name":"Bruce Farm","admin3":"3506008"},{"geonameid":5910091,"name":"Bruce Farm","admin3":"3506008"},{"geonameid":5910554,"name":"Buckham's Bay","admin3":"3506008"},{"geonameid":7626289,"name":"ByWard Market","admin3":"3506008"},{"geonameid":5916795,"name":"Cardinal Heights","admin3":"3506008"},{"geonameid":5917152,"name":"Carleton Heights","admin3":"3506008"},{"geonameid":5917162,"name":"Carleton Square","admin3":"3506008"},{"geonameid":5917188,"name":"Carlington","admin3":"3506008"},{"geonameid":5917189,"name":"Carlingwood","admin3":"3506008"},{"geonameid":5917224,"name":"Carlsbad Springs","admin3":"3506008"},{"geonameid":5917434,"name":"Carp","admin3":"3506008"},{"geonameid":5917666,"name":"Carson Grove","admin3":"3506008"},{"geonameid":5917661,"name":"Carsonby","admin3":"3506008"},{"geonameid":5918126,"name":"Castle Heights","admin3":"3506008"},{"geonameid":12070726,"name":"Cedar Hill","admin3":"3506008"},{"geonameid":5918806,"name":"Cedardale","admin3":"3506008"},{"geonameid":5919133,"name":"Central Park","admin3":"3506008"},{"geonameid":5919235,"name":"Centrepointe","admin3":"3506008"},{"geonameid":5919248,"name":"Centretown","admin3":"3506008"},{"geonameid":10400409,"name":"Centretown West","admin3":"3506008"},{"geonameid":5919689,"name":"Champlain Park","admin3":"3506008"},{"geonameid":12070740,"name":"Chateau Neuf","admin3":"3506008"},{"geonameid":10400407,"name":"Chinatown","admin3":"3506008"},{"geonameid":5922859,"name":"City View","admin3":"3506008"},{"geonameid":12070713,"name":"Civic Hospital","admin3":"3506008"},{"geonameid":5926594,"name":"Confederation Heights","admin3":"3506008"},{"geonameid":5927033,"name":"Convent Glen","admin3":"3506008"},{"geonameid":12070729,"name":"Convent Glen South","admin3":"3506008"},{"geonameid":5927502,"name":"Copeland Park","admin3":"3506008"},{"geonameid":5927858,"name":"Corkery","admin3":"3506008"},{"geonameid":5928911,"name":"Country Place","admin3":"3506008"},{"geonameid":5930905,"name":"Courtland Park","admin3":"3506008"},{"geonameid":5931512,"name":"Craig Henry","admin3":"3506008"},{"geonameid":5932316,"name":"Crestview","admin3":"3506008"},{"geonameid":5933611,"name":"Crystal Bay","admin3":"3506008"},{"geonameid":5933621,"name":"Crystal Beach","admin3":"3506008"},{"geonameid":5933884,"name":"Cumberland","admin3":"3506008"},{"geonameid":5934462,"name":"Cyrville","admin3":"3506008"},{"geonameid":12070711,"name":"Dalhousie","admin3":"3506008"},{"geonameid":5934708,"name":"Dalmeny","admin3":"3506008"},{"geonameid":5939562,"name":"Dirleton","admin3":"3506008"},{"geonameid":5944247,"name":"Dunrobin","admin3":"3506008"},{"geonameid":5944248,"name":"Dunrobin Shore","admin3":"3506008"},{"geonameid":5944547,"name":"Dwyer Hill","admin3":"3506008"},{"geonameid":5944911,"name":"Eaglesons Corners","admin3":"3506008"},{"geonameid":5946208,"name":"Eastway Gardens","admin3":"3506008"},{"geonameid":5946860,"name":"Edwards","admin3":"3506008"},{"geonameid":5947669,"name":"Elizabeth Park","admin3":"3506008"},{"geonameid":5947994,"name":"Elm","admin3":"3506008"},{"geonameid":5948095,"name":"Elmvale Acres","admin3":"3506008"},{"geonameid":5948972,"name":"Enniskerry","admin3":"3506008"},{"geonameid":5950927,"name":"Faircrest","admin3":"3506008"},{"geonameid":12070715,"name":"Faircrest Heights","admin3":"3506008"},{"geonameid":5950946,"name":"Fairfield Heights","admin3":"3506008"},{"geonameid":12070742,"name":"Fallingbrook","admin3":"3506008"},{"geonameid":5951285,"name":"Fallowfield","admin3":"3506008"},{"geonameid":5952500,"name":"Ficko","admin3":"3506008"},{"geonameid":5953418,"name":"Fisher Glen","admin3":"3506008"},{"geonameid":5953422,"name":"Fisher Heights","admin3":"3506008"},{"geonameid":5955361,"name":"Forbes","admin3":"3506008"},{"geonameid":5956410,"name":"Foster Farm","admin3":"3506008"},{"geonameid":5957960,"name":"French Hill","admin3":"3506008"},{"geonameid":5959078,"name":"Galetta","admin3":"3506008"},{"geonameid":5961562,"name":"Glabar Park","admin3":"3506008"},{"geonameid":12070732,"name":"Glebe","admin3":"3506008"},{"geonameid":5961863,"name":"Glen Cairn","admin3":"3506008"},{"geonameid":5962204,"name":"Gloucester","admin3":"3506008"},{"geonameid":5962206,"name":"Gloucester Glen","admin3":"3506008"},{"geonameid":5962974,"name":"Goodstown","admin3":"3506008"},{"geonameid":12070734,"name":"Graham","admin3":"3506008"},{"geonameid":5964148,"name":"Graham Park","admin3":"3506008"},{"geonameid":5965932,"name":"Greely","admin3":"3506008"},{"geonameid":5965986,"name":"Greenboro","admin3":"3506008"},{"geonameid":5966402,"name":"Greenlands","admin3":"3506008"},{"geonameid":5966824,"name":"Grenfell Glen","admin3":"3506008"},{"geonameid":5967689,"name":"Guildwood Estates","admin3":"3506008"},{"geonameid":5971782,"name":"Harwood Plains","admin3":"3506008"},{"geonameid":5972505,"name":"Hawthorne Meadows","admin3":"3506008"},{"geonameid":5972863,"name":"Hazeldean","admin3":"3506008"},{"geonameid":5973061,"name":"Healey's Heath","admin3":"3506008"},{"geonameid":5973180,"name":"Hearts Desire","admin3":"3506008"},{"geonameid":5974096,"name":"Herbert Corners","admin3":"3506008"},{"geonameid":5974236,"name":"Heron Gate","admin3":"3506008"},{"geonameid":5974257,"name":"Heron Park","admin3":"3506008"},{"geonameid":5974528,"name":"Hiawatha Park","admin3":"3506008"},{"geonameid":5974978,"name":"Highland Park","admin3":"3506008"},{"geonameid":12070725,"name":"Hillsdale","admin3":"3506008"},{"geonameid":5975504,"name":"Hintonburg","admin3":"3506008"},{"geonameid":5976511,"name":"Honeygables","admin3":"3506008"},{"geonameid":5978580,"name":"Hunt Club","admin3":"3506008"},{"geonameid":5978581,"name":"Hunt Club Park","admin3":"3506008"},{"geonameid":5978731,"name":"Huntley","admin3":"3506008"},{"geonameid":5983416,"name":"Innes Park","admin3":"3506008"},{"geonameid":5986834,"name":"Jockvale","admin3":"3506008"},{"geonameid":5987510,"name":"Johnston Corners","admin3":"3506008"},{"geonameid":5989117,"name":"Kanata","admin3":"3506008"},{"geonameid":12070712,"name":"Kanata-Lakes","admin3":"3506008"},{"geonameid":5989452,"name":"Kars","admin3":"3506008"},{"geonameid":12070716,"name":"Katimavik Hazeldean","admin3":"3506008"},{"geonameid":12070738,"name":"Kemp Park","admin3":"3506008"},{"geonameid":5990693,"name":"Kempark","admin3":"3506008"},{"geonameid":5991090,"name":"Kenson Park","admin3":"3506008"},{"geonameid":5991991,"name":"Kilmaurs","admin3":"3506008"},{"geonameid":5992135,"name":"Kinburn","admin3":"3506008"},{"geonameid":5992522,"name":"Kingsview Park","admin3":"3506008"},{"geonameid":12070723,"name":"Lakeview","admin3":"3506008"},{"geonameid":6048792,"name":"Lakeview Park","admin3":"3506008"},{"geonameid":12070735,"name":"Laurentian View","admin3":"3506008"},{"geonameid":6050538,"name":"Laurentian View","admin3":"3506008"},{"geonameid":12070719,"name":"Lebreton Flats","admin3":"3506008"},{"geonameid":6052077,"name":"Leitrim","admin3":"3506008"},{"geonameid":6052378,"name":"Leonard","admin3":"3506008"},{"geonameid":6052903,"name":"Leslie Park","admin3":"3506008"},{"geonameid":6054270,"name":"Lincoln Heights","admin3":"3506008"},{"geonameid":6054318,"name":"Lindenlea","admin3":"3506008"},{"geonameid":10400408,"name":"Little Italy","admin3":"3506008"},{"geonameid":6061551,"name":"Lowertown","admin3":"3506008"},{"geonameid":6062353,"name":"Lynwood Village","admin3":"3506008"},{"geonameid":6064698,"name":"Malakoff","admin3":"3506008"},{"geonameid":6065155,"name":"Manion Corners","admin3":"3506008"},{"geonameid":6065397,"name":"Manor Park","admin3":"3506008"},{"geonameid":6065396,"name":"Manordale","admin3":"3506008"},{"geonameid":6065402,"name":"Manotick Station","admin3":"3506008"},{"geonameid":6065438,"name":"Mansfield","admin3":"3506008"},{"geonameid":6065866,"name":"Marathon","admin3":"3506008"},{"geonameid":6066024,"name":"Marchhurst","admin3":"3506008"},{"geonameid":6066766,"name":"Marshall Bay","admin3":"3506008"},{"geonameid":6067223,"name":"Martins Corners","admin3":"3506008"},{"geonameid":6070094,"name":"McKay's Waterfront","admin3":"3506008"},{"geonameid":12070736,"name":"Mckellar","admin3":"3506008"},{"geonameid":6070150,"name":"McKellar Heights","admin3":"3506008"},{"geonameid":6071438,"name":"Meadowlands","admin3":"3506008"},{"geonameid":6071584,"name":"Mechanicsville","admin3":"3506008"},{"geonameid":6072283,"name":"Merivale","admin3":"3506008"},{"geonameid":6072284,"name":"Merivale Gardens","admin3":"3506008"},{"geonameid":6072470,"name":"Metcalfe","admin3":"3506008"},{"geonameid":6074238,"name":"Mills Corners","admin3":"3506008"},{"geonameid":6075983,"name":"Mohr Corners","admin3":"3506008"},{"geonameid":6077589,"name":"Mooneys Bay","admin3":"3506008"},{"geonameid":6077794,"name":"Moores Corners","admin3":"3506008"},{"geonameid":6084340,"name":"Munster","admin3":"3506008"},{"geonameid":6087029,"name":"Nepean","admin3":"3506008"},{"geonameid":6087533,"name":"New Edinburgh","admin3":"3506008"},{"geonameid":6091409,"name":"Notre-Dame-des-Champs","admin3":"3506008"},{"geonameid":6093375,"name":"Old Stittsville","admin3":"3506008"},{"geonameid":12070717,"name":"Orchard Estates","admin3":"3506008"},{"geonameid":12070737,"name":"Orchard Park","admin3":"3506008"},{"geonameid":8556295,"name":"Orléans","admin3":"3506008"},{"geonameid":12070731,"name":"Orleans Wood","admin3":"3506008"},{"geonameid":6094573,"name":"Osgoode","admin3":"3506008"},{"geonameid":6094817,"name":"Ottawa","admin3":"3506008"},{"geonameid":6094823,"name":"Ottawa East","admin3":"3506008"},{"geonameid":6094835,"name":"Ottawa South","admin3":"3506008"},{"geonameid":6095514,"name":"Overbrook","admin3":"3506008"},{"geonameid":6096568,"name":"Panmure","admin3":"3506008"},{"geonameid":6098653,"name":"Parkway Park","admin3":"3506008"},{"geonameid":6098656,"name":"Parkwood Hills","admin3":"3506008"},{"geonameid":6104290,"name":"Pierces Corners","admin3":"3506008"},{"geonameid":6104968,"name":"Pineglen","admin3":"3506008"},{"geonameid":6104970,"name":"Pineglen Annex","admin3":"3506008"},{"geonameid":6105276,"name":"Pineview","admin3":"3506008"},{"geonameid":6105526,"name":"Piperville","admin3":"3506008"},{"geonameid":6106266,"name":"Playfair Park","admin3":"3506008"},{"geonameid":6114859,"name":"Qualicum","admin3":"3506008"},{"geonameid":6114903,"name":"Quarries","admin3":"3506008"},{"geonameid":6115154,"name":"Queensway Terrace North","admin3":"3506008"},{"geonameid":6115155,"name":"Queensway Terrace South","admin3":"3506008"},{"geonameid":12070714,"name":"Queenswood Heights","admin3":"3506008"},{"geonameid":6115156,"name":"Queenswood Heights","admin3":"3506008"},{"geonameid":12070721,"name":"Queenswood Heights South","admin3":"3506008"},{"geonameid":6115157,"name":"Queenswood Village","admin3":"3506008"},{"geonameid":6115440,"name":"Quyon Ferry Landing","admin3":"3506008"},{"geonameid":6116338,"name":"Ramsayville","admin3":"3506008"},{"geonameid":6118815,"name":"Redwood","admin3":"3506008"},{"geonameid":6118945,"name":"Reeve Craig","admin3":"3506008"},{"geonameid":6121620,"name":"Revelstoke","admin3":"3506008"},{"geonameid":6122081,"name":"Richmond","admin3":"3506008"},{"geonameid":6122172,"name":"Rideau Gardens","admin3":"3506008"},{"geonameid":6122173,"name":"Rideau Glen","admin3":"3506008"},{"geonameid":6122178,"name":"Rideau Park","admin3":"3506008"},{"geonameid":6122184,"name":"Rideauview","admin3":"3506008"},{"geonameid":6122218,"name":"Ridgemont","admin3":"3506008"},{"geonameid":6122231,"name":"Ridgeview","admin3":"3506008"},{"geonameid":6122733,"name":"Riverside Park","admin3":"3506008"},{"geonameid":6122734,"name":"Riverside Park South","admin3":"3506008"},{"geonameid":6122771,"name":"Riverview Park","admin3":"3506008"},{"geonameid":6126245,"name":"Rockcliffe Park","admin3":"3506008"},{"geonameid":6126787,"name":"Rocky Point","admin3":"3506008"},{"geonameid":6128046,"name":"Rothwell Heights","admin3":"3506008"},{"geonameid":6128052,"name":"Rothwell Village","admin3":"3506008"},{"geonameid":6136820,"name":"Ryan Farm","admin3":"3506008"},{"geonameid":6140750,"name":"Sandy Hill","admin3":"3506008"},{"geonameid":6145578,"name":"Sheahan Estates","admin3":"3506008"},{"geonameid":6145831,"name":"Sheffield Glen","admin3":"3506008"},{"geonameid":6146659,"name":"Shirleys Bay","admin3":"3506008"},{"geonameid":6149206,"name":"Skyline","admin3":"3506008"},{"geonameid":6152278,"name":"South Keys","admin3":"3506008"},{"geonameid":6152359,"name":"South March","admin3":"3506008"},{"geonameid":12070733,"name":"South Point","admin3":"3506008"},{"geonameid":6154207,"name":"Spring Hill","admin3":"3506008"},{"geonameid":6155754,"name":"St. Claire Gardens","admin3":"3506008"},{"geonameid":6155198,"name":"Stanley Corners","admin3":"3506008"},{"geonameid":6155336,"name":"Stapledon","admin3":"3506008"},{"geonameid":6156467,"name":"Stewart Farm","admin3":"3506008"},{"geonameid":6156855,"name":"Stittsville","admin3":"3506008"},{"geonameid":6161503,"name":"Tanglewood","admin3":"3506008"},{"geonameid":6163868,"name":"The Glebe","admin3":"3506008"},{"geonameid":10400410,"name":"The Glebe Annex","admin3":"3506008"},{"geonameid":6168754,"name":"Trend Village","admin3":"3506008"},{"geonameid":6170209,"name":"Tunney's Pasture","admin3":"3506008"},{"geonameid":6170974,"name":"Twin Elm","admin3":"3506008"},{"geonameid":12070739,"name":"Uplands","admin3":"3506008"},{"geonameid":6172770,"name":"Urbandale","admin3":"3506008"},{"geonameid":12070728,"name":"Urbandale Acres","admin3":"3506008"},{"geonameid":6173404,"name":"Vanier","admin3":"3506008"},{"geonameid":6174169,"name":"Victory Hill","admin3":"3506008"},{"geonameid":6174516,"name":"Viscount Alexander Park","admin3":"3506008"},{"geonameid":6174701,"name":"Vydon Acres","admin3":"3506008"},{"geonameid":6177051,"name":"Watterson Corners","admin3":"3506008"},{"geonameid":6179281,"name":"West Osgoode","admin3":"3506008"},{"geonameid":6178352,"name":"Westboro","admin3":"3506008"},{"geonameid":6178504,"name":"Westcliffe Estates","admin3":"3506008"},{"geonameid":6180465,"name":"Whitehaven","admin3":"3506008"},{"geonameid":12070722,"name":"Windsor Park Village","admin3":"3506008"},{"geonameid":6182991,"name":"Windsor Park Village","admin3":"3506008"},{"geonameid":6184207,"name":"Woodlawn","admin3":"3506008"},{"geonameid":6184250,"name":"Woodpark","admin3":"3506008"},{"geonameid":6184275,"name":"Woodridge","admin3":"3506008"},{"geonameid":12070724,"name":"Woodroffe North","admin3":"3506008"},{"geonameid":6184369,"name":"Woodvale","admin3":"3506008"}],"admin3":[{"geonameid":6094816,"name":"Ottawa","admin3":"3506008"}],"alternateNames":[]},"__N_SSG":true}