{"pageProps":{"locale":"en","admin2":{"geonameid":6095780,"name":"Oxford County","country":"CA","admin1":"08","admin2":"3532","admin3":"","latitude":"43.1333900","longitude":"-80.8330100"},"admin1":{"geonameid":6093943,"name":"Ontario","admin1":"08"},"locations":[{"geonameid":5887395,"name":"Arthur's Corners","admin3":"3532002"},{"geonameid":5892608,"name":"Banner","admin3":"3532027"},{"geonameid":5895564,"name":"Beachville","admin3":"3532012"},{"geonameid":5895651,"name":"Beaconsfield","admin3":"3532002"},{"geonameid":5898465,"name":"Bennington","admin3":"3532027"},{"geonameid":5903678,"name":"Blandford Station","admin3":"3532045"},{"geonameid":5907289,"name":"Braemar","admin3":"3532038"},{"geonameid":5909535,"name":"Brooksdale","admin3":"3532027"},{"geonameid":5909972,"name":"Brown's Corners","admin3":"3532027"},{"geonameid":5909973,"name":"Brown's Corners","admin3":"3532002"},{"geonameid":8556293,"name":"Burgessville","admin3":"3532002"},{"geonameid":5914923,"name":"Canning","admin3":"3532045"},{"geonameid":5918016,"name":"Cassel","admin3":"3532038"},{"geonameid":5919262,"name":"Centreville","admin3":"3532012"},{"geonameid":5921042,"name":"Chesterfield","admin3":"3532045"},{"geonameid":5924815,"name":"Cody's Corners","admin3":"3532027"},{"geonameid":5927960,"name":"Cornell","admin3":"3532002"},{"geonameid":5932103,"name":"Creditville","admin3":"3532045"},{"geonameid":5934145,"name":"Curries","admin3":"3532002"},{"geonameid":5937571,"name":"Delmer","admin3":"3532012"},{"geonameid":5938073,"name":"Dereham Centre","admin3":"3532012"},{"geonameid":5939188,"name":"Dicksons Corners","admin3":"3532027"},{"geonameid":5942791,"name":"Drumbo","admin3":"3532045"},{"geonameid":5944205,"name":"Dunn's Corner","admin3":"3532027"},{"geonameid":5946228,"name":"Eastwood","admin3":"3532002"},{"geonameid":5948498,"name":"Embro","admin3":"3532027"},{"geonameid":5950280,"name":"Etonia","admin3":"3532045"},{"geonameid":5955156,"name":"Foldens","admin3":"3532012"},{"geonameid":5955512,"name":"Forest Estates","admin3":"3532045"},{"geonameid":5962403,"name":"Gobles","admin3":"3532045"},{"geonameid":5962805,"name":"Golspie","admin3":"3532027"},{"geonameid":5968911,"name":"Hagles Corners","admin3":"3532012"},{"geonameid":5971253,"name":"Harrington","admin3":"3532027"},{"geonameid":5972508,"name":"Hawtrey","admin3":"3532002"},{"geonameid":5974633,"name":"Hickson","admin3":"3532038"},{"geonameid":5975494,"name":"Hink's Corners","admin3":"3532002"},{"geonameid":5976014,"name":"Holbrook","admin3":"3532002"},{"geonameid":5976100,"name":"Holiday","admin3":"3532027"},{"geonameid":5978688,"name":"Huntingford","admin3":"3532038"},{"geonameid":5992684,"name":"Kintore","admin3":"3532027"},{"geonameid":6048680,"name":"Lakeside","admin3":"3532027"},{"geonameid":6065648,"name":"Maple Lake Park","admin3":"3532045"},{"geonameid":6065708,"name":"Maplewood","admin3":"3532027"},{"geonameid":6071637,"name":"Medina","admin3":"3532027"},{"geonameid":6073901,"name":"Milldale","admin3":"3532002"},{"geonameid":6080629,"name":"Mount Elgin","admin3":"3532012"},{"geonameid":6083934,"name":"Muir","admin3":"3532002"},{"geonameid":6087393,"name":"Newark","admin3":"3532002"},{"geonameid":6091191,"name":"Norwich","admin3":"3532002"},{"geonameid":6093510,"name":"Oliver","admin3":"3532027"},{"geonameid":6094309,"name":"Oriel","admin3":"3532002"},{"geonameid":6094718,"name":"Ostrander","admin3":"3532012"},{"geonameid":6095786,"name":"Oxford Centre","admin3":"3532002"},{"geonameid":6101505,"name":"Perry's Corners","admin3":"3532045"},{"geonameid":6106255,"name":"Plattsville","admin3":"3532045"},{"geonameid":6117326,"name":"Ratho","admin3":"3532045"},{"geonameid":6117729,"name":"Rayside","admin3":"3532027"},{"geonameid":6122131,"name":"Richwood","admin3":"3532045"},{"geonameid":6126511,"name":"Rock's Mills","admin3":"3532002"},{"geonameid":6127490,"name":"Rosanna","admin3":"3532002"},{"geonameid":6139336,"name":"Salford","admin3":"3532012"},{"geonameid":6147151,"name":"Showers Corners","admin3":"3532045"},{"geonameid":6154193,"name":"Springford","admin3":"3532002"},{"geonameid":6157983,"name":"Strathallan","admin3":"3532038"},{"geonameid":6160453,"name":"Sweaburg","admin3":"3532012"},{"geonameid":6162007,"name":"Tavistock","admin3":"3532038"},{"geonameid":8593684,"name":"Thamesford","admin3":"3532027"},{"geonameid":6163875,"name":"The Gore","admin3":"3532002"},{"geonameid":6167297,"name":"Tollgate","admin3":"3532038"},{"geonameid":6171966,"name":"Uniondale","admin3":"3532027"},{"geonameid":6173348,"name":"Vandecar","admin3":"3532002"},{"geonameid":6173911,"name":"Verschoyle","admin3":"3532012"},{"geonameid":6176515,"name":"Washington","admin3":"3532045"},{"geonameid":6182458,"name":"Willow Lake","admin3":"3532038"},{"geonameid":6182864,"name":"Windfall","admin3":"3532045"},{"geonameid":6184365,"name":"Woodstock","admin3":""},{"geonameid":6185770,"name":"Youngsville","admin3":"3532027"},{"geonameid":6186014,"name":"Zenda","admin3":"3532012"},{"geonameid":6186177,"name":"Zorra Station","admin3":"3532027"}],"admin3":[{"geonameid":5903671,"name":"Blandford-Blenheim","admin3":"3532045"},{"geonameid":5946237,"name":"East Zorra-Tavistock","admin3":"3532038"},{"geonameid":6091193,"name":"Norwich","admin3":"3532002"},{"geonameid":6152928,"name":"South-West Oxford","admin3":"3532012"},{"geonameid":6186174,"name":"Zorra","admin3":"3532027"}],"alternateNames":[]},"__N_SSG":true}