{"pageProps":{"locale":"en","admin2":{"geonameid":6101646,"name":"Peterborough County","country":"CA","admin1":"08","admin2":"3515","admin3":"","latitude":"44.5501200","longitude":"-78.2495300"},"admin1":{"geonameid":6093943,"name":"Ontario","admin1":"08"},"locations":[{"geonameid":5886120,"name":"Anstruther Lake","admin3":"3515037"},{"geonameid":5886492,"name":"Apsley","admin3":"3515037"},{"geonameid":5887526,"name":"Ashby Mill","admin3":"3515030"},{"geonameid":5887830,"name":"Assumption","admin3":"3515005"},{"geonameid":12188903,"name":"Bailieboro","admin3":"3515013"},{"geonameid":5898514,"name":"Bensfort Bridge","admin3":"3515005"},{"geonameid":5898515,"name":"Bensfort Corners","admin3":"3515005"},{"geonameid":5899714,"name":"Big Cedar","admin3":"3515037"},{"geonameid":5901816,"name":"Birdsalls","admin3":"3515003"},{"geonameid":5903546,"name":"Blairton","admin3":"3515030"},{"geonameid":5903765,"name":"Blezard","admin3":"3515005"},{"geonameid":5904406,"name":"Blue Mountain","admin3":"3515030"},{"geonameid":5908682,"name":"Bridgenorth","admin3":"3515015"},{"geonameid":5913763,"name":"Cameron","admin3":"3515003"},{"geonameid":5914208,"name":"Campbelltown","admin3":"3515005"},{"geonameid":5917303,"name":"Carmel","admin3":"3515013"},{"geonameid":5918537,"name":"Cavan","admin3":"3515013"},{"geonameid":7803537,"name":"Cavan","admin3":"3515013"},{"geonameid":5918924,"name":"Cedar Valley","admin3":"3515013"},{"geonameid":5919173,"name":"Centre Dummer","admin3":"3515023"},{"geonameid":5919762,"name":"Chandos Lake","admin3":"3515037"},{"geonameid":5920383,"name":"Chase Corners","admin3":"3515030"},{"geonameid":5920697,"name":"Chemong Heights","admin3":"3515015"},{"geonameid":5920701,"name":"Chemong Park","admin3":"3515015"},{"geonameid":5923130,"name":"Clarina","admin3":"3515023"},{"geonameid":5926771,"name":"Connaught Shore","admin3":"3515015"},{"geonameid":5927437,"name":"Cooper's Trailer Park","admin3":"3515005"},{"geonameid":5927819,"name":"Cordova Mines","admin3":"3515030"},{"geonameid":5928537,"name":"Cottesloe","admin3":"3515023"},{"geonameid":5933324,"name":"Crowes Landing","admin3":"3515023"},{"geonameid":5933701,"name":"Crystal Springs","admin3":"3515005"},{"geonameid":5937136,"name":"Deer Bay","admin3":"3515015"},{"geonameid":5941682,"name":"Donwood","admin3":"3515023"},{"geonameid":5942213,"name":"Douro","admin3":"3515023"},{"geonameid":5942825,"name":"Drummond","admin3":"3515005"},{"geonameid":5946670,"name":"Edgewood Park","admin3":"3515013"},{"geonameid":5948981,"name":"Ennismore","admin3":"3515015"},{"geonameid":5950900,"name":"Fairbairn Meadows","admin3":"3515015"},{"geonameid":5951008,"name":"Fairmount","admin3":"3515013"},{"geonameid":5952604,"name":"Fife's Bay","admin3":"3515015"},{"geonameid":5953936,"name":"Five Corners","admin3":"3515023"},{"geonameid":5954825,"name":"Flood's Landing","admin3":"3515015"},{"geonameid":5956789,"name":"Fowlers Corners","admin3":"3515015"},{"geonameid":5957662,"name":"Fraserville","admin3":"3515005"},{"geonameid":5957842,"name":"Freeman Corners","admin3":"3515030"},{"geonameid":5959076,"name":"Galesburg","admin3":"3515023"},{"geonameid":5959395,"name":"Gannon Beach","admin3":"3515015"},{"geonameid":5959399,"name":"Gannon Village","admin3":"3515015"},{"geonameid":5961087,"name":"Gilchrist Bay","admin3":"3515023"},{"geonameid":5961695,"name":"Glamorgan","admin3":"3515013"},{"geonameid":5961820,"name":"Glen Alda","admin3":"3515037"},{"geonameid":5967639,"name":"Guerin","admin3":"3515023"},{"geonameid":5969520,"name":"Hall Glen","admin3":"3515023"},{"geonameid":5969574,"name":"Hall Landing","admin3":"3515005"},{"geonameid":5972047,"name":"Haultain","admin3":"3515037"},{"geonameid":5972152,"name":"Havelock","admin3":"3515030"},{"geonameid":5979276,"name":"Ida","admin3":"3515013"},{"geonameid":7803580,"name":"Ida","admin3":"3515013"},{"geonameid":5983086,"name":"Indian River","admin3":"3515005"},{"geonameid":5985080,"name":"Jack Lake","admin3":"3515030"},{"geonameid":5986320,"name":"Jermyn","admin3":"3515005"},{"geonameid":5988413,"name":"Juniper Island","admin3":"3515023"},{"geonameid":5989580,"name":"Kasshabog Lake","admin3":"3515030"},{"geonameid":5989819,"name":"Kawartha Park","admin3":"3515015"},{"geonameid":5990160,"name":"Keene","admin3":"3515005"},{"geonameid":5990790,"name":"Kendry","admin3":"3515013"},{"geonameid":5992063,"name":"Kimberley Park","admin3":"3515015"},{"geonameid":6048370,"name":"Lakefield","admin3":"3515015"},{"geonameid":6050270,"name":"Lasswade","admin3":"3515037"},{"geonameid":6062680,"name":"MacDonald Bay","admin3":"3515030"},{"geonameid":6067815,"name":"Mathers Corners","admin3":"3515005"},{"geonameid":6069055,"name":"McCrackens Landing","admin3":"3515023"},{"geonameid":6073749,"name":"Millbrook","admin3":"3515013"},{"geonameid":6081364,"name":"Mount Julian","admin3":"3515037"},{"geonameid":7803972,"name":"Mount Pleasant","admin3":"3515013"},{"geonameid":6084639,"name":"Murray Hill","admin3":"3515013"},{"geonameid":6091197,"name":"Norwood","admin3":"3515003"},{"geonameid":6092019,"name":"Oak Lake","admin3":"3515030"},{"geonameid":6095602,"name":"Owenbrook","admin3":"3515037"},{"geonameid":6100938,"name":"Pengelly Landing","admin3":"3515005"},{"geonameid":6113017,"name":"Preneveau","admin3":"3515030"},{"geonameid":6126274,"name":"Rockdale","admin3":"3515030"},{"geonameid":6128317,"name":"Round Lake","admin3":"3515030"},{"geonameid":6136513,"name":"Rush Point","admin3":"3515030"},{"geonameid":6142638,"name":"Scott Settlement","admin3":"3515037"},{"geonameid":6142649,"name":"Scotts Landing","admin3":"3515037"},{"geonameid":6144105,"name":"Selwyn","admin3":"3515015"},{"geonameid":6151626,"name":"South Beach","admin3":"3515023"},{"geonameid":6151866,"name":"South Dummer","admin3":"3515023"},{"geonameid":6154298,"name":"Springville","admin3":"3515013"},{"geonameid":6156472,"name":"Stewart Hall","admin3":"3515005"},{"geonameid":6156473,"name":"Stewart Heights","admin3":"3515015"},{"geonameid":6157573,"name":"Stonyridge","admin3":"3515037"},{"geonameid":6161610,"name":"Tapley","admin3":"3515013"},{"geonameid":6163011,"name":"Terra View Heights","admin3":"3515015"},{"geonameid":12188907,"name":"Trent Lakes","admin3":""},{"geonameid":6174146,"name":"Victoria Springs","admin3":"3515015"},{"geonameid":6174303,"name":"Village Meadows","admin3":"3515015"},{"geonameid":6174354,"name":"Villiers","admin3":"3515005"},{"geonameid":6175467,"name":"Wallace Point","admin3":"3515005"},{"geonameid":6176373,"name":"Warsaw","admin3":"3515023"},{"geonameid":6179586,"name":"Westwood","admin3":"3515003"},{"geonameid":6183007,"name":"Windward Sands","admin3":"3515015"},{"geonameid":6184178,"name":"Woodland Acres","admin3":"3515015"},{"geonameid":6184370,"name":"Woodview","admin3":"3515005"},{"geonameid":6184371,"name":"Woodview","admin3":"3515037"},{"geonameid":6185731,"name":"Young's Cove","admin3":"3515015"},{"geonameid":6185767,"name":"Youngstown","admin3":"3515015"},{"geonameid":6186125,"name":"Zion","admin3":"3515005"}],"admin3":[{"geonameid":5887751,"name":"Asphodel-Norwood","admin3":"3515003"},{"geonameid":5918553,"name":"Cavan Monaghan","admin3":"3515013"},{"geonameid":5942214,"name":"Douro-Dummer","admin3":"3515023"},{"geonameid":5959230,"name":"Galway-Cavendish and Harvey","admin3":"5959230"},{"geonameid":5972153,"name":"Havelock-Belmont-Methuen","admin3":"3515030"},{"geonameid":6090176,"name":"North Kawartha","admin3":"3515037"},{"geonameid":6094795,"name":"Otonabee-South Monaghan","admin3":"3515005"},{"geonameid":6149993,"name":"Township of Selwyn","admin3":"3515015"}],"alternateNames":[]},"__N_SSG":true}