{"pageProps":{"locale":"en","admin2":{"geonameid":6166724,"name":"Timiskaming District","country":"CA","admin1":"08","admin2":"3554","admin3":"","latitude":"47.7501600","longitude":"-80.3330300"},"admin1":{"geonameid":6093943,"name":"Ontario","admin1":"08"},"locations":[{"geonameid":5908451,"name":"Brentha","admin3":"3554044"},{"geonameid":5908495,"name":"Brethour","admin3":"3554032"},{"geonameid":5919511,"name":"Chamberlain","admin3":"3554054"},{"geonameid":5920292,"name":"Charlton","admin3":"3554044"},{"geonameid":5920691,"name":"Cheminis","admin3":"3554058"},{"geonameid":5930963,"name":"Couttsville","admin3":"3554026"},{"geonameid":5940413,"name":"Dobie","admin3":"3554066"},{"geonameid":5944975,"name":"Earlton","admin3":"3554036"},{"geonameid":5947731,"name":"Elk Lake","admin3":"3554042"},{"geonameid":5948844,"name":"Englehart","admin3":"3554049"},{"geonameid":5961231,"name":"Gillies","admin3":"3554001"},{"geonameid":5970051,"name":"Hanbury","admin3":"3554026"},{"geonameid":5971271,"name":"Harris","admin3":"3554014"},{"geonameid":5973197,"name":"Heaslip","admin3":"3554049"},{"geonameid":5974946,"name":"Highland","admin3":"3554024"},{"geonameid":5975214,"name":"Hilliardton","admin3":"3554034"},{"geonameid":5975380,"name":"Hillview","admin3":"3554021"},{"geonameid":5978128,"name":"Hudson","admin3":"3554021"},{"geonameid":5988161,"name":"Judge","admin3":"3554029"},{"geonameid":5989986,"name":"Kearns","admin3":"3554058"},{"geonameid":5991243,"name":"Kerns","admin3":"3554024"},{"geonameid":5991268,"name":"Kerr Lake","admin3":"3554001"},{"geonameid":5994265,"name":"Krugerdorf","admin3":"3554054"},{"geonameid":6049933,"name":"Larder Lake","admin3":"3554062"},{"geonameid":6060404,"name":"Lorrain","admin3":"3554001"},{"geonameid":6067736,"name":"Matachewan","admin3":"3554056"},{"geonameid":6068959,"name":"McCool","admin3":"3554024"},{"geonameid":6073544,"name":"Milberta","admin3":"3554024"},{"geonameid":6160074,"name":"Sutton Bay","admin3":"3554014"},{"geonameid":6166248,"name":"Thwaites","admin3":"3554029"},{"geonameid":6177219,"name":"Wawbewawa","admin3":"3554054"},{"geonameid":6181217,"name":"Whitewood Grove","admin3":"3554034"},{"geonameid":6182584,"name":"Wilson","admin3":"3554042"}],"admin3":[{"geonameid":5887046,"name":"Armstrong","admin3":"3554036"},{"geonameid":5908496,"name":"Brethour","admin3":"3554032"},{"geonameid":5917932,"name":"Casey","admin3":"3554029"},{"geonameid":5919513,"name":"Chamberlain","admin3":"3554054"},{"geonameid":5920294,"name":"Charlton and Dack","admin3":"3554044"},{"geonameid":5925153,"name":"Coleman","admin3":"3554001"},{"geonameid":5950511,"name":"Evanturel","admin3":"3554049"},{"geonameid":5960028,"name":"Gauthier","admin3":"3554066"},{"geonameid":5971016,"name":"Harley","admin3":"3554026"},{"geonameid":5971272,"name":"Harris","admin3":"3554014"},{"geonameid":5975202,"name":"Hilliard","admin3":"3554034"},{"geonameid":5978130,"name":"Hudson","admin3":"3554021"},{"geonameid":5985539,"name":"James","admin3":"3554042"},{"geonameid":5991244,"name":"Kerns","admin3":"3554024"},{"geonameid":6049935,"name":"Larder Lake","admin3":"3554062"},{"geonameid":6067737,"name":"Matachewan","admin3":"3554056"},{"geonameid":6069538,"name":"McGarry","admin3":"3554058"}],"alternateNames":[]},"__N_SSG":true}