{"pageProps":{"locale":"en","admin2":{"geonameid":5120548,"name":"Herkimer County","country":"US","admin1":"NY","admin2":"043","admin3":"","latitude":"43.4197000","longitude":"-74.9625000","localeAltName":null},"admin1":{"geonameid":5128638,"name":"New York","admin1":"NY","localeAltName":"New York"},"locations":[{"geonameid":5115177,"name":"Dolgeville","admin3":"44974","localeAltName":null},{"geonameid":5117856,"name":"Frankfort","admin3":"27199","localeAltName":null},{"geonameid":5120545,"name":"Herkimer","admin3":"34132","localeAltName":null},{"geonameid":5121765,"name":"Ilion","admin3":"28750","localeAltName":null},{"geonameid":5124642,"name":"Little Falls","admin3":"42741","localeAltName":null},{"geonameid":5126848,"name":"Middleville","admin3":"24933","localeAltName":null},{"geonameid":5127233,"name":"Mohawk","admin3":"28750","localeAltName":null},{"geonameid":5128683,"name":"Newport","admin3":"50584","localeAltName":null},{"geonameid":5129698,"name":"Old Forge","admin3":"78927","localeAltName":null},{"geonameid":5144034,"name":"West Winfield","admin3":"82568","localeAltName":null}],"admin3":[{"geonameid":5113377,"name":"Town of Columbia","admin3":"17431"},{"geonameid":5114496,"name":"Town of Danube","admin3":"19686"},{"geonameid":5116806,"name":"Town of Fairfield","admin3":"24933","localeAltName":null},{"geonameid":5117862,"name":"Town of Frankfort","admin3":"27199","localeAltName":null},{"geonameid":5118444,"name":"Town of German Flatts","admin3":"28750","localeAltName":null},{"geonameid":5120553,"name":"Town of Herkimer","admin3":"34132","localeAltName":null},{"geonameid":5124546,"name":"Town of Litchfield","admin3":"42664"},{"geonameid":5124644,"name":"City of Little Falls","admin3":"42741","localeAltName":null},{"geonameid":5124645,"name":"Town of Little Falls","admin3":"42752"},{"geonameid":5125783,"name":"Town of Manheim","admin3":"44974","localeAltName":null},{"geonameid":5128691,"name":"Town of Newport","admin3":"50584","localeAltName":null},{"geonameid":5129358,"name":"Town of Norway","admin3":"53968"},{"geonameid":5129638,"name":"Town of Ohio","admin3":"54507"},{"geonameid":5134664,"name":"Town of Russia","admin3":"64254"},{"geonameid":5136113,"name":"Town of Salisbury","admin3":"64837"},{"geonameid":5137379,"name":"Town of Schuyler","admin3":"65695"},{"geonameid":5139495,"name":"Town of Stark","admin3":"70794"},{"geonameid":5143276,"name":"Town of Warren","admin3":"78278"},{"geonameid":5143487,"name":"Town of Webb","admin3":"78927","localeAltName":null},{"geonameid":5144795,"name":"Town of Winfield","admin3":"82568","localeAltName":null}],"alternateNames":[{"alternatenameId":1980360,"geonameid":5128638,"isoLanguage":"de","alternateName":"New York","isPreferredName":true,"isShortName":true,"isColloquial":false,"isHistoric":false},{"alternatenameId":1980362,"geonameid":5128638,"isoLanguage":"en","alternateName":"New York","isPreferredName":true,"isShortName":true,"isColloquial":false,"isHistoric":false}]},"__N_SSG":true}