{"pageProps":{"locale":"it","admin2":{"geonameid":3182748,"name":"Provincia di Ascoli Piceno","country":"IT","admin1":"10","admin2":"AP","admin3":"","latitude":"42.8844300","longitude":"13.5530600","localeAltName":"Ascoli Piceno"},"admin1":{"geonameid":3174004,"name":"Marche","admin1":"10","localeAltName":"Marche"},"locations":[{"geonameid":3183509,"name":"Acquasanta Terme","admin3":"044001","localeAltName":null},{"geonameid":3183492,"name":"Acquaviva Picena","admin3":"044002","localeAltName":null},{"geonameid":3182962,"name":"Appignano del Tronto","admin3":"044005","localeAltName":null},{"geonameid":3182749,"name":"Ascoli Piceno","admin3":"044007","localeAltName":null},{"geonameid":3180949,"name":"Campolungo-Villa Sant'Antonio","admin3":"044007","localeAltName":null},{"geonameid":3180582,"name":"Carassai","admin3":"044010","localeAltName":null},{"geonameid":8949487,"name":"Caselle","admin3":"044027","localeAltName":null},{"geonameid":6534675,"name":"Castel di Lama","admin3":"044011","localeAltName":null},{"geonameid":3179396,"name":"Castignano","admin3":"044012","localeAltName":null},{"geonameid":3179385,"name":"Castorano","admin3":"044013","localeAltName":null},{"geonameid":8468835,"name":"Centobuchi","admin3":"044045","localeAltName":null},{"geonameid":3178314,"name":"Colli del Tronto","admin3":"044014","localeAltName":null},{"geonameid":3178221,"name":"Comunanza","admin3":"044015","localeAltName":null},{"geonameid":3177685,"name":"Cupra Marittima","admin3":"044017","localeAltName":null},{"geonameid":3176855,"name":"Folignano","admin3":"044020","localeAltName":null},{"geonameid":6535611,"name":"Force","admin3":"044021","localeAltName":null},{"geonameid":3175771,"name":"Grottammare","admin3":"044023","localeAltName":null},{"geonameid":6535036,"name":"Maltignano","admin3":"044027","localeAltName":null},{"geonameid":3173868,"name":"Marsia","admin3":"044064","localeAltName":null},{"geonameid":3173126,"name":"Monsampolo del Tronto","admin3":"044031","localeAltName":null},{"geonameid":3173083,"name":"Montalto delle Marche","admin3":"044032","localeAltName":null},{"geonameid":3172928,"name":"Montefiore dell'Aso","admin3":"044036","localeAltName":null},{"geonameid":3172796,"name":"Monteprandone","admin3":"044045","localeAltName":null},{"geonameid":8949529,"name":"Mozzano","admin3":"044007","localeAltName":null},{"geonameid":3172104,"name":"Offida","admin3":"044054","localeAltName":null},{"geonameid":3167590,"name":"Paggese-Santa Maria","admin3":"044001","localeAltName":null},{"geonameid":8948786,"name":"Pagliare","admin3":"044071","localeAltName":null},{"geonameid":3171053,"name":"Piagge","admin3":"044007","localeAltName":null},{"geonameid":8449951,"name":"Piane di Morro","admin3":"044020","localeAltName":null},{"geonameid":8948754,"name":"Piattoni-Villa Sant'Antonio","admin3":"044011","localeAltName":null},{"geonameid":3169318,"name":"Ripaberarda","admin3":"044012","localeAltName":null},{"geonameid":3169299,"name":"Ripatransone","admin3":"044063","localeAltName":null},{"geonameid":3168550,"name":"San Benedetto del Tronto","admin3":"044066","localeAltName":null},{"geonameid":8949780,"name":"San Silvestro","admin3":"044013","localeAltName":null},{"geonameid":3166244,"name":"Spinetoli","admin3":"044071","localeAltName":null},{"geonameid":8948875,"name":"Stella","admin3":"044031","localeAltName":null},{"geonameid":8950052,"name":"Venagrande","admin3":"044007","localeAltName":null},{"geonameid":3164616,"name":"Venarotta","admin3":"044073","localeAltName":null},{"geonameid":8449950,"name":"Villa Pigna","admin3":"044020","localeAltName":null},{"geonameid":8948978,"name":"Villa San Giuseppe","admin3":"044014","localeAltName":null}],"admin3":[{"geonameid":3169179,"name":"Roccafluvione","admin3":"044064","localeAltName":null},{"geonameid":6536796,"name":"Arquata del Tronto","admin3":"044006"},{"geonameid":6536798,"name":"Monsampolo del Tronto","admin3":"044031","localeAltName":null},{"geonameid":6536803,"name":"Ripatransone","admin3":"044063","localeAltName":null},{"geonameid":6536804,"name":"Rotella","admin3":"044065"},{"geonameid":6536806,"name":"Spinetoli","admin3":"044071","localeAltName":null},{"geonameid":6538528,"name":"Acquasanta Terme","admin3":"044001","localeAltName":null},{"geonameid":6538530,"name":"Appignano del Tronto","admin3":"044005","localeAltName":null},{"geonameid":6538531,"name":"Comunanza","admin3":"044015","localeAltName":null},{"geonameid":6538532,"name":"Cossignano","admin3":"044016"},{"geonameid":6538534,"name":"Grottammare","admin3":"044023","localeAltName":null},{"geonameid":6538537,"name":"Montedinove","admin3":"044034"},{"geonameid":6538540,"name":"Monteprandone","admin3":"044045","localeAltName":null},{"geonameid":6538545,"name":"Palmiano","admin3":"044056"},{"geonameid":6538546,"name":"Venarotta","admin3":"044073","localeAltName":null},{"geonameid":6539730,"name":"Castignano","admin3":"044012","localeAltName":null},{"geonameid":6540459,"name":"Castorano","admin3":"044013","localeAltName":null},{"geonameid":6540460,"name":"Montalto delle Marche","admin3":"044032","localeAltName":null},{"geonameid":6540463,"name":"Montemonaco","admin3":"044044"},{"geonameid":6541071,"name":"Folignano","admin3":"044020","localeAltName":null},{"geonameid":6541073,"name":"Massignano","admin3":"044029"},{"geonameid":6541075,"name":"Offida","admin3":"044054","localeAltName":null},{"geonameid":6541512,"name":"Acquaviva Picena","admin3":"044002","localeAltName":null},{"geonameid":6541609,"name":"Colli del Tronto","admin3":"044014","localeAltName":null},{"geonameid":6541872,"name":"Carassai","admin3":"044010","localeAltName":null},{"geonameid":6541873,"name":"Cupra Marittima","admin3":"044017","localeAltName":null},{"geonameid":6541877,"name":"San Benedetto del Tronto","admin3":"044066","localeAltName":null},{"geonameid":6542085,"name":"Montefiore dell'Aso","admin3":"044036","localeAltName":null},{"geonameid":6542152,"name":"Ascoli Piceno","admin3":"044007","localeAltName":null},{"geonameid":6542717,"name":"Castel di Lama","admin3":"044011","localeAltName":null},{"geonameid":6542718,"name":"Montegallo","admin3":"044038"},{"geonameid":6543022,"name":"Maltignano","admin3":"044027","localeAltName":null},{"geonameid":6543591,"name":"Force","admin3":"044021","localeAltName":null}],"alternateNames":[{"alternatenameId":1350130,"geonameid":3174004,"isoLanguage":"it","alternateName":"Marche","isPreferredName":true,"isShortName":true,"isColloquial":false,"isHistoric":false},{"alternatenameId":1350131,"geonameid":3174004,"isoLanguage":"en","alternateName":"The Marches","isPreferredName":true,"isShortName":true,"isColloquial":false,"isHistoric":false},{"alternatenameId":1352772,"geonameid":3182748,"isoLanguage":"it","alternateName":"Ascoli Piceno","isPreferredName":true,"isShortName":true,"isColloquial":false,"isHistoric":false}]},"__N_SSG":true}