{"pageProps":{"locale":"en","admin2":{"geonameid":5086767,"name":"Grafton County","country":"US","admin1":"NH","admin2":"009","admin3":"","latitude":"43.9407400","longitude":"-71.8205500"},"admin1":{"geonameid":5090174,"name":"New Hampshire","admin1":"NH","localeAltName":"New Hampshire"},"locations":[{"geonameid":5082573,"name":"Alexandria","admin3":"00580"},{"geonameid":5082756,"name":"Ashland","admin3":"02020"},{"geonameid":5083803,"name":"Bridgewater","admin3":"07540"},{"geonameid":5083812,"name":"Bristol","admin3":"07700"},{"geonameid":5085369,"name":"Deerfield","admin3":"05460"},{"geonameid":5085900,"name":"Enfield","admin3":"24340"},{"geonameid":5086765,"name":"Grafton","admin3":"30820"},{"geonameid":5087168,"name":"Hanover","admin3":"33860"},{"geonameid":5087270,"name":"Haverhill","admin3":"34820"},{"geonameid":5087552,"name":"Holderness","admin3":"36900"},{"geonameid":5088597,"name":"Lebanon","admin3":"41300"},{"geonameid":5088856,"name":"Littleton","admin3":"42580"},{"geonameid":5089108,"name":"Lyme","admin3":"44260"},{"geonameid":5090662,"name":"Orford","admin3":"58500"},{"geonameid":5091310,"name":"Plymouth","admin3":"62660"},{"geonameid":5091981,"name":"Rumney","admin3":"65940"},{"geonameid":5093630,"name":"Thornton","admin3":"76740"},{"geonameid":5094939,"name":"Woodstock","admin3":"87060"},{"geonameid":5094941,"name":"Woodsville","admin3":"34820"}],"admin3":[{"geonameid":5082576,"name":"Town of Alexandria","admin3":"00580"},{"geonameid":5082763,"name":"Town of Ashland","admin3":"02020"},{"geonameid":5083082,"name":"Town of Bath","admin3":"03940"},{"geonameid":5083327,"name":"Town of Benton","admin3":"05060"},{"geonameid":5083382,"name":"Town of Bethlehem","admin3":"05460"},{"geonameid":5083805,"name":"Town of Bridgewater","admin3":"07540"},{"geonameid":5083818,"name":"Town of Bristol","admin3":"07700"},{"geonameid":5084150,"name":"Town of Campton","admin3":"08660"},{"geonameid":5084162,"name":"Town of Canaan","admin3":"08980"},{"geonameid":5085492,"name":"Town of Dorchester","admin3":"18740"},{"geonameid":5085788,"name":"Town of Easton","admin3":"22020"},{"geonameid":5085862,"name":"Town of Ellsworth","admin3":"23860"},{"geonameid":5085909,"name":"Town of Enfield","admin3":"24340"},{"geonameid":5086340,"name":"Town of Franconia","admin3":"27300"},{"geonameid":5086773,"name":"Town of Grafton","admin3":"30820"},{"geonameid":5086969,"name":"Town of Groton","admin3":"32180"},{"geonameid":5087183,"name":"Town of Hanover","admin3":"33860"},{"geonameid":5087274,"name":"Town of Haverhill","admin3":"34820"},{"geonameid":5087337,"name":"Town of Hebron","admin3":"35220"},{"geonameid":5087556,"name":"Town of Holderness","admin3":"36900"},{"geonameid":5088537,"name":"Town of Landaff","admin3":"40660"},{"geonameid":5088607,"name":"City of Lebanon","admin3":"41300"},{"geonameid":5088716,"name":"Town of Lincoln","admin3":"41860"},{"geonameid":5088734,"name":"Town of Lisbon","admin3":"42020"},{"geonameid":5088868,"name":"Town of Littleton","admin3":"42580"},{"geonameid":5088876,"name":"Town of Livermore","admin3":"42820"},{"geonameid":5089107,"name":"Town of Lyman","admin3":"44100"},{"geonameid":5089116,"name":"Town of Lyme","admin3":"44260"},{"geonameid":5089745,"name":"Town of Monroe","admin3":"48980"},{"geonameid":5090655,"name":"Town of Orange","admin3":"58340"},{"geonameid":5090666,"name":"Town of Orford","admin3":"58500"},{"geonameid":5091085,"name":"Town of Piermont","admin3":"61060"},{"geonameid":5091323,"name":"Town of Plymouth","admin3":"62660"},{"geonameid":5091985,"name":"Town of Rumney","admin3":"65940"},{"geonameid":5093319,"name":"Town of Sugar Hill","admin3":"74740"},{"geonameid":5093635,"name":"Town of Thornton","admin3":"76740"},{"geonameid":5094268,"name":"Town of Warren","admin3":"78740"},{"geonameid":5094308,"name":"Town of Waterville Valley","admin3":"79380"},{"geonameid":5094435,"name":"Town of Wentworth","admin3":"80500"},{"geonameid":5094940,"name":"Town of Woodstock","admin3":"87060"}],"alternateNames":[{"alternatenameId":1980215,"geonameid":5090174,"isoLanguage":"en","alternateName":"New Hampshire","isPreferredName":true,"isShortName":true,"isColloquial":false,"isHistoric":false}]},"__N_SSG":true}