{"pageProps":{"locale":"en","admin2":{"geonameid":4508988,"name":"Clinton County","country":"US","admin1":"OH","admin2":"027","admin3":"","latitude":"39.4149800","longitude":"-83.8083800","localeAltName":null},"admin1":{"geonameid":5165418,"name":"Ohio","admin1":"OH","localeAltName":"Ohio"},"locations":[{"geonameid":4506684,"name":"Blanchester","admin3":"47670","localeAltName":null},{"geonameid":4508872,"name":"Clarksville","admin3":"79772","localeAltName":null},{"geonameid":4519701,"name":"New Vienna","admin3":"31710","localeAltName":null},{"geonameid":4523097,"name":"Sabina","admin3":"66642","localeAltName":null},{"geonameid":4528463,"name":"Wilmington","admin3":"85792","localeAltName":null}],"admin3":[{"geonameid":4505018,"name":"Township of Adams","admin3":"00226"},{"geonameid":4508438,"name":"Township of Chester","admin3":"13974"},{"geonameid":4508835,"name":"Township of Clark","admin3":"15238"},{"geonameid":4513234,"name":"Township of Green","admin3":"31710","localeAltName":null},{"geonameid":4515474,"name":"Township of Jefferson","admin3":"38542"},{"geonameid":4516577,"name":"Township of Liberty","admin3":"43064"},{"geonameid":4517609,"name":"Township of Marion","admin3":"47670","localeAltName":null},{"geonameid":4522464,"name":"Township of Richland","admin3":"66642","localeAltName":null},{"geonameid":4526891,"name":"Township of Union","admin3":"78302"},{"geonameid":4527173,"name":"Township of Vernon","admin3":"79772","localeAltName":null},{"geonameid":4527701,"name":"Township of Washington","admin3":"81144"},{"geonameid":4527798,"name":"Township of Wayne","admin3":"82124"},{"geonameid":4528522,"name":"Township of Wilson","admin3":"85820"},{"geonameid":7165140,"name":"City of Wilmington","admin3":"85792","localeAltName":null}],"alternateNames":[{"alternatenameId":2089549,"geonameid":5165418,"isoLanguage":"en","alternateName":"Ohio","isPreferredName":true,"isShortName":true,"isColloquial":false,"isHistoric":false}]},"__N_SSG":true}