{"pageProps":{"locale":"en","admin2":{"geonameid":2650797,"name":"Dumfries and Galloway","country":"GB","admin1":"SCT","admin2":"U2","admin3":"","latitude":"55.0833300","longitude":"-3.8333300"},"admin1":{"geonameid":2638360,"name":"Scotland","admin1":"SCT"},"locations":[{"geonameid":2657348,"name":"Amisfield Town"},{"geonameid":2657293,"name":"Annan"},{"geonameid":2657230,"name":"Applegarth Town"},{"geonameid":2657101,"name":"Ardwell"},{"geonameid":2657014,"name":"Artfield"},{"geonameid":2656830,"name":"Auchencairn"},{"geonameid":2656813,"name":"Auchmantle"},{"geonameid":2656781,"name":"Auldgirth"},{"geonameid":2656623,"name":"Bailliewhir"},{"geonameid":2656458,"name":"Balmaclellan"},{"geonameid":2656452,"name":"Balminnoch"},{"geonameid":2656390,"name":"Bankhead"},{"geonameid":2656339,"name":"Bargrennan"},{"geonameid":2656265,"name":"Barraer"},{"geonameid":2656084,"name":"Beattock"},{"geonameid":2656009,"name":"Beeswing"},{"geonameid":2655880,"name":"Bentpath"},{"geonameid":9613180,"name":"Blackacre"},{"geonameid":2655419,"name":"Blackwood"},{"geonameid":2655417,"name":"Bladnoch"},{"geonameid":2655185,"name":"Boreland"},{"geonameid":2655177,"name":"Borgue"},{"geonameid":2654744,"name":"Bridge of Dee"},{"geonameid":2654546,"name":"Broomholm"},{"geonameid":2654499,"name":"Broughton Mains"},{"geonameid":2654452,"name":"Brydekirk"},{"geonameid":2654054,"name":"Cairnryan"},{"geonameid":2653903,"name":"Camrie"},{"geonameid":2653880,"name":"Canonbie"},{"geonameid":11592022,"name":"Cargenbridge"},{"geonameid":2653779,"name":"Carleton"},{"geonameid":2653662,"name":"Carronbridge"},{"geonameid":2653657,"name":"Carrutherstown"},{"geonameid":2653647,"name":"Carsethorn"},{"geonameid":2653643,"name":"Carslae"},{"geonameid":2653642,"name":"Carsluith"},{"geonameid":2653641,"name":"Carsphairn"},{"geonameid":2653590,"name":"Castle Douglas"},{"geonameid":2653575,"name":"Castle Kennedy"},{"geonameid":2653532,"name":"Castlewigg"},{"geonameid":2653387,"name":"Challoch"},{"geonameid":2653388,"name":"Challoch"},{"geonameid":2653364,"name":"Chapelknowe"},{"geonameid":2652936,"name":"Clarencefield"},{"geonameid":2652788,"name":"Closeburn"},{"geonameid":2652581,"name":"Colfin"},{"geonameid":2652562,"name":"Collin"},{"geonameid":2643835,"name":"Colvend"},{"geonameid":2652315,"name":"Corsock"},{"geonameid":9613181,"name":"Courance"},{"geonameid":2652148,"name":"Craigdarroch"},{"geonameid":2652125,"name":"Craignarget"},{"geonameid":2652056,"name":"Crawick"},{"geonameid":2652031,"name":"Creebridge"},{"geonameid":2652022,"name":"Creetown"},{"geonameid":2651960,"name":"Crocketford"},{"geonameid":2651863,"name":"Crossmichael"},{"geonameid":2651708,"name":"Cummertrees"},{"geonameid":2651609,"name":"Dalbeattie"},{"geonameid":2651562,"name":"Dalry"},{"geonameid":2651555,"name":"Dalswinton"},{"geonameid":2651552,"name":"Dalton"},{"geonameid":2651480,"name":"Davington"},{"geonameid":2651234,"name":"Dinwoodie Mains"},{"geonameid":2651084,"name":"Dornock"},{"geonameid":2650921,"name":"Drummore"},{"geonameid":2650914,"name":"Drumpark"},{"geonameid":2650907,"name":"Drumwhirn"},{"geonameid":2650798,"name":"Dumfries"},{"geonameid":2650759,"name":"Duncow"},{"geonameid":2650742,"name":"Dundrennan"},{"geonameid":2650678,"name":"Dunragit"},{"geonameid":2650669,"name":"Dunscore"},{"geonameid":2650626,"name":"Durisdeer"},{"geonameid":2650573,"name":"Eaglesfield"},{"geonameid":2650505,"name":"East Barcloy"},{"geonameid":2650441,"name":"East Freugh"},{"geonameid":8063602,"name":"Eastriggs"},{"geonameid":2650280,"name":"Ecclefechan"},{"geonameid":2650126,"name":"Eldrig Village"},{"geonameid":2650114,"name":"Eliock"},{"geonameid":2649983,"name":"Enoch"},{"geonameid":2649976,"name":"Enterkinfoot"},{"geonameid":2649898,"name":"Eskdalemuir"},{"geonameid":2649740,"name":"Fairgirth"},{"geonameid":2648871,"name":"Garlieston"},{"geonameid":2648778,"name":"Gatehouse of Fleet"},{"geonameid":2648726,"name":"Gelston"},{"geonameid":2648661,"name":"Gillespie"},{"geonameid":2648628,"name":"Girthon"},{"geonameid":2648566,"name":"Glasserton"},{"geonameid":2648513,"name":"Glencaple"},{"geonameid":2648463,"name":"Glenluce"},{"geonameid":2648414,"name":"Glenwhilly"},{"geonameid":2647910,"name":"Gretna"},{"geonameid":2647909,"name":"Gretna Green"},{"geonameid":2647327,"name":"Haugh of Urr"},{"geonameid":2646956,"name":"High Glasnick"},{"geonameid":2646925,"name":"Hightae"},{"geonameid":2646735,"name":"Holm"},{"geonameid":2646669,"name":"Holywood"},{"geonameid":2646252,"name":"Inch"},{"geonameid":2646171,"name":"Innermessan"},{"geonameid":2646008,"name":"Isle of Whithorn"},{"geonameid":2645950,"name":"Johnstonebridge"},{"geonameid":2645844,"name":"Kelton"},{"geonameid":2645501,"name":"Kingholm Quay"},{"geonameid":2645345,"name":"Kippford"},{"geonameid":2645320,"name":"Kirkbean"},{"geonameid":2645294,"name":"Kirkchrist"},{"geonameid":2645292,"name":"Kirkcolm"},{"geonameid":2645291,"name":"Kirkconnel"},{"geonameid":2645290,"name":"Kirkconnell"},{"geonameid":2645288,"name":"Kirkcowan"},{"geonameid":2645287,"name":"Kirkcudbright"},{"geonameid":2645282,"name":"Kirkgunzeon"},{"geonameid":2645262,"name":"Kirkinner"},{"geonameid":9613179,"name":"Kirkland"},{"geonameid":2645248,"name":"Kirkmaiden"},{"geonameid":2645246,"name":"Kirkmichael"},{"geonameid":2645234,"name":"Kirkpatrick Durham"},{"geonameid":2645235,"name":"Kirkpatrick-Fleming"},{"geonameid":2645222,"name":"Kirkton"},{"geonameid":2645189,"name":"Kirtlebridge"},{"geonameid":2644927,"name":"Langholm"},{"geonameid":2644808,"name":"Laurieston"},{"geonameid":2644598,"name":"Leswalt"},{"geonameid":2643853,"name":"Locharbriggs"},{"geonameid":2643830,"name":"Lochfoot"},{"geonameid":2643812,"name":"Lochmaben"},{"geonameid":2643796,"name":"Lochwood Mains"},{"geonameid":2643791,"name":"Lockerbie"},{"geonameid":2643173,"name":"Mainsriddle"},{"geonameid":2643034,"name":"Mark"},{"geonameid":2642887,"name":"Maxwelltown"},{"geonameid":2642886,"name":"Maxwelton"},{"geonameid":2642747,"name":"Mennock"},{"geonameid":2642566,"name":"Mid Kelton"},{"geonameid":2642624,"name":"Middlebie"},{"geonameid":2642441,"name":"Minnigaff"},{"geonameid":2645239,"name":"Mochrum"},{"geonameid":2642384,"name":"Moffat"},{"geonameid":2642343,"name":"Moniaive"},{"geonameid":2642311,"name":"Monreith"},{"geonameid":2642081,"name":"Mouswald"},{"geonameid":2641782,"name":"Nether Hutton"},{"geonameid":9613177,"name":"Nethermill"},{"geonameid":2641738,"name":"New Abbey"},{"geonameid":2641645,"name":"New Galloway"},{"geonameid":2641622,"name":"New Luce"},{"geonameid":2641528,"name":"Newton Stewart"},{"geonameid":2641038,"name":"Old Bridge of Urr"},{"geonameid":2640666,"name":"Palnackie"},{"geonameid":2640665,"name":"Palnure"},{"geonameid":2640590,"name":"Parton"},{"geonameid":2640426,"name":"Penpont"},{"geonameid":2640028,"name":"Port Logan"},{"geonameid":2639985,"name":"Port William"},{"geonameid":2640009,"name":"Portpatrick"},{"geonameid":2639984,"name":"Portyerrock"},{"geonameid":2639949,"name":"Powfoot"},{"geonameid":2639898,"name":"Prestrie"},{"geonameid":2639735,"name":"Racks"},{"geonameid":2639360,"name":"Rigg"},{"geonameid":2639346,"name":"Ringford"},{"geonameid":2639257,"name":"Rockcliffe"},{"geonameid":2638920,"name":"Ruthwell"},{"geonameid":2638586,"name":"Sandhead"},{"geonameid":2638520,"name":"Sanquhar"},{"geonameid":2638108,"name":"Shawhead"},{"geonameid":2637517,"name":"Sorbie"},{"geonameid":11704118,"name":"Southerness"},{"geonameid":2637191,"name":"Springholm"},{"geonameid":2636803,"name":"Stoneykirk"},{"geonameid":2636719,"name":"Stranraer"},{"geonameid":2636293,"name":"Talnotry"},{"geonameid":2636126,"name":"Templand"},{"geonameid":2636094,"name":"Terreglestown"},{"geonameid":2635981,"name":"Thornhill"},{"geonameid":2635788,"name":"Tinwald"},{"geonameid":2635694,"name":"Tongland"},{"geonameid":2635625,"name":"Torthorwald"},{"geonameid":2635567,"name":"Trailflat"},{"geonameid":2635291,"name":"Twynholm"},{"geonameid":2635264,"name":"Tynron"},{"geonameid":2634810,"name":"Wanlockhead"},{"geonameid":2634700,"name":"Waterbeck"},{"geonameid":2634507,"name":"West Barcloy"},{"geonameid":2634174,"name":"Whauphill"},{"geonameid":2634042,"name":"Whithorn"},{"geonameid":2633932,"name":"Wigtown"}],"admin3":[{"geonameid":2645285,"name":"Kirkcudbrightshire","admin3":"2645285"}],"alternateNames":[]},"__N_SSG":true}