{"pageProps":{"locale":"en","admin2":{"geonameid":3333233,"name":"North Lanarkshire","country":"GB","admin1":"SCT","admin2":"V8","admin3":"","latitude":"55.8666700","longitude":"-3.9166700"},"admin1":{"geonameid":2638360,"name":"Scotland","admin1":"SCT"},"locations":[{"geonameid":2657613,"name":"Airdrie"},{"geonameid":11592116,"name":"Allanton"},{"geonameid":10629503,"name":"Anathill"},{"geonameid":11592117,"name":"Auchinloch"},{"geonameid":11592110,"name":"Bargeddie"},{"geonameid":2655952,"name":"Bellshill"},{"geonameid":7302258,"name":"Birkenshaw"},{"geonameid":2654967,"name":"Braehead"},{"geonameid":11592118,"name":"Calderbank"},{"geonameid":2654020,"name":"Caldercruix"},{"geonameid":2653933,"name":"Cambusnethan"},{"geonameid":2653798,"name":"Carfin"},{"geonameid":2653600,"name":"Castlecary"},{"geonameid":2653366,"name":"Chapelhall"},{"geonameid":2653060,"name":"Chryston"},{"geonameid":2652877,"name":"Cleland"},{"geonameid":2652696,"name":"Coatbridge"},{"geonameid":11592127,"name":"Croy"},{"geonameid":2651715,"name":"Cumbernauld"},{"geonameid":2651541,"name":"Dalziel"},{"geonameid":2650809,"name":"Dullatur"},{"geonameid":8015340,"name":"Dykehead"},{"geonameid":7117204,"name":"Gartcosh"},{"geonameid":2648523,"name":"Glenboig"},{"geonameid":11592152,"name":"Glenmavis"},{"geonameid":2647406,"name":"Harthill"},{"geonameid":2647387,"name":"Hartwood"},{"geonameid":2646675,"name":"Holytown"},{"geonameid":2645548,"name":"Kilsyth"},{"geonameid":2643644,"name":"Longriggend"},{"geonameid":2642365,"name":"Mollinburn"},{"geonameid":6620363,"name":"Moodiesburn"},{"geonameid":2642183,"name":"Morningside"},{"geonameid":2642145,"name":"Mossend"},{"geonameid":2642135,"name":"Motherwell"},{"geonameid":6619988,"name":"Muirhead"},{"geonameid":2641607,"name":"New Monkland"},{"geonameid":11592288,"name":"New Stevenston"},{"geonameid":2641729,"name":"Newarthill"},{"geonameid":2641632,"name":"Newhouse"},{"geonameid":2641618,"name":"Newmains"},{"geonameid":11552744,"name":"North Lanarkshire"},{"geonameid":2641005,"name":"Old Monkland"},{"geonameid":2640762,"name":"Overtown"},{"geonameid":11592200,"name":"Plains"},{"geonameid":11592205,"name":"Queenzieburn"},{"geonameid":11592123,"name":"Salsburgh"},{"geonameid":8015341,"name":"Shotts"},{"geonameid":2637452,"name":"South Cobbinshaw"},{"geonameid":2636945,"name":"Stepps"},{"geonameid":11592296,"name":"Viewpark"},{"geonameid":2633765,"name":"Wishaw"}],"admin3":[],"alternateNames":[]},"__N_SSG":true}