{"pageProps":{"locale":"de","admin2":{"geonameid":6458744,"name":"Delémont District","country":"CH","admin1":"JU","admin2":"2601","admin3":"","latitude":"47.3543400","longitude":"7.3305300"},"admin1":{"geonameid":2660207,"name":"Jura","admin1":"JU"},"locations":[{"geonameid":2661601,"name":"Bassecourt","admin3":"6729"},{"geonameid":2661100,"name":"Courfaivre","admin3":"6729"},{"geonameid":2661096,"name":"Courrendlin","admin3":"6708"},{"geonameid":2661095,"name":"Courroux","admin3":"6709"},{"geonameid":2661089,"name":"Courtételle","admin3":"6710"},{"geonameid":2661035,"name":"Delémont","admin3":"6711"},{"geonameid":2660579,"name":"Glovelier","admin3":"6729"},{"geonameid":2659678,"name":"Mervelier","admin3":"6730"},{"geonameid":2659567,"name":"Movelier","admin3":"6719"},{"geonameid":2659180,"name":"Pleigne","admin3":"6719"},{"geonameid":2658779,"name":"Saulcy","admin3":"6722"},{"geonameid":2658540,"name":"Soyhières","admin3":"6724"},{"geonameid":2658266,"name":"Undervelier","admin3":"6729"},{"geonameid":2658160,"name":"Vermes","admin3":"6730"},{"geonameid":2658137,"name":"Vicques","admin3":"6730"}],"admin3":[{"geonameid":7285277,"name":"Boécourt","admin3":"6702"},{"geonameid":7285313,"name":"Bourrignon","admin3":"6703"},{"geonameid":7285483,"name":"Châtillon (JU)","admin3":"6704"},{"geonameid":7285573,"name":"Courchapoix","admin3":"6706"},{"geonameid":7285579,"name":"Courrendlin","admin3":"6708"},{"geonameid":7285580,"name":"Courroux","admin3":"6709"},{"geonameid":7285585,"name":"Courtételle","admin3":"6710"},{"geonameid":7285633,"name":"Delémont","admin3":"6711"},{"geonameid":7285641,"name":"Develier","admin3":"6712"},{"geonameid":7285699,"name":"Ederswiler","admin3":"6713"},{"geonameid":7286492,"name":"Mervelier","admin3":"6715"},{"geonameid":7286496,"name":"Mettembert","admin3":"6716"},{"geonameid":7286567,"name":"Movelier","admin3":"6718"},{"geonameid":7286805,"name":"Pleigne","admin3":"6719"},{"geonameid":7286953,"name":"Rossemaison","admin3":"6721"},{"geonameid":7287062,"name":"Saulcy","admin3":"6722"},{"geonameid":7287202,"name":"Soyhières","admin3":"6724"},{"geonameid":8740965,"name":"Haute-Sorne","admin3":"6729"},{"geonameid":8740966,"name":"Val Terbi","admin3":"6730"}],"alternateNames":[]},"__N_SSG":true}