{"pageProps":{"locale":"de","admin2":{"geonameid":6458776,"name":"Porrentruy District","country":"CH","admin1":"JU","admin2":"2603","admin3":"","latitude":"47.4147500","longitude":"7.0763800"},"admin1":{"geonameid":2660207,"name":"Jura","admin1":"JU"},"locations":[{"geonameid":2661814,"name":"Alle","admin3":"6771"},{"geonameid":2661695,"name":"Asuel","admin3":"6810"},{"geonameid":2661452,"name":"Boncourt","admin3":"6774"},{"geonameid":2661451,"name":"Bonfol","admin3":"6775"},{"geonameid":2661339,"name":"Buix","admin3":"6807"},{"geonameid":2661210,"name":"Charmoille","admin3":"6810"},{"geonameid":2661183,"name":"Chevenez","admin3":"6809"},{"geonameid":2661152,"name":"Coeuve","admin3":"6781"},{"geonameid":2661112,"name":"Cornol","admin3":"6782"},{"geonameid":2661099,"name":"Courgenay","admin3":"6784"},{"geonameid":2661093,"name":"Courtedoux","admin3":"6785"},{"geonameid":2661091,"name":"Courtemaîche","admin3":"6807"},{"geonameid":2661050,"name":"Damvant","admin3":"6809"},{"geonameid":2660831,"name":"Fahy","admin3":"6789"},{"geonameid":2660742,"name":"Fontenais","admin3":"6790"},{"geonameid":2660534,"name":"Grandfontaine","admin3":"6792"},{"geonameid":2659663,"name":"Miécourt","admin3":"6810"},{"geonameid":2659607,"name":"Montignez","admin3":"6807"},{"geonameid":2659312,"name":"Ocourt","admin3":"6808"},{"geonameid":2659171,"name":"Porrentruy","admin3":"6800"},{"geonameid":2658858,"name":"Saint-Ursanne","admin3":"6808"},{"geonameid":2658171,"name":"Vendlincourt","admin3":"6806"}],"admin3":[{"geonameid":7285050,"name":"Alle","admin3":"6771"},{"geonameid":7285163,"name":"Basse-Allaine","admin3":"6807"},{"geonameid":7285228,"name":"Beurnevésin","admin3":"6773"},{"geonameid":7285287,"name":"Boncourt","admin3":"6774"},{"geonameid":7285289,"name":"Bonfol","admin3":"6775"},{"geonameid":7285386,"name":"Bure","admin3":"6778"},{"geonameid":7285521,"name":"Clos du Doubs","admin3":"6808"},{"geonameid":7285522,"name":"Coeuve","admin3":"6781"},{"geonameid":7285561,"name":"Cornol","admin3":"6782"},{"geonameid":7285574,"name":"Courchavon","admin3":"6783"},{"geonameid":7285576,"name":"Courgenay","admin3":"6784"},{"geonameid":7285582,"name":"Courtedoux","admin3":"6785"},{"geonameid":7285621,"name":"Damphreux","admin3":"6787"},{"geonameid":7285790,"name":"Fahy","admin3":"6789"},{"geonameid":7285853,"name":"Fontenais","admin3":"6790"},{"geonameid":7285960,"name":"Grandfontaine","admin3":"6792"},{"geonameid":7286039,"name":"Haute-Ajoie","admin3":"6809"},{"geonameid":7286236,"name":"La Baroche","admin3":"6810"},{"geonameid":7286384,"name":"Lugnez","admin3":"6793"},{"geonameid":7286819,"name":"Porrentruy","admin3":"6800"},{"geonameid":7287429,"name":"Vendlincourt","admin3":"6806"}],"alternateNames":[]},"__N_SSG":true}