{"pageProps":{"locale":"en","admin1":{"geonameid":4273857,"name":"Kansas","country":"US","admin1":"KS","latitude":"38.5002900","longitude":"-98.5006300","localeAltName":"Kansas"},"admin2":[{"geonameid":4267492,"name":"Allen County","admin2":"001"},{"geonameid":4267572,"name":"Anderson County","admin2":"003"},{"geonameid":4267734,"name":"Atchison County","admin2":"005"},{"geonameid":4267902,"name":"Barber County","admin2":"007"},{"geonameid":4267938,"name":"Barton County","admin2":"009"},{"geonameid":4268552,"name":"Bourbon County","admin2":"011"},{"geonameid":4268687,"name":"Brown County","admin2":"013"},{"geonameid":4268899,"name":"Butler County","admin2":"015"},{"geonameid":4269424,"name":"Chase County","admin2":"017"},{"geonameid":4269433,"name":"Chautauqua County","admin2":"019"},{"geonameid":4269459,"name":"Cherokee County","admin2":"021"},{"geonameid":5445155,"name":"Cheyenne County","admin2":"023"},{"geonameid":4269620,"name":"Clark County","admin2":"025"},{"geonameid":4269648,"name":"Clay County","admin2":"027"},{"geonameid":4269744,"name":"Cloud County","admin2":"029"},{"geonameid":4269788,"name":"Coffey County","admin2":"031"},{"geonameid":4269851,"name":"Comanche County","admin2":"033"},{"geonameid":4270053,"name":"Cowley County","admin2":"035"},{"geonameid":4270088,"name":"Crawford County","admin2":"037"},{"geonameid":5445268,"name":"Decatur County","admin2":"039"},{"geonameid":4270394,"name":"Dickinson County","admin2":"041"},{"geonameid":4270436,"name":"Doniphan County","admin2":"043"},{"geonameid":4270450,"name":"Douglas County","admin2":"045"},{"geonameid":4270841,"name":"Edwards County","admin2":"047"},{"geonameid":4270898,"name":"Elk County","admin2":"049"},{"geonameid":4270937,"name":"Ellis County","admin2":"051"},{"geonameid":4270946,"name":"Ellsworth County","admin2":"053"},{"geonameid":5445392,"name":"Finney County","admin2":"055"},{"geonameid":4271650,"name":"Ford County","admin2":"057"},{"geonameid":4271771,"name":"Franklin County","admin2":"059"},{"geonameid":4272003,"name":"Geary County","admin2":"061"},{"geonameid":5445489,"name":"Gove County","admin2":"063"},{"geonameid":4272234,"name":"Graham County","admin2":"065"},{"geonameid":5445505,"name":"Grant County","admin2":"067"},{"geonameid":5445511,"name":"Gray County","admin2":"069"},{"geonameid":5445516,"name":"Greeley County","admin2":"071"},{"geonameid":4272434,"name":"Greenwood County","admin2":"073"},{"geonameid":5445544,"name":"Hamilton County","admin2":"075"},{"geonameid":4272662,"name":"Harper County","admin2":"077"},{"geonameid":4272705,"name":"Harvey County","admin2":"079"},{"geonameid":5445570,"name":"Haskell County","admin2":"081"},{"geonameid":4273049,"name":"Hodgeman County","admin2":"083"},{"geonameid":4273514,"name":"Jackson County","admin2":"085"},{"geonameid":4273563,"name":"Jefferson County","admin2":"087"},{"geonameid":4273605,"name":"Jewell County","admin2":"089"},{"geonameid":4273638,"name":"Johnson County","admin2":"091"},{"geonameid":5445733,"name":"Kearny County","admin2":"093"},{"geonameid":4273980,"name":"Kingman County","admin2":"095"},{"geonameid":4274001,"name":"Kiowa County","admin2":"097"},{"geonameid":4274089,"name":"Labette County","admin2":"099"},{"geonameid":5445806,"name":"Lane County","admin2":"101"},{"geonameid":4274307,"name":"Leavenworth County","admin2":"103"},{"geonameid":4274455,"name":"Lincoln County","admin2":"105"},{"geonameid":4274536,"name":"Linn County","admin2":"107"},{"geonameid":5445855,"name":"Logan County","admin2":"109"},{"geonameid":4274916,"name":"Lyon County","admin2":"111"},{"geonameid":4275073,"name":"Marion County","admin2":"115"},{"geonameid":4275111,"name":"Marshall County","admin2":"117"},{"geonameid":4275266,"name":"McPherson County","admin2":"113"},{"geonameid":5445955,"name":"Meade County","admin2":"119"},{"geonameid":4275428,"name":"Miami County","admin2":"121"},{"geonameid":4275635,"name":"Mitchell County","admin2":"123"},{"geonameid":4275684,"name":"Montgomery County","admin2":"125"},{"geonameid":4275742,"name":"Morris County","admin2":"127"},{"geonameid":5446023,"name":"Morton County","admin2":"129"},{"geonameid":4276120,"name":"Nemaha County","admin2":"131"},{"geonameid":4276136,"name":"Neosho County","admin2":"133"},{"geonameid":4276164,"name":"Ness County","admin2":"135"},{"geonameid":4276454,"name":"Norton County","admin2":"137"},{"geonameid":4276754,"name":"Osage County","admin2":"139"},{"geonameid":4276786,"name":"Osborne County","admin2":"141"},{"geonameid":4276817,"name":"Ottawa County","admin2":"143"},{"geonameid":4277045,"name":"Pawnee County","admin2":"145"},{"geonameid":4277173,"name":"Phillips County","admin2":"147"},{"geonameid":4277604,"name":"Pottawatomie County","admin2":"149"},{"geonameid":4277733,"name":"Pratt County","admin2":"151"},{"geonameid":5446276,"name":"Rawlins County","admin2":"153"},{"geonameid":4277972,"name":"Reno County","admin2":"155"},{"geonameid":4277976,"name":"Republic County","admin2":"157"},{"geonameid":4277995,"name":"Rice County","admin2":"159"},{"geonameid":4278061,"name":"Riley County","admin2":"161"},{"geonameid":4278304,"name":"Rooks County","admin2":"163"},{"geonameid":4278457,"name":"Rush County","admin2":"165"},{"geonameid":4278472,"name":"Russell County","admin2":"167"},{"geonameid":4278895,"name":"Saline County","admin2":"169"},{"geonameid":5446427,"name":"Scott County","admin2":"171"},{"geonameid":4279155,"name":"Sedgwick County","admin2":"173"},{"geonameid":5446445,"name":"Seward County","admin2":"175"},{"geonameid":4279253,"name":"Shawnee County","admin2":"177"},{"geonameid":5446459,"name":"Sheridan County","admin2":"179"},{"geonameid":5446470,"name":"Sherman County","admin2":"181"},{"geonameid":4279478,"name":"Smith County","admin2":"183"},{"geonameid":4279904,"name":"Stafford County","admin2":"185"},{"geonameid":5446561,"name":"Stanton County","admin2":"187"},{"geonameid":5446576,"name":"Stevens County","admin2":"189"},{"geonameid":4280143,"name":"Sumner County","admin2":"191"},{"geonameid":5446632,"name":"Thomas County","admin2":"193"},{"geonameid":4280609,"name":"Trego County","admin2":"195"},{"geonameid":4281087,"name":"Wabaunsee County","admin2":"197"},{"geonameid":5446712,"name":"Wallace County","admin2":"199"},{"geonameid":4281258,"name":"Washington County","admin2":"201"},{"geonameid":5446780,"name":"Wichita County","admin2":"203"},{"geonameid":4281852,"name":"Wilson County","admin2":"205"},{"geonameid":4282006,"name":"Woodson County","admin2":"207"},{"geonameid":4282035,"name":"Wyandotte County","admin2":"209"}],"country":{"geonameid":6252001,"country":"US","name":"United States"},"alternateNames":[{"alternatenameId":2080124,"geonameid":4273857,"isoLanguage":"en","alternateName":"Kansas","isPreferredName":true,"isShortName":true,"isColloquial":false,"isHistoric":false}]},"__N_SSG":true}