{"pageProps":{"locale":"en","admin2":{"geonameid":5071580,"name":"Knox County","country":"US","admin1":"NE","admin2":"107","admin3":"","latitude":"42.6367800","longitude":"-97.8919000"},"admin1":{"geonameid":5073708,"name":"Nebraska","admin1":"NE","localeAltName":"Nebraska"},"locations":[{"geonameid":5066394,"name":"Creighton","admin3":"11230"}],"admin3":[{"geonameid":5062721,"name":"Township of Addison","admin3":"00310"},{"geonameid":5064301,"name":"City of Bloomfield","admin3":"05455"},{"geonameid":5064399,"name":"Township of Bohemia","admin3":"05735"},{"geonameid":5065479,"name":"Township of Central","admin3":"08465"},{"geonameid":5065886,"name":"Township of Cleveland","admin3":"09585"},{"geonameid":5065998,"name":"Township of Columbia","admin3":"10075"},{"geonameid":5066422,"name":"City of Creighton","admin3":"11230"},{"geonameid":5066423,"name":"Township of Creighton","admin3":"11265"},{"geonameid":5066471,"name":"City of Crofton","admin3":"11440"},{"geonameid":5067063,"name":"Township of Dolphin","admin3":"13330"},{"geonameid":5067132,"name":"Township of Dowling","admin3":"13645"},{"geonameid":5067397,"name":"Township of Eastern","admin3":"14205"},{"geonameid":5068639,"name":"Township of Frankfort","admin3":"17425"},{"geonameid":5069746,"name":"Township of Harrison","admin3":"21170"},{"geonameid":5070034,"name":"Township of Herrick","admin3":"22255"},{"geonameid":5070174,"name":"Township of Hill","admin3":"22465"},{"geonameid":5070990,"name":"Township of Jefferson","admin3":"24600"},{"geonameid":5072081,"name":"Township of Lincoln","admin3":"27330"},{"geonameid":5072242,"name":"Township of Logan","admin3":"28875"},{"geonameid":5073192,"name":"Township of Miller","admin3":"32165"},{"geonameid":5073395,"name":"Township of Morton","admin3":"32970"},{"geonameid":5073944,"name":"Township of Niobrara","admin3":"34405"},{"geonameid":5074079,"name":"Township of North Frankfort","admin3":"34765"},{"geonameid":5074991,"name":"Township of Peoria","admin3":"38855"},{"geonameid":5076049,"name":"Township of Raymond","admin3":"40745"},{"geonameid":5079302,"name":"Township of Spade","admin3":"46100"},{"geonameid":5079321,"name":"Township of Sparta","admin3":"46240"},{"geonameid":5080667,"name":"Township of Union","admin3":"49740"},{"geonameid":5081033,"name":"Township of Valley","admin3":"50055"},{"geonameid":5081094,"name":"Township of Verdigre","admin3":"50405"},{"geonameid":5081316,"name":"Township of Walnut Grove","admin3":"51210"},{"geonameid":5081404,"name":"Township of Washington","admin3":"51525"},{"geonameid":5081719,"name":"Township of Western","admin3":"52260"}],"alternateNames":[{"alternatenameId":2124821,"geonameid":5073708,"isoLanguage":"en","alternateName":"Nebraska","isPreferredName":true,"isShortName":true,"isColloquial":false,"isHistoric":false}]},"__N_SSG":true}