{"pageProps":{"locale":"en","admin2":{"geonameid":2633351,"name":"City of York","country":"GB","admin1":"ENG","admin2":"Q5","admin3":"","latitude":"53.9639600","longitude":"-1.0914200"},"admin1":{"geonameid":6269131,"name":"England","admin1":"ENG"},"locations":[{"geonameid":2657771,"name":"Acaster Malbis"},{"geonameid":7299713,"name":"Askham Bryan"},{"geonameid":2656902,"name":"Askham Richard"},{"geonameid":2655550,"name":"Bishopthorpe"},{"geonameid":2652839,"name":"Clifton"},{"geonameid":2652396,"name":"Copmanthorpe"},{"geonameid":8714335,"name":"Crockey Hill"},{"geonameid":2651405,"name":"Deighton"},{"geonameid":2650529,"name":"Earswick"},{"geonameid":2650029,"name":"Elvington"},{"geonameid":2648998,"name":"Fulford"},{"geonameid":2647269,"name":"Haxby"},{"geonameid":2647037,"name":"Heslington"},{"geonameid":2647036,"name":"Hessay"},{"geonameid":7287931,"name":"Heworth"},{"geonameid":2646699,"name":"Holtby"},{"geonameid":2646386,"name":"Huntington"},{"geonameid":6955370,"name":"Murton"},{"geonameid":2641920,"name":"Naburn"},{"geonameid":2641776,"name":"Nether Poppleton"},{"geonameid":2641653,"name":"New Earswick"},{"geonameid":2638980,"name":"Rufforth"},{"geonameid":2637747,"name":"Skelton"},{"geonameid":6692306,"name":"Stockton on the Forest"},{"geonameid":2636667,"name":"Strensall"},{"geonameid":2635111,"name":"Upper Poppleton"},{"geonameid":2634165,"name":"Wheldrake"},{"geonameid":2633942,"name":"Wigginton"},{"geonameid":2633352,"name":"York"}],"admin3":[{"geonameid":7292826,"name":"Dunnington","admin3":"00FF008"},{"geonameid":7292827,"name":"Holtby","admin3":"00FF016"},{"geonameid":7292828,"name":"Murton","admin3":"00FF019"},{"geonameid":7292829,"name":"Nether Poppleton","admin3":"00FF021"},{"geonameid":7292830,"name":"Osbaldwick","admin3":"00FF023"},{"geonameid":7293976,"name":"Earswick","admin3":"00FF009"},{"geonameid":7293977,"name":"Fulford","admin3":"00FF011"},{"geonameid":7293978,"name":"Haxby","admin3":"00FF012"},{"geonameid":7293979,"name":"Hessay","admin3":"00FF014"},{"geonameid":7293980,"name":"Rufforth with Knapton","admin3":"00FF025"},{"geonameid":7297554,"name":"Kexby","admin3":"00FF018"},{"geonameid":7297555,"name":"Wheldrake","admin3":"00FF031"},{"geonameid":7297556,"name":"Wigginton","admin3":"00FF032"},{"geonameid":7297557,"name":"Strensall with Towthorpe","admin3":"00FF033"},{"geonameid":7297916,"name":"Askham Richard","admin3":"00FF003"},{"geonameid":7298398,"name":"Naburn","admin3":"00FF020"},{"geonameid":7298706,"name":"Skelton","admin3":"00FF026"},{"geonameid":7299712,"name":"Acaster Malbis","admin3":"00FF001"},{"geonameid":7299714,"name":"Bishopthorpe","admin3":"00FF004"},{"geonameid":7299715,"name":"Clifton Without","admin3":"00FF005"},{"geonameid":7299716,"name":"Copmanthorpe","admin3":"00FF006"},{"geonameid":7299717,"name":"Deighton","admin3":"00FF007"},{"geonameid":7299718,"name":"Elvington","admin3":"00FF010"},{"geonameid":7299719,"name":"Heslington","admin3":"00FF013"},{"geonameid":7299720,"name":"Huntington","admin3":"00FF017"},{"geonameid":7299721,"name":"New Earswick","admin3":"00FF022"},{"geonameid":7299722,"name":"Rawcliffe","admin3":"00FF024"},{"geonameid":7299723,"name":"Stockton-on-the-Forest","admin3":"00FF027"},{"geonameid":7299724,"name":"Upper Poppleton","admin3":"00FF030"},{"geonameid":7300688,"name":"Heworth Without","admin3":"00FF015"}],"alternateNames":[]},"__N_SSG":true}