{"pageProps":{"locale":"de","locations":[{"geonameid":2956789,"name":"Alt Tucheband","admin3":"12064","localeAltName":null},{"geonameid":2958036,"name":"Altdöbern","admin3":"12066","localeAltName":null},{"geonameid":2957103,"name":"Althüttendorf","admin3":"12060","localeAltName":null},{"geonameid":2957051,"name":"Altlandsberg","admin3":"12064","localeAltName":null},{"geonameid":2956093,"name":"Angermünde","admin3":"12073","localeAltName":null},{"geonameid":2951134,"name":"Bad Belzig","admin3":"12069","localeAltName":null},{"geonameid":2953458,"name":"Bad Freienwalde","admin3":"12064","localeAltName":null},{"geonameid":2953408,"name":"Bad Liebenwerda","admin3":"12062","localeAltName":null},{"geonameid":2953366,"name":"Bad Saarow","admin3":"12067","localeAltName":null},{"geonameid":2953316,"name":"Bad Wilsnack","admin3":"12070","localeAltName":null},{"geonameid":2953298,"name":"Bagenz","admin3":"12071","localeAltName":null},{"geonameid":2952335,"name":"Baruth","admin3":"12072","localeAltName":null},{"geonameid":2951595,"name":"Beelitz","admin3":"12069","localeAltName":null},{"geonameid":2951592,"name":"Beelitz-Heilstätten","admin3":"12069","localeAltName":null},{"geonameid":2951528,"name":"Beeskow","admin3":"12067","localeAltName":null},{"geonameid":3208736,"name":"Bensdorf","admin3":"12069","localeAltName":null},{"geonameid":2950657,"name":"Berge","admin3":"12070","localeAltName":null},{"geonameid":2950196,"name":"Berkenbrück","admin3":"12067","localeAltName":null},{"geonameid":2950096,"name":"Bernau bei Berlin","admin3":"12060","localeAltName":null},{"geonameid":2949777,"name":"Bestensee","admin3":"12061","localeAltName":null},{"geonameid":2949046,"name":"Biesenthal","admin3":"12060","localeAltName":null},{"geonameid":2948503,"name":"Birkenwerder","admin3":"12065","localeAltName":null},{"geonameid":2947751,"name":"Bliesdorf","admin3":"12064","localeAltName":null},{"geonameid":2946214,"name":"Borkheide","admin3":"12069","localeAltName":null},{"geonameid":2946203,"name":"Borkwalde","admin3":"12069","localeAltName":null},{"geonameid":2945358,"name":"Brandenburg an der Havel","admin3":"12051","localeAltName":null},{"geonameid":2944945,"name":"Breddin","admin3":"12068","localeAltName":null},{"geonameid":2944865,"name":"Breese","admin3":"12070","localeAltName":null},{"geonameid":2944126,"name":"Brieselang","admin3":"12063","localeAltName":null},{"geonameid":2944121,"name":"Briesen","admin3":"12067","localeAltName":null},{"geonameid":2944123,"name":"Briesen","admin3":"12071","localeAltName":null},{"geonameid":2944103,"name":"Brieskow-Finkenheerd","admin3":"12067","localeAltName":null},{"geonameid":2944028,"name":"Britz","admin3":"12060","localeAltName":null},{"geonameid":2943779,"name":"Bronkow","admin3":"12066","localeAltName":null},{"geonameid":2943516,"name":"Brück","admin3":"12069","localeAltName":null},{"geonameid":2942986,"name":"Brüssow","admin3":"12073","localeAltName":null},{"geonameid":2942126,"name":"Buckow","admin3":"12064","localeAltName":null},{"geonameid":2941502,"name":"Burg","admin3":"12071","localeAltName":null},{"geonameid":6691733,"name":"Busendorf","admin3":"12069","localeAltName":null},{"geonameid":2940246,"name":"Casekow","admin3":"12073","localeAltName":null},{"geonameid":2940119,"name":"Chorin","admin3":"12060","localeAltName":null},{"geonameid":2939811,"name":"Cottbus","admin3":"12052","localeAltName":null},{"geonameid":2939745,"name":"Crinitz","admin3":"12062","localeAltName":null},{"geonameid":2939693,"name":"Cumlosen","admin3":"12070","localeAltName":null},{"geonameid":2939635,"name":"Dabergotz","admin3":"12068","localeAltName":null},{"geonameid":2939388,"name":"Dahme","admin3":"12072","localeAltName":null},{"geonameid":6547590,"name":"Dallgow-Döberitz","admin3":"12063","localeAltName":null},{"geonameid":2937344,"name":"Diensdorf-Radlow","admin3":"12067","localeAltName":null},{"geonameid":2937328,"name":"Diepensee","admin3":"12061","localeAltName":null},{"geonameid":2936631,"name":"Doberlug-Kirchhain","admin3":"12062","localeAltName":null},{"geonameid":2935386,"name":"Drachhausen","admin3":"12071","localeAltName":null},{"geonameid":2935361,"name":"Drahnsdorf","admin3":"12061","localeAltName":null},{"geonameid":2935298,"name":"Drebkau","admin3":"12071","localeAltName":null},{"geonameid":2935266,"name":"Dreetz","admin3":"12068","localeAltName":null},{"geonameid":2935248,"name":"Drehnow","admin3":"12071","localeAltName":null},{"geonameid":2933882,"name":"Eberswalde","admin3":"12060","localeAltName":null},{"geonameid":2932040,"name":"Eichwalde","admin3":"12061","localeAltName":null},{"geonameid":2931481,"name":"Eisenhüttenstadt","admin3":"12067","localeAltName":null},{"geonameid":2930680,"name":"Elsterwerda","admin3":"12062","localeAltName":null},{"geonameid":2929602,"name":"Erkner","admin3":"12067","localeAltName":null},{"geonameid":2928006,"name":"Falkenberg","admin3":"12064","localeAltName":null},{"geonameid":2928011,"name":"Falkenberg","admin3":"12062","localeAltName":null},{"geonameid":2927978,"name":"Falkenhagen","admin3":"12064","localeAltName":null},{"geonameid":2927930,"name":"Falkensee","admin3":"12063","localeAltName":null},{"geonameid":2927564,"name":"Fehrbellin","admin3":"12068","localeAltName":null},{"geonameid":2926941,"name":"Fichtenwalde","admin3":"12069","localeAltName":"Fichtenwalde"},{"geonameid":2926670,"name":"Finsterwalde","admin3":"12062","localeAltName":null},{"geonameid":2925832,"name":"Forst","admin3":"12071","localeAltName":null},{"geonameid":2925535,"name":"Frankfurt (Oder)","admin3":"12053","localeAltName":null},{"geonameid":2925390,"name":"Frauendorf","admin3":"12071","localeAltName":null},{"geonameid":2925391,"name":"Frauendorf","admin3":"12066","localeAltName":null},{"geonameid":2924680,"name":"Friedland","admin3":"12067","localeAltName":null},{"geonameid":2924443,"name":"Friedrichswalde","admin3":"12060","localeAltName":null},{"geonameid":2924406,"name":"Friesack","admin3":"12063","localeAltName":null},{"geonameid":2923637,"name":"Fürstenberg","admin3":"12065","localeAltName":null},{"geonameid":2923588,"name":"Fürstenwalde","admin3":"12067","localeAltName":null},{"geonameid":2923443,"name":"Gablenz","admin3":"12071","localeAltName":null},{"geonameid":2922432,"name":"Gartz","admin3":"12073","localeAltName":null},{"geonameid":2921323,"name":"Genschmar","admin3":"12064","localeAltName":null},{"geonameid":2921152,"name":"Gerdshagen","admin3":"12070","localeAltName":null},{"geonameid":2920881,"name":"Gerswalde","admin3":"12073","localeAltName":null},{"geonameid":2919908,"name":"Glienicke","admin3":"12065","localeAltName":null},{"geonameid":2919177,"name":"Golßen","admin3":"12061","localeAltName":null},{"geonameid":2919154,"name":"Golzow","admin3":"12060","localeAltName":null},{"geonameid":2919155,"name":"Golzow","admin3":"12064","localeAltName":null},{"geonameid":2919156,"name":"Golzow","admin3":"12069","localeAltName":null},{"geonameid":2919029,"name":"Gorgast","admin3":"12064","localeAltName":null},{"geonameid":2919000,"name":"Göritz","admin3":"12073","localeAltName":null},{"geonameid":2918896,"name":"Görzke","admin3":"12069","localeAltName":null},{"geonameid":2918463,"name":"Gräben","admin3":"12069","localeAltName":null},{"geonameid":2918133,"name":"Gramzow","admin3":"12073","localeAltName":null},{"geonameid":2918088,"name":"Gransee","admin3":"12065","localeAltName":null},{"geonameid":2917194,"name":"Gröden","admin3":"12062","localeAltName":null},{"geonameid":2916859,"name":"Groß Döbbern","admin3":"12071","localeAltName":null},{"geonameid":2915388,"name":"Groß Köris","admin3":"12061","localeAltName":null},{"geonameid":2915375,"name":"Groß Kreutz","admin3":"12069","localeAltName":null},{"geonameid":2915321,"name":"Groß Lindow","admin3":"12067","localeAltName":null},{"geonameid":2915198,"name":"Groß Oßnig","admin3":"12071","localeAltName":null},{"geonameid":2915191,"name":"Groß Pankow","admin3":"12070","localeAltName":null},{"geonameid":2916996,"name":"Großbeeren","admin3":"12072","localeAltName":null},{"geonameid":2916864,"name":"Großderschau","admin3":"12063","localeAltName":null},{"geonameid":2915410,"name":"Großkmehlen","admin3":"12066","localeAltName":null},{"geonameid":2915157,"name":"Großräschen","admin3":"12066","localeAltName":null},{"geonameid":2914950,"name":"Großthiemig","admin3":"12062","localeAltName":null},{"geonameid":2914828,"name":"Großwoltersdorf","admin3":"12065","localeAltName":null},{"geonameid":2914215,"name":"Grünewald","admin3":"12066","localeAltName":null},{"geonameid":2914177,"name":"Grünheide","admin3":"12067","localeAltName":null},{"geonameid":2913922,"name":"Guben","admin3":"12071","localeAltName":null},{"geonameid":2913825,"name":"Guhrow","admin3":"12071","localeAltName":null},{"geonameid":2913721,"name":"Gumtow","admin3":"12070","localeAltName":null},{"geonameid":2913421,"name":"Guteborn","admin3":"12066","localeAltName":null},{"geonameid":2913075,"name":"Haasow","admin3":"12071","localeAltName":null},{"geonameid":2912053,"name":"Haidemühl","admin3":"12071","localeAltName":null},{"geonameid":2911691,"name":"Halbe","admin3":"12061","localeAltName":null},{"geonameid":2907594,"name":"Heiligengrabe","admin3":"12068","localeAltName":null},{"geonameid":2907309,"name":"Heinersbrück","admin3":"12071","localeAltName":null},{"geonameid":2906331,"name":"Hennigsdorf","admin3":"12065","localeAltName":null},{"geonameid":2905906,"name":"Hermsdorf","admin3":"12061","localeAltName":null},{"geonameid":2905502,"name":"Herzberg","admin3":"12068","localeAltName":null},{"geonameid":2905504,"name":"Herzberg","admin3":"12062","localeAltName":null},{"geonameid":2903659,"name":"Hirschfeld","admin3":"12062","localeAltName":null},{"geonameid":2901588,"name":"Hohen Neuendorf","admin3":"12065","localeAltName":null},{"geonameid":2901895,"name":"Hohenbocka","admin3":"12066","localeAltName":null},{"geonameid":2901861,"name":"Hohenbucko","admin3":"12062","localeAltName":null},{"geonameid":2901763,"name":"Hohenfinow","admin3":"12060","localeAltName":null},{"geonameid":2901638,"name":"Hohenleipisch","admin3":"12062","localeAltName":null},{"geonameid":2901509,"name":"Hohensaaten","admin3":"12064","localeAltName":null},{"geonameid":2896643,"name":"Ihlow","admin3":"12072","localeAltName":null},{"geonameid":2895248,"name":"Jacobsdorf","admin3":"12067","localeAltName":null},{"geonameid":2895293,"name":"Jahnberge","admin3":"12063","localeAltName":null},{"geonameid":2895221,"name":"Jamlitz","admin3":"12061","localeAltName":null},{"geonameid":2895189,"name":"Jänschwalde","admin3":"12071","localeAltName":null},{"geonameid":2894884,"name":"Joachimsthal","admin3":"12060","localeAltName":null},{"geonameid":2894394,"name":"Jüterbog","admin3":"12072","localeAltName":null},{"geonameid":2940424,"name":"Kalawa","admin3":"12066","localeAltName":null},{"geonameid":2892648,"name":"Karstädt","admin3":"12070","localeAltName":null},{"geonameid":2892570,"name":"Kasel-Golzig","admin3":"12061","localeAltName":null},{"geonameid":2892372,"name":"Kathlow","admin3":"12071","localeAltName":null},{"geonameid":7280438,"name":"Kesselberg","admin3":"12067","localeAltName":null},{"geonameid":2891282,"name":"Ketzin","admin3":"12063","localeAltName":null},{"geonameid":2890950,"name":"Kietz","admin3":"12064","localeAltName":null},{"geonameid":2890106,"name":"Klaistow","admin3":"12069","localeAltName":null},{"geonameid":2889611,"name":"Klein Döbbern","admin3":"12071","localeAltName":null},{"geonameid":2888523,"name":"Kleinmachnow","admin3":"12069","localeAltName":null},{"geonameid":2886382,"name":"Kolkwitz","admin3":"12071","localeAltName":null},{"geonameid":2886032,"name":"Komptendorf","admin3":"12071","localeAltName":null},{"geonameid":2885732,"name":"Königs Wusterhausen","admin3":"12061","localeAltName":null},{"geonameid":2885618,"name":"Koppatz","admin3":"12071","localeAltName":null},{"geonameid":2885097,"name":"Kotzen","admin3":"12063","localeAltName":null},{"geonameid":2884403,"name":"Kremmen","admin3":"12065","localeAltName":null},{"geonameid":2883583,"name":"Kroppen","admin3":"12066","localeAltName":null},{"geonameid":2882161,"name":"Kyritz","admin3":"12068","localeAltName":null},{"geonameid":2880699,"name":"Langewahl","admin3":"12067","localeAltName":null},{"geonameid":2880485,"name":"Lanz","admin3":"12070","localeAltName":null},{"geonameid":2880235,"name":"Laubsdorf","admin3":"12071","localeAltName":null},{"geonameid":2880221,"name":"Lauchhammer","admin3":"12066","localeAltName":null},{"geonameid":2879843,"name":"Lawitz","admin3":"12067","localeAltName":null},{"geonameid":2879795,"name":"Lebus","admin3":"12064","localeAltName":null},{"geonameid":2879794,"name":"Lebusa","admin3":"12062","localeAltName":null},{"geonameid":2879713,"name":"Leegebruch","admin3":"12065","localeAltName":null},{"geonameid":2879654,"name":"Legde","admin3":"12070","localeAltName":null},{"geonameid":2879630,"name":"Lehde","admin3":"12066","localeAltName":null},{"geonameid":2879157,"name":"Leipe","admin3":"12066","localeAltName":null},{"geonameid":2878731,"name":"Lenzen","admin3":"12070","localeAltName":null},{"geonameid":2878471,"name":"Letschin","admin3":"12064","localeAltName":null},{"geonameid":2878022,"name":"Lichterfeld","admin3":"12062","localeAltName":null},{"geonameid":2877942,"name":"Liebenwalde","admin3":"12065","localeAltName":null},{"geonameid":2877932,"name":"Lieberose","admin3":"12061","localeAltName":null},{"geonameid":2877826,"name":"Liepe","admin3":"12060","localeAltName":null},{"geonameid":2877732,"name":"Lietzen","admin3":"12064","localeAltName":null},{"geonameid":2877425,"name":"Lindenau","admin3":"12066","localeAltName":null},{"geonameid":2877126,"name":"Lindow","admin3":"12068","localeAltName":null},{"geonameid":2876965,"name":"Linthe","admin3":"12069","localeAltName":null},{"geonameid":2875625,"name":"Lubin","admin3":"12061","localeAltName":null},{"geonameid":2875623,"name":"Lubnjow","admin3":"12066","localeAltName":null},{"geonameid":2875509,"name":"Luckau","admin3":"12061","localeAltName":null},{"geonameid":2875484,"name":"Luckenwalde","admin3":"12072","localeAltName":null},{"geonameid":2875379,"name":"Ludwigsfelde","admin3":"12072","localeAltName":null},{"geonameid":2874695,"name":"Lychen","admin3":"12073","localeAltName":null},{"geonameid":2873854,"name":"Manschnow","admin3":"12064","localeAltName":null},{"geonameid":2873464,"name":"Marienwerder","admin3":"12060","localeAltName":null},{"geonameid":2873359,"name":"Märkisch Buchholz","admin3":"12061","localeAltName":null},{"geonameid":2872102,"name":"Melchow","admin3":"12060","localeAltName":null},{"geonameid":2871696,"name":"Merzdorf","admin3":"12062","localeAltName":null},{"geonameid":2871662,"name":"Mescherin","admin3":"12073","localeAltName":null},{"geonameid":2871421,"name":"Meyenburg","admin3":"12073","localeAltName":null},{"geonameid":2871279,"name":"Michendorf","admin3":"12069","localeAltName":null},{"geonameid":2871100,"name":"Milmersdorf","admin3":"12073","localeAltName":null},{"geonameid":2870480,"name":"Mittenwalde","admin3":"12073","localeAltName":null},{"geonameid":2870481,"name":"Mittenwalde","admin3":"12061","localeAltName":null},{"geonameid":2870312,"name":"Mixdorf","admin3":"12067","localeAltName":null},{"geonameid":2868531,"name":"Mühlberg","admin3":"12062","localeAltName":null},{"geonameid":2867763,"name":"Müllrose","admin3":"12067","localeAltName":null},{"geonameid":2867723,"name":"Müncheberg","admin3":"12064","localeAltName":null},{"geonameid":2867717,"name":"Münchehofe","admin3":"12061","localeAltName":null},{"geonameid":2866930,"name":"Nauen","admin3":"12063","localeAltName":null},{"geonameid":2866523,"name":"Nennhausen","admin3":"12063","localeAltName":null},{"geonameid":2863786,"name":"Neu Zauche","admin3":"12061","localeAltName":null},{"geonameid":2865716,"name":"Neuenhagen","admin3":"12064","localeAltName":null},{"geonameid":2865223,"name":"Neuhardenberg","admin3":"12064","localeAltName":null},{"geonameid":2865096,"name":"Neuhausen","admin3":"12071","localeAltName":null},{"geonameid":2864613,"name":"Neulewin","admin3":"12064","localeAltName":null},{"geonameid":2864276,"name":"Neuruppin","admin3":"12068","localeAltName":null},{"geonameid":2863950,"name":"Neutrebbin","admin3":"12064","localeAltName":null},{"geonameid":2863782,"name":"Neuzelle","admin3":"12067","localeAltName":null},{"geonameid":2863442,"name":"Niederfinow","admin3":"12060","localeAltName":null},{"geonameid":2863401,"name":"Niedergörsdorf","admin3":"12072","localeAltName":null},{"geonameid":2862640,"name":"Niemegk","admin3":"12069","localeAltName":null},{"geonameid":2858092,"name":"Oderberg","admin3":"12060","localeAltName":null},{"geonameid":2857129,"name":"Oranienburg","admin3":"12065","localeAltName":null},{"geonameid":2856975,"name":"Ortrand","admin3":"12066","localeAltName":null},{"geonameid":2855215,"name":"Paulinenaue","admin3":"12063","localeAltName":null},{"geonameid":2855151,"name":"Päwesin","admin3":"12069","localeAltName":null},{"geonameid":2855024,"name":"Peitz","admin3":"12071","localeAltName":null},{"geonameid":2854848,"name":"Perleberg","admin3":"12070","localeAltName":null},{"geonameid":2854777,"name":"Pessin","admin3":"12063","localeAltName":null},{"geonameid":2854653,"name":"Petershagen","admin3":"12064","localeAltName":null},{"geonameid":2853571,"name":"Pirow","admin3":"12070","localeAltName":null},{"geonameid":2853332,"name":"Plattenburg","admin3":"12070","localeAltName":null},{"geonameid":2853231,"name":"Plessa","admin3":"12062","localeAltName":null},{"geonameid":2853052,"name":"Podelzig","admin3":"12064","localeAltName":null},{"geonameid":2852458,"name":"Potsdam","admin3":"12054","localeAltName":null},{"geonameid":2852233,"name":"Premnitz","admin3":"12063","localeAltName":null},{"geonameid":2852218,"name":"Prenzlau","admin3":"12073","localeAltName":null},{"geonameid":2851962,"name":"Pritzwalk","admin3":"12070","localeAltName":null},{"geonameid":2851850,"name":"Prötzel","admin3":"12064","localeAltName":null},{"geonameid":2851611,"name":"Putlitz","admin3":"12070","localeAltName":null},{"geonameid":2850490,"name":"Rangsdorf","admin3":"12072","localeAltName":null},{"geonameid":2850213,"name":"Rathenow","admin3":"12063","localeAltName":null},{"geonameid":2850058,"name":"Rauen","admin3":"12067","localeAltName":null},{"geonameid":2849347,"name":"Rehfelde","admin3":"12064","localeAltName":null},{"geonameid":2849052,"name":"Reichenwalde","admin3":"12067","localeAltName":null},{"geonameid":2848364,"name":"Reitwein","admin3":"12064","localeAltName":null},{"geonameid":2847946,"name":"Retzow","admin3":"12063","localeAltName":null},{"geonameid":2847612,"name":"Rheinsberg","admin3":"12068","localeAltName":null},{"geonameid":2847574,"name":"Rhinow","admin3":"12063","localeAltName":null},{"geonameid":2846790,"name":"Rietz Neuendorf","admin3":"12067","localeAltName":null},{"geonameid":2845831,"name":"Roggosen","admin3":"12071","localeAltName":null},{"geonameid":2844880,"name":"Roskow","admin3":"12069","localeAltName":null},{"geonameid":2843493,"name":"Rückersdorf","admin3":"12062","localeAltName":null},{"geonameid":2843368,"name":"Rüdnitz","admin3":"12060","localeAltName":null},{"geonameid":2843256,"name":"Ruhland","admin3":"12066","localeAltName":null},{"geonameid":2843190,"name":"Rühstädt","admin3":"12070","localeAltName":null},{"geonameid":2842801,"name":"Rüthnick","admin3":"12068","localeAltName":null},{"geonameid":2842258,"name":"Sallgast","admin3":"12062","localeAltName":null},{"geonameid":2839751,"name":"Schenkenberg","admin3":"12073","localeAltName":null},{"geonameid":2839748,"name":"Schenkendöbern","admin3":"12071","localeAltName":null},{"geonameid":2839304,"name":"Schilda","admin3":"12062","localeAltName":null},{"geonameid":2839101,"name":"Schipkau","admin3":"12066","localeAltName":null},{"geonameid":2838640,"name":"Schlepzig","admin3":"12061","localeAltName":null},{"geonameid":2838547,"name":"Schlieben","admin3":"12062","localeAltName":null},{"geonameid":2836908,"name":"Schönborn","admin3":"12062","localeAltName":null},{"geonameid":2836791,"name":"Schöneberg","admin3":"12073","localeAltName":null},{"geonameid":2836761,"name":"Schönefeld","admin3":"12061","localeAltName":null},{"geonameid":2836746,"name":"Schöneiche","admin3":"12067","localeAltName":null},{"geonameid":2836697,"name":"Schönermark","admin3":"12065","localeAltName":null},{"geonameid":2836680,"name":"Schönewalde","admin3":"12062","localeAltName":null},{"geonameid":2836219,"name":"Schraden","admin3":"12062","localeAltName":null},{"geonameid":2835787,"name":"Schulzendorf","admin3":"12061","localeAltName":null},{"geonameid":2835150,"name":"Schwarzbach","admin3":"12066","localeAltName":null},{"geonameid":2834740,"name":"Schwarzheide","admin3":"12066","localeAltName":null},{"geonameid":2834629,"name":"Schwedt (Oder)","admin3":"12073","localeAltName":null},{"geonameid":2833651,"name":"Seelow","admin3":"12064","localeAltName":null},{"geonameid":2833073,"name":"Senftenberg","admin3":"12066","localeAltName":null},{"geonameid":2832964,"name":"Sergen","admin3":"12071","localeAltName":null},{"geonameid":2831189,"name":"Sonnenberg","admin3":"12065","localeAltName":null},{"geonameid":2831121,"name":"Sonnewalde","admin3":"12062","localeAltName":null},{"geonameid":2830622,"name":"Sperenberg","admin3":"12072","localeAltName":null},{"geonameid":2830100,"name":"Spreenhagen","admin3":"12067","localeAltName":null},{"geonameid":2829657,"name":"Stahnsdorf","admin3":"12069","localeAltName":null},{"geonameid":2827965,"name":"Steinhöfel","admin3":"12067","localeAltName":null},{"geonameid":2826403,"name":"Storkow","admin3":"12067","localeAltName":null},{"geonameid":2826088,"name":"Straupitz","admin3":"12061","localeAltName":null},{"geonameid":2826082,"name":"Strausberg","admin3":"12064","localeAltName":null},{"geonameid":2824020,"name":"Tantow","admin3":"12073","localeAltName":null},{"geonameid":2823835,"name":"Tauche","admin3":"12067","localeAltName":null},{"geonameid":2823824,"name":"Tauer","admin3":"12071","localeAltName":null},{"geonameid":2823567,"name":"Teltow","admin3":"12069","localeAltName":null},{"geonameid":2823533,"name":"Templin","admin3":"12073","localeAltName":null},{"geonameid":2823393,"name":"Tettau","admin3":"12066","localeAltName":null},{"geonameid":2823256,"name":"Teupitz","admin3":"12061","localeAltName":null},{"geonameid":2821465,"name":"Trebbin","admin3":"12072","localeAltName":null},{"geonameid":2821308,"name":"Treplin","admin3":"12064","localeAltName":null},{"geonameid":2821248,"name":"Treuenbrietzen","admin3":"12069","localeAltName":null},{"geonameid":2821132,"name":"Triglitz","admin3":"12070","localeAltName":null},{"geonameid":2821071,"name":"Tröbitz","admin3":"12062","localeAltName":null},{"geonameid":2820624,"name":"Tschernitz","admin3":"12071","localeAltName":null},{"geonameid":2820474,"name":"Uebigau","admin3":"12062","localeAltName":null},{"geonameid":2817674,"name":"Velten","admin3":"12065","localeAltName":null},{"geonameid":2817567,"name":"Verlorenwasser","admin3":"12069","localeAltName":null},{"geonameid":2817517,"name":"Vetschau","admin3":"12066","localeAltName":null},{"geonameid":2816920,"name":"Vogelsang","admin3":"12067","localeAltName":null},{"geonameid":2814787,"name":"Waldsieversdorf","admin3":"12064","localeAltName":null},{"geonameid":2814465,"name":"Walsleben","admin3":"12068","localeAltName":null},{"geonameid":2814305,"name":"Wandlitz","admin3":"12060","localeAltName":null},{"geonameid":2813895,"name":"Wartin","admin3":"12073","localeAltName":null},{"geonameid":2812095,"name":"Weisen","admin3":"12070","localeAltName":null},{"geonameid":2811348,"name":"Welzow","admin3":"12071","localeAltName":null},{"geonameid":2811218,"name":"Wendisch Rietz","admin3":"12067","localeAltName":null},{"geonameid":2811007,"name":"Wenzlow","admin3":"12069","localeAltName":null},{"geonameid":2810985,"name":"Werben","admin3":"12071","localeAltName":null},{"geonameid":2810945,"name":"Werder","admin3":"12069","localeAltName":null},{"geonameid":2810898,"name":"Werftpfuhl","admin3":"12060","localeAltName":null},{"geonameid":2810815,"name":"Werneuchen","admin3":"12060","localeAltName":null},{"geonameid":2809286,"name":"Wiesenau","admin3":"12067","localeAltName":null},{"geonameid":2809259,"name":"Wiesenburg","admin3":"12069","localeAltName":null},{"geonameid":2807344,"name":"Wittenberge","admin3":"12070","localeAltName":null},{"geonameid":2807201,"name":"Wittstock","admin3":"12068","localeAltName":null},{"geonameid":2806399,"name":"Wollin","admin3":"12069","localeAltName":null},{"geonameid":2806287,"name":"Woltersdorf","admin3":"12067","localeAltName":null},{"geonameid":2805999,"name":"Wriezen","admin3":"12064","localeAltName":null},{"geonameid":2805483,"name":"Wusterhausen","admin3":"12068","localeAltName":null},{"geonameid":2805480,"name":"Wustermark","admin3":"12063","localeAltName":null},{"geonameid":2805475,"name":"Wusterwitz","admin3":"12069","localeAltName":null},{"geonameid":2805119,"name":"Zechin","admin3":"12064","localeAltName":null},{"geonameid":2805075,"name":"Zehdenick","admin3":"12065","localeAltName":null},{"geonameid":2804646,"name":"Zeuthen","admin3":"12061","localeAltName":null},{"geonameid":2804630,"name":"Zichow","admin3":"12073","localeAltName":null},{"geonameid":2804279,"name":"Ziesar","admin3":"12069","localeAltName":null},{"geonameid":2804207,"name":"Ziltendorf","admin3":"12067","localeAltName":null},{"geonameid":2803870,"name":"Zossen","admin3":"12072","localeAltName":null}],"admin1":{"geonameid":2945356,"name":"Brandenburg","admin1":"11","localeAltName":"Brandenburg"},"admin2":"no-adm2","admin3":{"geonameid":2852456,"name":"Landkreis Potsdam-Mittelmark","country":"DE","admin1":"11","admin2":"00","admin3":"12069","latitude":"52.2194400","longitude":"12.6750000","localeAltName":null},"admin4":[{"geonameid":6547404,"name":"Gröden","admin3":"12062","localeAltName":null},{"geonameid":6547405,"name":"Großthiemig","admin3":"12062","localeAltName":null},{"geonameid":6547406,"name":"Hirschfeld","admin3":"12062","localeAltName":null},{"geonameid":6547410,"name":"Hohenbucko","admin3":"12062","localeAltName":null},{"geonameid":6547417,"name":"Breese","admin3":"12070","localeAltName":null},{"geonameid":6547486,"name":"Lebusa","admin3":"12062","localeAltName":null},{"geonameid":6547540,"name":"Brandenburg an der Havel","admin3":"12051","localeAltName":null},{"geonameid":6547541,"name":"Cottbus","admin3":"12052","localeAltName":null},{"geonameid":6547542,"name":"Frankfurt (Oder)","admin3":"12053","localeAltName":null},{"geonameid":6547543,"name":"Ahrensfelde","admin3":"12060","localeAltName":null},{"geonameid":6547544,"name":"Althüttendorf","admin3":"12060","localeAltName":null},{"geonameid":6547545,"name":"Breydin","admin3":"12060","localeAltName":null},{"geonameid":6547546,"name":"Britz","admin3":"12060","localeAltName":null},{"geonameid":6547547,"name":"Chorin","admin3":"12060","localeAltName":null},{"geonameid":6547548,"name":"Friedrichswalde","admin3":"12060","localeAltName":null},{"geonameid":6547549,"name":"Hohenfinow","admin3":"12060","localeAltName":null},{"geonameid":6547551,"name":"Liepe","admin3":"12060","localeAltName":null},{"geonameid":6547552,"name":"Lunow-Stolzenhagen","admin3":"12060","localeAltName":null},{"geonameid":6547553,"name":"Marienwerder","admin3":"12060","localeAltName":null},{"geonameid":6547554,"name":"Melchow","admin3":"12060","localeAltName":null},{"geonameid":6547555,"name":"Niederfinow","admin3":"12060","localeAltName":null},{"geonameid":6547556,"name":"Parsteinsee","admin3":"12060","localeAltName":null},{"geonameid":6547557,"name":"Rüdnitz","admin3":"12060","localeAltName":null},{"geonameid":6547558,"name":"Wandlitz","admin3":"12060","localeAltName":null},{"geonameid":6547559,"name":"Ziethen","admin3":"12060","localeAltName":null},{"geonameid":6547560,"name":"Bestensee","admin3":"12061","localeAltName":null},{"geonameid":6547561,"name":"Drahnsdorf","admin3":"12061","localeAltName":null},{"geonameid":6547562,"name":"Eichwalde","admin3":"12061","localeAltName":null},{"geonameid":6547563,"name":"Groß Köris","admin3":"12061","localeAltName":null},{"geonameid":6547564,"name":"Halbe","admin3":"12061","localeAltName":null},{"geonameid":6547565,"name":"Jamlitz","admin3":"12061","localeAltName":null},{"geonameid":6547566,"name":"Kasel-Golzig","admin3":"12061","localeAltName":null},{"geonameid":6547567,"name":"Krausnick-Groß Wasserburg","admin3":"12061","localeAltName":null},{"geonameid":6547568,"name":"Münchehofe","admin3":"12061","localeAltName":null},{"geonameid":6547569,"name":"Neu Zauche","admin3":"12061","localeAltName":null},{"geonameid":6547570,"name":"Rietzneuendorf-Staakow","admin3":"12061","localeAltName":null},{"geonameid":6547571,"name":"Schlepzig","admin3":"12061","localeAltName":null},{"geonameid":6547572,"name":"Schönwald","admin3":"12061","localeAltName":null},{"geonameid":6547573,"name":"Schulzendorf","admin3":"12061","localeAltName":null},{"geonameid":6547574,"name":"Schwerin","admin3":"12061","localeAltName":null},{"geonameid":6547575,"name":"Straupitz","admin3":"12061","localeAltName":null},{"geonameid":6547576,"name":"Unterspreewald","admin3":"12061","localeAltName":null},{"geonameid":6547577,"name":"Wildau","admin3":"12061","localeAltName":null},{"geonameid":6547578,"name":"Zeuthen","admin3":"12061","localeAltName":null},{"geonameid":6547579,"name":"Crinitz","admin3":"12062","localeAltName":null},{"geonameid":6547580,"name":"Hohenleipisch","admin3":"12062","localeAltName":null},{"geonameid":6547581,"name":"Merzdorf","admin3":"12062","localeAltName":null},{"geonameid":6547582,"name":"Plessa","admin3":"12062","localeAltName":null},{"geonameid":6547583,"name":"Rückersdorf","admin3":"12062","localeAltName":null},{"geonameid":6547584,"name":"Sallgast","admin3":"12062","localeAltName":null},{"geonameid":6547585,"name":"Schilda","admin3":"12062","localeAltName":null},{"geonameid":6547586,"name":"Schönborn","admin3":"12062","localeAltName":null},{"geonameid":6547587,"name":"Schraden","admin3":"12062","localeAltName":null},{"geonameid":6547588,"name":"Tröbitz","admin3":"12062","localeAltName":null},{"geonameid":6547589,"name":"Brieselang","admin3":"12063","localeAltName":null},{"geonameid":6547591,"name":"Gollenberg","admin3":"12063","localeAltName":null},{"geonameid":6547592,"name":"Großderschau","admin3":"12063","localeAltName":null},{"geonameid":6547593,"name":"Havelaue","admin3":"12063","localeAltName":null},{"geonameid":6547594,"name":"Kleßen-Görne","admin3":"12063","localeAltName":null},{"geonameid":6547595,"name":"Kotzen","admin3":"12063","localeAltName":null},{"geonameid":6547596,"name":"Mühlenberge","admin3":"12063","localeAltName":null},{"geonameid":6547597,"name":"Nennhausen","admin3":"12063","localeAltName":null},{"geonameid":6547598,"name":"Paulinenaue","admin3":"12063","localeAltName":null},{"geonameid":6547599,"name":"Pessin","admin3":"12063","localeAltName":null},{"geonameid":6547600,"name":"Retzow","admin3":"12063","localeAltName":null},{"geonameid":6547601,"name":"Seeblick","admin3":"12063","localeAltName":null},{"geonameid":6547602,"name":"Stechow-Ferchesar","admin3":"12063","localeAltName":null},{"geonameid":6547603,"name":"Wustermark","admin3":"12063","localeAltName":null},{"geonameid":6547604,"name":"Falkenhagen","admin3":"12064","localeAltName":null},{"geonameid":6547605,"name":"Fredersdorf-Vogelsdorf","admin3":"12064","localeAltName":null},{"geonameid":6547606,"name":"Golzow","admin3":"12064","localeAltName":null},{"geonameid":6547607,"name":"Hoppegarten","admin3":"12064","localeAltName":null},{"geonameid":6547608,"name":"Letschin","admin3":"12064","localeAltName":null},{"geonameid":6547609,"name":"Lietzen","admin3":"12064","localeAltName":null},{"geonameid":6547610,"name":"Neuenhagen bei Berlin","admin3":"12064","localeAltName":null},{"geonameid":6547611,"name":"Petershagen/Eggersdorf","admin3":"12064","localeAltName":null},{"geonameid":6547612,"name":"Podelzig","admin3":"12064","localeAltName":null},{"geonameid":6547613,"name":"Reitwein","admin3":"12064","localeAltName":null},{"geonameid":6547614,"name":"Rüdersdorf bei Berlin","admin3":"12064","localeAltName":null},{"geonameid":6547615,"name":"Treplin","admin3":"12064","localeAltName":null},{"geonameid":6547616,"name":"Waldsieversdorf","admin3":"12064","localeAltName":null},{"geonameid":6547617,"name":"Birkenwerder","admin3":"12065","localeAltName":null},{"geonameid":6547618,"name":"Großwoltersdorf","admin3":"12065","localeAltName":null},{"geonameid":6547619,"name":"Leegebruch","admin3":"12065","localeAltName":null},{"geonameid":6547620,"name":"Löwenberger Land","admin3":"12065","localeAltName":null},{"geonameid":6547621,"name":"Oberkrämer","admin3":"12065","localeAltName":null},{"geonameid":6547622,"name":"Schönermark","admin3":"12065","localeAltName":null},{"geonameid":6547623,"name":"Sonnenberg","admin3":"12065","localeAltName":null},{"geonameid":6547624,"name":"Stechlin","admin3":"12065","localeAltName":null},{"geonameid":6547625,"name":"Altdöbern","admin3":"12066","localeAltName":null},{"geonameid":6547626,"name":"Bronkow","admin3":"12066","localeAltName":null},{"geonameid":6547627,"name":"Großkmehlen","admin3":"12066","localeAltName":null},{"geonameid":6547628,"name":"Grünewald","admin3":"12066","localeAltName":null},{"geonameid":6547629,"name":"Guteborn","admin3":"12066","localeAltName":null},{"geonameid":6547630,"name":"Hermsdorf","admin3":"12066","localeAltName":null},{"geonameid":6547631,"name":"Hohenbocka","admin3":"12066","localeAltName":null},{"geonameid":6547632,"name":"Kroppen","admin3":"12066","localeAltName":null},{"geonameid":6547633,"name":"Lindenau","admin3":"12066","localeAltName":null},{"geonameid":6547634,"name":"Luckaitztal","admin3":"12066","localeAltName":null},{"geonameid":6547635,"name":"Neu-Seeland","admin3":"12066","localeAltName":null},{"geonameid":6547636,"name":"Neupetershain","admin3":"12066","localeAltName":null},{"geonameid":6547637,"name":"Schwarzbach","admin3":"12066","localeAltName":null},{"geonameid":6547638,"name":"Tettau","admin3":"12066","localeAltName":null},{"geonameid":6547639,"name":"Berkenbrück","admin3":"12067","localeAltName":null},{"geonameid":6547640,"name":"Brieskow-Finkenheerd","admin3":"12067","localeAltName":null},{"geonameid":6547641,"name":"Diensdorf-Radlow","admin3":"12067","localeAltName":null},{"geonameid":6547642,"name":"Gosen-Neu Zittau","admin3":"12067","localeAltName":null},{"geonameid":6547643,"name":"Langewahl","admin3":"12067","localeAltName":null},{"geonameid":6547644,"name":"Lawitz","admin3":"12067","localeAltName":null},{"geonameid":6547645,"name":"Mixdorf","admin3":"12067","localeAltName":null},{"geonameid":6547646,"name":"Rauen","admin3":"12067","localeAltName":null},{"geonameid":6547647,"name":"Schöneiche bei Berlin","admin3":"12067","localeAltName":null},{"geonameid":6547648,"name":"Vogelsang","admin3":"12067","localeAltName":null},{"geonameid":6547649,"name":"Wendisch Rietz","admin3":"12067","localeAltName":null},{"geonameid":6547650,"name":"Wiesenau","admin3":"12067","localeAltName":null},{"geonameid":6547651,"name":"Woltersdorf","admin3":"12067","localeAltName":null},{"geonameid":6547652,"name":"Breddin","admin3":"12068","localeAltName":null},{"geonameid":6547653,"name":"Dabergotz","admin3":"12068","localeAltName":null},{"geonameid":6547654,"name":"Dreetz","admin3":"12068","localeAltName":null},{"geonameid":6547655,"name":"Märkisch Linden","admin3":"12068","localeAltName":null},{"geonameid":6547656,"name":"Rüthnick","admin3":"12068","localeAltName":null},{"geonameid":6547657,"name":"Sieversdorf-Hohenofen","admin3":"12068","localeAltName":null},{"geonameid":6547658,"name":"Storbeck-Frankendorf","admin3":"12068","localeAltName":null},{"geonameid":6547659,"name":"Stüdenitz-Schönermark","admin3":"12068","localeAltName":null},{"geonameid":6547660,"name":"Temnitzquell","admin3":"12068","localeAltName":null},{"geonameid":6547661,"name":"Walsleben","admin3":"12068","localeAltName":null},{"geonameid":6547662,"name":"Zernitz-Lohm","admin3":"12068","localeAltName":null},{"geonameid":6547663,"name":"Beetzsee","admin3":"12069","localeAltName":null},{"geonameid":6547664,"name":"Beetzseeheide","admin3":"12069","localeAltName":null},{"geonameid":6547665,"name":"Bensdorf","admin3":"12069","localeAltName":null},{"geonameid":6547666,"name":"Borkheide","admin3":"12069","localeAltName":null},{"geonameid":6547668,"name":"Buckautal","admin3":"12069","localeAltName":null},{"geonameid":6547669,"name":"Golzow","admin3":"12069","localeAltName":null},{"geonameid":6547670,"name":"Görzke","admin3":"12069","localeAltName":null},{"geonameid":6547671,"name":"Gräben","admin3":"12069","localeAltName":null},{"geonameid":6547672,"name":"Kleinmachnow","admin3":"12069","localeAltName":null},{"geonameid":6547673,"name":"Kloster Lehnin","admin3":"12069","localeAltName":null},{"geonameid":6547674,"name":"Linthe","admin3":"12069","localeAltName":null},{"geonameid":6547675,"name":"Michendorf","admin3":"12069","localeAltName":null},{"geonameid":6547676,"name":"Mühlenfließ","admin3":"12069","localeAltName":null},{"geonameid":6547677,"name":"Päwesin","admin3":"12069","localeAltName":null},{"geonameid":6547678,"name":"Planebruch","admin3":"12069","localeAltName":null},{"geonameid":6547679,"name":"Planetal","admin3":"12069","localeAltName":null},{"geonameid":6547680,"name":"Rosenau","admin3":"12069","localeAltName":null},{"geonameid":6547681,"name":"Roskow","admin3":"12069","localeAltName":null},{"geonameid":6547682,"name":"Schwielowsee","admin3":"12069","localeAltName":null},{"geonameid":6547683,"name":"Seddiner See","admin3":"12069","localeAltName":null},{"geonameid":6547684,"name":"Stahnsdorf","admin3":"12069","localeAltName":null},{"geonameid":6547685,"name":"Wenzlow","admin3":"12069","localeAltName":null},{"geonameid":6547686,"name":"Wollin","admin3":"12069","localeAltName":null},{"geonameid":6547687,"name":"Wusterwitz","admin3":"12069","localeAltName":null},{"geonameid":6547688,"name":"Berge","admin3":"12070","localeAltName":null},{"geonameid":6547689,"name":"Cumlosen","admin3":"12070","localeAltName":null},{"geonameid":6547690,"name":"Gerdshagen","admin3":"12070","localeAltName":null},{"geonameid":6547691,"name":"Gülitz-Reetz","admin3":"12070","localeAltName":null},{"geonameid":6547692,"name":"Gumtow","admin3":"12070","localeAltName":null},{"geonameid":6547693,"name":"Halenbeck-Rohlsdorf","admin3":"12070","localeAltName":null},{"geonameid":6547694,"name":"Karstädt","admin3":"12070","localeAltName":null},{"geonameid":6547695,"name":"Kümmernitztal","admin3":"12070","localeAltName":null},{"geonameid":6547696,"name":"Lanz","admin3":"12070","localeAltName":null},{"geonameid":6547697,"name":"Marienfließ","admin3":"12070","localeAltName":null},{"geonameid":6547698,"name":"Pirow","admin3":"12070","localeAltName":null},{"geonameid":6547699,"name":"Rühstädt","admin3":"12070","localeAltName":null},{"geonameid":6547700,"name":"Triglitz","admin3":"12070","localeAltName":null},{"geonameid":6547701,"name":"Weisen","admin3":"12070","localeAltName":null},{"geonameid":6547702,"name":"Briesen","admin3":"12071","localeAltName":null},{"geonameid":6547703,"name":"Burg (Spreewald)","admin3":"12071","localeAltName":null},{"geonameid":6547704,"name":"Dissen-Striesow","admin3":"12071","localeAltName":null},{"geonameid":6547705,"name":"Drachhausen","admin3":"12071","localeAltName":null},{"geonameid":6547706,"name":"Drehnow","admin3":"12071","localeAltName":null},{"geonameid":6547707,"name":"Felixsee","admin3":"12071","localeAltName":null},{"geonameid":6547708,"name":"Groß Schacksdorf-Simmersdorf","admin3":"12071","localeAltName":null},{"geonameid":6547709,"name":"Guhrow","admin3":"12071","localeAltName":null},{"geonameid":6547710,"name":"Heinersbrück","admin3":"12071","localeAltName":null},{"geonameid":6547712,"name":"Jämlitz-Klein Düben","admin3":"12071","localeAltName":null},{"geonameid":6547713,"name":"Jänschwalde","admin3":"12071","localeAltName":null},{"geonameid":6547714,"name":"Kolkwitz","admin3":"12071","localeAltName":null},{"geonameid":6547715,"name":"Neiße-Malxetal","admin3":"12071","localeAltName":null},{"geonameid":6547716,"name":"Neuhausen/Spree","admin3":"12071","localeAltName":null},{"geonameid":6547717,"name":"Schmogrow-Fehrow","admin3":"12071","localeAltName":null},{"geonameid":6547718,"name":"Tauer","admin3":"12071","localeAltName":null},{"geonameid":6547719,"name":"Teichland","admin3":"12071","localeAltName":null},{"geonameid":6547720,"name":"Tschernitz","admin3":"12071","localeAltName":null},{"geonameid":6547721,"name":"Turnow-Preilack","admin3":"12071","localeAltName":null},{"geonameid":6547722,"name":"Werben","admin3":"12071","localeAltName":null},{"geonameid":6547723,"name":"Wiesengrund","admin3":"12071","localeAltName":null},{"geonameid":6547724,"name":"Dahmetal","admin3":"12072","localeAltName":null},{"geonameid":6547725,"name":"Großbeeren","admin3":"12072","localeAltName":null},{"geonameid":6547726,"name":"Ihlow","admin3":"12072","localeAltName":null},{"geonameid":6547727,"name":"Niedergörsdorf","admin3":"12072","localeAltName":null},{"geonameid":6547728,"name":"Niederer Fläming","admin3":"12072","localeAltName":null},{"geonameid":6547729,"name":"Rangsdorf","admin3":"12072","localeAltName":null},{"geonameid":6547730,"name":"Berkholz-Meyenburg","admin3":"12073","localeAltName":null},{"geonameid":6547731,"name":"Boitzenburger Land","admin3":"12073","localeAltName":null},{"geonameid":6547732,"name":"Carmzow-Wallmow","admin3":"12073","localeAltName":null},{"geonameid":6547733,"name":"Casekow","admin3":"12073","localeAltName":null},{"geonameid":6547734,"name":"Flieth-Stegelitz","admin3":"12073","localeAltName":null},{"geonameid":6547735,"name":"Gerswalde","admin3":"12073","localeAltName":null},{"geonameid":6547736,"name":"Göritz","admin3":"12073","localeAltName":null},{"geonameid":6547737,"name":"Gramzow","admin3":"12073","localeAltName":null},{"geonameid":6547738,"name":"Grünow","admin3":"12073","localeAltName":null},{"geonameid":6547739,"name":"Mark Landin","admin3":"12073","localeAltName":null},{"geonameid":6547740,"name":"Mescherin","admin3":"12073","localeAltName":null},{"geonameid":6547741,"name":"Milmersdorf","admin3":"12073","localeAltName":null},{"geonameid":6547742,"name":"Mittenwalde","admin3":"12073","localeAltName":null},{"geonameid":6547743,"name":"Nordwestuckermark","admin3":"12073","localeAltName":null},{"geonameid":6547744,"name":"Oberuckersee","admin3":"12073","localeAltName":null},{"geonameid":6547745,"name":"Pinnow","admin3":"12073","localeAltName":null},{"geonameid":6547746,"name":"Randowtal","admin3":"12073","localeAltName":null},{"geonameid":6547747,"name":"Schenkenberg","admin3":"12073","localeAltName":null},{"geonameid":6547748,"name":"Schöneberg","admin3":"12073","localeAltName":null},{"geonameid":6547749,"name":"Schönfeld","admin3":"12073","localeAltName":null},{"geonameid":6547750,"name":"Tantow","admin3":"12073","localeAltName":null},{"geonameid":6547751,"name":"Temmen-Ringenwalde","admin3":"12073","localeAltName":null},{"geonameid":6547752,"name":"Uckerfelde","admin3":"12073","localeAltName":null},{"geonameid":6547753,"name":"Uckerland","admin3":"12073","localeAltName":null},{"geonameid":6547754,"name":"Passow","admin3":"12073","localeAltName":null},{"geonameid":6547755,"name":"Zichow","admin3":"12073","localeAltName":null},{"geonameid":6550584,"name":"Biesenthal","admin3":"12060","localeAltName":null},{"geonameid":6550585,"name":"Eberswalde","admin3":"12060","localeAltName":null},{"geonameid":6550586,"name":"Joachimsthal","admin3":"12060","localeAltName":null},{"geonameid":6550587,"name":"Oderberg","admin3":"12060","localeAltName":null},{"geonameid":6550588,"name":"Werneuchen","admin3":"12060","localeAltName":null},{"geonameid":6550589,"name":"Golßen","admin3":"12061","localeAltName":null},{"geonameid":6550590,"name":"Königs Wusterhausen","admin3":"12061","localeAltName":null},{"geonameid":6550591,"name":"Lieberose","admin3":"12061","localeAltName":null},{"geonameid":6550592,"name":"Lübben (Spreewald)","admin3":"12061","localeAltName":null},{"geonameid":6550593,"name":"Luckau","admin3":"12061","localeAltName":null},{"geonameid":6550594,"name":"Märkisch Buchholz","admin3":"12061","localeAltName":null},{"geonameid":6550595,"name":"Mittenwalde","admin3":"12061","localeAltName":null},{"geonameid":6550596,"name":"Teupitz","admin3":"12061","localeAltName":null},{"geonameid":6550597,"name":"Bad Liebenwerda","admin3":"12062","localeAltName":null},{"geonameid":6550598,"name":"Doberlug-Kirchhain","admin3":"12062","localeAltName":null},{"geonameid":6550599,"name":"Elsterwerda","admin3":"12062","localeAltName":null},{"geonameid":6550600,"name":"Finsterwalde","admin3":"12062","localeAltName":null},{"geonameid":6550601,"name":"Herzberg (Elster)","admin3":"12062","localeAltName":null},{"geonameid":6550602,"name":"Mühlberg/Elbe","admin3":"12062","localeAltName":null},{"geonameid":6550603,"name":"Schlieben","admin3":"12062","localeAltName":null},{"geonameid":6550604,"name":"Sonnewalde","admin3":"12062","localeAltName":null},{"geonameid":6550605,"name":"Uebigau-Wahrenbrück","admin3":"12062","localeAltName":null},{"geonameid":6550606,"name":"Falkensee","admin3":"12063","localeAltName":null},{"geonameid":6550607,"name":"Friesack","admin3":"12063","localeAltName":null},{"geonameid":6550608,"name":"Ketzin","admin3":"12063","localeAltName":null},{"geonameid":6550609,"name":"Nauen","admin3":"12063","localeAltName":null},{"geonameid":6550610,"name":"Premnitz","admin3":"12063","localeAltName":null},{"geonameid":6550611,"name":"Rathenow","admin3":"12063","localeAltName":null},{"geonameid":6550612,"name":"Rhinow","admin3":"12063","localeAltName":null},{"geonameid":6550613,"name":"Altlandsberg","admin3":"12064","localeAltName":null},{"geonameid":6550614,"name":"Buckow","admin3":"12064","localeAltName":null},{"geonameid":6550615,"name":"Seelow","admin3":"12064","localeAltName":null},{"geonameid":6550616,"name":"Strausberg","admin3":"12064","localeAltName":null},{"geonameid":6550617,"name":"Wriezen","admin3":"12064","localeAltName":null},{"geonameid":6550618,"name":"Gransee","admin3":"12065","localeAltName":null},{"geonameid":6550619,"name":"Hennigsdorf","admin3":"12065","localeAltName":null},{"geonameid":6550620,"name":"Hohen Neuendorf","admin3":"12065","localeAltName":null},{"geonameid":6550621,"name":"Kremmen","admin3":"12065","localeAltName":null},{"geonameid":6550622,"name":"Liebenwalde","admin3":"12065","localeAltName":null},{"geonameid":6550623,"name":"Oranienburg","admin3":"12065","localeAltName":null},{"geonameid":6550624,"name":"Velten","admin3":"12065","localeAltName":null},{"geonameid":6550625,"name":"Zehdenick","admin3":"12065","localeAltName":null},{"geonameid":6550626,"name":"Calau","admin3":"12066","localeAltName":null},{"geonameid":6550627,"name":"Großräschen","admin3":"12066","localeAltName":null},{"geonameid":6550628,"name":"Lauchhammer","admin3":"12066","localeAltName":null},{"geonameid":6550629,"name":"Ortrand","admin3":"12066","localeAltName":null},{"geonameid":6550630,"name":"Ruhland","admin3":"12066","localeAltName":null},{"geonameid":6550631,"name":"Schwarzheide","admin3":"12066","localeAltName":null},{"geonameid":6550632,"name":"Senftenberg","admin3":"12066","localeAltName":null},{"geonameid":6550633,"name":"Erkner","admin3":"12067","localeAltName":null},{"geonameid":6550634,"name":"Fürstenwalde/Spree","admin3":"12067","localeAltName":null},{"geonameid":6550635,"name":"Müllrose","admin3":"12067","localeAltName":null},{"geonameid":6550636,"name":"Neuruppin","admin3":"12068","localeAltName":null},{"geonameid":6550637,"name":"Neustadt (Dosse)","admin3":"12068","localeAltName":null},{"geonameid":6550638,"name":"Beelitz","admin3":"12069","localeAltName":null},{"geonameid":6550639,"name":"Bad Belzig","admin3":"12069","localeAltName":null},{"geonameid":6550640,"name":"Brück","admin3":"12069","localeAltName":null},{"geonameid":6550641,"name":"Havelsee","admin3":"12069","localeAltName":null},{"geonameid":6550642,"name":"Niemegk","admin3":"12069","localeAltName":null},{"geonameid":6550643,"name":"Teltow","admin3":"12069","localeAltName":null},{"geonameid":6550644,"name":"Treuenbrietzen","admin3":"12069","localeAltName":null},{"geonameid":6550645,"name":"Werder (Havel)","admin3":"12069","localeAltName":null},{"geonameid":6550646,"name":"Ziesar","admin3":"12069","localeAltName":null},{"geonameid":6550647,"name":"Bad Wilsnack","admin3":"12070","localeAltName":null},{"geonameid":6550648,"name":"Lenzen (Elbe)","admin3":"12070","localeAltName":null},{"geonameid":6550649,"name":"Meyenburg","admin3":"12070","localeAltName":null},{"geonameid":6550650,"name":"Perleberg","admin3":"12070","localeAltName":null},{"geonameid":6550651,"name":"Pritzwalk","admin3":"12070","localeAltName":null},{"geonameid":6550652,"name":"Putlitz","admin3":"12070","localeAltName":null},{"geonameid":6550653,"name":"Wittenberge","admin3":"12070","localeAltName":null},{"geonameid":6550654,"name":"Döbern","admin3":"12071","localeAltName":null},{"geonameid":6550655,"name":"Drebkau","admin3":"12071","localeAltName":null},{"geonameid":6550656,"name":"Forst (Lausitz)","admin3":"12071","localeAltName":null},{"geonameid":6550657,"name":"Guben","admin3":"12071","localeAltName":null},{"geonameid":6550658,"name":"Peitz","admin3":"12071","localeAltName":null},{"geonameid":6550660,"name":"Welzow","admin3":"12071","localeAltName":null},{"geonameid":6550661,"name":"Jüterbog","admin3":"12072","localeAltName":null},{"geonameid":6550662,"name":"Luckenwalde","admin3":"12072","localeAltName":null},{"geonameid":6550663,"name":"Ludwigsfelde","admin3":"12072","localeAltName":null},{"geonameid":6550664,"name":"Trebbin","admin3":"12072","localeAltName":null},{"geonameid":6550665,"name":"Zossen","admin3":"12072","localeAltName":null},{"geonameid":6550666,"name":"Angermünde","admin3":"12073","localeAltName":null},{"geonameid":6550667,"name":"Brüssow","admin3":"12073","localeAltName":null},{"geonameid":6550668,"name":"Gartz (Oder)","admin3":"12073","localeAltName":null},{"geonameid":6550669,"name":"Lychen","admin3":"12073","localeAltName":null},{"geonameid":6550670,"name":"Prenzlau","admin3":"12073","localeAltName":null},{"geonameid":6550671,"name":"Templin","admin3":"12073","localeAltName":null},{"geonameid":6551058,"name":"Heideblick","admin3":"12061","localeAltName":null},{"geonameid":6551059,"name":"Steinreich","admin3":"12061","localeAltName":null},{"geonameid":6551060,"name":"Märkisch Luch","admin3":"12063","localeAltName":null},{"geonameid":6551061,"name":"Alt Tucheband","admin3":"12064","localeAltName":null},{"geonameid":6551062,"name":"Beiersdorf-Freudenberg","admin3":"12064","localeAltName":null},{"geonameid":6551063,"name":"Bleyen-Genschmar","admin3":"12064","localeAltName":null},{"geonameid":6551064,"name":"Bliesdorf","admin3":"12064","localeAltName":null},{"geonameid":6551065,"name":"Falkenberg","admin3":"12064","localeAltName":null},{"geonameid":6551066,"name":"Fichtenhöhe","admin3":"12064","localeAltName":null},{"geonameid":6551067,"name":"Garzau-Garzin","admin3":"12064","localeAltName":null},{"geonameid":6551068,"name":"Gusow-Platkow","admin3":"12064","localeAltName":null},{"geonameid":6551069,"name":"Heckelberg-Brunow","admin3":"12064","localeAltName":null},{"geonameid":6551070,"name":"Höhenland","admin3":"12064","localeAltName":null},{"geonameid":6551071,"name":"Küstriner Vorland","admin3":"12064","localeAltName":null},{"geonameid":6551072,"name":"Lebus","admin3":"12064","localeAltName":null},{"geonameid":6551073,"name":"Lindendorf","admin3":"12064","localeAltName":null},{"geonameid":6551074,"name":"Märkische Höhe","admin3":"12064","localeAltName":null},{"geonameid":6551075,"name":"Neuhardenberg","admin3":"12064","localeAltName":null},{"geonameid":6551076,"name":"Neulewin","admin3":"12064","localeAltName":null},{"geonameid":6551077,"name":"Neutrebbin","admin3":"12064","localeAltName":null},{"geonameid":6551078,"name":"Oberbarnim","admin3":"12064","localeAltName":null},{"geonameid":6551079,"name":"Oderaue","admin3":"12064","localeAltName":null},{"geonameid":6551080,"name":"Prötzel","admin3":"12064","localeAltName":null},{"geonameid":6551081,"name":"Rehfelde","admin3":"12064","localeAltName":null},{"geonameid":6551082,"name":"Vierlinden","admin3":"12064","localeAltName":null},{"geonameid":6551083,"name":"Zechin","admin3":"12064","localeAltName":null},{"geonameid":6551084,"name":"Schipkau","admin3":"12066","localeAltName":null},{"geonameid":6551085,"name":"Bad Saarow","admin3":"12067","localeAltName":null},{"geonameid":6551086,"name":"Beeskow","admin3":"12067","localeAltName":null},{"geonameid":6551087,"name":"Briesen (Mark)","admin3":"12067","localeAltName":null},{"geonameid":6551088,"name":"Eisenhüttenstadt","admin3":"12067","localeAltName":null},{"geonameid":6551089,"name":"Friedland","admin3":"12067","localeAltName":null},{"geonameid":6551090,"name":"Groß Lindow","admin3":"12067","localeAltName":null},{"geonameid":6551091,"name":"Grünheide (Mark)","admin3":"12067","localeAltName":null},{"geonameid":6551092,"name":"Grunow-Dammendorf","admin3":"12067","localeAltName":null},{"geonameid":6551093,"name":"Jacobsdorf","admin3":"12067","localeAltName":null},{"geonameid":6551095,"name":"Neißemünde","admin3":"12067","localeAltName":null},{"geonameid":6551096,"name":"Neuzelle","admin3":"12067","localeAltName":null},{"geonameid":6551097,"name":"Ragow-Merz","admin3":"12067","localeAltName":null},{"geonameid":6551098,"name":"Reichenwalde","admin3":"12067","localeAltName":null},{"geonameid":6551099,"name":"Rietz-Neuendorf","admin3":"12067","localeAltName":null},{"geonameid":6551100,"name":"Schlaubetal","admin3":"12067","localeAltName":null},{"geonameid":6551101,"name":"Siehdichum","admin3":"12067","localeAltName":null},{"geonameid":6551102,"name":"Spreenhagen","admin3":"12067","localeAltName":null},{"geonameid":6551103,"name":"Steinhöfel","admin3":"12067","localeAltName":null},{"geonameid":6551104,"name":"Storkow (Mark)","admin3":"12067","localeAltName":null},{"geonameid":6551105,"name":"Tauche","admin3":"12067","localeAltName":null},{"geonameid":6551106,"name":"Ziltendorf","admin3":"12067","localeAltName":null},{"geonameid":6551107,"name":"Fehrbellin","admin3":"12068","localeAltName":null},{"geonameid":6551108,"name":"Heiligengrabe","admin3":"12068","localeAltName":null},{"geonameid":6551109,"name":"Kyritz","admin3":"12068","localeAltName":null},{"geonameid":6551110,"name":"Lindow (Mark)","admin3":"12068","localeAltName":null},{"geonameid":6551111,"name":"Rheinsberg","admin3":"12068","localeAltName":null},{"geonameid":6551112,"name":"Temnitztal","admin3":"12068","localeAltName":null},{"geonameid":6551168,"name":"Bernau bei Berlin","admin3":"12060","localeAltName":null},{"geonameid":6551169,"name":"Alt Zauche-Wußwerk","admin3":"12061","localeAltName":null},{"geonameid":6551170,"name":"Byhleguhre-Byhlen","admin3":"12061","localeAltName":null},{"geonameid":6551171,"name":"Gorden-Staupitz","admin3":"12062","localeAltName":null},{"geonameid":6551172,"name":"Lichterfeld-Schacksdorf","admin3":"12062","localeAltName":null},{"geonameid":6551173,"name":"Massen-Niederlausitz","admin3":"12062","localeAltName":null},{"geonameid":6551174,"name":"Schönwalde-Glien","admin3":"12063","localeAltName":null},{"geonameid":6551175,"name":"Bad Freienwalde (Oder)","admin3":"12064","localeAltName":null},{"geonameid":6551176,"name":"Herzberg (Mark)","admin3":"12068","localeAltName":null},{"geonameid":6551177,"name":"Groß Kreutz (Havel)","admin3":"12069","localeAltName":null},{"geonameid":6551178,"name":"Blankenfelde-Mahlow","admin3":"12072","localeAltName":null},{"geonameid":6551179,"name":"Hohenselchow-Groß Pinnow","admin3":"12073","localeAltName":null},{"geonameid":6551269,"name":"Vetschau/Spreewald","admin3":"12066","localeAltName":null},{"geonameid":6551270,"name":"Wusterhausen/Dosse","admin3":"12068","localeAltName":null},{"geonameid":6551271,"name":"Wiesenburg/Mark","admin3":"12069","localeAltName":null},{"geonameid":6559225,"name":"Panketal","admin3":"12060","localeAltName":null},{"geonameid":6559226,"name":"Schorfheide","admin3":"12060","localeAltName":null},{"geonameid":6559227,"name":"Bersteland","admin3":"12061","localeAltName":null},{"geonameid":6559228,"name":"Märkische Heide","admin3":"12061","localeAltName":null},{"geonameid":6559229,"name":"Schönefeld","admin3":"12061","localeAltName":null},{"geonameid":6559230,"name":"Schwielochsee","admin3":"12061","localeAltName":null},{"geonameid":6559231,"name":"Spreewaldheide","admin3":"12061","localeAltName":null},{"geonameid":6559232,"name":"Fichtwald","admin3":"12062","localeAltName":null},{"geonameid":6559233,"name":"Heideland","admin3":"12062","localeAltName":null},{"geonameid":6559234,"name":"Kremitzaue","admin3":"12062","localeAltName":null},{"geonameid":6559235,"name":"Milower Land","admin3":"12063","localeAltName":null},{"geonameid":6559236,"name":"Zeschdorf","admin3":"12064","localeAltName":null},{"geonameid":6559237,"name":"Mühlenbecker Land","admin3":"12065","localeAltName":null},{"geonameid":6559238,"name":"Frauendorf","admin3":"12066","localeAltName":null},{"geonameid":6559239,"name":"Vielitzsee","admin3":"12068","localeAltName":null},{"geonameid":6559240,"name":"Nuthetal","admin3":"12069","localeAltName":null},{"geonameid":6559241,"name":"Groß Pankow (Prignitz)","admin3":"12070","localeAltName":null},{"geonameid":6559242,"name":"Legde/Quitzöbel","admin3":"12070","localeAltName":null},{"geonameid":6559243,"name":"Lenzerwische","admin3":"12070","localeAltName":null},{"geonameid":6559244,"name":"Plattenburg","admin3":"12070","localeAltName":null},{"geonameid":6559245,"name":"Schenkendöbern","admin3":"12071","localeAltName":null},{"geonameid":6559246,"name":"Am Mellensee","admin3":"12072","localeAltName":null},{"geonameid":6559247,"name":"Nuthe-Urstromtal","admin3":"12072","localeAltName":null},{"geonameid":6559248,"name":"Schwedt/Oder","admin3":"12073","localeAltName":null},{"geonameid":7602414,"name":"Müncheberg","admin3":"12064","localeAltName":null},{"geonameid":7602415,"name":"Borkwalde","admin3":"12069","localeAltName":null},{"geonameid":7602439,"name":"Schönewalde","admin3":"12062","localeAltName":null},{"geonameid":7602464,"name":"Baruth/Mark","admin3":"12072","localeAltName":null},{"geonameid":7602481,"name":"Falkenberg/Elster","admin3":"12062","localeAltName":null},{"geonameid":7602482,"name":"Glienicke/Nordbahn","admin3":"12065","localeAltName":null},{"geonameid":7602483,"name":"Spremberg","admin3":"12071","localeAltName":null},{"geonameid":7602560,"name":"Potsdam","admin3":"12054","localeAltName":null},{"geonameid":7602564,"name":"Dallgow-Döberitz","admin3":"12063","localeAltName":null},{"geonameid":7602565,"name":"Fürstenberg/Havel","admin3":"12065","localeAltName":null},{"geonameid":7602566,"name":"Lübbenau/Spreewald","admin3":"12066","localeAltName":null},{"geonameid":7602567,"name":"Wittstock/Dosse","admin3":"12068","localeAltName":null},{"geonameid":7602568,"name":"Dahme/Mark","admin3":"12072","localeAltName":null},{"geonameid":7602590,"name":"Sydower Fließ","admin3":"12060","localeAltName":null},{"geonameid":7602591,"name":"Heidesee","admin3":"12061","localeAltName":null},{"geonameid":7602592,"name":"Röderland","admin3":"12062","localeAltName":null},{"geonameid":7602593,"name":"Wiesenaue","admin3":"12063","localeAltName":null},{"geonameid":7602594,"name":"Reichenow-Möglin","admin3":"12064","localeAltName":null},{"geonameid":7602663,"name":"Rabenstein/Fläming","admin3":"12069","localeAltName":null}]},"__N_SSG":true}