{"pageProps":{"locale":"en","admin2":{"geonameid":6544223,"name":"Gemeente Kaag en Braassem","country":"NL","admin1":"11","admin2":"1884","admin3":"","latitude":"52.1939300","longitude":"4.6551600"},"admin1":{"geonameid":2743698,"name":"Provincie Zuid-Holland","admin1":"11"},"locations":[{"geonameid":2758933,"name":"Bilderdam","admin3":""},{"geonameid":2753681,"name":"Hoogmade","admin3":""},{"geonameid":2753171,"name":"Kaag","admin3":""},{"geonameid":2751750,"name":"Leimuiden","admin3":""},{"geonameid":2750213,"name":"Nieuwe Wetering","admin3":""},{"geonameid":2749693,"name":"Ofwegen","admin3":""},{"geonameid":2749191,"name":"Oud Ade","admin3":""},{"geonameid":2748968,"name":"Oude Wetering","admin3":""},{"geonameid":2748106,"name":"Rijnsaterwoude","admin3":""},{"geonameid":2748094,"name":"Rijpwetering","admin3":""},{"geonameid":2748006,"name":"Roelofarendsveen","admin3":""},{"geonameid":2745183,"name":"Vriezekoop","admin3":""},{"geonameid":2744953,"name":"Watertuin","admin3":""},{"geonameid":2744167,"name":"Woubrugge","admin3":""},{"geonameid":2744154,"name":"Woudse Dijk","admin3":""},{"geonameid":2743929,"name":"Zevenhuizen","admin3":""}],"admin3":[],"alternateNames":[{"alternatenameId":11907789,"geonameid":2743698,"isoLanguage":"de","alternateName":"SÃ¼dholland","isPreferredName":true,"isShortName":true,"isColloquial":false,"isHistoric":false}]},"__N_SSG":true}