{"pageProps":{"locale":"de","admin1":{"geonameid":2658205,"name":"Canton du Valais","country":"CH","admin1":"VS","latitude":"46.2292500","longitude":"7.4597200","localeAltName":null},"admin2":[{"geonameid":6458821,"name":"Brig District","admin2":"2301","localeAltName":null},{"geonameid":6458850,"name":"Conthey District","admin2":"2302","localeAltName":null},{"geonameid":6458768,"name":"Entremont District","admin2":"2303","localeAltName":null},{"geonameid":6458766,"name":"Goms District","admin2":"2304","localeAltName":null},{"geonameid":6458872,"name":"HÃ©rens District","admin2":"2305","localeAltName":null},{"geonameid":6458753,"name":"Leuk District","admin2":"2306","localeAltName":null},{"geonameid":2659752,"name":"Martigny District","admin2":"2307","localeAltName":null},{"geonameid":6458845,"name":"Monthey District","admin2":"2308","localeAltName":null},{"geonameid":2659097,"name":"Raron District","admin2":"2309","localeAltName":null},{"geonameid":6458832,"name":"Saint-Maurice District","admin2":"2310","localeAltName":null},{"geonameid":6458795,"name":"Sierre District","admin2":"2311","localeAltName":null},{"geonameid":6458745,"name":"Sion District","admin2":"2312","localeAltName":null},{"geonameid":6458844,"name":"Visp District","admin2":"2313","localeAltName":null}],"admin3":[],"country":{"geonameid":2658434,"country":"CH","name":"Switzerland","localeAltName":"Schweiz"},"alternateNames":[{"alternatenameId":1558470,"geonameid":2658434,"isoLanguage":"de","alternateName":"Schweiz","isPreferredName":true,"isShortName":true,"isColloquial":false,"isHistoric":false},{"alternatenameId":1558473,"geonameid":2658434,"isoLanguage":"en","alternateName":"Switzerland","isPreferredName":true,"isShortName":true,"isColloquial":false,"isHistoric":false}]},"__N_SSG":true}