{"pageProps":{"locale":"de","admin1":{"geonameid":2660717,"name":"Canton de Fribourg","country":"CH","admin1":"FR","latitude":"46.7083400","longitude":"7.1031100","localeAltName":null},"admin2":[{"geonameid":6458754,"name":"Broye District","admin2":"1001","localeAltName":null},{"geonameid":2660598,"name":"Glâne District","admin2":"1002","localeAltName":null},{"geonameid":6458796,"name":"Gruyère District","admin2":"1003","localeAltName":null},{"geonameid":6458767,"name":"Sarine District","admin2":"1004","localeAltName":null},{"geonameid":6458820,"name":"See District","admin2":"1005","localeAltName":null},{"geonameid":6458898,"name":"Sense District","admin2":"1006","localeAltName":null},{"geonameid":6458862,"name":"Veveyse District","admin2":"1007","localeAltName":null}],"admin3":[],"country":{"geonameid":2658434,"country":"CH","name":"Switzerland","localeAltName":"Schweiz"},"alternateNames":[{"alternatenameId":1558470,"geonameid":2658434,"isoLanguage":"de","alternateName":"Schweiz","isPreferredName":true,"isShortName":true,"isColloquial":false,"isHistoric":false},{"alternatenameId":1558473,"geonameid":2658434,"isoLanguage":"en","alternateName":"Switzerland","isPreferredName":true,"isShortName":true,"isColloquial":false,"isHistoric":false}]},"__N_SSG":true}