{"pageProps":{"locale":"de","admin1":{"geonameid":2658182,"name":"Canton de Vaud","country":"CH","admin1":"VD","latitude":"46.6167100","longitude":"6.6449600","localeAltName":null},"admin2":[{"geonameid":6458896,"name":"Aigle District","admin2":"2221","localeAltName":null},{"geonameid":7285002,"name":"Broye-Vully District","admin2":"2222","localeAltName":null},{"geonameid":7285003,"name":"Gros-de-Vaud District","admin2":"2223","localeAltName":null},{"geonameid":7285004,"name":"Jura-Nord vaudois District","admin2":"2224","localeAltName":null},{"geonameid":6458866,"name":"Lausanne District","admin2":"2225","localeAltName":null},{"geonameid":7285005,"name":"Lavaux-Oron District","admin2":"2226","localeAltName":null},{"geonameid":6458855,"name":"Morges District","admin2":"2227","localeAltName":null},{"geonameid":7285006,"name":"Nyon District","admin2":"2228","localeAltName":null},{"geonameid":7285007,"name":"Ouest Lausannois District","admin2":"2229","localeAltName":null},{"geonameid":7285009,"name":"Riviera-Pays-d'Enhaut District","admin2":"2230","localeAltName":null}],"admin3":[],"country":{"geonameid":2658434,"country":"CH","name":"Switzerland","localeAltName":"Schweiz"},"alternateNames":[{"alternatenameId":1558470,"geonameid":2658434,"isoLanguage":"de","alternateName":"Schweiz","isPreferredName":true,"isShortName":true,"isColloquial":false,"isHistoric":false},{"alternatenameId":1558473,"geonameid":2658434,"isoLanguage":"en","alternateName":"Switzerland","isPreferredName":true,"isShortName":true,"isColloquial":false,"isHistoric":false}]},"__N_SSG":true}