{"pageProps":{"locale":"de","admin1":{"geonameid":2658821,"name":"Kanton St. Gallen","country":"CH","admin1":"SG","latitude":"47.2500000","longitude":"9.2500000","localeAltName":null},"admin2":[{"geonameid":7285000,"name":"Wahlkreis Rheintal","admin2":"1723","localeAltName":null},{"geonameid":6458838,"name":"Wahlkreis Rorschach","admin2":"1722","localeAltName":null},{"geonameid":2658792,"name":"Wahlkreis Sarganserland","admin2":"1725","localeAltName":"Sarganserland"},{"geonameid":7285010,"name":"Wahlkreis See-Gaster","admin2":"1726","localeAltName":null},{"geonameid":6458770,"name":"Wahlkreis St. Gallen","admin2":"1721","localeAltName":null},{"geonameid":7285001,"name":"Wahlkreis Toggenburg","admin2":"1727","localeAltName":null},{"geonameid":6458880,"name":"Wahlkreis Werdenberg","admin2":"1724","localeAltName":null},{"geonameid":6458840,"name":"Wahlkreis Wil","admin2":"1728","localeAltName":null}],"admin3":[],"country":{"geonameid":2658434,"country":"CH","name":"Switzerland","localeAltName":"Schweiz"},"alternateNames":[{"alternatenameId":1558470,"geonameid":2658434,"isoLanguage":"de","alternateName":"Schweiz","isPreferredName":true,"isShortName":true,"isColloquial":false,"isHistoric":false},{"alternatenameId":1558473,"geonameid":2658434,"isoLanguage":"en","alternateName":"Switzerland","isPreferredName":true,"isShortName":true,"isColloquial":false,"isHistoric":false},{"alternatenameId":8792548,"geonameid":2658792,"isoLanguage":"de","alternateName":"Sarganserland","isPreferredName":true,"isShortName":true,"isColloquial":false,"isHistoric":false}]},"__N_SSG":true}