{"pageProps":{"locale":"de","admin1":{"geonameid":2658563,"name":"Kanton Solothurn","country":"CH","admin1":"SO","latitude":"47.2107100","longitude":"7.5204800","localeAltName":null},"admin2":[{"geonameid":6458841,"name":"Bezirk Bucheggberg","admin2":"1103","localeAltName":null},{"geonameid":6458904,"name":"Bezirk Dorneck","admin2":"1104","localeAltName":null},{"geonameid":6458742,"name":"Bezirk Gäu","admin2":"1101","localeAltName":null},{"geonameid":6458874,"name":"Bezirk Gösgen","admin2":"1105","localeAltName":null},{"geonameid":6458829,"name":"Bezirk Lebern","admin2":"1107","localeAltName":null},{"geonameid":6458893,"name":"Bezirk Olten","admin2":"1108","localeAltName":null},{"geonameid":6458779,"name":"Bezirk Solothurn","admin2":"1109","localeAltName":null},{"geonameid":6458869,"name":"Bezirk Thal","admin2":"1102","localeAltName":null},{"geonameid":2658380,"name":"Bezirk Thierstein","admin2":"1110","localeAltName":null},{"geonameid":6458885,"name":"Bezirk Wasseramt","admin2":"1106","localeAltName":null}],"admin3":[],"country":{"geonameid":2658434,"country":"CH","name":"Switzerland","localeAltName":"Schweiz"},"alternateNames":[{"alternatenameId":1558470,"geonameid":2658434,"isoLanguage":"de","alternateName":"Schweiz","isPreferredName":true,"isShortName":true,"isColloquial":false,"isHistoric":false},{"alternatenameId":1558473,"geonameid":2658434,"isoLanguage":"en","alternateName":"Switzerland","isPreferredName":true,"isShortName":true,"isColloquial":false,"isHistoric":false}]},"__N_SSG":true}