{"pageProps":{"locale":"de","admin1":{"geonameid":2661876,"name":"Kanton Aargau","country":"CH","admin1":"AG","latitude":"47.3955700","longitude":"8.1721400","localeAltName":null},"admin2":[{"geonameid":6458846,"name":"Bezirk Aarau","admin2":"1901","localeAltName":null},{"geonameid":6458813,"name":"Bezirk Baden","admin2":"1902","localeAltName":null},{"geonameid":6458774,"name":"Bezirk Bremgarten","admin2":"1903","localeAltName":null},{"geonameid":6458826,"name":"Bezirk Brugg","admin2":"1904","localeAltName":null},{"geonameid":6458772,"name":"Bezirk Kulm","admin2":"1905","localeAltName":null},{"geonameid":6458860,"name":"Bezirk Laufenburg","admin2":"1906","localeAltName":null},{"geonameid":6458806,"name":"Bezirk Lenzburg","admin2":"1907","localeAltName":null},{"geonameid":6458902,"name":"Bezirk Muri","admin2":"1908","localeAltName":null},{"geonameid":6458853,"name":"Bezirk Rheinfelden","admin2":"1909","localeAltName":null},{"geonameid":6458746,"name":"Bezirk Zofingen","admin2":"1910","localeAltName":null},{"geonameid":6458788,"name":"Bezirk Zurzach","admin2":"1911","localeAltName":null}],"admin3":[],"country":{"geonameid":2658434,"country":"CH","name":"Switzerland","localeAltName":"Schweiz"},"alternateNames":[{"alternatenameId":1558470,"geonameid":2658434,"isoLanguage":"de","alternateName":"Schweiz","isPreferredName":true,"isShortName":true,"isColloquial":false,"isHistoric":false},{"alternatenameId":1558473,"geonameid":2658434,"isoLanguage":"en","alternateName":"Switzerland","isPreferredName":true,"isShortName":true,"isColloquial":false,"isHistoric":false}]},"__N_SSG":true}