{"pageProps":{"locale":"de","admin1":{"geonameid":2657895,"name":"Kanton Z체rich","country":"CH","admin1":"ZH","latitude":"47.4166700","longitude":"8.6666700","localeAltName":null},"admin2":[{"geonameid":6458818,"name":"Bezirk Affoltern","admin2":"101","localeAltName":null},{"geonameid":2661751,"name":"Bezirk Andelfingen","admin2":"102","localeAltName":null},{"geonameid":6458867,"name":"Bezirk B체lach","admin2":"103","localeAltName":null},{"geonameid":6458865,"name":"Bezirk Dielsdorf","admin2":"104","localeAltName":null},{"geonameid":6458760,"name":"Bezirk Dietikon","admin2":"111","localeAltName":null},{"geonameid":6458797,"name":"Bezirk Hinwil","admin2":"105","localeAltName":null},{"geonameid":6458847,"name":"Bezirk Horgen","admin2":"106","localeAltName":null},{"geonameid":2659702,"name":"Bezirk Meilen","admin2":"107","localeAltName":"Meilen"},{"geonameid":6458852,"name":"Bezirk Pf채ffikon","admin2":"108","localeAltName":null},{"geonameid":6458751,"name":"Bezirk Uster","admin2":"109","localeAltName":null},{"geonameid":6458808,"name":"Bezirk Winterthur","admin2":"110","localeAltName":null},{"geonameid":6458798,"name":"Bezirk Z체rich","admin2":"112","localeAltName":null}],"admin3":[],"country":{"geonameid":2658434,"country":"CH","name":"Switzerland","localeAltName":"Schweiz"},"alternateNames":[{"alternatenameId":1558470,"geonameid":2658434,"isoLanguage":"de","alternateName":"Schweiz","isPreferredName":true,"isShortName":true,"isColloquial":false,"isHistoric":false},{"alternatenameId":1558473,"geonameid":2658434,"isoLanguage":"en","alternateName":"Switzerland","isPreferredName":true,"isShortName":true,"isColloquial":false,"isHistoric":false},{"alternatenameId":8661160,"geonameid":2659702,"isoLanguage":"de","alternateName":"Meilen","isPreferredName":true,"isShortName":true,"isColloquial":false,"isHistoric":false}]},"__N_SSG":true}