{"pageProps":{"locale":"de","admin1":{"geonameid":2658664,"name":"Kanton Schwyz","country":"CH","admin1":"SZ","latitude":"47.0405000","longitude":"8.7410100","localeAltName":null},"admin2":[{"geonameid":6458878,"name":"Bezirk Einsiedeln","admin2":"501","localeAltName":null},{"geonameid":6458810,"name":"Bezirk Gersau","admin2":"502","localeAltName":null},{"geonameid":6458848,"name":"Bezirk Höfe","admin2":"503","localeAltName":null},{"geonameid":6458839,"name":"Bezirk Küssnacht","admin2":"504","localeAltName":"Küssnacht"},{"geonameid":6458781,"name":"Bezirk March","admin2":"505","localeAltName":null},{"geonameid":6458775,"name":"Bezirk Schwyz","admin2":"506","localeAltName":null}],"admin3":[],"country":{"geonameid":2658434,"country":"CH","name":"Switzerland","localeAltName":"Schweiz"},"alternateNames":[{"alternatenameId":1558470,"geonameid":2658434,"isoLanguage":"de","alternateName":"Schweiz","isPreferredName":true,"isShortName":true,"isColloquial":false,"isHistoric":false},{"alternatenameId":1558473,"geonameid":2658434,"isoLanguage":"en","alternateName":"Switzerland","isPreferredName":true,"isShortName":true,"isColloquial":false,"isHistoric":false},{"alternatenameId":12251738,"geonameid":6458839,"isoLanguage":"de","alternateName":"Küssnacht","isPreferredName":true,"isShortName":true,"isColloquial":false,"isHistoric":false}]},"__N_SSG":true}