{"pageProps":{"locale":"de","admin1":{"geonameid":2660522,"name":"Kanton Graubünden","country":"CH","admin1":"GR","latitude":"46.6587000","longitude":"9.6229600","localeAltName":null},"admin2":[{"geonameid":11611653,"name":"Region Albula","admin2":"1841","localeAltName":null},{"geonameid":11611656,"name":"Region Bernina","admin2":"1842","localeAltName":null},{"geonameid":11611650,"name":"Region Engiadina Bassa / Val Müstair","admin2":"1843","localeAltName":null},{"geonameid":11611652,"name":"Region Imboden","admin2":"1844","localeAltName":null},{"geonameid":11611655,"name":"Region Landquart","admin2":"1845","localeAltName":null},{"geonameid":11611658,"name":"Region Maloja","admin2":"1846","localeAltName":null},{"geonameid":11611657,"name":"Region Moesa","admin2":"1847","localeAltName":null},{"geonameid":11611651,"name":"Region Plessur","admin2":"1848","localeAltName":null},{"geonameid":11611654,"name":"Region Prättigau / Davos","admin2":"1849","localeAltName":null},{"geonameid":11611648,"name":"Region Surselva","admin2":"1850","localeAltName":null},{"geonameid":11611649,"name":"Region Viamala","admin2":"1851","localeAltName":null}],"admin3":[],"country":{"geonameid":2658434,"country":"CH","name":"Switzerland","localeAltName":"Schweiz"},"alternateNames":[{"alternatenameId":1558470,"geonameid":2658434,"isoLanguage":"de","alternateName":"Schweiz","isPreferredName":true,"isShortName":true,"isColloquial":false,"isHistoric":false},{"alternatenameId":1558473,"geonameid":2658434,"isoLanguage":"en","alternateName":"Switzerland","isPreferredName":true,"isShortName":true,"isColloquial":false,"isHistoric":false}]},"__N_SSG":true}