{"pageProps":{"locale":"de","admin1":{"geonameid":2659495,"name":"Neuchâtel","country":"CH","admin1":"NE","latitude":"46.9908700","longitude":"6.7976700","localeAltName":null},"admin2":[{"geonameid":6458825,"name":"Boudry District","admin2":"2401","localeAltName":null},{"geonameid":6458831,"name":"La Chaux-de-Fonds District","admin2":"2402","localeAltName":null},{"geonameid":6458809,"name":"Le Locle District","admin2":"2403","localeAltName":null},{"geonameid":6458886,"name":"Neuchâtel District","admin2":"2404","localeAltName":null},{"geonameid":6458812,"name":"Val-de-Ruz District","admin2":"2405","localeAltName":null},{"geonameid":6458835,"name":"Val-de-Travers District","admin2":"2406","localeAltName":null}],"admin3":[],"country":{"geonameid":2658434,"country":"CH","name":"Switzerland","localeAltName":"Schweiz"},"alternateNames":[{"alternatenameId":1558470,"geonameid":2658434,"isoLanguage":"de","alternateName":"Schweiz","isPreferredName":true,"isShortName":true,"isColloquial":false,"isHistoric":false},{"alternatenameId":1558473,"geonameid":2658434,"isoLanguage":"en","alternateName":"Switzerland","isPreferredName":true,"isShortName":true,"isColloquial":false,"isHistoric":false}]},"__N_SSG":true}