{"pageProps":{"locale":"de","admin1":{"geonameid":2658370,"name":"Ticino","country":"CH","admin1":"TI","latitude":"46.2845500","longitude":"8.7906500","localeAltName":null},"admin2":[{"geonameid":6458870,"name":"Bellinzona District","admin2":"2101","localeAltName":null},{"geonameid":6458784,"name":"Blenio District","admin2":"2102","localeAltName":null},{"geonameid":6458903,"name":"Leventina District","admin2":"2103","localeAltName":null},{"geonameid":6458750,"name":"Locarno District","admin2":"2104","localeAltName":null},{"geonameid":6458771,"name":"Lugano District","admin2":"2105","localeAltName":null},{"geonameid":6458894,"name":"Mendrisio District","admin2":"2106","localeAltName":null},{"geonameid":6458756,"name":"Riviera District","admin2":"2107","localeAltName":null},{"geonameid":2658196,"name":"Vallemaggia District","admin2":"2108","localeAltName":null}],"admin3":[],"country":{"geonameid":2658434,"country":"CH","name":"Switzerland","localeAltName":"Schweiz"},"alternateNames":[{"alternatenameId":1558470,"geonameid":2658434,"isoLanguage":"de","alternateName":"Schweiz","isPreferredName":true,"isShortName":true,"isColloquial":false,"isHistoric":false},{"alternatenameId":1558473,"geonameid":2658434,"isoLanguage":"en","alternateName":"Switzerland","isPreferredName":true,"isShortName":true,"isColloquial":false,"isHistoric":false}]},"__N_SSG":true}