{"pageProps":{"locale":"en","admin2":{"geonameid":2746421,"name":"Gemeente Terneuzen","country":"NL","admin1":"10","admin2":"0715","admin3":"","latitude":"51.2855000","longitude":"3.8281700"},"admin1":{"geonameid":2744011,"name":"Provincie Zeeland","admin1":"10"},"locations":[{"geonameid":2759594,"name":"Axel","admin3":""},{"geonameid":2759592,"name":"Axelsche Sassing","admin3":""},{"geonameid":2758980,"name":"Biervliet","admin3":""},{"geonameid":2758738,"name":"Boerengat","admin3":""},{"geonameid":2758518,"name":"Bouchauterhaven","admin3":""},{"geonameid":2757428,"name":"De Knol","admin3":""},{"geonameid":2757266,"name":"De Muis","admin3":""},{"geonameid":2757117,"name":"De Ratte","admin3":""},{"geonameid":6544907,"name":"De Sluis","admin3":""},{"geonameid":2757039,"name":"De Sterre","admin3":""},{"geonameid":2756580,"name":"Drieschouwen","admin3":""},{"geonameid":2756573,"name":"Driewegen","admin3":""},{"geonameid":2756574,"name":"Driewegen","admin3":""},{"geonameid":2756367,"name":"Eendragt","admin3":""},{"geonameid":2755325,"name":"Griete","admin3":""},{"geonameid":2754798,"name":"Hasjesstraat","admin3":""},{"geonameid":2754029,"name":"Hoek","admin3":""},{"geonameid":6544908,"name":"Hoek van de Dijk","admin3":""},{"geonameid":2753767,"name":"Hoogedijk","admin3":""},{"geonameid":2753305,"name":"Isabellahaven","admin3":""},{"geonameid":6544906,"name":"Kampersche Hoek","admin3":""},{"geonameid":2752841,"name":"Kijkuit","admin3":""},{"geonameid":2752547,"name":"Koewacht","admin3":""},{"geonameid":2752137,"name":"Kwakkel","admin3":""},{"geonameid":2751262,"name":"Magrette","admin3":""},{"geonameid":2751081,"name":"Mauritsfort","admin3":""},{"geonameid":2750294,"name":"Nieuwemolen","admin3":""},{"geonameid":2750167,"name":"Nieuwlandsche Molen","admin3":""},{"geonameid":2749205,"name":"Othene","admin3":""},{"geonameid":2749029,"name":"Oude Polder","admin3":""},{"geonameid":2748822,"name":"Overslag","admin3":""},{"geonameid":2748720,"name":"Paradijs","admin3":""},{"geonameid":2748706,"name":"Passluis","admin3":""},{"geonameid":2748625,"name":"Philippine","admin3":""},{"geonameid":2748501,"name":"Poonhaven","admin3":""},{"geonameid":2748479,"name":"Posthoorn","admin3":""},{"geonameid":2748290,"name":"Reedijk","admin3":""},{"geonameid":2748207,"name":"Reuzenhoek","admin3":""},{"geonameid":2748017,"name":"Rode Sluis","admin3":""},{"geonameid":2747749,"name":"Sas van Gent","admin3":""},{"geonameid":2747686,"name":"Schapenbout","admin3":""},{"geonameid":2747109,"name":"Sluiskil","admin3":""},{"geonameid":2746883,"name":"Spui","admin3":""},{"geonameid":2746777,"name":"Steenovens","admin3":""},{"geonameid":2746586,"name":"Stroodorpe","admin3":""},{"geonameid":2746420,"name":"Terneuzen","admin3":""},{"geonameid":2745893,"name":"Vaartwijk","admin3":""},{"geonameid":2745887,"name":"Val","admin3":""},{"geonameid":2744800,"name":"Westdorpe","admin3":""},{"geonameid":2744137,"name":"Wulpenbek","admin3":""},{"geonameid":2744122,"name":"Zaamslag","admin3":""},{"geonameid":2744120,"name":"Zaamslagveer","admin3":""},{"geonameid":2744059,"name":"Zandplaat","admin3":""},{"geonameid":2744050,"name":"Zandstraat","admin3":""},{"geonameid":2743795,"name":"Zuiddorpe","admin3":""},{"geonameid":2743538,"name":"Zwartenhoek","admin3":""}],"admin3":[],"alternateNames":[{"alternatenameId":11907790,"geonameid":2744011,"isoLanguage":"de","alternateName":"Zeeland","isPreferredName":true,"isShortName":true,"isColloquial":false,"isHistoric":false}]},"__N_SSG":true}