{"pageProps":{"locale":"en","admin2":{"geonameid":2748254,"name":"Gemeente Reimerswaal","country":"NL","admin1":"10","admin2":"0703","admin3":"","latitude":"51.4204000","longitude":"4.1316900"},"admin1":{"geonameid":2744011,"name":"Provincie Zeeland","admin1":"10"},"locations":[{"geonameid":2759383,"name":"Bath","admin3":""},{"geonameid":2755701,"name":"Gawege","admin3":""},{"geonameid":2754880,"name":"Hansweert","admin3":""},{"geonameid":2752331,"name":"Krabbendijke","admin3":""},{"geonameid":2752213,"name":"Kruiningen","admin3":""},{"geonameid":6544902,"name":"Middenhof","admin3":""},{"geonameid":2749537,"name":"Oostdijk","admin3":""},{"geonameid":2748068,"name":"Rilland","admin3":""},{"geonameid":2748004,"name":"Roelshoek","admin3":""},{"geonameid":2747482,"name":"Schorebrug","admin3":""},{"geonameid":2747387,"name":"Separatiedijk","admin3":""},{"geonameid":2746825,"name":"Stationsbuurt","admin3":""},{"geonameid":2746069,"name":"Tweedeweg","admin3":""},{"geonameid":2745457,"name":"Vlake","admin3":""},{"geonameid":2745345,"name":"VÃ¶lckerdorp","admin3":""},{"geonameid":2745118,"name":"Waarde","admin3":""},{"geonameid":2744129,"name":"Yerseke","admin3":""},{"geonameid":2744127,"name":"Yersekendam","admin3":""}],"admin3":[],"alternateNames":[{"alternatenameId":11907790,"geonameid":2744011,"isoLanguage":"de","alternateName":"Zeeland","isPreferredName":true,"isShortName":true,"isColloquial":false,"isHistoric":false}]},"__N_SSG":true}