{"pageProps":{"locale":"en","admin2":{"geonameid":2745738,"name":"Gemeente Veere","country":"NL","admin1":"10","admin2":"0717","admin3":"","latitude":"51.5390200","longitude":"3.5568800"},"admin1":{"geonameid":2744011,"name":"Provincie Zeeland","admin1":"10"},"locations":[{"geonameid":2760147,"name":"Aagtekerke","admin3":""},{"geonameid":2758956,"name":"Biggekerke","admin3":""},{"geonameid":2758517,"name":"Boudewijnskerke","admin3":""},{"geonameid":2758361,"name":"Breezand","admin3":""},{"geonameid":2758056,"name":"Buttinge","admin3":""},{"geonameid":6544899,"name":"De Zandput","admin3":""},{"geonameid":2756784,"name":"Dishoek","admin3":""},{"geonameid":2756746,"name":"Domburg","admin3":""},{"geonameid":2755736,"name":"Gapinge","admin3":""},{"geonameid":2755617,"name":"Geldtienden","admin3":""},{"geonameid":2755315,"name":"Grijpskerke","admin3":""},{"geonameid":2755102,"name":"Groot-Valkenisse","admin3":""},{"geonameid":6544900,"name":"Hoogelande","admin3":""},{"geonameid":2752678,"name":"Klein Mariekerke","admin3":""},{"geonameid":2752669,"name":"Klein-Valkenisse","admin3":""},{"geonameid":2752374,"name":"Koudekerke","admin3":""},{"geonameid":2752241,"name":"Krommenhoeke","admin3":""},{"geonameid":2750974,"name":"Meliskerke","admin3":""},{"geonameid":2750738,"name":"Molembaix","admin3":""},{"geonameid":2750679,"name":"Molenperk","admin3":""},{"geonameid":2749362,"name":"Oostkapelle","admin3":""},{"geonameid":2748574,"name":"Pitteperk","admin3":""},{"geonameid":2748493,"name":"Poppendamme","admin3":""},{"geonameid":2747642,"name":"Schellach","admin3":""},{"geonameid":2747386,"name":"Serooskerke","admin3":""},{"geonameid":2747264,"name":"Sint Janskerke","admin3":""},{"geonameid":6544905,"name":"Vebenabos","admin3":""},{"geonameid":2745739,"name":"Veere","admin3":""},{"geonameid":2745162,"name":"Vrouwenpolder","admin3":""},{"geonameid":2744829,"name":"Werendijke","admin3":""},{"geonameid":2744642,"name":"Westkapelle","admin3":""},{"geonameid":2744084,"name":"Zanddijk","admin3":""},{"geonameid":2743822,"name":"Zoutelande","admin3":""}],"admin3":[],"alternateNames":[{"alternatenameId":11907790,"geonameid":2744011,"isoLanguage":"de","alternateName":"Zeeland","isPreferredName":true,"isShortName":true,"isColloquial":false,"isHistoric":false}]},"__N_SSG":true}