{"pageProps":{"locale":"en","admin2":{"geonameid":6100076,"name":"Peace River Regional District","country":"CA","admin1":"02","admin2":"5955","admin3":"","latitude":"56.6665000","longitude":"-122.7530200"},"admin1":{"geonameid":5909050,"name":"British Columbia","admin1":"02"},"locations":[{"geonameid":5899073,"name":"Beryl Prairie","admin3":"5955025"},{"geonameid":5921091,"name":"Chetwynd","admin3":"5955010"},{"geonameid":5935804,"name":"Dawson Creek","admin3":"5955014"},{"geonameid":5955960,"name":"Fort St. John","admin3":"5955034"},{"geonameid":5978185,"name":"Hudson's Hope","admin3":"5955025"},{"geonameid":6062370,"name":"Lynx Creek","admin3":"5955025"},{"geonameid":6112409,"name":"Pouce Coupe","admin3":"5955005"},{"geonameid":6162051,"name":"Taylor","admin3":"5955030"},{"geonameid":6170118,"name":"Tumbler Ridge","admin3":"5955003"},{"geonameid":6171446,"name":"Two Rivers","admin3":""}],"admin3":[{"geonameid":12031909,"name":"Ingenika Point","admin3":"5955812"},{"geonameid":12031932,"name":"Dawson Creek","admin3":"5955014"},{"geonameid":12032000,"name":"Pouce Coupe","admin3":"5955005"},{"geonameid":12032006,"name":"Taylor","admin3":"5955030"},{"geonameid":12032008,"name":"Chetwynd","admin3":"5955010"},{"geonameid":12032009,"name":"Tumbler Ridge","admin3":"5955003"},{"geonameid":12032010,"name":"Fort St. John","admin3":"5955034"},{"geonameid":12032011,"name":"Hudson's Hope","admin3":"5955025"}],"alternateNames":[]},"__N_SSG":true}