{"pageProps":{"locale":"en","admin2":{"geonameid":2747311,"name":"Gemeente Simpelveld","country":"NL","admin1":"05","admin2":"0965","admin3":"","latitude":"50.8290100","longitude":"5.9841000","localeAltName":null},"admin1":{"geonameid":2751596,"name":"Provincie Limburg","admin1":"05","localeAltName":"Limburg"},"locations":[{"geonameid":6544801,"name":"Baaks","admin3":"","localeAltName":null},{"geonameid":2759446,"name":"Baneheide","admin3":"","localeAltName":null},{"geonameid":2758770,"name":"Bocholtz","admin3":"","localeAltName":null},{"geonameid":2758768,"name":"Bocholtzerheide","admin3":"","localeAltName":null},{"geonameid":2758539,"name":"Bosschenhuizen","admin3":"","localeAltName":null},{"geonameid":2758122,"name":"Bulkemsbroek","admin3":"","localeAltName":null},{"geonameid":2753454,"name":"Huls","admin3":"","localeAltName":null},{"geonameid":6544789,"name":"In de Gaas","admin3":"","localeAltName":null},{"geonameid":2750645,"name":"Molsberg","admin3":"","localeAltName":null},{"geonameid":2748464,"name":"Prickart","admin3":"","localeAltName":null},{"geonameid":2747312,"name":"Simpelveld","admin3":"","localeAltName":null},{"geonameid":2745434,"name":"Vlengendaal","admin3":"","localeAltName":null},{"geonameid":2745131,"name":"Waalbroek","admin3":"","localeAltName":null},{"geonameid":2756919,"name":"Zandberg","admin3":"","localeAltName":null}],"admin3":[],"alternateNames":[{"alternatenameId":9073257,"geonameid":2751596,"isoLanguage":"en","alternateName":"Limburg","isPreferredName":true,"isShortName":true,"isColloquial":false,"isHistoric":false},{"alternatenameId":9073258,"geonameid":2751596,"isoLanguage":"de","alternateName":"Limburg","isPreferredName":true,"isShortName":true,"isColloquial":false,"isHistoric":false}]},"__N_SSG":true}