{"pageProps":{"locale":"de","admin2":{"geonameid":6458797,"name":"Bezirk Hinwil","country":"CH","admin1":"ZH","admin2":"105","admin3":"","latitude":"47.2964600","longitude":"8.8343100"},"admin1":{"geonameid":2657895,"name":"Kanton Zürich","admin1":"ZH"},"locations":[{"geonameid":6292039,"name":"Aarain","admin3":"113"},{"geonameid":6292463,"name":"Aatal","admin3":"120"},{"geonameid":6291862,"name":"Adetswil","admin3":"111"},{"geonameid":6292306,"name":"Adletshausen","admin3":"116"},{"geonameid":6292083,"name":"Aesch","admin3":"114"},{"geonameid":6292082,"name":"Aeschacker","admin3":"114"},{"geonameid":6292350,"name":"Affeltrangen","admin3":"117"},{"geonameid":6292624,"name":"Allenberg","admin3":"121"},{"geonameid":6291877,"name":"Allenberg","admin3":"111"},{"geonameid":6292222,"name":"Allenwinden","admin3":"115"},{"geonameid":6292345,"name":"Allmen","admin3":"117"},{"geonameid":6292070,"name":"Althörnli","admin3":"114"},{"geonameid":6292104,"name":"Altschwändi","admin3":"114"},{"geonameid":6292571,"name":"Altweid","admin3":"120"},{"geonameid":6292435,"name":"Amslen","admin3":"120"},{"geonameid":6292433,"name":"Aretshalden","admin3":"119"},{"geonameid":6292229,"name":"Au","admin3":"115"},{"geonameid":6292572,"name":"Au","admin3":"120"},{"geonameid":6292290,"name":"Auf der Büechlen","admin3":"116"},{"geonameid":6292630,"name":"Bächelacher","admin3":"121"},{"geonameid":6292274,"name":"Bächelsrüti","admin3":"116"},{"geonameid":6292480,"name":"Badstock","admin3":"120"},{"geonameid":6292332,"name":"Balzenbüel","admin3":"117"},{"geonameid":6292570,"name":"Bär","admin3":"120"},{"geonameid":6291988,"name":"Barenberg","admin3":"112"},{"geonameid":2661613,"name":"Bäretswil","admin3":"111"},{"geonameid":6292544,"name":"Bebikon","admin3":"120"},{"geonameid":6292449,"name":"Beizi","admin3":"120"},{"geonameid":6292203,"name":"Benklen","admin3":"115"},{"geonameid":6291892,"name":"Berghof","admin3":"111"},{"geonameid":6291991,"name":"Berlikon","admin3":"112"},{"geonameid":6292194,"name":"Bertschikon","admin3":"115"},{"geonameid":6291891,"name":"Bettswil","admin3":"111"},{"geonameid":6292351,"name":"Betzholz","admin3":"117"},{"geonameid":6292049,"name":"Binzberg","admin3":"113"},{"geonameid":6292505,"name":"Binzholz","admin3":"120"},{"geonameid":6292273,"name":"Binzikon","admin3":"116"},{"geonameid":6292362,"name":"Blatten","admin3":"117"},{"geonameid":6292497,"name":"Blattenbach","admin3":"120"},{"geonameid":6292582,"name":"Boden","admin3":"120"},{"geonameid":6292095,"name":"Boden","admin3":"114"},{"geonameid":6292339,"name":"Boden (bei Girenbad)","admin3":"117"},{"geonameid":6292323,"name":"Boden (bei Ringwil)","admin3":"117"},{"geonameid":6292340,"name":"Bodenacker","admin3":"117"},{"geonameid":6292493,"name":"Bodenmüli","admin3":"120"},{"geonameid":6292031,"name":"Bodmen","admin3":"113"},{"geonameid":6292114,"name":"Bodmen","admin3":"114"},{"geonameid":6292218,"name":"Bönler","admin3":"115"},{"geonameid":6292311,"name":"Bossikon","admin3":"117"},{"geonameid":6291933,"name":"Brach","admin3":"112"},{"geonameid":6292574,"name":"Brand","admin3":"120"},{"geonameid":6291942,"name":"Brandlen","admin3":"112"},{"geonameid":6292358,"name":"Breitacker","admin3":"117"},{"geonameid":6292443,"name":"Breiten","admin3":"120"},{"geonameid":6292033,"name":"Breitenmatt","admin3":"113"},{"geonameid":6291886,"name":"Breitenmatt","admin3":"111"},{"geonameid":6292388,"name":"Breitlen","admin3":"117"},{"geonameid":6292532,"name":"Brugglen","admin3":"120"},{"geonameid":6292296,"name":"Brugglen","admin3":"116"},{"geonameid":6292512,"name":"Brüglen","admin3":"120"},{"geonameid":6292256,"name":"Brüschägerten","admin3":"115"},{"geonameid":6292236,"name":"Brüschweid","admin3":"115"},{"geonameid":6292106,"name":"Brütten","admin3":"114"},{"geonameid":2661359,"name":"Bubikon","admin3":"112"},{"geonameid":6291921,"name":"Bubikon / Bubikon (Dorfkern)","admin3":"112"},{"geonameid":6291923,"name":"Bubikon / Ebmatt","admin3":"112"},{"geonameid":6291924,"name":"Bubikon / Schulhaus Bergli","admin3":"112"},{"geonameid":6291925,"name":"Bubikon / Sonnengarten","admin3":"112"},{"geonameid":6291922,"name":"Bubikon / Station","admin3":"112"},{"geonameid":6291927,"name":"Bubikon / Weinhalde","admin3":"112"},{"geonameid":6291926,"name":"Bubikon / Zelgwies","admin3":"112"},{"geonameid":6292289,"name":"Buechholz","admin3":"116"},{"geonameid":6292278,"name":"Büel","admin3":"116"},{"geonameid":6292438,"name":"Büel","admin3":"120"},{"geonameid":6291966,"name":"Bühl","admin3":"112"},{"geonameid":6292595,"name":"Burg","admin3":"121"},{"geonameid":6291956,"name":"Bürg","admin3":"112"},{"geonameid":6292293,"name":"Bürglen","admin3":"116"},{"geonameid":6292597,"name":"Burgweid","admin3":"121"},{"geonameid":6291872,"name":"Burgweid","admin3":"111"},{"geonameid":6291863,"name":"Bürgweidli","admin3":"111"},{"geonameid":6291852,"name":"Bussenthal","admin3":"111"},{"geonameid":6292368,"name":"Chatzentobel","admin3":"117"},{"geonameid":6292562,"name":"Chefi","admin3":"120"},{"geonameid":6292603,"name":"Cherschiben","admin3":"121"},{"geonameid":6292518,"name":"Chilacher","admin3":"120"},{"geonameid":6292343,"name":"Chilchriet","admin3":"117"},{"geonameid":6292248,"name":"Chindismüli","admin3":"115"},{"geonameid":6292089,"name":"Chlital","admin3":"114"},{"geonameid":6292325,"name":"Chopfholz","admin3":"117"},{"geonameid":6292522,"name":"Chrinnen","admin3":"120"},{"geonameid":6292210,"name":"Chrummacker","admin3":"115"},{"geonameid":6292551,"name":"Dachsegg","admin3":"120"},{"geonameid":6292476,"name":"Dieterswil","admin3":"120"},{"geonameid":6292545,"name":"Diezikon","admin3":"120"},{"geonameid":6292547,"name":"Diezikon","admin3":"120"},{"geonameid":6292533,"name":"Dreilinden","admin3":"120"},{"geonameid":2660965,"name":"Dürnten","admin3":"113"},{"geonameid":6292003,"name":"Edikon","admin3":"113"},{"geonameid":6291859,"name":"Egglen","admin3":"111"},{"geonameid":6292103,"name":"Eggli","admin3":"114"},{"geonameid":6292451,"name":"Eggschwändi","admin3":"120"},{"geonameid":6292333,"name":"Ehretstock","admin3":"117"},{"geonameid":6292596,"name":"Eichholz","admin3":"121"},{"geonameid":6292513,"name":"Elba","admin3":"120"},{"geonameid":6292601,"name":"Emmetschloo","admin3":"121"},{"geonameid":6291961,"name":"Engelberg","admin3":"112"},{"geonameid":6292077,"name":"Ennerlenzen","admin3":"114"},{"geonameid":6291864,"name":"Erholungshaus","admin3":"111"},{"geonameid":6292266,"name":"Ermisriet","admin3":"115"},{"geonameid":6292426,"name":"Etstel","admin3":"119"},{"geonameid":6292044,"name":"Ettenbohl","admin3":"113"},{"geonameid":6292618,"name":"Ettenhausen","admin3":"121"},{"geonameid":6292471,"name":"Fälmis","admin3":"120"},{"geonameid":6292521,"name":"Faltigberg","admin3":"120"},{"geonameid":6291894,"name":"Fehrenwaltsberg","admin3":"111"},{"geonameid":6291932,"name":"Feissi","admin3":"112"},{"geonameid":6292506,"name":"Feisterbach","admin3":"120"},{"geonameid":6292254,"name":"Felsen","admin3":"115"},{"geonameid":6292011,"name":"Felsenhof","admin3":"113"},{"geonameid":6292528,"name":"Felsenkeller","admin3":"120"},{"geonameid":6292501,"name":"Ferch","admin3":"120"},{"geonameid":6292507,"name":"Ferchacher","admin3":"120"},{"geonameid":6292107,"name":"Feuerschwand","admin3":"114"},{"geonameid":2660767,"name":"Fischenthal","admin3":"114"},{"geonameid":6292140,"name":"Fistel","admin3":"114"},{"geonameid":6292606,"name":"Flos","admin3":"121"},{"geonameid":6292494,"name":"Forhalden","admin3":"120"},{"geonameid":6292196,"name":"Freihof","admin3":"115"},{"geonameid":6292360,"name":"Friedheim","admin3":"117"},{"geonameid":6291934,"name":"Friedheim","admin3":"112"},{"geonameid":6292613,"name":"Froberg","admin3":"121"},{"geonameid":6292051,"name":"Frohberg","admin3":"113"},{"geonameid":6292207,"name":"Frohe Aussicht","admin3":"115"},{"geonameid":6291928,"name":"Fuchsbühl","admin3":"112"},{"geonameid":6292090,"name":"Fuchsloch","admin3":"114"},{"geonameid":6292268,"name":"Fuchsrüti","admin3":"115"},{"geonameid":6292382,"name":"Gammetswil","admin3":"117"},{"geonameid":6292047,"name":"Garwied","admin3":"113"},{"geonameid":6292459,"name":"Gass (bei Büel)","admin3":"120"},{"geonameid":6292164,"name":"Geeren","admin3":"114"},{"geonameid":6292017,"name":"Ghangetwies","admin3":"113"},{"geonameid":6292472,"name":"Gheist","admin3":"120"},{"geonameid":6291893,"name":"Ghöch","admin3":"111"},{"geonameid":6292184,"name":"Ghogg","admin3":"114"},{"geonameid":2660622,"name":"Gibswil","admin3":"114"},{"geonameid":2660606,"name":"Girenbad","admin3":"117"},{"geonameid":6292338,"name":"Girriet","admin3":"117"},{"geonameid":6292402,"name":"Gmeindrüti","admin3":"118"},{"geonameid":2660550,"name":"Gossau","admin3":"115"},{"geonameid":6292058,"name":"Greinsberg","admin3":"113"},{"geonameid":6292171,"name":"Grossegg","admin3":"114"},{"geonameid":6292609,"name":"Grossenstein","admin3":"121"},{"geonameid":6292429,"name":"Grossweid","admin3":"119"},{"geonameid":6292466,"name":"Grosswis","admin3":"120"},{"geonameid":6292498,"name":"Grund","admin3":"120"},{"geonameid":6291986,"name":"Grundtal","admin3":"112"},{"geonameid":6292523,"name":"Grundtal","admin3":"120"},{"geonameid":6292272,"name":"Grüningen (Stedtli)","admin3":"116"},{"geonameid":6292217,"name":"Grüt","admin3":"115"},{"geonameid":6291935,"name":"Gstein","admin3":"112"},{"geonameid":6291916,"name":"Gubel","admin3":"111"},{"geonameid":6292559,"name":"Güntisberg","admin3":"120"},{"geonameid":6292366,"name":"Hadlikerrain","admin3":"117"},{"geonameid":6292364,"name":"Hadlikon","admin3":"117"},{"geonameid":6291888,"name":"Haldengut","admin3":"111"},{"geonameid":6292467,"name":"Haltbergholz","admin3":"120"},{"geonameid":6292259,"name":"Hanfgarten","admin3":"115"},{"geonameid":6292626,"name":"Hännen","admin3":"121"},{"geonameid":6292600,"name":"Harlachen","admin3":"121"},{"geonameid":6292250,"name":"Hartmis","admin3":"115"},{"geonameid":6292235,"name":"Hasenacher","admin3":"115"},{"geonameid":6292019,"name":"Hasenstrickrain","admin3":"113"},{"geonameid":6292516,"name":"Heferen","admin3":"120"},{"geonameid":6292302,"name":"Heggen","admin3":"116"},{"geonameid":6292301,"name":"Heispel","admin3":"116"},{"geonameid":6292240,"name":"Hellberg","admin3":"115"},{"geonameid":6292267,"name":"Herschmettlen","admin3":"115"},{"geonameid":6292561,"name":"Hiltisberg","admin3":"120"},{"geonameid":6292583,"name":"Hinderwald","admin3":"120"},{"geonameid":6292469,"name":"Hinter Erli","admin3":"120"},{"geonameid":6292455,"name":"Hinter Sennenberg","admin3":"120"},{"geonameid":6292444,"name":"Hinter-Aatal","admin3":"120"},{"geonameid":6291964,"name":"Hinter-Dienstbach","admin3":"112"},{"geonameid":6292269,"name":"Hinter-Fuchsrüti","admin3":"115"},{"geonameid":6292225,"name":"Hinter-Goldacher","admin3":"115"},{"geonameid":6292143,"name":"Hinter-Strahlegg","admin3":"114"},{"geonameid":6292334,"name":"Hinter-Triemen","admin3":"117"},{"geonameid":6291946,"name":"Hinteracker","admin3":"112"},{"geonameid":6291896,"name":"Hinterberg","admin3":"111"},{"geonameid":6292165,"name":"Hinterbleichi","admin3":"114"},{"geonameid":6291849,"name":"Hinterburg","admin3":"111"},{"geonameid":6292069,"name":"Hinterhörnli","admin3":"114"},{"geonameid":6292099,"name":"Hinterlanzenmoos","admin3":"114"},{"geonameid":6292530,"name":"Hinternord","admin3":"120"},{"geonameid":2660338,"name":"Hinwil","admin3":"117"},{"geonameid":6292479,"name":"Hirschlen","admin3":"120"},{"geonameid":6292468,"name":"Hischwil","admin3":"120"},{"geonameid":6292519,"name":"Hittenberg","admin3":"120"},{"geonameid":6292619,"name":"Hochrüti","admin3":"121"},{"geonameid":6291845,"name":"Hof","admin3":"111"},{"geonameid":6292538,"name":"Hofacher","admin3":"120"},{"geonameid":6292421,"name":"Hofacher","admin3":"118"},{"geonameid":6291848,"name":"Hofschür","admin3":"111"},{"geonameid":6291910,"name":"Holenstein","admin3":"111"},{"geonameid":6292300,"name":"Holzhusen","admin3":"116"},{"geonameid":6291962,"name":"Homberg","admin3":"112"},{"geonameid":6292514,"name":"Hömel","admin3":"120"},{"geonameid":6292548,"name":"Hubacher","admin3":"120"},{"geonameid":6292034,"name":"Hubacker","admin3":"113"},{"geonameid":6292363,"name":"Hueb","admin3":"117"},{"geonameid":6292461,"name":"Hueb","admin3":"120"},{"geonameid":6292446,"name":"Huebhansen","admin3":"120"},{"geonameid":6292486,"name":"Hüebli","admin3":"120"},{"geonameid":6292542,"name":"Huebwis","admin3":"120"},{"geonameid":6292419,"name":"Hüllistein","admin3":"118"},{"geonameid":6292224,"name":"Hundsrüggen","admin3":"115"},{"geonameid":6292191,"name":"Hungerbüel","admin3":"115"},{"geonameid":6292625,"name":"Husbüel","admin3":"121"},{"geonameid":6292035,"name":"Hüslen","admin3":"113"},{"geonameid":6291979,"name":"Hüsli","admin3":"112"},{"geonameid":6292135,"name":"Hüsli","admin3":"114"},{"geonameid":6292357,"name":"Hüssenbüel","admin3":"117"},{"geonameid":6291913,"name":"Hütten","admin3":"111"},{"geonameid":6291897,"name":"Im Chopfholz","admin3":"111"},{"geonameid":6292295,"name":"Itzikon","admin3":"116"},{"geonameid":6292465,"name":"Jonatal","admin3":"120"},{"geonameid":6291854,"name":"Josenhof","admin3":"111"},{"geonameid":6292243,"name":"Jungholz","admin3":"115"},{"geonameid":6292010,"name":"Kammern","admin3":"113"},{"geonameid":6291980,"name":"Kämmoos","admin3":"112"},{"geonameid":6291914,"name":"Kleinbäretswil","admin3":"111"},{"geonameid":6291945,"name":"Knebel","admin3":"112"},{"geonameid":6292319,"name":"Kreuzplatz","admin3":"117"},{"geonameid":6292026,"name":"Landetspiel","admin3":"113"},{"geonameid":6291938,"name":"Landsacker","admin3":"112"},{"geonameid":6292029,"name":"Langacker","admin3":"113"},{"geonameid":6292200,"name":"Langfuhr","admin3":"115"},{"geonameid":6292284,"name":"Langmatt","admin3":"116"},{"geonameid":6292342,"name":"Langmatt","admin3":"117"},{"geonameid":6291851,"name":"Läseten","admin3":"111"},{"geonameid":6291866,"name":"Laubenfelsen","admin3":"111"},{"geonameid":6292520,"name":"Lauf","admin3":"120"},{"geonameid":6291944,"name":"Laufenriet","admin3":"112"},{"geonameid":6292565,"name":"Laupen","admin3":"120"},{"geonameid":6291871,"name":"Laupetswil","admin3":"111"},{"geonameid":6292155,"name":"Lee","admin3":"114"},{"geonameid":6292028,"name":"Leebern","admin3":"113"},{"geonameid":6292242,"name":"Leerüti","admin3":"115"},{"geonameid":6292232,"name":"Leihalden","admin3":"115"},{"geonameid":6292594,"name":"Leisihalden","admin3":"121"},{"geonameid":6292076,"name":"Lenzen","admin3":"114"},{"geonameid":6292038,"name":"Lettenmoos","admin3":"113"},{"geonameid":6292123,"name":"Leutobel","admin3":"114"},{"geonameid":6292286,"name":"Lindist","admin3":"116"},{"geonameid":6292604,"name":"Linggenberg","admin3":"121"},{"geonameid":6292359,"name":"Loch","admin3":"117"},{"geonameid":6292453,"name":"Loch","admin3":"120"},{"geonameid":6292149,"name":"Löchern","admin3":"114"},{"geonameid":6291984,"name":"Lochrüti","admin3":"112"},{"geonameid":6292371,"name":"Looren (bei Wernetshausen)","admin3":"117"},{"geonameid":6292485,"name":"Lueget","admin3":"120"},{"geonameid":6291906,"name":"Maiwinkel","admin3":"111"},{"geonameid":6292032,"name":"Mannenrain","admin3":"113"},{"geonameid":6292193,"name":"Männetsriet","admin3":"115"},{"geonameid":6291879,"name":"Matt","admin3":"111"},{"geonameid":6292416,"name":"Matten","admin3":"118"},{"geonameid":6292612,"name":"Medikon","admin3":"121"},{"geonameid":6292554,"name":"Mettlen (bei Güntisberg)","admin3":"120"},{"geonameid":6291915,"name":"Mittler-Sädel","admin3":"111"},{"geonameid":6292617,"name":"Moos","admin3":"121"},{"geonameid":6292379,"name":"Moos (bei Wernetshausen)","admin3":"117"},{"geonameid":6292622,"name":"Morgen","admin3":"121"},{"geonameid":6291861,"name":"Morglen","admin3":"111"},{"geonameid":6291874,"name":"Mühle","admin3":"111"},{"geonameid":6292141,"name":"Mühle","admin3":"114"},{"geonameid":6292126,"name":"Mühlebach","admin3":"114"},{"geonameid":6292598,"name":"Müli","admin3":"121"},{"geonameid":6292635,"name":"Müliwisen","admin3":"121"},{"geonameid":6292464,"name":"Mülrüti","admin3":"120"},{"geonameid":6291929,"name":"Mürg","admin3":"112"},{"geonameid":6292540,"name":"Nahren","admin3":"120"},{"geonameid":6292288,"name":"Näsplen","admin3":"116"},{"geonameid":6292237,"name":"Nasswis","admin3":"115"},{"geonameid":6292403,"name":"Neu-York","admin3":"118"},{"geonameid":6291954,"name":"Neuacker","admin3":"112"},{"geonameid":6292373,"name":"Neubrunnen","admin3":"117"},{"geonameid":6291875,"name":"Neuegg","admin3":"111"},{"geonameid":6292611,"name":"Neugrund","admin3":"121"},{"geonameid":6292110,"name":"Neuhaus","admin3":"114"},{"geonameid":6291883,"name":"Neuhaus","admin3":"111"},{"geonameid":6291993,"name":"Neuhaus (bei Wolfhausen)","admin3":"112"},{"geonameid":6291931,"name":"Neuhaus bei Wändhüslen","admin3":"112"},{"geonameid":6292195,"name":"Neuhof (bei Bertschikon)","admin3":"115"},{"geonameid":6292534,"name":"Neuhus","admin3":"120"},{"geonameid":6292102,"name":"Neuschwändi","admin3":"114"},{"geonameid":6292442,"name":"Neutal","admin3":"120"},{"geonameid":6291846,"name":"Neuthal","admin3":"111"},{"geonameid":6292308,"name":"Neuweid","admin3":"116"},{"geonameid":6292631,"name":"Neuwis","admin3":"121"},{"geonameid":6292348,"name":"Niderhus","admin3":"117"},{"geonameid":6292385,"name":"Nieder-Orn","admin3":"117"},{"geonameid":6292490,"name":"Niederholz","admin3":"120"},{"geonameid":6292276,"name":"Niggenberg","admin3":"116"},{"geonameid":6292329,"name":"Nübruch","admin3":"117"},{"geonameid":6292608,"name":"Nübruch","admin3":"121"},{"geonameid":6292529,"name":"Nüholz","admin3":"120"},{"geonameid":6292484,"name":"Ober Haltberg","admin3":"120"},{"geonameid":6292428,"name":"Ober-Aathal","admin3":"119"},{"geonameid":6292336,"name":"Ober-Bernegg","admin3":"117"},{"geonameid":6292007,"name":"Ober-Edikon","admin3":"113"},{"geonameid":6292620,"name":"Ober-Emmetschloo","admin3":"121"},{"geonameid":6292317,"name":"Ober-Erlosen","admin3":"117"},{"geonameid":6292405,"name":"Ober-Fägswil","admin3":"118"},{"geonameid":6292502,"name":"Ober-Feld","admin3":"120"},{"geonameid":6292539,"name":"Ober-Laupen","admin3":"120"},{"geonameid":6292415,"name":"Ober-Moos","admin3":"118"},{"geonameid":6292543,"name":"Ober-Morgen","admin3":"120"},{"geonameid":6292384,"name":"Ober-Orn","admin3":"117"},{"geonameid":6292252,"name":"Ober-Ottikon","admin3":"115"},{"geonameid":6292448,"name":"Ober-Raad","admin3":"120"},{"geonameid":6292148,"name":"Oberaurüti","admin3":"114"},{"geonameid":6292062,"name":"Oberberg","admin3":"113"},{"geonameid":6291957,"name":"Oberbösch","admin3":"112"},{"geonameid":6292437,"name":"Oberbüel","admin3":"120"},{"geonameid":6291887,"name":"Oberdorf","admin3":"111"},{"geonameid":6292027,"name":"Oberdürnten","admin3":"113"},{"geonameid":6292367,"name":"Obere Birch","admin3":"117"},{"geonameid":6292036,"name":"Obere Looren","admin3":"113"},{"geonameid":6291856,"name":"Obere Tanne","admin3":"111"},{"geonameid":6292174,"name":"Oberfuchsloch","admin3":"114"},{"geonameid":7576702,"name":"Oberhaltberg","admin3":"118"},{"geonameid":6292280,"name":"Oberhof","admin3":"116"},{"geonameid":6292354,"name":"Oberhof","admin3":"117"},{"geonameid":6292599,"name":"Oberkempten","admin3":"121"},{"geonameid":6292109,"name":"Oberreinsberg","admin3":"114"},{"geonameid":6292071,"name":"Oberrohr","admin3":"114"},{"geonameid":6292411,"name":"Oberwies","admin3":"118"},{"geonameid":6292488,"name":"Oh","admin3":"120"},{"geonameid":6292117,"name":"Ohrüti","admin3":"114"},{"geonameid":6292081,"name":"Orflen","admin3":"114"},{"geonameid":6292018,"name":"Ornberg","admin3":"113"},{"geonameid":6292423,"name":"Ottenhausen","admin3":"119"},{"geonameid":6292616,"name":"Pfruendweid","admin3":"121"},{"geonameid":6292401,"name":"Pilgerhof","admin3":"118"},{"geonameid":6292400,"name":"Pilgersteg","admin3":"118"},{"geonameid":6291936,"name":"Platte","admin3":"112"},{"geonameid":6292216,"name":"Prampel","admin3":"115"},{"geonameid":6292255,"name":"Pünt","admin3":"115"},{"geonameid":6292445,"name":"Raad","admin3":"120"},{"geonameid":6292294,"name":"Rebacher","admin3":"116"},{"geonameid":6292187,"name":"Rebacher","admin3":"115"},{"geonameid":6292025,"name":"Rebschacker (östl. Teil)","admin3":"113"},{"geonameid":6292307,"name":"Reipen","admin3":"116"},{"geonameid":6291948,"name":"Reitbach","admin3":"112"},{"geonameid":6291880,"name":"Rellsten","admin3":"111"},{"geonameid":6292496,"name":"Rickenbach","admin3":"120"},{"geonameid":6292441,"name":"Riet","admin3":"120"},{"geonameid":6292298,"name":"Rietli","admin3":"116"},{"geonameid":6292481,"name":"Rietwis","admin3":"120"},{"geonameid":6292257,"name":"Rifacher","admin3":"115"},{"geonameid":6292575,"name":"Rigi","admin3":"120"},{"geonameid":6292215,"name":"Rinderbrunnen","admin3":"115"},{"geonameid":6292327,"name":"Ringwil","admin3":"117"},{"geonameid":6291951,"name":"Ritterhaus","admin3":"112"},{"geonameid":6292605,"name":"Robank","admin3":"121"},{"geonameid":6292432,"name":"Robänkli","admin3":"119"},{"geonameid":6292074,"name":"Rohr","admin3":"114"},{"geonameid":6292009,"name":"Rosenau","admin3":"113"},{"geonameid":6292085,"name":"Roswisli","admin3":"114"},{"geonameid":6292615,"name":"Rötel","admin3":"121"},{"geonameid":6292353,"name":"Rotenstein (nordwestl. Teil)","admin3":"117"},{"geonameid":6292000,"name":"Rotenstein (südöstl. Teil)","admin3":"113"},{"geonameid":6292022,"name":"Rothaus","admin3":"113"},{"geonameid":6292537,"name":"Rotwasser","admin3":"120"},{"geonameid":6291868,"name":"Rüeggental","admin3":"111"},{"geonameid":6291994,"name":"Rüeggshausen","admin3":"112"},{"geonameid":6291867,"name":"Rüetswil","admin3":"111"},{"geonameid":2658909,"name":"Rüti","admin3":"117"},{"geonameid":6292397,"name":"Rüti / Dorfzentrum, Südl. Teil","admin3":"118"},{"geonameid":6292398,"name":"Rüti / Oberdorf","admin3":"118"},{"geonameid":6292396,"name":"Rüti / Westlicher Dorfteil","admin3":"118"},{"geonameid":6292092,"name":"Rütiwis","admin3":"114"},{"geonameid":6291943,"name":"Rutschberg","admin3":"112"},{"geonameid":6292369,"name":"Sack","admin3":"117"},{"geonameid":6292145,"name":"Sack","admin3":"114"},{"geonameid":6292431,"name":"Sack","admin3":"119"},{"geonameid":6292511,"name":"Sack (Bürgerasyl)","admin3":"120"},{"geonameid":6292392,"name":"Sagen","admin3":"117"},{"geonameid":6292614,"name":"Sandbüel","admin3":"121"},{"geonameid":6291889,"name":"Sandbüel","admin3":"111"},{"geonameid":6292610,"name":"Sänggelen","admin3":"121"},{"geonameid":6292341,"name":"Schaugen","admin3":"117"},{"geonameid":6292015,"name":"Schlieren","admin3":"113"},{"geonameid":6291963,"name":"Schlossberg","admin3":"112"},{"geonameid":6291907,"name":"Schmärschür","admin3":"111"},{"geonameid":6292097,"name":"Schmittenbach","admin3":"114"},{"geonameid":6292247,"name":"Schönau","admin3":"115"},{"geonameid":6291899,"name":"Schönau","admin3":"111"},{"geonameid":6292287,"name":"Schoren","admin3":"116"},{"geonameid":6292346,"name":"Schufelberg","admin3":"117"},{"geonameid":6292314,"name":"Schulhaus Erlosen","admin3":"117"},{"geonameid":6292391,"name":"Schulhaus Unterbach","admin3":"117"},{"geonameid":6291882,"name":"Schürli","admin3":"111"},{"geonameid":6291947,"name":"Schürwies","admin3":"112"},{"geonameid":6292628,"name":"Schwändi","admin3":"121"},{"geonameid":6292381,"name":"Schwändi","admin3":"117"},{"geonameid":6291965,"name":"Schwarz","admin3":"112"},{"geonameid":6292105,"name":"Schwarzengrund","admin3":"114"},{"geonameid":6291908,"name":"Schwarzweid","admin3":"111"},{"geonameid":6292226,"name":"Schwobshof","admin3":"115"},{"geonameid":2658651,"name":"Seegräben","admin3":"119"},{"geonameid":6291940,"name":"Sennschür","admin3":"112"},{"geonameid":6292002,"name":"Sennweid","admin3":"113"},{"geonameid":6292264,"name":"Sibleten","admin3":"115"},{"geonameid":6292253,"name":"Silberberg","admin3":"115"},{"geonameid":6292517,"name":"Silmatt","admin3":"120"},{"geonameid":6291989,"name":"Sonnental","admin3":"112"},{"geonameid":6292378,"name":"Spiegelberg","admin3":"117"},{"geonameid":6292305,"name":"Spilhalden","admin3":"116"},{"geonameid":6292593,"name":"Sporrweggli","admin3":"121"},{"geonameid":6292580,"name":"Stampf","admin3":"120"},{"geonameid":6292372,"name":"Stampf","admin3":"117"},{"geonameid":6292186,"name":"Station","admin3":"114"},{"geonameid":2658493,"name":"Steg","admin3":"114"},{"geonameid":6292536,"name":"Steig","admin3":"120"},{"geonameid":6292531,"name":"Steigweg","admin3":"120"},{"geonameid":6292152,"name":"Stein","admin3":"114"},{"geonameid":6292427,"name":"Steinberg","admin3":"119"},{"geonameid":6292452,"name":"Steinchramen","admin3":"120"},{"geonameid":6292492,"name":"Steingass","admin3":"120"},{"geonameid":6292491,"name":"Steinweid","admin3":"120"},{"geonameid":6291895,"name":"Steinweid","admin3":"111"},{"geonameid":6292535,"name":"Stigweid","admin3":"120"},{"geonameid":6291890,"name":"Stöck","admin3":"111"},{"geonameid":6292315,"name":"Stocken","admin3":"117"},{"geonameid":6292499,"name":"Stockenmatt","admin3":"120"},{"geonameid":6291853,"name":"Stollen","admin3":"111"},{"geonameid":6292233,"name":"Strick","admin3":"115"},{"geonameid":6292119,"name":"Strick","admin3":"114"},{"geonameid":6292550,"name":"Strickel","admin3":"120"},{"geonameid":6292592,"name":"Summerau","admin3":"121"},{"geonameid":6291937,"name":"Tafleten","admin3":"112"},{"geonameid":6292244,"name":"Tägernau","admin3":"115"},{"geonameid":6292292,"name":"Talacher-Haufland","admin3":"116"},{"geonameid":6292001,"name":"Tammel","admin3":"113"},{"geonameid":2658424,"name":"Tann","admin3":"113"},{"geonameid":6291999,"name":"Tann / Brunnenbühl","admin3":"113"},{"geonameid":6291997,"name":"Tann / Hinter-Guldistud","admin3":"113"},{"geonameid":6291998,"name":"Tann / Nauen (südl. Teil)","admin3":"113"},{"geonameid":6291996,"name":"Tann / Tann (Dorfkern)","admin3":"113"},{"geonameid":6292055,"name":"Tannägerten","admin3":"113"},{"geonameid":6291857,"name":"Tanne","admin3":"111"},{"geonameid":6292137,"name":"Tannen","admin3":"114"},{"geonameid":6292560,"name":"Tannenboden","admin3":"120"},{"geonameid":6292623,"name":"Tannenrain","admin3":"121"},{"geonameid":6292060,"name":"Tannertobel","admin3":"113"},{"geonameid":6292500,"name":"Tännler","admin3":"120"},{"geonameid":6292068,"name":"Tanzplatz","admin3":"114"},{"geonameid":6291901,"name":"Tisenwaltsberg","admin3":"111"},{"geonameid":6291873,"name":"Tobel","admin3":"111"},{"geonameid":6292546,"name":"Töbeli","admin3":"120"},{"geonameid":6292054,"name":"Töbeli","admin3":"113"},{"geonameid":6292525,"name":"Tonacher","admin3":"120"},{"geonameid":6292291,"name":"Tränkibach","admin3":"116"},{"geonameid":6292335,"name":"Triemen","admin3":"117"},{"geonameid":6292282,"name":"Trottacher","admin3":"116"},{"geonameid":6292326,"name":"Tüelen","admin3":"117"},{"geonameid":6292192,"name":"Tueweid","admin3":"115"},{"geonameid":6292489,"name":"Tüfi","admin3":"120"},{"geonameid":6292020,"name":"Tumlen","admin3":"113"},{"geonameid":6292108,"name":"Uerchen","admin3":"114"},{"geonameid":6292462,"name":"Uf Rüti","admin3":"120"},{"geonameid":6292483,"name":"Unter Haltberg","admin3":"120"},{"geonameid":6292425,"name":"Unter-Aathal","admin3":"119"},{"geonameid":6292313,"name":"Unter-Erlosen","admin3":"117"},{"geonameid":6292404,"name":"Unter-Fägswil","admin3":"118"},{"geonameid":6292417,"name":"Unter-Moos","admin3":"118"},{"geonameid":6292251,"name":"Unter-Ottikon","admin3":"115"},{"geonameid":6291990,"name":"Unter-Rennweg","admin3":"112"},{"geonameid":6291941,"name":"Unter-Wechsel","admin3":"112"},{"geonameid":6292147,"name":"Unteraurüti","admin3":"114"},{"geonameid":6292473,"name":"Unterbach","admin3":"120"},{"geonameid":6291960,"name":"Unterbösch","admin3":"112"},{"geonameid":6292037,"name":"Untere Looren","admin3":"113"},{"geonameid":6292474,"name":"Unterhueb","admin3":"120"},{"geonameid":6292393,"name":"Unterhus","admin3":"117"},{"geonameid":6292162,"name":"Untermoos","admin3":"114"},{"geonameid":6292430,"name":"Villa RA","admin3":"119"},{"geonameid":6292470,"name":"Vorder Erli","admin3":"120"},{"geonameid":6292456,"name":"Vorder Sennenberg","admin3":"120"},{"geonameid":6292337,"name":"Vorder-Bernegg","admin3":"117"},{"geonameid":6291959,"name":"Vorder-Dienstbach","admin3":"112"},{"geonameid":6292270,"name":"Vorder-Goldacher","admin3":"115"},{"geonameid":6292050,"name":"Vorder-Pilgersteg","admin3":"113"},{"geonameid":6291995,"name":"Vorder-Rüteli","admin3":"112"},{"geonameid":6292138,"name":"Vorder-Strahlegg","admin3":"114"},{"geonameid":6292173,"name":"Vorderfuchsloch","admin3":"114"},{"geonameid":6292515,"name":"Vorderwald","admin3":"120"},{"geonameid":6291860,"name":"Waberg","admin3":"111"},{"geonameid":6292424,"name":"Wagenburg","admin3":"119"},{"geonameid":2658073,"name":"Wald","admin3":"120"},{"geonameid":6292422,"name":"Waldau","admin3":"118"},{"geonameid":6292091,"name":"Waldberg","admin3":"114"},{"geonameid":6291930,"name":"Wändhüslen","admin3":"112"},{"geonameid":6291939,"name":"Wanne","admin3":"112"},{"geonameid":6291905,"name":"Wappenswil","admin3":"111"},{"geonameid":6291903,"name":"Wässeri","admin3":"111"},{"geonameid":6292420,"name":"Weid","admin3":"118"},{"geonameid":6291865,"name":"Weid (bei Adetswil)","admin3":"111"},{"geonameid":6292206,"name":"Weid (bei Gossau)","admin3":"115"},{"geonameid":2658015,"name":"Wernetshausen","admin3":"117"},{"geonameid":2658010,"name":"Wetzikon","admin3":"121"},{"geonameid":6292591,"name":"Wetzikon / Kempten","admin3":"121"},{"geonameid":2659325,"name":"Wetzikon / Ober-Wetzikon","admin3":"121"},{"geonameid":6292590,"name":"Wetzikon / Robenhausen","admin3":"121"},{"geonameid":2658230,"name":"Wetzikon / Unter-Wetzikon","admin3":"121"},{"geonameid":6292249,"name":"Wiberg","admin3":"115"},{"geonameid":6292130,"name":"Widenreiti","admin3":"114"},{"geonameid":6291982,"name":"Widenswil","admin3":"112"},{"geonameid":6292634,"name":"Widum","admin3":"121"},{"geonameid":6292316,"name":"Wiesental (bei Bossikon)","admin3":"117"},{"geonameid":6292568,"name":"Wili","admin3":"120"},{"geonameid":6292569,"name":"Winkel","admin3":"120"},{"geonameid":6292056,"name":"Winterhalden","admin3":"113"},{"geonameid":6291869,"name":"Wirzwil","admin3":"111"},{"geonameid":6292375,"name":"Wissenbach","admin3":"117"},{"geonameid":6295543,"name":"Wolfhausen","admin3":"112"},{"geonameid":6291978,"name":"Wolfhausen / Blumenberg","admin3":"112"},{"geonameid":6291973,"name":"Wolfhausen / Brändliacker","admin3":"112"},{"geonameid":6291969,"name":"Wolfhausen / Bühlhof","admin3":"112"},{"geonameid":6291975,"name":"Wolfhausen / Geissberg","admin3":"112"},{"geonameid":6291977,"name":"Wolfhausen / Heerschären","admin3":"112"},{"geonameid":6291976,"name":"Wolfhausen / Hüebeli","admin3":"112"},{"geonameid":6291970,"name":"Wolfhausen / Neugut","admin3":"112"},{"geonameid":6291972,"name":"Wolfhausen / Ober-Rennweg","admin3":"112"},{"geonameid":6291968,"name":"Wolfhausen / Ober-Wolfhausen","admin3":"112"},{"geonameid":6291974,"name":"Wolfhausen / Schachen","admin3":"112"},{"geonameid":6291971,"name":"Wolfhausen / Sonnenberg","admin3":"112"},{"geonameid":6291967,"name":"Wolfhausen / Wolfhausen (Dorfkern)","admin3":"112"},{"geonameid":6292042,"name":"Wurstbrunnen","admin3":"113"},{"geonameid":6292128,"name":"Würz","admin3":"114"},{"geonameid":6291876,"name":"Zelg","admin3":"111"},{"geonameid":6291983,"name":"Zell","admin3":"112"},{"geonameid":6292566,"name":"Ziegelhütte","admin3":"120"},{"geonameid":6292023,"name":"Zihl","admin3":"113"},{"geonameid":6292239,"name":"Zil","admin3":"115"},{"geonameid":6292607,"name":"Zil","admin3":"121"}],"admin3":[{"geonameid":2660466,"name":"Grüningen","admin3":"116"},{"geonameid":7285155,"name":"Bäretswil","admin3":"111"},{"geonameid":7285363,"name":"Bubikon","admin3":"112"},{"geonameid":7285681,"name":"Dürnten","admin3":"113"},{"geonameid":7285830,"name":"Fischenthal","admin3":"114"},{"geonameid":7285946,"name":"Gossau (ZH)","admin3":"115"},{"geonameid":7286087,"name":"Hinwil","admin3":"117"},{"geonameid":7287001,"name":"Rüti (ZH)","admin3":"118"},{"geonameid":7287134,"name":"Seegräben","admin3":"119"},{"geonameid":7287524,"name":"Wald (ZH)","admin3":"120"},{"geonameid":7287564,"name":"Wetzikon (ZH)","admin3":"121"}],"alternateNames":[]},"__N_SSG":true}