{"pageProps":{"locale":"ro","admin2":{"geonameid":680873,"name":"Comuna Corbiţa","country":"RO","admin1":"40","admin2":"175787","admin3":"","latitude":"46.1632500","longitude":"27.3086100"},"admin1":{"geonameid":662447,"name":"Vrancea","admin1":"40","localeAltName":"Vrancea"},"locations":[{"geonameid":683495,"name":"Buda","admin3":""},{"geonameid":680874,"name":"Corbiţa","admin3":""},{"geonameid":675380,"name":"Izvoarele","admin3":""},{"geonameid":675018,"name":"Lărgășeni","admin3":""},{"geonameid":672041,"name":"Ocheșești","admin3":""},{"geonameid":669296,"name":"Rădăcinești","admin3":""},{"geonameid":668165,"name":"Sălcuţa","admin3":""},{"geonameid":667372,"name":"Șerbănești","admin3":""},{"geonameid":664890,"name":"Tuțu","admin3":""},{"geonameid":662873,"name":"Vâlcelele","admin3":""}],"admin3":[],"alternateNames":[{"alternatenameId":391637,"geonameid":662447,"isoLanguage":"ro","alternateName":"Vrancea","isPreferredName":true,"isShortName":true,"isColloquial":false,"isHistoric":false}]},"__N_SSG":true}