{"pageProps":{"locale":"it","admin2":{"geonameid":3164600,"name":"Provincia di Venezia","country":"IT","admin1":"20","admin2":"VE","admin3":"","latitude":"45.4404500","longitude":"12.3263200","localeAltName":"Venezia"},"admin1":{"geonameid":3164604,"name":"Veneto","admin1":"20","localeAltName":null},"locations":[{"geonameid":3183327,"name":"Alberoni","admin3":"027042","localeAltName":null},{"geonameid":3183049,"name":"Annone Veneto","admin3":"027001","localeAltName":null},{"geonameid":8948972,"name":"Arino","admin3":"027012","localeAltName":null},{"geonameid":8949642,"name":"Bagaron","admin3":"027042","localeAltName":null},{"geonameid":8949174,"name":"Ballò","admin3":"027024","localeAltName":null},{"geonameid":3217955,"name":"Belfiore","admin3":"027030","localeAltName":null},{"geonameid":3182057,"name":"Bibione","admin3":"027034","localeAltName":null},{"geonameid":8948822,"name":"Bojon-Lova","admin3":"027003","localeAltName":null},{"geonameid":8949224,"name":"Boscochiaro","admin3":"027006","localeAltName":null},{"geonameid":3218996,"name":"Brigo-Paluello","admin3":"027039","localeAltName":null},{"geonameid":3181402,"name":"Burano","admin3":"027042","localeAltName":null},{"geonameid":3209324,"name":"Ca' Ballarin","admin3":"027044","localeAltName":null},{"geonameid":8950237,"name":"Ca' Corner","admin3":"027031","localeAltName":null},{"geonameid":3181188,"name":"Ca' Lino","admin3":"027008","localeAltName":null},{"geonameid":8950193,"name":"Ca' Sabbioni","admin3":"027042","localeAltName":null},{"geonameid":8224698,"name":"Ca' Savio","admin3":"027044","localeAltName":null},{"geonameid":8949473,"name":"Calnova-Fiorentina","admin3":"027033","localeAltName":null},{"geonameid":3181169,"name":"Caltana","admin3":"027035","localeAltName":null},{"geonameid":3181062,"name":"Campagna Lupia","admin3":"027002","localeAltName":null},{"geonameid":3181051,"name":"Campalto","admin3":"027042","localeAltName":null},{"geonameid":3219176,"name":"Campolongo Maggiore Liettoli","admin3":"027003","localeAltName":null},{"geonameid":3180937,"name":"Camponogara","admin3":"027004","localeAltName":null},{"geonameid":3180749,"name":"Caorle","admin3":"027005","localeAltName":null},{"geonameid":3219038,"name":"Cappella","admin3":"027037","localeAltName":null},{"geonameid":3219040,"name":"Cappelletta","admin3":"027026","localeAltName":null},{"geonameid":8949973,"name":"Case Dosa","admin3":"027042","localeAltName":null},{"geonameid":3219111,"name":"Caselle","admin3":"027035","localeAltName":null},{"geonameid":8714217,"name":"Cavallino","admin3":"027044","localeAltName":null},{"geonameid":3179294,"name":"Cavarzere","admin3":"027006","localeAltName":null},{"geonameid":8950016,"name":"Cavin-Botti","admin3":"027024","localeAltName":null},{"geonameid":6692160,"name":"Cazzago-Ex Polo","admin3":"027028","localeAltName":null},{"geonameid":3179220,"name":"Ceggia","admin3":"027007","localeAltName":null},{"geonameid":3178967,"name":"Cesarolo","admin3":"027034","localeAltName":null},{"geonameid":3218186,"name":"Chiesanuova","admin3":"027033","localeAltName":null},{"geonameid":3178784,"name":"Chioggia","admin3":"027008","localeAltName":null},{"geonameid":3217970,"name":"Cintello","admin3":"027040","localeAltName":null},{"geonameid":3178664,"name":"Cinto Caomaggiore","admin3":"027009","localeAltName":null},{"geonameid":3178203,"name":"Concordia Sagittaria","admin3":"027011","localeAltName":null},{"geonameid":3217952,"name":"Corbolone","admin3":"027036","localeAltName":null},{"geonameid":3218002,"name":"Crepaldo","admin3":"027013","localeAltName":null},{"geonameid":8949762,"name":"Croce","admin3":"027025","localeAltName":null},{"geonameid":3219021,"name":"Dese","admin3":"027042","localeAltName":null},{"geonameid":3219014,"name":"Dogaletto","admin3":"027023","localeAltName":null},{"geonameid":3177547,"name":"Dolo","admin3":"027012","localeAltName":null},{"geonameid":3177373,"name":"Eraclea","admin3":"027013","localeAltName":null},{"geonameid":8948755,"name":"Fiesso","admin3":"027014","localeAltName":null},{"geonameid":3218998,"name":"Fiesso d'Artico","admin3":"027014","localeAltName":null},{"geonameid":8948986,"name":"Fornase","admin3":"027038","localeAltName":null},{"geonameid":8950082,"name":"Fossa","admin3":"027038","localeAltName":null},{"geonameid":3176646,"name":"Fossalta di Piave","admin3":"027015","localeAltName":null},{"geonameid":3176645,"name":"Fossalta di Portogruaro","admin3":"027016","localeAltName":null},{"geonameid":3218993,"name":"Fossò","admin3":"027017","localeAltName":null},{"geonameid":8948944,"name":"Galta","admin3":"027043","localeAltName":null},{"geonameid":3176153,"name":"Giai","admin3":"027018","localeAltName":null},{"geonameid":3175265,"name":"Giudecca","admin3":"027042","localeAltName":null},{"geonameid":3175756,"name":"Gruaro","admin3":"027018","localeAltName":null},{"geonameid":3217969,"name":"Gruaro-Bagnara","admin3":"027018","localeAltName":null},{"geonameid":3175627,"name":"Iesolo","admin3":"027019","localeAltName":null},{"geonameid":3168613,"name":"La Salute di Livenza","admin3":"027036","localeAltName":null},{"geonameid":3174748,"name":"Lido","admin3":"027042","localeAltName":null},{"geonameid":3174742,"name":"Lido di Jesolo","admin3":"027019","localeAltName":null},{"geonameid":6692279,"name":"Losson della Battaglia","admin3":"027022","localeAltName":null},{"geonameid":8950079,"name":"Lova","admin3":"027002","localeAltName":null},{"geonameid":3219168,"name":"Lughetto","admin3":"027002","localeAltName":null},{"geonameid":3174488,"name":"Lugugnana","admin3":"027029","localeAltName":null},{"geonameid":3174308,"name":"Maerne","admin3":"027021","localeAltName":null},{"geonameid":3219010,"name":"Marano","admin3":"027023","localeAltName":null},{"geonameid":3173985,"name":"Marcon-Gaggio-Colmello","admin3":"027020","localeAltName":null},{"geonameid":9036150,"name":"Marocco","admin3":"027042","localeAltName":null},{"geonameid":3173852,"name":"Martellago","admin3":"027021","localeAltName":null},{"geonameid":3173580,"name":"Meolo","admin3":"027022","localeAltName":null},{"geonameid":3173529,"name":"Mestre","admin3":"027042","localeAltName":null},{"geonameid":3173385,"name":"Mira Taglio","admin3":"027023","localeAltName":null},{"geonameid":3173369,"name":"Mirano","admin3":"027024","localeAltName":null},{"geonameid":8949010,"name":"Moniego","admin3":"027026","localeAltName":null},{"geonameid":3172456,"name":"Murano","admin3":"027042","localeAltName":null},{"geonameid":3172422,"name":"Musile di Piave","admin3":"027025","localeAltName":null},{"geonameid":3172252,"name":"Noale","admin3":"027026","localeAltName":null},{"geonameid":3172175,"name":"Noventa di Piave","admin3":"027027","localeAltName":null},{"geonameid":3171426,"name":"Passarella","admin3":"027033","localeAltName":null},{"geonameid":3171303,"name":"Pegolotte","admin3":"027010","localeAltName":null},{"geonameid":3171286,"name":"Pellestrina","admin3":"027042","localeAltName":null},{"geonameid":3219037,"name":"Peseggia-Gardigiano","admin3":"027037","localeAltName":null},{"geonameid":3170963,"name":"Pianiga","admin3":"027028","localeAltName":null},{"geonameid":8630156,"name":"Porto Santa Margherita","admin3":"027005","localeAltName":null},{"geonameid":3170086,"name":"Portogruaro","admin3":"027029","localeAltName":null},{"geonameid":3169965,"name":"Pradipozzo","admin3":"027029","localeAltName":null},{"geonameid":3217965,"name":"Pramaggiore","admin3":"027030","localeAltName":null},{"geonameid":3217960,"name":"Pramaggiore Blessaglia","admin3":"027030","localeAltName":null},{"geonameid":6592791,"name":"Punta Sabbioni","admin3":"027044","localeAltName":null},{"geonameid":3169700,"name":"Quarto d'Altino","admin3":"027031","localeAltName":null},{"geonameid":3219039,"name":"Rio San Martino","admin3":"027037","localeAltName":null},{"geonameid":8948904,"name":"Robegano","admin3":"027032","localeAltName":null},{"geonameid":3168881,"name":"Rottanova","admin3":"027006","localeAltName":null},{"geonameid":3168601,"name":"Salzano","admin3":"027032","localeAltName":null},{"geonameid":3219169,"name":"Sambruson","admin3":"027012","localeAltName":null},{"geonameid":3168429,"name":"San Donà di Piave","admin3":"027033","localeAltName":null},{"geonameid":3217986,"name":"San Giorgio al Tagliamento-Pozzi","admin3":"027034","localeAltName":null},{"geonameid":3168304,"name":"San Giorgio di Livenza","admin3":"027005","localeAltName":null},{"geonameid":3219027,"name":"San Liberale","admin3":"027020","localeAltName":null},{"geonameid":11185903,"name":"San Martino Destra","admin3":"027042","localeAltName":null},{"geonameid":11185904,"name":"San Martino Sinistrac","admin3":"027042","localeAltName":null},{"geonameid":3167962,"name":"San Michele al Tagliamento","admin3":"027034","localeAltName":null},{"geonameid":8949322,"name":"San Pietro in Volta","admin3":"027042","localeAltName":null},{"geonameid":3167239,"name":"San Stino di Livenza","admin3":"027036","localeAltName":"San Stino di Livenza"},{"geonameid":3168432,"name":"Sandon","admin3":"027017","localeAltName":null},{"geonameid":3167465,"name":"Sant'Angelo","admin3":"027035","localeAltName":null},{"geonameid":3219325,"name":"Sant'Anna","admin3":"027008","localeAltName":null},{"geonameid":3167543,"name":"Santa Maria di Sala","admin3":"027035","localeAltName":null},{"geonameid":3166995,"name":"Scaltenigo","admin3":"027024","localeAltName":null},{"geonameid":3166866,"name":"Scorzè","admin3":"027037","localeAltName":null},{"geonameid":8949839,"name":"Sindacale","admin3":"027011","localeAltName":null},{"geonameid":3219114,"name":"Spinea-Orgnano","admin3":"027038","localeAltName":null},{"geonameid":3166149,"name":"Stiago","admin3":"027016","localeAltName":null},{"geonameid":3219096,"name":"Stigliano","admin3":"027035","localeAltName":null},{"geonameid":3166122,"name":"Stra","admin3":"027039","localeAltName":null},{"geonameid":8949454,"name":"Stretti","admin3":"027013","localeAltName":null},{"geonameid":3217978,"name":"Summaga","admin3":"027029","localeAltName":null},{"geonameid":3165847,"name":"Teglio Veneto","admin3":"027040","localeAltName":null},{"geonameid":3165721,"name":"Tessera","admin3":"027042","localeAltName":null},{"geonameid":8949255,"name":"Tombelle","admin3":"027043","localeAltName":null},{"geonameid":3218001,"name":"Torre di Fine","admin3":"027013","localeAltName":null},{"geonameid":3165448,"name":"Torre di Mosto","admin3":"027041","localeAltName":null},{"geonameid":3219036,"name":"Trivignano","admin3":"027042","localeAltName":null},{"geonameid":8949318,"name":"Valli","admin3":"027008","localeAltName":null},{"geonameid":3164603,"name":"Venice","admin3":"027042","localeAltName":null},{"geonameid":3219101,"name":"Veternigo","admin3":"027035","localeAltName":null},{"geonameid":3164471,"name":"Vetrego","admin3":"027024","localeAltName":null},{"geonameid":3164320,"name":"Vigonovo","admin3":"027043","localeAltName":null},{"geonameid":8950167,"name":"Villaggio Busonera","admin3":"027006","localeAltName":null},{"geonameid":3164176,"name":"Villanova Santa Margherita","admin3":"027016","localeAltName":null},{"geonameid":3163898,"name":"Zelarino","admin3":"027042","localeAltName":null}],"admin3":[{"geonameid":6535962,"name":"Cavallino-Treporti","admin3":"027044","localeAltName":null},{"geonameid":6536218,"name":"Fiesso d'Artico","admin3":"027014","localeAltName":null},{"geonameid":6536219,"name":"Gruaro","admin3":"027018","localeAltName":null},{"geonameid":6536220,"name":"Pramaggiore","admin3":"027030","localeAltName":null},{"geonameid":6536221,"name":"Spinea","admin3":"027038","localeAltName":null},{"geonameid":6536277,"name":"Cona","admin3":"027010","localeAltName":null},{"geonameid":6536290,"name":"Fossalta di Piave","admin3":"027015","localeAltName":null},{"geonameid":6536291,"name":"Marcon","admin3":"027020","localeAltName":null},{"geonameid":6536292,"name":"San Michele al Tagliamento","admin3":"027034","localeAltName":null},{"geonameid":6536657,"name":"Campagna Lupia","admin3":"027002","localeAltName":null},{"geonameid":6536658,"name":"Ceggia","admin3":"027007","localeAltName":null},{"geonameid":6536659,"name":"Cinto Caomaggiore","admin3":"027009","localeAltName":null},{"geonameid":6536660,"name":"Dolo","admin3":"027012","localeAltName":null},{"geonameid":6536661,"name":"Santa Maria di Sala","admin3":"027035","localeAltName":null},{"geonameid":6536662,"name":"San Stino di Livenza","admin3":"027036","localeAltName":"San Stino di Livenza"},{"geonameid":6538313,"name":"Annone Veneto","admin3":"027001","localeAltName":null},{"geonameid":6538314,"name":"Concordia Sagittaria","admin3":"027011","localeAltName":null},{"geonameid":6538315,"name":"Martellago","admin3":"027021","localeAltName":null},{"geonameid":6538316,"name":"Meolo","admin3":"027022","localeAltName":null},{"geonameid":6538317,"name":"Mirano","admin3":"027024","localeAltName":null},{"geonameid":6538318,"name":"Noale","admin3":"027026","localeAltName":null},{"geonameid":6538319,"name":"Noventa di Piave","admin3":"027027","localeAltName":null},{"geonameid":6538320,"name":"Quarto d'Altino","admin3":"027031","localeAltName":null},{"geonameid":6538321,"name":"Salzano","admin3":"027032","localeAltName":null},{"geonameid":6538322,"name":"San Donà di Piave","admin3":"027033","localeAltName":null},{"geonameid":6538323,"name":"Scorzè","admin3":"027037","localeAltName":null},{"geonameid":6538324,"name":"Teglio Veneto","admin3":"027040","localeAltName":null},{"geonameid":6539642,"name":"Eraclea","admin3":"027013","localeAltName":null},{"geonameid":6539643,"name":"Fossò","admin3":"027017","localeAltName":null},{"geonameid":6539644,"name":"Portogruaro","admin3":"027029","localeAltName":null},{"geonameid":6539690,"name":"Cavarzere","admin3":"027006","localeAltName":null},{"geonameid":6539691,"name":"Vigonovo","admin3":"027043","localeAltName":null},{"geonameid":6540220,"name":"Mira","admin3":"027023","localeAltName":null},{"geonameid":6540258,"name":"Fossalta di Portogruaro","admin3":"027016","localeAltName":null},{"geonameid":6540392,"name":"Caorle","admin3":"027005","localeAltName":null},{"geonameid":6540393,"name":"Stra","admin3":"027039","localeAltName":null},{"geonameid":6540998,"name":"Camponogara","admin3":"027004","localeAltName":null},{"geonameid":6540999,"name":"Musile di Piave","admin3":"027025","localeAltName":null},{"geonameid":6541000,"name":"Torre di Mosto","admin3":"027041","localeAltName":null},{"geonameid":6541533,"name":"Campolongo Maggiore","admin3":"027003","localeAltName":null},{"geonameid":6541540,"name":"Pianiga","admin3":"027028","localeAltName":null},{"geonameid":6541821,"name":"Chioggia","admin3":"027008","localeAltName":null},{"geonameid":6542178,"name":"Jesolo","admin3":"027019","localeAltName":"Jesolo"},{"geonameid":6542284,"name":"Venezia","admin3":"027042","localeAltName":null}],"alternateNames":[{"alternatenameId":1347245,"geonameid":3164600,"isoLanguage":"it","alternateName":"Venezia","isPreferredName":true,"isShortName":true,"isColloquial":false,"isHistoric":false},{"alternatenameId":1347248,"geonameid":3164600,"isoLanguage":"de","alternateName":"Venedig","isPreferredName":true,"isShortName":true,"isColloquial":false,"isHistoric":false},{"alternatenameId":1347249,"geonameid":3164600,"isoLanguage":"en","alternateName":"Venice","isPreferredName":true,"isShortName":true,"isColloquial":false,"isHistoric":false},{"alternatenameId":13571579,"geonameid":3167239,"isoLanguage":"it","alternateName":"San Stino di Livenza","isPreferredName":true,"isShortName":true,"isColloquial":false,"isHistoric":false},{"alternatenameId":7837981,"geonameid":6536662,"isoLanguage":"it","alternateName":"San Stino di Livenza","isPreferredName":true,"isShortName":true,"isColloquial":false,"isHistoric":false},{"alternatenameId":7412163,"geonameid":6542178,"isoLanguage":"it","alternateName":"Jesolo","isPreferredName":true,"isShortName":true,"isColloquial":false,"isHistoric":false},{"alternatenameId":9408234,"geonameid":6542284,"isoLanguage":"en","alternateName":"Venice","isPreferredName":true,"isShortName":true,"isColloquial":false,"isHistoric":false}]},"__N_SSG":true}