{"pageProps":{"locale":"it","admin2":{"geonameid":3165200,"name":"Provincia di Treviso","country":"IT","admin1":"20","admin2":"TV","admin3":"","latitude":"45.8333300","longitude":"12.2166700","localeAltName":"Treviso"},"admin1":{"geonameid":3164604,"name":"Veneto","admin1":"20","localeAltName":null},"locations":[{"geonameid":3183352,"name":"Albaredo","admin3":"026089","localeAltName":null},{"geonameid":8949649,"name":"Alberone","admin3":"026013","localeAltName":null},{"geonameid":3218595,"name":"Albina","admin3":"026031","localeAltName":null},{"geonameid":6535016,"name":"Altivole","admin3":"026001","localeAltName":null},{"geonameid":3182923,"name":"Arcade","admin3":"026002","localeAltName":null},{"geonameid":3182732,"name":"Asolo","admin3":"026003","localeAltName":null},{"geonameid":3219043,"name":"Badoere","admin3":"026047","localeAltName":null},{"geonameid":3182506,"name":"Bagnolo","admin3":"026073","localeAltName":null},{"geonameid":8949005,"name":"Barbisano","admin3":"026057","localeAltName":null},{"geonameid":3218766,"name":"Barcon","admin3":"026089","localeAltName":null},{"geonameid":3219085,"name":"Biancade","admin3":"026069","localeAltName":null},{"geonameid":3182064,"name":"Bibano","admin3":"026033","localeAltName":null},{"geonameid":3218708,"name":"Bidasio","admin3":"026050","localeAltName":null},{"geonameid":3182032,"name":"Bigolino","admin3":"026087","localeAltName":null},{"geonameid":3181966,"name":"Bocca Callalta","admin3":"026071","localeAltName":null},{"geonameid":3181883,"name":"Bonisiolo","admin3":"026043","localeAltName":null},{"geonameid":8949979,"name":"Borgo Verde","admin3":"026063","localeAltName":null},{"geonameid":3181715,"name":"Borso del Grappa","admin3":"026004","localeAltName":null},{"geonameid":3181586,"name":"Breda","admin3":"026005","localeAltName":null},{"geonameid":3181357,"name":"Busta","admin3":"026046","localeAltName":null},{"geonameid":8949068,"name":"Ca' Rainati","admin3":"026077","localeAltName":null},{"geonameid":3181284,"name":"Caerano di San Marco","admin3":"026006","localeAltName":null},{"geonameid":3181120,"name":"Camalò","admin3":"026062","localeAltName":null},{"geonameid":3218219,"name":"Campo di Pietra","admin3":"026070","localeAltName":null},{"geonameid":8950232,"name":"Campobernardo","admin3":"026070","localeAltName":null},{"geonameid":3180984,"name":"Campocroce","admin3":"026043","localeAltName":null},{"geonameid":3218404,"name":"Candelù","admin3":"026040","localeAltName":null},{"geonameid":8949050,"name":"Caniezza","admin3":"026014","localeAltName":null},{"geonameid":3180662,"name":"Cappella Maggiore","admin3":"026007","localeAltName":null},{"geonameid":3180563,"name":"Carbonera","admin3":"026008","localeAltName":null},{"geonameid":8950371,"name":"Carpenedo","admin3":"026089","localeAltName":null},{"geonameid":3180446,"name":"Carpesica","admin3":"026092","localeAltName":null},{"geonameid":3218800,"name":"Casacorba","admin3":"026089","localeAltName":null},{"geonameid":3180197,"name":"Casale sul Sile","admin3":"026009","localeAltName":null},{"geonameid":3179916,"name":"Caselle","admin3":"026001","localeAltName":null},{"geonameid":3219079,"name":"Casier","admin3":"026010","localeAltName":null},{"geonameid":3179756,"name":"Castagnole","admin3":"026055","localeAltName":null},{"geonameid":3179726,"name":"Castelcucco","admin3":"026011","localeAltName":null},{"geonameid":3179684,"name":"Castelfranco Veneto","admin3":"026012","localeAltName":null},{"geonameid":3179584,"name":"Castello di Godego","admin3":"026013","localeAltName":null},{"geonameid":8948914,"name":"Castelminio","admin3":"026066","localeAltName":null},{"geonameid":8949920,"name":"Cavasagra","admin3":"026089","localeAltName":null},{"geonameid":6534799,"name":"Cavaso del Tomba","admin3":"026014","localeAltName":null},{"geonameid":3218199,"name":"Cavrie","admin3":"026071","localeAltName":null},{"geonameid":8949374,"name":"Cendon","admin3":"026081","localeAltName":null},{"geonameid":3178944,"name":"Cessalto","admin3":"026015","localeAltName":null},{"geonameid":3178857,"name":"Chiarano","admin3":"026016","localeAltName":null},{"geonameid":3218751,"name":"Ciano","admin3":"026025","localeAltName":null},{"geonameid":3178693,"name":"Cimadolmo","admin3":"026017","localeAltName":null},{"geonameid":3178636,"name":"Cison di Valmarino","admin3":"026018","localeAltName":null},{"geonameid":3178500,"name":"Codognè","admin3":"026019","localeAltName":null},{"geonameid":3219783,"name":"Col San Martino","admin3":"026026","localeAltName":null},{"geonameid":3218633,"name":"Colle Umberto","admin3":"026020","localeAltName":null},{"geonameid":3178197,"name":"Conegliano","admin3":"026021","localeAltName":null},{"geonameid":3178182,"name":"Conscio","admin3":"026009","localeAltName":null},{"geonameid":3178130,"name":"Corbanese","admin3":"026084","localeAltName":null},{"geonameid":3178110,"name":"Cordignano","admin3":"026022","localeAltName":null},{"geonameid":3178039,"name":"Cornuda","admin3":"026023","localeAltName":null},{"geonameid":3218690,"name":"Cosniga-Zoppè","admin3":"026076","localeAltName":null},{"geonameid":3218548,"name":"Covolo-Levada","admin3":"026056","localeAltName":null},{"geonameid":3177828,"name":"Crespano del Grappa","admin3":"026096","localeAltName":null},{"geonameid":6698404,"name":"Crespignaga","admin3":"026039","localeAltName":null},{"geonameid":3177773,"name":"Crocetta del Montello","admin3":"026025","localeAltName":null},{"geonameid":8948841,"name":"Crocetta-Nogarè","admin3":"026025","localeAltName":null},{"geonameid":3177496,"name":"Dosson","admin3":"026010","localeAltName":null},{"geonameid":3177307,"name":"Faè","admin3":"026051","localeAltName":null},{"geonameid":3177291,"name":"Fagarè","admin3":"026071","localeAltName":null},{"geonameid":3177232,"name":"Falzè di Piave","admin3":"026080","localeAltName":null},{"geonameid":3218762,"name":"Falzè-Signoressa","admin3":"026085","localeAltName":null},{"geonameid":3177213,"name":"Fanzolo","admin3":"026089","localeAltName":null},{"geonameid":3177177,"name":"Farra di Soligo","admin3":"026026","localeAltName":null},{"geonameid":3176852,"name":"Follina","admin3":"026027","localeAltName":null},{"geonameid":3176805,"name":"Fontanelle","admin3":"026028","localeAltName":null},{"geonameid":6534614,"name":"Fonte Alto","admin3":"026029","localeAltName":null},{"geonameid":3176713,"name":"Fornaci","admin3":"026044","localeAltName":null},{"geonameid":3220683,"name":"Fossalta Maggiore","admin3":"026016","localeAltName":null},{"geonameid":3176641,"name":"Fossalunga","admin3":"026089","localeAltName":null},{"geonameid":3218591,"name":"Francenigo","admin3":"026031","localeAltName":null},{"geonameid":3176543,"name":"Fregona","admin3":"026030","localeAltName":null},{"geonameid":8948773,"name":"Frescada","admin3":"026063","localeAltName":null},{"geonameid":3176420,"name":"Gaiarine","admin3":"026031","localeAltName":null},{"geonameid":3176129,"name":"Giavera del Montello","admin3":"026032","localeAltName":null},{"geonameid":3176023,"name":"Godega","admin3":"026033","localeAltName":null},{"geonameid":3217941,"name":"Gorgo al Monticano","admin3":"026034","localeAltName":null},{"geonameid":8949098,"name":"Gorgo della Chiesa","admin3":"026034","localeAltName":null},{"geonameid":3218536,"name":"Guia","admin3":"026087","localeAltName":null},{"geonameid":3175398,"name":"Istrana","admin3":"026035","localeAltName":null},{"geonameid":3175259,"name":"Lago","admin3":"026067","localeAltName":null},{"geonameid":3164090,"name":"Lancenigo-Villorba","admin3":"026091","localeAltName":null},{"geonameid":3174806,"name":"Levada","admin3":"026058","localeAltName":null},{"geonameid":3174738,"name":"Liedolo","admin3":"026077","localeAltName":null},{"geonameid":3174563,"name":"Loria Bessica","admin3":"026036","localeAltName":null},{"geonameid":3219076,"name":"Lughignano","admin3":"026009","localeAltName":null},{"geonameid":3218427,"name":"Lutrano","admin3":"026028","localeAltName":null},{"geonameid":3174055,"name":"Mansuè","admin3":"026037","localeAltName":null},{"geonameid":3218582,"name":"Mareno di Piave","admin3":"026038","localeAltName":null},{"geonameid":3173802,"name":"Maser","admin3":"026039","localeAltName":null},{"geonameid":3218433,"name":"Maserada sul Piave","admin3":"026040","localeAltName":null},{"geonameid":3217939,"name":"Meduna di Livenza","admin3":"026041","localeAltName":null},{"geonameid":8949465,"name":"Mescolino-Minelle","admin3":"026020","localeAltName":null},{"geonameid":3173474,"name":"Miane","admin3":"026042","localeAltName":null},{"geonameid":3218797,"name":"Mignagola","admin3":"026008","localeAltName":null},{"geonameid":3173314,"name":"Mogliano Veneto","admin3":"026043","localeAltName":null},{"geonameid":3173182,"name":"Monastier di Treviso","admin3":"026044","localeAltName":null},{"geonameid":3173072,"name":"Montaner","admin3":"026078","localeAltName":null},{"geonameid":3173029,"name":"Montebelluna","admin3":"026046","localeAltName":null},{"geonameid":3172597,"name":"Moriago della Battaglia","admin3":"026048","localeAltName":null},{"geonameid":8950116,"name":"Moro","admin3":"026073","localeAltName":null},{"geonameid":3172528,"name":"Mosnigo","admin3":"026048","localeAltName":null},{"geonameid":3172508,"name":"Motta di Livenza","admin3":"026049","localeAltName":null},{"geonameid":8950048,"name":"Muliparte","admin3":"026039","localeAltName":null},{"geonameid":3172429,"name":"Musano","admin3":"026085","localeAltName":null},{"geonameid":7932328,"name":"Musestre","admin3":"026069","localeAltName":null},{"geonameid":3172337,"name":"Negrisia","admin3":"026058","localeAltName":null},{"geonameid":3172301,"name":"Nervesa della Battaglia","admin3":"026050","localeAltName":null},{"geonameid":3168377,"name":"Nove-San Floriano","admin3":"026092","localeAltName":null},{"geonameid":3172116,"name":"Oderzo","admin3":"026051","localeAltName":null},{"geonameid":8948819,"name":"Onè","admin3":"026029","localeAltName":null},{"geonameid":8948989,"name":"Onigo","admin3":"026056","localeAltName":null},{"geonameid":3218409,"name":"Ormelle","admin3":"026052","localeAltName":null},{"geonameid":3218705,"name":"Orsago","admin3":"026053","localeAltName":null},{"geonameid":3171850,"name":"Osigo","admin3":"026030","localeAltName":null},{"geonameid":3171835,"name":"Ospedaletto","admin3":"026035","localeAltName":null},{"geonameid":3218803,"name":"Padernello","admin3":"026055","localeAltName":null},{"geonameid":9036158,"name":"Paderno","admin3":"026096","localeAltName":null},{"geonameid":6534760,"name":"Paderno del Grappa","admin3":"026096","localeAltName":null},{"geonameid":3171710,"name":"Paese","admin3":"026055","localeAltName":null},{"geonameid":8949902,"name":"Pagnano","admin3":"026003","localeAltName":null},{"geonameid":3171336,"name":"Pederobba","admin3":"026056","localeAltName":null},{"geonameid":3218197,"name":"Pero","admin3":"026005","localeAltName":null},{"geonameid":8949335,"name":"Pezzan","admin3":"026035","localeAltName":null},{"geonameid":3171069,"name":"Pezzan","admin3":"026008","localeAltName":null},{"geonameid":3217944,"name":"Piavon","admin3":"026051","localeAltName":null},{"geonameid":3170744,"name":"Pieve di Soligo","admin3":"026057","localeAltName":null},{"geonameid":8949972,"name":"Poggiana","admin3":"026068","localeAltName":null},{"geonameid":3170266,"name":"Ponte di Piave","admin3":"026058","localeAltName":null},{"geonameid":3218772,"name":"Ponzano","admin3":"026059","localeAltName":null},{"geonameid":3170162,"name":"Porcellengo","admin3":"026055","localeAltName":null},{"geonameid":3170105,"name":"Portobuffolè","admin3":"026060","localeAltName":null},{"geonameid":3170050,"name":"Possagno","admin3":"026061","localeAltName":null},{"geonameid":3170033,"name":"Postioma","admin3":"026055","localeAltName":null},{"geonameid":3218758,"name":"Povegliano","admin3":"026062","localeAltName":null},{"geonameid":3169869,"name":"Preganziol","admin3":"026063","localeAltName":null},{"geonameid":8378869,"name":"Priula-Colfosco","admin3":"026083","localeAltName":null},{"geonameid":3169663,"name":"Quinto di Treviso","admin3":"026064","localeAltName":null},{"geonameid":3169620,"name":"Ramon","admin3":"026036","localeAltName":null},{"geonameid":9036181,"name":"Ramon-Campagna","admin3":"026036","localeAltName":null},{"geonameid":3169527,"name":"Refrontolo","admin3":"026065","localeAltName":null},{"geonameid":3169482,"name":"Resana","admin3":"026066","localeAltName":null},{"geonameid":3169459,"name":"Revine","admin3":"026067","localeAltName":null},{"geonameid":3169414,"name":"Riese Pio X","admin3":"026068","localeAltName":null},{"geonameid":3169029,"name":"Roncade","admin3":"026069","localeAltName":null},{"geonameid":3220684,"name":"Roncadelle","admin3":"026052","localeAltName":null},{"geonameid":3218195,"name":"Rovarè","admin3":"026071","localeAltName":null},{"geonameid":3218592,"name":"Roverbasso","admin3":"026019","localeAltName":null},{"geonameid":8949628,"name":"Saccon","admin3":"026076","localeAltName":null},{"geonameid":3168698,"name":"Sala","admin3":"026035","localeAltName":null},{"geonameid":3168664,"name":"Saletto-San Bartolomeo","admin3":"026005","localeAltName":null},{"geonameid":3168660,"name":"Salgareda","admin3":"026070","localeAltName":null},{"geonameid":3168606,"name":"Salvatronda","admin3":"026012","localeAltName":null},{"geonameid":8949208,"name":"Sambughe","admin3":"026063","localeAltName":null},{"geonameid":3168521,"name":"San Biagio di Callalta","admin3":"026071","localeAltName":null},{"geonameid":3168381,"name":"San Fior di Sopra","admin3":"026072","localeAltName":null},{"geonameid":3168380,"name":"San Fior di Sotto","admin3":"026072","localeAltName":null},{"geonameid":8948828,"name":"San Floriano-Olmi","admin3":"026071","localeAltName":null},{"geonameid":8949962,"name":"San Giacomo di Musestrelle","admin3":"026008","localeAltName":null},{"geonameid":9036130,"name":"San Martino","admin3":"026020","localeAltName":null},{"geonameid":8949100,"name":"San Martino","admin3":"026072","localeAltName":null},{"geonameid":3167967,"name":"San Michele di Piave","admin3":"026017","localeAltName":null},{"geonameid":3167830,"name":"San Pietro di Feletto","admin3":"026073","localeAltName":null},{"geonameid":3218410,"name":"San Polo di Piave","admin3":"026074","localeAltName":null},{"geonameid":8950246,"name":"San Rocco","admin3":"026032","localeAltName":null},{"geonameid":3167213,"name":"San Vendemiano","admin3":"026076","localeAltName":null},{"geonameid":3176640,"name":"San Vendemiano-Fossamerlo","admin3":"026076","localeAltName":null},{"geonameid":3167193,"name":"San Vito","admin3":"026001","localeAltName":null},{"geonameid":3167161,"name":"San Zenone degli Ezzelini","admin3":"026077","localeAltName":null},{"geonameid":3219049,"name":"Sant'Alberto","admin3":"026095","localeAltName":null},{"geonameid":8949306,"name":"Sant'Andrea","admin3":"026012","localeAltName":null},{"geonameid":3167344,"name":"Sant'Elena","admin3":"026081","localeAltName":null},{"geonameid":8949715,"name":"Sant'Eulalia","admin3":"026004","localeAltName":null},{"geonameid":3167681,"name":"Santa Cristina","admin3":"026064","localeAltName":null},{"geonameid":3218581,"name":"Santa Lucia di Piave","admin3":"026075","localeAltName":null},{"geonameid":3218562,"name":"Santa Maria","admin3":"026073","localeAltName":null},{"geonameid":3218223,"name":"Santa Maria di Campagna","admin3":"026015","localeAltName":null},{"geonameid":3167503,"name":"Santandrà","admin3":"026062","localeAltName":null},{"geonameid":3167122,"name":"Sarmede","admin3":"026078","localeAltName":null},{"geonameid":3166987,"name":"Scandolara","admin3":"026095","localeAltName":null},{"geonameid":3166887,"name":"Scomigo","admin3":"026021","localeAltName":null},{"geonameid":6535017,"name":"Segusino","admin3":"026079","localeAltName":null},{"geonameid":3218756,"name":"Selva del Montello","admin3":"026093","localeAltName":null},{"geonameid":3166693,"name":"Sernaglia della Battaglia","admin3":"026080","localeAltName":null},{"geonameid":3166532,"name":"Silea","admin3":"026081","localeAltName":null},{"geonameid":3166250,"name":"Spineda","admin3":"026068","localeAltName":null},{"geonameid":3166227,"name":"Spresiano","admin3":"026082","localeAltName":null},{"geonameid":3166013,"name":"Susegana","admin3":"026083","localeAltName":null},{"geonameid":8948908,"name":"Talponada","admin3":"026070","localeAltName":null},{"geonameid":3165910,"name":"Tarzo","admin3":"026084","localeAltName":null},{"geonameid":3165345,"name":"Tovena","admin3":"026018","localeAltName":null},{"geonameid":3165206,"name":"Trevignano","admin3":"026085","localeAltName":null},{"geonameid":3165201,"name":"Treviso","admin3":"026086","localeAltName":null},{"geonameid":3164998,"name":"Vacil","admin3":"026005","localeAltName":null},{"geonameid":3164931,"name":"Valdobbiadene","admin3":"026087","localeAltName":null},{"geonameid":3164904,"name":"Vallà","admin3":"026068","localeAltName":null},{"geonameid":3218529,"name":"Valmareno","admin3":"026027","localeAltName":null},{"geonameid":3164720,"name":"Varago","admin3":"026040","localeAltName":null},{"geonameid":3164677,"name":"Vascon","admin3":"026008","localeAltName":null},{"geonameid":3164665,"name":"Vazzola","admin3":"026088","localeAltName":null},{"geonameid":3164656,"name":"Vedelago","admin3":"026089","localeAltName":null},{"geonameid":8949102,"name":"Venegazzù","admin3":"026093","localeAltName":null},{"geonameid":3164388,"name":"Vidor","admin3":"026090","localeAltName":null},{"geonameid":8949462,"name":"Vigonovo di Sopra","admin3":"026070","localeAltName":null},{"geonameid":8949179,"name":"Villa d'Asolo","admin3":"026003","localeAltName":null},{"geonameid":8949602,"name":"Villa di Villa","admin3":"026022","localeAltName":null},{"geonameid":8949880,"name":"Villarazzo","admin3":"026012","localeAltName":null},{"geonameid":3164050,"name":"Visnadello","admin3":"026091","localeAltName":null},{"geonameid":3164028,"name":"Vittorio Veneto","admin3":"026092","localeAltName":null},{"geonameid":3163827,"name":"Volpago del Montello","admin3":"026093","localeAltName":null},{"geonameid":3163888,"name":"Zenson di Piave","admin3":"026094","localeAltName":null},{"geonameid":3163882,"name":"Zerman","admin3":"026043","localeAltName":null},{"geonameid":3163879,"name":"Zero Branco","admin3":"026095","localeAltName":null}],"admin3":[{"geonameid":3167158,"name":"San Zenone degli Ezzelini","admin3":"026077","localeAltName":null},{"geonameid":3168383,"name":"San Fior","admin3":"026072","localeAltName":null},{"geonameid":3169413,"name":"Riese Pio X","admin3":"026068","localeAltName":null},{"geonameid":6536216,"name":"Godega di Sant'Urbano","admin3":"026033","localeAltName":null},{"geonameid":6536269,"name":"Casier","admin3":"026010","localeAltName":null},{"geonameid":6536279,"name":"Istrana","admin3":"026035","localeAltName":null},{"geonameid":6536280,"name":"Montebelluna","admin3":"026046","localeAltName":null},{"geonameid":6536281,"name":"Orsago","admin3":"026053","localeAltName":null},{"geonameid":6536282,"name":"Pieve di Soligo","admin3":"026057","localeAltName":null},{"geonameid":6536283,"name":"Ponte di Piave","admin3":"026058","localeAltName":null},{"geonameid":6536284,"name":"Portobuffolè","admin3":"026060","localeAltName":null},{"geonameid":6536285,"name":"Quinto di Treviso","admin3":"026064","localeAltName":null},{"geonameid":6536286,"name":"Refrontolo","admin3":"026065","localeAltName":null},{"geonameid":6536287,"name":"Resana","admin3":"026066","localeAltName":null},{"geonameid":6536386,"name":"Gorgo al Monticano","admin3":"026034","localeAltName":null},{"geonameid":6536387,"name":"Salgareda","admin3":"026070","localeAltName":null},{"geonameid":6536396,"name":"Breda di Piave","admin3":"026005","localeAltName":null},{"geonameid":6536637,"name":"Caerano di San Marco","admin3":"026006","localeAltName":null},{"geonameid":6536638,"name":"Cessalto","admin3":"026015","localeAltName":null},{"geonameid":6536639,"name":"Cimadolmo","admin3":"026017","localeAltName":null},{"geonameid":6536640,"name":"Cison di Valmarino","admin3":"026018","localeAltName":null},{"geonameid":6536641,"name":"Codognè","admin3":"026019","localeAltName":null},{"geonameid":6536642,"name":"Cordignano","admin3":"026022","localeAltName":null},{"geonameid":6536643,"name":"Follina","admin3":"026027","localeAltName":null},{"geonameid":6536644,"name":"Gaiarine","admin3":"026031","localeAltName":null},{"geonameid":6536645,"name":"Giavera del Montello","admin3":"026032","localeAltName":null},{"geonameid":6536646,"name":"Roncade","admin3":"026069","localeAltName":null},{"geonameid":6536647,"name":"San Biagio di Callalta","admin3":"026071","localeAltName":null},{"geonameid":6536648,"name":"Santa Lucia di Piave","admin3":"026075","localeAltName":null},{"geonameid":6536649,"name":"Sernaglia della Battaglia","admin3":"026080","localeAltName":null},{"geonameid":6536650,"name":"Spresiano","admin3":"026082","localeAltName":null},{"geonameid":6536651,"name":"Susegana","admin3":"026083","localeAltName":null},{"geonameid":6536652,"name":"Tarzo","admin3":"026084","localeAltName":null},{"geonameid":6536653,"name":"Valdobbiadene","admin3":"026087","localeAltName":null},{"geonameid":6536654,"name":"Vazzola","admin3":"026088","localeAltName":null},{"geonameid":6536655,"name":"Zenson di Piave","admin3":"026094","localeAltName":null},{"geonameid":6536656,"name":"Zero Branco","admin3":"026095","localeAltName":null},{"geonameid":6538292,"name":"Arcade","admin3":"026002","localeAltName":null},{"geonameid":6538293,"name":"Carbonera","admin3":"026008","localeAltName":null},{"geonameid":6538294,"name":"Casale sul Sile","admin3":"026009","localeAltName":null},{"geonameid":6538295,"name":"Chiarano","admin3":"026016","localeAltName":null},{"geonameid":6538296,"name":"Colle Umberto","admin3":"026020","localeAltName":null},{"geonameid":6538297,"name":"Conegliano","admin3":"026021","localeAltName":null},{"geonameid":6538298,"name":"Fregona","admin3":"026030","localeAltName":null},{"geonameid":6538299,"name":"Mansuè","admin3":"026037","localeAltName":null},{"geonameid":6538300,"name":"Maserada sul Piave","admin3":"026040","localeAltName":null},{"geonameid":6538301,"name":"Meduna di Livenza","admin3":"026041","localeAltName":null},{"geonameid":6538302,"name":"Moriago della Battaglia","admin3":"026048","localeAltName":null},{"geonameid":6538303,"name":"Motta di Livenza","admin3":"026049","localeAltName":null},{"geonameid":6538304,"name":"Nervesa della Battaglia","admin3":"026050","localeAltName":null},{"geonameid":6538305,"name":"Ormelle","admin3":"026052","localeAltName":null},{"geonameid":6538306,"name":"Possagno","admin3":"026061","localeAltName":null},{"geonameid":6538307,"name":"Preganziol","admin3":"026063","localeAltName":null},{"geonameid":6538308,"name":"San Polo di Piave","admin3":"026074","localeAltName":null},{"geonameid":6538309,"name":"Sarmede","admin3":"026078","localeAltName":null},{"geonameid":6538310,"name":"Silea","admin3":"026081","localeAltName":null},{"geonameid":6538311,"name":"Vedelago","admin3":"026089","localeAltName":null},{"geonameid":6538312,"name":"Vittorio Veneto","admin3":"026092","localeAltName":null},{"geonameid":6539639,"name":"Miane","admin3":"026042","localeAltName":null},{"geonameid":6539640,"name":"Paese","admin3":"026055","localeAltName":null},{"geonameid":6539657,"name":"Trevignano","admin3":"026085","localeAltName":null},{"geonameid":6539921,"name":"Povegliano","admin3":"026062","localeAltName":null},{"geonameid":6539922,"name":"Volpago del Montello","admin3":"026093","localeAltName":null},{"geonameid":6540118,"name":"Treviso","admin3":"026086","localeAltName":null},{"geonameid":6540219,"name":"Crocetta del Montello","admin3":"026025","localeAltName":null},{"geonameid":6540256,"name":"Mareno di Piave","admin3":"026038","localeAltName":null},{"geonameid":6540272,"name":"Pederobba","admin3":"026056","localeAltName":null},{"geonameid":6540286,"name":"San Vendemiano","admin3":"026076","localeAltName":null},{"geonameid":6540389,"name":"Asolo","admin3":"026003","localeAltName":null},{"geonameid":6540390,"name":"Castelfranco Veneto","admin3":"026012","localeAltName":null},{"geonameid":6540391,"name":"Castello di Godego","admin3":"026013","localeAltName":null},{"geonameid":6540746,"name":"Cornuda","admin3":"026023","localeAltName":null},{"geonameid":6540992,"name":"Borso del Grappa","admin3":"026004","localeAltName":null},{"geonameid":6540993,"name":"Castelcucco","admin3":"026011","localeAltName":null},{"geonameid":6540994,"name":"Maser","admin3":"026039","localeAltName":null},{"geonameid":6540995,"name":"Mogliano Veneto","admin3":"026043","localeAltName":null},{"geonameid":6540996,"name":"Oderzo","admin3":"026051","localeAltName":null},{"geonameid":6540997,"name":"Vidor","admin3":"026090","localeAltName":null},{"geonameid":6541511,"name":"Loria","admin3":"026036","localeAltName":null},{"geonameid":6541532,"name":"Villorba","admin3":"026091","localeAltName":null},{"geonameid":6541549,"name":"Monastier di Treviso","admin3":"026044","localeAltName":null},{"geonameid":6541570,"name":"Farra di Soligo","admin3":"026026","localeAltName":null},{"geonameid":6541576,"name":"Ponzano Veneto","admin3":"026059","localeAltName":null},{"geonameid":6541577,"name":"Revine Lago","admin3":"026067","localeAltName":null},{"geonameid":6541599,"name":"Fontanelle","admin3":"026028","localeAltName":null},{"geonameid":6541820,"name":"Cappella Maggiore","admin3":"026007","localeAltName":null},{"geonameid":6542005,"name":"Morgano","admin3":"026047","localeAltName":null},{"geonameid":6542034,"name":"San Pietro di Feletto","admin3":"026073","localeAltName":null},{"geonameid":6542662,"name":"Fonte","admin3":"026029","localeAltName":null},{"geonameid":6542711,"name":"Monfumo","admin3":"026045"},{"geonameid":6542798,"name":"Cavaso del Tomba","admin3":"026014","localeAltName":null},{"geonameid":6543002,"name":"Altivole","admin3":"026001","localeAltName":null},{"geonameid":6543003,"name":"Segusino","admin3":"026079","localeAltName":null},{"geonameid":12032196,"name":"Pieve del Grappa","admin3":"026096","localeAltName":null}],"alternateNames":[{"alternatenameId":1347427,"geonameid":3165200,"isoLanguage":"it","alternateName":"Treviso","isPreferredName":true,"isShortName":true,"isColloquial":false,"isHistoric":false}]},"__N_SSG":true}