{"pageProps":{"locale":"en","admin2":{"geonameid":5861900,"name":"Fairbanks North Star Borough","country":"US","admin1":"AK","admin2":"090","admin3":"","latitude":"64.8333300","longitude":"-146.4166700","localeAltName":null},"admin1":{"geonameid":5879092,"name":"Alaska","admin1":"AK","localeAltName":"Alaska"},"locations":[{"geonameid":5879898,"name":"Badger","admin3":"","localeAltName":null},{"geonameid":5859699,"name":"College","admin3":"","localeAltName":null},{"geonameid":7262854,"name":"Eielson Air Force Base","admin3":"","localeAltName":null},{"geonameid":5861769,"name":"Ester","admin3":"","localeAltName":null},{"geonameid":5861897,"name":"Fairbanks","admin3":"","localeAltName":null},{"geonameid":7315159,"name":"Farmers Loop","admin3":"","localeAltName":null},{"geonameid":5878682,"name":"Moose Creek","admin3":"","localeAltName":null},{"geonameid":5870294,"name":"North Pole","admin3":"","localeAltName":null},{"geonameid":5871739,"name":"Pleasant Valley","admin3":"","localeAltName":null},{"geonameid":7263003,"name":"Salcha","admin3":"","localeAltName":null},{"geonameid":7315162,"name":"South Van Horn","admin3":"","localeAltName":null},{"geonameid":5877035,"name":"Two Rivers","admin3":"","localeAltName":null}],"admin3":[],"alternateNames":[{"alternatenameId":2089569,"geonameid":5879092,"isoLanguage":"en","alternateName":"Alaska","isPreferredName":true,"isShortName":true,"isColloquial":false,"isHistoric":false}]},"__N_SSG":true}