{"pageProps":{"locale":"en","admin2":{"geonameid":5866071,"name":"Kenai Peninsula Borough","country":"US","admin1":"AK","admin2":"122","admin3":"","latitude":"60.4166700","longitude":"-151.2505600","localeAltName":null},"admin1":{"geonameid":5879092,"name":"Alaska","admin1":"AK","localeAltName":"Alaska"},"locations":[{"geonameid":5879403,"name":"Anchor Point","admin3":"","localeAltName":null},{"geonameid":5880147,"name":"Bear Creek","admin3":"","localeAltName":null},{"geonameid":5859679,"name":"Cohoe","admin3":"","localeAltName":null},{"geonameid":5860661,"name":"Diamond Ridge","admin3":"","localeAltName":null},{"geonameid":5862522,"name":"Fox River","admin3":"","localeAltName":null},{"geonameid":5862590,"name":"Fritz Creek","admin3":"","localeAltName":null},{"geonameid":5862623,"name":"Funny River","admin3":"","localeAltName":null},{"geonameid":5863686,"name":"Happy Valley","admin3":"","localeAltName":null},{"geonameid":5864145,"name":"Homer","admin3":"","localeAltName":null},{"geonameid":5865702,"name":"Kalifornsky","admin3":"","localeAltName":null},{"geonameid":5865896,"name":"Kasilof","admin3":"","localeAltName":null},{"geonameid":5866063,"name":"Kenai","admin3":"","localeAltName":null},{"geonameid":5869956,"name":"Nikiski","admin3":"","localeAltName":null},{"geonameid":5870043,"name":"Ninilchik","admin3":"","localeAltName":null},{"geonameid":5872730,"name":"Ridgeway","admin3":"","localeAltName":null},{"geonameid":5873229,"name":"Salamatof","admin3":"","localeAltName":null},{"geonameid":5873776,"name":"Seward","admin3":"","localeAltName":null},{"geonameid":5874678,"name":"Soldotna","admin3":"","localeAltName":null},{"geonameid":5875173,"name":"Sterling","admin3":"","localeAltName":null}],"admin3":[{"geonameid":11789045,"name":"City of Kachemak","admin3":"11789045"}],"alternateNames":[{"alternatenameId":2089569,"geonameid":5879092,"isoLanguage":"en","alternateName":"Alaska","isPreferredName":true,"isShortName":true,"isColloquial":false,"isHistoric":false}]},"__N_SSG":true}