{"pageProps":{"locale":"en","admin2":{"geonameid":2758257,"name":"Gemeente Waterland","country":"NL","admin1":"07","admin2":"0852","admin3":"","latitude":"52.4376000","longitude":"5.0137100"},"admin1":{"geonameid":2749879,"name":"Provincie Noord-Holland","admin1":"07"},"locations":[{"geonameid":2758258,"name":"Broek in Waterland","admin3":""},{"geonameid":2754746,"name":"Havenbuurt","admin3":""},{"geonameid":2754212,"name":"Het Schouw","admin3":""},{"geonameid":2753334,"name":"Ilpendam","admin3":""},{"geonameid":2753006,"name":"Katwoude","admin3":""},{"geonameid":2752950,"name":"Marken","admin3":""},{"geonameid":2750775,"name":"Moeniswerf","admin3":""},{"geonameid":2750641,"name":"Monnickendam","admin3":""},{"geonameid":2752673,"name":"Overleek","admin3":""},{"geonameid":2747860,"name":"Rozewerf","admin3":""},{"geonameid":2745990,"name":"Uitdam","admin3":""},{"geonameid":2744977,"name":"Watergang","admin3":""},{"geonameid":2744265,"name":"Wittewerf","admin3":""},{"geonameid":2744029,"name":"Zedde","admin3":""},{"geonameid":2743718,"name":"Zuiderwoude","admin3":""}],"admin3":[],"alternateNames":[]},"__N_SSG":true}