{"pageProps":{"locale":"ro","admin2":{"geonameid":684673,"name":"Comuna Bistra","country":"RO","admin1":"01","admin2":"3039","admin3":"","latitude":"46.3785600","longitude":"23.1015000"},"admin1":{"geonameid":686581,"name":"Alba","admin1":"01"},"locations":[{"geonameid":686132,"name":"Aronești","admin3":""},{"geonameid":685144,"name":"Bălești","admin3":""},{"geonameid":685622,"name":"Bălești-Cătun","admin3":""},{"geonameid":685626,"name":"Bârlești","admin3":""},{"geonameid":684795,"name":"Bârleşti","admin3":""},{"geonameid":684680,"name":"Bistra","admin3":""},{"geonameid":682419,"name":"Centru","admin3":""},{"geonameid":682210,"name":"Cheleteni","admin3":""},{"geonameid":681451,"name":"Ciuldești","admin3":""},{"geonameid":680274,"name":"Crețești","admin3":""},{"geonameid":679378,"name":"Dâmbureni","admin3":""},{"geonameid":679603,"name":"Dealu Muntelui","admin3":""},{"geonameid":678608,"name":"Durăşti","admin3":""},{"geonameid":677656,"name":"Găleşti","admin3":""},{"geonameid":677620,"name":"Gănești","admin3":""},{"geonameid":677197,"name":"Gârde","admin3":""},{"geonameid":676110,"name":"Hodișești","admin3":""},{"geonameid":675939,"name":"Hudricești","admin3":""},{"geonameid":674739,"name":"Lipaia","admin3":""},{"geonameid":674398,"name":"Lunca Largă","admin3":""},{"geonameid":674388,"name":"Lunca Merilor","admin3":""},{"geonameid":673414,"name":"Mihăiești","admin3":""},{"geonameid":672529,"name":"Nămaș","admin3":""},{"geonameid":672157,"name":"Novăcești","admin3":""},{"geonameid":671100,"name":"Perjești","admin3":""},{"geonameid":670140,"name":"Poiana","admin3":""},{"geonameid":669983,"name":"Poiu","admin3":""},{"geonameid":669107,"name":"Rătitiș","admin3":""},{"geonameid":668445,"name":"Runcuri","admin3":""},{"geonameid":668245,"name":"Sălăgești","admin3":""},{"geonameid":10861115,"name":"Ștefanca","admin3":""},{"geonameid":665528,"name":"Țărănești","admin3":""},{"geonameid":664833,"name":"Tolăcești","admin3":""},{"geonameid":664808,"name":"Tomnatec","admin3":""},{"geonameid":664604,"name":"Trișorești","admin3":""},{"geonameid":662750,"name":"Vârși-Rontu","admin3":""},{"geonameid":662747,"name":"Vârșii Mari","admin3":""},{"geonameid":662748,"name":"Vârșii Mici","admin3":""}],"admin3":[],"alternateNames":[]},"__N_SSG":true}