{"pageProps":{"locale":"en","admin2":{"geonameid":5070270,"name":"Holt County","country":"US","admin1":"NE","admin2":"089","admin3":"","latitude":"42.4557100","longitude":"-98.7838400","localeAltName":null},"admin1":{"geonameid":5073708,"name":"Nebraska","admin1":"NE","localeAltName":"Nebraska"},"locations":[{"geonameid":5063286,"name":"Atkinson","admin3":"02585","localeAltName":null},{"geonameid":5074259,"name":"O'Neill","admin3":"37105","localeAltName":null},{"geonameid":5079747,"name":"Stuart","admin3":"47535","localeAltName":null}],"admin3":[{"geonameid":5063048,"name":"Township of Antelope","admin3":"01675"},{"geonameid":5063301,"name":"Township of Atkinson","admin3":"02585","localeAltName":null},{"geonameid":5063803,"name":"Township of Belle","admin3":"03880"},{"geonameid":5065507,"name":"Township of Chambers","admin3":"08710"},{"geonameid":5065884,"name":"Township of Cleveland","admin3":"09550"},{"geonameid":5065941,"name":"Township of Coleman","admin3":"09830"},{"geonameid":5066121,"name":"Township of Conley","admin3":"10320"},{"geonameid":5066854,"name":"Township of Deloit","admin3":"12700"},{"geonameid":5067261,"name":"Township of Dustin","admin3":"14030"},{"geonameid":5067716,"name":"Township of Emmet","admin3":"15850"},{"geonameid":5067856,"name":"Township of Ewing","admin3":"16305"},{"geonameid":5067988,"name":"Township of Fairview","admin3":"16620"},{"geonameid":5068633,"name":"Township of Francis","admin3":"17390"},{"geonameid":5069153,"name":"Township of Golden","admin3":"19280"},{"geonameid":5069369,"name":"Township of Grattan","admin3":"19980"},{"geonameid":5069420,"name":"Township of Green Valley","admin3":"20155"},{"geonameid":5070275,"name":"Township of Holt Creek","admin3":"22885"},{"geonameid":5070786,"name":"Township of Inman","admin3":"24110"},{"geonameid":5070871,"name":"Township of Iowa","admin3":"24145"},{"geonameid":5071139,"name":"Township of Josie","admin3":"24810"},{"geonameid":5071712,"name":"Township of Lake","admin3":"25965"},{"geonameid":5072790,"name":"Township of McClure","admin3":"29890"},{"geonameid":5074250,"name":"City of O'Neill","admin3":"37105","localeAltName":null},{"geonameid":5074750,"name":"Township of Paddock","admin3":"38015"},{"geonameid":5075482,"name":"Township of Pleasant View","admin3":"39520"},{"geonameid":5076410,"name":"Township of Rock Falls","admin3":"41935"},{"geonameid":5077628,"name":"Township of Sand Creek","admin3":"43440"},{"geonameid":5077670,"name":"Township of Saratoga","admin3":"43615"},{"geonameid":5078694,"name":"Township of Scott","admin3":"44175"},{"geonameid":5078836,"name":"Township of Shamrock","admin3":"44525"},{"geonameid":5078899,"name":"Township of Sheridan","admin3":"44805"},{"geonameid":5078935,"name":"Township of Shields","admin3":"45120"},{"geonameid":5079612,"name":"Township of Steel Creek","admin3":"46975"},{"geonameid":5079758,"name":"Township of Stuart","admin3":"47535","localeAltName":null},{"geonameid":5079944,"name":"Township of Swan","admin3":"48025"},{"geonameid":5081096,"name":"Township of Verdigris","admin3":"50475"},{"geonameid":5081940,"name":"Township of Willowdale","admin3":"53170"},{"geonameid":5082294,"name":"Township of Wyoming","admin3":"53940"}],"alternateNames":[{"alternatenameId":2124821,"geonameid":5073708,"isoLanguage":"en","alternateName":"Nebraska","isPreferredName":true,"isShortName":true,"isColloquial":false,"isHistoric":false}]},"__N_SSG":true}