{"pageProps":{"locale":"en","admin2":{"geonameid":3333172,"name":"Middlesbrough","country":"GB","admin1":"ENG","admin2":"I5","admin3":"","latitude":"54.5333300","longitude":"-1.2000000","localeAltName":"Middlesbrough"},"admin1":{"geonameid":6269131,"name":"England","admin1":"ENG","localeAltName":"England"},"locations":[{"geonameid":11551119,"name":"Acklam"},{"geonameid":2653794,"name":"Cargo Fleet"},{"geonameid":2642607,"name":"Middlesbrough"},{"geonameid":2641148,"name":"Nunthorpe"},{"geonameid":2637118,"name":"Stainton"}],"admin3":[{"geonameid":7296585,"name":"Nunthorpe","admin3":"00EC001"},{"geonameid":7296586,"name":"Stainton and Thornton","admin3":"00EC002"}],"alternateNames":[{"alternatenameId":8666505,"geonameid":3333172,"isoLanguage":"en","alternateName":"Middlesbrough","isPreferredName":true,"isShortName":true,"isColloquial":false,"isHistoric":false},{"alternatenameId":1626647,"geonameid":6269131,"isoLanguage":"en","alternateName":"England","isPreferredName":true,"isShortName":true,"isColloquial":false,"isHistoric":false}]},"__N_SSG":true}