{"pageProps":{"locale":"ro","admin2":{"geonameid":8334802,"name":"Comuna Nicolae Bãlcescu","country":"RO","admin1":"39","admin2":"171628","admin3":"","latitude":"44.9876000","longitude":"24.4199000"},"admin1":{"geonameid":662892,"name":"Vâlcea","admin1":"39"},"locations":[{"geonameid":685656,"name":"Bălceşti"},{"geonameid":685463,"name":"Bănești"},{"geonameid":680877,"name":"Corbii din Vale"},{"geonameid":679040,"name":"Dosu Râului"},{"geonameid":677261,"name":"Gâltofani"},{"geonameid":677334,"name":"Ghiordunu"},{"geonameid":677257,"name":"Ginerica"},{"geonameid":675490,"name":"Isăileşti"},{"geonameid":674760,"name":"Linia Hanului"},{"geonameid":673916,"name":"Mângureni"},{"geonameid":673646,"name":"Măzăraru"},{"geonameid":670492,"name":"Pleșoiu"},{"geonameid":669896,"name":"Popești"},{"geonameid":669696,"name":"Predești"},{"geonameid":668587,"name":"Rotărăști"},{"geonameid":667667,"name":"Schitu"},{"geonameid":667383,"name":"Șerbăneasa"},{"geonameid":665253,"name":"Teodoreşti"},{"geonameid":664550,"name":"Tufanii"},{"geonameid":664147,"name":"Urlătoarea"},{"geonameid":663916,"name":"Valea Bălcească"},{"geonameid":663317,"name":"Valea Viei"}],"admin3":[],"alternateNames":[]},"__N_SSG":true}