{"pageProps":{"locale":"en","admin2":{"geonameid":4270937,"name":"Ellis County","country":"US","admin1":"KS","admin2":"051","admin3":"","latitude":"38.9147500","longitude":"-99.3172300","localeAltName":null},"admin1":{"geonameid":4273857,"name":"Kansas","admin1":"KS","localeAltName":"Kansas"},"locations":[{"geonameid":4270936,"name":"Ellis","admin3":"20450","localeAltName":null},{"geonameid":4272782,"name":"Hays","admin3":"31100","localeAltName":null},{"geonameid":4281010,"name":"Victoria","admin3":"73800","localeAltName":null}],"admin3":[{"geonameid":4268291,"name":"Township of Big Creek","admin3":"06650"},{"geonameid":4268772,"name":"Township of Buckeye","admin3":"08950"},{"geonameid":4269148,"name":"Township of Catherine","admin3":"11050"},{"geonameid":4270942,"name":"City of Ellis","admin3":"20450","localeAltName":null},{"geonameid":4270943,"name":"Township of Ellis","admin3":"20475"},{"geonameid":4271810,"name":"Township of Freedom","admin3":"24625"},{"geonameid":4272787,"name":"City of Hays","admin3":"31100","localeAltName":null},{"geonameid":4272857,"name":"Township of Herzog","admin3":"31525"},{"geonameid":4274794,"name":"Township of Lookout","admin3":"42700"},{"geonameid":4281015,"name":"Township of Victoria","admin3":"73800","localeAltName":null},{"geonameid":4281661,"name":"Township of Wheatland","admin3":"77650"}],"alternateNames":[{"alternatenameId":2080124,"geonameid":4273857,"isoLanguage":"en","alternateName":"Kansas","isPreferredName":true,"isShortName":true,"isColloquial":false,"isHistoric":false}]},"__N_SSG":true}