{"pageProps":{"locale":"en","admin2":{"geonameid":4272003,"name":"Geary County","country":"US","admin1":"KS","admin2":"061","admin3":"","latitude":"39.0023600","longitude":"-96.7525400","localeAltName":null},"admin1":{"geonameid":4273857,"name":"Kansas","admin1":"KS","localeAltName":"Kansas"},"locations":[{"geonameid":4272273,"name":"Grandview Plaza","admin3":"35200","localeAltName":null},{"geonameid":4273680,"name":"Junction City","admin3":"35750","localeAltName":null},{"geonameid":4275511,"name":"Milford","admin3":"46550","localeAltName":null}],"admin3":[{"geonameid":4268390,"name":"Township of Blakely","admin3":"07275"},{"geonameid":4273521,"name":"Township of Jackson","admin3":"34775"},{"geonameid":4273579,"name":"Township of Jefferson","admin3":"35200","localeAltName":null},{"geonameid":4273850,"name":"City of Junction City","admin3":"35750","localeAltName":null},{"geonameid":4274418,"name":"Township of Liberty","admin3":"40050"},{"geonameid":4274925,"name":"Township of Lyon","admin3":"43500"},{"geonameid":4275518,"name":"Township of Milford","admin3":"46550","localeAltName":null},{"geonameid":4279506,"name":"Township of Smoky Hill","admin3":"66000"},{"geonameid":4281908,"name":"Township of Wingfield","admin3":"80025"}],"alternateNames":[{"alternatenameId":2080124,"geonameid":4273857,"isoLanguage":"en","alternateName":"Kansas","isPreferredName":true,"isShortName":true,"isColloquial":false,"isHistoric":false}]},"__N_SSG":true}