{"pageProps":{"locale":"en","admin2":{"geonameid":4272234,"name":"Graham County","country":"US","admin1":"KS","admin2":"065","admin3":"","latitude":"39.3497200","longitude":"-99.8832500","localeAltName":null},"admin1":{"geonameid":4273857,"name":"Kansas","admin1":"KS","localeAltName":"Kansas"},"locations":[{"geonameid":4272980,"name":"Hill City","admin3":"32200","localeAltName":null}],"admin3":[{"geonameid":4272240,"name":"Township of Graham","admin3":"27175"},{"geonameid":4272617,"name":"Township of Happy","admin3":"29950"},{"geonameid":4272985,"name":"Township of Hill City","admin3":"32200","localeAltName":null},{"geonameid":4273417,"name":"Township of Indiana","admin3":"34000"},{"geonameid":4275537,"name":"Township of Millbrook","admin3":"46625"},{"geonameid":4275733,"name":"Township of Morlan","admin3":"48250"},{"geonameid":4276273,"name":"Township of Nicodemus","admin3":"50575"},{"geonameid":4277232,"name":"Township of Pioneer","admin3":"55900"},{"geonameid":4281788,"name":"Township of Wildhorse","admin3":"79225"},{"geonameid":5444966,"name":"Township of Allodium","admin3":"01325"},{"geonameid":5445095,"name":"Township of Bryant","admin3":"08850"},{"geonameid":5445460,"name":"Township of Gettysburg","admin3":"26175"},{"geonameid":5446502,"name":"Township of Solomon","admin3":"66300"}],"alternateNames":[{"alternatenameId":2080124,"geonameid":4273857,"isoLanguage":"en","alternateName":"Kansas","isPreferredName":true,"isShortName":true,"isColloquial":false,"isHistoric":false}]},"__N_SSG":true}