{"pageProps":{"locale":"en","admin2":{"geonameid":4272705,"name":"Harvey County","country":"US","admin1":"KS","admin2":"079","admin3":"","latitude":"38.0432200","longitude":"-97.4272700","localeAltName":null},"admin1":{"geonameid":4273857,"name":"Kansas","admin1":"KS","localeAltName":"Kansas"},"locations":[{"geonameid":4268886,"name":"Burrton","admin3":"09600","localeAltName":null},{"geonameid":4272558,"name":"Halstead","admin3":"29600","localeAltName":null},{"geonameid":4272861,"name":"Hesston","admin3":"21025","localeAltName":null},{"geonameid":4276248,"name":"Newton","admin3":"50475","localeAltName":null},{"geonameid":4276386,"name":"North Newton","admin3":"50500","localeAltName":null},{"geonameid":4279154,"name":"Sedgwick","admin3":"63825","localeAltName":null}],"admin3":[{"geonameid":4267530,"name":"Township of Alta","admin3":"01500"},{"geonameid":4268881,"name":"Township of Burrton","admin3":"09600","localeAltName":null},{"geonameid":4270228,"name":"Township of Darlington","admin3":"17025"},{"geonameid":4271058,"name":"Township of Emma","admin3":"21025","localeAltName":null},{"geonameid":4271931,"name":"Township of Garden","admin3":"25300"},{"geonameid":4272570,"name":"City of Halstead","admin3":"29600","localeAltName":null},{"geonameid":4272571,"name":"Township of Halstead","admin3":"29625"},{"geonameid":4272970,"name":"Township of Highland","admin3":"31875"},{"geonameid":4274178,"name":"Township of Lake","admin3":"37825"},{"geonameid":4274198,"name":"Township of Lakin","admin3":"38150"},{"geonameid":4274952,"name":"Township of Macon","admin3":"43925"},{"geonameid":4276254,"name":"City of Newton","admin3":"50475","localeAltName":null},{"geonameid":4276255,"name":"Township of Newton","admin3":"50500","localeAltName":null},{"geonameid":4277475,"name":"Township of Pleasant","admin3":"56250"},{"geonameid":4278025,"name":"Township of Richland","admin3":"59350"},{"geonameid":4279159,"name":"Township of Sedgwick","admin3":"63825","localeAltName":null},{"geonameid":4281224,"name":"Township of Walton","admin3":"75225"}],"alternateNames":[{"alternatenameId":2080124,"geonameid":4273857,"isoLanguage":"en","alternateName":"Kansas","isPreferredName":true,"isShortName":true,"isColloquial":false,"isHistoric":false}]},"__N_SSG":true}