{"pageProps":{"locale":"en","admin2":{"geonameid":4274455,"name":"Lincoln County","country":"US","admin1":"KS","admin2":"105","admin3":"","latitude":"39.0453300","longitude":"-98.2077000","localeAltName":null},"admin1":{"geonameid":4273857,"name":"Kansas","admin1":"KS","localeAltName":"Kansas"},"locations":[{"geonameid":4274450,"name":"Lincoln","admin3":"20375","localeAltName":null}],"admin3":[{"geonameid":4267965,"name":"Township of Battle Creek","admin3":"04525"},{"geonameid":4268041,"name":"Township of Beaver","admin3":"05075"},{"geonameid":4269231,"name":"Township of Cedron","admin3":"11500"},{"geonameid":4269837,"name":"Township of Colorado","admin3":"15000"},{"geonameid":4270954,"name":"Township of Elkhorn","admin3":"20375","localeAltName":null},{"geonameid":4271784,"name":"Township of Franklin","admin3":"24425"},{"geonameid":4272150,"name":"Township of Golden Belt","admin3":"26800"},{"geonameid":4272307,"name":"Township of Grant","admin3":"27750"},{"geonameid":4272603,"name":"Township of Hanover","admin3":"29850"},{"geonameid":4272972,"name":"Township of Highland","admin3":"31950"},{"geonameid":4273418,"name":"Township of Indiana","admin3":"34025"},{"geonameid":4274704,"name":"Township of Logan","admin3":"41925"},{"geonameid":4274963,"name":"Township of Madison","admin3":"44100"},{"geonameid":4275090,"name":"Township of Marion","admin3":"44725"},{"geonameid":4276719,"name":"Township of Orange","admin3":"52950"},{"geonameid":4277476,"name":"Township of Pleasant","admin3":"56275"},{"geonameid":4278927,"name":"Township of Salt Creek","admin3":"62800"},{"geonameid":4279112,"name":"Township of Scott","admin3":"63525"},{"geonameid":4280942,"name":"Township of Valley","admin3":"72900"},{"geonameid":4280995,"name":"Township of Vesper","admin3":"73650"}],"alternateNames":[{"alternatenameId":2080124,"geonameid":4273857,"isoLanguage":"en","alternateName":"Kansas","isPreferredName":true,"isShortName":true,"isColloquial":false,"isHistoric":false}]},"__N_SSG":true}