{"pageProps":{"locale":"en","admin2":{"geonameid":4274916,"name":"Lyon County","country":"US","admin1":"KS","admin2":"111","admin3":"","latitude":"38.4561900","longitude":"-96.1526400","localeAltName":null},"admin1":{"geonameid":4273857,"name":"Kansas","admin1":"KS","localeAltName":"Kansas"},"locations":[{"geonameid":4267553,"name":"Americus","admin3":"01700","localeAltName":null},{"geonameid":4271086,"name":"Emporia","admin3":"21275","localeAltName":null},{"geonameid":4276678,"name":"Olpe","admin3":"11800","localeAltName":null}],"admin3":[{"geonameid":4267414,"name":"Township of Agnes City","admin3":"00525"},{"geonameid":4267555,"name":"Township of Americus","admin3":"01700","localeAltName":null},{"geonameid":4269283,"name":"Township of Center","admin3":"11800","localeAltName":null},{"geonameid":4271007,"name":"Township of Elmendaro","admin3":"20687"},{"geonameid":4271097,"name":"City of Emporia","admin3":"21275","localeAltName":null},{"geonameid":4271098,"name":"Township of Emporia","admin3":"21300"},{"geonameid":4271822,"name":"Township of Fremont","admin3":"24750"},{"geonameid":4273504,"name":"Township of Ivy","admin3":"34700"},{"geonameid":4273523,"name":"Township of Jackson","admin3":"34825"},{"geonameid":4277207,"name":"Township of Pike","admin3":"55825"},{"geonameid":4277914,"name":"Township of Reading","admin3":"58625"},{"geonameid":4281317,"name":"Township of Waterloo","admin3":"75925"}],"alternateNames":[{"alternatenameId":2080124,"geonameid":4273857,"isoLanguage":"en","alternateName":"Kansas","isPreferredName":true,"isShortName":true,"isColloquial":false,"isHistoric":false}]},"__N_SSG":true}