{"pageProps":{"locale":"en","admin2":{"geonameid":4275073,"name":"Marion County","country":"US","admin1":"KS","admin2":"115","admin3":"","latitude":"38.3588700","longitude":"-97.0968900","localeAltName":null},"admin1":{"geonameid":4273857,"name":"Kansas","admin1":"KS","localeAltName":"Kansas"},"locations":[{"geonameid":4272143,"name":"Goessel","admin3":"76775","localeAltName":null},{"geonameid":4273003,"name":"Hillsboro","admin3":"32275","localeAltName":null},{"geonameid":4275070,"name":"Marion","admin3":"44750","localeAltName":null},{"geonameid":4277079,"name":"Peabody","admin3":"55125","localeAltName":null}],"admin3":[{"geonameid":4048482,"name":"Township of West Branch","admin3":"76775","localeAltName":null},{"geonameid":4268384,"name":"Township of Blaine","admin3":"07125"},{"geonameid":4269158,"name":"Township of Catlin","admin3":"11075"},{"geonameid":4269284,"name":"Township of Centre","admin3":"12437"},{"geonameid":4269629,"name":"Township of Clark","admin3":"13500"},{"geonameid":4269678,"name":"Township of Clear Creek","admin3":"13750"},{"geonameid":4269819,"name":"Township of Colfax","admin3":"14800"},{"geonameid":4270483,"name":"Township of Doyle","admin3":"18550"},{"geonameid":4270607,"name":"Township of Durham Park","admin3":"19100"},{"geonameid":4270681,"name":"Township of East Branch","admin3":"19325"},{"geonameid":4271273,"name":"Township of Fairplay","admin3":"22350"},{"geonameid":4271625,"name":"City of Florence","admin3":"23600"},{"geonameid":4271900,"name":"Township of Gale","admin3":"25075"},{"geonameid":4272308,"name":"Township of Grant","admin3":"27775"},{"geonameid":4273009,"name":"City of Hillsboro","admin3":"32275","localeAltName":null},{"geonameid":4274346,"name":"Township of Lehigh","admin3":"39250"},{"geonameid":4274423,"name":"Township of Liberty","admin3":"40225"},{"geonameid":4274705,"name":"Township of Logan","admin3":"41950"},{"geonameid":4274827,"name":"Township of Lost Springs","admin3":"42850"},{"geonameid":4275086,"name":"City of Marion","admin3":"44750","localeAltName":null},{"geonameid":4275362,"name":"Township of Menno","admin3":"45800"},{"geonameid":4275561,"name":"Township of Milton","admin3":"46900"},{"geonameid":4275710,"name":"Township of Moore","admin3":"48100"},{"geonameid":4277081,"name":"Township of Peabody","admin3":"55125","localeAltName":null},{"geonameid":4278091,"name":"Township of Risley","admin3":"60000"},{"geonameid":4280140,"name":"Township of Summit","admin3":"69100"},{"geonameid":4281876,"name":"Township of Wilson","admin3":"79750"}],"alternateNames":[{"alternatenameId":2080124,"geonameid":4273857,"isoLanguage":"en","alternateName":"Kansas","isPreferredName":true,"isShortName":true,"isColloquial":false,"isHistoric":false}]},"__N_SSG":true}