{"pageProps":{"locale":"en","admin2":{"geonameid":4276454,"name":"Norton County","country":"US","admin1":"KS","admin2":"137","admin3":"","latitude":"39.7843900","longitude":"-99.9034800","localeAltName":null},"admin1":{"geonameid":4273857,"name":"Kansas","admin1":"KS","localeAltName":"Kansas"},"locations":[{"geonameid":4276452,"name":"Norton","admin3":"51500","localeAltName":null}],"admin3":[{"geonameid":4267523,"name":"Township of Almena-District 4","admin3":"01450"},{"geonameid":4269299,"name":"Township of Center-District 1","admin3":"12260"},{"geonameid":4276463,"name":"City of Norton","admin3":"51500","localeAltName":null},{"geonameid":4279550,"name":"Township of Solomon-District 3","admin3":"66410"},{"geonameid":5445600,"name":"Township of Highland-District 2","admin3":"32060"}],"alternateNames":[{"alternatenameId":2080124,"geonameid":4273857,"isoLanguage":"en","alternateName":"Kansas","isPreferredName":true,"isShortName":true,"isColloquial":false,"isHistoric":false}]},"__N_SSG":true}