{"pageProps":{"locale":"en","admin2":{"geonameid":5446632,"name":"Thomas County","country":"US","admin1":"KS","admin2":"193","admin3":"","latitude":"39.3509700","longitude":"-101.0555300","localeAltName":null},"admin1":{"geonameid":4273857,"name":"Kansas","admin1":"KS","localeAltName":"Kansas"},"locations":[{"geonameid":5445194,"name":"Colby","admin3":"14650","localeAltName":null},{"geonameid":5446091,"name":"Oakley","admin3":"66875","localeAltName":null}],"admin3":[{"geonameid":5445013,"name":"Township of Barrett","admin3":"04325"},{"geonameid":5445201,"name":"City of Colby","admin3":"14650","localeAltName":null},{"geonameid":5445320,"name":"Township of East Hale","admin3":"19475"},{"geonameid":5445751,"name":"Township of Kingery","admin3":"36925"},{"geonameid":5445766,"name":"Township of Lacey","admin3":"37425"},{"geonameid":5445966,"name":"Township of Menlo","admin3":"45775"},{"geonameid":5446048,"name":"Township of Morgan","admin3":"48200"},{"geonameid":5446078,"name":"Township of North Randall","admin3":"51300"},{"geonameid":5446321,"name":"Township of Rovohl","admin3":"61525"},{"geonameid":5446506,"name":"Township of Smith","admin3":"65900"},{"geonameid":5446526,"name":"Township of South Randall","admin3":"66875","localeAltName":null},{"geonameid":5446595,"name":"Township of Summers","admin3":"68975"},{"geonameid":5446734,"name":"Township of Wendell","admin3":"76650"},{"geonameid":5446747,"name":"Township of West Hale","admin3":"76975"}],"alternateNames":[{"alternatenameId":2080124,"geonameid":4273857,"isoLanguage":"en","alternateName":"Kansas","isPreferredName":true,"isShortName":true,"isColloquial":false,"isHistoric":false}]},"__N_SSG":true}