{"pageProps":{"locale":"en","admin2":{"geonameid":4282035,"name":"Wyandotte County","country":"US","admin1":"KS","admin2":"209","admin3":"","latitude":"39.1146500","longitude":"-94.7644800","localeAltName":null},"admin1":{"geonameid":4273857,"name":"Kansas","admin1":"KS","localeAltName":"Kansas"},"locations":[{"geonameid":4268521,"name":"Bonner Springs","admin3":"07975","localeAltName":null},{"geonameid":4270847,"name":"Edwardsville","admin3":"20000","localeAltName":null},{"geonameid":4273837,"name":"Kansas City","admin3":"36000","localeAltName":null}],"admin3":[{"geonameid":4268526,"name":"City of Bonner Springs","admin3":"07975","localeAltName":null},{"geonameid":4270327,"name":"Township of Delaware","admin3":"17475"},{"geonameid":4270845,"name":"City of Edwardsville","admin3":"20000","localeAltName":null},{"geonameid":4273836,"name":"City of Kansas City","admin3":"36000","localeAltName":null}],"alternateNames":[{"alternatenameId":2080124,"geonameid":4273857,"isoLanguage":"en","alternateName":"Kansas","isPreferredName":true,"isShortName":true,"isColloquial":false,"isHistoric":false}]},"__N_SSG":true}