{"pageProps":{"locale":"en","admin2":{"geonameid":5551519,"name":"Apache County","country":"US","admin1":"AZ","admin2":"001","admin3":"","latitude":"35.3956000","longitude":"-109.4888400"},"admin1":{"geonameid":5551752,"name":"Arizona","admin1":"AZ","localeAltName":"Arizona"},"locations":[{"geonameid":5289626,"name":"Chinle","admin3":""},{"geonameid":5293569,"name":"Eagar","admin3":""},{"geonameid":5295093,"name":"Fort Defiance","admin3":""},{"geonameid":5295585,"name":"Ganado","admin3":""},{"geonameid":5298887,"name":"Houck","admin3":""},{"geonameid":5303304,"name":"Lukachukai","admin3":""},{"geonameid":5303643,"name":"Many Farms","admin3":""},{"geonameid":5312595,"name":"Saint Johns","admin3":""},{"geonameid":5312634,"name":"Saint Michaels","admin3":""},{"geonameid":5315525,"name":"Springerville","admin3":""},{"geonameid":7262401,"name":"Tsaile","admin3":""},{"geonameid":5321390,"name":"Window Rock","admin3":""}],"admin3":[{"geonameid":11789008,"name":"City of Saint Johns","admin3":"11789008"}],"alternateNames":[{"alternatenameId":1979309,"geonameid":5551752,"isoLanguage":"en","alternateName":"Arizona","isPreferredName":true,"isShortName":true,"isColloquial":false,"isHistoric":false}]},"__N_SSG":true}