{"pageProps":{"locale":"en","admin2":{"geonameid":4501944,"name":"Gloucester County","country":"US","admin1":"NJ","admin2":"015","admin3":"","latitude":"39.7173100","longitude":"-75.1416700","localeAltName":null},"admin1":{"geonameid":5101760,"name":"New Jersey","admin1":"NJ","localeAltName":"New Jersey"},"locations":[{"geonameid":4500739,"name":"Beckett","admin3":"41160","localeAltName":null},{"geonameid":4501265,"name":"Clayton","admin3":"13360","localeAltName":null},{"geonameid":4501921,"name":"Gibbstown","admin3":"28185","localeAltName":null},{"geonameid":4501931,"name":"Glassboro","admin3":"26340","localeAltName":null},{"geonameid":4503195,"name":"Mullica Hill","admin3":"30180","localeAltName":null},{"geonameid":4503217,"name":"National Park","admin3":"49680","localeAltName":null},{"geonameid":4503264,"name":"Newfield","admin3":"51390","localeAltName":null},{"geonameid":4828875,"name":"Oak Valley","admin3":"17710","localeAltName":null},{"geonameid":4503516,"name":"Paulsboro","admin3":"57150","localeAltName":null},{"geonameid":4503635,"name":"Pitman","admin3":"59070","localeAltName":null},{"geonameid":4503781,"name":"Richwood","admin3":"30180","localeAltName":null},{"geonameid":4504048,"name":"Sewell","admin3":"43440","localeAltName":null},{"geonameid":4504391,"name":"Swedesboro","admin3":"71850","localeAltName":null},{"geonameid":4504536,"name":"Turnersville","admin3":"77180","localeAltName":null},{"geonameid":4504608,"name":"Victory Lakes","admin3":"47250","localeAltName":null},{"geonameid":4504761,"name":"Wenonah","admin3":"78110","localeAltName":null},{"geonameid":4504811,"name":"Westville","admin3":"80120","localeAltName":null},{"geonameid":4504871,"name":"Williamstown","admin3":"47250","localeAltName":null},{"geonameid":4504915,"name":"Woodbury","admin3":"82120","localeAltName":null},{"geonameid":4504919,"name":"Woodbury Heights","admin3":"82180","localeAltName":null}],"admin3":[{"geonameid":4501260,"name":"Borough of Clayton","admin3":"13360","localeAltName":null},{"geonameid":4501504,"name":"Township of Deptford","admin3":"17710","localeAltName":null},{"geonameid":4501613,"name":"Township of East Greenwich","admin3":"19180"},{"geonameid":4501671,"name":"Township of Elk","admin3":"21060"},{"geonameid":4501856,"name":"Township of Franklin","admin3":"24840"},{"geonameid":4501934,"name":"Borough of Glassboro","admin3":"26340","localeAltName":null},{"geonameid":4502056,"name":"Township of Greenwich","admin3":"28185","localeAltName":null},{"geonameid":4502166,"name":"Township of Harrison","admin3":"30180","localeAltName":null},{"geonameid":4502753,"name":"Township of Logan","admin3":"41160","localeAltName":null},{"geonameid":4502885,"name":"Township of Mantua","admin3":"43440","localeAltName":null},{"geonameid":4503098,"name":"Township of Monroe","admin3":"47250","localeAltName":null},{"geonameid":4503218,"name":"Borough of National Park","admin3":"49680","localeAltName":null},{"geonameid":4503265,"name":"Borough of Newfield","admin3":"51390","localeAltName":null},{"geonameid":4503518,"name":"Borough of Paulsboro","admin3":"57150","localeAltName":null},{"geonameid":4503637,"name":"Borough of Pitman","admin3":"59070","localeAltName":null},{"geonameid":4504208,"name":"Township of South Harrison","admin3":"69030"},{"geonameid":4504389,"name":"Borough of Swedesboro","admin3":"71850","localeAltName":null},{"geonameid":4504733,"name":"Township of Washington","admin3":"77180","localeAltName":null},{"geonameid":4504763,"name":"Borough of Wenonah","admin3":"78110","localeAltName":null},{"geonameid":4504786,"name":"Township of West Deptford","admin3":"78800"},{"geonameid":4504813,"name":"Borough of Westville","admin3":"80120","localeAltName":null},{"geonameid":4504920,"name":"Borough of Woodbury Heights","admin3":"82180","localeAltName":null},{"geonameid":4504924,"name":"City of Woodbury","admin3":"82120","localeAltName":null},{"geonameid":4504952,"name":"Township of Woolwich","admin3":"82840"}],"alternateNames":[{"alternatenameId":2089555,"geonameid":5101760,"isoLanguage":"en","alternateName":"New Jersey","isPreferredName":true,"isShortName":true,"isColloquial":false,"isHistoric":false}]},"__N_SSG":true}