{"pageProps":{"locale":"en","admin2":{"geonameid":4864924,"name":"Linn County","country":"US","admin1":"IA","admin2":"113","admin3":"","latitude":"42.0789500","longitude":"-91.5989600","localeAltName":null},"admin1":{"geonameid":4862182,"name":"Iowa","admin1":"IA","localeAltName":"Iowa"},"locations":[{"geonameid":4846557,"name":"Alburnett","admin3":"93237","localeAltName":null},{"geonameid":4850751,"name":"Cedar Rapids","admin3":"90577","localeAltName":null},{"geonameid":4850898,"name":"Center Point","admin3":"94527","localeAltName":null},{"geonameid":4850998,"name":"Central City","admin3":"92796","localeAltName":null},{"geonameid":4852165,"name":"Coggon","admin3":"92142","localeAltName":null},{"geonameid":4855521,"name":"Ely","admin3":"93525","localeAltName":null},{"geonameid":4855958,"name":"Fairfax","admin3":"91269","localeAltName":null},{"geonameid":4860452,"name":"Hiawatha","admin3":"92976","localeAltName":null},{"geonameid":4864990,"name":"Lisbon","admin3":"91410","localeAltName":null},{"geonameid":4866263,"name":"Marion","admin3":"92859","localeAltName":null},{"geonameid":4868251,"name":"Mount Vernon","admin3":"91410","localeAltName":null},{"geonameid":4870626,"name":"Palo","admin3":"91326","localeAltName":null},{"geonameid":4873263,"name":"Robins","admin3":"92976","localeAltName":null},{"geonameid":4877352,"name":"Springville","admin3":"90360","localeAltName":null},{"geonameid":4880446,"name":"Walker","admin3":"91671","localeAltName":null}],"admin3":[{"geonameid":4848316,"name":"Township of Bertram","admin3":"90228"},{"geonameid":4849116,"name":"Township of Boulder","admin3":"90312"},{"geonameid":4849503,"name":"Township of Brown","admin3":"90360","localeAltName":null},{"geonameid":4849757,"name":"Township of Buffalo","admin3":"90390"},{"geonameid":4850768,"name":"City of Cedar Rapids","admin3":"90577","localeAltName":null},{"geonameid":4852054,"name":"Township of Clinton","admin3":"90739"},{"geonameid":4852257,"name":"Township of College","admin3":"90774"},{"geonameid":4855965,"name":"Township of Fairfax","admin3":"91269","localeAltName":null},{"geonameid":4856490,"name":"Township of Fayette","admin3":"91326","localeAltName":null},{"geonameid":4857699,"name":"Township of Franklin","admin3":"91410","localeAltName":null},{"geonameid":4859030,"name":"Township of Grant","admin3":"91671","localeAltName":null},{"geonameid":4862377,"name":"Township of Jackson","admin3":"92142","localeAltName":null},{"geonameid":4864954,"name":"Township of Linn","admin3":"92649"},{"geonameid":4865912,"name":"Township of Maine","admin3":"92796","localeAltName":null},{"geonameid":4866305,"name":"Township of Marion","admin3":"92859","localeAltName":null},{"geonameid":4867757,"name":"Township of Monroe","admin3":"92976","localeAltName":null},{"geonameid":4870352,"name":"Township of Otter Creek","admin3":"93237","localeAltName":null},{"geonameid":4872309,"name":"Township of Putnam","admin3":"93525","localeAltName":null},{"geonameid":4877281,"name":"Township of Spring Grove","admin3":"93987"},{"geonameid":4880850,"name":"Township of Washington","admin3":"94527","localeAltName":null}],"alternateNames":[{"alternatenameId":1980290,"geonameid":4862182,"isoLanguage":"en","alternateName":"Iowa","isPreferredName":true,"isShortName":true,"isColloquial":false,"isHistoric":false}]},"__N_SSG":true}