{"pageProps":{"locale":"en","admin2":{"geonameid":2759343,"name":"Gemeente Beek","country":"NL","admin1":"05","admin2":"0888","admin3":"","latitude":"50.9323700","longitude":"5.8058700","localeAltName":null},"admin1":{"geonameid":2751596,"name":"Provincie Limburg","admin1":"05","localeAltName":"Limburg"},"locations":[{"geonameid":2759350,"name":"Beek","admin3":"","localeAltName":null},{"geonameid":2755551,"name":"Geverik","admin3":"","localeAltName":null},{"geonameid":2755130,"name":"Groot Genhout","admin3":"","localeAltName":null},{"geonameid":2754041,"name":"Hobbelrade","admin3":"","localeAltName":null},{"geonameid":2752968,"name":"Kelmond","admin3":"","localeAltName":null},{"geonameid":2752693,"name":"Klein Genhout","admin3":"","localeAltName":null},{"geonameid":6544799,"name":"Looiwinkel","admin3":"","localeAltName":null},{"geonameid":11524816,"name":"Maastricht-Airport","admin3":"","localeAltName":null},{"geonameid":2750452,"name":"Neerbeek","admin3":"","localeAltName":null},{"geonameid":2749098,"name":"Oude Kerk","admin3":"","localeAltName":null},{"geonameid":2746964,"name":"Spaubeek","admin3":"","localeAltName":null}],"admin3":[],"alternateNames":[{"alternatenameId":9073257,"geonameid":2751596,"isoLanguage":"en","alternateName":"Limburg","isPreferredName":true,"isShortName":true,"isColloquial":false,"isHistoric":false},{"alternatenameId":9073258,"geonameid":2751596,"isoLanguage":"de","alternateName":"Limburg","isPreferredName":true,"isShortName":true,"isColloquial":false,"isHistoric":false}]},"__N_SSG":true}