{"pageProps":{"locale":"en","admin2":{"geonameid":6544258,"name":"Landgraaf","country":"NL","admin1":"05","admin2":"0882","admin3":"","latitude":"50.9133300","longitude":"6.0572200","localeAltName":null},"admin1":{"geonameid":2751596,"name":"Provincie Limburg","admin1":"05","localeAltName":"Limburg"},"locations":[{"geonameid":2760063,"name":"Abdissenbosch","admin3":"","localeAltName":null},{"geonameid":2758267,"name":"Broekhuizen","admin3":"","localeAltName":null},{"geonameid":2756269,"name":"Eikske","admin3":"","localeAltName":null},{"geonameid":2755274,"name":"Groenstraat","admin3":"","localeAltName":null},{"geonameid":2753144,"name":"Kakert","admin3":"","localeAltName":null},{"geonameid":6621561,"name":"Landgraaf","admin3":"","localeAltName":null},{"geonameid":2751858,"name":"Lauradorp","admin3":"","localeAltName":null},{"geonameid":2751653,"name":"Lichtenberg","admin3":"","localeAltName":null},{"geonameid":2750282,"name":"Nieuwenhagen","admin3":"","localeAltName":null},{"geonameid":2749309,"name":"Op de Hoven","admin3":"","localeAltName":null},{"geonameid":2748761,"name":"Palenberg","admin3":"","localeAltName":null},{"geonameid":2748065,"name":"Rimburg","admin3":"","localeAltName":null},{"geonameid":2747727,"name":"Schaesberg","admin3":"","localeAltName":null},{"geonameid":2746016,"name":"Ubach over Worms","admin3":"","localeAltName":null},{"geonameid":2744950,"name":"Waubach","admin3":"","localeAltName":null}],"admin3":[],"alternateNames":[{"alternatenameId":9073257,"geonameid":2751596,"isoLanguage":"en","alternateName":"Limburg","isPreferredName":true,"isShortName":true,"isColloquial":false,"isHistoric":false},{"alternatenameId":9073258,"geonameid":2751596,"isoLanguage":"de","alternateName":"Limburg","isPreferredName":true,"isShortName":true,"isColloquial":false,"isHistoric":false}]},"__N_SSG":true}