{"pageProps":{"locale":"en","admin2":{"geonameid":4850488,"name":"Carroll County","country":"US","admin1":"IA","admin2":"027","admin3":"","latitude":"42.0362400","longitude":"-94.8605600"},"admin1":{"geonameid":4862182,"name":"Iowa","admin1":"IA","localeAltName":"Iowa"},"locations":[{"geonameid":4850478,"name":"Carroll","admin3":"90475"},{"geonameid":4852589,"name":"Coon Rapids","admin3":"94182"},{"geonameid":4858498,"name":"Glidden","admin3":"91581"},{"geonameid":4866048,"name":"Manning","admin3":"92811"}],"admin3":[{"geonameid":4847093,"name":"Township of Arcadia","admin3":"90075"},{"geonameid":4850505,"name":"City of Carroll","admin3":"90475"},{"geonameid":4855093,"name":"Township of Eden","admin3":"91134"},{"geonameid":4855878,"name":"Township of Ewoldt","admin3":"91254"},{"geonameid":4858504,"name":"Township of Glidden","admin3":"91581"},{"geonameid":4859018,"name":"Township of Grant","admin3":"91635"},{"geonameid":4862464,"name":"Township of Jasper","admin3":"92196"},{"geonameid":4863672,"name":"Township of Kniest","admin3":"92319"},{"geonameid":4866058,"name":"City of Manning","admin3":"92811"},{"geonameid":4866135,"name":"Township of Maple River","admin3":"92820"},{"geonameid":4868928,"name":"Township of Newton","admin3":"93099"},{"geonameid":4871600,"name":"Township of Pleasant Valley","admin3":"93405"},{"geonameid":4872932,"name":"Township of Richland","admin3":"93573"},{"geonameid":4873623,"name":"Township of Roselle","admin3":"93699"},{"geonameid":4876221,"name":"Township of Sheridan","admin3":"93840"},{"geonameid":4879411,"name":"Township of Union","admin3":"94182"},{"geonameid":4880830,"name":"Township of Washington","admin3":"94467"},{"geonameid":4881738,"name":"Township of Wheatland","admin3":"94704"}],"alternateNames":[{"alternatenameId":1980290,"geonameid":4862182,"isoLanguage":"en","alternateName":"Iowa","isPreferredName":true,"isShortName":true,"isColloquial":false,"isHistoric":false}]},"__N_SSG":true}