{"pageProps":{"locale":"en","admin2":{"geonameid":4851902,"name":"Clayton County","country":"US","admin1":"IA","admin2":"043","admin3":"","latitude":"42.8447500","longitude":"-91.3414300"},"admin1":{"geonameid":4862182,"name":"Iowa","admin1":"IA","localeAltName":"Iowa"},"locations":[{"geonameid":4855341,"name":"Elkader","admin3":"90291"},{"geonameid":4859514,"name":"Guttenberg","admin3":"92214"},{"geonameid":4867700,"name":"Monona","admin3":"92961"},{"geonameid":4877729,"name":"Strawberry Point","admin3":"90498"}],"admin3":[{"geonameid":4848954,"name":"Township of Boardman","admin3":"90291"},{"geonameid":4849705,"name":"Township of Buena Vista","admin3":"90378"},{"geonameid":4850599,"name":"Township of Cass","admin3":"90498"},{"geonameid":4851909,"name":"Township of Clayton","admin3":"90705"},{"geonameid":4852957,"name":"Township of Cox Creek","admin3":"90843"},{"geonameid":4855339,"name":"Township of Elk","admin3":"91176"},{"geonameid":4856423,"name":"Township of Farmersburg","admin3":"91311"},{"geonameid":4858115,"name":"Township of Garnavillo","admin3":"91542"},{"geonameid":4858322,"name":"Township of Giard","admin3":"91566"},{"geonameid":4858887,"name":"Township of Grand Meadow","admin3":"91605"},{"geonameid":4860615,"name":"Township of Highland","admin3":"91929"},{"geonameid":4862544,"name":"Township of Jefferson","admin3":"92214"},{"geonameid":4865276,"name":"Township of Lodomillo","admin3":"92685"},{"geonameid":4865955,"name":"Township of Mallory","admin3":"92808"},{"geonameid":4866299,"name":"Township of Marion","admin3":"92841"},{"geonameid":4866980,"name":"Township of Mendon","admin3":"92913"},{"geonameid":4867488,"name":"Township of Millville","admin3":"92943"},{"geonameid":4867719,"name":"Township of Monona","admin3":"92961"},{"geonameid":4872549,"name":"Township of Read","admin3":"93543"},{"geonameid":4877175,"name":"Township of Sperry","admin3":"93957"},{"geonameid":4880339,"name":"Township of Volga","admin3":"94374"},{"geonameid":4880405,"name":"Township of Wagner","admin3":"94380"}],"alternateNames":[{"alternatenameId":1980290,"geonameid":4862182,"isoLanguage":"en","alternateName":"Iowa","isPreferredName":true,"isShortName":true,"isColloquial":false,"isHistoric":false}]},"__N_SSG":true}