{"pageProps":{"locale":"en","admin2":{"geonameid":4859214,"name":"Greene County","country":"US","admin1":"IA","admin2":"073","admin3":"","latitude":"42.0362400","longitude":"-94.3968400"},"admin1":{"geonameid":4862182,"name":"Iowa","admin1":"IA","localeAltName":"Iowa"},"locations":[{"geonameid":4862482,"name":"Jefferson","admin3":"92221"}],"admin3":[{"geonameid":4849372,"name":"Township of Bristol","admin3":"90342"},{"geonameid":4850820,"name":"Township of Cedar","admin3":"90537"},{"geonameid":4853500,"name":"Township of Dawson","admin3":"90897"},{"geonameid":4857697,"name":"Township of Franklin","admin3":"91404"},{"geonameid":4859024,"name":"Township of Grant","admin3":"91653"},{"geonameid":4859203,"name":"Township of Greenbrier","admin3":"91746"},{"geonameid":4859783,"name":"Township of Hardin","admin3":"91830"},{"geonameid":4860616,"name":"Township of Highland","admin3":"91932"},{"geonameid":4862368,"name":"Township of Jackson","admin3":"92115"},{"geonameid":4862538,"name":"City of Jefferson","admin3":"92221"},{"geonameid":4862879,"name":"Township of Junction","admin3":"92286"},{"geonameid":4863308,"name":"Township of Kendrick","admin3":"92304"},{"geonameid":4870793,"name":"Township of Paton","admin3":"93276"},{"geonameid":4875827,"name":"Township of Scranton","admin3":"93804"},{"geonameid":4880840,"name":"Township of Washington","admin3":"94497"},{"geonameid":4882106,"name":"Township of Willow","admin3":"94746"}],"alternateNames":[{"alternatenameId":1980290,"geonameid":4862182,"isoLanguage":"en","alternateName":"Iowa","isPreferredName":true,"isShortName":true,"isColloquial":false,"isHistoric":false}]},"__N_SSG":true}