{"pageProps":{"locale":"en","admin2":{"geonameid":4859678,"name":"Hancock County","country":"US","admin1":"IA","admin2":"081","admin3":"","latitude":"43.0818900","longitude":"-93.7342700"},"admin1":{"geonameid":4862182,"name":"Iowa","admin1":"IA","localeAltName":"Iowa"},"locations":[{"geonameid":4849380,"name":"Britt","admin3":"90348"},{"geonameid":4858117,"name":"Garner","admin3":"90801"}],"admin3":[{"geonameid":4846876,"name":"Township of Amsterdam","admin3":"90069"},{"geonameid":4847495,"name":"Township of Avery","admin3":"90096"},{"geonameid":4848650,"name":"Township of Bingham","admin3":"90243"},{"geonameid":4849081,"name":"Township of Boone","admin3":"90303"},{"geonameid":4849390,"name":"Township of Britt","admin3":"90348"},{"geonameid":4852441,"name":"Township of Concord","admin3":"90801"},{"geonameid":4853205,"name":"Township of Crystal","admin3":"90861"},{"geonameid":4855379,"name":"Township of Ell","admin3":"91197"},{"geonameid":4855389,"name":"Township of Ellington","admin3":"91200"},{"geonameid":4855683,"name":"Township of Erin","admin3":"91239"},{"geonameid":4858087,"name":"Township of Garfield","admin3":"91515"},{"geonameid":4864641,"name":"Township of Liberty","admin3":"92457"},{"geonameid":4865861,"name":"Township of Madison","admin3":"92763"},{"geonameid":4865886,"name":"Township of Magor","admin3":"92793"},{"geonameid":4870169,"name":"Township of Orthel","admin3":"93207"},{"geonameid":4879200,"name":"Township of Twin Lake","admin3":"94149"}],"alternateNames":[{"alternatenameId":1980290,"geonameid":4862182,"isoLanguage":"en","alternateName":"Iowa","isPreferredName":true,"isShortName":true,"isColloquial":false,"isHistoric":false}]},"__N_SSG":true}