{"pageProps":{"locale":"en","admin2":{"geonameid":4861459,"name":"Ida County","country":"US","admin1":"IA","admin2":"093","admin3":"","latitude":"42.3868700","longitude":"-95.5135000"},"admin1":{"geonameid":4862182,"name":"Iowa","admin1":"IA","localeAltName":"Iowa"},"locations":[{"geonameid":4860886,"name":"Holstein","admin3":"91770"},{"geonameid":4861464,"name":"Ida Grove","admin3":"90837"}],"admin3":[{"geonameid":4847837,"name":"Township of Battle","admin3":"90138"},{"geonameid":4848758,"name":"Township of Blaine","admin3":"90258"},{"geonameid":4852739,"name":"Township of Corwin","admin3":"90837"},{"geonameid":4854273,"name":"Township of Douglas","admin3":"91041"},{"geonameid":4858016,"name":"Township of Galva","admin3":"91500"},{"geonameid":4858088,"name":"Township of Garfield","admin3":"91518"},{"geonameid":4859028,"name":"Township of Grant","admin3":"91665"},{"geonameid":4859327,"name":"Township of Griggs","admin3":"91770"},{"geonameid":4860164,"name":"Township of Hayes","admin3":"91893"},{"geonameid":4865306,"name":"Township of Logan","admin3":"92694"},{"geonameid":4866145,"name":"Township of Maple","admin3":"92814"},{"geonameid":4876435,"name":"Township of Silver Creek","admin3":"93894"}],"alternateNames":[{"alternatenameId":1980290,"geonameid":4862182,"isoLanguage":"en","alternateName":"Iowa","isPreferredName":true,"isShortName":true,"isColloquial":false,"isHistoric":false}]},"__N_SSG":true}