{"pageProps":{"locale":"en","admin2":{"geonameid":4831820,"name":"Iowa County","country":"US","admin1":"IA","admin2":"095","admin3":"","latitude":"41.6863200","longitude":"-92.0655200"},"admin1":{"geonameid":4862182,"name":"Iowa","admin1":"IA","localeAltName":"Iowa"},"locations":[{"geonameid":4866236,"name":"Marengo","admin3":"92835"},{"geonameid":4869136,"name":"North English","admin3":"91227"},{"geonameid":4882007,"name":"Williamsburg","admin3":"94137"}],"admin3":[{"geonameid":4855636,"name":"Township of English","admin3":"91227"},{"geonameid":4856602,"name":"Township of Fillmore","admin3":"91341"},{"geonameid":4859233,"name":"Township of Greene","admin3":"91752"},{"geonameid":4859941,"name":"Township of Hartford","admin3":"91878"},{"geonameid":4860729,"name":"Township of Hilton","admin3":"91962"},{"geonameid":4861048,"name":"Township of Honey Creek","admin3":"91983"},{"geonameid":4862188,"name":"Township of Iowa","admin3":"92064"},{"geonameid":4864484,"name":"Township of Lenox","admin3":"92415"},{"geonameid":4864854,"name":"Township of Lincoln","admin3":"92559"},{"geonameid":4866243,"name":"Township of Marengo","admin3":"92835"},{"geonameid":4871267,"name":"Township of Pilot","admin3":"93324"},{"geonameid":4877922,"name":"Township of Sumner","admin3":"94050"},{"geonameid":4879064,"name":"Township of Troy","admin3":"94137"},{"geonameid":4880843,"name":"Township of Washington","admin3":"94506"},{"geonameid":4882632,"name":"Township of York","admin3":"94806"},{"geonameid":5280950,"name":"Township of Dayton","admin3":"90912"}],"alternateNames":[{"alternatenameId":1980290,"geonameid":4862182,"isoLanguage":"en","alternateName":"Iowa","isPreferredName":true,"isShortName":true,"isColloquial":false,"isHistoric":false}]},"__N_SSG":true}