{"pageProps":{"locale":"en","admin2":{"geonameid":4865617,"name":"Lucas County","country":"US","admin1":"IA","admin2":"117","admin3":"","latitude":"41.0293700","longitude":"-93.3277200"},"admin1":{"geonameid":4862182,"name":"Iowa","admin1":"IA","localeAltName":"Iowa"},"locations":[{"geonameid":4851140,"name":"Chariton","admin3":"90643"}],"admin3":[{"geonameid":4848253,"name":"Township of Benton","admin3":"90216"},{"geonameid":4850824,"name":"Township of Cedar","admin3":"90549"},{"geonameid":4851157,"name":"City of Chariton","admin3":"90643"},{"geonameid":4855637,"name":"Township of English","admin3":"91230"},{"geonameid":4862378,"name":"Township of Jackson","admin3":"92145"},{"geonameid":4864645,"name":"Township of Liberty","admin3":"92469"},{"geonameid":4864857,"name":"Township of Lincoln","admin3":"92568"},{"geonameid":4870353,"name":"Township of Otter Creek","admin3":"93240"},{"geonameid":4871633,"name":"Township of Pleasant","admin3":"93366"},{"geonameid":4879428,"name":"Township of Union","admin3":"94233"},{"geonameid":4880712,"name":"Township of Warren","admin3":"94431"},{"geonameid":4880851,"name":"Township of Washington","admin3":"94530"},{"geonameid":4881846,"name":"Township of Whitebreast","admin3":"94713"}],"alternateNames":[{"alternatenameId":1980290,"geonameid":4862182,"isoLanguage":"en","alternateName":"Iowa","isPreferredName":true,"isShortName":true,"isColloquial":false,"isHistoric":false}]},"__N_SSG":true}