{"pageProps":{"locale":"en","admin2":{"geonameid":4867477,"name":"Mills County","country":"US","admin1":"IA","admin2":"129","admin3":"","latitude":"41.0334500","longitude":"-95.6213300"},"admin1":{"geonameid":4862182,"name":"Iowa","admin1":"IA","localeAltName":"Iowa"},"locations":[{"geonameid":4858479,"name":"Glenwood","admin3":"91575"},{"geonameid":4865974,"name":"Malvern","admin3":"92809"}],"admin3":[{"geonameid":4846918,"name":"Township of Anderson","admin3":"90072"},{"geonameid":4850948,"name":"Township of Center","admin3":"90612"},{"geonameid":4853678,"name":"Township of Deer Creek","admin3":"90933"},{"geonameid":4858495,"name":"Township of Glenwood","admin3":"91575"},{"geonameid":4861679,"name":"Township of Indian Creek","admin3":"92031"},{"geonameid":4861770,"name":"Township of Ingraham","admin3":"92043"},{"geonameid":4865765,"name":"Township of Lyons","admin3":"92745"},{"geonameid":4865981,"name":"City of Malvern","admin3":"92809"},{"geonameid":4869586,"name":"Township of Oak","admin3":"93147"},{"geonameid":4871421,"name":"Township of Plattville","admin3":"93354"},{"geonameid":4872531,"name":"Township of Rawles","admin3":"93540"},{"geonameid":4874922,"name":"Township of Saint Marys","admin3":"93741"},{"geonameid":4876436,"name":"Township of Silver Creek","admin3":"93897"},{"geonameid":4881796,"name":"Township of White Cloud","admin3":"94719"}],"alternateNames":[{"alternatenameId":1980290,"geonameid":4862182,"isoLanguage":"en","alternateName":"Iowa","isPreferredName":true,"isShortName":true,"isColloquial":false,"isHistoric":false}]},"__N_SSG":true}