{"pageProps":{"locale":"en","admin2":{"geonameid":4867612,"name":"Mitchell County","country":"US","admin1":"IA","admin2":"131","admin3":"","latitude":"43.3564100","longitude":"-92.7890300"},"admin1":{"geonameid":4862182,"name":"Iowa","admin1":"IA","localeAltName":"Iowa"},"locations":[{"geonameid":4870184,"name":"Osage","admin3":"93210"},{"geonameid":4874045,"name":"Saint Ansgar","admin3":""}],"admin3":[{"geonameid":4849884,"name":"Township of Burr Oak","admin3":"90411"},{"geonameid":4850826,"name":"Township of Cedar","admin3":"90555"},{"geonameid":4854275,"name":"Township of Douglas","admin3":"91047"},{"geonameid":4854938,"name":"Township of East Lincoln","admin3":"91116"},{"geonameid":4862616,"name":"Township of Jenkins","admin3":"92268"},{"geonameid":4864648,"name":"Township of Liberty","admin3":"92478"},{"geonameid":4867629,"name":"Township of Mitchell","admin3":"92955"},{"geonameid":4868863,"name":"Township of Newburg","admin3":"93075"},{"geonameid":4870198,"name":"Township of Osage","admin3":"93210"},{"geonameid":4870311,"name":"Township of Otranto","admin3":"93225"},{"geonameid":4873390,"name":"Township of Rock","admin3":"93663"},{"geonameid":4877405,"name":"Township of Stacyville","admin3":"94002"},{"geonameid":4879432,"name":"Township of Union","admin3":"94245"},{"geonameid":4881072,"name":"Township of Wayne","admin3":"94614"},{"geonameid":4881451,"name":"Township of West Lincoln","admin3":"94683"}],"alternateNames":[{"alternatenameId":1980290,"geonameid":4862182,"isoLanguage":"en","alternateName":"Iowa","isPreferredName":true,"isShortName":true,"isColloquial":false,"isHistoric":false}]},"__N_SSG":true}