{"pageProps":{"locale":"en","admin2":{"geonameid":4870567,"name":"Page County","country":"US","admin1":"IA","admin2":"145","admin3":"","latitude":"40.7391400","longitude":"-95.1501700"},"admin1":{"geonameid":4862182,"name":"Iowa","admin1":"IA","localeAltName":"Iowa"},"locations":[{"geonameid":4851762,"name":"Clarinda","admin3":"93123"},{"geonameid":4876190,"name":"Shenandoah","admin3":"91686"}],"admin3":[{"geonameid":4846871,"name":"Township of Amity","admin3":"90066"},{"geonameid":4849610,"name":"Township of Buchanan","admin3":"90369"},{"geonameid":4852231,"name":"Township of Colfax","admin3":"90765"},{"geonameid":4854277,"name":"Township of Douglas","admin3":"91053"},{"geonameid":4854984,"name":"Township of East River","admin3":"91125"},{"geonameid":4857830,"name":"Township of Fremont","admin3":"91482"},{"geonameid":4859035,"name":"Township of Grant","admin3":"91686"},{"geonameid":4859830,"name":"Township of Harlan","admin3":"91848"},{"geonameid":4864863,"name":"Township of Lincoln","admin3":"92586"},{"geonameid":4868036,"name":"Township of Morton","admin3":"93021"},{"geonameid":4868555,"name":"Township of Nebraska","admin3":"93054"},{"geonameid":4869023,"name":"Township of Nodaway","admin3":"93123"},{"geonameid":4871187,"name":"Township of Pierce","admin3":"93315"},{"geonameid":4878266,"name":"Township of Tarkio","admin3":"94086"},{"geonameid":4879987,"name":"Township of Valley","admin3":"94305"},{"geonameid":4880855,"name":"Township of Washington","admin3":"94542"}],"alternateNames":[{"alternatenameId":1980290,"geonameid":4862182,"isoLanguage":"en","alternateName":"Iowa","isPreferredName":true,"isShortName":true,"isColloquial":false,"isHistoric":false}]},"__N_SSG":true}