{"pageProps":{"locale":"en","admin2":{"geonameid":4871894,"name":"Pottawattamie County","country":"US","admin1":"IA","admin2":"155","admin3":"","latitude":"41.3366100","longitude":"-95.5423900"},"admin1":{"geonameid":4862182,"name":"Iowa","admin1":"IA","localeAltName":"Iowa"},"locations":[{"geonameid":4847498,"name":"Avoca","admin3":"92325"},{"geonameid":4850531,"name":"Carter Lake","admin3":"92292"},{"geonameid":4852832,"name":"Council Bluffs","admin3":"92292"},{"geonameid":4869614,"name":"Oakland","admin3":"90174"}],"admin3":[{"geonameid":4848088,"name":"Township of Belknap","admin3":"90174"},{"geonameid":4849049,"name":"Township of Boomer","admin3":"90297"},{"geonameid":4850524,"name":"Township of Carson","admin3":"90483"},{"geonameid":4850952,"name":"Township of Center","admin3":"90624"},{"geonameid":4853058,"name":"Township of Crescent","admin3":"90852"},{"geonameid":4858131,"name":"Township of Garner","admin3":"91545"},{"geonameid":4859415,"name":"Township of Grove","admin3":"91788"},{"geonameid":4859786,"name":"Township of Hardin","admin3":"91839"},{"geonameid":4860190,"name":"Township of Hazel Dell","admin3":"91896"},{"geonameid":4862432,"name":"Township of James","admin3":"92187"},{"geonameid":4863213,"name":"Township of Kane","admin3":"92292"},{"geonameid":4863250,"name":"Township of Keg Creek","admin3":"92298"},{"geonameid":4863703,"name":"Township of Knox","admin3":"92325"},{"geonameid":4864038,"name":"Township of Lake","admin3":"92364"},{"geonameid":4864313,"name":"Township of Layton","admin3":"92388"},{"geonameid":4864586,"name":"Township of Lewis","admin3":"92433"},{"geonameid":4864867,"name":"Township of Lincoln","admin3":"92598"},{"geonameid":4865804,"name":"Township of Macedonia","admin3":"92748"},{"geonameid":4867529,"name":"Township of Minden","admin3":"92949"},{"geonameid":4868603,"name":"Township of Neola","admin3":"93057"},{"geonameid":4869400,"name":"Township of Norwalk","admin3":"93135"},{"geonameid":4871635,"name":"Township of Pleasant","admin3":"93372"},{"geonameid":4873413,"name":"Township of Rockford","admin3":"93678"},{"geonameid":4876437,"name":"Township of Silver Creek","admin3":"93900"},{"geonameid":4879988,"name":"Township of Valley","admin3":"94311"},{"geonameid":4880858,"name":"Township of Washington","admin3":"94551"},{"geonameid":4881023,"name":"Township of Waveland","admin3":"94605"},{"geonameid":4882538,"name":"Township of Wright","admin3":"94785"},{"geonameid":4882633,"name":"Township of York","admin3":"94809"}],"alternateNames":[{"alternatenameId":1980290,"geonameid":4862182,"isoLanguage":"en","alternateName":"Iowa","isPreferredName":true,"isShortName":true,"isColloquial":false,"isHistoric":false}]},"__N_SSG":true}