{"pageProps":{"locale":"en","admin2":{"geonameid":4875785,"name":"Scott County","country":"US","admin1":"IA","admin2":"163","admin3":"","latitude":"41.6371000","longitude":"-90.6232400"},"admin1":{"geonameid":4862182,"name":"Iowa","admin1":"IA","localeAltName":"Iowa"},"locations":[{"geonameid":4848489,"name":"Bettendorf","admin3":"93420"},{"geonameid":4848891,"name":"Blue Grass","admin3":"90393"},{"geonameid":4849709,"name":"Buffalo","admin3":"90393"},{"geonameid":4853423,"name":"Davenport","admin3":""},{"geonameid":4855248,"name":"Eldridge","admin3":"93849"},{"geonameid":4864315,"name":"Le Claire","admin3":"92391"},{"geonameid":4870716,"name":"Park View","admin3":"90429"},{"geonameid":4880422,"name":"Walcott","admin3":"90282"}],"admin3":[{"geonameid":4846679,"name":"Township of Allens Grove","admin3":"90048"},{"geonameid":4848901,"name":"Township of Blue Grass","admin3":"90282"},{"geonameid":4849758,"name":"Township of Buffalo","admin3":"90393"},{"geonameid":4849948,"name":"Township of Butler","admin3":"90429"},{"geonameid":4851981,"name":"Township of Cleona","admin3":"90726"},{"geonameid":4860514,"name":"Township of Hickory Grove","admin3":"91923"},{"geonameid":4864325,"name":"Township of Le Claire","admin3":"92391"},{"geonameid":4864652,"name":"Township of Liberty","admin3":"92490"},{"geonameid":4864870,"name":"Township of Lincoln","admin3":"92607"},{"geonameid":4871605,"name":"Township of Pleasant Valley","admin3":"93420"},{"geonameid":4872225,"name":"Township of Princeton","admin3":"93510"},{"geonameid":4876224,"name":"Township of Sheridan","admin3":"93849"},{"geonameid":4882219,"name":"Township of Winfield","admin3":"94764"},{"geonameid":11788446,"name":"City of Davenport","admin3":"11788446"}],"alternateNames":[{"alternatenameId":1980290,"geonameid":4862182,"isoLanguage":"en","alternateName":"Iowa","isPreferredName":true,"isShortName":true,"isColloquial":false,"isHistoric":false}]},"__N_SSG":true}