{"pageProps":{"locale":"en","admin2":{"geonameid":4882396,"name":"Woodbury County","country":"US","admin1":"IA","admin2":"193","admin3":"","latitude":"42.3897200","longitude":"-96.0447700"},"admin1":{"geonameid":4862182,"name":"Iowa","admin1":"IA","localeAltName":"Iowa"},"locations":[{"geonameid":4868306,"name":"Moville","admin3":"90078"},{"geonameid":4875904,"name":"Sergeant Bluff","admin3":"94773"},{"geonameid":4876523,"name":"Sioux City","admin3":"93925"}],"admin3":[{"geonameid":4847148,"name":"Township of Arlington","admin3":"90078"},{"geonameid":4847699,"name":"Township of Banner","admin3":"90123"},{"geonameid":4852444,"name":"Township of Concord","admin3":"90810"},{"geonameid":4857337,"name":"Township of Floyd","admin3":"91362"},{"geonameid":4858951,"name":"Township of Grange","admin3":"91623"},{"geonameid":4859046,"name":"Township of Grant","admin3":"91719"},{"geonameid":4863241,"name":"Township of Kedron","admin3":"92295"},{"geonameid":4864045,"name":"Township of Lakeport","admin3":"92373"},{"geonameid":4864654,"name":"Township of Liberty","admin3":"92496"},{"geonameid":4865010,"name":"Township of Liston","admin3":"92661"},{"geonameid":4865144,"name":"Township of Little Sioux","admin3":"92667"},{"geonameid":4867453,"name":"Township of Miller","admin3":"92940"},{"geonameid":4867935,"name":"Township of Morgan","admin3":"93015"},{"geonameid":4868312,"name":"Township of Moville","admin3":"93045"},{"geonameid":4870303,"name":"Township of Oto","admin3":"93222"},{"geonameid":4873392,"name":"Township of Rock","admin3":"93669"},{"geonameid":4873850,"name":"Township of Rutland","admin3":"93720"},{"geonameid":4876522,"name":"City of Sioux City","admin3":"93925"},{"geonameid":4876696,"name":"Township of Sloan","admin3":"93929"},{"geonameid":4879445,"name":"Township of Union","admin3":"94284"},{"geonameid":4881390,"name":"Township of West Fork","admin3":"94674"},{"geonameid":4882108,"name":"Township of Willow","admin3":"94752"},{"geonameid":4882345,"name":"Township of Wolf Creek","admin3":"94770"},{"geonameid":4882404,"name":"Township of Woodbury","admin3":"94773"}],"alternateNames":[{"alternatenameId":1980290,"geonameid":4862182,"isoLanguage":"en","alternateName":"Iowa","isPreferredName":true,"isShortName":true,"isColloquial":false,"isHistoric":false}]},"__N_SSG":true}