{"pageProps":{"locale":"en","admin2":{"geonameid":5175012,"name":"Van Wert County","country":"US","admin1":"OH","admin2":"161","admin3":"","latitude":"40.8554000","longitude":"-84.5861000","localeAltName":null},"admin1":{"geonameid":5165418,"name":"Ohio","admin1":"OH","localeAltName":"Ohio"},"locations":[{"geonameid":5151070,"name":"Convoy","admin3":"77756","localeAltName":null},{"geonameid":5151941,"name":"Delphos","admin3":"81676","localeAltName":null},{"geonameid":5162831,"name":"Middle Point","admin3":"81676","localeAltName":null},{"geonameid":5165381,"name":"Ohio City","admin3":"43372","localeAltName":null},{"geonameid":5175079,"name":"Van Wert","admin3":"63408","localeAltName":null}],"admin3":[{"geonameid":5157001,"name":"Township of Harrison","admin3":"34034"},{"geonameid":5157719,"name":"Township of Hoaglin","admin3":"35756"},{"geonameid":5159018,"name":"Township of Jackson","admin3":"38122"},{"geonameid":5159155,"name":"Township of Jennings","admin3":"38990"},{"geonameid":5160724,"name":"Township of Liberty","admin3":"43372","localeAltName":null},{"geonameid":5167126,"name":"Township of Pleasant","admin3":"63408","localeAltName":null},{"geonameid":5168123,"name":"Township of Ridge","admin3":"66978"},{"geonameid":5174441,"name":"Township of Tully","admin3":"77756","localeAltName":null},{"geonameid":5174741,"name":"Township of Union","admin3":"78596"},{"geonameid":5175825,"name":"Township of Washington","admin3":"81676","localeAltName":null},{"geonameid":5177023,"name":"Township of Willshire","admin3":"85750"},{"geonameid":5177550,"name":"Township of York","admin3":"87136"}],"alternateNames":[{"alternatenameId":2089549,"geonameid":5165418,"isoLanguage":"en","alternateName":"Ohio","isPreferredName":true,"isShortName":true,"isColloquial":false,"isHistoric":false}]},"__N_SSG":true}