{"pageProps":{"locale":"en","admin2":{"geonameid":5087463,"name":"Hillsborough County","country":"US","admin1":"NH","admin2":"011","admin3":"","latitude":"42.9153100","longitude":"-71.7160100","localeAltName":null},"admin1":{"geonameid":5090174,"name":"New Hampshire","admin1":"NH","localeAltName":"New Hampshire"},"locations":[{"geonameid":5082636,"name":"Amherst","admin3":"01300","localeAltName":null},{"geonameid":5082698,"name":"Antrim","admin3":"01700","localeAltName":null},{"geonameid":5083221,"name":"Bedford","admin3":"04500","localeAltName":null},{"geonameid":5083836,"name":"Brookline","admin3":"08100","localeAltName":null},{"geonameid":5085351,"name":"Deering","admin3":"17780","localeAltName":null},{"geonameid":5085735,"name":"East Merrimack","admin3":"47540","localeAltName":null},{"geonameid":5086321,"name":"Francestown","admin3":"27140","localeAltName":null},{"geonameid":5086628,"name":"Goffstown","admin3":"29860","localeAltName":null},{"geonameid":5086911,"name":"Greenfield","admin3":"31540","localeAltName":null},{"geonameid":5086935,"name":"Greenville","admin3":"31940","localeAltName":null},{"geonameid":7257618,"name":"Hillsborough","admin3":"36180","localeAltName":null},{"geonameid":5087559,"name":"Hollis","admin3":"37140","localeAltName":null},{"geonameid":5087752,"name":"Hudson","admin3":"37940","localeAltName":null},{"geonameid":5088753,"name":"Litchfield","admin3":"42260","localeAltName":null},{"geonameid":5089118,"name":"Lyndeborough","admin3":"44580","localeAltName":null},{"geonameid":5089178,"name":"Manchester","admin3":"45140","localeAltName":null},{"geonameid":5089293,"name":"Mason","admin3":"46260","localeAltName":null},{"geonameid":5089478,"name":"Merrimack","admin3":"47540","localeAltName":null},{"geonameid":5089578,"name":"Milford","admin3":"48020","localeAltName":null},{"geonameid":5089746,"name":"Mont Vernon","admin3":"49140","localeAltName":null},{"geonameid":5090046,"name":"Nashua","admin3":"50260","localeAltName":null},{"geonameid":5090096,"name":"New Boston","admin3":"50740","localeAltName":null},{"geonameid":5090183,"name":"New Ipswich","admin3":"51940","localeAltName":null},{"geonameid":5090910,"name":"Pelham","admin3":"59940","localeAltName":null},{"geonameid":5091002,"name":"Peterborough","admin3":"60580","localeAltName":null},{"geonameid":5091110,"name":"Pinardville","admin3":"29860","localeAltName":null},{"geonameid":5093508,"name":"Temple","admin3":"76260","localeAltName":null},{"geonameid":5094329,"name":"Weare","admin3":"79780","localeAltName":null},{"geonameid":5094802,"name":"Wilton","admin3":"85220","localeAltName":null}],"admin3":[{"geonameid":5082645,"name":"Town of Amherst","admin3":"01300","localeAltName":null},{"geonameid":5082703,"name":"Town of Antrim","admin3":"01700","localeAltName":null},{"geonameid":5083227,"name":"Town of Bedford","admin3":"04500","localeAltName":null},{"geonameid":5083319,"name":"Town of Bennington","admin3":"04900"},{"geonameid":5083841,"name":"Town of Brookline","admin3":"08100","localeAltName":null},{"geonameid":5085357,"name":"Town of Deering","admin3":"17780","localeAltName":null},{"geonameid":5086324,"name":"Town of Francestown","admin3":"27140","localeAltName":null},{"geonameid":5086640,"name":"Town of Goffstown","admin3":"29860","localeAltName":null},{"geonameid":5086914,"name":"Town of Greenfield","admin3":"31540","localeAltName":null},{"geonameid":5086941,"name":"Town of Greenville","admin3":"31940","localeAltName":null},{"geonameid":5087161,"name":"Town of Hancock","admin3":"33700"},{"geonameid":5087472,"name":"Town of Hillsborough","admin3":"36180","localeAltName":null},{"geonameid":5087567,"name":"Town of Hollis","admin3":"37140","localeAltName":null},{"geonameid":5087763,"name":"Town of Hudson","admin3":"37940","localeAltName":null},{"geonameid":5088745,"name":"Town of Litchfield","admin3":"42260","localeAltName":null},{"geonameid":5089121,"name":"Town of Lyndeborough","admin3":"44580","localeAltName":null},{"geonameid":5089193,"name":"City of Manchester","admin3":"45140","localeAltName":null},{"geonameid":5089302,"name":"Town of Mason","admin3":"46260","localeAltName":null},{"geonameid":5089497,"name":"Town of Merrimack","admin3":"47540","localeAltName":null},{"geonameid":5089574,"name":"Town of Milford","admin3":"48020","localeAltName":null},{"geonameid":5089750,"name":"Town of Mont Vernon","admin3":"49140","localeAltName":null},{"geonameid":5090071,"name":"City of Nashua","admin3":"50260","localeAltName":null},{"geonameid":5090099,"name":"Town of New Boston","admin3":"50740","localeAltName":null},{"geonameid":5090188,"name":"Town of New Ipswich","admin3":"51940","localeAltName":null},{"geonameid":5090917,"name":"Town of Pelham","admin3":"59940","localeAltName":null},{"geonameid":5091009,"name":"Town of Peterborough","admin3":"60580","localeAltName":null},{"geonameid":5092572,"name":"Town of Sharon","admin3":"68820"},{"geonameid":5093524,"name":"Town of Temple","admin3":"76260","localeAltName":null},{"geonameid":5094337,"name":"Town of Weare","admin3":"79780","localeAltName":null},{"geonameid":5094807,"name":"Town of Wilton","admin3":"85220","localeAltName":null},{"geonameid":5094830,"name":"Town of Windsor","admin3":"85940"}],"alternateNames":[{"alternatenameId":1980215,"geonameid":5090174,"isoLanguage":"en","alternateName":"New Hampshire","isPreferredName":true,"isShortName":true,"isColloquial":false,"isHistoric":false}]},"__N_SSG":true}