{"pageProps":{"locale":"en","admin2":{"geonameid":5426503,"name":"Jefferson County","country":"US","admin1":"CO","admin2":"059","admin3":"","latitude":"39.5864200","longitude":"-105.2504700","localeAltName":null},"admin1":{"geonameid":5417618,"name":"Colorado","admin1":"CO","localeAltName":"Colorado"},"locations":[{"geonameid":5412030,"name":"Applewood","admin3":"","localeAltName":null},{"geonameid":5412199,"name":"Arvada","admin3":"","localeAltName":null},{"geonameid":5412264,"name":"Aspen Park","admin3":"","localeAltName":null},{"geonameid":5417657,"name":"Columbine","admin3":"","localeAltName":null},{"geonameid":5420859,"name":"Edgewater","admin3":"","localeAltName":null},{"geonameid":5421418,"name":"Evergreen","admin3":"","localeAltName":null},{"geonameid":5422853,"name":"Genesee","admin3":"","localeAltName":null},{"geonameid":5423294,"name":"Golden","admin3":"","localeAltName":null},{"geonameid":5426044,"name":"Indian Hills","admin3":"","localeAltName":null},{"geonameid":5427207,"name":"Ken Caryl","admin3":"","localeAltName":null},{"geonameid":5427540,"name":"Kittredge","admin3":"","localeAltName":null},{"geonameid":5427946,"name":"Lakewood","admin3":"","localeAltName":null},{"geonameid":5432092,"name":"Mountain View","admin3":"","localeAltName":null},{"geonameid":7262510,"name":"West Pleasant View","admin3":"","localeAltName":null},{"geonameid":5443948,"name":"Wheat Ridge","admin3":"","localeAltName":null}],"admin3":[{"geonameid":7173354,"name":"City of Edgewater","admin3":"7173354"},{"geonameid":7175276,"name":"Town of Lakeside","admin3":"7175276"},{"geonameid":7175429,"name":"Town of Mountain View","admin3":"7175429"},{"geonameid":11788318,"name":"City of Golden","admin3":"11788318"},{"geonameid":11788403,"name":"City of Arvada","admin3":"11788403"},{"geonameid":11788568,"name":"City of Wheat Ridge","admin3":"11788568"},{"geonameid":11788834,"name":"City of Lakewood","admin3":"11788834"},{"geonameid":11788986,"name":"City of Westminster","admin3":"11788986"}],"alternateNames":[{"alternatenameId":2089564,"geonameid":5417618,"isoLanguage":"en","alternateName":"Colorado","isPreferredName":true,"isShortName":true,"isColloquial":false,"isHistoric":false}]},"__N_SSG":true}