{"pageProps":{"locale":"en","admin2":{"geonameid":5810982,"name":"Snohomish County","country":"US","admin1":"WA","admin2":"061","admin3":"","latitude":"48.0460200","longitude":"-121.7221800","localeAltName":null},"admin1":{"geonameid":5815135,"name":"Washington","admin1":"WA","localeAltName":"Washington"},"locations":[{"geonameid":5785453,"name":"Alderwood Manor","admin3":"","localeAltName":null},{"geonameid":5785868,"name":"Arlington","admin3":"","localeAltName":null},{"geonameid":5785858,"name":"Arlington Heights","admin3":"","localeAltName":null},{"geonameid":7315408,"name":"Bothell East","admin3":"","localeAltName":null},{"geonameid":7315409,"name":"Bothell West","admin3":"","localeAltName":null},{"geonameid":5788125,"name":"Brier","admin3":"","localeAltName":null},{"geonameid":5788298,"name":"Bryant","admin3":"","localeAltName":null},{"geonameid":7315410,"name":"Bunk Foss","admin3":"","localeAltName":null},{"geonameid":5789424,"name":"Cathan","admin3":"","localeAltName":null},{"geonameid":5789425,"name":"Cathcart","admin3":"","localeAltName":null},{"geonameid":5790290,"name":"Clearview","admin3":"","localeAltName":null},{"geonameid":5791791,"name":"Darrington","admin3":"","localeAltName":null},{"geonameid":7315412,"name":"Eastmont","admin3":"","localeAltName":null},{"geonameid":5793348,"name":"Echo Lake","admin3":"","localeAltName":null},{"geonameid":5793427,"name":"Edmonds","admin3":"","localeAltName":null},{"geonameid":5793876,"name":"Esperance","admin3":"","localeAltName":null},{"geonameid":5793933,"name":"Everett","admin3":"","localeAltName":null},{"geonameid":5794675,"name":"Fobes Hill","admin3":"","localeAltName":null},{"geonameid":5795678,"name":"Gold Bar","admin3":"","localeAltName":null},{"geonameid":5795991,"name":"Granite Falls","admin3":"","localeAltName":null},{"geonameid":5798814,"name":"John Sam Lake","admin3":"","localeAltName":null},{"geonameid":5800167,"name":"Lake Bosworth","admin3":"","localeAltName":null},{"geonameid":5800255,"name":"Lake Ketchum","admin3":"","localeAltName":null},{"geonameid":5800302,"name":"Lake Roesiger","admin3":"","localeAltName":null},{"geonameid":5800317,"name":"Lake Stevens","admin3":"","localeAltName":null},{"geonameid":8479422,"name":"Lake Stickney","admin3":"","localeAltName":null},{"geonameid":7315416,"name":"Larch Way","admin3":"","localeAltName":null},{"geonameid":5801412,"name":"Lochsloy","admin3":"","localeAltName":null},{"geonameid":5802049,"name":"Lynnwood","admin3":"","localeAltName":null},{"geonameid":5802098,"name":"Machias","admin3":"","localeAltName":null},{"geonameid":5802236,"name":"Maltby","admin3":"","localeAltName":null},{"geonameid":5802493,"name":"Martha Lake","admin3":"","localeAltName":null},{"geonameid":5802570,"name":"Marysville","admin3":"","localeAltName":null},{"geonameid":5802666,"name":"May Creek","admin3":"","localeAltName":null},{"geonameid":5803055,"name":"Meadowdale","admin3":"","localeAltName":null},{"geonameid":5803457,"name":"Mill Creek","admin3":"","localeAltName":null},{"geonameid":7315418,"name":"Mill Creek East","admin3":"","localeAltName":null},{"geonameid":5803786,"name":"Monroe","admin3":"","localeAltName":null},{"geonameid":7315419,"name":"Monroe North","admin3":"","localeAltName":null},{"geonameid":5804191,"name":"Mountlake Terrace","admin3":"","localeAltName":null},{"geonameid":5804306,"name":"Mukilteo","admin3":"","localeAltName":null},{"geonameid":5804953,"name":"North Creek","admin3":"","localeAltName":null},{"geonameid":8479428,"name":"Picnic Point","admin3":"","localeAltName":null},{"geonameid":7262110,"name":"Picnic Point-North Lynnwood","admin3":"","localeAltName":null},{"geonameid":5807424,"name":"Priest Point","admin3":"","localeAltName":null},{"geonameid":5810050,"name":"Shaker Church","admin3":"","localeAltName":null},{"geonameid":7176035,"name":"Silver Firs","admin3":"","localeAltName":null},{"geonameid":5810559,"name":"Sisco Heights","admin3":"","localeAltName":null},{"geonameid":5810915,"name":"Smokey Point","admin3":"","localeAltName":null},{"geonameid":5810988,"name":"Snohomish","admin3":"","localeAltName":null},{"geonameid":5811995,"name":"Stanwood","admin3":"","localeAltName":null},{"geonameid":5812017,"name":"Startup","admin3":"","localeAltName":null},{"geonameid":5812241,"name":"Stimson Crossing","admin3":"","localeAltName":null},{"geonameid":5812483,"name":"Sultan","admin3":"","localeAltName":null},{"geonameid":5812841,"name":"Swede Heaven","admin3":"","localeAltName":null},{"geonameid":5813459,"name":"Three Lakes","admin3":"","localeAltName":null},{"geonameid":5814047,"name":"Tulalip","admin3":"","localeAltName":null},{"geonameid":5814048,"name":"Tulalip Bay","admin3":"","localeAltName":null},{"geonameid":5815033,"name":"Warm Beach","admin3":"","localeAltName":null},{"geonameid":5815237,"name":"Weallup Lake","admin3":"","localeAltName":null},{"geonameid":5815539,"name":"West Lake Stevens","admin3":"","localeAltName":null},{"geonameid":5816494,"name":"Woods Creek","admin3":"","localeAltName":null},{"geonameid":5816508,"name":"Woodway","admin3":"","localeAltName":null}],"admin3":[{"geonameid":7172950,"name":"City of Arlington","admin3":"7172950"},{"geonameid":7173046,"name":"City of Bothell","admin3":"7173046"},{"geonameid":7173067,"name":"City of Brier","admin3":"7173067"},{"geonameid":7173358,"name":"City of Edmonds","admin3":"7173358"},{"geonameid":7173504,"name":"City of Gold Bar","admin3":"7173504"},{"geonameid":7173534,"name":"City of Granite Falls","admin3":"7173534"},{"geonameid":7173719,"name":"City of Lynnwood","admin3":"7173719"},{"geonameid":7173817,"name":"City of Marysville","admin3":"7173817"},{"geonameid":7173862,"name":"City of Mill Creek","admin3":"7173862"},{"geonameid":7173882,"name":"City of Monroe","admin3":"7173882"},{"geonameid":7173910,"name":"City of Mountlake Terrace","admin3":"7173910"},{"geonameid":7173914,"name":"City of Mukilteo","admin3":"7173914"},{"geonameid":7174224,"name":"City of Lake Stevens","admin3":"7174224"},{"geonameid":7174453,"name":"City of Snohomish","admin3":"7174453"},{"geonameid":7174495,"name":"City of Stanwood","admin3":"7174495"},{"geonameid":7174516,"name":"City of Sultan","admin3":"7174516"},{"geonameid":7174739,"name":"City of Woodway","admin3":"7174739"},{"geonameid":7174828,"name":"Town of Darrington","admin3":"7174828"},{"geonameid":7175204,"name":"Town of Index","admin3":"7175204"},{"geonameid":11788649,"name":"City of Everett","admin3":"11788649"}],"alternateNames":[{"alternatenameId":2089568,"geonameid":5815135,"isoLanguage":"en","alternateName":"Washington","isPreferredName":true,"isShortName":true,"isColloquial":false,"isHistoric":false}]},"__N_SSG":true}