{"pageProps":{"locale":"ro","admin2":{"geonameid":680785,"name":"Comuna Cornereva","country":"RO","admin1":"12","admin2":"52160","admin3":"","latitude":"45.0696800","longitude":"22.4467100"},"admin1":{"geonameid":682714,"name":"Caraş-Severin","admin1":"12"},"locations":[{"geonameid":686111,"name":"Arsuri","admin3":""},{"geonameid":685892,"name":"Badina","admin3":""},{"geonameid":685863,"name":"Bagina","admin3":""},{"geonameid":684362,"name":"Bogâltin","admin3":""},{"geonameid":684303,"name":"Bojia","admin3":""},{"geonameid":684139,"name":"Borugi","admin3":""},{"geonameid":682854,"name":"Camena","admin3":""},{"geonameid":682348,"name":"Cerna","admin3":""},{"geonameid":681595,"name":"Cireșel","admin3":""},{"geonameid":681261,"name":"Coasta Podului","admin3":""},{"geonameid":680786,"name":"Cornereva","admin3":""},{"geonameid":680545,"name":"Costiș","admin3":""},{"geonameid":680411,"name":"Cozia","admin3":""},{"geonameid":680360,"name":"Cracu Cheii","admin3":""},{"geonameid":680358,"name":"Cracu Mare","admin3":""},{"geonameid":680356,"name":"Cracu Peşterii","admin3":""},{"geonameid":837977,"name":"Cracu Teiului","admin3":""},{"geonameid":680094,"name":"Crovu Velculeştilor","admin3":""},{"geonameid":679261,"name":"Dobraia","admin3":""},{"geonameid":679800,"name":"Dolina","admin3":""},{"geonameid":677967,"name":"Frasancea","admin3":""},{"geonameid":676781,"name":"Grauri","admin3":""},{"geonameid":676697,"name":"Groapa","admin3":""},{"geonameid":676598,"name":"Gruni","admin3":""},{"geonameid":676523,"name":"Gura Iuţii","admin3":""},{"geonameid":676034,"name":"Hora Mare","admin3":""},{"geonameid":676033,"name":"Hora Mică","admin3":""},{"geonameid":675608,"name":"Ineleț","admin3":""},{"geonameid":675363,"name":"Izvor","admin3":""},{"geonameid":674409,"name":"Lunca Florii","admin3":""},{"geonameid":674346,"name":"Lunca Zaicii","admin3":""},{"geonameid":673624,"name":"Medved","admin3":""},{"geonameid":673528,"name":"Mesteacăn","admin3":""},{"geonameid":673494,"name":"Mezindin","admin3":""},{"geonameid":672791,"name":"Mosternic","admin3":""},{"geonameid":10942312,"name":"Negiudin","admin3":""},{"geonameid":672062,"name":"Obița","admin3":""},{"geonameid":670480,"name":"Pleznic","admin3":""},{"geonameid":670170,"name":"Pogara","admin3":""},{"geonameid":670169,"name":"Pogara de Sus","admin3":""},{"geonameid":670068,"name":"Poiana Lungă","admin3":""},{"geonameid":669776,"name":"Potana","admin3":""},{"geonameid":669612,"name":"Prisacina","admin3":""},{"geonameid":669599,"name":"Prislop","admin3":""},{"geonameid":668373,"name":"Ruștin","admin3":""},{"geonameid":667725,"name":"Scărişoara","admin3":""},{"geonameid":666278,"name":"Stănişte","admin3":""},{"geonameid":666279,"name":"Stănişte","admin3":""},{"geonameid":665998,"name":"Stregasca","admin3":""},{"geonameid":665918,"name":"Strugasca","admin3":""},{"geonameid":665910,"name":"Studena","admin3":""},{"geonameid":665868,"name":"Sub Crâng","admin3":""},{"geonameid":665855,"name":"Sub Plai","admin3":""},{"geonameid":665854,"name":"Sub Pogara","admin3":""},{"geonameid":665414,"name":"Ţaţu","admin3":""},{"geonameid":665215,"name":"Ţesna","admin3":""},{"geonameid":665200,"name":"Thileţ","admin3":""},{"geonameid":664761,"name":"Topla","admin3":""},{"geonameid":663096,"name":"Vatra Satului","admin3":""},{"geonameid":662308,"name":"Zănogi","admin3":""},{"geonameid":662247,"name":"Zbegu","admin3":""},{"geonameid":662149,"name":"Zmogotin","admin3":""},{"geonameid":662146,"name":"Zoina","admin3":""}],"admin3":[],"alternateNames":[]},"__N_SSG":true}