{"pageProps":{"locale":"en","admin2":{"geonameid":3333240,"name":"Caerphilly County Borough","country":"GB","admin1":"WLS","admin2":"X4","admin3":"","latitude":"51.6666700","longitude":"-3.1666700"},"admin1":{"geonameid":2634895,"name":"Wales","admin1":"WLS","localeAltName":"Wales"},"locations":[{"geonameid":2657849,"name":"Aberbargoed"},{"geonameid":2657844,"name":"Abercarn"},{"geonameid":3345315,"name":"Abertridwr"},{"geonameid":2656340,"name":"Bargoed"},{"geonameid":2656033,"name":"Bedwas"},{"geonameid":2656032,"name":"Bedwellty"},{"geonameid":3345317,"name":"Blackwood"},{"geonameid":9538959,"name":"Brithdir"},{"geonameid":2654089,"name":"Caerphilly"},{"geonameid":2651866,"name":"Crosskeys"},{"geonameid":2651805,"name":"Crumlin"},{"geonameid":2651653,"name":"Cwmcarn"},{"geonameid":9538960,"name":"Cwmsyfiog"},{"geonameid":2651342,"name":"Deri"},{"geonameid":2649267,"name":"Fochriw"},{"geonameid":2648728,"name":"Gelligaer"},{"geonameid":2647108,"name":"Hengoed"},{"geonameid":2644167,"name":"Llanbradach"},{"geonameid":2643259,"name":"Machen"},{"geonameid":2643216,"name":"Maesycwmmer"},{"geonameid":2641927,"name":"Mynyddislwyn"},{"geonameid":2641811,"name":"Nelson"},{"geonameid":2641510,"name":"New Tredegar"},{"geonameid":2641700,"name":"Newbridge"},{"geonameid":2640470,"name":"Pengam"},{"geonameid":9239013,"name":"Pentwyn Crumlin"},{"geonameid":2640108,"name":"Pontymister"},{"geonameid":3345329,"name":"Pontywaun"},{"geonameid":2639407,"name":"Rhymney"},{"geonameid":2639317,"name":"Risca"},{"geonameid":2638987,"name":"Rudry"},{"geonameid":2638205,"name":"Senghenydd"},{"geonameid":2635778,"name":"Tirphil"},{"geonameid":10171174,"name":"Trethomas"},{"geonameid":3345328,"name":"Ynysddu"},{"geonameid":2633332,"name":"Ystrad Mynach"}],"admin3":[{"geonameid":2648729,"name":"Gelligaer","admin3":"00PK012"},{"geonameid":7292892,"name":"Bargoed","admin3":"00PK004"},{"geonameid":7294029,"name":"Newbridge","admin3":"00PK016"},{"geonameid":7294249,"name":"New Tredegar","admin3":"00PK017"},{"geonameid":7294257,"name":"Blackwood","admin3":"00PK006"},{"geonameid":7294258,"name":"Llanbradach and Pwllypant","admin3":"00PK013"},{"geonameid":7294259,"name":"Pontllanfraith","admin3":"00PK021"},{"geonameid":7296029,"name":"Caerphilly","admin3":"00PK007"},{"geonameid":7298329,"name":"Pengam","admin3":"00PK018"},{"geonameid":7298331,"name":"Ynysddu","admin3":"00PK026"},{"geonameid":7298752,"name":"Abercarn","admin3":"00PK001"},{"geonameid":7298753,"name":"Crumlin","admin3":"00PK010"},{"geonameid":7298754,"name":"Darran Valley","admin3":"00PK011"},{"geonameid":7298755,"name":"Maesycwmmer","admin3":"00PK014"},{"geonameid":7298756,"name":"Penyrheol, Trecenydd and Energlyn","admin3":"00PK020"},{"geonameid":7298757,"name":"Risca","admin3":"00PK023"},{"geonameid":7298758,"name":"Van","admin3":"00PK025"},{"geonameid":7299813,"name":"Aber Valley","admin3":"00PK002"},{"geonameid":7299814,"name":"Argoed","admin3":"00PK003"},{"geonameid":7299815,"name":"Bedwas, Trethomas and Machen","admin3":"00PK005"},{"geonameid":7299816,"name":"Cefn Fforest","admin3":"00PK008"},{"geonameid":7299817,"name":"Crosskeys","admin3":"00PK009"},{"geonameid":7299818,"name":"Nelson","admin3":"00PK015"},{"geonameid":7299821,"name":"Penmaen","admin3":"00PK019"},{"geonameid":7299822,"name":"Rudry","admin3":"00PK024"},{"geonameid":7301671,"name":"Rhymney","admin3":"00PK022"}],"alternateNames":[{"alternatenameId":1626654,"geonameid":2634895,"isoLanguage":"en","alternateName":"Wales","isPreferredName":true,"isShortName":true,"isColloquial":false,"isHistoric":false}]},"__N_SSG":true}