{"pageProps":{"locale":"en","admin2":{"geonameid":4433190,"name":"Lee County","country":"US","admin1":"MS","admin2":"081","admin3":"","latitude":"34.2898900","longitude":"-88.6804200","localeAltName":null},"admin1":{"geonameid":4436296,"name":"Mississippi","admin1":"MS","localeAltName":"Mississippi"},"locations":[{"geonameid":4416877,"name":"Baldwyn","admin3":"","localeAltName":null},{"geonameid":4428744,"name":"Guntown","admin3":"","localeAltName":null},{"geonameid":4436543,"name":"Mooreville","admin3":"","localeAltName":null},{"geonameid":4438112,"name":"Nettleton","admin3":"","localeAltName":null},{"geonameid":4441578,"name":"Plantersville","admin3":"","localeAltName":null},{"geonameid":4444938,"name":"Saltillo","admin3":"","localeAltName":null},{"geonameid":4445668,"name":"Shannon","admin3":"","localeAltName":null},{"geonameid":4448903,"name":"Tupelo","admin3":"","localeAltName":null},{"geonameid":4449603,"name":"Verona","admin3":"","localeAltName":null}],"admin3":[],"alternateNames":[{"alternatenameId":2089554,"geonameid":4436296,"isoLanguage":"en","alternateName":"Mississippi","isPreferredName":true,"isShortName":true,"isColloquial":false,"isHistoric":false}]},"__N_SSG":true}