{"pageProps":{"locale":"de","admin2":{"geonameid":2835521,"name":"Swabia","country":"DE","admin1":"02","admin2":"097","admin3":"","latitude":"48.3333300","longitude":"10.5000000","localeAltName":null},"admin1":{"geonameid":2951839,"name":"Bavaria","admin1":"02","localeAltName":"Bayern"},"locations":[{"geonameid":2959498,"name":"Adelsried","admin3":"09772","localeAltName":null},{"geonameid":2959492,"name":"Adelzhausen","admin3":"09771","localeAltName":null},{"geonameid":2959343,"name":"Affing","admin3":"09771","localeAltName":null},{"geonameid":2958975,"name":"Aichach","admin3":"09771","localeAltName":null},{"geonameid":2958951,"name":"Aichen","admin3":"09774","localeAltName":null},{"geonameid":2958835,"name":"Aindling","admin3":"09771","localeAltName":null},{"geonameid":2958813,"name":"Aislingen","admin3":"09773","localeAltName":null},{"geonameid":2958795,"name":"Aitrang","admin3":"09777","localeAltName":null},{"geonameid":2958560,"name":"Alerheim","admin3":"09779","localeAltName":null},{"geonameid":2958555,"name":"Aletshausen","admin3":"09774","localeAltName":null},{"geonameid":2958309,"name":"Allmannshofen","admin3":"09772","localeAltName":null},{"geonameid":2957528,"name":"Altenmünster","admin3":"09772","localeAltName":null},{"geonameid":2957468,"name":"Altenstadt","admin3":"09775","localeAltName":null},{"geonameid":2956787,"name":"Altusried","admin3":"09780","localeAltName":null},{"geonameid":2956657,"name":"Amberg","admin3":"09778","localeAltName":null},{"geonameid":2956572,"name":"Amendingen","admin3":"09764","localeAltName":null},{"geonameid":2956564,"name":"Amerdingen","admin3":"09779","localeAltName":null},{"geonameid":2955780,"name":"Apfeltrach","admin3":"09778","localeAltName":null},{"geonameid":3208324,"name":"Asbach-Bäumenheim","admin3":"09779","localeAltName":null},{"geonameid":2954172,"name":"Augsburg","admin3":"09761","localeAltName":null},{"geonameid":2954120,"name":"Auhausen","admin3":"09779","localeAltName":null},{"geonameid":2953825,"name":"Aystetten","admin3":"09772","localeAltName":null},{"geonameid":2953771,"name":"Babenhausen","admin3":"09778","localeAltName":null},{"geonameid":2953662,"name":"Bachhagel","admin3":"09773","localeAltName":null},{"geonameid":2953636,"name":"Bächingen an der Brenz","admin3":"09773","localeAltName":null},{"geonameid":2953313,"name":"Bad Wörishofen","admin3":"09778","localeAltName":null},{"geonameid":2953168,"name":"Baisweil","admin3":"09777","localeAltName":null},{"geonameid":2953116,"name":"Balderschwang","admin3":"09780","localeAltName":null},{"geonameid":2952991,"name":"Balzhausen","admin3":"09774","localeAltName":null},{"geonameid":2951832,"name":"Bayersried","admin3":"09774","localeAltName":null},{"geonameid":2951232,"name":"Bellenberg","admin3":"09775","localeAltName":null},{"geonameid":2951014,"name":"Benningen","admin3":"09778","localeAltName":null},{"geonameid":2949646,"name":"Betzigau","admin3":"09780","localeAltName":null},{"geonameid":2949415,"name":"Biberbach","admin3":"09772","localeAltName":null},{"geonameid":2949279,"name":"Bidingen","admin3":"09777","localeAltName":null},{"geonameid":2949032,"name":"Biessenhofen","admin3":"09777","localeAltName":null},{"geonameid":2948750,"name":"Binswangen","admin3":"09773","localeAltName":null},{"geonameid":2948204,"name":"Bissingen","admin3":"09773","localeAltName":null},{"geonameid":2948114,"name":"Blaichach","admin3":"09780","localeAltName":null},{"geonameid":2947713,"name":"Blindheim","admin3":"09773","localeAltName":null},{"geonameid":2947449,"name":"Bobingen","admin3":"09772","localeAltName":null},{"geonameid":2947067,"name":"Bodolz","admin3":"09776","localeAltName":null},{"geonameid":2947001,"name":"Böhen","admin3":"09778","localeAltName":null},{"geonameid":2946583,"name":"Bolsterlang","admin3":"09780","localeAltName":null},{"geonameid":2946409,"name":"Bonstetten","admin3":"09772","localeAltName":null},{"geonameid":2946379,"name":"Boos","admin3":"09778","localeAltName":null},{"geonameid":2944638,"name":"Breitenbrunn","admin3":"09778","localeAltName":null},{"geonameid":2944529,"name":"Breitenthal","admin3":"09774","localeAltName":null},{"geonameid":2943163,"name":"Brunnen","admin3":"09771","localeAltName":null},{"geonameid":2942922,"name":"Bubesheim","admin3":"09774","localeAltName":null},{"geonameid":2942866,"name":"Buch","admin3":"09775","localeAltName":null},{"geonameid":2942702,"name":"Buchdorf","admin3":"09779","localeAltName":null},{"geonameid":2942566,"name":"Buchenberg","admin3":"09780","localeAltName":null},{"geonameid":2942281,"name":"Buchloe","admin3":"09777","localeAltName":null},{"geonameid":2941485,"name":"Burgau","admin3":"09774","localeAltName":null},{"geonameid":2941422,"name":"Burgberg","admin3":"09780","localeAltName":null},{"geonameid":2940929,"name":"Burtenbach","admin3":"09774","localeAltName":null},{"geonameid":2940611,"name":"Buttenwiesen","admin3":"09773","localeAltName":null},{"geonameid":2940457,"name":"Buxheim","admin3":"09778","localeAltName":null},{"geonameid":2939343,"name":"Daiting","admin3":"09779","localeAltName":null},{"geonameid":2938837,"name":"Dasing","admin3":"09771","localeAltName":null},{"geonameid":2938439,"name":"Deiningen","admin3":"09779","localeAltName":null},{"geonameid":2938415,"name":"Deisenhausen","admin3":"09774","localeAltName":null},{"geonameid":2937688,"name":"Dickenreishausen","admin3":"09764","localeAltName":null},{"geonameid":2937553,"name":"Diedorf","admin3":"09772","localeAltName":null},{"geonameid":2937077,"name":"Dietmannsried","admin3":"09780","localeAltName":null},{"geonameid":2936974,"name":"Dillingen an der Donau","admin3":"09773","localeAltName":null},{"geonameid":2936885,"name":"Dinkelscherben","admin3":"09772","localeAltName":null},{"geonameid":2936827,"name":"Dirlewang","admin3":"09778","localeAltName":null},{"geonameid":2936253,"name":"Donauwörth","admin3":"09779","localeAltName":null},{"geonameid":2934509,"name":"Durach","admin3":"09780","localeAltName":null},{"geonameid":2934317,"name":"Dürrlauingen","admin3":"09774","localeAltName":null},{"geonameid":2933909,"name":"Ebershausen","admin3":"09774","localeAltName":null},{"geonameid":2933385,"name":"Ederheim","admin3":"09779","localeAltName":null},{"geonameid":2933168,"name":"Egg an der Günz","admin3":"09778","localeAltName":null},{"geonameid":2933099,"name":"Eggenthal","admin3":"09777","localeAltName":null},{"geonameid":2932922,"name":"Ehingen","admin3":"09772","localeAltName":null},{"geonameid":2931501,"name":"Eisenburg","admin3":"09764","localeAltName":null},{"geonameid":2930952,"name":"Ellgau","admin3":"09772","localeAltName":null},{"geonameid":2930881,"name":"Ellzee","admin3":"09774","localeAltName":null},{"geonameid":2930575,"name":"Emersacker","admin3":"09772","localeAltName":null},{"geonameid":2929827,"name":"Eppishausen","admin3":"09778","localeAltName":null},{"geonameid":2929605,"name":"Erkheim","admin3":"09778","localeAltName":null},{"geonameid":3208331,"name":"Ettringen","admin3":"09778","localeAltName":null},{"geonameid":2928407,"name":"Eurasburg","admin3":"09771","localeAltName":null},{"geonameid":2927249,"name":"Fellheim","admin3":"09778","localeAltName":null},{"geonameid":3208334,"name":"Finningen","admin3":"09773","localeAltName":null},{"geonameid":2926654,"name":"Fischach","admin3":"09772","localeAltName":null},{"geonameid":2925891,"name":"Forheim","admin3":"09779","localeAltName":null},{"geonameid":2924999,"name":"Fremdingen","admin3":"09779","localeAltName":null},{"geonameid":2924803,"name":"Friedberg","admin3":"09771","localeAltName":null},{"geonameid":2924371,"name":"Friesenried","admin3":"09777","localeAltName":null},{"geonameid":2923753,"name":"Fünfstetten","admin3":"09779","localeAltName":null},{"geonameid":2923507,"name":"Füssen","admin3":"09777","localeAltName":null},{"geonameid":2923439,"name":"Gablingen","admin3":"09772","localeAltName":null},{"geonameid":2921371,"name":"Genderkingen","admin3":"09779","localeAltName":null},{"geonameid":2920891,"name":"Gersthofen","admin3":"09772","localeAltName":null},{"geonameid":2920812,"name":"Gessertshausen","admin3":"09772","localeAltName":null},{"geonameid":2920796,"name":"Gestratz","admin3":"09776","localeAltName":null},{"geonameid":2919792,"name":"Glött","admin3":"09773","localeAltName":null},{"geonameid":2919008,"name":"Görisried","admin3":"09777","localeAltName":null},{"geonameid":2918468,"name":"Graben","admin3":"09772","localeAltName":null},{"geonameid":2917060,"name":"Großaitingen","admin3":"09772","localeAltName":null},{"geonameid":2914279,"name":"Grünenbach","admin3":"09776","localeAltName":null},{"geonameid":2913711,"name":"Gundelfingen","admin3":"09773","localeAltName":null},{"geonameid":2913657,"name":"Gundremmingen","admin3":"09774","localeAltName":null},{"geonameid":2913558,"name":"Günzach","admin3":"09777","localeAltName":null},{"geonameid":2913555,"name":"Günzburg","admin3":"09774","localeAltName":null},{"geonameid":2911769,"name":"Hainsfarth","admin3":"09779","localeAltName":null},{"geonameid":2911648,"name":"Halblech","admin3":"09777","localeAltName":null},{"geonameid":2911579,"name":"Haldenwang","admin3":"09774","localeAltName":null},{"geonameid":2911580,"name":"Haldenwang","admin3":"09780","localeAltName":null},{"geonameid":2910686,"name":"Harburg","admin3":"09779","localeAltName":null},{"geonameid":2910165,"name":"Hartenthal","admin3":"09778","localeAltName":null},{"geonameid":2909057,"name":"Haunsheim","admin3":"09773","localeAltName":null},{"geonameid":2908595,"name":"Hawangen","admin3":"09778","localeAltName":null},{"geonameid":2907399,"name":"Heimenkirch","admin3":"09776","localeAltName":null},{"geonameid":2907388,"name":"Heimertingen","admin3":"09778","localeAltName":null},{"geonameid":2906130,"name":"Heretsried","admin3":"09772","localeAltName":null},{"geonameid":2906110,"name":"Hergensweiler","admin3":"09776","localeAltName":null},{"geonameid":2904612,"name":"Hiltenfingen","admin3":"09772","localeAltName":null},{"geonameid":2903012,"name":"Höchstädt an der Donau","admin3":"09773","localeAltName":null},{"geonameid":2901986,"name":"Hohenaltheim","admin3":"09779","localeAltName":null},{"geonameid":2901486,"name":"Hohenschwangau","admin3":"09777","localeAltName":null},{"geonameid":2900590,"name":"Hollenbach","admin3":"09771","localeAltName":null},{"geonameid":2899870,"name":"Holzgünz","admin3":"09778","localeAltName":null},{"geonameid":2899723,"name":"Holzheim","admin3":"09773","localeAltName":null},{"geonameid":2899724,"name":"Holzheim","admin3":"09775","localeAltName":null},{"geonameid":2899202,"name":"Hopferau","admin3":"09777","localeAltName":null},{"geonameid":2899048,"name":"Horgau","admin3":"09772","localeAltName":null},{"geonameid":2897883,"name":"Huisheim","admin3":"09779","localeAltName":null},{"geonameid":2896776,"name":"Ichenhausen","admin3":"09774","localeAltName":null},{"geonameid":2896546,"name":"Illertissen","admin3":"09775","localeAltName":null},{"geonameid":2896261,"name":"Immenstadt im Allgäu","admin3":"09780","localeAltName":null},{"geonameid":2896127,"name":"Inchenhofen","admin3":"09771","localeAltName":null},{"geonameid":2895744,"name":"Irsee","admin3":"09777","localeAltName":null},{"geonameid":2895034,"name":"Jengen","admin3":"09777","localeAltName":null},{"geonameid":3336896,"name":"Jettingen-Scheppach","admin3":"09774","localeAltName":null},{"geonameid":2893983,"name":"Kaisheim","admin3":"09779","localeAltName":null},{"geonameid":2892080,"name":"Kaufbeuren","admin3":"09762","localeAltName":null},{"geonameid":2891749,"name":"Kellmünz","admin3":"09775","localeAltName":null},{"geonameid":2891621,"name":"Kempten (Allgäu)","admin3":"09763","localeAltName":null},{"geonameid":2891300,"name":"Kettershausen","admin3":"09778","localeAltName":null},{"geonameid":2890495,"name":"Kirchhaslach","admin3":"09778","localeAltName":null},{"geonameid":2890488,"name":"Kirchheim","admin3":"09778","localeAltName":null},{"geonameid":2890202,"name":"Kissing","admin3":"09771","localeAltName":null},{"geonameid":2889814,"name":"Kleinaitingen","admin3":"09772","localeAltName":null},{"geonameid":2887449,"name":"Klosterlechfeld","admin3":"09772","localeAltName":null},{"geonameid":2885908,"name":"Königsbrunn","admin3":"09772","localeAltName":null},{"geonameid":2885018,"name":"Kraftisried","admin3":"09777","localeAltName":null},{"geonameid":2883749,"name":"Kronburg","admin3":"09778","localeAltName":null},{"geonameid":2883410,"name":"Krumbach","admin3":"09774","localeAltName":null},{"geonameid":2883000,"name":"Kühbach","admin3":"09771","localeAltName":null},{"geonameid":2882777,"name":"Kühlenthal","admin3":"09772","localeAltName":null},{"geonameid":2882192,"name":"Kutzenhausen","admin3":"09772","localeAltName":null},{"geonameid":2882033,"name":"Lachen","admin3":"09778","localeAltName":null},{"geonameid":2881764,"name":"Lamerdingen","admin3":"09777","localeAltName":null},{"geonameid":2881622,"name":"Landensberg","admin3":"09774","localeAltName":null},{"geonameid":2880965,"name":"Langenneufnach","admin3":"09772","localeAltName":null},{"geonameid":2880758,"name":"Langerringen","admin3":"09772","localeAltName":null},{"geonameid":2880539,"name":"Langweid","admin3":"09772","localeAltName":null},{"geonameid":2880280,"name":"Lauben","admin3":"09778","localeAltName":null},{"geonameid":2880282,"name":"Lauben","admin3":"09780","localeAltName":null},{"geonameid":2880102,"name":"Laugna","admin3":"09773","localeAltName":null},{"geonameid":2880099,"name":"Lauingen","admin3":"09773","localeAltName":null},{"geonameid":2879865,"name":"Lautrach","admin3":"09778","localeAltName":null},{"geonameid":2879789,"name":"Lechbruck","admin3":"09777","localeAltName":null},{"geonameid":2879657,"name":"Legau","admin3":"09778","localeAltName":null},{"geonameid":2879150,"name":"Leipheim","admin3":"09774","localeAltName":null},{"geonameid":2878844,"name":"Lengenwang","admin3":"09777","localeAltName":null},{"geonameid":2877550,"name":"Lindau","admin3":"09776","localeAltName":null},{"geonameid":2874719,"name":"Lutzingen","admin3":"09773","localeAltName":null},{"geonameid":2874319,"name":"Maierhöfen","admin3":"09776","localeAltName":null},{"geonameid":2874284,"name":"Maihingen","admin3":"09779","localeAltName":null},{"geonameid":2873288,"name":"Markt Rettenbach","admin3":"09778","localeAltName":null},{"geonameid":2873280,"name":"Markt Wald","admin3":"09778","localeAltName":null},{"geonameid":2873291,"name":"Marktoberdorf","admin3":"09777","localeAltName":null},{"geonameid":2873290,"name":"Marktoffingen","admin3":"09779","localeAltName":null},{"geonameid":2873080,"name":"Marxheim","admin3":"09779","localeAltName":null},{"geonameid":2872796,"name":"Mauerstetten","admin3":"09777","localeAltName":null},{"geonameid":3208353,"name":"Medlingen","admin3":"09773","localeAltName":null},{"geonameid":2872469,"name":"Megesheim","admin3":"09779","localeAltName":null},{"geonameid":2872126,"name":"Meitingen","admin3":"09772","localeAltName":null},{"geonameid":2871992,"name":"Memmingen","admin3":"09764","localeAltName":null},{"geonameid":2871990,"name":"Memmingerberg","admin3":"09778","localeAltName":null},{"geonameid":2871835,"name":"Merching","admin3":"09771","localeAltName":null},{"geonameid":2871813,"name":"Mering","admin3":"09771","localeAltName":null},{"geonameid":2871716,"name":"Mertingen","admin3":"09779","localeAltName":null},{"geonameid":2871266,"name":"Mickhausen","admin3":"09772","localeAltName":null},{"geonameid":2871045,"name":"Mindelheim","admin3":"09778","localeAltName":null},{"geonameid":3205552,"name":"Missen-Wilhams","admin3":"09780","localeAltName":null},{"geonameid":2870628,"name":"Mittelneufnach","admin3":"09772","localeAltName":null},{"geonameid":2870233,"name":"Mödingen","admin3":"09773","localeAltName":null},{"geonameid":2869847,"name":"Mönchsdeggingen","admin3":"09779","localeAltName":null},{"geonameid":2869792,"name":"Monheim","admin3":"09779","localeAltName":null},{"geonameid":2868986,"name":"Möttingen","admin3":"09779","localeAltName":null},{"geonameid":2867568,"name":"Munningen","admin3":"09779","localeAltName":null},{"geonameid":2867555,"name":"Münster","admin3":"09772","localeAltName":null},{"geonameid":2867520,"name":"Münsterhausen","admin3":"09774","localeAltName":null},{"geonameid":2866473,"name":"Nersingen","admin3":"09775","localeAltName":null},{"geonameid":2866416,"name":"Nesselwang","admin3":"09777","localeAltName":null},{"geonameid":2863941,"name":"Neu-Ulm","admin3":"09775","localeAltName":null},{"geonameid":2866077,"name":"Neuburg","admin3":"09780","localeAltName":null},{"geonameid":2862953,"name":"Niederrieden","admin3":"09778","localeAltName":null},{"geonameid":2862891,"name":"Niederschönenfeld","admin3":"09779","localeAltName":null},{"geonameid":2862202,"name":"Nonnenhorn","admin3":"09776","localeAltName":null},{"geonameid":2862106,"name":"Nordendorf","admin3":"09772","localeAltName":null},{"geonameid":2861914,"name":"Nördlingen","admin3":"09779","localeAltName":null},{"geonameid":2860574,"name":"Obergriesbach","admin3":"09771","localeAltName":null},{"geonameid":2860540,"name":"Obergünzburg","admin3":"09777","localeAltName":null},{"geonameid":2859832,"name":"Obermaiselstein","admin3":"09780","localeAltName":null},{"geonameid":2859641,"name":"Oberndorf","admin3":"09779","localeAltName":null},{"geonameid":2859465,"name":"Oberostendorf","admin3":"09777","localeAltName":null},{"geonameid":2859458,"name":"Oberottmarshausen","admin3":"09772","localeAltName":null},{"geonameid":2859325,"name":"Oberreute","admin3":"09776","localeAltName":null},{"geonameid":2859296,"name":"Oberrieden","admin3":"09778","localeAltName":null},{"geonameid":2859231,"name":"Oberroth","admin3":"09775","localeAltName":null},{"geonameid":2859105,"name":"Oberschönegg","admin3":"09778","localeAltName":null},{"geonameid":2858966,"name":"Oberstaufen","admin3":"09780","localeAltName":null},{"geonameid":2858964,"name":"Oberstdorf","admin3":"09780","localeAltName":null},{"geonameid":2857847,"name":"Oettingen in Bayern","admin3":"09779","localeAltName":null},{"geonameid":2857770,"name":"Offingen","admin3":"09774","localeAltName":null},{"geonameid":2857753,"name":"Ofterschwang","admin3":"09780","localeAltName":null},{"geonameid":2857205,"name":"Opfenbach","admin3":"09776","localeAltName":null},{"geonameid":2856669,"name":"Osterberg","admin3":"09775","localeAltName":null},{"geonameid":2856317,"name":"Osterzell","admin3":"09777","localeAltName":null},{"geonameid":2855967,"name":"Otting","admin3":"09779","localeAltName":null},{"geonameid":2855937,"name":"Ottobeuren","admin3":"09778","localeAltName":null},{"geonameid":3205561,"name":"Oy-Mittelberg","admin3":"09780","localeAltName":null},{"geonameid":2854685,"name":"Petersdorf","admin3":"09771","localeAltName":null},{"geonameid":2854411,"name":"Pfaffenhausen","admin3":"09778","localeAltName":null},{"geonameid":2854384,"name":"Pfaffenhofen an der Roth","admin3":"09775","localeAltName":null},{"geonameid":2853971,"name":"Pforzen","admin3":"09777","localeAltName":null},{"geonameid":2853949,"name":"Pfronten","admin3":"09777","localeAltName":null},{"geonameid":2853232,"name":"Pless","admin3":"09778","localeAltName":null},{"geonameid":2852422,"name":"Pöttmes","admin3":"09771","localeAltName":null},{"geonameid":2850808,"name":"Rain","admin3":"09779","localeAltName":null},{"geonameid":2849300,"name":"Rehling","admin3":"09771","localeAltName":null},{"geonameid":2848851,"name":"Reimlingen","admin3":"09779","localeAltName":null},{"geonameid":2848001,"name":"Rettenbach","admin3":"09774","localeAltName":null},{"geonameid":2847985,"name":"Rettenberg","admin3":"09780","localeAltName":null},{"geonameid":2847247,"name":"Rieden","admin3":"09777","localeAltName":null},{"geonameid":2847237,"name":"Rieden an der Kötz","admin3":"09774","localeAltName":null},{"geonameid":2845891,"name":"Röfingen","admin3":"09774","localeAltName":null},{"geonameid":2845863,"name":"Roggenburg","admin3":"09775","localeAltName":null},{"geonameid":2845825,"name":"Rögling","admin3":"09779","localeAltName":null},{"geonameid":2845285,"name":"Rommelsried","admin3":"09772","localeAltName":null},{"geonameid":2845212,"name":"Ronsberg","admin3":"09777","localeAltName":null},{"geonameid":2844701,"name":"Roßhaupten","admin3":"09774","localeAltName":null},{"geonameid":2844148,"name":"Röthenbach","admin3":"09776","localeAltName":null},{"geonameid":2843472,"name":"Rückholz","admin3":"09777","localeAltName":null},{"geonameid":2843431,"name":"Ruderatshofen","admin3":"09777","localeAltName":null},{"geonameid":2842290,"name":"Salgen","admin3":"09778","localeAltName":null},{"geonameid":2839980,"name":"Scheidegg","admin3":"09776","localeAltName":null},{"geonameid":2839623,"name":"Scherstetten","admin3":"09772","localeAltName":null},{"geonameid":2839194,"name":"Schiltberg","admin3":"09771","localeAltName":null},{"geonameid":2837809,"name":"Schmiechen","admin3":"09771","localeAltName":null},{"geonameid":2835477,"name":"Schwabmünchen","admin3":"09772","localeAltName":null},{"geonameid":2835255,"name":"Schwangau","admin3":"09777","localeAltName":null},{"geonameid":2834312,"name":"Schwenningen","admin3":"09773","localeAltName":null},{"geonameid":2833849,"name":"Seeg","admin3":"09777","localeAltName":null},{"geonameid":2833080,"name":"Senden","admin3":"09775","localeAltName":null},{"geonameid":2832392,"name":"Sielenbach","admin3":"09771","localeAltName":null},{"geonameid":2832228,"name":"Sigmarszell","admin3":"09776","localeAltName":null},{"geonameid":2831097,"name":"Sontheim","admin3":"09778","localeAltName":null},{"geonameid":2831088,"name":"Sonthofen","admin3":"09780","localeAltName":null},{"geonameid":2829790,"name":"Stadtbergen","admin3":"09772","localeAltName":null},{"geonameid":2828270,"name":"Steindorf","admin3":"09771","localeAltName":null},{"geonameid":2827994,"name":"Steinheim","admin3":"09764","localeAltName":null},{"geonameid":2827240,"name":"Stetten","admin3":"09778","localeAltName":null},{"geonameid":2829080,"name":"Stiefenhofen","admin3":"09776","localeAltName":null},{"geonameid":2826341,"name":"Stötten am Auerberg","admin3":"09777","localeAltName":null},{"geonameid":2826328,"name":"Stöttwang","admin3":"09777","localeAltName":null},{"geonameid":2824787,"name":"Sulzberg","admin3":"09780","localeAltName":null},{"geonameid":2824379,"name":"Tagmersheim","admin3":"09779","localeAltName":null},{"geonameid":2824005,"name":"Tapfheim","admin3":"09779","localeAltName":null},{"geonameid":2822958,"name":"Thannhausen","admin3":"09774","localeAltName":null},{"geonameid":2822749,"name":"Thierhaupten","admin3":"09772","localeAltName":null},{"geonameid":2821985,"name":"Todtenweis","admin3":"09771","localeAltName":null},{"geonameid":2820905,"name":"Trunkelsberg","admin3":"09778","localeAltName":null},{"geonameid":2820752,"name":"Türkheim","admin3":"09778","localeAltName":null},{"geonameid":2820716,"name":"Tussenhausen","admin3":"09778","localeAltName":null},{"geonameid":2820122,"name":"Ungerhausen","admin3":"09778","localeAltName":null},{"geonameid":2819782,"name":"Unteregg","admin3":"09778","localeAltName":null},{"geonameid":2819081,"name":"Untermeitingen","admin3":"09772","localeAltName":null},{"geonameid":2818818,"name":"Unterroth","admin3":"09775","localeAltName":null},{"geonameid":2818541,"name":"Unterthingau","admin3":"09777","localeAltName":null},{"geonameid":2818322,"name":"Untrasried","admin3":"09777","localeAltName":null},{"geonameid":2818170,"name":"Ursberg","admin3":"09774","localeAltName":null},{"geonameid":2818082,"name":"Ustersbach","admin3":"09772","localeAltName":null},{"geonameid":2817230,"name":"Villenbach","admin3":"09773","localeAltName":null},{"geonameid":2816761,"name":"Vöhringen","admin3":"09775","localeAltName":null},{"geonameid":2815803,"name":"Waal","admin3":"09777","localeAltName":null},{"geonameid":2815204,"name":"Wald","admin3":"09778","localeAltName":null},{"geonameid":2814776,"name":"Waldstetten","admin3":"09774","localeAltName":null},{"geonameid":2814718,"name":"Walkertshofen","admin3":"09772","localeAltName":null},{"geonameid":2814592,"name":"Wallerstein","admin3":"09779","localeAltName":null},{"geonameid":2814448,"name":"Waltenhausen","admin3":"09774","localeAltName":null},{"geonameid":2814445,"name":"Waltenhofen","admin3":"09780","localeAltName":null},{"geonameid":2813758,"name":"Wasserburg","admin3":"09774","localeAltName":null},{"geonameid":2813531,"name":"Wechingen","admin3":"09779","localeAltName":null},{"geonameid":2813209,"name":"Wehringen","admin3":"09772","localeAltName":null},{"geonameid":3205641,"name":"Weiler-Simmerberg","admin3":"09776","localeAltName":null},{"geonameid":2811879,"name":"Weißenhorn","admin3":"09775","localeAltName":null},{"geonameid":2811865,"name":"Weißensberg","admin3":"09776","localeAltName":null},{"geonameid":2811614,"name":"Weitnau","admin3":"09780","localeAltName":null},{"geonameid":2811570,"name":"Welden","admin3":"09772","localeAltName":null},{"geonameid":2811342,"name":"Wemding","admin3":"09779","localeAltName":null},{"geonameid":2810728,"name":"Wertach","admin3":"09780","localeAltName":null},{"geonameid":2810702,"name":"Wertingen","admin3":"09773","localeAltName":null},{"geonameid":2810531,"name":"Westendorf","admin3":"09772","localeAltName":null},{"geonameid":2810533,"name":"Westendorf","admin3":"09777","localeAltName":null},{"geonameid":2810337,"name":"Westerheim","admin3":"09778","localeAltName":null},{"geonameid":2809578,"name":"Wiedergeltingen","admin3":"09778","localeAltName":null},{"geonameid":2809065,"name":"Wiggensbach","admin3":"09780","localeAltName":null},{"geonameid":2808833,"name":"Wildpoldsried","admin3":"09780","localeAltName":null},{"geonameid":2807827,"name":"Winterbach","admin3":"09774","localeAltName":null},{"geonameid":2807718,"name":"Winterrieden","admin3":"09778","localeAltName":null},{"geonameid":2807254,"name":"Wittislingen","admin3":"09773","localeAltName":null},{"geonameid":2806847,"name":"Wolferstadt","admin3":"09779","localeAltName":null},{"geonameid":2806831,"name":"Wolfertschwenden","admin3":"09778","localeAltName":null},{"geonameid":2806173,"name":"Woringen","admin3":"09778","localeAltName":null},{"geonameid":2804313,"name":"Ziemetshausen","admin3":"09774","localeAltName":null},{"geonameid":2804283,"name":"Ziertheim","admin3":"09773","localeAltName":null},{"geonameid":2803874,"name":"Zöschingen","admin3":"09773","localeAltName":null},{"geonameid":2803667,"name":"Zusamaltheim","admin3":"09773","localeAltName":null},{"geonameid":2803655,"name":"Zusmarshausen","admin3":"09772","localeAltName":null}],"admin3":[{"geonameid":2803463,"name":"Landkreis Aichach-Friedberg","admin3":"09771","localeAltName":null},{"geonameid":2861443,"name":"Landkreis Oberallgäu","admin3":"09780","localeAltName":null},{"geonameid":2936260,"name":"Landkreis Donau-Ries","admin3":"09779","localeAltName":null},{"geonameid":2936975,"name":"Landkreis Dillingen an der Donau","admin3":"09773","localeAltName":null},{"geonameid":3220868,"name":"Kreisfreie Stadt Augsburg","admin3":"09761","localeAltName":null},{"geonameid":3220871,"name":"Landkreis Augsburg","admin3":"09772","localeAltName":null},{"geonameid":3220874,"name":"Landkreis Günzburg","admin3":"09774","localeAltName":null},{"geonameid":3220883,"name":"Kreisfreie Stadt Kaufbeuren","admin3":"09762","localeAltName":null},{"geonameid":3220884,"name":"Kreisfreie Stadt Kempten","admin3":"09763","localeAltName":null},{"geonameid":3220885,"name":"Landkreis Lindau","admin3":"09776","localeAltName":null},{"geonameid":3220886,"name":"Kreisfreie Stadt Memmingen","admin3":"09764","localeAltName":null},{"geonameid":3220887,"name":"Landkreis Neu-Ulm","admin3":"09775","localeAltName":null},{"geonameid":3220888,"name":"Landkreis Ostallgäu","admin3":"09777","localeAltName":null},{"geonameid":3220889,"name":"Landkreis Unterallgäu","admin3":"09778","localeAltName":null}],"alternateNames":[{"alternatenameId":1894550,"geonameid":2951839,"isoLanguage":"de","alternateName":"Bayern","isPreferredName":true,"isShortName":true,"isColloquial":false,"isHistoric":false},{"alternatenameId":1894551,"geonameid":2951839,"isoLanguage":"en","alternateName":"Bavaria","isPreferredName":true,"isShortName":true,"isColloquial":false,"isHistoric":false}]},"__N_SSG":true}