{"pageProps":{"locale":"en","admin2":{"geonameid":4682500,"name":"Collin County","country":"US","admin1":"TX","admin2":"085","admin3":"","latitude":"33.1879100","longitude":"-96.5723700","localeAltName":null},"admin1":{"geonameid":4736286,"name":"Texas","admin1":"TX","localeAltName":"Texas"},"locations":[{"geonameid":4670300,"name":"Allen","admin3":"","localeAltName":null},{"geonameid":4670871,"name":"Anna","admin3":"","localeAltName":null},{"geonameid":4675153,"name":"Blue Ridge","admin3":"","localeAltName":null},{"geonameid":4679944,"name":"Celina","admin3":"","localeAltName":null},{"geonameid":4689871,"name":"Fairview","admin3":"","localeAltName":null},{"geonameid":4690218,"name":"Farmersville","admin3":"","localeAltName":null},{"geonameid":4692559,"name":"Frisco","admin3":"","localeAltName":null},{"geonameid":4701650,"name":"Josephine","admin3":"","localeAltName":null},{"geonameid":4705584,"name":"Lavon","admin3":"","localeAltName":null},{"geonameid":4708236,"name":"Lowry Crossing","admin3":"","localeAltName":null},{"geonameid":4708255,"name":"Lucas","admin3":"","localeAltName":null},{"geonameid":4710178,"name":"McKinney","admin3":"","localeAltName":null},{"geonameid":4710574,"name":"Melissa","admin3":"","localeAltName":null},{"geonameid":4713507,"name":"Murphy","admin3":"","localeAltName":null},{"geonameid":4714062,"name":"Nevada","admin3":"","localeAltName":null},{"geonameid":4714257,"name":"New Hope","admin3":"","localeAltName":null},{"geonameid":4717624,"name":"Parker","admin3":"","localeAltName":null},{"geonameid":4719457,"name":"Plano","admin3":"","localeAltName":null},{"geonameid":4720743,"name":"Princeton","admin3":"","localeAltName":null},{"geonameid":4720833,"name":"Prosper","admin3":"","localeAltName":null},{"geonameid":4725484,"name":"Saint Paul","admin3":"","localeAltName":null},{"geonameid":4741209,"name":"Westminster","admin3":"","localeAltName":null},{"geonameid":4743275,"name":"Wylie","admin3":"","localeAltName":null}],"admin3":[{"geonameid":7172827,"name":"City of Celina","admin3":"7172827"},{"geonameid":7172910,"name":"City of Allen","admin3":"7172910"},{"geonameid":7172934,"name":"City of Anna","admin3":"7172934"},{"geonameid":7173038,"name":"City of Blue Ridge","admin3":"7173038"},{"geonameid":7173177,"name":"City of Josephine","admin3":"7173177"},{"geonameid":7173416,"name":"City of Farmersville","admin3":"7173416"},{"geonameid":7173459,"name":"City of Frisco","admin3":"7173459"},{"geonameid":7173711,"name":"City of Lowry Crossing","admin3":"7173711"},{"geonameid":7173712,"name":"City of Lucas","admin3":"7173712"},{"geonameid":7173832,"name":"City of McKinney","admin3":"7173832"},{"geonameid":7173839,"name":"City of Melissa","admin3":"7173839"},{"geonameid":7173918,"name":"City of Murphy","admin3":"7173918"},{"geonameid":7173938,"name":"City of Nevada","admin3":"7173938"},{"geonameid":7174052,"name":"City of Parker","admin3":"7174052"},{"geonameid":7174098,"name":"City of Plano","admin3":"7174098"},{"geonameid":7174138,"name":"City of Princeton","admin3":"7174138"},{"geonameid":7174245,"name":"City of Lavon","admin3":"7174245"},{"geonameid":7174694,"name":"City of Weston","admin3":"7174694"},{"geonameid":7174743,"name":"City of Wylie","admin3":"7174743"},{"geonameid":7174930,"name":"Town of Prosper","admin3":"7174930"},{"geonameid":7175013,"name":"Town of Saint Paul","admin3":"7175013"},{"geonameid":7175033,"name":"Town of Fairview","admin3":"7175033"},{"geonameid":7175453,"name":"Town of New Hope","admin3":"7175453"}],"alternateNames":[{"alternatenameId":1614423,"geonameid":4736286,"isoLanguage":"en","alternateName":"Texas","isPreferredName":true,"isShortName":true,"isColloquial":false,"isHistoric":false}]},"__N_SSG":true}