{"pageProps":{"locale":"en","admin2":{"geonameid":4683477,"name":"Coryell County","country":"US","admin1":"TX","admin2":"099","admin3":"","latitude":"31.3909100","longitude":"-97.7992000","localeAltName":null},"admin1":{"geonameid":4736286,"name":"Texas","admin1":"TX","localeAltName":"Texas"},"locations":[{"geonameid":4670666,"name":"Ames","admin3":"","localeAltName":null},{"geonameid":4683244,"name":"Copperas Cove","admin3":"","localeAltName":null},{"geonameid":4691873,"name":"Fort Gates","admin3":"","localeAltName":null},{"geonameid":4693150,"name":"Gatesville","admin3":"","localeAltName":null}],"admin3":[{"geonameid":7174005,"name":"City of Oglesby","admin3":"7174005"},{"geonameid":7175023,"name":"Town of Evant","admin3":"7175023"},{"geonameid":7175709,"name":"Town of South Mountain","admin3":"7175709"},{"geonameid":11788697,"name":"City of Copperas Cove","admin3":"11788697"},{"geonameid":11789051,"name":"City of Gatesville","admin3":"11789051"}],"alternateNames":[{"alternatenameId":1614423,"geonameid":4736286,"isoLanguage":"en","alternateName":"Texas","isPreferredName":true,"isShortName":true,"isColloquial":false,"isHistoric":false}]},"__N_SSG":true}