{"pageProps":{"locale":"en","admin2":{"geonameid":4735638,"name":"Tarrant County","country":"US","admin1":"TX","admin2":"439","admin3":"","latitude":"32.7715600","longitude":"-97.2912400","localeAltName":null},"admin1":{"geonameid":4736286,"name":"Texas","admin1":"TX","localeAltName":"Texas"},"locations":[{"geonameid":4671240,"name":"Arlington","admin3":"","localeAltName":null},{"geonameid":4671800,"name":"Azle","admin3":"","localeAltName":null},{"geonameid":4673094,"name":"Bedford","admin3":"","localeAltName":null},{"geonameid":4673482,"name":"Benbrook","admin3":"","localeAltName":null},{"geonameid":4675146,"name":"Blue Mound","admin3":"","localeAltName":null},{"geonameid":4682478,"name":"Colleyville","admin3":"","localeAltName":null},{"geonameid":4684434,"name":"Crowley","admin3":"","localeAltName":null},{"geonameid":4684955,"name":"Dalworthington Gardens","admin3":"","localeAltName":null},{"geonameid":4687588,"name":"Eagle Mountain","admin3":"","localeAltName":null},{"geonameid":4688248,"name":"Edgecliff Village","admin3":"","localeAltName":null},{"geonameid":4689550,"name":"Euless","admin3":"","localeAltName":null},{"geonameid":4689708,"name":"Everman","admin3":"","localeAltName":null},{"geonameid":4691766,"name":"Forest Hill","admin3":"","localeAltName":null},{"geonameid":4691930,"name":"Fort Worth","admin3":"","localeAltName":null},{"geonameid":4694568,"name":"Grapevine","admin3":"","localeAltName":null},{"geonameid":4695912,"name":"Haltom City","admin3":"","localeAltName":null},{"geonameid":4696605,"name":"Haslet","admin3":"","localeAltName":null},{"geonameid":4699575,"name":"Hurst","admin3":"","localeAltName":null},{"geonameid":4702828,"name":"Keller","admin3":"","localeAltName":null},{"geonameid":4702986,"name":"Kennedale","admin3":"","localeAltName":null},{"geonameid":4704931,"name":"Lake Worth","admin3":"","localeAltName":null},{"geonameid":4704970,"name":"Lakeside","admin3":"","localeAltName":null},{"geonameid":4709013,"name":"Mansfield","admin3":"","localeAltName":null},{"geonameid":4715292,"name":"North Richland Hills","admin3":"","localeAltName":null},{"geonameid":4717448,"name":"Pantego","admin3":"","localeAltName":null},{"geonameid":4718153,"name":"Pecan Acres","admin3":"","localeAltName":null},{"geonameid":4718330,"name":"Pelican Bay","admin3":"","localeAltName":null},{"geonameid":4722231,"name":"Rendon","admin3":"","localeAltName":null},{"geonameid":4722668,"name":"Richland Hills","admin3":"","localeAltName":null},{"geonameid":4722925,"name":"River Oaks","admin3":"","localeAltName":null},{"geonameid":4724642,"name":"Saginaw","admin3":"","localeAltName":null},{"geonameid":4726971,"name":"Sansom Park","admin3":"","localeAltName":null},{"geonameid":4733313,"name":"Southlake","admin3":"","localeAltName":null},{"geonameid":4740214,"name":"Watauga","admin3":"","localeAltName":null},{"geonameid":4741196,"name":"Westlake","admin3":"","localeAltName":null},{"geonameid":4741231,"name":"Westover Hills","admin3":"","localeAltName":null},{"geonameid":4741304,"name":"Westworth","admin3":"","localeAltName":null},{"geonameid":4741616,"name":"White Settlement","admin3":"","localeAltName":null}],"admin3":[{"geonameid":7172949,"name":"City of Arlington","admin3":"7172949"},{"geonameid":7172998,"name":"City of Bedford","admin3":"7172998"},{"geonameid":7173012,"name":"City of Benbrook","admin3":"7173012"},{"geonameid":7173037,"name":"City of Blue Mound","admin3":"7173037"},{"geonameid":7173128,"name":"City of Hurst","admin3":"7173128"},{"geonameid":7173191,"name":"City of Keller","admin3":"7173191"},{"geonameid":7173201,"name":"City of Kennedale","admin3":"7173201"},{"geonameid":7173265,"name":"City of Crowley","admin3":"7173265"},{"geonameid":7173276,"name":"City of Dalworthington Gardens","admin3":"7173276"},{"geonameid":7173401,"name":"City of Euless","admin3":"7173401"},{"geonameid":7173408,"name":"City of Everman","admin3":"7173408"},{"geonameid":7173439,"name":"City of Forest Hill","admin3":"7173439"},{"geonameid":7173540,"name":"City of Grapevine","admin3":"7173540"},{"geonameid":7173586,"name":"City of Haslet","admin3":"7173586"},{"geonameid":7173762,"name":"City of River Oaks","admin3":"7173762"},{"geonameid":7174071,"name":"City of Pelican Bay","admin3":"7174071"},{"geonameid":7174225,"name":"City of Lake Worth","admin3":"7174225"},{"geonameid":7174356,"name":"City of Saginaw","admin3":"7174356"},{"geonameid":7174380,"name":"City of Sansom Park","admin3":"7174380"},{"geonameid":7174475,"name":"City of Southlake","admin3":"7174475"},{"geonameid":7174655,"name":"City of Watauga","admin3":"7174655"},{"geonameid":7174696,"name":"City of Westworth Village","admin3":"7174696"},{"geonameid":7174887,"name":"Town of Edgecliff Village","admin3":"7174887"},{"geonameid":7175278,"name":"Town of Lakeside","admin3":"7175278"},{"geonameid":7175513,"name":"Town of Pantego","admin3":"7175513"},{"geonameid":7175870,"name":"Town of Westlake","admin3":"7175870"},{"geonameid":7175871,"name":"Town of Westover Hills","admin3":"7175871"},{"geonameid":11788658,"name":"City of Azle","admin3":"11788658"},{"geonameid":11788686,"name":"City of Fort Worth","admin3":"11788686"},{"geonameid":11788717,"name":"City of White Settlement","admin3":"11788717"},{"geonameid":11788848,"name":"City of North Richland Hills","admin3":"11788848"},{"geonameid":11788853,"name":"City of Mansfield","admin3":"11788853"},{"geonameid":11788870,"name":"City of Richland Hills","admin3":"11788870"},{"geonameid":11788902,"name":"City of Haltom City","admin3":"11788902"},{"geonameid":11788988,"name":"City of Colleyville","admin3":"11788988"}],"alternateNames":[{"alternatenameId":1614423,"geonameid":4736286,"isoLanguage":"en","alternateName":"Texas","isPreferredName":true,"isShortName":true,"isColloquial":false,"isHistoric":false}]},"__N_SSG":true}