{"pageProps":{"locale":"en","admin2":{"geonameid":4738216,"name":"Tyler County","country":"US","admin1":"TX","admin2":"457","admin3":"","latitude":"30.7712300","longitude":"-94.3765900","localeAltName":null},"admin1":{"geonameid":4736286,"name":"Texas","admin1":"TX","localeAltName":"Texas"},"locations":[{"geonameid":4682548,"name":"Colmesneil","admin3":"","localeAltName":null},{"geonameid":4740096,"name":"Warren","admin3":"","localeAltName":null},{"geonameid":4743079,"name":"Woodville","admin3":"","localeAltName":null}],"admin3":[{"geonameid":7173211,"name":"City of Colmesneil","admin3":"7173211"},{"geonameid":7175598,"name":"Town of Chester","admin3":"7175598"},{"geonameid":7175907,"name":"Town of Woodville","admin3":"7175907"},{"geonameid":11788661,"name":"City of Ivanhoe North","admin3":"11788661"},{"geonameid":11788726,"name":"City of Ivanhoe","admin3":"11788726"}],"alternateNames":[{"alternatenameId":1614423,"geonameid":4736286,"isoLanguage":"en","alternateName":"Texas","isPreferredName":true,"isShortName":true,"isColloquial":false,"isHistoric":false}]},"__N_SSG":true}