{"pageProps":{"locale":"it","admin2":{"geonameid":2525447,"name":"Provincia di Caltanissetta","country":"IT","admin1":"15","admin2":"CL","admin3":"","latitude":"37.3744800","longitude":"14.0642100","localeAltName":"Caltanissetta"},"admin1":{"geonameid":2523119,"name":"Sicilia","admin1":"15","localeAltName":null},"locations":[{"geonameid":2525774,"name":"Acquaviva Platani","admin3":"085001","localeAltName":null},{"geonameid":2525535,"name":"Bompensiere","admin3":"085002","localeAltName":null},{"geonameid":2525480,"name":"Butera","admin3":"085003","localeAltName":null},{"geonameid":2525448,"name":"Caltanissetta","admin3":"085004","localeAltName":null},{"geonameid":2525421,"name":"Campofranco","admin3":"085005","localeAltName":null},{"geonameid":2524862,"name":"Delia","admin3":"085006","localeAltName":null},{"geonameid":2524653,"name":"Gela","admin3":"085007","localeAltName":null},{"geonameid":2524275,"name":"Marianopoli","admin3":"085008","localeAltName":null},{"geonameid":2524200,"name":"Mazzarino","admin3":"085009","localeAltName":null},{"geonameid":2524152,"name":"Milena","admin3":"085010","localeAltName":null},{"geonameid":2524071,"name":"Montedoro","admin3":"085011","localeAltName":null},{"geonameid":2524028,"name":"Mussomeli","admin3":"085012","localeAltName":null},{"geonameid":2524006,"name":"Niscemi","admin3":"085013","localeAltName":null},{"geonameid":2523622,"name":"Resuttano","admin3":"085014","localeAltName":null},{"geonameid":2523616,"name":"Riesi","admin3":"085015","localeAltName":null},{"geonameid":2523513,"name":"San Cataldo","admin3":"085016","localeAltName":null},{"geonameid":2523366,"name":"Santa Caterina Villarmosa","admin3":"085017","localeAltName":null},{"geonameid":2523151,"name":"Serradifalco","admin3":"085018","localeAltName":null},{"geonameid":2523056,"name":"Sommatino","admin3":"085019","localeAltName":null},{"geonameid":2522980,"name":"Sutera","admin3":"085020","localeAltName":null},{"geonameid":2522801,"name":"Vallelunga Pratameno","admin3":"085021","localeAltName":null},{"geonameid":2522750,"name":"Villalba","admin3":"085022","localeAltName":null}],"admin3":[{"geonameid":6537786,"name":"Acquaviva Platani","admin3":"085001","localeAltName":null},{"geonameid":6537787,"name":"Butera","admin3":"085003","localeAltName":null},{"geonameid":6537788,"name":"Milena","admin3":"085010","localeAltName":null},{"geonameid":6537789,"name":"Montedoro","admin3":"085011","localeAltName":null},{"geonameid":6537790,"name":"Mussomeli","admin3":"085012","localeAltName":null},{"geonameid":6537791,"name":"Resuttano","admin3":"085014","localeAltName":null},{"geonameid":6537792,"name":"Serradifalco","admin3":"085018","localeAltName":null},{"geonameid":6539177,"name":"Bompensiere","admin3":"085002","localeAltName":null},{"geonameid":6539178,"name":"Marianopoli","admin3":"085008","localeAltName":null},{"geonameid":6539179,"name":"Mazzarino","admin3":"085009","localeAltName":null},{"geonameid":6539180,"name":"Niscemi","admin3":"085013","localeAltName":null},{"geonameid":6539181,"name":"Riesi","admin3":"085015","localeAltName":null},{"geonameid":6539182,"name":"Santa Caterina Villarmosa","admin3":"085017","localeAltName":null},{"geonameid":6539183,"name":"Sutera","admin3":"085020","localeAltName":null},{"geonameid":6539184,"name":"Vallelunga Pratameno","admin3":"085021","localeAltName":null},{"geonameid":6540845,"name":"Delia","admin3":"085006","localeAltName":null},{"geonameid":6540846,"name":"Sommatino","admin3":"085019","localeAltName":null},{"geonameid":6540847,"name":"Villalba","admin3":"085022","localeAltName":null},{"geonameid":6541344,"name":"Campofranco","admin3":"085005","localeAltName":null},{"geonameid":6541345,"name":"San Cataldo","admin3":"085016","localeAltName":null},{"geonameid":6541861,"name":"Caltanissetta","admin3":"085004","localeAltName":null},{"geonameid":6541964,"name":"Gela","admin3":"085007","localeAltName":null}],"alternateNames":[{"alternatenameId":1980456,"geonameid":2523119,"isoLanguage":"en","alternateName":"Sicily","isPreferredName":true,"isShortName":true,"isColloquial":false,"isHistoric":false},{"alternatenameId":1183731,"geonameid":2525447,"isoLanguage":"it","alternateName":"Caltanissetta","isPreferredName":true,"isShortName":true,"isColloquial":false,"isHistoric":false}]},"__N_SSG":true}