{"pageProps":{"locale":"it","admin2":{"geonameid":2522875,"name":"Trapani","country":"IT","admin1":"15","admin2":"TP","admin3":"","latitude":"37.8333300","longitude":"12.6666700","localeAltName":"Trapani"},"admin1":{"geonameid":2523119,"name":"Sicilia","admin1":"15","localeAltName":null},"locations":[{"geonameid":2525755,"name":"Alcamo","admin3":"081001","localeAltName":null},{"geonameid":6535661,"name":"Buseto Palizzolo","admin3":"081002","localeAltName":null},{"geonameid":2525458,"name":"Calatafimi","admin3":"081003","localeAltName":null},{"geonameid":2525425,"name":"Campobello di Mazara","admin3":"081004","localeAltName":null},{"geonameid":8948706,"name":"Casa Santa","admin3":"081008","localeAltName":null},{"geonameid":2525095,"name":"Castellammare del Golfo","admin3":"081005","localeAltName":null},{"geonameid":2525086,"name":"Castelluzzo","admin3":"081020","localeAltName":null},{"geonameid":2525083,"name":"Castelvetrano","admin3":"081006","localeAltName":null},{"geonameid":2525006,"name":"Chiesanuova","admin3":"081022","localeAltName":null},{"geonameid":2524994,"name":"Ciavolo","admin3":"081011","localeAltName":null},{"geonameid":2524885,"name":"Crocevie","admin3":"081022","localeAltName":null},{"geonameid":2524870,"name":"Custonaci","admin3":"081007","localeAltName":null},{"geonameid":2524815,"name":"Erice","admin3":"081008","localeAltName":null},{"geonameid":2524780,"name":"Favignana","admin3":"081009","localeAltName":null},{"geonameid":6544059,"name":"Fulgatore-Torretta","admin3":"081021","localeAltName":null},{"geonameid":2524552,"name":"Guarrato","admin3":"081021","localeAltName":null},{"geonameid":2524488,"name":"Kamma","admin3":"081014","localeAltName":null},{"geonameid":2524354,"name":"Locogrande","admin3":"081021","localeAltName":null},{"geonameid":2524286,"name":"Marausa","admin3":"081021","localeAltName":null},{"geonameid":2524279,"name":"Marettimo","admin3":"081009","localeAltName":null},{"geonameid":2524256,"name":"Marinella","admin3":"081006","localeAltName":null},{"geonameid":2524245,"name":"Marsala","admin3":"081011","localeAltName":null},{"geonameid":2524205,"name":"Mazara del Vallo","admin3":"081012","localeAltName":null},{"geonameid":8949244,"name":"Mazara II","admin3":"081012","localeAltName":null},{"geonameid":2524025,"name":"Napola","admin3":"081008","localeAltName":null},{"geonameid":8950000,"name":"Nubia","admin3":"081013","localeAltName":null},{"geonameid":2524614,"name":"Nuova Gibellina","admin3":"081010","localeAltName":null},{"geonameid":2523747,"name":"Nuovo Centro Urbano Poggioreale","admin3":"081016","localeAltName":null},{"geonameid":2523942,"name":"Paceco","admin3":"081013","localeAltName":null},{"geonameid":8949802,"name":"Palma","admin3":"081021","localeAltName":null},{"geonameid":2523890,"name":"Pantelleria","admin3":"081014","localeAltName":null},{"geonameid":2523872,"name":"Partanna","admin3":"081015","localeAltName":null},{"geonameid":2523816,"name":"Petrosino","admin3":"081024","localeAltName":null},{"geonameid":2523759,"name":"Pizzolungo","admin3":"081008","localeAltName":null},{"geonameid":8949634,"name":"Rigaletta","admin3":"081008","localeAltName":null},{"geonameid":8948909,"name":"Rilievo","admin3":"081021","localeAltName":null},{"geonameid":2523558,"name":"Salaparuta","admin3":"081017","localeAltName":null},{"geonameid":2523557,"name":"Salemi","admin3":"081018","localeAltName":null},{"geonameid":8949514,"name":"Salinagrande","admin3":"081021","localeAltName":null},{"geonameid":2522830,"name":"San Ciro-Ulmi-Filci","admin3":"081018","localeAltName":null},{"geonameid":2523238,"name":"San Vito Lo Capo","admin3":"081020","localeAltName":null},{"geonameid":6621376,"name":"Sant'Andrea Bonagia","admin3":"081022","localeAltName":null},{"geonameid":2523304,"name":"Santa Ninfa","admin3":"081019","localeAltName":null},{"geonameid":8949064,"name":"Sasi","admin3":"081003","localeAltName":null},{"geonameid":8949504,"name":"Scauri","admin3":"081014","localeAltName":null},{"geonameid":8949430,"name":"Tonnara di Bonagia","admin3":"081022","localeAltName":null},{"geonameid":2522876,"name":"Trapani","admin3":"081021","localeAltName":null},{"geonameid":8581480,"name":"Tre Fontane","admin3":"081004","localeAltName":null},{"geonameid":7290479,"name":"Triscina","admin3":"081006","localeAltName":null},{"geonameid":6534274,"name":"Valderice","admin3":"081022","localeAltName":null},{"geonameid":2522718,"name":"Vita","admin3":"081023","localeAltName":null}],"admin3":[{"geonameid":2522808,"name":"Valderice","admin3":"081022","localeAltName":null},{"geonameid":6535960,"name":"Calatafimi-Segesta","admin3":"081003","localeAltName":null},{"geonameid":6537729,"name":"Custonaci","admin3":"081007","localeAltName":null},{"geonameid":6537730,"name":"Paceco","admin3":"081013","localeAltName":null},{"geonameid":6537731,"name":"Salemi","admin3":"081018","localeAltName":null},{"geonameid":6537732,"name":"Santa Ninfa","admin3":"081019","localeAltName":null},{"geonameid":6539109,"name":"Campobello di Mazara","admin3":"081004","localeAltName":null},{"geonameid":6539110,"name":"Castellammare del Golfo","admin3":"081005","localeAltName":null},{"geonameid":6539111,"name":"Castelvetrano","admin3":"081006","localeAltName":null},{"geonameid":6539112,"name":"Erice","admin3":"081008","localeAltName":null},{"geonameid":6539113,"name":"Favignana","admin3":"081009","localeAltName":null},{"geonameid":6539114,"name":"Pantelleria","admin3":"081014","localeAltName":null},{"geonameid":6539115,"name":"Vita","admin3":"081023","localeAltName":null},{"geonameid":6540821,"name":"Partanna","admin3":"081015","localeAltName":null},{"geonameid":6540822,"name":"San Vito Lo Capo","admin3":"081020","localeAltName":null},{"geonameid":6541759,"name":"Mazara del Vallo","admin3":"081012","localeAltName":null},{"geonameid":6541958,"name":"Alcamo","admin3":"081001","localeAltName":null},{"geonameid":6541959,"name":"Petrosino","admin3":"081024","localeAltName":null},{"geonameid":6542036,"name":"Poggioreale","admin3":"081016","localeAltName":null},{"geonameid":6542069,"name":"Salaparuta","admin3":"081017","localeAltName":null},{"geonameid":6542135,"name":"Gibellina","admin3":"081010","localeAltName":null},{"geonameid":6542148,"name":"Marsala","admin3":"081011","localeAltName":null},{"geonameid":6542155,"name":"Trapani","admin3":"081021","localeAltName":null},{"geonameid":6543640,"name":"Buseto Palizzolo","admin3":"081002","localeAltName":null}],"alternateNames":[{"alternatenameId":1182583,"geonameid":2522875,"isoLanguage":"it","alternateName":"Trapani","isPreferredName":true,"isShortName":true,"isColloquial":false,"isHistoric":false},{"alternatenameId":1980456,"geonameid":2523119,"isoLanguage":"en","alternateName":"Sicily","isPreferredName":true,"isShortName":true,"isColloquial":false,"isHistoric":false}]},"__N_SSG":true}