{"pageProps":{"locale":"en","admin2":{"geonameid":5248507,"name":"Chippewa County","country":"US","admin1":"WI","admin2":"017","admin3":"","latitude":"45.0694000","longitude":"-91.2798900"},"admin1":{"geonameid":5279468,"name":"Wisconsin","admin1":"WI","localeAltName":"Wisconsin"},"locations":[{"geonameid":5246228,"name":"Bloomer","admin3":"08225"},{"geonameid":5247387,"name":"Cadott","admin3":""},{"geonameid":5248511,"name":"Chippewa Falls","admin3":"14575"},{"geonameid":5249461,"name":"Cornell","admin3":"17100"},{"geonameid":5259182,"name":"Lake Hallie","admin3":"41525"},{"geonameid":5259317,"name":"Lake Wissota","admin3":"40900"},{"geonameid":5274473,"name":"Stanley","admin3":"76625"}],"admin3":[{"geonameid":5244005,"name":"Town of Anson","admin3":"02175"},{"geonameid":5244209,"name":"Town of Arthur","admin3":"03075"},{"geonameid":5244353,"name":"Town of Auburn","admin3":"03725"},{"geonameid":5245936,"name":"Town of Birch Creek","admin3":"07525"},{"geonameid":5246237,"name":"City of Bloomer","admin3":"08225"},{"geonameid":5246238,"name":"Town of Bloomer","admin3":"08250"},{"geonameid":5246577,"name":"Village of Boyd","admin3":"09075"},{"geonameid":5247390,"name":"Village of Cadott","admin3":"11750"},{"geonameid":5248519,"name":"City of Chippewa Falls","admin3":"14575"},{"geonameid":5248948,"name":"Town of Cleveland","admin3":"15350"},{"geonameid":5249094,"name":"Town of Colburn","admin3":"16125"},{"geonameid":5249355,"name":"Town of Cooks Valley","admin3":"16800"},{"geonameid":5249470,"name":"City of Cornell","admin3":"17100"},{"geonameid":5250446,"name":"Town of Delmar","admin3":"19625"},{"geonameid":5251167,"name":"Town of Eagle Point","admin3":"21600"},{"geonameid":5251575,"name":"Town of Edson","admin3":"22750"},{"geonameid":5252114,"name":"Town of Estella","admin3":"24375"},{"geonameid":5254469,"name":"Town of Goetz","admin3":"29700"},{"geonameid":5255367,"name":"Town of Hallie","admin3":"32125"},{"geonameid":5257037,"name":"Town of Howard","admin3":"36000"},{"geonameid":5259065,"name":"Town of Lafayette","admin3":"40900"},{"geonameid":5259189,"name":"Town of Lake Holcombe","admin3":"41550"},{"geonameid":5264380,"name":"Village of New Auburn","admin3":"56350"},{"geonameid":5269703,"name":"Town of Ruby","admin3":"69975"},{"geonameid":5272062,"name":"Town of Sampson","admin3":"71275"},{"geonameid":5273144,"name":"Town of Sigel","admin3":"73875"},{"geonameid":5274487,"name":"City of Stanley","admin3":"76625"},{"geonameid":5275793,"name":"Town of Tilden","admin3":"79875"},{"geonameid":5278749,"name":"Town of Wheaton","admin3":"86537"},{"geonameid":5279661,"name":"Town of Woodmohr","admin3":"88875"},{"geonameid":7316028,"name":"Village of Lake Hallie","admin3":"41525"}],"alternateNames":[{"alternatenameId":2089565,"geonameid":5279468,"isoLanguage":"en","alternateName":"Wisconsin","isPreferredName":true,"isShortName":true,"isColloquial":false,"isHistoric":false}]},"__N_SSG":true}