{"pageProps":{"locale":"en","admin2":{"geonameid":5250710,"name":"Dodge County","country":"US","admin1":"WI","admin2":"027","admin3":"","latitude":"43.4163000","longitude":"-88.7075200"},"admin1":{"geonameid":5279468,"name":"Wisconsin","admin1":"WI","localeAltName":"Wisconsin"},"locations":[{"geonameid":5245193,"name":"Beaver Dam","admin3":"05900"},{"geonameid":5253638,"name":"Fox Lake","admin3":"27000"},{"geonameid":5256908,"name":"Horicon","admin3":"35750"},{"geonameid":5257183,"name":"Hustisford","admin3":"36625"},{"geonameid":5258190,"name":"Juneau","admin3":"38675"},{"geonameid":5260732,"name":"Lomira","admin3":"45475"},{"geonameid":5262137,"name":"Mayville","admin3":"50200"},{"geonameid":5268354,"name":"Randolph","admin3":"66150"},{"geonameid":5275589,"name":"Theresa","admin3":"79375"},{"geonameid":5278106,"name":"Waupun","admin3":"84425"}],"admin3":[{"geonameid":5244270,"name":"Town of Ashippun","admin3":"03200"},{"geonameid":5245211,"name":"City of Beaver Dam","admin3":"05900"},{"geonameid":5245212,"name":"Town of Beaver Dam","admin3":"05925"},{"geonameid":5246945,"name":"Village of Brownsville","admin3":"10450"},{"geonameid":5247239,"name":"Town of Burnett","admin3":"11275"},{"geonameid":5247526,"name":"Town of Calamus","admin3":"11850"},{"geonameid":5248415,"name":"Town of Chester","admin3":"14300"},{"geonameid":5249054,"name":"Town of Clyman","admin3":"15925"},{"geonameid":5249055,"name":"Village of Clyman","admin3":"15900"},{"geonameid":5251636,"name":"Town of Elba","admin3":"23000"},{"geonameid":5251979,"name":"Town of Emmet","admin3":"24000"},{"geonameid":5253656,"name":"City of Fox Lake","admin3":"27000"},{"geonameid":5253657,"name":"Town of Fox Lake","admin3":"27025"},{"geonameid":5256085,"name":"Town of Herman","admin3":"34000"},{"geonameid":5256920,"name":"City of Horicon","admin3":"35750"},{"geonameid":5257073,"name":"Town of Hubbard","admin3":"36100"},{"geonameid":5257186,"name":"Town of Hustisford","admin3":"36650"},{"geonameid":5257187,"name":"Village of Hustisford","admin3":"36625"},{"geonameid":5257549,"name":"Village of Iron Ridge","admin3":"37150"},{"geonameid":5258202,"name":"City of Juneau","admin3":"38675"},{"geonameid":5258314,"name":"Village of Kekoskee","admin3":"38900"},{"geonameid":5259671,"name":"Town of Lebanon","admin3":"43050"},{"geonameid":5260735,"name":"Town of Lomira","admin3":"45500"},{"geonameid":5260736,"name":"Village of Lomira","admin3":"45475"},{"geonameid":5261095,"name":"Town of Lowell","admin3":"45975"},{"geonameid":5261096,"name":"Village of Lowell","admin3":"45950"},{"geonameid":5262145,"name":"City of Mayville","admin3":"50200"},{"geonameid":5264319,"name":"Village of Neosho","admin3":"56075"},{"geonameid":5265288,"name":"Town of Oak Grove","admin3":"59000"},{"geonameid":5267825,"name":"Town of Portland","admin3":"64375"},{"geonameid":5268366,"name":"Village of Randolph","admin3":"66150"},{"geonameid":5268593,"name":"Village of Reeseville","admin3":"66900"},{"geonameid":5269708,"name":"Town of Rubicon","admin3":"69962"},{"geonameid":5273037,"name":"Town of Shields","admin3":"73575"},{"geonameid":5275594,"name":"Town of Theresa","admin3":"79425"},{"geonameid":5275595,"name":"Village of Theresa","admin3":"79375"},{"geonameid":5276107,"name":"Town of Trenton","admin3":"80525"},{"geonameid":5278118,"name":"City of Waupun","admin3":"84425"},{"geonameid":5278682,"name":"Town of Westford","admin3":"85650"},{"geonameid":5279121,"name":"Town of Williamstown","admin3":"87225"}],"alternateNames":[{"alternatenameId":2089565,"geonameid":5279468,"isoLanguage":"en","alternateName":"Wisconsin","isPreferredName":true,"isShortName":true,"isColloquial":false,"isHistoric":false}]},"__N_SSG":true}