{"pageProps":{"locale":"en","admin2":{"geonameid":5253356,"name":"Fond du Lac County","country":"US","admin1":"WI","admin2":"039","admin3":"","latitude":"43.7535900","longitude":"-88.4882600"},"admin1":{"geonameid":5279468,"name":"Wisconsin","admin1":"WI","localeAltName":"Wisconsin"},"locations":[{"geonameid":5243811,"name":"Alto","admin3":"01525"},{"geonameid":5244238,"name":"Ashford","admin3":"03150"},{"geonameid":5247758,"name":"Campbellsport","admin3":"12325"},{"geonameid":5251662,"name":"Eldorado","admin3":"23150"},{"geonameid":5253352,"name":"Fond du Lac","admin3":"26275"},{"geonameid":5259424,"name":"Lamartine","admin3":"42125"},{"geonameid":5264814,"name":"North Fond du Lac","admin3":"58000"},{"geonameid":5265404,"name":"Oakfield","admin3":"58900"},{"geonameid":5268955,"name":"Ripon","admin3":"68175"},{"geonameid":5269539,"name":"Rosendale","admin3":"69525"},{"geonameid":5271704,"name":"Saint Peter","admin3":"79125"}],"admin3":[{"geonameid":5243814,"name":"Town of Alto","admin3":"01525"},{"geonameid":5244240,"name":"Town of Ashford","admin3":"03150"},{"geonameid":5244354,"name":"Town of Auburn","admin3":"03750"},{"geonameid":5246641,"name":"Village of Brandon","admin3":"09300"},{"geonameid":5247367,"name":"Town of Byron","admin3":"11600"},{"geonameid":5247451,"name":"Town of Calumet","admin3":"12075"},{"geonameid":5247767,"name":"Village of Campbellsport","admin3":"12325"},{"geonameid":5251517,"name":"Town of Eden","admin3":"22500"},{"geonameid":5251519,"name":"Village of Eden","admin3":"22475"},{"geonameid":5251665,"name":"Town of Eldorado","admin3":"23150"},{"geonameid":5251992,"name":"Town of Empire","admin3":"24050"},{"geonameid":5252399,"name":"Village of Fairwater","admin3":"25075"},{"geonameid":5253368,"name":"Town of Fond du Lac","admin3":"26300"},{"geonameid":5253384,"name":"City of Fond du Lac","admin3":"26275"},{"geonameid":5253476,"name":"Town of Forest","admin3":"26450"},{"geonameid":5253899,"name":"Town of Friendship","admin3":"27975"},{"geonameid":5259427,"name":"Town of Lamartine","admin3":"42125"},{"geonameid":5261980,"name":"Town of Marshfield","admin3":"49650"},{"geonameid":5262737,"name":"Town of Metomen","admin3":"51450"},{"geonameid":5263645,"name":"Village of Mount Calvary","admin3":"54650"},{"geonameid":5264816,"name":"Village of North Fond du Lac","admin3":"58000"},{"geonameid":5265409,"name":"Town of Oakfield","admin3":"58925"},{"geonameid":5265410,"name":"Village of Oakfield","admin3":"58900"},{"geonameid":5265832,"name":"Town of Osceola","admin3":"60425"},{"geonameid":5268969,"name":"City of Ripon","admin3":"68175"},{"geonameid":5268970,"name":"Town of Ripon","admin3":"68200"},{"geonameid":5269546,"name":"Town of Rosendale","admin3":"69550"},{"geonameid":5269547,"name":"Village of Rosendale","admin3":"69525"},{"geonameid":5270190,"name":"Village of Saint Cloud","admin3":"70500"},{"geonameid":5274352,"name":"Town of Springvale","admin3":"76250"},{"geonameid":5275457,"name":"Town of Taycheedah","admin3":"79125"},{"geonameid":5278119,"name":"Town of Waupun","admin3":"84450"}],"alternateNames":[{"alternatenameId":2089565,"geonameid":5279468,"isoLanguage":"en","alternateName":"Wisconsin","isPreferredName":true,"isShortName":true,"isColloquial":false,"isHistoric":false}]},"__N_SSG":true}