{"pageProps":{"locale":"en","admin2":{"geonameid":5259061,"name":"Lafayette County","country":"US","admin1":"WI","admin2":"065","admin3":"","latitude":"42.6605000","longitude":"-90.1317200"},"admin1":{"geonameid":5279468,"name":"Wisconsin","admin1":"WI","localeAltName":"Wisconsin"},"locations":[{"geonameid":5250121,"name":"Darlington","admin3":"18875"},{"geonameid":5273110,"name":"Shullsburg","admin3":"73825"}],"admin3":[{"geonameid":5244141,"name":"Town of Argyle","admin3":"02675"},{"geonameid":5244142,"name":"Village of Argyle","admin3":"02650"},{"geonameid":5245384,"name":"Town of Belmont","admin3":"06450"},{"geonameid":5245386,"name":"Village of Belmont","admin3":"06425"},{"geonameid":5245465,"name":"Town of Benton","admin3":"06850"},{"geonameid":5245466,"name":"Village of Benton","admin3":"06825"},{"geonameid":5246194,"name":"Town of Blanchard","admin3":"08100"},{"geonameid":5246199,"name":"Village of Blanchardville","admin3":"08125"},{"geonameid":5250118,"name":"City of Darlington","admin3":"18875"},{"geonameid":5250119,"name":"Town of Darlington","admin3":"18900"},{"geonameid":5251710,"name":"Town of Elk Grove","admin3":"23262"},{"geonameid":5252582,"name":"Town of Fayette","admin3":"25475"},{"geonameid":5254927,"name":"Town of Gratiot","admin3":"30600"},{"geonameid":5254928,"name":"Village of Gratiot","admin3":"30575"},{"geonameid":5258369,"name":"Town of Kendall","admin3":"39125"},{"geonameid":5259442,"name":"Town of Lamont","admin3":"42175"},{"geonameid":5263392,"name":"Town of Monticello","admin3":"54025"},{"geonameid":5264403,"name":"Town of New Diggings","admin3":"56625"},{"geonameid":5272789,"name":"Town of Seymour","admin3":"72700"},{"geonameid":5273114,"name":"City of Shullsburg","admin3":"73825"},{"geonameid":5273115,"name":"Town of Shullsburg","admin3":"73850"},{"geonameid":5273892,"name":"Village of South Wayne","admin3":"75275"},{"geonameid":5278197,"name":"Town of Wayne","admin3":"84850"},{"geonameid":5278847,"name":"Town of White Oak Springs","admin3":"86800"},{"geonameid":5279191,"name":"Town of Willow Springs","admin3":"87275"},{"geonameid":5279392,"name":"Town of Wiota","admin3":"88050"}],"alternateNames":[{"alternatenameId":2089565,"geonameid":5279468,"isoLanguage":"en","alternateName":"Wisconsin","isPreferredName":true,"isShortName":true,"isColloquial":false,"isHistoric":false}]},"__N_SSG":true}