{"pageProps":{"locale":"en","admin2":{"geonameid":5263058,"name":"Milwaukee County","country":"US","admin1":"WI","admin2":"079","admin3":"","latitude":"43.0217200","longitude":"-87.9290800"},"admin1":{"geonameid":5279468,"name":"Wisconsin","admin1":"WI","localeAltName":"Wisconsin"},"locations":[{"geonameid":5244980,"name":"Bayside","admin3":"05450"},{"geonameid":5246917,"name":"Brown Deer","admin3":"10375"},{"geonameid":5249871,"name":"Cudahy","admin3":"17975"},{"geonameid":5253662,"name":"Fox Point","admin3":"27075"},{"geonameid":5253710,"name":"Franklin","admin3":"27300"},{"geonameid":5254404,"name":"Glendale","admin3":"29400"},{"geonameid":5255057,"name":"Greendale","admin3":"31125"},{"geonameid":5255068,"name":"Greenfield","admin3":"31175"},{"geonameid":5255320,"name":"Hales Corners","admin3":"32075"},{"geonameid":5263045,"name":"Milwaukee","admin3":"53000"},{"geonameid":5265228,"name":"Oak Creek","admin3":"58800"},{"geonameid":5269003,"name":"River Hills","admin3":"68325"},{"geonameid":5270249,"name":"Saint Francis","admin3":"70650"},{"geonameid":5273084,"name":"Shorewood","admin3":"73725"},{"geonameid":5273812,"name":"South Milwaukee","admin3":"75125"},{"geonameid":5278159,"name":"Wauwatosa","admin3":"84675"},{"geonameid":5278420,"name":"West Allis","admin3":"85300"},{"geonameid":5278580,"name":"West Milwaukee","admin3":"85875"},{"geonameid":5278897,"name":"Whitefish Bay","admin3":"86700"}],"admin3":[{"geonameid":5244983,"name":"Village of Bayside","admin3":"05450"},{"geonameid":5246915,"name":"Village of Brown Deer","admin3":"10375"},{"geonameid":5249880,"name":"City of Cudahy","admin3":"17975"},{"geonameid":5253666,"name":"Village of Fox Point","admin3":"27075"},{"geonameid":5253754,"name":"City of Franklin","admin3":"27300"},{"geonameid":5254413,"name":"City of Glendale","admin3":"29400"},{"geonameid":5255064,"name":"Village of Greendale","admin3":"31125"},{"geonameid":5255080,"name":"City of Greenfield","admin3":"31175"},{"geonameid":5255326,"name":"Village of Hales Corners","admin3":"32075"},{"geonameid":5263099,"name":"City of Milwaukee","admin3":"53000"},{"geonameid":5265237,"name":"City of Oak Creek","admin3":"58800"},{"geonameid":5269004,"name":"Village of River Hills","admin3":"68325"},{"geonameid":5270305,"name":"City of Saint Francis","admin3":"70650"},{"geonameid":5273096,"name":"Village of Shorewood","admin3":"73725"},{"geonameid":5273821,"name":"City of South Milwaukee","admin3":"75125"},{"geonameid":5278167,"name":"City of Wauwatosa","admin3":"84675"},{"geonameid":5278404,"name":"City of West Allis","admin3":"85300"},{"geonameid":5278584,"name":"Village of West Milwaukee","admin3":"85875"},{"geonameid":5278903,"name":"Village of Whitefish Bay","admin3":"86700"}],"alternateNames":[{"alternatenameId":2089565,"geonameid":5279468,"isoLanguage":"en","alternateName":"Wisconsin","isPreferredName":true,"isShortName":true,"isColloquial":false,"isHistoric":false}]},"__N_SSG":true}