{"pageProps":{"locale":"en","admin2":{"geonameid":5266102,"name":"Ozaukee County","country":"US","admin1":"WI","admin2":"089","admin3":"","latitude":"43.4030500","longitude":"-87.8906300"},"admin1":{"geonameid":5279468,"name":"Wisconsin","admin1":"WI","localeAltName":"Wisconsin"},"locations":[{"geonameid":5245314,"name":"Belgium","admin3":"06150"},{"geonameid":5248171,"name":"Cedarburg","admin3":"13375"},{"geonameid":5253778,"name":"Fredonia","admin3":"27550"},{"geonameid":5254739,"name":"Grafton","admin3":"30000"},{"geonameid":5258824,"name":"Kohler","admin3":"27575"},{"geonameid":5262649,"name":"Mequon","admin3":"51150"},{"geonameid":5267776,"name":"Port Washington","admin3":"64450"},{"geonameid":5272249,"name":"Saukville","admin3":"71700"},{"geonameid":5275601,"name":"Thiensville","admin3":"79475"}],"admin3":[{"geonameid":5245318,"name":"Town of Belgium","admin3":"06175"},{"geonameid":5245319,"name":"Village of Belgium","admin3":"06150"},{"geonameid":5248166,"name":"City of Cedarburg","admin3":"13375"},{"geonameid":5248167,"name":"Town of Cedarburg","admin3":"13400"},{"geonameid":5253779,"name":"Town of Fredonia","admin3":"27575"},{"geonameid":5253780,"name":"Village of Fredonia","admin3":"27550"},{"geonameid":5254744,"name":"Town of Grafton","admin3":"30025"},{"geonameid":5254745,"name":"Village of Grafton","admin3":"30000"},{"geonameid":5262652,"name":"City of Mequon","admin3":"51150"},{"geonameid":5267780,"name":"City of Port Washington","admin3":"64450"},{"geonameid":5267781,"name":"Town of Port Washington","admin3":"64475"},{"geonameid":5272251,"name":"Town of Saukville","admin3":"71725"},{"geonameid":5272252,"name":"Village of Saukville","admin3":"71700"},{"geonameid":5275604,"name":"Village of Thiensville","admin3":"79475"}],"alternateNames":[{"alternatenameId":2089565,"geonameid":5279468,"isoLanguage":"en","alternateName":"Wisconsin","isPreferredName":true,"isShortName":true,"isColloquial":false,"isHistoric":false}]},"__N_SSG":true}