{"pageProps":{"locale":"en","admin2":{"geonameid":5268067,"name":"Price County","country":"US","admin1":"WI","admin2":"099","admin3":"","latitude":"45.6803800","longitude":"-90.3613700"},"admin1":{"geonameid":5279468,"name":"Wisconsin","admin1":"WI","localeAltName":"Wisconsin"},"locations":[{"geonameid":5266230,"name":"Park Falls","admin3":"61200"},{"geonameid":5266764,"name":"Phillips","admin3":"62450"}],"admin3":[{"geonameid":5248018,"name":"Town of Catawba","admin3":"13200"},{"geonameid":5248019,"name":"Village of Catawba","admin3":"13175"},{"geonameid":5251618,"name":"Town of Eisenstein","admin3":"22950"},{"geonameid":5251722,"name":"Town of Elk","admin3":"23200"},{"geonameid":5251929,"name":"Town of Emery","admin3":"23975"},{"geonameid":5252673,"name":"Town of Fifield","admin3":"25775"},{"geonameid":5253263,"name":"Town of Flambeau","admin3":"26050"},{"geonameid":5254175,"name":"Town of Georgetown","admin3":"28750"},{"geonameid":5255291,"name":"Town of Hackett","admin3":"31925"},{"geonameid":5255572,"name":"Town of Harmony","admin3":"32675"},{"geonameid":5256332,"name":"Town of Hill","admin3":"34725"},{"geonameid":5258374,"name":"Town of Kennan","admin3":"39200"},{"geonameid":5258375,"name":"Village of Kennan","admin3":"39175"},{"geonameid":5258802,"name":"Town of Knox","admin3":"40175"},{"geonameid":5259325,"name":"Town of Lake","admin3":"41150"},{"geonameid":5265571,"name":"Town of Ogema","admin3":"59525"},{"geonameid":5266239,"name":"City of Park Falls","admin3":"61200"},{"geonameid":5266774,"name":"City of Phillips","admin3":"62450"},{"geonameid":5268043,"name":"Town of Prentice","admin3":"65350"},{"geonameid":5268044,"name":"Village of Prentice","admin3":"65325"},{"geonameid":5274020,"name":"Town of Spirit","admin3":"75525"},{"geonameid":5279732,"name":"Town of Worcester","admin3":"89100"}],"alternateNames":[{"alternatenameId":2089565,"geonameid":5279468,"isoLanguage":"en","alternateName":"Wisconsin","isPreferredName":true,"isShortName":true,"isColloquial":false,"isHistoric":false}]},"__N_SSG":true}