{"pageProps":{"locale":"en","admin2":{"geonameid":5275451,"name":"Taylor County","country":"US","admin1":"WI","admin2":"119","admin3":"","latitude":"45.2115300","longitude":"-90.5012500"},"admin1":{"geonameid":5279468,"name":"Wisconsin","admin1":"WI","localeAltName":"Wisconsin"},"locations":[{"geonameid":5262475,"name":"Medford","admin3":"50425"}],"admin3":[{"geonameid":5244387,"name":"Town of Aurora","admin3":"03900"},{"geonameid":5246930,"name":"Town of Browning","admin3":"10400"},{"geonameid":5248379,"name":"Town of Chelsea","admin3":"14200"},{"geonameid":5248951,"name":"Town of Cleveland","admin3":"15450"},{"geonameid":5250316,"name":"Town of Deer Creek","admin3":"19225"},{"geonameid":5253386,"name":"Town of Ford","admin3":"26425"},{"geonameid":5254322,"name":"Village of Gilman","admin3":"29175"},{"geonameid":5254565,"name":"Town of Goodrich","admin3":"29837"},{"geonameid":5255150,"name":"Town of Greenwood","admin3":"31600"},{"geonameid":5255231,"name":"Town of Grover","admin3":"31750"},{"geonameid":5255422,"name":"Town of Hammel","admin3":"32300"},{"geonameid":5256646,"name":"Town of Holway","admin3":"35525"},{"geonameid":5258181,"name":"Town of Jump River","admin3":"38627"},{"geonameid":5260234,"name":"Town of Little Black","admin3":"44900"},{"geonameid":5261230,"name":"Village of Lublin","admin3":"46150"},{"geonameid":5261770,"name":"Town of Maplehurst","admin3":"48925"},{"geonameid":5262341,"name":"Town of McKinley","admin3":"46925"},{"geonameid":5262486,"name":"City of Medford","admin3":"50425"},{"geonameid":5262487,"name":"Town of Medford","admin3":"50450"},{"geonameid":5263282,"name":"Town of Molitor","admin3":"53550"},{"geonameid":5266645,"name":"Town of Pershing","admin3":"62100"},{"geonameid":5268740,"name":"Town of Rib Lake","admin3":"67300"},{"geonameid":5268741,"name":"Village of Rib Lake","admin3":"67275"},{"geonameid":5269494,"name":"Town of Roosevelt","admin3":"69400"},{"geonameid":5274625,"name":"Village of Stetsonville","admin3":"77100"},{"geonameid":5275364,"name":"Town of Taft","admin3":"78950"},{"geonameid":5278650,"name":"Town of Westboro","admin3":"85450"}],"alternateNames":[{"alternatenameId":2089565,"geonameid":5279468,"isoLanguage":"en","alternateName":"Wisconsin","isPreferredName":true,"isShortName":true,"isColloquial":false,"isHistoric":false}]},"__N_SSG":true}