{"pageProps":{"locale":"en","admin2":{"geonameid":5277887,"name":"Washington County","country":"US","admin1":"WI","admin2":"131","admin3":"","latitude":"43.3684700","longitude":"-88.2307800"},"admin1":{"geonameid":5279468,"name":"Wisconsin","admin1":"WI","localeAltName":"Wisconsin"},"locations":[{"geonameid":5243582,"name":"Addison","admin3":"00425"},{"geonameid":5244778,"name":"Barton","admin3":"85350"},{"geonameid":5254218,"name":"Germantown","admin3":"28875"},{"geonameid":5255628,"name":"Hartford","admin3":"33000"},{"geonameid":5257669,"name":"Jackson","admin3":"37675"},{"geonameid":5258480,"name":"Kewaskum","admin3":"39300"},{"geonameid":5264522,"name":"Newburg","admin3":"56450"},{"geonameid":5268838,"name":"Richfield","admin3":"67475"},{"geonameid":5273439,"name":"Slinger","admin3":"74400"},{"geonameid":5278422,"name":"West Bend","admin3":"85350"}],"admin3":[{"geonameid":4833828,"name":"Town of Addison","admin3":"00425"},{"geonameid":5244786,"name":"Town of Barton","admin3":"05050"},{"geonameid":5252090,"name":"Town of Erin","admin3":"24225"},{"geonameid":5252536,"name":"Town of Farmington","admin3":"25375"},{"geonameid":5254222,"name":"Town of Germantown","admin3":"28900"},{"geonameid":5254223,"name":"Village of Germantown","admin3":"28875"},{"geonameid":5255638,"name":"City of Hartford","admin3":"33000"},{"geonameid":5255639,"name":"Town of Hartford","admin3":"33025"},{"geonameid":5257712,"name":"Town of Jackson","admin3":"37700"},{"geonameid":5257713,"name":"Village of Jackson","admin3":"37675"},{"geonameid":5258488,"name":"Town of Kewaskum","admin3":"39325"},{"geonameid":5258489,"name":"Village of Kewaskum","admin3":"39300"},{"geonameid":5264525,"name":"Village of Newburg","admin3":"56450"},{"geonameid":5267658,"name":"Town of Polk","admin3":"63875"},{"geonameid":5268843,"name":"Village of Richfield","admin3":"67475"},{"geonameid":5273443,"name":"Village of Slinger","admin3":"74400"},{"geonameid":5276109,"name":"Town of Trenton","admin3":"80575"},{"geonameid":5278198,"name":"Town of Wayne","admin3":"84900"},{"geonameid":5278431,"name":"City of West Bend","admin3":"85350"},{"geonameid":5278432,"name":"Town of West Bend","admin3":"85375"}],"alternateNames":[{"alternatenameId":2089565,"geonameid":5279468,"isoLanguage":"en","alternateName":"Wisconsin","isPreferredName":true,"isShortName":true,"isColloquial":false,"isHistoric":false}]},"__N_SSG":true}