{"pageProps":{"locale":"en","admin2":{"geonameid":4405143,"name":"Ray County","country":"US","admin1":"MO","admin2":"177","admin3":"","latitude":"39.3524100","longitude":"-93.9898800","localeAltName":null},"admin1":{"geonameid":4398678,"name":"Missouri","admin1":"MO","localeAltName":"Missouri"},"locations":[{"geonameid":4374557,"name":"Albany","admin3":"54956","localeAltName":null},{"geonameid":4389487,"name":"Hardin","admin3":"17398","localeAltName":null},{"geonameid":4394716,"name":"Lawson","admin3":"58844","localeAltName":null},{"geonameid":4402029,"name":"Orrick","admin3":"54956","localeAltName":null},{"geonameid":4405588,"name":"Richmond","admin3":"61688","localeAltName":null},{"geonameid":4415314,"name":"Wood Heights","admin3":"24310","localeAltName":null}],"admin3":[{"geonameid":4379633,"name":"Township of Camden","admin3":"10756"},{"geonameid":4382912,"name":"Township of Crooked River","admin3":"17398","localeAltName":null},{"geonameid":4386598,"name":"Township of Fishing River","admin3":"24310","localeAltName":null},{"geonameid":4388514,"name":"Township of Grape Grove","admin3":"28666"},{"geonameid":4393853,"name":"Township of Knoxville","admin3":"39314"},{"geonameid":4402030,"name":"Township of Orrick","admin3":"54956","localeAltName":null},{"geonameid":4404139,"name":"Township of Polk","admin3":"58844","localeAltName":null},{"geonameid":4405596,"name":"Township of Richmond","admin3":"61688","localeAltName":null}],"alternateNames":[{"alternatenameId":2089572,"geonameid":4398678,"isoLanguage":"en","alternateName":"Missouri","isPreferredName":true,"isShortName":true,"isColloquial":false,"isHistoric":false}]},"__N_SSG":true}