{"pageProps":{"locale":"en","admin1":{"geonameid":6269131,"name":"England","country":"GB","admin1":"ENG","localeAltName":"England"},"admin2":[{"geonameid":3333122,"name":"Barnsley","localeAltName":"Barnsley"},{"geonameid":3333123,"name":"Bath and North East Somerset"},{"geonameid":7290534,"name":"Bedford"},{"geonameid":3333126,"name":"Blackburn with Darwen","localeAltName":"Blackburn with Darwen"},{"geonameid":3333127,"name":"Blackpool","localeAltName":"Blackpool"},{"geonameid":3333128,"name":"Borough of Bolton","localeAltName":"Bolton"},{"geonameid":3333136,"name":"Borough of Bury"},{"geonameid":2647601,"name":"Borough of Halton"},{"geonameid":2641238,"name":"Borough of North Tyneside"},{"geonameid":3333179,"name":"Borough of Oldham","localeAltName":"Oldham"},{"geonameid":3333188,"name":"Borough of Rochdale","localeAltName":"Rochdale"},{"geonameid":3333202,"name":"Borough of Stockport","localeAltName":"Stockport"},{"geonameid":3333207,"name":"Borough of Swindon"},{"geonameid":3333208,"name":"Borough of Tameside","localeAltName":"Tameside"},{"geonameid":2635885,"name":"Borough of Thurrock"},{"geonameid":3333210,"name":"Borough of Torbay","localeAltName":"Torbay"},{"geonameid":3333219,"name":"Borough of Wigan","localeAltName":"Wigan"},{"geonameid":12165737,"name":"Bournemouth, Christchurch and Poole Council"},{"geonameid":3333130,"name":"Bracknell Forest","localeAltName":"Bracknell Forest"},{"geonameid":3333131,"name":"Bradford","localeAltName":"Bradford"},{"geonameid":3333133,"name":"Brighton and Hove","localeAltName":"Brighton and Hove"},{"geonameid":2654408,"name":"Buckinghamshire","localeAltName":"Buckinghamshire"},{"geonameid":3333137,"name":"Calderdale","localeAltName":"Calderdale"},{"geonameid":2653940,"name":"Cambridgeshire","localeAltName":"Cambridgeshire"},{"geonameid":7290535,"name":"Central Bedfordshire"},{"geonameid":7290536,"name":"Cheshire East"},{"geonameid":7290537,"name":"Cheshire West and Chester","localeAltName":"Cheshire"},{"geonameid":3333125,"name":"City and Borough of Birmingham","localeAltName":"Birmingham"},{"geonameid":3333164,"name":"City and Borough of Leeds","localeAltName":"Leeds"},{"geonameid":3333190,"name":"City and Borough of Salford","localeAltName":"Salford"},{"geonameid":3333212,"name":"City and Borough of Wakefield","localeAltName":"Wakefield"},{"geonameid":3333134,"name":"City of Bristol","localeAltName":"Bristol"},{"geonameid":3333159,"name":"City of Kingston upon Hull","localeAltName":"Kingston upon Hull"},{"geonameid":3333165,"name":"City of Leicester","localeAltName":"Leicester"},{"geonameid":2633351,"name":"City of York","localeAltName":"York"},{"geonameid":2652355,"name":"Cornwall"},{"geonameid":2650629,"name":"County Durham"},{"geonameid":3333139,"name":"Coventry","localeAltName":"Coventry"},{"geonameid":2651712,"name":"Cumbria","localeAltName":"Cumbria"},{"geonameid":3333141,"name":"Darlington","localeAltName":"Darlington"},{"geonameid":3333142,"name":"Derby","localeAltName":"Derby"},{"geonameid":2651346,"name":"Derbyshire","localeAltName":"Derbyshire"},{"geonameid":2651292,"name":"Devon","localeAltName":"Devon"},{"geonameid":2638918,"name":"District of Rutland"},{"geonameid":3333143,"name":"Doncaster","localeAltName":"Doncaster"},{"geonameid":2651079,"name":"Dorset","localeAltName":"Dorset"},{"geonameid":3333144,"name":"Dudley","localeAltName":"Dudley"},{"geonameid":2650345,"name":"East Riding of Yorkshire"},{"geonameid":2650328,"name":"East Sussex","localeAltName":"East Sussex"},{"geonameid":2649889,"name":"Essex","localeAltName":"Essex"},{"geonameid":2648772,"name":"Gateshead","localeAltName":"Gateshead"},{"geonameid":2648402,"name":"Gloucestershire","localeAltName":"Gloucestershire"},{"geonameid":2648110,"name":"Greater London","localeAltName":"Greater London"},{"geonameid":2647554,"name":"Hampshire"},{"geonameid":3333152,"name":"Hartlepool","localeAltName":"Hartlepool"},{"geonameid":2647071,"name":"Herefordshire"},{"geonameid":2647043,"name":"Hertfordshire","localeAltName":"Hertfordshire"},{"geonameid":2646007,"name":"Isle of Wight","localeAltName":"Isle of Wight"},{"geonameid":2638384,"name":"Isles of Scilly"},{"geonameid":3333158,"name":"Kent","localeAltName":"Kent"},{"geonameid":3333161,"name":"Kirklees","localeAltName":"Kirklees"},{"geonameid":3333162,"name":"Knowsley","localeAltName":"Knowsley"},{"geonameid":2644974,"name":"Lancashire"},{"geonameid":2644667,"name":"Leicestershire","localeAltName":"Leicestershire"},{"geonameid":2644486,"name":"Lincolnshire","localeAltName":"Lincolnshire"},{"geonameid":3333167,"name":"Liverpool","localeAltName":"Liverpool"},{"geonameid":3333168,"name":"Luton","localeAltName":"Luton"},{"geonameid":3333169,"name":"Manchester","localeAltName":"Manchester"},{"geonameid":3333170,"name":"Medway","localeAltName":"Medway"},{"geonameid":3333220,"name":"Metropolitan Borough of Wirral","localeAltName":"Wirral"},{"geonameid":3333172,"name":"Middlesbrough","localeAltName":"Middlesbrough"},{"geonameid":3333173,"name":"Milton Keynes","localeAltName":"Milton Keynes"},{"geonameid":3333174,"name":"Newcastle upon Tyne","localeAltName":"Newcastle upon Tyne"},{"geonameid":2641455,"name":"Norfolk","localeAltName":"Norfolk"},{"geonameid":3333175,"name":"North East Lincolnshire","localeAltName":"North East Lincolnshire"},{"geonameid":3333176,"name":"North Lincolnshire","localeAltName":"North Lincolnshire"},{"geonameid":3333177,"name":"North Somerset"},{"geonameid":2641209,"name":"North Yorkshire","localeAltName":"North Yorkshire"},{"geonameid":2641429,"name":"Northamptonshire","localeAltName":"Northamptonshire"},{"geonameid":2641235,"name":"Northumberland"},{"geonameid":3333178,"name":"Nottingham","localeAltName":"Nottingham"},{"geonameid":2641169,"name":"Nottinghamshire"},{"geonameid":2640726,"name":"Oxfordshire","localeAltName":"Oxfordshire"},{"geonameid":3333180,"name":"Peterborough","localeAltName":"Peterborough"},{"geonameid":3333181,"name":"Plymouth","localeAltName":"Plymouth"},{"geonameid":3333183,"name":"Portsmouth","localeAltName":"Portsmouth"},{"geonameid":3333184,"name":"Reading","localeAltName":"Reading"},{"geonameid":3333186,"name":"Redcar and Cleveland","localeAltName":"Redcar and Cleveland"},{"geonameid":3333189,"name":"Rotherham","localeAltName":"Rotherham"},{"geonameid":2633840,"name":"Royal Borough of Windsor and Maidenhead","localeAltName":"Windsor and Maidenhead"},{"geonameid":3333191,"name":"Sandwell","localeAltName":"Sandwell"},{"geonameid":3333192,"name":"Sefton","localeAltName":"Sefton"},{"geonameid":3333193,"name":"Sheffield","localeAltName":"Sheffield"},{"geonameid":2638655,"name":"Shropshire","localeAltName":"Shropshire"},{"geonameid":3333194,"name":"Slough"},{"geonameid":3333195,"name":"Solihull","localeAltName":"Solihull"},{"geonameid":2637532,"name":"Somerset"},{"geonameid":3333198,"name":"South Gloucestershire"},{"geonameid":3333199,"name":"South Tyneside","localeAltName":"South Tyneside"},{"geonameid":3333196,"name":"Southampton","localeAltName":"Southampton"},{"geonameid":3333197,"name":"Southend-on-Sea","localeAltName":"Southend-on-Sea"},{"geonameid":3333201,"name":"St. Helens","localeAltName":"St. Helens"},{"geonameid":2637141,"name":"Staffordshire","localeAltName":"Staffordshire"},{"geonameid":3333203,"name":"Stockton-on-Tees","localeAltName":"Stockton-on-Tees"},{"geonameid":3333204,"name":"Stoke-on-Trent","localeAltName":"Stoke-on-Trent"},{"geonameid":2636561,"name":"Suffolk"},{"geonameid":3333205,"name":"Sunderland","localeAltName":"Sunderland"},{"geonameid":2636512,"name":"Surrey","localeAltName":"Surrey"},{"geonameid":3333209,"name":"Telford and Wrekin","localeAltName":"Telford and Wrekin"},{"geonameid":3333211,"name":"Trafford","localeAltName":"Trafford"},{"geonameid":3333213,"name":"Walsall","localeAltName":"Walsall"},{"geonameid":3333216,"name":"Warrington","localeAltName":"Warrington"},{"geonameid":2634723,"name":"Warwickshire","localeAltName":"Warwickshire"},{"geonameid":3333217,"name":"West Berkshire"},{"geonameid":2634258,"name":"West Sussex","localeAltName":"West Sussex"},{"geonameid":2633868,"name":"Wiltshire","localeAltName":"Wiltshire"},{"geonameid":3333221,"name":"Wokingham","localeAltName":"Wokingham"},{"geonameid":3333222,"name":"Wolverhampton","localeAltName":"Wolverhampton"},{"geonameid":2633560,"name":"Worcestershire","localeAltName":"Worcestershire"}],"alternateNames":[{"alternatenameId":8666554,"geonameid":2633351,"isoLanguage":"en","alternateName":"York","isPreferredName":true,"isShortName":true,"isColloquial":false,"isHistoric":false},{"alternatenameId":2254230,"geonameid":2633560,"isoLanguage":"en","alternateName":"Worcestershire","isPreferredName":true,"isShortName":true,"isColloquial":false,"isHistoric":false},{"alternatenameId":2254231,"geonameid":2633840,"isoLanguage":"en","alternateName":"Windsor and Maidenhead","isPreferredName":true,"isShortName":true,"isColloquial":false,"isHistoric":false},{"alternatenameId":2254232,"geonameid":2633868,"isoLanguage":"en","alternateName":"Wiltshire","isPreferredName":true,"isShortName":true,"isColloquial":false,"isHistoric":false},{"alternatenameId":2254233,"geonameid":2634258,"isoLanguage":"en","alternateName":"West Sussex","isPreferredName":true,"isShortName":true,"isColloquial":false,"isHistoric":false},{"alternatenameId":2254235,"geonameid":2634723,"isoLanguage":"en","alternateName":"Warwickshire","isPreferredName":true,"isShortName":true,"isColloquial":false,"isHistoric":false},{"alternatenameId":1555690,"geonameid":2635167,"isoLanguage":"en","alternateName":"United Kingdom","isPreferredName":true,"isShortName":true,"isColloquial":false,"isHistoric":false},{"alternatenameId":2254239,"geonameid":2636512,"isoLanguage":"en","alternateName":"Surrey","isPreferredName":true,"isShortName":true,"isColloquial":false,"isHistoric":false},{"alternatenameId":2254242,"geonameid":2637141,"isoLanguage":"en","alternateName":"Staffordshire","isPreferredName":true,"isShortName":true,"isColloquial":false,"isHistoric":false},{"alternatenameId":2254244,"geonameid":2638655,"isoLanguage":"en","alternateName":"Shropshire","isPreferredName":true,"isShortName":true,"isColloquial":false,"isHistoric":false},{"alternatenameId":2254248,"geonameid":2640726,"isoLanguage":"en","alternateName":"Oxfordshire","isPreferredName":true,"isShortName":true,"isColloquial":false,"isHistoric":false},{"alternatenameId":2254250,"geonameid":2641209,"isoLanguage":"en","alternateName":"North Yorkshire","isPreferredName":true,"isShortName":true,"isColloquial":false,"isHistoric":false},{"alternatenameId":2254253,"geonameid":2641429,"isoLanguage":"en","alternateName":"Northamptonshire","isPreferredName":true,"isShortName":true,"isColloquial":false,"isHistoric":false},{"alternatenameId":2254254,"geonameid":2641455,"isoLanguage":"en","alternateName":"Norfolk","isPreferredName":true,"isShortName":true,"isColloquial":false,"isHistoric":false},{"alternatenameId":2254263,"geonameid":2644486,"isoLanguage":"en","alternateName":"Lincolnshire","isPreferredName":true,"isShortName":true,"isColloquial":false,"isHistoric":false},{"alternatenameId":2254265,"geonameid":2644667,"isoLanguage":"en","alternateName":"Leicestershire","isPreferredName":true,"isShortName":true,"isColloquial":false,"isHistoric":false},{"alternatenameId":2254268,"geonameid":2646007,"isoLanguage":"en","alternateName":"Isle of Wight","isPreferredName":true,"isShortName":true,"isColloquial":false,"isHistoric":false},{"alternatenameId":2254270,"geonameid":2647043,"isoLanguage":"en","alternateName":"Hertfordshire","isPreferredName":true,"isShortName":true,"isColloquial":false,"isHistoric":false},{"alternatenameId":3074748,"geonameid":2648110,"isoLanguage":"en","alternateName":"Greater London","isPreferredName":true,"isShortName":true,"isColloquial":false,"isHistoric":false},{"alternatenameId":2254274,"geonameid":2648402,"isoLanguage":"en","alternateName":"Gloucestershire","isPreferredName":true,"isShortName":true,"isColloquial":false,"isHistoric":false},{"alternatenameId":2254275,"geonameid":2648772,"isoLanguage":"en","alternateName":"Gateshead","isPreferredName":true,"isShortName":true,"isColloquial":false,"isHistoric":false},{"alternatenameId":2254279,"geonameid":2649889,"isoLanguage":"en","alternateName":"Essex","isPreferredName":true,"isShortName":true,"isColloquial":false,"isHistoric":false},{"alternatenameId":2254280,"geonameid":2650328,"isoLanguage":"en","alternateName":"East Sussex","isPreferredName":true,"isShortName":true,"isColloquial":false,"isHistoric":false},{"alternatenameId":2254286,"geonameid":2651079,"isoLanguage":"en","alternateName":"Dorset","isPreferredName":true,"isShortName":true,"isColloquial":false,"isHistoric":false},{"alternatenameId":2254287,"geonameid":2651292,"isoLanguage":"en","alternateName":"Devon","isPreferredName":true,"isShortName":true,"isColloquial":false,"isHistoric":false},{"alternatenameId":2254288,"geonameid":2651346,"isoLanguage":"en","alternateName":"Derbyshire","isPreferredName":true,"isShortName":true,"isColloquial":false,"isHistoric":false},{"alternatenameId":2254290,"geonameid":2651712,"isoLanguage":"en","alternateName":"Cumbria","isPreferredName":true,"isShortName":true,"isColloquial":false,"isHistoric":false},{"alternatenameId":8666551,"geonameid":2653940,"isoLanguage":"en","alternateName":"Cambridgeshire","isPreferredName":true,"isShortName":true,"isColloquial":false,"isHistoric":false},{"alternatenameId":8666550,"geonameid":2654408,"isoLanguage":"en","alternateName":"Buckinghamshire","isPreferredName":true,"isShortName":true,"isColloquial":false,"isHistoric":false},{"alternatenameId":8666549,"geonameid":3333122,"isoLanguage":"en","alternateName":"Barnsley","isPreferredName":true,"isShortName":true,"isColloquial":false,"isHistoric":false},{"alternatenameId":2184556,"geonameid":3333125,"isoLanguage":"en","alternateName":"Birmingham","isPreferredName":true,"isShortName":true,"isColloquial":false,"isHistoric":false},{"alternatenameId":8666548,"geonameid":3333126,"isoLanguage":"en","alternateName":"Blackburn with Darwen","isPreferredName":true,"isShortName":true,"isColloquial":false,"isHistoric":false},{"alternatenameId":8666547,"geonameid":3333127,"isoLanguage":"en","alternateName":"Blackpool","isPreferredName":true,"isShortName":true,"isColloquial":false,"isHistoric":false},{"alternatenameId":8666546,"geonameid":3333128,"isoLanguage":"en","alternateName":"Bolton","isPreferredName":true,"isShortName":true,"isColloquial":false,"isHistoric":false},{"alternatenameId":8666544,"geonameid":3333130,"isoLanguage":"en","alternateName":"Bracknell Forest","isPreferredName":true,"isShortName":true,"isColloquial":false,"isHistoric":false},{"alternatenameId":8666535,"geonameid":3333131,"isoLanguage":"en","alternateName":"Bradford","isPreferredName":true,"isShortName":true,"isColloquial":false,"isHistoric":false},{"alternatenameId":8666533,"geonameid":3333133,"isoLanguage":"en","alternateName":"Brighton and Hove","isPreferredName":true,"isShortName":true,"isColloquial":false,"isHistoric":false},{"alternatenameId":8666500,"geonameid":3333134,"isoLanguage":"en","alternateName":"Bristol","isPreferredName":true,"isShortName":true,"isColloquial":false,"isHistoric":false},{"alternatenameId":8666489,"geonameid":3333137,"isoLanguage":"en","alternateName":"Calderdale","isPreferredName":true,"isShortName":true,"isColloquial":false,"isHistoric":false},{"alternatenameId":8666490,"geonameid":3333139,"isoLanguage":"en","alternateName":"Coventry","isPreferredName":true,"isShortName":true,"isColloquial":false,"isHistoric":false},{"alternatenameId":8666491,"geonameid":3333141,"isoLanguage":"en","alternateName":"Darlington","isPreferredName":true,"isShortName":true,"isColloquial":false,"isHistoric":false},{"alternatenameId":8666492,"geonameid":3333142,"isoLanguage":"en","alternateName":"Derby","isPreferredName":true,"isShortName":true,"isColloquial":false,"isHistoric":false},{"alternatenameId":8666493,"geonameid":3333143,"isoLanguage":"en","alternateName":"Doncaster","isPreferredName":true,"isShortName":true,"isColloquial":false,"isHistoric":false},{"alternatenameId":8666494,"geonameid":3333144,"isoLanguage":"en","alternateName":"Dudley","isPreferredName":true,"isShortName":true,"isColloquial":false,"isHistoric":false},{"alternatenameId":8666495,"geonameid":3333152,"isoLanguage":"en","alternateName":"Hartlepool","isPreferredName":true,"isShortName":true,"isColloquial":false,"isHistoric":false},{"alternatenameId":8666496,"geonameid":3333158,"isoLanguage":"en","alternateName":"Kent","isPreferredName":true,"isShortName":true,"isColloquial":false,"isHistoric":false},{"alternatenameId":8666497,"geonameid":3333159,"isoLanguage":"en","alternateName":"Kingston upon Hull","isPreferredName":true,"isShortName":true,"isColloquial":false,"isHistoric":false},{"alternatenameId":8666498,"geonameid":3333161,"isoLanguage":"en","alternateName":"Kirklees","isPreferredName":true,"isShortName":true,"isColloquial":false,"isHistoric":false},{"alternatenameId":8666499,"geonameid":3333162,"isoLanguage":"en","alternateName":"Knowsley","isPreferredName":true,"isShortName":true,"isColloquial":false,"isHistoric":false},{"alternatenameId":8488043,"geonameid":3333164,"isoLanguage":"en","alternateName":"Leeds","isPreferredName":true,"isShortName":true,"isColloquial":false,"isHistoric":false},{"alternatenameId":2432690,"geonameid":3333165,"isoLanguage":"en","alternateName":"Leicester","isPreferredName":true,"isShortName":true,"isColloquial":false,"isHistoric":false},{"alternatenameId":8666501,"geonameid":3333167,"isoLanguage":"en","alternateName":"Liverpool","isPreferredName":true,"isShortName":true,"isColloquial":false,"isHistoric":false},{"alternatenameId":8666502,"geonameid":3333168,"isoLanguage":"en","alternateName":"Luton","isPreferredName":true,"isShortName":true,"isColloquial":false,"isHistoric":false},{"alternatenameId":8666503,"geonameid":3333169,"isoLanguage":"en","alternateName":"Manchester","isPreferredName":true,"isShortName":true,"isColloquial":false,"isHistoric":false},{"alternatenameId":8666504,"geonameid":3333170,"isoLanguage":"en","alternateName":"Medway","isPreferredName":true,"isShortName":true,"isColloquial":false,"isHistoric":false},{"alternatenameId":8666505,"geonameid":3333172,"isoLanguage":"en","alternateName":"Middlesbrough","isPreferredName":true,"isShortName":true,"isColloquial":false,"isHistoric":false},{"alternatenameId":8666506,"geonameid":3333173,"isoLanguage":"en","alternateName":"Milton Keynes","isPreferredName":true,"isShortName":true,"isColloquial":false,"isHistoric":false},{"alternatenameId":8666507,"geonameid":3333174,"isoLanguage":"en","alternateName":"Newcastle upon Tyne","isPreferredName":true,"isShortName":true,"isColloquial":false,"isHistoric":false},{"alternatenameId":7636462,"geonameid":3333175,"isoLanguage":"en","alternateName":"North East Lincolnshire","isPreferredName":true,"isShortName":true,"isColloquial":false,"isHistoric":false},{"alternatenameId":7636461,"geonameid":3333176,"isoLanguage":"en","alternateName":"North Lincolnshire","isPreferredName":true,"isShortName":true,"isColloquial":false,"isHistoric":false},{"alternatenameId":8666508,"geonameid":3333178,"isoLanguage":"en","alternateName":"Nottingham","isPreferredName":true,"isShortName":true,"isColloquial":false,"isHistoric":false},{"alternatenameId":8666509,"geonameid":3333179,"isoLanguage":"en","alternateName":"Oldham","isPreferredName":true,"isShortName":true,"isColloquial":false,"isHistoric":false},{"alternatenameId":8666510,"geonameid":3333180,"isoLanguage":"en","alternateName":"Peterborough","isPreferredName":true,"isShortName":true,"isColloquial":false,"isHistoric":false},{"alternatenameId":8666511,"geonameid":3333181,"isoLanguage":"en","alternateName":"Plymouth","isPreferredName":true,"isShortName":true,"isColloquial":false,"isHistoric":false},{"alternatenameId":8666513,"geonameid":3333183,"isoLanguage":"en","alternateName":"Portsmouth","isPreferredName":true,"isShortName":true,"isColloquial":false,"isHistoric":false},{"alternatenameId":8666514,"geonameid":3333184,"isoLanguage":"en","alternateName":"Reading","isPreferredName":true,"isShortName":true,"isColloquial":false,"isHistoric":false},{"alternatenameId":8666515,"geonameid":3333186,"isoLanguage":"en","alternateName":"Redcar and Cleveland","isPreferredName":true,"isShortName":true,"isColloquial":false,"isHistoric":false},{"alternatenameId":8666516,"geonameid":3333188,"isoLanguage":"en","alternateName":"Rochdale","isPreferredName":true,"isShortName":true,"isColloquial":false,"isHistoric":false},{"alternatenameId":8666517,"geonameid":3333189,"isoLanguage":"en","alternateName":"Rotherham","isPreferredName":true,"isShortName":true,"isColloquial":false,"isHistoric":false},{"alternatenameId":8666518,"geonameid":3333190,"isoLanguage":"en","alternateName":"Salford","isPreferredName":true,"isShortName":true,"isColloquial":false,"isHistoric":false},{"alternatenameId":8666519,"geonameid":3333191,"isoLanguage":"en","alternateName":"Sandwell","isPreferredName":true,"isShortName":true,"isColloquial":false,"isHistoric":false},{"alternatenameId":8666520,"geonameid":3333192,"isoLanguage":"en","alternateName":"Sefton","isPreferredName":true,"isShortName":true,"isColloquial":false,"isHistoric":false},{"alternatenameId":8666521,"geonameid":3333193,"isoLanguage":"en","alternateName":"Sheffield","isPreferredName":true,"isShortName":true,"isColloquial":false,"isHistoric":false},{"alternatenameId":8666522,"geonameid":3333195,"isoLanguage":"en","alternateName":"Solihull","isPreferredName":true,"isShortName":true,"isColloquial":false,"isHistoric":false},{"alternatenameId":8666523,"geonameid":3333196,"isoLanguage":"en","alternateName":"Southampton","isPreferredName":true,"isShortName":true,"isColloquial":false,"isHistoric":false},{"alternatenameId":8666524,"geonameid":3333197,"isoLanguage":"en","alternateName":"Southend-on-Sea","isPreferredName":true,"isShortName":true,"isColloquial":false,"isHistoric":false},{"alternatenameId":8666525,"geonameid":3333199,"isoLanguage":"en","alternateName":"South Tyneside","isPreferredName":true,"isShortName":true,"isColloquial":false,"isHistoric":false},{"alternatenameId":8666526,"geonameid":3333201,"isoLanguage":"en","alternateName":"St. Helens","isPreferredName":true,"isShortName":true,"isColloquial":false,"isHistoric":false},{"alternatenameId":8666527,"geonameid":3333202,"isoLanguage":"en","alternateName":"Stockport","isPreferredName":true,"isShortName":true,"isColloquial":false,"isHistoric":false},{"alternatenameId":8666528,"geonameid":3333203,"isoLanguage":"en","alternateName":"Stockton-on-Tees","isPreferredName":true,"isShortName":true,"isColloquial":false,"isHistoric":false},{"alternatenameId":8666529,"geonameid":3333204,"isoLanguage":"en","alternateName":"Stoke-on-Trent","isPreferredName":true,"isShortName":true,"isColloquial":false,"isHistoric":false},{"alternatenameId":8666530,"geonameid":3333205,"isoLanguage":"en","alternateName":"Sunderland","isPreferredName":true,"isShortName":true,"isColloquial":false,"isHistoric":false},{"alternatenameId":8666531,"geonameid":3333208,"isoLanguage":"en","alternateName":"Tameside","isPreferredName":true,"isShortName":true,"isColloquial":false,"isHistoric":false},{"alternatenameId":8666532,"geonameid":3333209,"isoLanguage":"en","alternateName":"Telford and Wrekin","isPreferredName":true,"isShortName":true,"isColloquial":false,"isHistoric":false},{"alternatenameId":2184508,"geonameid":3333210,"isoLanguage":"en","alternateName":"Torbay","isPreferredName":true,"isShortName":true,"isColloquial":false,"isHistoric":false},{"alternatenameId":8666534,"geonameid":3333211,"isoLanguage":"en","alternateName":"Trafford","isPreferredName":true,"isShortName":true,"isColloquial":false,"isHistoric":false},{"alternatenameId":2184511,"geonameid":3333212,"isoLanguage":"en","alternateName":"Wakefield","isPreferredName":true,"isShortName":true,"isColloquial":false,"isHistoric":false},{"alternatenameId":8666536,"geonameid":3333213,"isoLanguage":"en","alternateName":"Walsall","isPreferredName":true,"isShortName":true,"isColloquial":false,"isHistoric":false},{"alternatenameId":8666537,"geonameid":3333216,"isoLanguage":"en","alternateName":"Warrington","isPreferredName":true,"isShortName":true,"isColloquial":false,"isHistoric":false},{"alternatenameId":8666538,"geonameid":3333219,"isoLanguage":"en","alternateName":"Wigan","isPreferredName":true,"isShortName":true,"isColloquial":false,"isHistoric":false},{"alternatenameId":8666539,"geonameid":3333220,"isoLanguage":"en","alternateName":"Wirral","isPreferredName":true,"isShortName":true,"isColloquial":false,"isHistoric":false},{"alternatenameId":8666540,"geonameid":3333221,"isoLanguage":"en","alternateName":"Wokingham","isPreferredName":true,"isShortName":true,"isColloquial":false,"isHistoric":false},{"alternatenameId":8666541,"geonameid":3333222,"isoLanguage":"en","alternateName":"Wolverhampton","isPreferredName":true,"isShortName":true,"isColloquial":false,"isHistoric":false},{"alternatenameId":1626647,"geonameid":6269131,"isoLanguage":"en","alternateName":"England","isPreferredName":true,"isShortName":true,"isColloquial":false,"isHistoric":false},{"alternatenameId":8666552,"geonameid":7290537,"isoLanguage":"en","alternateName":"Cheshire","isPreferredName":true,"isShortName":true,"isColloquial":false,"isHistoric":false}]},"__N_SSG":true}