{"pageProps":{"locale":"de","admin2":{"geonameid":6458845,"name":"Monthey District","country":"CH","admin1":"VS","admin2":"2308","admin3":"","latitude":"46.2704300","longitude":"6.9027400"},"admin1":{"geonameid":2658205,"name":"Canton du Valais","admin1":"VS"},"locations":[{"geonameid":2661223,"name":"Champéry","admin3":"6151"},{"geonameid":2661148,"name":"Collombey","admin3":"6152"},{"geonameid":2661427,"name":"Le Bouveret","admin3":"6154"},{"geonameid":2659613,"name":"Monthey","admin3":"6153"},{"geonameid":2659585,"name":"Morgins","admin3":"6156"},{"geonameid":2658872,"name":"Saint-Gingolph","admin3":"6155"},{"geonameid":2658426,"name":"Tanay","admin3":"6159"},{"geonameid":2658306,"name":"Troistorrents","admin3":"6156"},{"geonameid":2658115,"name":"Vionnaz","admin3":"6158"},{"geonameid":2658093,"name":"Vouvry","admin3":"6159"}],"admin3":[{"geonameid":7285466,"name":"Champéry","admin3":"6151"},{"geonameid":7285528,"name":"Collombey-Muraz","admin3":"6152"},{"geonameid":7286537,"name":"Monthey","admin3":"6153"},{"geonameid":7286822,"name":"Port-Valais","admin3":"6154"},{"geonameid":7287028,"name":"Saint-Gingolph","admin3":"6155"},{"geonameid":7287339,"name":"Troistorrents","admin3":"6156"},{"geonameid":7287485,"name":"Vionnaz","admin3":"6158"},{"geonameid":7287496,"name":"Vouvry","admin3":"6159"},{"geonameid":7287674,"name":"Val-d'Illiez","admin3":"6157"}],"alternateNames":[]},"__N_SSG":true}