{"pageProps":{"locale":"en","admin2":{"geonameid":4500561,"name":"Atlantic County","country":"US","admin1":"NJ","admin2":"001","admin3":"","latitude":"39.4688300","longitude":"-74.6337300","localeAltName":null},"admin1":{"geonameid":5101760,"name":"New Jersey","admin1":"NJ","localeAltName":"New Jersey"},"locations":[{"geonameid":4500458,"name":"Absecon","admin3":"00100","localeAltName":null},{"geonameid":4500546,"name":"Atlantic City","admin3":"02080","localeAltName":null},{"geonameid":4500920,"name":"Brigantine","admin3":"07810","localeAltName":null},{"geonameid":4500977,"name":"Buena","admin3":"08710","localeAltName":null},{"geonameid":4501305,"name":"Collings Lakes","admin3":"08710","localeAltName":null},{"geonameid":4501646,"name":"Egg Harbor City","admin3":"20350","localeAltName":null},{"geonameid":4501689,"name":"Elwood","admin3":"49410","localeAltName":null},{"geonameid":4501708,"name":"Estell Manor","admin3":"21870","localeAltName":null},{"geonameid":4501808,"name":"Folsom","admin3":"23940","localeAltName":null},{"geonameid":4502129,"name":"Hammonton","admin3":"29430","localeAltName":null},{"geonameid":4502690,"name":"Linwood","admin3":"40530","localeAltName":null},{"geonameid":4502777,"name":"Longport","admin3":"41370","localeAltName":null},{"geonameid":4502904,"name":"Margate City","admin3":"43890","localeAltName":null},{"geonameid":4502962,"name":"Mays Landing","admin3":"29280","localeAltName":null},{"geonameid":4503316,"name":"Northfield","admin3":"52950","localeAltName":null},{"geonameid":4503646,"name":"Pleasantville","admin3":"59640","localeAltName":null},{"geonameid":4503665,"name":"Pomona","admin3":"25560","localeAltName":null},{"geonameid":4503682,"name":"Port Republic","admin3":"60600","localeAltName":null},{"geonameid":4504164,"name":"Smithville","admin3":"25560","localeAltName":null},{"geonameid":4504186,"name":"Somers Point","admin3":"68430","localeAltName":null},{"geonameid":4504598,"name":"Ventnor City","admin3":"75620","localeAltName":null}],"admin3":[{"geonameid":4500466,"name":"City of Absecon","admin3":"00100","localeAltName":null},{"geonameid":4500547,"name":"City of Atlantic City","admin3":"02080","localeAltName":null},{"geonameid":4500934,"name":"City of Brigantine","admin3":"07810","localeAltName":null},{"geonameid":4500978,"name":"Township of Buena Vista","admin3":"08710","localeAltName":null},{"geonameid":4500979,"name":"Borough of Buena","admin3":"08680"},{"geonameid":4501350,"name":"City of Corbin City","admin3":"15160"},{"geonameid":4501647,"name":"City of Egg Harbor City","admin3":"20350","localeAltName":null},{"geonameid":4501649,"name":"Township of Egg Harbor","admin3":"20290"},{"geonameid":4501710,"name":"City of Estell Manor","admin3":"21870","localeAltName":null},{"geonameid":4501810,"name":"Borough of Folsom","admin3":"23940","localeAltName":null},{"geonameid":4501887,"name":"Township of Galloway","admin3":"25560","localeAltName":null},{"geonameid":4502125,"name":"Township of Hamilton","admin3":"29280","localeAltName":null},{"geonameid":4502135,"name":"Town of Hammonton","admin3":"29430","localeAltName":null},{"geonameid":4502693,"name":"City of Linwood","admin3":"40530","localeAltName":null},{"geonameid":4502778,"name":"Borough of Longport","admin3":"41370","localeAltName":null},{"geonameid":4502903,"name":"City of Margate City","admin3":"43890","localeAltName":null},{"geonameid":4503201,"name":"Township of Mullica","admin3":"49410","localeAltName":null},{"geonameid":4503317,"name":"City of Northfield","admin3":"52950","localeAltName":null},{"geonameid":4503650,"name":"City of Pleasantville","admin3":"59640","localeAltName":null},{"geonameid":4503685,"name":"City of Port Republic","admin3":"60600","localeAltName":null},{"geonameid":4504187,"name":"City of Somers Point","admin3":"68430","localeAltName":null},{"geonameid":4504599,"name":"City of Ventnor City","admin3":"75620","localeAltName":null},{"geonameid":4504816,"name":"Township of Weymouth","admin3":"80330"}],"alternateNames":[{"alternatenameId":2089555,"geonameid":5101760,"isoLanguage":"en","alternateName":"New Jersey","isPreferredName":true,"isShortName":true,"isColloquial":false,"isHistoric":false}]},"__N_SSG":true}