{"pageProps":{"locale":"en","admin2":{"geonameid":5095598,"name":"Bergen County","country":"US","admin1":"NJ","admin2":"003","admin3":"","latitude":"40.9597700","longitude":"-74.0744100","localeAltName":null},"admin1":{"geonameid":5101760,"name":"New Jersey","admin1":"NJ","localeAltName":"New Jersey"},"locations":[{"geonameid":5095124,"name":"Allendale","admin3":"00700","localeAltName":null},{"geonameid":5095153,"name":"Alpine","admin3":"01090","localeAltName":null},{"geonameid":5095611,"name":"Bergenfield","admin3":"05170","localeAltName":null},{"geonameid":5095808,"name":"Bogota","admin3":"06490","localeAltName":null},{"geonameid":5096289,"name":"Carlstadt","admin3":"10480","localeAltName":null},{"geonameid":5096686,"name":"Cliffside Park","admin3":"13570","localeAltName":null},{"geonameid":5096742,"name":"Closter","admin3":"13810","localeAltName":null},{"geonameid":5097035,"name":"Cresskill","admin3":"15820","localeAltName":null},{"geonameid":5097224,"name":"Demarest","admin3":"17530","localeAltName":null},{"geonameid":5097357,"name":"Dumont","admin3":"18400","localeAltName":null},{"geonameid":5097459,"name":"East Rutherford","admin3":"19510","localeAltName":null},{"geonameid":5097575,"name":"Edgewater","admin3":"20020","localeAltName":null},{"geonameid":5097627,"name":"Elmwood Park","admin3":"21300","localeAltName":null},{"geonameid":5097649,"name":"Emerson","admin3":"21450","localeAltName":null},{"geonameid":5097672,"name":"Englewood","admin3":"21480","localeAltName":null},{"geonameid":5097677,"name":"Englewood Cliffs","admin3":"21510","localeAltName":null},{"geonameid":5097773,"name":"Fair Lawn","admin3":"22470","localeAltName":null},{"geonameid":5097801,"name":"Fairview","admin3":"22560","localeAltName":null},{"geonameid":5098135,"name":"Fort Lee","admin3":"24420","localeAltName":null},{"geonameid":5098242,"name":"Franklin Lakes","admin3":"24990","localeAltName":null},{"geonameid":5098343,"name":"Garfield","admin3":"25770","localeAltName":null},{"geonameid":5098436,"name":"Glen Rock","admin3":"26640","localeAltName":null},{"geonameid":5098706,"name":"Hackensack","admin3":"28680","localeAltName":null},{"geonameid":5098842,"name":"Harrington Park","admin3":"30150","localeAltName":null},{"geonameid":5098878,"name":"Hasbrouck Heights","admin3":"30420","localeAltName":null},{"geonameid":5098904,"name":"Haworth","admin3":"30540","localeAltName":null},{"geonameid":5099087,"name":"Hillsdale","admin3":"31920","localeAltName":null},{"geonameid":5099129,"name":"Ho-Ho-Kus","admin3":"32310","localeAltName":null},{"geonameid":5100399,"name":"Leonia","admin3":"40020","localeAltName":null},{"geonameid":5100542,"name":"Little Ferry","admin3":"40680","localeAltName":null},{"geonameid":5100604,"name":"Lodi","admin3":"41100","localeAltName":null},{"geonameid":5100706,"name":"Lyndhurst","admin3":"42090","localeAltName":null},{"geonameid":5100776,"name":"Mahwah","admin3":"42750","localeAltName":null},{"geonameid":5100972,"name":"Maywood","admin3":"44880","localeAltName":null},{"geonameid":5101178,"name":"Midland Park","admin3":"46110","localeAltName":null},{"geonameid":5101361,"name":"Montvale","admin3":"47610","localeAltName":null},{"geonameid":5101376,"name":"Moonachie","admin3":"47700","localeAltName":null},{"geonameid":5101766,"name":"New Milford","admin3":"51660","localeAltName":null},{"geonameid":5101873,"name":"North Arlington","admin3":"52320","localeAltName":null},{"geonameid":5101967,"name":"Northvale","admin3":"53430","localeAltName":null},{"geonameid":5101978,"name":"Norwood","admin3":"53610","localeAltName":null},{"geonameid":5102118,"name":"Oakland","admin3":"53850","localeAltName":null},{"geonameid":5102190,"name":"Old Tappan","admin3":"54870","localeAltName":null},{"geonameid":5102208,"name":"Oradell","admin3":"54990","localeAltName":null},{"geonameid":5102369,"name":"Palisades Park","admin3":"55770","localeAltName":null},{"geonameid":5102387,"name":"Paramus","admin3":"55950","localeAltName":null},{"geonameid":5102400,"name":"Park Ridge","admin3":"56130","localeAltName":null},{"geonameid":5103086,"name":"Ramsey","admin3":"61680","localeAltName":null},{"geonameid":5103254,"name":"Ridgefield","admin3":"62910","localeAltName":null},{"geonameid":5103256,"name":"Ridgefield Park","admin3":"62940","localeAltName":null},{"geonameid":5103269,"name":"Ridgewood","admin3":"63000","localeAltName":null},{"geonameid":5103301,"name":"River Edge","admin3":"63360","localeAltName":null},{"geonameid":5103310,"name":"River Vale","admin3":"63690","localeAltName":null},{"geonameid":5103384,"name":"Rochelle Park","admin3":"63990","localeAltName":null},{"geonameid":5103414,"name":"Rockleigh","admin3":"64170","localeAltName":null},{"geonameid":5103580,"name":"Rutherford","admin3":"65280","localeAltName":null},{"geonameid":5103637,"name":"Saddle Brook","admin3":"65340","localeAltName":null},{"geonameid":5103635,"name":"Saddle River","admin3":"65400","localeAltName":null},{"geonameid":5105262,"name":"Teaneck","admin3":"72360","localeAltName":null},{"geonameid":5105300,"name":"Tenafly","admin3":"72420","localeAltName":null},{"geonameid":5105733,"name":"Upper Saddle River","admin3":"75140","localeAltName":null},{"geonameid":5105957,"name":"Waldwick","admin3":"76400","localeAltName":null},{"geonameid":5105974,"name":"Wallington","admin3":"76490","localeAltName":null},{"geonameid":5106351,"name":"Westwood","admin3":"80270","localeAltName":null},{"geonameid":5106520,"name":"Wood-Ridge","admin3":"82570","localeAltName":null},{"geonameid":5106548,"name":"Woodcliff Lake","admin3":"82300","localeAltName":null},{"geonameid":5106615,"name":"Wyckoff","admin3":"83050","localeAltName":null}],"admin3":[{"geonameid":5095127,"name":"Borough of Allendale","admin3":"00700","localeAltName":null},{"geonameid":5095159,"name":"Borough of Alpine","admin3":"01090","localeAltName":null},{"geonameid":5095613,"name":"Borough of Bergenfield","admin3":"05170","localeAltName":null},{"geonameid":5095811,"name":"Borough of Bogota","admin3":"06490","localeAltName":null},{"geonameid":5096293,"name":"Borough of Carlstadt","admin3":"10480","localeAltName":null},{"geonameid":5096689,"name":"Borough of Cliffside Park","admin3":"13570","localeAltName":null},{"geonameid":5096738,"name":"Borough of Closter","admin3":"13810","localeAltName":null},{"geonameid":5097040,"name":"Borough of Cresskill","admin3":"15820","localeAltName":null},{"geonameid":5097232,"name":"Borough of Demarest","admin3":"17530","localeAltName":null},{"geonameid":5097346,"name":"Borough of Dumont","admin3":"18400","localeAltName":null},{"geonameid":5097462,"name":"Borough of East Rutherford","admin3":"19510","localeAltName":null},{"geonameid":5097525,"name":"Borough of Edgewater","admin3":"20020","localeAltName":null},{"geonameid":5097631,"name":"Borough of Elmwood Park","admin3":"21300","localeAltName":null},{"geonameid":5097656,"name":"Borough of Emerson","admin3":"21450","localeAltName":null},{"geonameid":5097678,"name":"Borough of Englewood Cliffs","admin3":"21510","localeAltName":null},{"geonameid":5097685,"name":"City of Englewood","admin3":"21480","localeAltName":null},{"geonameid":5097775,"name":"Borough of Fair Lawn","admin3":"22470","localeAltName":null},{"geonameid":5097818,"name":"Borough of Fairview","admin3":"22560","localeAltName":null},{"geonameid":5098143,"name":"Borough of Fort Lee","admin3":"24420","localeAltName":null},{"geonameid":5098243,"name":"Borough of Franklin Lakes","admin3":"24990","localeAltName":null},{"geonameid":5098353,"name":"City of Garfield","admin3":"25770","localeAltName":null},{"geonameid":5098440,"name":"Borough of Glen Rock","admin3":"26640","localeAltName":null},{"geonameid":5098719,"name":"City of Hackensack","admin3":"28680","localeAltName":null},{"geonameid":5098846,"name":"Borough of Harrington Park","admin3":"30150","localeAltName":null},{"geonameid":5098882,"name":"Borough of Hasbrouck Heights","admin3":"30420","localeAltName":null},{"geonameid":5098908,"name":"Borough of Haworth","admin3":"30540","localeAltName":null},{"geonameid":5099092,"name":"Borough of Hillsdale","admin3":"31920","localeAltName":null},{"geonameid":5099131,"name":"Borough of Ho-Ho-Kus","admin3":"32310","localeAltName":null},{"geonameid":5100405,"name":"Borough of Leonia","admin3":"40020","localeAltName":null},{"geonameid":5100547,"name":"Borough of Little Ferry","admin3":"40680","localeAltName":null},{"geonameid":5100608,"name":"Borough of Lodi","admin3":"41100","localeAltName":null},{"geonameid":5100712,"name":"Township of Lyndhurst","admin3":"42090","localeAltName":null},{"geonameid":5100779,"name":"Township of Mahwah","admin3":"42750","localeAltName":null},{"geonameid":5100974,"name":"Borough of Maywood","admin3":"44880","localeAltName":null},{"geonameid":5101182,"name":"Borough of Midland Park","admin3":"46110","localeAltName":null},{"geonameid":5101364,"name":"Borough of Montvale","admin3":"47610","localeAltName":null},{"geonameid":5101382,"name":"Borough of Moonachie","admin3":"47700","localeAltName":null},{"geonameid":5101768,"name":"Borough of New Milford","admin3":"51660","localeAltName":null},{"geonameid":5101876,"name":"Borough of North Arlington","admin3":"52320","localeAltName":null},{"geonameid":5101969,"name":"Borough of Northvale","admin3":"53430","localeAltName":null},{"geonameid":5101982,"name":"Borough of Norwood","admin3":"53610","localeAltName":null},{"geonameid":5102121,"name":"Borough of Oakland","admin3":"53850","localeAltName":null},{"geonameid":5102192,"name":"Borough of Old Tappan","admin3":"54870","localeAltName":null},{"geonameid":5102212,"name":"Borough of Oradell","admin3":"54990","localeAltName":null},{"geonameid":5102371,"name":"Borough of Palisades Park","admin3":"55770","localeAltName":null},{"geonameid":5102392,"name":"Borough of Paramus","admin3":"55950","localeAltName":null},{"geonameid":5102403,"name":"Borough of Park Ridge","admin3":"56130","localeAltName":null},{"geonameid":5103093,"name":"Borough of Ramsey","admin3":"61680","localeAltName":null},{"geonameid":5103262,"name":"Village of Ridgefield Park","admin3":"62940","localeAltName":null},{"geonameid":5103263,"name":"Borough of Ridgefield","admin3":"62910","localeAltName":null},{"geonameid":5103274,"name":"Village of Ridgewood","admin3":"63000","localeAltName":null},{"geonameid":5103303,"name":"Borough of River Edge","admin3":"63360","localeAltName":null},{"geonameid":5103311,"name":"Township of River Vale","admin3":"63690","localeAltName":null},{"geonameid":5103385,"name":"Township of Rochelle Park","admin3":"63990","localeAltName":null},{"geonameid":5103416,"name":"Borough of Rockleigh","admin3":"64170","localeAltName":null},{"geonameid":5103592,"name":"Borough of Rutherford","admin3":"65280","localeAltName":null},{"geonameid":5103641,"name":"Township of Saddle Brook","admin3":"65340","localeAltName":null},{"geonameid":5103669,"name":"Borough of Saddle River","admin3":"65400","localeAltName":null},{"geonameid":5104822,"name":"Township of South Hackensack","admin3":"68970"},{"geonameid":5105266,"name":"Township of Teaneck","admin3":"72360","localeAltName":null},{"geonameid":5105309,"name":"Borough of Tenafly","admin3":"72420","localeAltName":null},{"geonameid":5105335,"name":"Borough of Teterboro","admin3":"72480"},{"geonameid":5105734,"name":"Borough of Upper Saddle River","admin3":"75140","localeAltName":null},{"geonameid":5105960,"name":"Borough of Waldwick","admin3":"76400","localeAltName":null},{"geonameid":5105984,"name":"Borough of Wallington","admin3":"76490","localeAltName":null},{"geonameid":5106122,"name":"Township of Washington","admin3":"77135"},{"geonameid":5106355,"name":"Borough of Westwood","admin3":"80270","localeAltName":null},{"geonameid":5106524,"name":"Borough of Wood-Ridge","admin3":"82570","localeAltName":null},{"geonameid":5106551,"name":"Borough of Woodcliff Lake","admin3":"82300","localeAltName":null},{"geonameid":5106620,"name":"Township of Wyckoff","admin3":"83050","localeAltName":null}],"alternateNames":[{"alternatenameId":2089555,"geonameid":5101760,"isoLanguage":"en","alternateName":"New Jersey","isPreferredName":true,"isShortName":true,"isColloquial":false,"isHistoric":false}]},"__N_SSG":true}