{"pageProps":{"locale":"en","admin2":{"geonameid":4501053,"name":"Cape May County","country":"US","admin1":"NJ","admin2":"009","admin3":"","latitude":"39.0851300","longitude":"-74.8499800","localeAltName":null},"admin1":{"geonameid":5101760,"name":"New Jersey","admin1":"NJ","localeAltName":"New Jersey"},"locations":[{"geonameid":4500579,"name":"Avalon","admin3":"02320","localeAltName":null},{"geonameid":4500748,"name":"Belleplain","admin3":"17560","localeAltName":null},{"geonameid":4500991,"name":"Burleigh","admin3":"45810","localeAltName":null},{"geonameid":4501066,"name":"Cape May","admin3":"10270","localeAltName":null},{"geonameid":4501057,"name":"Cape May Court House","admin3":"45810","localeAltName":null},{"geonameid":4501706,"name":"Erma","admin3":"41610","localeAltName":null},{"geonameid":4503299,"name":"North Cape May","admin3":"41610","localeAltName":null},{"geonameid":4503313,"name":"North Wildwood","admin3":"53490","localeAltName":null},{"geonameid":4503351,"name":"Ocean City","admin3":"54360","localeAltName":null},{"geonameid":4503788,"name":"Rio Grande","admin3":"45810","localeAltName":null},{"geonameid":4504003,"name":"Sea Isle City","admin3":"66390","localeAltName":null},{"geonameid":4504308,"name":"Stone Harbor","admin3":"71010","localeAltName":null},{"geonameid":4504616,"name":"Villas","admin3":"41610","localeAltName":null},{"geonameid":4504783,"name":"West Cape May","admin3":"78530","localeAltName":null},{"geonameid":4504802,"name":"West Wildwood","admin3":"80210","localeAltName":null},{"geonameid":4504839,"name":"Whitesboro","admin3":"45810","localeAltName":null},{"geonameid":7259197,"name":"Whitesboro-Burleigh","admin3":"45810","localeAltName":null},{"geonameid":4504856,"name":"Wildwood","admin3":"81170","localeAltName":null},{"geonameid":4504857,"name":"Wildwood Crest","admin3":"81200","localeAltName":null},{"geonameid":4504911,"name":"Woodbine","admin3":"81890","localeAltName":null}],"admin3":[{"geonameid":4500582,"name":"Borough of Avalon","admin3":"02320","localeAltName":null},{"geonameid":4501061,"name":"Borough of Cape May Point","admin3":"10330"},{"geonameid":4501062,"name":"City of Cape May","admin3":"10270","localeAltName":null},{"geonameid":4501506,"name":"Township of Dennis","admin3":"17560","localeAltName":null},{"geonameid":4502807,"name":"Township of Lower","admin3":"41610","localeAltName":null},{"geonameid":4503034,"name":"Township of Middle","admin3":"45810","localeAltName":null},{"geonameid":4503314,"name":"City of North Wildwood","admin3":"53490","localeAltName":null},{"geonameid":4503352,"name":"City of Ocean City","admin3":"54360","localeAltName":null},{"geonameid":4504004,"name":"City of Sea Isle City","admin3":"66390","localeAltName":null},{"geonameid":4504316,"name":"Borough of Stone Harbor","admin3":"71010","localeAltName":null},{"geonameid":4504589,"name":"Township of Upper","admin3":"74810"},{"geonameid":4504778,"name":"Borough of West Cape May","admin3":"78530","localeAltName":null},{"geonameid":4504803,"name":"Borough of West Wildwood","admin3":"80210","localeAltName":null},{"geonameid":4504858,"name":"Borough of Wildwood Crest","admin3":"81200","localeAltName":null},{"geonameid":4504864,"name":"City of Wildwood","admin3":"81170","localeAltName":null},{"geonameid":4504914,"name":"Borough of Woodbine","admin3":"81890","localeAltName":null}],"alternateNames":[{"alternatenameId":2089555,"geonameid":5101760,"isoLanguage":"en","alternateName":"New Jersey","isPreferredName":true,"isShortName":true,"isColloquial":false,"isHistoric":false}]},"__N_SSG":true}