{"pageProps":{"locale":"en","admin2":{"geonameid":5101305,"name":"Monmouth County","country":"US","admin1":"NJ","admin2":"025","admin3":"","latitude":"40.2875500","longitude":"-74.1581500","localeAltName":null},"admin1":{"geonameid":5101760,"name":"New Jersey","admin1":"NJ","localeAltName":"New Jersey"},"locations":[{"geonameid":5095133,"name":"Allentown","admin3":"00760","localeAltName":null},{"geonameid":5095136,"name":"Allenwood","admin3":"76460","localeAltName":null},{"geonameid":5095281,"name":"Asbury Park","admin3":"01960","localeAltName":null},{"geonameid":5095312,"name":"Atlantic Highlands","admin3":"02110","localeAltName":null},{"geonameid":5095335,"name":"Avon-by-the-Sea","admin3":"02440","localeAltName":null},{"geonameid":5095558,"name":"Belford","admin3":"45990","localeAltName":null},{"geonameid":5095561,"name":"Belmar","admin3":"04930","localeAltName":null},{"geonameid":5095881,"name":"Bradley Beach","admin3":"06970","localeAltName":null},{"geonameid":5095960,"name":"Brielle","admin3":"07750","localeAltName":null},{"geonameid":5096693,"name":"Cliffwood Beach","admin3":"00070","localeAltName":null},{"geonameid":5096813,"name":"Colts Neck","admin3":"14560","localeAltName":null},{"geonameid":5097167,"name":"Deal","admin3":"16660","localeAltName":null},{"geonameid":5097419,"name":"East Freehold","admin3":"25230","localeAltName":null},{"geonameid":5097482,"name":"Eatontown","admin3":"19840","localeAltName":null},{"geonameid":5097686,"name":"Englishtown","admin3":"21570","localeAltName":null},{"geonameid":5097769,"name":"Fair Haven","admin3":"22440","localeAltName":null},{"geonameid":5097803,"name":"Fairview","admin3":"45990","localeAltName":null},{"geonameid":5097844,"name":"Farmingdale","admin3":"22950","localeAltName":null},{"geonameid":5098278,"name":"Freehold","admin3":"25200","localeAltName":null},{"geonameid":5099060,"name":"Highlands","admin3":"31500","localeAltName":null},{"geonameid":5099702,"name":"Interlaken","admin3":"34200","localeAltName":null},{"geonameid":5099961,"name":"Keansburg","admin3":"36480","localeAltName":null},{"geonameid":5100008,"name":"Keyport","admin3":"36810","localeAltName":null},{"geonameid":5100144,"name":"Lake Como","admin3":"70110","localeAltName":null},{"geonameid":5100394,"name":"Leonardo","admin3":"45990","localeAltName":null},{"geonameid":5100498,"name":"Lincroft","admin3":"45990","localeAltName":null},{"geonameid":5100559,"name":"Little Silver","admin3":"40770","localeAltName":null},{"geonameid":5100619,"name":"Long Branch","admin3":"41310","localeAltName":null},{"geonameid":5100809,"name":"Manasquan","admin3":"43050","localeAltName":null},{"geonameid":5100886,"name":"Marlboro","admin3":"44070","localeAltName":null},{"geonameid":5100940,"name":"Matawan","admin3":"44520","localeAltName":null},{"geonameid":5101170,"name":"Middletown","admin3":"45990","localeAltName":null},{"geonameid":5101300,"name":"Monmouth Beach","admin3":"47130","localeAltName":null},{"geonameid":5101393,"name":"Morganville","admin3":"44070","localeAltName":null},{"geonameid":5101669,"name":"Navesink","admin3":"45990","localeAltName":null},{"geonameid":5101687,"name":"Neptune City","admin3":"49920","localeAltName":null},{"geonameid":5101935,"name":"North Middletown","admin3":"45990","localeAltName":null},{"geonameid":5102115,"name":"Oakhurst","admin3":"54270","localeAltName":null},{"geonameid":5102136,"name":"Ocean Grove","admin3":"49890","localeAltName":null},{"geonameid":5102147,"name":"Oceanport","admin3":"54570","localeAltName":null},{"geonameid":5102853,"name":"Port Monmouth","admin3":"45990","localeAltName":null},{"geonameid":5103095,"name":"Ramtown","admin3":"33300","localeAltName":null},{"geonameid":5103159,"name":"Red Bank","admin3":"62430","localeAltName":null},{"geonameid":5103374,"name":"Robertsville","admin3":"44070","localeAltName":null},{"geonameid":5103447,"name":"Roosevelt","admin3":"64410","localeAltName":null},{"geonameid":5103564,"name":"Rumson","admin3":"65130","localeAltName":null},{"geonameid":5104493,"name":"Sea Bright","admin3":"66240","localeAltName":null},{"geonameid":5104495,"name":"Sea Girt","admin3":"66330","localeAltName":null},{"geonameid":5104576,"name":"Shark River Hills","admin3":"49890","localeAltName":null},{"geonameid":5104637,"name":"Shrewsbury","admin3":"74900","localeAltName":null},{"geonameid":5104638,"name":"Shrewsbury","admin3":"67350","localeAltName":null},{"geonameid":5104795,"name":"South Belmar","admin3":"37560","localeAltName":null},{"geonameid":5104923,"name":"Spring Lake","admin3":"70110","localeAltName":null},{"geonameid":5104930,"name":"Spring Lake Heights","admin3":"70110","localeAltName":null},{"geonameid":5105095,"name":"Strathmore","admin3":"00070","localeAltName":null},{"geonameid":5105433,"name":"Tinton Falls","admin3":"73020","localeAltName":null},{"geonameid":5105615,"name":"Union Beach","admin3":"74540","localeAltName":null},{"geonameid":5106021,"name":"Wanamassa","admin3":"54270","localeAltName":null},{"geonameid":5106226,"name":"West Belmar","admin3":"76460","localeAltName":null},{"geonameid":5106262,"name":"West Freehold","admin3":"25230","localeAltName":null},{"geonameid":5106275,"name":"West Long Branch","admin3":"79310","localeAltName":null},{"geonameid":5106645,"name":"Yorketown","admin3":"42990","localeAltName":null}],"admin3":[{"geonameid":5095014,"name":"Town of Aberdeen","admin3":"00070","localeAltName":null},{"geonameid":5095129,"name":"Borough of Allenhurst","admin3":"00730"},{"geonameid":5095135,"name":"Borough of Allentown","admin3":"00760","localeAltName":null},{"geonameid":5095287,"name":"City of Asbury Park","admin3":"01960","localeAltName":null},{"geonameid":5095315,"name":"Borough of Atlantic Highlands","admin3":"02110","localeAltName":null},{"geonameid":5095336,"name":"Borough of Avon-by-the-Sea","admin3":"02440","localeAltName":null},{"geonameid":5095567,"name":"Borough of Belmar","admin3":"04930","localeAltName":null},{"geonameid":5095885,"name":"Borough of Bradley Beach","admin3":"06970","localeAltName":null},{"geonameid":5095963,"name":"Borough of Brielle","admin3":"07750","localeAltName":null},{"geonameid":5096817,"name":"Township of Colts Neck","admin3":"14560","localeAltName":null},{"geonameid":5097173,"name":"Borough of Deal","admin3":"16660","localeAltName":null},{"geonameid":5097485,"name":"Borough of Eatontown","admin3":"19840","localeAltName":null},{"geonameid":5097688,"name":"Borough of Englishtown","admin3":"21570","localeAltName":null},{"geonameid":5097772,"name":"Borough of Fair Haven","admin3":"22440","localeAltName":null},{"geonameid":5097846,"name":"Borough of Farmingdale","admin3":"22950","localeAltName":null},{"geonameid":5098289,"name":"Borough of Freehold","admin3":"25200","localeAltName":null},{"geonameid":5098290,"name":"Township of Freehold","admin3":"25230","localeAltName":null},{"geonameid":5098936,"name":"Township of Hazlet","admin3":"30690"},{"geonameid":5099066,"name":"Borough of Highlands","admin3":"31500","localeAltName":null},{"geonameid":5099199,"name":"Township of Holmdel","admin3":"32640"},{"geonameid":5099349,"name":"Town of Howell","admin3":"33300","localeAltName":null},{"geonameid":5099703,"name":"Borough of Interlaken","admin3":"34200","localeAltName":null},{"geonameid":5099965,"name":"Borough of Keansburg","admin3":"36480","localeAltName":null},{"geonameid":5100015,"name":"Borough of Keyport","admin3":"36810","localeAltName":null},{"geonameid":5100561,"name":"Borough of Little Silver","admin3":"40770","localeAltName":null},{"geonameid":5100589,"name":"Village of Loch Arbour","admin3":"41010"},{"geonameid":5100616,"name":"City of Long Branch","admin3":"41310","localeAltName":null},{"geonameid":5100800,"name":"Township of Manalapan","admin3":"42990","localeAltName":null},{"geonameid":5100811,"name":"Borough of Manasquan","admin3":"43050","localeAltName":null},{"geonameid":5100894,"name":"Township of Marlboro","admin3":"44070","localeAltName":null},{"geonameid":5100955,"name":"Borough of Matawan","admin3":"44520","localeAltName":null},{"geonameid":5101174,"name":"Town of Middletown","admin3":"45990","localeAltName":null},{"geonameid":5101242,"name":"Township of Millstone","admin3":"46560"},{"geonameid":5101304,"name":"Borough of Monmouth Beach","admin3":"47130","localeAltName":null},{"geonameid":5101688,"name":"Borough of Neptune City","admin3":"49920","localeAltName":null},{"geonameid":5101693,"name":"Township of Neptune","admin3":"49890","localeAltName":null},{"geonameid":5102144,"name":"Township of Ocean","admin3":"54270","localeAltName":null},{"geonameid":5102180,"name":"Borough of Oceanport","admin3":"54570","localeAltName":null},{"geonameid":5103167,"name":"Borough of Red Bank","admin3":"62430","localeAltName":null},{"geonameid":5103479,"name":"Borough of Roosevelt","admin3":"64410","localeAltName":null},{"geonameid":5103562,"name":"Borough of Rumson","admin3":"65130","localeAltName":null},{"geonameid":5104494,"name":"Borough of Sea Bright","admin3":"66240","localeAltName":null},{"geonameid":5104499,"name":"Borough of Sea Girt","admin3":"66330","localeAltName":null},{"geonameid":5104644,"name":"Borough of Shrewsbury","admin3":"67350","localeAltName":null},{"geonameid":5104645,"name":"Township of Shrewsbury","admin3":"67365"},{"geonameid":5104796,"name":"Borough of Lake Como","admin3":"37560","localeAltName":null},{"geonameid":5104932,"name":"Borough of Spring Lake Heights","admin3":"70140"},{"geonameid":5104935,"name":"Borough of Spring Lake","admin3":"70110","localeAltName":null},{"geonameid":5105435,"name":"Borough of Tinton Falls","admin3":"73020","localeAltName":null},{"geonameid":5105616,"name":"Borough of Union Beach","admin3":"74540","localeAltName":null},{"geonameid":5105710,"name":"Township of Upper Freehold","admin3":"74900","localeAltName":null},{"geonameid":5105965,"name":"Township of Wall","admin3":"76460","localeAltName":null},{"geonameid":5106276,"name":"Borough of West Long Branch","admin3":"79310","localeAltName":null}],"alternateNames":[{"alternatenameId":2089555,"geonameid":5101760,"isoLanguage":"en","alternateName":"New Jersey","isPreferredName":true,"isShortName":true,"isColloquial":false,"isHistoric":false}]},"__N_SSG":true}