{"pageProps":{"locale":"en","admin2":{"geonameid":5102445,"name":"Passaic County","country":"US","admin1":"NJ","admin2":"031","admin3":"","latitude":"41.0337000","longitude":"-74.3003200","localeAltName":null},"admin1":{"geonameid":5101760,"name":"New Jersey","admin1":"NJ","localeAltName":"New Jersey"},"locations":[{"geonameid":5095786,"name":"Bloomingdale","admin3":"06340","localeAltName":null},{"geonameid":5096699,"name":"Clifton","admin3":"13690","localeAltName":null},{"geonameid":5098794,"name":"Haledon","admin3":"29070","localeAltName":null},{"geonameid":5098885,"name":"Haskell","admin3":"76730","localeAltName":null},{"geonameid":5098909,"name":"Hawthorne","admin3":"30570","localeAltName":null},{"geonameid":5100540,"name":"Little Falls","admin3":"40620","localeAltName":null},{"geonameid":5101922,"name":"North Haledon","admin3":"53040","localeAltName":null},{"geonameid":5102443,"name":"Passaic","admin3":"56550","localeAltName":null},{"geonameid":5102466,"name":"Paterson","admin3":"57000","localeAltName":null},{"geonameid":5102825,"name":"Pompton Lakes","admin3":"60090","localeAltName":null},{"geonameid":5102973,"name":"Prospect Park","admin3":"61170","localeAltName":null},{"geonameid":5103286,"name":"Ringwood","admin3":"63150","localeAltName":null},{"geonameid":5104679,"name":"Singac","admin3":"40620","localeAltName":null},{"geonameid":5105455,"name":"Totowa","admin3":"73140","localeAltName":null},{"geonameid":5106014,"name":"Wanaque","admin3":"76730","localeAltName":null},{"geonameid":5106160,"name":"Wayne","admin3":"77840","localeAltName":null},{"geonameid":5106279,"name":"West Milford","admin3":"79460","localeAltName":null},{"geonameid":5106303,"name":"Woodland Park","admin3":"82423","localeAltName":null}],"admin3":[{"geonameid":5095790,"name":"Borough of Bloomingdale","admin3":"06340","localeAltName":null},{"geonameid":5096707,"name":"City of Clifton","admin3":"13690","localeAltName":null},{"geonameid":5098752,"name":"Borough of Haledon","admin3":"29070","localeAltName":null},{"geonameid":5098921,"name":"Borough of Hawthorne","admin3":"30570","localeAltName":null},{"geonameid":5100541,"name":"Township of Little Falls","admin3":"40620","localeAltName":null},{"geonameid":5101923,"name":"Borough of North Haledon","admin3":"53040","localeAltName":null},{"geonameid":5102465,"name":"City of Passaic","admin3":"56550","localeAltName":null},{"geonameid":5102483,"name":"City of Paterson","admin3":"57000","localeAltName":null},{"geonameid":5102829,"name":"Borough of Pompton Lakes","admin3":"60090","localeAltName":null},{"geonameid":5102980,"name":"Borough of Prospect Park","admin3":"61170","localeAltName":null},{"geonameid":5103294,"name":"Borough of Ringwood","admin3":"63150","localeAltName":null},{"geonameid":5105459,"name":"Borough of Totowa","admin3":"73140","localeAltName":null},{"geonameid":5106022,"name":"Borough of Wanaque","admin3":"76730","localeAltName":null},{"geonameid":5106170,"name":"Township of Wayne","admin3":"77840","localeAltName":null},{"geonameid":5106288,"name":"Township of West Milford","admin3":"79460","localeAltName":null},{"geonameid":5106304,"name":"Borough of Woodland Park","admin3":"82423","localeAltName":null}],"alternateNames":[{"alternatenameId":2089555,"geonameid":5101760,"isoLanguage":"en","alternateName":"New Jersey","isPreferredName":true,"isShortName":true,"isColloquial":false,"isHistoric":false}]},"__N_SSG":true}