{"pageProps":{"locale":"en","admin2":{"geonameid":5156844,"name":"Hardin County","country":"US","admin1":"OH","admin2":"065","admin3":"","latitude":"40.6615100","longitude":"-83.6594400","localeAltName":null},"admin1":{"geonameid":5165418,"name":"Ohio","admin1":"OH","localeAltName":"Ohio"},"locations":[{"geonameid":5145374,"name":"Ada","admin3":"43162","localeAltName":null},{"geonameid":5145547,"name":"Alger","admin3":"47712","localeAltName":null},{"geonameid":5152413,"name":"Dunkirk","admin3":"06866","localeAltName":null},{"geonameid":5154770,"name":"Forest","admin3":"37814","localeAltName":null},{"geonameid":5159554,"name":"Kenton","admin3":"63282","localeAltName":null},{"geonameid":5163814,"name":"Mount Victory","admin3":"32837","localeAltName":null}],"admin3":[{"geonameid":5147638,"name":"Township of Blanchard","admin3":"06866","localeAltName":null},{"geonameid":5148580,"name":"Township of Buck","admin3":"09848"},{"geonameid":5149710,"name":"Township of Cessna","admin3":"13316"},{"geonameid":5152366,"name":"Township of Dudley","admin3":"22736"},{"geonameid":5156037,"name":"Township of Goshen","admin3":"31024"},{"geonameid":5156700,"name":"Township of Hale","admin3":"32837","localeAltName":null},{"geonameid":5159006,"name":"Township of Jackson","admin3":"37814","localeAltName":null},{"geonameid":5160714,"name":"Township of Liberty","admin3":"43162","localeAltName":null},{"geonameid":5161506,"name":"Township of Lynn","admin3":"45598"},{"geonameid":5161933,"name":"Township of Marion","admin3":"47712","localeAltName":null},{"geonameid":5162307,"name":"Township of McDonald","admin3":"45920"},{"geonameid":5167119,"name":"Township of Pleasant","admin3":"63282","localeAltName":null},{"geonameid":5168699,"name":"Township of Roundhead","admin3":"68784"},{"geonameid":5173693,"name":"Township of Taylor Creek","admin3":"76198"},{"geonameid":5175808,"name":"Township of Washington","admin3":"81298"}],"alternateNames":[{"alternatenameId":2089549,"geonameid":5165418,"isoLanguage":"en","alternateName":"Ohio","isPreferredName":true,"isShortName":true,"isColloquial":false,"isHistoric":false}]},"__N_SSG":true}