{"pageProps":{"locale":"en","admin2":{"geonameid":4516351,"name":"Lawrence County","country":"US","admin1":"OH","admin2":"087","admin3":"","latitude":"38.5984700","longitude":"-82.5367500","localeAltName":null},"admin1":{"geonameid":5165418,"name":"Ohio","admin1":"OH","localeAltName":"Ohio"},"locations":[{"geonameid":4507497,"name":"Burlington","admin3":"26782","localeAltName":null},{"geonameid":4508412,"name":"Chesapeake","admin3":"78372","localeAltName":null},{"geonameid":4509035,"name":"Coal Grove","admin3":"78974","localeAltName":null},{"geonameid":4515247,"name":"Ironton","admin3":"78974","localeAltName":null},{"geonameid":4521969,"name":"Proctorville","admin3":"78372","localeAltName":null},{"geonameid":4525103,"name":"South Point","admin3":"26782","localeAltName":null}],"admin3":[{"geonameid":4505048,"name":"Township of Aid","admin3":"00562"},{"geonameid":4509964,"name":"Township of Decatur","admin3":"21084"},{"geonameid":4510901,"name":"Township of Elizabeth","admin3":"24822"},{"geonameid":4511529,"name":"Township of Fayette","admin3":"26782","localeAltName":null},{"geonameid":4513624,"name":"Township of Hamilton","admin3":"33054"},{"geonameid":4516364,"name":"Township of Lawrence","admin3":"42154"},{"geonameid":4517715,"name":"Township of Mason","admin3":"48174"},{"geonameid":4521120,"name":"Township of Perry","admin3":"61910"},{"geonameid":4522809,"name":"Township of Rome","admin3":"68280"},{"geonameid":4526026,"name":"Township of Symmes","admin3":"76031"},{"geonameid":4526894,"name":"Township of Union","admin3":"78372","localeAltName":null},{"geonameid":4527026,"name":"Township of Upper","admin3":"78974","localeAltName":null},{"geonameid":4527704,"name":"Township of Washington","admin3":"81396"},{"geonameid":4528546,"name":"Township of Windsor","admin3":"86002"}],"alternateNames":[{"alternatenameId":2089549,"geonameid":5165418,"isoLanguage":"en","alternateName":"Ohio","isPreferredName":true,"isShortName":true,"isColloquial":false,"isHistoric":false}]},"__N_SSG":true}