{"pageProps":{"locale":"en","admin2":{"geonameid":6544271,"name":"Gemeente Halderberge","country":"NL","admin1":"06","admin2":"1655","admin3":"","latitude":"51.5892500","longitude":"4.5059700"},"admin1":{"geonameid":2749990,"name":"Provincie Noord-Brabant","admin1":"06"},"locations":[{"geonameid":2758540,"name":"Bosschenhoofd","admin3":""},{"geonameid":2755708,"name":"Gastelsveer","admin3":""},{"geonameid":2753982,"name":"Hoeven","admin3":""},{"geonameid":2752185,"name":"Kruisstraat","admin3":""},{"geonameid":2752156,"name":"Kuivezand","admin3":""},{"geonameid":2751935,"name":"Langenberg","admin3":""},{"geonameid":2750202,"name":"Nieuw-Gastel","admin3":""},{"geonameid":2748956,"name":"Oud Gastel","admin3":""},{"geonameid":2749053,"name":"Oudenbosch","admin3":""},{"geonameid":2747689,"name":"Schans","admin3":""},{"geonameid":2746846,"name":"Stampersgat","admin3":""},{"geonameid":2746659,"name":"Stoof","admin3":""}],"admin3":[],"alternateNames":[{"alternatenameId":11907788,"geonameid":2749990,"isoLanguage":"de","alternateName":"Nordbrabant","isPreferredName":true,"isShortName":true,"isColloquial":false,"isHistoric":false}]},"__N_SSG":true}