{"pageProps":{"locale":"en","admin2":{"geonameid":2746004,"name":"Gemeente Uden","country":"NL","admin1":"06","admin2":"0856","admin3":"","latitude":"51.6568200","longitude":"5.6125800"},"admin1":{"geonameid":2749990,"name":"Provincie Noord-Brabant","admin1":"06"},"locations":[{"geonameid":2759362,"name":"Bedaf","admin3":""},{"geonameid":2758967,"name":"Biesthoek","admin3":""},{"geonameid":2758884,"name":"Bitswijk","admin3":""},{"geonameid":2756533,"name":"Duifhuis","admin3":""},{"geonameid":2756275,"name":"Eikenheuvel","admin3":""},{"geonameid":2754531,"name":"Heikant","admin3":""},{"geonameid":2754384,"name":"Hengstheuvel","admin3":""},{"geonameid":2754005,"name":"Hoenderbos","admin3":""},{"geonameid":2753980,"name":"Hoeven","admin3":""},{"geonameid":2753668,"name":"Hoogveld","admin3":""},{"geonameid":2753432,"name":"Hulstheuvel","admin3":""},{"geonameid":2753427,"name":"Hultje","admin3":""},{"geonameid":2752652,"name":"Kleuter","admin3":""},{"geonameid":2752453,"name":"Kooldert","admin3":""},{"geonameid":2752027,"name":"Lagenheuvel","admin3":""},{"geonameid":2751883,"name":"Lankes","admin3":""},{"geonameid":2751484,"name":"Loo","admin3":""},{"geonameid":2751275,"name":"Maatsehei","admin3":""},{"geonameid":2750969,"name":"Melle","admin3":""},{"geonameid":2750710,"name":"Moleneind","admin3":""},{"geonameid":2750387,"name":"Niemeskant","admin3":""},{"geonameid":2749735,"name":"Odiliapeel","admin3":""},{"geonameid":2749470,"name":"Oosterens","admin3":""},{"geonameid":2749464,"name":"Oosterheide","admin3":""},{"geonameid":2748367,"name":"Raam","admin3":""},{"geonameid":2748343,"name":"Rakt","admin3":""},{"geonameid":2747728,"name":"Schadron","admin3":""},{"geonameid":2747195,"name":"Slabroek","admin3":""},{"geonameid":2746616,"name":"Strepen","admin3":""},{"geonameid":2746005,"name":"Uden","admin3":""},{"geonameid":2745682,"name":"Velmolen","admin3":""},{"geonameid":2745374,"name":"Vloet","admin3":""},{"geonameid":2745338,"name":"Volkel","admin3":""},{"geonameid":2745337,"name":"Volkelstraat","admin3":""},{"geonameid":2744937,"name":"Weeg","admin3":""}],"admin3":[],"alternateNames":[{"alternatenameId":11907788,"geonameid":2749990,"isoLanguage":"de","alternateName":"Nordbrabant","isPreferredName":true,"isShortName":true,"isColloquial":false,"isHistoric":false}]},"__N_SSG":true}