{"pageProps":{"locale":"en","admin2":{"geonameid":2755463,"name":"Gemeente Goirle","country":"NL","admin1":"06","admin2":"0785","admin3":"","latitude":"51.5087500","longitude":"5.0338100"},"admin1":{"geonameid":2749990,"name":"Provincie Noord-Brabant","admin1":"06"},"locations":[{"geonameid":2760064,"name":"Abcoven","admin3":""},{"geonameid":2758573,"name":"Boschkens","admin3":""},{"geonameid":2758427,"name":"Brakel","admin3":""},{"geonameid":2758374,"name":"Breehees","admin3":""},{"geonameid":2758351,"name":"Brem","admin3":""},{"geonameid":2755464,"name":"Goirle","admin3":""},{"geonameid":2753748,"name":"Hoogeind","admin3":""},{"geonameid":2751468,"name":"Looienhoek","admin3":""},{"geonameid":2750192,"name":"Nieuwkerk","admin3":""},{"geonameid":2748164,"name":"Riel","admin3":""},{"geonameid":2746989,"name":"Spaansehoek","admin3":""},{"geonameid":2745531,"name":"Vijfhuizen","admin3":""},{"geonameid":2744083,"name":"Zandeind","admin3":""}],"admin3":[],"alternateNames":[{"alternatenameId":11907788,"geonameid":2749990,"isoLanguage":"de","alternateName":"Nordbrabant","isPreferredName":true,"isShortName":true,"isColloquial":false,"isHistoric":false}]},"__N_SSG":true}