{"pageProps":{"locale":"en","admin2":{"geonameid":2755357,"name":"Gemeente Grave","country":"NL","admin1":"06","admin2":"0786","admin3":"","latitude":"51.7397000","longitude":"5.7436600"},"admin1":{"geonameid":2749990,"name":"Provincie Noord-Brabant","admin1":"06"},"locations":[{"geonameid":2757758,"name":"De Bolt","admin3":""},{"geonameid":2757663,"name":"De Elft","admin3":""},{"geonameid":2756028,"name":"Escharen","admin3":""},{"geonameid":2755718,"name":"Gassel","admin3":""},{"geonameid":2755358,"name":"Grave","admin3":""},{"geonameid":2754563,"name":"Heihoek","admin3":""},{"geonameid":2752043,"name":"Lageheide","admin3":""},{"geonameid":2750203,"name":"Nieuw-Gassel","admin3":""},{"geonameid":2745678,"name":"Velp","admin3":""},{"geonameid":2744123,"name":"Zaalheuvel","admin3":""}],"admin3":[],"alternateNames":[{"alternatenameId":11907788,"geonameid":2749990,"isoLanguage":"de","alternateName":"Nordbrabant","isPreferredName":true,"isShortName":true,"isColloquial":false,"isHistoric":false}]},"__N_SSG":true}