{"pageProps":{"locale":"en","admin2":{"geonameid":2749679,"name":"Gemeente Oisterwijk","country":"NL","admin1":"06","admin2":"0824","admin3":"","latitude":"51.5528900","longitude":"5.2018800"},"admin1":{"geonameid":2749990,"name":"Provincie Noord-Brabant","admin1":"06"},"locations":[{"geonameid":2758235,"name":"Broekzijde","admin3":""},{"geonameid":2757328,"name":"De Logt","admin3":""},{"geonameid":2755602,"name":"Gemullehoeken","admin3":""},{"geonameid":2754539,"name":"Heikant","admin3":""},{"geonameid":2754522,"name":"Heiligeboom","admin3":""},{"geonameid":2754155,"name":"Heukelom","admin3":""},{"geonameid":2754121,"name":"Heuvelstraat","admin3":""},{"geonameid":2754078,"name":"Hild","admin3":""},{"geonameid":2753822,"name":"Hondsberg","admin3":""},{"geonameid":2752927,"name":"Kerkhoven","admin3":""},{"geonameid":2752109,"name":"Laag-Heukelom","admin3":""},{"geonameid":2750766,"name":"Moergestel","admin3":""},{"geonameid":2749680,"name":"Oisterwijk","admin3":""},{"geonameid":2746670,"name":"Stokske","admin3":""},{"geonameid":2745502,"name":"Vinkenberg","admin3":""},{"geonameid":2743960,"name":"Zelt","admin3":""}],"admin3":[],"alternateNames":[{"alternatenameId":11907788,"geonameid":2749990,"isoLanguage":"de","alternateName":"Nordbrabant","isPreferredName":true,"isShortName":true,"isColloquial":false,"isHistoric":false}]},"__N_SSG":true}