{"pageProps":{"locale":"en","admin2":{"geonameid":2754446,"name":"Gemeente Helmond","country":"NL","admin1":"06","admin2":"0794","admin3":"","latitude":"51.4796800","longitude":"5.6555900"},"admin1":{"geonameid":2749990,"name":"Provincie Noord-Brabant","admin1":"06"},"locations":[{"geonameid":2758814,"name":"Blikhalm","admin3":""},{"geonameid":2758709,"name":"Bokhorst","admin3":""},{"geonameid":2758209,"name":"Brouwhuis","admin3":""},{"geonameid":2757671,"name":"De Eeuwsels","admin3":""},{"geonameid":2756946,"name":"De Weijer","admin3":""},{"geonameid":2756499,"name":"Duizeldonk","admin3":""},{"geonameid":2755738,"name":"Ganzenwinkel","admin3":""},{"geonameid":2755687,"name":"Geeneind","admin3":""},{"geonameid":2754447,"name":"Helmond","admin3":""},{"geonameid":2754278,"name":"Het Goor","admin3":""},{"geonameid":2752624,"name":"Kloostereind","admin3":""},{"geonameid":2752187,"name":"Kruisschot","admin3":""},{"geonameid":2750819,"name":"Mierlo-Hout","admin3":""},{"geonameid":2748859,"name":"Overbrug","admin3":""},{"geonameid":2748100,"name":"Rijpelberg","admin3":""},{"geonameid":2746695,"name":"Stiphout","admin3":""}],"admin3":[],"alternateNames":[{"alternatenameId":11907788,"geonameid":2749990,"isoLanguage":"de","alternateName":"Nordbrabant","isPreferredName":true,"isShortName":true,"isColloquial":false,"isHistoric":false}]},"__N_SSG":true}