{"pageProps":{"locale":"en","admin2":{"geonameid":2749288,"name":"Gemeente Sint Anthonis","country":"NL","admin1":"06","admin2":"1702","admin3":"","latitude":"51.6182600","longitude":"5.8435400"},"admin1":{"geonameid":2749990,"name":"Provincie Noord-Brabant","admin1":"06"},"locations":[{"geonameid":2758858,"name":"Blauwenhoek","admin3":""},{"geonameid":2758253,"name":"Broekkant","admin3":""},{"geonameid":6544747,"name":"Den Hoek","admin3":""},{"geonameid":2756603,"name":"Driehoek","admin3":""},{"geonameid":2754913,"name":"Ham","admin3":""},{"geonameid":6544742,"name":"Hank","admin3":""},{"geonameid":2754535,"name":"Heikant","admin3":""},{"geonameid":2753981,"name":"Hoeven","admin3":""},{"geonameid":2753453,"name":"Hulsbeek","admin3":""},{"geonameid":2751995,"name":"Lamper","admin3":""},{"geonameid":6544734,"name":"Lamperen","admin3":""},{"geonameid":2751987,"name":"Landhorst","admin3":""},{"geonameid":2751842,"name":"Ledeacker","admin3":""},{"geonameid":2750001,"name":"Noord","admin3":""},{"geonameid":2749866,"name":"Noordkant","admin3":""},{"geonameid":2749289,"name":"Oploo","admin3":""},{"geonameid":2748724,"name":"Papenvoort","admin3":""},{"geonameid":2748717,"name":"Park","admin3":""},{"geonameid":2748687,"name":"Peelkant","admin3":""},{"geonameid":2748680,"name":"Peelstraat","admin3":""},{"geonameid":11395891,"name":"Rijkevoort-De Walsert","admin3":""},{"geonameid":2747965,"name":"Rondveld","admin3":""},{"geonameid":2747290,"name":"Sint Anthonis","admin3":""},{"geonameid":6544738,"name":"Spekklef","admin3":""},{"geonameid":2746716,"name":"Stevensbeek","admin3":""},{"geonameid":2746181,"name":"Toven","admin3":""},{"geonameid":2745946,"name":"Ullingen","admin3":""},{"geonameid":6544735,"name":"Verlorenhoek","admin3":""},{"geonameid":2745462,"name":"Vlagberg","admin3":""},{"geonameid":2745061,"name":"Walsert","admin3":""},{"geonameid":2745046,"name":"Wanroij","admin3":""},{"geonameid":2744771,"name":"Westerbeek","admin3":""},{"geonameid":2744069,"name":"Zandkant","admin3":""}],"admin3":[],"alternateNames":[{"alternatenameId":11907788,"geonameid":2749990,"isoLanguage":"de","alternateName":"Nordbrabant","isPreferredName":true,"isShortName":true,"isColloquial":false,"isHistoric":false}]},"__N_SSG":true}