{"pageProps":{"locale":"en","admin2":{"geonameid":2743618,"name":"Gemeente Zundert","country":"NL","admin1":"06","admin2":"0879","admin3":"","latitude":"51.4735200","longitude":"4.6418000"},"admin1":{"geonameid":2749990,"name":"Provincie Noord-Brabant","admin1":"06"},"locations":[{"geonameid":2759981,"name":"Achtmaal","admin3":""},{"geonameid":2758376,"name":"Breedschot","admin3":""},{"geonameid":2757987,"name":"Catarinadal","admin3":""},{"geonameid":2757730,"name":"De Buis","admin3":""},{"geonameid":2757353,"name":"De Lent","admin3":""},{"geonameid":2756607,"name":"Driehoek","admin3":""},{"geonameid":2754733,"name":"Hazeldonk","admin3":""},{"geonameid":2754462,"name":"Hellegat","admin3":""},{"geonameid":2754249,"name":"Het Laar","admin3":""},{"geonameid":2753449,"name":"Hulsdonk","admin3":""},{"geonameid":2753160,"name":"Kaarschot","admin3":""},{"geonameid":2752675,"name":"Klein-Oekel","admin3":""},{"geonameid":2752660,"name":"Klein-Zundert","admin3":""},{"geonameid":2751391,"name":"Luitert","admin3":""},{"geonameid":2751333,"name":"Maalbergen","admin3":""},{"geonameid":2750767,"name":"Moeren","admin3":""},{"geonameid":2749718,"name":"Oekel","admin3":""},{"geonameid":2749211,"name":"Ostaaijen","admin3":""},{"geonameid":2748365,"name":"Raamberg","admin3":""},{"geonameid":2748091,"name":"Rijsbergen","admin3":""},{"geonameid":2746570,"name":"Stuivezand","admin3":""},{"geonameid":2746308,"name":"Tiggelt","admin3":""},{"geonameid":2746306,"name":"Tiggeltscheberg","admin3":""},{"geonameid":2744881,"name":"Weimeren","admin3":""},{"geonameid":2744824,"name":"Wernhout","admin3":""},{"geonameid":2744823,"name":"Wernhoutsbrug","admin3":""},{"geonameid":2744432,"name":"Wildert","admin3":""},{"geonameid":2743619,"name":"Zundert","admin3":""}],"admin3":[],"alternateNames":[{"alternatenameId":11907788,"geonameid":2749990,"isoLanguage":"de","alternateName":"Nordbrabant","isPreferredName":true,"isShortName":true,"isColloquial":false,"isHistoric":false}]},"__N_SSG":true}