{"pageProps":{"locale":"en","admin2":{"geonameid":2757008,"name":"Gemeente Deurne","country":"NL","admin1":"06","admin2":"0762","admin3":"","latitude":"51.4370100","longitude":"5.8224500"},"admin1":{"geonameid":2749990,"name":"Provincie Noord-Brabant","admin1":"06"},"locations":[{"geonameid":2759540,"name":"Baarschot","admin3":""},{"geonameid":2759301,"name":"Beersdonk","admin3":""},{"geonameid":2759252,"name":"Belgeren","admin3":""},{"geonameid":6544853,"name":"Bleijs","admin3":""},{"geonameid":2758369,"name":"Breemortel","admin3":""},{"geonameid":2757571,"name":"De Hees","admin3":""},{"geonameid":6544869,"name":"De Voorstad","admin3":""},{"geonameid":2757009,"name":"Deurne","admin3":""},{"geonameid":2755234,"name":"Groot Bruggen","admin3":""},{"geonameid":2755084,"name":"Groote Bottel","admin3":""},{"geonameid":2754919,"name":"Halte","admin3":""},{"geonameid":2754895,"name":"Hanenberg","admin3":""},{"geonameid":2754568,"name":"Heieind","admin3":""},{"geonameid":2754510,"name":"Heimolen","admin3":""},{"geonameid":2754494,"name":"Heitrak","admin3":""},{"geonameid":2754474,"name":"Helenaveen","admin3":""},{"geonameid":2753819,"name":"Hondseind","admin3":""},{"geonameid":2753780,"name":"Hoogdonk","admin3":""},{"geonameid":2753768,"name":"Hoogebrug","admin3":""},{"geonameid":2753399,"name":"Hutten","admin3":""},{"geonameid":2752941,"name":"Kerkeind","admin3":""},{"geonameid":2752782,"name":"Klein Bruggen","admin3":""},{"geonameid":2752758,"name":"Kleine Bottel","admin3":""},{"geonameid":2752155,"name":"Kulert","admin3":""},{"geonameid":2751811,"name":"Leensel","admin3":""},{"geonameid":2751623,"name":"Liessel","admin3":""},{"geonameid":2751460,"name":"Loon","admin3":""},{"geonameid":2750936,"name":"Merlenberg","admin3":""},{"geonameid":2750688,"name":"Molenhof","admin3":""},{"geonameid":2750442,"name":"Neerkant","admin3":""},{"geonameid":2748741,"name":"Pannenschop","admin3":""},{"geonameid":2747690,"name":"Schans","admin3":""},{"geonameid":2747633,"name":"Schelm","admin3":""},{"geonameid":2747484,"name":"Schooteind","admin3":""},{"geonameid":6544843,"name":"Sloot","admin3":""},{"geonameid":2747133,"name":"Slot","admin3":""},{"geonameid":2745414,"name":"Vlierden","admin3":""},{"geonameid":2745376,"name":"Vloeieind","admin3":""},{"geonameid":2745303,"name":"Voorpeel","admin3":""},{"geonameid":2745293,"name":"Voorste Beersdonk","admin3":""},{"geonameid":2745274,"name":"Voort","admin3":""},{"geonameid":2745194,"name":"Vreewijk","admin3":""},{"geonameid":2745063,"name":"Walsberg","admin3":""},{"geonameid":2743978,"name":"Zeilberg","admin3":""}],"admin3":[],"alternateNames":[{"alternatenameId":11907788,"geonameid":2749990,"isoLanguage":"de","alternateName":"Nordbrabant","isPreferredName":true,"isShortName":true,"isColloquial":false,"isHistoric":false}]},"__N_SSG":true}