{"pageProps":{"locale":"en","admin2":{"geonameid":4053062,"name":"Calhoun County","country":"US","admin1":"AL","admin2":"015","admin3":"","latitude":"33.7714300","longitude":"-85.8260300","localeAltName":null},"admin1":{"geonameid":4829764,"name":"Alabama","admin1":"AL","localeAltName":"Alabama"},"locations":[{"geonameid":4829861,"name":"Alexandria","admin3":"","localeAltName":null},{"geonameid":4830198,"name":"Anniston","admin3":"","localeAltName":null},{"geonameid":4052824,"name":"Bynum","admin3":"","localeAltName":null},{"geonameid":4055139,"name":"Choccolocco","admin3":"","localeAltName":null},{"geonameid":4067534,"name":"Hobson City","admin3":"","localeAltName":null},{"geonameid":4069553,"name":"Jacksonville","admin3":"","localeAltName":null},{"geonameid":4081197,"name":"Ohatchee","admin3":"","localeAltName":null},{"geonameid":4081914,"name":"Oxford","admin3":"","localeAltName":null},{"geonameid":4083004,"name":"Piedmont","admin3":"","localeAltName":null},{"geonameid":4088146,"name":"Saks","admin3":"","localeAltName":null},{"geonameid":4096645,"name":"Weaver","admin3":"","localeAltName":null},{"geonameid":7260270,"name":"West End-Cobb Town","admin3":"","localeAltName":null},{"geonameid":4097459,"name":"White Plains","admin3":"","localeAltName":null}],"admin3":[],"alternateNames":[{"alternatenameId":1632834,"geonameid":4829764,"isoLanguage":"en","alternateName":"Alabama","isPreferredName":true,"isShortName":true,"isColloquial":false,"isHistoric":false}]},"__N_SSG":true}