{"pageProps":{"locale":"ro","admin1":{"geonameid":684038,"name":"Botoşani","country":"RO","admin1":"07"},"admin2":[{"geonameid":686681,"name":"Comuna Adăşeni"},{"geonameid":686546,"name":"Comuna Albeşti"},{"geonameid":686027,"name":"Comuna Avrămeni"},{"geonameid":685505,"name":"Comuna Băluşeni"},{"geonameid":684565,"name":"Comuna Blândeşti"},{"geonameid":683916,"name":"Comuna Brăeşti"},{"geonameid":683655,"name":"Comuna Broscăuţi"},{"geonameid":683017,"name":"Comuna Călăraşi"},{"geonameid":681815,"name":"Comuna Cândeşti"},{"geonameid":680976,"name":"Comuna Conceşti"},{"geonameid":680910,"name":"Comuna Copălău"},{"geonameid":680838,"name":"Comună Cordăreni"},{"geonameid":680814,"name":"Comuna Corlăteni"},{"geonameid":680738,"name":"Comuna Corni"},{"geonameid":680528,"name":"Comuna Coşula"},{"geonameid":680439,"name":"Comuna Coţuşca"},{"geonameid":680172,"name":"Comuna Cristeşti"},{"geonameid":680160,"name":"Comuna Cristineşti"},{"geonameid":8334781,"name":"Comuna Curteşti"},{"geonameid":679350,"name":"Comuna Dângeni"},{"geonameid":679466,"name":"Comuna Dersca"},{"geonameid":679397,"name":"Comuna Dimăcheni"},{"geonameid":679278,"name":"Comuna Dobârceni"},{"geonameid":678876,"name":"Comuna Drăguşeni"},{"geonameid":678603,"name":"Comuna Durneşti"},{"geonameid":677871,"name":"Comuna Frumuşica"},{"geonameid":677507,"name":"Comuna George Enescu"},{"geonameid":676917,"name":"Comuna Gorbăneşti"},{"geonameid":676333,"name":"Comuna Hăneşti"},{"geonameid":676267,"name":"Comuna Havârna"},{"geonameid":8334872,"name":"Comuna Hilişeu-Horia"},{"geonameid":676137,"name":"Comuna Hlipiceni"},{"geonameid":675940,"name":"Comuna Hudeşti"},{"geonameid":675780,"name":"Comuna Ibăneşti"},{"geonameid":674887,"name":"Comuna Leorda"},{"geonameid":674578,"name":"Comuna Lozna"},{"geonameid":674443,"name":"Comuna Lunca"},{"geonameid":673907,"name":"Comuna Manoleasa"},{"geonameid":8334651,"name":"Comuna Mihai Eminescu"},{"geonameid":673388,"name":"Comuna Mihăileni"},{"geonameid":673358,"name":"Comuna Mihălăşeni"},{"geonameid":673314,"name":"Comuna Mileanca"},{"geonameid":673053,"name":"Comuna Mitoc"},{"geonameid":672239,"name":"Comuna Nicşeni"},{"geonameid":671424,"name":"Comuna Păltiniş"},{"geonameid":669946,"name":"Comuna Pomârla"},{"geonameid":669729,"name":"Comuna Prăjeni"},{"geonameid":669370,"name":"Comuna Răchiţi"},{"geonameid":8334951,"name":"Comuna Rãdãuţi-Prut"},{"geonameid":669096,"name":"Comuna Răuseni"},{"geonameid":668848,"name":"Comuna Ripiceni"},{"geonameid":668735,"name":"Comuna Roma"},{"geonameid":668726,"name":"Comuna Româneşti"},{"geonameid":8334832,"name":"Comuna Santa Mare"},{"geonameid":667394,"name":"Comuna Şendriceni"},{"geonameid":666262,"name":"Comuna Stăuceni"},{"geonameid":666084,"name":"Comuna Ştiubieni"},{"geonameid":665808,"name":"Comuna Suharău"},{"geonameid":665787,"name":"Comuna Suliţa"},{"geonameid":664863,"name":"Comuna Todireni"},{"geonameid":664577,"name":"Comuna Truşeşti"},{"geonameid":664574,"name":"Comuna Tudora"},{"geonameid":664222,"name":"Comuna Ungureni"},{"geonameid":664192,"name":"Comuna Unţeni"},{"geonameid":664033,"name":"Comuna Văculeşti"},{"geonameid":662777,"name":"Comuna Vârfu Câmpului"},{"geonameid":8334956,"name":"Comuna Viişoara"},{"geonameid":662627,"name":"Comuna Vlădeni"},{"geonameid":662552,"name":"Comuna Vlăsineşti"},{"geonameid":662472,"name":"Comuna Vorniceni"},{"geonameid":662467,"name":"Comuna Vorona"},{"geonameid":684037,"name":"Municipiul Botoşani"},{"geonameid":8334728,"name":"Municipiul Dorohoi"},{"geonameid":683601,"name":"Oraş Bucecea"},{"geonameid":679734,"name":"Oraş Darabani"},{"geonameid":678079,"name":"Oraş Flãmânzi"},{"geonameid":667755,"name":"Oraş Sãveni"},{"geonameid":666225,"name":"Oraş Ştefãneşti"}],"alternateNames":[{"alternatenameId":490801,"geonameid":798549,"isoLanguage":"ro","alternateName":"România","isPreferredName":true,"isShortName":true,"isColloquial":false,"isHistoric":false}]},"__N_SSG":true}