{"pageProps":{"locale":"ro","admin1":{"geonameid":665849,"name":"Suceava","country":"RO","admin1":"34"},"admin2":[{"geonameid":686670,"name":"Comuna Adâncata"},{"geonameid":686238,"name":"Comuna Arbore"},{"geonameid":685838,"name":"Comuna Baia"},{"geonameid":685734,"name":"Comuna Bălăceana"},{"geonameid":685658,"name":"Comuna Bălcăuţi"},{"geonameid":685065,"name":"Comuna Berchişeşti"},{"geonameid":684865,"name":"Comuna Bilca"},{"geonameid":684385,"name":"Comuna Bogdăneşti"},{"geonameid":684182,"name":"Comuna Boroaia"},{"geonameid":684115,"name":"Comuna Bosanci"},{"geonameid":684040,"name":"Comuna Botoşana"},{"geonameid":683752,"name":"Comuna Breaza"},{"geonameid":683660,"name":"Comuna Brodina"},{"geonameid":683270,"name":"Comuna Buneşti"},{"geonameid":8334829,"name":"Comuna Burla"},{"geonameid":683083,"name":"Comuna Cacica"},{"geonameid":683032,"name":"Comuna Calafindeşti"},{"geonameid":682774,"name":"Comuna Capu Câmpului"},{"geonameid":681568,"name":"Comuna Cârlibaba"},{"geonameid":681739,"name":"Comuna Ciocăneşti"},{"geonameid":681623,"name":"Comuna Ciprian Porumbescu"},{"geonameid":681013,"name":"Comuna Comăneşti"},{"geonameid":8334797,"name":"Comuna Cornu Luncii"},{"geonameid":680615,"name":"Comuna Coşna"},{"geonameid":680087,"name":"Comuna Crucea"},{"geonameid":679718,"name":"Comuna Dărmăneşti"},{"geonameid":679139,"name":"Comuna Dolheşti"},{"geonameid":679088,"name":"Comuna Dorna Cândrenilor"},{"geonameid":8334643,"name":"Comuna Dorna-Arini"},{"geonameid":679083,"name":"Comuna Dorneşti"},{"geonameid":678939,"name":"Comuna Drãgoieşti"},{"geonameid":678877,"name":"Comuna Drăguşeni"},{"geonameid":678697,"name":"Comuna Dumbrăveni"},{"geonameid":678179,"name":"Comuna Fântâna Mare"},{"geonameid":678141,"name":"Comuna Fântânele"},{"geonameid":677980,"name":"Comuna Forăşti"},{"geonameid":677922,"name":"Comuna Frătăuţii Noi"},{"geonameid":677920,"name":"Comuna Frătăuţii Vechi"},{"geonameid":677881,"name":"Comuna Frumosu"},{"geonameid":677787,"name":"Comuna Fundu Moldovei"},{"geonameid":677708,"name":"Comuna Gălăneşti"},{"geonameid":676792,"name":"Comuna Grămeşti"},{"geonameid":676786,"name":"Comuna Grăniceşti"},{"geonameid":676324,"name":"Comuna Hănţeşti"},{"geonameid":676147,"name":"Comuna Hârtop"},{"geonameid":8334787,"name":"Comuna Horodnic De Jos"},{"geonameid":8334789,"name":"Comuna Horodnic De Sus"},{"geonameid":675986,"name":"Comuna Horodniceni"},{"geonameid":675861,"name":"Comuna Iacobeni"},{"geonameid":675805,"name":"Comuna Iaslovăţ"},{"geonameid":675650,"name":"Comuna Ilişeşti"},{"geonameid":675507,"name":"Comuna Ipoteşti"},{"geonameid":675364,"name":"Comuna Izvoarele Sucevei"},{"geonameid":674009,"name":"Comuna Mălini"},{"geonameid":673241,"name":"Comuna Mânăstirea Humorului"},{"geonameid":673803,"name":"Comuna Marginea"},{"geonameid":673049,"name":"Comuna Mitocu Dragomirnei"},{"geonameid":673017,"name":"Comuna Moara"},{"geonameid":672910,"name":"Comuna Moldova Suliţa"},{"geonameid":672896,"name":"Comuna Moldoviţa"},{"geonameid":8334786,"name":"Comuna Muşeniţa"},{"geonameid":671639,"name":"Comuna Ostra"},{"geonameid":671417,"name":"Comuna Păltinoasa"},{"geonameid":671412,"name":"Comuna Panaci"},{"geonameid":671318,"name":"Comuna Părteştii de Jos"},{"geonameid":671262,"name":"Comuna Pătrăuţi"},{"geonameid":670027,"name":"Comuna Poiana Stampei"},{"geonameid":670201,"name":"Comuna Poieni-Solca"},{"geonameid":669966,"name":"Comuna Pojorâta"},{"geonameid":669664,"name":"Comuna Preuteşti"},{"geonameid":669430,"name":"Comuna Putna"},{"geonameid":669291,"name":"Comuna Rădăşeni"},{"geonameid":668835,"name":"Comuna Râşca"},{"geonameid":668284,"name":"Comuna Sadova"},{"geonameid":667951,"name":"Comuna Şaru Dornei"},{"geonameid":667870,"name":"Comuna Satu Mare"},{"geonameid":667703,"name":"Comuna Scheia"},{"geonameid":667359,"name":"Comuna Şerbăuţi"},{"geonameid":667108,"name":"Comuna Siminicea"},{"geonameid":666764,"name":"Comuna Slatina"},{"geonameid":666011,"name":"Comuna Straja"},{"geonameid":665925,"name":"Comuna Stroieşti"},{"geonameid":665898,"name":"Comuna Stulpicani"},{"geonameid":665843,"name":"Comuna Suceviţa"},{"geonameid":664856,"name":"Comuna Todireşti"},{"geonameid":664371,"name":"Comuna Udeşti"},{"geonameid":664316,"name":"Comuna Ulma"},{"geonameid":8334856,"name":"Comuna Vadu Moldovei"},{"geonameid":8334819,"name":"Comuna Valea Moldovei"},{"geonameid":663224,"name":"Comuna Vama"},{"geonameid":663097,"name":"Comuna Vatra Moldoviţei"},{"geonameid":663043,"name":"Comuna Vereşti"},{"geonameid":662993,"name":"Comuna Vicovu de Jos"},{"geonameid":662502,"name":"Comuna Voitinel"},{"geonameid":662477,"name":"Comuna Volovăţ"},{"geonameid":8334726,"name":"Comuna Vultureşti"},{"geonameid":662316,"name":"Comuna Zamostea"},{"geonameid":662117,"name":"Comuna Zvoriştea"},{"geonameid":8334923,"name":"Municipiul Câmpulung Moldovenesc"},{"geonameid":8334897,"name":"Municipiul Fãlticeni"},{"geonameid":669287,"name":"Municipiul Rãdãuţi"},{"geonameid":8334903,"name":"Municipiul Suceava"},{"geonameid":8334957,"name":"Municipiul Vatra Dornei"},{"geonameid":683627,"name":"Oraş Broşteni"},{"geonameid":683040,"name":"Oraş Cajvana"},{"geonameid":679145,"name":"Oraş Dolhasca"},{"geonameid":677962,"name":"Oraş Frasin"},{"geonameid":8334743,"name":"Oraş Gura Humorului"},{"geonameid":674695,"name":"Oraş Liteni"},{"geonameid":673304,"name":"Oraş Milişãuţi"},{"geonameid":668218,"name":"Oraş Salcea"},{"geonameid":8334975,"name":"Oraş Siret"},{"geonameid":8334776,"name":"Oraş Solca"},{"geonameid":662991,"name":"Oraş Vicovu De Sus"}],"alternateNames":[{"alternatenameId":393492,"geonameid":665849,"isoLanguage":"en","alternateName":"Suceava","isPreferredName":true,"isShortName":true,"isColloquial":false,"isHistoric":false},{"alternatenameId":490801,"geonameid":798549,"isoLanguage":"ro","alternateName":"România","isPreferredName":true,"isShortName":true,"isColloquial":false,"isHistoric":false}]},"__N_SSG":true}