{"pageProps":{"locale":"en","admin2":{"geonameid":3333144,"name":"Dudley","country":"GB","admin1":"ENG","admin2":"D7","admin3":"","latitude":"52.5000000","longitude":"-2.1166700"},"admin1":{"geonameid":6269131,"name":"England","admin1":"ENG"},"locations":[{"geonameid":2657361,"name":"Amblecote"},{"geonameid":2654771,"name":"Brettell Lane"},{"geonameid":2654724,"name":"Brierley Hill"},{"geonameid":2652297,"name":"Coseley"},{"geonameid":2652170,"name":"Cradley"},{"geonameid":2651391,"name":"Delph"},{"geonameid":2650839,"name":"Dudley"},{"geonameid":2648292,"name":"Gornalwood"},{"geonameid":2647639,"name":"Halesowen"},{"geonameid":2647376,"name":"Hasbury"},{"geonameid":2646270,"name":"Illey"},{"geonameid":2645420,"name":"Kingswinford"},{"geonameid":2643520,"name":"Lower Gornal"},{"geonameid":2643316,"name":"Lye"},{"geonameid":2641773,"name":"Netherton"},{"geonameid":2640528,"name":"Pedmore"},{"geonameid":2638255,"name":"Sedgley"},{"geonameid":2636769,"name":"Stourbridge"},{"geonameid":2633696,"name":"Wollaston"},{"geonameid":2633622,"name":"Woodside"},{"geonameid":2633558,"name":"Wordsley"}],"admin3":[],"alternateNames":[]},"__N_SSG":true}