{"pageProps":{"locale":"en","admin2":{"geonameid":4143835,"name":"New Castle County","country":"US","admin1":"DE","admin2":"003","admin3":"","latitude":"39.5783300","longitude":"-75.6389800","localeAltName":null},"admin1":{"geonameid":4142224,"name":"Delaware","admin1":"DE","localeAltName":"Delaware"},"locations":[{"geonameid":4141363,"name":"Bear","admin3":"","localeAltName":null},{"geonameid":4141402,"name":"Bellefonte","admin3":"","localeAltName":null},{"geonameid":4141674,"name":"Brookside","admin3":"","localeAltName":null},{"geonameid":4141974,"name":"Claymont","admin3":"","localeAltName":null},{"geonameid":4142191,"name":"Delaware City","admin3":"","localeAltName":null},{"geonameid":4142398,"name":"Edgemoor","admin3":"","localeAltName":null},{"geonameid":4142424,"name":"Elsmere","admin3":"","localeAltName":null},{"geonameid":4142683,"name":"Glasgow","admin3":"","localeAltName":null},{"geonameid":4142766,"name":"Greenville","admin3":"","localeAltName":null},{"geonameid":4142969,"name":"Hockessin","admin3":"","localeAltName":null},{"geonameid":4143637,"name":"Middletown","admin3":"","localeAltName":null},{"geonameid":4143834,"name":"New Castle","admin3":"","localeAltName":null},{"geonameid":4143861,"name":"Newark","admin3":"","localeAltName":null},{"geonameid":4143871,"name":"Newport","admin3":"","localeAltName":null},{"geonameid":4143897,"name":"North Star","admin3":"","localeAltName":null},{"geonameid":4144100,"name":"Pike Creek","admin3":"","localeAltName":null},{"geonameid":4144101,"name":"Pike Creek Valley","admin3":"","localeAltName":null},{"geonameid":4145047,"name":"Townsend","admin3":"","localeAltName":null},{"geonameid":4145381,"name":"Wilmington","admin3":"","localeAltName":null},{"geonameid":4145395,"name":"Wilmington Manor","admin3":"","localeAltName":null}],"admin3":[{"geonameid":7161338,"name":"Town of Elsmere","admin3":"7161338"},{"geonameid":7161449,"name":"City of Newark","admin3":"7161449"},{"geonameid":7161473,"name":"City of Wilmington","admin3":"7161473"},{"geonameid":7161512,"name":"Town of Bellefonte","admin3":"7161512"},{"geonameid":7162025,"name":"Town of Middletown","admin3":"7162025"},{"geonameid":7162053,"name":"Town of Newport","admin3":"7162053"},{"geonameid":7162067,"name":"Town of Odessa","admin3":"7162067"},{"geonameid":7162156,"name":"Town of Townsend","admin3":"7162156"},{"geonameid":7162220,"name":"Village of Arden","admin3":"7162220"},{"geonameid":7162221,"name":"Village of Ardencroft","admin3":"7162221"},{"geonameid":7162222,"name":"Village of Ardentown","admin3":"7162222"},{"geonameid":7316523,"name":"City of Delaware City","admin3":"7316523"},{"geonameid":7316541,"name":"City of New Castle","admin3":"7316541"}],"alternateNames":[{"alternatenameId":1979725,"geonameid":4142224,"isoLanguage":"en","alternateName":"Delaware","isPreferredName":true,"isShortName":true,"isColloquial":false,"isHistoric":false}]},"__N_SSG":true}