{"pageProps":{"locale":"en","admin1":{"geonameid":2638360,"name":"Scotland","country":"GB","admin1":"SCT","latitude":"56.0000000","longitude":"-4.0000000","localeAltName":null},"admin2":[{"geonameid":3333224,"name":"Aberdeen City","admin2":"T5","localeAltName":null},{"geonameid":2657830,"name":"Aberdeenshire","admin2":"T6","localeAltName":null},{"geonameid":2657306,"name":"Angus","admin2":"T7","localeAltName":null},{"geonameid":6457407,"name":"Argyll and Bute","admin2":"T8","localeAltName":null},{"geonameid":3333229,"name":"City of Edinburgh","admin2":"U8","localeAltName":"Edinburgh"},{"geonameid":2652975,"name":"Clackmannanshire","admin2":"U1","localeAltName":null},{"geonameid":2650797,"name":"Dumfries and Galloway","admin2":"U2","localeAltName":null},{"geonameid":3333225,"name":"Dundee City","admin2":"U3","localeAltName":null},{"geonameid":3333226,"name":"East Ayrshire","admin2":"U4","localeAltName":null},{"geonameid":3333227,"name":"East Dunbartonshire","admin2":"U5","localeAltName":null},{"geonameid":2650386,"name":"East Lothian","admin2":"U6","localeAltName":null},{"geonameid":3333228,"name":"East Renfrewshire","admin2":"U7","localeAltName":null},{"geonameid":2634428,"name":"Eilean Siar","admin2":"W8","localeAltName":null},{"geonameid":3333230,"name":"Falkirk","admin2":"U9","localeAltName":null},{"geonameid":2649469,"name":"Fife","admin2":"V1","localeAltName":null},{"geonameid":3333231,"name":"Glasgow City","admin2":"V2","localeAltName":null},{"geonameid":2646944,"name":"Highland","admin2":"V3","localeAltName":null},{"geonameid":2646127,"name":"Inverclyde","admin2":"V4","localeAltName":null},{"geonameid":2642559,"name":"Midlothian","admin2":"V5","localeAltName":null},{"geonameid":2642240,"name":"Moray","admin2":"V6","localeAltName":null},{"geonameid":3333232,"name":"North Ayrshire","admin2":"V7","localeAltName":null},{"geonameid":3333233,"name":"North Lanarkshire","admin2":"V8","localeAltName":null},{"geonameid":2640923,"name":"Orkney Islands","admin2":"V9","localeAltName":null},{"geonameid":3333234,"name":"Perth and Kinross","admin2":"W1","localeAltName":null},{"geonameid":2639494,"name":"Renfrewshire","admin2":"W2","localeAltName":null},{"geonameid":2638010,"name":"Shetland Islands","admin2":"W3","localeAltName":null},{"geonameid":3333235,"name":"South Ayrshire","admin2":"W4","localeAltName":null},{"geonameid":3333236,"name":"South Lanarkshire","admin2":"W5","localeAltName":null},{"geonameid":2636909,"name":"Stirling","admin2":"W6","localeAltName":"Stirling"},{"geonameid":2655192,"name":"The Scottish Borders","admin2":"T9","localeAltName":null},{"geonameid":3333237,"name":"West Dunbartonshire","admin2":"W7","localeAltName":null},{"geonameid":2634354,"name":"West Lothian","admin2":"W9","localeAltName":null}],"admin3":[],"country":{"geonameid":2635167,"country":"GB","name":"United Kingdom of Great Britain and Northern Ireland","localeAltName":"United Kingdom"},"alternateNames":[{"alternatenameId":1555690,"geonameid":2635167,"isoLanguage":"en","alternateName":"United Kingdom","isPreferredName":true,"isShortName":true,"isColloquial":false,"isHistoric":false},{"alternatenameId":2254241,"geonameid":2636909,"isoLanguage":"en","alternateName":"Stirling","isPreferredName":true,"isShortName":true,"isColloquial":false,"isHistoric":false},{"alternatenameId":8666543,"geonameid":3333229,"isoLanguage":"en","alternateName":"Edinburgh","isPreferredName":true,"isShortName":true,"isColloquial":false,"isHistoric":false}]},"__N_SSG":true}