{"pageProps":{"locale":"en","admin2":{"geonameid":2647601,"name":"Borough of Halton","country":"GB","admin1":"ENG","admin2":"E9","admin3":"","latitude":"53.3333300","longitude":"-2.7500000"},"admin1":{"geonameid":6269131,"name":"England","admin1":"ENG","localeAltName":"England"},"locations":[{"geonameid":2651521,"name":"Daresbury"},{"geonameid":2649651,"name":"Farnworth"},{"geonameid":2647643,"name":"Hale"},{"geonameid":2647599,"name":"Halton"},{"geonameid":2642285,"name":"Moore"},{"geonameid":2639904,"name":"Preston on the Hill"},{"geonameid":2638960,"name":"Runcorn"},{"geonameid":2634320,"name":"Weston"},{"geonameid":2634311,"name":"Weston Point"},{"geonameid":2633954,"name":"Widnes"}],"admin3":[{"geonameid":7290984,"name":"Moore","admin3":"00ET003"},{"geonameid":7293631,"name":"Sandymoor","admin3":"00ET006"},{"geonameid":7295222,"name":"Daresbury","admin3":"00ET001"},{"geonameid":7295223,"name":"Halebank","admin3":"00ET005"},{"geonameid":7296534,"name":"Preston Brook","admin3":"00ET004"},{"geonameid":7300654,"name":"Hale","admin3":"00ET002"}],"alternateNames":[{"alternatenameId":1626647,"geonameid":6269131,"isoLanguage":"en","alternateName":"England","isPreferredName":true,"isShortName":true,"isColloquial":false,"isHistoric":false}]},"__N_SSG":true}