{"pageProps":{"locale":"ro","admin2":{"geonameid":8334880,"name":"Oraş Petrila","country":"RO","admin1":"21","admin2":"87077","admin3":"","latitude":"45.4535200","longitude":"23.4369700"},"admin1":{"geonameid":675917,"name":"Hunedoara","admin1":"21"},"locations":[{"geonameid":686108,"name":"Arsuri"},{"geonameid":685075,"name":"Berceni"},{"geonameid":685042,"name":"Bereoni"},{"geonameid":684638,"name":"Bivăoani"},{"geonameid":684091,"name":"Botani"},{"geonameid":683240,"name":"Burdeşti"},{"geonameid":682801,"name":"Căplăreşti"},{"geonameid":681886,"name":"Cimpa"},{"geonameid":679247,"name":"Dobreşti"},{"geonameid":675246,"name":"Jieț"},{"geonameid":675211,"name":"Jitani"},{"geonameid":674614,"name":"Lonea"},{"geonameid":674455,"name":"Lunca"},{"geonameid":674418,"name":"Lunca de Jos"},{"geonameid":672828,"name":"Moşici"},{"geonameid":670969,"name":"Petrila"},{"geonameid":669862,"name":"Popi"},{"geonameid":669577,"name":"Prodeni"},{"geonameid":669165,"name":"Răscoala"},{"geonameid":668131,"name":"Săljani"},{"geonameid":665619,"name":"Taia"},{"geonameid":664989,"name":"Tirici"}],"admin3":[],"alternateNames":[]},"__N_SSG":true}