{"pageProps":{"locale":"de","locations":[{"geonameid":2959441,"name":"Adlershof","admin3":"11000"},{"geonameid":8334624,"name":"Alt-Hohenschönhausen","admin3":"11000"},{"geonameid":2821292,"name":"Alt-Treptow","admin3":"11000"},{"geonameid":2957185,"name":"Altglienicke","admin3":"11000"},{"geonameid":2951935,"name":"Baumschulenweg","admin3":"11000"},{"geonameid":2950159,"name":"Berlin","admin3":"11000"},{"geonameid":2885657,"name":"Berlin Köpenick","admin3":"11000"},{"geonameid":7290255,"name":"Berlin Treptow","admin3":"11000"},{"geonameid":2949073,"name":"Biesdorf","admin3":"11000"},{"geonameid":2948069,"name":"Blankenburg","admin3":"11000"},{"geonameid":2948064,"name":"Blankenfelde","admin3":"11000"},{"geonameid":2946887,"name":"Bohnsdorf","admin3":"11000"},{"geonameid":2944027,"name":"Britz","admin3":"11000"},{"geonameid":2942827,"name":"Buch","admin3":"11000"},{"geonameid":2942122,"name":"Buckow","admin3":"11000"},{"geonameid":2940187,"name":"Charlottenburg","admin3":"11000"},{"geonameid":6545288,"name":"Charlottenburg-Nord","admin3":"11000"},{"geonameid":2939440,"name":"Dahlem","admin3":"11000"},{"geonameid":2928001,"name":"Falkenberg","admin3":"11000"},{"geonameid":8334621,"name":"Falkenhagener Feld","admin3":"11000"},{"geonameid":8334625,"name":"Fennpfuhl","admin3":"11000"},{"geonameid":2942341,"name":"Französisch Buchholz","admin3":"11000"},{"geonameid":2924770,"name":"Friedenau","admin3":"11000"},{"geonameid":2924599,"name":"Friedrichsfelde","admin3":"11000"},{"geonameid":2924577,"name":"Friedrichshagen","admin3":"11000"},{"geonameid":2924573,"name":"Friedrichshain","admin3":"11000"},{"geonameid":2924302,"name":"Frohnau","admin3":"11000"},{"geonameid":2922336,"name":"Gatow","admin3":"11000"},{"geonameid":2920789,"name":"Gesundbrunnen","admin3":"11000"},{"geonameid":3337408,"name":"Gropiusstadt","admin3":"11000"},{"geonameid":2914477,"name":"Grünau","admin3":"11000"},{"geonameid":2914210,"name":"Grunewald","admin3":"11000"},{"geonameid":2911710,"name":"Hakenfelde","admin3":"11000"},{"geonameid":2911559,"name":"Halensee","admin3":"11000"},{"geonameid":8334620,"name":"Hansaviertel","admin3":"11000"},{"geonameid":2909794,"name":"Haselhorst","admin3":"11000"},{"geonameid":2907551,"name":"Heiligensee","admin3":"11000"},{"geonameid":2907298,"name":"Heinersdorf","admin3":"11000"},{"geonameid":2906809,"name":"Hellersdorf","admin3":"11000"},{"geonameid":2905904,"name":"Hermsdorf","admin3":"11000"},{"geonameid":2894755,"name":"Johannisthal","admin3":"11000"},{"geonameid":2892811,"name":"Karlshorst","admin3":"11000"},{"geonameid":2892705,"name":"Karow","admin3":"11000"},{"geonameid":2892051,"name":"Kaulsdorf","admin3":"11000"},{"geonameid":2890136,"name":"Kladow","admin3":"11000"},{"geonameid":2885689,"name":"Konradshöhe","admin3":"11000"},{"geonameid":2885656,"name":"Köpenick","admin3":"11000"},{"geonameid":2884161,"name":"Kreuzberg","admin3":"11000"},{"geonameid":2880498,"name":"Lankwitz","admin3":"11000"},{"geonameid":2878102,"name":"Lichtenberg","admin3":"11000"},{"geonameid":2878044,"name":"Lichtenrade","admin3":"11000"},{"geonameid":2878018,"name":"Lichterfelde","admin3":"11000"},{"geonameid":2875631,"name":"Lübars","admin3":"11000"},{"geonameid":2874455,"name":"Mahlsdorf","admin3":"11000"},{"geonameid":2874120,"name":"Malchow","admin3":"11000"},{"geonameid":2873606,"name":"Mariendorf","admin3":"11000"},{"geonameid":2873589,"name":"Marienfelde","admin3":"11000"},{"geonameid":2873356,"name":"Märkisches Viertel","admin3":"11000"},{"geonameid":2873074,"name":"Marzahn","admin3":"11000"},{"geonameid":6545310,"name":"Mitte","admin3":"11000"},{"geonameid":2870310,"name":"Moabit","admin3":"11000"},{"geonameid":2868837,"name":"Müggelheim","admin3":"11000"},{"geonameid":8334622,"name":"Neu-Hohenschönhausen","admin3":"11000"},{"geonameid":2864695,"name":"Neukölln","admin3":"11000"},{"geonameid":2862890,"name":"Niederschöneweide","admin3":"11000"},{"geonameid":2862888,"name":"Niederschönhausen","admin3":"11000"},{"geonameid":2862423,"name":"Nikolassee","admin3":"11000"},{"geonameid":2859103,"name":"Oberschöneweide","admin3":"11000"},{"geonameid":2855598,"name":"Pankow","admin3":"11000"},{"geonameid":6545311,"name":"Plänterwald","admin3":"11000"},{"geonameid":2852217,"name":"Prenzlauer Berg","admin3":"11000"},{"geonameid":2850850,"name":"Rahnsdorf","admin3":"11000"},{"geonameid":2848756,"name":"Reinickendorf","admin3":"11000"},{"geonameid":2844910,"name":"Rosenthal","admin3":"11000"},{"geonameid":2843350,"name":"Rudow","admin3":"11000"},{"geonameid":2843106,"name":"Rummelsburg","admin3":"11000"},{"geonameid":2838009,"name":"Schmargendorf","admin3":"11000"},{"geonameid":2837672,"name":"Schmöckwitz","admin3":"11000"},{"geonameid":2836788,"name":"Schöneberg","admin3":"11000"},{"geonameid":2832373,"name":"Siemensstadt","admin3":"11000"},{"geonameid":7290252,"name":"Spandau","admin3":"11000"},{"geonameid":2829962,"name":"Staaken","admin3":"11000"},{"geonameid":8334619,"name":"Stadtrandsiedlung Malchow","admin3":"11000"},{"geonameid":2829109,"name":"Steglitz","admin3":"11000"},{"geonameid":2823708,"name":"Tegel","admin3":"11000"},{"geonameid":2823538,"name":"Tempelhof","admin3":"11000"},{"geonameid":2822224,"name":"Tiergarten","admin3":"11000"},{"geonameid":8334623,"name":"Waidmannslust","admin3":"11000"},{"geonameid":2814196,"name":"Wannsee","admin3":"11000"},{"geonameid":2813932,"name":"Wartenberg","admin3":"11000"},{"geonameid":2813472,"name":"Wedding","admin3":"11000"},{"geonameid":2813187,"name":"Weißensee","admin3":"11000"},{"geonameid":2810538,"name":"Westend","admin3":"11000"},{"geonameid":2808664,"name":"Wilhelmsruh","admin3":"11000"},{"geonameid":2808662,"name":"Wilhelmstadt","admin3":"11000"},{"geonameid":2808473,"name":"Wilmersdorf","admin3":"11000"},{"geonameid":2807360,"name":"Wittenau","admin3":"11000"},{"geonameid":2805059,"name":"Zehlendorf","admin3":"11000"}],"admin1":{"geonameid":2950157,"name":"Land Berlin","admin1":"16"},"admin2":"no-adm2","admin3":{"geonameid":6547383,"name":"Berlin, Stadt","country":"DE","admin1":"16","admin2":"00","admin3":"11000","latitude":"52.5233000","longitude":"13.4137700"},"admin4":[{"geonameid":6547539,"name":"Berlin","admin3":"11000"}]},"__N_SSG":true}