{"pageProps":{"locale":"en","admin2":{"geonameid":5800965,"name":"Lincoln County","country":"US","admin1":"WA","admin2":"043","admin3":"","latitude":"47.5761900","longitude":"-118.4187900","localeAltName":null},"admin1":{"geonameid":5815135,"name":"Washington","admin1":"WA","localeAltName":"Washington"},"locations":[{"geonameid":5791805,"name":"Davenport","admin3":"","localeAltName":null},{"geonameid":5805518,"name":"Odessa","admin3":"","localeAltName":null},{"geonameid":5807998,"name":"Reardan","admin3":"","localeAltName":null},{"geonameid":5815966,"name":"Wilbur","admin3":"","localeAltName":null}],"admin3":[{"geonameid":7173280,"name":"City of Davenport","admin3":"7173280"},{"geonameid":7173579,"name":"City of Harrington","admin3":"7173579"},{"geonameid":7174486,"name":"City of Sprague","admin3":"7174486"},{"geonameid":7174776,"name":"Town of Almira","admin3":"7174776"},{"geonameid":7174809,"name":"Town of Creston","admin3":"7174809"},{"geonameid":7174954,"name":"Town of Reardan","admin3":"7174954"},{"geonameid":7175481,"name":"Town of Odessa","admin3":"7175481"},{"geonameid":7175884,"name":"Town of Wilbur","admin3":"7175884"}],"alternateNames":[{"alternatenameId":2089568,"geonameid":5815135,"isoLanguage":"en","alternateName":"Washington","isPreferredName":true,"isShortName":true,"isColloquial":false,"isHistoric":false}]},"__N_SSG":true}