{"pageProps":{"locale":"it","admin2":{"geonameid":3176958,"name":"Province of Florence","country":"IT","admin1":"16","admin2":"FI","admin3":"","latitude":"43.8333300","longitude":"11.3333300","localeAltName":null},"admin1":{"geonameid":3165361,"name":"Toscana","admin1":"16","localeAltName":"Toscana"},"locations":[{"geonameid":3183039,"name":"Antella","admin3":"048001","localeAltName":null},{"geonameid":8950170,"name":"Baccaiano","admin3":"048030","localeAltName":null},{"geonameid":3182586,"name":"Badia a Cerreto","admin3":"048020","localeAltName":null},{"geonameid":3182522,"name":"Bagno a Ripoli","admin3":"048001","localeAltName":null},{"geonameid":8949837,"name":"Balatro","admin3":"048001","localeAltName":null},{"geonameid":3182390,"name":"Barberino di Mugello","admin3":"048002","localeAltName":null},{"geonameid":3182389,"name":"Barberino Val d'Elsa","admin3":"048054","localeAltName":null},{"geonameid":8949844,"name":"Bassa","admin3":"048011","localeAltName":null},{"geonameid":3181990,"name":"Bivigliano","admin3":"048046","localeAltName":null},{"geonameid":3181754,"name":"Borgo San Lorenzo","admin3":"048004","localeAltName":null},{"geonameid":8948931,"name":"Caldine","admin3":"048015","localeAltName":null},{"geonameid":3181199,"name":"Calenzano","admin3":"048005","localeAltName":null},{"geonameid":8950084,"name":"Cambiano","admin3":"048010","localeAltName":null},{"geonameid":3181018,"name":"Campi Bisenzio","admin3":"048006","localeAltName":null},{"geonameid":8950340,"name":"Cancelli","admin3":"048035","localeAltName":null},{"geonameid":6534684,"name":"Capraia e Limite","admin3":"048008","localeAltName":null},{"geonameid":8605020,"name":"Carraia","admin3":"048005","localeAltName":null},{"geonameid":8950331,"name":"Case Nuove","admin3":"048020","localeAltName":null},{"geonameid":3179696,"name":"Castelfiorentino","admin3":"048010","localeAltName":null},{"geonameid":6615308,"name":"Castelnuovo d'Elsa","admin3":"048010","localeAltName":null},{"geonameid":8949063,"name":"Cavallina","admin3":"048002","localeAltName":null},{"geonameid":3179122,"name":"Cerbaia","admin3":"048038","localeAltName":null},{"geonameid":3179035,"name":"Cerreto Guidi","admin3":"048011","localeAltName":null},{"geonameid":3179024,"name":"Certaldo","admin3":"048012","localeAltName":null},{"geonameid":3173756,"name":"Chiesanuova","admin3":"048038","localeAltName":null},{"geonameid":3178785,"name":"Chiocchio","admin3":"048021","localeAltName":null},{"geonameid":8949992,"name":"Ciliegi","admin3":"048035","localeAltName":null},{"geonameid":3178223,"name":"Compiobbi","admin3":"048015","localeAltName":null},{"geonameid":8949840,"name":"Diacceto","admin3":"048032","localeAltName":null},{"geonameid":3177588,"name":"Dicomano","admin3":"048013","localeAltName":null},{"geonameid":8950233,"name":"Dogana","admin3":"048010","localeAltName":null},{"geonameid":3177522,"name":"Donnini","admin3":"048035","localeAltName":null},{"geonameid":3177400,"name":"Empoli","admin3":"048014","localeAltName":null},{"geonameid":3177019,"name":"Fiesole","admin3":"048015","localeAltName":null},{"geonameid":3177009,"name":"Figline Valdarno","admin3":"048052","localeAltName":null},{"geonameid":3176952,"name":"Firenzuola","admin3":"048018","localeAltName":null},{"geonameid":3176959,"name":"Florence","admin3":"048017","localeAltName":null},{"geonameid":8949803,"name":"Fornace-Torribina","admin3":"048011","localeAltName":null},{"geonameid":3176504,"name":"Fucecchio","admin3":"048019","localeAltName":null},{"geonameid":3176388,"name":"Galleno","admin3":"048019","localeAltName":null},{"geonameid":3176430,"name":"Galliano","admin3":"048002","localeAltName":null},{"geonameid":3176339,"name":"Gambassi Terme","admin3":"048020","localeAltName":null},{"geonameid":3176103,"name":"Ginestra Fiorentina","admin3":"048024","localeAltName":null},{"geonameid":3170305,"name":"Grassina Ponte a Ema","admin3":"048001","localeAltName":null},{"geonameid":3175833,"name":"Greve in Chianti","admin3":"048021","localeAltName":null},{"geonameid":8949610,"name":"I filipponi","admin3":"048013","localeAltName":null},{"geonameid":8949832,"name":"Il Rosi","admin3":"048006","localeAltName":null},{"geonameid":3175528,"name":"Impruneta","admin3":"048022","localeAltName":null},{"geonameid":3175525,"name":"Incisa in Val d'Arno","admin3":"048052","localeAltName":null},{"geonameid":3175074,"name":"Lastra a Signa","admin3":"048024","localeAltName":null},{"geonameid":3174972,"name":"Lazzeretto","admin3":"048011","localeAltName":null},{"geonameid":8949999,"name":"Le Botteghe","admin3":"048019","localeAltName":null},{"geonameid":8949682,"name":"Leccio","admin3":"048035","localeAltName":null},{"geonameid":3174714,"name":"Limite","admin3":"048014","localeAltName":null},{"geonameid":3174605,"name":"Londa","admin3":"048025","localeAltName":null},{"geonameid":6544014,"name":"Luco Mugello","admin3":"048004","localeAltName":null},{"geonameid":3174142,"name":"Malmantile","admin3":"048024","localeAltName":null},{"geonameid":8469157,"name":"Mantignano-Ugnano","admin3":"048017","localeAltName":null},{"geonameid":3173988,"name":"Marcignana","admin3":"048014","localeAltName":null},{"geonameid":3173875,"name":"Marradi","admin3":"048026","localeAltName":null},{"geonameid":6544024,"name":"Mercatale","admin3":"048038","localeAltName":null},{"geonameid":3173245,"name":"Molino del Piano","admin3":"048033","localeAltName":null},{"geonameid":3173103,"name":"Montaione","admin3":"048027","localeAltName":null},{"geonameid":8949191,"name":"Montebonello","admin3":"048033","localeAltName":null},{"geonameid":3172861,"name":"Montelupo Fiorentino","admin3":"048028","localeAltName":null},{"geonameid":3172790,"name":"Monterappoli","admin3":"048014","localeAltName":null},{"geonameid":3172728,"name":"Montespertoli","admin3":"048030","localeAltName":null},{"geonameid":8950353,"name":"Osteria Nuova","admin3":"048001","localeAltName":null},{"geonameid":3171615,"name":"Palazzuolo sul Senio","admin3":"048031","localeAltName":null},{"geonameid":8950189,"name":"Panicaglia","admin3":"048004","localeAltName":null},{"geonameid":3171500,"name":"Panzano in Chianti","admin3":"048021","localeAltName":null},{"geonameid":3171297,"name":"Pelago","admin3":"048032","localeAltName":null},{"geonameid":8949296,"name":"Pian di Mugnone","admin3":"048015","localeAltName":null},{"geonameid":3165216,"name":"Pian di San Bartolo-Trespiano","admin3":"048015","localeAltName":null},{"geonameid":8949693,"name":"Pietrapiana","admin3":"048035","localeAltName":null},{"geonameid":3170317,"name":"Pontassieve","admin3":"048033","localeAltName":null},{"geonameid":8949087,"name":"Pozzale-Case Nuove","admin3":"048014","localeAltName":null},{"geonameid":3169906,"name":"Pratolino","admin3":"048046","localeAltName":null},{"geonameid":8949263,"name":"Quattro Strade","admin3":"048024","localeAltName":null},{"geonameid":3169653,"name":"Rabatta","admin3":"048004","localeAltName":null},{"geonameid":3169526,"name":"Reggello","admin3":"048035","localeAltName":null},{"geonameid":3169392,"name":"Rignano sull'Arno","admin3":"048036","localeAltName":null},{"geonameid":8949889,"name":"Rimaggio","admin3":"048001","localeAltName":null},{"geonameid":3169031,"name":"Romola","admin3":"048038","localeAltName":null},{"geonameid":3168980,"name":"Ronta","admin3":"048004","localeAltName":null},{"geonameid":3168962,"name":"Rosano","admin3":"048036","localeAltName":null},{"geonameid":3168813,"name":"Rufina","admin3":"048037","localeAltName":null},{"geonameid":6544009,"name":"Sambuca","admin3":"048054","localeAltName":null},{"geonameid":3168498,"name":"San Casciano in Val di Pesa","admin3":"048038","localeAltName":null},{"geonameid":8949776,"name":"San Clemente","admin3":"048035","localeAltName":null},{"geonameid":3168416,"name":"San Donato","admin3":"048054","localeAltName":null},{"geonameid":8948774,"name":"San Donnino","admin3":"048006","localeAltName":null},{"geonameid":8948885,"name":"San Francesco","admin3":"048032","localeAltName":null},{"geonameid":8949131,"name":"San Jacopo al Girone","admin3":"048015","localeAltName":null},{"geonameid":3168032,"name":"San Martino alla Palma","admin3":"048041","localeAltName":null},{"geonameid":3167985,"name":"San Mauro","admin3":"048044","localeAltName":null},{"geonameid":8949028,"name":"San Pierino","admin3":"048019","localeAltName":null},{"geonameid":3167869,"name":"San Piero a Sieve","admin3":"048053","localeAltName":null},{"geonameid":6544044,"name":"San Polo in Chianti","admin3":"048021","localeAltName":null},{"geonameid":3167782,"name":"San Quirico in Collina","admin3":"048030","localeAltName":null},{"geonameid":8949990,"name":"San Vincenzo a Torri","admin3":"048041","localeAltName":null},{"geonameid":8949732,"name":"Sandetole","admin3":"048013","localeAltName":null},{"geonameid":3167650,"name":"Sant'Agata","admin3":"048053","localeAltName":null},{"geonameid":8949480,"name":"Santa Brigida","admin3":"048033","localeAltName":null},{"geonameid":3166988,"name":"Scandicci","admin3":"048041","localeAltName":null},{"geonameid":3166955,"name":"Scarperia","admin3":"048053","localeAltName":null},{"geonameid":3166601,"name":"Sesto Fiorentino","admin3":"048043","localeAltName":null},{"geonameid":6621384,"name":"Sieci","admin3":"048033","localeAltName":null},{"geonameid":3166540,"name":"Signa","admin3":"048044","localeAltName":null},{"geonameid":8948752,"name":"Spicchio-Sovigliana","admin3":"048050","localeAltName":null},{"geonameid":3166223,"name":"Stabbia","admin3":"048011","localeAltName":null},{"geonameid":3166118,"name":"Strada in Chianti","admin3":"048021","localeAltName":null},{"geonameid":6534685,"name":"Tavarnelle Val di Pesa","admin3":"048054","localeAltName":null},{"geonameid":3165894,"name":"Tavarnuzze","admin3":"048022","localeAltName":null},{"geonameid":8949470,"name":"Tosi","admin3":"048035","localeAltName":null},{"geonameid":8604525,"name":"Troghi","admin3":"048036","localeAltName":null},{"geonameid":3164982,"name":"Vaglia","admin3":"048046","localeAltName":null},{"geonameid":3164422,"name":"Vicchio","admin3":"048049","localeAltName":null},{"geonameid":3164074,"name":"Vinci","admin3":"048050","localeAltName":null},{"geonameid":6544077,"name":"Vitolini","admin3":"048050","localeAltName":null}],"admin3":[{"geonameid":6536819,"name":"Bagno a Ripoli","admin3":"048001","localeAltName":null},{"geonameid":6536820,"name":"Campi Bisenzio","admin3":"048006","localeAltName":null},{"geonameid":6536821,"name":"Firenzuola","admin3":"048018","localeAltName":null},{"geonameid":6536822,"name":"Impruneta","admin3":"048022","localeAltName":null},{"geonameid":6536823,"name":"Londa","admin3":"048025","localeAltName":null},{"geonameid":6536824,"name":"Palazzuolo sul Senio","admin3":"048031","localeAltName":null},{"geonameid":6536825,"name":"Reggello","admin3":"048035","localeAltName":null},{"geonameid":6536826,"name":"Rignano sull'Arno","admin3":"048036","localeAltName":null},{"geonameid":6536827,"name":"San Godenzo","admin3":"048039"},{"geonameid":6536829,"name":"Vicchio","admin3":"048049","localeAltName":null},{"geonameid":6538555,"name":"Borgo San Lorenzo","admin3":"048004","localeAltName":null},{"geonameid":6538556,"name":"Certaldo","admin3":"048012","localeAltName":null},{"geonameid":6538557,"name":"Dicomano","admin3":"048013","localeAltName":null},{"geonameid":6538558,"name":"Empoli","admin3":"048014","localeAltName":null},{"geonameid":6538560,"name":"Lastra a Signa","admin3":"048024","localeAltName":null},{"geonameid":6538561,"name":"Marradi","admin3":"048026","localeAltName":null},{"geonameid":6538562,"name":"Montaione","admin3":"048027","localeAltName":null},{"geonameid":6538563,"name":"Montelupo Fiorentino","admin3":"048028","localeAltName":null},{"geonameid":6538564,"name":"Pontassieve","admin3":"048033","localeAltName":null},{"geonameid":6538566,"name":"Sesto Fiorentino","admin3":"048043","localeAltName":null},{"geonameid":6538567,"name":"Vinci","admin3":"048050","localeAltName":null},{"geonameid":6539963,"name":"Pelago","admin3":"048032","localeAltName":null},{"geonameid":6539964,"name":"Rufina","admin3":"048037","localeAltName":null},{"geonameid":6540469,"name":"Castelfiorentino","admin3":"048010","localeAltName":null},{"geonameid":6540470,"name":"Cerreto Guidi","admin3":"048011","localeAltName":null},{"geonameid":6540471,"name":"Montespertoli","admin3":"048030","localeAltName":null},{"geonameid":6540472,"name":"San Casciano in Val di Pesa","admin3":"048038","localeAltName":null},{"geonameid":6540473,"name":"Vaglia","admin3":"048046","localeAltName":null},{"geonameid":6541086,"name":"Barberino di Mugello","admin3":"048002","localeAltName":null},{"geonameid":6541087,"name":"Calenzano","admin3":"048005","localeAltName":null},{"geonameid":6541088,"name":"Fiesole","admin3":"048015","localeAltName":null},{"geonameid":6541089,"name":"Fucecchio","admin3":"048019","localeAltName":null},{"geonameid":6542006,"name":"Signa","admin3":"048044","localeAltName":null},{"geonameid":6542089,"name":"Scandicci","admin3":"048041","localeAltName":null},{"geonameid":6542212,"name":"Gambassi Terme","admin3":"048020","localeAltName":null},{"geonameid":6542213,"name":"Greve in Chianti","admin3":"048021","localeAltName":null},{"geonameid":6542285,"name":"Firenze","admin3":"048017","localeAltName":null},{"geonameid":6542723,"name":"Capraia e Limite","admin3":"048008","localeAltName":null},{"geonameid":8659026,"name":"Figline e Incisa Valdarno","admin3":"048052","localeAltName":null},{"geonameid":8659027,"name":"Scarperia e San Piero","admin3":"048053","localeAltName":null},{"geonameid":12032184,"name":"Barberino Tavarnelle","admin3":"048054","localeAltName":null}],"alternateNames":[{"alternatenameId":1347493,"geonameid":3165361,"isoLanguage":"it","alternateName":"Toscana","isPreferredName":true,"isShortName":true,"isColloquial":false,"isHistoric":false},{"alternatenameId":3075586,"geonameid":3166118,"isoLanguage":"en","alternateName":"Strada in Chianti","isPreferredName":true,"isShortName":true,"isColloquial":false,"isHistoric":false}]},"__N_SSG":true}