{"pageProps":{"locale":"en","admin2":{"geonameid":3333152,"name":"Hartlepool","country":"GB","admin1":"ENG","admin2":"F5","admin3":"","latitude":"54.6666700","longitude":"-1.2500000","localeAltName":"Hartlepool"},"admin1":{"geonameid":6269131,"name":"England","admin1":"ENG","localeAltName":"England"},"locations":[{"geonameid":2651549,"name":"Dalton Piercy","admin3":"00EB003","localeAltName":null},{"geonameid":2650027,"name":"Elwick","admin3":"00EB004","localeAltName":null},{"geonameid":2650017,"name":"Embleton","admin3":"00EB004","localeAltName":null},{"geonameid":2648089,"name":"Greatham","admin3":"00EB005","localeAltName":null},{"geonameid":2647417,"name":"Hart","admin3":"00EB006","localeAltName":null},{"geonameid":2647400,"name":"Hartlepool","admin3":"","localeAltName":null},{"geonameid":2638274,"name":"Seaton Carew","admin3":"00EF019","localeAltName":null},{"geonameid":2634396,"name":"West Hartlepool","admin3":"","localeAltName":null}],"admin3":[{"geonameid":7290723,"name":"Claxton","admin3":"00EB002"},{"geonameid":7293690,"name":"Greatham","admin3":"00EB005","localeAltName":null},{"geonameid":7295796,"name":"Dalton Piercy","admin3":"00EB003","localeAltName":null},{"geonameid":7295797,"name":"Hart","admin3":"00EB006","localeAltName":null},{"geonameid":7298693,"name":"Brierton","admin3":"00EB001"},{"geonameid":7299066,"name":"Elwick","admin3":"00EB004","localeAltName":null},{"geonameid":7299220,"name":"Newton Bewley","admin3":"00EB007"},{"geonameid":7299221,"name":"Headland","admin3":"00EB008"}],"alternateNames":[{"alternatenameId":8666495,"geonameid":3333152,"isoLanguage":"en","alternateName":"Hartlepool","isPreferredName":true,"isShortName":true,"isColloquial":false,"isHistoric":false},{"alternatenameId":1626647,"geonameid":6269131,"isoLanguage":"en","alternateName":"England","isPreferredName":true,"isShortName":true,"isColloquial":false,"isHistoric":false}]},"__N_SSG":true}