{"pageProps":{"locale":"ro","admin2":{"geonameid":683836,"name":"Comuna Bratca","country":"RO","admin1":"05","admin2":"27686","admin3":"","latitude":"46.9179400","longitude":"22.6182500"},"admin1":{"geonameid":684878,"name":"Bihor","admin1":"05"},"locations":[{"geonameid":679486,"name":"Beznea","admin3":""},{"geonameid":683837,"name":"Bratca","admin3":""},{"geonameid":681259,"name":"Coastea","admin3":""},{"geonameid":679782,"name":"Damiș","admin3":""},{"geonameid":677818,"name":"Fundătura","admin3":""},{"geonameid":676684,"name":"Groi","admin3":""},{"geonameid":674602,"name":"Lorău","admin3":""},{"geonameid":671484,"name":"Păiuş","admin3":""},{"geonameid":670117,"name":"Poiana","admin3":""},{"geonameid":669941,"name":"Ponoară","admin3":""},{"geonameid":669457,"name":"Pusta","admin3":""},{"geonameid":667494,"name":"Secătura","admin3":""},{"geonameid":665733,"name":"Surdu","admin3":""},{"geonameid":663812,"name":"Valea Crișului","admin3":""}],"admin3":[],"alternateNames":[]},"__N_SSG":true}