{"pageProps":{"locale":"en","admin2":{"geonameid":4106460,"name":"Conway County","country":"US","admin1":"AR","admin2":"029","admin3":"","latitude":"35.2622100","longitude":"-92.7013200","localeAltName":null},"admin1":{"geonameid":4099753,"name":"Arkansas","admin1":"AR","localeAltName":"Arkansas"},"locations":[{"geonameid":4122218,"name":"Morrilton","admin3":"93960","localeAltName":null},{"geonameid":4124966,"name":"Oppelo","admin3":"90237","localeAltName":null},{"geonameid":4126911,"name":"Plumerville","admin3":"91779","localeAltName":null}],"admin3":[{"geonameid":4099987,"name":"Township of Austin","admin3":"90081"},{"geonameid":4101251,"name":"Township of Bentley","admin3":"90237","localeAltName":null},{"geonameid":4101958,"name":"Township of Bird","admin3":"90312"},{"geonameid":4104813,"name":"Township of Catholic Point","admin3":"90696"},{"geonameid":4104992,"name":"Township of Cedar Falls","admin3":"90723"},{"geonameid":4113188,"name":"Township of Gregory","admin3":"91530"},{"geonameid":4113208,"name":"Township of Griffin","admin3":"91533"},{"geonameid":4114634,"name":"Township of Higgins","admin3":"91713"},{"geonameid":4115484,"name":"Township of Howard","admin3":"91779","localeAltName":null},{"geonameid":4118944,"name":"Township of Lick Mountain","admin3":"92199"},{"geonameid":4120677,"name":"Township of Martin","admin3":"92412"},{"geonameid":4121140,"name":"Township of McLaren","admin3":"92325"},{"geonameid":4123887,"name":"Township of Nichols","admin3":"92688"},{"geonameid":4124730,"name":"Township of Old Hickory","admin3":"92745"},{"geonameid":4125933,"name":"Township of Petit Jean","admin3":"92856"},{"geonameid":4132161,"name":"Township of Saint Vincent","admin3":"93282"},{"geonameid":4132305,"name":"Township of Steele","admin3":"93492"},{"geonameid":4134448,"name":"Township of Union","admin3":"93672"},{"geonameid":4135413,"name":"Township of Washington","admin3":"93906"},{"geonameid":4135625,"name":"Township of Welborn","admin3":"93960","localeAltName":null},{"geonameid":4136152,"name":"Township of White Eagle","admin3":"93999"}],"alternateNames":[{"alternatenameId":1979420,"geonameid":4099753,"isoLanguage":"en","alternateName":"Arkansas","isPreferredName":true,"isShortName":true,"isColloquial":false,"isHistoric":false}]},"__N_SSG":true}