{"pageProps":{"locale":"en","admin2":{"geonameid":5372259,"name":"Merced County","country":"US","admin1":"CA","admin2":"047","admin3":"","latitude":"37.1918600","longitude":"-120.7176700"},"admin1":{"geonameid":5332921,"name":"California","admin1":"CA","localeAltName":"California"},"locations":[{"geonameid":5325187,"name":"Atwater","admin3":""},{"geonameid":5342522,"name":"Delhi","admin3":""},{"geonameid":5343728,"name":"Dos Palos","admin3":""},{"geonameid":5354747,"name":"Gustine","admin3":""},{"geonameid":7261441,"name":"Hilmar-Irwin","admin3":""},{"geonameid":5365687,"name":"Le Grand","admin3":""},{"geonameid":5367427,"name":"Livingston","admin3":""},{"geonameid":5368453,"name":"Los Banos","admin3":""},{"geonameid":5372253,"name":"Merced","admin3":""},{"geonameid":5383600,"name":"Planada","admin3":""},{"geonameid":5397374,"name":"South Dos Palos","admin3":""},{"geonameid":5410144,"name":"Winton","admin3":""}],"admin3":[{"geonameid":11788524,"name":"City of Los Banos","admin3":"11788524"},{"geonameid":11788715,"name":"City of Merced","admin3":"11788715"},{"geonameid":11788736,"name":"City of Atwater","admin3":"11788736"},{"geonameid":11788740,"name":"City of Dos Palos","admin3":"11788740"},{"geonameid":11788771,"name":"City of Livingston","admin3":"11788771"}],"alternateNames":[{"alternatenameId":1632217,"geonameid":5332921,"isoLanguage":"en","alternateName":"California","isPreferredName":true,"isShortName":true,"isColloquial":false,"isHistoric":false}]},"__N_SSG":true}