{"pageProps":{"locale":"en","admin2":{"geonameid":5389519,"name":"Sacramento County","country":"US","admin1":"CA","admin2":"067","admin3":"","latitude":"38.4493200","longitude":"-121.3442400"},"admin1":{"geonameid":5332921,"name":"California","admin1":"CA","localeAltName":"California"},"locations":[{"geonameid":5324105,"name":"Antelope","admin3":""},{"geonameid":7260806,"name":"Arden-Arcade","admin3":""},{"geonameid":5334336,"name":"Carmichael","admin3":""},{"geonameid":5337561,"name":"Citrus Heights","admin3":""},{"geonameid":5337829,"name":"Clay","admin3":""},{"geonameid":5346111,"name":"Elk Grove","admin3":""},{"geonameid":5346342,"name":"Elverta","admin3":""},{"geonameid":5347287,"name":"Fair Oaks","admin3":""},{"geonameid":5349613,"name":"Florin","admin3":""},{"geonameid":5349705,"name":"Folsom","admin3":""},{"geonameid":5349803,"name":"Foothill Farms","admin3":""},{"geonameid":7315196,"name":"Fruitridge Pocket","admin3":""},{"geonameid":5351428,"name":"Galt","admin3":""},{"geonameid":5352771,"name":"Gold River","admin3":""},{"geonameid":5356429,"name":"Herald","admin3":""},{"geonameid":5364095,"name":"La Riviera","admin3":""},{"geonameid":5364271,"name":"Laguna","admin3":""},{"geonameid":5377640,"name":"North Highlands","admin3":""},{"geonameid":5379566,"name":"Orangevale","admin3":""},{"geonameid":5381305,"name":"Parkway","admin3":""},{"geonameid":5385941,"name":"Rancho Cordova","admin3":""},{"geonameid":5386027,"name":"Rancho Murieta","admin3":""},{"geonameid":5387687,"name":"Rio Linda","admin3":""},{"geonameid":5388873,"name":"Rosemont","admin3":""},{"geonameid":5389489,"name":"Sacramento","admin3":""},{"geonameid":7176039,"name":"Vineyard","admin3":""},{"geonameid":5407004,"name":"Walnut Grove","admin3":""},{"geonameid":5409941,"name":"Wilton","admin3":""}],"admin3":[{"geonameid":11788300,"name":"City of Sacramento","admin3":"11788300"},{"geonameid":11788481,"name":"City of Rancho Cordova","admin3":"11788481"},{"geonameid":11788770,"name":"City of Citrus Heights","admin3":"11788770"},{"geonameid":11788850,"name":"City of Elk Grove","admin3":"11788850"},{"geonameid":11788920,"name":"City of Folsom","admin3":"11788920"},{"geonameid":11788936,"name":"City of Galt","admin3":"11788936"},{"geonameid":11788946,"name":"City of Isleton","admin3":"11788946"}],"alternateNames":[{"alternatenameId":1632217,"geonameid":5332921,"isoLanguage":"en","alternateName":"California","isPreferredName":true,"isShortName":true,"isColloquial":false,"isHistoric":false}]},"__N_SSG":true}