{"pageProps":{"locale":"en","admin2":{"geonameid":12022123,"name":"Waadhoeke","country":"NL","admin1":"02","admin2":"1949","admin3":"","latitude":"53.1894700","longitude":"5.5079300"},"admin1":{"geonameid":2755812,"name":"Provincie Friesland","admin1":"02"},"locations":[{"geonameid":2746369,"name":"'t Heechhout","admin3":""},{"geonameid":2760053,"name":"Achlum","admin3":""},{"geonameid":2759670,"name":"Arkens","admin3":""},{"geonameid":2759513,"name":"Baijum","admin3":""},{"geonameid":2759057,"name":"Berltsum","admin3":""},{"geonameid":2759283,"name":"Bitgum","admin3":""},{"geonameid":2759281,"name":"Bitgummole","admin3":""},{"geonameid":2758821,"name":"Blessum","admin3":""},{"geonameid":2758747,"name":"Boer","admin3":""},{"geonameid":2758458,"name":"Boksum","admin3":""},{"geonameid":2758657,"name":"Bonkwerd","admin3":""},{"geonameid":2757475,"name":"Deinum","admin3":""},{"geonameid":2756828,"name":"Dijkshoek","admin3":""},{"geonameid":2756760,"name":"Doijum","admin3":""},{"geonameid":2756719,"name":"Dongjum","admin3":""},{"geonameid":2756561,"name":"Dronryp","admin3":""},{"geonameid":2755928,"name":"Fatum","admin3":""},{"geonameid":2755902,"name":"Firdgum","admin3":""},{"geonameid":2755845,"name":"Franeker","admin3":""},{"geonameid":2754770,"name":"Hatsum","admin3":""},{"geonameid":2754421,"name":"Hemmemabuurt","admin3":""},{"geonameid":2754366,"name":"Herbaijum","admin3":""},{"geonameid":2754044,"name":"Hitzum","admin3":""},{"geonameid":2756088,"name":"Ingelum","admin3":""},{"geonameid":2752867,"name":"Kie","admin3":""},{"geonameid":2752860,"name":"Kiesterzijl","admin3":""},{"geonameid":2752827,"name":"Kingmatille","admin3":""},{"geonameid":2752619,"name":"Klooster-Lidlum","admin3":""},{"geonameid":2759758,"name":"Kloosteranjum","admin3":""},{"geonameid":2752569,"name":"Koehool","admin3":""},{"geonameid":2751375,"name":"Lutjelollum","admin3":""},{"geonameid":2751268,"name":"Maemert","admin3":""},{"geonameid":2751122,"name":"Marsum","admin3":""},{"geonameid":2750965,"name":"Menaam","admin3":""},{"geonameid":2750825,"name":"Miedum","admin3":""},{"geonameid":2750790,"name":"Minnertsga","admin3":""},{"geonameid":2750351,"name":"Nieuwe Bildtdijk","admin3":""},{"geonameid":2750348,"name":"Nieuwe Bildtzijl","admin3":""},{"geonameid":2750104,"name":"Nij Altoenae","admin3":""},{"geonameid":2749500,"name":"Oosterbierum","admin3":""},{"geonameid":2749158,"name":"Oude Bildtdijk","admin3":""},{"geonameid":2749155,"name":"Oude Bildtzijl","admin3":""},{"geonameid":2748674,"name":"Peins","admin3":""},{"geonameid":2748598,"name":"Pietersbierum","admin3":""},{"geonameid":2748168,"name":"Ried","admin3":""},{"geonameid":2748044,"name":"Ritsumazijl","admin3":""},{"geonameid":2747774,"name":"Salverd","admin3":""},{"geonameid":2747698,"name":"Schalsum","admin3":""},{"geonameid":2747380,"name":"Sexbierum","admin3":""},{"geonameid":2747297,"name":"Sint Annaparochie","admin3":""},{"geonameid":2747270,"name":"Sint Jacobiparochie","admin3":""},{"geonameid":2747558,"name":"Skingen","admin3":""},{"geonameid":6697892,"name":"Skyldum","admin3":""},{"geonameid":2747184,"name":"Slappeterp","admin3":""},{"geonameid":2746997,"name":"Sopsum","admin3":""},{"geonameid":2746972,"name":"Spannum","admin3":""},{"geonameid":2746270,"name":"Tjeppenboer","admin3":""},{"geonameid":2746151,"name":"Tritzum","admin3":""},{"geonameid":2746024,"name":"Tzum","admin3":""},{"geonameid":2746023,"name":"Tzummarum","admin3":""},{"geonameid":2745163,"name":"Vrouwenparochie","admin3":""},{"geonameid":2745028,"name":"War","admin3":""},{"geonameid":6697897,"name":"Weakens","admin3":""},{"geonameid":2744645,"name":"Westhoek","admin3":""},{"geonameid":2744551,"name":"Wier","admin3":""},{"geonameid":2744338,"name":"Winsum","admin3":""},{"geonameid":2744848,"name":"Wjelsryp","admin3":""},{"geonameid":2743922,"name":"Zevenhuizen","admin3":""},{"geonameid":2743553,"name":"Zwarte Haan","admin3":""},{"geonameid":2743507,"name":"Zweins","admin3":""}],"admin3":[],"alternateNames":[{"alternatenameId":5463435,"geonameid":2755812,"isoLanguage":"de","alternateName":"Friesland","isPreferredName":true,"isShortName":true,"isColloquial":false,"isHistoric":false}]},"__N_SSG":true}