{"pageProps":{"locale":"en","admin2":{"geonameid":6691320,"name":"Nord-du-Québec","country":"CA","admin1":"10","admin2":"10","admin3":"","latitude":"51.9620000","longitude":"-74.8961000"},"admin1":{"geonameid":6115047,"name":"Québec","admin1":"10"},"locations":[{"geonameid":5882994,"name":"Akulivik","admin3":""},{"geonameid":5888355,"name":"Aupaluk","admin3":""},{"geonameid":5890775,"name":"Baie-James","admin3":"99060"},{"geonameid":5896442,"name":"Beaucanton","admin3":"99060"},{"geonameid":5908976,"name":"Brisay","admin3":"99060"},{"geonameid":5919850,"name":"Chapais","admin3":"99020"},{"geonameid":5921147,"name":"Chibougamau","admin3":"99025"},{"geonameid":5921589,"name":"Chisasibi","admin3":""},{"geonameid":5938241,"name":"Desmaraisville","admin3":"99060"},{"geonameid":5941214,"name":"Domaine-Frontiersman","admin3":"99025"},{"geonameid":5945847,"name":"Eastmain","admin3":""},{"geonameid":5945848,"name":"Eastmain","admin3":""},{"geonameid":5983577,"name":"Inukjuak","admin3":""},{"geonameid":5984875,"name":"Ivujivik","admin3":""},{"geonameid":5989203,"name":"Kangiqsualujjuaq","admin3":""},{"geonameid":5989205,"name":"Kangiqsujuaq","admin3":""},{"geonameid":5989218,"name":"Kangirsuk","admin3":""},{"geonameid":5991526,"name":"Keyano","admin3":"99060"},{"geonameid":5994517,"name":"Kuujjuaq","admin3":""},{"geonameid":5994519,"name":"Kuujjuarapik","admin3":""},{"geonameid":6949250,"name":"La Grande IV","admin3":"99060"},{"geonameid":6047965,"name":"La Grande-1","admin3":"99060"},{"geonameid":5999259,"name":"Lac-Bachelor","admin3":"99060"},{"geonameid":6047892,"name":"Laforge-1","admin3":"99060"},{"geonameid":6047893,"name":"Laforge-2","admin3":"99060"},{"geonameid":6051264,"name":"Lebel-sur-Quévillon","admin3":"99005"},{"geonameid":6067747,"name":"Matagami","admin3":"99015"},{"geonameid":6075055,"name":"Miquelon","admin3":"99060"},{"geonameid":6075492,"name":"Mistissini","admin3":""},{"geonameid":6088623,"name":"Nitchequon","admin3":"99060"},{"geonameid":6092181,"name":"Obalski","admin3":"99025"},{"geonameid":6114471,"name":"Puvirnituq","admin3":""},{"geonameid":6114894,"name":"Quaqtaq","admin3":""},{"geonameid":6115701,"name":"Radisson","admin3":"99060"},{"geonameid":6127160,"name":"Roggan River","admin3":"99060"},{"geonameid":6139393,"name":"Salluit","admin3":""},{"geonameid":6161803,"name":"Tasiujaq","admin3":""},{"geonameid":6171824,"name":"Umiujaq","admin3":""},{"geonameid":6173254,"name":"Val-Paradis","admin3":"99060"},{"geonameid":6174327,"name":"Villebois","admin3":"99060"},{"geonameid":6176563,"name":"Waskaganish","admin3":"99060"},{"geonameid":6176565,"name":"Waskaganish","admin3":""},{"geonameid":6176654,"name":"Waswanipi","admin3":""},{"geonameid":6178040,"name":"Wemindji","admin3":"99060"},{"geonameid":6179836,"name":"Whapmagoostui","admin3":""}],"admin3":[{"geonameid":8673743,"name":"Matagami","admin3":"99015"},{"geonameid":8673847,"name":"Chapais","admin3":"99020"},{"geonameid":8673885,"name":"Lebel-sur-Quévillon","admin3":"99005"},{"geonameid":8674037,"name":"Baie-James","admin3":"99060"},{"geonameid":8674156,"name":"Chibougamau","admin3":"99025"}],"alternateNames":[]},"__N_SSG":true}