{"pageProps":{"locale":"en","admin2":{"geonameid":4158449,"name":"Hernando County","country":"US","admin1":"FL","admin2":"053","admin3":"","latitude":"28.5561700","longitude":"-82.4684900"},"admin1":{"geonameid":4155751,"name":"Florida","admin1":"FL","localeAltName":"Florida"},"locations":[{"geonameid":4148975,"name":"Brookridge","admin3":""},{"geonameid":4148986,"name":"Brooksville","admin3":""},{"geonameid":4158446,"name":"Hernando Beach","admin3":""},{"geonameid":7172786,"name":"High Point","admin3":""},{"geonameid":4158668,"name":"Hill 'n Dale","admin3":""},{"geonameid":4163633,"name":"Masaryktown","admin3":""},{"geonameid":4166124,"name":"North Brooksville","admin3":""},{"geonameid":7260514,"name":"North Weeki Wachee","admin3":""},{"geonameid":4170014,"name":"Ridge Manor","admin3":""},{"geonameid":4173396,"name":"South Brooksville","admin3":""},{"geonameid":4173838,"name":"Spring Hill","admin3":""},{"geonameid":4175391,"name":"Timber Pines","admin3":""},{"geonameid":4177635,"name":"Weeki Wachee Gardens","admin3":""}],"admin3":[{"geonameid":7170978,"name":"City of Weeki Wachee","admin3":"7170978"},{"geonameid":11789040,"name":"City of Brooksville","admin3":"11789040"}],"alternateNames":[{"alternatenameId":2080779,"geonameid":4155751,"isoLanguage":"en","alternateName":"Florida","isPreferredName":true,"isShortName":true,"isColloquial":false,"isHistoric":false}]},"__N_SSG":true}