{"pageProps":{"locale":"en","admin2":{"geonameid":4163277,"name":"Manatee County","country":"US","admin1":"FL","admin2":"081","admin3":"","latitude":"27.4775200","longitude":"-82.3575400"},"admin1":{"geonameid":4155751,"name":"Florida","admin1":"FL","localeAltName":"Florida"},"locations":[{"geonameid":4146082,"name":"Anna Maria","admin3":""},{"geonameid":4146934,"name":"Bayshore Gardens","admin3":""},{"geonameid":4148708,"name":"Bradenton","admin3":""},{"geonameid":4148710,"name":"Bradenton Beach","admin3":""},{"geonameid":4152003,"name":"Cortez","admin3":""},{"geonameid":4154367,"name":"Ellenton","admin3":""},{"geonameid":4158966,"name":"Holmes Beach","admin3":""},{"geonameid":4162776,"name":"Longboat Key","admin3":""},{"geonameid":4164047,"name":"Memphis","admin3":""},{"geonameid":4167632,"name":"Palmetto","admin3":""},{"geonameid":4171741,"name":"Samoset","admin3":""},{"geonameid":4173392,"name":"South Bradenton","admin3":""},{"geonameid":4177759,"name":"West Bradenton","admin3":""},{"geonameid":4177930,"name":"West Samoset","admin3":""},{"geonameid":4178215,"name":"Whitfield","admin3":""}],"admin3":[{"geonameid":7169323,"name":"City of Anna Maria","admin3":"7169323"},{"geonameid":7169647,"name":"City of Bradenton","admin3":"7169647"},{"geonameid":7169648,"name":"City of Bradenton Beach","admin3":"7169648"},{"geonameid":7170028,"name":"City of Palmetto","admin3":"7170028"},{"geonameid":7170211,"name":"City of Holmes Beach","admin3":"7170211"},{"geonameid":7171284,"name":"Town of Longboat Key","admin3":"7171284"}],"alternateNames":[{"alternatenameId":2080779,"geonameid":4155751,"isoLanguage":"en","alternateName":"Florida","isPreferredName":true,"isShortName":true,"isColloquial":false,"isHistoric":false}]},"__N_SSG":true}