{"pageProps":{"locale":"en","admin2":{"geonameid":4168988,"name":"Polk County","country":"US","admin1":"FL","admin2":"105","admin3":"","latitude":"27.9488800","longitude":"-81.6976700"},"admin1":{"geonameid":4155751,"name":"Florida","admin1":"FL","localeAltName":"Florida"},"locations":[{"geonameid":4145956,"name":"Alturas","admin3":""},{"geonameid":4146389,"name":"Auburndale","admin3":""},{"geonameid":4146481,"name":"Babson Park","admin3":""},{"geonameid":4146723,"name":"Bartow","admin3":""},{"geonameid":4151162,"name":"Citrus Ridge","admin3":""},{"geonameid":4151607,"name":"Combee Settlement","admin3":""},{"geonameid":4152360,"name":"Crooked Lake Park","admin3":""},{"geonameid":4152472,"name":"Crystal Lake","admin3":""},{"geonameid":4152628,"name":"Cypress Gardens","admin3":""},{"geonameid":4152805,"name":"Davenport","admin3":""},{"geonameid":4153757,"name":"Dundee","admin3":""},{"geonameid":4153884,"name":"Eagle Lake","admin3":""},{"geonameid":4155988,"name":"Fort Meade","admin3":""},{"geonameid":4156326,"name":"Frostproof","admin3":""},{"geonameid":4156367,"name":"Fuller Heights","admin3":""},{"geonameid":4156370,"name":"Fussels Corner","admin3":""},{"geonameid":4156746,"name":"Gibsonia","admin3":""},{"geonameid":4157827,"name":"Haines City","admin3":""},{"geonameid":4158604,"name":"Highland City","admin3":""},{"geonameid":4159796,"name":"Inwood","admin3":""},{"geonameid":4160086,"name":"Jan-Phyl Village","admin3":""},{"geonameid":4160651,"name":"Kathleen","admin3":""},{"geonameid":4161150,"name":"Lake Alfred","admin3":""},{"geonameid":4161250,"name":"Lake Hamilton","admin3":""},{"geonameid":4161400,"name":"Lake Wales","admin3":""},{"geonameid":4161438,"name":"Lakeland","admin3":""},{"geonameid":4161444,"name":"Lakeland Highlands","admin3":""},{"geonameid":4162856,"name":"Loughman","admin3":""},{"geonameid":4163954,"name":"Medulla","admin3":""},{"geonameid":4165419,"name":"Mulberry","admin3":""},{"geonameid":4168985,"name":"Polk City","admin3":""},{"geonameid":4177308,"name":"Wahneta","admin3":""},{"geonameid":4178449,"name":"Willow Oak","admin3":""},{"geonameid":4178540,"name":"Winston","admin3":""},{"geonameid":4178552,"name":"Winter Haven","admin3":""}],"admin3":[{"geonameid":7169346,"name":"City of Auburndale","admin3":"7169346"},{"geonameid":7169369,"name":"City of Bartow","admin3":"7169369"},{"geonameid":7169386,"name":"City of Eagle Lake","admin3":"7169386"},{"geonameid":7169465,"name":"City of Fort Meade","admin3":"7169465"},{"geonameid":7169484,"name":"City of Frostproof","admin3":"7169484"},{"geonameid":7169843,"name":"City of Davenport","admin3":"7169843"},{"geonameid":7169941,"name":"City of Mulberry","admin3":"7169941"},{"geonameid":7170297,"name":"City of Lake Alfred","admin3":"7170297"},{"geonameid":7170305,"name":"City of Lake Wales","admin3":"7170305"},{"geonameid":7170309,"name":"City of Lakeland","admin3":"7170309"},{"geonameid":7171027,"name":"City of Winter Haven","admin3":"7171027"},{"geonameid":7171088,"name":"Town of Hillcrest Heights","admin3":"7171088"},{"geonameid":7171217,"name":"Town of Lake Hamilton","admin3":"7171217"},{"geonameid":7171645,"name":"Town of Dundee","admin3":"7171645"},{"geonameid":7172354,"name":"Town of Polk City","admin3":"7172354"},{"geonameid":7172681,"name":"Village of Highland Park","admin3":"7172681"},{"geonameid":11788316,"name":"City of Haines City","admin3":"11788316"}],"alternateNames":[{"alternatenameId":2080779,"geonameid":4155751,"isoLanguage":"en","alternateName":"Florida","isPreferredName":true,"isShortName":true,"isColloquial":false,"isHistoric":false}]},"__N_SSG":true}