{"pageProps":{"locale":"en","admin2":{"geonameid":4169471,"name":"Putnam County","country":"US","admin1":"FL","admin2":"107","admin3":"","latitude":"29.6086300","longitude":"-81.7443000"},"admin1":{"geonameid":4155751,"name":"Florida","admin1":"FL","localeAltName":"Florida"},"locations":[{"geonameid":4152291,"name":"Crescent City","admin3":""},{"geonameid":4154037,"name":"East Palatka","admin3":""},{"geonameid":4159765,"name":"Interlachen","admin3":""},{"geonameid":4167482,"name":"Palatka","admin3":""}],"admin3":[{"geonameid":7170022,"name":"City of Palatka","admin3":"7170022"},{"geonameid":7171140,"name":"Town of Interlachen","admin3":"7171140"},{"geonameid":7172075,"name":"Town of Welaka","admin3":"7172075"},{"geonameid":7172360,"name":"Town of Pomona Park","admin3":"7172360"},{"geonameid":7317825,"name":"City of Crescent City","admin3":"7317825"}],"alternateNames":[{"alternatenameId":2080779,"geonameid":4155751,"isoLanguage":"en","alternateName":"Florida","isPreferredName":true,"isShortName":true,"isColloquial":false,"isHistoric":false}]},"__N_SSG":true}