{"pageProps":{"locale":"en","admin2":{"geonameid":4174301,"name":"Sumter County","country":"US","admin1":"FL","admin2":"119","admin3":"","latitude":"28.7048200","longitude":"-82.0810000"},"admin1":{"geonameid":4155751,"name":"Florida","admin1":"FL","localeAltName":"Florida"},"locations":[{"geonameid":4149433,"name":"Bushnell","admin3":""},{"geonameid":4150411,"name":"Center Hill","admin3":""},{"geonameid":4161327,"name":"Lake Panasoffkee","admin3":""},{"geonameid":4175179,"name":"The Villages","admin3":""},{"geonameid":4178292,"name":"Wildwood","admin3":""}],"admin3":[{"geonameid":7169686,"name":"City of Bushnell","admin3":"7169686"},{"geonameid":7317780,"name":"City of Center Hill","admin3":"7317780"},{"geonameid":7317805,"name":"City of Coleman","admin3":"7317805"},{"geonameid":11788440,"name":"City of Webster","admin3":"11788440"},{"geonameid":11788477,"name":"City of Wildwood","admin3":"11788477"}],"alternateNames":[{"alternatenameId":2080779,"geonameid":4155751,"isoLanguage":"en","alternateName":"Florida","isPreferredName":true,"isShortName":true,"isColloquial":false,"isHistoric":false}]},"__N_SSG":true}