{"pageProps":{"locale":"en","admin2":{"geonameid":4986828,"name":"Branch County","country":"US","admin1":"MI","admin2":"023","admin3":"","latitude":"41.9161100","longitude":"-85.0590300","localeAltName":null},"admin1":{"geonameid":5001836,"name":"Michigan","admin1":"MI","localeAltName":"Michigan"},"locations":[{"geonameid":4987045,"name":"Bronson","admin3":"10860","localeAltName":null},{"geonameid":4989266,"name":"Coldwater","admin3":"17020","localeAltName":null},{"geonameid":5006647,"name":"Quincy","admin3":"66660","localeAltName":null},{"geonameid":5012928,"name":"Union City","admin3":"81280","localeAltName":null}],"admin3":[{"geonameid":4983953,"name":"Township of Algansee","admin3":"01120"},{"geonameid":4985117,"name":"Township of Batavia","admin3":"05800"},{"geonameid":4985841,"name":"Township of Bethel","admin3":"08060"},{"geonameid":4987052,"name":"City of Bronson","admin3":"10860","localeAltName":null},{"geonameid":4987053,"name":"Township of Bronson","admin3":"10880"},{"geonameid":4987530,"name":"Township of Butler","admin3":"12140"},{"geonameid":4987676,"name":"Township of California","admin3":"12560"},{"geonameid":4989276,"name":"City of Coldwater","admin3":"17020","localeAltName":null},{"geonameid":4989277,"name":"Township of Coldwater","admin3":"17040"},{"geonameid":4993921,"name":"Township of Gilead","admin3":"32120"},{"geonameid":4993974,"name":"Township of Girard","admin3":"32280"},{"geonameid":4998141,"name":"Township of Kinderhook","admin3":"43260"},{"geonameid":5001165,"name":"Township of Matteson","admin3":"52400"},{"geonameid":5003559,"name":"Township of Noble","admin3":"57860"},{"geonameid":5004771,"name":"Township of Ovid","admin3":"61840"},{"geonameid":5006651,"name":"Township of Quincy","admin3":"66660","localeAltName":null},{"geonameid":5009702,"name":"Township of Sherwood","admin3":"73440"},{"geonameid":5012953,"name":"Township of Union","admin3":"81280","localeAltName":null}],"alternateNames":[{"alternatenameId":2124820,"geonameid":5001836,"isoLanguage":"en","alternateName":"Michigan","isPreferredName":true,"isShortName":true,"isColloquial":false,"isHistoric":false}]},"__N_SSG":true}