{"pageProps":{"locale":"en","admin2":{"geonameid":12022131,"name":"Noardeast-Frysl√¢n","country":"NL","admin1":"02","admin2":"1970","admin3":"","latitude":"53.3321200","longitude":"6.0209800"},"admin1":{"geonameid":2755812,"name":"Provincie Friesland","admin1":"02"},"locations":[{"geonameid":2746140,"name":"'t Schoor","admin3":""},{"geonameid":2760121,"name":"Aalzum","admin3":""},{"geonameid":2760069,"name":"Abbewier","admin3":""},{"geonameid":2759757,"name":"Anjum","admin3":""},{"geonameid":2759614,"name":"Augsbuurt-Lutjewoude","admin3":""},{"geonameid":2759030,"name":"Betterwird","admin3":""},{"geonameid":2758820,"name":"Blije","admin3":""},{"geonameid":2758688,"name":"Bollingawier","admin3":""},{"geonameid":2758591,"name":"Bornwird","admin3":""},{"geonameid":2758590,"name":"Bornwirdhuizen","admin3":""},{"geonameid":2758532,"name":"Boteburen","admin3":""},{"geonameid":2758402,"name":"Brantgum","admin3":""},{"geonameid":2758895,"name":"Burdaard","admin3":""},{"geonameid":2758073,"name":"Burum","admin3":""},{"geonameid":2757458,"name":"De Keegen","admin3":""},{"geonameid":2757423,"name":"De Kolk","admin3":""},{"geonameid":2757068,"name":"De Schans","admin3":""},{"geonameid":2756826,"name":"Dijkshorne","admin3":""},{"geonameid":2756759,"name":"Dokkum","admin3":""},{"geonameid":2756755,"name":"Dokkumer Nieuwe Zijlen","admin3":""},{"geonameid":2756618,"name":"Drieboerehuizen","admin3":""},{"geonameid":2756422,"name":"Ee","admin3":""},{"geonameid":2756081,"name":"Engwierum","admin3":""},{"geonameid":2755936,"name":"Ezumazijl","admin3":""},{"geonameid":2755920,"name":"Ferwert","admin3":""},{"geonameid":2755857,"name":"Foudgum","admin3":""},{"geonameid":2755579,"name":"Genum","admin3":""},{"geonameid":2755112,"name":"Groot Medhuizen","admin3":""},{"geonameid":2754939,"name":"Halfweg","admin3":""},{"geonameid":2754930,"name":"Hallum","admin3":""},{"geonameid":2754929,"name":"Hallumerhoek","admin3":""},{"geonameid":2754878,"name":"Hantum","admin3":""},{"geonameid":2754877,"name":"Hantumerhoek","admin3":""},{"geonameid":2754875,"name":"Hantumeruitburen","admin3":""},{"geonameid":2754874,"name":"Hantumhuizen","admin3":""},{"geonameid":2753954,"name":"Hegebeintum","admin3":""},{"geonameid":2754106,"name":"Hiaure","admin3":""},{"geonameid":2753852,"name":"Holwerd","admin3":""},{"geonameid":2753265,"name":"Jannum","admin3":""},{"geonameid":2753242,"name":"Jislum","admin3":""},{"geonameid":2753192,"name":"Jouswier","admin3":""},{"geonameid":2752885,"name":"Kettingwier","admin3":""},{"geonameid":2752677,"name":"Klein Medhuizen","admin3":""},{"geonameid":2752524,"name":"Kollum","admin3":""},{"geonameid":2752522,"name":"Kollumerpomp","admin3":""},{"geonameid":2752520,"name":"Kollumerzwaag","admin3":""},{"geonameid":2752335,"name":"Krabburen","admin3":""},{"geonameid":2751835,"name":"Leegte","admin3":""},{"geonameid":2751657,"name":"Lichtaard","admin3":""},{"geonameid":2751554,"name":"Lioessens","admin3":""},{"geonameid":2751129,"name":"Marrum","admin3":""},{"geonameid":2750919,"name":"Metslawier","admin3":""},{"geonameid":2750779,"name":"Moddergat","admin3":""},{"geonameid":2750603,"name":"Morra","admin3":""},{"geonameid":2750553,"name":"Munnekezijl","admin3":""},{"geonameid":2750418,"name":"Nes","admin3":""},{"geonameid":2750399,"name":"Niawier","admin3":""},{"geonameid":2750174,"name":"Nieuwland","admin3":""},{"geonameid":2749427,"name":"Oosternijkerk","admin3":""},{"geonameid":2749357,"name":"Oostmahorn","admin3":""},{"geonameid":2749343,"name":"Oostrum","admin3":""},{"geonameid":2748996,"name":"Oude Terp","admin3":""},{"geonameid":2748886,"name":"Oudwoude","admin3":""},{"geonameid":2748770,"name":"Paesens","admin3":""},{"geonameid":2748357,"name":"Raard","admin3":""},{"geonameid":2748265,"name":"Reidswal","admin3":""},{"geonameid":2748250,"name":"Reitsum","admin3":""},{"geonameid":2747919,"name":"Ropta","admin3":""},{"geonameid":2746783,"name":"Steenharst","admin3":""},{"geonameid":2746772,"name":"Steenvak","admin3":""},{"geonameid":2746706,"name":"Stiem","admin3":""},{"geonameid":2746508,"name":"Teerd","admin3":""},{"geonameid":2746501,"name":"Teijeburen","admin3":""},{"geonameid":2746460,"name":"Tergracht","admin3":""},{"geonameid":2746424,"name":"Ternaard","admin3":""},{"geonameid":2746335,"name":"Tibma","admin3":""},{"geonameid":2746302,"name":"Tilburen","admin3":""},{"geonameid":2746160,"name":"Triemen","admin3":""},{"geonameid":2745901,"name":"Vaardeburen","admin3":""},{"geonameid":2745754,"name":"Veenklooster","admin3":""},{"geonameid":2745527,"name":"Vijfhuizen","admin3":""},{"geonameid":2745487,"name":"Visbuurt","admin3":""},{"geonameid":2745101,"name":"Waaxens","admin3":""},{"geonameid":2745042,"name":"Wanswerd","admin3":""},{"geonameid":2745019,"name":"Warfstermolen","admin3":""},{"geonameid":2744744,"name":"Westergeest","admin3":""},{"geonameid":2744704,"name":"Westernijkerk","admin3":""},{"geonameid":2744588,"name":"Wetzens","admin3":""},{"geonameid":2744572,"name":"Wie","admin3":""},{"geonameid":2744526,"name":"Wierum","admin3":""},{"geonameid":2744490,"name":"Wijgeest","admin3":""},{"geonameid":2744086,"name":"Zandbulten","admin3":""},{"geonameid":2743585,"name":"Zwagerbosch","admin3":""},{"geonameid":2743583,"name":"Zwagerveen","admin3":""}],"admin3":[],"alternateNames":[{"alternatenameId":5463435,"geonameid":2755812,"isoLanguage":"de","alternateName":"Friesland","isPreferredName":true,"isShortName":true,"isColloquial":false,"isHistoric":false}]},"__N_SSG":true}