{"pageProps":{"locale":"en","admin2":{"geonameid":5057952,"name":"Worth County","country":"US","admin1":"MO","admin2":"227","admin3":"","latitude":"40.4791400","longitude":"-94.4221000","localeAltName":null},"admin1":{"geonameid":4398678,"name":"Missouri","admin1":"MO","localeAltName":"Missouri"},"locations":[{"geonameid":5055199,"name":"Grant City","admin3":"24616","localeAltName":null}],"admin3":[{"geonameid":5053889,"name":"Township of Allen","admin3":"00694"},{"geonameid":5055017,"name":"Township of Fletchall","admin3":"24616","localeAltName":null},{"geonameid":5055245,"name":"Township of Greene","admin3":"29188"},{"geonameid":5056272,"name":"Township of Middlefork","admin3":"47828"},{"geonameid":5057318,"name":"Township of Smith","admin3":"68348"},{"geonameid":5057654,"name":"Township of Union","admin3":"75076"}],"alternateNames":[{"alternatenameId":2089572,"geonameid":4398678,"isoLanguage":"en","alternateName":"Missouri","isPreferredName":true,"isShortName":true,"isColloquial":false,"isHistoric":false}]},"__N_SSG":true}