{"pageProps":{"locale":"ro","admin2":{"geonameid":677200,"name":"Comuna Gârda de Sus","country":"RO","admin1":"01","admin2":"4525","admin3":"","latitude":"46.4671900","longitude":"22.8151900"},"admin1":{"geonameid":686581,"name":"Alba","admin1":"01"},"locations":[{"geonameid":684880,"name":"Biharia","admin3":""},{"geonameid":681266,"name":"Coasta Leşului","admin3":""},{"geonameid":679639,"name":"Dealu Frumos","admin3":""},{"geonameid":679249,"name":"Dobrești","admin3":""},{"geonameid":678021,"name":"Fluţărăşti","admin3":""},{"geonameid":677201,"name":"Gârda de Sus","admin3":""},{"geonameid":677198,"name":"Gârda-Seacă","admin3":""},{"geonameid":677416,"name":"Gheţari","admin3":""},{"geonameid":676533,"name":"Gura Gârzii","admin3":""},{"geonameid":676381,"name":"Haiduceşti","admin3":""},{"geonameid":676338,"name":"Hănăşeşti","admin3":""},{"geonameid":675875,"name":"Huzărești","admin3":""},{"geonameid":675377,"name":"Izvoarele","admin3":""},{"geonameid":672646,"name":"Munună","admin3":""},{"geonameid":672467,"name":"Neagra de Sus","admin3":""},{"geonameid":672043,"name":"Oceale","admin3":""},{"geonameid":672011,"name":"Ocoale","admin3":""},{"geonameid":670577,"name":"Plai","admin3":""},{"geonameid":670486,"name":"Pletei","admin3":""},{"geonameid":670479,"name":"Pliști","admin3":""},{"geonameid":667611,"name":"Scoarța","admin3":""},{"geonameid":662183,"name":"Snide","admin3":""},{"geonameid":665847,"name":"Sucești","admin3":""}],"admin3":[],"alternateNames":[]},"__N_SSG":true}