{"pageProps":{"locale":"ro","admin2":{"geonameid":680403,"name":"Comuna Cozieni","country":"RO","admin1":"11","admin2":"46554","admin3":"","latitude":"45.3324000","longitude":"26.4941000"},"admin1":{"geonameid":683121,"name":"Buzău","admin1":"11"},"locations":[{"geonameid":686322,"name":"Anini"},{"geonameid":685693,"name":"Bălănești"},{"geonameid":685071,"name":"Bercești"},{"geonameid":684442,"name":"Bodromireşti"},{"geonameid":681743,"name":"Ciocănești"},{"geonameid":681219,"name":"Cocârceni"},{"geonameid":681053,"name":"Colțeni"},{"geonameid":680404,"name":"Cozieni"},{"geonameid":678407,"name":"Faţa lui Nan"},{"geonameid":677022,"name":"Glodurile"},{"geonameid":675346,"name":"Izvoru"},{"geonameid":674316,"name":"Lungești"},{"geonameid":673855,"name":"Mărculeşti"},{"geonameid":672193,"name":"Nistorești"},{"geonameid":670856,"name":"Pietraru"},{"geonameid":670854,"name":"Pietrele"},{"geonameid":669494,"name":"Punga"},{"geonameid":665331,"name":"Teișu"},{"geonameid":664636,"name":"Trestia"},{"geonameid":664525,"name":"Tulburea"},{"geonameid":663915,"name":"Valea Banului"},{"geonameid":663462,"name":"Valea Roatei"},{"geonameid":662300,"name":"Zăpodia"}],"admin3":[],"alternateNames":[]},"__N_SSG":true}