{"pageProps":{"locale":"en","admin2":{"geonameid":2747033,"name":"Gemeente Soest","country":"NL","admin1":"09","admin2":"0342","admin3":"","latitude":"52.1563600","longitude":"5.2985400"},"admin1":{"geonameid":2745909,"name":"Provincie Utrecht","admin1":"09"},"locations":[{"geonameid":2746370,"name":"â€™t Hart","admin3":""},{"geonameid":2758102,"name":"Bunt","admin3":""},{"geonameid":2757779,"name":"De Birkt","admin3":""},{"geonameid":2756108,"name":"Eng","admin3":""},{"geonameid":2755068,"name":"Grote Melm","admin3":""},{"geonameid":2754642,"name":"Hees","admin3":""},{"geonameid":2749580,"name":"Ons Belang","admin3":""},{"geonameid":2748589,"name":"Pijnenburg","admin3":""},{"geonameid":2747034,"name":"Soest","admin3":""},{"geonameid":2747026,"name":"Soest-Zuid","admin3":""},{"geonameid":2747032,"name":"Soestdijk","admin3":""},{"geonameid":2747031,"name":"Soestduinen","admin3":""},{"geonameid":2747030,"name":"Soesterberg","admin3":""},{"geonameid":2747028,"name":"Soesterveen","admin3":""},{"geonameid":6544897,"name":"Sterrenberg","admin3":""},{"geonameid":2744568,"name":"Wieksloot","admin3":""}],"admin3":[],"alternateNames":[{"alternatenameId":11907793,"geonameid":2745909,"isoLanguage":"de","alternateName":"Utrecht","isPreferredName":true,"isShortName":true,"isColloquial":false,"isHistoric":false}]},"__N_SSG":true}