{"pageProps":{"locale":"ro","admin2":{"geonameid":666063,"name":"Comuna Stoeneşti","country":"RO","admin1":"39","admin2":"173230","admin3":"","latitude":"45.1471500","longitude":"24.1633700"},"admin1":{"geonameid":662892,"name":"Vâlcea","admin1":"39"},"locations":[{"geonameid":684786,"name":"Bârlogu","admin3":""},{"geonameid":683460,"name":"Budurăști","admin3":""},{"geonameid":679532,"name":"Deleni","admin3":""},{"geonameid":679235,"name":"Dobriceni","admin3":""},{"geonameid":676629,"name":"Gruieri","admin3":""},{"geonameid":676614,"name":"Gruiu","admin3":""},{"geonameid":674787,"name":"Liliacu","admin3":""},{"geonameid":673774,"name":"Marineşti","admin3":""},{"geonameid":672944,"name":"Mogoșești","admin3":""},{"geonameid":672432,"name":"Neghinești","admin3":""},{"geonameid":670636,"name":"Piscu Mare","admin3":""},{"geonameid":669893,"name":"Popești","admin3":""},{"geonameid":668917,"name":"Richiţeşti","admin3":""},{"geonameid":666069,"name":"Stoeneşti","admin3":""},{"geonameid":665697,"name":"Suseni","admin3":""},{"geonameid":665668,"name":"Susuri","admin3":""},{"geonameid":665127,"name":"Ţigănia","admin3":""},{"geonameid":663044,"name":"Vereşti","admin3":""},{"geonameid":662151,"name":"Zmeurătu","admin3":""}],"admin3":[],"alternateNames":[]},"__N_SSG":true}