{"pageProps":{"locale":"ro","admin2":{"geonameid":666049,"name":"Comuna Stoileşti","country":"RO","admin1":"39","admin2":"173374","admin3":"","latitude":"44.9146300","longitude":"24.3599200"},"admin1":{"geonameid":662892,"name":"Vâlcea","admin1":"39"},"locations":[{"geonameid":685604,"name":"Balomireasa","admin3":""},{"geonameid":684743,"name":"Bârsoeni","admin3":""},{"geonameid":684742,"name":"Bârsoiu","admin3":""},{"geonameid":683335,"name":"Bulagei","admin3":""},{"geonameid":679684,"name":"Dealu","admin3":""},{"geonameid":679489,"name":"Delureni","admin3":""},{"geonameid":677548,"name":"Geamăna","admin3":""},{"geonameid":677348,"name":"Ghiobești","admin3":""},{"geonameid":677099,"name":"Giuroiu","admin3":""},{"geonameid":676312,"name":"Hardabei","admin3":""},{"geonameid":675307,"name":"Izvoru Rece","admin3":""},{"geonameid":674001,"name":"Malta","admin3":""},{"geonameid":673994,"name":"Malu","admin3":""},{"geonameid":672295,"name":"Nețești","admin3":""},{"geonameid":672056,"name":"Obogeni","admin3":""},{"geonameid":666302,"name":"Stănești","admin3":""},{"geonameid":666050,"name":"Stoileşti","admin3":""},{"geonameid":678870,"name":"Urși","admin3":""},{"geonameid":662576,"name":"Vlădulești","admin3":""}],"admin3":[],"alternateNames":[]},"__N_SSG":true}