{"pageProps":{"locale":"ro","admin2":{"geonameid":679747,"name":"Comuna Dănicei","country":"RO","admin1":"39","admin2":"169404","admin3":"","latitude":"44.9118100","longitude":"24.4450300"},"admin1":{"geonameid":662892,"name":"Vâlcea","admin1":"39"},"locations":[{"geonameid":685914,"name":"Bădeni","admin3":""},{"geonameid":682364,"name":"Ceretu","admin3":""},{"geonameid":681589,"name":"Cireșul","admin3":""},{"geonameid":679651,"name":"Dealu Dănicei","admin3":""},{"geonameid":679632,"name":"Dealu Lăunele","admin3":""},{"geonameid":679584,"name":"Dealu Scheiului","admin3":""},{"geonameid":679254,"name":"Dobrești","admin3":""},{"geonameid":678890,"name":"Drăgulești","admin3":""},{"geonameid":677030,"name":"Glodu","admin3":""},{"geonameid":676545,"name":"Gura Crucilor","admin3":""},{"geonameid":675124,"name":"Lăunele de Jos","admin3":""},{"geonameid":674755,"name":"Linia pe Vale","admin3":""},{"geonameid":671880,"name":"Olăreşti","admin3":""},{"geonameid":664369,"name":"Udrești","admin3":""},{"geonameid":664039,"name":"Văcăreşti","admin3":""},{"geonameid":663435,"name":"Valea Scheiului","admin3":""}],"admin3":[],"alternateNames":[]},"__N_SSG":true}