{"pageProps":{"locale":"ro","admin2":{"geonameid":664794,"name":"Comuna Tomşani","country":"RO","admin1":"39","admin2":"173935","admin3":"","latitude":"45.0960600","longitude":"24.0602000"},"admin1":{"geonameid":662892,"name":"Vâlcea","admin1":"39"},"locations":[{"geonameid":685553,"name":"Băltățeni","admin3":""},{"geonameid":685168,"name":"Bela","admin3":""},{"geonameid":684403,"name":"Bogdănești","admin3":""},{"geonameid":682154,"name":"Chiceni","admin3":""},{"geonameid":680015,"name":"Cuculiciu","admin3":""},{"geonameid":679713,"name":"Dărvăreşti","admin3":""},{"geonameid":679343,"name":"Dinuleşti","admin3":""},{"geonameid":679047,"name":"Dosu","admin3":""},{"geonameid":678694,"name":"Dumbrăveşti","admin3":""},{"geonameid":677993,"name":"Foleştii de Jos","admin3":""},{"geonameid":677992,"name":"Foleștii de Sus","admin3":""},{"geonameid":676795,"name":"Grămăticeşti","admin3":""},{"geonameid":674766,"name":"Linia Bisericii","admin3":""},{"geonameid":674488,"name":"Lunca","admin3":""},{"geonameid":674309,"name":"Lunguleşti","admin3":""},{"geonameid":673856,"name":"Mărculeşti","admin3":""},{"geonameid":673126,"name":"Mireşti","admin3":""},{"geonameid":672978,"name":"Modărceni","admin3":""},{"geonameid":669851,"name":"Popolăneşti","admin3":""},{"geonameid":666102,"name":"Ştirbeşti","admin3":""},{"geonameid":665864,"name":"Sub Dos","admin3":""},{"geonameid":665646,"name":"Tabaci","admin3":""},{"geonameid":664796,"name":"Tomşani","admin3":""}],"admin3":[],"alternateNames":[]},"__N_SSG":true}