{"pageProps":{"locale":"ro","admin2":{"geonameid":8334979,"name":"Municipiul Râmnicu Vâlcea","country":"RO","admin1":"39","admin2":"167473","admin3":"","latitude":"45.0944800","longitude":"24.3521500"},"admin1":{"geonameid":662892,"name":"Vâlcea","admin1":"39"},"locations":[{"geonameid":686241,"name":"Aranghel","admin3":""},{"geonameid":686179,"name":"Argintari","admin3":""},{"geonameid":683776,"name":"Braviţa","admin3":""},{"geonameid":682497,"name":"Căzănești","admin3":""},{"geonameid":682240,"name":"Cetăţuia","admin3":""},{"geonameid":680932,"name":"Copăcelu","admin3":""},{"geonameid":679629,"name":"Dealu Malului","admin3":""},{"geonameid":678308,"name":"Fețeni","admin3":""},{"geonameid":676922,"name":"Goranu","admin3":""},{"geonameid":675622,"name":"Inăteşti","admin3":""},{"geonameid":674849,"name":"Lespezi","admin3":""},{"geonameid":670239,"name":"Poenari","admin3":""},{"geonameid":669662,"name":"Priba","admin3":""},{"geonameid":668872,"name":"Râmnicu Vâlcea","admin3":""},{"geonameid":668811,"name":"Râureni","admin3":""},{"geonameid":668146,"name":"Săliștea","admin3":""},{"geonameid":667634,"name":"Schitu-Slătioarele","admin3":""},{"geonameid":666155,"name":"Sticlăria","admin3":""},{"geonameid":666039,"name":"Stolniceni","admin3":""},{"geonameid":664918,"name":"Tisculeşti","admin3":""},{"geonameid":664593,"name":"Troian","admin3":""},{"geonameid":663481,"name":"Valea Răii","admin3":""}],"admin3":[],"alternateNames":[]},"__N_SSG":true}