{"pageProps":{"locale":"ro","admin2":{"geonameid":8334929,"name":"Oraş Ocnele Mari","country":"RO","admin1":"39","admin2":"168130","admin3":"","latitude":"45.0890400","longitude":"24.2816200"},"admin1":{"geonameid":662892,"name":"Vâlcea","admin1":"39"},"locations":[{"geonameid":683482,"name":"Buda","admin3":""},{"geonameid":682656,"name":"Cărpiniş","admin3":""},{"geonameid":681230,"name":"Coceşti","admin3":""},{"geonameid":680603,"name":"Cosota","admin3":""},{"geonameid":678509,"name":"Făcăi","admin3":""},{"geonameid":677253,"name":"Gânjuleşti","admin3":""},{"geonameid":676483,"name":"Gura Suhașului","admin3":""},{"geonameid":674456,"name":"Lunca","admin3":""},{"geonameid":672019,"name":"Ocnele Mari","admin3":""},{"geonameid":672014,"name":"Ocnița","admin3":""},{"geonameid":669138,"name":"Răstoaca","admin3":""},{"geonameid":666743,"name":"Slătioarele","admin3":""},{"geonameid":666538,"name":"Sohorătu","admin3":""},{"geonameid":665345,"name":"Țeica","admin3":""},{"geonameid":664077,"name":"Urzicari","admin3":""},{"geonameid":663746,"name":"Valea Gurunelelor","admin3":""},{"geonameid":662460,"name":"Vorotele","admin3":""}],"admin3":[],"alternateNames":[]},"__N_SSG":true}