{"pageProps":{"locale":"en","admin2":{"geonameid":3333191,"name":"Sandwell","country":"GB","admin1":"ENG","admin2":"L7","admin3":"","latitude":"52.5000000","longitude":"-2.0000000","localeAltName":"Sandwell"},"admin1":{"geonameid":6269131,"name":"England","admin1":"ENG","localeAltName":"England"},"locations":[{"geonameid":11550634,"name":"Bird End"},{"geonameid":8224780,"name":"Cradley Heath"},{"geonameid":2648167,"name":"Great Barr"},{"geonameid":2641093,"name":"Ocker Hill"},{"geonameid":2641018,"name":"Old Hill"},{"geonameid":2641036,"name":"Oldbury"},{"geonameid":2639040,"name":"Rowley Regis"},{"geonameid":2638543,"name":"Sandwell"},{"geonameid":10377796,"name":"Sandwell District"},{"geonameid":2637607,"name":"Smethwick"},{"geonameid":2636429,"name":"Swan Village"},{"geonameid":2635785,"name":"Tipton"},{"geonameid":11550633,"name":"Warley"},{"geonameid":2634617,"name":"Wednesbury"},{"geonameid":2634491,"name":"West Bromwich"}],"admin3":[],"alternateNames":[{"alternatenameId":8666519,"geonameid":3333191,"isoLanguage":"en","alternateName":"Sandwell","isPreferredName":true,"isShortName":true,"isColloquial":false,"isHistoric":false},{"alternatenameId":1626647,"geonameid":6269131,"isoLanguage":"en","alternateName":"England","isPreferredName":true,"isShortName":true,"isColloquial":false,"isHistoric":false}]},"__N_SSG":true}