{"pageProps":{"locale":"en","admin2":{"geonameid":5949621,"name":"Estrie","country":"CA","admin1":"10","admin2":"05","admin3":"","latitude":"45.4833800","longitude":"-71.6657700"},"admin1":{"geonameid":6115047,"name":"Québec","admin1":"10"},"locations":[{"geonameid":5883164,"name":"Albert Mines","admin3":"45055"},{"geonameid":5886431,"name":"Applegrove","admin3":"45020"},{"geonameid":5887470,"name":"Asbestos","admin3":"40043"},{"geonameid":5887482,"name":"Ascot","admin3":"43027"},{"geonameid":5887483,"name":"Ascot Corner","admin3":"41055"},{"geonameid":5888217,"name":"Audet","admin3":"30055"},{"geonameid":5888403,"name":"Austin","admin3":"45085"},{"geonameid":5888681,"name":"Ayer's Cliff","admin3":"45035"},{"geonameid":5889144,"name":"Bacon's Bay","admin3":"45043"},{"geonameid":5892128,"name":"Baldwin Mills","admin3":"44037"},{"geonameid":5892977,"name":"Barford","admin3":"44037"},{"geonameid":5893298,"name":"Barnston","admin3":"44037"},{"geonameid":5893304,"name":"Barnston-Ouest","admin3":"44045"},{"geonameid":5897392,"name":"Beebe","admin3":"45008"},{"geonameid":5897815,"name":"Bellefeuille","admin3":"41020"},{"geonameid":5901670,"name":"Birchton","admin3":"41038"},{"geonameid":5905313,"name":"Bolton Centre","admin3":"45095"},{"geonameid":5905321,"name":"Bolton Forest","admin3":"45093"},{"geonameid":5905320,"name":"Bolton-Est","admin3":"45095"},{"geonameid":5905622,"name":"Bonsecours","admin3":"42040"},{"geonameid":5905999,"name":"Boscobel","admin3":"42060"},{"geonameid":5906287,"name":"Boudreau-Corners","admin3":"44071"},{"geonameid":5906835,"name":"Bown","admin3":"41070"},{"geonameid":5907063,"name":"Boynton","admin3":"44050"},{"geonameid":5909441,"name":"Brook Cove","admin3":"45072"},{"geonameid":5909436,"name":"Brookbury","admin3":"41070"},{"geonameid":5910005,"name":"Brown's Hill","admin3":"45025"},{"geonameid":5910382,"name":"Bryant's Landing","admin3":"45085"},{"geonameid":5911268,"name":"Bulwer","admin3":"41038"},{"geonameid":5912323,"name":"Bury","admin3":"41070"},{"geonameid":5915121,"name":"Canterbury","admin3":"41070"},{"geonameid":5916022,"name":"Capelton","admin3":"45055"},{"geonameid":5918097,"name":"Castlebar","admin3":"40047"},{"geonameid":5918928,"name":"Cedarville","admin3":"45020"},{"geonameid":5920350,"name":"Chartierville","admin3":"41020"},{"geonameid":5920978,"name":"Cherry River","admin3":"45115"},{"geonameid":5923997,"name":"Clifton-Partie-Est","admin3":"41012"},{"geonameid":5924500,"name":"Coaticook","admin3":"44037"},{"geonameid":5924501,"name":"Coaticook-Nord","admin3":"44037"},{"geonameid":5926324,"name":"Comestock Corners","admin3":"45020"},{"geonameid":5926348,"name":"Comins Mills","admin3":"44010"},{"geonameid":5926471,"name":"Compton","admin3":"44071"},{"geonameid":5927235,"name":"Cookshire-Eaton","admin3":"41038"},{"geonameid":5928972,"name":"Courcelles","admin3":"30090"},{"geonameid":5935042,"name":"Danville","admin3":"40047"},{"geonameid":5936320,"name":"Deauville","admin3":"43027"},{"geonameid":5937811,"name":"Denison Mills","admin3":"40047"},{"geonameid":5940365,"name":"Dixville","admin3":"44023"},{"geonameid":5941070,"name":"Domaine-Boudreau","admin3":"40047"},{"geonameid":5941071,"name":"Domaine-Boutin","admin3":"40017"},{"geonameid":5941075,"name":"Domaine-Brodeur","admin3":"40047"},{"geonameid":5941092,"name":"Domaine-Condor","admin3":"40017"},{"geonameid":5941125,"name":"Domaine-des-Beaux-Arbres","admin3":"40017"},{"geonameid":5941165,"name":"Domaine-des-Sapins","admin3":"40017"},{"geonameid":5941174,"name":"Domaine-Donald-Morrison","admin3":"30040"},{"geonameid":5941218,"name":"Domaine-Gagnon","admin3":"40017"},{"geonameid":5941234,"name":"Domaine-Hamel","admin3":"40047"},{"geonameid":5941279,"name":"Domaine-Mar-Lodge","admin3":"40047"},{"geonameid":5941294,"name":"Domaine-Morin","admin3":"40017"},{"geonameid":5941316,"name":"Domaine-Pinard","admin3":"40047"},{"geonameid":5941317,"name":"Domaine-Plein-Air","admin3":"40047"},{"geonameid":5943518,"name":"Dudswell","admin3":"41117"},{"geonameid":5944083,"name":"Dunkin","admin3":"45030"},{"geonameid":5944974,"name":"Earlstown","admin3":"44080"},{"geonameid":5945016,"name":"East Angus","admin3":"41060"},{"geonameid":5945303,"name":"East Clifton","admin3":"41012"},{"geonameid":5945732,"name":"East Hereford","admin3":"44010"},{"geonameid":5945851,"name":"Eastman","admin3":"45093"},{"geonameid":5946251,"name":"Eaton","admin3":"41038"},{"geonameid":5946255,"name":"Eaton Corner","admin3":"41038"},{"geonameid":5950398,"name":"Eustis","admin3":"45055"},{"geonameid":5950930,"name":"Fairfax","admin3":"44050"},{"geonameid":5951779,"name":"Fatima","admin3":"30030"},{"geonameid":5953843,"name":"Fitch Bay","admin3":"45025"},{"geonameid":5954690,"name":"Fleurimont","admin3":"43027"},{"geonameid":5955258,"name":"Fontainebleau","admin3":"41098"},{"geonameid":5958505,"name":"Frontenac","admin3":"30025"},{"geonameid":5958708,"name":"Fullerton Corner","admin3":"45030"},{"geonameid":5960012,"name":"Gaulin","admin3":"41038"},{"geonameid":5960092,"name":"Gayhurst-Partie-Sud-Est","admin3":"30072"},{"geonameid":5960540,"name":"Georgeville","admin3":"45025"},{"geonameid":5962157,"name":"Glines Corner","admin3":"45020"},{"geonameid":5963435,"name":"Gordon Corner","admin3":"45030"},{"geonameid":5963551,"name":"Gore","admin3":"42075"},{"geonameid":5963716,"name":"Gosselin-Mills","admin3":"44055"},{"geonameid":5963793,"name":"Gould","admin3":"41085"},{"geonameid":5964850,"name":"Graniteville","admin3":"45020"},{"geonameid":5966410,"name":"Greenlay","admin3":"42088"},{"geonameid":5967047,"name":"Griffin","admin3":"45020"},{"geonameid":5969454,"name":"Hall","admin3":"41070"},{"geonameid":5971973,"name":"Hatley","admin3":"45043"},{"geonameid":5971974,"name":"Hatley Centre","admin3":"45055"},{"geonameid":5973261,"name":"Heathton","admin3":"44045"},{"geonameid":5974141,"name":"Hereford","admin3":"44015"},{"geonameid":5974142,"name":"Hereford Hill","admin3":"44010"},{"geonameid":5974366,"name":"Herringville","admin3":"41070"},{"geonameid":5974870,"name":"High Forest","admin3":"41012"},{"geonameid":5975078,"name":"Highwater","admin3":"45030"},{"geonameid":5975199,"name":"Hillhurst","admin3":"44071"},{"geonameid":5978712,"name":"Huntingville","admin3":"43027"},{"geonameid":5979032,"name":"Hyatt's Mills","admin3":"44071"},{"geonameid":5984300,"name":"Island Brook","admin3":"41037"},{"geonameid":5987604,"name":"Johnville","admin3":"41038"},{"geonameid":5987885,"name":"Jordan Hill","admin3":"41038"},{"geonameid":5989643,"name":"Katevale","admin3":"45060"},{"geonameid":5991815,"name":"Kilburn Mills","admin3":"44045"},{"geonameid":5992394,"name":"Kingsbury","admin3":"42075"},{"geonameid":5992418,"name":"Kingscroft","admin3":"44045"},{"geonameid":5992425,"name":"Kingsey Station","admin3":"40047"},{"geonameid":5992799,"name":"Kirkdale","admin3":"42078"},{"geonameid":5993727,"name":"Knowlton Landing","admin3":"45085"},{"geonameid":6058501,"name":"L'Oiseau-Bleu","admin3":"40043"},{"geonameid":6048125,"name":"La Grosse-Roche","admin3":"30035"},{"geonameid":6049667,"name":"La Patrie","admin3":"41027"},{"geonameid":6001157,"name":"Lac-Boissonneault","admin3":"42100"},{"geonameid":6002140,"name":"Lac-Brompton-Sud","admin3":"45115"},{"geonameid":6014124,"name":"Lac-Drolet","admin3":"30080"},{"geonameid":6019432,"name":"Lac-Elgin","admin3":"30110"},{"geonameid":6032673,"name":"Lac-Mégantic","admin3":"30030"},{"geonameid":6043558,"name":"Lac-Stoke","admin3":"42005"},{"geonameid":6047699,"name":"Ladd's Mills","admin3":"44037"},{"geonameid":6049016,"name":"Lambton","admin3":"30095"},{"geonameid":6050034,"name":"Larochelle","admin3":"40043"},{"geonameid":6050646,"name":"Laval-Nord","admin3":"30045"},{"geonameid":6050828,"name":"Lawrence Colony","admin3":"41037"},{"geonameid":6050880,"name":"Lawrenceville","admin3":"42045"},{"geonameid":6051459,"name":"Le Coin","admin3":"30020"},{"geonameid":6053283,"name":"Le Vieux-Nord","admin3":"43027"},{"geonameid":6051076,"name":"Leadville","admin3":"45030"},{"geonameid":6051157,"name":"Learned Plain","admin3":"41037"},{"geonameid":6052325,"name":"Lennoxville","admin3":"43027"},{"geonameid":6053040,"name":"Les Souliers-Verts","admin3":"40017"},{"geonameid":6053525,"name":"Libbytown","admin3":"44045"},{"geonameid":6054142,"name":"Lime Ridge","admin3":"41117"},{"geonameid":6054402,"name":"Lineboro","admin3":"45020"},{"geonameid":6064180,"name":"Magog","admin3":"45072"},{"geonameid":6064971,"name":"Malvina","admin3":"44003"},{"geonameid":8556288,"name":"Mansonville","admin3":"45030"},{"geonameid":6065476,"name":"Mansonville","admin3":"45030"},{"geonameid":6065655,"name":"Maple Leaf","admin3":"41037"},{"geonameid":6065932,"name":"Marbleton","admin3":"41117"},{"geonameid":6066294,"name":"Maricourt","admin3":"42032"},{"geonameid":6066630,"name":"Marlington","admin3":"45020"},{"geonameid":6066747,"name":"Marsboro","admin3":"30035"},{"geonameid":6067270,"name":"Martinville","admin3":"44060"},{"geonameid":6067672,"name":"Massawippi","admin3":"45043"},{"geonameid":6069012,"name":"McCourts Corner","admin3":"42095"},{"geonameid":6071844,"name":"Melboro","admin3":"42075"},{"geonameid":6071849,"name":"Melbourne","admin3":"42098"},{"geonameid":6071856,"name":"Melbourne Ridge","admin3":"42075"},{"geonameid":6073533,"name":"Milan","admin3":"30040"},{"geonameid":6073556,"name":"Milby","admin3":"44080"},{"geonameid":6074150,"name":"Millington","admin3":"45085"},{"geonameid":6075025,"name":"Minton","admin3":"45055"},{"geonameid":6075888,"name":"Moe's River","admin3":"44071"},{"geonameid":6076131,"name":"Molson Landing","admin3":"45025"},{"geonameid":6076816,"name":"Mont-Carrier","admin3":"42095"},{"geonameid":6076916,"name":"Mont-Dufresne","admin3":"42005"},{"geonameid":6945988,"name":"Mont-Mégantic","admin3":"30015"},{"geonameid":6077199,"name":"Mont-Orford","admin3":"45085"},{"geonameid":6076411,"name":"Montagnac","admin3":"45115"},{"geonameid":6077082,"name":"Montjoie","admin3":"42025"},{"geonameid":6079467,"name":"Moulin-Samson","admin3":"40017"},{"geonameid":6079476,"name":"Moulton Hill","admin3":"43027"},{"geonameid":6085881,"name":"Nantes","admin3":"30045"},{"geonameid":6087664,"name":"New London","admin3":"42110"},{"geonameid":6087707,"name":"New Mexico","admin3":"41037"},{"geonameid":6090109,"name":"North Hatley","admin3":"45050"},{"geonameid":6091405,"name":"Notre-Dame-des-Bois","admin3":"30010"},{"geonameid":6092705,"name":"Ogden","admin3":"45020"},{"geonameid":6093518,"name":"Oliver Corner","admin3":"45072"},{"geonameid":6093714,"name":"Omerville","admin3":"45072"},{"geonameid":6094294,"name":"Orford Lake","admin3":"45093"},{"geonameid":6096706,"name":"Paquette","admin3":"44005"},{"geonameid":6098442,"name":"Parker Hill","admin3":"41037"},{"geonameid":6100040,"name":"Peabody","admin3":"45030"},{"geonameid":6101357,"name":"Perkins Landing","admin3":"45030"},{"geonameid":6101458,"name":"Perryboro","admin3":"44015"},{"geonameid":6103030,"name":"Petit-Lac-Magog","admin3":"43027"},{"geonameid":6103457,"name":"Petit-Nicolet","admin3":"40047"},{"geonameid":6105473,"name":"Piopolis","admin3":"30020"},{"geonameid":6112385,"name":"Potton Springs","admin3":"45030"},{"geonameid":6113821,"name":"Province Hill","admin3":"45030"},{"geonameid":6115622,"name":"Racine","admin3":"42032"},{"geonameid":6116425,"name":"Randboro","admin3":"41037"},{"geonameid":6119244,"name":"Reidville","admin3":"45055"},{"geonameid":6122078,"name":"Richmond","admin3":"42098"},{"geonameid":6122512,"name":"Risborough","admin3":"30072"},{"geonameid":6122591,"name":"Rivard","admin3":"44015"},{"geonameid":6126305,"name":"Rock Forest","admin3":"43027"},{"geonameid":6137331,"name":"Saint-Adrien","admin3":"40010"},{"geonameid":6137501,"name":"Saint-Benoît-du-Lac","admin3":"45080"},{"geonameid":6137605,"name":"Saint-Claude","admin3":"42100"},{"geonameid":6137609,"name":"Saint-Claude-Nord","admin3":"42100"},{"geonameid":6137644,"name":"Saint-Cyr","admin3":"42110"},{"geonameid":6138147,"name":"Saint-Étienne-de-Bolton","admin3":"45100"},{"geonameid":6138293,"name":"Saint-Georges-de-Windsor","admin3":"40032"},{"geonameid":6138295,"name":"Saint-Gérard","admin3":"41098"},{"geonameid":6138341,"name":"Saint-Herménégilde","admin3":"44015"},{"geonameid":6138404,"name":"Saint-Isidore-d'Auckland","admin3":"41012"},{"geonameid":6138405,"name":"Saint-Isidore-de-Clifton","admin3":"41012"},{"geonameid":6138560,"name":"Saint-Joseph-de-Ham-Sud","admin3":"40005"},{"geonameid":6138697,"name":"Saint-Ludger","admin3":"30072"},{"geonameid":6138708,"name":"Saint-Malo","admin3":"44003"},{"geonameid":6138751,"name":"Saint-Mathias-de-Bonneterre","admin3":"41037"},{"geonameid":6139008,"name":"Saint-Robert-Bellarmin","admin3":"30070"},{"geonameid":6139027,"name":"Saint-Romain","admin3":"30100"},{"geonameid":6139042,"name":"Saint-Samuel-Station","admin3":"30050"},{"geonameid":6139051,"name":"Saint-Sébastien","admin3":"30085"},{"geonameid":6139174,"name":"Saint-Venant-de-Paquette","admin3":"44005"},{"geonameid":6137741,"name":"Sainte-Anne-de-la-Rochelle","admin3":"42050"},{"geonameid":6137786,"name":"Sainte-Catherine-de-Hatley","admin3":"45060"},{"geonameid":6137804,"name":"Sainte-Cécile-de-Whitton","admin3":"30050"},{"geonameid":6137860,"name":"Sainte-Edwidge","admin3":"44055"},{"geonameid":6137991,"name":"Sainte-Marguerite-de-Lingwick","admin3":"41085"},{"geonameid":6140314,"name":"Sand Hill","admin3":"41038"},{"geonameid":6141780,"name":"Sawyerville","admin3":"41038"},{"geonameid":6142498,"name":"Scotstown","admin3":"41080"},{"geonameid":6145145,"name":"Shanks","admin3":"43027"},{"geonameid":6146143,"name":"Sherbrooke","admin3":"43027"},{"geonameid":6150902,"name":"Snug Harbour","admin3":"45072"},{"geonameid":6151558,"name":"South Barnston","admin3":"44045"},{"geonameid":6151670,"name":"South Bolton","admin3":"45095"},{"geonameid":6155164,"name":"Stanhope","admin3":"44037"},{"geonameid":6155298,"name":"Stanstead","admin3":"45008"},{"geonameid":6155300,"name":"Stanstead Plain","admin3":"45008"},{"geonameid":6155299,"name":"Stanstead-Est","admin3":"44050"},{"geonameid":6157194,"name":"Stoke","admin3":"42005"},{"geonameid":6157698,"name":"Stornoway","admin3":"30105"},{"geonameid":6158469,"name":"Stukely-Sud","admin3":"45105"},{"geonameid":6159015,"name":"Sugar Loaf Pond","admin3":"45030"},{"geonameid":6161508,"name":"Tanguay","admin3":"44023"},{"geonameid":6166287,"name":"Ticehurst Corners","admin3":"45020"},{"geonameid":6167312,"name":"Tolsta","admin3":"30105"},{"geonameid":6167420,"name":"Tomifobia","admin3":"45020"},{"geonameid":6168586,"name":"Travor Road","admin3":"45030"},{"geonameid":6169133,"name":"Trois-Lacs","admin3":"40043"},{"geonameid":6170468,"name":"Turnertown","admin3":"45060"},{"geonameid":6171772,"name":"Ulverton","admin3":"42078"},{"geonameid":6172452,"name":"Upper Melbourne","admin3":"42098"},{"geonameid":6173019,"name":"Val-du-Lac","admin3":"43027"},{"geonameid":6173099,"name":"Val-Joli","admin3":"42095"},{"geonameid":6172998,"name":"Valcourt","admin3":"42055"},{"geonameid":6173061,"name":"Vale Perkins","admin3":"45030"},{"geonameid":6173689,"name":"Venise","admin3":"45072"},{"geonameid":6174212,"name":"Vieux-Piopolis","admin3":"30020"},{"geonameid":6174229,"name":"View Point","admin3":"43027"},{"geonameid":6174350,"name":"Villette","admin3":"44015"},{"geonameid":6174730,"name":"Waban Aki","admin3":"45060"},{"geonameid":6176899,"name":"Waterville","admin3":"44080"},{"geonameid":6177286,"name":"Way's Mills","admin3":"44045"},{"geonameid":6177594,"name":"Weedon","admin3":"41098"},{"geonameid":6177596,"name":"Weedon","admin3":"41098"},{"geonameid":12076648,"name":"Weedon Centre","admin3":"41098"},{"geonameid":6182959,"name":"Windsor","admin3":"42088"},{"geonameid":6183588,"name":"Woburn","admin3":"30005"},{"geonameid":6184627,"name":"Wotton","admin3":"40017"}],"admin3":[{"geonameid":5923892,"name":"Cleveland","admin3":"42110"},{"geonameid":5969991,"name":"Hampden","admin3":"41075"},{"geonameid":5971972,"name":"Hatley (township municipality)","admin3":"45055"},{"geonameid":6054473,"name":"Lingwick","admin3":"41085"},{"geonameid":6066968,"name":"Marston","admin3":"30035"},{"geonameid":6071847,"name":"Melbourne","admin3":"42075"},{"geonameid":6094290,"name":"Orford","admin3":"45115"},{"geonameid":6112384,"name":"Potton","admin3":"45030"},{"geonameid":6137465,"name":"Saint-Augustin-de-Woburn","admin3":"30005"},{"geonameid":6137550,"name":"Saint-Camille","admin3":"40025"},{"geonameid":6137673,"name":"Saint-Denis-de-Brompton","admin3":"42025"},{"geonameid":6137862,"name":"Sainte-Edwidge-de-Clifton","admin3":"44055"},{"geonameid":6138253,"name":"Saint-François-Xavier-de-Brompton","admin3":"42020"},{"geonameid":6155297,"name":"Stanstead","admin3":"45025"},{"geonameid":6157976,"name":"Stratford","admin3":"30110"},{"geonameid":6172997,"name":"Valcourt","admin3":"42060"},{"geonameid":6173259,"name":"Val-Racine","admin3":"30015"},{"geonameid":6178471,"name":"Westbury","admin3":"41065"},{"geonameid":8672567,"name":"Saint-Étienne-de-Bolton","admin3":"45100"},{"geonameid":8672784,"name":"Kingsbury","admin3":"42070"},{"geonameid":8672820,"name":"Ham-Sud","admin3":"40005"},{"geonameid":8672971,"name":"Newport","admin3":"41037"},{"geonameid":8672986,"name":"Weedon","admin3":"41098"},{"geonameid":8673014,"name":"Chartierville","admin3":"41020"},{"geonameid":8673021,"name":"Compton","admin3":"44071"},{"geonameid":8673030,"name":"La Patrie","admin3":"41027"},{"geonameid":8673040,"name":"Barnston-Ouest","admin3":"44045"},{"geonameid":8673045,"name":"North Hatley","admin3":"45050"},{"geonameid":8673050,"name":"Saint-Adrien","admin3":"40010"},{"geonameid":8673053,"name":"Saint-Herménégilde","admin3":"44015"},{"geonameid":8673059,"name":"Courcelles","admin3":"30090"},{"geonameid":8673104,"name":"Saint-Georges-de-Windsor","admin3":"40032"},{"geonameid":8673143,"name":"Piopolis","admin3":"30020"},{"geonameid":8673168,"name":"Lac-Drolet","admin3":"30080"},{"geonameid":8673176,"name":"Austin","admin3":"45085"},{"geonameid":8673246,"name":"Bury","admin3":"41070"},{"geonameid":8673249,"name":"Bolton-Est","admin3":"45095"},{"geonameid":8673293,"name":"Hatley","admin3":"45043"},{"geonameid":8673297,"name":"Notre-Dame-des-Bois","admin3":"30010"},{"geonameid":8673303,"name":"Ogden","admin3":"45020"},{"geonameid":8673314,"name":"Lac-Mégantic","admin3":"30030"},{"geonameid":8673345,"name":"Martinville","admin3":"44060"},{"geonameid":8673375,"name":"Sainte-Anne-de-la-Rochelle","admin3":"42050"},{"geonameid":8673406,"name":"Sainte-Cécile-de-Whitton","admin3":"30050"},{"geonameid":8673441,"name":"Wotton","admin3":"40017"},{"geonameid":8673447,"name":"Milan","admin3":"30040"},{"geonameid":8673478,"name":"Stoke","admin3":"42005"},{"geonameid":8673500,"name":"Ascot Corner","admin3":"41055"},{"geonameid":8673528,"name":"Ulverton","admin3":"42078"},{"geonameid":8673536,"name":"Saint-Claude","admin3":"42100"},{"geonameid":8673594,"name":"Saint-Venant-de-Paquette","admin3":"44005"},{"geonameid":8673598,"name":"Maricourt","admin3":"42065"},{"geonameid":8673608,"name":"Saint-Benoît-du-Lac","admin3":"45080"},{"geonameid":8673615,"name":"Dixville","admin3":"44023"},{"geonameid":8673616,"name":"Bonsecours","admin3":"42040"},{"geonameid":8673629,"name":"Eastman","admin3":"45093"},{"geonameid":8673639,"name":"Saint-Robert-Bellarmin","admin3":"30070"},{"geonameid":8673694,"name":"Stanstead-Est","admin3":"44050"},{"geonameid":8673697,"name":"Dudswell","admin3":"41117"},{"geonameid":8673701,"name":"Valcourt","admin3":"42055"},{"geonameid":8673706,"name":"Saint-Sébastien","admin3":"30085"},{"geonameid":8673709,"name":"East Hereford","admin3":"44010"},{"geonameid":8673759,"name":"Val-Joli","admin3":"42095"},{"geonameid":8673767,"name":"Lawrenceville","admin3":"42045"},{"geonameid":8673773,"name":"Saint-Ludger","admin3":"30072"},{"geonameid":8673775,"name":"Saint-Malo","admin3":"44003"},{"geonameid":8673784,"name":"Richmond","admin3":"42098"},{"geonameid":8673796,"name":"Audet","admin3":"30055"},{"geonameid":8673810,"name":"Stukely-Sud","admin3":"45105"},{"geonameid":8673811,"name":"Danville","admin3":"40047"},{"geonameid":8673818,"name":"Waterville","admin3":"44080"},{"geonameid":8673846,"name":"Windsor","admin3":"42088"},{"geonameid":8673858,"name":"Asbestos","admin3":"40043"},{"geonameid":8673876,"name":"Cookshire-Eaton","admin3":"41038"},{"geonameid":8673901,"name":"Racine","admin3":"42032"},{"geonameid":8673975,"name":"Saint-Romain","admin3":"30100"},{"geonameid":8673992,"name":"East Angus","admin3":"41060"},{"geonameid":8674023,"name":"Saint-Isidore-de-Clifton","admin3":"41012"},{"geonameid":8674026,"name":"Scotstown","admin3":"41080"},{"geonameid":8674071,"name":"Magog","admin3":"45072"},{"geonameid":8674086,"name":"Frontenac","admin3":"30025"},{"geonameid":8674111,"name":"Stanstead","admin3":"45008"},{"geonameid":8674119,"name":"Nantes","admin3":"30045"},{"geonameid":8674143,"name":"Stornoway","admin3":"30105"},{"geonameid":8674154,"name":"Lambton","admin3":"30095"},{"geonameid":8674171,"name":"Ayer's Cliff","admin3":"45035"},{"geonameid":8674199,"name":"Sainte-Catherine-de-Hatley","admin3":"45060"}],"alternateNames":[]},"__N_SSG":true}