{"pageProps":{"locale":"en","admin2":{"geonameid":5709906,"name":"Washoe County","country":"US","admin1":"NV","admin2":"031","admin3":"","latitude":"40.6654200","longitude":"-119.6643000"},"admin1":{"geonameid":5509151,"name":"Nevada","admin1":"NV","localeAltName":"Nevada"},"locations":[{"geonameid":5502015,"name":"Cold Springs","admin3":""},{"geonameid":5504802,"name":"Golden Valley","admin3":""},{"geonameid":5505963,"name":"Incline Village","admin3":""},{"geonameid":5507103,"name":"Lemmon Valley","admin3":""},{"geonameid":5508487,"name":"Mogul","admin3":""},{"geonameid":5511077,"name":"Reno","admin3":""},{"geonameid":5512827,"name":"Spanish Springs","admin3":""},{"geonameid":5512862,"name":"Sparks","admin3":""},{"geonameid":5513307,"name":"Sun Valley","admin3":""},{"geonameid":5514359,"name":"Verdi","admin3":""}],"admin3":[],"alternateNames":[{"alternatenameId":2089566,"geonameid":5509151,"isoLanguage":"en","alternateName":"Nevada","isPreferredName":true,"isShortName":true,"isColloquial":false,"isHistoric":false}]},"__N_SSG":true}