{"pageProps":{"locale":"en","admin2":{"geonameid":4330185,"name":"Lafourche Parish","country":"US","admin1":"LA","admin2":"057","admin3":"","latitude":"29.5003300","longitude":"-90.4025900"},"admin1":{"geonameid":4331987,"name":"Louisiana","admin1":"LA","localeAltName":"Louisiana"},"locations":[{"geonameid":4319507,"name":"Chackbay","admin3":""},{"geonameid":4321399,"name":"Cut Off","admin3":""},{"geonameid":4325424,"name":"Galliano","admin3":""},{"geonameid":4325859,"name":"Golden Meadow","admin3":""},{"geonameid":4330541,"name":"Larose","admin3":""},{"geonameid":4331530,"name":"Lockport","admin3":""},{"geonameid":4331531,"name":"Lockport Heights","admin3":""},{"geonameid":4332788,"name":"Mathews","admin3":""},{"geonameid":4338298,"name":"Raceland","admin3":""},{"geonameid":4343429,"name":"Thibodaux","admin3":""}],"admin3":[],"alternateNames":[{"alternatenameId":2089571,"geonameid":4331987,"isoLanguage":"en","alternateName":"Louisiana","isPreferredName":true,"isShortName":true,"isColloquial":false,"isHistoric":false}]},"__N_SSG":true}