{"pageProps":{"locale":"ro","admin2":{"geonameid":665008,"name":"Oraș Târgu Lăpuş","country":"RO","admin1":"25","admin2":"106817","admin3":"","latitude":"47.4612400","longitude":"23.8535300"},"admin1":{"geonameid":673887,"name":"Maramureş","admin1":"25"},"locations":[{"geonameid":684441,"name":"Boiereni","admin3":""},{"geonameid":684224,"name":"Borcut","admin3":""},{"geonameid":679997,"name":"Cufoaia","admin3":""},{"geonameid":679792,"name":"Dămăcușeni","admin3":""},{"geonameid":679231,"name":"Dobricu Lăpușului","admin3":""},{"geonameid":678734,"name":"Dumbrava","admin3":""},{"geonameid":678153,"name":"Fântânele","admin3":""},{"geonameid":676689,"name":"Groape","admin3":""},{"geonameid":675620,"name":"Inău","admin3":""},{"geonameid":669076,"name":"Răzoare","admin3":""},{"geonameid":668746,"name":"Rogoz","admin3":""},{"geonameid":668742,"name":"Rohia","admin3":""},{"geonameid":666054,"name":"Stoiceni","admin3":""},{"geonameid":665009,"name":"Târgu Lăpuş","admin3":""}],"admin3":[],"alternateNames":[]},"__N_SSG":true}