{"pageProps":{"locale":"en","admin2":{"geonameid":5643929,"name":"Cascade County","country":"US","admin1":"MT","admin2":"013","admin3":"","latitude":"47.3080200","longitude":"-111.3471500","localeAltName":null},"admin1":{"geonameid":5667009,"name":"Montana","admin1":"MT","localeAltName":"Montana"},"locations":[{"geonameid":5639462,"name":"Belt","admin3":"","localeAltName":null},{"geonameid":5640683,"name":"Black Eagle","admin3":"","localeAltName":null},{"geonameid":5643915,"name":"Cascade","admin3":"","localeAltName":null},{"geonameid":5655240,"name":"Great Falls","admin3":"","localeAltName":null},{"geonameid":7261214,"name":"Malmstrom Air Force Base","admin3":"","localeAltName":null},{"geonameid":5681020,"name":"Sun Prairie","admin3":"","localeAltName":null},{"geonameid":5683793,"name":"Ulm","admin3":"","localeAltName":null},{"geonameid":5684372,"name":"Vaughn","admin3":"","localeAltName":null}],"admin3":[],"alternateNames":[{"alternatenameId":2089563,"geonameid":5667009,"isoLanguage":"en","alternateName":"Montana","isPreferredName":true,"isShortName":true,"isColloquial":false,"isHistoric":false}]},"__N_SSG":true}