{"pageProps":{"locale":"en","admin1":{"geonameid":2745909,"name":"Provincie Utrecht","country":"NL","admin1":"09","latitude":"52.0000000","longitude":"5.2500000","localeAltName":null},"admin2":[{"geonameid":2759820,"name":"Gemeente Amersfoort","admin2":"0307","localeAltName":null},{"geonameid":2759543,"name":"Gemeente Baarn","admin2":"0308","localeAltName":null},{"geonameid":2758105,"name":"Gemeente Bunnik","admin2":"0312","localeAltName":null},{"geonameid":2758103,"name":"Gemeente Bunschoten","admin2":"0313","localeAltName":null},{"geonameid":2757782,"name":"Gemeente De Bilt","admin2":"0310","localeAltName":null},{"geonameid":6544250,"name":"Gemeente De Ronde Venen","admin2":"0736","localeAltName":null},{"geonameid":2756393,"name":"Gemeente Eemnes","admin2":"0317","localeAltName":null},{"geonameid":2753556,"name":"Gemeente Houten","admin2":"0321","localeAltName":null},{"geonameid":2753354,"name":"Gemeente IJsselstein","admin2":"0353","localeAltName":null},{"geonameid":2751688,"name":"Gemeente Leusden","admin2":"0327","localeAltName":null},{"geonameid":2751435,"name":"Gemeente Lopik","admin2":"0331","localeAltName":null},{"geonameid":2750625,"name":"Gemeente Montfoort","admin2":"0335","localeAltName":null},{"geonameid":2750324,"name":"Gemeente Nieuwegein","admin2":"0356","localeAltName":null},{"geonameid":2748978,"name":"Gemeente Oudewater","admin2":"0589","localeAltName":null},{"geonameid":2748227,"name":"Gemeente Renswoude","admin2":"0339","localeAltName":null},{"geonameid":2748184,"name":"Gemeente Rhenen","admin2":"0340","localeAltName":null},{"geonameid":2747033,"name":"Gemeente Soest","admin2":"0342","localeAltName":null},{"geonameid":2745911,"name":"Gemeente Utrecht","admin2":"0344","localeAltName":null},{"geonameid":2756685,"name":"Gemeente Utrechtse Heuvelrug","admin2":"1581","localeAltName":null},{"geonameid":2745773,"name":"Gemeente Veenendaal","admin2":"0345","localeAltName":null},{"geonameid":2744482,"name":"Gemeente Wijk bij Duurstede","admin2":"0352","localeAltName":null},{"geonameid":2744247,"name":"Gemeente Woerden","admin2":"0632","localeAltName":null},{"geonameid":2744162,"name":"Gemeente Woudenberg","admin2":"0351","localeAltName":null},{"geonameid":2743976,"name":"Gemeente Zeist","admin2":"0355","localeAltName":null},{"geonameid":8260047,"name":"Stichtse Vecht","admin2":"1904","localeAltName":null},{"geonameid":2745538,"name":"Vijfheerenlanden","admin2":"1961","localeAltName":null}],"admin3":[],"country":{"geonameid":2750405,"country":"NL","name":"Kingdom of the Netherlands","localeAltName":"Netherlands"},"alternateNames":[{"alternatenameId":11907793,"geonameid":2745909,"isoLanguage":"de","alternateName":"Utrecht","isPreferredName":true,"isShortName":true,"isColloquial":false,"isHistoric":false},{"alternatenameId":1559973,"geonameid":2750405,"isoLanguage":"en","alternateName":"Netherlands","isPreferredName":true,"isShortName":true,"isColloquial":false,"isHistoric":false}]},"__N_SSG":true}