{"pageProps":{"locale":"it","admin2":{"geonameid":6955471,"name":"Province of Fermo","country":"IT","admin1":"10","admin2":"FM","admin3":"","latitude":"43.1653700","longitude":"13.7242400","localeAltName":null},"admin1":{"geonameid":3174004,"name":"Marche","admin1":"10","localeAltName":"Marche"},"locations":[{"geonameid":3183129,"name":"Amandola","admin3":"109002","localeAltName":null},{"geonameid":9036160,"name":"Bivio Cascinare","admin3":"109037","localeAltName":null},{"geonameid":8949496,"name":"Bivio Strada Vecchia","admin3":"109034","localeAltName":null},{"geonameid":8949217,"name":"Campiglione","admin3":"109006","localeAltName":null},{"geonameid":3180972,"name":"Campofilone","admin3":"109004","localeAltName":null},{"geonameid":3180694,"name":"Capodarco","admin3":"109006","localeAltName":null},{"geonameid":8949620,"name":"Capparuccia","admin3":"109032","localeAltName":null},{"geonameid":8949357,"name":"Cascinare","admin3":"109037","localeAltName":null},{"geonameid":8948852,"name":"Casette d'Ete","admin3":"109037","localeAltName":null},{"geonameid":8949597,"name":"Castellano","admin3":"109037","localeAltName":null},{"geonameid":8949847,"name":"Cretarola","admin3":"109037","localeAltName":null},{"geonameid":3177099,"name":"Fermo","admin3":"109006","localeAltName":null},{"geonameid":3176604,"name":"Francavilla d'Ete","admin3":"109007","localeAltName":null},{"geonameid":3175770,"name":"Grottazzolina","admin3":"109008","localeAltName":null},{"geonameid":8949884,"name":"La Luce","admin3":"109037","localeAltName":null},{"geonameid":8948849,"name":"Lido di Fermo","admin3":"109006","localeAltName":null},{"geonameid":9036361,"name":"Marina di Altidona","admin3":"109001","localeAltName":null},{"geonameid":3173923,"name":"Marina Palmense","admin3":"109006","localeAltName":null},{"geonameid":3173764,"name":"Massa Fermana","admin3":"109011","localeAltName":null},{"geonameid":8949559,"name":"Molini di Tenna","admin3":"109006","localeAltName":null},{"geonameid":3173127,"name":"Monsampietro Morico","admin3":"109012","localeAltName":null},{"geonameid":3173066,"name":"Montappone","admin3":"109013","localeAltName":null},{"geonameid":3172752,"name":"Monte San Pietrangeli","admin3":"109023","localeAltName":null},{"geonameid":3172720,"name":"Monte Urano","admin3":"109024","localeAltName":null},{"geonameid":6535037,"name":"Monte Vidon Combatte","admin3":"109025","localeAltName":null},{"geonameid":3172939,"name":"Montefalcone Appennino","admin3":"109014","localeAltName":null},{"geonameid":3172901,"name":"Montegiorgio","admin3":"109017","localeAltName":null},{"geonameid":3172896,"name":"Montegranaro","admin3":"109018","localeAltName":null},{"geonameid":3172765,"name":"Monterubbiano","admin3":"109022","localeAltName":null},{"geonameid":3172637,"name":"Montottone","admin3":"109027","localeAltName":null},{"geonameid":3171339,"name":"Pedaso","admin3":"109030","localeAltName":null},{"geonameid":3171094,"name":"Petritoli","admin3":"109031","localeAltName":null},{"geonameid":8949143,"name":"Piane","admin3":"109005","localeAltName":null},{"geonameid":9036380,"name":"Piane di Montegiorgio","admin3":"109017","localeAltName":null},{"geonameid":8950205,"name":"Ponte Ete-Caldarette","admin3":"109006","localeAltName":null},{"geonameid":3170073,"name":"Porto San Giorgio","admin3":"109033","localeAltName":null},{"geonameid":3170072,"name":"Porto Sant'Elpidio","admin3":"109034","localeAltName":null},{"geonameid":3169604,"name":"Rapagnano","admin3":"109035","localeAltName":null},{"geonameid":8950062,"name":"Rubbianello","admin3":"109022","localeAltName":null},{"geonameid":8949594,"name":"Salvano","admin3":"109006","localeAltName":null},{"geonameid":8950208,"name":"San Marco","admin3":"109006","localeAltName":null},{"geonameid":8948983,"name":"San Tommaso Tre Archi","admin3":"109006","localeAltName":null},{"geonameid":3167350,"name":"San Vittoria in Matenano","admin3":"109036","localeAltName":null},{"geonameid":3167333,"name":"Sant'Elpidio a Mare","admin3":"109037","localeAltName":null},{"geonameid":3166619,"name":"Servigliano","admin3":"109038","localeAltName":null},{"geonameid":3165423,"name":"Torre San Patrizio","admin3":"109040","localeAltName":null},{"geonameid":8950150,"name":"Vagli","admin3":"109018","localeAltName":null},{"geonameid":8949685,"name":"Valdaso","admin3":"109030","localeAltName":null}],"admin3":[{"geonameid":6536795,"name":"Altidona","admin3":"109001","localeAltName":null},{"geonameid":6536797,"name":"Francavilla d'Ete","admin3":"109007","localeAltName":null},{"geonameid":6536799,"name":"Montappone","admin3":"109013","localeAltName":null},{"geonameid":6536800,"name":"Montegiorgio","admin3":"109017","localeAltName":"Montegiorgio"},{"geonameid":6536801,"name":"Pedaso","admin3":"109030","localeAltName":null},{"geonameid":6536802,"name":"Porto San Giorgio","admin3":"109033","localeAltName":null},{"geonameid":6536805,"name":"Servigliano","admin3":"109038","localeAltName":null},{"geonameid":6538529,"name":"Amandola","admin3":"109002","localeAltName":null},{"geonameid":6538533,"name":"Falerone","admin3":"109005","localeAltName":null},{"geonameid":6538535,"name":"Massa Fermana","admin3":"109011","localeAltName":null},{"geonameid":6538536,"name":"Monsampietro Morico","admin3":"109012","localeAltName":null},{"geonameid":6538538,"name":"Montegranaro","admin3":"109018","localeAltName":null},{"geonameid":6538539,"name":"Montelparo","admin3":"109020"},{"geonameid":6538541,"name":"Monterubbiano","admin3":"109022","localeAltName":null},{"geonameid":6538542,"name":"Monte San Pietrangeli","admin3":"109023","localeAltName":null},{"geonameid":6538543,"name":"Monte Vidon Corrado","admin3":"109026"},{"geonameid":6538544,"name":"Ortezzano","admin3":"109029"},{"geonameid":6539731,"name":"Monte Urano","admin3":"109024","localeAltName":null},{"geonameid":6539732,"name":"Sant'Elpidio a Mare","admin3":"109037","localeAltName":null},{"geonameid":6540262,"name":"Santa Vittoria in Matenano","admin3":"109036","localeAltName":null},{"geonameid":6540461,"name":"Montefalcone Appennino","admin3":"109014","localeAltName":null},{"geonameid":6540462,"name":"Monte Giberto","admin3":"109016"},{"geonameid":6540464,"name":"Moresco","admin3":"109028"},{"geonameid":6541070,"name":"Belmonte Piceno","admin3":"109003"},{"geonameid":6541072,"name":"Lapedona","admin3":"109009"},{"geonameid":6541074,"name":"Montefortino","admin3":"109015"},{"geonameid":6541076,"name":"Petritoli","admin3":"109031","localeAltName":null},{"geonameid":6541077,"name":"Porto Sant'Elpidio","admin3":"109034","localeAltName":null},{"geonameid":6541608,"name":"Campofilone","admin3":"109004","localeAltName":null},{"geonameid":6541638,"name":"Magliano di Tenna","admin3":"109010"},{"geonameid":6541639,"name":"Montottone","admin3":"109027","localeAltName":null},{"geonameid":6541640,"name":"Rapagnano","admin3":"109035","localeAltName":null},{"geonameid":6541641,"name":"Torre San Patrizio","admin3":"109040","localeAltName":null},{"geonameid":6541874,"name":"Fermo","admin3":"109006","localeAltName":"Fermo"},{"geonameid":6541875,"name":"Grottazzolina","admin3":"109008","localeAltName":null},{"geonameid":6541876,"name":"Monte Rinaldo","admin3":"109021"},{"geonameid":6542086,"name":"Ponzano di Fermo","admin3":"109032","localeAltName":null},{"geonameid":6543023,"name":"Monte Vidon Combatte","admin3":"109025","localeAltName":null},{"geonameid":6543024,"name":"Smerillo","admin3":"109039"},{"geonameid":6543592,"name":"Monteleone di Fermo","admin3":"109019"}],"alternateNames":[{"alternatenameId":1350130,"geonameid":3174004,"isoLanguage":"it","alternateName":"Marche","isPreferredName":true,"isShortName":true,"isColloquial":false,"isHistoric":false},{"alternatenameId":1350131,"geonameid":3174004,"isoLanguage":"en","alternateName":"The Marches","isPreferredName":true,"isShortName":true,"isColloquial":false,"isHistoric":false},{"alternatenameId":7838050,"geonameid":6536800,"isoLanguage":"it","alternateName":"Montegiorgio","isPreferredName":true,"isShortName":true,"isColloquial":false,"isHistoric":false},{"alternatenameId":2431311,"geonameid":6541874,"isoLanguage":"it","alternateName":"Fermo","isPreferredName":true,"isShortName":true,"isColloquial":false,"isHistoric":false}]},"__N_SSG":true}