{"pageProps":{"locale":"en","admin2":{"geonameid":5469835,"name":"Grant County","country":"US","admin1":"NM","admin2":"017","admin3":"","latitude":"32.7390100","longitude":"-108.3822500","localeAltName":null},"admin1":{"geonameid":5481136,"name":"New Mexico","admin1":"NM","localeAltName":"New Mexico"},"locations":[{"geonameid":5455650,"name":"Arenas Valley","admin3":"","localeAltName":null},{"geonameid":5456682,"name":"Bayard","admin3":"","localeAltName":null},{"geonameid":5472433,"name":"Hurley","admin3":"","localeAltName":null},{"geonameid":5479546,"name":"Mimbres","admin3":"","localeAltName":null},{"geonameid":5490223,"name":"Santa Clara","admin3":"","localeAltName":null},{"geonameid":5491487,"name":"Silver City","admin3":"","localeAltName":null},{"geonameid":5495766,"name":"Tyrone","admin3":"","localeAltName":null}],"admin3":[],"alternateNames":[{"alternatenameId":2124824,"geonameid":5481136,"isoLanguage":"en","alternateName":"New Mexico","isPreferredName":true,"isShortName":true,"isColloquial":false,"isHistoric":false}]},"__N_SSG":true}