{"pageProps":{"locale":"en","admin2":{"geonameid":2636561,"name":"Suffolk","country":"GB","admin1":"ENG","admin2":"N5","admin3":"","latitude":"52.1666700","longitude":"1.0000000"},"admin1":{"geonameid":6269131,"name":"England","admin1":"ENG"},"locations":[{"geonameid":11592631,"name":"Acton"},{"geonameid":2657557,"name":"Aldeburgh"},{"geonameid":2657538,"name":"Alderton"},{"geonameid":2657535,"name":"Aldham"},{"geonameid":2657527,"name":"Aldringham"},{"geonameid":12035768,"name":"All Saints South Elmham"},{"geonameid":2657437,"name":"Alpheton"},{"geonameid":11996474,"name":"Ash Street"},{"geonameid":2656982,"name":"Ashbocking"},{"geonameid":2656958,"name":"Ashfield"},{"geonameid":2656892,"name":"Aspall"},{"geonameid":2656885,"name":"Assington"},{"geonameid":12023504,"name":"Audley End"},{"geonameid":2656668,"name":"Bacton"},{"geonameid":2656647,"name":"Badingham"},{"geonameid":2656640,"name":"Badwell Ash"},{"geonameid":2656351,"name":"Bardwell"},{"geonameid":2656332,"name":"Barking"},{"geonameid":9884580,"name":"Barnaby Green"},{"geonameid":2656304,"name":"Barnardiston"},{"geonameid":2656300,"name":"Barnby"},{"geonameid":2656292,"name":"Barnham"},{"geonameid":2656290,"name":"Barningham"},{"geonameid":2656248,"name":"Barrow"},{"geonameid":6693613,"name":"Barton Mills"},{"geonameid":2656147,"name":"Bawdsey"},{"geonameid":2656133,"name":"Baylham"},{"geonameid":2656102,"name":"Bealings"},{"geonameid":2656067,"name":"Beccles"},{"geonameid":2656047,"name":"Bedfield"},{"geonameid":2656041,"name":"Bedingfield"},{"geonameid":2655939,"name":"Belstead"},{"geonameid":2655920,"name":"Benacre"},{"geonameid":11887925,"name":"Benhall"},{"geonameid":11837925,"name":"Benhall Green"},{"geonameid":2655884,"name":"Bentley"},{"geonameid":7874329,"name":"Beyton"},{"geonameid":2655673,"name":"Bildeston"},{"geonameid":2655370,"name":"Blaxhall"},{"geonameid":11593100,"name":"Blundeston"},{"geonameid":2655318,"name":"Blyford"},{"geonameid":2655312,"name":"Blythburgh"},{"geonameid":2655134,"name":"Botesdale"},{"geonameid":11996481,"name":"Bower House Tye"},{"geonameid":2655044,"name":"Boxford"},{"geonameid":2655037,"name":"Boxted"},{"geonameid":2655027,"name":"Boyton"},{"geonameid":2654995,"name":"Bradfield St George"},{"geonameid":2654987,"name":"Bradley"},{"geonameid":2654929,"name":"Bramfield"},{"geonameid":2654928,"name":"Bramford"},{"geonameid":2654918,"name":"Brampton"},{"geonameid":11593106,"name":"Brandeston"},{"geonameid":2654896,"name":"Brandon"},{"geonameid":11592622,"name":"Brantham"},{"geonameid":2654810,"name":"Bredfield"},{"geonameid":2654788,"name":"Brent Eleigh"},{"geonameid":2654770,"name":"Brettenham"},{"geonameid":11996488,"name":"Bridge Street"},{"geonameid":11996472,"name":"Broad Street"},{"geonameid":2654607,"name":"Brockley"},{"geonameid":12023505,"name":"Brockley Green"},{"geonameid":2654595,"name":"Brome"},{"geonameid":2654594,"name":"Brome Street"},{"geonameid":2654593,"name":"Bromeswell"},{"geonameid":2654463,"name":"Bruisyard"},{"geonameid":2654460,"name":"Brundish"},{"geonameid":2654395,"name":"Bucklesham"},{"geonameid":2654327,"name":"Bungay"},{"geonameid":11996485,"name":"Bures Green"},{"geonameid":2654313,"name":"Bures Saint Mary"},{"geonameid":2654307,"name":"Burgh"},{"geonameid":2654224,"name":"Burstall"},{"geonameid":2654186,"name":"Bury St Edmunds"},{"geonameid":2654162,"name":"Butley"},{"geonameid":2654144,"name":"Buxhall"},{"geonameid":11996465,"name":"Calais Street"},{"geonameid":12188582,"name":"California"},{"geonameid":2653909,"name":"Campsea Ash"},{"geonameid":2653845,"name":"Capel Saint Mary"},{"geonameid":2653760,"name":"Carlton Colville"},{"geonameid":12188583,"name":"Castle Hill"},{"geonameid":11996468,"name":"Castling's Heath"},{"geonameid":2653476,"name":"Cavendish"},{"geonameid":2653475,"name":"Cavenham"},{"geonameid":6301919,"name":"Chantry"},{"geonameid":2653312,"name":"Charsfield"},{"geonameid":2653296,"name":"Chattisham"},{"geonameid":2653282,"name":"Chedburgh"},{"geonameid":2653277,"name":"Chediston"},{"geonameid":2653268,"name":"Chelmondiston"},{"geonameid":2653262,"name":"Chelsworth"},{"geonameid":11996490,"name":"Chelsworth Common"},{"geonameid":2653202,"name":"Chevington"},{"geonameid":2653163,"name":"Chillesford"},{"geonameid":11996442,"name":"Chilton"},{"geonameid":2652941,"name":"Clare"},{"geonameid":2652909,"name":"Claydon"},{"geonameid":2652789,"name":"Clopton"},{"geonameid":2652674,"name":"Cockfield"},{"geonameid":2652662,"name":"Coddenham"},{"geonameid":11593147,"name":"Combs"},{"geonameid":2652467,"name":"Coney Weston"},{"geonameid":2652422,"name":"Cookley"},{"geonameid":2652407,"name":"Copdock"},{"geonameid":2652308,"name":"Corton"},{"geonameid":2652261,"name":"Cotton"},{"geonameid":9884581,"name":"Cove Bottom"},{"geonameid":2652225,"name":"Covehithe"},{"geonameid":2652189,"name":"Cowlinge"},{"geonameid":11593159,"name":"Cransford"},{"geonameid":2652068,"name":"Cratfield"},{"geonameid":2652024,"name":"Creeting St Mary"},{"geonameid":2652006,"name":"Cretingham"},{"geonameid":2651847,"name":"Crowfield"},{"geonameid":11593165,"name":"Culford"},{"geonameid":2651590,"name":"Dalham"},{"geonameid":2651502,"name":"Darsham"},{"geonameid":2651439,"name":"Debach"},{"geonameid":2651436,"name":"Debenham"},{"geonameid":2651376,"name":"Denham"},{"geonameid":2651377,"name":"Denham"},{"geonameid":2651370,"name":"Dennington"},{"geonameid":2651364,"name":"Denston"},{"geonameid":2651351,"name":"Depden"},{"geonameid":11996486,"name":"Dorking Tye"},{"geonameid":11996480,"name":"Drakestone Green"},{"geonameid":2650637,"name":"Dunwich"},{"geonameid":2650544,"name":"Earl Soham"},{"geonameid":11887928,"name":"Earl Stonham"},{"geonameid":2650499,"name":"East Bergholt"},{"geonameid":2650366,"name":"Easton"},{"geonameid":2650202,"name":"Edwardstone"},{"geonameid":2650084,"name":"Ellough"},{"geonameid":11592746,"name":"Elmsett"},{"geonameid":2650068,"name":"Elmswell"},{"geonameid":2650032,"name":"Elveden"},{"geonameid":2649938,"name":"Eriswell"},{"geonameid":2649919,"name":"Erwarton"},{"geonameid":2649854,"name":"Euston"},{"geonameid":2649799,"name":"Exning"},{"geonameid":2649789,"name":"Eye"},{"geonameid":2649781,"name":"Eyke"},{"geonameid":2649724,"name":"Falkenham"},{"geonameid":2649658,"name":"Farnham"},{"geonameid":2649579,"name":"Felixstowe"},{"geonameid":2649575,"name":"Felsham"},{"geonameid":2649404,"name":"Finningham"},{"geonameid":11876501,"name":"Flatford"},{"geonameid":2649308,"name":"Flempton"},{"geonameid":2649293,"name":"Flixton"},{"geonameid":11902760,"name":"Flowton"},{"geonameid":2649195,"name":"Fornham All Saints"},{"geonameid":2649194,"name":"Fornham Saint Martin"},{"geonameid":6620443,"name":"Fornham St. Genevieve"},{"geonameid":2649104,"name":"Framlingham"},{"geonameid":2649099,"name":"Framsden"},{"geonameid":2649084,"name":"Freckenham"},{"geonameid":2649066,"name":"Fressingfield"},{"geonameid":2649065,"name":"Freston"},{"geonameid":2649043,"name":"Friston"},{"geonameid":2649017,"name":"Frostenden"},{"geonameid":6301917,"name":"Gainsborough"},{"geonameid":2648751,"name":"Gazeley"},{"geonameid":2648636,"name":"Gipping"},{"geonameid":2648622,"name":"Gisleham"},{"geonameid":2648621,"name":"Gislingham"},{"geonameid":2648549,"name":"Glemsford"},{"geonameid":11996471,"name":"Gosling Green"},{"geonameid":2648173,"name":"Great Ashfield"},{"geonameid":2648164,"name":"Great Barton"},{"geonameid":2648157,"name":"Great Blakenham"},{"geonameid":2648151,"name":"Great Bricett"},{"geonameid":2648131,"name":"Great Cornard"},{"geonameid":2648106,"name":"Great Finborough"},{"geonameid":2648098,"name":"Great Glemham"},{"geonameid":2648065,"name":"Great Livermere"},{"geonameid":2648025,"name":"Great Saxham"},{"geonameid":2647999,"name":"Great Waldingfield"},{"geonameid":2647995,"name":"Great Welnetham"},{"geonameid":11996462,"name":"Great Wenham"},{"geonameid":2647987,"name":"Great Wratting"},{"geonameid":12188581,"name":"Greenwich"},{"geonameid":11996398,"name":"Groton"},{"geonameid":2647815,"name":"Grundisburgh"},{"geonameid":2647755,"name":"Gunton"},{"geonameid":2647678,"name":"Hadleigh"},{"geonameid":11996482,"name":"Hadleigh Heath"},{"geonameid":11996487,"name":"Hagmore Green"},{"geonameid":2647638,"name":"Halesworth"},{"geonameid":2647479,"name":"Hargrave"},{"geonameid":2647474,"name":"Harkstead"},{"geonameid":12023503,"name":"Harrow Green"},{"geonameid":2647413,"name":"Hartest"},{"geonameid":2647329,"name":"Haughley"},{"geonameid":2647310,"name":"Haverhill"},{"geonameid":2647294,"name":"Hawkedon"},{"geonameid":11887929,"name":"Helmingham"},{"geonameid":2647132,"name":"Hemingstone"},{"geonameid":2647130,"name":"Hemley"},{"geonameid":2647107,"name":"Hengrave"},{"geonameid":9884579,"name":"Henham"},{"geonameid":2647103,"name":"Henley"},{"geonameid":2647089,"name":"Henstead"},{"geonameid":2647077,"name":"Hepworth"},{"geonameid":2647052,"name":"Herringfleet"},{"geonameid":2647050,"name":"Herringswell"},{"geonameid":2647035,"name":"Hessett"},{"geonameid":2647016,"name":"Heveningham"},{"geonameid":2646986,"name":"Higham"},{"geonameid":11593304,"name":"Hinderclay"},{"geonameid":2646852,"name":"Hintlesham"},{"geonameid":2646827,"name":"Hitcham"},{"geonameid":2646778,"name":"Holbrook"},{"geonameid":2646750,"name":"Hollesley"},{"geonameid":2646698,"name":"Holton"},{"geonameid":11996451,"name":"Holton St Mary"},{"geonameid":2646661,"name":"Honington"},{"geonameid":2646621,"name":"Hopton"},{"geonameid":2646608,"name":"Horham"},{"geonameid":11996459,"name":"Horner's Green"},{"geonameid":6620336,"name":"Horringer"},{"geonameid":2646477,"name":"Hoxne"},{"geonameid":2646414,"name":"Hundon"},{"geonameid":2646389,"name":"Huntingfield"},{"geonameid":2646302,"name":"Icklingham"},{"geonameid":2646273,"name":"Ilketshall St Andrew"},{"geonameid":12035765,"name":"Ilketshall St Andrew"},{"geonameid":12035767,"name":"Ilketshall St John"},{"geonameid":2638758,"name":"Ilketshall St Lawrence"},{"geonameid":12035766,"name":"Ilketshall St Margaret"},{"geonameid":2646213,"name":"Ingham"},{"geonameid":2646057,"name":"Ipswich"},{"geonameid":2645983,"name":"Ixworth"},{"geonameid":2645982,"name":"Ixworth Thorpe"},{"geonameid":2645900,"name":"Kedington"},{"geonameid":2645854,"name":"Kelsale"},{"geonameid":2645795,"name":"Kentford"},{"geonameid":2645787,"name":"Kenton"},{"geonameid":2645766,"name":"Kersey"},{"geonameid":11996478,"name":"Kersey Tye"},{"geonameid":11996479,"name":"Kersey Upland"},{"geonameid":6301921,"name":"Kesgrave"},{"geonameid":2645761,"name":"Kessingland"},{"geonameid":11996452,"name":"Kettlebaston"},{"geonameid":2645749,"name":"Kettleburgh"},{"geonameid":9257674,"name":"Kirkley"},{"geonameid":2645223,"name":"Kirton"},{"geonameid":2645156,"name":"Knettishall"},{"geonameid":11887940,"name":"Knodishall"},{"geonameid":2645074,"name":"Lackford"},{"geonameid":9883965,"name":"Lackford Green"},{"geonameid":2645020,"name":"Lakenheath"},{"geonameid":2644933,"name":"Langham"},{"geonameid":2644803,"name":"Lavenham"},{"geonameid":2644785,"name":"Lawshall"},{"geonameid":2644779,"name":"Laxfield"},{"geonameid":2644769,"name":"Layham"},{"geonameid":11593320,"name":"Leavenheath"},{"geonameid":2644642,"name":"Leiston"},{"geonameid":2644563,"name":"Levington"},{"geonameid":2644523,"name":"Lidgate"},{"geonameid":11887931,"name":"Lindsey"},{"geonameid":11996469,"name":"Lindsey Tye"},{"geonameid":11902763,"name":"Little Blakenham"},{"geonameid":11996454,"name":"Little Cornard"},{"geonameid":2644328,"name":"Little Glemham"},{"geonameid":2644258,"name":"Little Saxham"},{"geonameid":11593328,"name":"Little Waldingfield"},{"geonameid":2644223,"name":"Little Welnetham"},{"geonameid":11996463,"name":"Little Wenham"},{"geonameid":2643661,"name":"Long Melford"},{"geonameid":2643490,"name":"Lowestoft"},{"geonameid":6301918,"name":"Maidenhall"},{"geonameid":2643020,"name":"Market Weston"},{"geonameid":2643008,"name":"Marlesford"},{"geonameid":2642951,"name":"Martlesham"},{"geonameid":2642780,"name":"Mellis"},{"geonameid":2642765,"name":"Melton"},{"geonameid":2642752,"name":"Mendham"},{"geonameid":2642750,"name":"Mendlesham"},{"geonameid":2642696,"name":"Metfield"},{"geonameid":2642688,"name":"Mettingham"},{"geonameid":2642646,"name":"Mickfield"},{"geonameid":2642599,"name":"Middleton"},{"geonameid":11996455,"name":"Milden"},{"geonameid":2642543,"name":"Mildenhall"},{"geonameid":11996396,"name":"Mill Green"},{"geonameid":2642329,"name":"Monks Eleigh"},{"geonameid":2642125,"name":"Moulton"},{"geonameid":2641918,"name":"Nacton"},{"geonameid":11996457,"name":"Naughton"},{"geonameid":2641850,"name":"Nayland"},{"geonameid":11996456,"name":"Nedging"},{"geonameid":2641828,"name":"Needham Market"},{"geonameid":11902764,"name":"Nettlestead"},{"geonameid":2641703,"name":"Newbourne"},{"geonameid":2641616,"name":"Newmarket"},{"geonameid":11592738,"name":"Newton"},{"geonameid":9883954,"name":"North Common"},{"geonameid":2641386,"name":"North Cove"},{"geonameid":2641204,"name":"Norton"},{"geonameid":2641102,"name":"Occold"},{"geonameid":2641066,"name":"Offton"},{"geonameid":2641003,"name":"Old Newton"},{"geonameid":11887932,"name":"Onehouse"},{"geonameid":2640930,"name":"Orford"},{"geonameid":2640858,"name":"Otley"},{"geonameid":2640829,"name":"Oulton"},{"geonameid":11837929,"name":"Oulton Broad"},{"geonameid":2640821,"name":"Ousden"},{"geonameid":2640675,"name":"Pakefield"},{"geonameid":2640674,"name":"Pakenham"},{"geonameid":12217462,"name":"Palgrave"},{"geonameid":2640620,"name":"Parham"},{"geonameid":11996470,"name":"Parliament Heath"},{"geonameid":2640537,"name":"Peasenhall"},{"geonameid":11887933,"name":"Pettaugh"},{"geonameid":2640335,"name":"Pettistree"},{"geonameid":12122705,"name":"Pin MIll"},{"geonameid":2640221,"name":"Playford"},{"geonameid":2640149,"name":"Polstead"},{"geonameid":11996483,"name":"Polstead Heath"},{"geonameid":2639983,"name":"Poslingford"},{"geonameid":2639915,"name":"Preston St Mary"},{"geonameid":11996395,"name":"Priory Green"},{"geonameid":2639657,"name":"Ramsholt"},{"geonameid":2639608,"name":"Rattlesden"},{"geonameid":6301933,"name":"Ravenswood"},{"geonameid":2639584,"name":"Raydon"},{"geonameid":11592603,"name":"Red Lodge"},{"geonameid":2639556,"name":"Rede"},{"geonameid":2639551,"name":"Redgrave"},{"geonameid":2639539,"name":"Redisham"},{"geonameid":2639497,"name":"Rendham"},{"geonameid":2639496,"name":"Rendlesham"},{"geonameid":2639474,"name":"Reydon"},{"geonameid":2639382,"name":"Rickinghall"},{"geonameid":2639339,"name":"Ringshall"},{"geonameid":2639318,"name":"Risby"},{"geonameid":2639311,"name":"Rishangles"},{"geonameid":11996458,"name":"Rose Green"},{"geonameid":6693643,"name":"Rougham"},{"geonameid":11996394,"name":"Round Maple"},{"geonameid":2638968,"name":"Rumburgh"},{"geonameid":2638949,"name":"Rushbrooke"},{"geonameid":2638944,"name":"Rushmere"},{"geonameid":7670891,"name":"Rushmere St Andrew"},{"geonameid":2638824,"name":"Saint Cross"},{"geonameid":2638774,"name":"Saint James"},{"geonameid":2638749,"name":"Saint Margaret"},{"geonameid":2638519,"name":"Santon"},{"geonameid":8129270,"name":"Santon Downham"},{"geonameid":2638514,"name":"Sapiston"},{"geonameid":2638464,"name":"Saxmundham"},{"geonameid":2638462,"name":"Saxtead"},{"geonameid":2638211,"name":"Semer"},{"geonameid":2638159,"name":"Shadingfield"},{"geonameid":2638066,"name":"Shelley"},{"geonameid":11996397,"name":"Sherbourne Street"},{"geonameid":2637974,"name":"Shimpling"},{"geonameid":11996491,"name":"Shimpling Street"},{"geonameid":11875434,"name":"Shingle Street"},{"geonameid":2637908,"name":"Shotley"},{"geonameid":2637906,"name":"Shotley Gate"},{"geonameid":2637902,"name":"Shottisham"},{"geonameid":2637868,"name":"Sibton"},{"geonameid":2637796,"name":"Sizewell"},{"geonameid":2637596,"name":"Snape"},{"geonameid":2637535,"name":"Somerleyton"},{"geonameid":2637529,"name":"Somersham"},{"geonameid":11996460,"name":"Somerton"},{"geonameid":2637509,"name":"Sotherton"},{"geonameid":2637508,"name":"Sotterley"},{"geonameid":2637448,"name":"South Cove"},{"geonameid":2637277,"name":"Southwold"},{"geonameid":2637231,"name":"Spexhall"},{"geonameid":2637183,"name":"Sproughton"},{"geonameid":12035769,"name":"St Michael South Elmham"},{"geonameid":12035772,"name":"St Peter South Elmham"},{"geonameid":11996475,"name":"Stackyard Green"},{"geonameid":2637060,"name":"Stanningfield"},{"geonameid":2637055,"name":"Stanstead"},{"geonameid":2637049,"name":"Stanton"},{"geonameid":12188580,"name":"Stoke"},{"geonameid":2636864,"name":"Stoke by Clare"},{"geonameid":6301920,"name":"Stoke Park"},{"geonameid":2636863,"name":"Stoke-by-Nayland"},{"geonameid":11996467,"name":"Stone Street"},{"geonameid":2636800,"name":"Stonham Aspal"},{"geonameid":8063185,"name":"Stoven"},{"geonameid":2636749,"name":"Stowmarket"},{"geonameid":11887934,"name":"Stowupland"},{"geonameid":2636738,"name":"Stradbroke"},{"geonameid":2636737,"name":"Stradishall"},{"geonameid":11887935,"name":"Stratford St Andrew"},{"geonameid":11887936,"name":"Stratford St Mary"},{"geonameid":2636579,"name":"Stuston"},{"geonameid":2636578,"name":"Stutton"},{"geonameid":2636567,"name":"Sudbourne"},{"geonameid":2636564,"name":"Sudbury"},{"geonameid":2636501,"name":"Sutton"},{"geonameid":2636395,"name":"Swilland"},{"geonameid":11996473,"name":"Swingleton Green"},{"geonameid":7290325,"name":"Syleham"},{"geonameid":2636257,"name":"Tannington"},{"geonameid":11887937,"name":"Tattingstone"},{"geonameid":2636044,"name":"Theberton"},{"geonameid":11996484,"name":"Thorington Street"},{"geonameid":2635998,"name":"Thorndon"},{"geonameid":2635985,"name":"Thornham Magna"},{"geonameid":2635984,"name":"Thornham Parva"},{"geonameid":11996461,"name":"Thorpe Morieux"},{"geonameid":2635949,"name":"Thorpeness"},{"geonameid":2635893,"name":"Thurlow"},{"geonameid":2635877,"name":"Thurston"},{"geonameid":2635874,"name":"Thwaite"},{"geonameid":2635800,"name":"Timworth"},{"geonameid":2635615,"name":"Tostock"},{"geonameid":2635461,"name":"Trimley Heath"},{"geonameid":6930878,"name":"Trimley St Martin"},{"geonameid":6930879,"name":"Trimley St Mary"},{"geonameid":2635439,"name":"Troston"},{"geonameid":11887943,"name":"Tuddenham St Martin"},{"geonameid":2635397,"name":"Tuddenham St Mary"},{"geonameid":2635355,"name":"Tunstall"},{"geonameid":2635231,"name":"Ufford"},{"geonameid":11996476,"name":"Upsher Green"},{"geonameid":9883955,"name":"Upthorpe"},{"geonameid":2634907,"name":"Walberswick"},{"geonameid":2634897,"name":"Waldringfield"},{"geonameid":2634858,"name":"Walpole"},{"geonameid":2634849,"name":"Walsham le Willows"},{"geonameid":2634836,"name":"Walton"},{"geonameid":2634811,"name":"Wangford"},{"geonameid":11887902,"name":"Washbrook"},{"geonameid":11996489,"name":"Washmere Green"},{"geonameid":2634664,"name":"Wattisfield"},{"geonameid":2634663,"name":"Wattisham"},{"geonameid":2634535,"name":"Wenhaston"},{"geonameid":2634279,"name":"West Row"},{"geonameid":2634261,"name":"West Stow"},{"geonameid":2634437,"name":"Westerfield"},{"geonameid":2634365,"name":"Westleton"},{"geonameid":2634363,"name":"Westley"},{"geonameid":2634325,"name":"Weston"},{"geonameid":2634213,"name":"Wetheringsett"},{"geonameid":2634205,"name":"Weybread"},{"geonameid":2634178,"name":"Whatfield"},{"geonameid":10171172,"name":"Whelp Street"},{"geonameid":2634161,"name":"Whepstead"},{"geonameid":2634159,"name":"Wherstead"},{"geonameid":11996466,"name":"Whitestreet Green"},{"geonameid":2634008,"name":"Whitton"},{"geonameid":10171171,"name":"Wicker Street Green"},{"geonameid":2633971,"name":"Wickham Market"},{"geonameid":2633972,"name":"Wickhambrook"},{"geonameid":2633923,"name":"Wilby"},{"geonameid":11996477,"name":"William's Green"},{"geonameid":2633822,"name":"Wingfield"},{"geonameid":2633762,"name":"Wissett"},{"geonameid":2633760,"name":"Wissington"},{"geonameid":11996464,"name":"Withermarsh Green"},{"geonameid":2633742,"name":"Withersfield"},{"geonameid":2633730,"name":"Witnesham"},{"geonameid":2633671,"name":"Woodbridge"},{"geonameid":2633595,"name":"Woolpit"},{"geonameid":2633585,"name":"Woolverstone"},{"geonameid":2633557,"name":"Wordwell"},{"geonameid":2633546,"name":"Worlingham"},{"geonameid":2633545,"name":"Worlington"},{"geonameid":2633544,"name":"Worlingworth"},{"geonameid":2633524,"name":"Wortham"},{"geonameid":2633488,"name":"Wrentham"},{"geonameid":2633429,"name":"Wyverstone"},{"geonameid":2633400,"name":"Yaxley"},{"geonameid":2633344,"name":"Yoxford"}],"admin3":[{"geonameid":2649217,"name":"Forest Heath District","admin3":"42UC"},{"geonameid":7290633,"name":"Babergh District","admin3":"42UB"},{"geonameid":7290634,"name":"Ipswich District","admin3":"42UD"},{"geonameid":7290635,"name":"Mid Suffolk District","admin3":"42UE"},{"geonameid":7290636,"name":"St. Edmundsbury District","admin3":"42UF"},{"geonameid":7290637,"name":"Suffolk Coastal District","admin3":"42UG"},{"geonameid":7290638,"name":"Waveney District","admin3":"42UH"}],"alternateNames":[]},"__N_SSG":true}