{"pageProps":{"locale":"en","admin2":{"geonameid":4429197,"name":"Harrison County","country":"US","admin1":"MS","admin2":"047","admin3":"","latitude":"30.4160500","longitude":"-89.0816400"},"admin1":{"geonameid":4436296,"name":"Mississippi","admin1":"MS","localeAltName":"Mississippi"},"locations":[{"geonameid":4418478,"name":"Biloxi","admin3":""},{"geonameid":4423395,"name":"D'Iberville","admin3":""},{"geonameid":4423640,"name":"De Lisle","admin3":""},{"geonameid":4428667,"name":"Gulfport","admin3":""},{"geonameid":4434069,"name":"Long Beach","admin3":""},{"geonameid":4434459,"name":"Lyman","admin3":""},{"geonameid":4440413,"name":"Pass Christian","admin3":""},{"geonameid":4445217,"name":"Saucier","admin3":""},{"geonameid":4450687,"name":"West Gulfport","admin3":""}],"admin3":[],"alternateNames":[{"alternatenameId":2089554,"geonameid":4436296,"isoLanguage":"en","alternateName":"Mississippi","isPreferredName":true,"isShortName":true,"isColloquial":false,"isHistoric":false}]},"__N_SSG":true}