{"pageProps":{"locale":"en","admin2":{"geonameid":4267938,"name":"Barton County","country":"US","admin1":"KS","admin2":"009","admin3":"","latitude":"38.4789600","longitude":"-98.7564600"},"admin1":{"geonameid":4273857,"name":"Kansas","admin1":"KS","localeAltName":"Kansas"},"locations":[{"geonameid":4270929,"name":"Ellinwood","admin3":"20425"},{"geonameid":4272340,"name":"Great Bend","admin3":"28300"},{"geonameid":4273066,"name":"Hoisington","admin3":"32550"}],"admin3":[{"geonameid":4267443,"name":"Township of Albion","admin3":"00850"},{"geonameid":4268039,"name":"Township of Beaver","admin3":"04975"},{"geonameid":4268803,"name":"Township of Buffalo","admin3":"09075"},{"geonameid":4269508,"name":"Township of Cheyenne","admin3":"13025"},{"geonameid":4269617,"name":"Township of Clarence","admin3":"13475"},{"geonameid":4269713,"name":"Township of Cleveland","admin3":"14025"},{"geonameid":4269852,"name":"Township of Comanche","admin3":"15125"},{"geonameid":4270935,"name":"City of Ellinwood","admin3":"20425"},{"geonameid":4271180,"name":"Township of Eureka","admin3":"21750"},{"geonameid":4271349,"name":"Township of Fairview","admin3":"22400"},{"geonameid":4272298,"name":"Township of Grant","admin3":"27475"},{"geonameid":4272349,"name":"City of Great Bend","admin3":"28300"},{"geonameid":4272350,"name":"Township of Great Bend","admin3":"28325"},{"geonameid":4273068,"name":"City of Hoisington","admin3":"32550"},{"geonameid":4273382,"name":"Township of Independent","admin3":"33975"},{"geonameid":4274197,"name":"Township of Lakin","admin3":"38125"},{"geonameid":4274412,"name":"Township of Liberty","admin3":"39875"},{"geonameid":4274700,"name":"Township of Logan","admin3":"41750"},{"geonameid":4276379,"name":"Township of North Homestead","admin3":"51200"},{"geonameid":4277064,"name":"Township of Pawnee Rock","admin3":"54900"},{"geonameid":4279567,"name":"Township of South Bend","admin3":"66525"},{"geonameid":4279643,"name":"Township of South Homestead","admin3":"66725"},{"geonameid":4280839,"name":"Township of Union","admin3":"72025"},{"geonameid":4281202,"name":"Township of Walnut","admin3":"74825"},{"geonameid":4281659,"name":"Township of Wheatland","admin3":"77600"}],"alternateNames":[{"alternatenameId":2080124,"geonameid":4273857,"isoLanguage":"en","alternateName":"Kansas","isPreferredName":true,"isShortName":true,"isColloquial":false,"isHistoric":false}]},"__N_SSG":true}