{"pageProps":{"locale":"en","admin2":{"geonameid":4273605,"name":"Jewell County","country":"US","admin1":"KS","admin2":"089","admin3":"","latitude":"39.7847300","longitude":"-98.2183400"},"admin1":{"geonameid":4273857,"name":"Kansas","admin1":"KS","localeAltName":"Kansas"},"locations":[],"admin3":[{"geonameid":4267503,"name":"Township of Allen","admin3":"01225"},{"geonameid":4267750,"name":"Township of Athens","admin3":"02975"},{"geonameid":4268725,"name":"Township of Browns Creek","admin3":"08725"},{"geonameid":4268805,"name":"Township of Buffalo","admin3":"09125"},{"geonameid":4268875,"name":"Township of Burr Oak","admin3":"09550"},{"geonameid":4268981,"name":"Township of Calvin","admin3":"10075"},{"geonameid":4269282,"name":"Township of Center","admin3":"11750"},{"geonameid":4271137,"name":"Township of Erving","admin3":"21575"},{"geonameid":4271142,"name":"Township of Esbon","admin3":"21625"},{"geonameid":4272306,"name":"Township of Grant","admin3":"27725"},{"geonameid":4272686,"name":"Township of Harrison","admin3":"30350"},{"geonameid":4272971,"name":"Township of Highland","admin3":"31900"},{"geonameid":4273136,"name":"Township of Holmwood","admin3":"32800"},{"geonameid":4273457,"name":"Township of Ionia","admin3":"34375"},{"geonameid":4273522,"name":"Township of Jackson","admin3":"34800"},{"geonameid":4274447,"name":"Township of Limestone","admin3":"40450"},{"geonameid":4275702,"name":"Township of Montana","admin3":"47800"},{"geonameid":4276579,"name":"Township of Odessa","admin3":"52125"},{"geonameid":4277723,"name":"Township of Prairie","admin3":"57400"},{"geonameid":4278026,"name":"Township of Richland","admin3":"59375"},{"geonameid":4279422,"name":"Township of Sinclair","admin3":"65675"},{"geonameid":4281002,"name":"Township of Vicksburg","admin3":"73725"},{"geonameid":4281208,"name":"Township of Walnut","admin3":"75000"},{"geonameid":4281307,"name":"Township of Washington","admin3":"75650"},{"geonameid":4281689,"name":"Township of White Mound","admin3":"77925"}],"alternateNames":[{"alternatenameId":2080124,"geonameid":4273857,"isoLanguage":"en","alternateName":"Kansas","isPreferredName":true,"isShortName":true,"isColloquial":false,"isHistoric":false}]},"__N_SSG":true}