{"pageProps":{"locale":"en","admin2":{"geonameid":4277045,"name":"Pawnee County","country":"US","admin1":"KS","admin2":"145","admin3":"","latitude":"38.1813300","longitude":"-99.2367300"},"admin1":{"geonameid":4273857,"name":"Kansas","admin1":"KS","localeAltName":"Kansas"},"locations":[{"geonameid":4274249,"name":"Larned","admin3":"38700"}],"admin3":[{"geonameid":4267705,"name":"Township of Ash Valley","admin3":"02825"},{"geonameid":4268714,"name":"Township of Browns Grove","admin3":"08750"},{"geonameid":4269881,"name":"Township of Conkling","admin3":"15225"},{"geonameid":4271969,"name":"Township of Garfield","admin3":"25775"},{"geonameid":4272313,"name":"Township of Grant","admin3":"27925"},{"geonameid":4273945,"name":"Township of Keysville","admin3":"36625"},{"geonameid":4274255,"name":"City of Larned","admin3":"38700"},{"geonameid":4274256,"name":"Township of Larned","admin3":"38725"},{"geonameid":4274507,"name":"Township of Lincoln","admin3":"40975"},{"geonameid":4274709,"name":"Township of Logan","admin3":"42075"},{"geonameid":4275762,"name":"Township of Morton","admin3":"48525"},{"geonameid":4276720,"name":"Township of Orange","admin3":"53000"},{"geonameid":4277068,"name":"Township of Pawnee","admin3":"54800"},{"geonameid":4277283,"name":"Township of Pleasant Grove","admin3":"56400"},{"geonameid":4277362,"name":"Township of Pleasant Ridge","admin3":"56475"},{"geonameid":4277435,"name":"Township of Pleasant Valley","admin3":"56600"},{"geonameid":4278100,"name":"Township of River","admin3":"60050"},{"geonameid":4279004,"name":"Township of Santa Fe","admin3":"63025"},{"geonameid":4279039,"name":"Township of Sawmill","admin3":"63250"},{"geonameid":4279324,"name":"Township of Shiley","admin3":"65275"},{"geonameid":4280913,"name":"Township of Valley Center","admin3":"73225"},{"geonameid":4281210,"name":"Township of Walnut","admin3":"75050"}],"alternateNames":[{"alternatenameId":2080124,"geonameid":4273857,"isoLanguage":"en","alternateName":"Kansas","isPreferredName":true,"isShortName":true,"isColloquial":false,"isHistoric":false}]},"__N_SSG":true}