{"pageProps":{"locale":"en","admin2":{"geonameid":4277173,"name":"Phillips County","country":"US","admin1":"KS","admin2":"147","admin3":"","latitude":"39.7845800","longitude":"-99.3470200"},"admin1":{"geonameid":4273857,"name":"Kansas","admin1":"KS","localeAltName":"Kansas"},"locations":[{"geonameid":4277177,"name":"Phillipsburg","admin3":"55675"}],"admin3":[{"geonameid":4267648,"name":"Township of Arcade","admin3":"02150"},{"geonameid":4268042,"name":"Township of Beaver","admin3":"05100"},{"geonameid":4268117,"name":"Township of Belmont","admin3":"05700"},{"geonameid":4268563,"name":"Township of Bow Creek","admin3":"08075"},{"geonameid":4270168,"name":"Township of Crystal","admin3":"16550"},{"geonameid":4270257,"name":"Township of Dayton","admin3":"17100"},{"geonameid":4270308,"name":"Township of Deer Creek","admin3":"17200"},{"geonameid":4271811,"name":"Township of Freedom","admin3":"24650"},{"geonameid":4272121,"name":"Township of Glenwood","admin3":"26650"},{"geonameid":4272283,"name":"Township of Granite","admin3":"27450"},{"geonameid":4272444,"name":"Township of Greenwood","admin3":"28775"},{"geonameid":4274021,"name":"Township of Kirwin","admin3":"37300"},{"geonameid":4274710,"name":"Township of Logan","admin3":"42125"},{"geonameid":4274774,"name":"Township of Long Island","admin3":"42625"},{"geonameid":4275802,"name":"Township of Mound","admin3":"48725"},{"geonameid":4277181,"name":"City of Phillipsburg","admin3":"55675"},{"geonameid":4277182,"name":"Township of Phillipsburg","admin3":"55700"},{"geonameid":4277259,"name":"Township of Plainview","admin3":"56125"},{"geonameid":4277524,"name":"Township of Plum","admin3":"56775"},{"geonameid":4277716,"name":"Township of Prairie View","admin3":"57550"},{"geonameid":4278469,"name":"Township of Rushville","admin3":"61800"},{"geonameid":4279548,"name":"Township of Solomon","admin3":"66350"},{"geonameid":4280148,"name":"Township of Sumner","admin3":"69175"},{"geonameid":4280535,"name":"Township of Towanda","admin3":"71175"},{"geonameid":4280946,"name":"Township of Valley","admin3":"73025"},{"geonameid":4281211,"name":"Township of Walnut","admin3":"75075"}],"alternateNames":[{"alternatenameId":2080124,"geonameid":4273857,"isoLanguage":"en","alternateName":"Kansas","isPreferredName":true,"isShortName":true,"isColloquial":false,"isHistoric":false}]},"__N_SSG":true}