{"pageProps":{"locale":"en","admin2":{"geonameid":4163566,"name":"Martin County","country":"US","admin1":"FL","admin2":"085","admin3":"","latitude":"27.0815700","longitude":"-80.3985100","localeAltName":null},"admin1":{"geonameid":4155751,"name":"Florida","admin1":"FL","localeAltName":"Florida"},"locations":[{"geonameid":4158758,"name":"Hobe Sound","admin3":"","localeAltName":null},{"geonameid":4159687,"name":"Indiantown","admin3":"","localeAltName":null},{"geonameid":4160171,"name":"Jensen Beach","admin3":"","localeAltName":null},{"geonameid":4160617,"name":"Jupiter Island","admin3":"","localeAltName":null},{"geonameid":4166293,"name":"North River Shores","admin3":"","localeAltName":null},{"geonameid":4167536,"name":"Palm City","admin3":"","localeAltName":null},{"geonameid":4169176,"name":"Port Salerno","admin3":"","localeAltName":null},{"geonameid":4170062,"name":"Rio","admin3":"","localeAltName":null},{"geonameid":4172557,"name":"Sewall's Point","admin3":"","localeAltName":null},{"geonameid":4174201,"name":"Stuart","admin3":"","localeAltName":null}],"admin3":[{"geonameid":7170868,"name":"City of Stuart","admin3":"7170868"},{"geonameid":7171178,"name":"Town of Jupiter Island","admin3":"7171178"},{"geonameid":7172250,"name":"Town of Ocean Breeze Park","admin3":"7172250"},{"geonameid":7172527,"name":"Town of Sewall's Point","admin3":"7172527"}],"alternateNames":[{"alternatenameId":2080779,"geonameid":4155751,"isoLanguage":"en","alternateName":"Florida","isPreferredName":true,"isShortName":true,"isColloquial":false,"isHistoric":false}]},"__N_SSG":true}