{"pageProps":{"locale":"en","admin2":{"geonameid":5703673,"name":"Elko County","country":"US","admin1":"NV","admin2":"007","admin3":"","latitude":"41.1458300","longitude":"-115.3577600","localeAltName":null},"admin1":{"geonameid":5509151,"name":"Nevada","admin1":"NV","localeAltName":"Nevada"},"locations":[{"geonameid":5702255,"name":"Carlin","admin3":"","localeAltName":null},{"geonameid":5703670,"name":"Elko","admin3":"","localeAltName":null},{"geonameid":5705218,"name":"Jackpot","admin3":"","localeAltName":null},{"geonameid":5707065,"name":"Osino","admin3":"","localeAltName":null},{"geonameid":5707081,"name":"Owyhee","admin3":"","localeAltName":null},{"geonameid":5708894,"name":"Spring Creek","admin3":"","localeAltName":null},{"geonameid":5709967,"name":"Wells","admin3":"","localeAltName":null},{"geonameid":5710035,"name":"West Wendover","admin3":"","localeAltName":null}],"admin3":[{"geonameid":11788873,"name":"City of Wells","admin3":"11788873"}],"alternateNames":[{"alternatenameId":2089566,"geonameid":5509151,"isoLanguage":"en","alternateName":"Nevada","isPreferredName":true,"isShortName":true,"isColloquial":false,"isHistoric":false}]},"__N_SSG":true}