{"pageProps":{"locale":"en","admin2":{"geonameid":6119131,"name":"Regional District of Fraser-Fort George","country":"CA","admin1":"02","admin2":"5953","admin3":"","latitude":"53.6999300","longitude":"-121.2528100"},"admin1":{"geonameid":5909050,"name":"British Columbia","admin1":"02"},"locations":[{"geonameid":5896118,"name":"Bear Lake","admin3":""},{"geonameid":5905560,"name":"Bonnet Hill","admin3":"5953023"},{"geonameid":5920051,"name":"Charella Garden","admin3":"5953023"},{"geonameid":5925311,"name":"College Heights","admin3":"5953023"},{"geonameid":5971558,"name":"Hart Highlands","admin3":"5953023"},{"geonameid":5984302,"name":"Island Cache","admin3":"5953023"},{"geonameid":6063191,"name":"Mackenzie","admin3":"5953033"},{"geonameid":6068627,"name":"McBride","admin3":"5953012"},{"geonameid":6070684,"name":"McLeod Lake","admin3":""},{"geonameid":6090350,"name":"North Nechako","admin3":"5953023"},{"geonameid":6095247,"name":"Otway","admin3":"5953023"},{"geonameid":6113365,"name":"Prince George","admin3":"5953023"},{"geonameid":6144770,"name":"Shady Valley","admin3":"5953023"},{"geonameid":6152151,"name":"South Fort George","admin3":"5953023"},{"geonameid":6159312,"name":"Summit Lake","admin3":""},{"geonameid":6173491,"name":"Vanway","admin3":"5953023"}],"admin3":[{"geonameid":12031906,"name":"Mackenzie","admin3":"5953033"},{"geonameid":12031907,"name":"McBride","admin3":"5953012"},{"geonameid":12031908,"name":"Valemount","admin3":"5953007"},{"geonameid":12032007,"name":"Prince George","admin3":"5953023"}],"alternateNames":[]},"__N_SSG":true}