{"pageProps":{"locale":"en","admin2":{"geonameid":4815207,"name":"Monongalia County","country":"US","admin1":"WV","admin2":"061","admin3":"","latitude":"39.6302800","longitude":"-80.0465400","localeAltName":null},"admin1":{"geonameid":4826850,"name":"West Virginia","admin1":"WV","localeAltName":"West Virginia"},"locations":[{"geonameid":4800195,"name":"Brookhaven","admin3":"","localeAltName":null},{"geonameid":4801560,"name":"Cassville","admin3":"","localeAltName":null},{"geonameid":4801895,"name":"Cheat Lake","admin3":"","localeAltName":null},{"geonameid":4807379,"name":"Granville","admin3":"","localeAltName":null},{"geonameid":4815352,"name":"Morgantown","admin3":"","localeAltName":null},{"geonameid":4823309,"name":"Star City","admin3":"","localeAltName":null},{"geonameid":4826895,"name":"Westover","admin3":"","localeAltName":null}],"admin3":[],"alternateNames":[{"alternatenameId":2124822,"geonameid":4826850,"isoLanguage":"en","alternateName":"West Virginia","isPreferredName":true,"isShortName":true,"isColloquial":false,"isHistoric":false}]},"__N_SSG":true}