{"pageProps":{"locale":"en","admin2":{"geonameid":4462398,"name":"Craven County","country":"US","admin1":"NC","admin2":"049","admin3":"","latitude":"35.1172200","longitude":"-77.0826300","localeAltName":null},"admin1":{"geonameid":4482348,"name":"North Carolina","admin1":"NC","localeAltName":"North Carolina"},"locations":[{"geonameid":4457089,"name":"Brices Creek","admin3":"93552","localeAltName":null},{"geonameid":4465671,"name":"Fairfield Harbour","admin3":"93308","localeAltName":null},{"geonameid":4470244,"name":"Havelock","admin3":"93508","localeAltName":null},{"geonameid":4473137,"name":"James City","admin3":"93552","localeAltName":null},{"geonameid":4481662,"name":"Neuse Forest","admin3":"93508","localeAltName":null},{"geonameid":4481682,"name":"New Bern","admin3":"93592","localeAltName":null},{"geonameid":4488102,"name":"River Bend","admin3":"93592","localeAltName":null},{"geonameid":4495583,"name":"Trent Woods","admin3":"93592","localeAltName":null},{"geonameid":4496570,"name":"Vanceboro","admin3":"93256","localeAltName":null}],"admin3":[{"geonameid":4495380,"name":"Township 1","admin3":"93256","localeAltName":null},{"geonameid":4495415,"name":"Township 2","admin3":"93308","localeAltName":null},{"geonameid":4495427,"name":"Township 3","admin3":"93360"},{"geonameid":4495452,"name":"Township 5","admin3":"93460"},{"geonameid":4495464,"name":"Township 6","admin3":"93508","localeAltName":null},{"geonameid":4495475,"name":"Township 7","admin3":"93552","localeAltName":null},{"geonameid":4495486,"name":"Township 8","admin3":"93592","localeAltName":null},{"geonameid":4495495,"name":"Township 9","admin3":"93628"}],"alternateNames":[{"alternatenameId":2089560,"geonameid":4482348,"isoLanguage":"en","alternateName":"North Carolina","isPreferredName":true,"isShortName":true,"isColloquial":false,"isHistoric":false}]},"__N_SSG":true}