{"pageProps":{"locale":"en","admin2":{"geonameid":4463078,"name":"Davie County","country":"US","admin1":"NC","admin2":"059","admin3":"","latitude":"35.9291600","longitude":"-80.5444700","localeAltName":null},"admin1":{"geonameid":4482348,"name":"North Carolina","admin1":"NC","localeAltName":"North Carolina"},"locations":[{"geonameid":4452253,"name":"Advance","admin3":"92896","localeAltName":null},{"geonameid":4455042,"name":"Bermuda Run","admin3":"91080","localeAltName":null},{"geonameid":4461771,"name":"Cooleemee","admin3":"91660","localeAltName":null},{"geonameid":4471244,"name":"Hillsdale","admin3":"91080","localeAltName":null},{"geonameid":4479891,"name":"Mocksville","admin3":"92100","localeAltName":null}],"admin3":[{"geonameid":4458588,"name":"Township of Calahaln","admin3":"90472"},{"geonameid":4460909,"name":"Township of Clarksville","admin3":"90668"},{"geonameid":4465980,"name":"Township of Farmington","admin3":"91080","localeAltName":null},{"geonameid":4467475,"name":"Township of Fulton","admin3":"91192"},{"geonameid":4473347,"name":"Township of Jerusalem","admin3":"91660","localeAltName":null},{"geonameid":4479899,"name":"Township of Mocksville","admin3":"92100","localeAltName":null},{"geonameid":4490961,"name":"Township of Shady Grove","admin3":"92896","localeAltName":null}],"alternateNames":[{"alternatenameId":2089560,"geonameid":4482348,"isoLanguage":"en","alternateName":"North Carolina","isPreferredName":true,"isShortName":true,"isColloquial":false,"isHistoric":false}]},"__N_SSG":true}