{"pageProps":{"locale":"en","admin2":{"geonameid":4478884,"name":"Mecklenburg County","country":"US","admin1":"NC","admin2":"119","admin3":"","latitude":"35.2467100","longitude":"-80.8327600","localeAltName":null},"admin1":{"geonameid":4482348,"name":"North Carolina","admin1":"NC","localeAltName":"North Carolina"},"locations":[{"geonameid":4460243,"name":"Charlotte","admin3":"","localeAltName":null},{"geonameid":4461941,"name":"Cornelius","admin3":"","localeAltName":null},{"geonameid":4472370,"name":"Huntersville","admin3":"","localeAltName":null},{"geonameid":4478334,"name":"Matthews","admin3":"","localeAltName":null},{"geonameid":4479759,"name":"Mint Hill","admin3":"","localeAltName":null},{"geonameid":4485305,"name":"Pineville","admin3":"","localeAltName":null}],"admin3":[{"geonameid":11788861,"name":"City of Charlotte","admin3":"11788861"}],"alternateNames":[{"alternatenameId":2089560,"geonameid":4482348,"isoLanguage":"en","alternateName":"North Carolina","isPreferredName":true,"isShortName":true,"isColloquial":false,"isHistoric":false}]},"__N_SSG":true}