{"pageProps":{"locale":"en","admin2":{"geonameid":4943909,"name":"Middlesex County","country":"US","admin1":"MA","admin2":"017","admin3":"","latitude":"42.4855500","longitude":"-71.3918400"},"admin1":{"geonameid":6254926,"name":"Massachusetts","admin1":"MA","localeAltName":"Massachusetts"},"locations":[{"geonameid":4928703,"name":"Acton","admin3":"00380"},{"geonameid":4929180,"name":"Arlington","admin3":"01605"},{"geonameid":4929262,"name":"Ashby","admin3":"01955"},{"geonameid":4929283,"name":"Ashland","admin3":"02130"},{"geonameid":4929501,"name":"Ayer","admin3":"03005"},{"geonameid":4930183,"name":"Bedford","admin3":"04615"},{"geonameid":4930282,"name":"Belmont","admin3":"05070"},{"geonameid":4930577,"name":"Billerica","admin3":"05805"},{"geonameid":4931105,"name":"Boxborough","admin3":"07350"},{"geonameid":4931737,"name":"Burlington","admin3":"09840"},{"geonameid":4931972,"name":"Cambridge","admin3":"11000"},{"geonameid":4932328,"name":"Carlisle","admin3":"11525"},{"geonameid":4932869,"name":"Chelmsford","admin3":"13135"},{"geonameid":4933493,"name":"Cochituate","admin3":"73790"},{"geonameid":4933743,"name":"Concord","admin3":"15060"},{"geonameid":4935038,"name":"Dracut","admin3":"17475"},{"geonameid":4935195,"name":"Dunstable","admin3":"17825"},{"geonameid":4935482,"name":"East Pepperell","admin3":"52805"},{"geonameid":4936008,"name":"Everett","admin3":"21990"},{"geonameid":4937230,"name":"Framingham","admin3":"24925"},{"geonameid":4937232,"name":"Framingham Center","admin3":"24925"},{"geonameid":5281020,"name":"Groton","admin3":"27480"},{"geonameid":4939693,"name":"Holliston","admin3":"30700"},{"geonameid":4939881,"name":"Hopkinton","admin3":"31085"},{"geonameid":4940094,"name":"Hudson","admin3":"31540"},{"geonameid":4941935,"name":"Lexington","admin3":"35215"},{"geonameid":4942021,"name":"Lincoln","admin3":"35425"},{"geonameid":4942301,"name":"Littleton Common","admin3":"35950"},{"geonameid":4942618,"name":"Lowell","admin3":"37000"},{"geonameid":4942939,"name":"Malden","admin3":"37875"},{"geonameid":4943170,"name":"Marlborough","admin3":"38715"},{"geonameid":4943490,"name":"Maynard","admin3":"39625"},{"geonameid":4943629,"name":"Medford","admin3":"39835"},{"geonameid":4943677,"name":"Melrose","admin3":"40115"},{"geonameid":4944994,"name":"Natick","admin3":"43895"},{"geonameid":4945283,"name":"Newton","admin3":"45560"},{"geonameid":4945734,"name":"North Reading","admin3":"48955"},{"geonameid":4946990,"name":"Pepperell","admin3":"52805"},{"geonameid":4947397,"name":"Pinehurst","admin3":"05805"},{"geonameid":4948462,"name":"Reading","admin3":"56130"},{"geonameid":4950790,"name":"Sherborn","admin3":"61380"},{"geonameid":4950848,"name":"Shirley","admin3":"61590"},{"geonameid":4951257,"name":"Somerville","admin3":"62535"},{"geonameid":4952121,"name":"Stoneham","admin3":"67665"},{"geonameid":4952217,"name":"Stow","admin3":"68050"},{"geonameid":4952320,"name":"Sudbury","admin3":"68260"},{"geonameid":4952762,"name":"Tewksbury","admin3":"69415"},{"geonameid":4953221,"name":"Townsend","admin3":"70360"},{"geonameid":4953542,"name":"Tyngsboro","admin3":"71025"},{"geonameid":4954265,"name":"Wakefield","admin3":"72215"},{"geonameid":4954380,"name":"Waltham","admin3":"72600"},{"geonameid":4954611,"name":"Watertown","admin3":"73440"},{"geonameid":4954654,"name":"Wayland","admin3":"73790"},{"geonameid":4954923,"name":"West Concord","admin3":"15060"},{"geonameid":4955219,"name":"Westford","admin3":"76135"},{"geonameid":4955259,"name":"Weston","admin3":"77255"},{"geonameid":4955840,"name":"Wilmington","admin3":"80230"},{"geonameid":4955884,"name":"Winchester","admin3":"80510"},{"geonameid":4956032,"name":"Woburn","admin3":"81035"}],"admin3":[{"geonameid":4832268,"name":"Town of Hudson","admin3":"31540"},{"geonameid":4928718,"name":"Town of Acton","admin3":"00380"},{"geonameid":4929197,"name":"Town of Arlington","admin3":"01605"},{"geonameid":4929272,"name":"Town of Ashby","admin3":"01955"},{"geonameid":4929293,"name":"Town of Ashland","admin3":"02130"},{"geonameid":4929495,"name":"Town of Ayer","admin3":"03005"},{"geonameid":4930193,"name":"Town of Bedford","admin3":"04615"},{"geonameid":4930303,"name":"Town of Belmont","admin3":"05070"},{"geonameid":4930585,"name":"Town of Billerica","admin3":"05805"},{"geonameid":4931107,"name":"Town of Boxborough","admin3":"07350"},{"geonameid":4931750,"name":"Town of Burlington","admin3":"09840"},{"geonameid":4932004,"name":"City of Cambridge","admin3":"11000"},{"geonameid":4932313,"name":"Town of Carlisle","admin3":"11525"},{"geonameid":4932878,"name":"Town of Chelmsford","admin3":"13135"},{"geonameid":4933769,"name":"Town of Concord","admin3":"15060"},{"geonameid":4935041,"name":"Town of Dracut","admin3":"17475"},{"geonameid":4935200,"name":"Town of Dunstable","admin3":"17825"},{"geonameid":4936020,"name":"City of Everett","admin3":"21990"},{"geonameid":4937250,"name":"Town of Framingham","admin3":"24925"},{"geonameid":4938488,"name":"Town of Groton","admin3":"27480"},{"geonameid":4939691,"name":"Town of Holliston","admin3":"30700"},{"geonameid":4939893,"name":"Town of Hopkinton","admin3":"31085"},{"geonameid":4941948,"name":"Town of Lexington","admin3":"35215"},{"geonameid":4942072,"name":"Town of Lincoln","admin3":"35425"},{"geonameid":4942306,"name":"Town of Littleton","admin3":"35950"},{"geonameid":4942659,"name":"City of Lowell","admin3":"37000"},{"geonameid":4942956,"name":"City of Malden","admin3":"37875"},{"geonameid":4943183,"name":"City of Marlborough","admin3":"38715"},{"geonameid":4943498,"name":"Town of Maynard","admin3":"39625"},{"geonameid":4943644,"name":"City of Medford","admin3":"39835"},{"geonameid":4943693,"name":"City of Melrose","admin3":"40115"},{"geonameid":4945006,"name":"Town of Natick","admin3":"43895"},{"geonameid":4945330,"name":"City of Newton","admin3":"45560"},{"geonameid":4945739,"name":"Town of North Reading","admin3":"48955"},{"geonameid":4946995,"name":"Town of Pepperell","admin3":"52805"},{"geonameid":4948469,"name":"Town of Reading","admin3":"56130"},{"geonameid":4950795,"name":"Town of Sherborn","admin3":"61380"},{"geonameid":4950862,"name":"Town of Shirley","admin3":"61590"},{"geonameid":4951267,"name":"City of Somerville","admin3":"62535"},{"geonameid":4952130,"name":"Town of Stoneham","admin3":"67665"},{"geonameid":4952222,"name":"Town of Stow","admin3":"68050"},{"geonameid":4952345,"name":"Town of Sudbury","admin3":"68260"},{"geonameid":4952776,"name":"Town of Tewksbury","admin3":"69415"},{"geonameid":4953234,"name":"Town of Townsend","admin3":"70360"},{"geonameid":4953551,"name":"Town of Tyngsborough","admin3":"71025"},{"geonameid":4954276,"name":"Town of Wakefield","admin3":"72215"},{"geonameid":4954400,"name":"City of Waltham","admin3":"72600"},{"geonameid":4954616,"name":"City of Watertown Town","admin3":"73440"},{"geonameid":4954662,"name":"Town of Wayland","admin3":"73790"},{"geonameid":4955228,"name":"Town of Westford","admin3":"76135"},{"geonameid":4955280,"name":"Town of Weston","admin3":"77255"},{"geonameid":4955852,"name":"Town of Wilmington","admin3":"80230"},{"geonameid":4955901,"name":"Town of Winchester","admin3":"80510"},{"geonameid":4956046,"name":"City of Woburn","admin3":"81035"}],"alternateNames":[{"alternatenameId":6755490,"geonameid":6254926,"isoLanguage":"en","alternateName":"Massachusetts","isPreferredName":true,"isShortName":true,"isColloquial":false,"isHistoric":false}]},"__N_SSG":true}