{"pageProps":{"locale":"en","admin2":{"geonameid":5105640,"name":"Union County","country":"US","admin1":"NJ","admin2":"039","admin3":"","latitude":"40.6598000","longitude":"-74.3085900","localeAltName":null},"admin1":{"geonameid":5101760,"name":"New Jersey","admin1":"NJ","localeAltName":"New Jersey"},"locations":[{"geonameid":5095617,"name":"Berkeley Heights","admin3":"05320","localeAltName":null},{"geonameid":5096655,"name":"Clark","admin3":"15640","localeAltName":null},{"geonameid":5097017,"name":"Cranford","admin3":"15640","localeAltName":null},{"geonameid":5097598,"name":"Elizabeth","admin3":"21000","localeAltName":null},{"geonameid":5097830,"name":"Fanwood","admin3":"22860","localeAltName":null},{"geonameid":5098358,"name":"Garwood","admin3":"25800","localeAltName":null},{"geonameid":5099093,"name":"Hillside","admin3":"31980","localeAltName":null},{"geonameid":5100007,"name":"Kenilworth","admin3":"36690","localeAltName":null},{"geonameid":5100506,"name":"Linden","admin3":"40350","localeAltName":null},{"geonameid":5101601,"name":"Mountainside","admin3":"48510","localeAltName":null},{"geonameid":5101775,"name":"New Providence","admin3":"51810","localeAltName":null},{"geonameid":5102720,"name":"Plainfield","admin3":"59190","localeAltName":null},{"geonameid":5103055,"name":"Rahway","admin3":"61530","localeAltName":null},{"geonameid":5103500,"name":"Roselle","admin3":"64620","localeAltName":null},{"geonameid":5103503,"name":"Roselle Park","admin3":"64650","localeAltName":null},{"geonameid":5104473,"name":"Scotch Plains","admin3":"66060","localeAltName":null},{"geonameid":5104952,"name":"Springfield","admin3":"70020","localeAltName":null},{"geonameid":5105127,"name":"Summit","admin3":"71430","localeAltName":null},{"geonameid":5105608,"name":"Union","admin3":"74480","localeAltName":null},{"geonameid":5106331,"name":"Westfield","admin3":"79040","localeAltName":null},{"geonameid":5106496,"name":"Winfield","admin3":"15640","localeAltName":null}],"admin3":[{"geonameid":5095619,"name":"Township of Berkeley Heights","admin3":"05320","localeAltName":null},{"geonameid":5096660,"name":"Township of Clark","admin3":"13150"},{"geonameid":5097024,"name":"Township of Cranford","admin3":"15640","localeAltName":null},{"geonameid":5097601,"name":"City of Elizabeth","admin3":"21000","localeAltName":null},{"geonameid":5097834,"name":"Borough of Fanwood","admin3":"22860","localeAltName":null},{"geonameid":5098361,"name":"Borough of Garwood","admin3":"25800","localeAltName":null},{"geonameid":5099114,"name":"Township of Hillside","admin3":"31980","localeAltName":null},{"geonameid":5099993,"name":"Borough of Kenilworth","admin3":"36690","localeAltName":null},{"geonameid":5100520,"name":"City of Linden","admin3":"40350","localeAltName":null},{"geonameid":5101605,"name":"Borough of Mountainside","admin3":"48510","localeAltName":null},{"geonameid":5101778,"name":"Borough of New Providence","admin3":"51810","localeAltName":null},{"geonameid":5102726,"name":"City of Plainfield","admin3":"59190","localeAltName":null},{"geonameid":5103071,"name":"City of Rahway","admin3":"61530","localeAltName":null},{"geonameid":5103508,"name":"Borough of Roselle Park","admin3":"64650","localeAltName":null},{"geonameid":5103511,"name":"Borough of Roselle","admin3":"64620","localeAltName":null},{"geonameid":5104484,"name":"Township of Scotch Plains","admin3":"66060","localeAltName":null},{"geonameid":5104956,"name":"Township of Springfield","admin3":"70020","localeAltName":null},{"geonameid":5105135,"name":"City of Summit","admin3":"71430","localeAltName":null},{"geonameid":5105661,"name":"Township of Union","admin3":"74480","localeAltName":null},{"geonameid":5106334,"name":"Town of Westfield","admin3":"79040","localeAltName":null},{"geonameid":5106499,"name":"Township of Winfield","admin3":"81650"}],"alternateNames":[{"alternatenameId":2089555,"geonameid":5101760,"isoLanguage":"en","alternateName":"New Jersey","isPreferredName":true,"isShortName":true,"isColloquial":false,"isHistoric":false}]},"__N_SSG":true}