{"pageProps":{"locale":"en","admin2":{"geonameid":2633560,"name":"Worcestershire","country":"GB","admin1":"ENG","admin2":"Q4","admin3":"","latitude":"52.1666700","longitude":"-2.1666700"},"admin1":{"geonameid":6269131,"name":"England","admin1":"ENG"},"locations":[{"geonameid":2657776,"name":"Ab Lench"},{"geonameid":2657881,"name":"Abberley"},{"geonameid":2657879,"name":"Abberton"},{"geonameid":2657395,"name":"Alvechurch"},{"geonameid":2656916,"name":"Ashton under Hill"},{"geonameid":2656878,"name":"Astley"},{"geonameid":2656855,"name":"Astwood Bank"},{"geonameid":2656642,"name":"Badsey"},{"geonameid":2656277,"name":"Barnt Green"},{"geonameid":2656128,"name":"Bayton"},{"geonameid":2656060,"name":"Beckford"},{"geonameid":2655992,"name":"Belbroughton"},{"geonameid":2655902,"name":"Bengeworth"},{"geonameid":2655883,"name":"Bentley"},{"geonameid":2655871,"name":"Beoley"},{"geonameid":2655840,"name":"Berrington"},{"geonameid":2655814,"name":"Besford"},{"geonameid":2655781,"name":"Bewdley"},{"geonameid":2655604,"name":"Birlingham"},{"geonameid":2655584,"name":"Bishampton"},{"geonameid":10104151,"name":"Blakebrook"},{"geonameid":12167210,"name":"Blakedown"},{"geonameid":2655291,"name":"Bockleton"},{"geonameid":2655191,"name":"Bordesley"},{"geonameid":2654986,"name":"Bradley"},{"geonameid":2654884,"name":"Bransford"},{"geonameid":2654807,"name":"Bredon"},{"geonameid":7302380,"name":"Bredons Hardwick"},{"geonameid":11592635,"name":"Bretforton"},{"geonameid":2654631,"name":"Broadwas"},{"geonameid":2654628,"name":"Broadway"},{"geonameid":2654579,"name":"Bromsgrove"},{"geonameid":2654556,"name":"Broome"},{"geonameid":2654176,"name":"Bushley"},{"geonameid":8063564,"name":"Callow Hill"},{"geonameid":2653565,"name":"Castlemorton"},{"geonameid":10104149,"name":"Catchems End"},{"geonameid":2653413,"name":"Chaddesley Corbett"},{"geonameid":2653326,"name":"Charlton"},{"geonameid":2653170,"name":"Childswickham"},{"geonameid":2653029,"name":"Church Lench"},{"geonameid":2653032,"name":"Churchill"},{"geonameid":2652964,"name":"Claines"},{"geonameid":2652884,"name":"Cleeve Prior"},{"geonameid":2652875,"name":"Clent"},{"geonameid":2652829,"name":"Clifton upon Teme"},{"geonameid":2652644,"name":"Cofton Hackett"},{"geonameid":9409252,"name":"Cotheridge"},{"geonameid":2652200,"name":"Cow Honeybourne"},{"geonameid":2652175,"name":"Crabbs Cross"},{"geonameid":11592777,"name":"Cropthorne"},{"geonameid":2651858,"name":"Crossway Green"},{"geonameid":2651842,"name":"Crowle"},{"geonameid":11549511,"name":"Cutnall Green"},{"geonameid":2651408,"name":"Defford"},{"geonameid":10244193,"name":"Dines Green"},{"geonameid":2651184,"name":"Doddenham"},{"geonameid":2651046,"name":"Doverdale"},{"geonameid":2651007,"name":"Draycott"},{"geonameid":2650983,"name":"Droitwich"},{"geonameid":8224203,"name":"Droitwich Spa"},{"geonameid":2650547,"name":"Earls Croome"},{"geonameid":2650265,"name":"Eckington"},{"geonameid":2650129,"name":"Eldersfield"},{"geonameid":2650080,"name":"Elmbridge"},{"geonameid":11593176,"name":"Elmley Castle"},{"geonameid":2650073,"name":"Elmley Lovett"},{"geonameid":2649833,"name":"Evesham"},{"geonameid":11593186,"name":"Fairfield"},{"geonameid":8063563,"name":"Far Forest"},{"geonameid":2649591,"name":"Feckenham"},{"geonameid":2649528,"name":"Fernhill Heath"},{"geonameid":2649345,"name":"Fladbury"},{"geonameid":11592598,"name":"Flyford Flavell"},{"geonameid":2649098,"name":"Frankley"},{"geonameid":2648240,"name":"Grafton Flyford"},{"geonameid":2648132,"name":"Great Comberton"},{"geonameid":2648121,"name":"Great Dodford"},{"geonameid":2648063,"name":"Great Malvern"},{"geonameid":2647989,"name":"Great Witley"},{"geonameid":2647885,"name":"Grimley"},{"geonameid":2647662,"name":"Hagley"},{"geonameid":2647612,"name":"Hallow"},{"geonameid":2647538,"name":"Hanbury"},{"geonameid":2647524,"name":"Hanley Castle"},{"geonameid":2647523,"name":"Hanley Child"},{"geonameid":9199785,"name":"Hanley Swan"},{"geonameid":2647401,"name":"Hartlebury"},{"geonameid":2647386,"name":"Harvington"},{"geonameid":2647238,"name":"Headless Cross"},{"geonameid":10244191,"name":"Henwick"},{"geonameid":2646869,"name":"Himbleton"},{"geonameid":2646861,"name":"Hindlip"},{"geonameid":2646843,"name":"Hinton on the Green"},{"geonameid":2646783,"name":"Holberrow Green"},{"geonameid":8081308,"name":"Hollybush"},{"geonameid":2646702,"name":"Holt"},{"geonameid":2653035,"name":"Honeybourne"},{"geonameid":2646616,"name":"Hopwood"},{"geonameid":2646190,"name":"Inkberrow"},{"geonameid":7281605,"name":"Kemerton"},{"geonameid":2645833,"name":"Kempsey"},{"geonameid":2645724,"name":"Kidderminster"},{"geonameid":2645411,"name":"Kington"},{"geonameid":8581476,"name":"Kinnersley"},{"geonameid":9613167,"name":"Kinsham"},{"geonameid":2645081,"name":"Kyre Magna"},{"geonameid":2644661,"name":"Leigh"},{"geonameid":2644530,"name":"Lickey End"},{"geonameid":2644475,"name":"Lindridge"},{"geonameid":2644347,"name":"Little Comberton"},{"geonameid":2644338,"name":"Little Dodford"},{"geonameid":2644293,"name":"Little Malvern"},{"geonameid":2644218,"name":"Little Witley"},{"geonameid":9884138,"name":"Littleworth"},{"geonameid":2643686,"name":"Long Green"},{"geonameid":2643700,"name":"Longdon"},{"geonameid":2643671,"name":"Longley Green"},{"geonameid":9166738,"name":"Lower Broadheath"},{"geonameid":2643229,"name":"Madresfield"},{"geonameid":7290434,"name":"Malvern"},{"geonameid":2643140,"name":"Malvern Link"},{"geonameid":2643139,"name":"Malvern Wells"},{"geonameid":2643137,"name":"Mamble"},{"geonameid":2642952,"name":"Martin Hussingtree"},{"geonameid":2642949,"name":"Martley"},{"geonameid":2641603,"name":"Newnham"},{"geonameid":9884139,"name":"Northwick"},{"geonameid":9884137,"name":"Norton"},{"geonameid":2641071,"name":"Offenham"},{"geonameid":2640966,"name":"Ombersley"},{"geonameid":2640775,"name":"Overbury"},{"geonameid":2640531,"name":"Pebworth"},{"geonameid":2640412,"name":"Pensax"},{"geonameid":2640376,"name":"Peopleton"},{"geonameid":2640360,"name":"Pershore"},{"geonameid":2640266,"name":"Pirton"},{"geonameid":2639947,"name":"Powick"},{"geonameid":9884136,"name":"Red Hill"},{"geonameid":2639557,"name":"Redditch"},{"geonameid":2639400,"name":"Ribbesford"},{"geonameid":2639321,"name":"Ripple"},{"geonameid":2639264,"name":"Rock"},{"geonameid":2639187,"name":"Romsley"},{"geonameid":2639053,"name":"Rous Lench"},{"geonameid":2638943,"name":"Rushock"},{"geonameid":2638261,"name":"Sedgeberrow"},{"geonameid":2638180,"name":"Severn Stoke"},{"geonameid":2638058,"name":"Shelsley Beauchamp"},{"geonameid":2637893,"name":"Shrawley"},{"geonameid":2637382,"name":"South Littleton"},{"geonameid":2637233,"name":"Spetchley"},{"geonameid":2637084,"name":"Stanford on Teme"},{"geonameid":2636875,"name":"Stockton on Teme"},{"geonameid":2636865,"name":"Stoke Bliss"},{"geonameid":2636837,"name":"Stoke Prior"},{"geonameid":2636823,"name":"Stone"},{"geonameid":2636767,"name":"Stourport-on-Severn"},{"geonameid":2636666,"name":"Strensham"},{"geonameid":2636570,"name":"Suckley"},{"geonameid":10104150,"name":"Summerhill"},{"geonameid":2636229,"name":"Tardebigge"},{"geonameid":2636105,"name":"Tenbury Wells"},{"geonameid":2635915,"name":"Throckmorton"},{"geonameid":2635624,"name":"Torton"},{"geonameid":2635148,"name":"Upper Arley"},{"geonameid":9166739,"name":"Upper Broadheath"},{"geonameid":2635081,"name":"Upton Snodsbury"},{"geonameid":2635080,"name":"Upton upon Severn"},{"geonameid":2635079,"name":"Upton Warren"},{"geonameid":2634956,"name":"Vigo"},{"geonameid":2634926,"name":"Wadborough"},{"geonameid":11551121,"name":"Warndon"},{"geonameid":2634586,"name":"Welland"},{"geonameid":2637112,"name":"West Hagley"},{"geonameid":9613160,"name":"Westmancote"},{"geonameid":9884135,"name":"Whittington"},{"geonameid":2633983,"name":"Wick"},{"geonameid":8224212,"name":"Wickhamford"},{"geonameid":2633690,"name":"Wolverley"},{"geonameid":2633563,"name":"Worcester"},{"geonameid":10104148,"name":"Wribbenhall"},{"geonameid":6620429,"name":"Wychbold"},{"geonameid":7670888,"name":"Wythall"}],"admin3":[{"geonameid":2633437,"name":"Wyre Forest District","admin3":"47UG"},{"geonameid":7290654,"name":"Bromsgrove District","admin3":"47UB"},{"geonameid":7290655,"name":"Malvern Hills District","admin3":"47UC"},{"geonameid":7290656,"name":"Redditch District","admin3":"47UD"},{"geonameid":7290657,"name":"Worcester District","admin3":"47UE"},{"geonameid":7290658,"name":"Wychavon District","admin3":"47UF"}],"alternateNames":[]},"__N_SSG":true}