{"pageProps":{"locale":"en","admin2":{"geonameid":4905697,"name":"Peoria County","country":"US","admin1":"IL","admin2":"143","admin3":"","latitude":"40.7880800","longitude":"-89.7599900","localeAltName":null},"admin1":{"geonameid":4896861,"name":"Illinois","admin1":"IL","localeAltName":"Illinois"},"locations":[{"geonameid":4884161,"name":"Bartonville","admin3":"43523","localeAltName":null},{"geonameid":4884416,"name":"Bellevue","admin3":"43523","localeAltName":null},{"geonameid":4885603,"name":"Brimfield","admin3":"08316","localeAltName":null},{"geonameid":4887574,"name":"Chillicothe","admin3":"14130","localeAltName":null},{"geonameid":4890304,"name":"Dunlap","admin3":"62510","localeAltName":null},{"geonameid":4891030,"name":"Elmwood","admin3":"23711","localeAltName":null},{"geonameid":4893801,"name":"Glasford","admin3":"75289","localeAltName":null},{"geonameid":4895050,"name":"Hanna City","admin3":"44342","localeAltName":null},{"geonameid":8480036,"name":"Lake Camelot","admin3":"43523","localeAltName":null},{"geonameid":4903976,"name":"North Peoria","admin3":"59013","localeAltName":null},{"geonameid":4905687,"name":"Peoria","admin3":"59013","localeAltName":null},{"geonameid":4905704,"name":"Peoria Heights","admin3":"63771","localeAltName":null},{"geonameid":4906824,"name":"Princeville","admin3":"61938","localeAltName":null},{"geonameid":4908066,"name":"Rome","admin3":"14130","localeAltName":null},{"geonameid":4916055,"name":"West Peoria","admin3":"80749","localeAltName":null}],"admin3":[{"geonameid":4883007,"name":"Township of Akron","admin3":"00477"},{"geonameid":4885611,"name":"Township of Brimfield","admin3":"08316","localeAltName":null},{"geonameid":4887585,"name":"Township of Chillicothe","admin3":"14130","localeAltName":null},{"geonameid":4891061,"name":"Township of Elmwood","admin3":"23711","localeAltName":null},{"geonameid":4894983,"name":"Township of Hallock","admin3":"32304"},{"geonameid":4896143,"name":"Township of Hollis","admin3":"35645"},{"geonameid":4898115,"name":"Township of Jubilee","admin3":"38765"},{"geonameid":4898462,"name":"Township of Kickapoo","admin3":"39818"},{"geonameid":4899818,"name":"Township of Limestone","admin3":"43523","localeAltName":null},{"geonameid":4900364,"name":"Township of Logan","admin3":"44342","localeAltName":null},{"geonameid":4901838,"name":"Township of Medina","admin3":"48099"},{"geonameid":4902274,"name":"Township of Millbrook","admin3":"49113"},{"geonameid":4905693,"name":"Township of Peoria City","admin3":"59013","localeAltName":null},{"geonameid":4906831,"name":"Township of Princeville","admin3":"61938","localeAltName":null},{"geonameid":4907050,"name":"Township of Radnor","admin3":"62510","localeAltName":null},{"geonameid":4907519,"name":"Township of Richwoods","admin3":"63771","localeAltName":null},{"geonameid":4908158,"name":"Township of Rosefield","admin3":"65715"},{"geonameid":4913693,"name":"Township of Timber","admin3":"75289","localeAltName":null},{"geonameid":4914072,"name":"Township of Trivoli","admin3":"76121"},{"geonameid":4916056,"name":"Township of West Peoria","admin3":"80749","localeAltName":null}],"alternateNames":[{"alternatenameId":2089562,"geonameid":4896861,"isoLanguage":"en","alternateName":"Illinois","isPreferredName":true,"isShortName":true,"isColloquial":false,"isHistoric":false}]},"__N_SSG":true}