{"pageProps":{"locale":"en","admin2":{"geonameid":6084939,"name":"District Municipality of Muskoka","country":"CA","admin1":"08","admin2":"3544","admin3":"","latitude":"45.1668100","longitude":"-79.4996400"},"admin1":{"geonameid":6093943,"name":"Ontario","admin1":"08"},"locations":[{"geonameid":8125783,"name":"Bala","admin3":"3544053"},{"geonameid":5891958,"name":"Bala Park","admin3":"3544053"},{"geonameid":5892923,"name":"Bardsville","admin3":"3544053"},{"geonameid":5893112,"name":"Barlochan","admin3":"3544053"},{"geonameid":5895449,"name":"Baysville","admin3":"3544027"},{"geonameid":5895480,"name":"Bayview Park","admin3":"3544065"},{"geonameid":5895795,"name":"Bear Cave","admin3":"3544053"},{"geonameid":5896354,"name":"Beatrice","admin3":"3544053"},{"geonameid":5896513,"name":"Beaumaris","admin3":"3544053"},{"geonameid":5898622,"name":"Bent River","admin3":"3544053"},{"geonameid":5899731,"name":"Big Chute","admin3":"3544065"},{"geonameid":5901044,"name":"Bigwin","admin3":"3544027"},{"geonameid":5901846,"name":"Birkendale","admin3":"3544027"},{"geonameid":5907092,"name":"Bracebridge","admin3":""},{"geonameid":5907113,"name":"Brackenrig","admin3":"3544053"},{"geonameid":5909023,"name":"Britannia","admin3":"3544027"},{"geonameid":5909560,"name":"Brooks Mill","admin3":"3544027"},{"geonameid":5909963,"name":"Browns Brae","admin3":"3544027"},{"geonameid":5918885,"name":"Cedar Nook","admin3":"3544065"},{"geonameid":5918927,"name":"Cedar Village","admin3":"3544053"},{"geonameid":5924913,"name":"Cognashene","admin3":"3544065"},{"geonameid":5932812,"name":"Crooked Bay","admin3":"3544065"},{"geonameid":5936846,"name":"Dee Bank","admin3":"3544053"},{"geonameid":5941902,"name":"Dorset","admin3":"3544027"},{"geonameid":5943506,"name":"Dudley","admin3":"3544053"},{"geonameid":5944541,"name":"Dwight","admin3":"3544027"},{"geonameid":5946395,"name":"Echo Beach","admin3":"3544053"},{"geonameid":5952357,"name":"Ferndale","admin3":"3544053"},{"geonameid":5955352,"name":"Foot's Bay","admin3":"3544053"},{"geonameid":5957102,"name":"Fox Point","admin3":"3544027"},{"geonameid":5957275,"name":"Franceville","admin3":"3544065"},{"geonameid":5962058,"name":"Glen Orchard","admin3":"3544053"},{"geonameid":5962023,"name":"Glenmount","admin3":"3544027"},{"geonameid":5962534,"name":"Go Home","admin3":"3544065"},{"geonameid":5964714,"name":"Grandview","admin3":"3544027"},{"geonameid":5965139,"name":"Grassmere","admin3":"3544027"},{"geonameid":5966764,"name":"Gregory","admin3":"3544053"},{"geonameid":5967529,"name":"Grove Park","admin3":"3544027"},{"geonameid":5968174,"name":"Gull Rock","admin3":"3544053"},{"geonameid":5973458,"name":"Hekkla","admin3":"3544053"},{"geonameid":5975326,"name":"Hillside","admin3":"3544027"},{"geonameid":5976512,"name":"Honey Harbour","admin3":"3544065"},{"geonameid":5983638,"name":"Inverness Lodge","admin3":"3544053"},{"geonameid":5988151,"name":"Juddhaven","admin3":"3544053"},{"geonameid":6054090,"name":"Limberlost Lodge","admin3":"3544027"},{"geonameid":6062923,"name":"Maceys Bay","admin3":"3544065"},{"geonameid":6063848,"name":"MacTier","admin3":"3544065"},{"geonameid":6065682,"name":"Maple Ridge","admin3":"3544027"},{"geonameid":6073726,"name":"Millar Hill","admin3":"3544027"},{"geonameid":6074634,"name":"Minett","admin3":"3544053"},{"geonameid":6077652,"name":"Moon River","admin3":"3544065"},{"geonameid":6078633,"name":"Morinus","admin3":"3544053"},{"geonameid":6078997,"name":"Mortimers Point","admin3":"3544053"},{"geonameid":6088629,"name":"Nith Grove","admin3":"3544027"},{"geonameid":6090464,"name":"North Portage","admin3":"3544027"},{"geonameid":6091177,"name":"Norway Point","admin3":"3544027"},{"geonameid":8593694,"name":"Port Carling","admin3":"3544053"},{"geonameid":6111711,"name":"Port Cunnington","admin3":"3544027"},{"geonameid":6112016,"name":"Port Sandfield","admin3":"3544053"},{"geonameid":6112371,"name":"Potters Landing","admin3":"3544065"},{"geonameid":6117674,"name":"Raymond","admin3":"3544053"},{"geonameid":6118814,"name":"Redwood","admin3":"3544053"},{"geonameid":6127825,"name":"Rossclair","admin3":"3544053"},{"geonameid":6127862,"name":"Rosseau Falls","admin3":"3544053"},{"geonameid":6128014,"name":"Rostrevor","admin3":"3544053"},{"geonameid":6142887,"name":"Sea Breeze","admin3":"3544027"},{"geonameid":6145182,"name":"Shannon Hall","admin3":"3544053"},{"geonameid":6151567,"name":"South Bay","admin3":"3544065"},{"geonameid":6152520,"name":"South Portage","admin3":"3544027"},{"geonameid":6159672,"name":"Sunset Beach","admin3":"3544053"},{"geonameid":6160619,"name":"Swift Rapids","admin3":"3544053"},{"geonameid":6165612,"name":"Thorel House","admin3":"3544053"},{"geonameid":6167400,"name":"Tomelin Bluffs","admin3":"3544053"},{"geonameid":6167890,"name":"Torrance","admin3":"3544053"},{"geonameid":6171653,"name":"Ufford","admin3":"3544053"},{"geonameid":6171756,"name":"Ullswater","admin3":"3544053"},{"geonameid":6173174,"name":"Valley Green Beach","admin3":"3544053"},{"geonameid":6175011,"name":"Wahawin","admin3":"3544027"},{"geonameid":6175352,"name":"Walkers Point","admin3":"3544053"},{"geonameid":6181083,"name":"Whiteside","admin3":"3544053"},{"geonameid":6182380,"name":"Willow Beach","admin3":"3544053"},{"geonameid":6182850,"name":"Windermere","admin3":"3544053"},{"geonameid":6183900,"name":"Wolverine Beach","admin3":"3544065"},{"geonameid":6184190,"name":"Wood Landing","admin3":"3544065"},{"geonameid":6184132,"name":"Woodington","admin3":"3544053"},{"geonameid":6186141,"name":"Ziska","admin3":"3544053"}],"admin3":[{"geonameid":5960553,"name":"Georgian Bay","admin3":"3544065"},{"geonameid":6048553,"name":"Lake of Bays","admin3":"3544027"},{"geonameid":6084946,"name":"Muskoka Lakes","admin3":"3544053"}],"alternateNames":[]},"__N_SSG":true}