{"pageProps":{"locale":"en","admin2":{"geonameid":6101545,"name":"Perth County","country":"CA","admin1":"08","admin2":"3531","admin3":"","latitude":"43.5000900","longitude":"-81.0830300"},"admin1":{"geonameid":6093943,"name":"Ontario","admin1":"08"},"locations":[{"geonameid":5884637,"name":"Amulree","admin3":"3531030"},{"geonameid":5884820,"name":"Anderson","admin3":"3531013"},{"geonameid":5888553,"name":"Avonbank","admin3":"3531013"},{"geonameid":5888579,"name":"Avonton","admin3":"3531013"},{"geonameid":5903702,"name":"Blanshard","admin3":"3531013"},{"geonameid":5905963,"name":"Bornholm","admin3":"3531025"},{"geonameid":5907953,"name":"Brandy Point","admin3":"3531025"},{"geonameid":5909286,"name":"Brocksden","admin3":"3531030"},{"geonameid":5909317,"name":"Brodhagen","admin3":"3531025"},{"geonameid":5910262,"name":"Brunner","admin3":"3531030"},{"geonameid":5911694,"name":"Burns","admin3":"3531030"},{"geonameid":5917182,"name":"Carlingford","admin3":"3531025"},{"geonameid":5917336,"name":"Carmunnock","admin3":"3531025"},{"geonameid":5917762,"name":"Carthage","admin3":"3531030"},{"geonameid":5926930,"name":"Conroy","admin3":"3531013"},{"geonameid":5932774,"name":"Cromarty","admin3":"3531025"},{"geonameid":5942331,"name":"Downie","admin3":"3531013"},{"geonameid":5951033,"name":"Fairview","admin3":"3531013"},{"geonameid":5952344,"name":"Fernbank","admin3":"3531030"},{"geonameid":5954202,"name":"Flannigan Corners","admin3":"3531030"},{"geonameid":5958682,"name":"Fullarton","admin3":"3531025"},{"geonameid":5958912,"name":"Gads Hill","admin3":"3531030"},{"geonameid":5970015,"name":"Hampstead","admin3":"3531030"},{"geonameid":5971069,"name":"Harmony","admin3":"3531030"},{"geonameid":5974430,"name":"Hesson","admin3":"3531030"},{"geonameid":5990990,"name":"Kennicott","admin3":"3531025"},{"geonameid":5992564,"name":"Kinkora","admin3":"3531030"},{"geonameid":5992864,"name":"Kirkton","admin3":"3531013"},{"geonameid":5994343,"name":"Kuhryville","admin3":"3531030"},{"geonameid":6058386,"name":"Logan","admin3":"3531025"},{"geonameid":6072107,"name":"Mennonite Corner","admin3":"3531030"},{"geonameid":6072537,"name":"Metropolitan","admin3":"3531013"},{"geonameid":6073734,"name":"Millbank","admin3":"3531030"},{"geonameid":6074404,"name":"Milverton","admin3":"3531030"},{"geonameid":6075562,"name":"Mitchell","admin3":"3531025"},{"geonameid":6076345,"name":"Monkton","admin3":""},{"geonameid":6079069,"name":"Moserville","admin3":"3531030"},{"geonameid":6079377,"name":"Motherwell","admin3":"3531025"},{"geonameid":6082316,"name":"Mount Pleasant","admin3":"3531025"},{"geonameid":6084249,"name":"Munro","admin3":"3531025"},{"geonameid":6087786,"name":"Newton","admin3":"3531030"},{"geonameid":6088628,"name":"Nithburg","admin3":"3531030"},{"geonameid":6100536,"name":"Peffers","admin3":"3531030"},{"geonameid":6110806,"name":"Poole","admin3":"3531030"},{"geonameid":6113695,"name":"Prospect Hill","admin3":"3531013"},{"geonameid":6116577,"name":"Rannoch","admin3":"3531013"},{"geonameid":6117508,"name":"Ratzburg","admin3":"3531030"},{"geonameid":6128011,"name":"Rostock","admin3":"3531030"},{"geonameid":6136567,"name":"Russeldale","admin3":"3531025"},{"geonameid":6142341,"name":"Science Hill","admin3":"3531013"},{"geonameid":6143347,"name":"Sebastopol","admin3":"3531030"},{"geonameid":6143361,"name":"Sebringville","admin3":"3531013"},{"geonameid":6151933,"name":"South Easthope","admin3":"3531030"},{"geonameid":6157817,"name":"St. Pauls Station","admin3":"3531013"},{"geonameid":6154899,"name":"Staffa","admin3":"3531025"},{"geonameid":6167785,"name":"Topping","admin3":"3531030"},{"geonameid":6176382,"name":"Wartburg","admin3":"3531030"},{"geonameid":6182434,"name":"Willow Grove","admin3":"3531025"}],"admin3":[{"geonameid":6101548,"name":"Perth East","admin3":"3531030"},{"geonameid":6101554,"name":"Perth South","admin3":"3531013"},{"geonameid":6179302,"name":"West Perth","admin3":"3531025"}],"alternateNames":[]},"__N_SSG":true}