{"pageProps":{"locale":"en","admin2":{"geonameid":5124928,"name":"Livingston County","country":"US","admin1":"NY","admin2":"051","admin3":"","latitude":"42.7280800","longitude":"-77.7754900"},"admin1":{"geonameid":5128638,"name":"New York","admin1":"NY","localeAltName":"New York"},"locations":[{"geonameid":5107571,"name":"Avon","admin3":"03364"},{"geonameid":5111073,"name":"Caledonia","admin3":"11715"},{"geonameid":5114492,"name":"Dansville","admin3":"51869"},{"geonameid":5118394,"name":"Geneseo","admin3":"28629"},{"geonameid":5124411,"name":"Lima","admin3":"42334"},{"geonameid":5124936,"name":"Livonia","admin3":"42961"},{"geonameid":5127766,"name":"Mount Morris","admin3":"48956"},{"geonameid":5129425,"name":"Nunda","admin3":"54089"}],"admin3":[{"geonameid":5107574,"name":"Town of Avon","admin3":"03364"},{"geonameid":5111071,"name":"Town of Caledonia","admin3":"11715"},{"geonameid":5113474,"name":"Town of Conesus","admin3":"17618"},{"geonameid":5118396,"name":"Town of Geneseo","admin3":"28629"},{"geonameid":5119541,"name":"Town of Groveland","admin3":"31016"},{"geonameid":5124211,"name":"Town of Leicester","admin3":"41883"},{"geonameid":5124412,"name":"Town of Lima","admin3":"42334"},{"geonameid":5124941,"name":"Town of Livonia","admin3":"42961"},{"geonameid":5127771,"name":"Town of Mount Morris","admin3":"48956"},{"geonameid":5129020,"name":"Town of North Dansville","admin3":"51869"},{"geonameid":5129428,"name":"Town of Nunda","admin3":"54089"},{"geonameid":5130044,"name":"Town of Ossian","admin3":"55508"},{"geonameid":5132036,"name":"Town of Portage","admin3":"59179"},{"geonameid":5139109,"name":"Town of Sparta","admin3":"70101"},{"geonameid":5139305,"name":"Town of Springwater","admin3":"70475"},{"geonameid":5144008,"name":"Town of West Sparta","admin3":"81006"},{"geonameid":5145261,"name":"Town of York","admin3":"84022"}],"alternateNames":[{"alternatenameId":1980362,"geonameid":5128638,"isoLanguage":"en","alternateName":"New York","isPreferredName":true,"isShortName":true,"isColloquial":false,"isHistoric":false}]},"__N_SSG":true}