{"pageProps":{"locale":"en","admin2":{"geonameid":5128316,"name":"Nassau County","country":"US","admin1":"NY","admin2":"059","admin3":"","latitude":"40.7321700","longitude":"-73.5854500"},"admin1":{"geonameid":5128638,"name":"New York","admin1":"NY","localeAltName":"New York"},"locations":[{"geonameid":5106857,"name":"Albertson","admin3":"53000"},{"geonameid":5107481,"name":"Atlantic Beach","admin3":"34000"},{"geonameid":5107760,"name":"Baldwin","admin3":"34000"},{"geonameid":5107771,"name":"Baldwin Harbor","admin3":"34000"},{"geonameid":5108000,"name":"Barnum Island","admin3":"34000"},{"geonameid":5108174,"name":"Baxter Estates","admin3":"53000"},{"geonameid":5108155,"name":"Bay Park","admin3":"34000"},{"geonameid":5108202,"name":"Bayville","admin3":"56000"},{"geonameid":5108692,"name":"Bellerose","admin3":"34000"},{"geonameid":5108693,"name":"Bellerose Terrace","admin3":"34000"},{"geonameid":5108707,"name":"Bellmore","admin3":"34000"},{"geonameid":5108955,"name":"Bethpage","admin3":"56000"},{"geonameid":5110358,"name":"Brookville","admin3":"56000"},{"geonameid":5111533,"name":"Carle Place","admin3":"53000"},{"geonameid":5111974,"name":"Cedarhurst","admin3":"34000"},{"geonameid":5115703,"name":"East Atlantic Beach","admin3":"53000"},{"geonameid":5115854,"name":"East Garden City","admin3":"34000"},{"geonameid":5115904,"name":"East Hills","admin3":"53000"},{"geonameid":5115962,"name":"East Massapequa","admin3":"56000"},{"geonameid":5115960,"name":"East Meadow","admin3":"34000"},{"geonameid":5115990,"name":"East Norwich","admin3":"56000"},{"geonameid":5116049,"name":"East Rockaway","admin3":"34000"},{"geonameid":5116107,"name":"East Williston","admin3":"53000"},{"geonameid":5116508,"name":"Elmont","admin3":"34000"},{"geonameid":5116931,"name":"Farmingdale","admin3":"56000"},{"geonameid":5117438,"name":"Floral Park","admin3":"34000"},{"geonameid":5117458,"name":"Flower Hill","admin3":"53000"},{"geonameid":5117891,"name":"Franklin Square","admin3":"34000"},{"geonameid":5117949,"name":"Freeport","admin3":"34000"},{"geonameid":5118226,"name":"Garden City","admin3":"34000"},{"geonameid":5118228,"name":"Garden City Park","admin3":"53000"},{"geonameid":5118229,"name":"Garden City South","admin3":"34000"},{"geonameid":5118626,"name":"Glen Cove","admin3":"29113"},{"geonameid":5118642,"name":"Glen Head","admin3":"56000"},{"geonameid":5118729,"name":"Glenwood Landing","admin3":"56000"},{"geonameid":5119218,"name":"Great Neck","admin3":"53000"},{"geonameid":5119235,"name":"Great Neck Estates","admin3":"53000"},{"geonameid":5119223,"name":"Great Neck Gardens","admin3":"53000"},{"geonameid":5119226,"name":"Great Neck Plaza","admin3":"53000"},{"geonameid":5119398,"name":"Greenvale","admin3":"53000"},{"geonameid":5119981,"name":"Harbor Isle","admin3":"34000"},{"geonameid":5120478,"name":"Hempstead","admin3":"34000"},{"geonameid":5120595,"name":"Herricks","admin3":"53000"},{"geonameid":5120598,"name":"Hewlett","admin3":"34000"},{"geonameid":5120601,"name":"Hewlett Harbor","admin3":"34000"},{"geonameid":5120656,"name":"Hicksville","admin3":"56000"},{"geonameid":5122279,"name":"Inwood","admin3":"34000"},{"geonameid":5122397,"name":"Island Park","admin3":"34000"},{"geonameid":5122638,"name":"Jericho","admin3":"56000"},{"geonameid":5123281,"name":"Kensington","admin3":"53000"},{"geonameid":5123459,"name":"Kings Point","admin3":"53000"},{"geonameid":5123853,"name":"Lake Success","admin3":"53000"},{"geonameid":5123908,"name":"Lakeview","admin3":"34000"},{"geonameid":5124049,"name":"Lattingtown","admin3":"56000"},{"geonameid":5124069,"name":"Laurel Hollow","admin3":"56000"},{"geonameid":5124087,"name":"Lawrence","admin3":"34000"},{"geonameid":5124276,"name":"Levittown","admin3":"34000"},{"geonameid":5124352,"name":"Lido Beach","admin3":"34000"},{"geonameid":5125041,"name":"Locust Valley","admin3":"56000"},{"geonameid":5125086,"name":"Long Beach","admin3":"43335"},{"geonameid":5125523,"name":"Lynbrook","admin3":"34000"},{"geonameid":5125734,"name":"Malverne","admin3":"34000"},{"geonameid":5125766,"name":"Manhasset","admin3":"53000"},{"geonameid":5125768,"name":"Manhasset Hills","admin3":"53000"},{"geonameid":5125813,"name":"Manorhaven","admin3":"53000"},{"geonameid":5126183,"name":"Massapequa","admin3":"56000"},{"geonameid":5126187,"name":"Massapequa Park","admin3":"56000"},{"geonameid":5126630,"name":"Merrick","admin3":"34000"},{"geonameid":5126968,"name":"Mill Neck","admin3":"56000"},{"geonameid":5127134,"name":"Mineola","admin3":"53000"},{"geonameid":5128156,"name":"Munsey Park","admin3":"53000"},{"geonameid":5128241,"name":"Muttontown","admin3":"56000"},{"geonameid":5128478,"name":"New Cassel","admin3":"53000"},{"geonameid":5128514,"name":"New Hyde Park","admin3":"53000"},{"geonameid":5128904,"name":"North Bellmore","admin3":"34000"},{"geonameid":5129093,"name":"North Hills","admin3":"53000"},{"geonameid":5129134,"name":"North Massapequa","admin3":"56000"},{"geonameid":5129141,"name":"North Merrick","admin3":"34000"},{"geonameid":5129147,"name":"North New Hyde Park","admin3":"53000"},{"geonameid":5129248,"name":"North Valley Stream","admin3":"34000"},{"geonameid":5129254,"name":"North Wantagh","admin3":"34000"},{"geonameid":5129603,"name":"Oceanside","admin3":"34000"},{"geonameid":5129662,"name":"Old Bethpage","admin3":"56000"},{"geonameid":5129665,"name":"Old Brookville","admin3":"56000"},{"geonameid":5129770,"name":"Old Westbury","admin3":"53000"},{"geonameid":5130327,"name":"Oyster Bay","admin3":"56000"},{"geonameid":5130328,"name":"Oyster Bay Cove","admin3":"56000"},{"geonameid":5131628,"name":"Plainedge","admin3":"56000"},{"geonameid":5131638,"name":"Plainview","admin3":"56000"},{"geonameid":5131642,"name":"Plandome","admin3":"53000"},{"geonameid":5131643,"name":"Plandome Heights","admin3":"53000"},{"geonameid":5131837,"name":"Point Lookout","admin3":"34000"},{"geonameid":5132029,"name":"Port Washington","admin3":"53000"},{"geonameid":5132030,"name":"Port Washington North","admin3":"53000"},{"geonameid":5134203,"name":"Rockville Centre","admin3":"34000"},{"geonameid":5134323,"name":"Roosevelt","admin3":"34000"},{"geonameid":5134415,"name":"Roslyn","admin3":"53000"},{"geonameid":5134417,"name":"Roslyn Estates","admin3":"53000"},{"geonameid":5134419,"name":"Roslyn Harbor","admin3":"53000"},{"geonameid":5134420,"name":"Roslyn Heights","admin3":"53000"},{"geonameid":5136107,"name":"Salisbury","admin3":"34000"},{"geonameid":5136245,"name":"Sands Point","admin3":"53000"},{"geonameid":5137484,"name":"Sea Cliff","admin3":"56000"},{"geonameid":5137507,"name":"Seaford","admin3":"34000"},{"geonameid":5137517,"name":"Searingtown","admin3":"53000"},{"geonameid":5138837,"name":"South Farmingdale","admin3":"56000"},{"geonameid":5138840,"name":"South Floral Park","admin3":"34000"},{"geonameid":5138869,"name":"South Hempstead","admin3":"34000"},{"geonameid":5139015,"name":"South Valley Stream","admin3":"34000"},{"geonameid":5139698,"name":"Stewart Manor","admin3":"34000"},{"geonameid":5140402,"name":"Syosset","admin3":"56000"},{"geonameid":5140849,"name":"Thomaston","admin3":"53000"},{"geonameid":5141927,"name":"Uniondale","admin3":"34000"},{"geonameid":5141962,"name":"University Gardens","admin3":"53000"},{"geonameid":5141980,"name":"Upper Brookville","admin3":"56000"},{"geonameid":5142109,"name":"Valley Stream","admin3":"34000"},{"geonameid":5143198,"name":"Wantagh","admin3":"34000"},{"geonameid":5143832,"name":"West Hempstead","admin3":"34000"},{"geonameid":5144040,"name":"Westbury","admin3":"53000"},{"geonameid":5144606,"name":"Williston Park","admin3":"53000"},{"geonameid":5144947,"name":"Woodbury","admin3":"56000"},{"geonameid":5145028,"name":"Woodmere","admin3":"34000"}],"admin3":[{"geonameid":5118631,"name":"City of Glen Cove","admin3":"29113"},{"geonameid":5120487,"name":"Town of Hempstead","admin3":"34000"},{"geonameid":5125097,"name":"City of Long Beach","admin3":"43335"},{"geonameid":5129081,"name":"Town of North Hempstead","admin3":"53000"},{"geonameid":5130331,"name":"Town of Oyster Bay","admin3":"56000"}],"alternateNames":[{"alternatenameId":1980362,"geonameid":5128638,"isoLanguage":"en","alternateName":"New York","isPreferredName":true,"isShortName":true,"isColloquial":false,"isHistoric":false}]},"__N_SSG":true}