{"pageProps":{"locale":"en","admin2":{"geonameid":5128734,"name":"Niagara County","country":"US","admin1":"NY","admin2":"063","admin3":"","latitude":"43.1731400","longitude":"-78.6909500"},"admin1":{"geonameid":5128638,"name":"New York","admin1":"NY","localeAltName":"New York"},"locations":[{"geonameid":5118304,"name":"Gasport","admin3":"64034"},{"geonameid":5124307,"name":"Lewiston","admin3":"42158"},{"geonameid":5125011,"name":"Lockport","admin3":"43082"},{"geonameid":5126837,"name":"Middleport","admin3":"64034"},{"geonameid":5128670,"name":"Newfane","admin3":"50232"},{"geonameid":5128723,"name":"Niagara Falls","admin3":"51055"},{"geonameid":5129245,"name":"North Tonawanda","admin3":"53682"},{"geonameid":5129654,"name":"Olcott","admin3":"50232"},{"geonameid":5133419,"name":"Ransomville","admin3":"59267"},{"geonameid":5133423,"name":"Rapids","admin3":"43093"},{"geonameid":5136177,"name":"Sanborn","admin3":"11803"},{"geonameid":5138918,"name":"South Lockport","admin3":"43093"},{"geonameid":5144698,"name":"Wilson","admin3":"82370"},{"geonameid":5145282,"name":"Youngstown","admin3":"59267"}],"admin3":[{"geonameid":5111143,"name":"Town of Cambria","admin3":"11803"},{"geonameid":5120136,"name":"Town of Hartland","admin3":"32490"},{"geonameid":5124311,"name":"Town of Lewiston","admin3":"42158"},{"geonameid":5125017,"name":"City of Lockport","admin3":"43082"},{"geonameid":5125018,"name":"Town of Lockport","admin3":"43093"},{"geonameid":5128672,"name":"Town of Newfane","admin3":"50232"},{"geonameid":5128728,"name":"City of Niagara Falls","admin3":"51055"},{"geonameid":5128738,"name":"Town of Niagara","admin3":"51033"},{"geonameid":5129246,"name":"City of North Tonawanda","admin3":"53682"},{"geonameid":5130898,"name":"Town of Pendleton","admin3":"57111"},{"geonameid":5132054,"name":"Town of Porter","admin3":"59267"},{"geonameid":5134586,"name":"Town of Royalton","admin3":"64034"},{"geonameid":5138685,"name":"Town of Somerset","admin3":"68330"},{"geonameid":5144177,"name":"Town of Wheatfield","admin3":"81380"},{"geonameid":5144731,"name":"Town of Wilson","admin3":"82370"}],"alternateNames":[{"alternatenameId":1980362,"geonameid":5128638,"isoLanguage":"en","alternateName":"New York","isPreferredName":true,"isShortName":true,"isColloquial":false,"isHistoric":false}]},"__N_SSG":true}