{"pageProps":{"locale":"en","admin2":{"geonameid":5129891,"name":"Ontario County","country":"US","admin1":"NY","admin2":"069","admin3":"","latitude":"42.8528500","longitude":"-77.2998200"},"admin1":{"geonameid":5128638,"name":"New York","admin1":"NY","localeAltName":"New York"},"locations":[{"geonameid":5111405,"name":"Canandaigua","admin3":"12144"},{"geonameid":5112965,"name":"Clifton Springs","admin3":"44864"},{"geonameid":5118398,"name":"Geneva","admin3":"28640"},{"geonameid":5120990,"name":"Holcomb","admin3":"21699"},{"geonameid":5125757,"name":"Manchester","admin3":"44864"},{"geonameid":5128276,"name":"Naples","admin3":"49440"},{"geonameid":5131073,"name":"Phelps","admin3":"57529"},{"geonameid":5138071,"name":"Shortsville","admin3":"44864"},{"geonameid":5142315,"name":"Victor","admin3":"77387"}],"admin3":[{"geonameid":5110197,"name":"Town of Bristol","admin3":"08378"},{"geonameid":5111401,"name":"Town of Canadice","admin3":"12100"},{"geonameid":5111410,"name":"City of Canandaigua","admin3":"12144"},{"geonameid":5111411,"name":"Town of Canandaigua","admin3":"12155"},{"geonameid":5115730,"name":"Town of East Bloomfield","admin3":"21699"},{"geonameid":5116936,"name":"Town of Farmington","admin3":"25406"},{"geonameid":5118400,"name":"City of Geneva","admin3":"28640"},{"geonameid":5118402,"name":"Town of Geneva","admin3":"28651"},{"geonameid":5118896,"name":"Town of Gorham","admin3":"29531"},{"geonameid":5121255,"name":"Town of Hopewell","admin3":"35551"},{"geonameid":5125761,"name":"Town of Manchester","admin3":"44864"},{"geonameid":5128284,"name":"Town of Naples","admin3":"49440"},{"geonameid":5131093,"name":"Town of Phelps","admin3":"57529"},{"geonameid":5133815,"name":"Town of Richmond","admin3":"61544"},{"geonameid":5137647,"name":"Town of Seneca","admin3":"66289"},{"geonameid":5138786,"name":"Town of South Bristol","admin3":"68660"},{"geonameid":5142318,"name":"Town of Victor","admin3":"77387"},{"geonameid":5143654,"name":"Town of West Bloomfield","admin3":"79356"}],"alternateNames":[{"alternatenameId":1980362,"geonameid":5128638,"isoLanguage":"en","alternateName":"New York","isPreferredName":true,"isShortName":true,"isColloquial":false,"isHistoric":false}]},"__N_SSG":true}