{"pageProps":{"locale":"en","admin2":{"geonameid":5133668,"name":"Rensselaer County","country":"US","admin1":"NY","admin2":"083","admin3":"","latitude":"42.7110500","longitude":"-73.5097200"},"admin1":{"geonameid":5128638,"name":"New York","admin1":"NY","localeAltName":"New York"},"locations":[{"geonameid":5107561,"name":"Averill Park","admin3":"65013"},{"geonameid":5111745,"name":"Castleton-on-Hudson","admin3":"65541"},{"geonameid":5114160,"name":"Cropseyville","admin3":"10275"},{"geonameid":5115860,"name":"East Greenbush","admin3":"22117"},{"geonameid":5119907,"name":"Hampton Manor","admin3":"22117"},{"geonameid":5121230,"name":"Hoosick Falls","admin3":"35463"},{"geonameid":5128313,"name":"Nassau","admin3":"49517"},{"geonameid":5131826,"name":"Poestenkill","admin3":"58805"},{"geonameid":5133667,"name":"Rensselaer","admin3":"61148"},{"geonameid":5141502,"name":"Troy","admin3":"75484"},{"geonameid":5143986,"name":"West Sand Lake","admin3":"65013"},{"geonameid":5145157,"name":"Wynantskill","admin3":"52100"}],"admin3":[{"geonameid":5108866,"name":"Town of Berlin","admin3":"06189"},{"geonameid":5110465,"name":"Town of Brunswick","admin3":"10275"},{"geonameid":5115863,"name":"Town of East Greenbush","admin3":"22117"},{"geonameid":5118993,"name":"Town of Grafton","admin3":"29674"},{"geonameid":5121233,"name":"Town of Hoosick","admin3":"35463"},{"geonameid":5128326,"name":"Town of Nassau","admin3":"49517"},{"geonameid":5129061,"name":"Town of North Greenbush","admin3":"52100"},{"geonameid":5131038,"name":"Town of Petersburgh","admin3":"57441"},{"geonameid":5131619,"name":"Town of Pittstown","admin3":"58398"},{"geonameid":5131844,"name":"Town of Poestenkill","admin3":"58805"},{"geonameid":5133674,"name":"City of Rensselaer","admin3":"61148"},{"geonameid":5136214,"name":"Town of Sand Lake","admin3":"65013"},{"geonameid":5136451,"name":"Town of Schaghticoke","admin3":"65486"},{"geonameid":5136489,"name":"Town of Schodack","admin3":"65541"},{"geonameid":5139632,"name":"Town of Stephentown","admin3":"71102"},{"geonameid":5141498,"name":"City of Troy","admin3":"75484"}],"alternateNames":[{"alternatenameId":1980362,"geonameid":5128638,"isoLanguage":"en","alternateName":"New York","isPreferredName":true,"isShortName":true,"isColloquial":false,"isHistoric":false}]},"__N_SSG":true}