{"pageProps":{"locale":"en","admin2":{"geonameid":5140135,"name":"Sullivan County","country":"US","admin1":"NY","admin2":"105","admin3":"","latitude":"41.7164200","longitude":"-74.7681400"},"admin1":{"geonameid":5128638,"name":"New York","admin1":"NY","localeAltName":"New York"},"locations":[{"geonameid":5108015,"name":"Barryville","admin3":"34473"},{"geonameid":5116900,"name":"Fallsburg","admin3":"25241"},{"geonameid":5124323,"name":"Liberty","admin3":"42235"},{"geonameid":5124931,"name":"Livingston Manor","admin3":"63176"},{"geonameid":5127359,"name":"Monticello","admin3":"73627"},{"geonameid":5134115,"name":"Rock Hill","admin3":"73627"},{"geonameid":5138836,"name":"South Fallsburg","admin3":"25241"},{"geonameid":5145131,"name":"Wurtsboro","admin3":"44809"}],"admin3":[{"geonameid":5108944,"name":"Town of Bethel","admin3":"06310"},{"geonameid":5111146,"name":"Town of Callicoon","admin3":"11759"},{"geonameid":5113102,"name":"Town of Cochecton","admin3":"16661"},{"geonameid":5114818,"name":"Town of Delaware","admin3":"20104"},{"geonameid":5116915,"name":"Town of Fallsburg","admin3":"25241"},{"geonameid":5117610,"name":"Town of Forestburgh","admin3":"26528"},{"geonameid":5117967,"name":"Town of Fremont","admin3":"27573"},{"geonameid":5120766,"name":"Town of Highland","admin3":"34473"},{"geonameid":5124340,"name":"Town of Liberty","admin3":"42235"},{"geonameid":5125491,"name":"Town of Lumberland","admin3":"43786"},{"geonameid":5125736,"name":"Town of Mamakating","admin3":"44809"},{"geonameid":5128454,"name":"Town of Neversink","admin3":"49847"},{"geonameid":5134195,"name":"Town of Rockland","admin3":"63176"},{"geonameid":5140872,"name":"Town of Thompson","admin3":"73627"},{"geonameid":5141639,"name":"Town of Tusten","admin3":"75759"}],"alternateNames":[{"alternatenameId":1980362,"geonameid":5128638,"isoLanguage":"en","alternateName":"New York","isPreferredName":true,"isShortName":true,"isColloquial":false,"isHistoric":false}]},"__N_SSG":true}