{"pageProps":{"locale":"en","admin2":{"geonameid":5144050,"name":"Westchester County","country":"US","admin1":"NY","admin2":"119","admin3":"","latitude":"41.1514800","longitude":"-73.7533900"},"admin1":{"geonameid":5128638,"name":"New York","admin1":"NY","localeAltName":"New York"},"locations":[{"geonameid":5107311,"name":"Ardsley","admin3":""},{"geonameid":5107346,"name":"Armonk","admin3":"51693"},{"geonameid":5108531,"name":"Bedford","admin3":"05320"},{"geonameid":5108541,"name":"Bedford Hills","admin3":"05320"},{"geonameid":5110108,"name":"Briarcliff Manor","admin3":"55541"},{"geonameid":5110269,"name":"Bronxville","admin3":"21820"},{"geonameid":5110506,"name":"Buchanan","admin3":"18410"},{"geonameid":5112259,"name":"Chappaqua","admin3":"50078"},{"geonameid":11811570,"name":"Cortlandt Manor","admin3":"18410"},{"geonameid":5114128,"name":"Crompond","admin3":"18410"},{"geonameid":5114221,"name":"Croton-on-Hudson","admin3":"18410"},{"geonameid":5114260,"name":"Crugers","admin3":"18410"},{"geonameid":5115123,"name":"Dobbs Ferry","admin3":""},{"geonameid":5116118,"name":"Eastchester","admin3":"21820"},{"geonameid":5116512,"name":"Elmsford","admin3":""},{"geonameid":5116820,"name":"Fairview","admin3":""},{"geonameid":5118781,"name":"Goldens Bridge","admin3":"42136"},{"geonameid":5119347,"name":"Greenburgh","admin3":""},{"geonameid":5119405,"name":"Greenville","admin3":""},{"geonameid":5120095,"name":"Harrison","admin3":"32413"},{"geonameid":5120141,"name":"Hartsdale","admin3":""},{"geonameid":5120197,"name":"Hastings-on-Hudson","admin3":""},{"geonameid":5120284,"name":"Hawthorne","admin3":"49011"},{"geonameid":5120550,"name":"Heritage Hills","admin3":"68308"},{"geonameid":5122365,"name":"Irvington","admin3":""},{"geonameid":7258782,"name":"Jefferson Valley-Yorktown","admin3":"84077"},{"geonameid":5123118,"name":"Katonah","admin3":"05320"},{"geonameid":5123823,"name":"Lake Mohegan","admin3":"84077"},{"geonameid":5124017,"name":"Larchmont","admin3":"44842"},{"geonameid":5124482,"name":"Lincolndale","admin3":"68308"},{"geonameid":5125738,"name":"Mamaroneck","admin3":"44842"},{"geonameid":5127368,"name":"Montrose","admin3":"18410"},{"geonameid":5127744,"name":"Mount Kisco","admin3":"48895"},{"geonameid":5127835,"name":"Mount Vernon","admin3":"49121"},{"geonameid":5128549,"name":"New Rochelle","admin3":"50617"},{"geonameid":7249078,"name":"North Castle","admin3":"51693"},{"geonameid":5130045,"name":"Ossining","admin3":"55541"},{"geonameid":5130831,"name":"Peekskill","admin3":"56979"},{"geonameid":5130854,"name":"Pelham","admin3":"57012"},{"geonameid":5130862,"name":"Pelham Manor","admin3":"57012"},{"geonameid":5131757,"name":"Pleasantville","admin3":"49011"},{"geonameid":5132002,"name":"Port Chester","admin3":"64320"},{"geonameid":5132152,"name":"Pound Ridge","admin3":"59685"},{"geonameid":5133135,"name":"Purchase","admin3":"32413"},{"geonameid":5134693,"name":"Rye","admin3":"64309"},{"geonameid":5134696,"name":"Rye Brook","admin3":"64320"},{"geonameid":5136433,"name":"Scarsdale","admin3":"65442"},{"geonameid":5137909,"name":"Shenorock","admin3":"68308"},{"geonameid":5138077,"name":"Shrub Oak","admin3":"84077"},{"geonameid":5138371,"name":"Sleepy Hollow","admin3":"49011"},{"geonameid":5140538,"name":"Tarrytown","admin3":""},{"geonameid":5140895,"name":"Thornwood","admin3":"49011"},{"geonameid":5141528,"name":"Tuckahoe","admin3":"21820"},{"geonameid":5142090,"name":"Valhalla","admin3":"49011"},{"geonameid":5142287,"name":"Verplanck","admin3":"18410"},{"geonameid":5144336,"name":"White Plains","admin3":"81677"},{"geonameid":5145142,"name":"Wykagyl","admin3":"50617"},{"geonameid":5145215,"name":"Yonkers","admin3":"84000"},{"geonameid":5145253,"name":"Yorktown Heights","admin3":"84077"}],"admin3":[{"geonameid":5108553,"name":"Town of Bedford","admin3":"05320"},{"geonameid":5113800,"name":"Town of Cortlandt","admin3":"18410"},{"geonameid":5116124,"name":"Town of Eastchester","admin3":"21820"},{"geonameid":5120112,"name":"Town of Harrison","admin3":"32413"},{"geonameid":5124304,"name":"Town of Lewisboro","admin3":"42136"},{"geonameid":5125750,"name":"Town of Mamaroneck","admin3":"44842"},{"geonameid":5127750,"name":"Town of Mount Kisco","admin3":"48895"},{"geonameid":5127806,"name":"Town of Mount Pleasant","admin3":"49011"},{"geonameid":5127853,"name":"City of Mount Vernon","admin3":"49121"},{"geonameid":5128480,"name":"Town of New Castle","admin3":"50078"},{"geonameid":5128558,"name":"City of New Rochelle","admin3":"50617"},{"geonameid":5128976,"name":"Town of North Castle","admin3":"51693"},{"geonameid":5129204,"name":"Town of North Salem","admin3":"53517"},{"geonameid":5130059,"name":"Town of Ossining","admin3":"55541"},{"geonameid":5130844,"name":"City of Peekskill","admin3":"56979"},{"geonameid":5130869,"name":"Town of Pelham","admin3":"57012"},{"geonameid":5132153,"name":"Town of Pound Ridge","admin3":"59685"},{"geonameid":5134711,"name":"City of Rye","admin3":"64309"},{"geonameid":5134712,"name":"Town of Rye","admin3":"64320"},{"geonameid":5136445,"name":"Town of Scarsdale","admin3":"65442"},{"geonameid":5138681,"name":"Town of Somers","admin3":"68308"},{"geonameid":5144347,"name":"City of White Plains","admin3":"81677"},{"geonameid":5145239,"name":"City of Yonkers","admin3":"84000"},{"geonameid":5145256,"name":"Town of Yorktown","admin3":"84077"}],"alternateNames":[{"alternatenameId":1980362,"geonameid":5128638,"isoLanguage":"en","alternateName":"New York","isPreferredName":true,"isShortName":true,"isColloquial":false,"isHistoric":false}]},"__N_SSG":true}