{"pageProps":{"locale":"en","admin2":{"geonameid":4453232,"name":"Avery County","country":"US","admin1":"NC","admin2":"011","admin3":"","latitude":"36.0766100","longitude":"-81.9224700"},"admin1":{"geonameid":4482348,"name":"North Carolina","admin1":"NC","localeAltName":"North Carolina"},"locations":[{"geonameid":4453688,"name":"Banner Elk","admin3":"90148"}],"admin3":[{"geonameid":4452539,"name":"Township of Altamont","admin3":"90052"},{"geonameid":4453690,"name":"Township of Banner Elk","admin3":"90148"},{"geonameid":4454693,"name":"Township of Beech Mountain","admin3":"90212"},{"geonameid":4462381,"name":"Township of Cranberry","admin3":"90812"},{"geonameid":4476065,"name":"Township of Linville","admin3":"91826"},{"geonameid":4488256,"name":"Township of Roaring Creek","admin3":"92708"},{"geonameid":7169289,"name":"Township of Carey's Flat","admin3":"90510"},{"geonameid":7170457,"name":"Township of Elk Park","admin3":"91018"},{"geonameid":7170460,"name":"Township of Frank","admin3":"91154"},{"geonameid":7170463,"name":"Township of Heaton","admin3":"91442"},{"geonameid":7170464,"name":"Township of Hughes","admin3":"91558"},{"geonameid":7170465,"name":"Township of Ingalls","admin3":"91582"},{"geonameid":7170469,"name":"Township of Minneapolis","admin3":"92090"},{"geonameid":7170470,"name":"Township of Montezuma","admin3":"92110"},{"geonameid":7170487,"name":"Township of Pineola","admin3":"92502"},{"geonameid":7170488,"name":"Township of Plumtree","admin3":"92538"},{"geonameid":7170489,"name":"Township of Pyatte","admin3":"92586"}],"alternateNames":[{"alternatenameId":2089560,"geonameid":4482348,"isoLanguage":"en","alternateName":"North Carolina","isPreferredName":true,"isShortName":true,"isColloquial":false,"isHistoric":false}]},"__N_SSG":true}