{"pageProps":{"locale":"en","admin2":{"geonameid":4469619,"name":"Halifax County","country":"US","admin1":"NC","admin2":"083","admin3":"","latitude":"36.2575000","longitude":"-77.6518800"},"admin1":{"geonameid":4482348,"name":"North Carolina","admin1":"NC","localeAltName":"North Carolina"},"locations":[{"geonameid":4465364,"name":"Enfield","admin3":"91036"},{"geonameid":4488232,"name":"Roanoke Rapids","admin3":"92704"},{"geonameid":4490606,"name":"Scotland Neck","admin3":"92864"},{"geonameid":4492661,"name":"South Rosemary","admin3":"92704"},{"geonameid":4498017,"name":"Weldon","admin3":"93932"}],"admin3":[{"geonameid":4457222,"name":"Township of Brinkleyville","admin3":"90368"},{"geonameid":4458389,"name":"Township of Butterwood","admin3":"90468"},{"geonameid":4461684,"name":"Township of Conoconnara","admin3":"90752"},{"geonameid":4465367,"name":"Township of Enfield","admin3":"91036"},{"geonameid":4466008,"name":"Township of Faucett","admin3":"91088"},{"geonameid":4469622,"name":"Township of Halifax","admin3":"91372"},{"geonameid":4476725,"name":"Township of Littleton","admin3":"91876"},{"geonameid":4483892,"name":"Township of Palmyra","admin3":"92432"},{"geonameid":4488236,"name":"Township of Roanoke Rapids","admin3":"92704"},{"geonameid":4489000,"name":"Township of Roseneath","admin3":"92756"},{"geonameid":4490609,"name":"Township of Scotland Neck","admin3":"92864"},{"geonameid":4498020,"name":"Township of Weldon","admin3":"93932"}],"alternateNames":[{"alternatenameId":2089560,"geonameid":4482348,"isoLanguage":"en","alternateName":"North Carolina","isPreferredName":true,"isShortName":true,"isColloquial":false,"isHistoric":false}]},"__N_SSG":true}