{"pageProps":{"locale":"en","admin2":{"geonameid":4470576,"name":"Henderson County","country":"US","admin1":"NC","admin2":"089","admin3":"","latitude":"35.3362900","longitude":"-82.4799100"},"admin1":{"geonameid":4482348,"name":"North Carolina","admin1":"NC","localeAltName":"North Carolina"},"locations":[{"geonameid":4453570,"name":"Balfour","admin3":"91456"},{"geonameid":4453759,"name":"Barker Heights","admin3":"91456"},{"geonameid":4462937,"name":"Dana","admin3":"90304"},{"geonameid":4464564,"name":"East Flat Rock","admin3":"91456"},{"geonameid":4464963,"name":"Edneyville","admin3":"90972"},{"geonameid":4465507,"name":"Etowah","admin3":"92076"},{"geonameid":4466444,"name":"Flat Rock","admin3":"91456"},{"geonameid":4466547,"name":"Fletcher","admin3":"91536"},{"geonameid":4467399,"name":"Fruitland","admin3":"90680"},{"geonameid":4470592,"name":"Hendersonville","admin3":"91456"},{"geonameid":4471827,"name":"Hoopers Creek","admin3":"91536"},{"geonameid":4472025,"name":"Horse Shoe","admin3":"91456"},{"geonameid":4475309,"name":"Laurel Park","admin3":"91456"},{"geonameid":4479639,"name":"Mills River","admin3":"92076"},{"geonameid":4481046,"name":"Mountain Home","admin3":"91456"},{"geonameid":4496508,"name":"Valley Hill","admin3":"91456"}],"admin3":[{"geonameid":4456440,"name":"Township of Blue Ridge","admin3":"90304"},{"geonameid":4460983,"name":"Township of Clear Creek","admin3":"90680"},{"geonameid":4462293,"name":"Township of Crab Creek","admin3":"90796"},{"geonameid":4464967,"name":"Township of Edneyville","admin3":"90972"},{"geonameid":4469037,"name":"Township of Green River","admin3":"91316"},{"geonameid":4470599,"name":"Township of Hendersonville","admin3":"91456"},{"geonameid":4471830,"name":"Township of Hoopers Creek","admin3":"91536"},{"geonameid":4479647,"name":"Township of Mills River","admin3":"92076"}],"alternateNames":[{"alternatenameId":2089560,"geonameid":4482348,"isoLanguage":"en","alternateName":"North Carolina","isPreferredName":true,"isShortName":true,"isColloquial":false,"isHistoric":false}]},"__N_SSG":true}