{"pageProps":{"locale":"en","admin2":{"geonameid":4473631,"name":"Johnston County","country":"US","admin1":"NC","admin2":"101","admin3":"","latitude":"35.5176100","longitude":"-78.3656400"},"admin1":{"geonameid":4482348,"name":"North Carolina","admin1":"NC","localeAltName":"North Carolina"},"locations":[{"geonameid":4452878,"name":"Archer Lodge","admin3":"94008"},{"geonameid":4454971,"name":"Benson","admin3":"90144"},{"geonameid":4460943,"name":"Clayton","admin3":"90676"},{"geonameid":4466988,"name":"Four Oaks","admin3":"91584"},{"geonameid":4474159,"name":"Kenly","admin3":"90256"},{"geonameid":4485161,"name":"Pine Level","admin3":"92500"},{"geonameid":4486537,"name":"Princeton","admin3":"90336"},{"geonameid":4490778,"name":"Selma","admin3":"92888"},{"geonameid":4492168,"name":"Smithfield","admin3":"92980"},{"geonameid":4499483,"name":"Wilsons Mills","admin3":"94056"}],"admin3":[{"geonameid":4453691,"name":"Township of Banner","admin3":"90144"},{"geonameid":4455011,"name":"Township of Bentonville","admin3":"90232"},{"geonameid":4455471,"name":"Township of Beulah","admin3":"90256"},{"geonameid":4456702,"name":"Township of Boon Hill","admin3":"90336"},{"geonameid":4460954,"name":"Township of Clayton","admin3":"90676"},{"geonameid":4461050,"name":"Township of Cleveland","admin3":"90688"},{"geonameid":4465060,"name":"Township of Elevation","admin3":"90992"},{"geonameid":4472723,"name":"Township of Ingrams","admin3":"91584"},{"geonameid":4478835,"name":"Township of Meadow","admin3":"92024"},{"geonameid":4479069,"name":"Township of Micro","admin3":"92048"},{"geonameid":4482748,"name":"Township of O'Neals","admin3":"92408"},{"geonameid":4485165,"name":"Township of Pine Level","admin3":"92500"},{"geonameid":4485798,"name":"Township of Pleasant Grove","admin3":"92528"},{"geonameid":4490785,"name":"Township of Selma","admin3":"92888"},{"geonameid":4492174,"name":"Township of Smithfield","admin3":"92980"},{"geonameid":4499089,"name":"Township of Wilders","admin3":"94008"},{"geonameid":4499461,"name":"Township of Wilson Mills","admin3":"94056"}],"alternateNames":[{"alternatenameId":2089560,"geonameid":4482348,"isoLanguage":"en","alternateName":"North Carolina","isPreferredName":true,"isShortName":true,"isColloquial":false,"isHistoric":false}]},"__N_SSG":true}