{"pageProps":{"locale":"en","admin2":{"geonameid":4475647,"name":"Lenoir County","country":"US","admin1":"NC","admin2":"107","admin3":"","latitude":"35.2391500","longitude":"-77.6412700"},"admin1":{"geonameid":4482348,"name":"North Carolina","admin1":"NC","localeAltName":"North Carolina"},"locations":[{"geonameid":4474436,"name":"Kinston","admin3":"91704"},{"geonameid":4474627,"name":"La Grange","admin3":"92144"}],"admin3":[{"geonameid":4461698,"name":"Township of Contentnea Neck","admin3":"90760"},{"geonameid":4465897,"name":"Township of Falling Creek","admin3":"91072"},{"geonameid":4472738,"name":"Township of Institute","admin3":"91588"},{"geonameid":4474447,"name":"Township of Kinston","admin3":"91704"},{"geonameid":4480318,"name":"Township of Moseley Hall","admin3":"92144"},{"geonameid":4481666,"name":"Township of Neuse","admin3":"92224"},{"geonameid":4485524,"name":"Township of Pink Hill","admin3":"92520"},{"geonameid":4490114,"name":"Township of Sand Hill","admin3":"92820"},{"geonameid":4492800,"name":"Township of Southwest","admin3":"93060"},{"geonameid":4495584,"name":"Township of Trent","admin3":"93760"},{"geonameid":4496565,"name":"Township of Vance","admin3":"93856"},{"geonameid":4499866,"name":"Township of Woodington","admin3":"94096"}],"alternateNames":[{"alternatenameId":2089560,"geonameid":4482348,"isoLanguage":"en","alternateName":"North Carolina","isPreferredName":true,"isShortName":true,"isColloquial":false,"isHistoric":false}]},"__N_SSG":true}