{"pageProps":{"locale":"en","admin2":{"geonameid":4478581,"name":"McDowell County","country":"US","admin1":"NC","admin2":"111","admin3":"","latitude":"35.6812400","longitude":"-82.0487000"},"admin1":{"geonameid":4482348,"name":"North Carolina","admin1":"NC","localeAltName":"North Carolina"},"locations":[{"geonameid":4478003,"name":"Marion","admin3":"91984"},{"geonameid":4498252,"name":"West Marion","admin3":"91984"}],"admin3":[{"geonameid":4456891,"name":"Township of Brackett","admin3":"90348"},{"geonameid":4462552,"name":"Township of Crooked Creek","admin3":"90828"},{"geonameid":4464433,"name":"Township of Dysartsville","admin3":"90940"},{"geonameid":4468139,"name":"Township of Glenwood","admin3":"91236"},{"geonameid":4470964,"name":"Township of Higgins","admin3":"91476"},{"geonameid":4478012,"name":"Township of Marion","admin3":"91984"},{"geonameid":4479984,"name":"Township of Montford Cove","admin3":"92112"},{"geonameid":4481576,"name":"Township of Nebo","admin3":"92216"},{"geonameid":4482367,"name":"Township of North Cove","admin3":"92312"},{"geonameid":4483275,"name":"Township of Old Fort","admin3":"92384"}],"alternateNames":[{"alternatenameId":2089560,"geonameid":4482348,"isoLanguage":"en","alternateName":"North Carolina","isPreferredName":true,"isShortName":true,"isColloquial":false,"isHistoric":false}]},"__N_SSG":true}