{"pageProps":{"locale":"en","admin2":{"geonameid":4493539,"name":"Stokes County","country":"US","admin1":"NC","admin2":"169","admin3":"","latitude":"36.4019000","longitude":"-80.2396100"},"admin1":{"geonameid":4482348,"name":"North Carolina","admin1":"NC","localeAltName":"North Carolina"},"locations":[{"geonameid":4474316,"name":"King","admin3":"94108"},{"geonameid":4497437,"name":"Walnut Cove","admin3":"92852"}],"admin3":[{"geonameid":4454451,"name":"Township of Beaver Island","admin3":"90208"},{"geonameid":4455688,"name":"Township of Big Creek","admin3":"90260"},{"geonameid":4462947,"name":"Township of Danbury","admin3":"90876"},{"geonameid":4478855,"name":"Township of Meadows","admin3":"92028"},{"geonameid":4484708,"name":"Township of Peters Creek","admin3":"92480"},{"geonameid":4486835,"name":"Township of Quaker Gap","admin3":"92588"},{"geonameid":4490463,"name":"Township of Sauratown","admin3":"92852"},{"geonameid":4492326,"name":"Township of Snow Creek","admin3":"93016"},{"geonameid":4500152,"name":"Township of Yadkin","admin3":"94108"}],"alternateNames":[{"alternatenameId":2089560,"geonameid":4482348,"isoLanguage":"en","alternateName":"North Carolina","isPreferredName":true,"isShortName":true,"isColloquial":false,"isHistoric":false}]},"__N_SSG":true}