{"pageProps":{"locale":"en","admin2":{"geonameid":4785252,"name":"Shenandoah County","country":"US","admin1":"VA","admin2":"171","admin3":"","latitude":"38.8583900","longitude":"-78.5706000","localeAltName":null},"admin1":{"geonameid":6254928,"name":"Virginia","admin1":"VA","localeAltName":"Virginia"},"locations":[{"geonameid":4745764,"name":"Basye","admin3":"","localeAltName":null},{"geonameid":4757240,"name":"Edinburg","admin3":"","localeAltName":null},{"geonameid":4772042,"name":"Maurertown","admin3":"","localeAltName":null},{"geonameid":4774352,"name":"Mount Jackson","admin3":"","localeAltName":null},{"geonameid":4775859,"name":"New Market","admin3":"","localeAltName":null},{"geonameid":4787974,"name":"Strasburg","admin3":"","localeAltName":null},{"geonameid":4794641,"name":"Woodstock","admin3":"","localeAltName":null}],"admin3":[],"alternateNames":[{"alternatenameId":6755491,"geonameid":6254928,"isoLanguage":"en","alternateName":"Virginia","isPreferredName":true,"isShortName":true,"isColloquial":false,"isHistoric":false}]},"__N_SSG":true}