{"pageProps":{"locale":"it","admin2":{"geonameid":3174379,"name":"Provincia di Macerata","country":"IT","admin1":"10","admin2":"MC","admin3":"","latitude":"43.2000000","longitude":"13.1666700","localeAltName":"Macerata"},"admin1":{"geonameid":3174004,"name":"Marche","admin1":"10","localeAltName":"Marche"},"locations":[{"geonameid":3182988,"name":"Apiro","admin3":"043002","localeAltName":null},{"geonameid":3182963,"name":"Appignano","admin3":"043003","localeAltName":null},{"geonameid":3182238,"name":"Belforte del Chienti","admin3":"043004","localeAltName":null},{"geonameid":8948807,"name":"Borgo Stazione","admin3":"043028","localeAltName":null},{"geonameid":3181213,"name":"Caldarola","admin3":"043006","localeAltName":null},{"geonameid":3181094,"name":"Camerino","admin3":"043007","localeAltName":null},{"geonameid":8949086,"name":"Casette Verdini","admin3":"043041","localeAltName":null},{"geonameid":3179502,"name":"Castelraimondo","admin3":"043009","localeAltName":null},{"geonameid":3178947,"name":"Cesolo","admin3":"043047","localeAltName":null},{"geonameid":8949647,"name":"Chiesanuova","admin3":"043054","localeAltName":null},{"geonameid":3178673,"name":"Cingoli","admin3":"043012","localeAltName":null},{"geonameid":3178592,"name":"Civitanova Alta","admin3":"043013","localeAltName":null},{"geonameid":3170102,"name":"Civitanova Marche","admin3":"043013","localeAltName":null},{"geonameid":3178293,"name":"Colmurano","admin3":"043014","localeAltName":null},{"geonameid":3178014,"name":"Corridonia","admin3":"043015","localeAltName":null},{"geonameid":3177349,"name":"Esanatoglia","admin3":"043016","localeAltName":null},{"geonameid":8950035,"name":"Grottaccia","admin3":"043012","localeAltName":null},{"geonameid":3174557,"name":"Loro Piceno","admin3":"043022","localeAltName":null},{"geonameid":3174380,"name":"Macerata","admin3":"043023","localeAltName":null},{"geonameid":3173777,"name":"Massa","admin3":"043019","localeAltName":null},{"geonameid":3173722,"name":"Matelica","admin3":"043024","localeAltName":null},{"geonameid":3173315,"name":"Mogliano","admin3":"043025","localeAltName":null},{"geonameid":3172756,"name":"Monte San Giusto","admin3":"043031","localeAltName":null},{"geonameid":3172708,"name":"Monte Vidon Combatte","admin3":"043032","localeAltName":null},{"geonameid":3173006,"name":"Montecassiano","admin3":"043026","localeAltName":null},{"geonameid":3172961,"name":"Montecosaro","admin3":"043028","localeAltName":null},{"geonameid":3172935,"name":"Montefano","admin3":"043029","localeAltName":null},{"geonameid":3172860,"name":"Montelupone","admin3":"043030","localeAltName":null},{"geonameid":3172564,"name":"Morrovalle","admin3":"043033","localeAltName":null},{"geonameid":3172489,"name":"Muccia","admin3":"043034","localeAltName":null},{"geonameid":8950374,"name":"Musone","admin3":"043044","localeAltName":null},{"geonameid":8949574,"name":"Passo del Bidollo","admin3":"043015","localeAltName":null},{"geonameid":3171408,"name":"Passo di Treia","admin3":"043054","localeAltName":null},{"geonameid":3171249,"name":"Penna San Giovanni","admin3":"043035","localeAltName":null},{"geonameid":3171095,"name":"Petriolo","admin3":"043036","localeAltName":null},{"geonameid":8948934,"name":"Piediripa","admin3":"043023","localeAltName":null},{"geonameid":3170730,"name":"Pieve Torina","admin3":"043038","localeAltName":null},{"geonameid":3170759,"name":"Pievebovigliana","admin3":"043058","localeAltName":null},{"geonameid":8949941,"name":"Pintura","admin3":"043033","localeAltName":null},{"geonameid":3170660,"name":"Pioraco","admin3":"043039","localeAltName":null},{"geonameid":3170372,"name":"Pollenza","admin3":"043041","localeAltName":null},{"geonameid":3170076,"name":"Porto Potenza Picena","admin3":"043043","localeAltName":null},{"geonameid":3170075,"name":"Porto Recanati","admin3":"043042","localeAltName":null},{"geonameid":3170023,"name":"Potenza Picena","admin3":"043043","localeAltName":null},{"geonameid":3169540,"name":"Recanati","admin3":"043044","localeAltName":null},{"geonameid":8949469,"name":"San Claudio","admin3":"043015","localeAltName":null},{"geonameid":3168318,"name":"San Ginesio","admin3":"043046","localeAltName":null},{"geonameid":3167732,"name":"San Severino Marche","admin3":"043047","localeAltName":null},{"geonameid":8949817,"name":"Sant'Egidio","admin3":"043026","localeAltName":null},{"geonameid":8659130,"name":"Santa Maria Apparente","admin3":"043013","localeAltName":null},{"geonameid":3167119,"name":"Sarnano","admin3":"043049","localeAltName":null},{"geonameid":3166570,"name":"Sforzacosta","admin3":"043023","localeAltName":null},{"geonameid":9036174,"name":"Stazione Morrovalle","admin3":"043033","localeAltName":null},{"geonameid":8949127,"name":"Strada","admin3":"043012","localeAltName":null},{"geonameid":3165595,"name":"Tolentino","admin3":"043053","localeAltName":null},{"geonameid":3165261,"name":"Treia","admin3":"043054","localeAltName":null},{"geonameid":7535964,"name":"Trodica","admin3":"043033","localeAltName":null},{"geonameid":3165130,"name":"Troviggiano","admin3":"043012","localeAltName":null},{"geonameid":3165033,"name":"Urbisaglia","admin3":"043055","localeAltName":null},{"geonameid":3164162,"name":"Villa Potenza","admin3":"043023","localeAltName":null},{"geonameid":8949388,"name":"Villa San Filippo","admin3":"043031","localeAltName":null},{"geonameid":3164045,"name":"Visso","admin3":"043057","localeAltName":null},{"geonameid":8949155,"name":"Zona Industriale","admin3":"043015","localeAltName":null}],"admin3":[{"geonameid":3172995,"name":"Monte Cavallo","admin3":"043027"},{"geonameid":3176920,"name":"Fiuminata","admin3":"043019","localeAltName":null},{"geonameid":3177041,"name":"Fiastra","admin3":"043017"},{"geonameid":6536784,"name":"Apiro","admin3":"043002","localeAltName":null},{"geonameid":6536785,"name":"Camerino","admin3":"043007","localeAltName":null},{"geonameid":6536786,"name":"Loro Piceno","admin3":"043022","localeAltName":null},{"geonameid":6536787,"name":"Matelica","admin3":"043024","localeAltName":null},{"geonameid":6536788,"name":"Monte San Giusto","admin3":"043031","localeAltName":null},{"geonameid":6536789,"name":"Muccia","admin3":"043034","localeAltName":null},{"geonameid":6536790,"name":"Porto Recanati","admin3":"043042","localeAltName":null},{"geonameid":6536791,"name":"Ripe San Ginesio","admin3":"043045"},{"geonameid":6536792,"name":"Sant'Angelo in Pontano","admin3":"043048"},{"geonameid":6536793,"name":"Sefro","admin3":"043050"},{"geonameid":6536794,"name":"Serravalle di Chienti","admin3":"043052"},{"geonameid":6538516,"name":"Camporotondo di Fiastrone","admin3":"043008"},{"geonameid":6538517,"name":"Castelsantangelo sul Nera","admin3":"043010"},{"geonameid":6538518,"name":"Colmurano","admin3":"043014","localeAltName":null},{"geonameid":6538519,"name":"Corridonia","admin3":"043015","localeAltName":null},{"geonameid":6538520,"name":"Esanatoglia","admin3":"043016","localeAltName":null},{"geonameid":6538521,"name":"Monte San Martino","admin3":"043032","localeAltName":null},{"geonameid":6538523,"name":"Pioraco","admin3":"043039","localeAltName":null},{"geonameid":6538524,"name":"Pollenza","admin3":"043041","localeAltName":null},{"geonameid":6538525,"name":"Sarnano","admin3":"043049","localeAltName":null},{"geonameid":6538526,"name":"Serrapetrona","admin3":"043051"},{"geonameid":6538527,"name":"Visso","admin3":"043057","localeAltName":null},{"geonameid":6539729,"name":"Montefano","admin3":"043029","localeAltName":null},{"geonameid":6539955,"name":"Mogliano","admin3":"043025","localeAltName":null},{"geonameid":6539956,"name":"Petriolo","admin3":"043036","localeAltName":null},{"geonameid":6539957,"name":"Potenza Picena","admin3":"043043","localeAltName":null},{"geonameid":6539958,"name":"Treia","admin3":"043054","localeAltName":null},{"geonameid":6540106,"name":"Macerata","admin3":"043023","localeAltName":null},{"geonameid":6540261,"name":"Civitanova Marche","admin3":"043013","localeAltName":null},{"geonameid":6540452,"name":"Belforte del Chienti","admin3":"043004","localeAltName":null},{"geonameid":6540453,"name":"Montelupone","admin3":"043030","localeAltName":null},{"geonameid":6540454,"name":"Penna San Giovanni","admin3":"043035","localeAltName":null},{"geonameid":6540455,"name":"Pieve Torina","admin3":"043038","localeAltName":null},{"geonameid":6540456,"name":"Poggio San Vicino","admin3":"043040"},{"geonameid":6540457,"name":"San Ginesio","admin3":"043046","localeAltName":null},{"geonameid":6540458,"name":"Urbisaglia","admin3":"043055","localeAltName":null},{"geonameid":6541063,"name":"Bolognola","admin3":"043005"},{"geonameid":6541064,"name":"Caldarola","admin3":"043006","localeAltName":null},{"geonameid":6541065,"name":"Castelraimondo","admin3":"043009","localeAltName":null},{"geonameid":6541066,"name":"Cessapalombo","admin3":"043011"},{"geonameid":6541067,"name":"Cingoli","admin3":"043012","localeAltName":null},{"geonameid":6541068,"name":"Gagliole","admin3":"043020"},{"geonameid":6541069,"name":"Tolentino","admin3":"043053","localeAltName":null},{"geonameid":6541606,"name":"Appignano","admin3":"043003","localeAltName":null},{"geonameid":6541607,"name":"San Severino Marche","admin3":"043047","localeAltName":null},{"geonameid":6541843,"name":"Montecassiano","admin3":"043026","localeAltName":null},{"geonameid":6541844,"name":"Montecosaro","admin3":"043028","localeAltName":null},{"geonameid":6541845,"name":"Morrovalle","admin3":"043033","localeAltName":null},{"geonameid":6541846,"name":"Recanati","admin3":"043044","localeAltName":null},{"geonameid":6542716,"name":"Ussita","admin3":"043056"},{"geonameid":6543021,"name":"Gualdo","admin3":"043021"},{"geonameid":11550068,"name":"Valfornace","admin3":"043058","localeAltName":null}],"alternateNames":[{"alternatenameId":1350130,"geonameid":3174004,"isoLanguage":"it","alternateName":"Marche","isPreferredName":true,"isShortName":true,"isColloquial":false,"isHistoric":false},{"alternatenameId":1350131,"geonameid":3174004,"isoLanguage":"en","alternateName":"The Marches","isPreferredName":true,"isShortName":true,"isColloquial":false,"isHistoric":false},{"alternatenameId":1350274,"geonameid":3174379,"isoLanguage":"it","alternateName":"Macerata","isPreferredName":true,"isShortName":true,"isColloquial":false,"isHistoric":false}]},"__N_SSG":true}