{"pageProps":{"locale":"de","admin2":{"geonameid":11611650,"name":"Region Engiadina Bassa / Val Müstair","country":"CH","admin1":"GR","admin2":"1843","admin3":"","latitude":"46.7521200","longitude":"10.2603200"},"admin1":{"geonameid":2660522,"name":"Kanton Graubünden","admin1":"GR"},"locations":[{"geonameid":2661726,"name":"Ardez","admin3":"3762"},{"geonameid":2660704,"name":"Fuldera","admin3":"3847"},{"geonameid":2660457,"name":"Guarda","admin3":"3762"},{"geonameid":2659985,"name":"Lavin","admin3":"3746"},{"geonameid":2659842,"name":"Lü","admin3":"3847"},{"geonameid":2659525,"name":"Müstair","admin3":"3847"},{"geonameid":2659072,"name":"Ramosch","admin3":"3764"},{"geonameid":2658842,"name":"Samnaun","admin3":"3752"},{"geonameid":2658660,"name":"Scuol","admin3":"3762"},{"geonameid":2658624,"name":"Sent","admin3":"3762"},{"geonameid":2658421,"name":"Tarasp","admin3":"3762"},{"geonameid":2657926,"name":"Zernez","admin3":"3746"}],"admin3":[{"geonameid":7287049,"name":"Samnaun","admin3":"3752"},{"geonameid":7287130,"name":"Scuol","admin3":"3762"},{"geonameid":7287413,"name":"Val Müstair","admin3":"3847"},{"geonameid":7287632,"name":"Zernez","admin3":"3746"},{"geonameid":8740947,"name":"Valsot","admin3":"3764"}],"alternateNames":[]},"__N_SSG":true}