{"pageProps":{"locale":"en","admin2":{"geonameid":4267902,"name":"Barber County","country":"US","admin1":"KS","admin2":"007","admin3":"","latitude":"37.2288400","longitude":"-98.6847900","localeAltName":null},"admin1":{"geonameid":4273857,"name":"Kansas","admin1":"KS","localeAltName":"Kansas"},"locations":[{"geonameid":4273999,"name":"Kiowa","admin3":"37150","localeAltName":null},{"geonameid":4275315,"name":"Medicine Lodge","admin3":"45525","localeAltName":null}],"admin3":[{"geonameid":4267403,"name":"Township of Aetna","admin3":"00400"},{"geonameid":4270312,"name":"Township of Deerhead","admin3":"17300"},{"geonameid":4270632,"name":"Township of Eagle","admin3":"19150"},{"geonameid":4270995,"name":"Township of Elm Mills","admin3":"20800"},{"geonameid":4271038,"name":"Township of Elwood","admin3":"20925"},{"geonameid":4272799,"name":"Township of Hazelton","admin3":"31175"},{"geonameid":4274010,"name":"Township of Kiowa","admin3":"37150","localeAltName":null},{"geonameid":4274122,"name":"Township of Lake City","admin3":"37900"},{"geonameid":4275201,"name":"Township of McAdoo","admin3":"43550"},{"geonameid":4275319,"name":"Township of Medicine Lodge","admin3":"45525","localeAltName":null},{"geonameid":4275580,"name":"Township of Mingona","admin3":"47050"},{"geonameid":4275709,"name":"Township of Moore","admin3":"48075"},{"geonameid":4276294,"name":"Township of Nippawalla","admin3":"50775"},{"geonameid":4279233,"name":"Township of Sharon","admin3":"64350"},{"geonameid":4280154,"name":"Township of Sun City","admin3":"69300"},{"geonameid":4280711,"name":"Township of Turkey Creek","admin3":"71675"},{"geonameid":4280938,"name":"Township of Valley","admin3":"72750"}],"alternateNames":[{"alternatenameId":2080124,"geonameid":4273857,"isoLanguage":"en","alternateName":"Kansas","isPreferredName":true,"isShortName":true,"isColloquial":false,"isHistoric":false}]},"__N_SSG":true}