{"pageProps":{"locale":"en","admin2":{"geonameid":5445155,"name":"Cheyenne County","country":"US","admin1":"KS","admin2":"023","admin3":"","latitude":"39.7858700","longitude":"-101.7311000","localeAltName":null},"admin1":{"geonameid":4273857,"name":"Kansas","admin1":"KS","localeAltName":"Kansas"},"locations":[{"geonameid":5446345,"name":"Saint Francis","admin3":"75375","localeAltName":null}],"admin3":[{"geonameid":5445037,"name":"Township of Benkelman","admin3":"06025"},{"geonameid":5445061,"name":"Township of Bird City","admin3":"06850"},{"geonameid":5445112,"name":"Township of Calhoun","admin3":"09950"},{"geonameid":5445192,"name":"Township of Cleveland Run","admin3":"14150"},{"geonameid":5445676,"name":"Township of Jaqua","admin3":"35025"},{"geonameid":5446115,"name":"Township of Orlando","admin3":"53050"},{"geonameid":5446722,"name":"Township of Wano","admin3":"75375","localeAltName":null}],"alternateNames":[{"alternatenameId":2080124,"geonameid":4273857,"isoLanguage":"en","alternateName":"Kansas","isPreferredName":true,"isShortName":true,"isColloquial":false,"isHistoric":false}]},"__N_SSG":true}