{"pageProps":{"locale":"ro","admin2":{"geonameid":662160,"name":"Oraş Zlatna","country":"RO","admin1":"01","admin2":"1936","admin3":"","latitude":"46.1375300","longitude":"23.2021500"},"admin1":{"geonameid":686581,"name":"Alba","admin1":"01"},"locations":[{"geonameid":684073,"name":"Botești","admin3":""},{"geonameid":683450,"name":"Budeni","admin3":""},{"geonameid":679587,"name":"Dealu Roatei","admin3":""},{"geonameid":679209,"name":"Dobrot","admin3":""},{"geonameid":678750,"name":"Dumbrava","admin3":""},{"geonameid":678343,"name":"Feneș","admin3":""},{"geonameid":677695,"name":"Galați","admin3":""},{"geonameid":675336,"name":"Izvoru Ampoiului","admin3":""},{"geonameid":671785,"name":"Opreşti","admin3":""},{"geonameid":670770,"name":"Pârău Gruiului","admin3":""},{"geonameid":671258,"name":"Pătrângeni","admin3":""},{"geonameid":670753,"name":"Pirita","admin3":""},{"geonameid":670288,"name":"Podu lui Paul","admin3":""},{"geonameid":668479,"name":"Runc","admin3":""},{"geonameid":668390,"name":"Ruși","admin3":""},{"geonameid":665694,"name":"Suseni","admin3":""},{"geonameid":664606,"name":"Trâmpoiele","admin3":""},{"geonameid":663868,"name":"Valea Bulzului","admin3":""},{"geonameid":663687,"name":"Valea lui Paul","admin3":""},{"geonameid":663585,"name":"Valea Mică","admin3":""},{"geonameid":662855,"name":"Vâltori","admin3":""},{"geonameid":662161,"name":"Zlatna","admin3":""}],"admin3":[],"alternateNames":[]},"__N_SSG":true}