{"pageProps":{"locale":"en","admin2":{"geonameid":2744101,"name":"Gemeente Zaltbommel","country":"NL","admin1":"03","admin2":"0297","admin3":"","latitude":"51.7868000","longitude":"5.1525400"},"admin1":{"geonameid":2755634,"name":"Provincie Gelderland","admin1":"03"},"locations":[{"geonameid":2760131,"name":"Aalst","admin3":""},{"geonameid":2759053,"name":"Bern","admin3":""},{"geonameid":2758426,"name":"Brakel","admin3":""},{"geonameid":2758207,"name":"Bruchem","admin3":""},{"geonameid":2757103,"name":"De Rietschoof","admin3":""},{"geonameid":2757318,"name":"Delwijnen","admin3":""},{"geonameid":2755751,"name":"Gameren","admin3":""},{"geonameid":2752915,"name":"Kerkwijk","admin3":""},{"geonameid":2750480,"name":"Nederhemert","admin3":""},{"geonameid":2750479,"name":"Nederhemert-Noord","admin3":""},{"geonameid":2750478,"name":"Nederhemert-Zuid","admin3":""},{"geonameid":2750379,"name":"Nieuwaal","admin3":""},{"geonameid":2749706,"name":"Oensel","admin3":""},{"geonameid":2748535,"name":"Poederoijen","admin3":""},{"geonameid":2748534,"name":"Poederoijensehoek","admin3":""},{"geonameid":2744102,"name":"Zaltbommel","admin3":""},{"geonameid":2743624,"name":"Zuilichem","admin3":""}],"admin3":[],"alternateNames":[{"alternatenameId":11907787,"geonameid":2755634,"isoLanguage":"de","alternateName":"Gelderland","isPreferredName":true,"isShortName":true,"isColloquial":false,"isHistoric":false}]},"__N_SSG":true}