{"pageProps":{"locale":"it","admin2":{"geonameid":3175120,"name":"Provincia dell' Aquila","country":"IT","admin1":"01","admin2":"AQ","admin3":"","latitude":"42.0833300","longitude":"13.6666700","localeAltName":null},"admin1":{"geonameid":3183560,"name":"Abruzzo","admin1":"01","localeAltName":"Abruzzo"},"locations":[{"geonameid":3183392,"name":"Aielli","admin3":"066002","localeAltName":null},{"geonameid":9036170,"name":"Aielli Stazione","admin3":"066002","localeAltName":null},{"geonameid":3183293,"name":"Alfedena","admin3":"066003","localeAltName":null},{"geonameid":3183015,"name":"Antrosano","admin3":"066006","localeAltName":null},{"geonameid":3182840,"name":"Arischia","admin3":"066049","localeAltName":null},{"geonameid":3182705,"name":"Ateleta","admin3":"066005","localeAltName":null},{"geonameid":3182636,"name":"Avezzano","admin3":"066006","localeAltName":null},{"geonameid":8949616,"name":"Badia","admin3":"066098","localeAltName":null},{"geonameid":6534802,"name":"Balsorano","admin3":"066007","localeAltName":null},{"geonameid":3182442,"name":"Balsorano Nuovo","admin3":"066007","localeAltName":null},{"geonameid":3182342,"name":"Barisciano","admin3":"066009","localeAltName":null},{"geonameid":3182333,"name":"Barrea","admin3":"066010","localeAltName":null},{"geonameid":6535644,"name":"Bugnara","admin3":"066012","localeAltName":null},{"geonameid":3181119,"name":"Camarda","admin3":"066049","localeAltName":null},{"geonameid":3180980,"name":"Campo di Giove","admin3":"066015","localeAltName":null},{"geonameid":9036166,"name":"Canistro Inferiore","admin3":"066017","localeAltName":null},{"geonameid":3180720,"name":"Capestrano","admin3":"066019","localeAltName":null},{"geonameid":3180712,"name":"Capistrello","admin3":"066020","localeAltName":null},{"geonameid":3180660,"name":"Cappelle","admin3":"066096","localeAltName":null},{"geonameid":3180400,"name":"Carsoli","admin3":"066025","localeAltName":null},{"geonameid":3179703,"name":"Castel di Sangro","admin3":"066028","localeAltName":null},{"geonameid":3179665,"name":"Castellafiume","admin3":"066029","localeAltName":null},{"geonameid":3179455,"name":"Castelvecchio Subequo","admin3":"066031","localeAltName":null},{"geonameid":3179216,"name":"Celano","admin3":"066032","localeAltName":null},{"geonameid":3179114,"name":"Cerchio","admin3":"066033","localeAltName":null},{"geonameid":3178965,"name":"Cese","admin3":"066006","localeAltName":null},{"geonameid":3178566,"name":"Civitella Roveto","admin3":"066036","localeAltName":null},{"geonameid":3178441,"name":"Collarmele","admin3":"066038","localeAltName":null},{"geonameid":3178422,"name":"Collebrincioni","admin3":"066049","localeAltName":null},{"geonameid":3178385,"name":"Collelongo","admin3":"066039","localeAltName":null},{"geonameid":8949425,"name":"Cominio","admin3":"066049","localeAltName":null},{"geonameid":3178135,"name":"Coppito","admin3":"066049","localeAltName":null},{"geonameid":3178103,"name":"Corfinio","admin3":"066041","localeAltName":null},{"geonameid":3176657,"name":"Fossa","admin3":"066044","localeAltName":null},{"geonameid":3176091,"name":"Gioia dei Marsi","admin3":"066046","localeAltName":null},{"geonameid":3175988,"name":"Goriano Sicoli","admin3":"066047","localeAltName":null},{"geonameid":3175498,"name":"Introdacqua","admin3":"066048","localeAltName":null},{"geonameid":3175121,"name":"L'Aquila","admin3":"066049","localeAltName":null},{"geonameid":8949827,"name":"La Grancia","admin3":"066057","localeAltName":null},{"geonameid":3174950,"name":"Lecce Nei Marsi","admin3":"066050","localeAltName":null},{"geonameid":3174510,"name":"Luco dei Marsi","admin3":"066051","localeAltName":null},{"geonameid":6534803,"name":"Lucoli","admin3":"066052","localeAltName":null},{"geonameid":3174261,"name":"Magliano De'Marsi","admin3":"066053","localeAltName":null},{"geonameid":3174034,"name":"Marana","admin3":"066056","localeAltName":null},{"geonameid":8950286,"name":"Marane","admin3":"066098","localeAltName":null},{"geonameid":3173765,"name":"Massa d'Albe-Corona","admin3":"066054","localeAltName":null},{"geonameid":3172788,"name":"Montereale","admin3":"066056","localeAltName":null},{"geonameid":3172696,"name":"Monticchio","admin3":"066049","localeAltName":null},{"geonameid":6535645,"name":"Morino","admin3":"066057","localeAltName":null},{"geonameid":9036403,"name":"Nucleo Industriale di Bazzano","admin3":"066049","localeAltName":null},{"geonameid":3171882,"name":"Ortucchio","admin3":"066064","localeAltName":null},{"geonameid":3171768,"name":"Ovindoli","admin3":"066065","localeAltName":null},{"geonameid":3171753,"name":"Pacentro","admin3":"066066","localeAltName":null},{"geonameid":3171702,"name":"Paganica-Tempera","admin3":"066049","localeAltName":null},{"geonameid":3171220,"name":"Pereto","admin3":"066067","localeAltName":null},{"geonameid":3171159,"name":"Pescasseroli","admin3":"066068","localeAltName":null},{"geonameid":3171141,"name":"Pescina","admin3":"066069","localeAltName":null},{"geonameid":3171136,"name":"Pescocostanzo","admin3":"066070","localeAltName":null},{"geonameid":3171077,"name":"Pettorano sul Gizio","admin3":"066071","localeAltName":null},{"geonameid":3170940,"name":"Pianola","admin3":"066049","localeAltName":null},{"geonameid":3170590,"name":"Pizzoli","admin3":"066072","localeAltName":null},{"geonameid":3170503,"name":"Poggio di Roio","admin3":"066049","localeAltName":null},{"geonameid":3170450,"name":"Poggio Picenze","admin3":"066073","localeAltName":null},{"geonameid":3169908,"name":"Pratola Peligna","admin3":"066075","localeAltName":null},{"geonameid":3169829,"name":"Preturo","admin3":"066049","localeAltName":null},{"geonameid":3169826,"name":"Prezza","admin3":"066076","localeAltName":null},{"geonameid":3182261,"name":"Progetto Case Bazzano","admin3":"066049","localeAltName":null},{"geonameid":9036119,"name":"Progetto Case Coppito 3","admin3":"066049","localeAltName":null},{"geonameid":9036123,"name":"Progetto Case Sassa Nsi","admin3":"066049","localeAltName":null},{"geonameid":3169626,"name":"Raiano","admin3":"066077","localeAltName":null},{"geonameid":8950203,"name":"Ridotti","admin3":"066007","localeAltName":null},{"geonameid":6535646,"name":"Rivisondoli","admin3":"066078","localeAltName":null},{"geonameid":3169187,"name":"Rocca di Botte","admin3":"066080","localeAltName":null},{"geonameid":3169182,"name":"Rocca di Mezzo","admin3":"066082","localeAltName":null},{"geonameid":3169197,"name":"Roccacasale","admin3":"066079","localeAltName":null},{"geonameid":3169145,"name":"Roccaraso","admin3":"066084","localeAltName":null},{"geonameid":3169120,"name":"Roccavivi","admin3":"066092","localeAltName":null},{"geonameid":3169076,"name":"Roio Piano","admin3":"066049","localeAltName":null},{"geonameid":3168549,"name":"San Benedetto dei Marsi","admin3":"066085","localeAltName":null},{"geonameid":8950313,"name":"San Cipriano","admin3":"066049","localeAltName":null},{"geonameid":3168437,"name":"San Demetrio Ne' Vestini","admin3":"066087","localeAltName":null},{"geonameid":3167935,"name":"San Nicola","admin3":"066101","localeAltName":null},{"geonameid":3167204,"name":"San Vincenzo Valle Roveto Superiore","admin3":"066092","localeAltName":null},{"geonameid":3167331,"name":"Sante Marie","admin3":"066089","localeAltName":null},{"geonameid":3167101,"name":"Sassa","admin3":"066049","localeAltName":null},{"geonameid":3166979,"name":"Scanno","admin3":"066093","localeAltName":null},{"geonameid":3166878,"name":"Scoppito","admin3":"066095","localeAltName":null},{"geonameid":3166856,"name":"Scurcola Marsicana","admin3":"066096","localeAltName":null},{"geonameid":3166034,"name":"Sulmona","admin3":"066098","localeAltName":null},{"geonameid":3165991,"name":"Tagliacozzo","admin3":"066099","localeAltName":null},{"geonameid":8436239,"name":"Tornimparte","admin3":"066101","localeAltName":null},{"geonameid":3165314,"name":"Trasacco","admin3":"066102","localeAltName":null},{"geonameid":8949712,"name":"Venere","admin3":"066069","localeAltName":null},{"geonameid":6534805,"name":"Villagrande","admin3":"066101","localeAltName":null},{"geonameid":3164222,"name":"Villalago","admin3":"066103","localeAltName":null},{"geonameid":3164120,"name":"Villavallelonga","admin3":"066106","localeAltName":null},{"geonameid":3164096,"name":"Villetta Barrea","admin3":"066107","localeAltName":null},{"geonameid":3164027,"name":"Vittorito","admin3":"066108","localeAltName":null}],"admin3":[{"geonameid":3165499,"name":"Tornimparte","admin3":"066101","localeAltName":null},{"geonameid":3167205,"name":"San Vincenzo Valle Roveto","admin3":"066092","localeAltName":null},{"geonameid":3182443,"name":"Balsorano","admin3":"066007","localeAltName":null},{"geonameid":6536398,"name":"Fagnano Alto","admin3":"066042"},{"geonameid":6537426,"name":"Ateleta","admin3":"066005","localeAltName":null},{"geonameid":6537427,"name":"Bisegna","admin3":"066011"},{"geonameid":6537428,"name":"Carapelle Calvisio","admin3":"066024"},{"geonameid":6537429,"name":"Carsoli","admin3":"066025","localeAltName":null},{"geonameid":6537430,"name":"Castellafiume","admin3":"066029","localeAltName":null},{"geonameid":6537431,"name":"Castelvecchio Subequo","admin3":"066031","localeAltName":null},{"geonameid":6537432,"name":"Civita d'Antino","admin3":"066034"},{"geonameid":6537433,"name":"Lecce nei Marsi","admin3":"066050","localeAltName":null},{"geonameid":6537434,"name":"Navelli","admin3":"066058"},{"geonameid":6537435,"name":"Pacentro","admin3":"066066","localeAltName":null},{"geonameid":6537436,"name":"Pescasseroli","admin3":"066068","localeAltName":null},{"geonameid":6537437,"name":"Pescocostanzo","admin3":"066070","localeAltName":null},{"geonameid":6537438,"name":"Pizzoli","admin3":"066072","localeAltName":null},{"geonameid":6537439,"name":"Poggio Picenze","admin3":"066073","localeAltName":null},{"geonameid":6537440,"name":"Pratola Peligna","admin3":"066075","localeAltName":null},{"geonameid":6537441,"name":"Raiano","admin3":"066077","localeAltName":null},{"geonameid":6537442,"name":"Roccacasale","admin3":"066079","localeAltName":null},{"geonameid":6537443,"name":"Rocca di Cambio","admin3":"066081"},{"geonameid":6537444,"name":"Rocca di Mezzo","admin3":"066082","localeAltName":null},{"geonameid":6537445,"name":"San Benedetto in Perillis","admin3":"066086"},{"geonameid":6537446,"name":"San Pio delle Camere","admin3":"066088"},{"geonameid":6537447,"name":"Scanno","admin3":"066093","localeAltName":null},{"geonameid":6537448,"name":"Scontrone","admin3":"066094"},{"geonameid":6537449,"name":"Scoppito","admin3":"066095","localeAltName":null},{"geonameid":6537450,"name":"Tione degli Abruzzi","admin3":"066100"},{"geonameid":6537451,"name":"Trasacco","admin3":"066102","localeAltName":null},{"geonameid":6537452,"name":"Villalago","admin3":"066103","localeAltName":null},{"geonameid":6537453,"name":"Villavallelonga","admin3":"066106","localeAltName":null},{"geonameid":6537454,"name":"Villetta Barrea","admin3":"066107","localeAltName":null},{"geonameid":6538841,"name":"Campotosto","admin3":"066016"},{"geonameid":6538842,"name":"Capestrano","admin3":"066019","localeAltName":null},{"geonameid":6538843,"name":"Capitignano","admin3":"066021"},{"geonameid":6538844,"name":"Cappadocia","admin3":"066023"},{"geonameid":6538845,"name":"Civitella Alfedena","admin3":"066035"},{"geonameid":6538846,"name":"Collelongo","admin3":"066039","localeAltName":null},{"geonameid":6538847,"name":"Introdacqua","admin3":"066048","localeAltName":null},{"geonameid":6538848,"name":"Magliano de' Marsi","admin3":"066053","localeAltName":null},{"geonameid":6538849,"name":"Molina Aterno","admin3":"066055"},{"geonameid":6538850,"name":"Ovindoli","admin3":"066065","localeAltName":null},{"geonameid":6538851,"name":"Pescina","admin3":"066069","localeAltName":null},{"geonameid":6538852,"name":"Rocca Pia","admin3":"066083"},{"geonameid":6538853,"name":"Roccaraso","admin3":"066084","localeAltName":null},{"geonameid":6538854,"name":"Sant'Eusanio Forconese","admin3":"066090"},{"geonameid":6539822,"name":"Alfedena","admin3":"066003","localeAltName":null},{"geonameid":6539823,"name":"Castel del Monte","admin3":"066026"},{"geonameid":6539824,"name":"Celano","admin3":"066032","localeAltName":null},{"geonameid":6539825,"name":"Opi","admin3":"066061"},{"geonameid":6539826,"name":"Sante Marie","admin3":"066089","localeAltName":null},{"geonameid":6540010,"name":"Fontecchio","admin3":"066043"},{"geonameid":6540011,"name":"Montereale","admin3":"066056","localeAltName":null},{"geonameid":6540291,"name":"Canistro","admin3":"066017","localeAltName":null},{"geonameid":6540292,"name":"Massa d'Albe","admin3":"066054","localeAltName":null},{"geonameid":6540704,"name":"Acciano","admin3":"066001"},{"geonameid":6540705,"name":"Anversa degli Abruzzi","admin3":"066004"},{"geonameid":6540706,"name":"Castel di Sangro","admin3":"066028","localeAltName":null},{"geonameid":6540707,"name":"Collarmele","admin3":"066038","localeAltName":null},{"geonameid":6540708,"name":"Collepietro","admin3":"066040"},{"geonameid":6540709,"name":"Gioia dei Marsi","admin3":"066046","localeAltName":null},{"geonameid":6540710,"name":"Luco dei Marsi","admin3":"066051","localeAltName":null},{"geonameid":6540711,"name":"Ofena","admin3":"066060"},{"geonameid":6540712,"name":"Rocca di Botte","admin3":"066080","localeAltName":null},{"geonameid":6540713,"name":"Sulmona","admin3":"066098","localeAltName":null},{"geonameid":6541197,"name":"Barisciano","admin3":"066009","localeAltName":null},{"geonameid":6541198,"name":"Barrea","admin3":"066010","localeAltName":null},{"geonameid":6541199,"name":"Campo di Giove","admin3":"066015","localeAltName":null},{"geonameid":6541200,"name":"Cansano","admin3":"066018"},{"geonameid":6541201,"name":"Castelvecchio Calvisio","admin3":"066030"},{"geonameid":6541202,"name":"Corfinio","admin3":"066041","localeAltName":null},{"geonameid":6541203,"name":"Ortucchio","admin3":"066064","localeAltName":null},{"geonameid":6541204,"name":"Pettorano sul Gizio","admin3":"066071","localeAltName":null},{"geonameid":6541205,"name":"Prata d'Ansidonia","admin3":"066074"},{"geonameid":6541206,"name":"San Demetrio ne' Vestini","admin3":"066087","localeAltName":null},{"geonameid":6541207,"name":"Santo Stefano di Sessanio","admin3":"066091"},{"geonameid":6541208,"name":"Secinaro","admin3":"066097"},{"geonameid":6541453,"name":"Calascio","admin3":"066014"},{"geonameid":6541690,"name":"Aielli","admin3":"066002","localeAltName":null},{"geonameid":6541691,"name":"Avezzano","admin3":"066006","localeAltName":null},{"geonameid":6541692,"name":"Civitella Roveto","admin3":"066036","localeAltName":null},{"geonameid":6541693,"name":"Gagliano Aterno","admin3":"066045"},{"geonameid":6541694,"name":"Goriano Sicoli","admin3":"066047","localeAltName":null},{"geonameid":6541695,"name":"Pereto","admin3":"066067","localeAltName":null},{"geonameid":6541696,"name":"Prezza","admin3":"066076","localeAltName":null},{"geonameid":6541697,"name":"Scurcola Marsicana","admin3":"066096","localeAltName":null},{"geonameid":6541698,"name":"Tagliacozzo","admin3":"066099","localeAltName":null},{"geonameid":6541699,"name":"Vittorito","admin3":"066108","localeAltName":null},{"geonameid":6541915,"name":"Barete","admin3":"066008"},{"geonameid":6541916,"name":"Caporciano","admin3":"066022"},{"geonameid":6541917,"name":"Castel di Ieri","admin3":"066027"},{"geonameid":6541918,"name":"Cerchio","admin3":"066033","localeAltName":null},{"geonameid":6541919,"name":"Cocullo","admin3":"066037"},{"geonameid":6541920,"name":"Fossa","admin3":"066044","localeAltName":null},{"geonameid":6541921,"name":"Oricola","admin3":"066062"},{"geonameid":6541922,"name":"Villa Santa Lucia degli Abruzzi","admin3":"066104"},{"geonameid":6541999,"name":"L'Aquila","admin3":"066049","localeAltName":null},{"geonameid":6542097,"name":"Capistrello","admin3":"066020","localeAltName":null},{"geonameid":6542226,"name":"Ortona dei Marsi","admin3":"066063"},{"geonameid":6542227,"name":"San Benedetto dei Marsi","admin3":"066085","localeAltName":null},{"geonameid":6542801,"name":"Lucoli","admin3":"066052","localeAltName":null},{"geonameid":6542802,"name":"Ocre","admin3":"066059"},{"geonameid":6543288,"name":"Cagnano Amiterno","admin3":"066013"},{"geonameid":6543289,"name":"Villa Sant'Angelo","admin3":"066105"},{"geonameid":6543623,"name":"Bugnara","admin3":"066012","localeAltName":null},{"geonameid":6543624,"name":"Morino","admin3":"066057","localeAltName":null},{"geonameid":6543625,"name":"Rivisondoli","admin3":"066078","localeAltName":null}],"alternateNames":[{"alternatenameId":2254448,"geonameid":3183560,"isoLanguage":"it","alternateName":"Abruzzo","isPreferredName":true,"isShortName":true,"isColloquial":false,"isHistoric":false}]},"__N_SSG":true}