{"pageProps":{"locale":"en","admin2":{"geonameid":2745538,"name":"Vijfheerenlanden","country":"NL","admin1":"09","admin2":"1961","admin3":"","latitude":"51.9166700","longitude":"5.0833300"},"admin1":{"geonameid":2745909,"name":"Provincie Utrecht","admin1":"09"},"locations":[{"geonameid":2760037,"name":"Achterdijk","admin3":""},{"geonameid":2759987,"name":"Achthoven","admin3":""},{"geonameid":2759849,"name":"Ameide","admin3":""},{"geonameid":2759369,"name":"Bazeldijk","admin3":""},{"geonameid":2758762,"name":"Boeicop","admin3":""},{"geonameid":2758296,"name":"Broek","admin3":""},{"geonameid":2757788,"name":"De Biezen","admin3":""},{"geonameid":2757586,"name":"De Hagen","admin3":""},{"geonameid":2756890,"name":"Diefdijk","admin3":""},{"geonameid":2755976,"name":"Everdingen","admin3":""},{"geonameid":2755683,"name":"Geer","admin3":""},{"geonameid":2754962,"name":"Hagestein","admin3":""},{"geonameid":11281930,"name":"Hei- en Boeicop","admin3":""},{"geonameid":2754602,"name":"Heicop","admin3":""},{"geonameid":2754441,"name":"Helsdingen","admin3":""},{"geonameid":2753750,"name":"Hoogeind","admin3":""},{"geonameid":2753713,"name":"Hoogewaard","admin3":""},{"geonameid":2752998,"name":"Kedichem","admin3":""},{"geonameid":2752408,"name":"Kortenhoeven","admin3":""},{"geonameid":2752397,"name":"Kortgerecht","admin3":""},{"geonameid":2752005,"name":"Lakerveld","admin3":""},{"geonameid":2751810,"name":"Leerbroek","admin3":""},{"geonameid":2751808,"name":"Leerdam","admin3":""},{"geonameid":2751665,"name":"Lexmond","admin3":""},{"geonameid":2751447,"name":"Loosdorp","admin3":""},{"geonameid":2751048,"name":"Meerkerk","admin3":""},{"geonameid":2750879,"name":"Middelkoop","admin3":""},{"geonameid":2750176,"name":"Nieuwland","admin3":""},{"geonameid":2749398,"name":"Oosterwijk","admin3":""},{"geonameid":11395833,"name":"Ossenwaard","admin3":""},{"geonameid":2748902,"name":"Oud-Schaayk","admin3":""},{"geonameid":2748862,"name":"Overboeicop","admin3":""},{"geonameid":2748842,"name":"Overheicop","admin3":""},{"geonameid":2747499,"name":"Schoonrewoerd","admin3":""},{"geonameid":2747115,"name":"Sluis","admin3":""},{"geonameid":2746437,"name":"Ter Lede","admin3":""},{"geonameid":2746321,"name":"Tienhoven","admin3":""},{"geonameid":2746322,"name":"Tienhoven","admin3":""},{"geonameid":2745580,"name":"Vianen","admin3":""},{"geonameid":2744582,"name":"Weverwijk","admin3":""},{"geonameid":2743905,"name":"Zijderveld","admin3":""},{"geonameid":2743811,"name":"Zouwendijk","admin3":""}],"admin3":[],"alternateNames":[{"alternatenameId":11907793,"geonameid":2745909,"isoLanguage":"de","alternateName":"Utrecht","isPreferredName":true,"isShortName":true,"isColloquial":false,"isHistoric":false}]},"__N_SSG":true}