{"pageProps":{"locale":"en","admin2":{"geonameid":2652975,"name":"Clackmannanshire","country":"GB","admin1":"SCT","admin2":"U1","admin3":"","latitude":"56.1666700","longitude":"-3.7500000"},"admin1":{"geonameid":2638360,"name":"Scotland","admin1":"SCT"},"locations":[{"geonameid":2657471,"name":"Alloa","admin3":""},{"geonameid":2657397,"name":"Alva","admin3":""},{"geonameid":2653939,"name":"Cambus","admin3":""},{"geonameid":2652976,"name":"Clackmannan","admin3":""},{"geonameid":11592114,"name":"Coalsnaughton","admin3":""},{"geonameid":12195582,"name":"Devonside","admin3":""},{"geonameid":2651151,"name":"Dollar","admin3":""},{"geonameid":2649213,"name":"Forest Mill","admin3":""},{"geonameid":11592281,"name":"Glenochil Village","admin3":""},{"geonameid":2645807,"name":"Kennet","admin3":""},{"geonameid":10376289,"name":"Kilbagie","admin3":""},{"geonameid":8299851,"name":"Menstrie","admin3":""},{"geonameid":2638496,"name":"Sauchie","admin3":""},{"geonameid":2635829,"name":"Tillicoultry","admin3":""},{"geonameid":11592219,"name":"Tullibody","admin3":""}],"admin3":[],"alternateNames":[]},"__N_SSG":true}