{"pageProps":{"locale":"en","admin2":{"geonameid":11353071,"name":"Fermanagh and Omagh","country":"GB","admin1":"NIR","admin2":"N09000006","admin3":"","latitude":"54.4425700","longitude":"-7.5029900"},"admin1":{"geonameid":2641364,"name":"Northern Ireland","admin1":"NIR"},"locations":[{"geonameid":2657423,"name":"Altamuskin"},{"geonameid":2657186,"name":"Ardess"},{"geonameid":2657152,"name":"Ardmoney"},{"geonameid":2657044,"name":"Arney"},{"geonameid":2656568,"name":"Ballagh Cross Roads"},{"geonameid":2656557,"name":"Ballinamallard"},{"geonameid":2656532,"name":"Ballycassidy"},{"geonameid":2656471,"name":"Ballyreagh"},{"geonameid":2656270,"name":"Barr"},{"geonameid":2655988,"name":"Belcoo"},{"geonameid":2655971,"name":"Bellanaleck"},{"geonameid":2966225,"name":"Belleek"},{"geonameid":2655964,"name":"Belleek"},{"geonameid":2655867,"name":"Beragh"},{"geonameid":2655493,"name":"Blackfort"},{"geonameid":2655374,"name":"Blaney"},{"geonameid":2655256,"name":"Boho"},{"geonameid":2655008,"name":"Bracky"},{"geonameid":2654565,"name":"Brookeborough"},{"geonameid":2653676,"name":"Carrickmore"},{"geonameid":2653037,"name":"Church Hill"},{"geonameid":2652991,"name":"Clabby"},{"geonameid":2652959,"name":"Clanabogan"},{"geonameid":2652935,"name":"Clareview"},{"geonameid":2652710,"name":"Coa"},{"geonameid":2652409,"name":"Cooneen"},{"geonameid":2652345,"name":"Corranny"},{"geonameid":2652039,"name":"Creagh"},{"geonameid":2651756,"name":"Culky"},{"geonameid":2651689,"name":"Curr"},{"geonameid":2651334,"name":"Derrygonnelly"},{"geonameid":2651332,"name":"Derrylin"},{"geonameid":2651134,"name":"Donagh"},{"geonameid":2651110,"name":"Dooish"},{"geonameid":2650976,"name":"Dromore"},{"geonameid":2650955,"name":"Drumard"},{"geonameid":2650948,"name":"Drumboy"},{"geonameid":2650945,"name":"Drumcard"},{"geonameid":2650913,"name":"Drumquin"},{"geonameid":2650811,"name":"Dullaghan"},{"geonameid":2650697,"name":"Dunmoyle"},{"geonameid":2650635,"name":"Dunwish"},{"geonameid":2650270,"name":"Ecclesville"},{"geonameid":2650238,"name":"Ederny"},{"geonameid":2649984,"name":"Enniskillen"},{"geonameid":2649895,"name":"Eskragh"},{"geonameid":2649742,"name":"Fairfield"},{"geonameid":2649733,"name":"Fairy Hill"},{"geonameid":2649398,"name":"Fintona"},{"geonameid":11048598,"name":"Florencecourt"},{"geonameid":2648850,"name":"Garrison"},{"geonameid":2648801,"name":"Garvaghy"},{"geonameid":2648488,"name":"Glenfern"},{"geonameid":2648440,"name":"Glenross"},{"geonameid":6951050,"name":"Gortaclare"},{"geonameid":2648286,"name":"Gortin"},{"geonameid":2648282,"name":"Gortnalee"},{"geonameid":2647976,"name":"Greencastle"},{"geonameid":2646672,"name":"Holywell"},{"geonameid":2646193,"name":"Inishmore"},{"geonameid":2646044,"name":"Irish Town"},{"geonameid":2646029,"name":"Irvinestown"},{"geonameid":2645893,"name":"Keeran"},{"geonameid":2645763,"name":"Kesh"},{"geonameid":2645616,"name":"Killybane"},{"geonameid":2645550,"name":"Kilskeery"},{"geonameid":2645529,"name":"Kinawley"},{"geonameid":2645136,"name":"Knockarevan"},{"geonameid":2645112,"name":"Knockmanoul"},{"geonameid":2645110,"name":"Knockmoyle"},{"geonameid":2645079,"name":"Lack"},{"geonameid":2645077,"name":"Lackagh"},{"geonameid":2644630,"name":"Leitrim"},{"geonameid":2644590,"name":"Letterbreen"},{"geonameid":2644414,"name":"Lisbellaw"},{"geonameid":2644407,"name":"Lislap"},{"geonameid":2644401,"name":"Lisnarrick"},{"geonameid":2644400,"name":"Lisnaskea"},{"geonameid":2643535,"name":"Lower Bracky"},{"geonameid":2643200,"name":"Magheraveely"},{"geonameid":2643195,"name":"Maguires Bridge"},{"geonameid":2642492,"name":"Milltown"},{"geonameid":2642356,"name":"Monea"},{"geonameid":2642100,"name":"Mount Pleasant"},{"geonameid":2642109,"name":"Mountfield"},{"geonameid":2642104,"name":"Mountjoy"},{"geonameid":2641982,"name":"Mullans Town"},{"geonameid":2641831,"name":"Nedsherry"},{"geonameid":2641512,"name":"Newtown Saville"},{"geonameid":2641517,"name":"Newtownbutler"},{"geonameid":2640967,"name":"Omagh"},{"geonameid":8050895,"name":"Portinode"},{"geonameid":2639697,"name":"Rahony"},{"geonameid":2639651,"name":"Ranelly"},{"geonameid":2639153,"name":"Roscavey"},{"geonameid":2639127,"name":"Rosscor"},{"geonameid":2639116,"name":"Rosslea"},{"geonameid":2639054,"name":"Rousky"},{"geonameid":2638416,"name":"Scardans"},{"geonameid":2638415,"name":"Scardans Lower"},{"geonameid":2638414,"name":"Scardans Upper"},{"geonameid":2638363,"name":"Scotch Town"},{"geonameid":2638332,"name":"Scribbagh"},{"geonameid":2638199,"name":"Seskinore"},{"geonameid":2637799,"name":"Sixmilecross"},{"geonameid":2636817,"name":"Stonefort"},{"geonameid":2636727,"name":"Stralongford"},{"geonameid":2636279,"name":"Tamlaght"},{"geonameid":2636109,"name":"Tempo"},{"geonameid":2635466,"name":"Trillick"},{"geonameid":2635376,"name":"Tully"},{"geonameid":2635377,"name":"Tully"},{"geonameid":2635143,"name":"Upper Bracky"}],"admin3":[],"alternateNames":[]},"__N_SSG":true}