{"pageProps":{"locale":"en","admin2":{"geonameid":11353072,"name":"Lisburn and Castlereagh","country":"GB","admin1":"NIR","admin2":"N09000007","admin3":"","latitude":"54.5082400","longitude":"-6.0524600"},"admin1":{"geonameid":2641364,"name":"Northern Ireland","admin1":"NIR"},"locations":[{"geonameid":2657642,"name":"Aghalee"},{"geonameid":2657297,"name":"Annahilt"},{"geonameid":2656554,"name":"Ballinderry Lower"},{"geonameid":2656552,"name":"Ballinderry Upper"},{"geonameid":2656494,"name":"Ballymacrevan"},{"geonameid":2655304,"name":"Boardmills"},{"geonameid":2653696,"name":"Carr"},{"geonameid":2653656,"name":"Carryduff"},{"geonameid":9409858,"name":"Crossnacreevy"},{"geonameid":2650952,"name":"Drumbeg"},{"geonameid":2650949,"name":"Drumbo"},{"geonameid":2650749,"name":"Dundonald"},{"geonameid":2650740,"name":"Dundrod"},{"geonameid":2648529,"name":"Glenavy"},{"geonameid":2646890,"name":"Hillsborough"},{"geonameid":2645652,"name":"Killaney"},{"geonameid":2645111,"name":"Knockmore"},{"geonameid":2645006,"name":"Lambeg"},{"geonameid":2644411,"name":"Lisburn"},{"geonameid":2643207,"name":"Magheragall"},{"geonameid":2642376,"name":"Moira"},{"geonameid":2642347,"name":"Moneyreagh"},{"geonameid":2641518,"name":"Newtownbreda"},{"geonameid":2640270,"name":"Pipers Cross Roads"},{"geonameid":2639846,"name":"Purdysburn"},{"geonameid":2639592,"name":"Ravernet"},{"geonameid":2637179,"name":"Sprucefield"},{"geonameid":2636797,"name":"Stonyford"},{"geonameid":2634770,"name":"Waringfield"}],"admin3":[],"alternateNames":[]},"__N_SSG":true}