{"pageProps":{"locale":"de","admin1":{"geonameid":2945356,"name":"Brandenburg","country":"DE","admin1":"11","latitude":"52.4590500","longitude":"13.0158200","localeAltName":"Brandenburg"},"admin2":[],"admin3":[{"geonameid":2925534,"name":"Frankfurt (Oder)","admin3":"12053","localeAltName":null},{"geonameid":2945354,"name":"Kreisfreie Stadt Brandenburg an der Havel","admin3":"12051","localeAltName":null},{"geonameid":2939810,"name":"Kreisfreie Stadt Cottbus","admin3":"12052","localeAltName":null},{"geonameid":2852455,"name":"Kreisfreie Stadt Potsdam","admin3":"12054","localeAltName":null},{"geonameid":3249079,"name":"Landkreis Barnim","admin3":"12060","localeAltName":null},{"geonameid":3249080,"name":"Landkreis Dahme-Spreewald","admin3":"12061","localeAltName":null},{"geonameid":3249081,"name":"Landkreis Elbe-Elster","admin3":"12062","localeAltName":null},{"geonameid":3249082,"name":"Landkreis Havelland","admin3":"12063","localeAltName":null},{"geonameid":3249083,"name":"Landkreis Märkisch-Oderland","admin3":"12064","localeAltName":null},{"geonameid":3249084,"name":"Landkreis Oberhavel","admin3":"12065","localeAltName":null},{"geonameid":3249085,"name":"Landkreis Oberspreewald-Lausitz","admin3":"12066","localeAltName":null},{"geonameid":3249086,"name":"Landkreis Oder-Spree","admin3":"12067","localeAltName":null},{"geonameid":3249087,"name":"Landkreis Ostprignitz-Ruppin","admin3":"12068","localeAltName":null},{"geonameid":2852456,"name":"Landkreis Potsdam-Mittelmark","admin3":"12069","localeAltName":null},{"geonameid":3249088,"name":"Landkreis Prignitz","admin3":"12070","localeAltName":null},{"geonameid":3249090,"name":"Landkreis Teltow-Fläming","admin3":"12072","localeAltName":null},{"geonameid":3249091,"name":"Landkreis Uckermark","admin3":"12073","localeAltName":null},{"geonameid":3249089,"name":"Wokrejs Sprjewja-Nysa","admin3":"12071","localeAltName":null}],"country":{"geonameid":2921044,"country":"DE","name":"Federal Republic of Germany","localeAltName":"Deutschland"},"alternateNames":[{"alternatenameId":1557479,"geonameid":2921044,"isoLanguage":"de","alternateName":"Deutschland","isPreferredName":true,"isShortName":true,"isColloquial":false,"isHistoric":false},{"alternatenameId":1557482,"geonameid":2921044,"isoLanguage":"en","alternateName":"Germany","isPreferredName":true,"isShortName":true,"isColloquial":false,"isHistoric":false},{"alternatenameId":2080501,"geonameid":2945356,"isoLanguage":"de","alternateName":"Brandenburg","isPreferredName":true,"isShortName":true,"isColloquial":false,"isHistoric":false},{"alternatenameId":2426270,"geonameid":2945356,"isoLanguage":"en","alternateName":"Brandenburg","isPreferredName":true,"isShortName":true,"isColloquial":false,"isHistoric":false}]},"__N_SSG":true}