{"pageProps":{"locale":"en","admin2":{"geonameid":2755270,"name":"Gemeente Berg en Dal","country":"NL","admin1":"03","admin2":"1945","admin3":"","latitude":"51.7841200","longitude":"5.9296800"},"admin1":{"geonameid":2755634,"name":"Provincie Gelderland","admin1":"03"},"locations":[{"geonameid":2759345,"name":"Beek","admin3":""},{"geonameid":2759147,"name":"Berg en Dal","admin3":""},{"geonameid":2758391,"name":"Bredeweg","admin3":""},{"geonameid":2757923,"name":"Colonjes","admin3":""},{"geonameid":2757493,"name":"De Horst","admin3":""},{"geonameid":2756041,"name":"Erlecom","admin3":""},{"geonameid":2755372,"name":"Grafwegen","admin3":""},{"geonameid":2755283,"name":"Groenlanden","admin3":""},{"geonameid":2755272,"name":"Groesbeek","admin3":""},{"geonameid":2754528,"name":"Heikant","admin3":""},{"geonameid":2754518,"name":"Heilig Landstichting","admin3":""},{"geonameid":2753110,"name":"Kamp","admin3":""},{"geonameid":2752970,"name":"Kekerdom","admin3":""},{"geonameid":2752017,"name":"Lagewald","admin3":""},{"geonameid":2751682,"name":"Leuth","admin3":""},{"geonameid":2751025,"name":"Meerwijk","admin3":""},{"geonameid":2750797,"name":"Millingen aan de Rijn","admin3":""},{"geonameid":2749569,"name":"Ooij","admin3":""},{"geonameid":2748646,"name":"Persingen","admin3":""},{"geonameid":2748567,"name":"Plak","admin3":""},{"geonameid":2747065,"name":"Smorenhoek","admin3":""},{"geonameid":2746326,"name":"Tiengeboden","admin3":""},{"geonameid":2746012,"name":"Ubbergen","admin3":""},{"geonameid":2744831,"name":"Wercheren","admin3":""},{"geonameid":2744013,"name":"Zeeland","admin3":""}],"admin3":[],"alternateNames":[{"alternatenameId":11907787,"geonameid":2755634,"isoLanguage":"de","alternateName":"Gelderland","isPreferredName":true,"isShortName":true,"isColloquial":false,"isHistoric":false}]},"__N_SSG":true}