{"pageProps":{"locale":"en","admin2":{"geonameid":2744331,"name":"Gemeente Winterswijk","country":"NL","admin1":"03","admin2":"0294","admin3":"","latitude":"51.9722600","longitude":"6.7254400"},"admin1":{"geonameid":2755634,"name":"Provincie Gelderland","admin1":"03"},"locations":[{"geonameid":2758835,"name":"Blekkink","admin3":""},{"geonameid":2758315,"name":"Brinke","admin3":""},{"geonameid":2758314,"name":"Brinkheurne","admin3":""},{"geonameid":2753407,"name":"Huppel","admin3":""},{"geonameid":2752381,"name":"Kotten","admin3":""},{"geonameid":2751997,"name":"Lammers","admin3":""},{"geonameid":2751076,"name":"Meddo","admin3":""},{"geonameid":2750784,"name":"Miste","admin3":""},{"geonameid":2748316,"name":"Ratum","admin3":""},{"geonameid":2744332,"name":"Winterswijk","admin3":""},{"geonameid":2757915,"name":"Winterswijk Corle","admin3":""},{"geonameid":2754368,"name":"Winterswijk Henxel","admin3":""},{"geonameid":10860375,"name":"Winterswijk Kotten","admin3":""},{"geonameid":2744187,"name":"Woold","admin3":""}],"admin3":[],"alternateNames":[{"alternatenameId":11907787,"geonameid":2755634,"isoLanguage":"de","alternateName":"Gelderland","isPreferredName":true,"isShortName":true,"isColloquial":false,"isHistoric":false}]},"__N_SSG":true}