{"pageProps":{"locale":"en","admin2":{"geonameid":6544256,"name":"Gemeente Montferland","country":"NL","admin1":"03","admin2":"1955","admin3":"","latitude":"51.9192500","longitude":"6.2133300"},"admin1":{"geonameid":2755634,"name":"Provincie Gelderland","admin1":"03"},"locations":[{"geonameid":2747357,"name":"'s-Heerenberg","admin3":""},{"geonameid":2759585,"name":"Azewijn","admin3":""},{"geonameid":2759344,"name":"Beek gem Montferland","admin3":""},{"geonameid":12036259,"name":"Bergh","admin3":""},{"geonameid":2758434,"name":"Braamt","admin3":""},{"geonameid":2756896,"name":"Didam","admin3":""},{"geonameid":6544699,"name":"Friesland","admin3":""},{"geonameid":2755348,"name":"Greffelkamp","admin3":""},{"geonameid":2754709,"name":"Heegh","admin3":""},{"geonameid":2754587,"name":"Heide","admin3":""},{"geonameid":2753863,"name":"Holthuizen","admin3":""},{"geonameid":2752833,"name":"Kilder","admin3":""},{"geonameid":2752789,"name":"Klein-Azewijn","admin3":""},{"geonameid":2751717,"name":"Lengel","admin3":""},{"geonameid":2751514,"name":"Loerbeek","admin3":""},{"geonameid":2751506,"name":"Loil","admin3":""},{"geonameid":2750358,"name":"Nieuw-Dijk","admin3":""},{"geonameid":2749165,"name":"Oud-Dijk","admin3":""},{"geonameid":2746673,"name":"Stokkum","admin3":""},{"geonameid":2745587,"name":"Vethuizen","admin3":""},{"geonameid":2745490,"name":"Vinkwijk","admin3":""},{"geonameid":2744469,"name":"Wijnbergen","admin3":""},{"geonameid":2744031,"name":"Zeddam","admin3":""}],"admin3":[],"alternateNames":[{"alternatenameId":11907787,"geonameid":2755634,"isoLanguage":"de","alternateName":"Gelderland","isPreferredName":true,"isShortName":true,"isColloquial":false,"isHistoric":false}]},"__N_SSG":true}