{"pageProps":{"locale":"en","admin2":{"geonameid":3333175,"name":"North East Lincolnshire","country":"GB","admin1":"ENG","admin2":"J2","admin3":"","latitude":"53.5333300","longitude":"-0.0833300"},"admin1":{"geonameid":6269131,"name":"England","admin1":"ENG"},"locations":[{"geonameid":2656972,"name":"Ashby cum Fenby"},{"geonameid":2656717,"name":"Aylesby"},{"geonameid":2656021,"name":"Beelsby"},{"geonameid":2654984,"name":"Bradley"},{"geonameid":2654704,"name":"Brigsley"},{"geonameid":2652885,"name":"Cleethorpes"},{"geonameid":2650349,"name":"East Ravendale"},{"geonameid":2648133,"name":"Great Coates"},{"geonameid":7304130,"name":"Grimbsy"},{"geonameid":2647878,"name":"Grimsby"},{"geonameid":2647706,"name":"Habrough"},{"geonameid":2647350,"name":"Hatcliffe"},{"geonameid":2647229,"name":"Healing"},{"geonameid":2646435,"name":"Humberston"},{"geonameid":2646256,"name":"Immingham"},{"geonameid":2646056,"name":"Irby upon Humber"},{"geonameid":2645080,"name":"Laceby"},{"geonameid":2644349,"name":"Little Coates"},{"geonameid":11592751,"name":"New Waltham"},{"geonameid":2641029,"name":"Old Clee"},{"geonameid":2638401,"name":"Scartho"},{"geonameid":2637108,"name":"Stallingborough"},{"geonameid":2634844,"name":"Waltham"},{"geonameid":11550770,"name":"West Marsh"},{"geonameid":2634286,"name":"West Ravendale"},{"geonameid":2633706,"name":"Wold Newton"}],"admin3":[{"geonameid":7290727,"name":"Ashby cum Fenby","admin3":"00FC001"},{"geonameid":7290839,"name":"New Waltham","admin3":"00FC016"},{"geonameid":7290955,"name":"Hawerby cum Beesby","admin3":"00FC010"},{"geonameid":7296068,"name":"Irby","admin3":"00FC014"},{"geonameid":7296114,"name":"Humberston","admin3":"00FC012"},{"geonameid":7296115,"name":"Stallingborough","admin3":"00FC017"},{"geonameid":7296499,"name":"Waltham","admin3":"00FC018"},{"geonameid":7296531,"name":"Aylesby","admin3":"00FC002"},{"geonameid":7298226,"name":"Bradley","admin3":"00FC005"},{"geonameid":7298227,"name":"East Ravendale","admin3":"00FC007"},{"geonameid":7298228,"name":"Hatcliffe","admin3":"00FC009"},{"geonameid":7298229,"name":"Healing","admin3":"00FC011"},{"geonameid":7298230,"name":"Immingham","admin3":"00FC013"},{"geonameid":7298231,"name":"Laceby","admin3":"00FC015"},{"geonameid":7298232,"name":"West Ravendale","admin3":"00FC019"},{"geonameid":7298233,"name":"Wold Newton","admin3":"00FC020"},{"geonameid":7298234,"name":"Great Coates","admin3":"00FC021"},{"geonameid":7298801,"name":"Barnoldby Le Beck","admin3":"00FC003"},{"geonameid":7298802,"name":"Beelsby","admin3":"00FC004"},{"geonameid":7298804,"name":"Brigsley","admin3":"00FC006"},{"geonameid":7298805,"name":"Habrough","admin3":"00FC008"}],"alternateNames":[]},"__N_SSG":true}