{"pageProps":{"locale":"it","admin2":{"geonameid":2524169,"name":"Messina","country":"IT","admin1":"15","admin2":"ME","admin3":"","latitude":"38.0500000","longitude":"14.8666700","localeAltName":"Messina"},"admin1":{"geonameid":2523119,"name":"Sicilia","admin1":"15","localeAltName":null},"locations":[{"geonameid":8950200,"name":"Acquaficara","admin3":"083005","localeAltName":null},{"geonameid":2525773,"name":"Acquedolci","admin3":"083107","localeAltName":null},{"geonameid":2525752,"name":"Alcara Li Fusi","admin3":"083001","localeAltName":null},{"geonameid":2525747,"name":"Alì","admin3":"083002","localeAltName":null},{"geonameid":6535664,"name":"Alì Terme","admin3":"083003","localeAltName":null},{"geonameid":2525701,"name":"Antillo","admin3":"083004","localeAltName":null},{"geonameid":8949463,"name":"Archi","admin3":"083077","localeAltName":null},{"geonameid":2525630,"name":"Bafia","admin3":"083016","localeAltName":null},{"geonameid":2525597,"name":"Barcellona Pozzo di Gotto","admin3":"083005","localeAltName":null},{"geonameid":2525588,"name":"Basicò","admin3":"083006","localeAltName":null},{"geonameid":2525499,"name":"Brolo","admin3":"083007","localeAltName":null},{"geonameid":8949640,"name":"Calarco","admin3":"083084","localeAltName":null},{"geonameid":2525397,"name":"Canneto","admin3":"083041","localeAltName":null},{"geonameid":2525387,"name":"Capizzi","admin3":"083008","localeAltName":null},{"geonameid":2525384,"name":"Capo d'Orlando","admin3":"083009","localeAltName":null},{"geonameid":2525344,"name":"Caronia","admin3":"083011","localeAltName":null},{"geonameid":9036133,"name":"Case Nuove Russo","admin3":"083066","localeAltName":null},{"geonameid":2525104,"name":"Castanea delle Furie","admin3":"083048","localeAltName":null},{"geonameid":2525100,"name":"Castel di Lucio","admin3":"083013","localeAltName":null},{"geonameid":2525099,"name":"Castel di Tusa","admin3":"083101","localeAltName":null},{"geonameid":2525088,"name":"Castell'Umberto","admin3":"083014","localeAltName":null},{"geonameid":2525073,"name":"Castroreale","admin3":"083016","localeAltName":null},{"geonameid":2525015,"name":"Cesarò","admin3":"083017","localeAltName":null},{"geonameid":9036360,"name":"Chianchitta-Pallio","admin3":"083032","localeAltName":null},{"geonameid":8948818,"name":"Chianchitta-Trappitello","admin3":"083097","localeAltName":null},{"geonameid":8950005,"name":"Colla Maffone","admin3":"083039","localeAltName":null},{"geonameid":8949525,"name":"Cresta","admin3":"083060","localeAltName":null},{"geonameid":8949569,"name":"Curcuraci","admin3":"083048","localeAltName":null},{"geonameid":8950258,"name":"Evangelisti-Rubino","admin3":"083023","localeAltName":null},{"geonameid":2524801,"name":"Falcone","admin3":"083019","localeAltName":null},{"geonameid":2524792,"name":"Faro Superiore","admin3":"083048","localeAltName":null},{"geonameid":2524764,"name":"Ficarra","admin3":"083020","localeAltName":null},{"geonameid":8950204,"name":"Fiumara","admin3":"083068","localeAltName":null},{"geonameid":2524745,"name":"Fiumedinisi","admin3":"083021","localeAltName":null},{"geonameid":2524735,"name":"Floresta","admin3":"083022","localeAltName":null},{"geonameid":6534813,"name":"Fondachelli-Fantina","admin3":"083023","localeAltName":null},{"geonameid":2524727,"name":"Fondachello","admin3":"083103","localeAltName":null},{"geonameid":2524715,"name":"Forza d'Agrò","admin3":"083024","localeAltName":null},{"geonameid":2524707,"name":"Francavilla di Sicilia","admin3":"083025","localeAltName":null},{"geonameid":2524698,"name":"Frazzanò","admin3":"083026","localeAltName":null},{"geonameid":2524694,"name":"Furci Siculo","admin3":"083027","localeAltName":null},{"geonameid":6535321,"name":"Furnari","admin3":"083028","localeAltName":null},{"geonameid":2524688,"name":"Gaggi","admin3":"083029","localeAltName":null},{"geonameid":2524679,"name":"Galati Mamertino","admin3":"083030","localeAltName":null},{"geonameid":2524634,"name":"Gesso","admin3":"083048","localeAltName":null},{"geonameid":8948933,"name":"Giammoro","admin3":"083064","localeAltName":null},{"geonameid":8949535,"name":"Giampilieri","admin3":"083048","localeAltName":null},{"geonameid":2524622,"name":"Giardini-Naxos","admin3":"083032","localeAltName":null},{"geonameid":2524604,"name":"Gioiosa Marea","admin3":"083033","localeAltName":null},{"geonameid":8949292,"name":"Gliaca","admin3":"083068","localeAltName":null},{"geonameid":6535665,"name":"Graniti","admin3":"083034","localeAltName":null},{"geonameid":6535322,"name":"Gualtieri Sicaminò","admin3":"083035","localeAltName":null},{"geonameid":8949061,"name":"Guidomandri Marina","admin3":"083094","localeAltName":null},{"geonameid":9036147,"name":"Itala Marina","admin3":"083036","localeAltName":null},{"geonameid":2524471,"name":"La Gala","admin3":"083005","localeAltName":null},{"geonameid":2524443,"name":"Larderia","admin3":"083048","localeAltName":null},{"geonameid":2524400,"name":"Letojanni","admin3":"083038","localeAltName":null},{"geonameid":6535666,"name":"Limina","admin3":"083040","localeAltName":null},{"geonameid":2524379,"name":"Lipari","admin3":"083041","localeAltName":null},{"geonameid":2524369,"name":"Longi","admin3":"083042","localeAltName":null},{"geonameid":2524321,"name":"Malfa","admin3":"083043","localeAltName":null},{"geonameid":2524313,"name":"Malvagna","admin3":"083044","localeAltName":null},{"geonameid":2524310,"name":"Mandanici","admin3":"083045","localeAltName":null},{"geonameid":2525342,"name":"Marina di Caronia","admin3":"083011","localeAltName":null},{"geonameid":2524199,"name":"Mazzarrà Sant'Andrea","admin3":"083046","localeAltName":null},{"geonameid":9036190,"name":"Mazzeo","admin3":"083097","localeAltName":null},{"geonameid":2524175,"name":"Merì","admin3":"083047","localeAltName":null},{"geonameid":2524170,"name":"Messina","admin3":"083048","localeAltName":null},{"geonameid":2524155,"name":"Milazzo","admin3":"083049","localeAltName":null},{"geonameid":2524146,"name":"Mili San Pietro","admin3":"083048","localeAltName":null},{"geonameid":2524144,"name":"Militello Rosmarino","admin3":"083050","localeAltName":null},{"geonameid":2524131,"name":"Mirto","admin3":"083051","localeAltName":null},{"geonameid":2524122,"name":"Mistretta","admin3":"083052","localeAltName":null},{"geonameid":2524114,"name":"Moio Alcantara","admin3":"083053","localeAltName":null},{"geonameid":2524092,"name":"Monforte Marina","admin3":"083054","localeAltName":null},{"geonameid":2524093,"name":"Monforte San Giorgio","admin3":"083054","localeAltName":null},{"geonameid":2524089,"name":"Mongiove","admin3":"083066","localeAltName":null},{"geonameid":2524088,"name":"Mongiuffi Melia","admin3":"083055","localeAltName":null},{"geonameid":2524080,"name":"Montagnareale","admin3":"083056","localeAltName":null},{"geonameid":2524079,"name":"Montalbano Elicona","admin3":"083057","localeAltName":null},{"geonameid":6290282,"name":"Motta Camastra","admin3":"083058","localeAltName":null},{"geonameid":6535323,"name":"Motta d'Affermo","admin3":"083059","localeAltName":null},{"geonameid":2524020,"name":"Naso","admin3":"083060","localeAltName":null},{"geonameid":2524003,"name":"Nizza di Sicilia","admin3":"083061","localeAltName":null},{"geonameid":2523994,"name":"Novara di Sicilia","admin3":"083062","localeAltName":null},{"geonameid":2523972,"name":"Oliveri","admin3":"083063","localeAltName":null},{"geonameid":6535667,"name":"Pace del Mela","admin3":"083064","localeAltName":null},{"geonameid":2523864,"name":"Patti","admin3":"083066","localeAltName":null},{"geonameid":2523813,"name":"Pettineo","admin3":"083067","localeAltName":null},{"geonameid":8015337,"name":"Pianoconte","admin3":"083041","localeAltName":null},{"geonameid":8659185,"name":"Protonotaro","admin3":"083016","localeAltName":null},{"geonameid":2523663,"name":"Quattropani","admin3":"083041","localeAltName":null},{"geonameid":2523658,"name":"Raccuja","admin3":"083069","localeAltName":null},{"geonameid":2523626,"name":"Reitano","admin3":"083070","localeAltName":null},{"geonameid":8950009,"name":"Rina","admin3":"083093","localeAltName":null},{"geonameid":2524441,"name":"Rocca di Capri Leone","admin3":"083010","localeAltName":null},{"geonameid":2523601,"name":"Roccalumera","admin3":"083072","localeAltName":null},{"geonameid":2523597,"name":"Roccavaldina","admin3":"083073","localeAltName":null},{"geonameid":2523594,"name":"Roccella Valdemone","admin3":"083074","localeAltName":null},{"geonameid":8949848,"name":"Rocchenere","admin3":"083065","localeAltName":null},{"geonameid":2523592,"name":"Rodì","admin3":"083075","localeAltName":null},{"geonameid":8949645,"name":"Rodia-S.saba","admin3":"083048","localeAltName":null},{"geonameid":6535668,"name":"Rometta","admin3":"083076","localeAltName":null},{"geonameid":8948787,"name":"Rometta Marea","admin3":"083076","localeAltName":null},{"geonameid":2523554,"name":"Salice","admin3":"083048","localeAltName":null},{"geonameid":8949831,"name":"San Basilio","admin3":"083030","localeAltName":null},{"geonameid":2523494,"name":"San Filippo del Mela","admin3":"083077","localeAltName":null},{"geonameid":2523492,"name":"San Filippo Superiore","admin3":"083048","localeAltName":null},{"geonameid":2523487,"name":"San Fratello","admin3":"083078","localeAltName":null},{"geonameid":2523476,"name":"San Giorgio","admin3":"083033","localeAltName":null},{"geonameid":2523425,"name":"San Marco d'Alunzio","admin3":"083079","localeAltName":null},{"geonameid":2523400,"name":"San Paolo-Cannistrà","admin3":"083005","localeAltName":null},{"geonameid":9036182,"name":"San Pier Marina","admin3":"083080","localeAltName":null},{"geonameid":2523398,"name":"San Pier Niceto","admin3":"083080","localeAltName":null},{"geonameid":2523397,"name":"San Piero Patti","admin3":"083081","localeAltName":null},{"geonameid":2523375,"name":"San Salvatore di Fitalia","admin3":"083082","localeAltName":null},{"geonameid":2523271,"name":"San Teodoro","admin3":"083090","localeAltName":null},{"geonameid":2523347,"name":"Sant'Agata di Militello","admin3":"083084","localeAltName":null},{"geonameid":2523340,"name":"Sant'Alessio Siculo","admin3":"083085","localeAltName":null},{"geonameid":2523307,"name":"Sant'Angelo di Brolo","admin3":"083088","localeAltName":null},{"geonameid":2523354,"name":"Santa Domenica Vittoria","admin3":"083083","localeAltName":null},{"geonameid":2523333,"name":"Santa Lucia del Mela","admin3":"083086","localeAltName":null},{"geonameid":2523317,"name":"Santa Marina Salina","admin3":"083087","localeAltName":null},{"geonameid":2523282,"name":"Santa Teresa di Riva","admin3":"083089","localeAltName":null},{"geonameid":2523250,"name":"Santo Stefano di Camastra","admin3":"083091","localeAltName":null},{"geonameid":2523234,"name":"Saponara","admin3":"083092","localeAltName":null},{"geonameid":9036378,"name":"Saponara Marittima","admin3":"083092","localeAltName":null},{"geonameid":2523204,"name":"Scaletta Zanclea","admin3":"083094","localeAltName":null},{"geonameid":8949600,"name":"Scarcelli","admin3":"083092","localeAltName":null},{"geonameid":8949237,"name":"Sfaranda","admin3":"083014","localeAltName":null},{"geonameid":2523090,"name":"Sinagra","admin3":"083095","localeAltName":null},{"geonameid":2523041,"name":"Spadafora","admin3":"083096","localeAltName":null},{"geonameid":2523035,"name":"Sparta'","admin3":"083048","localeAltName":null},{"geonameid":6691846,"name":"Stromboli","admin3":"083041","localeAltName":null},{"geonameid":2522975,"name":"Taormina","admin3":"083097","localeAltName":null},{"geonameid":6534814,"name":"Terme","admin3":"083106","localeAltName":null},{"geonameid":6604722,"name":"Tonnarella","admin3":"083028","localeAltName":null},{"geonameid":2522908,"name":"Torregrotta","admin3":"083098","localeAltName":null},{"geonameid":2522900,"name":"Torrenova","admin3":"083108","localeAltName":null},{"geonameid":2522885,"name":"Tortorici","admin3":"083099","localeAltName":null},{"geonameid":2522839,"name":"Tusa","admin3":"083101","localeAltName":null},{"geonameid":2522835,"name":"Ucria","admin3":"083102","localeAltName":null},{"geonameid":9036393,"name":"Venetico Marina","admin3":"083104","localeAltName":null},{"geonameid":8949351,"name":"Vigliatore 2","admin3":"083106","localeAltName":null},{"geonameid":2522761,"name":"Villafranca Tirrena","admin3":"083105","localeAltName":null}],"admin3":[{"geonameid":2523941,"name":"Pace del Mela","admin3":"083064","localeAltName":null},{"geonameid":2524387,"name":"Limina","admin3":"083040","localeAltName":null},{"geonameid":2524401,"name":"Letojanni","admin3":"083038","localeAltName":null},{"geonameid":6535961,"name":"Giardini-Naxos","admin3":"083032","localeAltName":null},{"geonameid":6536023,"name":"Fondachelli-Fantina","admin3":"083023","localeAltName":null},{"geonameid":6536405,"name":"Scaletta Zanclea","admin3":"083094","localeAltName":null},{"geonameid":6537754,"name":"Barcellona Pozzo di Gotto","admin3":"083005","localeAltName":null},{"geonameid":6537755,"name":"Capizzi","admin3":"083008","localeAltName":null},{"geonameid":6537756,"name":"Castroreale","admin3":"083016","localeAltName":null},{"geonameid":6537757,"name":"Fiumedinisi","admin3":"083021","localeAltName":null},{"geonameid":6537758,"name":"Floresta","admin3":"083022","localeAltName":null},{"geonameid":6537759,"name":"Forza d'Agrò","admin3":"083024","localeAltName":null},{"geonameid":6537760,"name":"Galati Mamertino","admin3":"083030","localeAltName":null},{"geonameid":6537761,"name":"Librizzi","admin3":"083039","localeAltName":null},{"geonameid":6537762,"name":"Malvagna","admin3":"083044","localeAltName":null},{"geonameid":6537763,"name":"Mazzarrà Sant'Andrea","admin3":"083046","localeAltName":null},{"geonameid":6537764,"name":"Merì","admin3":"083047","localeAltName":null},{"geonameid":6537765,"name":"Militello Rosmarino","admin3":"083050","localeAltName":null},{"geonameid":6537766,"name":"Motta Camastra","admin3":"083058","localeAltName":null},{"geonameid":6537767,"name":"Naso","admin3":"083060","localeAltName":null},{"geonameid":6537768,"name":"Pettineo","admin3":"083067","localeAltName":null},{"geonameid":6537769,"name":"Piraino","admin3":"083068","localeAltName":null},{"geonameid":6537770,"name":"Sant'Agata di Militello","admin3":"083084","localeAltName":null},{"geonameid":6537771,"name":"Santa Lucia del Mela","admin3":"083086","localeAltName":null},{"geonameid":6537772,"name":"Sant'Angelo di Brolo","admin3":"083088","localeAltName":null},{"geonameid":6537773,"name":"Taormina","admin3":"083097","localeAltName":null},{"geonameid":6537774,"name":"Tortorici","admin3":"083099","localeAltName":null},{"geonameid":6539144,"name":"Alcara li Fusi","admin3":"083001","localeAltName":null},{"geonameid":6539145,"name":"Basicò","admin3":"083006","localeAltName":null},{"geonameid":6539146,"name":"Capri Leone","admin3":"083010","localeAltName":null},{"geonameid":6539147,"name":"Castel di Lucio","admin3":"083013","localeAltName":null},{"geonameid":6539148,"name":"Francavilla di Sicilia","admin3":"083025","localeAltName":null},{"geonameid":6539149,"name":"Gaggi","admin3":"083029","localeAltName":null},{"geonameid":6539150,"name":"Gioiosa Marea","admin3":"083033","localeAltName":null},{"geonameid":6539151,"name":"Itala","admin3":"083036","localeAltName":null},{"geonameid":6539152,"name":"Leni","admin3":"083037"},{"geonameid":6539153,"name":"Lipari","admin3":"083041","localeAltName":null},{"geonameid":6539154,"name":"Malfa","admin3":"083043","localeAltName":null},{"geonameid":6539155,"name":"Mandanici","admin3":"083045","localeAltName":null},{"geonameid":6539156,"name":"Novara di Sicilia","admin3":"083062","localeAltName":null},{"geonameid":6539157,"name":"Roccella Valdemone","admin3":"083074","localeAltName":null},{"geonameid":6539158,"name":"San Fratello","admin3":"083078","localeAltName":null},{"geonameid":6539159,"name":"San Marco d'Alunzio","admin3":"083079","localeAltName":null},{"geonameid":6539160,"name":"San Piero Patti","admin3":"083081","localeAltName":null},{"geonameid":6539161,"name":"Santa Domenica Vittoria","admin3":"083083","localeAltName":null},{"geonameid":6539162,"name":"Sant'Alessio Siculo","admin3":"083085","localeAltName":null},{"geonameid":6539163,"name":"Santa Marina Salina","admin3":"083087","localeAltName":null},{"geonameid":6539164,"name":"Santa Teresa di Riva","admin3":"083089","localeAltName":null},{"geonameid":6539165,"name":"Santo Stefano di Camastra","admin3":"083091","localeAltName":null},{"geonameid":6539166,"name":"Sinagra","admin3":"083095","localeAltName":null},{"geonameid":6539167,"name":"Tripi","admin3":"083100"},{"geonameid":6539168,"name":"Ucria","admin3":"083102","localeAltName":null},{"geonameid":6539867,"name":"Gallodoro","admin3":"083031"},{"geonameid":6539868,"name":"Monforte San Giorgio","admin3":"083054","localeAltName":null},{"geonameid":6539871,"name":"Tusa","admin3":"083101","localeAltName":null},{"geonameid":6540051,"name":"Alì","admin3":"083002","localeAltName":null},{"geonameid":6540052,"name":"Brolo","admin3":"083007","localeAltName":null},{"geonameid":6540053,"name":"Castell'Umberto","admin3":"083014","localeAltName":null},{"geonameid":6540054,"name":"Falcone","admin3":"083019","localeAltName":null},{"geonameid":6540055,"name":"Milazzo","admin3":"083049","localeAltName":null},{"geonameid":6540056,"name":"Mirto","admin3":"083051","localeAltName":null},{"geonameid":6540057,"name":"Pagliara","admin3":"083065","localeAltName":null},{"geonameid":6540058,"name":"San Teodoro","admin3":"083090","localeAltName":null},{"geonameid":6540296,"name":"Venetico","admin3":"083104","localeAltName":null},{"geonameid":6540827,"name":"Antillo","admin3":"083004","localeAltName":null},{"geonameid":6540828,"name":"Caronia","admin3":"083011","localeAltName":null},{"geonameid":6540829,"name":"Furci Siculo","admin3":"083027","localeAltName":null},{"geonameid":6540830,"name":"Longi","admin3":"083042","localeAltName":null},{"geonameid":6540831,"name":"Mistretta","admin3":"083052","localeAltName":null},{"geonameid":6540832,"name":"Montalbano Elicona","admin3":"083057","localeAltName":null},{"geonameid":6540833,"name":"Nizza di Sicilia","admin3":"083061","localeAltName":null},{"geonameid":6540834,"name":"Raccuja","admin3":"083069","localeAltName":null},{"geonameid":6540835,"name":"San Pier Niceto","admin3":"083080","localeAltName":null},{"geonameid":6540836,"name":"Saponara","admin3":"083092","localeAltName":null},{"geonameid":6540837,"name":"Valdina","admin3":"083103","localeAltName":null},{"geonameid":6540838,"name":"Villafranca Tirrena","admin3":"083105","localeAltName":null},{"geonameid":6541328,"name":"Casalvecchio Siculo","admin3":"083012"},{"geonameid":6541329,"name":"Cesarò","admin3":"083017","localeAltName":null},{"geonameid":6541330,"name":"Condrò","admin3":"083018"},{"geonameid":6541331,"name":"Ficarra","admin3":"083020","localeAltName":null},{"geonameid":6541332,"name":"Frazzanò","admin3":"083026","localeAltName":null},{"geonameid":6541333,"name":"Reitano","admin3":"083070","localeAltName":null},{"geonameid":6541334,"name":"Roccalumera","admin3":"083072","localeAltName":null},{"geonameid":6541335,"name":"San Salvatore di Fitalia","admin3":"083082","localeAltName":null},{"geonameid":6541336,"name":"Spadafora","admin3":"083096","localeAltName":null},{"geonameid":6541552,"name":"Mongiuffi Melia","admin3":"083055","localeAltName":null},{"geonameid":6541764,"name":"Montagnareale","admin3":"083056","localeAltName":null},{"geonameid":6541765,"name":"Oliveri","admin3":"083063","localeAltName":null},{"geonameid":6541766,"name":"Torregrotta","admin3":"083098","localeAltName":null},{"geonameid":6541859,"name":"Messina","admin3":"083048","localeAltName":null},{"geonameid":6541961,"name":"Patti","admin3":"083066","localeAltName":null},{"geonameid":6541962,"name":"Roccavaldina","admin3":"083073","localeAltName":null},{"geonameid":6541963,"name":"Torrenova","admin3":"083108","localeAltName":null},{"geonameid":6542102,"name":"Capo d'Orlando","admin3":"083009","localeAltName":null},{"geonameid":6542196,"name":"Rodì Milici","admin3":"083075","localeAltName":null},{"geonameid":6542235,"name":"Castelmola","admin3":"083015"},{"geonameid":6542236,"name":"Moio Alcantara","admin3":"083053","localeAltName":null},{"geonameid":6542272,"name":"San Filippo del Mela","admin3":"083077","localeAltName":null},{"geonameid":6542273,"name":"Acquedolci","admin3":"083107","localeAltName":null},{"geonameid":6542807,"name":"Terme Vigliatore","admin3":"083106","localeAltName":null},{"geonameid":6543305,"name":"Furnari","admin3":"083028","localeAltName":null},{"geonameid":6543306,"name":"Gualtieri Sicaminò","admin3":"083035","localeAltName":null},{"geonameid":6543307,"name":"Motta d'Affermo","admin3":"083059","localeAltName":null},{"geonameid":6543308,"name":"Roccafiorita","admin3":"083071"},{"geonameid":6543309,"name":"Savoca","admin3":"083093","localeAltName":null},{"geonameid":6543643,"name":"Alì Terme","admin3":"083003","localeAltName":null},{"geonameid":6543644,"name":"Graniti","admin3":"083034","localeAltName":null},{"geonameid":6543645,"name":"Rometta","admin3":"083076","localeAltName":null}],"alternateNames":[{"alternatenameId":1980456,"geonameid":2523119,"isoLanguage":"en","alternateName":"Sicily","isPreferredName":true,"isShortName":true,"isColloquial":false,"isHistoric":false},{"alternatenameId":1183176,"geonameid":2524169,"isoLanguage":"it","alternateName":"Messina","isPreferredName":true,"isShortName":true,"isColloquial":false,"isHistoric":false}]},"__N_SSG":true}