{"pageProps":{"locale":"de","admin2":{"geonameid":6458753,"name":"Leuk District","country":"CH","admin1":"VS","admin2":"2306","admin3":"","latitude":"46.3143900","longitude":"7.6729100"},"admin1":{"geonameid":2658205,"name":"Canton du Valais","admin1":"VS"},"locations":[{"geonameid":2661841,"name":"Agarn","admin3":"6101"},{"geonameid":2661827,"name":"Albinen","admin3":"6102"},{"geonameid":2661420,"name":"Bratsch","admin3":"6118"},{"geonameid":2660866,"name":"Erschmatt","admin3":"6110"},{"geonameid":2660672,"name":"Gampel","admin3":"6118"},{"geonameid":2660264,"name":"Inden","admin3":"6109"},{"geonameid":2659908,"name":"Leuk","admin3":"6110"},{"geonameid":2659907,"name":"Leukerbad","admin3":"6111"},{"geonameid":2659395,"name":"Oberems","admin3":"6119"},{"geonameid":2658850,"name":"Salgesch","admin3":"6113"},{"geonameid":2658287,"name":"Turtmann","admin3":"6119"},{"geonameid":2658185,"name":"Varen","admin3":"6116"}],"admin3":[{"geonameid":7285039,"name":"Agarn","admin3":"6101"},{"geonameid":7285046,"name":"Albinen","admin3":"6102"},{"geonameid":7285745,"name":"Ergisch","admin3":"6104"},{"geonameid":7285889,"name":"Gampel-Bratsch","admin3":"6118"},{"geonameid":7286013,"name":"Guttet-Feschel","admin3":"6117"},{"geonameid":7286137,"name":"Inden","admin3":"6109"},{"geonameid":7286338,"name":"Leuk","admin3":"6110"},{"geonameid":7286339,"name":"Leukerbad","admin3":"6111"},{"geonameid":7286685,"name":"Oberems","admin3":"6112"},{"geonameid":7287042,"name":"Salgesch","admin3":"6113"},{"geonameid":7287417,"name":"Varen","admin3":"6116"},{"geonameid":8740961,"name":"Turtmann-Unterems","admin3":"6119"}],"alternateNames":[]},"__N_SSG":true}