{"pageProps":{"locale":"de","admin2":{"geonameid":2659097,"name":"Raron District","country":"CH","admin1":"VS","admin2":"2309","admin3":"","latitude":"46.3000000","longitude":"7.8000000"},"admin1":{"geonameid":2658205,"name":"Canton du Valais","admin1":"VS"},"locations":[{"geonameid":2661535,"name":"Betten","admin3":"6205"},{"geonameid":2661478,"name":"Blatten","admin3":"6192"},{"geonameid":2661326,"name":"Bürchen","admin3":"6193"},{"geonameid":2660924,"name":"Eischoll","admin3":"6194"},{"geonameid":2660799,"name":"Ferden","admin3":"6195"},{"geonameid":2660561,"name":"Goppisberg","admin3":"6181"},{"geonameid":2660511,"name":"Grengiols","admin3":"6177"},{"geonameid":2659591,"name":"Mörel","admin3":"6181"},{"geonameid":2659465,"name":"Niedergesteln","admin3":"6198"},{"geonameid":2659098,"name":"Raron","admin3":"6199"},{"geonameid":2658263,"name":"Unterbäch","admin3":"6201"},{"geonameid":2657985,"name":"Wiler","admin3":"6197"}],"admin3":[{"geonameid":7285119,"name":"Ausserberg","admin3":"6191"},{"geonameid":7285263,"name":"Bister","admin3":"6172"},{"geonameid":7285264,"name":"Bitsch","admin3":"6173"},{"geonameid":7285266,"name":"Blatten","admin3":"6192"},{"geonameid":7285385,"name":"Bürchen","admin3":"6193"},{"geonameid":7285716,"name":"Eischoll","admin3":"6194"},{"geonameid":7285806,"name":"Ferden","admin3":"6195"},{"geonameid":7285975,"name":"Grengiols","admin3":"6177"},{"geonameid":7286197,"name":"Kippel","admin3":"6197"},{"geonameid":7286552,"name":"Mörel-Filet","admin3":"6203"},{"geonameid":7286638,"name":"Niedergesteln","admin3":"6198"},{"geonameid":7286860,"name":"Raron","admin3":"6199"},{"geonameid":7286904,"name":"Riederalp","admin3":"6181"},{"geonameid":7287225,"name":"Steg-Hohtenn","admin3":"6204"},{"geonameid":7287372,"name":"Unterbäch","admin3":"6201"},{"geonameid":7287581,"name":"Wiler (Lötschen)","admin3":"6202"},{"geonameid":8740957,"name":"Bettmeralp","admin3":"6205"}],"alternateNames":[]},"__N_SSG":true}