{"pageProps":{"locale":"en","admin2":{"geonameid":5322745,"name":"Alameda County","country":"US","admin1":"CA","admin2":"001","admin3":"","latitude":"37.6505500","longitude":"-121.9178900"},"admin1":{"geonameid":5332921,"name":"California","admin1":"CA","localeAltName":"California"},"locations":[{"geonameid":5322737,"name":"Alameda","admin3":""},{"geonameid":5322850,"name":"Albany","admin3":""},{"geonameid":5325011,"name":"Ashland","admin3":""},{"geonameid":5327684,"name":"Berkeley","admin3":""},{"geonameid":5334928,"name":"Castro Valley","admin3":""},{"geonameid":5336190,"name":"Cherryland","admin3":""},{"geonameid":5336475,"name":"Chinatown","admin3":""},{"geonameid":5344157,"name":"Dublin","admin3":""},{"geonameid":5346462,"name":"Emeryville","admin3":""},{"geonameid":5347397,"name":"Fairview","admin3":""},{"geonameid":5350734,"name":"Fremont","admin3":""},{"geonameid":5355933,"name":"Hayward","admin3":""},{"geonameid":5367440,"name":"Livermore","admin3":""},{"geonameid":5376803,"name":"Newark","admin3":""},{"geonameid":5378538,"name":"Oakland","admin3":""},{"geonameid":5382514,"name":"Piedmont","admin3":""},{"geonameid":5383777,"name":"Pleasanton","admin3":""},{"geonameid":5392263,"name":"San Leandro","admin3":""},{"geonameid":5392281,"name":"San Lorenzo","admin3":""},{"geonameid":5404555,"name":"Union City","admin3":""}],"admin3":[{"geonameid":11788327,"name":"City of Hayward","admin3":"11788327"},{"geonameid":11788339,"name":"City of Pleasanton","admin3":"11788339"},{"geonameid":11788367,"name":"City of Albany","admin3":"11788367"},{"geonameid":11788444,"name":"City of Oakland","admin3":"11788444"},{"geonameid":11788465,"name":"City of Piedmont","admin3":"11788465"},{"geonameid":11788562,"name":"City of Alameda","admin3":"11788562"},{"geonameid":11788567,"name":"City of Dublin","admin3":"11788567"},{"geonameid":11788711,"name":"City of Emeryville","admin3":"11788711"},{"geonameid":11788855,"name":"City of Livermore","admin3":"11788855"},{"geonameid":11788901,"name":"City of Union City","admin3":"11788901"},{"geonameid":11788954,"name":"City of Berkeley","admin3":"11788954"}],"alternateNames":[{"alternatenameId":1632217,"geonameid":5332921,"isoLanguage":"en","alternateName":"California","isPreferredName":true,"isShortName":true,"isColloquial":false,"isHistoric":false}]},"__N_SSG":true}