{"pageProps":{"locale":"en","admin2":{"geonameid":5364466,"name":"Lake County","country":"US","admin1":"CA","admin2":"033","admin3":"","latitude":"39.0996500","longitude":"-122.7531800"},"admin1":{"geonameid":5332921,"name":"California","admin1":"CA","localeAltName":"California"},"locations":[{"geonameid":5337896,"name":"Clear Lake Riviera","admin3":""},{"geonameid":5337908,"name":"Clearlake","admin3":""},{"geonameid":5337912,"name":"Clearlake Oaks","admin3":""},{"geonameid":5338258,"name":"Cobb","admin3":""},{"geonameid":5356767,"name":"Hidden Valley Lake","admin3":""},{"geonameid":5362725,"name":"Kelseyville","admin3":""},{"geonameid":5364753,"name":"Lakeport","admin3":""},{"geonameid":5368980,"name":"Lower Lake","admin3":""},{"geonameid":5369144,"name":"Lucerne","admin3":""},{"geonameid":5285018,"name":"Middletown","admin3":""},{"geonameid":5376959,"name":"Nice","admin3":""},{"geonameid":7261991,"name":"North Lakeport","admin3":""},{"geonameid":5396895,"name":"Soda Bay","admin3":""},{"geonameid":5405038,"name":"Upper Lake","admin3":""}],"admin3":[{"geonameid":11788362,"name":"City of Clearlake","admin3":"11788362"},{"geonameid":11788907,"name":"City of Lakeport","admin3":"11788907"}],"alternateNames":[{"alternatenameId":1632217,"geonameid":5332921,"isoLanguage":"en","alternateName":"California","isPreferredName":true,"isShortName":true,"isColloquial":false,"isHistoric":false}]},"__N_SSG":true}