{"pageProps":{"locale":"en","admin2":{"geonameid":5376101,"name":"Napa County","country":"US","admin1":"CA","admin2":"055","admin3":"","latitude":"38.5064700","longitude":"-122.3305300"},"admin1":{"geonameid":5332921,"name":"California","admin1":"CA","localeAltName":"California"},"locations":[{"geonameid":5323694,"name":"American Canyon","admin3":""},{"geonameid":5324040,"name":"Angwin","admin3":""},{"geonameid":5332937,"name":"Calistoga","admin3":""},{"geonameid":5342254,"name":"Deer Park","admin3":""},{"geonameid":5376095,"name":"Napa","admin3":""},{"geonameid":5390267,"name":"Saint Helena","admin3":""},{"geonameid":5410999,"name":"Yountville","admin3":""}],"admin3":[{"geonameid":11788347,"name":"City of Calistoga","admin3":"11788347"},{"geonameid":11788453,"name":"City of Yountville","admin3":"11788453"},{"geonameid":11788517,"name":"City of Saint Helena","admin3":"11788517"}],"alternateNames":[{"alternatenameId":1632217,"geonameid":5332921,"isoLanguage":"en","alternateName":"California","isPreferredName":true,"isShortName":true,"isColloquial":false,"isHistoric":false}]},"__N_SSG":true}