{"pageProps":{"locale":"en","admin2":{"geonameid":5392427,"name":"San Mateo County","country":"US","admin1":"CA","admin2":"081","admin3":"","latitude":"37.4362100","longitude":"-122.3556600"},"admin1":{"geonameid":5332921,"name":"California","admin1":"CA","localeAltName":"California"},"locations":[{"geonameid":5325147,"name":"Atherton","admin3":""},{"geonameid":5327455,"name":"Belmont","admin3":""},{"geonameid":5330810,"name":"Brisbane","admin3":""},{"geonameid":5330854,"name":"Broadmoor","admin3":""},{"geonameid":5331920,"name":"Burlingame","admin3":""},{"geonameid":5338703,"name":"Colma","admin3":""},{"geonameid":5341430,"name":"Daly City","admin3":""},{"geonameid":5345032,"name":"East Palo Alto","admin3":""},{"geonameid":5345716,"name":"El Granada","admin3":""},{"geonameid":5346413,"name":"Emerald Lake Hills","admin3":""},{"geonameid":5350159,"name":"Foster City","admin3":""},{"geonameid":5354943,"name":"Half Moon Bay","admin3":""},{"geonameid":7261437,"name":"Highlands-Baywood Park","admin3":""},{"geonameid":5357155,"name":"Hillsborough","admin3":""},{"geonameid":5364192,"name":"Ladera","admin3":""},{"geonameid":5372223,"name":"Menlo Park","admin3":""},{"geonameid":5373129,"name":"Millbrae","admin3":""},{"geonameid":5374222,"name":"Montara","admin3":""},{"geonameid":5375034,"name":"Moss Beach","admin3":""},{"geonameid":5377389,"name":"North Fair Oaks","admin3":""},{"geonameid":5380420,"name":"Pacifica","admin3":""},{"geonameid":5384478,"name":"Portola Valley","admin3":""},{"geonameid":5386834,"name":"Redwood City","admin3":""},{"geonameid":5386932,"name":"Redwood Shores","admin3":""},{"geonameid":5391749,"name":"San Bruno","admin3":""},{"geonameid":5391760,"name":"San Carlos","admin3":""},{"geonameid":5392423,"name":"San Mateo","admin3":""},{"geonameid":5397765,"name":"South San Francisco","admin3":""},{"geonameid":5408132,"name":"West Menlo Park","admin3":""},{"geonameid":5410535,"name":"Woodside","admin3":""}],"admin3":[{"geonameid":11788313,"name":"City of Redwood City","admin3":"11788313"},{"geonameid":11788395,"name":"City of South San Francisco","admin3":"11788395"},{"geonameid":11788539,"name":"City of East Palo Alto","admin3":"11788539"},{"geonameid":11788664,"name":"City of San Bruno","admin3":"11788664"},{"geonameid":11788703,"name":"City of Belmont","admin3":"11788703"},{"geonameid":11788747,"name":"City of Daly City","admin3":"11788747"},{"geonameid":11788784,"name":"City of Foster City","admin3":"11788784"},{"geonameid":11788840,"name":"City of Menlo Park","admin3":"11788840"},{"geonameid":11788842,"name":"City of Millbrae","admin3":"11788842"},{"geonameid":11788953,"name":"City of San Carlos","admin3":"11788953"}],"alternateNames":[{"alternatenameId":1632217,"geonameid":5332921,"isoLanguage":"en","alternateName":"California","isPreferredName":true,"isShortName":true,"isColloquial":false,"isHistoric":false}]},"__N_SSG":true}