{"pageProps":{"locale":"en","admin2":{"geonameid":5571369,"name":"Siskiyou County","country":"US","admin1":"CA","admin2":"093","admin3":"","latitude":"41.5926500","longitude":"-122.5403700"},"admin1":{"geonameid":5332921,"name":"California","admin1":"CA","localeAltName":"California"},"locations":[{"geonameid":5562961,"name":"Dunsmuir","admin3":""},{"geonameid":5564730,"name":"Happy Camp","admin3":""},{"geonameid":5567687,"name":"McCloud","admin3":""},{"geonameid":5568152,"name":"Montague","admin3":""},{"geonameid":5568295,"name":"Mount Shasta","admin3":""},{"geonameid":5573449,"name":"Weed","admin3":""},{"geonameid":5574093,"name":"Yreka","admin3":""}],"admin3":[{"geonameid":11788314,"name":"City of Tulelake","admin3":"11788314"},{"geonameid":11788365,"name":"City of Montague","admin3":"11788365"},{"geonameid":11788593,"name":"City of Mount Shasta","admin3":"11788593"},{"geonameid":11788769,"name":"City of Fort Jones","admin3":"11788769"},{"geonameid":11788843,"name":"City of Dorris","admin3":"11788843"},{"geonameid":11788941,"name":"City of Yreka","admin3":"11788941"},{"geonameid":11789014,"name":"City of Etna","admin3":"11789014"},{"geonameid":11789018,"name":"City of Weed","admin3":"11789018"}],"alternateNames":[{"alternatenameId":1632217,"geonameid":5332921,"isoLanguage":"en","alternateName":"California","isPreferredName":true,"isShortName":true,"isColloquial":false,"isHistoric":false}]},"__N_SSG":true}