{"pageProps":{"locale":"en","admin2":{"geonameid":4982182,"name":"Washington County","country":"US","admin1":"ME","admin2":"029","admin3":"","latitude":"44.9694600","longitude":"-67.6090600"},"admin1":{"geonameid":4971068,"name":"Maine","admin1":"ME"},"locations":[{"geonameid":4956485,"name":"Addison","admin3":"00380"},{"geonameid":4956593,"name":"Alexander","admin3":"00660"},{"geonameid":4957659,"name":"Beals","admin3":"03670"},{"geonameid":4959834,"name":"Calais","admin3":"09585"},{"geonameid":4960760,"name":"Cherryfield","admin3":"12455"},{"geonameid":4961318,"name":"Columbia Falls","admin3":"13820"},{"geonameid":4962015,"name":"Cutler","admin3":"15920"},{"geonameid":4962090,"name":"Danforth","admin3":"16410"},{"geonameid":4963306,"name":"East Machias","admin3":"20960"},{"geonameid":4963486,"name":"Eastport","admin3":"21730"},{"geonameid":4966576,"name":"Harrington","admin3":"31530"},{"geonameid":4968496,"name":"Jonesboro","admin3":"35905"},{"geonameid":4968499,"name":"Jonesport","admin3":"36010"},{"geonameid":4970888,"name":"Machias","admin3":"41960"},{"geonameid":4970903,"name":"Machiasport","admin3":"42100"},{"geonameid":4971302,"name":"Marshfield","admin3":"43640"},{"geonameid":4972002,"name":"Milbridge","admin3":"45600"},{"geonameid":4974925,"name":"Pembroke","admin3":"57780"},{"geonameid":4975062,"name":"Perry","admin3":"58165"},{"geonameid":4976035,"name":"Princeton","admin3":"61035"},{"geonameid":4976705,"name":"Robbinston","admin3":"63275"},{"geonameid":4979854,"name":"Steuben","admin3":"74125"},{"geonameid":4983446,"name":"Woodland","admin3":"02480"}],"admin3":[{"geonameid":4956487,"name":"Town of Addison","admin3":"00380"},{"geonameid":4956598,"name":"Town of Alexander","admin3":"00660"},{"geonameid":4957142,"name":"Town of Baileyville","admin3":"02480"},{"geonameid":4957379,"name":"Plantation of Baring","admin3":"02970"},{"geonameid":4957665,"name":"Town of Beals","admin3":"03670"},{"geonameid":4957904,"name":"Town of Beddington","admin3":"03810"},{"geonameid":4959854,"name":"City of Calais","admin3":"09585"},{"geonameid":4960693,"name":"Town of Charlotte","admin3":"12175"},{"geonameid":4960764,"name":"Town of Cherryfield","admin3":"12455"},{"geonameid":4961157,"name":"Plantation of Codyville","admin3":"13610"},{"geonameid":4961320,"name":"Town of Columbia Falls","admin3":"13820"},{"geonameid":4961323,"name":"Town of Columbia","admin3":"13750"},{"geonameid":4961473,"name":"Town of Cooper","admin3":"14100"},{"geonameid":4961696,"name":"Town of Crawford","admin3":"14940"},{"geonameid":4962012,"name":"Town of Cutler","admin3":"15920"},{"geonameid":4962097,"name":"Town of Danforth","admin3":"16410"},{"geonameid":4962303,"name":"Town of Deblois","admin3":"16865"},{"geonameid":4962465,"name":"Town of Dennysville","admin3":"17355"},{"geonameid":4963243,"name":"Unorganized Territory of East Central Washington","admin3":"19870"},{"geonameid":4963311,"name":"Town of East Machias","admin3":"20960"},{"geonameid":4963494,"name":"City of Eastport","admin3":"21730"},{"geonameid":4965591,"name":"Plantation of Grand Lake Stream","admin3":"28660"},{"geonameid":4966587,"name":"Town of Harrington","admin3":"31530"},{"geonameid":4968498,"name":"Town of Jonesboro","admin3":"35905"},{"geonameid":4968500,"name":"Town of Jonesport","admin3":"36010"},{"geonameid":4970811,"name":"Town of Lubec","admin3":"41610"},{"geonameid":4970902,"name":"Town of Machias","admin3":"41960"},{"geonameid":4970906,"name":"Town of Machiasport","admin3":"42100"},{"geonameid":4971303,"name":"Town of Marshfield","admin3":"43640"},{"geonameid":4971712,"name":"Town of Meddybemps","admin3":"44760"},{"geonameid":4972005,"name":"Town of Milbridge","admin3":"45600"},{"geonameid":4973710,"name":"Unorganized Territory of North Washington","admin3":"53500"},{"geonameid":4973780,"name":"Town of Northfield","admin3":"51375"},{"geonameid":4974934,"name":"Town of Pembroke","admin3":"57780"},{"geonameid":4975077,"name":"Town of Perry","admin3":"58165"},{"geonameid":4976043,"name":"Town of Princeton","admin3":"61035"},{"geonameid":4976707,"name":"Town of Robbinston","admin3":"63275"},{"geonameid":4976955,"name":"Town of Roque Bluffs","admin3":"63940"},{"geonameid":4979856,"name":"Town of Steuben","admin3":"74125"},{"geonameid":4980364,"name":"Town of Talmadge","admin3":"75770"},{"geonameid":4980926,"name":"Town of Topsfield","admin3":"76895"},{"geonameid":4981727,"name":"Town of Vanceboro","admin3":"78675"},{"geonameid":4982036,"name":"Town of Waite","admin3":"79375"},{"geonameid":4982429,"name":"Town of Wesley","admin3":"81685"},{"geonameid":4983021,"name":"Town of Whiting","admin3":"85185"},{"geonameid":4983058,"name":"Town of Whitneyville","admin3":"85290"}],"alternateNames":[]},"__N_SSG":true}