{"pageProps":{"locale":"en","admin2":{"geonameid":2651292,"name":"Devon","country":"GB","admin1":"ENG","admin2":"D4","admin3":"","latitude":"50.7500000","longitude":"-3.7500000","localeAltName":"Devon"},"admin1":{"geonameid":6269131,"name":"England","admin1":"ENG","localeAltName":"England"},"locations":[{"geonameid":2657871,"name":"Abbots Bickington","admin3":"18UK","localeAltName":null},{"geonameid":2657866,"name":"Abbotsham","admin3":"18UK","localeAltName":null},{"geonameid":2657864,"name":"Abbotskerswell","admin3":"18UH","localeAltName":null},{"geonameid":2657436,"name":"Alphington","admin3":"18UC","localeAltName":null},{"geonameid":2657233,"name":"Appledore","admin3":"18UK","localeAltName":null},{"geonameid":2657069,"name":"Arlington","admin3":"18UE","localeAltName":null},{"geonameid":2656977,"name":"Ashburton","admin3":"18UH","localeAltName":null},{"geonameid":2656976,"name":"Ashbury","admin3":"18UL","localeAltName":null},{"geonameid":2656956,"name":"Ashford","admin3":"18UE","localeAltName":null},{"geonameid":10377783,"name":"Ashley","admin3":"18UD","localeAltName":null},{"geonameid":2656926,"name":"Ashreigney","admin3":"18UK","localeAltName":null},{"geonameid":2656925,"name":"Ashsprington","admin3":"18UG","localeAltName":null},{"geonameid":2656923,"name":"Ashton","admin3":"18UH","localeAltName":null},{"geonameid":2656912,"name":"Ashwater","admin3":"18UK","localeAltName":null},{"geonameid":2656849,"name":"Atherington","admin3":"18UE","localeAltName":null},{"geonameid":2656755,"name":"Aveton Gifford","admin3":"18UG","localeAltName":null},{"geonameid":2656725,"name":"Axminster","admin3":"18UB","localeAltName":null},{"geonameid":2656724,"name":"Axmouth","admin3":"18UB","localeAltName":null},{"geonameid":2656720,"name":"Aylesbeare","admin3":"18UB","localeAltName":null},{"geonameid":2656422,"name":"Bampton","admin3":"18UD","localeAltName":null},{"geonameid":11887939,"name":"Bantham","admin3":"18UG","localeAltName":null},{"geonameid":6951011,"name":"Barbrook","admin3":"18UE","localeAltName":null},{"geonameid":2656281,"name":"Barnstaple","admin3":"18UE","localeAltName":null},{"geonameid":2656116,"name":"Beaford","admin3":"18UK","localeAltName":null},{"geonameid":2656071,"name":"Beaworthy","admin3":"18UL","localeAltName":null},{"geonameid":2656018,"name":"Beer","admin3":"18UB","localeAltName":null},{"geonameid":10244119,"name":"Bellever","admin3":"18UL","localeAltName":null},{"geonameid":2655938,"name":"Belstone","admin3":"18UL","localeAltName":null},{"geonameid":10377345,"name":"Benton","admin3":"18UE","localeAltName":null},{"geonameid":2655864,"name":"Bere Alston","admin3":"18UL","localeAltName":null},{"geonameid":2655833,"name":"Berry Pomeroy","admin3":"18UG","localeAltName":null},{"geonameid":2655834,"name":"Berrynarbor","admin3":"18UE","localeAltName":null},{"geonameid":2655723,"name":"Bickington","admin3":"18UH","localeAltName":null},{"geonameid":11594835,"name":"Bickleigh","admin3":"18UD","localeAltName":null},{"geonameid":2655722,"name":"Bickleigh","admin3":"18UG","localeAltName":null},{"geonameid":2655707,"name":"Bideford","admin3":"18UK","localeAltName":null},{"geonameid":2655697,"name":"Bigbury on Sea","admin3":"18UG","localeAltName":null},{"geonameid":11593096,"name":"Bishop's Tawton","admin3":"18UE","localeAltName":null},{"geonameid":2655563,"name":"Bishops Nympton","admin3":"18UE","localeAltName":null},{"geonameid":2655559,"name":"Bishops Tawton","admin3":"18UE","localeAltName":null},{"geonameid":2655558,"name":"Bishopsteignton","admin3":"18UH","localeAltName":null},{"geonameid":2655540,"name":"Bittadon","admin3":"18UE","localeAltName":null},{"geonameid":2655439,"name":"Black Torrington","admin3":"18UK","localeAltName":null},{"geonameid":2655528,"name":"Blackawton","admin3":"18UG","localeAltName":null},{"geonameid":2655408,"name":"Blagberry","admin3":"18UK","localeAltName":null},{"geonameid":7303906,"name":"Bolberry Down","admin3":"18UG","localeAltName":null},{"geonameid":2655247,"name":"Bolham","admin3":"18UD","localeAltName":null},{"geonameid":2655081,"name":"Bovey Tracey","admin3":"18UH","localeAltName":null},{"geonameid":2655077,"name":"Bow","admin3":"18UD","localeAltName":null},{"geonameid":2654979,"name":"Bradninch","admin3":"18UD","localeAltName":null},{"geonameid":2654976,"name":"Bradstone","admin3":"18UL","localeAltName":null},{"geonameid":2654971,"name":"Bradworthy","admin3":"18UK","localeAltName":null},{"geonameid":2654920,"name":"Brampford Speke","admin3":"18UB","localeAltName":null},{"geonameid":2654886,"name":"Branscombe","admin3":"18UB","localeAltName":null},{"geonameid":2654865,"name":"Bratton Clovelly","admin3":"18UL","localeAltName":null},{"geonameid":2654864,"name":"Bratton Fleming","admin3":"18UE","localeAltName":null},{"geonameid":2654858,"name":"Braunton","admin3":"18UE","localeAltName":null},{"geonameid":10377346,"name":"Brayford","admin3":"18UE","localeAltName":null},{"geonameid":10100363,"name":"Brendon Village","admin3":"18UE","localeAltName":null},{"geonameid":2654785,"name":"Brentor","admin3":"18UL","localeAltName":null},{"geonameid":2654762,"name":"Bridestowe","admin3":"18UL","localeAltName":null},{"geonameid":2654761,"name":"Bridford","admin3":"18UH","localeAltName":null},{"geonameid":10100343,"name":"Bridge Ball","admin3":"18UE","localeAltName":null},{"geonameid":2654735,"name":"Bridgerule","admin3":"18UK","localeAltName":null},{"geonameid":2654662,"name":"Brixton","admin3":"18UG","localeAltName":null},{"geonameid":2654654,"name":"Broad Clyst","admin3":"18UB","localeAltName":null},{"geonameid":2654649,"name":"Broadhembury","admin3":"18UB","localeAltName":null},{"geonameid":2654648,"name":"Broadhempston","admin3":"18UH","localeAltName":null},{"geonameid":2654621,"name":"Broadwoodkelly","admin3":"18UL","localeAltName":null},{"geonameid":2654620,"name":"Broadwoodwidger","admin3":"18UK","localeAltName":null},{"geonameid":2654485,"name":"Brownston","admin3":"18UG","localeAltName":null},{"geonameid":12095343,"name":"Buck's Cross","admin3":"18UK","localeAltName":null},{"geonameid":2654416,"name":"Buckfastleigh","admin3":"18UH","localeAltName":null},{"geonameid":2654402,"name":"Buckland Brewer","admin3":"18UK","localeAltName":null},{"geonameid":2654400,"name":"Buckland in the Moor","admin3":"18UH","localeAltName":null},{"geonameid":2654399,"name":"Buckland Monachorum","admin3":"18UL","localeAltName":null},{"geonameid":2654376,"name":"Budleigh Salterton","admin3":"18UB","localeAltName":null},{"geonameid":2654354,"name":"Bulkworthy","admin3":"18UK","localeAltName":null},{"geonameid":2654288,"name":"Burlescombe","admin3":"18UD","localeAltName":null},{"geonameid":2654235,"name":"Burrington","admin3":"18UE","localeAltName":null},{"geonameid":2654158,"name":"Butterleigh","admin3":"18UD","localeAltName":null},{"geonameid":2654117,"name":"Cadbury","admin3":"18UD","localeAltName":null},{"geonameid":2654113,"name":"Cadeleigh","admin3":"18UD","localeAltName":null},{"geonameid":2653408,"name":"Chagford","admin3":"18UL","localeAltName":null},{"geonameid":2653390,"name":"Challacombe","admin3":"18UE","localeAltName":null},{"geonameid":2653355,"name":"Chapelton","admin3":"18UE","localeAltName":null},{"geonameid":2653344,"name":"Chardstock","admin3":"18UB","localeAltName":null},{"geonameid":2653336,"name":"Charles","admin3":"18UE","localeAltName":null},{"geonameid":2653294,"name":"Chawleigh","admin3":"18UD","localeAltName":null},{"geonameid":10100344,"name":"Cheriton","admin3":"18UE","localeAltName":null},{"geonameid":2653247,"name":"Cheriton Bishop","admin3":"18UD","localeAltName":null},{"geonameid":2653246,"name":"Cheriton Fitzpaine","admin3":"18UD","localeAltName":null},{"geonameid":2653166,"name":"Chillaton","admin3":"18UL","localeAltName":null},{"geonameid":2653118,"name":"Chittlehamholt","admin3":"18UE","localeAltName":null},{"geonameid":2653117,"name":"Chittlehampton","admin3":"18UE","localeAltName":null},{"geonameid":2653115,"name":"Chivenor","admin3":"18UE","localeAltName":null},{"geonameid":2653066,"name":"Christow","admin3":"18UH","localeAltName":null},{"geonameid":2653056,"name":"Chudleigh","admin3":"18UH","localeAltName":null},{"geonameid":2653055,"name":"Chudleigh Knighton","admin3":"18UH","localeAltName":null},{"geonameid":2653051,"name":"Chulmleigh","admin3":"18UE","localeAltName":null},{"geonameid":2653023,"name":"Churchstow","admin3":"18UG","localeAltName":null},{"geonameid":2652916,"name":"Clawton","admin3":"18UK","localeAltName":null},{"geonameid":2652776,"name":"Clovelly","admin3":"18UK","localeAltName":null},{"geonameid":2652720,"name":"Clyst Honiton","admin3":"18UB","localeAltName":null},{"geonameid":2652719,"name":"Clyst Hydon","admin3":"18UB","localeAltName":null},{"geonameid":2652718,"name":"Clyst Saint Lawrence","admin3":"18UB","localeAltName":null},{"geonameid":2652717,"name":"Clyst St Mary","admin3":"18UB","localeAltName":null},{"geonameid":2652645,"name":"Coffinswell","admin3":"18UH","localeAltName":null},{"geonameid":2652621,"name":"Colaton Raleigh","admin3":"18UB","localeAltName":null},{"geonameid":2652603,"name":"Coldridge","admin3":"18UD","localeAltName":null},{"geonameid":2652595,"name":"Colebrooke","admin3":"18UD","localeAltName":null},{"geonameid":10377784,"name":"Collipriest","admin3":"18UD","localeAltName":null},{"geonameid":2652512,"name":"Colyford","admin3":"18UB","localeAltName":null},{"geonameid":2652511,"name":"Colyton","admin3":"18UB","localeAltName":null},{"geonameid":2652508,"name":"Combe Martin","admin3":"18UE","localeAltName":null},{"geonameid":2652500,"name":"Combpyne","admin3":"18UB","localeAltName":null},{"geonameid":2652424,"name":"Cookbury","admin3":"18UK","localeAltName":null},{"geonameid":2652390,"name":"Copplestone","admin3":"18UD","localeAltName":null},{"geonameid":2652352,"name":"Cornwood","admin3":"18UG","localeAltName":null},{"geonameid":2652351,"name":"Cornworthy","admin3":"18UG","localeAltName":null},{"geonameid":2652301,"name":"Coryton","admin3":"18UL","localeAltName":null},{"geonameid":2652277,"name":"Cotleigh","admin3":"18UB","localeAltName":null},{"geonameid":2652240,"name":"Countess Wear","admin3":"18UC","localeAltName":null},{"geonameid":2652237,"name":"Countisbury","admin3":"18UE","localeAltName":null},{"geonameid":2652034,"name":"Crediton","admin3":"18UD","localeAltName":null},{"geonameid":8714318,"name":"Crockernwell","admin3":"18UL","localeAltName":null},{"geonameid":2651837,"name":"Crownhill","admin3":"","localeAltName":null},{"geonameid":2651818,"name":"Croyde","admin3":"18UE","localeAltName":null},{"geonameid":6697721,"name":"Croyde Bay","admin3":"18UE","localeAltName":null},{"geonameid":2651739,"name":"Cullompton","admin3":"18UD","localeAltName":null},{"geonameid":2651731,"name":"Culmstock","admin3":"18UD","localeAltName":null},{"geonameid":2651542,"name":"Dalwood","admin3":"18UB","localeAltName":null},{"geonameid":2651514,"name":"Dartington","admin3":"18UG","localeAltName":null},{"geonameid":2651498,"name":"Dartmouth","admin3":"18UG","localeAltName":null},{"geonameid":2651474,"name":"Dawlish","admin3":"18UH","localeAltName":null},{"geonameid":2651467,"name":"Dean","admin3":"18UG","localeAltName":null},{"geonameid":2651462,"name":"Dean Prior","admin3":"18UG","localeAltName":null},{"geonameid":2651384,"name":"Denbury","admin3":"18UH","localeAltName":null},{"geonameid":2651371,"name":"Dennington","admin3":"18UE","localeAltName":null},{"geonameid":2651225,"name":"Diptford","admin3":"18UG","localeAltName":null},{"geonameid":2651206,"name":"Dittisham","admin3":"18UG","localeAltName":null},{"geonameid":2651177,"name":"Doddiscombsleigh","admin3":"18UH","localeAltName":null},{"geonameid":2651146,"name":"Dolton","admin3":"18UK","localeAltName":null},{"geonameid":2651056,"name":"Dousland","admin3":"18UL","localeAltName":null},{"geonameid":11072010,"name":"Drakeland Corner","admin3":"18UG","localeAltName":null},{"geonameid":2650992,"name":"Drewsteignton","admin3":"18UL","localeAltName":null},{"geonameid":2650713,"name":"Dunkeswell","admin3":"18UB","localeAltName":null},{"geonameid":2650664,"name":"Dunsford","admin3":"18UH","localeAltName":null},{"geonameid":2650647,"name":"Dunterton","admin3":"18UL","localeAltName":null},{"geonameid":2650513,"name":"East Allington","admin3":"18UG","localeAltName":null},{"geonameid":2650510,"name":"East Anstey","admin3":"18UE","localeAltName":null},{"geonameid":2650494,"name":"East Buckland","admin3":"18UE","localeAltName":null},{"geonameid":2650493,"name":"East Budleigh","admin3":"18UB","localeAltName":null},{"geonameid":2650469,"name":"East Down","admin3":"18UE","localeAltName":null},{"geonameid":10100339,"name":"East Lyn","admin3":"18UE","localeAltName":null},{"geonameid":2650353,"name":"East Portlemouth","admin3":"18UG","localeAltName":null},{"geonameid":2634292,"name":"East Prawle","admin3":"18UG","localeAltName":null},{"geonameid":2650351,"name":"East Putford","admin3":"18UK","localeAltName":null},{"geonameid":2650304,"name":"East Worlington","admin3":"18UE","localeAltName":null},{"geonameid":9538977,"name":"East-The-Water","admin3":"18UK","localeAltName":null},{"geonameid":11550098,"name":"Eastleigh","admin3":"18UE","localeAltName":null},{"geonameid":2650193,"name":"Eggbuckland","admin3":"","localeAltName":null},{"geonameid":2650192,"name":"Eggesford","admin3":"18UD","localeAltName":null},{"geonameid":2649932,"name":"Ermington","admin3":"18UG","localeAltName":null},{"geonameid":2649814,"name":"Exbourne","admin3":"18UL","localeAltName":null},{"geonameid":2649808,"name":"Exeter","admin3":"18UC","localeAltName":null},{"geonameid":2649803,"name":"Exminster","admin3":"18UH","localeAltName":null},{"geonameid":2649800,"name":"Exmouth","admin3":"18UB","localeAltName":null},{"geonameid":2649734,"name":"Fairmile","admin3":"18UB","localeAltName":null},{"geonameid":11592749,"name":"Feniton","admin3":"18UB","localeAltName":null},{"geonameid":2649456,"name":"Filleigh","admin3":"18UE","localeAltName":null},{"geonameid":8063452,"name":"Folly Gate","admin3":"18UL","localeAltName":null},{"geonameid":2649076,"name":"Fremington","admin3":"18UE","localeAltName":null},{"geonameid":2649039,"name":"Frithelstock","admin3":"18UK","localeAltName":null},{"geonameid":2648910,"name":"Galmpton","admin3":"18UG","localeAltName":null},{"geonameid":2648719,"name":"George Nympton","admin3":"18UE","localeAltName":null},{"geonameid":2648721,"name":"Georgeham","admin3":"18UE","localeAltName":null},{"geonameid":2648716,"name":"Germansweek","admin3":"18UL","localeAltName":null},{"geonameid":2648684,"name":"Gidleigh","admin3":"18UL","localeAltName":null},{"geonameid":2648619,"name":"Gittisham","admin3":"18UB","localeAltName":null},{"geonameid":2648332,"name":"Goodleigh","admin3":"18UE","localeAltName":null},{"geonameid":2648004,"name":"Great Torrington","admin3":"18UK","localeAltName":null},{"geonameid":9538976,"name":"Greenville Ridge","admin3":"18UK","localeAltName":null},{"geonameid":2647647,"name":"Halberton","admin3":"18UD","localeAltName":null},{"geonameid":2647591,"name":"Halwell","admin3":"18UG","localeAltName":null},{"geonameid":2647590,"name":"Halwill","admin3":"18UK","localeAltName":null},{"geonameid":11593291,"name":"Halwill Junction","admin3":"18UK","localeAltName":null},{"geonameid":9538975,"name":"Handy Cross","admin3":"18UK","localeAltName":null},{"geonameid":2647510,"name":"Harberton","admin3":"18UG","localeAltName":null},{"geonameid":2647480,"name":"Harford","admin3":"18UG","localeAltName":null},{"geonameid":2647403,"name":"Hartland","admin3":"18UK","localeAltName":null},{"geonameid":2647341,"name":"Hatherleigh","admin3":"18UL","localeAltName":null},{"geonameid":2647295,"name":"Hawkchurch","admin3":"18UB","localeAltName":null},{"geonameid":11126123,"name":"Hawley Bottom","admin3":"18UB","localeAltName":null},{"geonameid":8436366,"name":"Haytor","admin3":"18UH","localeAltName":null},{"geonameid":6691884,"name":"Heavitree","admin3":"18UC","localeAltName":null},{"geonameid":2647180,"name":"Hele","admin3":"18UD","localeAltName":null},{"geonameid":2647137,"name":"Hemerdon","admin3":"18UG","localeAltName":null},{"geonameid":2647119,"name":"Hemyock","admin3":"18UD","localeAltName":null},{"geonameid":2647096,"name":"Hennock","admin3":"18UH","localeAltName":null},{"geonameid":2646980,"name":"High Bickington","admin3":"18UK","localeAltName":null},{"geonameid":2646978,"name":"High Bray","admin3":"18UE","localeAltName":null},{"geonameid":2646983,"name":"Highampton","admin3":"18UL","localeAltName":null},{"geonameid":2646919,"name":"Highweek","admin3":"18UH","localeAltName":null},{"geonameid":10100340,"name":"Hillsford","admin3":"18UE","localeAltName":null},{"geonameid":2646825,"name":"Hittisleigh","admin3":"18UD","localeAltName":null},{"geonameid":2646811,"name":"Hockworthy","admin3":"18UD","localeAltName":null},{"geonameid":2646782,"name":"Holbeton","admin3":"18UG","localeAltName":null},{"geonameid":2646773,"name":"Holcombe Burnell","admin3":"18UH","localeAltName":null},{"geonameid":9973420,"name":"Holcombe Burnell Barton","admin3":"18UH","localeAltName":null},{"geonameid":2646772,"name":"Holcombe Rogus","admin3":"18UD","localeAltName":null},{"geonameid":2646755,"name":"Hollacombe","admin3":"18UK","localeAltName":null},{"geonameid":2646705,"name":"Holne","admin3":"18UG","localeAltName":null},{"geonameid":2646704,"name":"Holsworthy","admin3":"18UK","localeAltName":null},{"geonameid":2646658,"name":"Honiton","admin3":"18UB","localeAltName":null},{"geonameid":2646642,"name":"Hope Cove","admin3":"18UG","localeAltName":null},{"geonameid":2646578,"name":"Horrabridge","admin3":"18UL","localeAltName":null},{"geonameid":2646440,"name":"Humber","admin3":"18UH","localeAltName":null},{"geonameid":11072016,"name":"Hunsdon","admin3":"18UG","localeAltName":null},{"geonameid":2646379,"name":"Huntsham","admin3":"18UD","localeAltName":null},{"geonameid":12188585,"name":"Huntshaw","admin3":"18UK","localeAltName":null},{"geonameid":6324522,"name":"Huxham","admin3":"18UB","localeAltName":null},{"geonameid":2646298,"name":"Iddesleigh","admin3":"18UL","localeAltName":null},{"geonameid":2646297,"name":"Ide","admin3":"18UH","localeAltName":null},{"geonameid":2646296,"name":"Ideford","admin3":"18UH","localeAltName":null},{"geonameid":2646276,"name":"Ilfracombe","admin3":"18UE","localeAltName":null},{"geonameid":2646264,"name":"Ilsington","admin3":"18UH","localeAltName":null},{"geonameid":7303908,"name":"Inner Hope","admin3":"18UG","localeAltName":null},{"geonameid":2646151,"name":"Instow","admin3":"18UE","localeAltName":null},{"geonameid":2646062,"name":"Ipplepen","admin3":"18UH","localeAltName":null},{"geonameid":2645988,"name":"Ivybridge","admin3":"18UG","localeAltName":null},{"geonameid":2645978,"name":"Jacobstowe","admin3":"18UL","localeAltName":null},{"geonameid":2645859,"name":"Kelly","admin3":"18UL","localeAltName":null},{"geonameid":2645811,"name":"Kennerleigh","admin3":"18UD","localeAltName":null},{"geonameid":6693513,"name":"Kennford","admin3":"18UH","localeAltName":null},{"geonameid":2645794,"name":"Kentisbeare","admin3":"18UD","localeAltName":null},{"geonameid":2645793,"name":"Kentisbury","admin3":"18UE","localeAltName":null},{"geonameid":2645789,"name":"Kenton","admin3":"18UH","localeAltName":null},{"geonameid":2645592,"name":"Kilmington","admin3":"18UB","localeAltName":null},{"geonameid":2645449,"name":"Kings Nympton","admin3":"18UE","localeAltName":null},{"geonameid":2645486,"name":"Kingsbridge","admin3":"18UG","localeAltName":null},{"geonameid":2645464,"name":"Kingskerswell","admin3":"18UH","localeAltName":null},{"geonameid":2645442,"name":"Kingsteignton","admin3":"18UH","localeAltName":null},{"geonameid":2645440,"name":"Kingston","admin3":"18UG","localeAltName":null},{"geonameid":2645421,"name":"Kingswear","admin3":"18UG","localeAltName":null},{"geonameid":2645095,"name":"Knowstone","admin3":"18UE","localeAltName":null},{"geonameid":2644988,"name":"Lamerton","admin3":"18UL","localeAltName":null},{"geonameid":11592616,"name":"Landkey","admin3":"18UE","localeAltName":null},{"geonameid":2644898,"name":"Langtree","admin3":"18UK","localeAltName":null},{"geonameid":2644872,"name":"Lapford","admin3":"18UD","localeAltName":null},{"geonameid":2644699,"name":"Lee","admin3":"18UE","localeAltName":null},{"geonameid":6693637,"name":"Lee Mill","admin3":"18UG","localeAltName":null},{"geonameid":11072013,"name":"Lee Mill Bridge","admin3":"18UG","localeAltName":null},{"geonameid":11072014,"name":"Lee Mill Industrial Estate","admin3":"18UG","localeAltName":null},{"geonameid":11072007,"name":"Lee Moor","admin3":"18UG","localeAltName":null},{"geonameid":6620448,"name":"Lewdown","admin3":"18UL","localeAltName":null},{"geonameid":2644550,"name":"Lewtrenchard","admin3":"18UL","localeAltName":null},{"geonameid":2644516,"name":"Lifton","admin3":"18UL","localeAltName":null},{"geonameid":2644233,"name":"Little Torrington","admin3":"18UK","localeAltName":null},{"geonameid":2644321,"name":"Littleham","admin3":"18UK","localeAltName":null},{"geonameid":2643784,"name":"Loddiswell","admin3":"18UG","localeAltName":null},{"geonameid":2643698,"name":"Longdown","admin3":"18UH","localeAltName":null},{"geonameid":2643466,"name":"Loxbear","admin3":"18UD","localeAltName":null},{"geonameid":2643465,"name":"Loxhore","admin3":"18UE","localeAltName":null},{"geonameid":2643439,"name":"Ludbrook","admin3":"18UG","localeAltName":null},{"geonameid":2643421,"name":"Luffincott","admin3":"18UK","localeAltName":null},{"geonameid":2643364,"name":"Luppitt","admin3":"18UB","localeAltName":null},{"geonameid":2643344,"name":"Lustleigh","admin3":"18UH","localeAltName":null},{"geonameid":2643340,"name":"Luton","admin3":"18UH","localeAltName":null},{"geonameid":2643325,"name":"Lydford","admin3":"18UL","localeAltName":null},{"geonameid":2643306,"name":"Lympstone","admin3":"18UB","localeAltName":null},{"geonameid":2643291,"name":"Lynmouth","admin3":"18UE","localeAltName":null},{"geonameid":2643285,"name":"Lynton","admin3":"18UE","localeAltName":null},{"geonameid":2643164,"name":"Malborough","admin3":"18UG","localeAltName":null},{"geonameid":2643126,"name":"Manaton","admin3":"18UH","localeAltName":null},{"geonameid":2643038,"name":"Mariansleigh","admin3":"18UE","localeAltName":null},{"geonameid":2643009,"name":"Marldon","admin3":"18UG","localeAltName":null},{"geonameid":2642953,"name":"Martinhoe","admin3":"18UE","localeAltName":null},{"geonameid":2642934,"name":"Marwood","admin3":"18UE","localeAltName":null},{"geonameid":7288350,"name":"Mary Tavy","admin3":"18UL","localeAltName":null},{"geonameid":2642926,"name":"Marystow","admin3":"18UL","localeAltName":null},{"geonameid":2642925,"name":"Marytavy","admin3":"18UL","localeAltName":null},{"geonameid":2642839,"name":"Meavy","admin3":"18UL","localeAltName":null},{"geonameid":2642826,"name":"Meeth","admin3":"18UL","localeAltName":null},{"geonameid":6955245,"name":"Meldon","admin3":"18UL","localeAltName":null},{"geonameid":2642756,"name":"Membury","admin3":"18UB","localeAltName":null},{"geonameid":2642721,"name":"Merrivale","admin3":"18UL","localeAltName":null},{"geonameid":2642719,"name":"Merryfield","admin3":"18UK","localeAltName":null},{"geonameid":2642704,"name":"Merton","admin3":"18UK","localeAltName":null},{"geonameid":2642699,"name":"Meshaw","admin3":"18UE","localeAltName":null},{"geonameid":2642538,"name":"Milford","admin3":"18UK","localeAltName":null},{"geonameid":2642471,"name":"Milton Abbot","admin3":"18UL","localeAltName":null},{"geonameid":2642468,"name":"Milton Damerel","admin3":"18UK","localeAltName":null},{"geonameid":2642395,"name":"Modbury","admin3":"18UG","localeAltName":null},{"geonameid":2642366,"name":"Molland","admin3":"18UE","localeAltName":null},{"geonameid":2642333,"name":"Monkleigh","admin3":"18UK","localeAltName":null},{"geonameid":2642331,"name":"Monkokehampton","admin3":"18UL","localeAltName":null},{"geonameid":2642320,"name":"Monkton","admin3":"18UB","localeAltName":null},{"geonameid":2642237,"name":"Morchard Bishop","admin3":"18UD","localeAltName":null},{"geonameid":2642217,"name":"Morebath","admin3":"18UD","localeAltName":null},{"geonameid":2642209,"name":"Moreleigh","admin3":"18UG","localeAltName":null},{"geonameid":2642201,"name":"Moretonhampstead","admin3":"18UH","localeAltName":null},{"geonameid":2642174,"name":"Mortehoe","admin3":"18UE","localeAltName":null},{"geonameid":2641944,"name":"Musbury","admin3":"18UB","localeAltName":null},{"geonameid":2641557,"name":"Newton Abbot","admin3":"18UH","localeAltName":null},{"geonameid":2641552,"name":"Newton Ferrers","admin3":"18UG","localeAltName":null},{"geonameid":2641536,"name":"Newton Poppleford","admin3":"18UB","localeAltName":null},{"geonameid":2641531,"name":"Newton Saint Petrock","admin3":"18UK","localeAltName":null},{"geonameid":2641532,"name":"Newton St Cyres","admin3":"18UD","localeAltName":null},{"geonameid":2641414,"name":"North Bovey","admin3":"18UH","localeAltName":null},{"geonameid":6947733,"name":"North Hessary Tor","admin3":"18UL","localeAltName":null},{"geonameid":2641333,"name":"North Huish","admin3":"18UG","localeAltName":null},{"geonameid":2641302,"name":"North Molton","admin3":"18UE","localeAltName":null},{"geonameid":2641245,"name":"North Tawton","admin3":"18UL","localeAltName":null},{"geonameid":2641434,"name":"Northam","admin3":"18UK","localeAltName":null},{"geonameid":2641387,"name":"Northcott","admin3":"18UK","localeAltName":null},{"geonameid":2641316,"name":"Northleigh","admin3":"18UB","localeAltName":null},{"geonameid":2641313,"name":"Northlew","admin3":"18UL","localeAltName":null},{"geonameid":2641129,"name":"Oakford","admin3":"18UD","localeAltName":null},{"geonameid":2641065,"name":"Offwell","admin3":"18UB","localeAltName":null},{"geonameid":2641049,"name":"Okehampton","admin3":"18UL","localeAltName":null},{"geonameid":3345361,"name":"Oldways End","admin3":"18UE","localeAltName":null},{"geonameid":2640837,"name":"Otterton","admin3":"18UB","localeAltName":null},{"geonameid":2640834,"name":"Ottery St Mary","admin3":"18UB","localeAltName":null},{"geonameid":7303907,"name":"Outer Hope","admin3":"18UG","localeAltName":null},{"geonameid":2640660,"name":"Pancrasweek","admin3":"18UK","localeAltName":null},{"geonameid":2640608,"name":"Parkham","admin3":"18UK","localeAltName":null},{"geonameid":2640598,"name":"Parracombe","admin3":"18UE","localeAltName":null},{"geonameid":2640551,"name":"Payhembury","admin3":"18UB","localeAltName":null},{"geonameid":2640430,"name":"Pennymoor","admin3":"18UD","localeAltName":null},{"geonameid":2640346,"name":"Peters Marland","admin3":"18UK","localeAltName":null},{"geonameid":2640341,"name":"Petertavy","admin3":"18UL","localeAltName":null},{"geonameid":2640339,"name":"Petrockstow","admin3":"18UK","localeAltName":null},{"geonameid":2640283,"name":"Pilton","admin3":"18UE","localeAltName":null},{"geonameid":2640277,"name":"Pinhoe","admin3":"18UC","localeAltName":null},{"geonameid":2640192,"name":"Plympton","admin3":"","localeAltName":null},{"geonameid":2640189,"name":"Plymtree","admin3":"18UB","localeAltName":null},{"geonameid":2640147,"name":"Poltimore","admin3":"18UB","localeAltName":null},{"geonameid":2639982,"name":"Postbridge","admin3":"18UL","localeAltName":null},{"geonameid":2639960,"name":"Poughill","admin3":"18UD","localeAltName":null},{"geonameid":2639951,"name":"Powderham","admin3":"18UH","localeAltName":null},{"geonameid":2639885,"name":"Princetown","admin3":"18UL","localeAltName":null},{"geonameid":2639869,"name":"Puddington","admin3":"18UK","localeAltName":null},{"geonameid":2639817,"name":"Pyworthy","admin3":"18UK","localeAltName":null},{"geonameid":2639737,"name":"Rackenford","admin3":"18UE","localeAltName":null},{"geonameid":2639609,"name":"Rattery","admin3":"18UG","localeAltName":null},{"geonameid":7910363,"name":"Raymond's Hill","admin3":"18UB","localeAltName":null},{"geonameid":6324523,"name":"Rewe","admin3":"18UB","localeAltName":null},{"geonameid":2639278,"name":"Roborough","admin3":"18UK","localeAltName":null},{"geonameid":2639259,"name":"Rockbeare","admin3":"18UB","localeAltName":null},{"geonameid":2639195,"name":"Romansleigh","admin3":"18UE","localeAltName":null},{"geonameid":2639152,"name":"Rose Ash","admin3":"18UE","localeAltName":null},{"geonameid":2639056,"name":"Rousdon","admin3":"18UB","localeAltName":null},{"geonameid":10794260,"name":"Rumleigh","admin3":"18UL","localeAltName":null},{"geonameid":2638839,"name":"Saint Budeaux","admin3":"","localeAltName":null},{"geonameid":2638791,"name":"Saint Giles on the Heath","admin3":"18UK","localeAltName":null},{"geonameid":2638682,"name":"Salcombe","admin3":"18UG","localeAltName":null},{"geonameid":2638680,"name":"Salcombe Regis","admin3":"18UB","localeAltName":null},{"geonameid":2638618,"name":"Sampford Courtenay","admin3":"18UL","localeAltName":null},{"geonameid":2638617,"name":"Sampford Peverell","admin3":"18UD","localeAltName":null},{"geonameid":2638616,"name":"Sampford Spiney","admin3":"18UL","localeAltName":null},{"geonameid":2638594,"name":"Sandford","admin3":"18UD","localeAltName":null},{"geonameid":2638564,"name":"Sandquay","admin3":"18UG","localeAltName":null},{"geonameid":2638497,"name":"Satterleigh","admin3":"18UE","localeAltName":null},{"geonameid":2638278,"name":"Seaton","admin3":"18UB","localeAltName":null},{"geonameid":8521328,"name":"Shaldon","admin3":"18UH","localeAltName":null},{"geonameid":2638115,"name":"Shaugh Prior","admin3":"18UG","localeAltName":null},{"geonameid":2638099,"name":"Shebbear","admin3":"18UK","localeAltName":null},{"geonameid":2638085,"name":"Sheepstor","admin3":"18UL","localeAltName":null},{"geonameid":2638084,"name":"Sheepwash","admin3":"18UK","localeAltName":null},{"geonameid":3345362,"name":"Shillingford","admin3":"18UD","localeAltName":null},{"geonameid":2637931,"name":"Shirwell","admin3":"18UE","localeAltName":null},{"geonameid":2637875,"name":"Shute","admin3":"18UB","localeAltName":null},{"geonameid":2637863,"name":"Sidbury","admin3":"18UB","localeAltName":null},{"geonameid":2637853,"name":"Sidmouth","admin3":"18UB","localeAltName":null},{"geonameid":2637826,"name":"Silverton","admin3":"18UD","localeAltName":null},{"geonameid":2637668,"name":"Slapton","admin3":"18UG","localeAltName":null},{"geonameid":11072012,"name":"Smithaleigh","admin3":"18UG","localeAltName":null},{"geonameid":2637495,"name":"Sourton","admin3":"18UL","localeAltName":null},{"geonameid":2637471,"name":"South Brent","admin3":"18UG","localeAltName":null},{"geonameid":2637376,"name":"South Milton","admin3":"18UG","localeAltName":null},{"geonameid":2637373,"name":"South Molton","admin3":"18UE","localeAltName":null},{"geonameid":2637344,"name":"South Pool","admin3":"18UG","localeAltName":null},{"geonameid":2637312,"name":"South Tawton","admin3":"18UL","localeAltName":null},{"geonameid":2637272,"name":"South Zeal","admin3":"18UL","localeAltName":null},{"geonameid":2637385,"name":"Southleigh","admin3":"18UB","localeAltName":null},{"geonameid":11072011,"name":"Sparkwell Village","admin3":"18UG","localeAltName":null},{"geonameid":2637199,"name":"Spreyton","admin3":"18UL","localeAltName":null},{"geonameid":6691885,"name":"St. Leonards","admin3":"18UC","localeAltName":null},{"geonameid":6691886,"name":"St. Loyes","admin3":"18UC","localeAltName":null},{"geonameid":6691883,"name":"St. Thomas","admin3":"18UC","localeAltName":null},{"geonameid":2637008,"name":"Starcross","admin3":"18UH","localeAltName":null},{"geonameid":2636991,"name":"Staverton","admin3":"18UG","localeAltName":null},{"geonameid":2636924,"name":"Sticklepath","admin3":"18UL","localeAltName":null},{"geonameid":2636886,"name":"Stockland","admin3":"18UB","localeAltName":null},{"geonameid":2636885,"name":"Stockleigh English","admin3":"18UD","localeAltName":null},{"geonameid":2636884,"name":"Stockleigh Pomeroy","admin3":"18UD","localeAltName":null},{"geonameid":2636862,"name":"Stoke Canon","admin3":"18UB","localeAltName":null},{"geonameid":2636856,"name":"Stoke Fleming","admin3":"18UG","localeAltName":null},{"geonameid":2636855,"name":"Stoke Gabriel","admin3":"18UG","localeAltName":null},{"geonameid":2636836,"name":"Stoke Rivers","admin3":"18UE","localeAltName":null},{"geonameid":2636848,"name":"Stokeinteignhead","admin3":"18UH","localeAltName":null},{"geonameid":2636842,"name":"Stokenham","admin3":"18UG","localeAltName":null},{"geonameid":2636794,"name":"Stoodleigh","admin3":"18UD","localeAltName":null},{"geonameid":2636750,"name":"Stowford","admin3":"18UL","localeAltName":null},{"geonameid":2636665,"name":"Strete","admin3":"18UG","localeAltName":null},{"geonameid":2636509,"name":"Sutcombe","admin3":"18UK","localeAltName":null},{"geonameid":2636393,"name":"Swimbridge","admin3":"18UE","localeAltName":null},{"geonameid":2636358,"name":"Sydenham Damerel","admin3":"18UL","localeAltName":null},{"geonameid":2636311,"name":"Talaton","admin3":"18UB","localeAltName":null},{"geonameid":2636174,"name":"Tavistock","admin3":"18UL","localeAltName":null},{"geonameid":2636169,"name":"Tawstock","admin3":"18UE","localeAltName":null},{"geonameid":2636148,"name":"Tedburn Saint Mary","admin3":"18UH","localeAltName":null},{"geonameid":2636133,"name":"Teigngrace","admin3":"18UH","localeAltName":null},{"geonameid":2636132,"name":"Teignmouth","admin3":"18UH","localeAltName":null},{"geonameid":2636111,"name":"Templeton","admin3":"18UD","localeAltName":null},{"geonameid":2636082,"name":"Tetcott","admin3":"18UK","localeAltName":null},{"geonameid":2636037,"name":"Thelbridge","admin3":"18UD","localeAltName":null},{"geonameid":2636003,"name":"Thornbury","admin3":"18UK","localeAltName":null},{"geonameid":2635939,"name":"Thorverton","admin3":"18UD","localeAltName":null},{"geonameid":2635913,"name":"Throwleigh","admin3":"18UL","localeAltName":null},{"geonameid":2635909,"name":"Thrushelton","admin3":"18UL","localeAltName":null},{"geonameid":2635894,"name":"Thurlestone","admin3":"18UG","localeAltName":null},{"geonameid":10100364,"name":"Tippacott","admin3":"18UE","localeAltName":null},{"geonameid":2635784,"name":"Tipton Saint John","admin3":"18UB","localeAltName":null},{"geonameid":2635762,"name":"Tiverton","admin3":"18UD","localeAltName":null},{"geonameid":2635680,"name":"Topsham","admin3":"18UC","localeAltName":null},{"geonameid":8063443,"name":"Torcross","admin3":"18UG","localeAltName":null},{"geonameid":2635610,"name":"Totnes","admin3":"18UG","localeAltName":null},{"geonameid":2635499,"name":"Trentishoe","admin3":"18UE","localeAltName":null},{"geonameid":2635411,"name":"Trusham","admin3":"18UH","localeAltName":null},{"geonameid":2635301,"name":"Twitchen","admin3":"18UE","localeAltName":null},{"geonameid":2635300,"name":"Two Bridges","admin3":"18UL","localeAltName":null},{"geonameid":2635234,"name":"Uffculme","admin3":"18UD","localeAltName":null},{"geonameid":2635226,"name":"Ugborough","admin3":"18UG","localeAltName":null},{"geonameid":2635180,"name":"Umberleigh","admin3":"18UE","localeAltName":null},{"geonameid":2635152,"name":"Uplowman","admin3":"18UD","localeAltName":null},{"geonameid":2635151,"name":"Uplyme","admin3":"18UB","localeAltName":null},{"geonameid":2635149,"name":"Upottery","admin3":"18UB","localeAltName":null},{"geonameid":2635083,"name":"Upton Pyne","admin3":"18UB","localeAltName":null},{"geonameid":2634986,"name":"Venn Ottery","admin3":"18UB","localeAltName":null},{"geonameid":2634951,"name":"Virginstow","admin3":"18UK","localeAltName":null},{"geonameid":2634880,"name":"Walkhampton","admin3":"18UL","localeAltName":null},{"geonameid":2634765,"name":"Warkleigh","admin3":"18UE","localeAltName":null},{"geonameid":2634720,"name":"Washfield","admin3":"18UD","localeAltName":null},{"geonameid":2634632,"name":"Weare Giffard","admin3":"18UK","localeAltName":null},{"geonameid":2634592,"name":"Welcombe","admin3":"18UK","localeAltName":null},{"geonameid":2634548,"name":"Wembury","admin3":"18UG","localeAltName":null},{"geonameid":2634515,"name":"West Alvington","admin3":"18UG","localeAltName":null},{"geonameid":2634514,"name":"West Anstey","admin3":"18UE","localeAltName":null},{"geonameid":2634489,"name":"West Buckland","admin3":"18UE","localeAltName":null},{"geonameid":2634452,"name":"West Down","admin3":"18UE","localeAltName":null},{"geonameid":12195558,"name":"West Hill","admin3":"18UB","localeAltName":null},{"geonameid":10100336,"name":"West Lyn","admin3":"18UE","localeAltName":null},{"geonameid":2634290,"name":"West Putford","admin3":"18UK","localeAltName":null},{"geonameid":2634223,"name":"West Worlington","admin3":"18UE","localeAltName":null},{"geonameid":11072017,"name":"Westlake","admin3":"18UG","localeAltName":null},{"geonameid":2634366,"name":"Westleigh","admin3":"18UE","localeAltName":null},{"geonameid":2634240,"name":"Westward Ho!","admin3":"18UK","localeAltName":null},{"geonameid":2634153,"name":"Whimple","admin3":"18UB","localeAltName":null},{"geonameid":2634132,"name":"Whitchurch","admin3":"18UL","localeAltName":null},{"geonameid":2634057,"name":"Whitestone","admin3":"18UH","localeAltName":null},{"geonameid":2633961,"name":"Widecombe in the Moor","admin3":"18UH","localeAltName":null},{"geonameid":2633951,"name":"Widworthy","admin3":"18UB","localeAltName":null},{"geonameid":2633916,"name":"Willand","admin3":"18UD","localeAltName":null},{"geonameid":6696486,"name":"Wilmington","admin3":"18UB","localeAltName":null},{"geonameid":10100348,"name":"Wilsham","admin3":"18UE","localeAltName":null},{"geonameid":2633818,"name":"Winkleigh","admin3":"18UK","localeAltName":null},{"geonameid":9538974,"name":"Winsford","admin3":"18UK","localeAltName":null},{"geonameid":2633745,"name":"Witheridge","admin3":"18UE","localeAltName":null},{"geonameid":2633737,"name":"Withleigh","admin3":"18UD","localeAltName":null},{"geonameid":6693657,"name":"Woodbury","admin3":"18UB","localeAltName":null},{"geonameid":2633637,"name":"Woodland","admin3":"18UH","localeAltName":null},{"geonameid":11072015,"name":"Woodlands","admin3":"18UG","localeAltName":null},{"geonameid":2633635,"name":"Woodleigh","admin3":"18UG","localeAltName":null},{"geonameid":2633608,"name":"Woolacombe","admin3":"18UE","localeAltName":null},{"geonameid":2633603,"name":"Woolfardisworthy","admin3":"18UK","localeAltName":null},{"geonameid":2633604,"name":"Woolfardisworthy","admin3":"18UD","localeAltName":null},{"geonameid":6619990,"name":"Wotter","admin3":"18UG","localeAltName":null},{"geonameid":2633505,"name":"Wrafton","admin3":"18UE","localeAltName":null},{"geonameid":2633502,"name":"Wrangaton","admin3":"18UG","localeAltName":null},{"geonameid":2633420,"name":"Yarcombe","admin3":"18UB","localeAltName":null},{"geonameid":2633394,"name":"Yealmpton","admin3":"18UG","localeAltName":null},{"geonameid":2633382,"name":"Yelverton","admin3":"18UL","localeAltName":null},{"geonameid":2633375,"name":"Yeoford","admin3":"18UD","localeAltName":null},{"geonameid":2633327,"name":"Zeal Monachorum","admin3":"18UD","localeAltName":null}],"admin3":[{"geonameid":2635640,"name":"Torridge District","admin3":"18UK","localeAltName":null},{"geonameid":2637414,"name":"South Hams District","admin3":"18UG","localeAltName":null},{"geonameid":7290674,"name":"East Devon District","admin3":"18UB","localeAltName":null},{"geonameid":7290675,"name":"Exeter District","admin3":"18UC","localeAltName":null},{"geonameid":7290676,"name":"Mid Devon District","admin3":"18UD","localeAltName":null},{"geonameid":7290677,"name":"North Devon District","admin3":"18UE","localeAltName":null},{"geonameid":7290678,"name":"Teignbridge District","admin3":"18UH","localeAltName":null},{"geonameid":7290679,"name":"West Devon District","admin3":"18UL","localeAltName":null}],"alternateNames":[{"alternatenameId":2254287,"geonameid":2651292,"isoLanguage":"en","alternateName":"Devon","isPreferredName":true,"isShortName":true,"isColloquial":false,"isHistoric":false},{"alternatenameId":1626647,"geonameid":6269131,"isoLanguage":"en","alternateName":"England","isPreferredName":true,"isShortName":true,"isColloquial":false,"isHistoric":false}]},"__N_SSG":true}