{"pageProps":{"locale":"en","admin2":{"geonameid":3333173,"name":"Milton Keynes","country":"GB","admin1":"ENG","admin2":"I6","admin3":"","latitude":"52.0833300","longitude":"-0.7500000","localeAltName":"Milton Keynes"},"admin1":{"geonameid":6269131,"name":"England","admin1":"ENG","localeAltName":"England"},"locations":[{"geonameid":11591724,"name":"Abbey Hill","admin3":"00MG004","localeAltName":null},{"geonameid":2656856,"name":"Astwood","admin3":"00MG001","localeAltName":null},{"geonameid":2655351,"name":"Bletchley","admin3":"00MG039","localeAltName":null},{"geonameid":2655073,"name":"Bow Brickhill","admin3":"00MG002","localeAltName":null},{"geonameid":2654974,"name":"Bradwell","admin3":"00MG003","localeAltName":null},{"geonameid":2654510,"name":"Broughton","admin3":"00MG005","localeAltName":null},{"geonameid":2653961,"name":"Calverton","admin3":"00MG040","localeAltName":null},{"geonameid":2653545,"name":"Castlethorpe","admin3":"00MG006","localeAltName":null},{"geonameid":2653193,"name":"Chicheley","admin3":"00MG007","localeAltName":null},{"geonameid":12181859,"name":"Clifton Reynes","admin3":"00MG008","localeAltName":null},{"geonameid":2652613,"name":"Cold Brayfield","admin3":"00MG009","localeAltName":null},{"geonameid":11776603,"name":"Crownhill","admin3":"00MG028","localeAltName":null},{"geonameid":2650019,"name":"Emberton","admin3":"00MG010","localeAltName":null},{"geonameid":2649552,"name":"Fenny Stratford","admin3":"00MG039","localeAltName":null},{"geonameid":2649460,"name":"Filgrave","admin3":"00MG046","localeAltName":null},{"geonameid":2648758,"name":"Gayhurst","admin3":"00MG011","localeAltName":null},{"geonameid":2648067,"name":"Great Linford","admin3":"00MG012","localeAltName":null},{"geonameid":2647518,"name":"Hanslope","admin3":"00MG013","localeAltName":null},{"geonameid":2647306,"name":"Haversham","admin3":"00MG015","localeAltName":null},{"geonameid":2644826,"name":"Lathbury","admin3":"00MG016","localeAltName":null},{"geonameid":2644804,"name":"Lavendon","admin3":"00MG017","localeAltName":null},{"geonameid":2644298,"name":"Little Linford","admin3":"00MG015","localeAltName":null},{"geonameid":2643557,"name":"Loughton","admin3":"00MG019","localeAltName":null},{"geonameid":2642465,"name":"Milton Keynes","admin3":"00MG041","localeAltName":null},{"geonameid":11550987,"name":"Milton Keynes Village","admin3":"00MG020","localeAltName":null},{"geonameid":2642126,"name":"Moulsoe","admin3":"00MG021","localeAltName":null},{"geonameid":11496499,"name":"New Blossomville","admin3":"00MG023","localeAltName":null},{"geonameid":2641591,"name":"Newport Pagnell","admin3":"00MG022","localeAltName":null},{"geonameid":2641383,"name":"North Crawley","admin3":"00MG024","localeAltName":null},{"geonameid":2640972,"name":"Olney","admin3":"00MG025","localeAltName":null},{"geonameid":2639597,"name":"Ravenstone","admin3":"00MG026","localeAltName":null},{"geonameid":2638050,"name":"Shenley Brook End","admin3":"00MG027","localeAltName":null},{"geonameid":2638049,"name":"Shenley Church End","admin3":"00MG028","localeAltName":null},{"geonameid":2638017,"name":"Sherington","admin3":"00MG029","localeAltName":null},{"geonameid":2637819,"name":"Simpson","admin3":"00MG044","localeAltName":null},{"geonameid":2636852,"name":"Stoke Goldington","admin3":"00MG031","localeAltName":null},{"geonameid":2636795,"name":"Stony Stratford","admin3":"00MG045","localeAltName":null},{"geonameid":2635260,"name":"Tyringham","admin3":"00MG046","localeAltName":null},{"geonameid":11550988,"name":"Walton","admin3":"00MG032","localeAltName":null},{"geonameid":2634740,"name":"Warrington","admin3":"00MG033","localeAltName":null},{"geonameid":8468720,"name":"Water Eaton","admin3":"00MG039","localeAltName":null},{"geonameid":2634653,"name":"Wavendon","admin3":"00MG034","localeAltName":null},{"geonameid":2634304,"name":"Weston Underwood","admin3":"00MG035","localeAltName":null},{"geonameid":2633913,"name":"Willen","admin3":"00MG037","localeAltName":null},{"geonameid":2633710,"name":"Woburn Sands","admin3":"00MG036","localeAltName":null},{"geonameid":2633688,"name":"Wolverton","admin3":"00MG048","localeAltName":null},{"geonameid":2633588,"name":"Woolstone","admin3":"00MG038","localeAltName":null}],"admin3":[{"geonameid":7291158,"name":"Broughton","admin3":"00MG005","localeAltName":null},{"geonameid":7291159,"name":"Castlethorpe","admin3":"00MG006","localeAltName":null},{"geonameid":7291290,"name":"Stantonbury","admin3":"00MG030"},{"geonameid":7291292,"name":"Weston Underwood","admin3":"00MG035","localeAltName":null},{"geonameid":7295586,"name":"Bow Brickhill","admin3":"00MG002","localeAltName":null},{"geonameid":7295587,"name":"Cold Brayfield","admin3":"00MG009","localeAltName":null},{"geonameid":7295588,"name":"Gayhurst","admin3":"00MG011","localeAltName":null},{"geonameid":7295589,"name":"Olney","admin3":"00MG025","localeAltName":null},{"geonameid":7295590,"name":"Stoke Goldington","admin3":"00MG031","localeAltName":null},{"geonameid":7295591,"name":"Campbell Park","admin3":"00MG037","localeAltName":null},{"geonameid":7295592,"name":"Woughton on the Green","admin3":"00MG038","localeAltName":null},{"geonameid":7295593,"name":"Bletchley and Fenny Stratford","admin3":"00MG039","localeAltName":null},{"geonameid":7295594,"name":"West Bletchley","admin3":"00MG047"},{"geonameid":7295993,"name":"Milton Keynes","admin3":"00MG020","localeAltName":null},{"geonameid":7295994,"name":"Warrington","admin3":"00MG033","localeAltName":null},{"geonameid":7296587,"name":"Chicheley","admin3":"00MG007","localeAltName":null},{"geonameid":7296588,"name":"Lathbury","admin3":"00MG016","localeAltName":null},{"geonameid":7296589,"name":"Little Brickhill","admin3":"00MG018"},{"geonameid":7296590,"name":"Loughton","admin3":"00MG019","localeAltName":null},{"geonameid":7296591,"name":"North Crawley","admin3":"00MG024","localeAltName":null},{"geonameid":7296592,"name":"Ravenstone","admin3":"00MG026","localeAltName":null},{"geonameid":7296593,"name":"Shenley Brook End","admin3":"00MG027","localeAltName":null},{"geonameid":7296594,"name":"Sherington","admin3":"00MG029","localeAltName":null},{"geonameid":7296595,"name":"Tyringham and Filgrave","admin3":"00MG046","localeAltName":null},{"geonameid":7297832,"name":"Bradwell","admin3":"00MG003","localeAltName":null},{"geonameid":7298979,"name":"Wavendon","admin3":"00MG034","localeAltName":null},{"geonameid":7299213,"name":"Astwood","admin3":"00MG001","localeAltName":null},{"geonameid":7299232,"name":"Central Milton Keynes","admin3":"00MG041","localeAltName":null},{"geonameid":7299258,"name":"Emberton","admin3":"00MG010","localeAltName":null},{"geonameid":7299259,"name":"Great Linford","admin3":"00MG012","localeAltName":null},{"geonameid":7299260,"name":"Haversham-cum-Little Linford","admin3":"00MG015","localeAltName":null},{"geonameid":7299261,"name":"Shenley Church End","admin3":"00MG028","localeAltName":null},{"geonameid":7299262,"name":"Kents Hill, Monkston and Brinklow","admin3":"00MG042"},{"geonameid":7299263,"name":"New Bradwell","admin3":"00MG043"},{"geonameid":7299264,"name":"Simpson","admin3":"00MG044","localeAltName":null},{"geonameid":7299931,"name":"Walton","admin3":"00MG032","localeAltName":null},{"geonameid":7301821,"name":"Bradwell Abbey","admin3":"00MG004","localeAltName":null},{"geonameid":7301822,"name":"Clifton Reynes","admin3":"00MG008","localeAltName":null},{"geonameid":7301823,"name":"Hanslope","admin3":"00MG013","localeAltName":null},{"geonameid":7301824,"name":"Hardmead","admin3":"00MG014"},{"geonameid":7301825,"name":"Lavendon","admin3":"00MG017","localeAltName":null},{"geonameid":7301826,"name":"Moulsoe","admin3":"00MG021","localeAltName":null},{"geonameid":7301827,"name":"Newport Pagnell","admin3":"00MG022","localeAltName":null},{"geonameid":7301828,"name":"Newton Blossomville","admin3":"00MG023","localeAltName":null},{"geonameid":7301829,"name":"Woburn Sands","admin3":"00MG036","localeAltName":null},{"geonameid":7301830,"name":"Calverton","admin3":"00MG040","localeAltName":null},{"geonameid":7301831,"name":"Stony Stratford","admin3":"00MG045","localeAltName":null},{"geonameid":7301832,"name":"Wolverton and Greenleys","admin3":"00MG048","localeAltName":null}],"alternateNames":[{"alternatenameId":8666506,"geonameid":3333173,"isoLanguage":"en","alternateName":"Milton Keynes","isPreferredName":true,"isShortName":true,"isColloquial":false,"isHistoric":false},{"alternatenameId":1626647,"geonameid":6269131,"isoLanguage":"en","alternateName":"England","isPreferredName":true,"isShortName":true,"isColloquial":false,"isHistoric":false}]},"__N_SSG":true}