{"pageProps":{"locale":"en","admin2":{"geonameid":2633840,"name":"Royal Borough of Windsor and Maidenhead","country":"GB","admin1":"ENG","admin2":"P9","admin3":"","latitude":"51.4666700","longitude":"-0.6666700","localeAltName":"Windsor and Maidenhead"},"admin1":{"geonameid":6269131,"name":"England","admin1":"ENG","localeAltName":"England"},"locations":[{"geonameid":2656992,"name":"Ascot","admin3":"00ME012","localeAltName":null},{"geonameid":2655585,"name":"Bisham","admin3":"00ME001","localeAltName":null},{"geonameid":2654853,"name":"Bray","admin3":"00ME002","localeAltName":null},{"geonameid":2654850,"name":"Bray Court","admin3":"00ME002","localeAltName":null},{"geonameid":2652423,"name":"Cookham","admin3":"00ME003","localeAltName":null},{"geonameid":2651492,"name":"Datchet","admin3":"00ME005","localeAltName":null},{"geonameid":2649873,"name":"Eton","admin3":"00ME006","localeAltName":null},{"geonameid":6942331,"name":"Eton Wick","admin3":"00ME006","localeAltName":null},{"geonameid":2646548,"name":"Horton","admin3":"00ME007","localeAltName":null},{"geonameid":2646369,"name":"Hurley","admin3":"00ME008","localeAltName":null},{"geonameid":2643186,"name":"Maidenhead","admin3":"","localeAltName":null},{"geonameid":2640981,"name":"Old Windsor","admin3":"00ME009","localeAltName":null},{"geonameid":2636520,"name":"Sunningdale","admin3":"00ME011","localeAltName":null},{"geonameid":2636518,"name":"Sunninghill","admin3":"00ME012","localeAltName":null},{"geonameid":2634839,"name":"Waltham St Lawrence","admin3":"00ME013","localeAltName":null},{"geonameid":2634053,"name":"White Waltham","admin3":"00ME014","localeAltName":null},{"geonameid":2633842,"name":"Windsor","admin3":"","localeAltName":null},{"geonameid":2633443,"name":"Wraysbury","admin3":"00ME015","localeAltName":null}],"admin3":[{"geonameid":7292765,"name":"Cookham","admin3":"00ME003","localeAltName":null},{"geonameid":7292766,"name":"Hurley","admin3":"00ME008","localeAltName":null},{"geonameid":7292767,"name":"Old Windsor","admin3":"00ME009","localeAltName":null},{"geonameid":7292768,"name":"Sunningdale","admin3":"00ME011","localeAltName":null},{"geonameid":7297497,"name":"Bray","admin3":"00ME002","localeAltName":null},{"geonameid":7297498,"name":"Shottesbrooke","admin3":"00ME010"},{"geonameid":7297499,"name":"White Waltham","admin3":"00ME014","localeAltName":null},{"geonameid":7299655,"name":"Bisham","admin3":"00ME001","localeAltName":null},{"geonameid":7299656,"name":"Datchet","admin3":"00ME005","localeAltName":null},{"geonameid":7299657,"name":"Horton","admin3":"00ME007","localeAltName":null},{"geonameid":7299658,"name":"Waltham St. Lawrence","admin3":"00ME013","localeAltName":null},{"geonameid":7301558,"name":"Eton","admin3":"00ME006","localeAltName":null},{"geonameid":7301559,"name":"Sunninghill and Ascot","admin3":"00ME012","localeAltName":null},{"geonameid":7301560,"name":"Wraysbury","admin3":"00ME015","localeAltName":null},{"geonameid":7301669,"name":"Cox Green","admin3":"00ME004"}],"alternateNames":[{"alternatenameId":2254231,"geonameid":2633840,"isoLanguage":"en","alternateName":"Windsor and Maidenhead","isPreferredName":true,"isShortName":true,"isColloquial":false,"isHistoric":false},{"alternatenameId":1626647,"geonameid":6269131,"isoLanguage":"en","alternateName":"England","isPreferredName":true,"isShortName":true,"isColloquial":false,"isHistoric":false}]},"__N_SSG":true}