{"pageProps":{"locale":"ro","admin2":{"geonameid":681860,"name":"Comuna Câmpineanca","country":"RO","admin1":"40","admin2":"174780","admin3":"","latitude":"45.7083800","longitude":"27.1319100","localeAltName":null},"admin1":{"geonameid":662447,"name":"Vrancea","admin1":"40","localeAltName":"Vrancea"},"locations":[{"geonameid":681861,"name":"Câmpineanca","admin3":"","localeAltName":null},{"geonameid":676587,"name":"Gugeşti","admin3":"","localeAltName":null},{"geonameid":671355,"name":"Paraschiveni","admin3":"","localeAltName":null},{"geonameid":670835,"name":"Pietroasa","admin3":"","localeAltName":null},{"geonameid":666687,"name":"Slobozia","admin3":"","localeAltName":null},{"geonameid":666652,"name":"Slobozia- Vidraşcu","admin3":"","localeAltName":null},{"geonameid":666674,"name":"Slobozia-Câmpineanca","admin3":"","localeAltName":null},{"geonameid":662885,"name":"Vâlcele","admin3":"","localeAltName":null}],"admin3":[],"alternateNames":[{"alternatenameId":391637,"geonameid":662447,"isoLanguage":"ro","alternateName":"Vrancea","isPreferredName":true,"isShortName":true,"isColloquial":false,"isHistoric":false}]},"__N_SSG":true}