{"pageProps":{"locale":"de","admin2":{"geonameid":6458799,"name":"Uri","country":"CH","admin1":"UR","admin2":"400","admin3":"","latitude":"46.8304200","longitude":"8.6387600"},"admin1":{"geonameid":2658226,"name":"Kanton Uri","admin1":"UR"},"locations":[{"geonameid":2661780,"name":"Altdorf","admin3":"1201"},{"geonameid":2661750,"name":"Andermatt","admin3":"1202"},{"geonameid":2661693,"name":"Attinghausen","admin3":"1203"},{"geonameid":2661595,"name":"Bauen","admin3":"1214"},{"geonameid":2661316,"name":"Bürglen","admin3":"1205"},{"geonameid":2660863,"name":"Erstfeld","admin3":"1206"},{"geonameid":2660751,"name":"Flüelen","admin3":"1207"},{"geonameid":2660553,"name":"Göschenen","admin3":"1208"},{"geonameid":2660436,"name":"Gurtnellen","admin3":"1209"},{"geonameid":2660244,"name":"Isenthal","admin3":"1211"},{"geonameid":2658749,"name":"Schattdorf","admin3":"1213"},{"geonameid":2658654,"name":"Seedorf","admin3":"1214"},{"geonameid":2658650,"name":"Seelisberg","admin3":"1215"},{"geonameid":2658592,"name":"Silenen","admin3":"1209"},{"geonameid":2658573,"name":"Sisikon","admin3":"1217"},{"geonameid":2658532,"name":"Spiringen","admin3":"1218"},{"geonameid":2658243,"name":"Unterschächen","admin3":"1219"},{"geonameid":2658047,"name":"Wassen","admin3":"1220"}],"admin3":[{"geonameid":7285057,"name":"Altdorf (UR)","admin3":"1201"},{"geonameid":7285077,"name":"Andermatt","admin3":"1202"},{"geonameid":7285112,"name":"Attinghausen","admin3":"1203"},{"geonameid":7285395,"name":"Bürglen (UR)","admin3":"1205"},{"geonameid":7285764,"name":"Erstfeld","admin3":"1206"},{"geonameid":7285841,"name":"Flüelen","admin3":"1207"},{"geonameid":7285944,"name":"Göschenen","admin3":"1208"},{"geonameid":7286010,"name":"Gurtnellen","admin3":"1209"},{"geonameid":7286116,"name":"Hospental","admin3":"1210"},{"geonameid":7286149,"name":"Isenthal","admin3":"1211"},{"geonameid":7286861,"name":"Realp","admin3":"1212"},{"geonameid":7287077,"name":"Schattdorf","admin3":"1213"},{"geonameid":7287133,"name":"Seedorf (UR)","admin3":"1214"},{"geonameid":7287136,"name":"Seelisberg","admin3":"1215"},{"geonameid":7287171,"name":"Silenen","admin3":"1216"},{"geonameid":7287179,"name":"Sisikon","admin3":"1217"},{"geonameid":7287205,"name":"Spiringen","admin3":"1218"},{"geonameid":7287384,"name":"Unterschächen","admin3":"1219"},{"geonameid":7287546,"name":"Wassen","admin3":"1220"}],"alternateNames":[]},"__N_SSG":true}