{"pageProps":{"locale":"en","admin2":{"geonameid":4464374,"name":"Durham County","country":"US","admin1":"NC","admin2":"063","admin3":"","latitude":"36.0360000","longitude":"-78.8763200","localeAltName":null},"admin1":{"geonameid":4482348,"name":"North Carolina","admin1":"NC","localeAltName":"North Carolina"},"locations":[{"geonameid":4464368,"name":"Durham","admin3":"90932","localeAltName":null},{"geonameid":4468384,"name":"Gorman","admin3":"92344","localeAltName":null},{"geonameid":4489048,"name":"Rougemont","admin3":"91972","localeAltName":null}],"admin3":[{"geonameid":4459334,"name":"Township of Carr","admin3":"90516"},{"geonameid":4464387,"name":"Township of Durham","admin3":"90932","localeAltName":null},{"geonameid":4475468,"name":"Township of Lebanon","admin3":"91760"},{"geonameid":4477866,"name":"Township of Mangum","admin3":"91972","localeAltName":null},{"geonameid":4482892,"name":"Township of Oak Grove","admin3":"92344","localeAltName":null},{"geonameid":4495604,"name":"Township of Triangle","admin3":"93764"}],"alternateNames":[{"alternatenameId":2089560,"geonameid":4482348,"isoLanguage":"en","alternateName":"North Carolina","isPreferredName":true,"isShortName":true,"isColloquial":false,"isHistoric":false}]},"__N_SSG":true}