{"pageProps":{"locale":"en","admin2":{"geonameid":4484671,"name":"Person County","country":"US","admin1":"NC","admin2":"145","admin3":"","latitude":"36.3901100","longitude":"-78.9717100","localeAltName":null},"admin1":{"geonameid":4482348,"name":"North Carolina","admin1":"NC","localeAltName":"North Carolina"},"locations":[{"geonameid":4489200,"name":"Roxboro","admin3":"92764","localeAltName":null}],"admin3":[{"geonameid":4452461,"name":"Township of Allensville","admin3":"90040"},{"geonameid":4458342,"name":"Township of Bushy Fork","admin3":"90464"},{"geonameid":4462743,"name":"Township of Cunningham","admin3":"90852"},{"geonameid":4466442,"name":"Township of Flat River","admin3":"91120"},{"geonameid":4471576,"name":"Township of Holloway","admin3":"91512"},{"geonameid":4480852,"name":"Township of Mount Tirzah","admin3":"92168"},{"geonameid":4483452,"name":"Township of Olive Hill","admin3":"92404"},{"geonameid":4489210,"name":"Township of Roxboro","admin3":"92764","localeAltName":null},{"geonameid":4499962,"name":"Township of Woodsdale","admin3":"94100"}],"alternateNames":[{"alternatenameId":2089560,"geonameid":4482348,"isoLanguage":"en","alternateName":"North Carolina","isPreferredName":true,"isShortName":true,"isColloquial":false,"isHistoric":false}]},"__N_SSG":true}