{"pageProps":{"locale":"en","admin2":{"geonameid":4375346,"name":"Audrain County","country":"US","admin1":"MO","admin2":"007","admin3":"","latitude":"39.2157600","longitude":"-91.8415900"},"admin1":{"geonameid":4398678,"name":"Missouri","admin1":"MO","localeAltName":"Missouri"},"locations":[{"geonameid":4398103,"name":"Mexico","admin3":"65558"},{"geonameid":4412896,"name":"Vandalia","admin3":"17686"}],"admin3":[{"geonameid":4383092,"name":"Township of Cuivre","admin3":"17686"},{"geonameid":4395442,"name":"Township of Linn","admin3":"43148"},{"geonameid":4396448,"name":"Township of Loutre","admin3":"44210"},{"geonameid":4404617,"name":"Township of Prairie","admin3":"59474"},{"geonameid":4407407,"name":"Township of Saling","admin3":"65432"},{"geonameid":4407454,"name":"Township of Salt River","admin3":"65558"},{"geonameid":4409433,"name":"Township of South Fork","admin3":"68744"},{"geonameid":4415050,"name":"Township of Wilson","admin3":"80152"}],"alternateNames":[{"alternatenameId":2089572,"geonameid":4398678,"isoLanguage":"en","alternateName":"Missouri","isPreferredName":true,"isShortName":true,"isColloquial":false,"isHistoric":false}]},"__N_SSG":true}