{"pageProps":{"locale":"en","admin2":{"geonameid":4379625,"name":"Camden County","country":"US","admin1":"MO","admin2":"029","admin3":"","latitude":"38.0270400","longitude":"-92.7660500"},"admin1":{"geonameid":4398678,"name":"Missouri","admin1":"MO","localeAltName":"Missouri"},"locations":[{"geonameid":4379634,"name":"Camdenton","admin3":"38585"},{"geonameid":4387060,"name":"Four Seasons","admin3":"56596"},{"geonameid":4402040,"name":"Osage Beach","admin3":"56596"}],"admin3":[{"geonameid":4374452,"name":"Township of Adair","admin3":"00190"},{"geonameid":4375316,"name":"Township of Auglaize","admin3":"02476"},{"geonameid":4392222,"name":"Township of Jackson","admin3":"35630"},{"geonameid":4392373,"name":"Township of Jasper","admin3":"36476"},{"geonameid":4393562,"name":"Township of Kiheka","admin3":"38585"},{"geonameid":4400585,"name":"Township of Niangua","admin3":"52410"},{"geonameid":4402068,"name":"Township of Osage","admin3":"55046"},{"geonameid":4406673,"name":"Township of Russell","admin3":"63668"},{"geonameid":4413610,"name":"Township of Warren","admin3":"77038"},{"geonameid":7165602,"name":"Township of Osceola","admin3":"55378"},{"geonameid":7165604,"name":"Township of Pawhuska","admin3":"56596"}],"alternateNames":[{"alternatenameId":2089572,"geonameid":4398678,"isoLanguage":"en","alternateName":"Missouri","isPreferredName":true,"isShortName":true,"isColloquial":false,"isHistoric":false}]},"__N_SSG":true}