{"pageProps":{"locale":"en","admin2":{"geonameid":4380961,"name":"Chariton County","country":"US","admin1":"MO","admin2":"041","admin3":"","latitude":"39.5150800","longitude":"-92.9626200"},"admin1":{"geonameid":4398678,"name":"Missouri","admin1":"MO","localeAltName":"Missouri"},"locations":[{"geonameid":4407399,"name":"Salisbury","admin3":"65468"}],"admin3":[{"geonameid":4376290,"name":"Township of Bee Branch","admin3":"03952"},{"geonameid":4378075,"name":"Township of Bowling Green","admin3":"07624"},{"geonameid":4378687,"name":"Township of Brunswick","admin3":"09064"},{"geonameid":4380966,"name":"Township of Chariton","admin3":"13204"},{"geonameid":4381401,"name":"Township of Clark","admin3":"14014"},{"geonameid":4381779,"name":"Township of Cockrell","admin3":"15238"},{"geonameid":4383121,"name":"Township of Cunningham","admin3":"17776"},{"geonameid":4393537,"name":"Township of Keytesville","admin3":"38504"},{"geonameid":4398017,"name":"Township of Mendon","admin3":"47306"},{"geonameid":4399964,"name":"Township of Musselfork","admin3":"50924"},{"geonameid":4407405,"name":"Township of Salisbury","admin3":"65468"},{"geonameid":4407432,"name":"Township of Salt Creek","admin3":"65486"},{"geonameid":4412055,"name":"Township of Triplett","admin3":"73888"},{"geonameid":4413793,"name":"Township of Wayland","admin3":"77902"},{"geonameid":4415609,"name":"Township of Yellow Creek","admin3":"81286"}],"alternateNames":[{"alternatenameId":2089572,"geonameid":4398678,"isoLanguage":"en","alternateName":"Missouri","isPreferredName":true,"isShortName":true,"isColloquial":false,"isHistoric":false}]},"__N_SSG":true}