{"pageProps":{"locale":"en","admin2":{"geonameid":4382297,"name":"Cooper County","country":"US","admin1":"MO","admin2":"053","admin3":"","latitude":"38.8435400","longitude":"-92.8101200"},"admin1":{"geonameid":4398678,"name":"Missouri","admin1":"MO","localeAltName":"Missouri"},"locations":[{"geonameid":4377957,"name":"Boonville","admin3":"07336"}],"admin3":[{"geonameid":4377405,"name":"Township of Blackwater","admin3":"06166"},{"geonameid":4377960,"name":"Township of Boonville","admin3":"07336"},{"geonameid":4381387,"name":"Township of Clark Fork","admin3":"14122"},{"geonameid":4381522,"name":"Township of Clear Creek","admin3":"14626"},{"geonameid":4393399,"name":"Township of Kelly","admin3":"38198"},{"geonameid":4394517,"name":"Township of Lamine","admin3":"40502"},{"geonameid":4394807,"name":"Township of Lebanon","admin3":"41150"},{"geonameid":4400872,"name":"Township of North Moniteau","admin3":"53156"},{"geonameid":4402146,"name":"Township of Otterville","admin3":"55496"},{"geonameid":4402358,"name":"Township of Palestine","admin3":"56000"},{"geonameid":4403287,"name":"Township of Pilot Grove","admin3":"57620"},{"geonameid":4404519,"name":"Township of Prairie Home","admin3":"59744"},{"geonameid":4407390,"name":"Township of Saline","admin3":"65306"},{"geonameid":4409462,"name":"Township of South Moniteau","admin3":"68978"}],"alternateNames":[{"alternatenameId":2089572,"geonameid":4398678,"isoLanguage":"en","alternateName":"Missouri","isPreferredName":true,"isShortName":true,"isColloquial":false,"isHistoric":false}]},"__N_SSG":true}