{"pageProps":{"locale":"en","admin2":{"geonameid":4383752,"name":"Dent County","country":"US","admin1":"MO","admin2":"065","admin3":"","latitude":"37.6066300","longitude":"-91.5078800"},"admin1":{"geonameid":4398678,"name":"Missouri","admin1":"MO","localeAltName":"Missouri"},"locations":[{"geonameid":4407308,"name":"Salem","admin3":"69775"}],"admin3":[{"geonameid":4383138,"name":"Township of Current","admin3":"17830"},{"geonameid":4387209,"name":"Township of Franklin","admin3":"25570"},{"geonameid":4387999,"name":"Township of Gladden","admin3":"27172"},{"geonameid":4395444,"name":"Township of Linn","admin3":"43202"},{"geonameid":4398040,"name":"Township of Meramec","admin3":"47378"},{"geonameid":4400735,"name":"Township of Norman","admin3":"52778"},{"geonameid":4402071,"name":"Township of Osage","admin3":"55118"},{"geonameid":4408587,"name":"Township of Short Bend","admin3":"67664"},{"geonameid":4411471,"name":"Township of Texas","admin3":"72808"},{"geonameid":4413762,"name":"Township of Watkins","admin3":"77830"},{"geonameid":7165628,"name":"Township of Spring Creek East","admin3":"69775"},{"geonameid":7165629,"name":"Township of Spring Creek West","admin3":"69825"}],"alternateNames":[{"alternatenameId":2089572,"geonameid":4398678,"isoLanguage":"en","alternateName":"Missouri","isPreferredName":true,"isShortName":true,"isColloquial":false,"isHistoric":false}]},"__N_SSG":true}