{"pageProps":{"locale":"en","admin2":{"geonameid":4392354,"name":"Jasper County","country":"US","admin1":"MO","admin2":"097","admin3":"","latitude":"37.2035500","longitude":"-94.3406100"},"admin1":{"geonameid":4398678,"name":"Missouri","admin1":"MO","localeAltName":"Missouri"},"locations":[{"geonameid":4380043,"name":"Carl Junction","admin3":"74266"},{"geonameid":4380199,"name":"Carterville","admin3":"37610"},{"geonameid":4380202,"name":"Carthage","admin3":"46064"},{"geonameid":4384695,"name":"Duenweg","admin3":"37610"},{"geonameid":4384809,"name":"Duquesne","admin3":"37610"},{"geonameid":4392768,"name":"Joplin","admin3":"37610"},{"geonameid":4402027,"name":"Oronogo","admin3":"48692"},{"geonameid":4407631,"name":"Sarcoxie","admin3":"66008"},{"geonameid":4413842,"name":"Webb City","admin3":"37610"}],"admin3":[{"geonameid":4384848,"name":"Township of Duval","admin3":"20602"},{"geonameid":4387559,"name":"Township of Galena","admin3":"26236"},{"geonameid":4392229,"name":"Township of Jackson","admin3":"35828"},{"geonameid":4392362,"name":"Township of Jasper","admin3":"36530"},{"geonameid":4392774,"name":"Township of Joplin","admin3":"37610"},{"geonameid":4395357,"name":"Township of Lincoln","admin3":"42788"},{"geonameid":4396804,"name":"Township of Madison","admin3":"45416"},{"geonameid":4397119,"name":"Township of Marion","admin3":"46064"},{"geonameid":4397703,"name":"Township of McDonald","admin3":"44930"},{"geonameid":4398561,"name":"Township of Mineral","admin3":"48692"},{"geonameid":4404649,"name":"Township of Preston","admin3":"59906"},{"geonameid":4407632,"name":"Township of Sarcoxie","admin3":"66008"},{"geonameid":4408414,"name":"Township of Sheridan","admin3":"67340"},{"geonameid":4412353,"name":"Township of Twin Groves","admin3":"74266"},{"geonameid":4412652,"name":"Township of Union","admin3":"74716"}],"alternateNames":[{"alternatenameId":2089572,"geonameid":4398678,"isoLanguage":"en","alternateName":"Missouri","isPreferredName":true,"isShortName":true,"isColloquial":false,"isHistoric":false}]},"__N_SSG":true}