{"pageProps":{"locale":"en","admin2":{"geonameid":5055902,"name":"Lewis County","country":"US","admin1":"MO","admin2":"111","admin3":"","latitude":"40.0969000","longitude":"-91.7221400"},"admin1":{"geonameid":4398678,"name":"Missouri","admin1":"MO","localeAltName":"Missouri"},"locations":[{"geonameid":5054390,"name":"Canton","admin3":"19468"}],"admin3":[{"geonameid":4390600,"name":"Township of Highland","admin3":"32014"},{"geonameid":4407370,"name":"Township of Salem","admin3":"65270"},{"geonameid":5054378,"name":"Township of Canton","admin3":"11152"},{"geonameid":5054717,"name":"Township of Dickerson","admin3":"19468"},{"geonameid":5055813,"name":"Township of La Belle","admin3":"39530"},{"geonameid":5056118,"name":"Township of Lyon","admin3":"44750"},{"geonameid":5057029,"name":"Township of Reddish","admin3":"60950"},{"geonameid":5057649,"name":"Township of Union","admin3":"74752"}],"alternateNames":[{"alternatenameId":2089572,"geonameid":4398678,"isoLanguage":"en","alternateName":"Missouri","isPreferredName":true,"isShortName":true,"isColloquial":false,"isHistoric":false}]},"__N_SSG":true}