{"pageProps":{"locale":"en","admin2":{"geonameid":4403228,"name":"Pike County","country":"US","admin1":"MO","admin2":"163","admin3":"","latitude":"39.3438400","longitude":"-91.1713600"},"admin1":{"geonameid":4398678,"name":"Missouri","admin1":"MO","localeAltName":"Missouri"},"locations":[{"geonameid":4378070,"name":"Bowling Green","admin3":"17704"},{"geonameid":4396425,"name":"Louisiana","admin3":"09604"}],"admin3":[{"geonameid":4375235,"name":"Township of Ashley","admin3":"02278"},{"geonameid":4379061,"name":"Township of Buffalo","admin3":"09604"},{"geonameid":4379586,"name":"Township of Calumet","admin3":"10594"},{"geonameid":4383080,"name":"Township of Cuivre","admin3":"17704"},{"geonameid":4389706,"name":"Township of Hartford","admin3":"30682"},{"geonameid":4391959,"name":"Township of Indian","admin3":"35090"},{"geonameid":4402908,"name":"Township of Peno","admin3":"56972"},{"geonameid":4404612,"name":"Township of Prairieville","admin3":"59780"},{"geonameid":4407455,"name":"Township of Salt River","admin3":"65594"},{"geonameid":4409658,"name":"Township of Spencer","admin3":"69392"}],"alternateNames":[{"alternatenameId":2089572,"geonameid":4398678,"isoLanguage":"en","alternateName":"Missouri","isPreferredName":true,"isShortName":true,"isColloquial":false,"isHistoric":false}]},"__N_SSG":true}