{"pageProps":{"locale":"en","admin2":{"geonameid":4407901,"name":"Scott County","country":"US","admin1":"MO","admin2":"201","admin3":"","latitude":"37.0530500","longitude":"-89.5685100"},"admin1":{"geonameid":4398678,"name":"Missouri","admin1":"MO","localeAltName":"Missouri"},"locations":[{"geonameid":4380859,"name":"Chaffee","admin3":"38234"},{"geonameid":4401987,"name":"Oran","admin3":"72088"},{"geonameid":4407900,"name":"Scott City","admin3":"38234"},{"geonameid":4408672,"name":"Sikeston","admin3":"61598"}],"admin3":[{"geonameid":4382032,"name":"Township of Commerce","admin3":"15778"},{"geonameid":4393406,"name":"Township of Kelso","admin3":"38234"},{"geonameid":4399038,"name":"Township of Moreland","admin3":"49916"},{"geonameid":4399068,"name":"Township of Morley","admin3":"50006"},{"geonameid":4405582,"name":"Township of Richland","admin3":"61598"},{"geonameid":4407592,"name":"Township of Sandywoods","admin3":"65864"},{"geonameid":4411074,"name":"Township of Sylvania","admin3":"72088"},{"geonameid":4412422,"name":"Township of Tywappity","admin3":"74410"},{"geonameid":7165616,"name":"Township of Rootwad","admin3":"63047"}],"alternateNames":[{"alternatenameId":2089572,"geonameid":4398678,"isoLanguage":"en","alternateName":"Missouri","isPreferredName":true,"isShortName":true,"isColloquial":false,"isHistoric":false}]},"__N_SSG":true}