{"pageProps":{"locale":"en","admin2":{"geonameid":4411205,"name":"Taney County","country":"US","admin1":"MO","admin2":"213","admin3":"","latitude":"36.6547300","longitude":"-93.0411100"},"admin1":{"geonameid":4398678,"name":"Missouri","admin1":"MO","localeAltName":"Missouri"},"locations":[{"geonameid":4378219,"name":"Branson","admin3":"07984"},{"geonameid":4386981,"name":"Forsyth","admin3":"71818"},{"geonameid":4390975,"name":"Hollister","admin3":"54632"},{"geonameid":4393747,"name":"Kissee Mills","admin3":"71818"},{"geonameid":4398060,"name":"Merriam Woods","admin3":"36584"}],"admin3":[{"geonameid":4376216,"name":"Township of Beaver","admin3":"03808"},{"geonameid":4376981,"name":"Township of Big Creek","admin3":"05446"},{"geonameid":4378234,"name":"Township of Branson","admin3":"07984"},{"geonameid":4380526,"name":"Township of Cedar Creek","admin3":"12286"},{"geonameid":4392365,"name":"Township of Jasper","admin3":"36584"},{"geonameid":4401931,"name":"Township of Oliver","admin3":"54632"},{"geonameid":4407930,"name":"Township of Scott","admin3":"66350"},{"geonameid":4410936,"name":"Township of Swan","admin3":"71818"}],"alternateNames":[{"alternatenameId":2089572,"geonameid":4398678,"isoLanguage":"en","alternateName":"Missouri","isPreferredName":true,"isShortName":true,"isColloquial":false,"isHistoric":false}]},"__N_SSG":true}