{"pageProps":{"locale":"en","admin2":{"geonameid":4415503,"name":"Wright County","country":"US","admin1":"MO","admin2":"229","admin3":"","latitude":"37.2701400","longitude":"-92.4687000"},"admin1":{"geonameid":4398678,"name":"Missouri","admin1":"MO","localeAltName":"Missouri"},"locations":[{"geonameid":4396967,"name":"Mansfield","admin3":"58556"},{"geonameid":4399725,"name":"Mountain Grove","admin3":"50420"}],"admin3":[{"geonameid":4377946,"name":"Township of Boone","admin3":"07264"},{"geonameid":4378765,"name":"Township of Brush Creek","admin3":"09154"},{"geonameid":4381404,"name":"Township of Clark","admin3":"14086"},{"geonameid":4385388,"name":"Township of Elk Creek","admin3":"21628"},{"geonameid":4387705,"name":"Township of Gasconade","admin3":"26614"},{"geonameid":4389700,"name":"Township of Hart","admin3":"30664"},{"geonameid":4398910,"name":"Township of Montgomery","admin3":"49556"},{"geonameid":4399731,"name":"Township of Mountain Grove","admin3":"50420"},{"geonameid":4403952,"name":"Township of Pleasant Valley","admin3":"58556"},{"geonameid":4412666,"name":"Township of Union","admin3":"75094"},{"geonameid":4412855,"name":"Township of Van Buren","admin3":"75634"},{"geonameid":4415325,"name":"Township of Wood","admin3":"80728"}],"alternateNames":[{"alternatenameId":2089572,"geonameid":4398678,"isoLanguage":"en","alternateName":"Missouri","isPreferredName":true,"isShortName":true,"isColloquial":false,"isHistoric":false}]},"__N_SSG":true}