{"pageProps":{"locale":"en","admin2":{"geonameid":5068853,"name":"Gage County","country":"US","admin1":"NE","admin2":"067","admin3":"","latitude":"40.2619300","longitude":"-96.6894400","localeAltName":null},"admin1":{"geonameid":5073708,"name":"Nebraska","admin1":"NE","localeAltName":"Nebraska"},"locations":[{"geonameid":5062694,"name":"Adams","admin3":"00275","localeAltName":null},{"geonameid":5063646,"name":"Beatrice","admin3":"03390","localeAltName":null},{"geonameid":5082292,"name":"Wymore","admin3":"05682","localeAltName":null}],"admin3":[{"geonameid":5062718,"name":"Township of Adams","admin3":"00275","localeAltName":null},{"geonameid":5063501,"name":"Township of Barneston","admin3":"03110"},{"geonameid":5063668,"name":"City of Beatrice","admin3":"03390","localeAltName":null},{"geonameid":5064261,"name":"Township of Blakely","admin3":"05420"},{"geonameid":5064340,"name":"Township of Blue Springs-Wymore","admin3":"05682","localeAltName":null},{"geonameid":5065816,"name":"Township of Clatonia","admin3":"09305"},{"geonameid":5067616,"name":"Township of Elm","admin3":"15290"},{"geonameid":5068221,"name":"Township of Filley","admin3":"16865"},{"geonameid":5069129,"name":"Township of Glenwood","admin3":"19175"},{"geonameid":5069361,"name":"Township of Grant","admin3":"19840"},{"geonameid":5069639,"name":"Township of Hanover","admin3":"20890"},{"geonameid":5070110,"name":"Township of Highland","admin3":"22395"},{"geonameid":5070277,"name":"Township of Holt","admin3":"22850"},{"geonameid":5070351,"name":"Township of Hooker","admin3":"22990"},{"geonameid":5070884,"name":"Township of Island Grove","admin3":"24250"},{"geonameid":5071972,"name":"Township of Liberty","admin3":"27015"},{"geonameid":5072076,"name":"Township of Lincoln","admin3":"27260"},{"geonameid":5072238,"name":"Township of Logan","admin3":"28805"},{"geonameid":5073071,"name":"Township of Midland","admin3":"31920"},{"geonameid":5073796,"name":"Township of Nemaha","admin3":"33915"},{"geonameid":5074749,"name":"Township of Paddock","admin3":"37980"},{"geonameid":5076298,"name":"Township of Riverside","admin3":"41620"},{"geonameid":5076427,"name":"Township of Rockford","admin3":"42040"},{"geonameid":5078922,"name":"Township of Sherman","admin3":"44945"},{"geonameid":5078966,"name":"Township of Sicily","admin3":"45260"}],"alternateNames":[{"alternatenameId":2124821,"geonameid":5073708,"isoLanguage":"en","alternateName":"Nebraska","isPreferredName":true,"isShortName":true,"isColloquial":false,"isHistoric":false}]},"__N_SSG":true}