{"pageProps":{"locale":"en","admin2":{"geonameid":7290534,"name":"Bedford","country":"GB","admin1":"ENG","admin2":"Z5","admin3":"","latitude":"52.1883100","longitude":"-0.4531600"},"admin1":{"geonameid":6269131,"name":"England","admin1":"ENG"},"locations":[{"geonameid":2656046,"name":"Bedford"},{"geonameid":2655712,"name":"Biddenham"},{"geonameid":2655349,"name":"Bletsoe"},{"geonameid":2655243,"name":"Bolnhurst"},{"geonameid":2654589,"name":"Bromham"},{"geonameid":2653813,"name":"Cardington"},{"geonameid":2653770,"name":"Carlton"},{"geonameid":6693204,"name":"Chawston"},{"geonameid":2653271,"name":"Chellington"},{"geonameid":2652950,"name":"Clapham"},{"geonameid":2652548,"name":"Colmworth"},{"geonameid":2652398,"name":"Cople"},{"geonameid":8063659,"name":"Cotton End"},{"geonameid":2652215,"name":"Covington"},{"geonameid":2650048,"name":"Elstow"},{"geonameid":2649667,"name":"Farndish"},{"geonameid":11592612,"name":"Felmersham"},{"geonameid":2648168,"name":"Great Barford"},{"geonameid":2647427,"name":"Harrold"},{"geonameid":2645831,"name":"Kempston"},{"geonameid":6947168,"name":"Kempston Hardwick"},{"geonameid":2645732,"name":"Keysoe"},{"geonameid":2645103,"name":"Knotting"},{"geonameid":2644378,"name":"Little Barford"},{"geonameid":2644246,"name":"Little Staughton"},{"geonameid":2642795,"name":"Melchbourne"},{"geonameid":2642467,"name":"Milton Ernest"},{"geonameid":2641121,"name":"Oakley"},{"geonameid":2641084,"name":"Odell"},{"geonameid":2640556,"name":"Pavenham"},{"geonameid":2640359,"name":"Pertenhall"},{"geonameid":2640184,"name":"Podington"},{"geonameid":11790590,"name":"Radwell"},{"geonameid":11962630,"name":"Renhold"},{"geonameid":2639313,"name":"Riseley"},{"geonameid":2639029,"name":"Roxton"},{"geonameid":2638122,"name":"Sharnbrook"},{"geonameid":11962137,"name":"Shortstown"},{"geonameid":2637503,"name":"Souldrop"},{"geonameid":2637136,"name":"Stagsden"},{"geonameid":2636935,"name":"Stevington"},{"geonameid":6947164,"name":"Stewartby"},{"geonameid":2636385,"name":"Swineshead"},{"geonameid":2635895,"name":"Thurleigh"},{"geonameid":2635327,"name":"Turvey"},{"geonameid":2635136,"name":"Upper Dean"},{"geonameid":2633917,"name":"Wilden"},{"geonameid":2633898,"name":"Willington"},{"geonameid":2633878,"name":"Wilstead"},{"geonameid":11888088,"name":"Wixams"},{"geonameid":2633575,"name":"Wootton"},{"geonameid":6951071,"name":"Wyboston"},{"geonameid":2633447,"name":"Wymington"},{"geonameid":2633389,"name":"Yelden"}],"admin3":[{"geonameid":2653761,"name":"Carlton and Chellington","admin3":"00KB007"},{"geonameid":7290872,"name":"Knotting and Souldrop","admin3":"00KB020"},{"geonameid":7291104,"name":"Willington","admin3":"00KB043"},{"geonameid":7291584,"name":"Biddenham","admin3":"00KB001"},{"geonameid":7291585,"name":"Cardington","admin3":"00KB006"},{"geonameid":7291586,"name":"Colmworth","admin3":"00KB009"},{"geonameid":7291587,"name":"Great Denham","admin3":"00KB016"},{"geonameid":7292840,"name":"Clapham","admin3":"00KB008"},{"geonameid":7292841,"name":"Cople","admin3":"00KB010"},{"geonameid":7292842,"name":"Eastcotts","admin3":"00KB012"},{"geonameid":7292843,"name":"Elstow","admin3":"00KB013"},{"geonameid":7292844,"name":"Little Staughton","admin3":"00KB022"},{"geonameid":7292845,"name":"Milton Ernest","admin3":"00KB024"},{"geonameid":7292846,"name":"Odell","admin3":"00KB026"},{"geonameid":7292847,"name":"Pertenhall","admin3":"00KB028"},{"geonameid":7292848,"name":"Renhold","admin3":"00KB031"},{"geonameid":7292849,"name":"Stewartby","admin3":"00KB038"},{"geonameid":7292850,"name":"Thurleigh","admin3":"00KB040"},{"geonameid":7292851,"name":"Wilden","admin3":"00KB042"},{"geonameid":7292852,"name":"Wyboston, Chawston and Colesden","admin3":"00KB046"},{"geonameid":7294027,"name":"Brickhill","admin3":"00KB004"},{"geonameid":7297807,"name":"Bolnhurst and Keysoe","admin3":"00KB003"},{"geonameid":7297808,"name":"Sharnbrook","admin3":"00KB034"},{"geonameid":7297809,"name":"Staploe","admin3":"00KB036"},{"geonameid":7297917,"name":"Stevington","admin3":"00KB037"},{"geonameid":7299740,"name":"Great Barford","admin3":"00KB015"},{"geonameid":7299741,"name":"Podington","admin3":"00KB029"},{"geonameid":7299742,"name":"Riseley","admin3":"00KB032"},{"geonameid":7299743,"name":"Stagsden","admin3":"00KB035"},{"geonameid":7299744,"name":"Swineshead","admin3":"00KB039"},{"geonameid":7300486,"name":"Harrold","admin3":"00KB017"},{"geonameid":7300487,"name":"Melchbourne and Yielden","admin3":"00KB023"},{"geonameid":7300488,"name":"Oakley","admin3":"00KB025"},{"geonameid":7300489,"name":"Pavenham","admin3":"00KB027"},{"geonameid":7300490,"name":"Roxton","admin3":"00KB033"},{"geonameid":7300491,"name":"Turvey","admin3":"00KB041"},{"geonameid":7300492,"name":"Wootton","admin3":"00KB045"},{"geonameid":7301689,"name":"Bletsoe","admin3":"00KB002"},{"geonameid":7301690,"name":"Bromham","admin3":"00KB005"},{"geonameid":7301691,"name":"Dean and Shelton","admin3":"00KB011"},{"geonameid":7301692,"name":"Felmersham","admin3":"00KB014"},{"geonameid":7301693,"name":"Kempston","admin3":"00KB018"},{"geonameid":7301695,"name":"Kempston Rural","admin3":"00KB019"},{"geonameid":7301696,"name":"Little Barford","admin3":"00KB021"},{"geonameid":7301697,"name":"Ravensden","admin3":"00KB030"},{"geonameid":7301698,"name":"Wilshamstead","admin3":"00KB044"},{"geonameid":7301699,"name":"Wymington","admin3":"00KB047"}],"alternateNames":[]},"__N_SSG":true}