{"pageProps":{"locale":"de","admin2":{"geonameid":6458843,"name":"Bezirk Arlesheim","country":"CH","admin1":"BL","admin2":"1301","admin3":"","latitude":"47.5166800","longitude":"7.5873300"},"admin1":{"geonameid":2661603,"name":"Kanton Basel-Landschaft","admin1":"BL"},"locations":[{"geonameid":2661852,"name":"Aesch","admin3":"2761"},{"geonameid":2661810,"name":"Allschwil","admin3":"2762"},{"geonameid":2661719,"name":"Arlesheim","admin3":"2763"},{"geonameid":2661499,"name":"Binningen","admin3":"2765"},{"geonameid":2661490,"name":"Birsfelden","admin3":"2766"},{"geonameid":2661432,"name":"Bottmingen","admin3":"2767"},{"geonameid":2660849,"name":"Ettingen","admin3":"2768"},{"geonameid":2659551,"name":"Münchenstein","admin3":"2769"},{"geonameid":2659522,"name":"Muttenz","admin3":"2770"},{"geonameid":2659321,"name":"Oberwil","admin3":"2771"},{"geonameid":2659215,"name":"Pfeffingen","admin3":"2772"},{"geonameid":2658708,"name":"Schönenbuch","admin3":"2774"},{"geonameid":2658386,"name":"Therwil","admin3":"2775"}],"admin3":[{"geonameid":7285027,"name":"Aesch (BL)","admin3":"2761"},{"geonameid":7285052,"name":"Allschwil","admin3":"2762"},{"geonameid":7285096,"name":"Arlesheim","admin3":"2763"},{"geonameid":7285240,"name":"Biel-Benken","admin3":"2764"},{"geonameid":7285248,"name":"Binningen","admin3":"2765"},{"geonameid":7285259,"name":"Birsfelden","admin3":"2766"},{"geonameid":7285306,"name":"Bottmingen","admin3":"2767"},{"geonameid":7285780,"name":"Ettingen","admin3":"2768"},{"geonameid":7286583,"name":"Münchenstein","admin3":"2769"},{"geonameid":7286607,"name":"Muttenz","admin3":"2770"},{"geonameid":7286721,"name":"Oberwil (BL)","admin3":"2771"},{"geonameid":7286791,"name":"Pfeffingen","admin3":"2772"},{"geonameid":7286877,"name":"Reinach (BL)","admin3":"2773"},{"geonameid":7287108,"name":"Schönenbuch","admin3":"2774"},{"geonameid":7287301,"name":"Therwil","admin3":"2775"}],"alternateNames":[]},"__N_SSG":true}