{"pageProps":{"locale":"en","admin2":{"geonameid":4505546,"name":"Athens County","country":"US","admin1":"OH","admin2":"009","admin3":"","latitude":"39.3338600","longitude":"-82.0451300","localeAltName":null},"admin1":{"geonameid":5165418,"name":"Ohio","admin1":"OH","localeAltName":"Ohio"},"locations":[{"geonameid":4505068,"name":"Albany","admin3":"42420","localeAltName":null},{"geonameid":4505542,"name":"Athens","admin3":"02750","localeAltName":null},{"geonameid":4507327,"name":"Buchtel","admin3":"86982","localeAltName":null},{"geonameid":4508373,"name":"Chauncey","admin3":"22414","localeAltName":null},{"geonameid":4512821,"name":"Glouster","admin3":"77420","localeAltName":null},{"geonameid":4519445,"name":"Nelsonville","admin3":"86982","localeAltName":null},{"geonameid":4526215,"name":"The Plains","admin3":"02750","localeAltName":null}],"admin3":[{"geonameid":4505103,"name":"Township of Alexander","admin3":"01112"},{"geonameid":4505230,"name":"Township of Ames","admin3":"01770"},{"geonameid":4505559,"name":"Township of Athens","admin3":"02750","localeAltName":null},{"geonameid":4506254,"name":"Township of Bern","admin3":"05942"},{"geonameid":4507872,"name":"Township of Canaan","admin3":"11220"},{"geonameid":4508025,"name":"Township of Carthage","admin3":"12336"},{"geonameid":4510276,"name":"Township of Dover","admin3":"22414","localeAltName":null},{"geonameid":4516443,"name":"Township of Lee","admin3":"42420","localeAltName":null},{"geonameid":4516983,"name":"Township of Lodi","admin3":"44590"},{"geonameid":4522808,"name":"Township of Rome","admin3":"68238"},{"geonameid":4526510,"name":"Township of Trimble","admin3":"77420","localeAltName":null},{"geonameid":4526594,"name":"Township of Troy","admin3":"77546"},{"geonameid":4527729,"name":"Township of Waterloo","admin3":"81777"},{"geonameid":4528888,"name":"Township of York","admin3":"86982","localeAltName":null}],"alternateNames":[{"alternatenameId":2089549,"geonameid":5165418,"isoLanguage":"en","alternateName":"Ohio","isPreferredName":true,"isShortName":true,"isColloquial":false,"isHistoric":false}]},"__N_SSG":true}