{"pageProps":{"locale":"en","admin2":{"geonameid":4507568,"name":"Butler County","country":"US","admin1":"OH","admin2":"017","admin3":"","latitude":"39.4386500","longitude":"-84.5756600","localeAltName":null},"admin1":{"geonameid":5165418,"name":"Ohio","admin1":"OH","localeAltName":"Ohio"},"locations":[{"geonameid":4506031,"name":"Beckett Ridge","admin3":"83150","localeAltName":null},{"geonameid":4509834,"name":"Darrtown","admin3":"50162","localeAltName":null},{"geonameid":4511283,"name":"Fairfield","admin3":"25970","localeAltName":null},{"geonameid":4513575,"name":"Hamilton","admin3":"33012","localeAltName":null},{"geonameid":4517759,"name":"Mayfield","admin3":"49840","localeAltName":null},{"geonameid":4518264,"name":"Middletown","admin3":"49840","localeAltName":null},{"geonameid":4518464,"name":"Millville","admin3":"68616","localeAltName":null},{"geonameid":4518550,"name":"Monroe","admin3":"42672","localeAltName":null},{"geonameid":4519627,"name":"New Miami","admin3":"69498","localeAltName":null},{"geonameid":4520760,"name":"Oxford","admin3":"59241","localeAltName":null},{"geonameid":4522884,"name":"Ross","admin3":"68616","localeAltName":null},{"geonameid":4524401,"name":"Seven Mile","admin3":"82082","localeAltName":null},{"geonameid":4526469,"name":"Trenton","admin3":"77322","localeAltName":null},{"geonameid":4528187,"name":"Wetherington","admin3":"83150","localeAltName":null},{"geonameid":4528424,"name":"Williamsdale","admin3":"69498","localeAltName":null}],"admin3":[{"geonameid":4511322,"name":"City of Fairfield","admin3":"25970","localeAltName":null},{"geonameid":4511323,"name":"Township of Fairfield","admin3":"25984"},{"geonameid":4513621,"name":"City of Hamilton","admin3":"33012","localeAltName":null},{"geonameid":4513678,"name":"Township of Hanover","admin3":"33250"},{"geonameid":4516473,"name":"Township of Lemon","admin3":"42672","localeAltName":null},{"geonameid":4516576,"name":"Township of Liberty","admin3":"43050"},{"geonameid":4517401,"name":"Township of Madison","admin3":"46340"},{"geonameid":4518283,"name":"City of Middletown","admin3":"49840","localeAltName":null},{"geonameid":4518323,"name":"Township of Milford","admin3":"50162","localeAltName":null},{"geonameid":4518692,"name":"Township of Morgan","admin3":"52080"},{"geonameid":4520770,"name":"Township of Oxford","admin3":"59241","localeAltName":null},{"geonameid":4522338,"name":"Township of Reily","admin3":"66096"},{"geonameid":4522909,"name":"Township of Ross","admin3":"68616","localeAltName":null},{"geonameid":4523236,"name":"Township of Saint Clair","admin3":"69498","localeAltName":null},{"geonameid":4526477,"name":"City of Trenton","admin3":"77322","localeAltName":null},{"geonameid":4527796,"name":"Township of Wayne","admin3":"82082","localeAltName":null},{"geonameid":4527979,"name":"Township of West Chester","admin3":"83150","localeAltName":null}],"alternateNames":[{"alternatenameId":2089549,"geonameid":5165418,"isoLanguage":"en","alternateName":"Ohio","isPreferredName":true,"isShortName":true,"isColloquial":false,"isHistoric":false}]},"__N_SSG":true}