{"pageProps":{"locale":"en","admin2":{"geonameid":5151705,"name":"Darke County","country":"US","admin1":"OH","admin2":"037","admin3":"","latitude":"40.1332300","longitude":"-84.6193100","localeAltName":null},"admin1":{"geonameid":5165418,"name":"Ohio","admin1":"OH","localeAltName":"Ohio"},"locations":[{"geonameid":5145808,"name":"Ansonia","admin3":"09414","localeAltName":null},{"geonameid":4505390,"name":"Arcanum","admin3":"77980","localeAltName":null},{"geonameid":5155687,"name":"Gettysburg","admin3":"00254","localeAltName":null},{"geonameid":5156493,"name":"Greenville","admin3":"32354","localeAltName":null},{"geonameid":4519613,"name":"New Madison","admin3":"33810","localeAltName":null},{"geonameid":11820632,"name":"Union City","admin3":"37758","localeAltName":null},{"geonameid":5175092,"name":"Versailles","admin3":"82152","localeAltName":null},{"geonameid":5175914,"name":"Wayne Lakes Park","admin3":"53732","localeAltName":null}],"admin3":[{"geonameid":4507571,"name":"Township of Butler","admin3":"10576"},{"geonameid":4513831,"name":"Township of Harrison","admin3":"33810","localeAltName":null},{"geonameid":4518583,"name":"Township of Monroe","admin3":"51366"},{"geonameid":4526745,"name":"Township of Twin","admin3":"77980","localeAltName":null},{"geonameid":5145405,"name":"Township of Adams","admin3":"00254","localeAltName":null},{"geonameid":5145596,"name":"Township of Allen","admin3":"01294"},{"geonameid":5148423,"name":"Township of Brown","admin3":"09414","localeAltName":null},{"geonameid":5155106,"name":"Township of Franklin","admin3":"28266"},{"geonameid":5156512,"name":"Township of Greenville","admin3":"32354","localeAltName":null},{"geonameid":5159004,"name":"Township of Jackson","admin3":"37758","localeAltName":null},{"geonameid":5160710,"name":"Township of Liberty","admin3":"43092"},{"geonameid":5163213,"name":"Township of Mississinawa","admin3":"50960"},{"geonameid":5164127,"name":"Township of Neave","admin3":"53732","localeAltName":null},{"geonameid":5166237,"name":"Township of Patterson","admin3":"61168"},{"geonameid":5168050,"name":"Township of Richland","admin3":"66656"},{"geonameid":5174986,"name":"Township of Van Buren","admin3":"79380"},{"geonameid":5175486,"name":"Township of Wabash","admin3":"80248"},{"geonameid":5175803,"name":"Township of Washington","admin3":"81186"},{"geonameid":5175927,"name":"Township of Wayne","admin3":"82152","localeAltName":null},{"geonameid":5177544,"name":"Township of York","admin3":"87010"}],"alternateNames":[{"alternatenameId":2089549,"geonameid":5165418,"isoLanguage":"en","alternateName":"Ohio","isPreferredName":true,"isShortName":true,"isColloquial":false,"isHistoric":false}]},"__N_SSG":true}