{"pageProps":{"locale":"en","admin2":{"geonameid":5151865,"name":"Defiance County","country":"US","admin1":"OH","admin2":"039","admin3":"","latitude":"41.3239200","longitude":"-84.4905000","localeAltName":null},"admin1":{"geonameid":5165418,"name":"Ohio","admin1":"OH","localeAltName":"Ohio"},"locations":[{"geonameid":5151861,"name":"Defiance","admin3":"21322","localeAltName":null},{"geonameid":5157449,"name":"Hicksville","admin3":"35112","localeAltName":null},{"geonameid":5171949,"name":"Sherwood","admin3":"21420","localeAltName":null}],"admin3":[{"geonameid":5145406,"name":"Township of Adams","admin3":"00268"},{"geonameid":5151881,"name":"Township of Defiance","admin3":"21322","localeAltName":null},{"geonameid":5151920,"name":"Township of Delaware","admin3":"21420","localeAltName":null},{"geonameid":5153802,"name":"Township of Farmer","admin3":"26614"},{"geonameid":5157454,"name":"Township of Hicksville","admin3":"35112","localeAltName":null},{"geonameid":5157523,"name":"Township of Highland","admin3":"35196"},{"geonameid":5161947,"name":"Township of Mark","admin3":"47852"},{"geonameid":5162961,"name":"Township of Milford","admin3":"50190"},{"geonameid":5164625,"name":"Township of Noble","admin3":"56014"},{"geonameid":5168051,"name":"Township of Richland","admin3":"66670"},{"geonameid":5173951,"name":"Township of Tiffin","admin3":"76772"},{"geonameid":5175804,"name":"Township of Washington","admin3":"81200"}],"alternateNames":[{"alternatenameId":2089549,"geonameid":5165418,"isoLanguage":"en","alternateName":"Ohio","isPreferredName":true,"isShortName":true,"isColloquial":false,"isHistoric":false}]},"__N_SSG":true}