{"pageProps":{"locale":"en","admin2":{"geonameid":5153362,"name":"Erie County","country":"US","admin1":"OH","admin2":"043","admin3":"","latitude":"41.4320900","longitude":"-82.6995800","localeAltName":null},"admin1":{"geonameid":5165418,"name":"Ohio","admin1":"OH","localeAltName":"Ohio"},"locations":[{"geonameid":5146666,"name":"Bay View","admin3":"47572","localeAltName":null},{"geonameid":5147140,"name":"Berlin Heights","admin3":"05802","localeAltName":null},{"geonameid":5149399,"name":"Castalia","admin3":"47572","localeAltName":null},{"geonameid":5158298,"name":"Huron","admin3":"37030","localeAltName":null},{"geonameid":5162920,"name":"Milan","admin3":"50148","localeAltName":null},{"geonameid":5170691,"name":"Sandusky","admin3":"70380","localeAltName":null}],"admin3":[{"geonameid":5147153,"name":"Township of Berlin","admin3":"05802","localeAltName":null},{"geonameid":5154717,"name":"Township of Florence","admin3":"27482"},{"geonameid":5156583,"name":"Township of Groton","admin3":"32578"},{"geonameid":5158295,"name":"Township of Huron","admin3":"37030","localeAltName":null},{"geonameid":5159472,"name":"Village of Kelleys Island","admin3":"39662"},{"geonameid":5161888,"name":"Township of Margaretta","admin3":"47572","localeAltName":null},{"geonameid":5162930,"name":"Township of Milan","admin3":"50148","localeAltName":null},{"geonameid":5165979,"name":"Township of Oxford","admin3":"59276"},{"geonameid":5166464,"name":"Township of Perkins","admin3":"61714"},{"geonameid":5170722,"name":"City of Sandusky","admin3":"70380","localeAltName":null},{"geonameid":5175113,"name":"Township of Vermilion","admin3":"79730"}],"alternateNames":[{"alternatenameId":2089549,"geonameid":5165418,"isoLanguage":"en","alternateName":"Ohio","isPreferredName":true,"isShortName":true,"isColloquial":false,"isHistoric":false}]},"__N_SSG":true}