{"pageProps":{"locale":"en","admin2":{"geonameid":4511295,"name":"Fairfield County","country":"US","admin1":"OH","admin2":"045","admin3":"","latitude":"39.7516000","longitude":"-82.6305900","localeAltName":null},"admin1":{"geonameid":5165418,"name":"Ohio","admin1":"OH","localeAltName":"Ohio"},"locations":[{"geonameid":4505202,"name":"Amanda","admin3":"01637","localeAltName":null},{"geonameid":4505716,"name":"Baltimore","admin3":"43120","localeAltName":null},{"geonameid":4828883,"name":"Bremen","admin3":"69120","localeAltName":null},{"geonameid":4507987,"name":"Carroll","admin3":"32060","localeAltName":null},{"geonameid":4511285,"name":"Fairfield Beach","admin3":"80570","localeAltName":null},{"geonameid":4512557,"name":"Geneva","admin3":"69120","localeAltName":null},{"geonameid":4516233,"name":"Lancaster","admin3":"","localeAltName":null},{"geonameid":4516752,"name":"Lithopolis","admin3":"06950","localeAltName":null},{"geonameid":4518397,"name":"Millersport","admin3":"80570","localeAltName":null},{"geonameid":4521209,"name":"Pickerington","admin3":"80206","localeAltName":null},{"geonameid":4521632,"name":"Pleasantville","admin3":"80570","localeAltName":null},{"geonameid":4525628,"name":"Stoutsville","admin3":"15686","localeAltName":null},{"geonameid":4526317,"name":"Thurston","admin3":"80570","localeAltName":null}],"admin3":[{"geonameid":4505213,"name":"Township of Amanda","admin3":"01637","localeAltName":null},{"geonameid":4506258,"name":"Township of Berne","admin3":"05956"},{"geonameid":4506727,"name":"Township of Bloom","admin3":"06950","localeAltName":null},{"geonameid":4508910,"name":"Township of Clearcreek","admin3":"15686","localeAltName":null},{"geonameid":4513307,"name":"Township of Greenfield","admin3":"32060","localeAltName":null},{"geonameid":4514378,"name":"Township of Hocking","admin3":"35812"},{"geonameid":4516578,"name":"Township of Liberty","admin3":"43120","localeAltName":null},{"geonameid":4517403,"name":"Township of Madison","admin3":"46382"},{"geonameid":4521627,"name":"Township of Pleasant","admin3":"63240"},{"geonameid":4522465,"name":"Township of Richland","admin3":"66684"},{"geonameid":4523039,"name":"Township of Rush Creek","admin3":"69120","localeAltName":null},{"geonameid":4527261,"name":"Township of Violet","admin3":"80206","localeAltName":null},{"geonameid":4527574,"name":"Township of Walnut","admin3":"80570","localeAltName":null}],"alternateNames":[{"alternatenameId":2089549,"geonameid":5165418,"isoLanguage":"en","alternateName":"Ohio","isPreferredName":true,"isShortName":true,"isColloquial":false,"isHistoric":false}]},"__N_SSG":true}