{"pageProps":{"locale":"en","admin2":{"geonameid":4517365,"name":"Madison County","country":"US","admin1":"OH","admin2":"097","admin3":"","latitude":"39.8940300","longitude":"-83.4002000","localeAltName":null},"admin1":{"geonameid":5165418,"name":"Ohio","admin1":"OH","localeAltName":"Ohio"},"locations":[{"geonameid":4506309,"name":"Bethel","admin3":"65480","localeAltName":null},{"geonameid":4508506,"name":"Choctaw Lake","admin3":"72960","localeAltName":null},{"geonameid":4517009,"name":"London","admin3":"44674","localeAltName":null},{"geonameid":4519065,"name":"Mount Sterling","admin3":"63338","localeAltName":null},{"geonameid":5166865,"name":"Plain City","admin3":"20142","localeAltName":null},{"geonameid":4528015,"name":"West Jefferson","admin3":"38696","localeAltName":null}],"admin3":[{"geonameid":4509981,"name":"Township of Deer Creek","admin3":"21154"},{"geonameid":4511325,"name":"Township of Fairfield","admin3":"26068"},{"geonameid":4515478,"name":"Township of Jefferson","admin3":"38696","localeAltName":null},{"geonameid":4517024,"name":"City of London","admin3":"44674","localeAltName":null},{"geonameid":4520111,"name":"Township of Oak Run","admin3":"57708"},{"geonameid":4520808,"name":"Township of Paint","admin3":"59528"},{"geonameid":4521629,"name":"Township of Pleasant","admin3":"63338","localeAltName":null},{"geonameid":4522173,"name":"Township of Range","admin3":"65480","localeAltName":null},{"geonameid":4524991,"name":"Township of Somerford","admin3":"72960","localeAltName":null},{"geonameid":4525546,"name":"Township of Stokes","admin3":"74784"},{"geonameid":4526896,"name":"Township of Union","admin3":"78428"},{"geonameid":5149184,"name":"Township of Canaan","admin3":"11234"},{"geonameid":5151701,"name":"Township of Darby","admin3":"20142","localeAltName":null},{"geonameid":5163341,"name":"Township of Monroe","admin3":"51478"},{"geonameid":5166684,"name":"Township of Pike","admin3":"62666"}],"alternateNames":[{"alternatenameId":2089549,"geonameid":5165418,"isoLanguage":"en","alternateName":"Ohio","isPreferredName":true,"isShortName":true,"isColloquial":false,"isHistoric":false}]},"__N_SSG":true}