{"pageProps":{"locale":"en","admin2":{"geonameid":5161911,"name":"Marion County","country":"US","admin1":"OH","admin2":"101","admin3":"","latitude":"40.5871900","longitude":"-83.1608700","localeAltName":null},"admin1":{"geonameid":5165418,"name":"Ohio","admin1":"OH","localeAltName":"Ohio"},"locations":[{"geonameid":5148892,"name":"Caledonia","admin3":"15196","localeAltName":null},{"geonameid":5160005,"name":"La Rue","admin3":"51730","localeAltName":null},{"geonameid":5161902,"name":"Marion","admin3":"47768","localeAltName":null},{"geonameid":5167479,"name":"Prospect","admin3":"64794","localeAltName":null}],"admin3":[{"geonameid":5147428,"name":"Township of Big Island","admin3":"06348"},{"geonameid":5147979,"name":"Township of Bowling Green","admin3":"07958"},{"geonameid":5150407,"name":"Township of Claridon","admin3":"15196","localeAltName":null},{"geonameid":5156210,"name":"Township of Grand Prairie","admin3":"31192"},{"geonameid":5156231,"name":"Township of Grand","admin3":"31178"},{"geonameid":5156380,"name":"Township of Green Camp","admin3":"31962"},{"geonameid":5161935,"name":"Township of Marion","admin3":"47768","localeAltName":null},{"geonameid":5167123,"name":"Township of Pleasant","admin3":"63352"},{"geonameid":5167499,"name":"Township of Prospect","admin3":"64794","localeAltName":null},{"geonameid":5168054,"name":"Township of Richland","admin3":"66754"},{"geonameid":5170641,"name":"Township of Salt Rock","admin3":"70240"},{"geonameid":5171525,"name":"Township of Scott","admin3":"71073"},{"geonameid":5174440,"name":"Township of Tully","admin3":"77742"},{"geonameid":5175555,"name":"Township of Waldo","admin3":"80514"}],"alternateNames":[{"alternatenameId":2089549,"geonameid":5165418,"isoLanguage":"en","alternateName":"Ohio","isPreferredName":true,"isShortName":true,"isColloquial":false,"isHistoric":false}]},"__N_SSG":true}