{"pageProps":{"locale":"en","admin2":{"geonameid":5162517,"name":"Medina County","country":"US","admin1":"OH","admin2":"103","admin3":"","latitude":"41.1175900","longitude":"-81.8997100","localeAltName":null},"admin1":{"geonameid":5165418,"name":"Ohio","admin1":"OH","localeAltName":"Ohio"},"locations":[{"geonameid":5148178,"name":"Briarwood Beach","admin3":"41174","localeAltName":null},{"geonameid":5148480,"name":"Brunswick","admin3":"09680","localeAltName":null},{"geonameid":5150016,"name":"Chippewa Lake","admin3":"14254","localeAltName":null},{"geonameid":5161142,"name":"Lodi","admin3":"44604","localeAltName":null},{"geonameid":5162512,"name":"Medina","admin3":"48808","localeAltName":null},{"geonameid":5171681,"name":"Seville","admin3":"71488","localeAltName":null},{"geonameid":5172694,"name":"Spencer","admin3":"73992","localeAltName":null},{"geonameid":5175496,"name":"Wadsworth","admin3":"80304","localeAltName":null},{"geonameid":5176490,"name":"Westfield Center","admin3":"83468","localeAltName":null}],"admin3":[{"geonameid":5148485,"name":"Township of Brunswick Hills","admin3":"09708"},{"geonameid":5148489,"name":"City of Brunswick","admin3":"09680","localeAltName":null},{"geonameid":5149884,"name":"Township of Chatham","admin3":"13750"},{"geonameid":5156252,"name":"Township of Granger","admin3":"31374"},{"geonameid":5156633,"name":"Township of Guilford","admin3":"32676"},{"geonameid":5157005,"name":"Township of Harrisville","admin3":"34104"},{"geonameid":5157657,"name":"Township of Hinckley","admin3":"35644"},{"geonameid":5157914,"name":"Township of Homer","admin3":"36078"},{"geonameid":5160036,"name":"Township of Lafayette","admin3":"41174","localeAltName":null},{"geonameid":5160963,"name":"Township of Litchfield","admin3":"44072"},{"geonameid":5161072,"name":"Township of Liverpool","admin3":"44240"},{"geonameid":5162530,"name":"Township of Medina","admin3":"48804"},{"geonameid":5163396,"name":"Township of Montville","admin3":"51856"},{"geonameid":5171794,"name":"Township of Sharon","admin3":"71801"},{"geonameid":5172709,"name":"Township of Spencer","admin3":"73999"},{"geonameid":5175503,"name":"Township of Wadsworth","admin3":"80318"},{"geonameid":5176498,"name":"Township of Westfield","admin3":"83426"},{"geonameid":5177546,"name":"Township of York","admin3":"87052"},{"geonameid":7165380,"name":"Village of Chippewa Lake","admin3":"14254","localeAltName":null},{"geonameid":7166183,"name":"Village of Lodi","admin3":"44604","localeAltName":null},{"geonameid":7166666,"name":"Village of Gloria Glens Park","admin3":"30660"},{"geonameid":7167489,"name":"Village of Spencer","admin3":"73992","localeAltName":null},{"geonameid":7167751,"name":"Village of Westfield Center","admin3":"83468","localeAltName":null},{"geonameid":7317404,"name":"City of Wadsworth","admin3":"80304","localeAltName":null}],"alternateNames":[{"alternatenameId":2089549,"geonameid":5165418,"isoLanguage":"en","alternateName":"Ohio","isPreferredName":true,"isShortName":true,"isColloquial":false,"isHistoric":false}]},"__N_SSG":true}