{"pageProps":{"locale":"en","admin2":{"geonameid":4518563,"name":"Monroe County","country":"US","admin1":"OH","admin2":"111","admin3":"","latitude":"39.7273500","longitude":"-81.0829200","localeAltName":null},"admin1":{"geonameid":5165418,"name":"Ohio","admin1":"OH","localeAltName":"Ohio"},"locations":[{"geonameid":4523929,"name":"Sardis","admin3":"42448","localeAltName":null},{"geonameid":4528724,"name":"Woodsfield","admin3":"12966","localeAltName":null}],"admin3":[{"geonameid":4505019,"name":"Township of Adams","admin3":"00296"},{"geonameid":4506227,"name":"Township of Benton","admin3":"05606"},{"geonameid":4506424,"name":"Township of Bethel","admin3":"06124"},{"geonameid":4508190,"name":"Township of Center","admin3":"12966","localeAltName":null},{"geonameid":4512260,"name":"Township of Franklin","admin3":"28357"},{"geonameid":4513239,"name":"Township of Green","admin3":"31808"},{"geonameid":4515372,"name":"Township of Jackson","admin3":"37898"},{"geonameid":4516440,"name":"Township of Lee","admin3":"42448","localeAltName":null},{"geonameid":4517448,"name":"Township of Malaga","admin3":"46928"},{"geonameid":4520373,"name":"Township of Ohio","admin3":"57988"},{"geonameid":4521121,"name":"Township of Perry","admin3":"61952"},{"geonameid":4523794,"name":"Township of Salem","admin3":"69918"},{"geonameid":4524382,"name":"Township of Seneca","admin3":"71349"},{"geonameid":4525844,"name":"Township of Summit","admin3":"75497"},{"geonameid":4525889,"name":"Township of Sunsbury","admin3":"75686"},{"geonameid":4525971,"name":"Township of Switzerland","admin3":"75945"},{"geonameid":4527705,"name":"Township of Washington","admin3":"81480"},{"geonameid":4527800,"name":"Township of Wayne","admin3":"82208"}],"alternateNames":[{"alternatenameId":2089549,"geonameid":5165418,"isoLanguage":"en","alternateName":"Ohio","isPreferredName":true,"isShortName":true,"isColloquial":false,"isHistoric":false}]},"__N_SSG":true}