{"pageProps":{"locale":"en","admin2":{"geonameid":4518677,"name":"Morgan County","country":"US","admin1":"OH","admin2":"115","admin3":"","latitude":"39.6203700","longitude":"-81.8526600","localeAltName":null},"admin1":{"geonameid":5165418,"name":"Ohio","admin1":"OH","localeAltName":"Ohio"},"locations":[{"geonameid":4517461,"name":"Malta","admin3":"46984","localeAltName":null},{"geonameid":4517816,"name":"McConnelsville","admin3":"52122","localeAltName":null}],"admin3":[{"geonameid":4506728,"name":"Township of Bloom","admin3":"06964"},{"geonameid":4507132,"name":"Township of Bristol","admin3":"08910"},{"geonameid":4508191,"name":"Township of Center","admin3":"12980"},{"geonameid":4510001,"name":"Township of Deerfield","admin3":"21182"},{"geonameid":4514538,"name":"Township of Homer","admin3":"36092"},{"geonameid":4517466,"name":"Township of Malta","admin3":"46984","localeAltName":null},{"geonameid":4517483,"name":"Township of Manchester","admin3":"47040"},{"geonameid":4517612,"name":"Township of Marion","admin3":"47796"},{"geonameid":4518051,"name":"Township of Meigsville","admin3":"48930"},{"geonameid":4518694,"name":"Township of Morgan","admin3":"52122","localeAltName":null},{"geonameid":4521033,"name":"Township of Penn","admin3":"61602"},{"geonameid":4526899,"name":"Township of Union","admin3":"78484"},{"geonameid":4528547,"name":"Township of Windsor","admin3":"86016"},{"geonameid":4528890,"name":"Township of York","admin3":"87066"}],"alternateNames":[{"alternatenameId":2089549,"geonameid":5165418,"isoLanguage":"en","alternateName":"Ohio","isPreferredName":true,"isShortName":true,"isColloquial":false,"isHistoric":false}]},"__N_SSG":true}