{"pageProps":{"locale":"en","admin2":{"geonameid":4521093,"name":"Perry County","country":"US","admin1":"OH","admin2":"127","admin3":"","latitude":"39.7371500","longitude":"-82.2361400","localeAltName":null},"admin1":{"geonameid":5165418,"name":"Ohio","admin1":"OH","localeAltName":"Ohio"},"locations":[{"geonameid":4509436,"name":"Corning","admin3":"51520","localeAltName":null},{"geonameid":4509634,"name":"Crooksville","admin3":"33964","localeAltName":null},{"geonameid":4515688,"name":"Junction City","admin3":"37968","localeAltName":null},{"geonameid":4519591,"name":"New Lexington","admin3":"62680","localeAltName":null},{"geonameid":4519685,"name":"New Straitsville","admin3":"16350","localeAltName":null},{"geonameid":4524528,"name":"Shawnee","admin3":"70226","localeAltName":null},{"geonameid":4524993,"name":"Somerset","admin3":"65760","localeAltName":null},{"geonameid":4526284,"name":"Thornport","admin3":"76659","localeAltName":null},{"geonameid":4526291,"name":"Thornville","admin3":"76659","localeAltName":null}],"admin3":[{"geonameid":4505957,"name":"Township of Bearfield","admin3":"04584"},{"geonameid":4508892,"name":"Township of Clayton","admin3":"15658"},{"geonameid":4509051,"name":"Township of Coal","admin3":"16350","localeAltName":null},{"geonameid":4513836,"name":"Township of Harrison","admin3":"33964","localeAltName":null},{"geonameid":4514644,"name":"Township of Hopewell","admin3":"36386"},{"geonameid":4515375,"name":"Township of Jackson","admin3":"37968","localeAltName":null},{"geonameid":4517409,"name":"Township of Madison","admin3":"46550"},{"geonameid":4518541,"name":"Township of Monday Creek","admin3":"51198"},{"geonameid":4518585,"name":"Township of Monroe","admin3":"51520","localeAltName":null},{"geonameid":4521265,"name":"Township of Pike","admin3":"62680","localeAltName":null},{"geonameid":4521630,"name":"Township of Pleasant","admin3":"63366"},{"geonameid":4522234,"name":"Township of Reading","admin3":"65760","localeAltName":null},{"geonameid":4523825,"name":"Township of Salt Lick","admin3":"70226","localeAltName":null},{"geonameid":4828851,"name":"Township of Thorn","admin3":"76659","localeAltName":null}],"alternateNames":[{"alternatenameId":2089549,"geonameid":5165418,"isoLanguage":"en","alternateName":"Ohio","isPreferredName":true,"isShortName":true,"isColloquial":false,"isHistoric":false}]},"__N_SSG":true}