{"pageProps":{"locale":"en","admin2":{"geonameid":4521196,"name":"Pickaway County","country":"US","admin1":"OH","admin2":"129","admin3":"","latitude":"39.6419400","longitude":"-83.0243900","localeAltName":null},"admin1":{"geonameid":5165418,"name":"Ohio","admin1":"OH","localeAltName":"Ohio"},"locations":[{"geonameid":4505522,"name":"Ashville","admin3":"33978","localeAltName":null},{"geonameid":4508778,"name":"Circleville","admin3":"15070","localeAltName":null},{"geonameid":4509221,"name":"Commercial Point","admin3":"70870","localeAltName":null},{"geonameid":4516993,"name":"Logan Elm Village","admin3":"15077","localeAltName":null},{"geonameid":4519545,"name":"New Holland","admin3":"62008","localeAltName":null},{"geonameid":4525028,"name":"South Bloomfield","admin3":"33978","localeAltName":null},{"geonameid":4528434,"name":"Williamsport","admin3":"21168","localeAltName":null}],"admin3":[{"geonameid":4508784,"name":"Township of Circleville","admin3":"15077","localeAltName":null},{"geonameid":4509812,"name":"Township of Darby","admin3":"20156"},{"geonameid":4509982,"name":"Township of Deercreek","admin3":"21168","localeAltName":null},{"geonameid":4513837,"name":"Township of Harrison","admin3":"33978","localeAltName":null},{"geonameid":4515376,"name":"Township of Jackson","admin3":"37982"},{"geonameid":4517410,"name":"Township of Madison","admin3":"46564"},{"geonameid":4518586,"name":"Township of Monroe","admin3":"51534"},{"geonameid":4519251,"name":"Township of Muhlenberg","admin3":"53256"},{"geonameid":4521124,"name":"Township of Perry","admin3":"62008","localeAltName":null},{"geonameid":4521206,"name":"Township of Pickaway","admin3":"62484"},{"geonameid":4523820,"name":"Township of Saltcreek","admin3":"70184"},{"geonameid":4524250,"name":"Township of Scioto","admin3":"70870","localeAltName":null},{"geonameid":4527576,"name":"Township of Walnut","admin3":"80598"},{"geonameid":4527708,"name":"Township of Washington","admin3":"81550"},{"geonameid":4527803,"name":"Township of Wayne","admin3":"82264"},{"geonameid":7162966,"name":"City of Circleville","admin3":"15070","localeAltName":null}],"alternateNames":[{"alternatenameId":2089549,"geonameid":5165418,"isoLanguage":"en","alternateName":"Ohio","isPreferredName":true,"isShortName":true,"isColloquial":false,"isHistoric":false}]},"__N_SSG":true}