{"pageProps":{"locale":"en","admin2":{"geonameid":4521907,"name":"Preble County","country":"US","admin1":"OH","admin2":"135","admin3":"","latitude":"39.7415700","longitude":"-84.6480200","localeAltName":null},"admin1":{"geonameid":5165418,"name":"Ohio","admin1":"OH","localeAltName":"Ohio"},"locations":[{"geonameid":4507755,"name":"Camden","admin3":"72964","localeAltName":null},{"geonameid":4510719,"name":"Eaton","admin3":"24234","localeAltName":null},{"geonameid":4513117,"name":"Gratis","admin3":"31486","localeAltName":null},{"geonameid":8480058,"name":"Lake Lakengren","admin3":"29484","localeAltName":null},{"geonameid":4516523,"name":"Lewisburg","admin3":"33992","localeAltName":null},{"geonameid":4519642,"name":"New Paris","admin3":"38780","localeAltName":null},{"geonameid":4527941,"name":"West Alexandria","admin3":"77994","localeAltName":null}],"admin3":[{"geonameid":4510175,"name":"Township of Dixon","admin3":"22106"},{"geonameid":4510727,"name":"City of Eaton","admin3":"24234","localeAltName":null},{"geonameid":4512519,"name":"Township of Gasper","admin3":"29484","localeAltName":null},{"geonameid":4513119,"name":"Township of Gratis","admin3":"31486","localeAltName":null},{"geonameid":4513838,"name":"Township of Harrison","admin3":"33992","localeAltName":null},{"geonameid":4515287,"name":"Township of Israel","admin3":"37590"},{"geonameid":4515378,"name":"Township of Jackson","admin3":"38010"},{"geonameid":4515481,"name":"Township of Jefferson","admin3":"38780","localeAltName":null},{"geonameid":4516270,"name":"Township of Lanier","admin3":"41846"},{"geonameid":4518587,"name":"Township of Monroe","admin3":"51548"},{"geonameid":4524992,"name":"Township of Somers","admin3":"72964","localeAltName":null},{"geonameid":4526746,"name":"Township of Twin","admin3":"77994","localeAltName":null},{"geonameid":4527709,"name":"Township of Washington","admin3":"81564"}],"alternateNames":[{"alternatenameId":2089549,"geonameid":5165418,"isoLanguage":"en","alternateName":"Ohio","isPreferredName":true,"isShortName":true,"isColloquial":false,"isHistoric":false}]},"__N_SSG":true}