{"pageProps":{"locale":"en","admin2":{"geonameid":5171643,"name":"Seneca County","country":"US","admin1":"OH","admin2":"147","admin3":"","latitude":"41.1238800","longitude":"-83.1277100","localeAltName":null},"admin1":{"geonameid":5165418,"name":"Ohio","admin1":"OH","localeAltName":"Ohio"},"locations":[{"geonameid":5146141,"name":"Attica","admin3":"79674","localeAltName":null},{"geonameid":5147344,"name":"Bettsville","admin3":"43316","localeAltName":null},{"geonameid":5147713,"name":"Bloomville","admin3":"07006","localeAltName":null},{"geonameid":5154905,"name":"Fostoria","admin3":"28014","localeAltName":null},{"geonameid":5167969,"name":"Republic","admin3":"71024","localeAltName":null},{"geonameid":5173930,"name":"Tiffin","admin3":"76778","localeAltName":null}],"admin3":[{"geonameid":5145409,"name":"Township of Adams","admin3":"00324"},{"geonameid":5147467,"name":"Township of Big Spring","admin3":"06432"},{"geonameid":5147680,"name":"Township of Bloom","admin3":"07006","localeAltName":null},{"geonameid":5150617,"name":"Township of Clinton","admin3":"16154"},{"geonameid":5152928,"name":"Township of Eden","admin3":"24346"},{"geonameid":5154918,"name":"City of Fostoria","admin3":"28014","localeAltName":null},{"geonameid":5158013,"name":"Township of Hopewell","admin3":"36400"},{"geonameid":5159014,"name":"Township of Jackson","admin3":"38066"},{"geonameid":5160721,"name":"Township of Liberty","admin3":"43316","localeAltName":null},{"geonameid":5161339,"name":"Township of Loudon","admin3":"45052"},{"geonameid":5167125,"name":"Township of Pleasant","admin3":"63394"},{"geonameid":5167838,"name":"Township of Reed","admin3":"65942"},{"geonameid":5171491,"name":"Township of Scipio","admin3":"71024","localeAltName":null},{"geonameid":5171650,"name":"Township of Seneca","admin3":"71355"},{"geonameid":5173896,"name":"Township of Thompson","admin3":"76632"},{"geonameid":5173950,"name":"City of Tiffin","admin3":"76778","localeAltName":null},{"geonameid":5175068,"name":"Township of Venice","admin3":"79674","localeAltName":null}],"alternateNames":[{"alternatenameId":2089549,"geonameid":5165418,"isoLanguage":"en","alternateName":"Ohio","isPreferredName":true,"isShortName":true,"isColloquial":false,"isHistoric":false}]},"__N_SSG":true}