{"pageProps":{"locale":"en","admin2":{"geonameid":5171871,"name":"Shelby County","country":"US","admin1":"OH","admin2":"149","admin3":"","latitude":"40.3315300","longitude":"-84.2047300","localeAltName":null},"admin1":{"geonameid":5165418,"name":"Ohio","admin1":"OH","localeAltName":"Ohio"},"locations":[{"geonameid":5145788,"name":"Anna","admin3":"28434","localeAltName":null},{"geonameid":5147924,"name":"Botkins","admin3":"22050","localeAltName":null},{"geonameid":5154859,"name":"Fort Loramie","admin3":"46172","localeAltName":null},{"geonameid":5158960,"name":"Jackson Center","admin3":"38080","localeAltName":null},{"geonameid":5168839,"name":"Russia","admin3":"44884","localeAltName":null},{"geonameid":5172078,"name":"Sidney","admin3":"16168","localeAltName":null}],"admin3":[{"geonameid":5150618,"name":"Township of Clinton","admin3":"16168","localeAltName":null},{"geonameid":5151638,"name":"Township of Cynthian","admin3":"19834"},{"geonameid":5152106,"name":"Township of Dinsmore","admin3":"22050","localeAltName":null},{"geonameid":5155113,"name":"Township of Franklin","admin3":"28434","localeAltName":null},{"geonameid":5156431,"name":"Township of Green","admin3":"31850"},{"geonameid":5159015,"name":"Township of Jackson","admin3":"38080","localeAltName":null},{"geonameid":5161296,"name":"Township of Loramie","admin3":"44884","localeAltName":null},{"geonameid":5162420,"name":"Township of McLean","admin3":"46172","localeAltName":null},{"geonameid":5165713,"name":"Township of Orange","admin3":"58660"},{"geonameid":5166508,"name":"Township of Perry","admin3":"62064"},{"geonameid":5170602,"name":"Township of Salem","admin3":"69960"},{"geonameid":5174491,"name":"Township of Turtle Creek","admin3":"77854"},{"geonameid":5174989,"name":"Township of Van Buren","admin3":"79464"},{"geonameid":5175821,"name":"Township of Washington","admin3":"81620"}],"alternateNames":[{"alternatenameId":2089549,"geonameid":5165418,"isoLanguage":"en","alternateName":"Ohio","isPreferredName":true,"isShortName":true,"isColloquial":false,"isHistoric":false}]},"__N_SSG":true}