{"pageProps":{"locale":"en","admin2":{"geonameid":4527654,"name":"Washington County","country":"US","admin1":"OH","admin2":"167","admin3":"","latitude":"39.4553200","longitude":"-81.4952500","localeAltName":null},"admin1":{"geonameid":5165418,"name":"Ohio","admin1":"OH","localeAltName":"Ohio"},"locations":[{"geonameid":4506187,"name":"Belpre","admin3":"05424","localeAltName":null},{"geonameid":4506474,"name":"Beverly","admin3":"81774","localeAltName":null},{"geonameid":4510098,"name":"Devola","admin3":"53452","localeAltName":null},{"geonameid":4517157,"name":"Lowell","admin3":"00338","localeAltName":null},{"geonameid":4517586,"name":"Marietta","admin3":"47628","localeAltName":null},{"geonameid":4519625,"name":"New Matamoras","admin3":"31276","localeAltName":null},{"geonameid":4519745,"name":"Newport","admin3":"55356","localeAltName":null},{"geonameid":4522359,"name":"Reno","admin3":"47642","localeAltName":null}],"admin3":[{"geonameid":4050134,"name":"Township of Wesley","admin3":"82838"},{"geonameid":4505020,"name":"Township of Adams","admin3":"00338","localeAltName":null},{"geonameid":4505593,"name":"Township of Aurelius","admin3":"03072"},{"geonameid":4505774,"name":"Township of Barlow","admin3":"03898"},{"geonameid":4506196,"name":"City of Belpre","admin3":"05424","localeAltName":null},{"geonameid":4506197,"name":"Township of Belpre","admin3":"05438"},{"geonameid":4509965,"name":"Township of Decatur","admin3":"21098"},{"geonameid":4510444,"name":"Township of Dunham","admin3":"22918"},{"geonameid":4511326,"name":"Township of Fairfield","admin3":"26096"},{"geonameid":4511535,"name":"Township of Fearing","admin3":"26810"},{"geonameid":4513065,"name":"Township of Grandview","admin3":"31276","localeAltName":null},{"geonameid":4514948,"name":"Township of Independence","admin3":"37268"},{"geonameid":4516365,"name":"Township of Lawrence","admin3":"42196"},{"geonameid":4516582,"name":"Township of Liberty","admin3":"43386"},{"geonameid":4517224,"name":"Township of Ludlow","admin3":"45360"},{"geonameid":4517596,"name":"Township of Marietta","admin3":"47642","localeAltName":null},{"geonameid":4517601,"name":"City of Marietta","admin3":"47628","localeAltName":null},{"geonameid":4519332,"name":"Township of Muskingum","admin3":"53452","localeAltName":null},{"geonameid":4519750,"name":"Township of Newport","admin3":"55356","localeAltName":null},{"geonameid":4520835,"name":"Township of Palmer","admin3":"59626"},{"geonameid":4523796,"name":"Township of Salem","admin3":"70002"},{"geonameid":4527636,"name":"Township of Warren","admin3":"80934"},{"geonameid":4527719,"name":"Township of Waterford","admin3":"81774","localeAltName":null},{"geonameid":4527735,"name":"Township of Watertown","admin3":"81844"}],"alternateNames":[{"alternatenameId":2089549,"geonameid":5165418,"isoLanguage":"en","alternateName":"Ohio","isPreferredName":true,"isShortName":true,"isColloquial":false,"isHistoric":false}]},"__N_SSG":true}