{"pageProps":{"locale":"de","admin2":{"geonameid":6458832,"name":"Saint-Maurice District","country":"CH","admin1":"VS","admin2":"2310","admin3":"","latitude":"46.1538400","longitude":"6.9982300"},"admin1":{"geonameid":2658205,"name":"Canton du Valais","admin1":"VS"},"locations":[{"geonameid":2660991,"name":"Dorénaz","admin3":"6212"},{"geonameid":2660771,"name":"Finhaut","admin3":"6214"},{"geonameid":2659668,"name":"Mex","admin3":"6213"},{"geonameid":2658864,"name":"Saint-Maurice","admin3":"6217"},{"geonameid":2658847,"name":"Salvan","admin3":"6218"},{"geonameid":2658157,"name":"Vernayaz","admin3":"6219"}],"admin3":[{"geonameid":7285530,"name":"Collonges","admin3":"6211"},{"geonameid":7285668,"name":"Dorénaz","admin3":"6212"},{"geonameid":7285786,"name":"Evionnaz","admin3":"6213"},{"geonameid":7285826,"name":"Finhaut","admin3":"6214"},{"geonameid":7286451,"name":"Massongex","admin3":"6215"},{"geonameid":7287034,"name":"Saint-Maurice","admin3":"6217"},{"geonameid":7287046,"name":"Salvan","admin3":"6218"},{"geonameid":7287437,"name":"Vernayaz","admin3":"6219"},{"geonameid":7287439,"name":"Vérossaz","admin3":"6220"}],"alternateNames":[]},"__N_SSG":true}