{"pageProps":{"locale":"de","admin2":{"geonameid":6458795,"name":"Sierre District","country":"CH","admin1":"VS","admin2":"2311","admin3":"","latitude":"46.2705200","longitude":"7.5157000"},"admin1":{"geonameid":2658205,"name":"Canton du Valais","admin1":"VS"},"locations":[{"geonameid":2661654,"name":"Ayer","admin3":"6252"},{"geonameid":2661229,"name":"Chalais","admin3":"6232"},{"geonameid":2661218,"name":"Chandolin","admin3":"6252"},{"geonameid":2661188,"name":"Chermignon-d'en Haut","admin3":"6253"},{"geonameid":2661172,"name":"Chippis","admin3":"6232"},{"geonameid":2660504,"name":"Grimentz","admin3":"6252"},{"geonameid":2660493,"name":"Grône","admin3":"6238"},{"geonameid":2659954,"name":"Lens","admin3":"6240"},{"geonameid":2659662,"name":"Miège","admin3":"6254"},{"geonameid":2659623,"name":"Montana","admin3":"6253"},{"geonameid":2659105,"name":"Randogne","admin3":"6253"},{"geonameid":2658869,"name":"Saint-Jean","admin3":"6252"},{"geonameid":2658866,"name":"Saint-Luc","admin3":"6252"},{"geonameid":2658606,"name":"Sierre","admin3":"6248"},{"geonameid":2658108,"name":"Vissoie","admin3":"6252"}],"admin3":[{"geonameid":7285081,"name":"Anniviers","admin3":"6252"},{"geonameid":7285461,"name":"Chalais","admin3":"6232"},{"geonameid":7285512,"name":"Chippis","admin3":"6235"},{"geonameid":7285986,"name":"Grône","admin3":"6238"},{"geonameid":7286130,"name":"Icogne","admin3":"6239"},{"geonameid":7286317,"name":"Lens","admin3":"6240"},{"geonameid":7287031,"name":"Saint-Léonard","admin3":"6246"},{"geonameid":7287165,"name":"Sierre","admin3":"6248"},{"geonameid":11611722,"name":"Crans-Montana","admin3":"6253"},{"geonameid":12206816,"name":"Noble-Contrée","admin3":"6254"}],"alternateNames":[]},"__N_SSG":true}