{"pageProps":{"locale":"en","admin2":{"geonameid":2756428,"name":"Gemeente Ede","country":"NL","admin1":"03","admin2":"0228","admin3":"","latitude":"52.0811800","longitude":"5.7449000"},"admin1":{"geonameid":2755634,"name":"Provincie Gelderland","admin1":"03"},"locations":[{"geonameid":2759197,"name":"Bennekom","admin3":""},{"geonameid":2757469,"name":"De Kade","admin3":""},{"geonameid":2757433,"name":"De Klomp","admin3":""},{"geonameid":2757405,"name":"De Kraats","admin3":""},{"geonameid":2756994,"name":"De Valk","admin3":""},{"geonameid":2757667,"name":"Deelen","admin3":""},{"geonameid":2756771,"name":"Doesburg","admin3":""},{"geonameid":2756769,"name":"Doesburgerbuurt","admin3":""},{"geonameid":2756578,"name":"Driesprong","admin3":""},{"geonameid":2756429,"name":"Ede","admin3":""},{"geonameid":2756426,"name":"Ederveen","admin3":""},{"geonameid":2756025,"name":"Eschoten","admin3":""},{"geonameid":2754804,"name":"Harskamp","admin3":""},{"geonameid":2754021,"name":"Hoekelum","admin3":""},{"geonameid":2753791,"name":"Hoog-Baarlo","admin3":""},{"geonameid":2751385,"name":"Lunteren","admin3":""},{"geonameid":2751216,"name":"Manen","admin3":""},{"geonameid":2750915,"name":"Meulunteren","admin3":""},{"geonameid":2750591,"name":"Mossel","admin3":""},{"geonameid":2750463,"name":"Nederwoud","admin3":""},{"geonameid":2750424,"name":"Nergena","admin3":""},{"geonameid":2750143,"name":"Nieuw-Reemst","admin3":""},{"geonameid":6544781,"name":"Oostdorp","admin3":""},{"geonameid":2749203,"name":"Otterlo","admin3":""},{"geonameid":2748910,"name":"Oud-Reemst","admin3":""},{"geonameid":2748806,"name":"Overwoud","admin3":""},{"geonameid":2748012,"name":"Roekel","admin3":""},{"geonameid":2745700,"name":"Veldhuizen","admin3":""},{"geonameid":2745075,"name":"Walderveen","admin3":""},{"geonameid":2744871,"name":"Wekerom","admin3":""},{"geonameid":2744777,"name":"Westeneng","admin3":""}],"admin3":[],"alternateNames":[{"alternatenameId":11907787,"geonameid":2755634,"isoLanguage":"de","alternateName":"Gelderland","isPreferredName":true,"isShortName":true,"isColloquial":false,"isHistoric":false}]},"__N_SSG":true}