{"pageProps":{"locale":"it","admin2":{"geonameid":3176884,"name":"Provincia di Foggia","country":"IT","admin1":"13","admin2":"FG","admin3":"","latitude":"41.4500000","longitude":"15.5333300","localeAltName":"Foggia"},"admin1":{"geonameid":3169778,"name":"Puglia","admin1":"13","localeAltName":null},"locations":[{"geonameid":3183557,"name":"Accadia","admin3":"071001","localeAltName":null},{"geonameid":3183329,"name":"Alberona","admin3":"071002","localeAltName":null},{"geonameid":3183009,"name":"Anzano di Puglia","admin3":"071003","localeAltName":null},{"geonameid":3182958,"name":"Apricena","admin3":"071004","localeAltName":null},{"geonameid":3182747,"name":"Ascoli Satriano","admin3":"071005","localeAltName":null},{"geonameid":3182056,"name":"Biccari","admin3":"071006","localeAltName":null},{"geonameid":3181810,"name":"Borgo Celano","admin3":"071047","localeAltName":null},{"geonameid":3181644,"name":"Bovino","admin3":"071007","localeAltName":null},{"geonameid":3181274,"name":"Cagnano Varano","admin3":"071008","localeAltName":null},{"geonameid":3180874,"name":"Candela","admin3":"071009","localeAltName":null},{"geonameid":3180588,"name":"Carapelle","admin3":"071010","localeAltName":null},{"geonameid":3180501,"name":"Carlantino","admin3":"071011","localeAltName":null},{"geonameid":3180428,"name":"Carpino","admin3":"071012","localeAltName":null},{"geonameid":3180171,"name":"Casalnuovo Monterotaro","admin3":"071013","localeAltName":null},{"geonameid":3180156,"name":"Casalvecchio di Puglia","admin3":"071014","localeAltName":null},{"geonameid":6535308,"name":"Castelluccio dei Sauri","admin3":"071015","localeAltName":null},{"geonameid":3179563,"name":"Castelluccio Valmaggiore","admin3":"071016","localeAltName":null},{"geonameid":3179530,"name":"Castelnuovo della Daunia","admin3":"071017","localeAltName":null},{"geonameid":3179212,"name":"Celenza Valfortore","admin3":"071018","localeAltName":null},{"geonameid":3179075,"name":"Cerignola","admin3":"071020","localeAltName":null},{"geonameid":3178794,"name":"Chieuti","admin3":"071021","localeAltName":null},{"geonameid":3177629,"name":"Deliceto","admin3":"071022","localeAltName":null},{"geonameid":3177294,"name":"Faeto","admin3":"071023","localeAltName":null},{"geonameid":3176885,"name":"Foggia","admin3":"071024","localeAltName":null},{"geonameid":3175452,"name":"Ischitella","admin3":"071025","localeAltName":null},{"geonameid":3174833,"name":"Lesina","admin3":"071027","localeAltName":null},{"geonameid":3174526,"name":"Lucera","admin3":"071028","localeAltName":null},{"geonameid":3174092,"name":"Manfredonia","admin3":"071029","localeAltName":null},{"geonameid":3173699,"name":"Mattinata","admin3":"071031","localeAltName":null},{"geonameid":3172747,"name":"Monte Sant'Angelo","admin3":"071033","localeAltName":null},{"geonameid":3172875,"name":"Monteleone di Puglia","admin3":"071032","localeAltName":null},{"geonameid":3172506,"name":"Motta Montecorvino","admin3":"071034","localeAltName":null},{"geonameid":3171973,"name":"Ordona","admin3":"071063","localeAltName":null},{"geonameid":3171914,"name":"Orsara di Puglia","admin3":"071035","localeAltName":null},{"geonameid":3171900,"name":"Orta Nova","admin3":"071036","localeAltName":null},{"geonameid":3171517,"name":"Panni","admin3":"071037","localeAltName":null},{"geonameid":8949948,"name":"Pantano","admin3":"071024","localeAltName":null},{"geonameid":3171157,"name":"Peschici","admin3":"071038","localeAltName":null},{"geonameid":3170789,"name":"Pietramontecorvino","admin3":"071039","localeAltName":null},{"geonameid":3170463,"name":"Poggio Imperiale","admin3":"071040","localeAltName":null},{"geonameid":3169394,"name":"Rignano Garganico","admin3":"071041","localeAltName":null},{"geonameid":3169109,"name":"Rocchetta Sant'Antonio","admin3":"071042","localeAltName":null},{"geonameid":3169094,"name":"Rodi Garganico","admin3":"071043","localeAltName":null},{"geonameid":3168935,"name":"Roseto Valfortore","admin3":"071044","localeAltName":null},{"geonameid":3168234,"name":"San Giovanni Rotondo","admin3":"071046","localeAltName":null},{"geonameid":3168075,"name":"San Marco in Lamis","admin3":"071047","localeAltName":null},{"geonameid":3168073,"name":"San Marco la Catola","admin3":"071048","localeAltName":null},{"geonameid":3167888,"name":"San Paolo di Civitate","admin3":"071050","localeAltName":null},{"geonameid":3167731,"name":"San Severo","admin3":"071051","localeAltName":null},{"geonameid":3167940,"name":"Sannicandro Garganico","admin3":"071049","localeAltName":null},{"geonameid":3167646,"name":"Sant'Agata di Puglia","admin3":"071052","localeAltName":null},{"geonameid":3166680,"name":"Serracapriola","admin3":"071053","localeAltName":null},{"geonameid":3166125,"name":"Stornara","admin3":"071054","localeAltName":null},{"geonameid":3166124,"name":"Stornarella","admin3":"071055","localeAltName":null},{"geonameid":3165435,"name":"Torremaggiore","admin3":"071056","localeAltName":null},{"geonameid":3165141,"name":"Troia","admin3":"071058","localeAltName":null},{"geonameid":3164409,"name":"Vico del Gargano","admin3":"071059","localeAltName":null},{"geonameid":3164387,"name":"Vieste","admin3":"071060","localeAltName":null},{"geonameid":3163954,"name":"Volturino","admin3":"071062","localeAltName":null},{"geonameid":3163904,"name":"Zapponeta","admin3":"071064","localeAltName":null}],"admin3":[{"geonameid":3175411,"name":"Isole Tremiti","admin3":"071026"},{"geonameid":3181645,"name":"Bovino","admin3":"071007","localeAltName":null},{"geonameid":6537531,"name":"Accadia","admin3":"071001","localeAltName":null},{"geonameid":6537532,"name":"Alberona","admin3":"071002","localeAltName":null},{"geonameid":6537533,"name":"Anzano di Puglia","admin3":"071003","localeAltName":null},{"geonameid":6537534,"name":"Carlantino","admin3":"071011","localeAltName":null},{"geonameid":6537535,"name":"Carpino","admin3":"071012","localeAltName":null},{"geonameid":6537536,"name":"Casalnuovo Monterotaro","admin3":"071013","localeAltName":null},{"geonameid":6537537,"name":"Chieuti","admin3":"071021","localeAltName":null},{"geonameid":6537538,"name":"Lucera","admin3":"071028","localeAltName":null},{"geonameid":6537539,"name":"Monteleone di Puglia","admin3":"071032","localeAltName":null},{"geonameid":6537540,"name":"Motta Montecorvino","admin3":"071034","localeAltName":null},{"geonameid":6537541,"name":"Orsara di Puglia","admin3":"071035","localeAltName":null},{"geonameid":6537542,"name":"Panni","admin3":"071037","localeAltName":null},{"geonameid":6537543,"name":"Roseto Valfortore","admin3":"071044","localeAltName":null},{"geonameid":6537545,"name":"Volturara Appula","admin3":"071061"},{"geonameid":6538918,"name":"Apricena","admin3":"071004","localeAltName":null},{"geonameid":6538919,"name":"Ascoli Satriano","admin3":"071005","localeAltName":null},{"geonameid":6538920,"name":"Candela","admin3":"071009","localeAltName":null},{"geonameid":6538921,"name":"Casalvecchio di Puglia","admin3":"071014","localeAltName":null},{"geonameid":6538922,"name":"Castelnuovo della Daunia","admin3":"071017","localeAltName":null},{"geonameid":6538923,"name":"Cerignola","admin3":"071020","localeAltName":null},{"geonameid":6538924,"name":"Deliceto","admin3":"071022","localeAltName":null},{"geonameid":6538925,"name":"Ischitella","admin3":"071025","localeAltName":null},{"geonameid":6538926,"name":"Lesina","admin3":"071027","localeAltName":null},{"geonameid":6538928,"name":"Peschici","admin3":"071038","localeAltName":null},{"geonameid":6538929,"name":"Poggio Imperiale","admin3":"071040","localeAltName":null},{"geonameid":6538931,"name":"San Marco in Lamis","admin3":"071047","localeAltName":null},{"geonameid":6538932,"name":"Stornara","admin3":"071054","localeAltName":null},{"geonameid":6538933,"name":"Stornarella","admin3":"071055","localeAltName":null},{"geonameid":6538934,"name":"Vico del Gargano","admin3":"071059","localeAltName":null},{"geonameid":6538935,"name":"Vieste","admin3":"071060","localeAltName":null},{"geonameid":6538936,"name":"Zapponeta","admin3":"071064","localeAltName":null},{"geonameid":6539579,"name":"Ordona","admin3":"071063","localeAltName":null},{"geonameid":6539834,"name":"Sant'Agata di Puglia","admin3":"071052","localeAltName":null},{"geonameid":6540021,"name":"Carapelle","admin3":"071010","localeAltName":null},{"geonameid":6540022,"name":"San Severo","admin3":"071051","localeAltName":null},{"geonameid":6540739,"name":"Biccari","admin3":"071006","localeAltName":null},{"geonameid":6540740,"name":"Celenza Valfortore","admin3":"071018","localeAltName":null},{"geonameid":6540741,"name":"Manfredonia","admin3":"071029","localeAltName":null},{"geonameid":6540742,"name":"Mattinata","admin3":"071031","localeAltName":null},{"geonameid":6540743,"name":"Rignano Garganico","admin3":"071041","localeAltName":null},{"geonameid":6540744,"name":"San Giovanni Rotondo","admin3":"071046","localeAltName":null},{"geonameid":6540745,"name":"San Paolo di Civitate","admin3":"071050","localeAltName":null},{"geonameid":6540747,"name":"Volturino","admin3":"071062","localeAltName":null},{"geonameid":6541248,"name":"Castelluccio Valmaggiore","admin3":"071016","localeAltName":null},{"geonameid":6541249,"name":"Faeto","admin3":"071023","localeAltName":null},{"geonameid":6541250,"name":"Rocchetta Sant'Antonio","admin3":"071042","localeAltName":null},{"geonameid":6541251,"name":"Rodi Garganico","admin3":"071043","localeAltName":null},{"geonameid":6541252,"name":"San Marco la Catola","admin3":"071048","localeAltName":null},{"geonameid":6541253,"name":"Troia","admin3":"071058","localeAltName":null},{"geonameid":6541731,"name":"Monte Sant'Angelo","admin3":"071033","localeAltName":null},{"geonameid":6541732,"name":"Serracapriola","admin3":"071053","localeAltName":null},{"geonameid":6541857,"name":"Foggia","admin3":"071024","localeAltName":null},{"geonameid":6541935,"name":"Cagnano Varano","admin3":"071008","localeAltName":null},{"geonameid":6541936,"name":"Orta Nova","admin3":"071036","localeAltName":null},{"geonameid":6542195,"name":"San Nicandro Garganico","admin3":"071049","localeAltName":null},{"geonameid":6542230,"name":"Pietramontecorvino","admin3":"071039","localeAltName":null},{"geonameid":6542268,"name":"Celle di San Vito","admin3":"071019"},{"geonameid":6542269,"name":"Torremaggiore","admin3":"071056","localeAltName":null},{"geonameid":6543292,"name":"Castelluccio dei Sauri","admin3":"071015","localeAltName":null}],"alternateNames":[{"alternatenameId":1351104,"geonameid":3176884,"isoLanguage":"it","alternateName":"Foggia","isPreferredName":true,"isShortName":true,"isColloquial":false,"isHistoric":false}]},"__N_SSG":true}