{"pageProps":{"locale":"en","admin2":{"geonameid":4984284,"name":"Antrim County","country":"US","admin1":"MI","admin2":"009","admin3":"","latitude":"45.0073700","longitude":"-85.1757900"},"admin1":{"geonameid":5001836,"name":"Michigan","admin1":"MI","localeAltName":"Michigan"},"locations":[{"geonameid":4985583,"name":"Bellaire","admin3":"29600"},{"geonameid":4991969,"name":"Elk Rapids","admin3":"25340"},{"geonameid":5000615,"name":"Mancelona","admin3":"50640"}],"admin3":[{"geonameid":4984884,"name":"Township of Banks","admin3":"05240"},{"geonameid":4988432,"name":"Township of Central Lake","admin3":"14420"},{"geonameid":4988690,"name":"Township of Chestonia","admin3":"15380"},{"geonameid":4990232,"name":"Township of Custer","admin3":"19400"},{"geonameid":4991782,"name":"Township of Echo","admin3":"24640"},{"geonameid":4991971,"name":"Township of Elk Rapids","admin3":"25340"},{"geonameid":4993132,"name":"Township of Forest Home","admin3":"29600"},{"geonameid":4995737,"name":"Township of Helena","admin3":"37500"},{"geonameid":4997714,"name":"Township of Jordan","admin3":"41960"},{"geonameid":4997859,"name":"Township of Kearney","admin3":"42400"},{"geonameid":5000597,"name":"Township of Mancelona","admin3":"50640"},{"geonameid":5002127,"name":"Township of Milton","admin3":"54440"},{"geonameid":5011071,"name":"Township of Star","admin3":"76260"},{"geonameid":5012393,"name":"Township of Torch Lake","admin3":"80100"},{"geonameid":5014049,"name":"Township of Warner","admin3":"83300"}],"alternateNames":[{"alternatenameId":2124820,"geonameid":5001836,"isoLanguage":"en","alternateName":"Michigan","isPreferredName":true,"isShortName":true,"isColloquial":false,"isHistoric":false}]},"__N_SSG":true}