{"pageProps":{"locale":"en","admin2":{"geonameid":4984356,"name":"Arenac County","country":"US","admin1":"MI","admin2":"011","admin3":"","latitude":"44.0428900","longitude":"-83.7472500"},"admin1":{"geonameid":5001836,"name":"Michigan","admin1":"MI","localeAltName":"Michigan"},"locations":[{"geonameid":5011020,"name":"Standish","admin3":"76120"}],"admin3":[{"geonameid":4983792,"name":"Township of Adams","admin3":"00280"},{"geonameid":4984358,"name":"Township of Arenac","admin3":"03360"},{"geonameid":4984531,"name":"City of Au Gres","admin3":"04120"},{"geonameid":4984532,"name":"Township of Au Gres","admin3":"04140"},{"geonameid":4989025,"name":"Township of Clayton","admin3":"16240"},{"geonameid":4990539,"name":"Township of Deep River","admin3":"21120"},{"geonameid":4999349,"name":"Township of Lincoln","admin3":"47580"},{"geonameid":5001127,"name":"Township of Mason","admin3":"52120"},{"geonameid":5002299,"name":"Township of Moffatt","admin3":"54800"},{"geonameid":5004488,"name":"City of Omer","admin3":"60660"},{"geonameid":5009982,"name":"Township of Sims","admin3":"74020"},{"geonameid":5011025,"name":"City of Standish","admin3":"76120"},{"geonameid":5011026,"name":"Township of Standish","admin3":"76140"},{"geonameid":5012721,"name":"Township of Turner","admin3":"80840"},{"geonameid":5014961,"name":"Township of Whitney","admin3":"87080"}],"alternateNames":[{"alternatenameId":2124820,"geonameid":5001836,"isoLanguage":"en","alternateName":"Michigan","isPreferredName":true,"isShortName":true,"isColloquial":false,"isHistoric":false}]},"__N_SSG":true}