{"pageProps":{"locale":"en","admin2":{"geonameid":4988216,"name":"Cass County","country":"US","admin1":"MI","admin2":"027","admin3":"","latitude":"41.9154000","longitude":"-85.9934600"},"admin1":{"geonameid":5001836,"name":"Michigan","admin1":"MI","localeAltName":"Michigan"},"locations":[{"geonameid":4988232,"name":"Cassopolis","admin3":"44140"},{"geonameid":4991111,"name":"Dowagiac","admin3":"22880"},{"geonameid":4991879,"name":"Edwardsburg","admin3":"60900"},{"geonameid":5000843,"name":"Marcellus","admin3":"51480"}],"admin3":[{"geonameid":4987720,"name":"Township of Calvin","admin3":"12620"},{"geonameid":4991117,"name":"City of Dowagiac","admin3":"22880"},{"geonameid":4996636,"name":"Township of Howard","admin3":"39480"},{"geonameid":4997494,"name":"Township of Jefferson","admin3":"41600"},{"geonameid":4998440,"name":"Township of LaGrange","admin3":"44140"},{"geonameid":5000844,"name":"Township of Marcellus","admin3":"51480"},{"geonameid":5001128,"name":"Township of Mason","admin3":"52140"},{"geonameid":5002128,"name":"Township of Milton","admin3":"54460"},{"geonameid":5003434,"name":"Township of Newberg","admin3":"57120"},{"geonameid":5004528,"name":"Township of Ontwa","admin3":"60900"},{"geonameid":5005284,"name":"Township of Penn","admin3":"63380"},{"geonameid":5006131,"name":"Township of Pokagon","admin3":"65300"},{"geonameid":5006307,"name":"Township of Porter","admin3":"65720"},{"geonameid":5009901,"name":"Township of Silver Creek","admin3":"73940"},{"geonameid":5013329,"name":"Township of Volinia","admin3":"82580"},{"geonameid":5014234,"name":"Township of Wayne","admin3":"84920"}],"alternateNames":[{"alternatenameId":2124820,"geonameid":5001836,"isoLanguage":"en","alternateName":"Michigan","isPreferredName":true,"isShortName":true,"isColloquial":false,"isHistoric":false}]},"__N_SSG":true}