{"pageProps":{"locale":"en","admin2":{"geonameid":4988755,"name":"Chippewa County","country":"US","admin1":"MI","admin2":"033","admin3":"","latitude":"46.3281800","longitude":"-84.5293600"},"admin1":{"geonameid":5001836,"name":"Michigan","admin1":"MI","localeAltName":"Michigan"},"locations":[{"geonameid":5009004,"name":"Sault Ste. Marie","admin3":""}],"admin3":[{"geonameid":4985203,"name":"Township of Bay Mills","admin3":"06070"},{"geonameid":4987184,"name":"Township of Bruce","admin3":"11280"},{"geonameid":4988778,"name":"Township of Chippewa","admin3":"15560"},{"geonameid":4990265,"name":"Township of Dafter","admin3":"19540"},{"geonameid":4990728,"name":"Township of Detour","admin3":"21770"},{"geonameid":4991203,"name":"Township of Drummond","admin3":"23080"},{"geonameid":4996765,"name":"Township of Hulbert","admin3":"39860"},{"geonameid":4998223,"name":"Charter Township of Kinross","admin3":"43480"},{"geonameid":5005608,"name":"Township of Pickford","admin3":"63980"},{"geonameid":5006677,"name":"Township of Raber","admin3":"66760"},{"geonameid":5007830,"name":"Township of Rudyard","admin3":"70220"},{"geonameid":5010349,"name":"Township of Soo","admin3":"74620"},{"geonameid":5011479,"name":"Township of Sugar Island","admin3":"77020"},{"geonameid":5011628,"name":"Township of Superior","admin3":"77540"},{"geonameid":5012627,"name":"Township of Trout Lake","admin3":"80600"},{"geonameid":5014906,"name":"Township of Whitefish","admin3":"86700"}],"alternateNames":[{"alternatenameId":2124820,"geonameid":5001836,"isoLanguage":"en","alternateName":"Michigan","isPreferredName":true,"isShortName":true,"isColloquial":false,"isHistoric":false}]},"__N_SSG":true}