{"pageProps":{"locale":"en","admin2":{"geonameid":4994537,"name":"Gratiot County","country":"US","admin1":"MI","admin2":"057","admin3":"","latitude":"43.2927300","longitude":"-84.6049100"},"admin1":{"geonameid":5001836,"name":"Michigan","admin1":"MI","localeAltName":"Michigan"},"locations":[{"geonameid":4984049,"name":"Alma","admin3":"01540"},{"geonameid":4986888,"name":"Breckenridge","admin3":"86620"},{"geonameid":4997346,"name":"Ithaca","admin3":"41340"},{"geonameid":5008414,"name":"Saint Louis","admin3":"71000"}],"admin3":[{"geonameid":4984053,"name":"City of Alma","admin3":"01540"},{"geonameid":4984336,"name":"Township of Arcada","admin3":"03260"},{"geonameid":4985809,"name":"Township of Bethany","admin3":"08020"},{"geonameid":4991912,"name":"Township of Elba","admin3":"25120"},{"geonameid":4992124,"name":"Township of Emerson","admin3":"25880"},{"geonameid":4993558,"name":"Township of Fulton","admin3":"31080"},{"geonameid":4995160,"name":"Township of Hamilton","admin3":"36160"},{"geonameid":4997347,"name":"City of Ithaca","admin3":"41340"},{"geonameid":4998496,"name":"Township of Lafayette","admin3":"44080"},{"geonameid":5003388,"name":"Township of New Haven","admin3":"57360"},{"geonameid":5003423,"name":"Township of Newark","admin3":"57040"},{"geonameid":5003873,"name":"Township of North Shade","admin3":"58800"},{"geonameid":5003892,"name":"Township of North Star","admin3":"58880"},{"geonameid":5005839,"name":"Township of Pine River","admin3":"64360"},{"geonameid":5008419,"name":"City of Saint Louis","admin3":"71000"},{"geonameid":5009454,"name":"Township of Seville","admin3":"72580"},{"geonameid":5011553,"name":"Township of Sumner","admin3":"77300"},{"geonameid":5014116,"name":"Township of Washington","admin3":"84080"},{"geonameid":5014765,"name":"Township of Wheeler","admin3":"86620"}],"alternateNames":[{"alternatenameId":2124820,"geonameid":5001836,"isoLanguage":"en","alternateName":"Michigan","isPreferredName":true,"isShortName":true,"isColloquial":false,"isHistoric":false}]},"__N_SSG":true}