{"pageProps":{"locale":"en","admin2":{"geonameid":4996859,"name":"Huron County","country":"US","admin1":"MI","admin2":"063","admin3":"","latitude":"43.9100700","longitude":"-82.8555100"},"admin1":{"geonameid":5001836,"name":"Michigan","admin1":"MI","localeAltName":"Michigan"},"locations":[{"geonameid":4984692,"name":"Bad Axe","admin3":"04740"},{"geonameid":4995269,"name":"Harbor Beach","admin3":"36460"},{"geonameid":4998106,"name":"Kilmanagh","admin3":"72200"},{"geonameid":5005642,"name":"Pigeon","admin3":"87960"},{"geonameid":5009317,"name":"Sebewaing","admin3":"72200"}],"admin3":[{"geonameid":4984695,"name":"City of Bad Axe","admin3":"04740"},{"geonameid":4986106,"name":"Township of Bingham","admin3":"08420"},{"geonameid":4986438,"name":"Township of Bloomfield","admin3":"09060"},{"geonameid":4987060,"name":"Township of Brookfield","admin3":"10940"},{"geonameid":4988199,"name":"Township of Caseville","admin3":"13780"},{"geonameid":4988518,"name":"Township of Chandler","admin3":"14600"},{"geonameid":4989320,"name":"Township of Colfax","admin3":"17140"},{"geonameid":4991407,"name":"Township of Dwight","admin3":"23540"},{"geonameid":4992414,"name":"Township of Fairhaven","admin3":"27120"},{"geonameid":4994212,"name":"Township of Gore","admin3":"33080"},{"geonameid":4994444,"name":"Township of Grant","admin3":"34260"},{"geonameid":4995275,"name":"City of Harbor Beach","admin3":"36460"},{"geonameid":4996781,"name":"Township of Hume","admin3":"39960"},{"geonameid":4996886,"name":"Township of Huron","admin3":"40020"},{"geonameid":4998636,"name":"Township of Lake","admin3":"44300"},{"geonameid":4999351,"name":"Township of Lincoln","admin3":"47640"},{"geonameid":5001458,"name":"Township of McKinley","admin3":"50360"},{"geonameid":5001567,"name":"Township of Meade","admin3":"52600"},{"geonameid":5004450,"name":"Township of Oliver","admin3":"60520"},{"geonameid":5004967,"name":"Township of Paris","admin3":"62360"},{"geonameid":5006107,"name":"Township of Pointe Aux Barques","admin3":"65180"},{"geonameid":5006225,"name":"Township of Port Austin","admin3":"65700"},{"geonameid":5007816,"name":"Township of Rubicon","admin3":"70140"},{"geonameid":5008829,"name":"Township of Sand Beach","admin3":"71260"},{"geonameid":5009326,"name":"Township of Sebewaing","admin3":"72200"},{"geonameid":5009649,"name":"Township of Sheridan","admin3":"73040"},{"geonameid":5009678,"name":"Township of Sherman","admin3":"73160"},{"geonameid":5009836,"name":"Township of Sigel","admin3":"73880"},{"geonameid":5013225,"name":"Township of Verona","admin3":"82140"},{"geonameid":5015299,"name":"Township of Winsor","admin3":"87960"},{"geonameid":7165327,"name":"Village of Caseville","admin3":"13760"}],"alternateNames":[{"alternatenameId":2124820,"geonameid":5001836,"isoLanguage":"en","alternateName":"Michigan","isPreferredName":true,"isShortName":true,"isColloquial":false,"isHistoric":false}]},"__N_SSG":true}