{"pageProps":{"locale":"en","admin2":{"geonameid":4997201,"name":"Iosco County","country":"US","admin1":"MI","admin2":"069","admin3":"","latitude":"44.3012500","longitude":"-83.5139500"},"admin1":{"geonameid":5001836,"name":"Michigan","admin1":"MI","localeAltName":"Michigan"},"locations":[{"geonameid":4984533,"name":"Au Sable","admin3":"04300"},{"geonameid":4991692,"name":"East Tawas","admin3":"24420"},{"geonameid":5008861,"name":"Sand Lake","admin3":"34280"},{"geonameid":5011900,"name":"Tawas City","admin3":"78140"}],"admin3":[{"geonameid":4983894,"name":"Township of Alabaster","admin3":"00760"},{"geonameid":4984547,"name":"Charter Township of Au Sable","admin3":"04300"},{"geonameid":4984820,"name":"Township of Baldwin","admin3":"04920"},{"geonameid":4987405,"name":"Township of Burleigh","admin3":"11740"},{"geonameid":4991693,"name":"City of East Tawas","admin3":"24420"},{"geonameid":4994445,"name":"Township of Grant","admin3":"34280"},{"geonameid":5004622,"name":"Charter Township of Oscoda","admin3":"61340"},{"geonameid":5005941,"name":"Township of Plainfield","admin3":"64640"},{"geonameid":5007022,"name":"Township of Reno","admin3":"67960"},{"geonameid":5009679,"name":"Township of Sherman","admin3":"73180"},{"geonameid":5011901,"name":"City of Tawas City","admin3":"78140"},{"geonameid":5011917,"name":"Township of Tawas","admin3":"78100"},{"geonameid":5014967,"name":"City of Whittemore","admin3":"87140"},{"geonameid":5015007,"name":"Township of Wilber","admin3":"87180"}],"alternateNames":[{"alternatenameId":2124820,"geonameid":5001836,"isoLanguage":"en","alternateName":"Michigan","isPreferredName":true,"isShortName":true,"isColloquial":false,"isHistoric":false}]},"__N_SSG":true}