{"pageProps":{"locale":"en","admin2":{"geonameid":4997389,"name":"Jackson County","country":"US","admin1":"MI","admin2":"075","admin3":"","latitude":"42.2484900","longitude":"-84.4234400"},"admin1":{"geonameid":5001836,"name":"Michigan","admin1":"MI","localeAltName":"Michigan"},"locations":[{"geonameid":4987064,"name":"Brooklyn","admin3":"17400"},{"geonameid":4989442,"name":"Concord","admin3":"17760"},{"geonameid":4994483,"name":"Grass Lake","admin3":"34500"},{"geonameid":4997384,"name":"Jackson","admin3":"41420"},{"geonameid":5001813,"name":"Michigan Center","admin3":"46980"},{"geonameid":5003224,"name":"Napoleon","admin3":"56640"},{"geonameid":5010780,"name":"Spring Arbor","admin3":"75640"},{"geonameid":5013156,"name":"Vandercook Lake","admin3":"77200"}],"admin3":[{"geonameid":4986324,"name":"Charter Township of Blackman","admin3":"08760"},{"geonameid":4989370,"name":"Township of Columbia","admin3":"17400"},{"geonameid":4989443,"name":"Township of Concord","admin3":"17760"},{"geonameid":4994520,"name":"Charter Township of Grass Lake","admin3":"34500"},{"geonameid":4995251,"name":"Township of Hanover","admin3":"36400"},{"geonameid":4995807,"name":"Township of Henrietta","admin3":"37700"},{"geonameid":4997411,"name":"City of Jackson","admin3":"41420"},{"geonameid":4999109,"name":"Township of Leoni","admin3":"46980"},{"geonameid":4999183,"name":"Township of Liberty","admin3":"47360"},{"geonameid":5003226,"name":"Township of Napoleon","admin3":"56640"},{"geonameid":5004013,"name":"Township of Norvell","admin3":"59180"},{"geonameid":5005035,"name":"Township of Parma","admin3":"62760"},{"geonameid":5006578,"name":"Township of Pulaski","admin3":"66440"},{"geonameid":5007332,"name":"Township of Rives","admin3":"68920"},{"geonameid":5008917,"name":"Township of Sandstone","admin3":"71500"},{"geonameid":5010782,"name":"Township of Spring Arbor","admin3":"75640"},{"geonameid":5010901,"name":"Township of Springport","admin3":"75880"},{"geonameid":5011545,"name":"Township of Summit","admin3":"77200"},{"geonameid":5012363,"name":"Township of Tompkins","admin3":"79980"},{"geonameid":5014145,"name":"Township of Waterloo","admin3":"84300"}],"alternateNames":[{"alternatenameId":2124820,"geonameid":5001836,"isoLanguage":"en","alternateName":"Michigan","isPreferredName":true,"isShortName":true,"isColloquial":false,"isHistoric":false}]},"__N_SSG":true}