{"pageProps":{"locale":"en","admin2":{"geonameid":5000950,"name":"Marquette County","country":"US","admin1":"MI","admin2":"103","admin3":"","latitude":"46.6629500","longitude":"-87.5735000"},"admin1":{"geonameid":5001836,"name":"Michigan","admin1":"MI","localeAltName":"Michigan"},"locations":[{"geonameid":4994999,"name":"Gwinn","admin3":"29720"},{"geonameid":4995489,"name":"Harvey","admin3":"15660"},{"geonameid":4997281,"name":"Ishpeming","admin3":"41220"},{"geonameid":7259330,"name":"K. I. Sawyer Air Force Base","admin3":"29720"},{"geonameid":5000947,"name":"Marquette","admin3":"51900"},{"geonameid":5003294,"name":"Negaunee","admin3":"56860"},{"geonameid":5012635,"name":"Trowbridge Park","admin3":"51920"},{"geonameid":5014567,"name":"West Ishpeming","admin3":"41240"}],"admin3":[{"geonameid":4988500,"name":"Township of Champion","admin3":"14540"},{"geonameid":4988796,"name":"Charter Township of Chocolay","admin3":"15660"},{"geonameid":4992094,"name":"Township of Ely","admin3":"25820"},{"geonameid":4992374,"name":"Township of Ewing","admin3":"26840"},{"geonameid":4993171,"name":"Township of Forsyth","admin3":"29720"},{"geonameid":4996778,"name":"Township of Humboldt","admin3":"39940"},{"geonameid":4997285,"name":"City of Ishpeming","admin3":"41220"},{"geonameid":4997286,"name":"Township of Ishpeming","admin3":"41240"},{"geonameid":5000962,"name":"City of Marquette","admin3":"51900"},{"geonameid":5000964,"name":"Charter Township of Marquette","admin3":"51920"},{"geonameid":5001809,"name":"Township of Michigamme","admin3":"53540"},{"geonameid":5003299,"name":"City of Negaunee","admin3":"56860"},{"geonameid":5003300,"name":"Township of Negaunee","admin3":"56880"},{"geonameid":5006401,"name":"Township of Powell","admin3":"66120"},{"geonameid":5007018,"name":"Township of Republic","admin3":"68000"},{"geonameid":5007136,"name":"Township of Richmond","admin3":"68420"},{"geonameid":5008908,"name":"Township of Sands","admin3":"71460"},{"geonameid":5010062,"name":"Township of Skandia","admin3":"74110"},{"geonameid":5012249,"name":"Township of Tilden","admin3":"79780"},{"geonameid":5012697,"name":"Township of Turin","admin3":"80780"},{"geonameid":5014366,"name":"Township of Wells","admin3":"85260"},{"geonameid":5014515,"name":"Township of West Branch","admin3":"85540"}],"alternateNames":[{"alternatenameId":2124820,"geonameid":5001836,"isoLanguage":"en","alternateName":"Michigan","isPreferredName":true,"isShortName":true,"isColloquial":false,"isHistoric":false}]},"__N_SSG":true}