{"pageProps":{"locale":"en","admin2":{"geonameid":5004223,"name":"Oakland County","country":"US","admin1":"MI","admin2":"125","admin3":"","latitude":"42.6604100","longitude":"-83.3858000"},"admin1":{"geonameid":5001836,"name":"Michigan","admin1":"MI","localeAltName":"Michigan"},"locations":[{"geonameid":4984565,"name":"Auburn Hills","admin3":"04105"},{"geonameid":4985744,"name":"Berkley","admin3":"07660"},{"geonameid":4985891,"name":"Beverly Hills","admin3":"74920"},{"geonameid":4986099,"name":"Bingham Farms","admin3":"74920"},{"geonameid":4986172,"name":"Birmingham","admin3":"08640"},{"geonameid":4986429,"name":"Bloomfield Hills","admin3":"09180"},{"geonameid":4988997,"name":"Clarkston","admin3":""},{"geonameid":4989005,"name":"Clawson","admin3":"16160"},{"geonameid":4992519,"name":"Farmington","admin3":"27380"},{"geonameid":4992523,"name":"Farmington Hills","admin3":"27440"},{"geonameid":4992635,"name":"Ferndale","admin3":"27880"},{"geonameid":4993335,"name":"Franklin","admin3":"74920"},{"geonameid":4995664,"name":"Hazel Park","admin3":"37420"},{"geonameid":4996274,"name":"Holly","admin3":"38720"},{"geonameid":4996832,"name":"Huntington Woods","admin3":"40000"},{"geonameid":4997868,"name":"Keego Harbor","admin3":"42460"},{"geonameid":4998587,"name":"Lake Orion","admin3":"61100"},{"geonameid":4998900,"name":"Lathrup Village","admin3":"46320"},{"geonameid":5000500,"name":"Madison Heights","admin3":"50560"},{"geonameid":5001972,"name":"Milford","admin3":"53980"},{"geonameid":5004062,"name":"Novi","admin3":"59440"},{"geonameid":5004188,"name":"Oak Park","admin3":"59920"},{"geonameid":5004551,"name":"Orchard Lake","admin3":"61020"},{"geonameid":5004593,"name":"Ortonville","admin3":"10040"},{"geonameid":5004817,"name":"Oxford","admin3":"62040"},{"geonameid":5006011,"name":"Pleasant Ridge","admin3":"64900"},{"geonameid":5006166,"name":"Pontiac","admin3":"65440"},{"geonameid":5007400,"name":"Rochester","admin3":"69020"},{"geonameid":5007402,"name":"Rochester Hills","admin3":"69035"},{"geonameid":5007804,"name":"Royal Oak","admin3":"70040"},{"geonameid":5010548,"name":"South Lyon","admin3":"75100"},{"geonameid":5010636,"name":"Southfield","admin3":"74900"},{"geonameid":5011761,"name":"Sylvan Lake","admin3":"77860"},{"geonameid":5012639,"name":"Troy","admin3":"80700"},{"geonameid":5013961,"name":"Walled Lake","admin3":"83060"},{"geonameid":5014130,"name":"Waterford","admin3":"84240"},{"geonameid":7259621,"name":"West Bloomfield Township","admin3":"85480"},{"geonameid":5015351,"name":"Wixom","admin3":"88140"},{"geonameid":5015416,"name":"Wolverine Lake","admin3":"83060"}],"admin3":[{"geonameid":4983806,"name":"Township of Addison","admin3":"00400"},{"geonameid":4984566,"name":"City of Auburn Hills","admin3":"04105"},{"geonameid":4985745,"name":"City of Berkley","admin3":"07660"},{"geonameid":4986175,"name":"City of Birmingham","admin3":"08640"},{"geonameid":4986432,"name":"City of Bloomfield Hills","admin3":"09180"},{"geonameid":4986440,"name":"Charter Township of Bloomfield","admin3":"09110"},{"geonameid":4986848,"name":"Charter Township of Brandon","admin3":"10040"},{"geonameid":4989009,"name":"City of Clawson","admin3":"16160"},{"geonameid":4989403,"name":"Charter Township of Commerce","admin3":"17640"},{"geonameid":4992524,"name":"City of Farmington Hills","admin3":"27440"},{"geonameid":4992526,"name":"City of Farmington","admin3":"27380"},{"geonameid":4992638,"name":"City of Ferndale","admin3":"27880"},{"geonameid":4994889,"name":"Township of Groveland","admin3":"35640"},{"geonameid":4995666,"name":"City of Hazel Park","admin3":"37420"},{"geonameid":4996025,"name":"Charter Township of Highland","admin3":"38080"},{"geonameid":4996283,"name":"Township of Holly","admin3":"38720"},{"geonameid":4996833,"name":"City of Huntington Woods","admin3":"40000"},{"geonameid":4996992,"name":"Charter Township of Independence","admin3":"40400"},{"geonameid":4997869,"name":"City of Keego Harbor","admin3":"42460"},{"geonameid":4998517,"name":"City of Lake Angelus","admin3":"44440"},{"geonameid":4998898,"name":"City of Lathrup Village","admin3":"46320"},{"geonameid":5000386,"name":"Charter Township of Lyon","admin3":"49820"},{"geonameid":5000501,"name":"City of Madison Heights","admin3":"50560"},{"geonameid":5001967,"name":"Charter Township of Milford","admin3":"53980"},{"geonameid":5004064,"name":"City of Novi","admin3":"59440"},{"geonameid":5004065,"name":"Township of Novi","admin3":"59460"},{"geonameid":5004191,"name":"City of Oak Park","admin3":"59920"},{"geonameid":5004231,"name":"Charter Township of Oakland","admin3":"59820"},{"geonameid":5004555,"name":"City of Orchard Lake Village","admin3":"61020"},{"geonameid":5004574,"name":"Charter Township of Orion","admin3":"61100"},{"geonameid":5004828,"name":"Charter Township of Oxford","admin3":"62040"},{"geonameid":5006013,"name":"City of Pleasant Ridge","admin3":"64900"},{"geonameid":5006180,"name":"City of Pontiac","admin3":"65440"},{"geonameid":5007403,"name":"City of Rochester Hills","admin3":"69035"},{"geonameid":5007404,"name":"City of Rochester","admin3":"69020"},{"geonameid":5007625,"name":"Township of Rose","admin3":"69580"},{"geonameid":5007808,"name":"City of Royal Oak","admin3":"70040"},{"geonameid":5007809,"name":"Charter Township of Royal Oak","admin3":"70060"},{"geonameid":5010549,"name":"City of South Lyon","admin3":"75100"},{"geonameid":5010642,"name":"City of Southfield","admin3":"74900"},{"geonameid":5010643,"name":"Township of Southfield","admin3":"74920"},{"geonameid":5010895,"name":"Charter Township of Springfield","admin3":"75760"},{"geonameid":5011763,"name":"City of Sylvan Lake","admin3":"77860"},{"geonameid":5012643,"name":"City of Troy","admin3":"80700"},{"geonameid":5013966,"name":"City of Walled Lake","admin3":"83060"},{"geonameid":5014138,"name":"Charter Township of Waterford","admin3":"84240"},{"geonameid":5014411,"name":"Charter Township of West Bloomfield","admin3":"85480"},{"geonameid":5014845,"name":"Charter Township of White Lake","admin3":"86860"},{"geonameid":5015349,"name":"City of Wixom","admin3":"88140"}],"alternateNames":[{"alternatenameId":2124820,"geonameid":5001836,"isoLanguage":"en","alternateName":"Michigan","isPreferredName":true,"isShortName":true,"isColloquial":false,"isHistoric":false}]},"__N_SSG":true}