{"pageProps":{"locale":"en","admin2":{"geonameid":5004659,"name":"Otsego County","country":"US","admin1":"MI","admin2":"137","admin3":"","latitude":"45.0214400","longitude":"-84.5989800"},"admin1":{"geonameid":5001836,"name":"Michigan","admin1":"MI","localeAltName":"Michigan"},"locations":[{"geonameid":4993756,"name":"Gaylord","admin3":"31720"}],"admin3":[{"geonameid":4984714,"name":"Township of Bagley","admin3":"04780"},{"geonameid":4988590,"name":"Township of Charlton","admin3":"14840"},{"geonameid":4988679,"name":"Township of Chester","admin3":"15280"},{"geonameid":4989690,"name":"Township of Corwith","admin3":"18320"},{"geonameid":4991099,"name":"Township of Dover","admin3":"22840"},{"geonameid":4992057,"name":"Township of Elmira","admin3":"25620"},{"geonameid":4993760,"name":"City of Gaylord","admin3":"31720"},{"geonameid":4995623,"name":"Township of Hayes","admin3":"37360"},{"geonameid":4999834,"name":"Township of Livingston","admin3":"48140"},{"geonameid":5004668,"name":"Township of Otsego Lake","admin3":"61680"}],"alternateNames":[{"alternatenameId":2124820,"geonameid":5001836,"isoLanguage":"en","alternateName":"Michigan","isPreferredName":true,"isShortName":true,"isColloquial":false,"isHistoric":false}]},"__N_SSG":true}