{"pageProps":{"locale":"en","admin2":{"geonameid":5007996,"name":"Saginaw County","country":"US","admin1":"MI","admin2":"145","admin3":"","latitude":"43.3350300","longitude":"-84.0531900"},"admin1":{"geonameid":5001836,"name":"Michigan","admin1":"MI","localeAltName":"Michigan"},"locations":[{"geonameid":4986141,"name":"Birch Run","admin3":"08560"},{"geonameid":4986963,"name":"Bridgeport","admin3":"10460"},{"geonameid":4987304,"name":"Buena Vista","admin3":"11560"},{"geonameid":4987467,"name":"Burt","admin3":"79100"},{"geonameid":4988132,"name":"Carrollton","admin3":"13540"},{"geonameid":4988671,"name":"Chesaning","admin3":"15160"},{"geonameid":4993321,"name":"Frankenmuth","admin3":"30200"},{"geonameid":4993402,"name":"Freeland","admin3":"79840"},{"geonameid":4995760,"name":"Hemlock","admin3":"68340"},{"geonameid":5007989,"name":"Saginaw","admin3":"70520"},{"geonameid":7259480,"name":"Saginaw Township North","admin3":"70540"},{"geonameid":5008102,"name":"Saint Charles","admin3":""},{"geonameid":5009717,"name":"Shields","admin3":"79520"},{"geonameid":5015723,"name":"Zilwaukee","admin3":"89320"}],"admin3":[{"geonameid":4983897,"name":"Township of Albee","admin3":"00920"},{"geonameid":4986145,"name":"Township of Birch Run","admin3":"08560"},{"geonameid":4986514,"name":"Township of Blumfield","admin3":"09400"},{"geonameid":4986811,"name":"Township of Brady","admin3":"09940"},{"geonameid":4986870,"name":"Township of Brant","admin3":"10100"},{"geonameid":4986967,"name":"Charter Township of Bridgeport","admin3":"10460"},{"geonameid":4987307,"name":"Charter Township of Buena Vista","admin3":"11560"},{"geonameid":4988134,"name":"Township of Carrollton","admin3":"13540"},{"geonameid":4988544,"name":"Township of Chapin","admin3":"14660"},{"geonameid":4988672,"name":"Township of Chesaning","admin3":"15160"},{"geonameid":4993322,"name":"City of Frankenmuth","admin3":"30200"},{"geonameid":4993323,"name":"Township of Frankenmuth","admin3":"30220"},{"geonameid":4993429,"name":"Township of Fremont","admin3":"30720"},{"geonameid":4997439,"name":"Township of James","admin3":"41480"},{"geonameid":4997697,"name":"Township of Jonesfield","admin3":"41900"},{"geonameid":4998362,"name":"Township of Kochville","admin3":"43800"},{"geonameid":4998647,"name":"Township of Lakefield","admin3":"44560"},{"geonameid":5000741,"name":"Township of Maple Grove","admin3":"51060"},{"geonameid":5000896,"name":"Township of Marion","admin3":"51700"},{"geonameid":5007124,"name":"Township of Richland","admin3":"68340"},{"geonameid":5008001,"name":"Charter Township of Saginaw","admin3":"70540"},{"geonameid":5008002,"name":"City of Saginaw","admin3":"70520"},{"geonameid":5010705,"name":"Township of Spaulding","admin3":"75480"},{"geonameid":5011679,"name":"Township of Swan Creek","admin3":"77660"},{"geonameid":5011949,"name":"Township of Taymouth","admin3":"79100"},{"geonameid":5012100,"name":"Township of Thomas","admin3":"79520"},{"geonameid":5012293,"name":"Township of Tittabawassee","admin3":"79840"},{"geonameid":5015719,"name":"City of Zilwaukee","admin3":"89320"},{"geonameid":5015720,"name":"Township of Zilwaukee","admin3":"89340"}],"alternateNames":[{"alternatenameId":2124820,"geonameid":5001836,"isoLanguage":"en","alternateName":"Michigan","isPreferredName":true,"isShortName":true,"isColloquial":false,"isHistoric":false}]},"__N_SSG":true}