{"pageProps":{"locale":"en","admin2":{"geonameid":5507669,"name":"Lyon County","country":"US","admin1":"NV","admin2":"019","admin3":"","latitude":"39.0204000","longitude":"-119.1892000","localeAltName":null},"admin1":{"geonameid":5509151,"name":"Nevada","admin1":"NV","localeAltName":"Nevada"},"locations":[{"geonameid":5502732,"name":"Dayton","admin3":"","localeAltName":null},{"geonameid":5504003,"name":"Fernley","admin3":"","localeAltName":null},{"geonameid":5512373,"name":"Silver Springs","admin3":"","localeAltName":null},{"geonameid":5512520,"name":"Smith","admin3":"","localeAltName":null},{"geonameid":7261797,"name":"Smith Valley","admin3":"","localeAltName":null},{"geonameid":5512985,"name":"Stagecoach","admin3":"","localeAltName":null},{"geonameid":5515507,"name":"Yerington","admin3":"","localeAltName":null}],"admin3":[],"alternateNames":[{"alternatenameId":2089566,"geonameid":5509151,"isoLanguage":"en","alternateName":"Nevada","isPreferredName":true,"isShortName":true,"isColloquial":false,"isHistoric":false}]},"__N_SSG":true}