{"pageProps":{"locale":"en","admin2":{"geonameid":5221078,"name":"Bristol County","country":"US","admin1":"RI","admin2":"001","admin3":"","latitude":"41.7055400","longitude":"-71.2861200","localeAltName":null},"admin1":{"geonameid":5224323,"name":"Rhode Island","admin1":"RI","localeAltName":"Rhode Island"},"locations":[{"geonameid":5220798,"name":"Barrington","admin3":"05140","localeAltName":null},{"geonameid":5221077,"name":"Bristol","admin3":"09280","localeAltName":null},{"geonameid":5225502,"name":"Warren","admin3":"73760","localeAltName":null}],"admin3":[{"geonameid":5220817,"name":"Town of Barrington","admin3":"05140","localeAltName":null},{"geonameid":5221103,"name":"Town of Bristol","admin3":"09280","localeAltName":null},{"geonameid":5225505,"name":"Town of Warren","admin3":"73760","localeAltName":null}],"alternateNames":[{"alternatenameId":2124823,"geonameid":5224323,"isoLanguage":"en","alternateName":"Rhode Island","isPreferredName":true,"isShortName":true,"isColloquial":false,"isHistoric":false}]},"__N_SSG":true}