{"pageProps":{"locale":"en","admin2":{"geonameid":4618068,"name":"Dickson County","country":"US","admin1":"TN","admin2":"043","admin3":"","latitude":"36.1490500","longitude":"-87.3566600","localeAltName":null},"admin1":{"geonameid":4662168,"name":"Tennessee","admin1":"TN","localeAltName":"Tennessee"},"locations":[{"geonameid":4610022,"name":"Burns","admin3":"","localeAltName":null},{"geonameid":4612828,"name":"Charlotte","admin3":"","localeAltName":null},{"geonameid":4618057,"name":"Dickson","admin3":"","localeAltName":null},{"geonameid":4667165,"name":"White Bluff","admin3":"","localeAltName":null}],"admin3":[{"geonameid":7170717,"name":"Town of Burns","admin3":"7170717"},{"geonameid":7171500,"name":"Town of Charlotte","admin3":"7171500"},{"geonameid":7172017,"name":"Town of Vanleer","admin3":"7172017"},{"geonameid":7172096,"name":"Town of White Bluff","admin3":"7172096"},{"geonameid":7317849,"name":"City of Dickson","admin3":"7317849"}],"alternateNames":[{"alternatenameId":2089557,"geonameid":4662168,"isoLanguage":"en","alternateName":"Tennessee","isPreferredName":true,"isShortName":true,"isColloquial":false,"isHistoric":false}]},"__N_SSG":true}