{"pageProps":{"locale":"it","admin2":{"geonameid":11550038,"name":"Provincia del Sud Sardegna","country":"IT","admin1":"14","admin2":"SU","admin3":"","latitude":"39.2769200","longitude":"8.5638400"},"admin1":{"geonameid":2523228,"name":"Sardegna","admin1":"14"},"locations":[{"geonameid":2525688,"name":"Arbus","admin3":"111001"},{"geonameid":2525641,"name":"Bacu Abis","admin3":"111009"},{"geonameid":2525608,"name":"Ballao","admin3":"111003"},{"geonameid":2525598,"name":"Barbusi","admin3":"111009"},{"geonameid":2525592,"name":"Barrali","admin3":"111004"},{"geonameid":2525589,"name":"Barumini","admin3":"111005"},{"geonameid":2525491,"name":"Buggerru","admin3":"111006"},{"geonameid":2525487,"name":"Burcei","admin3":"111007"},{"geonameid":2525460,"name":"Calasetta","admin3":"111008"},{"geonameid":2525362,"name":"Carbonia","admin3":"111009"},{"geonameid":2525348,"name":"Carloforte","admin3":"111010"},{"geonameid":2524963,"name":"Collinas","admin3":"111012"},{"geonameid":8531925,"name":"Cortoghiana","admin3":"111009"},{"geonameid":2524864,"name":"Decimoputzu","admin3":"111013"},{"geonameid":2524844,"name":"Dolianova","admin3":"111014"},{"geonameid":2524842,"name":"Domus de Maria","admin3":"111015"},{"geonameid":2524841,"name":"Domusnovas","admin3":"111016"},{"geonameid":2524831,"name":"Donorì","admin3":"111017"},{"geonameid":2524814,"name":"Escalaplano","admin3":"111018"},{"geonameid":2524813,"name":"Escolca","admin3":"111019"},{"geonameid":2524811,"name":"Esterzili","admin3":"111020"},{"geonameid":2524731,"name":"Fluminimaggiore","admin3":"111021"},{"geonameid":2524692,"name":"Furtei","admin3":"111022"},{"geonameid":2524646,"name":"Genoni","admin3":"111023"},{"geonameid":2524636,"name":"Gergei","admin3":"111025"},{"geonameid":2524635,"name":"Gesico","admin3":"111026"},{"geonameid":2524633,"name":"Gesturi","admin3":"111027"},{"geonameid":2524617,"name":"Giba","admin3":"111028"},{"geonameid":2524589,"name":"Gonnesa","admin3":"111030"},{"geonameid":2524587,"name":"Gonnosfanadiga","admin3":"111031"},{"geonameid":2524558,"name":"Guamaggiore","admin3":"111032"},{"geonameid":2524551,"name":"Guasila","admin3":"111033"},{"geonameid":2524546,"name":"Guspini","admin3":"111034"},{"geonameid":2524533,"name":"Iglesias","admin3":"111035"},{"geonameid":8950158,"name":"Is Urigus","admin3":"111063"},{"geonameid":2524498,"name":"Isili","admin3":"111036"},{"geonameid":2524357,"name":"Lunamatrona","admin3":"111038"},{"geonameid":2524306,"name":"Mandas","admin3":"111039"},{"geonameid":2524238,"name":"Masainas","admin3":"111040"},{"geonameid":2524202,"name":"Matzaccara","admin3":"111063"},{"geonameid":2524096,"name":"Monastir","admin3":"111041"},{"geonameid":2524033,"name":"Muravera","admin3":"111042"},{"geonameid":2524029,"name":"Musei","admin3":"111043"},{"geonameid":2524024,"name":"Narcao","admin3":"111044"},{"geonameid":6697073,"name":"Nebida","admin3":"111035"},{"geonameid":2523989,"name":"Nuragus","admin3":"111045"},{"geonameid":2523988,"name":"Nurallao","admin3":"111046"},{"geonameid":2523987,"name":"Nuraminis","admin3":"111047"},{"geonameid":8950221,"name":"Nuraxi Figus","admin3":"111030"},{"geonameid":2523984,"name":"Nurri","admin3":"111048"},{"geonameid":2523983,"name":"Nuxis","admin3":"111049"},{"geonameid":2523958,"name":"Orroli","admin3":"111050"},{"geonameid":2523954,"name":"Ortacesus","admin3":"111051"},{"geonameid":2523943,"name":"Pabillonis","admin3":"111052"},{"geonameid":2523875,"name":"Paringianu","admin3":"111057"},{"geonameid":2523859,"name":"Pauli Arbarei","admin3":"111053"},{"geonameid":2523832,"name":"Perdaxius","admin3":"111054"},{"geonameid":2523778,"name":"Pimentel","admin3":"111055"},{"geonameid":2523769,"name":"Piscinas","admin3":"111056"},{"geonameid":2523699,"name":"Portoscuso","admin3":"111057"},{"geonameid":8949856,"name":"Riomurtas","admin3":"111044"},{"geonameid":2523562,"name":"Sadali","admin3":"111058"},{"geonameid":2523537,"name":"Samassi","admin3":"111059"},{"geonameid":2523536,"name":"Samatzai","admin3":"111060"},{"geonameid":2523525,"name":"San Basilio","admin3":"111061"},{"geonameid":2523482,"name":"San Gavino Monreale","admin3":"111062"},{"geonameid":2523456,"name":"San Giovanni Suergiu","admin3":"111063"},{"geonameid":2523405,"name":"San Nicolo'Gerrei","admin3":"111064"},{"geonameid":2523255,"name":"San Sperate","admin3":"111065"},{"geonameid":2523241,"name":"San Vito","admin3":"111066"},{"geonameid":2523434,"name":"Sanluri","admin3":"111067"},{"geonameid":2523312,"name":"Sant'Andrea Frius","admin3":"111069"},{"geonameid":2523298,"name":"Sant'Anna Arresi","admin3":"111070"},{"geonameid":2523297,"name":"Sant'Antioco","admin3":"111071"},{"geonameid":8949989,"name":"Santa Maria","admin3":"111103"},{"geonameid":2523361,"name":"Santadi","admin3":"111068"},{"geonameid":2523229,"name":"Sardara","admin3":"111072"},{"geonameid":2523172,"name":"Segariu","admin3":"111073"},{"geonameid":2523165,"name":"Selegas","admin3":"111074"},{"geonameid":2523159,"name":"Senorbì","admin3":"111075"},{"geonameid":2523156,"name":"Serdiana","admin3":"111076"},{"geonameid":2523148,"name":"Serramanna","admin3":"111077"},{"geonameid":2523142,"name":"Serrenti","admin3":"111078"},{"geonameid":2523141,"name":"Serri","admin3":"111079"},{"geonameid":2523133,"name":"Seui","admin3":"111081"},{"geonameid":2523132,"name":"Seulo","admin3":"111082"},{"geonameid":2523114,"name":"Siddi","admin3":"111083"},{"geonameid":2523104,"name":"Siliqua","admin3":"111084"},{"geonameid":2523103,"name":"Silius","admin3":"111085"},{"geonameid":2592658,"name":"Siurgus Donigala","admin3":"111086"},{"geonameid":2523062,"name":"Soleminis","admin3":"111087"},{"geonameid":2522985,"name":"Suelli","admin3":"111088"},{"geonameid":2522941,"name":"Teulada","admin3":"111089"},{"geonameid":2522870,"name":"Tratalias","admin3":"111090"},{"geonameid":2522845,"name":"Tuili","admin3":"111091"},{"geonameid":2522821,"name":"Ussana","admin3":"111093"},{"geonameid":2522820,"name":"Ussaramanna","admin3":"111094"},{"geonameid":2522798,"name":"Vallermosa","admin3":"111095"},{"geonameid":2522766,"name":"Villacidro","admin3":"111096"},{"geonameid":2522749,"name":"Villamar","admin3":"111097"},{"geonameid":2522748,"name":"Villamassargia","admin3":"111098"},{"geonameid":6535674,"name":"Villanova Tulo","admin3":"111099"},{"geonameid":2522743,"name":"Villanovaforru","admin3":"111100"},{"geonameid":2522742,"name":"Villanovafranca","admin3":"111101"},{"geonameid":6535332,"name":"Villaperuccio","admin3":"111102"},{"geonameid":2522734,"name":"Villaputzu","admin3":"111103"},{"geonameid":2522731,"name":"Villasalto","admin3":"111104"},{"geonameid":2522727,"name":"Villasimius","admin3":"111105"},{"geonameid":2522725,"name":"Villasor","admin3":"111106"},{"geonameid":2522724,"name":"Villaspeciosa","admin3":"111107"}],"admin3":[{"geonameid":2523071,"name":"Siurgus Donigala","admin3":"111086"},{"geonameid":2523457,"name":"San Giovanni Suergiu","admin3":"111063"},{"geonameid":6537853,"name":"Escolca","admin3":"111019"},{"geonameid":6537856,"name":"Isili","admin3":"111036"},{"geonameid":6537861,"name":"Nuragus","admin3":"111045"},{"geonameid":6537862,"name":"Nurallao","admin3":"111046"},{"geonameid":6537863,"name":"Nurri","admin3":"111048"},{"geonameid":6537869,"name":"Orroli","admin3":"111050"},{"geonameid":6537876,"name":"Serri","admin3":"111079"},{"geonameid":6537877,"name":"Seui","admin3":"111081"},{"geonameid":6537887,"name":"Armungia","admin3":"111002"},{"geonameid":6537889,"name":"Ballao","admin3":"111003"},{"geonameid":6537890,"name":"Barrali","admin3":"111004"},{"geonameid":6537891,"name":"Burcei","admin3":"111007"},{"geonameid":6537893,"name":"Carloforte","admin3":"111010"},{"geonameid":6537895,"name":"Dolianova","admin3":"111014"},{"geonameid":6537896,"name":"Furtei","admin3":"111022"},{"geonameid":6537897,"name":"Gesico","admin3":"111026"},{"geonameid":6537898,"name":"Goni","admin3":"111029"},{"geonameid":6537899,"name":"Guasila","admin3":"111033"},{"geonameid":6537900,"name":"Guspini","admin3":"111034"},{"geonameid":6537902,"name":"Monastir","admin3":"111041"},{"geonameid":6537903,"name":"Nuxis","admin3":"111049"},{"geonameid":6537904,"name":"Pimentel","admin3":"111055"},{"geonameid":6537905,"name":"Portoscuso","admin3":"111057"},{"geonameid":6537906,"name":"Samassi","admin3":"111059"},{"geonameid":6537907,"name":"Samatzai","admin3":"111060"},{"geonameid":6537908,"name":"San Sperate","admin3":"111065"},{"geonameid":6537909,"name":"Sant'Andrea Frius","admin3":"111069"},{"geonameid":6537910,"name":"Sardara","admin3":"111072"},{"geonameid":6537913,"name":"Senorbì","admin3":"111075"},{"geonameid":6537914,"name":"Serramanna","admin3":"111077"},{"geonameid":6537915,"name":"Serrenti","admin3":"111078"},{"geonameid":6537916,"name":"Setzu","admin3":"111080"},{"geonameid":6537917,"name":"Soleminis","admin3":"111087"},{"geonameid":6537918,"name":"Ussana","admin3":"111093"},{"geonameid":6537919,"name":"Vallermosa","admin3":"111095"},{"geonameid":6537920,"name":"Villamar","admin3":"111097"},{"geonameid":6537921,"name":"Villanovafranca","admin3":"111101"},{"geonameid":6537922,"name":"Villasor","admin3":"111106"},{"geonameid":6537923,"name":"Villaspeciosa","admin3":"111107"},{"geonameid":6537924,"name":"Masainas","admin3":"111040"},{"geonameid":6539250,"name":"Escalaplano","admin3":"111018"},{"geonameid":6539251,"name":"Esterzili","admin3":"111020"},{"geonameid":6539255,"name":"Genoni","admin3":"111023"},{"geonameid":6539256,"name":"Gergei","admin3":"111025"},{"geonameid":6539267,"name":"Sadali","admin3":"111058"},{"geonameid":6539268,"name":"Seulo","admin3":"111082"},{"geonameid":6539273,"name":"Arbus","admin3":"111001"},{"geonameid":6539274,"name":"Barumini","admin3":"111005"},{"geonameid":6539275,"name":"Buggerru","admin3":"111006"},{"geonameid":6539276,"name":"Collinas","admin3":"111012"},{"geonameid":6539277,"name":"Decimoputzu","admin3":"111013"},{"geonameid":6539278,"name":"Domus de Maria","admin3":"111015"},{"geonameid":6539279,"name":"Donori","admin3":"111017"},{"geonameid":6539280,"name":"Fluminimaggiore","admin3":"111021"},{"geonameid":6539281,"name":"Genuri","admin3":"111024"},{"geonameid":6539282,"name":"Gesturi","admin3":"111027"},{"geonameid":6539283,"name":"Giba","admin3":"111028"},{"geonameid":6539284,"name":"Gonnesa","admin3":"111030"},{"geonameid":6539285,"name":"Gonnosfanadiga","admin3":"111031"},{"geonameid":6539286,"name":"Guamaggiore","admin3":"111032"},{"geonameid":6539287,"name":"Las Plassas","admin3":"111037"},{"geonameid":6539288,"name":"Lunamatrona","admin3":"111038"},{"geonameid":6539289,"name":"Mandas","admin3":"111039"},{"geonameid":6539290,"name":"Muravera","admin3":"111042"},{"geonameid":6539291,"name":"Musei","admin3":"111043"},{"geonameid":6539292,"name":"Narcao","admin3":"111044"},{"geonameid":6539293,"name":"Nuraminis","admin3":"111047"},{"geonameid":6539294,"name":"Ortacesus","admin3":"111051"},{"geonameid":6539295,"name":"Pabillonis","admin3":"111052"},{"geonameid":6539296,"name":"Pauli Arbarei","admin3":"111053"},{"geonameid":6539297,"name":"Perdaxius","admin3":"111054"},{"geonameid":6539298,"name":"San Gavino Monreale","admin3":"111062"},{"geonameid":6539299,"name":"San Nicolò Gerrei","admin3":"111064"},{"geonameid":6539300,"name":"Sant'Anna Arresi","admin3":"111070"},{"geonameid":6539301,"name":"Segariu","admin3":"111073"},{"geonameid":6539302,"name":"Selegas","admin3":"111074"},{"geonameid":6539303,"name":"Serdiana","admin3":"111076"},{"geonameid":6539306,"name":"Siddi","admin3":"111083"},{"geonameid":6539307,"name":"Siliqua","admin3":"111084"},{"geonameid":6539308,"name":"Silius","admin3":"111085"},{"geonameid":6539310,"name":"Suelli","admin3":"111088"},{"geonameid":6539311,"name":"Teulada","admin3":"111089"},{"geonameid":6539312,"name":"Tuili","admin3":"111091"},{"geonameid":6539313,"name":"Ussaramanna","admin3":"111094"},{"geonameid":6539315,"name":"Villamassargia","admin3":"111098"},{"geonameid":6539316,"name":"Villanovaforru","admin3":"111100"},{"geonameid":6539317,"name":"Villaputzu","admin3":"111103"},{"geonameid":6539318,"name":"Villasalto","admin3":"111104"},{"geonameid":6539320,"name":"Villasimius","admin3":"111105"},{"geonameid":6539322,"name":"Piscinas","admin3":"111056"},{"geonameid":6539580,"name":"Castiadas","admin3":"111011"},{"geonameid":6539583,"name":"Carbonia","admin3":"111009"},{"geonameid":6539584,"name":"Iglesias","admin3":"111035"},{"geonameid":6539588,"name":"Sanluri","admin3":"111067"},{"geonameid":6539589,"name":"Villacidro","admin3":"111096"},{"geonameid":6539877,"name":"San Basilio","admin3":"111061"},{"geonameid":6539878,"name":"Santadi","admin3":"111068"},{"geonameid":6539879,"name":"San Vito","admin3":"111066"},{"geonameid":6540067,"name":"Calasetta","admin3":"111008"},{"geonameid":6540068,"name":"Domusnovas","admin3":"111016"},{"geonameid":6540070,"name":"Sant'Antioco","admin3":"111071"},{"geonameid":6540071,"name":"Turri","admin3":"111092"},{"geonameid":6540871,"name":"Tratalias","admin3":"111090"},{"geonameid":6543315,"name":"Villaperuccio","admin3":"111102"},{"geonameid":6543651,"name":"Villanova Tulo","admin3":"111099"}],"alternateNames":[]},"__N_SSG":true}