{"pageProps":{"locale":"de","admin2":{"geonameid":6458823,"name":"Bezirk Sissach","country":"CH","admin1":"BL","admin2":"1304","admin3":"","latitude":"47.4423700","longitude":"7.8487100"},"admin1":{"geonameid":2661603,"name":"Kanton Basel-Landschaft","admin1":"BL"},"locations":[{"geonameid":6691673,"name":"Buckten","admin3":"2843"},{"geonameid":2661297,"name":"Buus","admin3":"2844"},{"geonameid":2660656,"name":"Gelterkinden","admin3":"2846"},{"geonameid":6691672,"name":"Häfelfingen","admin3":"2847"},{"geonameid":6255069,"name":"Itingen","admin3":"2849"},{"geonameid":2660002,"name":"Läufelfingen","admin3":"2852"},{"geonameid":2659786,"name":"Maisprach","admin3":"2853"},{"geonameid":2659286,"name":"Ormalingen","admin3":"2856"},{"geonameid":2658926,"name":"Rünenberg","admin3":"2860"},{"geonameid":2658572,"name":"Sissach","admin3":"2861"},{"geonameid":2658411,"name":"Tecknau","admin3":"2862"},{"geonameid":2657934,"name":"Zeglingen","admin3":"2868"},{"geonameid":2657899,"name":"Zunzgen","admin3":"2869"}],"admin3":[{"geonameid":7285082,"name":"Anwil","admin3":"2841"},{"geonameid":7285275,"name":"Böckten","admin3":"2842"},{"geonameid":7285376,"name":"Buckten","admin3":"2843"},{"geonameid":7285415,"name":"Buus","admin3":"2844"},{"geonameid":7285646,"name":"Diepflingen","admin3":"2845"},{"geonameid":7285897,"name":"Gelterkinden","admin3":"2846"},{"geonameid":7286018,"name":"Häfelfingen","admin3":"2847"},{"geonameid":7286058,"name":"Hemmiken","admin3":"2848"},{"geonameid":7286154,"name":"Itingen","admin3":"2849"},{"geonameid":7286179,"name":"Känerkinden","admin3":"2850"},{"geonameid":7286194,"name":"Kilchberg (BL)","admin3":"2851"},{"geonameid":7286276,"name":"Läufelfingen","admin3":"2852"},{"geonameid":7286421,"name":"Maisprach","admin3":"2853"},{"geonameid":7286669,"name":"Nusshof","admin3":"2854"},{"geonameid":7286739,"name":"Oltingen","admin3":"2855"},{"geonameid":7286749,"name":"Ormalingen","admin3":"2856"},{"geonameid":7286895,"name":"Rickenbach (BL)","admin3":"2857"},{"geonameid":7286960,"name":"Rothenfluh","admin3":"2858"},{"geonameid":7286985,"name":"Rümlingen","admin3":"2859"},{"geonameid":7286986,"name":"Rünenberg","admin3":"2860"},{"geonameid":7287180,"name":"Sissach","admin3":"2861"},{"geonameid":7287285,"name":"Tecknau","admin3":"2862"},{"geonameid":7287290,"name":"Tenniken","admin3":"2863"},{"geonameid":7287309,"name":"Thürnen","admin3":"2864"},{"geonameid":7287560,"name":"Wenslingen","admin3":"2865"},{"geonameid":7287591,"name":"Wintersingen","admin3":"2866"},{"geonameid":7287598,"name":"Wittinsburg","admin3":"2867"},{"geonameid":7287625,"name":"Zeglingen","admin3":"2868"},{"geonameid":7287648,"name":"Zunzgen","admin3":"2869"}],"alternateNames":[]},"__N_SSG":true}