{"pageProps":{"locale":"de","admin2":{"geonameid":6458833,"name":"Bezirk Laufen","country":"CH","admin1":"BL","admin2":"1302","admin3":"","latitude":"47.4232400","longitude":"7.4875000"},"admin1":{"geonameid":2661603,"name":"Kanton Basel-Landschaft","admin1":"BL"},"locations":[{"geonameid":2661476,"name":"Blauen","admin3":"2781"},{"geonameid":2661389,"name":"Brislach","admin3":"2782"},{"geonameid":2660513,"name":"Grellingen","admin3":"2786"},{"geonameid":2660001,"name":"Laufen","admin3":"2787"},{"geonameid":2659892,"name":"Liesberg","admin3":"2788"},{"geonameid":2658968,"name":"Röschenz","admin3":"2791"},{"geonameid":2658077,"name":"Wahlen","admin3":"2792"},{"geonameid":2657886,"name":"Zwingen","admin3":"2793"}],"admin3":[{"geonameid":7285267,"name":"Blauen","admin3":"2781"},{"geonameid":7285339,"name":"Brislach","admin3":"2782"},{"geonameid":7285392,"name":"Burg im Leimental","admin3":"2783"},{"geonameid":7285657,"name":"Dittingen","admin3":"2784"},{"geonameid":7285677,"name":"Duggingen","admin3":"2785"},{"geonameid":7285972,"name":"Grellingen","admin3":"2786"},{"geonameid":7286277,"name":"Laufen","admin3":"2787"},{"geonameid":7286348,"name":"Liesberg","admin3":"2788"},{"geonameid":7286619,"name":"Nenzlingen","admin3":"2789"},{"geonameid":7286927,"name":"Roggenburg","admin3":"2790"},{"geonameid":7286951,"name":"Röschenz","admin3":"2791"},{"geonameid":7287515,"name":"Wahlen","admin3":"2792"},{"geonameid":7287656,"name":"Zwingen","admin3":"2793"}],"alternateNames":[]},"__N_SSG":true}