{"pageProps":{"locale":"en","admin2":{"geonameid":4597204,"name":"Spartanburg County","country":"US","admin1":"SC","admin2":"083","admin3":"","latitude":"34.9312600","longitude":"-81.9906800","localeAltName":null},"admin1":{"geonameid":4597040,"name":"South Carolina","admin1":"SC","localeAltName":"South Carolina"},"locations":[{"geonameid":4569541,"name":"Arcadia","admin3":"","localeAltName":null},{"geonameid":4571805,"name":"Boiling Springs","admin3":"","localeAltName":null},{"geonameid":4573390,"name":"Campobello","admin3":"","localeAltName":null},{"geonameid":4574517,"name":"Chesnee","admin3":"","localeAltName":null},{"geonameid":4575008,"name":"Clifton","admin3":"","localeAltName":null},{"geonameid":4575455,"name":"Converse","admin3":"","localeAltName":null},{"geonameid":4575815,"name":"Cowpens","admin3":"","localeAltName":null},{"geonameid":4577083,"name":"Duncan","admin3":"","localeAltName":null},{"geonameid":4577825,"name":"Enoree","admin3":"","localeAltName":null},{"geonameid":4578079,"name":"Fairforest","admin3":"","localeAltName":null},{"geonameid":4582788,"name":"Inman","admin3":"","localeAltName":null},{"geonameid":4582790,"name":"Inman Mills","admin3":"","localeAltName":null},{"geonameid":4584590,"name":"Landrum","admin3":"","localeAltName":null},{"geonameid":4585988,"name":"Lyman","admin3":"","localeAltName":null},{"geonameid":4586546,"name":"Mayo","admin3":"","localeAltName":null},{"geonameid":4590312,"name":"Pacolet","admin3":"","localeAltName":null},{"geonameid":4590315,"name":"Pacolet Mills","admin3":"","localeAltName":null},{"geonameid":4592694,"name":"Reidville","admin3":"","localeAltName":null},{"geonameid":4593372,"name":"Roebuck","admin3":"","localeAltName":null},{"geonameid":4595129,"name":"Saxon","admin3":"","localeAltName":null},{"geonameid":4597140,"name":"Southern Shops","admin3":"","localeAltName":null},{"geonameid":4597200,"name":"Spartanburg","admin3":"","localeAltName":null},{"geonameid":4597554,"name":"Startex","admin3":"","localeAltName":null},{"geonameid":4599455,"name":"Valley Falls","admin3":"","localeAltName":null},{"geonameid":4600434,"name":"Wellford","admin3":"","localeAltName":null},{"geonameid":4601547,"name":"Woodruff","admin3":"","localeAltName":null}],"admin3":[],"alternateNames":[{"alternatenameId":2089561,"geonameid":4597040,"isoLanguage":"en","alternateName":"South Carolina","isPreferredName":true,"isShortName":true,"isColloquial":false,"isHistoric":false}]},"__N_SSG":true}