{"pageProps":{"locale":"en","admin2":{"geonameid":5924616,"name":"Cochrane District","country":"CA","admin1":"08","admin2":"3556","admin3":"","latitude":"50.0002200","longitude":"-82.9997900"},"admin1":{"geonameid":6093943,"name":"Ontario","admin1":"08"},"locations":[{"geonameid":5886146,"name":"Anthony","admin3":"3556014"},{"geonameid":5951840,"name":"Fauquier","admin3":"3556052"},{"geonameid":5958595,"name":"Fryatt","admin3":"3556077"},{"geonameid":5971679,"name":"Harty","admin3":"3556070"},{"geonameid":5989403,"name":"Kapuskasing","admin3":""},{"geonameid":6052444,"name":"Lepage","admin3":"3556070"},{"geonameid":6061698,"name":"Lowther","admin3":"3556073"},{"geonameid":6067824,"name":"Matheson","admin3":"3556014"},{"geonameid":6068034,"name":"Mattice","admin3":"3556077"},{"geonameid":6077557,"name":"Moonbeam","admin3":"3556056"},{"geonameid":6078372,"name":"Moosonee","admin3":""},{"geonameid":6094033,"name":"Opasatika","admin3":"3556073"},{"geonameid":6098812,"name":"Parthia","admin3":"3556077"},{"geonameid":6111073,"name":"Porcupine","admin3":""},{"geonameid":6116282,"name":"Ramore","admin3":"3556014"},{"geonameid":6118937,"name":"Reesor","admin3":"3556077"},{"geonameid":6145032,"name":"Shallow Lake","admin3":"3556077"},{"geonameid":6146388,"name":"Shillington","admin3":"3556014"},{"geonameid":6158163,"name":"Strickland","admin3":"3556052"},{"geonameid":6173261,"name":"Val Rita","admin3":"3556070"},{"geonameid":6174370,"name":"Vimy Ridge","admin3":"3556014"},{"geonameid":6176658,"name":"Watabeag","admin3":"3556014"},{"geonameid":6177152,"name":"Wavell","admin3":"3556014"}],"admin3":[{"geonameid":5903161,"name":"Black River-Matheson","admin3":"3556014"},{"geonameid":5951847,"name":"Fauquier-Strickland","admin3":"3556052"},{"geonameid":6068038,"name":"Mattice-Val Côté","admin3":"3556077"},{"geonameid":6077556,"name":"Moonbeam","admin3":"3556056"},{"geonameid":6094031,"name":"Opasatika","admin3":"3556073"},{"geonameid":6173262,"name":"Val Rita-Harty","admin3":"3556070"}],"alternateNames":[]},"__N_SSG":true}