{"pageProps":{"locale":"en","admin2":{"geonameid":5958506,"name":"Frontenac County","country":"CA","admin1":"08","admin2":"3510","admin3":"","latitude":"44.6668200","longitude":"-76.7494100"},"admin1":{"geonameid":6093943,"name":"Ontario","admin1":"08"},"locations":[{"geonameid":5886765,"name":"Ardendale","admin3":"3510035"},{"geonameid":5886790,"name":"Ardoch","admin3":"3510045"},{"geonameid":11072317,"name":"Barriefield","admin3":""},{"geonameid":11550881,"name":"Battersea","admin3":"3510020"},{"geonameid":5896388,"name":"Beatty","admin3":"3510045"},{"geonameid":5897326,"name":"Bedford","admin3":"3510020"},{"geonameid":5897351,"name":"Bedford Mills","admin3":"3510020"},{"geonameid":5897404,"name":"Beech Corners","admin3":"3510045"},{"geonameid":5904909,"name":"Bobs Lake","admin3":"3510020"},{"geonameid":5905440,"name":"Bon Echo","admin3":"3510045"},{"geonameid":5905907,"name":"Bordenwood","admin3":"3510035"},{"geonameid":5907242,"name":"Bradshaw","admin3":"3510020"},{"geonameid":5908543,"name":"Brewer Lake","admin3":"3510020"},{"geonameid":5910632,"name":"Buck Lake","admin3":"3510020"},{"geonameid":5911543,"name":"Burke Settlement","admin3":"3510035"},{"geonameid":5911870,"name":"Burnt Hills","admin3":"3510020"},{"geonameid":5912166,"name":"Burridge","admin3":"3510020"},{"geonameid":5914496,"name":"Camp Oconto","admin3":"3510035"},{"geonameid":5915084,"name":"Canonto","admin3":"3510045"},{"geonameid":5918866,"name":"Cedar Lake","admin3":"3510020"},{"geonameid":5923117,"name":"Clarendon Station","admin3":"3510035"},{"geonameid":5924236,"name":"Cloyne","admin3":"3510045"},{"geonameid":5931339,"name":"Coxvale","admin3":"3510045"},{"geonameid":5935553,"name":"Davidsons Beach","admin3":"3510020"},{"geonameid":5938208,"name":"Desert Lake","admin3":"3510020"},{"geonameid":5941518,"name":"Donaldson","admin3":"3510045"},{"geonameid":5948086,"name":"Elm Tree","admin3":"3510035"},{"geonameid":5952339,"name":"Fermoy","admin3":"3510020"},{"geonameid":5952386,"name":"Fernleigh","admin3":"3510045"},{"geonameid":5955498,"name":"Forest","admin3":"3510020"},{"geonameid":5961913,"name":"Glendower","admin3":"3510020"},{"geonameid":5962446,"name":"Godfrey","admin3":"3510035"},{"geonameid":5971036,"name":"Harlowe","admin3":"3510045"},{"geonameid":5971562,"name":"Hartington","admin3":"3510020"},{"geonameid":5976161,"name":"Holleford","admin3":"3510020"},{"geonameid":5979281,"name":"Ida Hill","admin3":"3510020"},{"geonameid":5990131,"name":"Keelerville","admin3":"3510020"},{"geonameid":5992794,"name":"Kirk Cove","admin3":"3510035"},{"geonameid":6048619,"name":"Lake Opinicon","admin3":"3510020"},{"geonameid":6050356,"name":"Latimer","admin3":"3510020"},{"geonameid":6052098,"name":"Leland","admin3":"3510020"},{"geonameid":6059234,"name":"Long Lake","admin3":"3510035"},{"geonameid":6061261,"name":"Lower Holleford","admin3":"3510020"},{"geonameid":6065613,"name":"Maple Hill","admin3":"3510020"},{"geonameid":8556290,"name":"Marysville","admin3":"3510005"},{"geonameid":6070471,"name":"McLean","admin3":"3510035"},{"geonameid":6073548,"name":"Milburn","admin3":"3510020"},{"geonameid":6075373,"name":"Mississippi Station","admin3":"3510045"},{"geonameid":6075375,"name":"Missouri","admin3":"3510020"},{"geonameid":6077656,"name":"Moons Corners","admin3":"3510020"},{"geonameid":6079568,"name":"Mountain Grove","admin3":"3510035"},{"geonameid":6084761,"name":"Murvale","admin3":"3510020"},{"geonameid":6085280,"name":"Myers Cave","admin3":"3510045"},{"geonameid":6091945,"name":"Oak Flats","admin3":"3510035"},{"geonameid":6092510,"name":"Oconto","admin3":"3510035"},{"geonameid":6093737,"name":"Ompah","admin3":"3510045"},{"geonameid":6094663,"name":"Oso","admin3":"3510035"},{"geonameid":6098354,"name":"Parham","admin3":"3510035"},{"geonameid":6103630,"name":"Petworth","admin3":"3510020"},{"geonameid":6111959,"name":"Port Metcalf","admin3":"3510005"},{"geonameid":6115968,"name":"Railton","admin3":"3510020"},{"geonameid":6117701,"name":"Raymonds Corners","admin3":"3510020"},{"geonameid":6125649,"name":"Robertsville","admin3":"3510045"},{"geonameid":6127581,"name":"Rosedale","admin3":"3510020"},{"geonameid":6142457,"name":"Scotch Settlement","admin3":"3510005"},{"geonameid":6144273,"name":"Seouls Corners","admin3":"3510035"},{"geonameid":6145255,"name":"Sharbot Lake","admin3":"3510035"},{"geonameid":6147968,"name":"Simcoe Island","admin3":"3510005"},{"geonameid":6150800,"name":"Snow Road Station","admin3":"3510045"},{"geonameid":6153078,"name":"Spaffordton","admin3":"3510020"},{"geonameid":6155389,"name":"Star Corners","admin3":"3510020"},{"geonameid":6159369,"name":"Sunbury","admin3":"3510020"},{"geonameid":6160740,"name":"Sydenham","admin3":"3510020"},{"geonameid":6166289,"name":"Tichborne","admin3":"3510035"},{"geonameid":6171923,"name":"Ungava","admin3":"3510035"},{"geonameid":6173889,"name":"Verona","admin3":"3510020"},{"geonameid":6174958,"name":"Wagarville","admin3":"3510035"},{"geonameid":6182031,"name":"Wilkinson","admin3":"3510035"},{"geonameid":6182545,"name":"Wilmer","admin3":"3510020"},{"geonameid":6185906,"name":"Zealand","admin3":"3510035"}],"admin3":[{"geonameid":5919108,"name":"Central Frontenac","admin3":"3510035"},{"geonameid":5958507,"name":"Frontenac Islands","admin3":"3510005"},{"geonameid":6090039,"name":"North Frontenac","admin3":"3510045"},{"geonameid":6152157,"name":"South Frontenac","admin3":"3510020"}],"alternateNames":[]},"__N_SSG":true}