{"pageProps":{"locale":"en","admin2":{"geonameid":6090772,"name":"Northumberland County","country":"CA","admin1":"08","admin2":"3514","admin3":"","latitude":"44.1668200","longitude":"-77.9995100"},"admin1":{"geonameid":6093943,"name":"Ontario","admin1":"08"},"locations":[{"geonameid":8593680,"name":"Bewdley","admin3":""},{"geonameid":5909541,"name":"Brookside","admin3":"3514024"},{"geonameid":5911685,"name":"Burnley","admin3":"3514024"},{"geonameid":5917302,"name":"Carmel","admin3":"3514024"},{"geonameid":12188904,"name":"Castleton","admin3":"3514014"},{"geonameid":5919247,"name":"Centreton","admin3":"3514024"},{"geonameid":5924963,"name":"Colborne","admin3":"3514014"},{"geonameid":5944005,"name":"Dundonald","admin3":"3514014"},{"geonameid":5944162,"name":"Dunnette Landing","admin3":"3514024"},{"geonameid":5945305,"name":"East Colborne","admin3":"3514014"},{"geonameid":5946566,"name":"Eddystone","admin3":"3514024"},{"geonameid":5946823,"name":"Edville","admin3":"3514014"},{"geonameid":5952117,"name":"Fenella","admin3":"3514024"},{"geonameid":5964055,"name":"Grafton","admin3":"3514024"},{"geonameid":5966422,"name":"Greenleys Corners","admin3":"3514014"},{"geonameid":5967081,"name":"Griffis Corners","admin3":"3514014"},{"geonameid":6055721,"name":"Little Germany","admin3":"3514024"},{"geonameid":6060743,"name":"Loughbreeze","admin3":"3514014"},{"geonameid":6069052,"name":"McCracken Landing","admin3":"3514024"},{"geonameid":6078577,"name":"Morganston","admin3":"3514014"},{"geonameid":6091951,"name":"Oak Heights","admin3":"3514024"},{"geonameid":6114307,"name":"Purdy Corners","admin3":"3514014"},{"geonameid":6125693,"name":"Robin Landing","admin3":"3514024"},{"geonameid":6127700,"name":"Roseneath","admin3":"3514024"},{"geonameid":6139319,"name":"Salem","admin3":"3514014"},{"geonameid":6146394,"name":"Shiloh","admin3":"3514014"},{"geonameid":6163937,"name":"The Gully","admin3":"3514024"},{"geonameid":6169858,"name":"Tubbs Corners","admin3":"3514014"},{"geonameid":6173886,"name":"Vernonville","admin3":"3514024"},{"geonameid":6174049,"name":"Victoria Beach","admin3":"3514014"},{"geonameid":6181459,"name":"Wicklow","admin3":"3514024"}],"admin3":[{"geonameid":5884136,"name":"Alnwick/Haldimand","admin3":"3514024"},{"geonameid":5931581,"name":"Cramahe","admin3":"3514014"}],"alternateNames":[]},"__N_SSG":true}