{"pageProps":{"locale":"en","admin2":{"geonameid":6147963,"name":"Simcoe County","country":"CA","admin1":"08","admin2":"3543","admin3":"","latitude":"44.4168100","longitude":"-79.8329500"},"admin1":{"geonameid":6093943,"name":"Ontario","admin1":"08"},"locations":[{"geonameid":5882071,"name":"Achill","admin3":"3543003"},{"geonameid":5883970,"name":"Allenwood","admin3":"3543009"},{"geonameid":5883971,"name":"Allenwood Beach","admin3":"3543068"},{"geonameid":5884051,"name":"Alliston","admin3":"3543007"},{"geonameid":5884497,"name":"Amigo Beach","admin3":"3543015"},{"geonameid":5885280,"name":"Angus","admin3":"3543021"},{"geonameid":5886139,"name":"Anten Mills","admin3":"3543009"},{"geonameid":5886495,"name":"Apto","admin3":"3543009"},{"geonameid":5886788,"name":"Ardmore Beach","admin3":"3543068"},{"geonameid":5886796,"name":"Ardtrea","admin3":"3543015"},{"geonameid":5887944,"name":"Atherley","admin3":"3543019"},{"geonameid":5887946,"name":"Athlone","admin3":"3543003"},{"geonameid":5892323,"name":"Ballycroy","admin3":"3543003"},{"geonameid":8617249,"name":"Barrillia Park","admin3":"3543023"},{"geonameid":5894776,"name":"Bass Lake Park","admin3":"3543023"},{"geonameid":5895004,"name":"Batteaux","admin3":"3543005"},{"geonameid":5949520,"name":"Baxter","admin3":"3543021"},{"geonameid":5895436,"name":"Bayshore Village","admin3":"3543019"},{"geonameid":5895483,"name":"Baywood Park","admin3":"3543023"},{"geonameid":5897540,"name":"Beeton","admin3":"3543007"},{"geonameid":5904503,"name":"Bluewater Beach","admin3":"3543068"},{"geonameid":5905407,"name":"Bond Head","admin3":"3543014"},{"geonameid":5905591,"name":"Bonnie Beach","admin3":"3543019"},{"geonameid":5905877,"name":"Borden","admin3":"3543021"},{"geonameid":5907161,"name":"Bradens Bay","admin3":"3543023"},{"geonameid":5907166,"name":"Bradford","admin3":"3543014"},{"geonameid":5908319,"name":"Brechin","admin3":"3543019"},{"geonameid":5908321,"name":"Brechin Beach","admin3":"3543019"},{"geonameid":5908323,"name":"Brechin Point","admin3":"3543019"},{"geonameid":5910805,"name":"Buena Vista Park","admin3":"3543015"},{"geonameid":5911717,"name":"Burnside","admin3":"3543015"},{"geonameid":5917166,"name":"Carley","admin3":"3543023"},{"geonameid":5917268,"name":"Carlyon","admin3":"3543015"},{"geonameid":5917763,"name":"Carthew Bay","admin3":"3543023"},{"geonameid":5917981,"name":"Cashtown Corners","admin3":"3543005"},{"geonameid":5918880,"name":"Cedarmont Beach","admin3":"3543023"},{"geonameid":5918929,"name":"Cedarville","admin3":"3543003"},{"geonameid":5923677,"name":"Clearwater Beach","admin3":"3543068"},{"geonameid":5925066,"name":"Coldwater","admin3":"3543015"},{"geonameid":5925249,"name":"Colgan","admin3":"3543003"},{"geonameid":5926255,"name":"Colwell","admin3":"3543021"},{"geonameid":5926529,"name":"Concord Point","admin3":"3543019"},{"geonameid":5926844,"name":"Connor","admin3":"3543003"},{"geonameid":5927412,"name":"Coopers Falls","admin3":"3543019"},{"geonameid":5928847,"name":"Coulson","admin3":"3543023"},{"geonameid":5928854,"name":"Coulson's Hill","admin3":"3543014"},{"geonameid":5930975,"name":"Cove Beach","admin3":"3543068"},{"geonameid":5932143,"name":"Creemore","admin3":"3543005"},{"geonameid":5932159,"name":"Creighton","admin3":"3543023"},{"geonameid":5933143,"name":"Crossland","admin3":"3543009"},{"geonameid":5933441,"name":"Crown Hill","admin3":"3543023"},{"geonameid":5933895,"name":"Cumberland Beach","admin3":"3543015"},{"geonameid":5934721,"name":"Dalston","admin3":"3543023"},{"geonameid":5936252,"name":"Deanlea Beach","admin3":"3543068"},{"geonameid":5937207,"name":"Deerhurst","admin3":"3543014"},{"geonameid":5944082,"name":"Dunkerron","admin3":"3543014"},{"geonameid":8556289,"name":"Duntroon","admin3":"3543005"},{"geonameid":5944281,"name":"Duntroon","admin3":"3543005"},{"geonameid":5944657,"name":"Eady","admin3":"3543023"},{"geonameid":5945940,"name":"East Oro","admin3":"3543023"},{"geonameid":5946308,"name":"Ebenezer","admin3":"3543071"},{"geonameid":5946611,"name":"Edenvale","admin3":"3543009"},{"geonameid":5946620,"name":"Edgar","admin3":"3543023"},{"geonameid":5947036,"name":"Egbert","admin3":"3543021"},{"geonameid":5947214,"name":"Eight Mile Point","admin3":"3543023"},{"geonameid":5947618,"name":"Elimere Point","admin3":"3543071"},{"geonameid":5947907,"name":"Elliotts Corners","admin3":"3543071"},{"geonameid":5948033,"name":"Elmgrove","admin3":"3543021"},{"geonameid":5948094,"name":"Elmvale","admin3":"3543009"},{"geonameid":5950448,"name":"Evans Corner","admin3":"3543071"},{"geonameid":5950579,"name":"Everett","admin3":"3543003"},{"geonameid":5951025,"name":"Fair Valley","admin3":"3543023"},{"geonameid":5951560,"name":"Farlain Lake","admin3":"3543068"},{"geonameid":5951896,"name":"Fawn Bay","admin3":"3543019"},{"geonameid":5952196,"name":"Fergus Hill Estate","admin3":"3543023"},{"geonameid":5952310,"name":"Fergusonvale","admin3":"3543009"},{"geonameid":5952469,"name":"Fesserton","admin3":"3543015"},{"geonameid":5954843,"name":"Floral Park","admin3":"3543019"},{"geonameid":5955525,"name":"Forest Harbour","admin3":"3543071"},{"geonameid":5955540,"name":"Forest Home","admin3":"3543023"},{"geonameid":5956519,"name":"Fountain Beach","admin3":"3543019"},{"geonameid":5957071,"name":"Foxmead","admin3":"3543015"},{"geonameid":5959280,"name":"Gamebridge Beach","admin3":"3543019"},{"geonameid":5960268,"name":"Geneva Park","admin3":"3543019"},{"geonameid":5960558,"name":"Georgian Highlands","admin3":"3543068"},{"geonameid":5960576,"name":"Georgina Beach","admin3":"3543068"},{"geonameid":5960908,"name":"Gibson","admin3":"3543068"},{"geonameid":5961086,"name":"Gilchrist","admin3":"3543023"},{"geonameid":5962070,"name":"Glenrest Beach","admin3":"3543019"},{"geonameid":5965692,"name":"Grays Bay","admin3":"3543019"},{"geonameid":5966820,"name":"Grenfell","admin3":"3543009"},{"geonameid":5968563,"name":"Guthrie","admin3":"3543023"},{"geonameid":5969894,"name":"Hamlet","admin3":"3543015"},{"geonameid":5970007,"name":"Hampshire Mills","admin3":"3543015"},{"geonameid":5970445,"name":"Happyland","admin3":"3543015"},{"geonameid":5971518,"name":"Harry's Corner","admin3":"3543019"},{"geonameid":5972374,"name":"Hawkestone","admin3":"3543023"},{"geonameid":5972375,"name":"Hawkestone Beach","admin3":"3543023"},{"geonameid":5972397,"name":"Hawkins Corners","admin3":"3543015"},{"geonameid":5975314,"name":"Hillsdale","admin3":"3543009"},{"geonameid":7603267,"name":"Hobart","admin3":"3543023"},{"geonameid":5975737,"name":"Hockley","admin3":"3543003"},{"geonameid":5977487,"name":"Horseshoe Valley","admin3":"3543023"},{"geonameid":5984880,"name":"Ivy","admin3":"3543021"},{"geonameid":5985079,"name":"Jack Lake","admin3":"3543005"},{"geonameid":5985862,"name":"Jarratt","admin3":"3543023"},{"geonameid":5990157,"name":"Keenansville","admin3":"3543003"},{"geonameid":6047876,"name":"Lafontaine Beach","admin3":"3543068"},{"geonameid":6047951,"name":"Lagoon City","admin3":"3543019"},{"geonameid":6048780,"name":"Lakeview Beach","admin3":"3543019"},{"geonameid":6049458,"name":"Langman","admin3":"3543009"},{"geonameid":6050589,"name":"Laurin","admin3":"3543068"},{"geonameid":6051718,"name":"Lefaives Corners","admin3":"3543068"},{"geonameid":7603268,"name":"Leigh's Corners","admin3":"3543023"},{"geonameid":6060329,"name":"Loretto","admin3":"3543003"},{"geonameid":6060981,"name":"Lovering","admin3":"3543015"},{"geonameid":6062686,"name":"MacDonald Beach","admin3":"3543019"},{"geonameid":6065702,"name":"Maple Valley","admin3":"3543015"},{"geonameid":6065703,"name":"Maple Valley","admin3":"3543005"},{"geonameid":6065727,"name":"Mara Beach","admin3":"3543019"},{"geonameid":6066032,"name":"Marchmont","admin3":"3543015"},{"geonameid":6066465,"name":"Mariposa Beach","admin3":"3543019"},{"geonameid":6067104,"name":"Martin Farm","admin3":"3543023"},{"geonameid":6067272,"name":"Martinville","admin3":"3543023"},{"geonameid":6067286,"name":"Martyrs Shrine","admin3":"3543071"},{"geonameid":6070859,"name":"McMurchy Settlement","admin3":"3543005"},{"geonameid":6071647,"name":"Medonte","admin3":"3543015"},{"geonameid":6072108,"name":"Menoke Beach","admin3":"3543015"},{"geonameid":6072396,"name":"Mertz's Corner","admin3":"3543071"},{"geonameid":6073349,"name":"Midhurst","admin3":"3543009"},{"geonameid":6073350,"name":"Midhurst Station","admin3":"3543009"},{"geonameid":6074623,"name":"Minesing","admin3":"3543009"},{"geonameid":6075690,"name":"Mitchell Square","admin3":"3543023"},{"geonameid":6077655,"name":"Moons Beach","admin3":"3543023"},{"geonameid":6077671,"name":"Moonstone","admin3":"3543023"},{"geonameid":6082848,"name":"Mount St. Louis","admin3":"3543023"},{"geonameid":6082823,"name":"Mount Stephen","admin3":"3543015"},{"geonameid":6079661,"name":"Mountain View Beach","admin3":"3543068"},{"geonameid":6084450,"name":"Murphy Beach","admin3":"3543019"},{"geonameid":6087559,"name":"New Flos","admin3":"3543009"},{"geonameid":6087573,"name":"New Gamebridge Beach","admin3":"3543019"},{"geonameid":6087837,"name":"New Uhthoff","admin3":"3543015"},{"geonameid":6088159,"name":"Nicolston","admin3":"3543021"},{"geonameid":6090884,"name":"Northwest Basin","admin3":"3543068"},{"geonameid":6091497,"name":"Nottawa","admin3":"3543005"},{"geonameid":6092727,"name":"Ogden's Beach","admin3":"3543071"},{"geonameid":6093148,"name":"Old Fort","admin3":"3543071"},{"geonameid":6094345,"name":"Orkney Beach","admin3":"3543019"},{"geonameid":6094395,"name":"Oro","admin3":"3543023"},{"geonameid":8617248,"name":"Oro Beach","admin3":"3543023"},{"geonameid":6094419,"name":"Oro Station","admin3":"3543023"},{"geonameid":6094436,"name":"Orr Lake","admin3":"3543009"},{"geonameid":6096377,"name":"Palm Beach","admin3":"3543023"},{"geonameid":6098624,"name":"Parkside Beach","admin3":"3543023"},{"geonameid":6100465,"name":"Peekaboo Point","admin3":"3543068"},{"geonameid":6101158,"name":"Penville","admin3":"3543007"},{"geonameid":6101592,"name":"Petaguishene Beach","admin3":"3543068"},{"geonameid":6105335,"name":"Pinkerton","admin3":"3543014"},{"geonameid":6108781,"name":"Point of Mara Beach","admin3":"3543019"},{"geonameid":6111954,"name":"Port McNicoll","admin3":"3543071"},{"geonameid":6112021,"name":"Port Severn","admin3":"3543015"},{"geonameid":6112028,"name":"Port Stanton","admin3":"3543015"},{"geonameid":6113244,"name":"Prices Corner","admin3":"3543023"},{"geonameid":6113667,"name":"Prophet Beach","admin3":"3543019"},{"geonameid":7603271,"name":"Ramona","admin3":"3543019"},{"geonameid":6116437,"name":"Randolph","admin3":"3543068"},{"geonameid":6117318,"name":"Rathburn","admin3":"3543019"},{"geonameid":6122051,"name":"Rich Hill","admin3":"3543007"},{"geonameid":6122720,"name":"Riverside","admin3":"3543071"},{"geonameid":6127685,"name":"Rosemont","admin3":"3543003"},{"geonameid":6128961,"name":"Rugby","admin3":"3543023"},{"geonameid":6140615,"name":"Sandy Beach","admin3":"3543019"},{"geonameid":6141502,"name":"Saurin","admin3":"3543009"},{"geonameid":7603266,"name":"Schepeler","admin3":"3543019"},{"geonameid":6142146,"name":"Schomberg Heights","admin3":"3543007"},{"geonameid":6144566,"name":"Severn Bridge","admin3":"3543015"},{"geonameid":6144568,"name":"Severn Falls","admin3":"3543015"},{"geonameid":6147970,"name":"Simcoe Lodge","admin3":"3543019"},{"geonameid":6149989,"name":"Smithdale","admin3":"3543005"},{"geonameid":6152737,"name":"Southview Beach","admin3":"3543019"},{"geonameid":6152738,"name":"Southview Cove","admin3":"3543019"},{"geonameid":6155692,"name":"Stayner","admin3":"3543005"},{"geonameid":6158278,"name":"Strongville","admin3":"3543009"},{"geonameid":6159559,"name":"Sunnidale","admin3":"3543005"},{"geonameid":6159561,"name":"Sunnidale Corners","admin3":"3543005"},{"geonameid":6159673,"name":"Sunset Beach","admin3":"3543071"},{"geonameid":6160802,"name":"Sylvan Glen Beach","admin3":"3543019"},{"geonameid":6161271,"name":"Talbot","admin3":"3543019"},{"geonameid":6165549,"name":"Thompsonville","admin3":"3543007"},{"geonameid":6165706,"name":"Thornton","admin3":"3543021"},{"geonameid":6166944,"name":"Tioga","admin3":"3543003"},{"geonameid":6167099,"name":"Toanche","admin3":"3543068"},{"geonameid":6167983,"name":"Tottenham","admin3":"3543007"},{"geonameid":6168990,"name":"Triple Bay Park","admin3":"3543071"},{"geonameid":6171644,"name":"Udney","admin3":"3543019"},{"geonameid":6172747,"name":"Uptergrove","admin3":"3543019"},{"geonameid":6172906,"name":"Utopia","admin3":"3543021"},{"geonameid":6173553,"name":"Vasey","admin3":"3543023"},{"geonameid":6174073,"name":"Victoria Harbour","admin3":"3543071"},{"geonameid":6174126,"name":"Victoria Park","admin3":"3543071"},{"geonameid":6174247,"name":"Vigo","admin3":"3543009"},{"geonameid":6694283,"name":"Village of Port Stanton","admin3":"3543015"},{"geonameid":6174890,"name":"Waddington Beach","admin3":"3543023"},{"geonameid":6176234,"name":"Warminster","admin3":"3543023"},{"geonameid":6176487,"name":"Washago","admin3":"3543015"},{"geonameid":6177107,"name":"Waubaushene","admin3":"3543015"},{"geonameid":6177155,"name":"Waverley","admin3":"3543071"},{"geonameid":6177520,"name":"Websterville","admin3":"3543005"},{"geonameid":6178056,"name":"Wendake Beach","admin3":"3543068"},{"geonameid":6178896,"name":"West Essa","admin3":"3543021"},{"geonameid":6182734,"name":"Wilson Point","admin3":"3543015"},{"geonameid":6184947,"name":"Wyebridge","admin3":"3543068"},{"geonameid":6184965,"name":"Wyevale","admin3":"3543068"},{"geonameid":6184996,"name":"Wymbolwood Beach","admin3":"3543068"}],"admin3":[{"geonameid":5882367,"name":"Adjala-Tosorontio","admin3":"3543003"},{"geonameid":5907180,"name":"Bradford West Gwillimbury","admin3":"3543014"},{"geonameid":5923659,"name":"Clearview","admin3":"3543005"},{"geonameid":5949522,"name":"Essa","admin3":"3543021"},{"geonameid":6087779,"name":"New Tecumseth","admin3":"3543007"},{"geonameid":6094406,"name":"Oro-Medonte","admin3":"3543023"},{"geonameid":6116209,"name":"Ramara","admin3":"3543019"},{"geonameid":6144565,"name":"Severn","admin3":"3543015"},{"geonameid":6154299,"name":"Springwater","admin3":"3543009"},{"geonameid":6162036,"name":"Tay","admin3":"3543071"},{"geonameid":6166924,"name":"Tiny","admin3":"3543068"}],"alternateNames":[]},"__N_SSG":true}