{"pageProps":{"locale":"en","admin2":{"geonameid":6172001,"name":"United Counties of Leeds and Grenville","country":"CA","admin1":"08","admin2":"3507","admin3":"","latitude":"44.8334100","longitude":"-75.6660400"},"admin1":{"geonameid":6093943,"name":"Ontario","admin1":"08"},"locations":[{"geonameid":5882141,"name":"Actons Corners","admin3":"3507065"},{"geonameid":5885514,"name":"Anoma Lea","admin3":"3507042"},{"geonameid":5892322,"name":"Ballycanoe","admin3":"3507017"},{"geonameid":5895693,"name":"Beales Mills","admin3":"3507042"},{"geonameid":5897317,"name":"Bedell","admin3":"3507065"},{"geonameid":5897747,"name":"Bellamys","admin3":"3507014"},{"geonameid":5897750,"name":"Bellamys Mill","admin3":"3507014"},{"geonameid":5898075,"name":"Bells Crossing","admin3":"3507014"},{"geonameid":5898992,"name":"Berryton","admin3":"3507021"},{"geonameid":5899163,"name":"Bethel","admin3":"3507014"},{"geonameid":5902026,"name":"Bisseltown","admin3":"3507006"},{"geonameid":5903098,"name":"Black Rapids","admin3":"3507021"},{"geonameid":5903545,"name":"Blairs Settlement","admin3":"3507040"},{"geonameid":5903622,"name":"Blanchards Hill","admin3":"3507014"},{"geonameid":5904235,"name":"Blue Church","admin3":"3507006"},{"geonameid":5908752,"name":"Brier Hill","admin3":"3507021"},{"geonameid":5912193,"name":"Burritts Rapids","admin3":"3507065"},{"geonameid":5913247,"name":"Caintown","admin3":"3507017"},{"geonameid":5913502,"name":"California","admin3":"3507040"},{"geonameid":5914153,"name":"Campbells Corners","admin3":"3507004"},{"geonameid":5919353,"name":"Chaffeys Locks","admin3":"3507040"},{"geonameid":5919838,"name":"Chantry","admin3":"3507040"},{"geonameid":5920171,"name":"Charleville","admin3":"3507006"},{"geonameid":5920594,"name":"Cheeseborough","admin3":"3507021"},{"geonameid":5933003,"name":"Crosby","admin3":"3507040"},{"geonameid":5933609,"name":"Crystal","admin3":"3507014"},{"geonameid":5935230,"name":"Darlingside","admin3":"3507021"},{"geonameid":5935706,"name":"Davis Lock","admin3":"3507040"},{"geonameid":5935929,"name":"Daytown","admin3":"3507040"},{"geonameid":5937614,"name":"Delta","admin3":"3507040"},{"geonameid":5941455,"name":"Domville","admin3":"3507006"},{"geonameid":5943715,"name":"Dulcemaine","admin3":"3507021"},{"geonameid":5945946,"name":"East Oxford","admin3":"3507065"},{"geonameid":5946311,"name":"Ebenezer","admin3":"3507021"},{"geonameid":5946586,"name":"Eden Grove","admin3":"3507021"},{"geonameid":5947585,"name":"Elgin","admin3":"3507040"},{"geonameid":5947968,"name":"Ellisville","admin3":"3507021"},{"geonameid":5948108,"name":"Eloida","admin3":"3507014"},{"geonameid":5948586,"name":"Emery","admin3":"3507021"},{"geonameid":5949394,"name":"Escott","admin3":"3507021"},{"geonameid":5950789,"name":"Eyre Corners","admin3":"3507040"},{"geonameid":5950931,"name":"Fairfax","admin3":"3507021"},{"geonameid":5950942,"name":"Fairfield","admin3":"3507014"},{"geonameid":5950945,"name":"Fairfield East","admin3":"3507014"},{"geonameid":5955597,"name":"Forfar","admin3":"3507040"},{"geonameid":5955854,"name":"Forthton","admin3":"3507014"},{"geonameid":5957678,"name":"Frayn's Landing","admin3":"3507040"},{"geonameid":5957825,"name":"Freeland","admin3":"3507040"},{"geonameid":5959754,"name":"Garretton","admin3":"3507006"},{"geonameid":5961852,"name":"Glen Buell","admin3":"3507014"},{"geonameid":5961923,"name":"Glen Elbe","admin3":"3507042"},{"geonameid":5962021,"name":"Glen Morris","admin3":"3507042"},{"geonameid":5962087,"name":"Glen Smail","admin3":"3507004"},{"geonameid":5962016,"name":"Glenmore","admin3":"3507006"},{"geonameid":5965695,"name":"Gray's Beach","admin3":"3507021"},{"geonameid":5966071,"name":"Greenfield","admin3":"3507021"},{"geonameid":5966811,"name":"Grenadier Island","admin3":"3507021"},{"geonameid":5967553,"name":"Groveton","admin3":"3507004"},{"geonameid":5969497,"name":"Hallecks","admin3":"3507014"},{"geonameid":5969650,"name":"Halsteads Bay","admin3":"3507021"},{"geonameid":5971007,"name":"Harlem","admin3":"3507040"},{"geonameid":5972356,"name":"Hawkes","admin3":"3507014"},{"geonameid":5972588,"name":"Hayes Corners","admin3":"3507042"},{"geonameid":5973329,"name":"Heckston","admin3":"3507065"},{"geonameid":5974373,"name":"Herrons Corners","admin3":"3507006"},{"geonameid":5976114,"name":"Holland","admin3":"3507021"},{"geonameid":5978933,"name":"Hutchins Corners","admin3":"3507065"},{"geonameid":5979105,"name":"Hyndman","admin3":"3507004"},{"geonameid":5986162,"name":"Jellyby","admin3":"3507014"},{"geonameid":8556291,"name":"Johnstown","admin3":"3507004"},{"geonameid":5987769,"name":"Jones Falls","admin3":"3507040"},{"geonameid":5988170,"name":"Judgeville","admin3":"3507014"},{"geonameid":5988374,"name":"Junetown","admin3":"3507021"},{"geonameid":5990737,"name":"Kemptville","admin3":"3507065"},{"geonameid":7910366,"name":"Lansdowne","admin3":"3507021"},{"geonameid":6050161,"name":"LaRue Mills","admin3":"3507021"},{"geonameid":6051634,"name":"Leeds","admin3":"3507021"},{"geonameid":6051831,"name":"Legge","admin3":"3507021"},{"geonameid":6052002,"name":"Lehighs Corners","admin3":"3507014"},{"geonameid":6053918,"name":"Lillies","admin3":"3507014"},{"geonameid":6055053,"name":"Little Brockville","admin3":"3507040"},{"geonameid":6059502,"name":"Long Point","admin3":"3507021"},{"geonameid":6060295,"name":"Lords Mills","admin3":"3507006"},{"geonameid":6062266,"name":"Lyn","admin3":"3507014"},{"geonameid":6064451,"name":"Mainsville","admin3":"3507004"},{"geonameid":6064486,"name":"Maitland","admin3":"3507006"},{"geonameid":6065122,"name":"Manhard","admin3":"3507014"},{"geonameid":6065606,"name":"Maple Grove","admin3":"3507021"},{"geonameid":6065926,"name":"Marble Rock","admin3":"3507021"},{"geonameid":6068385,"name":"Maynard","admin3":"3507006"},{"geonameid":6068759,"name":"McCarleys Corners","admin3":"3507004"},{"geonameid":6069894,"name":"McIntosh Mills","admin3":"3507017"},{"geonameid":6070563,"name":"McLeanville","admin3":"3507006"},{"geonameid":6071209,"name":"McReynolds","admin3":"3507065"},{"geonameid":6071219,"name":"McRoberts Corner","admin3":"3507006"},{"geonameid":6073731,"name":"Millars Corners","admin3":"3507065"},{"geonameid":6075693,"name":"Mitchellville","admin3":"3507021"},{"geonameid":6079406,"name":"Motts Mills","admin3":"3507014"},{"geonameid":6086066,"name":"Narrows","admin3":"3507021"},{"geonameid":6087418,"name":"Newboro","admin3":"3507040"},{"geonameid":6087422,"name":"Newboyne","admin3":"3507040"},{"geonameid":6087698,"name":"Newmanville","admin3":"3507065"},{"geonameid":6092051,"name":"Oak Leaf","admin3":"3507021"},{"geonameid":6095384,"name":"Outlet","admin3":"3507021"},{"geonameid":6095802,"name":"Oxford Station","admin3":"3507065"},{"geonameid":6099709,"name":"Pattersons Corners","admin3":"3507065"},{"geonameid":6101434,"name":"Perrins Corners","admin3":"3507006"},{"geonameid":6105835,"name":"Pittston","admin3":"3507004"},{"geonameid":6106456,"name":"Plum Hollow","admin3":"3507040"},{"geonameid":6110836,"name":"Pooles Resort","admin3":"3507021"},{"geonameid":6114765,"name":"Quabbin","admin3":"3507021"},{"geonameid":6117224,"name":"Rapid Valley","admin3":"3507021"},{"geonameid":6117984,"name":"Redan","admin3":"3507014"},{"geonameid":6126299,"name":"Rockfield","admin3":"3507021"},{"geonameid":6126513,"name":"Rocksprings","admin3":"3507014"},{"geonameid":6127049,"name":"Roebuck","admin3":"3507006"},{"geonameid":6137031,"name":"Sabourins Crossing","admin3":"3507065"},{"geonameid":6140183,"name":"Sand Bay Corner","admin3":"3507021"},{"geonameid":6142447,"name":"Scotch Point","admin3":"3507040"},{"geonameid":6143746,"name":"Seeley","admin3":"3507014"},{"geonameid":6144103,"name":"Selton","admin3":"3507021"},{"geonameid":6145126,"name":"Shanes","admin3":"3507014"},{"geonameid":6145634,"name":"Sheatown","admin3":"3507042"},{"geonameid":6145914,"name":"Sheldon's Corners","admin3":"3507042"},{"geonameid":6146289,"name":"Sherwood Springs","admin3":"3507017"},{"geonameid":6151304,"name":"Soperton","admin3":"3507021"},{"geonameid":6151547,"name":"South Augusta","admin3":"3507006"},{"geonameid":6151688,"name":"South Branch","admin3":"3507006"},{"geonameid":6152186,"name":"South Gower","admin3":"3507065"},{"geonameid":6153166,"name":"Sparkle City","admin3":"3507006"},{"geonameid":6153532,"name":"Spencerville","admin3":"3507004"},{"geonameid":6157339,"name":"Stones Corners","admin3":"3507006"},{"geonameid":6160284,"name":"Swan Crossing","admin3":"3507065"},{"geonameid":6160566,"name":"Sweets Corners","admin3":"3507021"},{"geonameid":6162048,"name":"Taylor","admin3":"3507021"},{"geonameid":6163529,"name":"The Bush","admin3":"3507040"},{"geonameid":6164066,"name":"The Island","admin3":"3507004"},{"geonameid":6166072,"name":"Throoptown","admin3":"3507006"},{"geonameid":6166541,"name":"Tilley","admin3":"3507021"},{"geonameid":6168804,"name":"Trevelyan","admin3":"3507017"},{"geonameid":6171948,"name":"Union","admin3":"3507021"},{"geonameid":6173286,"name":"Van Allens","admin3":"3507065"},{"geonameid":6176081,"name":"Warburton","admin3":"3507021"},{"geonameid":6176504,"name":"Washburns Corners","admin3":"3507021"},{"geonameid":6176881,"name":"Waterton","admin3":"3507021"},{"geonameid":6179644,"name":"Wexford","admin3":"3507004"},{"geonameid":6181565,"name":"Wights Corners","admin3":"3507042"},{"geonameid":6182371,"name":"Willowbank","admin3":"3507021"},{"geonameid":6182784,"name":"Wilstead","admin3":"3507021"},{"geonameid":6182795,"name":"Wiltsetown","admin3":"3507042"},{"geonameid":6184274,"name":"Woodridge","admin3":"3507014"},{"geonameid":6185545,"name":"Yonge Mills","admin3":"3507017"}],"admin3":[{"geonameid":5887943,"name":"Athens","admin3":"3507042"},{"geonameid":5888255,"name":"Augusta","admin3":"3507006"},{"geonameid":5946868,"name":"Edwardsburgh/Cardinal","admin3":"3507004"},{"geonameid":5947679,"name":"Elizabethtown-Kitley","admin3":"3507014"},{"geonameid":5958528,"name":"Front of Yonge","admin3":"3507017"},{"geonameid":6051636,"name":"Leeds and the Thousand Islands","admin3":"3507021"},{"geonameid":6090070,"name":"North Grenville","admin3":"3507065"},{"geonameid":6122177,"name":"Rideau Lakes","admin3":"3507040"}],"alternateNames":[]},"__N_SSG":true}