{"pageProps":{"locale":"de","admin2":{"geonameid":7285010,"name":"Wahlkreis See-Gaster","country":"CH","admin1":"SG","admin2":"1726","admin3":"","latitude":"47.2245900","longitude":"9.0168000"},"admin1":{"geonameid":2658821,"name":"Kanton St. Gallen","admin1":"SG"},"locations":[{"geonameid":2661758,"name":"Amden","admin3":"3311"},{"geonameid":2661560,"name":"Benken","admin3":"3312"},{"geonameid":2660860,"name":"Eschenbach","admin3":"3342"},{"geonameid":2660572,"name":"Goldingen","admin3":"3342"},{"geonameid":2660568,"name":"Gommiswald","admin3":"3341"},{"geonameid":2660221,"name":"Jona","admin3":"3340"},{"geonameid":2660194,"name":"Kaltbrunn","admin3":"3313"},{"geonameid":2659099,"name":"Rapperswil","admin3":"3340"},{"geonameid":2658820,"name":"Sankt Gallenkappel","admin3":"3342"},{"geonameid":2658754,"name":"Schänis","admin3":"3315"},{"geonameid":2658720,"name":"Schmerikon","admin3":"3338"},{"geonameid":2658210,"name":"Uznach","admin3":"3339"},{"geonameid":2658040,"name":"Weesen","admin3":"3316"}],"admin3":[{"geonameid":7285070,"name":"Amden","admin3":"3311"},{"geonameid":7285197,"name":"Benken (SG)","admin3":"3312"},{"geonameid":7286175,"name":"Kaltbrunn","admin3":"3313"},{"geonameid":7286859,"name":"Rapperswil-Jona","admin3":"3340"},{"geonameid":7287075,"name":"Schänis","admin3":"3315"},{"geonameid":7287098,"name":"Schmerikon","admin3":"3338"},{"geonameid":7287401,"name":"Uznach","admin3":"3339"},{"geonameid":7287551,"name":"Weesen","admin3":"3316"},{"geonameid":8740951,"name":"Eschenbach (SG)","admin3":"3342"},{"geonameid":8740955,"name":"Gommiswald","admin3":"3341"}],"alternateNames":[]},"__N_SSG":true}