{"pageProps":{"locale":"it","admin2":{"geonameid":3170025,"name":"Provincia di Potenza","country":"IT","admin1":"02","admin2":"PZ","admin3":"","latitude":"40.4644200","longitude":"15.8993800","localeAltName":"Potenza"},"admin1":{"geonameid":3182306,"name":"Basilicata","admin1":"02","localeAltName":"Basilicata"},"locations":[{"geonameid":3183561,"name":"Abriola","admin3":"076001","localeAltName":null},{"geonameid":3183546,"name":"Acerenza","admin3":"076002","localeAltName":null},{"geonameid":3183357,"name":"Albano di Lucania","admin3":"076003","localeAltName":null},{"geonameid":3183008,"name":"Anzi","admin3":"076004","localeAltName":null},{"geonameid":3182829,"name":"Armento","admin3":"076005","localeAltName":null},{"geonameid":3182704,"name":"Atella","admin3":"076006","localeAltName":null},{"geonameid":3182633,"name":"Avigliano","admin3":"076007","localeAltName":null},{"geonameid":3182440,"name":"Balvano","admin3":"076008","localeAltName":null},{"geonameid":3182425,"name":"Banzi","admin3":"076009","localeAltName":null},{"geonameid":3182415,"name":"Baragiano","admin3":"076010","localeAltName":null},{"geonameid":3182343,"name":"Barile","admin3":"076011","localeAltName":null},{"geonameid":3182232,"name":"Bella","admin3":"076012","localeAltName":null},{"geonameid":6535311,"name":"Brienza","admin3":"076013","localeAltName":null},{"geonameid":3181524,"name":"Brindisi Montagna","admin3":"076014","localeAltName":null},{"geonameid":3181155,"name":"Calvello","admin3":"076015","localeAltName":null},{"geonameid":3180947,"name":"Campomaggiore","admin3":"076017","localeAltName":null},{"geonameid":3180881,"name":"Cancellara","admin3":"076018","localeAltName":null},{"geonameid":8950053,"name":"Cappelluccia","admin3":"076060","localeAltName":null},{"geonameid":3180565,"name":"Carbone","admin3":"076019","localeAltName":null},{"geonameid":3179673,"name":"Castelgrande","admin3":"076021","localeAltName":null},{"geonameid":2525089,"name":"Castelluccio Inferiore","admin3":"076022","localeAltName":null},{"geonameid":3179564,"name":"Castelluccio Superiore","admin3":"076023","localeAltName":null},{"geonameid":3179553,"name":"Castelmezzano","admin3":"076024","localeAltName":null},{"geonameid":3179471,"name":"Castelsaraceno","admin3":"076025","localeAltName":null},{"geonameid":3179373,"name":"Castronuovo di Sant'Andrea","admin3":"076026","localeAltName":null},{"geonameid":3179025,"name":"Cersosimo","admin3":"076027","localeAltName":null},{"geonameid":3178846,"name":"Chiaromonte","admin3":"076028","localeAltName":null},{"geonameid":3178090,"name":"Corleto Perticara","admin3":"076029","localeAltName":null},{"geonameid":3177377,"name":"Episcopia","admin3":"076030","localeAltName":null},{"geonameid":3177200,"name":"Fardella","admin3":"076031","localeAltName":null},{"geonameid":3176996,"name":"Filiano","admin3":"076032","localeAltName":null},{"geonameid":3176757,"name":"Forenza","admin3":"076033","localeAltName":null},{"geonameid":3176602,"name":"Francavilla in Sinni","admin3":"076034","localeAltName":null},{"geonameid":3176376,"name":"Gallicchio","admin3":"076035","localeAltName":null},{"geonameid":3176204,"name":"Genzano di Lucania","admin3":"076036","localeAltName":null},{"geonameid":3176105,"name":"Ginestra","admin3":"076099","localeAltName":null},{"geonameid":3175750,"name":"Grumento Nova","admin3":"076037","localeAltName":null},{"geonameid":3175706,"name":"Guardia Perticara","admin3":"076038","localeAltName":null},{"geonameid":3175253,"name":"Lagonegro","admin3":"076039","localeAltName":null},{"geonameid":3179664,"name":"Lagopesole","admin3":"076007","localeAltName":null},{"geonameid":3175045,"name":"Latronico","admin3":"076040","localeAltName":null},{"geonameid":3175037,"name":"Laurenzana","admin3":"076041","localeAltName":null},{"geonameid":3175034,"name":"Lauria","admin3":"076042","localeAltName":null},{"geonameid":3175009,"name":"Lavello","admin3":"076043","localeAltName":null},{"geonameid":8949836,"name":"Madonna del Pantano","admin3":"076062","localeAltName":null},{"geonameid":8949475,"name":"Magnano","admin3":"076040","localeAltName":null},{"geonameid":2524287,"name":"Maratea","admin3":"076044","localeAltName":null},{"geonameid":3173864,"name":"Marsico Nuovo","admin3":"076045","localeAltName":null},{"geonameid":3173863,"name":"Marsicovetere","admin3":"076046","localeAltName":null},{"geonameid":3173805,"name":"Maschito","admin3":"076047","localeAltName":null},{"geonameid":2524234,"name":"Massa","admin3":"076044","localeAltName":null},{"geonameid":3173615,"name":"Melfi","admin3":"076048","localeAltName":null},{"geonameid":3173349,"name":"Missanello","admin3":"076049","localeAltName":null},{"geonameid":3173220,"name":"Moliterno","admin3":"076050","localeAltName":null},{"geonameid":3172833,"name":"Montemilone","admin3":"076051","localeAltName":null},{"geonameid":3172827,"name":"Montemurro","admin3":"076052","localeAltName":null},{"geonameid":3172436,"name":"Muro Lucano","admin3":"076053","localeAltName":null},{"geonameid":3172326,"name":"Nemoli","admin3":"076054","localeAltName":null},{"geonameid":3172236,"name":"Noepoli","admin3":"076055","localeAltName":null},{"geonameid":3171994,"name":"Oppido Lucano","admin3":"076056","localeAltName":null},{"geonameid":3171619,"name":"Palazzo San Gervasio","admin3":"076057","localeAltName":null},{"geonameid":3171392,"name":"Paterno","admin3":"076100","localeAltName":null},{"geonameid":2523851,"name":"Pedali","admin3":"076097","localeAltName":null},{"geonameid":3171127,"name":"Pescopagano","admin3":"076058","localeAltName":null},{"geonameid":3170866,"name":"Picerno","admin3":"076059","localeAltName":null},{"geonameid":3170801,"name":"Pietragalla","admin3":"076060","localeAltName":null},{"geonameid":3170783,"name":"Pietrapertosa","admin3":"076061","localeAltName":null},{"geonameid":3170717,"name":"Pignola","admin3":"076062","localeAltName":null},{"geonameid":8949869,"name":"Possidente","admin3":"076007","localeAltName":null},{"geonameid":3170027,"name":"Potenza","admin3":"076063","localeAltName":null},{"geonameid":3169591,"name":"Rapolla","admin3":"076064","localeAltName":null},{"geonameid":3169590,"name":"Rapone","admin3":"076065","localeAltName":null},{"geonameid":3169326,"name":"Rionero in Vulture","admin3":"076066","localeAltName":null},{"geonameid":3169314,"name":"Ripacandida","admin3":"076067","localeAltName":null},{"geonameid":3169245,"name":"Rivello","admin3":"076068","localeAltName":null},{"geonameid":3169161,"name":"Roccanova","admin3":"076069","localeAltName":null},{"geonameid":2523574,"name":"Rotonda","admin3":"076070","localeAltName":null},{"geonameid":3168791,"name":"Ruoti","admin3":"076071","localeAltName":null},{"geonameid":3168771,"name":"Ruvo del Monte","admin3":"076072","localeAltName":null},{"geonameid":8950223,"name":"S.Maria Fiumicello","admin3":"076042","localeAltName":null},{"geonameid":8948821,"name":"San Brancato","admin3":"076080","localeAltName":null},{"geonameid":3182530,"name":"San Cataldo","admin3":"076012","localeAltName":null},{"geonameid":3168480,"name":"San Chirico Nuovo","admin3":"076073","localeAltName":null},{"geonameid":3168479,"name":"San Chirico Raparo","admin3":"076074","localeAltName":null},{"geonameid":3168459,"name":"San Costantino Albanese","admin3":"076075","localeAltName":null},{"geonameid":3168399,"name":"San Fele","admin3":"076076","localeAltName":null},{"geonameid":6453462,"name":"San Giorgio","admin3":"076060","localeAltName":null},{"geonameid":3168028,"name":"San Martino d'Agri","admin3":"076077","localeAltName":null},{"geonameid":3167733,"name":"San Severino Lucano","admin3":"076078","localeAltName":null},{"geonameid":3167441,"name":"Sant'Angelo le Fratte","admin3":"076079","localeAltName":null},{"geonameid":3167374,"name":"Sant'Arcangelo","admin3":"076080","localeAltName":null},{"geonameid":3167135,"name":"Sarconi","admin3":"076081","localeAltName":null},{"geonameid":3167072,"name":"Sasso di Castalda","admin3":"076082","localeAltName":null},{"geonameid":3167052,"name":"Satriano di Lucania","admin3":"076083","localeAltName":null},{"geonameid":3167023,"name":"Savoia di Lucania","admin3":"076084","localeAltName":null},{"geonameid":8950239,"name":"Scalera","admin3":"076032","localeAltName":null},{"geonameid":9036124,"name":"Scalo di Baragiano","admin3":"076010","localeAltName":null},{"geonameid":3166737,"name":"Senise","admin3":"076085","localeAltName":null},{"geonameid":8950143,"name":"Serra","admin3":"076089","localeAltName":null},{"geonameid":3166240,"name":"Spinoso","admin3":"076086","localeAltName":null},{"geonameid":3165857,"name":"Teana","admin3":"076087","localeAltName":null},{"geonameid":2522957,"name":"Terranova di Pollino","admin3":"076088","localeAltName":null},{"geonameid":3165627,"name":"Tito","admin3":"076089","localeAltName":null},{"geonameid":3165582,"name":"Tolve","admin3":"076090","localeAltName":null},{"geonameid":3165324,"name":"Tramutola","admin3":"076091","localeAltName":null},{"geonameid":3165274,"name":"Trecchina","admin3":"076092","localeAltName":null},{"geonameid":3165150,"name":"Trivigno","admin3":"076093","localeAltName":null},{"geonameid":3164978,"name":"Vaglio Basilicata","admin3":"076094","localeAltName":null},{"geonameid":3164592,"name":"Venosa","admin3":"076095","localeAltName":null},{"geonameid":3164386,"name":"Vietri di Potenza","admin3":"076096","localeAltName":null},{"geonameid":3164374,"name":"Viggiano","admin3":"076098","localeAltName":null},{"geonameid":8948836,"name":"Villa d'Agri","admin3":"076046","localeAltName":null},{"geonameid":8948922,"name":"Zona 179","admin3":"076048","localeAltName":null}],"admin3":[{"geonameid":6537604,"name":"Abriola","admin3":"076001","localeAltName":null},{"geonameid":6537605,"name":"Acerenza","admin3":"076002","localeAltName":null},{"geonameid":6537606,"name":"Albano di Lucania","admin3":"076003","localeAltName":null},{"geonameid":6537607,"name":"Anzi","admin3":"076004","localeAltName":null},{"geonameid":6537608,"name":"Balvano","admin3":"076008","localeAltName":null},{"geonameid":6537609,"name":"Barile","admin3":"076011","localeAltName":null},{"geonameid":6537610,"name":"Calvera","admin3":"076016"},{"geonameid":6537611,"name":"Castelluccio Superiore","admin3":"076023","localeAltName":null},{"geonameid":6537612,"name":"Castelmezzano","admin3":"076024","localeAltName":null},{"geonameid":6537613,"name":"Castronuovo di Sant'Andrea","admin3":"076026","localeAltName":null},{"geonameid":6537614,"name":"Cersosimo","admin3":"076027","localeAltName":null},{"geonameid":6537615,"name":"Corleto Perticara","admin3":"076029","localeAltName":null},{"geonameid":6537616,"name":"Episcopia","admin3":"076030","localeAltName":null},{"geonameid":6537617,"name":"Fardella","admin3":"076031","localeAltName":null},{"geonameid":6537618,"name":"Filiano","admin3":"076032","localeAltName":null},{"geonameid":6537619,"name":"Genzano di Lucania","admin3":"076036","localeAltName":null},{"geonameid":6537620,"name":"Grumento Nova","admin3":"076037","localeAltName":null},{"geonameid":6537621,"name":"Guardia Perticara","admin3":"076038","localeAltName":null},{"geonameid":6537622,"name":"Lavello","admin3":"076043","localeAltName":null},{"geonameid":6537623,"name":"Marsico Nuovo","admin3":"076045","localeAltName":null},{"geonameid":6537624,"name":"Melfi","admin3":"076048","localeAltName":null},{"geonameid":6537625,"name":"Missanello","admin3":"076049","localeAltName":null},{"geonameid":6537626,"name":"Muro Lucano","admin3":"076053","localeAltName":null},{"geonameid":6537627,"name":"Pescopagano","admin3":"076058","localeAltName":null},{"geonameid":6537628,"name":"Pignola","admin3":"076062","localeAltName":null},{"geonameid":6537629,"name":"Ripacandida","admin3":"076067","localeAltName":null},{"geonameid":6537630,"name":"San Chirico Nuovo","admin3":"076073","localeAltName":null},{"geonameid":6537631,"name":"San Costantino Albanese","admin3":"076075","localeAltName":null},{"geonameid":6537632,"name":"San Fele","admin3":"076076","localeAltName":null},{"geonameid":6537633,"name":"San Severino Lucano","admin3":"076078","localeAltName":null},{"geonameid":6537634,"name":"Satriano di Lucania","admin3":"076083","localeAltName":null},{"geonameid":6537635,"name":"Savoia di Lucania","admin3":"076084","localeAltName":null},{"geonameid":6537636,"name":"Spinoso","admin3":"076086","localeAltName":null},{"geonameid":6537637,"name":"Teana","admin3":"076087","localeAltName":null},{"geonameid":6537638,"name":"Tito","admin3":"076089","localeAltName":null},{"geonameid":6537639,"name":"Tolve","admin3":"076090","localeAltName":null},{"geonameid":6537640,"name":"Trivigno","admin3":"076093","localeAltName":null},{"geonameid":6537641,"name":"Venosa","admin3":"076095","localeAltName":null},{"geonameid":6537642,"name":"Vietri di Potenza","admin3":"076096","localeAltName":null},{"geonameid":6537643,"name":"Viggianello","admin3":"076097","localeAltName":null},{"geonameid":6537644,"name":"Viggiano","admin3":"076098","localeAltName":null},{"geonameid":6538992,"name":"Armento","admin3":"076005","localeAltName":null},{"geonameid":6538993,"name":"Banzi","admin3":"076009","localeAltName":null},{"geonameid":6538994,"name":"Cancellara","admin3":"076018","localeAltName":null},{"geonameid":6538995,"name":"Castelgrande","admin3":"076021","localeAltName":null},{"geonameid":6538996,"name":"Castelsaraceno","admin3":"076025","localeAltName":null},{"geonameid":6538997,"name":"Chiaromonte","admin3":"076028","localeAltName":null},{"geonameid":6538998,"name":"Francavilla in Sinni","admin3":"076034","localeAltName":null},{"geonameid":6538999,"name":"Gallicchio","admin3":"076035","localeAltName":null},{"geonameid":6539000,"name":"Latronico","admin3":"076040","localeAltName":null},{"geonameid":6539001,"name":"Laurenzana","admin3":"076041","localeAltName":null},{"geonameid":6539002,"name":"Moliterno","admin3":"076050","localeAltName":null},{"geonameid":6539003,"name":"Montemilone","admin3":"076051","localeAltName":null},{"geonameid":6539004,"name":"Montemurro","admin3":"076052","localeAltName":null},{"geonameid":6539005,"name":"Nemoli","admin3":"076054","localeAltName":null},{"geonameid":6539006,"name":"Noepoli","admin3":"076055","localeAltName":null},{"geonameid":6539007,"name":"Palazzo San Gervasio","admin3":"076057","localeAltName":null},{"geonameid":6539008,"name":"Pietragalla","admin3":"076060","localeAltName":null},{"geonameid":6539009,"name":"Pietrapertosa","admin3":"076061","localeAltName":null},{"geonameid":6539010,"name":"Rapone","admin3":"076065","localeAltName":null},{"geonameid":6539011,"name":"Roccanova","admin3":"076069","localeAltName":null},{"geonameid":6539012,"name":"Ruvo del Monte","admin3":"076072","localeAltName":null},{"geonameid":6539013,"name":"Sant'Angelo Le Fratte","admin3":"076079","localeAltName":null},{"geonameid":6539014,"name":"Sarconi","admin3":"076081","localeAltName":null},{"geonameid":6539015,"name":"Senise","admin3":"076085","localeAltName":null},{"geonameid":6539016,"name":"Terranova di Pollino","admin3":"076088","localeAltName":null},{"geonameid":6539017,"name":"Tramutola","admin3":"076091","localeAltName":null},{"geonameid":6539018,"name":"Vaglio Basilicata","admin3":"076094","localeAltName":null},{"geonameid":6539841,"name":"Avigliano","admin3":"076007","localeAltName":null},{"geonameid":6539842,"name":"Ruoti","admin3":"076071","localeAltName":null},{"geonameid":6540030,"name":"Carbone","admin3":"076019","localeAltName":null},{"geonameid":6540031,"name":"Rotonda","admin3":"076070","localeAltName":null},{"geonameid":6540032,"name":"Sant'Arcangelo","admin3":"076080","localeAltName":null},{"geonameid":6540033,"name":"Ginestra","admin3":"076099","localeAltName":null},{"geonameid":6540034,"name":"Paterno","admin3":"076100","localeAltName":null},{"geonameid":6540771,"name":"Brindisi Montagna","admin3":"076014","localeAltName":null},{"geonameid":6540772,"name":"Calvello","admin3":"076015","localeAltName":null},{"geonameid":6540773,"name":"Forenza","admin3":"076033","localeAltName":null},{"geonameid":6540774,"name":"Lagonegro","admin3":"076039","localeAltName":null},{"geonameid":6540775,"name":"Lauria","admin3":"076042","localeAltName":null},{"geonameid":6540776,"name":"Maschito","admin3":"076047","localeAltName":null},{"geonameid":6540777,"name":"Picerno","admin3":"076059","localeAltName":null},{"geonameid":6540778,"name":"Rapolla","admin3":"076064","localeAltName":null},{"geonameid":6540779,"name":"Trecchina","admin3":"076092","localeAltName":null},{"geonameid":6541270,"name":"Baragiano","admin3":"076010","localeAltName":null},{"geonameid":6541271,"name":"Bella","admin3":"076012","localeAltName":null},{"geonameid":6541272,"name":"Castelluccio Inferiore","admin3":"076022","localeAltName":null},{"geonameid":6541273,"name":"Rionero in Vulture","admin3":"076066","localeAltName":null},{"geonameid":6541274,"name":"Rivello","admin3":"076068","localeAltName":null},{"geonameid":6541275,"name":"San Chirico Raparo","admin3":"076074","localeAltName":null},{"geonameid":6541470,"name":"Potenza","admin3":"076063","localeAltName":null},{"geonameid":6541476,"name":"San Martino d'Agri","admin3":"076077","localeAltName":null},{"geonameid":6541743,"name":"Atella","admin3":"076006","localeAltName":null},{"geonameid":6541945,"name":"Maratea","admin3":"076044","localeAltName":null},{"geonameid":6541946,"name":"Sasso di Castalda","admin3":"076082","localeAltName":null},{"geonameid":6542067,"name":"San Paolo Albanese","admin3":"076020"},{"geonameid":6542068,"name":"Oppido Lucano","admin3":"076056","localeAltName":null},{"geonameid":6542098,"name":"Campomaggiore","admin3":"076017","localeAltName":null},{"geonameid":6542231,"name":"Marsicovetere","admin3":"076046","localeAltName":null},{"geonameid":6543295,"name":"Brienza","admin3":"076013","localeAltName":null}],"alternateNames":[{"alternatenameId":1348933,"geonameid":3170025,"isoLanguage":"it","alternateName":"Potenza","isPreferredName":true,"isShortName":true,"isColloquial":false,"isHistoric":false},{"alternatenameId":1352626,"geonameid":3182306,"isoLanguage":"it","alternateName":"Basilicata","isPreferredName":true,"isShortName":true,"isColloquial":false,"isHistoric":false}]},"__N_SSG":true}