{"pageProps":{"locale":"ro","admin2":{"geonameid":8334778,"name":"Comuna Boiţa","country":"RO","admin1":"33","admin2":"146021","admin3":"","latitude":"45.5790500","longitude":"24.2465100"},"admin1":{"geonameid":667267,"name":"Sibiu","admin1":"33"},"locations":[{"geonameid":684318,"name":"Boița","admin3":""},{"geonameid":682587,"name":"Castelu Turnu Roşu","admin3":""},{"geonameid":678514,"name":"Fabrica Tălmaciu","admin3":""},{"geonameid":678346,"name":"Feltrineli","admin3":""},{"geonameid":674992,"name":"Latrioara","admin3":""},{"geonameid":674965,"name":"Lazaret","admin3":""},{"geonameid":8063517,"name":"Lotrioara","admin3":""},{"geonameid":673620,"name":"Meghiş","admin3":""},{"geonameid":671445,"name":"Paltin","admin3":""},{"geonameid":670306,"name":"Podu de Fier","admin3":""}],"admin3":[],"alternateNames":[{"alternatenameId":5905350,"geonameid":667267,"isoLanguage":"de","alternateName":"Hermannstadt","isPreferredName":true,"isShortName":true,"isColloquial":false,"isHistoric":false}]},"__N_SSG":true}