{"pageProps":{"locale":"en","admin2":{"geonameid":5180809,"name":"Blair County","country":"US","admin1":"PA","admin2":"013","admin3":"","latitude":"40.4810000","longitude":"-78.3486000","localeAltName":null},"admin1":{"geonameid":6254927,"name":"Pennsylvania","admin1":"PA","localeAltName":"Pennsylvania"},"locations":[{"geonameid":5178195,"name":"Altoona","admin3":"02184","localeAltName":null},{"geonameid":5179845,"name":"Bellwood","admin3":"02680","localeAltName":null},{"geonameid":5184505,"name":"Claysburg","admin3":"31000","localeAltName":null},{"geonameid":5187508,"name":"Duncansville","admin3":"20248","localeAltName":null},{"geonameid":5187921,"name":"East Freedom","admin3":"27720","localeAltName":null},{"geonameid":5189926,"name":"Foot of Ten","admin3":"00852","localeAltName":null},{"geonameid":5191786,"name":"Grazierville","admin3":"71624","localeAltName":null},{"geonameid":5192035,"name":"Greenwood","admin3":"44328","localeAltName":null},{"geonameid":5193920,"name":"Hollidaysburg","admin3":"35224","localeAltName":null},{"geonameid":5196994,"name":"Lakemont","admin3":"44328","localeAltName":null},{"geonameid":5200055,"name":"Martinsburg","admin3":"47872","localeAltName":null},{"geonameid":5208552,"name":"Roaring Spring","admin3":"65256","localeAltName":null},{"geonameid":5215715,"name":"Tipton","admin3":"02680","localeAltName":null},{"geonameid":5216514,"name":"Tyrone","admin3":"78168","localeAltName":null},{"geonameid":5219574,"name":"Williamsburg","admin3":"85272","localeAltName":null}],"admin3":[{"geonameid":5178082,"name":"Township of Allegheny","admin3":"00852","localeAltName":null},{"geonameid":5178198,"name":"City of Altoona","admin3":"02184","localeAltName":null},{"geonameid":5178392,"name":"Township of Antis","admin3":"02680","localeAltName":null},{"geonameid":5179851,"name":"Borough of Bellwood","admin3":"05384"},{"geonameid":5180829,"name":"Township of Blair","admin3":"06872"},{"geonameid":5183459,"name":"Township of Catharine","admin3":"11760"},{"geonameid":5187511,"name":"Borough of Duncansville","admin3":"20248","localeAltName":null},{"geonameid":5190412,"name":"Township of Frankstown","admin3":"27600"},{"geonameid":5190466,"name":"Township of Freedom","admin3":"27720","localeAltName":null},{"geonameid":5191982,"name":"Township of Greenfield","admin3":"31000","localeAltName":null},{"geonameid":5193928,"name":"Borough of Hollidaysburg","admin3":"35224","localeAltName":null},{"geonameid":5194651,"name":"Township of Huston","admin3":"36496"},{"geonameid":5195693,"name":"Township of Juniata","admin3":"38592"},{"geonameid":5198770,"name":"Township of Logan","admin3":"44328","localeAltName":null},{"geonameid":5200058,"name":"Borough of Martinsburg","admin3":"47872","localeAltName":null},{"geonameid":5203332,"name":"Borough of Newry","admin3":"54024"},{"geonameid":5203820,"name":"Township of North Woodbury","admin3":"55592"},{"geonameid":5208554,"name":"Borough of Roaring Spring","admin3":"65256","localeAltName":null},{"geonameid":5212795,"name":"Township of Snyder","admin3":"71624","localeAltName":null},{"geonameid":5215283,"name":"Township of Taylor","admin3":"76160"},{"geonameid":5216524,"name":"Borough of Tyrone","admin3":"78168","localeAltName":null},{"geonameid":5216525,"name":"Township of Tyrone","admin3":"78176"},{"geonameid":5219581,"name":"Borough of Williamsburg","admin3":"85272","localeAltName":null},{"geonameid":5220004,"name":"Township of Woodbury","admin3":"86144"}],"alternateNames":[{"alternatenameId":2186547,"geonameid":6254927,"isoLanguage":"en","alternateName":"Pennsylvania","isPreferredName":true,"isShortName":true,"isColloquial":false,"isHistoric":false}]},"__N_SSG":true}