{"pageProps":{"locale":"ro","admin2":{"geonameid":668914,"name":"Comuna Râciu","country":"RO","admin1":"27","admin2":"118995","admin3":"","latitude":"46.7236100","longitude":"24.3874400"},"admin1":{"geonameid":672628,"name":"Mureş","admin1":"27"},"locations":[{"geonameid":683081,"name":"Căciulata","admin3":""},{"geonameid":11001504,"name":"Coasta Mare","admin3":""},{"geonameid":680470,"name":"Cotorinău","admin3":""},{"geonameid":679928,"name":"Curețe","admin3":""},{"geonameid":676401,"name":"Hagău","admin3":""},{"geonameid":674893,"name":"Leniș","admin3":""},{"geonameid":11001507,"name":"Nima Râciului","admin3":""},{"geonameid":672067,"name":"Obârșie","admin3":""},{"geonameid":670732,"name":"Pârâu Crucii","admin3":""},{"geonameid":668915,"name":"Râciu","admin3":""},{"geonameid":666998,"name":"Sânmartinu de Câmpie","admin3":""},{"geonameid":664331,"name":"Ulieș","admin3":""},{"geonameid":663393,"name":"Valea Sânmartinului","admin3":""},{"geonameid":663423,"name":"Valea Seacă","admin3":""},{"geonameid":663347,"name":"Valea Ulieșului","admin3":""}],"admin3":[],"alternateNames":[]},"__N_SSG":true}