{"pageProps":{"locale":"it","admin2":{"geonameid":2525763,"name":"Agrigento","country":"IT","admin1":"15","admin2":"AG","admin3":"","latitude":"37.4500000","longitude":"13.5000000","localeAltName":"Agrigento"},"admin1":{"geonameid":2523119,"name":"Sicilia","admin1":"15","localeAltName":null},"locations":[{"geonameid":2525764,"name":"Agrigento","admin3":"084001","localeAltName":null},{"geonameid":2525749,"name":"Alessandria della Rocca","admin3":"084002","localeAltName":null},{"geonameid":2525693,"name":"Aragona","admin3":"084003","localeAltName":null},{"geonameid":2525545,"name":"Bivona","admin3":"084004","localeAltName":null},{"geonameid":2525485,"name":"Burgio","admin3":"084005","localeAltName":null},{"geonameid":2525465,"name":"Calamonaci","admin3":"084006","localeAltName":null},{"geonameid":2525451,"name":"Caltabellotta","admin3":"084007","localeAltName":null},{"geonameid":2525441,"name":"Camastra","admin3":"084008","localeAltName":null},{"geonameid":2525433,"name":"Cammarata","admin3":"084009","localeAltName":null},{"geonameid":2525426,"name":"Campobello di Licata","admin3":"084010","localeAltName":null},{"geonameid":2525405,"name":"Canicattì","admin3":"084011","localeAltName":null},{"geonameid":2525084,"name":"Casteltermini","admin3":"084012","localeAltName":null},{"geonameid":2525076,"name":"Castrofilippo","admin3":"084013","localeAltName":null},{"geonameid":2525054,"name":"Cattolica Eraclea","admin3":"084014","localeAltName":null},{"geonameid":2524999,"name":"Cianciana","admin3":"084015","localeAltName":null},{"geonameid":2524954,"name":"Comitini","admin3":"084016","localeAltName":null},{"geonameid":2524786,"name":"Favara","admin3":"084017","localeAltName":null},{"geonameid":2524625,"name":"Giardina Gallotti","admin3":"084001","localeAltName":null},{"geonameid":2524561,"name":"Grotte","admin3":"084018","localeAltName":null},{"geonameid":2524506,"name":"Joppolo Giancaxio","admin3":"084019","localeAltName":null},{"geonameid":2524459,"name":"Lampedusa","admin3":"084020","localeAltName":null},{"geonameid":2524393,"name":"Licata","admin3":"084021","localeAltName":null},{"geonameid":2524361,"name":"Lucca Sicula","admin3":"084022","localeAltName":null},{"geonameid":2524179,"name":"Menfi","admin3":"084023","localeAltName":null},{"geonameid":2524078,"name":"Montallegro","admin3":"084024","localeAltName":null},{"geonameid":2524061,"name":"Montevago","admin3":"084025","localeAltName":null},{"geonameid":2524022,"name":"Naro","admin3":"084026","localeAltName":null},{"geonameid":2523908,"name":"Palma di Montechiaro","admin3":"084027","localeAltName":null},{"geonameid":2523705,"name":"Porto Empedocle","admin3":"084028","localeAltName":null},{"geonameid":2523659,"name":"Racalmuto","admin3":"084029","localeAltName":null},{"geonameid":2523654,"name":"Raffadali","admin3":"084030","localeAltName":null},{"geonameid":2523638,"name":"Ravanusa","admin3":"084031","localeAltName":null},{"geonameid":2523636,"name":"Realmonte","admin3":"084032","localeAltName":null},{"geonameid":2523619,"name":"Ribera","admin3":"084033","localeAltName":null},{"geonameid":2523533,"name":"Sambuca di Sicilia","admin3":"084034","localeAltName":null},{"geonameid":2523519,"name":"San Biagio Platani","admin3":"084035","localeAltName":null},{"geonameid":2523462,"name":"San Giovanni Gemini","admin3":"084036","localeAltName":null},{"geonameid":2523441,"name":"San Leone Mosè","admin3":"084001","localeAltName":null},{"geonameid":2523306,"name":"Sant'Angelo Muxaro","admin3":"084039","localeAltName":null},{"geonameid":8950129,"name":"Sant'Anna","admin3":"084007","localeAltName":null},{"geonameid":2523353,"name":"Santa Elisabetta","admin3":"084037","localeAltName":null},{"geonameid":2523330,"name":"Santa Margherita di Belice","admin3":"084038","localeAltName":null},{"geonameid":2523247,"name":"Santo Stefano Quisquina","admin3":"084040","localeAltName":null},{"geonameid":2523194,"name":"Sciacca","admin3":"084041","localeAltName":null},{"geonameid":8949842,"name":"Secca Grande","admin3":"084033","localeAltName":null},{"geonameid":2523116,"name":"Siculiana","admin3":"084042","localeAltName":null},{"geonameid":2522762,"name":"Villafranca Sicula","admin3":"084043","localeAltName":null},{"geonameid":8449991,"name":"Villaseta","admin3":"084001","localeAltName":null}],"admin3":[{"geonameid":6537775,"name":"Alessandria della Rocca","admin3":"084002","localeAltName":null},{"geonameid":6537776,"name":"Cammarata","admin3":"084009","localeAltName":null},{"geonameid":6537777,"name":"Casteltermini","admin3":"084012","localeAltName":null},{"geonameid":6537778,"name":"Castrofilippo","admin3":"084013","localeAltName":null},{"geonameid":6537779,"name":"Cianciana","admin3":"084015","localeAltName":null},{"geonameid":6537780,"name":"Menfi","admin3":"084023","localeAltName":null},{"geonameid":6537781,"name":"Racalmuto","admin3":"084029","localeAltName":null},{"geonameid":6537782,"name":"Ravanusa","admin3":"084031","localeAltName":null},{"geonameid":6537783,"name":"San Giovanni Gemini","admin3":"084036","localeAltName":null},{"geonameid":6537784,"name":"Santa Elisabetta","admin3":"084037","localeAltName":null},{"geonameid":6537785,"name":"Santa Margherita di Belice","admin3":"084038","localeAltName":null},{"geonameid":6539169,"name":"Campobello di Licata","admin3":"084010","localeAltName":null},{"geonameid":6539170,"name":"Canicattì","admin3":"084011","localeAltName":null},{"geonameid":6539171,"name":"Joppolo Giancaxio","admin3":"084019","localeAltName":null},{"geonameid":6539172,"name":"Lucca Sicula","admin3":"084022","localeAltName":null},{"geonameid":6539173,"name":"Raffadali","admin3":"084030","localeAltName":null},{"geonameid":6539174,"name":"Ribera","admin3":"084033","localeAltName":null},{"geonameid":6539175,"name":"Sambuca di Sicilia","admin3":"084034","localeAltName":null},{"geonameid":6539176,"name":"Villafranca Sicula","admin3":"084043","localeAltName":null},{"geonameid":6539869,"name":"Aragona","admin3":"084003","localeAltName":null},{"geonameid":6539870,"name":"Siculiana","admin3":"084042","localeAltName":null},{"geonameid":6540059,"name":"Bivona","admin3":"084004","localeAltName":null},{"geonameid":6540060,"name":"Burgio","admin3":"084005","localeAltName":null},{"geonameid":6540061,"name":"Grotte","admin3":"084018","localeAltName":null},{"geonameid":6540839,"name":"Calamonaci","admin3":"084006","localeAltName":null},{"geonameid":6540840,"name":"Comitini","admin3":"084016","localeAltName":null},{"geonameid":6540841,"name":"Montallegro","admin3":"084024","localeAltName":null},{"geonameid":6540842,"name":"Naro","admin3":"084026","localeAltName":null},{"geonameid":6540843,"name":"Palma di Montechiaro","admin3":"084027","localeAltName":null},{"geonameid":6540844,"name":"Realmonte","admin3":"084032","localeAltName":null},{"geonameid":6541337,"name":"Caltabellotta","admin3":"084007","localeAltName":null},{"geonameid":6541338,"name":"Camastra","admin3":"084008","localeAltName":null},{"geonameid":6541339,"name":"Favara","admin3":"084017","localeAltName":null},{"geonameid":6541340,"name":"Licata","admin3":"084021","localeAltName":null},{"geonameid":6541341,"name":"Porto Empedocle","admin3":"084028","localeAltName":null},{"geonameid":6541342,"name":"San Biagio Platani","admin3":"084035","localeAltName":null},{"geonameid":6541343,"name":"Santo Stefano Quisquina","admin3":"084040","localeAltName":null},{"geonameid":6541460,"name":"Cattolica Eraclea","admin3":"084014","localeAltName":null},{"geonameid":6541767,"name":"Montevago","admin3":"084025","localeAltName":null},{"geonameid":6541768,"name":"Sant'Angelo Muxaro","admin3":"084039","localeAltName":null},{"geonameid":6541860,"name":"Agrigento","admin3":"084001","localeAltName":null},{"geonameid":6542103,"name":"Sciacca","admin3":"084041","localeAltName":null},{"geonameid":6542197,"name":"Lampedusa e Linosa","admin3":"084020","localeAltName":null}],"alternateNames":[{"alternatenameId":1980456,"geonameid":2523119,"isoLanguage":"en","alternateName":"Sicily","isPreferredName":true,"isShortName":true,"isColloquial":false,"isHistoric":false},{"alternatenameId":1183888,"geonameid":2525763,"isoLanguage":"it","alternateName":"Agrigento","isPreferredName":true,"isShortName":true,"isColloquial":false,"isHistoric":false},{"alternatenameId":2431338,"geonameid":2525763,"isoLanguage":"de","alternateName":"Agrigent","isPreferredName":true,"isShortName":true,"isColloquial":false,"isHistoric":false}]},"__N_SSG":true}