{"pageProps":{"locale":"en","admin1":{"geonameid":5101760,"name":"New Jersey","country":"US","admin1":"NJ","latitude":"40.1670600","longitude":"-74.4998700","localeAltName":"New Jersey"},"admin2":[{"geonameid":4500561,"name":"Atlantic County","admin2":"001","localeAltName":null},{"geonameid":5095598,"name":"Bergen County","admin2":"003","localeAltName":null},{"geonameid":4500994,"name":"Burlington County","admin2":"005","localeAltName":null},{"geonameid":4501019,"name":"Camden County","admin2":"007","localeAltName":null},{"geonameid":4501053,"name":"Cape May County","admin2":"009","localeAltName":null},{"geonameid":4501427,"name":"Cumberland County","admin2":"011","localeAltName":null},{"geonameid":5097707,"name":"Essex County","admin2":"013","localeAltName":null},{"geonameid":4501944,"name":"Gloucester County","admin2":"015","localeAltName":null},{"geonameid":5099357,"name":"Hudson County","admin2":"017","localeAltName":null},{"geonameid":5099381,"name":"Hunterdon County","admin2":"019","localeAltName":null},{"geonameid":5101090,"name":"Mercer County","admin2":"021","localeAltName":null},{"geonameid":5101160,"name":"Middlesex County","admin2":"023","localeAltName":null},{"geonameid":5101305,"name":"Monmouth County","admin2":"025","localeAltName":null},{"geonameid":5101405,"name":"Morris County","admin2":"027","localeAltName":null},{"geonameid":4503355,"name":"Ocean County","admin2":"029","localeAltName":null},{"geonameid":5102445,"name":"Passaic County","admin2":"031","localeAltName":null},{"geonameid":4503949,"name":"Salem County","admin2":"033","localeAltName":null},{"geonameid":5104759,"name":"Somerset County","admin2":"035","localeAltName":null},{"geonameid":5105168,"name":"Sussex County","admin2":"037","localeAltName":null},{"geonameid":5105640,"name":"Union County","admin2":"039","localeAltName":null},{"geonameid":5106044,"name":"Warren County","admin2":"041","localeAltName":null}],"admin3":[],"country":{"geonameid":6252001,"country":"US","name":"United States","localeAltName":null},"alternateNames":[{"alternatenameId":2089555,"geonameid":5101760,"isoLanguage":"en","alternateName":"New Jersey","isPreferredName":true,"isShortName":true,"isColloquial":false,"isHistoric":false},{"alternatenameId":2422318,"geonameid":6252001,"isoLanguage":"de","alternateName":"USA","isPreferredName":true,"isShortName":true,"isColloquial":false,"isHistoric":false}]},"__N_SSG":true}