{"pageProps":{"locale":"en","admin2":{"geonameid":4198645,"name":"Gwinnett County","country":"US","admin1":"GA","admin2":"135","admin3":"","latitude":"33.9617300","longitude":"-84.0236300","localeAltName":null},"admin1":{"geonameid":4197000,"name":"Georgia","admin1":"GA","localeAltName":"Georgia"},"locations":[{"geonameid":4182083,"name":"Berkeley Lake","admin3":"","localeAltName":null},{"geonameid":4185110,"name":"Buford","admin3":"","localeAltName":null},{"geonameid":4190523,"name":"Dacula","admin3":"","localeAltName":null},{"geonameid":4192289,"name":"Duluth","admin3":"","localeAltName":null},{"geonameid":4197968,"name":"Grayson","admin3":"","localeAltName":null},{"geonameid":4205196,"name":"Lawrenceville","admin3":"","localeAltName":null},{"geonameid":4205724,"name":"Lilburn","admin3":"","localeAltName":null},{"geonameid":4211428,"name":"Mountain Park","admin3":"","localeAltName":null},{"geonameid":4212888,"name":"Norcross","admin3":"","localeAltName":null},{"geonameid":4215114,"name":"Peachtree Corners","admin3":"","localeAltName":null},{"geonameid":4223413,"name":"Snellville","admin3":"","localeAltName":null},{"geonameid":4225039,"name":"Sugar Hill","admin3":"","localeAltName":null},{"geonameid":4225309,"name":"Suwanee","admin3":"","localeAltName":null}],"admin3":[{"geonameid":7169378,"name":"City of Duluth","admin3":"7169378"},{"geonameid":7317703,"name":"City of Grayson","admin3":"7317703"},{"geonameid":7317741,"name":"City of Berkeley Lake","admin3":"7317741"},{"geonameid":7317768,"name":"City of Buford","admin3":"7317768"},{"geonameid":7317832,"name":"City of Dacula","admin3":"7317832"},{"geonameid":7317902,"name":"City of Norcross","admin3":"7317902"},{"geonameid":7318041,"name":"City of Lawrenceville","admin3":"7318041"},{"geonameid":7318051,"name":"City of Lilburn","admin3":"7318051"},{"geonameid":7318120,"name":"City of Snellville","admin3":"7318120"},{"geonameid":7318146,"name":"City of Suwanee","admin3":"7318146"},{"geonameid":11788535,"name":"City of Peachtree Corners","admin3":"11788535"}],"alternateNames":[{"alternatenameId":2089570,"geonameid":4197000,"isoLanguage":"en","alternateName":"Georgia","isPreferredName":true,"isShortName":true,"isColloquial":false,"isHistoric":false}]},"__N_SSG":true}