{"pageProps":{"locale":"en","admin2":{"geonameid":6544290,"name":"Gemeente Bronckhorst","country":"NL","admin1":"03","admin2":"1876","admin3":"","latitude":"52.0440100","longitude":"6.3037800"},"admin1":{"geonameid":2755634,"name":"Provincie Gelderland","admin1":"03"},"locations":[{"geonameid":2760035,"name":"Achterdrempt","admin3":""},{"geonameid":2759581,"name":"Baak","admin3":""},{"geonameid":2759502,"name":"Bakermark","admin3":""},{"geonameid":2759260,"name":"Bekveld","admin3":""},{"geonameid":2758224,"name":"Bronkhorst","admin3":""},{"geonameid":2757894,"name":"Covik","admin3":""},{"geonameid":2757660,"name":"De Emmer","admin3":""},{"geonameid":2757351,"name":"De Leuke","admin3":""},{"geonameid":2757299,"name":"De Meene","admin3":""},{"geonameid":2757371,"name":"Delden","admin3":""},{"geonameid":2756634,"name":"Drempt","admin3":""},{"geonameid":2756486,"name":"Dunsborg","admin3":""},{"geonameid":2756220,"name":"Eldrik","admin3":""},{"geonameid":2755458,"name":"Gooi","admin3":""},{"geonameid":2754935,"name":"Halle","admin3":""},{"geonameid":2754934,"name":"Halle-Heide","admin3":""},{"geonameid":2754933,"name":"Halle-Nijman","admin3":""},{"geonameid":2754579,"name":"Heidenhoek","admin3":""},{"geonameid":2754395,"name":"Hengelo","admin3":""},{"geonameid":2753689,"name":"Hoog-Keppel","admin3":""},{"geonameid":2753423,"name":"Hummelo","admin3":""},{"geonameid":2752986,"name":"Keijenborg","admin3":""},{"geonameid":2752300,"name":"Kranenburg","admin3":""},{"geonameid":2752107,"name":"Laag-Keppel","admin3":""},{"geonameid":2751589,"name":"Linde","admin3":""},{"geonameid":6544700,"name":"Meuhoek","admin3":""},{"geonameid":2750590,"name":"Mossel","admin3":""},{"geonameid":2750433,"name":"Neijenkamp","admin3":""},{"geonameid":2749868,"name":"Noordink","admin3":""},{"geonameid":2749673,"name":"Olburgen","admin3":""},{"geonameid":2749397,"name":"Oosterwijk","admin3":""},{"geonameid":2748463,"name":"Priesterink","admin3":""},{"geonameid":2748203,"name":"Rha","admin3":""},{"geonameid":2746794,"name":"Steenderen","admin3":""},{"geonameid":2746232,"name":"Toldijk","admin3":""},{"geonameid":2745802,"name":"Varssel","admin3":""},{"geonameid":2745713,"name":"Veldhoek","admin3":""},{"geonameid":2745688,"name":"Veldwijk","admin3":""},{"geonameid":2745669,"name":"Velswijk","admin3":""},{"geonameid":2745575,"name":"Vierakker","admin3":""},{"geonameid":2745258,"name":"Vorden","admin3":""},{"geonameid":2744985,"name":"Wassinkbrink","admin3":""},{"geonameid":2744573,"name":"Wichmond","admin3":""},{"geonameid":2744348,"name":"Winkelshoek","admin3":""},{"geonameid":2744294,"name":"Wittebrink","admin3":""},{"geonameid":2743963,"name":"Zelhem","admin3":""}],"admin3":[],"alternateNames":[{"alternatenameId":11907787,"geonameid":2755634,"isoLanguage":"de","alternateName":"Gelderland","isPreferredName":true,"isShortName":true,"isColloquial":false,"isHistoric":false}]},"__N_SSG":true}