{"pageProps":{"locale":"en","admin2":{"geonameid":2751688,"name":"Gemeente Leusden","country":"NL","admin1":"09","admin2":"0327","admin3":"","latitude":"52.1241800","longitude":"5.4124500"},"admin1":{"geonameid":2745909,"name":"Provincie Utrecht","admin1":"09"},"locations":[{"geonameid":2759995,"name":"Achterveld","admin3":""},{"geonameid":2759640,"name":"Asschat","admin3":""},{"geonameid":2757076,"name":"De Ruif","admin3":""},{"geonameid":2757183,"name":"Den Treek","admin3":""},{"geonameid":2753273,"name":"Jannendorp","admin3":""},{"geonameid":2751687,"name":"Leusden","admin3":""},{"geonameid":2751686,"name":"Leusden-Zuid","admin3":""},{"geonameid":2750532,"name":"Musschendorp","admin3":""},{"geonameid":2748928,"name":"Oud-Leusden","admin3":""},{"geonameid":2747418,"name":"Schutterhoef","admin3":""},{"geonameid":2747040,"name":"Snorrenhoef","admin3":""},{"geonameid":2746643,"name":"Stoutenburg","admin3":""}],"admin3":[],"alternateNames":[{"alternatenameId":11907793,"geonameid":2745909,"isoLanguage":"de","alternateName":"Utrecht","isPreferredName":true,"isShortName":true,"isColloquial":false,"isHistoric":false}]},"__N_SSG":true}