{"pageProps":{"locale":"it","admin1":{"geonameid":2525468,"name":"Calabria","country":"IT","admin1":"03","latitude":"39.0000000","longitude":"16.5000000","localeAltName":"Calabria"},"admin2":[{"geonameid":2525058,"name":"Provincia di Catanzaro","admin2":"CZ","localeAltName":"Catanzaro"},{"geonameid":2524906,"name":"Provincia di Cosenza","admin2":"CS","localeAltName":"Cosenza"},{"geonameid":6458615,"name":"Provincia di Crotone","admin2":"KR","localeAltName":"Crotone"},{"geonameid":2523629,"name":"Provincia di Reggio Calabria","admin2":"RC","localeAltName":"Reggio Calabria"},{"geonameid":6457405,"name":"Provincia di Vibo-Valentia","admin2":"VV","localeAltName":"Vibo Valentia"}],"admin3":[],"country":{"geonameid":3175395,"country":"IT","name":"Italian Republic","localeAltName":"Italia"},"alternateNames":[{"alternatenameId":1182940,"geonameid":2523629,"isoLanguage":"it","alternateName":"Reggio Calabria","isPreferredName":true,"isShortName":true,"isColloquial":false,"isHistoric":false},{"alternatenameId":1183506,"geonameid":2524906,"isoLanguage":"it","alternateName":"Cosenza","isPreferredName":true,"isShortName":true,"isColloquial":false,"isHistoric":false},{"alternatenameId":1183552,"geonameid":2525058,"isoLanguage":"it","alternateName":"Catanzaro","isPreferredName":true,"isShortName":true,"isColloquial":false,"isHistoric":false},{"alternatenameId":1621273,"geonameid":2525468,"isoLanguage":"it","alternateName":"Calabria","isPreferredName":true,"isShortName":true,"isColloquial":false,"isHistoric":false},{"alternatenameId":1563662,"geonameid":3175395,"isoLanguage":"it","alternateName":"Italia","isPreferredName":true,"isShortName":true,"isColloquial":false,"isHistoric":false},{"alternatenameId":2431259,"geonameid":6457405,"isoLanguage":"it","alternateName":"Vibo Valentia","isPreferredName":true,"isShortName":true,"isColloquial":false,"isHistoric":false},{"alternatenameId":2431260,"geonameid":6458615,"isoLanguage":"it","alternateName":"Crotone","isPreferredName":true,"isShortName":true,"isColloquial":false,"isHistoric":false}]},"__N_SSG":true}