{"pageProps":{"locale":"it","admin1":{"geonameid":3181042,"name":"Campania","country":"IT","admin1":"04","latitude":"40.9105600","longitude":"14.9205300","localeAltName":"Campania"},"admin2":[{"geonameid":3172391,"name":"Napoli","admin2":"NA","localeAltName":"Napoli"},{"geonameid":3182649,"name":"Provincia di Avellino","admin2":"AV","localeAltName":"Avellino"},{"geonameid":3182178,"name":"Provincia di Benevento","admin2":"BN","localeAltName":"Benevento"},{"geonameid":3179865,"name":"Provincia di Caserta","admin2":"CE","localeAltName":"Caserta"},{"geonameid":3168670,"name":"Provincia di Salerno","admin2":"SA","localeAltName":"Salerno"}],"admin3":[],"country":{"geonameid":3175395,"country":"IT","name":"Italian Republic","localeAltName":"Italia"},"alternateNames":[{"alternatenameId":1348502,"geonameid":3168670,"isoLanguage":"it","alternateName":"Salerno","isPreferredName":true,"isShortName":true,"isColloquial":false,"isHistoric":false},{"alternatenameId":1349642,"geonameid":3172391,"isoLanguage":"it","alternateName":"Napoli","isPreferredName":true,"isShortName":true,"isColloquial":false,"isHistoric":false},{"alternatenameId":2431265,"geonameid":3172391,"isoLanguage":"de","alternateName":"Neapel","isPreferredName":true,"isShortName":true,"isColloquial":false,"isHistoric":false},{"alternatenameId":1563662,"geonameid":3175395,"isoLanguage":"it","alternateName":"Italia","isPreferredName":true,"isShortName":true,"isColloquial":false,"isHistoric":false},{"alternatenameId":1351935,"geonameid":3179865,"isoLanguage":"it","alternateName":"Caserta","isPreferredName":true,"isShortName":true,"isColloquial":false,"isHistoric":false},{"alternatenameId":1352304,"geonameid":3181042,"isoLanguage":"it","alternateName":"Campania","isPreferredName":true,"isShortName":true,"isColloquial":false,"isHistoric":false},{"alternatenameId":1352596,"geonameid":3182178,"isoLanguage":"it","alternateName":"Benevento","isPreferredName":true,"isShortName":true,"isColloquial":false,"isHistoric":false},{"alternatenameId":2431262,"geonameid":3182178,"isoLanguage":"de","alternateName":"Benevent","isPreferredName":true,"isShortName":true,"isColloquial":false,"isHistoric":false},{"alternatenameId":1352740,"geonameid":3182649,"isoLanguage":"it","alternateName":"Avellino","isPreferredName":true,"isShortName":true,"isColloquial":false,"isHistoric":false}]},"__N_SSG":true}