{"pageProps":{"locale":"it","admin1":{"geonameid":3177401,"name":"Emilia-Romagna","country":"IT","admin1":"05","latitude":"44.5444000","longitude":"10.9836100","localeAltName":"Emilia-Romagna"},"admin2":[{"geonameid":3181927,"name":"Bologna","admin2":"BO","localeAltName":"Bologna"},{"geonameid":3177088,"name":"Provincia di Ferrara","admin2":"FE","localeAltName":"Ferrara"},{"geonameid":3176745,"name":"Provincia di Forlì-Cesena","admin2":"FC","localeAltName":"Forlì-Cesena"},{"geonameid":3173330,"name":"Provincia di Modena","admin2":"MO","localeAltName":"Modena"},{"geonameid":3171456,"name":"Provincia di Parma","admin2":"PR","localeAltName":"Parma"},{"geonameid":3171057,"name":"Provincia di Piacenza","admin2":"PC","localeAltName":"Piacenza"},{"geonameid":3169560,"name":"Provincia di Ravenna","admin2":"RA","localeAltName":"Ravenna"},{"geonameid":3169524,"name":"Provincia di Reggio Emilia","admin2":"RE","localeAltName":"Reggio Emilia"},{"geonameid":6457404,"name":"Provincia di Rimini","admin2":"RN","localeAltName":"Rimini"}],"admin3":[],"country":{"geonameid":3175395,"country":"IT","name":"Italian Republic","localeAltName":"Italia"},"alternateNames":[{"alternatenameId":1348790,"geonameid":3169524,"isoLanguage":"it","alternateName":"Reggio Emilia","isPreferredName":true,"isShortName":true,"isColloquial":false,"isHistoric":false},{"alternatenameId":1348798,"geonameid":3169560,"isoLanguage":"it","alternateName":"Ravenna","isPreferredName":true,"isShortName":true,"isColloquial":false,"isHistoric":false},{"alternatenameId":2431280,"geonameid":3171057,"isoLanguage":"it","alternateName":"Piacenza","isPreferredName":true,"isShortName":true,"isColloquial":false,"isHistoric":false},{"alternatenameId":2431279,"geonameid":3171456,"isoLanguage":"it","alternateName":"Parma","isPreferredName":true,"isShortName":true,"isColloquial":false,"isHistoric":false},{"alternatenameId":2431276,"geonameid":3173330,"isoLanguage":"it","alternateName":"Modena","isPreferredName":true,"isShortName":true,"isColloquial":false,"isHistoric":false},{"alternatenameId":1563662,"geonameid":3175395,"isoLanguage":"it","alternateName":"Italia","isPreferredName":true,"isShortName":true,"isColloquial":false,"isHistoric":false},{"alternatenameId":2431274,"geonameid":3176745,"isoLanguage":"it","alternateName":"Forlì-Cesena","isPreferredName":true,"isShortName":true,"isColloquial":false,"isHistoric":false},{"alternatenameId":1351186,"geonameid":3177088,"isoLanguage":"it","alternateName":"Ferrara","isPreferredName":true,"isShortName":true,"isColloquial":false,"isHistoric":false},{"alternatenameId":1351276,"geonameid":3177401,"isoLanguage":"it","alternateName":"Emilia-Romagna","isPreferredName":true,"isShortName":true,"isColloquial":false,"isHistoric":false},{"alternatenameId":2431270,"geonameid":3181927,"isoLanguage":"it","alternateName":"Bologna","isPreferredName":true,"isShortName":true,"isColloquial":false,"isHistoric":false},{"alternatenameId":2431287,"geonameid":6457404,"isoLanguage":"it","alternateName":"Rimini","isPreferredName":true,"isShortName":true,"isColloquial":false,"isHistoric":false}]},"__N_SSG":true}