{"pageProps":{"locale":"it","admin1":{"geonameid":3174004,"name":"Marche","country":"IT","admin1":"10","latitude":"43.5000000","longitude":"13.2500000","localeAltName":"Marche"},"admin2":[{"geonameid":6955471,"name":"Province of Fermo","admin2":"FM","localeAltName":null},{"geonameid":3183087,"name":"Provincia di Ancona","admin2":"AN","localeAltName":"Ancona"},{"geonameid":3182748,"name":"Provincia di Ascoli Piceno","admin2":"AP","localeAltName":"Ascoli Piceno"},{"geonameid":3174379,"name":"Provincia di Macerata","admin2":"MC","localeAltName":"Macerata"},{"geonameid":3171172,"name":"Provincia di Pesaro e Urbino","admin2":"PU","localeAltName":"Pesaro e Urbino"}],"admin3":[],"country":{"geonameid":3175395,"country":"IT","name":"Italian Republic","localeAltName":"Italia"},"alternateNames":[{"alternatenameId":1349260,"geonameid":3171172,"isoLanguage":"it","alternateName":"Pesaro e Urbino","isPreferredName":true,"isShortName":true,"isColloquial":false,"isHistoric":false},{"alternatenameId":2431313,"geonameid":3171172,"isoLanguage":"de","alternateName":"Pesaro-Urbino","isPreferredName":true,"isShortName":true,"isColloquial":false,"isHistoric":false},{"alternatenameId":2431314,"geonameid":3171172,"isoLanguage":"en","alternateName":"Pesaro and Urbino","isPreferredName":true,"isShortName":true,"isColloquial":false,"isHistoric":false},{"alternatenameId":1350130,"geonameid":3174004,"isoLanguage":"it","alternateName":"Marche","isPreferredName":true,"isShortName":true,"isColloquial":false,"isHistoric":false},{"alternatenameId":1350131,"geonameid":3174004,"isoLanguage":"en","alternateName":"The Marches","isPreferredName":true,"isShortName":true,"isColloquial":false,"isHistoric":false},{"alternatenameId":1350274,"geonameid":3174379,"isoLanguage":"it","alternateName":"Macerata","isPreferredName":true,"isShortName":true,"isColloquial":false,"isHistoric":false},{"alternatenameId":1563662,"geonameid":3175395,"isoLanguage":"it","alternateName":"Italia","isPreferredName":true,"isShortName":true,"isColloquial":false,"isHistoric":false},{"alternatenameId":1352772,"geonameid":3182748,"isoLanguage":"it","alternateName":"Ascoli Piceno","isPreferredName":true,"isShortName":true,"isColloquial":false,"isHistoric":false},{"alternatenameId":1352906,"geonameid":3183087,"isoLanguage":"it","alternateName":"Ancona","isPreferredName":true,"isShortName":true,"isColloquial":false,"isHistoric":false}]},"__N_SSG":true}