{"pageProps":{"locale":"it","admin1":{"geonameid":2523228,"name":"Sardegna","country":"IT","admin1":"14","latitude":"40.0000000","longitude":"9.0000000","localeAltName":null},"admin2":[{"geonameid":11550038,"name":"Provincia del Sud Sardegna","admin2":"SU","localeAltName":null},{"geonameid":2525471,"name":"Provincia di Cagliari","admin2":"CA","localeAltName":"Cagliari"},{"geonameid":3172153,"name":"Provincia di Nuoro","admin2":"NU","localeAltName":"Nuoro"},{"geonameid":2523962,"name":"Provincia di Oristano","admin2":"OR","localeAltName":"Oristano"},{"geonameid":3167094,"name":"Provincia di Sassari","admin2":"SS","localeAltName":"Sassari"}],"admin3":[],"country":{"geonameid":3175395,"country":"IT","name":"Italian Republic","localeAltName":"Italia"},"alternateNames":[{"alternatenameId":2431335,"geonameid":2523962,"isoLanguage":"it","alternateName":"Oristano","isPreferredName":true,"isShortName":true,"isColloquial":false,"isHistoric":false},{"alternatenameId":1183740,"geonameid":2525471,"isoLanguage":"it","alternateName":"Cagliari","isPreferredName":true,"isShortName":true,"isColloquial":false,"isHistoric":false},{"alternatenameId":1347966,"geonameid":3167094,"isoLanguage":"it","alternateName":"Sassari","isPreferredName":true,"isShortName":true,"isColloquial":false,"isHistoric":false},{"alternatenameId":1349547,"geonameid":3172153,"isoLanguage":"it","alternateName":"Nuoro","isPreferredName":true,"isShortName":true,"isColloquial":false,"isHistoric":false},{"alternatenameId":1563662,"geonameid":3175395,"isoLanguage":"it","alternateName":"Italia","isPreferredName":true,"isShortName":true,"isColloquial":false,"isHistoric":false}]},"__N_SSG":true}