{"pageProps":{"locale":"it","admin1":{"geonameid":3165361,"name":"Toscana","country":"IT","admin1":"16","latitude":"43.4166700","longitude":"11.0000000","localeAltName":"Toscana"},"admin2":[{"geonameid":3182882,"name":"Province of Arezzo","admin2":"AR","localeAltName":null},{"geonameid":3176958,"name":"Province of Florence","admin2":"FI","localeAltName":null},{"geonameid":3170646,"name":"Province of Pisa","admin2":"PI","localeAltName":null},{"geonameid":3175784,"name":"Provincia di Grosseto","admin2":"GR","localeAltName":"Grosseto"},{"geonameid":3174658,"name":"Provincia di Livorno","admin2":"LI","localeAltName":"Livorno"},{"geonameid":3174529,"name":"Provincia di Lucca","admin2":"LU","localeAltName":"Lucca"},{"geonameid":3173767,"name":"Provincia di Massa-Carrara","admin2":"MS","localeAltName":"Massa-Carrara"},{"geonameid":3170620,"name":"Provincia di Pistoia","admin2":"PT","localeAltName":"Pistoia"},{"geonameid":6458618,"name":"Provincia di Prato","admin2":"PO","localeAltName":"Prato"},{"geonameid":3166546,"name":"Provincia di Siena","admin2":"SI","localeAltName":"Siena"}],"admin3":[],"country":{"geonameid":3175395,"country":"IT","name":"Italian Republic","localeAltName":"Italia"},"alternateNames":[{"alternatenameId":1347493,"geonameid":3165361,"isoLanguage":"it","alternateName":"Toscana","isPreferredName":true,"isShortName":true,"isColloquial":false,"isHistoric":false},{"alternatenameId":1347833,"geonameid":3166546,"isoLanguage":"it","alternateName":"Siena","isPreferredName":true,"isShortName":true,"isColloquial":false,"isHistoric":false},{"alternatenameId":1349128,"geonameid":3170620,"isoLanguage":"it","alternateName":"Pistoia","isPreferredName":true,"isShortName":true,"isColloquial":false,"isHistoric":false},{"alternatenameId":2431347,"geonameid":3173767,"isoLanguage":"it","alternateName":"Massa-Carrara","isPreferredName":true,"isShortName":true,"isColloquial":false,"isHistoric":false},{"alternatenameId":1350306,"geonameid":3174529,"isoLanguage":"it","alternateName":"Lucca","isPreferredName":true,"isShortName":true,"isColloquial":false,"isHistoric":false},{"alternatenameId":1350342,"geonameid":3174658,"isoLanguage":"it","alternateName":"Livorno","isPreferredName":true,"isShortName":true,"isColloquial":false,"isHistoric":false},{"alternatenameId":1563662,"geonameid":3175395,"isoLanguage":"it","alternateName":"Italia","isPreferredName":true,"isShortName":true,"isColloquial":false,"isHistoric":false},{"alternatenameId":1350749,"geonameid":3175784,"isoLanguage":"it","alternateName":"Grosseto","isPreferredName":true,"isShortName":true,"isColloquial":false,"isHistoric":false},{"alternatenameId":2431349,"geonameid":6458618,"isoLanguage":"it","alternateName":"Prato","isPreferredName":true,"isShortName":true,"isColloquial":false,"isHistoric":false}]},"__N_SSG":true}