{"pageProps":{"locale":"it","admin1":{"geonameid":3165244,"name":"Trentino-Alto Adige","country":"IT","admin1":"17","latitude":"46.5000000","longitude":"11.3333300","localeAltName":null},"admin2":[{"geonameid":3181912,"name":"Bolzano","admin2":"BZ","localeAltName":"Bolzano"},{"geonameid":3165241,"name":"Provincia autonoma di Trento","admin2":"TN","localeAltName":"Trento"}],"admin3":[],"country":{"geonameid":3175395,"country":"IT","name":"Italian Republic","localeAltName":"Italia"},"alternateNames":[{"alternatenameId":1347438,"geonameid":3165241,"isoLanguage":"it","alternateName":"Trento","isPreferredName":true,"isShortName":true,"isColloquial":false,"isHistoric":false},{"alternatenameId":1347440,"geonameid":3165241,"isoLanguage":"de","alternateName":"Provinz Trento","isPreferredName":true,"isShortName":true,"isColloquial":false,"isHistoric":false},{"alternatenameId":2431354,"geonameid":3165241,"isoLanguage":"en","alternateName":"Province of Trente","isPreferredName":true,"isShortName":true,"isColloquial":false,"isHistoric":false},{"alternatenameId":1563662,"geonameid":3175395,"isoLanguage":"it","alternateName":"Italia","isPreferredName":true,"isShortName":true,"isColloquial":false,"isHistoric":false},{"alternatenameId":1352508,"geonameid":3181912,"isoLanguage":"it","alternateName":"Bolzano","isPreferredName":true,"isShortName":true,"isColloquial":false,"isHistoric":false},{"alternatenameId":1352510,"geonameid":3181912,"isoLanguage":"de","alternateName":"Bozen","isPreferredName":true,"isShortName":true,"isColloquial":false,"isHistoric":false}]},"__N_SSG":true}