{"pageProps":{"locale":"de","admin2":{"geonameid":8718162,"name":"Lucerne-Land District","country":"CH","admin1":"LU","admin2":"312","admin3":"","latitude":"47.0404600","longitude":"8.2927100"},"admin1":{"geonameid":2659810,"name":"Kanton Luzern","admin1":"LU"},"locations":[{"geonameid":2661862,"name":"Adligenswil","admin3":"1051"},{"geonameid":2661350,"name":"Buchrain","admin3":"1052"},{"geonameid":2660953,"name":"Ebikon","admin3":"1054"},{"geonameid":2660509,"name":"Greppen","admin3":"1056"},{"geonameid":2660298,"name":"Horw","admin3":"1058"},{"geonameid":2660104,"name":"Kriens","admin3":"1059"},{"geonameid":2659776,"name":"Malters","admin3":"1062"},{"geonameid":2659708,"name":"Meggen","admin3":"1063"},{"geonameid":2659704,"name":"Meierskappel","admin3":"1064"},{"geonameid":2658976,"name":"Root","admin3":"1051"},{"geonameid":2658681,"name":"Schwarzenberg","admin3":"1066"},{"geonameid":2658283,"name":"Udligenswil","admin3":"1067"},{"geonameid":2658107,"name":"Vitznau","admin3":"1068"},{"geonameid":2658038,"name":"Weggis","admin3":"1069"}],"admin3":[{"geonameid":7285021,"name":"Adligenswil","admin3":"1051"},{"geonameid":7285370,"name":"Buchrain","admin3":"1052"},{"geonameid":7285648,"name":"Dierikon","admin3":"1053"},{"geonameid":7285687,"name":"Ebikon","admin3":"1054"},{"geonameid":7285920,"name":"Gisikon","admin3":"1055"},{"geonameid":7285977,"name":"Greppen","admin3":"1056"},{"geonameid":7286108,"name":"Honau","admin3":"1057"},{"geonameid":7286115,"name":"Horw","admin3":"1058"},{"geonameid":7286225,"name":"Kriens","admin3":"1059"},{"geonameid":7286426,"name":"Malters","admin3":"1062"},{"geonameid":7286468,"name":"Meggen","admin3":"1063"},{"geonameid":7286470,"name":"Meierskappel","admin3":"1064"},{"geonameid":7286947,"name":"Root","admin3":"1065"},{"geonameid":7287123,"name":"Schwarzenberg","admin3":"1066"},{"geonameid":7287357,"name":"Udligenswil","admin3":"1067"},{"geonameid":7287489,"name":"Vitznau","admin3":"1068"},{"geonameid":7287553,"name":"Weggis","admin3":"1069"}],"alternateNames":[]},"__N_SSG":true}