{"pageProps":{"locale":"en","admin2":{"geonameid":4099679,"name":"Arkansas County","country":"US","admin1":"AR","admin2":"001","admin3":"","latitude":"34.2908100","longitude":"-91.3749100","localeAltName":null},"admin1":{"geonameid":4099753,"name":"Arkansas","admin1":"AR","localeAltName":"Arkansas"},"locations":[{"geonameid":4107823,"name":"De Witt","admin3":"92085","localeAltName":null},{"geonameid":4112321,"name":"Gillett","admin3":"93483","localeAltName":null},{"geonameid":4115613,"name":"Humphrey","admin3":"91668","localeAltName":null},{"geonameid":4132625,"name":"Stuttgart","admin3":"91563","localeAltName":null}],"admin3":[{"geonameid":4099754,"name":"Township of Arkansas","admin3":"90060"},{"geonameid":4100458,"name":"Township of Barton","admin3":"90138"},{"geonameid":4100635,"name":"Township of Bayou Meto","admin3":"90168"},{"geonameid":4102942,"name":"Township of Brewer","admin3":"90462"},{"geonameid":4105481,"name":"Township of Chester","admin3":"90774"},{"geonameid":4107089,"name":"Township of Crockett","admin3":"90963"},{"geonameid":4112060,"name":"Township of Garland","admin3":"91425"},{"geonameid":4113347,"name":"Township of Gum Pond","admin3":"91563","localeAltName":null},{"geonameid":4114381,"name":"Township of Henton","admin3":"91668","localeAltName":null},{"geonameid":4117249,"name":"Township of Keaton","admin3":"92010"},{"geonameid":4117730,"name":"Township of La Grue","admin3":"92085","localeAltName":null},{"geonameid":4121034,"name":"Township of McFall","admin3":"92307"},{"geonameid":4121510,"name":"Township of Mill Bayou","admin3":"92466"},{"geonameid":4122252,"name":"Township of Morris","admin3":"92574"},{"geonameid":4126979,"name":"Township of Point Deluce","admin3":"92937"},{"geonameid":4127395,"name":"Township of Prairie","admin3":"92973"},{"geonameid":4132218,"name":"Township of Stanley","admin3":"93483","localeAltName":null}],"alternateNames":[{"alternatenameId":1979420,"geonameid":4099753,"isoLanguage":"en","alternateName":"Arkansas","isPreferredName":true,"isShortName":true,"isColloquial":false,"isHistoric":false}]},"__N_SSG":true}