{"pageProps":{"locale":"en","admin2":{"geonameid":4106979,"name":"Craighead County","country":"US","admin1":"AR","admin2":"031","admin3":"","latitude":"35.8307900","longitude":"-90.6328500","localeAltName":null},"admin1":{"geonameid":4099753,"name":"Arkansas","admin1":"AR","localeAltName":"Arkansas"},"locations":[{"geonameid":4100592,"name":"Bay","admin3":"92433","localeAltName":null},{"geonameid":4102581,"name":"Bono","admin3":"90255","localeAltName":null},{"geonameid":4103117,"name":"Brookland","admin3":"90489","localeAltName":null},{"geonameid":4104566,"name":"Caraway","admin3":"90330","localeAltName":null},{"geonameid":4116834,"name":"Jonesboro","admin3":"92004","localeAltName":null},{"geonameid":4117869,"name":"Lake City","admin3":"92097","localeAltName":null},{"geonameid":4121954,"name":"Monette","admin3":"90534","localeAltName":null}],"admin3":[{"geonameid":4101728,"name":"Township of Big Creek","admin3":"90255","localeAltName":null},{"geonameid":4102078,"name":"Township of Black Oak","admin3":"90330","localeAltName":null},{"geonameid":4103122,"name":"Township of Brookland","admin3":"90489","localeAltName":null},{"geonameid":4103641,"name":"Township of Buffalo","admin3":"90534","localeAltName":null},{"geonameid":4112299,"name":"Township of Gilkerson","admin3":"91461"},{"geonameid":4113099,"name":"Township of Greenfield","admin3":"91512"},{"geonameid":4114420,"name":"Township of Herndon","admin3":"91674"},{"geonameid":4116850,"name":"Township of Jonesboro","admin3":"92004","localeAltName":null},{"geonameid":4117871,"name":"Township of Lake City","admin3":"92097","localeAltName":null},{"geonameid":4118706,"name":"Township of Lester","admin3":"92154"},{"geonameid":4119431,"name":"Township of Little Texas","admin3":"92232"},{"geonameid":4120804,"name":"Township of Maumelle","admin3":"92433","localeAltName":null},{"geonameid":4123412,"name":"Township of Nettleton","admin3":"92670"},{"geonameid":4127297,"name":"Township of Powell","admin3":"92970"},{"geonameid":4127399,"name":"Township of Prairie","admin3":"92985"},{"geonameid":4127535,"name":"Township of Promised Land","admin3":"93036"},{"geonameid":4133278,"name":"Township of Taylor","admin3":"93582"},{"geonameid":4133372,"name":"Township of Texas","admin3":"93597"}],"alternateNames":[{"alternatenameId":1979420,"geonameid":4099753,"isoLanguage":"en","alternateName":"Arkansas","isPreferredName":true,"isShortName":true,"isColloquial":false,"isHistoric":false}]},"__N_SSG":true}