{"pageProps":{"locale":"en","admin2":{"geonameid":4116178,"name":"Izard County","country":"US","admin1":"AR","admin2":"065","admin3":"","latitude":"36.0948700","longitude":"-91.9134200","localeAltName":null},"admin1":{"geonameid":4099753,"name":"Arkansas","admin1":"AR","localeAltName":"Arkansas"},"locations":[{"geonameid":4104078,"name":"Calico Rock","admin3":"93693","localeAltName":null},{"geonameid":4115334,"name":"Horseshoe Bend","admin3":"91926","localeAltName":null},{"geonameid":4121256,"name":"Melbourne","admin3":"92475","localeAltName":null},{"geonameid":4125168,"name":"Oxford","admin3":"92679","localeAltName":null}],"admin3":[{"geonameid":4099916,"name":"Township of Athens","admin3":"90072"},{"geonameid":4100142,"name":"Township of Baker","admin3":"90087"},{"geonameid":4100427,"name":"Township of Barren Fork","admin3":"90129"},{"geonameid":4101892,"name":"Township of Big Spring","admin3":"90306"},{"geonameid":4103444,"name":"Township of Bryan","admin3":"90513"},{"geonameid":4105818,"name":"Township of Claiborne","admin3":"90798"},{"geonameid":4109165,"name":"Township of Drytown","admin3":"91149"},{"geonameid":4111609,"name":"Township of Franklin","admin3":"91353"},{"geonameid":4112273,"name":"Township of Gid","admin3":"91452"},{"geonameid":4113294,"name":"Township of Guion","admin3":"91557"},{"geonameid":4113425,"name":"Township of Guthrie","admin3":"91572"},{"geonameid":4116454,"name":"Township of Jefferson","admin3":"91926","localeAltName":null},{"geonameid":4117755,"name":"Township of Lacrosse","admin3":"92061"},{"geonameid":4117797,"name":"Township of Lafferty","admin3":"92079"},{"geonameid":4120078,"name":"Township of Lunenburg","admin3":"92301"},{"geonameid":4121619,"name":"Township of Mill Creek","admin3":"92475","localeAltName":null},{"geonameid":4122622,"name":"Township of Mount Olive","admin3":"92622"},{"geonameid":4123660,"name":"Township of New Hope","admin3":"92679","localeAltName":null},{"geonameid":4123807,"name":"Township of Newburg","admin3":"92673"},{"geonameid":4126751,"name":"Township of Pleasant Hill","admin3":"92916"},{"geonameid":4129463,"name":"Township of Sage","admin3":"93264"},{"geonameid":4132558,"name":"Township of Strawberry","admin3":"93501"},{"geonameid":4134455,"name":"Township of Union","admin3":"93693","localeAltName":null},{"geonameid":4134895,"name":"Township of Violet Hill","admin3":"93816"},{"geonameid":4136277,"name":"Township of White River","admin3":"94014"}],"alternateNames":[{"alternatenameId":1979420,"geonameid":4099753,"isoLanguage":"en","alternateName":"Arkansas","isPreferredName":true,"isShortName":true,"isColloquial":false,"isHistoric":false}]},"__N_SSG":true}