{"pageProps":{"locale":"en","admin2":{"geonameid":4116689,"name":"Johnson County","country":"US","admin1":"AR","admin2":"071","admin3":"","latitude":"35.5700500","longitude":"-93.4599100","localeAltName":null},"admin1":{"geonameid":4099753,"name":"Arkansas","admin1":"AR","localeAltName":"Arkansas"},"locations":[{"geonameid":4105879,"name":"Clarksville","admin3":"93447","localeAltName":null},{"geonameid":4106126,"name":"Coal Hill","admin3":"91491","localeAltName":null},{"geonameid":4114001,"name":"Hartman","admin3":"93876","localeAltName":null},{"geonameid":4117661,"name":"Knoxville","admin3":"91782","localeAltName":null},{"geonameid":4118223,"name":"Lamar","admin3":"92910","localeAltName":null}],"admin3":[{"geonameid":4100548,"name":"Township of Batson","admin3":"90150"},{"geonameid":4112782,"name":"Township of Grant","admin3":"91491","localeAltName":null},{"geonameid":4114467,"name":"Township of Hickey","admin3":"91683"},{"geonameid":4115327,"name":"Township of Horsehead","admin3":"91770"},{"geonameid":4115495,"name":"Township of Howell","admin3":"91782","localeAltName":null},{"geonameid":4117502,"name":"Township of King","admin3":"92046"},{"geonameid":4118616,"name":"Township of Lee","admin3":"92142"},{"geonameid":4119961,"name":"Township of Low Gap","admin3":"92292"},{"geonameid":4121108,"name":"Township of McKennon","admin3":"92322"},{"geonameid":4123131,"name":"Township of Mulberry","admin3":"92652"},{"geonameid":4125867,"name":"Township of Perry","admin3":"92847"},{"geonameid":4126538,"name":"Township of Pittsburg","admin3":"92910","localeAltName":null},{"geonameid":4127402,"name":"Township of Prairie","admin3":"92994"},{"geonameid":4128053,"name":"Township of Red Lick","admin3":"93078"},{"geonameid":4130837,"name":"Township of Sherman","admin3":"93360"},{"geonameid":4131868,"name":"Township of Spadra","admin3":"93447","localeAltName":null},{"geonameid":4132476,"name":"Township of Stonewall","admin3":"93495"},{"geonameid":4135318,"name":"Township of Ward","admin3":"93876","localeAltName":null},{"geonameid":7172166,"name":"Township of Dickerson-Hill","admin3":"91099"}],"alternateNames":[{"alternatenameId":1979420,"geonameid":4099753,"isoLanguage":"en","alternateName":"Arkansas","isPreferredName":true,"isShortName":true,"isColloquial":false,"isHistoric":false}]},"__N_SSG":true}