{"pageProps":{"locale":"en","admin2":{"geonameid":4117774,"name":"Lafayette County","country":"US","admin1":"AR","admin2":"073","admin3":"","latitude":"33.2409800","longitude":"-93.6070400","localeAltName":null},"admin1":{"geonameid":4099753,"name":"Arkansas","admin1":"AR","localeAltName":"Arkansas"},"locations":[{"geonameid":4102790,"name":"Bradley","admin3":"93201","localeAltName":null},{"geonameid":4118755,"name":"Lewisville","admin3":"93489","localeAltName":null},{"geonameid":4132194,"name":"Stamps","admin3":"90090","localeAltName":null}],"admin3":[{"geonameid":4100143,"name":"Township of Baker","admin3":"90090","localeAltName":null},{"geonameid":4111708,"name":"Township of French","admin3":"91386"},{"geonameid":4113466,"name":"Township of Hadley","admin3":"91578"},{"geonameid":4117727,"name":"Township of La Grange","admin3":"92082"},{"geonameid":4120601,"name":"Township of Mars Hill","admin3":"92409"},{"geonameid":4128554,"name":"Township of Roane","admin3":"93201","localeAltName":null},{"geonameid":4129395,"name":"Township of Russell","admin3":"93258"},{"geonameid":4132299,"name":"Township of Steel","admin3":"93489","localeAltName":null},{"geonameid":4135044,"name":"Township of Walker Creek","admin3":"93834"}],"alternateNames":[{"alternatenameId":1979420,"geonameid":4099753,"isoLanguage":"en","alternateName":"Arkansas","isPreferredName":true,"isShortName":true,"isColloquial":false,"isHistoric":false}]},"__N_SSG":true}