{"pageProps":{"locale":"en","admin2":{"geonameid":4118578,"name":"Lee County","country":"US","admin1":"AR","admin2":"077","admin3":"","latitude":"34.7806200","longitude":"-90.7820700","localeAltName":null},"admin1":{"geonameid":4099753,"name":"Arkansas","admin1":"AR","localeAltName":"Arkansas"},"locations":[{"geonameid":4120508,"name":"Marianna","admin3":"91821","localeAltName":null}],"admin3":[{"geonameid":4101731,"name":"Township of Big Creek","admin3":"90264"},{"geonameid":4106778,"name":"Township of Council","admin3":"90930"},{"geonameid":4111169,"name":"Township of Fleener","admin3":"91302"},{"geonameid":4113658,"name":"Township of Hampton","admin3":"91593"},{"geonameid":4113772,"name":"Township of Hardy","admin3":"91602"},{"geonameid":4115844,"name":"Township of Independence","admin3":"91821","localeAltName":null},{"geonameid":4124346,"name":"Township of Oak Forest","admin3":"92733"},{"geonameid":4128345,"name":"Township of Richland","admin3":"93138"},{"geonameid":4131998,"name":"Township of Spring Creek","admin3":"93459"},{"geonameid":4132154,"name":"Township of Saint Francis","admin3":"93273"},{"geonameid":4133373,"name":"Township of Texas","admin3":"93600"},{"geonameid":4134457,"name":"Township of Union","admin3":"93699"}],"alternateNames":[{"alternatenameId":1979420,"geonameid":4099753,"isoLanguage":"en","alternateName":"Arkansas","isPreferredName":true,"isShortName":true,"isColloquial":false,"isHistoric":false}]},"__N_SSG":true}