{"pageProps":{"locale":"en","admin2":{"geonameid":4121839,"name":"Mississippi County","country":"US","admin1":"AR","admin2":"093","admin3":"","latitude":"35.7639000","longitude":"-90.0541700","localeAltName":null},"admin1":{"geonameid":4099753,"name":"Arkansas","admin1":"AR","localeAltName":"Arkansas"},"locations":[{"geonameid":4102412,"name":"Blytheville","admin3":"90783","localeAltName":null},{"geonameid":4112638,"name":"Gosnell","admin3":"90429","localeAltName":null},{"geonameid":4116746,"name":"Joiner","admin3":"92310","localeAltName":null},{"geonameid":4117286,"name":"Keiser","admin3":"92529","localeAltName":null},{"geonameid":4118507,"name":"Leachville","admin3":"92664","localeAltName":null},{"geonameid":4120104,"name":"Luxora","admin3":"91308","localeAltName":null},{"geonameid":4120426,"name":"Manila","admin3":"90297","localeAltName":null},{"geonameid":4125027,"name":"Osceola","admin3":"92529","localeAltName":null},{"geonameid":4136692,"name":"Wilson","admin3":"91476","localeAltName":null}],"admin3":[{"geonameid":4101828,"name":"Township of Big Lake","admin3":"90297","localeAltName":null},{"geonameid":4102693,"name":"Township of Bowen","admin3":"90429","localeAltName":null},{"geonameid":4103728,"name":"Township of Burdette","admin3":"90549"},{"geonameid":4104334,"name":"Township of Canadian","admin3":"90633"},{"geonameid":4105497,"name":"Township of Chickasawba","admin3":"90783","localeAltName":null},{"geonameid":4109348,"name":"Township of Dyess","admin3":"91182"},{"geonameid":4111196,"name":"Township of Fletcher","admin3":"91308","localeAltName":null},{"geonameid":4112526,"name":"Township of Golden Lake","admin3":"91476","localeAltName":null},{"geonameid":4113524,"name":"Township of Half Moon Lake","admin3":"91584"},{"geonameid":4114246,"name":"Township of Hector","admin3":"91659"},{"geonameid":4119382,"name":"Township of Little River","admin3":"92226"},{"geonameid":4121045,"name":"Township of McGavock","admin3":"92310","localeAltName":null},{"geonameid":4121971,"name":"Township of Monroe","admin3":"92529","localeAltName":null},{"geonameid":4123307,"name":"Township of Neal","admin3":"92664","localeAltName":null},{"geonameid":4130393,"name":"Township of Scott","admin3":"93330"},{"geonameid":4136400,"name":"Township of Whitton","admin3":"94050"},{"geonameid":7172163,"name":"Township of Carson","admin3":"90683"}],"alternateNames":[{"alternatenameId":1979420,"geonameid":4099753,"isoLanguage":"en","alternateName":"Arkansas","isPreferredName":true,"isShortName":true,"isColloquial":false,"isHistoric":false}]},"__N_SSG":true}