{"pageProps":{"locale":"en","admin2":{"geonameid":4127017,"name":"Polk County","country":"US","admin1":"AR","admin2":"113","admin3":"","latitude":"34.4858400","longitude":"-94.2280700","localeAltName":null},"admin1":{"geonameid":4099753,"name":"Arkansas","admin1":"AR","localeAltName":"Arkansas"},"locations":[{"geonameid":4112765,"name":"Grannis","admin3":"92805","localeAltName":null},{"geonameid":4121297,"name":"Mena","admin3":"90732","localeAltName":null},{"geonameid":4136413,"name":"Wickes","admin3":"92805","localeAltName":null}],"admin3":[{"geonameid":4099074,"name":"Township of Acorn","admin3":"90003"},{"geonameid":4101770,"name":"Township of Big Fork","admin3":"90294"},{"geonameid":4105059,"name":"Township of Cedar","admin3":"90711"},{"geonameid":4105159,"name":"Township of Center","admin3":"90732","localeAltName":null},{"geonameid":4106866,"name":"Township of Cove","admin3":"90936"},{"geonameid":4109390,"name":"Township of Eagle","admin3":"91197"},{"geonameid":4110477,"name":"Township of Faulkner","admin3":"91278"},{"geonameid":4111666,"name":"Township of Freedom","admin3":"91374"},{"geonameid":4111862,"name":"Township of Fulton","admin3":"91395"},{"geonameid":4111997,"name":"Township of Gap Springs","admin3":"91416"},{"geonameid":4121622,"name":"Township of Mill Creek","admin3":"92484"},{"geonameid":4123014,"name":"Township of Mountain","admin3":"92604"},{"geonameid":4125084,"name":"Township of Ouachita","admin3":"92787"},{"geonameid":4125218,"name":"Township of Ozark","admin3":"92805","localeAltName":null},{"geonameid":4127247,"name":"Township of Potter","admin3":"92967"},{"geonameid":4128313,"name":"Township of Rich Mountain","admin3":"93162"},{"geonameid":4136307,"name":"Township of White","admin3":"93996"}],"alternateNames":[{"alternatenameId":1979420,"geonameid":4099753,"isoLanguage":"en","alternateName":"Arkansas","isPreferredName":true,"isShortName":true,"isColloquial":false,"isHistoric":false}]},"__N_SSG":true}