{"pageProps":{"locale":"en","admin2":{"geonameid":4130373,"name":"Scott County","country":"US","admin1":"AR","admin2":"127","admin3":"","latitude":"34.8607700","longitude":"-94.0632500","localeAltName":null},"admin1":{"geonameid":4099753,"name":"Arkansas","admin1":"AR","localeAltName":"Arkansas"},"locations":[{"geonameid":4135004,"name":"Waldron","admin3":"91689","localeAltName":null}],"admin3":[{"geonameid":4102047,"name":"Township of Black Fork","admin3":"90324"},{"geonameid":4102205,"name":"Township of Blansett","admin3":"90348"},{"geonameid":4102895,"name":"Township of Brawley","admin3":"90453"},{"geonameid":4104843,"name":"Township of Cauthron","admin3":"90702"},{"geonameid":4105060,"name":"Township of Cedar","admin3":"90714"},{"geonameid":4106129,"name":"Township of Coal","admin3":"90882"},{"geonameid":4108071,"name":"Township of Denton","admin3":"91071"},{"geonameid":4114480,"name":"Township of Hickman","admin3":"91689","localeAltName":null},{"geonameid":4115136,"name":"Township of Hon","admin3":"91758"},{"geonameid":4115633,"name":"Township of Hunt","admin3":"91797"},{"geonameid":4116366,"name":"Township of James","admin3":"91890"},{"geonameid":4116832,"name":"Township of Jones","admin3":"91998"},{"geonameid":4117724,"name":"Township of La Fave","admin3":"92064"},{"geonameid":4117783,"name":"Township of Lafayette","admin3":"92076"},{"geonameid":4118241,"name":"Township of Lamb","admin3":"92109"},{"geonameid":4118750,"name":"Township of Lewis","admin3":"92160"},{"geonameid":4119432,"name":"Township of Little Texas","admin3":"92235"},{"geonameid":4121623,"name":"Township of Mill Creek","admin3":"92487"},{"geonameid":4122723,"name":"Township of Mount Pleasant","admin3":"92628"},{"geonameid":4123015,"name":"Township of Mountain","admin3":"92607"},{"geonameid":4124898,"name":"Township of Oliver","admin3":"92751"},{"geonameid":4125509,"name":"Township of Parks","admin3":"92829"},{"geonameid":4133197,"name":"Township of Tate","admin3":"93576"},{"geonameid":4133694,"name":"Township of Tomlinson","admin3":"93620"},{"geonameid":7172173,"name":"Township of Keener","admin3":"92012"}],"alternateNames":[{"alternatenameId":1979420,"geonameid":4099753,"isoLanguage":"en","alternateName":"Arkansas","isPreferredName":true,"isShortName":true,"isColloquial":false,"isHistoric":false}]},"__N_SSG":true}