{"pageProps":{"locale":"en","admin2":{"geonameid":4134330,"name":"Union County","country":"US","admin1":"AR","admin2":"139","admin3":"","latitude":"33.1713600","longitude":"-92.5972900","localeAltName":null},"admin1":{"geonameid":4099753,"name":"Arkansas","admin1":"AR","localeAltName":"Arkansas"},"locations":[{"geonameid":4109785,"name":"El Dorado","admin3":"91218","localeAltName":null},{"geonameid":4115759,"name":"Huttig","admin3":"92121","localeAltName":null},{"geonameid":4116918,"name":"Junction City","admin3":"91665","localeAltName":null},{"geonameid":4123988,"name":"Norphlet","admin3":"92703","localeAltName":null},{"geonameid":4131396,"name":"Smackover","admin3":"93396","localeAltName":null},{"geonameid":4132582,"name":"Strong","admin3":"92121","localeAltName":null}],"admin3":[{"geonameid":4102620,"name":"Township of Boone","admin3":"90408"},{"geonameid":4106700,"name":"Township of Cornie","admin3":"90924"},{"geonameid":4109796,"name":"Township of El Dorado","admin3":"91218","localeAltName":null},{"geonameid":4111613,"name":"Township of Franklin","admin3":"91365"},{"geonameid":4112078,"name":"Township of Garner","admin3":"91440"},{"geonameid":4113977,"name":"Township of Harrison","admin3":"91620"},{"geonameid":4114333,"name":"Township of Henderson","admin3":"91665","localeAltName":null},{"geonameid":4116309,"name":"Township of Jackson","admin3":"91884"},{"geonameid":4116737,"name":"Township of Johnson","admin3":"91986"},{"geonameid":4118333,"name":"Township of Lapile","admin3":"92121","localeAltName":null},{"geonameid":4123992,"name":"Township of Norphlet","admin3":"92703","localeAltName":null},{"geonameid":4131406,"name":"Township of Smackover","admin3":"93396","localeAltName":null},{"geonameid":4133941,"name":"Township of Tubal","admin3":"93650"},{"geonameid":4134707,"name":"Township of Van Buren","admin3":"93777"},{"geonameid":4135709,"name":"Township of Wesson","admin3":"93966"},{"geonameid":4136687,"name":"Township of Wilmington","admin3":"94074"}],"alternateNames":[{"alternatenameId":1979420,"geonameid":4099753,"isoLanguage":"en","alternateName":"Arkansas","isPreferredName":true,"isShortName":true,"isColloquial":false,"isHistoric":false}]},"__N_SSG":true}