{"pageProps":{"locale":"en","admin2":{"geonameid":4134690,"name":"Van Buren County","country":"US","admin1":"AR","admin2":"141","admin3":"","latitude":"35.5806500","longitude":"-92.5157000","localeAltName":null},"admin1":{"geonameid":4099753,"name":"Arkansas","admin1":"AR","localeAltName":"Arkansas"},"locations":[{"geonameid":4106074,"name":"Clinton","admin3":"93970","localeAltName":null},{"geonameid":4108038,"name":"Dennard","admin3":"93933","localeAltName":null},{"geonameid":4110233,"name":"Fairfield Bay","admin3":"91830","localeAltName":null}],"admin3":[{"geonameid":4099628,"name":"Township of Archey Valley","admin3":"90054"},{"geonameid":4100397,"name":"Township of Barnett","admin3":"90117"},{"geonameid":4102822,"name":"Township of Bradley","admin3":"90444"},{"geonameid":4104014,"name":"Township of Cadron","admin3":"90603"},{"geonameid":4104590,"name":"Township of Cargile","admin3":"90660"},{"geonameid":4105586,"name":"Township of Choctaw","admin3":"90789"},{"geonameid":4106978,"name":"Township of Craig","admin3":"90951"},{"geonameid":4107374,"name":"Township of Culpepper","admin3":"90987"},{"geonameid":4107767,"name":"Township of Davis","admin3":"91035"},{"geonameid":4109524,"name":"Township of East Griggs","admin3":"91200"},{"geonameid":4111379,"name":"Township of Formosa","admin3":"91318"},{"geonameid":4115031,"name":"Township of Holly Mountain","admin3":"91750"},{"geonameid":4115884,"name":"Township of Indian Rock","admin3":"91830","localeAltName":null},{"geonameid":4118876,"name":"Township of Liberty","admin3":"92190"},{"geonameid":4119041,"name":"Township of Linn Creek","admin3":"92214"},{"geonameid":4123016,"name":"Township of Mountain","admin3":"92610"},{"geonameid":4128077,"name":"Township of Red River","admin3":"93093"},{"geonameid":4134467,"name":"Township of Union","admin3":"93729"},{"geonameid":4135422,"name":"Township of Washington","admin3":"93933","localeAltName":null},{"geonameid":4135838,"name":"Township of West Griggs","admin3":"93970","localeAltName":null},{"geonameid":4136065,"name":"Township of Wheeler","admin3":"93984"}],"alternateNames":[{"alternatenameId":1979420,"geonameid":4099753,"isoLanguage":"en","alternateName":"Arkansas","isPreferredName":true,"isShortName":true,"isColloquial":false,"isHistoric":false}]},"__N_SSG":true}