{"pageProps":{"locale":"it","admin2":{"geonameid":3181912,"name":"Bolzano","country":"IT","admin1":"17","admin2":"BZ","admin3":"","latitude":"46.7166700","longitude":"11.5000000","localeAltName":"Bolzano"},"admin1":{"geonameid":3165244,"name":"Trentino-Alto Adige","admin1":"17","localeAltName":null},"locations":[{"geonameid":3183326,"name":"Albes","admin3":"021011","localeAltName":null},{"geonameid":6534771,"name":"Aldino","admin3":"021001","localeAltName":null},{"geonameid":6534772,"name":"Andriano","admin3":"021002","localeAltName":null},{"geonameid":3183032,"name":"Anterselva di Mezzo","admin3":"021071","localeAltName":null},{"geonameid":3182683,"name":"Auna di Sotto","admin3":"021072","localeAltName":null},{"geonameid":3182585,"name":"Badia","admin3":"021006","localeAltName":null},{"geonameid":8949826,"name":"Barbiano","admin3":"021007","localeAltName":null},{"geonameid":6534774,"name":"Barbiano - Barbian","admin3":"021007","localeAltName":null},{"geonameid":3181913,"name":"Bolzano","admin3":"021008","localeAltName":null},{"geonameid":6534775,"name":"Braies","admin3":"021009","localeAltName":null},{"geonameid":6534776,"name":"Brennero - Brenner","admin3":"021010","localeAltName":null},{"geonameid":3181550,"name":"Bressanone","admin3":"021011","localeAltName":null},{"geonameid":3181504,"name":"Bronzolo","admin3":"021012","localeAltName":null},{"geonameid":3181480,"name":"Brunico","admin3":"021013","localeAltName":null},{"geonameid":3181397,"name":"Burgusio","admin3":"021046","localeAltName":null},{"geonameid":3181215,"name":"Caldaro sulla Strada del Vino","admin3":"021015","localeAltName":null},{"geonameid":3180976,"name":"Campo di Trens","admin3":"021016","localeAltName":null},{"geonameid":3180908,"name":"Campo Tures","admin3":"021017","localeAltName":null},{"geonameid":8950172,"name":"Casateia","admin3":"021070","localeAltName":null},{"geonameid":9036140,"name":"Castelbello","admin3":"021018","localeAltName":null},{"geonameid":3179737,"name":"Castelbello-Ciardes - Kastelbell-Tschars","admin3":"021018","localeAltName":null},{"geonameid":8949536,"name":"Casteldarne","admin3":"021021","localeAltName":null},{"geonameid":3179493,"name":"Castelrotto","admin3":"021019","localeAltName":null},{"geonameid":3179069,"name":"Cermes","admin3":"021020","localeAltName":null},{"geonameid":3178820,"name":"Chienes","admin3":"021021","localeAltName":null},{"geonameid":3178764,"name":"Chiusa","admin3":"021022","localeAltName":null},{"geonameid":3178735,"name":"Ciardes","admin3":"021018","localeAltName":null},{"geonameid":7290533,"name":"Coldrano","admin3":"021037","localeAltName":null},{"geonameid":3178447,"name":"Collalbo","admin3":"021072","localeAltName":null},{"geonameid":3178386,"name":"Colle Isarco","admin3":"021115","localeAltName":null},{"geonameid":3178357,"name":"Collepietra","admin3":"021023","localeAltName":null},{"geonameid":3178078,"name":"Cornaiano","admin3":"021004","localeAltName":null},{"geonameid":3178002,"name":"Cortaccia sulla Strada del Vino","admin3":"021024","localeAltName":null},{"geonameid":6534779,"name":"Cortina sulla Strada del Vino","admin3":"021025","localeAltName":null},{"geonameid":3177943,"name":"Corvara in Badia","admin3":"021026","localeAltName":null},{"geonameid":3177571,"name":"Dobbiaco","admin3":"021028","localeAltName":null},{"geonameid":3177431,"name":"Egna","admin3":"021029","localeAltName":null},{"geonameid":3177231,"name":"Falzes","admin3":"021030","localeAltName":null},{"geonameid":3177028,"name":"Fiè Allo Sciliar","admin3":"021031","localeAltName":null},{"geonameid":8950226,"name":"Foiana","admin3":"021041","localeAltName":null},{"geonameid":3176671,"name":"Fortezza","admin3":"021032","localeAltName":null},{"geonameid":3176484,"name":"Fundres","admin3":"021110","localeAltName":null},{"geonameid":6534780,"name":"Funes - Villnoess","admin3":"021033","localeAltName":null},{"geonameid":3176410,"name":"Gais","admin3":"021034","localeAltName":null},{"geonameid":3176305,"name":"Gargazzone","admin3":"021035","localeAltName":null},{"geonameid":3176031,"name":"Glorenza","admin3":"021036","localeAltName":null},{"geonameid":6534567,"name":"La Valle - Wengen","admin3":"021117","localeAltName":null},{"geonameid":7601923,"name":"La Villa","admin3":"021006","localeAltName":null},{"geonameid":3175328,"name":"Laces","admin3":"021037","localeAltName":null},{"geonameid":3175269,"name":"Laghetti","admin3":"021029","localeAltName":null},{"geonameid":3175243,"name":"Lagundo","admin3":"021038","localeAltName":null},{"geonameid":3175236,"name":"Laion","admin3":"021039","localeAltName":null},{"geonameid":3175235,"name":"Laives","admin3":"021040","localeAltName":null},{"geonameid":3175177,"name":"Lana","admin3":"021041","localeAltName":null},{"geonameid":3175096,"name":"Lasa","admin3":"021042","localeAltName":null},{"geonameid":3175040,"name":"Laudes","admin3":"021046","localeAltName":null},{"geonameid":3174978,"name":"Lazfons","admin3":"021022","localeAltName":null},{"geonameid":8949396,"name":"Leone-Santa Elisabetta","admin3":"021111","localeAltName":null},{"geonameid":3174425,"name":"Luson - Luesen","admin3":"021044","localeAltName":null},{"geonameid":3174420,"name":"Lutago","admin3":"021108","localeAltName":null},{"geonameid":6534781,"name":"Magrè sulla Strada del Vino","admin3":"021045","localeAltName":null},{"geonameid":3174144,"name":"Malles Venosta","admin3":"021046","localeAltName":null},{"geonameid":3174013,"name":"Maranza","admin3":"021074","localeAltName":null},{"geonameid":3173967,"name":"Mareta","admin3":"021070","localeAltName":null},{"geonameid":3173903,"name":"Marlengo","admin3":"021048","localeAltName":null},{"geonameid":3173577,"name":"Merano","admin3":"021051","localeAltName":null},{"geonameid":3173140,"name":"Monguelfo","admin3":"021052","localeAltName":null},{"geonameid":3173113,"name":"Montagna","admin3":"021053","localeAltName":null},{"geonameid":3172554,"name":"Morter","admin3":"021037","localeAltName":null},{"geonameid":3173267,"name":"Mühlen in Taufers","admin3":"021017","localeAltName":null},{"geonameid":3172400,"name":"Nalles","admin3":"021055","localeAltName":null},{"geonameid":3172367,"name":"Naturno","admin3":"021056","localeAltName":null},{"geonameid":3166910,"name":"Naz-Sciaves - Natz-Schabs","admin3":"021057","localeAltName":null},{"geonameid":3172192,"name":"Nova Levante","admin3":"021058","localeAltName":null},{"geonameid":3172190,"name":"Nova Ponente","admin3":"021059","localeAltName":null},{"geonameid":3172196,"name":"Novacella","admin3":"021111","localeAltName":null},{"geonameid":3171993,"name":"Ora","admin3":"021060","localeAltName":null},{"geonameid":3171946,"name":"Oris","admin3":"021042","localeAltName":null},{"geonameid":3171891,"name":"Ortisei","admin3":"021061","localeAltName":null},{"geonameid":3171468,"name":"Parcines","admin3":"021062","localeAltName":null},{"geonameid":3171225,"name":"Perca","admin3":"021063","localeAltName":null},{"geonameid":8949084,"name":"Pineta","admin3":"021040","localeAltName":null},{"geonameid":3170040,"name":"Postal","admin3":"021066","localeAltName":null},{"geonameid":6534792,"name":"Prati","admin3":"021107","localeAltName":null},{"geonameid":3169914,"name":"Prato Allo Stelvio","admin3":"021067","localeAltName":null},{"geonameid":8411051,"name":"Rablà","admin3":"021062","localeAltName":null},{"geonameid":3169646,"name":"Racines","admin3":"021070","localeAltName":null},{"geonameid":6534784,"name":"Racines - Ratschings","admin3":"021070","localeAltName":null},{"geonameid":6534785,"name":"Rasun Anterselva - Rasen-Antholz","admin3":"021071","localeAltName":null},{"geonameid":3169575,"name":"Rasun di Sopra","admin3":"021071","localeAltName":null},{"geonameid":6534786,"name":"Renon - Ritten","admin3":"021072","localeAltName":null},{"geonameid":3169478,"name":"Resia","admin3":"021027","localeAltName":null},{"geonameid":7645253,"name":"Ried","admin3":"021107","localeAltName":null},{"geonameid":8949479,"name":"Rifiano","admin3":"021073","localeAltName":null},{"geonameid":3169345,"name":"Rio di Pusteria","admin3":"021074","localeAltName":null},{"geonameid":7601924,"name":"Riscone","admin3":"021013","localeAltName":null},{"geonameid":3169096,"name":"Rodengo","admin3":"021075","localeAltName":null},{"geonameid":6534787,"name":"Rodengo - Rodeneck","admin3":"021075","localeAltName":null},{"geonameid":3168632,"name":"Salorno","admin3":"021076","localeAltName":null},{"geonameid":3168508,"name":"San Candido","admin3":"021077","localeAltName":null},{"geonameid":3168345,"name":"San Genesio Atesino","admin3":"021079","localeAltName":null},{"geonameid":8948845,"name":"San Giacomo","admin3":"021040","localeAltName":null},{"geonameid":8949734,"name":"San Giovanni","admin3":"021108","localeAltName":null},{"geonameid":3168213,"name":"San Giuseppe","admin3":"021092","localeAltName":null},{"geonameid":3168160,"name":"San Leonardo in Passiria","admin3":"021080","localeAltName":null},{"geonameid":3168114,"name":"San Lorenzo di Sebato","admin3":"021081","localeAltName":null},{"geonameid":8950151,"name":"San Martino","admin3":"021081","localeAltName":null},{"geonameid":3168043,"name":"San Martino in Passiria","admin3":"021083","localeAltName":null},{"geonameid":3182966,"name":"San Michele","admin3":"021004","localeAltName":null},{"geonameid":8949157,"name":"San Paolo","admin3":"021004","localeAltName":null},{"geonameid":3167851,"name":"San Pietro","admin3":"021033","localeAltName":null},{"geonameid":3167727,"name":"San Sigismondo","admin3":"021021","localeAltName":null},{"geonameid":3167222,"name":"San Valentino alla Muta","admin3":"021027","localeAltName":null},{"geonameid":8643247,"name":"San Vigilio","admin3":"021047","localeAltName":null},{"geonameid":3167479,"name":"Sant'Andrea in Monte","admin3":"021011","localeAltName":null},{"geonameid":3167680,"name":"Santa Cristina Valgardena","admin3":"021085","localeAltName":null},{"geonameid":3167357,"name":"Santa Valburga","admin3":"021104","localeAltName":null},{"geonameid":3167131,"name":"Sarentino","admin3":"021086","localeAltName":null},{"geonameid":3169409,"name":"Scena","admin3":"021087","localeAltName":null},{"geonameid":6535868,"name":"Scena - Schenna","admin3":"021087","localeAltName":null},{"geonameid":3166784,"name":"Selva","admin3":"021089","localeAltName":null},{"geonameid":6534789,"name":"Senales","admin3":"021091","localeAltName":null},{"geonameid":3166606,"name":"Sesto","admin3":"021092","localeAltName":null},{"geonameid":3166582,"name":"Settequerce","admin3":"021097","localeAltName":null},{"geonameid":3166537,"name":"Silandro","admin3":"021093","localeAltName":null},{"geonameid":8948902,"name":"Sinigo","admin3":"021051","localeAltName":null},{"geonameid":3166483,"name":"Siusi","admin3":"021019","localeAltName":null},{"geonameid":3166474,"name":"Sluderno","admin3":"021094","localeAltName":null},{"geonameid":3166393,"name":"Soprabolzano","admin3":"021072","localeAltName":null},{"geonameid":8949986,"name":"Stazione","admin3":"021107","localeAltName":null},{"geonameid":3165918,"name":"Tarres","admin3":"021037","localeAltName":null},{"geonameid":8949779,"name":"Teodone","admin3":"021013","localeAltName":null},{"geonameid":3165796,"name":"Terento","admin3":"021096","localeAltName":null},{"geonameid":3165789,"name":"Terlano","admin3":"021097","localeAltName":null},{"geonameid":3165783,"name":"Termeno","admin3":"021098","localeAltName":null},{"geonameid":3165729,"name":"Tesido","admin3":"021052","localeAltName":null},{"geonameid":3165728,"name":"Tesimo","admin3":"021099","localeAltName":null},{"geonameid":6534790,"name":"Tirolo","admin3":"021101","localeAltName":null},{"geonameid":3165144,"name":"Trodena","admin3":"021102","localeAltName":null},{"geonameid":3165124,"name":"Tubre","admin3":"021103","localeAltName":null},{"geonameid":6534791,"name":"Ultimo - Ulten","admin3":"021104","localeAltName":null},{"geonameid":3164169,"name":"Uttenheim","admin3":"021034","localeAltName":null},{"geonameid":3164949,"name":"Valdaora di Mezzo","admin3":"021106","localeAltName":null},{"geonameid":9036159,"name":"Valdaora di Sotto","admin3":"021106","localeAltName":null},{"geonameid":3164898,"name":"Vallarga","admin3":"021110","localeAltName":null},{"geonameid":6534793,"name":"Valle Aurina - Ahrntal","admin3":"021108","localeAltName":null},{"geonameid":6534794,"name":"Valle di Casies - Gsies","admin3":"021109","localeAltName":null},{"geonameid":6534795,"name":"Vandoies - Vintl","admin3":"021110","localeAltName":null},{"geonameid":3164737,"name":"Vandoies di Sopra","admin3":"021110","localeAltName":null},{"geonameid":3164736,"name":"Vandoies di Sotto","admin3":"021075","localeAltName":null},{"geonameid":3164691,"name":"Varna","admin3":"021111","localeAltName":null},{"geonameid":3164627,"name":"Velturno","admin3":"021116","localeAltName":null},{"geonameid":6534796,"name":"Verano - Voeran","admin3":"021112","localeAltName":null},{"geonameid":8950250,"name":"Villa","admin3":"021075","localeAltName":null},{"geonameid":3180965,"name":"Villa-Campolasta","admin3":"021086","localeAltName":null},{"geonameid":3164301,"name":"Villabassa","admin3":"021113","localeAltName":null},{"geonameid":8949708,"name":"Villandro","admin3":"021114","localeAltName":null},{"geonameid":6534797,"name":"Villandro - Villanders","admin3":"021114","localeAltName":null},{"geonameid":3164084,"name":"Vilpiano","admin3":"021097","localeAltName":null},{"geonameid":3164065,"name":"Vipiteno","admin3":"021115","localeAltName":null},{"geonameid":8949675,"name":"Zona Laurin","admin3":"021038","localeAltName":null}],"admin3":[{"geonameid":3164738,"name":"Vandoies/Vintl","admin3":"021110","localeAltName":null},{"geonameid":3164932,"name":"Val di Vizze/Pfitsch","admin3":"021107","localeAltName":null},{"geonameid":3165053,"name":"Ultimo/Ulten","admin3":"021104","localeAltName":null},{"geonameid":3166751,"name":"Senales/Schnals","admin3":"021091","localeAltName":null},{"geonameid":3169576,"name":"Rasun-Anterselva/Rasen-Antholz","admin3":"021071","localeAltName":null},{"geonameid":3173850,"name":"Martello/Martell","admin3":"021049"},{"geonameid":3173977,"name":"Marebbe/Enneberg","admin3":"021047","localeAltName":null},{"geonameid":3176672,"name":"Fortezza/Franzensfeste","admin3":"021032","localeAltName":null},{"geonameid":3181616,"name":"Braies/Prags","admin3":"021009","localeAltName":null},{"geonameid":6535885,"name":"Anterivo/Altrei","admin3":"021003"},{"geonameid":6535886,"name":"Avelengo/Hafling","admin3":"021005"},{"geonameid":6535887,"name":"Bressanone/Brixen","admin3":"021011","localeAltName":null},{"geonameid":6535888,"name":"Campo di Trens/Freienfeld","admin3":"021016","localeAltName":null},{"geonameid":6535889,"name":"Campo Tures/Sand in Taufers","admin3":"021017","localeAltName":null},{"geonameid":6535890,"name":"Castelrotto/Kastelruth","admin3":"021019","localeAltName":null},{"geonameid":6535891,"name":"Cermes/Tscherms","admin3":"021020","localeAltName":null},{"geonameid":6535892,"name":"Chienes/Kiens","admin3":"021021","localeAltName":null},{"geonameid":6535893,"name":"Chiusa/Klausen","admin3":"021022","localeAltName":null},{"geonameid":6535894,"name":"Curon Venosta/Graun im Vinschgau","admin3":"021027","localeAltName":null},{"geonameid":6535895,"name":"Dobbiaco/Toblach","admin3":"021028","localeAltName":null},{"geonameid":6535896,"name":"Egna/Neumarkt","admin3":"021029","localeAltName":null},{"geonameid":6535897,"name":"Falzes/Pfalzen","admin3":"021030","localeAltName":null},{"geonameid":6535898,"name":"Gais/Gais","admin3":"021034","localeAltName":null},{"geonameid":6535899,"name":"Gargazzone/Gargazon","admin3":"021035","localeAltName":null},{"geonameid":6535900,"name":"Glorenza/Glurns","admin3":"021036","localeAltName":null},{"geonameid":6535901,"name":"Laces/Latsch","admin3":"021037","localeAltName":null},{"geonameid":6535902,"name":"Lagundo/Algund","admin3":"021038","localeAltName":null},{"geonameid":6535903,"name":"Laion/Lajen","admin3":"021039","localeAltName":null},{"geonameid":6535904,"name":"Lana/Lana","admin3":"021041","localeAltName":null},{"geonameid":6535905,"name":"Lasa/Laas","admin3":"021042","localeAltName":null},{"geonameid":6535906,"name":"Lauregno/Laurein","admin3":"021043"},{"geonameid":6535907,"name":"Malles Venosta/Mals","admin3":"021046","localeAltName":null},{"geonameid":6535908,"name":"Marlengo/Marling","admin3":"021048","localeAltName":null},{"geonameid":6535909,"name":"Montagna/Montan","admin3":"021053","localeAltName":null},{"geonameid":6535910,"name":"Moso in Passiria/Moos in Passeier","admin3":"021054"},{"geonameid":6535911,"name":"Nalles/Nals","admin3":"021055","localeAltName":null},{"geonameid":6535912,"name":"Naturno/Naturns","admin3":"021056","localeAltName":null},{"geonameid":6535913,"name":"Nova Levante/Welschnofen","admin3":"021058","localeAltName":null},{"geonameid":6535914,"name":"Nova Ponente/Deutschnofen","admin3":"021059","localeAltName":null},{"geonameid":6535915,"name":"Ora/Auer","admin3":"021060","localeAltName":null},{"geonameid":6535916,"name":"Parcines/Partschins","admin3":"021062","localeAltName":null},{"geonameid":6535917,"name":"Perca/Percha","admin3":"021063","localeAltName":null},{"geonameid":6535918,"name":"Plaus/Plaus","admin3":"021064"},{"geonameid":6535919,"name":"Ponte Gardena/Waidbruck","admin3":"021065"},{"geonameid":6535920,"name":"Postal/Burgstall","admin3":"021066","localeAltName":null},{"geonameid":6535921,"name":"Prato allo Stelvio/Prad am Stilfserjoch","admin3":"021067","localeAltName":null},{"geonameid":6535922,"name":"Predoi/Prettau","admin3":"021068"},{"geonameid":6535923,"name":"San Candido/Innichen","admin3":"021077","localeAltName":null},{"geonameid":6535924,"name":"San Genesio Atesino/Jenesien","admin3":"021079","localeAltName":null},{"geonameid":6535925,"name":"San Leonardo in Passiria/St. Leonhard in Passeier","admin3":"021080","localeAltName":null},{"geonameid":6535926,"name":"San Lorenzo di Sebato/St. Lorenzen","admin3":"021081","localeAltName":null},{"geonameid":6535927,"name":"San Pancrazio/St. Pankraz","admin3":"021084"},{"geonameid":6535928,"name":"Sarentino/Sarntal","admin3":"021086","localeAltName":null},{"geonameid":6535929,"name":"Sesto/Sexten","admin3":"021092","localeAltName":null},{"geonameid":6535930,"name":"Silandro/Schlanders","admin3":"021093","localeAltName":null},{"geonameid":6535931,"name":"Sluderno/Schluderns","admin3":"021094","localeAltName":null},{"geonameid":6535932,"name":"Stelvio/Stilfs","admin3":"021095"},{"geonameid":6535933,"name":"Terento/Terenten","admin3":"021096","localeAltName":null},{"geonameid":6535934,"name":"Terlano/Terlan","admin3":"021097","localeAltName":null},{"geonameid":6535935,"name":"Tesimo/Tisens","admin3":"021099","localeAltName":null},{"geonameid":6535936,"name":"Tires/Tiers","admin3":"021100"},{"geonameid":6535937,"name":"Trodena nel parco naturale/Truden im Naturpark","admin3":"021102","localeAltName":"Trodena nel parco naturale"},{"geonameid":6535938,"name":"Valdaora/Olang","admin3":"021106","localeAltName":null},{"geonameid":6535939,"name":"Varna/Vahrn","admin3":"021111","localeAltName":null},{"geonameid":6535940,"name":"Villabassa/Niederdorf","admin3":"021113","localeAltName":null},{"geonameid":6535941,"name":"Velturno/Feldthurns","admin3":"021116","localeAltName":null},{"geonameid":6535942,"name":"Corvara in Badia/Corvara","admin3":"021026","localeAltName":null},{"geonameid":6535951,"name":"Senale-San Felice/Unsere Liebe Frau im Walde-St. Felix","admin3":"021118"},{"geonameid":6535953,"name":"Bolzano/Bozen","admin3":"021008","localeAltName":null},{"geonameid":6535954,"name":"Bronzolo/Branzoll","admin3":"021012","localeAltName":null},{"geonameid":6535955,"name":"Castelbello-Ciardes/Kastelbell-Tschars","admin3":"021018","localeAltName":null},{"geonameid":6535956,"name":"Laives/Leifers","admin3":"021040","localeAltName":null},{"geonameid":6535957,"name":"Merano/Meran","admin3":"021051","localeAltName":null},{"geonameid":6535958,"name":"Salorno sulla strada del vino/Salurn an der Weinstraße","admin3":"021076","localeAltName":null},{"geonameid":6535959,"name":"Vadena/Pfatten","admin3":"021105"},{"geonameid":6535967,"name":"Badia/Abtei","admin3":"021006","localeAltName":null},{"geonameid":6535968,"name":"Brunico/Bruneck","admin3":"021013","localeAltName":null},{"geonameid":6535969,"name":"Caldaro sulla strada del vino/Kaltern an der Weinstraße","admin3":"021015","localeAltName":null},{"geonameid":6535970,"name":"Cortaccia sulla strada del vino/Kurtatsch an der Weinstraße","admin3":"021024","localeAltName":null},{"geonameid":6535971,"name":"Fiè allo Sciliar/Völs am Schlern","admin3":"021031","localeAltName":null},{"geonameid":6535972,"name":"Luson/Lüsen","admin3":"021044","localeAltName":null},{"geonameid":6535973,"name":"Meltina/Mölten","admin3":"021050"},{"geonameid":6535974,"name":"Monguelfo-Tesido/Welsberg-Taisten","admin3":"021052","localeAltName":null},{"geonameid":6535975,"name":"Naz-Sciaves/Natz-Schabs","admin3":"021057","localeAltName":null},{"geonameid":6535976,"name":"Ortisei/St. Ulrich","admin3":"021061","localeAltName":null},{"geonameid":6535977,"name":"Rio di Pusteria/Mühlbach","admin3":"021074","localeAltName":null},{"geonameid":6535978,"name":"San Martino in Passiria/St. Martin in Passeier","admin3":"021083","localeAltName":null},{"geonameid":6535979,"name":"Santa Cristina Valgardena/St. Christina in Gröden","admin3":"021085","localeAltName":null},{"geonameid":6535980,"name":"Selva dei Molini/Mühlwald","admin3":"021088"},{"geonameid":6535981,"name":"Selva di Val Gardena/Wolkenstein in Gröden","admin3":"021089","localeAltName":null},{"geonameid":6535982,"name":"Termeno sulla strada del vino/Tramin an der Weinstraße","admin3":"021098","localeAltName":null},{"geonameid":6535983,"name":"Tubre/Taufers im Münstertal","admin3":"021103","localeAltName":null},{"geonameid":6535984,"name":"Vipiteno/Sterzing","admin3":"021115","localeAltName":null},{"geonameid":6535986,"name":"Rifiano/Riffian","admin3":"021073","localeAltName":null},{"geonameid":6535987,"name":"Appiano sulla strada del vino/Eppan an der Weinstraße","admin3":"021004","localeAltName":null},{"geonameid":6535996,"name":"La Valle/Wengen","admin3":"021117","localeAltName":null},{"geonameid":6536004,"name":"Aldino/Aldein","admin3":"021001","localeAltName":null},{"geonameid":6536005,"name":"Andriano/Andrian","admin3":"021002","localeAltName":null},{"geonameid":6536006,"name":"Barbiano/Barbian","admin3":"021007","localeAltName":null},{"geonameid":6536007,"name":"Brennero/Brenner","admin3":"021010","localeAltName":null},{"geonameid":6536008,"name":"Caines/Kuens","admin3":"021014"},{"geonameid":6536009,"name":"Cornedo all'Isarco/Karneid","admin3":"021023","localeAltName":null},{"geonameid":6536010,"name":"Cortina sulla strada del vino/Kurtinig an der Weinstraße","admin3":"021025","localeAltName":null},{"geonameid":6536011,"name":"Funes/Villnöß","admin3":"021033","localeAltName":null},{"geonameid":6536012,"name":"Magrè sulla strada del vino/Margreid an der Weinstraße","admin3":"021045","localeAltName":null},{"geonameid":6536013,"name":"Proves/Proveis","admin3":"021069"},{"geonameid":6536014,"name":"Racines/Ratschings","admin3":"021070","localeAltName":null},{"geonameid":6536015,"name":"Renon/Ritten","admin3":"021072","localeAltName":null},{"geonameid":6536016,"name":"Rodengo/Rodeneck","admin3":"021075","localeAltName":null},{"geonameid":6536017,"name":"San Martino in Badia/St. Martin in Thurn","admin3":"021082"},{"geonameid":6536018,"name":"Tirolo/Tirol","admin3":"021101","localeAltName":null},{"geonameid":6536019,"name":"Valle Aurina/Ahrntal","admin3":"021108","localeAltName":null},{"geonameid":6536020,"name":"Valle di Casies/Gsies","admin3":"021109","localeAltName":null},{"geonameid":6536021,"name":"Verano/Vöran","admin3":"021112","localeAltName":null},{"geonameid":6536022,"name":"Villandro/Villanders","admin3":"021114","localeAltName":null},{"geonameid":6536029,"name":"Scena/Schenna","admin3":"021087","localeAltName":null}],"alternateNames":[{"alternatenameId":1352508,"geonameid":3181912,"isoLanguage":"it","alternateName":"Bolzano","isPreferredName":true,"isShortName":true,"isColloquial":false,"isHistoric":false},{"alternatenameId":1352510,"geonameid":3181912,"isoLanguage":"de","alternateName":"Bozen","isPreferredName":true,"isShortName":true,"isColloquial":false,"isHistoric":false},{"alternatenameId":11216045,"geonameid":6534785,"isoLanguage":"de","alternateName":"Antholz","isPreferredName":true,"isShortName":true,"isColloquial":false,"isHistoric":false},{"alternatenameId":7836852,"geonameid":6535937,"isoLanguage":"it","alternateName":"Trodena nel parco naturale","isPreferredName":true,"isShortName":true,"isColloquial":false,"isHistoric":false}]},"__N_SSG":true}