{"pageProps":{"locale":"it","admin2":{"geonameid":3165241,"name":"Provincia autonoma di Trento","country":"IT","admin1":"17","admin2":"TN","admin3":"","latitude":"46.0696600","longitude":"11.1217700","localeAltName":"Trento"},"admin1":{"geonameid":3165244,"name":"Trentino-Alto Adige","admin1":"17","localeAltName":null},"locations":[{"geonameid":3183374,"name":"Ala","admin3":"022001","localeAltName":null},{"geonameid":3171264,"name":"Alba-Penia","admin3":"022039","localeAltName":null},{"geonameid":3183323,"name":"Albiano","admin3":"022002","localeAltName":null},{"geonameid":3183304,"name":"Aldeno","admin3":"022003","localeAltName":null},{"geonameid":3183082,"name":"Andalo","admin3":"022005","localeAltName":null},{"geonameid":3182910,"name":"Arco","admin3":"022006","localeAltName":null},{"geonameid":3182625,"name":"Avio","admin3":"022007","localeAltName":null},{"geonameid":8950044,"name":"Barco","admin3":"022104","localeAltName":null},{"geonameid":3182313,"name":"Baselga di Pinè","admin3":"022009","localeAltName":null},{"geonameid":3182114,"name":"Besenello","admin3":"022013","localeAltName":null},{"geonameid":6535248,"name":"Bezzecca","admin3":"022229","localeAltName":null},{"geonameid":6534569,"name":"Bleggio Superiore","admin3":"022017","localeAltName":null},{"geonameid":8948891,"name":"Bolognano-Vignole","admin3":"022006","localeAltName":null},{"geonameid":6535250,"name":"Bondo","admin3":"022246","localeAltName":null},{"geonameid":3181822,"name":"Borgo Valsugana","admin3":"022022","localeAltName":null},{"geonameid":3181678,"name":"Bosentino-Migazzone","admin3":"022236","localeAltName":null},{"geonameid":3181580,"name":"Breguzzo","admin3":"022246","localeAltName":null},{"geonameid":3181559,"name":"Brentonico","admin3":"022025","localeAltName":null},{"geonameid":3181303,"name":"Caderzone Terme","admin3":"022029","localeAltName":null},{"geonameid":3181293,"name":"Cadine","admin3":"022205","localeAltName":null},{"geonameid":3181236,"name":"Calavino","admin3":"022243","localeAltName":null},{"geonameid":6535252,"name":"Calceranica al Lago","admin3":"022032","localeAltName":null},{"geonameid":3181211,"name":"Caldes","admin3":"022033","localeAltName":null},{"geonameid":3181207,"name":"Caldonazzo","admin3":"022034","localeAltName":null},{"geonameid":3181181,"name":"Calliano","admin3":"022035","localeAltName":null},{"geonameid":3181003,"name":"Campitello di Fassa","admin3":"022036","localeAltName":null},{"geonameid":8949537,"name":"Canale-San Cristoforo","admin3":"022139","localeAltName":null},{"geonameid":3180883,"name":"Canazei","admin3":"022039","localeAltName":null},{"geonameid":8950179,"name":"Canezza","admin3":"022139","localeAltName":null},{"geonameid":6535253,"name":"Carano","admin3":"022254","localeAltName":null},{"geonameid":3180503,"name":"Carisolo","admin3":"022042","localeAltName":null},{"geonameid":7870310,"name":"Castellano","admin3":"022222","localeAltName":null},{"geonameid":3179585,"name":"Castello Molina di Fiemme","admin3":"022047","localeAltName":null},{"geonameid":3179572,"name":"Castello Tesino","admin3":"022048","localeAltName":null},{"geonameid":3179537,"name":"Castelnuovo","admin3":"022049","localeAltName":null},{"geonameid":3179333,"name":"Cavalese","admin3":"022050","localeAltName":null},{"geonameid":3179299,"name":"Cavareno","admin3":"022051","localeAltName":null},{"geonameid":6535255,"name":"Cavedine","admin3":"022053","localeAltName":null},{"geonameid":3179184,"name":"Cembra","admin3":"022241","localeAltName":null},{"geonameid":6696651,"name":"Ceniga","admin3":"022079","localeAltName":null},{"geonameid":8950209,"name":"Chizzola","admin3":"022001","localeAltName":null},{"geonameid":3178606,"name":"Civezzano","admin3":"022061","localeAltName":null},{"geonameid":3178548,"name":"Cles","admin3":"022062","localeAltName":null},{"geonameid":6457357,"name":"Cloz","admin3":"022253","localeAltName":null},{"geonameid":3178475,"name":"Cogolo","admin3":"022136","localeAltName":null},{"geonameid":3176276,"name":"Cologna-Gavazzo Nuova","admin3":"022191","localeAltName":null},{"geonameid":6534572,"name":"Commezzadura","admin3":"022064","localeAltName":null},{"geonameid":6534757,"name":"Concei","admin3":"022229","localeAltName":null},{"geonameid":3178199,"name":"Condino","admin3":"022238","localeAltName":null},{"geonameid":3178108,"name":"Coredo","admin3":"022230","localeAltName":null},{"geonameid":3177818,"name":"Creto","admin3":"022234","localeAltName":null},{"geonameid":3177753,"name":"Crosano","admin3":"022025","localeAltName":null},{"geonameid":3177744,"name":"Croviana","admin3":"022068","localeAltName":null},{"geonameid":6534994,"name":"Cunevo","admin3":"022242","localeAltName":null},{"geonameid":6534995,"name":"Daiano","admin3":"022254","localeAltName":null},{"geonameid":3177647,"name":"Daone","admin3":"022232","localeAltName":null},{"geonameid":3177623,"name":"Denno","admin3":"022074","localeAltName":null},{"geonameid":3177582,"name":"Dimaro","admin3":"022233","localeAltName":null},{"geonameid":3177476,"name":"Dro","admin3":"022079","localeAltName":null},{"geonameid":3177274,"name":"Fai della Paganella","admin3":"022081","localeAltName":null},{"geonameid":6535261,"name":"Faver","admin3":"022235","localeAltName":null},{"geonameid":3177036,"name":"Fiavè","admin3":"022083","localeAltName":null},{"geonameid":3177021,"name":"Fiera di Primiero","admin3":"022245","localeAltName":null},{"geonameid":3176857,"name":"Folgaria","admin3":"022087","localeAltName":null},{"geonameid":3176836,"name":"Fondo","admin3":"022252","localeAltName":null},{"geonameid":6535262,"name":"Fornace","admin3":"022089","localeAltName":null},{"geonameid":8949118,"name":"Fraviano","admin3":"022213","localeAltName":null},{"geonameid":8950103,"name":"Gazzadina","admin3":"022205","localeAltName":null},{"geonameid":6534575,"name":"Giovo","admin3":"022092","localeAltName":null},{"geonameid":6535264,"name":"Giustino","admin3":"022093","localeAltName":null},{"geonameid":3175816,"name":"Grigno","admin3":"022095","localeAltName":null},{"geonameid":6535799,"name":"Imer","admin3":"022097","localeAltName":null},{"geonameid":6534997,"name":"Isera","admin3":"022098","localeAltName":null},{"geonameid":8950259,"name":"Lases","admin3":"022108","localeAltName":null},{"geonameid":3175084,"name":"Lasino","admin3":"022243","localeAltName":null},{"geonameid":3174984,"name":"Lavis","admin3":"022103","localeAltName":null},{"geonameid":3174784,"name":"Levico Terme","admin3":"022104","localeAltName":null},{"geonameid":6947000,"name":"Lodrone-Darzo","admin3":"022183","localeAltName":null},{"geonameid":6534577,"name":"Lona-Lases","admin3":"022108","localeAltName":null},{"geonameid":3174326,"name":"Madonna di Campiglio","admin3":"022143","localeAltName":null},{"geonameid":8949339,"name":"Madrano-Canzolino","admin3":"022139","localeAltName":null},{"geonameid":3174186,"name":"Malè","admin3":"022110","localeAltName":null},{"geonameid":3173987,"name":"Marco","admin3":"022161","localeAltName":null},{"geonameid":8949601,"name":"Marter","admin3":"022156","localeAltName":null},{"geonameid":9036195,"name":"Masi di Cavalese","admin3":"022050","localeAltName":null},{"geonameid":3173704,"name":"Mattarello","admin3":"022205","localeAltName":null},{"geonameid":9036362,"name":"Meano","admin3":"022205","localeAltName":null},{"geonameid":3173508,"name":"Mezzana","admin3":"022114","localeAltName":null},{"geonameid":3173500,"name":"Mezzano","admin3":"022115","localeAltName":null},{"geonameid":3173485,"name":"Mezzocorona","admin3":"022116","localeAltName":null},{"geonameid":3173480,"name":"Mezzolombardo","admin3":"022117","localeAltName":null},{"geonameid":8224003,"name":"Miola di Pinè","admin3":"022009","localeAltName":null},{"geonameid":3173325,"name":"Moena","admin3":"022118","localeAltName":null},{"geonameid":8659202,"name":"Molina","admin3":"022047","localeAltName":null},{"geonameid":3173280,"name":"Molina di Ledro","admin3":"022229","localeAltName":null},{"geonameid":3173203,"name":"Molveno","admin3":"022120","localeAltName":null},{"geonameid":3173172,"name":"Monclassico","admin3":"022233","localeAltName":null},{"geonameid":3172598,"name":"Mori","admin3":"022123","localeAltName":null},{"geonameid":3172402,"name":"Nago-Torbole","admin3":"022124","localeAltName":null},{"geonameid":6535801,"name":"Nave San Rocco","admin3":"022251","localeAltName":null},{"geonameid":6534631,"name":"Nogaredo","admin3":"022127","localeAltName":null},{"geonameid":3172220,"name":"Nomi","admin3":"022128","localeAltName":null},{"geonameid":3172194,"name":"Novaledo","admin3":"022129","localeAltName":null},{"geonameid":11993254,"name":"Olle","admin3":"022022","localeAltName":null},{"geonameid":3171834,"name":"Ospedaletto","admin3":"022130","localeAltName":null},{"geonameid":3171747,"name":"Padergnone","admin3":"022248","localeAltName":null},{"geonameid":8950269,"name":"Palù","admin3":"022092","localeAltName":null},{"geonameid":3163877,"name":"Panchià","admin3":"022134","localeAltName":null},{"geonameid":7870309,"name":"Pedersano","admin3":"022222","localeAltName":null},{"geonameid":3171277,"name":"Pellizzano","admin3":"022137","localeAltName":null},{"geonameid":8659201,"name":"Pera","admin3":"022250","localeAltName":null},{"geonameid":3171214,"name":"Pergine Valsugana","admin3":"022139","localeAltName":null},{"geonameid":3170788,"name":"Pietramurata","admin3":"022079","localeAltName":null},{"geonameid":6534585,"name":"Pieve di Bono","admin3":"022234","localeAltName":null},{"geonameid":3170731,"name":"Pieve Tesino","admin3":"022142","localeAltName":null},{"geonameid":3170707,"name":"Pilcante","admin3":"022001","localeAltName":null},{"geonameid":3170682,"name":"Pinzolo","admin3":"022143","localeAltName":null},{"geonameid":6535803,"name":"Pomarolo","admin3":"022144","localeAltName":null},{"geonameid":3170275,"name":"Ponte Arche","admin3":"022228","localeAltName":null},{"geonameid":6618631,"name":"Povo","admin3":"022205","localeAltName":null},{"geonameid":3170013,"name":"Pozza di Fassa","admin3":"022250","localeAltName":null},{"geonameid":3169877,"name":"Predazzo","admin3":"022147","localeAltName":null},{"geonameid":8950263,"name":"Pressano","admin3":"022103","localeAltName":null},{"geonameid":3182535,"name":"Rabbi Fonti","admin3":"022150","localeAltName":null},{"geonameid":8948866,"name":"Ravina","admin3":"022205","localeAltName":null},{"geonameid":3169458,"name":"Revò","admin3":"022253","localeAltName":null},{"geonameid":3169272,"name":"Riva del Garda","admin3":"022153","localeAltName":null},{"geonameid":8950383,"name":"Rizzolaga-Campolongo","admin3":"022009","localeAltName":null},{"geonameid":3169067,"name":"Romagnano","admin3":"022205","localeAltName":null},{"geonameid":6535561,"name":"Romallo","admin3":"022253","localeAltName":null},{"geonameid":3169036,"name":"Romeno","admin3":"022155","localeAltName":null},{"geonameid":3169022,"name":"Roncegno","admin3":"022156","localeAltName":null},{"geonameid":3168993,"name":"Roncone","admin3":"022246","localeAltName":null},{"geonameid":6534633,"name":"Ronzo-Chienis","admin3":"022135","localeAltName":null},{"geonameid":3168860,"name":"Roverè della Luna","admin3":"022160","localeAltName":null},{"geonameid":3168854,"name":"Rovereto","admin3":"022161","localeAltName":null},{"geonameid":6534586,"name":"Rumo","admin3":"022163","localeAltName":null},{"geonameid":8949195,"name":"Sabbionara","admin3":"022007","localeAltName":null},{"geonameid":8949870,"name":"San Giorgio","admin3":"022006","localeAltName":null},{"geonameid":6535563,"name":"San Lorenzo in Banale","admin3":"022231","localeAltName":null},{"geonameid":3167963,"name":"San Michele All'Adige","admin3":"022167","localeAltName":null},{"geonameid":6534588,"name":"Sant'Orsola Terme","admin3":"022168","localeAltName":null},{"geonameid":8468843,"name":"Santa Margherita","admin3":"022001","localeAltName":null},{"geonameid":3167137,"name":"Sarche","admin3":"022243","localeAltName":null},{"geonameid":3167134,"name":"Sardagna","admin3":"022205","localeAltName":null},{"geonameid":6534637,"name":"Sarnonico","admin3":"022170","localeAltName":null},{"geonameid":6535564,"name":"Scurelle","admin3":"022171","localeAltName":null},{"geonameid":8949968,"name":"Segno","admin3":"022230","localeAltName":null},{"geonameid":6534638,"name":"Segonzano","admin3":"022172","localeAltName":null},{"geonameid":8949913,"name":"Seregnano","admin3":"022061","localeAltName":null},{"geonameid":3166642,"name":"Serravalle","admin3":"022001","localeAltName":null},{"geonameid":3166497,"name":"Siror","admin3":"022245","localeAltName":null},{"geonameid":6534640,"name":"Smarano","admin3":"022230","localeAltName":null},{"geonameid":6534643,"name":"Soraga","admin3":"022176","localeAltName":null},{"geonameid":6535566,"name":"Spiazzo","admin3":"022179","localeAltName":null},{"geonameid":3166230,"name":"Spormaggiore","admin3":"022180","localeAltName":null},{"geonameid":3166229,"name":"Sporminore","admin3":"022181","localeAltName":null},{"geonameid":3166163,"name":"Stenico","admin3":"022182","localeAltName":null},{"geonameid":3166123,"name":"Storo","admin3":"022183","localeAltName":null},{"geonameid":6535567,"name":"Strembo","admin3":"022184","localeAltName":null},{"geonameid":3166091,"name":"Strigno","admin3":"022240","localeAltName":null},{"geonameid":8949704,"name":"Susà","admin3":"022139","localeAltName":null},{"geonameid":3177618,"name":"Taio","admin3":"022230","localeAltName":null},{"geonameid":3165904,"name":"Tassullo","admin3":"022249","localeAltName":null},{"geonameid":8949766,"name":"Tavernaro","admin3":"022205","localeAltName":null},{"geonameid":3165834,"name":"Telve","admin3":"022188","localeAltName":null},{"geonameid":6535568,"name":"Telve di Sopra","admin3":"022189","localeAltName":null},{"geonameid":6534645,"name":"Tenna","admin3":"022190","localeAltName":null},{"geonameid":3165817,"name":"Tenno","admin3":"022191","localeAltName":null},{"geonameid":3165790,"name":"Terlago","admin3":"022248","localeAltName":null},{"geonameid":6534589,"name":"Terragnolo","admin3":"022193","localeAltName":null},{"geonameid":6534646,"name":"Terzolas","admin3":"022195","localeAltName":null},{"geonameid":3165730,"name":"Tesero","admin3":"022196","localeAltName":null},{"geonameid":3165701,"name":"Tezze","admin3":"022095","localeAltName":null},{"geonameid":3165691,"name":"Tiarno di Sopra","admin3":"022229","localeAltName":null},{"geonameid":3165690,"name":"Tiarno di Sotto","admin3":"022229","localeAltName":null},{"geonameid":3165649,"name":"Tione di Trento","admin3":"022199","localeAltName":null},{"geonameid":3165571,"name":"Tonadico","admin3":"022245","localeAltName":null},{"geonameid":6534591,"name":"Trambileno","admin3":"022203","localeAltName":null},{"geonameid":3165321,"name":"Transacqua","admin3":"022245","localeAltName":null},{"geonameid":3165243,"name":"Trento","admin3":"022205","localeAltName":null},{"geonameid":3165231,"name":"Tres","admin3":"022230","localeAltName":null},{"geonameid":3165122,"name":"Tuenno","admin3":"022249","localeAltName":null},{"geonameid":6534594,"name":"Valfloriana","admin3":"022209","localeAltName":null},{"geonameid":6534595,"name":"Vallarsa","admin3":"022210","localeAltName":null},{"geonameid":6534648,"name":"Varena","admin3":"022254","localeAltName":null},{"geonameid":3164668,"name":"Vattaro","admin3":"022236","localeAltName":null},{"geonameid":3164644,"name":"Vela","admin3":"022205","localeAltName":null},{"geonameid":8949681,"name":"Verla","admin3":"022092","localeAltName":null},{"geonameid":3164540,"name":"Vermiglio","admin3":"022213","localeAltName":null},{"geonameid":3164453,"name":"Vezzano","admin3":"022248","localeAltName":null},{"geonameid":6618629,"name":"Vigo","admin3":"022053","localeAltName":null},{"geonameid":3164330,"name":"Vigo di Fassa","admin3":"022250","localeAltName":null},{"geonameid":6534590,"name":"Vigo di Ton","admin3":"022200","localeAltName":null},{"geonameid":6696792,"name":"Vigo Meano","admin3":"022205","localeAltName":null},{"geonameid":3164317,"name":"Vigo Rendena","admin3":"022244","localeAltName":null},{"geonameid":3164323,"name":"Vigolo Vattaro","admin3":"022236","localeAltName":null},{"geonameid":3164223,"name":"Villa Lagarina","admin3":"022222","localeAltName":null},{"geonameid":6534596,"name":"Villa-Agnedo","admin3":"022240","localeAltName":null},{"geonameid":8949767,"name":"Villamontagna","admin3":"022205","localeAltName":null},{"geonameid":3163989,"name":"Volano","admin3":"022224","localeAltName":null},{"geonameid":3163930,"name":"Zambana","admin3":"022251","localeAltName":null},{"geonameid":3163876,"name":"Ziano di Fiemme","admin3":"022226","localeAltName":null}],"admin3":[{"geonameid":3175012,"name":"Lavarone","admin3":"022102"},{"geonameid":6535882,"name":"Nago-Torbole","admin3":"022124","localeAltName":null},{"geonameid":6535945,"name":"Ruffrè-Mendola","admin3":"022162"},{"geonameid":6535952,"name":"Vignola-Falesina","admin3":"022216"},{"geonameid":6535965,"name":"Castello-Molina di Fiemme","admin3":"022047","localeAltName":null},{"geonameid":6535997,"name":"Lona-Lases","admin3":"022108","localeAltName":null},{"geonameid":6535998,"name":"Ronzo-Chienis","admin3":"022135","localeAltName":null},{"geonameid":6536031,"name":"Borgo Valsugana","admin3":"022022","localeAltName":null},{"geonameid":6536201,"name":"Palù del Fersina","admin3":"022133"},{"geonameid":6536208,"name":"Vermiglio","admin3":"022213","localeAltName":null},{"geonameid":6536217,"name":"Bedollo","admin3":"022011"},{"geonameid":6536229,"name":"Caderzone Terme","admin3":"022029","localeAltName":null},{"geonameid":6536230,"name":"Caldes","admin3":"022033","localeAltName":null},{"geonameid":6536231,"name":"Campodenno","admin3":"022037"},{"geonameid":6536232,"name":"Capriana","admin3":"022040"},{"geonameid":6536233,"name":"Carisolo","admin3":"022042","localeAltName":null},{"geonameid":6536234,"name":"Castello Tesino","admin3":"022048","localeAltName":null},{"geonameid":6536235,"name":"Cavareno","admin3":"022051","localeAltName":null},{"geonameid":6536238,"name":"Croviana","admin3":"022068","localeAltName":null},{"geonameid":6536239,"name":"Malé","admin3":"022110","localeAltName":null},{"geonameid":6536240,"name":"Massimeno","admin3":"022112"},{"geonameid":6536242,"name":"Pergine Valsugana","admin3":"022139","localeAltName":null},{"geonameid":6536244,"name":"Romeno","admin3":"022155","localeAltName":null},{"geonameid":6536248,"name":"San Michele all'Adige","admin3":"022167","localeAltName":null},{"geonameid":6536253,"name":"Storo","admin3":"022183","localeAltName":null},{"geonameid":6536592,"name":"Dambel","admin3":"022071"},{"geonameid":6536594,"name":"Fiavè","admin3":"022083","localeAltName":null},{"geonameid":6536599,"name":"Roverè della Luna","admin3":"022160","localeAltName":null},{"geonameid":6537242,"name":"Andalo","admin3":"022005","localeAltName":null},{"geonameid":6537243,"name":"Avio","admin3":"022007","localeAltName":null},{"geonameid":6537244,"name":"Bocenago","admin3":"022018"},{"geonameid":6537245,"name":"Brentonico","admin3":"022025","localeAltName":null},{"geonameid":6537248,"name":"Cavedago","admin3":"022052"},{"geonameid":6537250,"name":"Cinte Tesino","admin3":"022059"},{"geonameid":6537251,"name":"Civezzano","admin3":"022061","localeAltName":null},{"geonameid":6537252,"name":"Cles","admin3":"022062","localeAltName":null},{"geonameid":6537254,"name":"Denno","admin3":"022074","localeAltName":null},{"geonameid":6537255,"name":"Drena","admin3":"022078"},{"geonameid":6537256,"name":"Fai della Paganella","admin3":"022081","localeAltName":null},{"geonameid":6538218,"name":"Sanzeno","admin3":"022169"},{"geonameid":6538220,"name":"Spormaggiore","admin3":"022180","localeAltName":null},{"geonameid":6538221,"name":"Stenico","admin3":"022182","localeAltName":null},{"geonameid":6538224,"name":"Tesero","admin3":"022196","localeAltName":null},{"geonameid":6538226,"name":"Tione di Trento","admin3":"022199","localeAltName":null},{"geonameid":6539502,"name":"Mazzin","admin3":"022113"},{"geonameid":6539503,"name":"Grigno","admin3":"022095","localeAltName":null},{"geonameid":6539504,"name":"Lavis","admin3":"022103","localeAltName":null},{"geonameid":6539505,"name":"Levico Terme","admin3":"022104","localeAltName":null},{"geonameid":6539506,"name":"Mezzocorona","admin3":"022116","localeAltName":null},{"geonameid":6539507,"name":"Molveno","admin3":"022120","localeAltName":null},{"geonameid":6539509,"name":"Nomi","admin3":"022128","localeAltName":null},{"geonameid":6539510,"name":"Novaledo","admin3":"022129","localeAltName":null},{"geonameid":6539511,"name":"Pieve Tesino","admin3":"022142","localeAltName":null},{"geonameid":6539512,"name":"Predazzo","admin3":"022147","localeAltName":null},{"geonameid":6539631,"name":"Peio","admin3":"022136","localeAltName":null},{"geonameid":6539632,"name":"Mezzana","admin3":"022114","localeAltName":null},{"geonameid":6539633,"name":"Mezzano","admin3":"022115","localeAltName":null},{"geonameid":6539634,"name":"Ospedaletto","admin3":"022130","localeAltName":null},{"geonameid":6539636,"name":"Volano","admin3":"022224","localeAltName":null},{"geonameid":6539682,"name":"Ronzone","admin3":"022159"},{"geonameid":6539794,"name":"Arco","admin3":"022006","localeAltName":null},{"geonameid":6539795,"name":"Calliano","admin3":"022035","localeAltName":null},{"geonameid":6539796,"name":"Castelnuovo","admin3":"022049","localeAltName":null},{"geonameid":6539798,"name":"Folgaria","admin3":"022087","localeAltName":null},{"geonameid":6539916,"name":"Rovereto","admin3":"022161","localeAltName":null},{"geonameid":6540097,"name":"Livo","admin3":"022106"},{"geonameid":6540098,"name":"Luserna","admin3":"022109"},{"geonameid":6540099,"name":"Mori","admin3":"022123","localeAltName":null},{"geonameid":6540225,"name":"Albiano","admin3":"022002","localeAltName":null},{"geonameid":6540226,"name":"Caldonazzo","admin3":"022034","localeAltName":null},{"geonameid":6540227,"name":"Canazei","admin3":"022039","localeAltName":null},{"geonameid":6540228,"name":"Cavalese","admin3":"022050","localeAltName":null},{"geonameid":6540230,"name":"Mezzolombardo","admin3":"022117","localeAltName":null},{"geonameid":6540231,"name":"Moena","admin3":"022118","localeAltName":null},{"geonameid":6540238,"name":"Ziano di Fiemme","admin3":"022226","localeAltName":null},{"geonameid":6540650,"name":"Ala","admin3":"022001","localeAltName":null},{"geonameid":6540651,"name":"Aldeno","admin3":"022003","localeAltName":null},{"geonameid":6540652,"name":"Baselga di Pinè","admin3":"022009","localeAltName":null},{"geonameid":6540653,"name":"Besenello","admin3":"022013","localeAltName":null},{"geonameid":6540655,"name":"Dro","admin3":"022079","localeAltName":null},{"geonameid":6540969,"name":"Telve","admin3":"022188","localeAltName":null},{"geonameid":6540970,"name":"Villa Lagarina","admin3":"022222","localeAltName":null},{"geonameid":6541429,"name":"Pellizzano","admin3":"022137","localeAltName":null},{"geonameid":6541430,"name":"Pinzolo","admin3":"022143","localeAltName":null},{"geonameid":6541469,"name":"Trento","admin3":"022205","localeAltName":null},{"geonameid":6541506,"name":"Panchià","admin3":"022134","localeAltName":null},{"geonameid":6541508,"name":"Tenno","admin3":"022191","localeAltName":null},{"geonameid":6541535,"name":"Castel Condino","admin3":"022045"},{"geonameid":6541810,"name":"Riva del Garda","admin3":"022153","localeAltName":null},{"geonameid":6542015,"name":"Rabbi","admin3":"022150","localeAltName":null},{"geonameid":6542132,"name":"Sporminore","admin3":"022181","localeAltName":null},{"geonameid":6542170,"name":"Roncegno Terme","admin3":"022156","localeAltName":null},{"geonameid":6542172,"name":"Campitello di Fassa","admin3":"022036","localeAltName":null},{"geonameid":6542173,"name":"Canal San Bovo","admin3":"022038"},{"geonameid":6542620,"name":"Bleggio Superiore","admin3":"022017","localeAltName":null},{"geonameid":6542621,"name":"Bresimo","admin3":"022026"},{"geonameid":6542622,"name":"Cimone","admin3":"022058"},{"geonameid":6542623,"name":"Commezzadura","admin3":"022064","localeAltName":null},{"geonameid":6542624,"name":"Fierozzo","admin3":"022085"},{"geonameid":6542625,"name":"Garniga Terme","admin3":"022091"},{"geonameid":6542626,"name":"Giovo","admin3":"022092","localeAltName":null},{"geonameid":6542635,"name":"Rumo","admin3":"022163","localeAltName":null},{"geonameid":6542636,"name":"Sagron Mis","admin3":"022164"},{"geonameid":6542637,"name":"Sant'Orsola Terme","admin3":"022168","localeAltName":null},{"geonameid":6542638,"name":"Terragnolo","admin3":"022193","localeAltName":null},{"geonameid":6542639,"name":"Ton","admin3":"022200","localeAltName":null},{"geonameid":6542640,"name":"Trambileno","admin3":"022203","localeAltName":null},{"geonameid":6542643,"name":"Valfloriana","admin3":"022209","localeAltName":null},{"geonameid":6542644,"name":"Vallarsa","admin3":"022210","localeAltName":null},{"geonameid":6542679,"name":"Nogaredo","admin3":"022127","localeAltName":null},{"geonameid":6542680,"name":"Ossana","admin3":"022131"},{"geonameid":6542681,"name":"Pelugo","admin3":"022138"},{"geonameid":6542684,"name":"Sarnonico","admin3":"022170","localeAltName":null},{"geonameid":6542685,"name":"Segonzano","admin3":"022172","localeAltName":null},{"geonameid":6542686,"name":"Sfruz","admin3":"022173"},{"geonameid":6542690,"name":"Soraga di Fassa","admin3":"022176","localeAltName":null},{"geonameid":6542691,"name":"Sover","admin3":"022177"},{"geonameid":6542692,"name":"Tenna","admin3":"022190","localeAltName":null},{"geonameid":6542693,"name":"Terzolas","admin3":"022195","localeAltName":null},{"geonameid":6542694,"name":"Torcegno","admin3":"022202"},{"geonameid":6542983,"name":"Isera","admin3":"022098","localeAltName":null},{"geonameid":6542984,"name":"Ronchi Valsugana","admin3":"022157"},{"geonameid":6543234,"name":"Bieno","admin3":"022015"},{"geonameid":6543236,"name":"Bondone","admin3":"022021"},{"geonameid":6543237,"name":"Calceranica al Lago","admin3":"022032","localeAltName":null},{"geonameid":6543239,"name":"Carzano","admin3":"022043"},{"geonameid":6543240,"name":"Cavedine","admin3":"022053","localeAltName":null},{"geonameid":6543241,"name":"Cavizzana","admin3":"022054"},{"geonameid":6543242,"name":"Cis","admin3":"022060"},{"geonameid":6543247,"name":"Fornace","admin3":"022089","localeAltName":null},{"geonameid":6543248,"name":"Frassilongo","admin3":"022090"},{"geonameid":6543249,"name":"Giustino","admin3":"022093","localeAltName":null},{"geonameid":6543543,"name":"Samone","admin3":"022165"},{"geonameid":6543545,"name":"Scurelle","admin3":"022171","localeAltName":null},{"geonameid":6543547,"name":"Spiazzo","admin3":"022179","localeAltName":null},{"geonameid":6543548,"name":"Strembo","admin3":"022184","localeAltName":null},{"geonameid":6543549,"name":"Telve di Sopra","admin3":"022189","localeAltName":null},{"geonameid":6543771,"name":"Imer","admin3":"022097","localeAltName":null},{"geonameid":6543774,"name":"Pomarolo","admin3":"022144","localeAltName":null},{"geonameid":7669364,"name":"Comano Terme","admin3":"022228","localeAltName":null},{"geonameid":7669365,"name":"Ledro","admin3":"022229","localeAltName":null},{"geonameid":11287507,"name":"Porte di Rendena","admin3":"022244","localeAltName":null},{"geonameid":11287662,"name":"San Lorenzo Dorsino","admin3":"022231","localeAltName":null},{"geonameid":11287663,"name":"Valdaone","admin3":"022232","localeAltName":null},{"geonameid":11287665,"name":"Predaia","admin3":"022230","localeAltName":null},{"geonameid":11287666,"name":"Vallelaghi","admin3":"022248","localeAltName":null},{"geonameid":11287668,"name":"Altopiano della Vigolana","admin3":"022236","localeAltName":null},{"geonameid":11287669,"name":"Tre Ville","admin3":"022247"},{"geonameid":11287670,"name":"Castel Ivano","admin3":"022240","localeAltName":null},{"geonameid":11287672,"name":"Pieve di Bono-Prezzo","admin3":"022234","localeAltName":null},{"geonameid":11287674,"name":"Ville d'Anaunia","admin3":"022249","localeAltName":null},{"geonameid":11287675,"name":"Madruzzo","admin3":"022243","localeAltName":null},{"geonameid":11287679,"name":"Dimaro Folgarida","admin3":"022233","localeAltName":null},{"geonameid":11287680,"name":"Cembra Lisignago","admin3":"022241","localeAltName":null},{"geonameid":11287681,"name":"Borgo Chiese","admin3":"022238","localeAltName":null},{"geonameid":11287682,"name":"Altavalle","admin3":"022235","localeAltName":null},{"geonameid":11287683,"name":"Contà","admin3":"022242","localeAltName":null},{"geonameid":11287688,"name":"Borgo Lares","admin3":"022239"},{"geonameid":11287690,"name":"Amblar-Don","admin3":"022237"},{"geonameid":11287692,"name":"Primiero San Martino di Castrozza","admin3":"022245","localeAltName":null},{"geonameid":11287693,"name":"Sella Giudicarie","admin3":"022246","localeAltName":null},{"geonameid":12032157,"name":"San Giovanni di Fassa-Sèn Jan","admin3":"022250","localeAltName":null},{"geonameid":12032177,"name":"Terre d'Adige","admin3":"022251","localeAltName":null},{"geonameid":12166938,"name":"Ville di Fiemme","admin3":"022254","localeAltName":null},{"geonameid":12166939,"name":"Novella","admin3":"022253","localeAltName":null},{"geonameid":12166940,"name":"Borgo d'Anaunia","admin3":"022252","localeAltName":null}],"alternateNames":[{"alternatenameId":1347438,"geonameid":3165241,"isoLanguage":"it","alternateName":"Trento","isPreferredName":true,"isShortName":true,"isColloquial":false,"isHistoric":false},{"alternatenameId":1347440,"geonameid":3165241,"isoLanguage":"de","alternateName":"Provinz Trento","isPreferredName":true,"isShortName":true,"isColloquial":false,"isHistoric":false},{"alternatenameId":2431354,"geonameid":3165241,"isoLanguage":"en","alternateName":"Province of Trente","isPreferredName":true,"isShortName":true,"isColloquial":false,"isHistoric":false}]},"__N_SSG":true}