{"pageProps":{"locale":"it","admin2":{"geonameid":3181927,"name":"Bologna","country":"IT","admin1":"05","admin2":"BO","admin3":"","latitude":"44.4666700","longitude":"11.4333300","localeAltName":"Bologna"},"admin1":{"geonameid":3177401,"name":"Emilia-Romagna","admin1":"05","localeAltName":"Emilia-Romagna"},"locations":[{"geonameid":3183168,"name":"Altedo","admin3":"037035","localeAltName":null},{"geonameid":3183002,"name":"Anzola dell'Emilia","admin3":"037001","localeAltName":null},{"geonameid":3182879,"name":"Argelato","admin3":"037002","localeAltName":null},{"geonameid":3182417,"name":"Baragazza","admin3":"037022","localeAltName":null},{"geonameid":3182348,"name":"Baricella","admin3":"037003","localeAltName":null},{"geonameid":3182260,"name":"Bazzano","admin3":"037061","localeAltName":null},{"geonameid":3182176,"name":"Bentivoglio","admin3":"037005","localeAltName":null},{"geonameid":8949228,"name":"Berzantina","admin3":"037015","localeAltName":null},{"geonameid":3181928,"name":"Bologna","admin3":"037006","localeAltName":null},{"geonameid":3181747,"name":"Borgo Tossignano","admin3":"037007","localeAltName":null},{"geonameid":3181775,"name":"Borgonuovo","admin3":"037057","localeAltName":null},{"geonameid":8950368,"name":"Boschi","admin3":"037003","localeAltName":null},{"geonameid":8949171,"name":"Bubano","admin3":"037045","localeAltName":null},{"geonameid":3181445,"name":"Budrie","admin3":"037053","localeAltName":null},{"geonameid":3181443,"name":"Budrio","admin3":"037008","localeAltName":null},{"geonameid":8949035,"name":"Cà Dè Fabbri","admin3":"037038","localeAltName":null},{"geonameid":8949555,"name":"Cadriano","admin3":"037030","localeAltName":null},{"geonameid":3181233,"name":"Calcara","admin3":"037061","localeAltName":null},{"geonameid":3181212,"name":"Calderara di Reno","admin3":"037009","localeAltName":null},{"geonameid":8199413,"name":"Calderino","admin3":"037042","localeAltName":null},{"geonameid":3180224,"name":"Casalecchio di Reno","admin3":"037011","localeAltName":null},{"geonameid":3180192,"name":"Casalfiumanese","admin3":"037012","localeAltName":null},{"geonameid":8950359,"name":"Castagnolo Minore","admin3":"037005","localeAltName":null},{"geonameid":3179725,"name":"Castel d'Aiano","admin3":"037013","localeAltName":null},{"geonameid":3179713,"name":"Castel del Rio","admin3":"037014","localeAltName":null},{"geonameid":3179671,"name":"Castel Guelfo di Bologna","admin3":"037016","localeAltName":null},{"geonameid":3179560,"name":"Castel Maggiore","admin3":"037019","localeAltName":null},{"geonameid":3179479,"name":"Castel San Pietro Terme","admin3":"037020","localeAltName":null},{"geonameid":8199410,"name":"Castelletto","admin3":"037061","localeAltName":null},{"geonameid":3179597,"name":"Castello d'Argile","admin3":"037017","localeAltName":null},{"geonameid":3179441,"name":"Castenaso","admin3":"037021","localeAltName":null},{"geonameid":3179421,"name":"Castiglione dei Pepoli","admin3":"037022","localeAltName":null},{"geonameid":3177827,"name":"Crespellano","admin3":"037061","localeAltName":null},{"geonameid":3177814,"name":"Crevalcore","admin3":"037024","localeAltName":null},{"geonameid":3177640,"name":"Decima","admin3":"037053","localeAltName":null},{"geonameid":3177489,"name":"Dozza","admin3":"037025","localeAltName":null},{"geonameid":8949980,"name":"Fontana","admin3":"037057","localeAltName":null},{"geonameid":3176812,"name":"Fontanelice","admin3":"037026","localeAltName":null},{"geonameid":3176433,"name":"Gaggio Montano","admin3":"037027","localeAltName":null},{"geonameid":3176375,"name":"Galliera","admin3":"037028","localeAltName":null},{"geonameid":8949627,"name":"Ganzanigo","admin3":"037037","localeAltName":null},{"geonameid":3163830,"name":"Granarolo dell'Emilia e Viadagola","admin3":"037030","localeAltName":null},{"geonameid":3175807,"name":"Grizzana Morandi","admin3":"037031","localeAltName":null},{"geonameid":3175537,"name":"Imola","admin3":"037032","localeAltName":null},{"geonameid":3175273,"name":"Lagaro","admin3":"037022","localeAltName":null},{"geonameid":3175221,"name":"Lama di Reno","admin3":"037036","localeAltName":null},{"geonameid":3174652,"name":"Lizzano in Belvedere","admin3":"037033","localeAltName":null},{"geonameid":3174629,"name":"Loiano","admin3":"037034","localeAltName":null},{"geonameid":8948941,"name":"Longara","admin3":"037009","localeAltName":null},{"geonameid":8950265,"name":"Lovoleto","admin3":"037030","localeAltName":null},{"geonameid":8950108,"name":"Maccaretolo","admin3":"037055","localeAltName":null},{"geonameid":8950360,"name":"Maggio","admin3":"037046","localeAltName":null},{"geonameid":3174198,"name":"Malalbergo","admin3":"037035","localeAltName":null},{"geonameid":3174027,"name":"Marano","admin3":"037027","localeAltName":null},{"geonameid":3173889,"name":"Marmorta","admin3":"037039","localeAltName":null},{"geonameid":8950083,"name":"Martiri di Pizzocalvo","admin3":"037054","localeAltName":null},{"geonameid":3173829,"name":"Marzabotto","admin3":"037036","localeAltName":null},{"geonameid":3173660,"name":"Medicina-Buda","admin3":"037037","localeAltName":null},{"geonameid":8950118,"name":"Mercatale","admin3":"037046","localeAltName":null},{"geonameid":3173482,"name":"Mezzolara","admin3":"037008","localeAltName":null},{"geonameid":3173407,"name":"Minerbio","admin3":"037038","localeAltName":null},{"geonameid":3173276,"name":"Molinella","admin3":"037039","localeAltName":null},{"geonameid":3173145,"name":"Monghidoro","admin3":"037040","localeAltName":null},{"geonameid":8949192,"name":"Monte San Giovanni","admin3":"037042","localeAltName":null},{"geonameid":3172807,"name":"Montepastore","admin3":"037042","localeAltName":null},{"geonameid":3172784,"name":"Monterenzio","admin3":"037041","localeAltName":null},{"geonameid":3172626,"name":"Monzuno","admin3":"037044","localeAltName":null},{"geonameid":3172610,"name":"Mordano","admin3":"037045","localeAltName":null},{"geonameid":8948815,"name":"Osteria Grande","admin3":"037020","localeAltName":null},{"geonameid":8948938,"name":"Osteria Nuova","admin3":"037050","localeAltName":null},{"geonameid":6534261,"name":"Ozzano dell'Emilia","admin3":"037046","localeAltName":null},{"geonameid":3171713,"name":"Padulle","admin3":"037050","localeAltName":null},{"geonameid":3171656,"name":"Palata Pepoli","admin3":"037024","localeAltName":null},{"geonameid":3171304,"name":"Pegola","admin3":"037035","localeAltName":null},{"geonameid":8949484,"name":"Pian di Venola","admin3":"037036","localeAltName":null},{"geonameid":3171005,"name":"Piano del Voglio","admin3":"037051","localeAltName":null},{"geonameid":3170937,"name":"Pianoro","admin3":"037047","localeAltName":null},{"geonameid":3170752,"name":"Pieve di Cento","admin3":"037048","localeAltName":null},{"geonameid":8949751,"name":"Pioppe di Salvaro","admin3":"037031","localeAltName":null},{"geonameid":8948957,"name":"Pizzano","admin3":"037041","localeAltName":null},{"geonameid":3170276,"name":"Ponte della Venturina","admin3":"037062","localeAltName":null},{"geonameid":3175554,"name":"Ponte Rizzoli","admin3":"037046","localeAltName":null},{"geonameid":3170226,"name":"Ponte Ronca","admin3":"037060","localeAltName":null},{"geonameid":8948878,"name":"Ponticella","admin3":"037054","localeAltName":null},{"geonameid":3170203,"name":"Ponticelli","admin3":"037032","localeAltName":null},{"geonameid":3170131,"name":"Porretta Terme","admin3":"037062","localeAltName":null},{"geonameid":8948729,"name":"Progresso","admin3":"037019","localeAltName":null},{"geonameid":8949122,"name":"Pulce","admin3":"037054","localeAltName":null},{"geonameid":3169697,"name":"Quarto Inferiore","admin3":"037030","localeAltName":null},{"geonameid":6692061,"name":"Rastignano-Carteria di Sesto","admin3":"037047","localeAltName":null},{"geonameid":3169446,"name":"Riale","admin3":"037060","localeAltName":null},{"geonameid":3169339,"name":"Riola","admin3":"037059","localeAltName":null},{"geonameid":3169322,"name":"Rioveggio","admin3":"037044","localeAltName":null},{"geonameid":3168700,"name":"Sala Bolognese","admin3":"037050","localeAltName":null},{"geonameid":3168545,"name":"San Benedetto Val di Sambro","admin3":"037051","localeAltName":null},{"geonameid":3168355,"name":"San Gabriele-Mondonuovo","admin3":"037003","localeAltName":null},{"geonameid":3168325,"name":"San Giacomo del Martignone","admin3":"037001","localeAltName":null},{"geonameid":3168300,"name":"San Giorgio di Piano","admin3":"037052","localeAltName":null},{"geonameid":3168239,"name":"San Giovanni in Persiceto","admin3":"037053","localeAltName":null},{"geonameid":3168175,"name":"San Lazzaro","admin3":"037054","localeAltName":null},{"geonameid":3168069,"name":"San Marino","admin3":"037005","localeAltName":null},{"geonameid":3168016,"name":"San Martino in Argine","admin3":"037039","localeAltName":null},{"geonameid":3167834,"name":"San Pietro Capofiume","admin3":"037039","localeAltName":null},{"geonameid":3167824,"name":"San Pietro in Casale","admin3":"037055","localeAltName":null},{"geonameid":8949881,"name":"San Prospero","admin3":"037032","localeAltName":null},{"geonameid":9036374,"name":"San Venanzio","admin3":"037028","localeAltName":null},{"geonameid":8949016,"name":"San Vincenzo","admin3":"037028","localeAltName":null},{"geonameid":8949482,"name":"San Vitale Grande","admin3":"037009","localeAltName":null},{"geonameid":3167648,"name":"Sant'Agata Bolognese","admin3":"037056","localeAltName":null},{"geonameid":3167392,"name":"Sant'Antonio","admin3":"037037","localeAltName":null},{"geonameid":8949801,"name":"Santa Maria in Duno","admin3":"037005","localeAltName":null},{"geonameid":3167062,"name":"Sasso Marconi","admin3":"037057","localeAltName":null},{"geonameid":8949523,"name":"Sasso Morelli","admin3":"037032","localeAltName":null},{"geonameid":8950147,"name":"Savazza","admin3":"037041","localeAltName":null},{"geonameid":3167029,"name":"Savigno","admin3":"037061","localeAltName":null},{"geonameid":3166600,"name":"Sesto Imolese","admin3":"037032","localeAltName":null},{"geonameid":3166528,"name":"Silla","admin3":"037027","localeAltName":null},{"geonameid":3166147,"name":"Stiatico","admin3":"037052","localeAltName":null},{"geonameid":8949763,"name":"Stiore","admin3":"037061","localeAltName":null},{"geonameid":3165596,"name":"Tolè","admin3":"037059","localeAltName":null},{"geonameid":8948811,"name":"Toscanella","admin3":"037025","localeAltName":null},{"geonameid":8949711,"name":"Trappolone","admin3":"037054","localeAltName":null},{"geonameid":6692147,"name":"Trebbo","admin3":"037019","localeAltName":null},{"geonameid":3164991,"name":"Vado","admin3":"037044","localeAltName":null},{"geonameid":8949945,"name":"Vedrana","admin3":"037008","localeAltName":null},{"geonameid":3167540,"name":"Venezzano","admin3":"037017","localeAltName":null},{"geonameid":3164552,"name":"Vergato","admin3":"037059","localeAltName":null},{"geonameid":3164392,"name":"Vidiciatico","admin3":"037033","localeAltName":null},{"geonameid":8949168,"name":"Villa Fontana","admin3":"037037","localeAltName":null},{"geonameid":8949441,"name":"Villa Salina","admin3":"037019","localeAltName":null},{"geonameid":3164191,"name":"Villanova","admin3":"037021","localeAltName":null},{"geonameid":3163853,"name":"Zola Predosa","admin3":"037060","localeAltName":null}],"admin3":[{"geonameid":3171759,"name":"Ozzano dell'Emilia","admin3":"037046","localeAltName":null},{"geonameid":6536278,"name":"San Lazzaro di Savena","admin3":"037054","localeAltName":null},{"geonameid":6536347,"name":"Sala Bolognese","admin3":"037050","localeAltName":null},{"geonameid":6536353,"name":"Monte San Pietro","admin3":"037042","localeAltName":null},{"geonameid":6536737,"name":"Argelato","admin3":"037002","localeAltName":null},{"geonameid":6536738,"name":"Camugnano","admin3":"037010"},{"geonameid":6536739,"name":"Castel di Casio","admin3":"037015","localeAltName":null},{"geonameid":6536740,"name":"Malalbergo","admin3":"037035","localeAltName":null},{"geonameid":6536741,"name":"Marzabotto","admin3":"037036","localeAltName":null},{"geonameid":6536742,"name":"Minerbio","admin3":"037038","localeAltName":null},{"geonameid":6536743,"name":"Monzuno","admin3":"037044","localeAltName":null},{"geonameid":6536744,"name":"San Benedetto Val di Sambro","admin3":"037051","localeAltName":null},{"geonameid":6536745,"name":"Sant'Agata Bolognese","admin3":"037056","localeAltName":null},{"geonameid":6538461,"name":"Anzola dell'Emilia","admin3":"037001","localeAltName":null},{"geonameid":6538462,"name":"Baricella","admin3":"037003","localeAltName":null},{"geonameid":6538463,"name":"Calderara di Reno","admin3":"037009","localeAltName":null},{"geonameid":6538464,"name":"Castel d'Aiano","admin3":"037013","localeAltName":null},{"geonameid":6538465,"name":"Castel Guelfo di Bologna","admin3":"037016","localeAltName":null},{"geonameid":6538466,"name":"Castello d'Argile","admin3":"037017","localeAltName":null},{"geonameid":6538467,"name":"Castel San Pietro Terme","admin3":"037020","localeAltName":null},{"geonameid":6538468,"name":"Crevalcore","admin3":"037024","localeAltName":null},{"geonameid":6538469,"name":"Gaggio Montano","admin3":"037027","localeAltName":null},{"geonameid":6538470,"name":"Loiano","admin3":"037034","localeAltName":null},{"geonameid":6538471,"name":"Molinella","admin3":"037039","localeAltName":null},{"geonameid":6538472,"name":"Mordano","admin3":"037045","localeAltName":null},{"geonameid":6538473,"name":"Pieve di Cento","admin3":"037048","localeAltName":null},{"geonameid":6538474,"name":"San Giorgio di Piano","admin3":"037052","localeAltName":null},{"geonameid":6538475,"name":"San Giovanni in Persiceto","admin3":"037053","localeAltName":null},{"geonameid":6538476,"name":"San Pietro in Casale","admin3":"037055","localeAltName":null},{"geonameid":6538477,"name":"Sasso Marconi","admin3":"037057","localeAltName":null},{"geonameid":6538478,"name":"Vergato","admin3":"037059","localeAltName":null},{"geonameid":6539658,"name":"Galliera","admin3":"037028","localeAltName":null},{"geonameid":6539713,"name":"Budrio","admin3":"037008","localeAltName":null},{"geonameid":6539944,"name":"Bentivoglio","admin3":"037005","localeAltName":null},{"geonameid":6540251,"name":"Castel Maggiore","admin3":"037019","localeAltName":null},{"geonameid":6540254,"name":"Medicina","admin3":"037037","localeAltName":null},{"geonameid":6540425,"name":"Castenaso","admin3":"037021","localeAltName":null},{"geonameid":6540426,"name":"Castiglione dei Pepoli","admin3":"037022","localeAltName":null},{"geonameid":6540428,"name":"Fontanelice","admin3":"037026","localeAltName":null},{"geonameid":6540429,"name":"Lizzano in Belvedere","admin3":"037033","localeAltName":null},{"geonameid":6541029,"name":"Borgo Tossignano","admin3":"037007","localeAltName":null},{"geonameid":6541030,"name":"Casalecchio di Reno","admin3":"037011","localeAltName":null},{"geonameid":6541031,"name":"Dozza","admin3":"037025","localeAltName":null},{"geonameid":6541032,"name":"Imola","admin3":"037032","localeAltName":null},{"geonameid":6541033,"name":"Monghidoro","admin3":"037040","localeAltName":null},{"geonameid":6541034,"name":"Monterenzio","admin3":"037041","localeAltName":null},{"geonameid":6541539,"name":"Zola Predosa","admin3":"037060","localeAltName":null},{"geonameid":6541835,"name":"Castel del Rio","admin3":"037014","localeAltName":null},{"geonameid":6541998,"name":"Bologna","admin3":"037006","localeAltName":null},{"geonameid":6542084,"name":"Pianoro","admin3":"037047","localeAltName":null},{"geonameid":6542176,"name":"Grizzana Morandi","admin3":"037031","localeAltName":null},{"geonameid":6542210,"name":"Granarolo dell'Emilia","admin3":"037030","localeAltName":null},{"geonameid":6542252,"name":"Casalfiumanese","admin3":"037012","localeAltName":null},{"geonameid":8658897,"name":"Valsamoggia","admin3":"037061","localeAltName":null},{"geonameid":11287677,"name":"Alto Reno Terme","admin3":"037062","localeAltName":null}],"alternateNames":[{"alternatenameId":1351276,"geonameid":3177401,"isoLanguage":"it","alternateName":"Emilia-Romagna","isPreferredName":true,"isShortName":true,"isColloquial":false,"isHistoric":false},{"alternatenameId":2431270,"geonameid":3181927,"isoLanguage":"it","alternateName":"Bologna","isPreferredName":true,"isShortName":true,"isColloquial":false,"isHistoric":false}]},"__N_SSG":true}