{"pageProps":{"locale":"it","admin2":{"geonameid":3169524,"name":"Provincia di Reggio Emilia","country":"IT","admin1":"05","admin2":"RE","admin3":"","latitude":"44.6166700","longitude":"10.6166700","localeAltName":"Reggio Emilia"},"admin1":{"geonameid":3177401,"name":"Emilia-Romagna","admin1":"05","localeAltName":"Emilia-Romagna"},"locations":[{"geonameid":3183318,"name":"Albinea","admin3":"035001","localeAltName":null},{"geonameid":3182918,"name":"Arceto","admin3":"035040","localeAltName":null},{"geonameid":8949311,"name":"Argine","admin3":"035008","localeAltName":null},{"geonameid":8949070,"name":"Bagno","admin3":"035033","localeAltName":null},{"geonameid":3182501,"name":"Bagnolo in Piano","admin3":"035002","localeAltName":null},{"geonameid":3182477,"name":"Baiso","admin3":"035003","localeAltName":null},{"geonameid":8949951,"name":"Barcaccia","admin3":"035038","localeAltName":null},{"geonameid":3182371,"name":"Barco","admin3":"035004","localeAltName":null},{"geonameid":3182060,"name":"Bibbiano","admin3":"035004","localeAltName":null},{"geonameid":3181854,"name":"Boretto","admin3":"035005","localeAltName":null},{"geonameid":3181708,"name":"Borzano","admin3":"035001","localeAltName":null},{"geonameid":8949834,"name":"Bosco","admin3":"035040","localeAltName":null},{"geonameid":3181555,"name":"Brescello","admin3":"035006","localeAltName":null},{"geonameid":8949553,"name":"Brugneto","admin3":"035032","localeAltName":null},{"geonameid":8949658,"name":"Budrio","admin3":"035020","localeAltName":null},{"geonameid":8949512,"name":"Ca' de' Caroli","admin3":"035040","localeAltName":null},{"geonameid":3181316,"name":"Cad√®-Gaida","admin3":"035033","localeAltName":null},{"geonameid":3181311,"name":"Cadelbosco di Sopra","admin3":"035008","localeAltName":null},{"geonameid":3181310,"name":"Cadelbosco di Sotto","admin3":"035008","localeAltName":null},{"geonameid":3172678,"name":"Cadiroggio","admin3":"035014","localeAltName":null},{"geonameid":6697218,"name":"Calerno","admin3":"035039","localeAltName":null},{"geonameid":3181056,"name":"Campagnola Emilia","admin3":"035009","localeAltName":null},{"geonameid":3181034,"name":"Campegine","admin3":"035010","localeAltName":null},{"geonameid":3180796,"name":"Canolo","admin3":"035020","localeAltName":null},{"geonameid":8949205,"name":"Caprara","admin3":"035010","localeAltName":null},{"geonameid":3180433,"name":"Carpineti","admin3":"035011","localeAltName":null},{"geonameid":3180191,"name":"Casalgrande","admin3":"035012","localeAltName":null},{"geonameid":8950347,"name":"Case Cocconi","admin3":"035010","localeAltName":null},{"geonameid":3179844,"name":"Casina","admin3":"035013","localeAltName":null},{"geonameid":3179649,"name":"Castellarano","admin3":"035014","localeAltName":null},{"geonameid":8950365,"name":"Castello di Pratofontana","admin3":"035033","localeAltName":null},{"geonameid":3179547,"name":"Castelnovo di Sotto","admin3":"035015","localeAltName":null},{"geonameid":3179546,"name":"Castelnovo ne'Monti","admin3":"035016","localeAltName":null},{"geonameid":3179264,"name":"Cavola","admin3":"035041","localeAltName":null},{"geonameid":3179254,"name":"Cavriago","admin3":"035017","localeAltName":null},{"geonameid":3179014,"name":"Cervarezza","admin3":"035046","localeAltName":null},{"geonameid":3178736,"name":"Ciano d'Enza","admin3":"035018","localeAltName":null},{"geonameid":3178510,"name":"Codemondo-Quaresimo","admin3":"035033","localeAltName":null},{"geonameid":3178502,"name":"Codisotto","admin3":"035026","localeAltName":null},{"geonameid":3178019,"name":"Correggio","admin3":"035020","localeAltName":null},{"geonameid":8949997,"name":"Corticella","admin3":"035033","localeAltName":null},{"geonameid":3177317,"name":"Fabbrico","admin3":"035021","localeAltName":null},{"geonameid":8949154,"name":"Felina","admin3":"035016","localeAltName":null},{"geonameid":8949415,"name":"Fellegara","admin3":"035040","localeAltName":null},{"geonameid":8948907,"name":"Fogliano","admin3":"035033","localeAltName":null},{"geonameid":8950251,"name":"Fontana","admin3":"035036","localeAltName":null},{"geonameid":8949221,"name":"Forche","admin3":"035030","localeAltName":null},{"geonameid":3176660,"name":"Fosdondo","admin3":"035020","localeAltName":null},{"geonameid":8950391,"name":"Gavasseto","admin3":"035033","localeAltName":null},{"geonameid":8950227,"name":"Ghiardo","admin3":"035004","localeAltName":null},{"geonameid":3175720,"name":"Gualtieri","admin3":"035023","localeAltName":null},{"geonameid":3175693,"name":"Guastalla","admin3":"035024","localeAltName":null},{"geonameid":8949718,"name":"La Vecchia","admin3":"035043","localeAltName":null},{"geonameid":8950301,"name":"Lemizzone","admin3":"035020","localeAltName":null},{"geonameid":3174884,"name":"Lentigione-Sorbolo a Mane","admin3":"035006","localeAltName":null},{"geonameid":3174416,"name":"Luzzara","admin3":"035026","localeAltName":null},{"geonameid":8950127,"name":"Mandrio","admin3":"035020","localeAltName":null},{"geonameid":3173747,"name":"Massenzatico","admin3":"035033","localeAltName":null},{"geonameid":3173624,"name":"Meletole","admin3":"035015","localeAltName":null},{"geonameid":3172993,"name":"Montecavolo","admin3":"035030","localeAltName":null},{"geonameid":3172980,"name":"Montecchio Emilia","admin3":"035027","localeAltName":null},{"geonameid":3172177,"name":"Novellara","admin3":"035028","localeAltName":null},{"geonameid":3170735,"name":"Pieve Saliceto","admin3":"035023","localeAltName":null},{"geonameid":3170017,"name":"Poviglio","admin3":"035029","localeAltName":null},{"geonameid":8948895,"name":"Praticello","admin3":"035022","localeAltName":null},{"geonameid":8949109,"name":"Pratissolo","admin3":"035040","localeAltName":null},{"geonameid":8949276,"name":"Prato","admin3":"035020","localeAltName":null},{"geonameid":3169769,"name":"Puianello","admin3":"035030","localeAltName":null},{"geonameid":3169687,"name":"Quattro Castella","admin3":"035030","localeAltName":null},{"geonameid":3169522,"name":"Reggio nell'Emilia","admin3":"035033","localeAltName":null},{"geonameid":3169523,"name":"Reggiolo","admin3":"035032","localeAltName":null},{"geonameid":3169324,"name":"Rio Saliceto","admin3":"035034","localeAltName":null},{"geonameid":3169072,"name":"Rolo","admin3":"035035","localeAltName":null},{"geonameid":3169001,"name":"Roncocesi","admin3":"035033","localeAltName":null},{"geonameid":8950046,"name":"Roncolo","admin3":"035030","localeAltName":null},{"geonameid":8948860,"name":"Roteglia","admin3":"035014","localeAltName":null},{"geonameid":3168820,"name":"Rubiera","admin3":"035036","localeAltName":null},{"geonameid":3168608,"name":"Salvaterra","admin3":"035012","localeAltName":null},{"geonameid":8629283,"name":"San Bartolomeo","admin3":"035033","localeAltName":null},{"geonameid":3168404,"name":"San Faustino","admin3":"035036","localeAltName":null},{"geonameid":3168007,"name":"San Martino in Rio","admin3":"035037","localeAltName":null},{"geonameid":3167800,"name":"San Polo d'Enza","admin3":"035038","localeAltName":null},{"geonameid":3167304,"name":"Sant'Ilario d'Enza","admin3":"035039","localeAltName":null},{"geonameid":3167353,"name":"Santa Vittoria","admin3":"035023","localeAltName":null},{"geonameid":3166989,"name":"Scandiano","admin3":"035040","localeAltName":null},{"geonameid":3165937,"name":"Taneto","admin3":"035022","localeAltName":null},{"geonameid":3165621,"name":"Toano","admin3":"035041","localeAltName":null},{"geonameid":8948767,"name":"Veggia-Villalunga","admin3":"035012","localeAltName":null},{"geonameid":3164578,"name":"Ventoso","admin3":"035040","localeAltName":null},{"geonameid":3164462,"name":"Vetto","admin3":"035042","localeAltName":null},{"geonameid":3164450,"name":"Vezzano sul Crostolo","admin3":"035043","localeAltName":null},{"geonameid":3164434,"name":"Viano","admin3":"035044","localeAltName":null},{"geonameid":3164203,"name":"Villa Minozzo","admin3":"035045","localeAltName":null},{"geonameid":3164147,"name":"Villarotta","admin3":"035026","localeAltName":null}],"admin3":[{"geonameid":6536348,"name":"Gattatico","admin3":"035022","localeAltName":null},{"geonameid":6536351,"name":"Canossa","admin3":"035018","localeAltName":null},{"geonameid":6536701,"name":"Rolo","admin3":"035035","localeAltName":null},{"geonameid":6536712,"name":"Bagnolo in Piano","admin3":"035002","localeAltName":null},{"geonameid":6536713,"name":"Boretto","admin3":"035005","localeAltName":null},{"geonameid":6536715,"name":"Cadelbosco di Sopra","admin3":"035008","localeAltName":null},{"geonameid":6536716,"name":"Castelnovo ne' Monti","admin3":"035016","localeAltName":null},{"geonameid":6536719,"name":"Quattro Castella","admin3":"035030","localeAltName":null},{"geonameid":6536721,"name":"Reggiolo","admin3":"035032","localeAltName":null},{"geonameid":6536722,"name":"Toano","admin3":"035041","localeAltName":null},{"geonameid":6536723,"name":"Vetto","admin3":"035042","localeAltName":null},{"geonameid":6538434,"name":"Baiso","admin3":"035003","localeAltName":null},{"geonameid":6538435,"name":"Brescello","admin3":"035006","localeAltName":null},{"geonameid":6538436,"name":"Campegine","admin3":"035010","localeAltName":null},{"geonameid":6538437,"name":"Carpineti","admin3":"035011","localeAltName":null},{"geonameid":6538438,"name":"Casalgrande","admin3":"035012","localeAltName":null},{"geonameid":6538439,"name":"Castellarano","admin3":"035014","localeAltName":null},{"geonameid":6538440,"name":"Castelnovo di Sotto","admin3":"035015","localeAltName":null},{"geonameid":6538441,"name":"Guastalla","admin3":"035024","localeAltName":null},{"geonameid":6538442,"name":"Montecchio Emilia","admin3":"035027","localeAltName":null},{"geonameid":6538443,"name":"Novellara","admin3":"035028","localeAltName":null},{"geonameid":6538444,"name":"Rubiera","admin3":"035036","localeAltName":null},{"geonameid":6538445,"name":"Sant'Ilario d'Enza","admin3":"035039","localeAltName":null},{"geonameid":6538446,"name":"Vezzano sul Crostolo","admin3":"035043","localeAltName":null},{"geonameid":6538447,"name":"Villa Minozzo","admin3":"035045","localeAltName":null},{"geonameid":6539706,"name":"Correggio","admin3":"035020","localeAltName":null},{"geonameid":6539941,"name":"Casina","admin3":"035013","localeAltName":null},{"geonameid":6539942,"name":"Gualtieri","admin3":"035023","localeAltName":null},{"geonameid":6539943,"name":"Poviglio","admin3":"035029","localeAltName":null},{"geonameid":6540414,"name":"Bibbiano","admin3":"035004","localeAltName":null},{"geonameid":6540415,"name":"Campagnola Emilia","admin3":"035009","localeAltName":null},{"geonameid":6540416,"name":"Cavriago","admin3":"035017","localeAltName":null},{"geonameid":6540417,"name":"Luzzara","admin3":"035026","localeAltName":null},{"geonameid":6540418,"name":"Rio Saliceto","admin3":"035034","localeAltName":null},{"geonameid":6540419,"name":"San Polo d'Enza","admin3":"035038","localeAltName":null},{"geonameid":6540420,"name":"Viano","admin3":"035044","localeAltName":null},{"geonameid":6541026,"name":"Albinea","admin3":"035001","localeAltName":null},{"geonameid":6541027,"name":"San Martino in Rio","admin3":"035037","localeAltName":null},{"geonameid":6541632,"name":"Fabbrico","admin3":"035021","localeAltName":null},{"geonameid":6541832,"name":"Scandiano","admin3":"035040","localeAltName":null},{"geonameid":6542002,"name":"Reggio nell'Emilia","admin3":"035033","localeAltName":null},{"geonameid":11287671,"name":"Ventasso","admin3":"035046","localeAltName":null}],"alternateNames":[{"alternatenameId":1348790,"geonameid":3169524,"isoLanguage":"it","alternateName":"Reggio Emilia","isPreferredName":true,"isShortName":true,"isColloquial":false,"isHistoric":false},{"alternatenameId":1351276,"geonameid":3177401,"isoLanguage":"it","alternateName":"Emilia-Romagna","isPreferredName":true,"isShortName":true,"isColloquial":false,"isHistoric":false}]},"__N_SSG":true}