{"pageProps":{"locale":"it","admin2":{"geonameid":3176745,"name":"Provincia di Forlì-Cesena","country":"IT","admin1":"05","admin2":"FC","admin3":"","latitude":"44.0833300","longitude":"12.0333300","localeAltName":"Forlì-Cesena"},"admin1":{"geonameid":3177401,"name":"Emilia-Romagna","admin1":"05","localeAltName":"Emilia-Romagna"},"locations":[{"geonameid":3183291,"name":"Alfero","admin3":"040050","localeAltName":null},{"geonameid":3215156,"name":"Bagnarola","admin3":"040008","localeAltName":null},{"geonameid":3182520,"name":"Bagno di Romagna","admin3":"040001","localeAltName":null},{"geonameid":3182133,"name":"Bertinoro","admin3":"040003","localeAltName":null},{"geonameid":8949337,"name":"Bora Bassa","admin3":"040020","localeAltName":null},{"geonameid":3181856,"name":"Borello","admin3":"040007","localeAltName":null},{"geonameid":8948831,"name":"Budrio","admin3":"040018","localeAltName":null},{"geonameid":8950168,"name":"Capanni","admin3":"040045","localeAltName":null},{"geonameid":6694204,"name":"Capocolle","admin3":"040003","localeAltName":null},{"geonameid":3214817,"name":"Carpena","admin3":"040012","localeAltName":null},{"geonameid":3180436,"name":"Carpinello","admin3":"040012","localeAltName":null},{"geonameid":8224091,"name":"Castrocaro Terme e Terra del Sole","admin3":"040005","localeAltName":null},{"geonameid":3178957,"name":"Cesena","admin3":"040007","localeAltName":null},{"geonameid":3178956,"name":"Cesenatico","admin3":"040008","localeAltName":null},{"geonameid":3178572,"name":"Civitella di Romagna","admin3":"040009","localeAltName":null},{"geonameid":3177660,"name":"Cusercoli","admin3":"040009","localeAltName":null},{"geonameid":3177493,"name":"Dovadola","admin3":"040011","localeAltName":null},{"geonameid":3176942,"name":"Fiumana","admin3":"040032","localeAltName":null},{"geonameid":3176746,"name":"Forlì","admin3":"040012","localeAltName":null},{"geonameid":3176743,"name":"Forlimpopoli","admin3":"040013","localeAltName":null},{"geonameid":7290262,"name":"Fratta Terme","admin3":"040003","localeAltName":null},{"geonameid":3176400,"name":"Galeata","admin3":"040014","localeAltName":null},{"geonameid":3176334,"name":"Gambettola","admin3":"040015","localeAltName":null},{"geonameid":3215109,"name":"Gatteo a Mare","admin3":"040016","localeAltName":null},{"geonameid":3215081,"name":"Gatteo-Sant'Angelo","admin3":"040016","localeAltName":null},{"geonameid":3175728,"name":"Gualdo","admin3":"040037","localeAltName":null},{"geonameid":3174593,"name":"Longiano","admin3":"040018","localeAltName":null},{"geonameid":3173635,"name":"Meldola","admin3":"040019","localeAltName":null},{"geonameid":3173559,"name":"Mercato Saraceno","admin3":"040020","localeAltName":null},{"geonameid":3173329,"name":"Modigliana","admin3":"040022","localeAltName":null},{"geonameid":3173001,"name":"Monte Castello","admin3":"040020","localeAltName":null},{"geonameid":3172700,"name":"Montiano","admin3":"040028","localeAltName":null},{"geonameid":3175143,"name":"Panighina","admin3":"040003","localeAltName":null},{"geonameid":6534665,"name":"Portico e San Benedetto","admin3":"040031","localeAltName":null},{"geonameid":6535603,"name":"Predappio","admin3":"040032","localeAltName":null},{"geonameid":3169860,"name":"Premilcuore","admin3":"040033","localeAltName":null},{"geonameid":3169140,"name":"Rocca San Casciano","admin3":"040036","localeAltName":null},{"geonameid":8949452,"name":"Roncadello","admin3":"040012","localeAltName":null},{"geonameid":3168998,"name":"Roncofreddo","admin3":"040037","localeAltName":null},{"geonameid":3167384,"name":"Roncofreddo-Santa Paola","admin3":"040037","localeAltName":null},{"geonameid":3215141,"name":"Sala","admin3":"040008","localeAltName":null},{"geonameid":3214777,"name":"San Colombano","admin3":"040019","localeAltName":null},{"geonameid":3214793,"name":"San Lorenzo in Noceto","admin3":"040012","localeAltName":null},{"geonameid":3215105,"name":"San Mauro a Mare","admin3":"040041","localeAltName":null},{"geonameid":3167979,"name":"San Mauro Pascoli","admin3":"040041","localeAltName":null},{"geonameid":3167868,"name":"San Piero in Bagno","admin3":"040001","localeAltName":null},{"geonameid":3167527,"name":"Santa Maria Nuova","admin3":"040003","localeAltName":null},{"geonameid":3167363,"name":"Santa Sofia","admin3":"040043","localeAltName":null},{"geonameid":3167110,"name":"Sarsina","admin3":"040044","localeAltName":null},{"geonameid":3167030,"name":"Savignano sul Rubicone","admin3":"040045","localeAltName":null},{"geonameid":3166806,"name":"Selbagnone","admin3":"040013","localeAltName":null},{"geonameid":3166458,"name":"Sogliano al Rubicone","admin3":"040046","localeAltName":null},{"geonameid":3165268,"name":"Tredozio","admin3":"040049","localeAltName":null},{"geonameid":3164193,"name":"Villanova","admin3":"040012","localeAltName":null}],"admin3":[{"geonameid":3169879,"name":"Predappio","admin3":"040032","localeAltName":null},{"geonameid":3170113,"name":"Portico e San Benedetto","admin3":"040031","localeAltName":null},{"geonameid":3179378,"name":"Castrocaro Terme e Terra del Sole","admin3":"040005","localeAltName":null},{"geonameid":6536754,"name":"Bertinoro","admin3":"040003","localeAltName":null},{"geonameid":6536755,"name":"Dovadola","admin3":"040011","localeAltName":null},{"geonameid":6536756,"name":"Premilcuore","admin3":"040033","localeAltName":null},{"geonameid":6536757,"name":"San Mauro Pascoli","admin3":"040041","localeAltName":null},{"geonameid":6536758,"name":"Sarsina","admin3":"040044","localeAltName":null},{"geonameid":6536759,"name":"Sogliano al Rubicone","admin3":"040046","localeAltName":null},{"geonameid":6536760,"name":"Tredozio","admin3":"040049","localeAltName":null},{"geonameid":6538487,"name":"Cesenatico","admin3":"040008","localeAltName":null},{"geonameid":6538488,"name":"Galeata","admin3":"040014","localeAltName":null},{"geonameid":6538489,"name":"Gambettola","admin3":"040015","localeAltName":null},{"geonameid":6538490,"name":"Longiano","admin3":"040018","localeAltName":null},{"geonameid":6538491,"name":"Meldola","admin3":"040019","localeAltName":null},{"geonameid":6539718,"name":"Borghi","admin3":"040004"},{"geonameid":6539947,"name":"Gatteo","admin3":"040016","localeAltName":null},{"geonameid":6539948,"name":"Montiano","admin3":"040028","localeAltName":null},{"geonameid":6539949,"name":"Santa Sofia","admin3":"040043","localeAltName":null},{"geonameid":6540126,"name":"Forlì","admin3":"040012","localeAltName":null},{"geonameid":6540270,"name":"Bagno di Romagna","admin3":"040001","localeAltName":null},{"geonameid":6540438,"name":"Forlimpopoli","admin3":"040013","localeAltName":null},{"geonameid":6540439,"name":"Roncofreddo","admin3":"040037","localeAltName":null},{"geonameid":6540440,"name":"Savignano sul Rubicone","admin3":"040045","localeAltName":null},{"geonameid":6540441,"name":"Verghereto","admin3":"040050","localeAltName":null},{"geonameid":6541045,"name":"Civitella di Romagna","admin3":"040009","localeAltName":null},{"geonameid":6541046,"name":"Modigliana","admin3":"040022","localeAltName":null},{"geonameid":6541047,"name":"Rocca San Casciano","admin3":"040036","localeAltName":null},{"geonameid":6541636,"name":"Mercato Saraceno","admin3":"040020","localeAltName":null},{"geonameid":6541838,"name":"Cesena","admin3":"040007","localeAltName":null}],"alternateNames":[{"alternatenameId":2431274,"geonameid":3176745,"isoLanguage":"it","alternateName":"Forlì-Cesena","isPreferredName":true,"isShortName":true,"isColloquial":false,"isHistoric":false},{"alternatenameId":1351276,"geonameid":3177401,"isoLanguage":"it","alternateName":"Emilia-Romagna","isPreferredName":true,"isShortName":true,"isColloquial":false,"isHistoric":false}]},"__N_SSG":true}