{"pageProps":{"locale":"en","admin2":{"geonameid":4362716,"name":"Montgomery County","country":"US","admin1":"MD","admin2":"031","admin3":"","latitude":"39.1363800","longitude":"-77.2042400"},"admin1":{"geonameid":4361885,"name":"Maryland","admin1":"MD","localeAltName":"Maryland"},"locations":[{"geonameid":7257953,"name":"Ashton-Sandy Spring","admin3":""},{"geonameid":4347553,"name":"Aspen Hill","admin3":""},{"geonameid":4348599,"name":"Bethesda","admin3":""},{"geonameid":4349611,"name":"Brookmont","admin3":""},{"geonameid":4349903,"name":"Burtonsville","admin3":""},{"geonameid":4350013,"name":"Cabin John","admin3":""},{"geonameid":4351335,"name":"Chevy Chase","admin3":""},{"geonameid":4351352,"name":"Chevy Chase Village","admin3":""},{"geonameid":4351708,"name":"Clarksburg","admin3":""},{"geonameid":4351851,"name":"Cloverly","admin3":""},{"geonameid":4351951,"name":"Colesville","admin3":""},{"geonameid":4352728,"name":"Damascus","admin3":""},{"geonameid":4352795,"name":"Darnestown","admin3":""},{"geonameid":4353084,"name":"Derwood","admin3":""},{"geonameid":4354573,"name":"Fairland","admin3":""},{"geonameid":4355214,"name":"Forest Glen","admin3":""},{"geonameid":4355400,"name":"Four Corners","admin3":""},{"geonameid":4355730,"name":"Friendship Village","admin3":""},{"geonameid":4355843,"name":"Gaithersburg","admin3":""},{"geonameid":4355949,"name":"Garrett Park","admin3":""},{"geonameid":4356050,"name":"Germantown","admin3":""},{"geonameid":4356280,"name":"Glenmont","admin3":""},{"geonameid":4358066,"name":"Hillandale","admin3":""},{"geonameid":4359721,"name":"Kemp Mill","admin3":""},{"geonameid":4359760,"name":"Kensington","admin3":""},{"geonameid":4360443,"name":"Layhill","admin3":""},{"geonameid":7258581,"name":"Leisure World","admin3":""},{"geonameid":4362743,"name":"Montgomery Village","admin3":""},{"geonameid":4363843,"name":"North Bethesda","admin3":""},{"geonameid":4363960,"name":"North Kensington","admin3":""},{"geonameid":4363990,"name":"North Potomac","admin3":""},{"geonameid":4364537,"name":"Olney","admin3":""},{"geonameid":4365877,"name":"Poolesville","admin3":""},{"geonameid":4366001,"name":"Potomac","admin3":""},{"geonameid":4366593,"name":"Redland","admin3":""},{"geonameid":4367175,"name":"Rockville","admin3":""},{"geonameid":4367417,"name":"Rossmoor","admin3":""},{"geonameid":4369596,"name":"Silver Spring","admin3":""},{"geonameid":4369891,"name":"Somerset","admin3":""},{"geonameid":4369976,"name":"South Kensington","admin3":""},{"geonameid":4370109,"name":"Spencerville","admin3":""},{"geonameid":4370890,"name":"Takoma Park","admin3":""},{"geonameid":4371635,"name":"Travilah","admin3":""},{"geonameid":4373349,"name":"Wheaton","admin3":""},{"geonameid":4373449,"name":"White Oak","admin3":""}],"admin3":[],"alternateNames":[{"alternatenameId":1979906,"geonameid":4361885,"isoLanguage":"en","alternateName":"Maryland","isPreferredName":true,"isShortName":true,"isColloquial":false,"isHistoric":false}]},"__N_SSG":true}