{"pageProps":{"locale":"en","admin2":{"geonameid":4372777,"name":"Washington County","country":"US","admin1":"MD","admin2":"043","admin3":"","latitude":"39.6036700","longitude":"-77.8139800"},"admin1":{"geonameid":4361885,"name":"Maryland","admin1":"MD","localeAltName":"Maryland"},"locations":[{"geonameid":4349107,"name":"Boonsboro","admin3":""},{"geonameid":4350675,"name":"Cavetown","admin3":""},{"geonameid":7258606,"name":"Fountainhead-Orchard Hills","admin3":""},{"geonameid":4357141,"name":"Hagerstown","admin3":""},{"geonameid":4357176,"name":"Halfway","admin3":""},{"geonameid":4357310,"name":"Hancock","admin3":""},{"geonameid":4357991,"name":"Highfield-Cascade","admin3":""},{"geonameid":4359694,"name":"Keedysville","admin3":""},{"geonameid":4361969,"name":"Maugansville","admin3":""},{"geonameid":7258438,"name":"Paramount-Long Meadow","admin3":""},{"geonameid":4367035,"name":"Robinwood","admin3":""},{"geonameid":4367872,"name":"Saint James","admin3":""},{"geonameid":4369758,"name":"Smithsburg","admin3":""},{"geonameid":4373719,"name":"Williamsport","admin3":""},{"geonameid":7259210,"name":"Wilson-Conococheague","admin3":""}],"admin3":[],"alternateNames":[{"alternatenameId":1979906,"geonameid":4361885,"isoLanguage":"en","alternateName":"Maryland","isPreferredName":true,"isShortName":true,"isColloquial":false,"isHistoric":false}]},"__N_SSG":true}