{"pageProps":{"locale":"ro","admin2":{"geonameid":673174,"name":"Comuna Mânzăleşti","country":"RO","admin1":"11","admin2":"47630","admin3":"","latitude":"45.5041400","longitude":"26.6456100"},"admin1":{"geonameid":683121,"name":"Buzău","admin1":"11"},"locations":[{"geonameid":686265,"name":"Apostari","admin3":""},{"geonameid":685635,"name":"Băleni","admin3":""},{"geonameid":685064,"name":"Bercioaia","admin3":""},{"geonameid":684967,"name":"Beșlii","admin3":""},{"geonameid":683185,"name":"Buștea","admin3":""},{"geonameid":681593,"name":"Cireșu","admin3":""},{"geonameid":677300,"name":"Ghizdita","admin3":""},{"geonameid":676596,"name":"Grunji","admin3":""},{"geonameid":676566,"name":"Gura Bădicului","admin3":""},{"geonameid":675272,"name":"Jghiab","admin3":""},{"geonameid":673927,"name":"Măneşti","admin3":""},{"geonameid":673175,"name":"Mânzăleşti","admin3":""},{"geonameid":673163,"name":"Miorica","admin3":""},{"geonameid":670892,"name":"Piatra Lungă","admin3":""},{"geonameid":670543,"name":"Plavățu","admin3":""},{"geonameid":670010,"name":"Poiana Vâlcului","admin3":""},{"geonameid":668996,"name":"Reghineşti","admin3":""},{"geonameid":667787,"name":"Satu Vechi","admin3":""},{"geonameid":667648,"name":"Schitu-Găvanului","admin3":""},{"geonameid":664618,"name":"Trestioara","admin3":""},{"geonameid":663817,"name":"Valea Cotoarei","admin3":""},{"geonameid":663498,"name":"Valea Porcului","admin3":""},{"geonameid":663332,"name":"Valea Ursului","admin3":""}],"admin3":[],"alternateNames":[]},"__N_SSG":true}