{"pageProps":{"locale":"ro","admin2":{"geonameid":8334878,"name":"Comuna Tisãu","country":"RO","admin1":"11","admin2":"49643","admin3":"","latitude":"45.1933700","longitude":"26.5732100"},"admin1":{"geonameid":683121,"name":"Buzău","admin1":"11"},"locations":[{"geonameid":685364,"name":"Bărbuncești","admin3":""},{"geonameid":684140,"name":"Boru","admin3":""},{"geonameid":676802,"name":"Grăjdana","admin3":""},{"geonameid":676364,"name":"Haleș","admin3":""},{"geonameid":675357,"name":"Izvoranu","admin3":""},{"geonameid":674765,"name":"Izvoru","admin3":""},{"geonameid":674912,"name":"Leiculești","admin3":""},{"geonameid":671510,"name":"Pădurenii","admin3":""},{"geonameid":670642,"name":"Pisculeni","admin3":""},{"geonameid":670641,"name":"Pisculeni până ân Gârlă","admin3":""},{"geonameid":668209,"name":"Salcia","admin3":""},{"geonameid":666010,"name":"Strezeni","admin3":""},{"geonameid":664922,"name":"Tisău","admin3":""},{"geonameid":664921,"name":"Tisău de Sus","admin3":""},{"geonameid":663859,"name":"Valea Caprei","admin3":""},{"geonameid":663451,"name":"Valea Sălciilor","admin3":""}],"admin3":[],"alternateNames":[]},"__N_SSG":true}