{"pageProps":{"locale":"ro","admin2":{"geonameid":682944,"name":"Comuna Călineşti","country":"RO","admin1":"03","admin2":"15108","admin3":"","latitude":"44.8565000","longitude":"25.0196800"},"admin1":{"geonameid":686192,"name":"Argeş","admin1":"03"},"locations":[{"geonameid":685901,"name":"Bădeşti"},{"geonameid":682958,"name":"Călineşti"},{"geonameid":681527,"name":"Cârstieni"},{"geonameid":682527,"name":"Cătunu din Câmp"},{"geonameid":681745,"name":"Ciocănești"},{"geonameid":678961,"name":"Drăghiceşti"},{"geonameid":677031,"name":"Glodu"},{"geonameid":676912,"name":"Gorganu"},{"geonameid":676911,"name":"Gorganu de Jos"},{"geonameid":676910,"name":"Gorganu de Sus"},{"geonameid":669228,"name":"Radu Negru"},{"geonameid":668871,"name":"Râncăciov"},{"geonameid":668526,"name":"Rudarii din Vale"},{"geonameid":664462,"name":"Turculeşti"},{"geonameid":664373,"name":"Udeni-Zăvoi"},{"geonameid":664137,"name":"Urlucea"},{"geonameid":663821,"name":"Valea Corbului"},{"geonameid":663249,"name":"Văleni-Podgoria"},{"geonameid":662445,"name":"Vrănești"}],"admin3":[],"alternateNames":[]},"__N_SSG":true}