{"pageProps":{"locale":"it","admin2":{"geonameid":3166396,"name":"Provincia di Sondrio","country":"IT","admin1":"09","admin2":"SO","admin3":"","latitude":"46.2110800","longitude":"9.9490700","localeAltName":"Sondrio"},"admin1":{"geonameid":3174618,"name":"Lombardia","admin1":"09","localeAltName":"Lombardia"},"locations":[{"geonameid":6535761,"name":"Andalo Valtellino","admin3":"014003","localeAltName":null},{"geonameid":3182961,"name":"Aprica","admin3":"014004","localeAltName":null},{"geonameid":3182896,"name":"Ardenno","admin3":"014005","localeAltName":null},{"geonameid":3182173,"name":"Berbenno di Valtellina","admin3":"014007","localeAltName":null},{"geonameid":3182067,"name":"Bianzone","admin3":"014008","localeAltName":null},{"geonameid":8949730,"name":"Boffetto","admin3":"014049","localeAltName":null},{"geonameid":8949907,"name":"Borgonuovo","admin3":"014050","localeAltName":null},{"geonameid":3181730,"name":"Bormio","admin3":"014009","localeAltName":null},{"geonameid":3181428,"name":"Buglio in Monte","admin3":"014010","localeAltName":null},{"geonameid":6535762,"name":"Caiolo","admin3":"014011","localeAltName":null},{"geonameid":3180975,"name":"Campodolcino","admin3":"014012","localeAltName":null},{"geonameid":8950013,"name":"Campovico","admin3":"014045","localeAltName":null},{"geonameid":3179802,"name":"Caspoggio","admin3":"014013","localeAltName":null},{"geonameid":8949748,"name":"Castione","admin3":"014015","localeAltName":null},{"geonameid":6534486,"name":"Castione Andevenno","admin3":"014015","localeAltName":null},{"geonameid":8950021,"name":"Castionetto","admin3":"014020","localeAltName":null},{"geonameid":3179367,"name":"Cataeggio","admin3":"014074","localeAltName":null},{"geonameid":8949082,"name":"Cepina","admin3":"014072","localeAltName":null},{"geonameid":3178829,"name":"Chiavenna","admin3":"014018","localeAltName":null},{"geonameid":3178808,"name":"Chiesa in Valmalenco","admin3":"014019","localeAltName":null},{"geonameid":3178766,"name":"Chiuro","admin3":"014020","localeAltName":null},{"geonameid":6535764,"name":"Colorina","admin3":"014023","localeAltName":null},{"geonameid":6534726,"name":"Cosio Valtellino","admin3":"014024","localeAltName":null},{"geonameid":3177630,"name":"Delebio","admin3":"014026","localeAltName":null},{"geonameid":3177466,"name":"Dubino","admin3":"014027","localeAltName":null},{"geonameid":8949578,"name":"Era","admin3":"014057","localeAltName":null},{"geonameid":3177304,"name":"Faedo Valtellino","admin3":"014028","localeAltName":null},{"geonameid":6534727,"name":"Forcola","admin3":"014029","localeAltName":null},{"geonameid":3176464,"name":"Fusine","admin3":"014030","localeAltName":null},{"geonameid":3176000,"name":"Gordona","admin3":"014032","localeAltName":null},{"geonameid":3175788,"name":"Grosio","admin3":"014033","localeAltName":null},{"geonameid":3175787,"name":"Grosotto","admin3":"014034","localeAltName":null},{"geonameid":6534732,"name":"Isolaccia","admin3":"014071","localeAltName":null},{"geonameid":6535765,"name":"Lanzada","admin3":"014036","localeAltName":null},{"geonameid":3174664,"name":"Livigno","admin3":"014037","localeAltName":null},{"geonameid":6535766,"name":"Lovero","admin3":"014038","localeAltName":null},{"geonameid":6535133,"name":"Mantello","admin3":"014039","localeAltName":null},{"geonameid":3173678,"name":"Mazzo di Valtellina","admin3":"014040","localeAltName":null},{"geonameid":3173607,"name":"Mello","admin3":"014041","localeAltName":null},{"geonameid":3173534,"name":"Mese","admin3":"014043","localeAltName":null},{"geonameid":6535134,"name":"Montagna in Valtellina","admin3":"014044","localeAltName":null},{"geonameid":3172617,"name":"Morbegno","admin3":"014045","localeAltName":null},{"geonameid":3172524,"name":"Mossini","admin3":"014061","localeAltName":null},{"geonameid":3172185,"name":"Novate Mezzola","admin3":"014046","localeAltName":null},{"geonameid":3170925,"name":"Piantedo","admin3":"014048","localeAltName":null},{"geonameid":3170916,"name":"Piateda Centro","admin3":"014049","localeAltName":null},{"geonameid":3170603,"name":"Piuro","admin3":"014050","localeAltName":null},{"geonameid":8950234,"name":"Piussogno","admin3":"014017","localeAltName":null},{"geonameid":3170425,"name":"Poggiridenti Alto","admin3":"014051","localeAltName":null},{"geonameid":9036125,"name":"Poggiridenti Piano","admin3":"014051","localeAltName":null},{"geonameid":8949814,"name":"Ponchiera","admin3":"014061","localeAltName":null},{"geonameid":6535135,"name":"Ponte in Valtellina","admin3":"014052","localeAltName":null},{"geonameid":8659252,"name":"Pradelle","admin3":"014071","localeAltName":null},{"geonameid":3169939,"name":"Prata Camportaccio","admin3":"014054","localeAltName":null},{"geonameid":8949272,"name":"Prata Centro","admin3":"014054","localeAltName":null},{"geonameid":8949435,"name":"Prosto","admin3":"014050","localeAltName":null},{"geonameid":8948792,"name":"Regoledo","admin3":"014024","localeAltName":null},{"geonameid":3169084,"name":"Rogolo","admin3":"014056","localeAltName":null},{"geonameid":6534731,"name":"Samolaco","admin3":"014057","localeAltName":null},{"geonameid":3168494,"name":"San Cassiano","admin3":"014054","localeAltName":null},{"geonameid":8468713,"name":"San Giacomo","admin3":"014065","localeAltName":null},{"geonameid":3164912,"name":"San Nicol√≤","admin3":"014073","localeAltName":null},{"geonameid":3167852,"name":"San Pietro","admin3":"014057","localeAltName":null},{"geonameid":3167175,"name":"San Vittore","admin3":"014032","localeAltName":null},{"geonameid":8950097,"name":"Sant'Anna","admin3":"014037","localeAltName":null},{"geonameid":3167404,"name":"Sant'Antonio","admin3":"014073","localeAltName":null},{"geonameid":3167582,"name":"Santa Maria","admin3":"014037","localeAltName":null},{"geonameid":8643015,"name":"Semogo","admin3":"014071","localeAltName":null},{"geonameid":8949949,"name":"Somaggia","admin3":"014057","localeAltName":null},{"geonameid":3166398,"name":"Sondalo","admin3":"014060","localeAltName":null},{"geonameid":3166397,"name":"Sondrio","admin3":"014061","localeAltName":null},{"geonameid":6535138,"name":"Talamona","admin3":"014063","localeAltName":null},{"geonameid":3165848,"name":"Teglio","admin3":"014065","localeAltName":null},{"geonameid":3165647,"name":"Tirano","admin3":"014066","localeAltName":null},{"geonameid":8948886,"name":"Torchione-Moia","admin3":"014002","localeAltName":null},{"geonameid":6535140,"name":"Tovo di Sant'Agata","admin3":"014068","localeAltName":null},{"geonameid":3165319,"name":"Traona","admin3":"014069","localeAltName":null},{"geonameid":3165223,"name":"Tresenda","admin3":"014065","localeAltName":null},{"geonameid":6534460,"name":"Tresivio","admin3":"014070","localeAltName":null},{"geonameid":6534734,"name":"Val Masino","admin3":"014074","localeAltName":null},{"geonameid":6534733,"name":"Valdisotto","admin3":"014072","localeAltName":null},{"geonameid":3164566,"name":"Verceia","admin3":"014075","localeAltName":null},{"geonameid":3164256,"name":"Villa","admin3":"014078","localeAltName":null},{"geonameid":9036156,"name":"Villa","admin3":"014077","localeAltName":null},{"geonameid":3164260,"name":"Villa di Chiavenna","admin3":"014077","localeAltName":null},{"geonameid":8949200,"name":"Villapinta","admin3":"014010","localeAltName":null}],"admin3":[{"geonameid":3164854,"name":"Valdidentro","admin3":"014071","localeAltName":"Valdidentro"},{"geonameid":6536119,"name":"Madesimo","admin3":"014035"},{"geonameid":6536121,"name":"Berbenno di Valtellina","admin3":"014007","localeAltName":null},{"geonameid":6536122,"name":"Bormio","admin3":"014009","localeAltName":null},{"geonameid":6536123,"name":"Buglio in Monte","admin3":"014010","localeAltName":null},{"geonameid":6536124,"name":"Caspoggio","admin3":"014013","localeAltName":null},{"geonameid":6536125,"name":"Chiuro","admin3":"014020","localeAltName":null},{"geonameid":6536126,"name":"Grosotto","admin3":"014034","localeAltName":null},{"geonameid":6536127,"name":"Pedesina","admin3":"014047"},{"geonameid":6536128,"name":"Piantedo","admin3":"014048","localeAltName":null},{"geonameid":6536129,"name":"Torre di Santa Maria","admin3":"014067"},{"geonameid":6536136,"name":"Albaredo per San Marco","admin3":"014001"},{"geonameid":6536369,"name":"Faedo Valtellino","admin3":"014028","localeAltName":null},{"geonameid":6536370,"name":"Mese","admin3":"014043","localeAltName":null},{"geonameid":6536371,"name":"Prata Camportaccio","admin3":"014054","localeAltName":null},{"geonameid":6536391,"name":"Villa di Chiavenna","admin3":"014077","localeAltName":null},{"geonameid":6536392,"name":"Villa di Tirano","admin3":"014078","localeAltName":null},{"geonameid":6537102,"name":"Morbegno","admin3":"014045","localeAltName":null},{"geonameid":6537103,"name":"Rasura","admin3":"014055"},{"geonameid":6537104,"name":"Rogolo","admin3":"014056","localeAltName":null},{"geonameid":6537105,"name":"Sondalo","admin3":"014060","localeAltName":null},{"geonameid":6537106,"name":"Verceia","admin3":"014075","localeAltName":null},{"geonameid":6539468,"name":"Bianzone","admin3":"014008","localeAltName":null},{"geonameid":6539469,"name":"Campodolcino","admin3":"014012","localeAltName":null},{"geonameid":6539470,"name":"Cedrasco","admin3":"014016"},{"geonameid":6539471,"name":"Chiesa in Valmalenco","admin3":"014019","localeAltName":null},{"geonameid":6539472,"name":"Delebio","admin3":"014026","localeAltName":null},{"geonameid":6539473,"name":"Grosio","admin3":"014033","localeAltName":null},{"geonameid":6539617,"name":"Sondrio","admin3":"014061","localeAltName":null},{"geonameid":6539618,"name":"Teglio","admin3":"014065","localeAltName":null},{"geonameid":6539619,"name":"Tirano","admin3":"014066","localeAltName":null},{"geonameid":6539781,"name":"Mello","admin3":"014041","localeAltName":null},{"geonameid":6540093,"name":"Chiavenna","admin3":"014018","localeAltName":null},{"geonameid":6540166,"name":"Postalesio","admin3":"014053"},{"geonameid":6540281,"name":"Piuro","admin3":"014050","localeAltName":null},{"geonameid":6540581,"name":"Mazzo di Valtellina","admin3":"014040","localeAltName":null},{"geonameid":6540582,"name":"Traona","admin3":"014069","localeAltName":null},{"geonameid":6541416,"name":"Castello dell'Acqua","admin3":"014014"},{"geonameid":6541417,"name":"Cercino","admin3":"014017","localeAltName":null},{"geonameid":6541418,"name":"Dazio","admin3":"014025"},{"geonameid":6541419,"name":"Fusine","admin3":"014030","localeAltName":null},{"geonameid":6541521,"name":"Gerola Alta","admin3":"014031"},{"geonameid":6541574,"name":"Piateda","admin3":"014049","localeAltName":null},{"geonameid":6541987,"name":"Ardenno","admin3":"014005","localeAltName":null},{"geonameid":6541988,"name":"Gordona","admin3":"014032","localeAltName":null},{"geonameid":6542011,"name":"Dubino","admin3":"014027","localeAltName":null},{"geonameid":6542033,"name":"Valfurva","admin3":"014073","localeAltName":null},{"geonameid":6542054,"name":"Novate Mezzola","admin3":"014046","localeAltName":null},{"geonameid":6542056,"name":"Poggiridenti","admin3":"014051","localeAltName":null},{"geonameid":6542110,"name":"Aprica","admin3":"014004","localeAltName":null},{"geonameid":6542131,"name":"Livigno","admin3":"014037","localeAltName":null},{"geonameid":6542521,"name":"Bema","admin3":"014006"},{"geonameid":6542522,"name":"Cino","admin3":"014021"},{"geonameid":6542523,"name":"Sernio","admin3":"014059"},{"geonameid":6542524,"name":"Tresivio","admin3":"014070","localeAltName":null},{"geonameid":6542547,"name":"Castione Andevenno","admin3":"014015","localeAltName":null},{"geonameid":6542760,"name":"Cosio Valtellino","admin3":"014024","localeAltName":null},{"geonameid":6542761,"name":"Forcola","admin3":"014029","localeAltName":null},{"geonameid":6542765,"name":"Samolaco","admin3":"014057","localeAltName":null},{"geonameid":6542766,"name":"Valdisotto","admin3":"014072","localeAltName":null},{"geonameid":6542767,"name":"Val Masino","admin3":"014074","localeAltName":null},{"geonameid":6542920,"name":"Albosaggia","admin3":"014002","localeAltName":null},{"geonameid":6543119,"name":"Mantello","admin3":"014039","localeAltName":null},{"geonameid":6543120,"name":"Montagna in Valtellina","admin3":"014044","localeAltName":null},{"geonameid":6543121,"name":"Ponte in Valtellina","admin3":"014052","localeAltName":null},{"geonameid":6543122,"name":"San Giacomo Filippo","admin3":"014058"},{"geonameid":6543123,"name":"Spriana","admin3":"014062"},{"geonameid":6543124,"name":"Talamona","admin3":"014063","localeAltName":null},{"geonameid":6543125,"name":"Tartano","admin3":"014064"},{"geonameid":6543126,"name":"Tovo di Sant'Agata","admin3":"014068","localeAltName":null},{"geonameid":6543127,"name":"Vervio","admin3":"014076"},{"geonameid":6543733,"name":"Andalo Valtellino","admin3":"014003","localeAltName":null},{"geonameid":6543734,"name":"Caiolo","admin3":"014011","localeAltName":null},{"geonameid":6543735,"name":"Civo","admin3":"014022"},{"geonameid":6543736,"name":"Colorina","admin3":"014023","localeAltName":null},{"geonameid":6543737,"name":"Lanzada","admin3":"014036","localeAltName":null},{"geonameid":6543738,"name":"Lovero","admin3":"014038","localeAltName":null}],"alternateNames":[{"alternatenameId":2020321,"geonameid":3164854,"isoLanguage":"it","alternateName":"Valdidentro","isPreferredName":true,"isShortName":true,"isColloquial":false,"isHistoric":false},{"alternatenameId":1347793,"geonameid":3166396,"isoLanguage":"it","alternateName":"Sondrio","isPreferredName":true,"isShortName":true,"isColloquial":false,"isHistoric":false},{"alternatenameId":1350323,"geonameid":3174618,"isoLanguage":"it","alternateName":"Lombardia","isPreferredName":true,"isShortName":true,"isColloquial":false,"isHistoric":false}]},"__N_SSG":true}