{"pageProps":{"locale":"ro","admin2":{"geonameid":668325,"name":"Comuna Vadu Moţilor","country":"RO","admin1":"01","admin2":"8229","admin3":"","latitude":"46.4091000","longitude":"22.9553200"},"admin1":{"geonameid":686581,"name":"Alba","admin1":"01"},"locations":[{"geonameid":684518,"name":"Boborăşti"},{"geonameid":684464,"name":"Bodești"},{"geonameid":683690,"name":"Briceşti"},{"geonameid":683198,"name":"Burzești"},{"geonameid":679640,"name":"Dealu Frumos"},{"geonameid":676512,"name":"Gura Negrii"},{"geonameid":674964,"name":"Lăzești"},{"geonameid":672448,"name":"Necșești"},{"geonameid":670270,"name":"Poduri-Bricești"},{"geonameid":669872,"name":"Popeștii de Jos"},{"geonameid":669871,"name":"Popeștii de Sus"},{"geonameid":664821,"name":"Tomeşti"},{"geonameid":664814,"name":"Tomişeşti"},{"geonameid":664789,"name":"Tomuțești"},{"geonameid":664697,"name":"Toțești"},{"geonameid":664002,"name":"Vadu Moţilor"},{"geonameid":662405,"name":"Vâltori"}],"admin3":[],"alternateNames":[]},"__N_SSG":true}