{"pageProps":{"locale":"de","admin1":{"geonameid":2658372,"name":"Kanton Thurgau","country":"CH","admin1":"TG","latitude":"47.5562000","longitude":"9.0768600","localeAltName":null},"admin2":[{"geonameid":8260144,"name":"Bezirk Arbon","admin2":"2011","localeAltName":null},{"geonameid":8260143,"name":"Bezirk Frauenfeld","admin2":"2012","localeAltName":"Frauenfeld"},{"geonameid":8260146,"name":"Bezirk Kreuzlingen","admin2":"2013","localeAltName":null},{"geonameid":8260145,"name":"Bezirk MÃ¼nchwilen","admin2":"2014","localeAltName":null},{"geonameid":8260147,"name":"Bezirk Weinfelden","admin2":"2015","localeAltName":"Weinfelden"}],"admin3":[],"country":{"geonameid":2658434,"country":"CH","name":"Switzerland","localeAltName":"Schweiz"},"alternateNames":[{"alternatenameId":6990605,"geonameid":2658372,"isoLanguage":"en","alternateName":"Thurgau","isPreferredName":true,"isShortName":true,"isColloquial":false,"isHistoric":false},{"alternatenameId":1558470,"geonameid":2658434,"isoLanguage":"de","alternateName":"Schweiz","isPreferredName":true,"isShortName":true,"isColloquial":false,"isHistoric":false},{"alternatenameId":1558473,"geonameid":2658434,"isoLanguage":"en","alternateName":"Switzerland","isPreferredName":true,"isShortName":true,"isColloquial":false,"isHistoric":false},{"alternatenameId":8289553,"geonameid":8260143,"isoLanguage":"de","alternateName":"Frauenfeld","isPreferredName":true,"isShortName":true,"isColloquial":false,"isHistoric":false},{"alternatenameId":8289548,"geonameid":8260147,"isoLanguage":"de","alternateName":"Weinfelden","isPreferredName":true,"isShortName":true,"isColloquial":false,"isHistoric":false}]},"__N_SSG":true}