{"pageProps":{"locale":"ro","admin2":{"geonameid":662794,"name":"Comuna Vinţu de Jos","country":"RO","admin1":"01","admin2":"8826","admin3":"","latitude":"46.0222900","longitude":"23.4564700"},"admin1":{"geonameid":686581,"name":"Alba","admin1":"01"},"locations":[{"geonameid":681855,"name":"Câmpu Goblii","admin3":""},{"geonameid":681734,"name":"Ciocașu","admin3":""},{"geonameid":680195,"name":"Crișeni","admin3":""},{"geonameid":679645,"name":"Dealu Ferului","admin3":""},{"geonameid":676544,"name":"Gura Cuțului","admin3":""},{"geonameid":676275,"name":"Hațegana","admin3":""},{"geonameid":675570,"name":"Inuri","admin3":""},{"geonameid":674980,"name":"Laz","admin3":""},{"geonameid":10861431,"name":"Mătăcina","admin3":""},{"geonameid":673568,"name":"Mereteu","admin3":""},{"geonameid":670771,"name":"Pârău lui Mihai","admin3":""},{"geonameid":670896,"name":"Piatra Dubii","admin3":""},{"geonameid":669987,"name":"Poienița","admin3":""},{"geonameid":667269,"name":"Sibişeni","admin3":""},{"geonameid":666260,"name":"Stăuini","admin3":""},{"geonameid":663751,"name":"Valea Goblii","admin3":""},{"geonameid":663693,"name":"Valea lui Mihai","admin3":""},{"geonameid":663309,"name":"Valea Vințului","admin3":""},{"geonameid":10861430,"name":"Vințu de Jos","admin3":""},{"geonameid":662379,"name":"Vurpăr","admin3":""}],"admin3":[],"alternateNames":[]},"__N_SSG":true}