{"pageProps":{"locale":"ro","admin2":{"geonameid":686012,"name":"Comuna Avram Iancu","country":"RO","admin1":"01","admin2":"2577","admin3":"","latitude":"46.3833300","longitude":"22.7833300"},"admin1":{"geonameid":686581,"name":"Alba","admin1":"01"},"locations":[{"geonameid":686702,"name":"Achimețești","admin3":""},{"geonameid":686016,"name":"Avram Iancu","admin3":""},{"geonameid":686024,"name":"Avrămești","admin3":""},{"geonameid":685917,"name":"Bădăi","admin3":""},{"geonameid":684284,"name":"Boldești","admin3":""},{"geonameid":682893,"name":"Călugărești","admin3":""},{"geonameid":681818,"name":"Cândeşti","admin3":""},{"geonameid":681622,"name":"Cârăşti","admin3":""},{"geonameid":681513,"name":"Cârţuleşti","admin3":""},{"geonameid":682598,"name":"Căsoaia","admin3":""},{"geonameid":682420,"name":"Centru","admin3":""},{"geonameid":681231,"name":"Cocești","admin3":""},{"geonameid":681189,"name":"Cocoșești","admin3":""},{"geonameid":680699,"name":"Coroiești","admin3":""},{"geonameid":679654,"name":"Dealu Crișului","admin3":""},{"geonameid":679147,"name":"Dolești","admin3":""},{"geonameid":678643,"name":"Dumăcești","admin3":""},{"geonameid":678103,"name":"Fistăreşti","admin3":""},{"geonameid":676985,"name":"Gojeiești","admin3":""},{"geonameid":676259,"name":"Helerești","admin3":""},{"geonameid":676201,"name":"Higieşti","admin3":""},{"geonameid":675619,"name":"Incești","admin3":""},{"geonameid":675188,"name":"Jojei","admin3":""},{"geonameid":673743,"name":"Mărtești","admin3":""},{"geonameid":671715,"name":"Orgești","admin3":""},{"geonameid":670667,"name":"Pârvuleşti","admin3":""},{"geonameid":671249,"name":"Pătruțești","admin3":""},{"geonameid":670578,"name":"Plai","admin3":""},{"geonameid":669460,"name":"Pușelești","admin3":""},{"geonameid":666536,"name":"Șoicești","admin3":""},{"geonameid":666157,"name":"Ștertești","admin3":""},{"geonameid":665552,"name":"Tămăţei","admin3":""},{"geonameid":664944,"name":"Târsa","admin3":""},{"geonameid":664942,"name":"Târsa-Plai","admin3":""},{"geonameid":663576,"name":"Valea Maciului","admin3":""},{"geonameid":663326,"name":"Valea Uțului","admin3":""},{"geonameid":663050,"name":"Verdești","admin3":""},{"geonameid":662960,"name":"Vidrișoara","admin3":""}],"admin3":[],"alternateNames":[]},"__N_SSG":true}