{"pageProps":{"locale":"de","admin2":{"geonameid":6458775,"name":"Bezirk Schwyz","country":"CH","admin1":"SZ","admin2":"506","admin3":"","latitude":"47.0281400","longitude":"8.6361900"},"admin1":{"geonameid":2658664,"name":"Kanton Schwyz","admin1":"SZ"},"locations":[{"geonameid":2661783,"name":"Alpthal","admin3":"1361"},{"geonameid":2661708,"name":"Arth","admin3":"1362"},{"geonameid":2660573,"name":"Goldau","admin3":"1362"},{"geonameid":2660279,"name":"Ibach","admin3":"1372"},{"geonameid":2660272,"name":"Illgau","admin3":"1367"},{"geonameid":2660261,"name":"Ingenbohl","admin3":"1364"},{"geonameid":2660004,"name":"Lauerz","admin3":"1365"},{"geonameid":2659580,"name":"Morschach","admin3":"1366"},{"geonameid":2659538,"name":"Muotathal","admin3":"1367"},{"geonameid":2659374,"name":"Oberiberg","admin3":"1368"},{"geonameid":2659030,"name":"Riemenstalden","admin3":"1369"},{"geonameid":2658954,"name":"Rothenthurm","admin3":"1370"},{"geonameid":2658781,"name":"Sattel","admin3":"1371"},{"geonameid":2658665,"name":"Schwyz","admin3":"1372"},{"geonameid":11789824,"name":"Seebli LWS","admin3":"1368"},{"geonameid":2658488,"name":"Steinen","admin3":"1373"},{"geonameid":2658486,"name":"Steinerberg","admin3":"1374"},{"geonameid":2658250,"name":"Unteriberg","admin3":"1368"}],"admin3":[{"geonameid":7285055,"name":"Alpthal","admin3":"1361"},{"geonameid":7285103,"name":"Arth","admin3":"1362"},{"geonameid":7286134,"name":"Illgau","admin3":"1363"},{"geonameid":7286138,"name":"Ingenbohl","admin3":"1364"},{"geonameid":7286275,"name":"Lauerz","admin3":"1365"},{"geonameid":7286560,"name":"Morschach","admin3":"1366"},{"geonameid":7286596,"name":"Muotathal","admin3":"1367"},{"geonameid":7286699,"name":"Oberiberg","admin3":"1368"},{"geonameid":7286909,"name":"Riemenstalden","admin3":"1369"},{"geonameid":7286961,"name":"Rothenthurm","admin3":"1370"},{"geonameid":7287060,"name":"Sattel","admin3":"1371"},{"geonameid":7287129,"name":"Schwyz","admin3":"1372"},{"geonameid":7287230,"name":"Steinen","admin3":"1373"},{"geonameid":7287231,"name":"Steinerberg","admin3":"1374"},{"geonameid":7287379,"name":"Unteriberg","admin3":"1375"}],"alternateNames":[]},"__N_SSG":true}