{"pageProps":{"locale":"en","admin2":{"geonameid":4294084,"name":"Harlan County","country":"US","admin1":"KY","admin2":"095","admin3":"","latitude":"36.8569700","longitude":"-83.2179500","localeAltName":null},"admin1":{"geonameid":6254925,"name":"Kentucky","admin1":"KY","localeAltName":"Kentucky"},"locations":[{"geonameid":4287287,"name":"Cawood","admin3":"","localeAltName":null},{"geonameid":4289232,"name":"Cumberland","admin3":"","localeAltName":null},{"geonameid":4291321,"name":"Evarts","admin3":"","localeAltName":null},{"geonameid":4294072,"name":"Harlan","admin3":"","localeAltName":null},{"geonameid":4299510,"name":"Loyall","admin3":"","localeAltName":null},{"geonameid":4299557,"name":"Lynch","admin3":"","localeAltName":null},{"geonameid":4309071,"name":"South Wallins","admin3":"","localeAltName":null}],"admin3":[{"geonameid":7169424,"name":"City of Evarts","admin3":"7169424"},{"geonameid":7169577,"name":"City of Harlan","admin3":"7169577"},{"geonameid":7169614,"name":"City of Benham","admin3":"7169614"},{"geonameid":7169828,"name":"City of Cumberland","admin3":"7169828"},{"geonameid":7170375,"name":"City of Loyall","admin3":"7170375"},{"geonameid":7170384,"name":"City of Lynch","admin3":"7170384"},{"geonameid":7170952,"name":"City of Wallins Creek","admin3":"7170952"}],"alternateNames":[{"alternatenameId":6755489,"geonameid":6254925,"isoLanguage":"en","alternateName":"Kentucky","isPreferredName":true,"isShortName":true,"isColloquial":false,"isHistoric":false}]},"__N_SSG":true}