{"pageProps":{"locale":"en","admin2":{"geonameid":2756134,"name":"Gemeente Emmen","country":"NL","admin1":"01","admin2":"0114","admin3":"","latitude":"52.7524300","longitude":"6.9593800"},"admin1":{"geonameid":2756631,"name":"Provincie Drenthe","admin1":"01"},"locations":[{"geonameid":2759787,"name":"Amsterdamscheveld","admin3":""},{"geonameid":2759766,"name":"Angelslo","admin3":""},{"geonameid":2759421,"name":"Barger-Compascuum","admin3":""},{"geonameid":2759420,"name":"Barger-Erfscheidenveen","admin3":""},{"geonameid":2759417,"name":"Barger-Oosterveen","admin3":""},{"geonameid":2759415,"name":"Barger-Oosterveld","admin3":""},{"geonameid":2759419,"name":"Bargeres","admin3":""},{"geonameid":2756136,"name":"Emmen","admin3":""},{"geonameid":2756133,"name":"Emmer-Compascuum","admin3":""},{"geonameid":2756131,"name":"Emmer-Erfscheidenveen","admin3":""},{"geonameid":2756128,"name":"Emmerhout","admin3":""},{"geonameid":2756127,"name":"Emmermeer","admin3":""},{"geonameid":2756126,"name":"Emmerschans","admin3":""},{"geonameid":2756046,"name":"Erica","admin3":""},{"geonameid":2756036,"name":"Ermerveen","admin3":""},{"geonameid":2755855,"name":"Foxel","admin3":""},{"geonameid":2752798,"name":"Klazienaveen","admin3":""},{"geonameid":2747082,"name":"Klazienaveen-Noord","admin3":""},{"geonameid":2752556,"name":"Koelveen","admin3":""},{"geonameid":2752525,"name":"Kollingsveen","admin3":""},{"geonameid":2750858,"name":"Middendorp","admin3":""},{"geonameid":2750859,"name":"Middendorp","admin3":""},{"geonameid":2750537,"name":"Munsterscheveld","admin3":""},{"geonameid":2750375,"name":"Nieuw-Amsterdam","admin3":""},{"geonameid":2750357,"name":"Nieuw-Dordrecht","admin3":""},{"geonameid":2750134,"name":"Nieuw-Schoonebeek","admin3":""},{"geonameid":2750115,"name":"Nieuw-Weerdinge","admin3":""},{"geonameid":2749996,"name":"Noordbarge","admin3":""},{"geonameid":2749416,"name":"Oosterse Bos","admin3":""},{"geonameid":2749268,"name":"Oranjedorp","admin3":""},{"geonameid":2747903,"name":"Roswinkel","admin3":""},{"geonameid":2747515,"name":"Schoonebeek","admin3":""},{"geonameid":2747415,"name":"Schutwijk","admin3":""},{"geonameid":2745753,"name":"Veenoord","admin3":""},{"geonameid":2744927,"name":"Weerdinge","admin3":""},{"geonameid":2744875,"name":"Weiteveen","admin3":""},{"geonameid":2744776,"name":"Westenesch","admin3":""},{"geonameid":2744693,"name":"Westerse Bos","admin3":""},{"geonameid":2744411,"name":"Wilhelmsoord","admin3":""},{"geonameid":2744058,"name":"Zandpol","admin3":""},{"geonameid":2743809,"name":"Zuidbarge","admin3":""},{"geonameid":2743544,"name":"Zwartemeer","admin3":""}],"admin3":[],"alternateNames":[{"alternatenameId":11907792,"geonameid":2756631,"isoLanguage":"de","alternateName":"Drenthe","isPreferredName":true,"isShortName":true,"isColloquial":false,"isHistoric":false}]},"__N_SSG":true}