{"pageProps":{"locale":"en","admin2":{"geonameid":3333136,"name":"Borough of Bury","country":"GB","admin1":"ENG","admin2":"C1","admin3":"","latitude":"53.5833300","longitude":"-2.3333300"},"admin1":{"geonameid":6269131,"name":"England","admin1":"ENG","localeAltName":"England"},"locations":[{"geonameid":6691229,"name":"Bradley Fold","admin3":"00EX003"},{"geonameid":10345352,"name":"Burrs","admin3":""},{"geonameid":2654187,"name":"Bury","admin3":""},{"geonameid":6691233,"name":"Elton","admin3":""},{"geonameid":6691234,"name":"Fishpool","admin3":""},{"geonameid":6691231,"name":"Greenmount","admin3":"30UM"},{"geonameid":2646774,"name":"Holcombe","admin3":""},{"geonameid":6691242,"name":"Limefield","admin3":"30UM"},{"geonameid":2639897,"name":"Prestwich","admin3":""},{"geonameid":6691227,"name":"Radcliffe","admin3":""},{"geonameid":2639668,"name":"Ramsbottom","admin3":""},{"geonameid":6691225,"name":"Simister","admin3":"30UM"},{"geonameid":2636604,"name":"Stubbins","admin3":""},{"geonameid":6691232,"name":"Summerseat","admin3":"30UM"},{"geonameid":2635604,"name":"Tottington","admin3":"00EX003"},{"geonameid":6691224,"name":"Unsworth","admin3":"30UM"},{"geonameid":2634861,"name":"Walmersley","admin3":"30UM"},{"geonameid":2634103,"name":"Whitefield","admin3":""}],"admin3":[],"alternateNames":[{"alternatenameId":1626647,"geonameid":6269131,"isoLanguage":"en","alternateName":"England","isPreferredName":true,"isShortName":true,"isColloquial":false,"isHistoric":false}]},"__N_SSG":true}