{"pageProps":{"locale":"en","admin2":{"geonameid":3333188,"name":"Borough of Rochdale","country":"GB","admin1":"ENG","admin2":"L2","admin3":"","latitude":"53.5833300","longitude":"-2.1666700","localeAltName":"Rochdale"},"admin1":{"geonameid":6269131,"name":"England","admin1":"ENG","localeAltName":"England"},"locations":[{"geonameid":2655632,"name":"Birch","admin3":""},{"geonameid":2653542,"name":"Castleton","admin3":""},{"geonameid":6691236,"name":"Firgrove","admin3":"00BP002"},{"geonameid":10345349,"name":"Hopwood","admin3":""},{"geonameid":2644367,"name":"Littleborough","admin3":""},{"geonameid":2642593,"name":"Middleton","admin3":""},{"geonameid":2642483,"name":"Milnrow","admin3":"00BP002"},{"geonameid":2641634,"name":"New Hey","admin3":""},{"geonameid":2639272,"name":"Rochdale","admin3":"30UM"},{"geonameid":6691239,"name":"Shore","admin3":"00CY006"},{"geonameid":2637603,"name":"Smithy Bridge","admin3":"00BP002"},{"geonameid":6691240,"name":"Smithybridge","admin3":""},{"geonameid":2634782,"name":"Wardle","admin3":""}],"admin3":[],"alternateNames":[{"alternatenameId":8666516,"geonameid":3333188,"isoLanguage":"en","alternateName":"Rochdale","isPreferredName":true,"isShortName":true,"isColloquial":false,"isHistoric":false},{"alternatenameId":1626647,"geonameid":6269131,"isoLanguage":"en","alternateName":"England","isPreferredName":true,"isShortName":true,"isColloquial":false,"isHistoric":false}]},"__N_SSG":true}