{"pageProps":{"locale":"en","admin2":{"geonameid":4549638,"name":"Rogers County","country":"US","admin1":"OK","admin2":"131","admin3":"","latitude":"36.3715700","longitude":"-95.6043600","localeAltName":null},"admin1":{"geonameid":4544379,"name":"Oklahoma","admin1":"OK","localeAltName":"Oklahoma"},"locations":[{"geonameid":4531785,"name":"Bushyhead","admin3":"","localeAltName":null},{"geonameid":4532493,"name":"Catoosa","admin3":"","localeAltName":null},{"geonameid":4532918,"name":"Chelsea","admin3":"","localeAltName":null},{"geonameid":4533580,"name":"Claremore","admin3":"","localeAltName":null},{"geonameid":4539351,"name":"Inola","admin3":"","localeAltName":null},{"geonameid":4539775,"name":"Justice","admin3":"","localeAltName":null},{"geonameid":4541049,"name":"Limestone","admin3":"","localeAltName":null},{"geonameid":4547242,"name":"Oologah","admin3":"","localeAltName":null},{"geonameid":4551063,"name":"Sequoyah","admin3":"","localeAltName":null},{"geonameid":4554401,"name":"Verdigris","admin3":"","localeAltName":null}],"admin3":[],"alternateNames":[{"alternatenameId":2089556,"geonameid":4544379,"isoLanguage":"en","alternateName":"Oklahoma","isPreferredName":true,"isShortName":true,"isColloquial":false,"isHistoric":false}]},"__N_SSG":true}