{"pageProps":{"locale":"de","admin2":{"geonameid":2934245,"name":"Düsseldorf District","country":"DE","admin1":"07","admin2":"051","admin3":"","latitude":"51.4000000","longitude":"6.6000000","localeAltName":null},"admin1":{"geonameid":2861876,"name":"Nordrhein-Westfalen","admin1":"07","localeAltName":"Nordrhein-Westfalen"},"locations":[{"geonameid":2958188,"name":"Alpen","admin3":"05170","localeAltName":null},{"geonameid":2943336,"name":"Brüggen","admin3":"05166","localeAltName":null},{"geonameid":2936871,"name":"Dinslaken","admin3":"05170","localeAltName":null},{"geonameid":2935825,"name":"Dormagen","admin3":"05162","localeAltName":null},{"geonameid":2934691,"name":"Duisburg","admin3":"05112","localeAltName":null},{"geonameid":2934246,"name":"Düsseldorf","admin3":"05111","localeAltName":null},{"geonameid":11258605,"name":"Düsseldorf-Pempelfort","admin3":"05111","localeAltName":null},{"geonameid":2930509,"name":"Emmerich","admin3":"05154","localeAltName":null},{"geonameid":2929600,"name":"Erkrath","admin3":"05158","localeAltName":null},{"geonameid":2928810,"name":"Essen","admin3":"05113","localeAltName":null},{"geonameid":2921528,"name":"Geldern","admin3":"05154","localeAltName":null},{"geonameid":2919625,"name":"Goch","admin3":"05154","localeAltName":null},{"geonameid":2917816,"name":"Grefrath","admin3":"05166","localeAltName":null},{"geonameid":2917540,"name":"Grevenbroich","admin3":"05162","localeAltName":null},{"geonameid":2913195,"name":"Haan","admin3":"05158","localeAltName":null},{"geonameid":2911051,"name":"Hamminkeln","admin3":"05170","localeAltName":null},{"geonameid":2907585,"name":"Heiligenhaus","admin3":"05158","localeAltName":null},{"geonameid":2904795,"name":"Hilden","admin3":"05158","localeAltName":null},{"geonameid":2903237,"name":"Hochfeld","admin3":"05112","localeAltName":null},{"geonameid":2897283,"name":"Hünxe","admin3":"05170","localeAltName":null},{"geonameid":2895617,"name":"Issum","admin3":"05154","localeAltName":null},{"geonameid":2894637,"name":"Jüchen","admin3":"05162","localeAltName":null},{"geonameid":2894375,"name":"Kaarst","admin3":"05162","localeAltName":null},{"geonameid":2893837,"name":"Kalkar","admin3":"05154","localeAltName":null},{"geonameid":2893264,"name":"Kamp-Lintfort","admin3":"05170","localeAltName":null},{"geonameid":2893271,"name":"Kamphausen","admin3":"05162","localeAltName":null},{"geonameid":2891643,"name":"Kempen","admin3":"05166","localeAltName":null},{"geonameid":2891258,"name":"Kevelaer","admin3":"05154","localeAltName":null},{"geonameid":2887835,"name":"Kleve","admin3":"05154","localeAltName":null},{"geonameid":2885397,"name":"Korschenbroich","admin3":"05162","localeAltName":null},{"geonameid":2884779,"name":"Kranenburg","admin3":"05154","localeAltName":null},{"geonameid":2884509,"name":"Krefeld","admin3":"05114","localeAltName":null},{"geonameid":2881085,"name":"Langenfeld","admin3":"05158","localeAltName":null},{"geonameid":2872504,"name":"Meerbusch","admin3":"05162","localeAltName":null},{"geonameid":2872380,"name":"Mehrhoog","admin3":"05170","localeAltName":null},{"geonameid":2872347,"name":"Meiderich","admin3":"05112","localeAltName":null},{"geonameid":2871535,"name":"Mettmann","admin3":"05158","localeAltName":null},{"geonameid":2870221,"name":"Moers","admin3":"05170","localeAltName":null},{"geonameid":2869894,"name":"Mönchengladbach","admin3":"05116","localeAltName":null},{"geonameid":2869791,"name":"Monheim am Rhein","admin3":"05158","localeAltName":"Monheim am Rhein"},{"geonameid":2867838,"name":"Mülheim","admin3":"05117","localeAltName":"Mülheim (Ruhr)"},{"geonameid":2866333,"name":"Nettetal","admin3":"05166","localeAltName":null},{"geonameid":2866110,"name":"Neubrück","admin3":"05162","localeAltName":null},{"geonameid":2864118,"name":"Neuss","admin3":"05162","localeAltName":null},{"geonameid":2863199,"name":"Niederkrüchten","admin3":"05166","localeAltName":null},{"geonameid":2860410,"name":"Oberhausen","admin3":"05119","localeAltName":null},{"geonameid":2850174,"name":"Ratingen","admin3":"05158","localeAltName":null},{"geonameid":2849548,"name":"Rees","admin3":"05154","localeAltName":null},{"geonameid":2848273,"name":"Remscheid","admin3":"05120","localeAltName":null},{"geonameid":2847662,"name":"Rheinberg","admin3":"05170","localeAltName":null},{"geonameid":2847586,"name":"Rheurdt","admin3":"05154","localeAltName":null},{"geonameid":2845273,"name":"Rommerskirchen","admin3":"05162","localeAltName":null},{"geonameid":2839674,"name":"Schermbeck","admin3":"05170","localeAltName":null},{"geonameid":2835342,"name":"Schwalmtal","admin3":"05166","localeAltName":null},{"geonameid":2831580,"name":"Solingen","admin3":"05122","localeAltName":null},{"geonameid":2831105,"name":"Sonsbeck","admin3":"05170","localeAltName":null},{"geonameid":2826304,"name":"Straelen","admin3":"05154","localeAltName":null},{"geonameid":2821899,"name":"Tönisvorst","admin3":"05166","localeAltName":null},{"geonameid":2820465,"name":"Uedem","admin3":"05154","localeAltName":null},{"geonameid":2817724,"name":"Velbert","admin3":"05158","localeAltName":null},{"geonameid":2817311,"name":"Viersen","admin3":"05166","localeAltName":null},{"geonameid":2817065,"name":"Voerde","admin3":"05170","localeAltName":null},{"geonameid":2815651,"name":"Wachtendonk","admin3":"05154","localeAltName":null},{"geonameid":2813410,"name":"Weeze","admin3":"05154","localeAltName":null},{"geonameid":2811347,"name":"Wemb","admin3":"05154","localeAltName":null},{"geonameid":2810678,"name":"Wesel","admin3":"05170","localeAltName":null},{"geonameid":2808559,"name":"Willich","admin3":"05166","localeAltName":null},{"geonameid":2805910,"name":"Wülfrath","admin3":"05158","localeAltName":null},{"geonameid":2805753,"name":"Wuppertal","admin3":"05124","localeAltName":null},{"geonameid":2805385,"name":"Xanten","admin3":"05170","localeAltName":null}],"admin3":[{"geonameid":2810674,"name":"Kreis Wesel","admin3":"05170","localeAltName":null},{"geonameid":3231901,"name":"Kreisfreie Stadt Duisburg","admin3":"05112","localeAltName":null},{"geonameid":3231903,"name":"Kreisfreie Stadt Düsseldorf","admin3":"05111","localeAltName":null},{"geonameid":3231904,"name":"Kreisfreie Stadt Essen","admin3":"05113","localeAltName":null},{"geonameid":3231905,"name":"Kreis Kleve","admin3":"05154","localeAltName":null},{"geonameid":3231906,"name":"Kreisfreie Stadt Krefeld","admin3":"05114","localeAltName":null},{"geonameid":3247430,"name":"Kreis Mettmann","admin3":"05158","localeAltName":null},{"geonameid":3247431,"name":"Kreisfreie Stadt Wuppertal","admin3":"05124","localeAltName":null},{"geonameid":3247432,"name":"Kreisfreie Stadt Remscheid","admin3":"05120","localeAltName":null},{"geonameid":3247433,"name":"Kreisfreie Stadt Solingen","admin3":"05122","localeAltName":null},{"geonameid":3247434,"name":"Rhein-Kreis Neuss","admin3":"05162","localeAltName":null},{"geonameid":3247435,"name":"Kreisfreie Stadt Mönchengladbach","admin3":"05116","localeAltName":null},{"geonameid":3247436,"name":"Kreis Viersen","admin3":"05166","localeAltName":null},{"geonameid":3247437,"name":"Kreisfreie Stadt Oberhausen","admin3":"05119","localeAltName":null},{"geonameid":3247438,"name":"Kreisfreie Stadt Mülheim an der Ruhr","admin3":"05117","localeAltName":null}],"alternateNames":[{"alternatenameId":2080494,"geonameid":2861876,"isoLanguage":"de","alternateName":"Nordrhein-Westfalen","isPreferredName":true,"isShortName":true,"isColloquial":false,"isHistoric":false},{"alternatenameId":7486805,"geonameid":2867838,"isoLanguage":"de","alternateName":"Mülheim (Ruhr)","isPreferredName":true,"isShortName":true,"isColloquial":false,"isHistoric":false},{"alternatenameId":8248948,"geonameid":2869791,"isoLanguage":"de","alternateName":"Monheim am Rhein","isPreferredName":true,"isShortName":true,"isColloquial":false,"isHistoric":false},{"alternatenameId":8248951,"geonameid":2869791,"isoLanguage":"en","alternateName":"Monheim am Rhein","isPreferredName":true,"isShortName":true,"isColloquial":false,"isHistoric":false}]},"__N_SSG":true}