{"pageProps":{"locale":"it","admin2":{"geonameid":2524906,"name":"Provincia di Cosenza","country":"IT","admin1":"03","admin2":"CS","admin3":"","latitude":"39.5569700","longitude":"16.3549100","localeAltName":"Cosenza"},"admin1":{"geonameid":2525468,"name":"Calabria","admin1":"03","localeAltName":"Calabria"},"locations":[{"geonameid":2525782,"name":"Acquaformosa","admin3":"078001","localeAltName":null},{"geonameid":2525772,"name":"Acri","admin3":"078003","localeAltName":null},{"geonameid":2525760,"name":"Aiello Calabro","admin3":"078004","localeAltName":null},{"geonameid":2525759,"name":"Aieta","admin3":"078005","localeAltName":null},{"geonameid":2525756,"name":"Albidona","admin3":"078006","localeAltName":null},{"geonameid":2525750,"name":"Alessandria del Carretto","admin3":"078007","localeAltName":null},{"geonameid":2525728,"name":"Altomonte","admin3":"078009","localeAltName":null},{"geonameid":2525727,"name":"Amantea","admin3":"078010","localeAltName":null},{"geonameid":8949904,"name":"Amendola","admin3":"078116","localeAltName":null},{"geonameid":2525723,"name":"Amendolara","admin3":"078011","localeAltName":null},{"geonameid":2525720,"name":"Amica","admin3":"078157","localeAltName":null},{"geonameid":8948760,"name":"Andreotta","admin3":"078031","localeAltName":null},{"geonameid":8949617,"name":"Apollinara","admin3":"078157","localeAltName":null},{"geonameid":2524553,"name":"Aprigliano","admin3":"078012","localeAltName":null},{"geonameid":8378911,"name":"Arcavacata","admin3":"078102","localeAltName":null},{"geonameid":8949940,"name":"Arente","admin3":"078106","localeAltName":null},{"geonameid":2525567,"name":"Belvedere Marittimo","admin3":"078015","localeAltName":null},{"geonameid":2525550,"name":"Bisignano","admin3":"078017","localeAltName":null},{"geonameid":2525540,"name":"Bocchigliero","admin3":"078018","localeAltName":null},{"geonameid":2525532,"name":"Bonifati","admin3":"078019","localeAltName":null},{"geonameid":9036129,"name":"Borgata Marina","admin3":"078107","localeAltName":null},{"geonameid":8950328,"name":"Bucita","admin3":"078116","localeAltName":null},{"geonameid":2525453,"name":"Caloppezzati","admin3":"078021","localeAltName":null},{"geonameid":2525452,"name":"Caloveto","admin3":"078022","localeAltName":null},{"geonameid":6534808,"name":"Calvisi","admin3":"078139","localeAltName":null},{"geonameid":8949607,"name":"Camigliano","admin3":"078099","localeAltName":null},{"geonameid":2525436,"name":"Camigliatello Silano","admin3":"078143","localeAltName":null},{"geonameid":2525430,"name":"Campana","admin3":"078023","localeAltName":null},{"geonameid":2522895,"name":"Campora San Giovanni","admin3":"078010","localeAltName":null},{"geonameid":3180831,"name":"Canna","admin3":"078024","localeAltName":null},{"geonameid":8949269,"name":"Cantinella","admin3":"078157","localeAltName":null},{"geonameid":8950148,"name":"Capitano","admin3":"078030","localeAltName":null},{"geonameid":2525352,"name":"Cariati","admin3":"078025","localeAltName":null},{"geonameid":2525346,"name":"Carolei","admin3":"078026","localeAltName":null},{"geonameid":8950017,"name":"Casello dei Morti","admin3":"078104","localeAltName":null},{"geonameid":2525113,"name":"Casole Bruzio","admin3":"078156","localeAltName":null},{"geonameid":2525110,"name":"Cassano Allo Ionio","admin3":"078029","localeAltName":null},{"geonameid":2525080,"name":"Castiglione Cosentino","admin3":"078030","localeAltName":null},{"geonameid":2525070,"name":"Castrovillari","admin3":"078033","localeAltName":null},{"geonameid":8949120,"name":"Cavoni-Ginestreto","admin3":"078070","localeAltName":null},{"geonameid":2525038,"name":"Celico","admin3":"078034","localeAltName":null},{"geonameid":2525027,"name":"Cerchiara di Calabria","admin3":"078036","localeAltName":null},{"geonameid":2525023,"name":"Cerisano","admin3":"078037","localeAltName":null},{"geonameid":2525016,"name":"Cerzeto","admin3":"078039","localeAltName":null},{"geonameid":2525012,"name":"Cetraro","admin3":"078040","localeAltName":null},{"geonameid":9036392,"name":"Cetraro Marina","admin3":"078040","localeAltName":null},{"geonameid":8950165,"name":"Chimento","admin3":"078003","localeAltName":null},{"geonameid":2524982,"name":"Cirella","admin3":"078048","localeAltName":null},{"geonameid":2524977,"name":"Cittadella del Capo","admin3":"078019","localeAltName":null},{"geonameid":2524975,"name":"Civita","admin3":"078041","localeAltName":null},{"geonameid":8950088,"name":"Contessa","admin3":"078066","localeAltName":null},{"geonameid":8949926,"name":"Corica","admin3":"078010","localeAltName":null},{"geonameid":2524929,"name":"Corigliano Calabro","admin3":"078157","localeAltName":null},{"geonameid":9003711,"name":"Corigliano Scalo","admin3":"078157","localeAltName":null},{"geonameid":2524907,"name":"Cosenza","admin3":"078045","localeAltName":null},{"geonameid":2524884,"name":"Cropalati","admin3":"078046","localeAltName":null},{"geonameid":2524882,"name":"Crosia","admin3":"078047","localeAltName":null},{"geonameid":8949959,"name":"Cucco-Riviere","admin3":"078048","localeAltName":null},{"geonameid":2524858,"name":"Destro","admin3":"078068","localeAltName":null},{"geonameid":2524856,"name":"Diamante","admin3":"078048","localeAltName":null},{"geonameid":2525385,"name":"Dipignano","admin3":"078049","localeAltName":null},{"geonameid":2524843,"name":"Domanico","admin3":"078050","localeAltName":null},{"geonameid":2524833,"name":"Donnici Inferiore","admin3":"078045","localeAltName":null},{"geonameid":2524832,"name":"Donnici Superiore","admin3":"078045","localeAltName":null},{"geonameid":2524830,"name":"Doria","admin3":"078029","localeAltName":null},{"geonameid":8948956,"name":"Fabrizio","admin3":"078157","localeAltName":null},{"geonameid":2524805,"name":"Fagnano Castello","admin3":"078051","localeAltName":null},{"geonameid":6535312,"name":"Figline Vegliaturo","admin3":"078053","localeAltName":null},{"geonameid":2524749,"name":"Firmo","admin3":"078054","localeAltName":null},{"geonameid":2524743,"name":"Fiumefreddo Bruzio","admin3":"078055","localeAltName":null},{"geonameid":8949862,"name":"Fontanesi-Santa Lucia","admin3":"078031","localeAltName":null},{"geonameid":8949952,"name":"Foresta","admin3":"078003","localeAltName":null},{"geonameid":2524706,"name":"Francavilla Marittima","admin3":"078056","localeAltName":null},{"geonameid":2524702,"name":"Frascineto","admin3":"078057","localeAltName":null},{"geonameid":2524691,"name":"Fuscaldo","admin3":"078058","localeAltName":null},{"geonameid":2524566,"name":"Grimaldi","admin3":"078059","localeAltName":null},{"geonameid":2524564,"name":"Grisolia","admin3":"078060","localeAltName":null},{"geonameid":2524468,"name":"Lago","admin3":"078062","localeAltName":null},{"geonameid":2524466,"name":"Laino Borgo","admin3":"078063","localeAltName":null},{"geonameid":8950095,"name":"Laise","admin3":"078015","localeAltName":null},{"geonameid":2524431,"name":"Lattarico","admin3":"078066","localeAltName":null},{"geonameid":2524429,"name":"Laurignano","admin3":"078049","localeAltName":null},{"geonameid":2524367,"name":"Longobucco","admin3":"078068","localeAltName":null},{"geonameid":2524356,"name":"Lungro","admin3":"078069","localeAltName":null},{"geonameid":2524352,"name":"Luzzi","admin3":"078070","localeAltName":null},{"geonameid":8950248,"name":"Macchia","admin3":"078003","localeAltName":null},{"geonameid":2524319,"name":"Malito","admin3":"078072","localeAltName":null},{"geonameid":2524305,"name":"Mandatoriccio","admin3":"078074","localeAltName":null},{"geonameid":2524300,"name":"Mangone","admin3":"078075","localeAltName":null},{"geonameid":2524290,"name":"Marano Marchesato","admin3":"078076","localeAltName":null},{"geonameid":2524289,"name":"Marano Principato","admin3":"078077","localeAltName":null},{"geonameid":8948985,"name":"Marcellina","admin3":"078132","localeAltName":null},{"geonameid":8949251,"name":"Marina","admin3":"078011","localeAltName":null},{"geonameid":9036127,"name":"Marina","admin3":"078061","localeAltName":null},{"geonameid":8949893,"name":"Marina","admin3":"078013","localeAltName":null},{"geonameid":8949433,"name":"Marina","admin3":"078082","localeAltName":null},{"geonameid":2524268,"name":"Marina di Fuscaldo","admin3":"078058","localeAltName":null},{"geonameid":9036149,"name":"Marina di Santa Maria del Cedro","admin3":"078132","localeAltName":null},{"geonameid":2524258,"name":"Marina di Schiavonea","admin3":"078157","localeAltName":null},{"geonameid":2524239,"name":"Marzi","admin3":"078078","localeAltName":null},{"geonameid":2524180,"name":"Mendicino","admin3":"078079","localeAltName":null},{"geonameid":2524129,"name":"Mirto","admin3":"078047","localeAltName":null},{"geonameid":2524086,"name":"Mongrassano","admin3":"078080","localeAltName":null},{"geonameid":2524076,"name":"Montalto Uffugo","admin3":"078081","localeAltName":null},{"geonameid":3172903,"name":"Montegiordano","admin3":"078082","localeAltName":null},{"geonameid":2524056,"name":"Morano Calabro","admin3":"078083","localeAltName":null},{"geonameid":8949960,"name":"Morelli Catena Sottana","admin3":"078156","localeAltName":null},{"geonameid":2524049,"name":"Mormanno","admin3":"078084","localeAltName":null},{"geonameid":2524044,"name":"Mottafollone","admin3":"078085","localeAltName":null},{"geonameid":3171950,"name":"Oriolo","admin3":"078087","localeAltName":null},{"geonameid":2523955,"name":"Orsomarso","admin3":"078088","localeAltName":null},{"geonameid":8949507,"name":"Ortomatera","admin3":"078031","localeAltName":null},{"geonameid":8950101,"name":"Padula","admin3":"078127","localeAltName":null},{"geonameid":2523900,"name":"Paludi","admin3":"078089","localeAltName":null},{"geonameid":2523888,"name":"Paola","admin3":"078091","localeAltName":null},{"geonameid":2523877,"name":"Parenti","admin3":"078093","localeAltName":null},{"geonameid":2523865,"name":"Paterno Calabro","admin3":"078094","localeAltName":null},{"geonameid":2523853,"name":"Pedace-Perito","admin3":"078156","localeAltName":null},{"geonameid":8950068,"name":"Pertina","admin3":"078003","localeAltName":null},{"geonameid":2523806,"name":"Piane Crati","admin3":"078097","localeAltName":null},{"geonameid":8950073,"name":"Pianetti","admin3":"078081","localeAltName":null},{"geonameid":2523790,"name":"Pietrafitta","admin3":"078098","localeAltName":null},{"geonameid":8949450,"name":"Piragineti","admin3":"078157","localeAltName":null},{"geonameid":2523752,"name":"Plataci","admin3":"078100","localeAltName":null},{"geonameid":2523687,"name":"Praia a Mare","admin3":"078101","localeAltName":null},{"geonameid":2523664,"name":"Quattromiglia","admin3":"078102","localeAltName":null},{"geonameid":8949765,"name":"Redipiano","admin3":"078127","localeAltName":null},{"geonameid":2523623,"name":"Rende","admin3":"078102","localeAltName":null},{"geonameid":3169172,"name":"Rocca Imperiale","admin3":"078103","localeAltName":null},{"geonameid":9036367,"name":"Rocca Imperiale Marina","admin3":"078103","localeAltName":null},{"geonameid":2523591,"name":"Roggiano Gravina","admin3":"078104","localeAltName":null},{"geonameid":2523589,"name":"Rogliano","admin3":"078105","localeAltName":null},{"geonameid":8949332,"name":"Rosario","admin3":"078079","localeAltName":null},{"geonameid":2523584,"name":"Rose","admin3":"078106","localeAltName":null},{"geonameid":2523583,"name":"Roseto Capo Spulico","admin3":"078107","localeAltName":null},{"geonameid":2523578,"name":"Rossano","admin3":"078157","localeAltName":null},{"geonameid":2523577,"name":"Rossano Stazione","admin3":"078157","localeAltName":null},{"geonameid":2523575,"name":"Rota Greca","admin3":"078109","localeAltName":null},{"geonameid":2523571,"name":"Rovito","admin3":"078110","localeAltName":null},{"geonameid":8949561,"name":"Salerni","admin3":"078081","localeAltName":null},{"geonameid":2523528,"name":"San Basile","admin3":"078111","localeAltName":null},{"geonameid":2523523,"name":"San Benedetto Ullano","admin3":"078112","localeAltName":null},{"geonameid":2523518,"name":"San Biase","admin3":"078055","localeAltName":null},{"geonameid":2523507,"name":"San Cosmo Albanese","admin3":"078113","localeAltName":null},{"geonameid":2523500,"name":"San Demetrio Corone","admin3":"078114","localeAltName":null},{"geonameid":2523499,"name":"San Donato di Ninea","admin3":"078115","localeAltName":null},{"geonameid":2523497,"name":"San Fili","admin3":"078116","localeAltName":null},{"geonameid":8949756,"name":"San Filippo-Battendieri","admin3":"078040","localeAltName":null},{"geonameid":2523479,"name":"San Giacomo","admin3":"078003","localeAltName":null},{"geonameid":2523480,"name":"San Giacomo","admin3":"078039","localeAltName":null},{"geonameid":8950069,"name":"San Giacomo-Marinella","admin3":"078021","localeAltName":null},{"geonameid":2523473,"name":"San Giorgio Albanese","admin3":"078118","localeAltName":null},{"geonameid":2523461,"name":"San Giovanni in Fiore","admin3":"078119","localeAltName":null},{"geonameid":2523439,"name":"San Lorenzo Bellizzi","admin3":"078120","localeAltName":null},{"geonameid":2523438,"name":"San Lorenzo del Vallo","admin3":"078121","localeAltName":null},{"geonameid":2523435,"name":"San Lucido","admin3":"078122","localeAltName":null},{"geonameid":2523426,"name":"San Marco Argentano","admin3":"078123","localeAltName":null},{"geonameid":8949411,"name":"San Nico","admin3":"078157","localeAltName":null},{"geonameid":2523410,"name":"San Nicola Arcella","admin3":"078125","localeAltName":null},{"geonameid":2523386,"name":"San Pietro in Guarano","admin3":"078127","localeAltName":null},{"geonameid":2523371,"name":"San Sosti","admin3":"078128","localeAltName":null},{"geonameid":2523242,"name":"San Vincenzo la Costa","admin3":"078135","localeAltName":null},{"geonameid":9036186,"name":"Sangineto Lido","admin3":"078117","localeAltName":null},{"geonameid":2523348,"name":"Sant'Agata di Esaro","admin3":"078131","localeAltName":null},{"geonameid":2523261,"name":"Sant'Ippolito","admin3":"078045","localeAltName":null},{"geonameid":2523355,"name":"Santa Domenica Talao","admin3":"078130","localeAltName":null},{"geonameid":6535313,"name":"Santa Maria del Cedro","admin3":"078132","localeAltName":null},{"geonameid":9036178,"name":"Santa Maria di Settimo","admin3":"078081","localeAltName":null},{"geonameid":2523324,"name":"Santa Maria le Grotte","admin3":"078124","localeAltName":null},{"geonameid":2523285,"name":"Santa Sofia d'Epiro","admin3":"078133","localeAltName":null},{"geonameid":8949046,"name":"Santo Stefano","admin3":"078102","localeAltName":null},{"geonameid":2523249,"name":"Santo Stefano di Rogliano","admin3":"078134","localeAltName":null},{"geonameid":2523233,"name":"Saracena","admin3":"078136","localeAltName":null},{"geonameid":2523220,"name":"Sartano","admin3":"078148","localeAltName":null},{"geonameid":2523209,"name":"Scala Coeli","admin3":"078137","localeAltName":null},{"geonameid":2523207,"name":"Scalea","admin3":"078138","localeAltName":null},{"geonameid":8950091,"name":"Scalo Ferroviario","admin3":"078123","localeAltName":null},{"geonameid":8949697,"name":"Scalo Ferroviario","admin3":"078055","localeAltName":null},{"geonameid":2523200,"name":"Scarcelli","admin3":"078058","localeAltName":null},{"geonameid":8950217,"name":"Scaro-Reggio-Scornavacca-Vardano","admin3":"078055","localeAltName":null},{"geonameid":8950110,"name":"Serra Miceli","admin3":"078031","localeAltName":null},{"geonameid":2523147,"name":"Serra Pedace","admin3":"078156","localeAltName":null},{"geonameid":8948906,"name":"Settimo","admin3":"078081","localeAltName":null},{"geonameid":2523123,"name":"Sibari","admin3":"078029","localeAltName":null},{"geonameid":2523025,"name":"Spezzano Albanese","admin3":"078142","localeAltName":null},{"geonameid":2523023,"name":"Spezzano della Sila","admin3":"078143","localeAltName":null},{"geonameid":2523022,"name":"Spezzano Piccolo","admin3":"078156","localeAltName":null},{"geonameid":8949072,"name":"Stazione Montalto-Coretto","admin3":"078081","localeAltName":null},{"geonameid":2522982,"name":"Surdo","admin3":"078102","localeAltName":null},{"geonameid":2522973,"name":"Tarsia","admin3":"078145","localeAltName":null},{"geonameid":8948853,"name":"Taverna","admin3":"078081","localeAltName":null},{"geonameid":2522956,"name":"Terranova da Sibari","admin3":"078146","localeAltName":null},{"geonameid":2522950,"name":"Terravecchia","admin3":"078147","localeAltName":null},{"geonameid":8948798,"name":"Tivolille Pasquali-Merenzata","admin3":"078079","localeAltName":null},{"geonameid":2522924,"name":"Torano Castello","admin3":"078148","localeAltName":null},{"geonameid":8950272,"name":"Torremezzo di Falconara","admin3":"078052","localeAltName":null},{"geonameid":2522886,"name":"Tortora","admin3":"078149","localeAltName":null},{"geonameid":9036388,"name":"Tortora Marina","admin3":"078149","localeAltName":null},{"geonameid":2522867,"name":"Trebisacce","admin3":"078150","localeAltName":null},{"geonameid":2522862,"name":"Trenta","admin3":"078156","localeAltName":null},{"geonameid":2522812,"name":"Vaccarizzo Albanese","admin3":"078152","localeAltName":null},{"geonameid":8949216,"name":"Vadue","admin3":"078026","localeAltName":null},{"geonameid":8950277,"name":"Vallegianno","admin3":"078134","localeAltName":null},{"geonameid":2522785,"name":"Verbicaro","admin3":"078153","localeAltName":null},{"geonameid":2522736,"name":"Villapiana","admin3":"078154","localeAltName":null},{"geonameid":9036363,"name":"Villapiana Lido","admin3":"078154","localeAltName":null},{"geonameid":8949771,"name":"Villapiana Scalo","admin3":"078154","localeAltName":null}],"admin3":[{"geonameid":2523024,"name":"Spezzano della Sila","admin3":"078143","localeAltName":null},{"geonameid":2523188,"name":"Scigliano","admin3":"078139","localeAltName":null},{"geonameid":2524850,"name":"Dipignano","admin3":"078049","localeAltName":null},{"geonameid":2525695,"name":"Aprigliano","admin3":"078012","localeAltName":null},{"geonameid":6537655,"name":"Acquaformosa","admin3":"078001","localeAltName":null},{"geonameid":6537656,"name":"Albidona","admin3":"078006","localeAltName":null},{"geonameid":6537657,"name":"Altomonte","admin3":"078009","localeAltName":null},{"geonameid":6537658,"name":"Buonvicino","admin3":"078020"},{"geonameid":6537659,"name":"Cerzeto","admin3":"078039","localeAltName":null},{"geonameid":6537660,"name":"Cetraro","admin3":"078040","localeAltName":null},{"geonameid":6537661,"name":"Colosimi","admin3":"078043"},{"geonameid":6537662,"name":"Cropalati","admin3":"078046","localeAltName":null},{"geonameid":6537663,"name":"Crosia","admin3":"078047","localeAltName":null},{"geonameid":6537664,"name":"Domanico","admin3":"078050","localeAltName":null},{"geonameid":6537665,"name":"Fagnano Castello","admin3":"078051","localeAltName":null},{"geonameid":6537666,"name":"Firmo","admin3":"078054","localeAltName":null},{"geonameid":6537667,"name":"Fiumefreddo Bruzio","admin3":"078055","localeAltName":null},{"geonameid":6537668,"name":"Guardia Piemontese","admin3":"078061","localeAltName":null},{"geonameid":6537669,"name":"Laino Borgo","admin3":"078063","localeAltName":null},{"geonameid":6537670,"name":"Lungro","admin3":"078069","localeAltName":null},{"geonameid":6537671,"name":"Luzzi","admin3":"078070","localeAltName":null},{"geonameid":6537672,"name":"Maierà","admin3":"078071"},{"geonameid":6537673,"name":"Malito","admin3":"078072","localeAltName":null},{"geonameid":6537674,"name":"Malvito","admin3":"078073"},{"geonameid":6537675,"name":"Mangone","admin3":"078075","localeAltName":null},{"geonameid":6537677,"name":"Morano Calabro","admin3":"078083","localeAltName":null},{"geonameid":6537678,"name":"Nocara","admin3":"078086"},{"geonameid":6537679,"name":"Orsomarso","admin3":"078088","localeAltName":null},{"geonameid":6537680,"name":"Pietrapaola","admin3":"078099","localeAltName":null},{"geonameid":6537681,"name":"Plataci","admin3":"078100","localeAltName":null},{"geonameid":6537682,"name":"Roseto Capo Spulico","admin3":"078107","localeAltName":null},{"geonameid":6537683,"name":"Rota Greca","admin3":"078109","localeAltName":null},{"geonameid":6537684,"name":"San Cosmo Albanese","admin3":"078113","localeAltName":null},{"geonameid":6537685,"name":"Sangineto","admin3":"078117","localeAltName":null},{"geonameid":6537686,"name":"San Lorenzo Bellizzi","admin3":"078120","localeAltName":null},{"geonameid":6537687,"name":"San Lucido","admin3":"078122","localeAltName":null},{"geonameid":6537688,"name":"San Sosti","admin3":"078128","localeAltName":null},{"geonameid":6537689,"name":"Santa Domenica Talao","admin3":"078130","localeAltName":null},{"geonameid":6537690,"name":"Scala Coeli","admin3":"078137","localeAltName":null},{"geonameid":6537691,"name":"Tarsia","admin3":"078145","localeAltName":null},{"geonameid":6537692,"name":"Terranova da Sibari","admin3":"078146","localeAltName":null},{"geonameid":6539029,"name":"Aiello Calabro","admin3":"078004","localeAltName":null},{"geonameid":6539030,"name":"Alessandria del Carretto","admin3":"078007","localeAltName":null},{"geonameid":6539031,"name":"Amendolara","admin3":"078011","localeAltName":null},{"geonameid":6539032,"name":"Belvedere Marittimo","admin3":"078015","localeAltName":null},{"geonameid":6539033,"name":"Bocchigliero","admin3":"078018","localeAltName":null},{"geonameid":6539034,"name":"Carolei","admin3":"078026","localeAltName":null},{"geonameid":6539035,"name":"Carpanzano","admin3":"078027"},{"geonameid":6539036,"name":"Celico","admin3":"078034","localeAltName":null},{"geonameid":6539038,"name":"Francavilla Marittima","admin3":"078056","localeAltName":null},{"geonameid":6539039,"name":"Frascineto","admin3":"078057","localeAltName":null},{"geonameid":6539040,"name":"Grisolia","admin3":"078060","localeAltName":null},{"geonameid":6539041,"name":"Longobucco","admin3":"078068","localeAltName":null},{"geonameid":6539042,"name":"Mandatoriccio","admin3":"078074","localeAltName":null},{"geonameid":6539043,"name":"Marano Marchesato","admin3":"078076","localeAltName":null},{"geonameid":6539044,"name":"Marano Principato","admin3":"078077","localeAltName":null},{"geonameid":6539045,"name":"Marzi","admin3":"078078","localeAltName":null},{"geonameid":6539046,"name":"Montalto Uffugo","admin3":"078081","localeAltName":null},{"geonameid":6539047,"name":"Mormanno","admin3":"078084","localeAltName":null},{"geonameid":6539048,"name":"Mottafollone","admin3":"078085","localeAltName":null},{"geonameid":6539049,"name":"Paludi","admin3":"078089","localeAltName":null},{"geonameid":6539050,"name":"Papasidero","admin3":"078092"},{"geonameid":6539051,"name":"Piane Crati","admin3":"078097","localeAltName":null},{"geonameid":6539052,"name":"Rende","admin3":"078102","localeAltName":null},{"geonameid":6539053,"name":"Rocca Imperiale","admin3":"078103","localeAltName":null},{"geonameid":6539054,"name":"Roggiano Gravina","admin3":"078104","localeAltName":null},{"geonameid":6539055,"name":"Rovito","admin3":"078110","localeAltName":null},{"geonameid":6539056,"name":"San Demetrio Corone","admin3":"078114","localeAltName":null},{"geonameid":6539057,"name":"San Giorgio Albanese","admin3":"078118","localeAltName":null},{"geonameid":6539058,"name":"San Lorenzo del Vallo","admin3":"078121","localeAltName":null},{"geonameid":6539059,"name":"San Marco Argentano","admin3":"078123","localeAltName":null},{"geonameid":6539060,"name":"San Nicola Arcella","admin3":"078125","localeAltName":null},{"geonameid":6539061,"name":"Santa Caterina Albanese","admin3":"078129"},{"geonameid":6539062,"name":"Sant'Agata di Esaro","admin3":"078131","localeAltName":null},{"geonameid":6539063,"name":"Santa Sofia d'Epiro","admin3":"078133","localeAltName":null},{"geonameid":6539064,"name":"San Vincenzo La Costa","admin3":"078135","localeAltName":null},{"geonameid":6539065,"name":"Serra d'Aiello","admin3":"078140"},{"geonameid":6539066,"name":"Spezzano Albanese","admin3":"078142","localeAltName":null},{"geonameid":6539067,"name":"Tortora","admin3":"078149","localeAltName":null},{"geonameid":6539069,"name":"Vaccarizzo Albanese","admin3":"078152","localeAltName":null},{"geonameid":6539070,"name":"Verbicaro","admin3":"078153","localeAltName":null},{"geonameid":6539844,"name":"Altilia","admin3":"078008"},{"geonameid":6539845,"name":"Amantea","admin3":"078010","localeAltName":null},{"geonameid":6539846,"name":"Bonifati","admin3":"078019","localeAltName":null},{"geonameid":6539847,"name":"Grimaldi","admin3":"078059","localeAltName":null},{"geonameid":6539848,"name":"Lago","admin3":"078062","localeAltName":null},{"geonameid":6539849,"name":"Oriolo","admin3":"078087","localeAltName":null},{"geonameid":6539850,"name":"Praia a Mare","admin3":"078101","localeAltName":null},{"geonameid":6539852,"name":"San Fili","admin3":"078116","localeAltName":null},{"geonameid":6539853,"name":"Terravecchia","admin3":"078147","localeAltName":null},{"geonameid":6540036,"name":"Bianchi","admin3":"078016"},{"geonameid":6540037,"name":"Fuscaldo","admin3":"078058","localeAltName":null},{"geonameid":6540038,"name":"Rose","admin3":"078106","localeAltName":null},{"geonameid":6540039,"name":"Trebisacce","admin3":"078150","localeAltName":null},{"geonameid":6540781,"name":"Acri","admin3":"078003","localeAltName":null},{"geonameid":6540782,"name":"Belmonte Calabro","admin3":"078013","localeAltName":null},{"geonameid":6540783,"name":"Bisignano","admin3":"078017","localeAltName":null},{"geonameid":6540784,"name":"Canna","admin3":"078024","localeAltName":null},{"geonameid":6540785,"name":"Castrovillari","admin3":"078033","localeAltName":null},{"geonameid":6540786,"name":"Cerisano","admin3":"078037","localeAltName":null},{"geonameid":6540787,"name":"Cleto","admin3":"078042"},{"geonameid":6540788,"name":"Mongrassano","admin3":"078080","localeAltName":null},{"geonameid":6540789,"name":"Parenti","admin3":"078093","localeAltName":null},{"geonameid":6540790,"name":"Pietrafitta","admin3":"078098","localeAltName":null},{"geonameid":6540791,"name":"San Basile","admin3":"078111","localeAltName":null},{"geonameid":6540792,"name":"San Benedetto Ullano","admin3":"078112","localeAltName":null},{"geonameid":6540793,"name":"San Donato di Ninea","admin3":"078115","localeAltName":null},{"geonameid":6540794,"name":"San Giovanni in Fiore","admin3":"078119","localeAltName":null},{"geonameid":6540795,"name":"San Pietro in Amantea","admin3":"078126"},{"geonameid":6540796,"name":"Santo Stefano di Rogliano","admin3":"078134","localeAltName":null},{"geonameid":6540797,"name":"Saracena","admin3":"078136","localeAltName":null},{"geonameid":6540799,"name":"Torano Castello","admin3":"078148","localeAltName":null},{"geonameid":6540800,"name":"Villapiana","admin3":"078154","localeAltName":null},{"geonameid":6541280,"name":"Acquappesa","admin3":"078002"},{"geonameid":6541281,"name":"Aieta","admin3":"078005","localeAltName":null},{"geonameid":6541282,"name":"Belsito","admin3":"078014"},{"geonameid":6541283,"name":"Calopezzati","admin3":"078021","localeAltName":null},{"geonameid":6541284,"name":"Caloveto","admin3":"078022","localeAltName":null},{"geonameid":6541285,"name":"Cariati","admin3":"078025","localeAltName":null},{"geonameid":6541286,"name":"Castrolibero","admin3":"078031","localeAltName":null},{"geonameid":6541287,"name":"Castroregio","admin3":"078032"},{"geonameid":6541288,"name":"Cerchiara di Calabria","admin3":"078036","localeAltName":null},{"geonameid":6541289,"name":"Cervicati","admin3":"078038"},{"geonameid":6541290,"name":"Diamante","admin3":"078048","localeAltName":null},{"geonameid":6541291,"name":"Falconara Albanese","admin3":"078052","localeAltName":null},{"geonameid":6541292,"name":"Lappano","admin3":"078065"},{"geonameid":6541293,"name":"Longobardi","admin3":"078067"},{"geonameid":6541294,"name":"Montegiordano","admin3":"078082","localeAltName":null},{"geonameid":6541295,"name":"Panettieri","admin3":"078090"},{"geonameid":6541296,"name":"Paola","admin3":"078091","localeAltName":null},{"geonameid":6541297,"name":"Paterno Calabro","admin3":"078094","localeAltName":null},{"geonameid":6541298,"name":"San Martino di Finita","admin3":"078124","localeAltName":null},{"geonameid":6541299,"name":"San Pietro in Guarano","admin3":"078127","localeAltName":null},{"geonameid":6541300,"name":"Scalea","admin3":"078138","localeAltName":null},{"geonameid":6541302,"name":"Zumpano","admin3":"078155"},{"geonameid":6541467,"name":"Cosenza","admin3":"078045","localeAltName":null},{"geonameid":6541551,"name":"Laino Castello","admin3":"078064"},{"geonameid":6541745,"name":"Campana","admin3":"078023","localeAltName":null},{"geonameid":6541747,"name":"Castiglione Cosentino","admin3":"078030","localeAltName":null},{"geonameid":6541748,"name":"Lattarico","admin3":"078066","localeAltName":null},{"geonameid":6541749,"name":"Rogliano","admin3":"078105","localeAltName":null},{"geonameid":6541948,"name":"Cellara","admin3":"078035"},{"geonameid":6541949,"name":"Civita","admin3":"078041","localeAltName":null},{"geonameid":6541950,"name":"Mendicino","admin3":"078079","localeAltName":null},{"geonameid":6541951,"name":"Pedivigliano","admin3":"078096"},{"geonameid":6542233,"name":"Cassano all'Ionio","admin3":"078029","localeAltName":null},{"geonameid":6543296,"name":"Figline Vegliaturo","admin3":"078053","localeAltName":null},{"geonameid":6543297,"name":"Santa Maria del Cedro","admin3":"078132","localeAltName":null},{"geonameid":11670253,"name":"Casali del Manco","admin3":"078156","localeAltName":null},{"geonameid":12032199,"name":"Corigliano-Rossano","admin3":"078157","localeAltName":null}],"alternateNames":[{"alternatenameId":1183506,"geonameid":2524906,"isoLanguage":"it","alternateName":"Cosenza","isPreferredName":true,"isShortName":true,"isColloquial":false,"isHistoric":false},{"alternatenameId":1621273,"geonameid":2525468,"isoLanguage":"it","alternateName":"Calabria","isPreferredName":true,"isShortName":true,"isColloquial":false,"isHistoric":false}]},"__N_SSG":true}