{"pageProps":{"locale":"en","admin2":{"geonameid":5784440,"name":"Weber County","country":"US","admin1":"UT","admin2":"057","admin3":"","latitude":"41.2698800","longitude":"-111.9132700"},"admin1":{"geonameid":5549030,"name":"Utah","admin1":"UT","localeAltName":"Utah"},"locations":[{"geonameid":5774685,"name":"Farr West","admin3":""},{"geonameid":5775615,"name":"Harrisville","admin3":""},{"geonameid":5776092,"name":"Hooper","admin3":""},{"geonameid":5777253,"name":"Liberty","admin3":""},{"geonameid":5777956,"name":"Marriott-Slaterville","admin3":""},{"geonameid":5779036,"name":"North Ogden","admin3":""},{"geonameid":5779206,"name":"Ogden","admin3":""},{"geonameid":5779798,"name":"Plain City","admin3":""},{"geonameid":5779833,"name":"Pleasant View","admin3":""},{"geonameid":5780531,"name":"Riverdale","admin3":""},{"geonameid":5780802,"name":"Roy","admin3":""},{"geonameid":5781783,"name":"South Ogden","admin3":""},{"geonameid":5783914,"name":"Uintah","admin3":""},{"geonameid":5784384,"name":"Washington Terrace","admin3":""},{"geonameid":5784540,"name":"West Haven","admin3":""},{"geonameid":5785035,"name":"Wolf Creek","admin3":""}],"admin3":[{"geonameid":11788409,"name":"City of North Ogden","admin3":"11788409"},{"geonameid":11788462,"name":"City of Roy","admin3":"11788462"},{"geonameid":11788968,"name":"City of Ogden","admin3":"11788968"},{"geonameid":11788997,"name":"City of Plain City","admin3":"11788997"}],"alternateNames":[{"alternatenameId":2089567,"geonameid":5549030,"isoLanguage":"en","alternateName":"Utah","isPreferredName":true,"isShortName":true,"isColloquial":false,"isHistoric":false}]},"__N_SSG":true}