{"pageProps":{"locale":"en","admin2":{"geonameid":6544304,"name":"Gemeente Tytsjerksteradiel","country":"NL","admin1":"02","admin2":"0737","admin3":"","latitude":"53.1996600","longitude":"5.9580200"},"admin1":{"geonameid":2755812,"name":"Provincie Friesland","admin1":"02"},"locations":[{"geonameid":2748941,"name":"Aldtsjerk","admin3":""},{"geonameid":2759392,"name":"Bartlehiem","admin3":""},{"geonameid":2759103,"name":"Burgum","admin3":""},{"geonameid":2755541,"name":"De Gytsjerkerhoeke","admin3":""},{"geonameid":2756344,"name":"Earnewâld","admin3":""},{"geonameid":2749430,"name":"Eastermar","admin3":""},{"geonameid":2745741,"name":"Feanwâldsterwâl","admin3":""},{"geonameid":2755729,"name":"Garyp","admin3":""},{"geonameid":2755542,"name":"Gytsjerk","admin3":""},{"geonameid":2754864,"name":"Hurdegaryp","admin3":""},{"geonameid":2753314,"name":"Iniaheide","admin3":""},{"geonameid":2753660,"name":"It Heechsân","admin3":""},{"geonameid":2744260,"name":"It Wytfean","admin3":""},{"geonameid":2756321,"name":"Jistrum","admin3":""},{"geonameid":2752751,"name":"Lytse Geast","admin3":""},{"geonameid":2750706,"name":"Mûnein","admin3":""},{"geonameid":2750128,"name":"Nieuwstad","admin3":""},{"geonameid":2749992,"name":"Noardburgum","admin3":""},{"geonameid":6697932,"name":"Noardermar","admin3":""},{"geonameid":2749708,"name":"Oentsjerk","admin3":""},{"geonameid":2748380,"name":"Quatrebras","admin3":""},{"geonameid":2748099,"name":"Ryptsjerk","admin3":""},{"geonameid":2743925,"name":"Sânhuzen","admin3":""},{"geonameid":2747338,"name":"Sigerswâld","admin3":""},{"geonameid":2747441,"name":"Skûlenboarch","admin3":""},{"geonameid":2746565,"name":"Sumar","admin3":""},{"geonameid":6697893,"name":"Sumarreheide","admin3":""},{"geonameid":2746564,"name":"Suwâld","admin3":""},{"geonameid":6697928,"name":"Swartewesein","admin3":""},{"geonameid":2746311,"name":"Tytsjerk","admin3":""},{"geonameid":2745041,"name":"Wanswerd aan de Streek","admin3":""},{"geonameid":2744458,"name":"Wyns","admin3":""}],"admin3":[],"alternateNames":[{"alternatenameId":5463435,"geonameid":2755812,"isoLanguage":"de","alternateName":"Friesland","isPreferredName":true,"isShortName":true,"isColloquial":false,"isHistoric":false}]},"__N_SSG":true}