{"pageProps":{"locale":"en","admin2":{"geonameid":3333230,"name":"Falkirk","country":"GB","admin1":"SCT","admin2":"U9","admin3":"","latitude":"56.0000000","longitude":"-3.7500000"},"admin1":{"geonameid":2638360,"name":"Scotland","admin1":"SCT"},"locations":[{"geonameid":2657592,"name":"Airth"},{"geonameid":2656739,"name":"Avonbridge"},{"geonameid":10246483,"name":"Bainsford"},{"geonameid":11592109,"name":"Banknock"},{"geonameid":10376293,"name":"Bellsdyke"},{"geonameid":11694315,"name":"Blackness"},{"geonameid":2655444,"name":"Blackston"},{"geonameid":2655215,"name":"Boâ€™ness"},{"geonameid":2655211,"name":"Bonnybridge"},{"geonameid":10376291,"name":"Bowtrees"},{"geonameid":11592112,"name":"Brightons"},{"geonameid":11592124,"name":"California"},{"geonameid":8063585,"name":"Camelon"},{"geonameid":2653669,"name":"Carron"},{"geonameid":10246487,"name":"Carronshore"},{"geonameid":2651366,"name":"Denny"},{"geonameid":11592277,"name":"Dennyloanhead"},{"geonameid":2650718,"name":"Dunipace"},{"geonameid":2650699,"name":"Dunmore"},{"geonameid":2649723,"name":"Falkirk"},{"geonameid":2648238,"name":"Grahamston"},{"geonameid":2648215,"name":"Grangemouth"},{"geonameid":11592439,"name":"Greenhill"},{"geonameid":2647663,"name":"Haggs"},{"geonameid":11592165,"name":"Hallglen"},{"geonameid":11592115,"name":"Head of Muir"},{"geonameid":11592282,"name":"High Bonnybridge"},{"geonameid":2644867,"name":"Larbert"},{"geonameid":11592283,"name":"Laurieston"},{"geonameid":10376290,"name":"Letham"},{"geonameid":11592285,"name":"Maddiston"},{"geonameid":2640155,"name":"Polmont"},{"geonameid":11592290,"name":"Redding"},{"geonameid":11592291,"name":"Reddingmuirhead"},{"geonameid":11592292,"name":"Rumford"},{"geonameid":11592451,"name":"Shieldhill"},{"geonameid":8063586,"name":"Skinflats"},{"geonameid":2637670,"name":"Slamannan"},{"geonameid":10376292,"name":"South Bellsdyke"},{"geonameid":11592294,"name":"Stenhousemuir"},{"geonameid":11592293,"name":"Wallacestone"},{"geonameid":11592298,"name":"Westquarter"},{"geonameid":11592276,"name":"Whitecross"}],"admin3":[],"alternateNames":[]},"__N_SSG":true}