{"pageProps":{"locale":"en","admin2":{"geonameid":5303754,"name":"Maricopa County","country":"US","admin1":"AZ","admin2":"013","admin3":"","latitude":"33.3488300","longitude":"-112.4912300","localeAltName":null},"admin1":{"geonameid":5551752,"name":"Arizona","admin1":"AZ","localeAltName":"Arizona"},"locations":[{"geonameid":5550954,"name":"Aguila","admin3":"","localeAltName":null},{"geonameid":5552450,"name":"Ahwatukee Foothills","admin3":"","localeAltName":null},{"geonameid":5551123,"name":"Alhambra","admin3":"","localeAltName":null},{"geonameid":5551498,"name":"Anthem","admin3":"","localeAltName":null},{"geonameid":5552301,"name":"Avondale","admin3":"","localeAltName":null},{"geonameid":5287262,"name":"Buckeye","admin3":"","localeAltName":null},{"geonameid":5288523,"name":"Carefree","admin3":"","localeAltName":null},{"geonameid":5288858,"name":"Cave Creek","admin3":"","localeAltName":null},{"geonameid":11979238,"name":"Central City","admin3":"","localeAltName":null},{"geonameid":5289282,"name":"Chandler","admin3":"","localeAltName":null},{"geonameid":5289961,"name":"Citrus Park","admin3":"","localeAltName":null},{"geonameid":5292387,"name":"Deer Valley","admin3":"","localeAltName":null},{"geonameid":5293996,"name":"El Mirage","admin3":"","localeAltName":null},{"geonameid":11979227,"name":"Encanto","admin3":"","localeAltName":null},{"geonameid":5295177,"name":"Fountain Hills","admin3":"","localeAltName":null},{"geonameid":5295860,"name":"Gila Bend","admin3":"","localeAltName":null},{"geonameid":5295882,"name":"Gila Crossing","admin3":"","localeAltName":null},{"geonameid":5295903,"name":"Gilbert","admin3":"","localeAltName":null},{"geonameid":5295985,"name":"Glendale","admin3":"","localeAltName":null},{"geonameid":5296266,"name":"Goodyear","admin3":"","localeAltName":null},{"geonameid":5296962,"name":"Guadalupe","admin3":"","localeAltName":null},{"geonameid":5301242,"name":"Komatke","admin3":"","localeAltName":null},{"geonameid":5301641,"name":"Laveen","admin3":"","localeAltName":null},{"geonameid":5302053,"name":"Litchfield Park","admin3":"","localeAltName":null},{"geonameid":5303929,"name":"Maryvale","admin3":"","localeAltName":null},{"geonameid":5304391,"name":"Mesa","admin3":"","localeAltName":null},{"geonameid":5306523,"name":"New River","admin3":"","localeAltName":null},{"geonameid":5308049,"name":"Paradise Valley","admin3":"","localeAltName":null},{"geonameid":5308480,"name":"Peoria","admin3":"","localeAltName":null},{"geonameid":5308655,"name":"Phoenix","admin3":"","localeAltName":null},{"geonameid":5310193,"name":"Queen Creek","admin3":"","localeAltName":null},{"geonameid":5311414,"name":"Rio Verde","admin3":"","localeAltName":null},{"geonameid":5312845,"name":"San Carlos","admin3":"","localeAltName":null},{"geonameid":5313457,"name":"Scottsdale","admin3":"","localeAltName":null},{"geonameid":5316201,"name":"Sun City","admin3":"","localeAltName":null},{"geonameid":5316205,"name":"Sun City West","admin3":"","localeAltName":null},{"geonameid":5316209,"name":"Sun Lakes","admin3":"","localeAltName":null},{"geonameid":5316428,"name":"Surprise","admin3":"","localeAltName":null},{"geonameid":5317058,"name":"Tempe","admin3":"","localeAltName":null},{"geonameid":5317071,"name":"Tempe Junction","admin3":"","localeAltName":null},{"geonameid":5317663,"name":"Tolleson","admin3":"","localeAltName":null},{"geonameid":5320871,"name":"Wickenburg","admin3":"","localeAltName":null},{"geonameid":5321549,"name":"Wittmann","admin3":"","localeAltName":null},{"geonameid":5322027,"name":"Youngtown","admin3":"","localeAltName":null}],"admin3":[{"geonameid":11788571,"name":"City of Glendale","admin3":"11788571"},{"geonameid":11788692,"name":"City of Phoenix","admin3":"11788692"},{"geonameid":11788744,"name":"City of Avondale","admin3":"11788744"}],"alternateNames":[{"alternatenameId":1979309,"geonameid":5551752,"isoLanguage":"en","alternateName":"Arizona","isPreferredName":true,"isShortName":true,"isColloquial":false,"isHistoric":false}]},"__N_SSG":true}