{"pageProps":{"locale":"en","admin2":{"geonameid":2747857,"name":"Gemeente Rucphen","country":"NL","admin1":"06","admin2":"0840","admin3":"","latitude":"51.5235700","longitude":"4.5658600"},"admin1":{"geonameid":2749990,"name":"Provincie Noord-Brabant","admin1":"06"},"locations":[{"geonameid":6544845,"name":"De Berk","admin3":""},{"geonameid":2757686,"name":"De Dood","admin3":""},{"geonameid":6544850,"name":"De Heiberg","admin3":""},{"geonameid":2757126,"name":"De Posthoorn","admin3":""},{"geonameid":2757065,"name":"De Schietbaan","admin3":""},{"geonameid":2754630,"name":"Heesterbosch","admin3":""},{"geonameid":2754540,"name":"Heikant","admin3":""},{"geonameid":2754267,"name":"Het Hoekske","admin3":""},{"geonameid":2751929,"name":"Langendijk","admin3":""},{"geonameid":2751916,"name":"Langeschouw","admin3":""},{"geonameid":2750550,"name":"Munnikenheide","admin3":""},{"geonameid":2750481,"name":"Nederheide","admin3":""},{"geonameid":2750034,"name":"Nispense Achterhoek","admin3":""},{"geonameid":2749884,"name":"Noordhoek","admin3":""},{"geonameid":2747858,"name":"Rucphen","admin3":""},{"geonameid":2747585,"name":"Schijf","admin3":""},{"geonameid":2747210,"name":"Sint Willebrord","admin3":""},{"geonameid":2746886,"name":"Sprundel","admin3":""},{"geonameid":2746776,"name":"Steenpaal","admin3":""},{"geonameid":2745255,"name":"Vorenseinde","admin3":""},{"geonameid":2743992,"name":"Zegge","admin3":""}],"admin3":[],"alternateNames":[{"alternatenameId":11907788,"geonameid":2749990,"isoLanguage":"de","alternateName":"Nordbrabant","isPreferredName":true,"isShortName":true,"isColloquial":false,"isHistoric":false}]},"__N_SSG":true}