{"pageProps":{"locale":"en","admin2":{"geonameid":6251995,"name":"Gemeente Moerdijk","country":"NL","admin1":"06","admin2":"1709","admin3":"","latitude":"51.6393300","longitude":"4.5637900"},"admin1":{"geonameid":2749990,"name":"Provincie Noord-Brabant","admin1":"06"},"locations":[{"geonameid":2760038,"name":"Achterdijk","admin3":""},{"geonameid":2759411,"name":"Barlaque","admin3":""},{"geonameid":2758480,"name":"Bovensluis","admin3":""},{"geonameid":2757678,"name":"De Druif","admin3":""},{"geonameid":2756608,"name":"Drie Hoefijzers","admin3":""},{"geonameid":2756602,"name":"Driehoek","admin3":""},{"geonameid":2755911,"name":"Fijnaart","admin3":""},{"geonameid":2754732,"name":"Hazeldonk","admin3":""},{"geonameid":2754553,"name":"Heijningen","admin3":""},{"geonameid":2754435,"name":"Helwijk","admin3":""},{"geonameid":2754013,"name":"Hoekske","admin3":""},{"geonameid":2753150,"name":"Kade","admin3":""},{"geonameid":2752600,"name":"Klundert","admin3":""},{"geonameid":2752294,"name":"Krauwelgors","admin3":""},{"geonameid":2752291,"name":"Kreek","admin3":""},{"geonameid":2752218,"name":"Krooswijk","admin3":""},{"geonameid":2752134,"name":"Kwartier","admin3":""},{"geonameid":2751902,"name":"Langeweg","admin3":""},{"geonameid":2751532,"name":"Lochtenburg","admin3":""},{"geonameid":2750769,"name":"Moerdijk","admin3":""},{"geonameid":2750292,"name":"Nieuwemolen","admin3":""},{"geonameid":2749883,"name":"Noordhoek","admin3":""},{"geonameid":2749836,"name":"Noordschans","admin3":""},{"geonameid":2749259,"name":"Oranjeoord","admin3":""},{"geonameid":2748998,"name":"Oude Stoof","admin3":""},{"geonameid":2749058,"name":"Oudemolen","admin3":""},{"geonameid":2748660,"name":"Pelikaan","admin3":""},{"geonameid":2747952,"name":"Roodevaart","admin3":""},{"geonameid":2746863,"name":"Stadse Dijk","admin3":""},{"geonameid":2746845,"name":"Standdaarbuiten","admin3":""},{"geonameid":2746584,"name":"Strooiendorp","admin3":""},{"geonameid":2746203,"name":"Tonnekreek","admin3":""},{"geonameid":2744388,"name":"Willemstad","admin3":""},{"geonameid":2743947,"name":"Zevenbergen","admin3":""},{"geonameid":2743944,"name":"Zevenbergschen Hoek","admin3":""},{"geonameid":2743931,"name":"Zevenhuizen","admin3":""},{"geonameid":2743932,"name":"Zevenhuizen","admin3":""},{"geonameid":2743480,"name":"Zwingelspaan","admin3":""}],"admin3":[],"alternateNames":[{"alternatenameId":11907788,"geonameid":2749990,"isoLanguage":"de","alternateName":"Nordbrabant","isPreferredName":true,"isShortName":true,"isColloquial":false,"isHistoric":false}]},"__N_SSG":true}