{"pageProps":{"locale":"it","admin2":{"geonameid":3179865,"name":"Provincia di Caserta","country":"IT","admin1":"04","admin2":"CE","admin3":"","latitude":"41.2333300","longitude":"14.1666700","localeAltName":"Caserta"},"admin1":{"geonameid":3181042,"name":"Campania","admin1":"04","localeAltName":"Campania"},"locations":[{"geonameid":3183385,"name":"Ailano","admin3":"061001","localeAltName":null},{"geonameid":3183273,"name":"Alife","admin3":"061002","localeAltName":null},{"geonameid":3183140,"name":"Alvignano","admin3":"061003","localeAltName":null},{"geonameid":8948835,"name":"Annunziata","admin3":"061026","localeAltName":null},{"geonameid":3182848,"name":"Arienzo","admin3":"061004","localeAltName":null},{"geonameid":3182640,"name":"Aversa","admin3":"061005","localeAltName":null},{"geonameid":3166379,"name":"Avezzano-Sorbello","admin3":"061088","localeAltName":null},{"geonameid":3182487,"name":"Baia","admin3":"061006","localeAltName":null},{"geonameid":3182213,"name":"Bellona","admin3":"061007","localeAltName":null},{"geonameid":8950177,"name":"Bivio Mortola","admin3":"061069","localeAltName":null},{"geonameid":8949397,"name":"Brezza","admin3":"061042","localeAltName":null},{"geonameid":3181269,"name":"Caianello","admin3":"061008","localeAltName":null},{"geonameid":3181267,"name":"Caiazzo","admin3":"061009","localeAltName":null},{"geonameid":9036386,"name":"Calvi Risorta","admin3":"061010","localeAltName":null},{"geonameid":3181086,"name":"Camigliano","admin3":"061011","localeAltName":null},{"geonameid":3180878,"name":"Cancello-Arnone","admin3":"061012","localeAltName":null},{"geonameid":3180682,"name":"Capodrise","admin3":"061013","localeAltName":null},{"geonameid":3180624,"name":"Capriati A Volturno","admin3":"061014","localeAltName":null},{"geonameid":3180601,"name":"Capua","admin3":"061015","localeAltName":null},{"geonameid":3180591,"name":"Carano","admin3":"061088","localeAltName":null},{"geonameid":6535626,"name":"Carinaro","admin3":"061016","localeAltName":null},{"geonameid":3180507,"name":"Carinola","admin3":"061017","localeAltName":null},{"geonameid":6534262,"name":"Casagiove","admin3":"061018","localeAltName":null},{"geonameid":3180240,"name":"Casal di Principe","admin3":"061019","localeAltName":null},{"geonameid":8949202,"name":"Casale","admin3":"061017","localeAltName":null},{"geonameid":3180161,"name":"Casaluce","admin3":"061020","localeAltName":null},{"geonameid":3180109,"name":"Casanova","admin3":"061017","localeAltName":null},{"geonameid":6535632,"name":"Casapesenna","admin3":"061103","localeAltName":null},{"geonameid":3180072,"name":"Casapulla","admin3":"061021","localeAltName":null},{"geonameid":3179982,"name":"Cascano","admin3":"061088","localeAltName":null},{"geonameid":3179866,"name":"Caserta","admin3":"061022","localeAltName":null},{"geonameid":3179851,"name":"Casi","admin3":"061091","localeAltName":null},{"geonameid":8949091,"name":"Casola","admin3":"061022","localeAltName":null},{"geonameid":3179732,"name":"Castel Campagnano","admin3":"061023","localeAltName":null},{"geonameid":6534729,"name":"Castel di Sasso","admin3":"061024","localeAltName":null},{"geonameid":6534730,"name":"Castel Morrone","admin3":"061026","localeAltName":null},{"geonameid":3179443,"name":"Castel Volturno","admin3":"061027","localeAltName":null},{"geonameid":6535627,"name":"Castello del Matese","admin3":"061025","localeAltName":null},{"geonameid":3179188,"name":"Cellole","admin3":"061102","localeAltName":null},{"geonameid":3178988,"name":"Cervino","admin3":"061028","localeAltName":null},{"geonameid":3178984,"name":"Cesa","admin3":"061029","localeAltName":null},{"geonameid":6535628,"name":"Curti","admin3":"061032","localeAltName":null},{"geonameid":3177480,"name":"Dragoni","admin3":"061033","localeAltName":null},{"geonameid":6535631,"name":"Falciano del Massico","admin3":"061101","localeAltName":null},{"geonameid":3176785,"name":"Fontegreca","admin3":"061034","localeAltName":null},{"geonameid":3176735,"name":"Formicola","admin3":"061035","localeAltName":null},{"geonameid":3176596,"name":"Francolise","admin3":"061036","localeAltName":null},{"geonameid":6534263,"name":"Frignano","admin3":"061037","localeAltName":null},{"geonameid":3176363,"name":"Gallo Matese","admin3":"061038","localeAltName":null},{"geonameid":3176143,"name":"Giano Vetusto","admin3":"061040","localeAltName":null},{"geonameid":3176089,"name":"Gioia Sannitica","admin3":"061041","localeAltName":null},{"geonameid":3175856,"name":"Grazzanise","admin3":"061042","localeAltName":null},{"geonameid":3175825,"name":"Gricignano di Aversa","admin3":"061043","localeAltName":null},{"geonameid":8199398,"name":"Grottola","admin3":"061050","localeAltName":null},{"geonameid":3175059,"name":"Latina","admin3":"061006","localeAltName":null},{"geonameid":3175029,"name":"Lauro","admin3":"061088","localeAltName":null},{"geonameid":6535741,"name":"Letino","admin3":"061044","localeAltName":null},{"geonameid":6534277,"name":"Lusciano","admin3":"061046","localeAltName":null},{"geonameid":3174378,"name":"Macerata Campania","admin3":"061047","localeAltName":null},{"geonameid":3174358,"name":"Maddaloni","admin3":"061048","localeAltName":null},{"geonameid":3173995,"name":"Marcianise","admin3":"061049","localeAltName":null},{"geonameid":8948872,"name":"Marzanello","admin3":"061095","localeAltName":null},{"geonameid":3173827,"name":"Marzano Appio","admin3":"061050","localeAltName":null},{"geonameid":3173439,"name":"Mignano Monte Lungo","admin3":"061051","localeAltName":null},{"geonameid":3173160,"name":"Mondragone","admin3":"061052","localeAltName":null},{"geonameid":8950350,"name":"Montano","admin3":"061008","localeAltName":null},{"geonameid":8948947,"name":"Montedecoro","admin3":"061048","localeAltName":null},{"geonameid":3172246,"name":"Nocelleto","admin3":"061017","localeAltName":null},{"geonameid":6534264,"name":"Orta di Atella","admin3":"061053","localeAltName":null},{"geonameid":6534278,"name":"Parete","admin3":"061054","localeAltName":null},{"geonameid":6535742,"name":"Pastorano","admin3":"061055","localeAltName":null},{"geonameid":8950140,"name":"Pescopagano","admin3":"061052","localeAltName":null},{"geonameid":6535629,"name":"Piana di Monte Verna","admin3":"061056","localeAltName":null},{"geonameid":3170845,"name":"Piedimonte","admin3":"061088","localeAltName":null},{"geonameid":6534279,"name":"Piedimonte Matese","admin3":"061057","localeAltName":null},{"geonameid":3170792,"name":"Pietramelara","admin3":"061058","localeAltName":null},{"geonameid":3170774,"name":"Pietravairano","admin3":"061059","localeAltName":null},{"geonameid":3170718,"name":"Pignataro Maggiore","admin3":"061060","localeAltName":null},{"geonameid":3170115,"name":"Portico di Caserta","admin3":"061062","localeAltName":null},{"geonameid":3170005,"name":"Pozzillo","admin3":"061040","localeAltName":null},{"geonameid":3169930,"name":"Prata Sannita Centro","admin3":"061063","localeAltName":null},{"geonameid":3169929,"name":"Pratella","admin3":"061064","localeAltName":null},{"geonameid":3169846,"name":"Presenzano","admin3":"061065","localeAltName":null},{"geonameid":3169554,"name":"Raviscanina","admin3":"061066","localeAltName":null},{"geonameid":3169541,"name":"Recale","admin3":"061067","localeAltName":null},{"geonameid":3169440,"name":"Riardo","admin3":"061068","localeAltName":null},{"geonameid":3169165,"name":"Roccamonfina","admin3":"061070","localeAltName":null},{"geonameid":3168505,"name":"San Carlo","admin3":"061088","localeAltName":null},{"geonameid":3168490,"name":"San Castrese","admin3":"061088","localeAltName":null},{"geonameid":6534251,"name":"San Cipriano d'Aversa","admin3":"061074","localeAltName":null},{"geonameid":3168473,"name":"San Clemente","admin3":"061039","localeAltName":null},{"geonameid":6534252,"name":"San Felice A Cancello","admin3":"061075","localeAltName":null},{"geonameid":3168317,"name":"San Giorgio","admin3":"061033","localeAltName":null},{"geonameid":3168246,"name":"San Giovanni e Paolo","admin3":"061009","localeAltName":null},{"geonameid":3168196,"name":"San Gregorio Matese","admin3":"061076","localeAltName":null},{"geonameid":6534265,"name":"San Marcellino","admin3":"061077","localeAltName":null},{"geonameid":3168091,"name":"San Marco","admin3":"061091","localeAltName":null},{"geonameid":3168076,"name":"San Marco Evangelista","admin3":"061104","localeAltName":null},{"geonameid":6534253,"name":"San Nicola la Strada","admin3":"061078","localeAltName":null},{"geonameid":3167823,"name":"San Pietro Infine","admin3":"061079","localeAltName":null},{"geonameid":3167796,"name":"San Potito Sannitico","admin3":"061080","localeAltName":null},{"geonameid":3167793,"name":"San Prisco","admin3":"061081","localeAltName":null},{"geonameid":3167510,"name":"San Tammaro","admin3":"061085","localeAltName":null},{"geonameid":8949758,"name":"Sant'Agata","admin3":"061088","localeAltName":null},{"geonameid":3178737,"name":"Sant'Andrea-Pizzone-Ciamprisco","admin3":"061036","localeAltName":null},{"geonameid":3167451,"name":"Sant'Angelo d'Alife","admin3":"061086","localeAltName":null},{"geonameid":3167446,"name":"Sant'Angelo in Formis","admin3":"061015","localeAltName":null},{"geonameid":3167368,"name":"Sant'Arpino","admin3":"061087","localeAltName":null},{"geonameid":8199396,"name":"Santa Lucia","admin3":"061008","localeAltName":null},{"geonameid":3167562,"name":"Santa Maria A Vico","admin3":"061082","localeAltName":null},{"geonameid":3167561,"name":"Santa Maria Capua Vetere","admin3":"061083","localeAltName":null},{"geonameid":3167531,"name":"Santa Maria la Fossa","admin3":"061084","localeAltName":null},{"geonameid":8949804,"name":"Scalo Ferroviario","admin3":"061091","localeAltName":null},{"geonameid":3166614,"name":"Sessa Aurunca","admin3":"061088","localeAltName":null},{"geonameid":3166301,"name":"Sparanise","admin3":"061089","localeAltName":null},{"geonameid":6535292,"name":"Succivo","admin3":"061090","localeAltName":null},{"geonameid":3165856,"name":"Teano","admin3":"061091","localeAltName":null},{"geonameid":6534266,"name":"Teverola","admin3":"061092","localeAltName":null},{"geonameid":3165240,"name":"Trentola-Ducenta","admin3":"061094","localeAltName":null},{"geonameid":3164965,"name":"Vairano-Patenora","admin3":"061095","localeAltName":null},{"geonameid":3164876,"name":"Valle Agricola","admin3":"061096","localeAltName":null},{"geonameid":3164853,"name":"Valle di Maddaloni","admin3":"061097","localeAltName":null},{"geonameid":6535630,"name":"Villa di Briano","admin3":"061098","localeAltName":null},{"geonameid":3164219,"name":"Villa Literno","admin3":"061099","localeAltName":null},{"geonameid":3164024,"name":"Vitulazio","admin3":"061100","localeAltName":null},{"geonameid":6535740,"name":"Zuni","admin3":"061010","localeAltName":null}],"admin3":[{"geonameid":3180876,"name":"Cancello ed Arnone","admin3":"061012","localeAltName":null},{"geonameid":6535881,"name":"Trentola Ducenta","admin3":"061094","localeAltName":null},{"geonameid":6536340,"name":"Liberi","admin3":"061045"},{"geonameid":6536341,"name":"Rocca d'Evandro","admin3":"061069","localeAltName":null},{"geonameid":6536372,"name":"Giano Vetusto","admin3":"061040","localeAltName":null},{"geonameid":6536373,"name":"Prata Sannita","admin3":"061063","localeAltName":null},{"geonameid":6536379,"name":"Vairano Patenora","admin3":"061095","localeAltName":null},{"geonameid":6537003,"name":"Ailano","admin3":"061001","localeAltName":null},{"geonameid":6537013,"name":"Recale","admin3":"061067","localeAltName":null},{"geonameid":6537014,"name":"Roccamonfina","admin3":"061070","localeAltName":null},{"geonameid":6537015,"name":"Roccaromana","admin3":"061071"},{"geonameid":6537309,"name":"San Potito Sannitico","admin3":"061080","localeAltName":null},{"geonameid":6537310,"name":"Sparanise","admin3":"061089","localeAltName":null},{"geonameid":6537311,"name":"Teano","admin3":"061091","localeAltName":null},{"geonameid":6537312,"name":"Valle di Maddaloni","admin3":"061097","localeAltName":null},{"geonameid":6537313,"name":"San Marco Evangelista","admin3":"061104","localeAltName":null},{"geonameid":6538719,"name":"Alvignano","admin3":"061003","localeAltName":null},{"geonameid":6538720,"name":"Casaluce","admin3":"061020","localeAltName":null},{"geonameid":6538721,"name":"Conca della Campania","admin3":"061031"},{"geonameid":6538722,"name":"Formicola","admin3":"061035","localeAltName":null},{"geonameid":6538723,"name":"Pietramelara","admin3":"061058","localeAltName":null},{"geonameid":6538724,"name":"Pietravairano","admin3":"061059","localeAltName":null},{"geonameid":6538725,"name":"Portico di Caserta","admin3":"061062","localeAltName":null},{"geonameid":6538726,"name":"Riardo","admin3":"061068","localeAltName":null},{"geonameid":6538727,"name":"San Pietro Infine","admin3":"061079","localeAltName":null},{"geonameid":6538728,"name":"Santa Maria Capua Vetere","admin3":"061083","localeAltName":null},{"geonameid":6538729,"name":"San Tammaro","admin3":"061085","localeAltName":null},{"geonameid":6538730,"name":"Sant'Arpino","admin3":"061087","localeAltName":null},{"geonameid":6538731,"name":"Sessa Aurunca","admin3":"061088","localeAltName":null},{"geonameid":6538732,"name":"Vitulazio","admin3":"061100","localeAltName":null},{"geonameid":6538733,"name":"Cellole","admin3":"061102","localeAltName":null},{"geonameid":6539450,"name":"Castel Campagnano","admin3":"061023","localeAltName":null},{"geonameid":6539451,"name":"Cervino","admin3":"061028","localeAltName":null},{"geonameid":6539452,"name":"Ciorlano","admin3":"061030"},{"geonameid":6539453,"name":"Fontegreca","admin3":"061034","localeAltName":null},{"geonameid":6539454,"name":"Francolise","admin3":"061036","localeAltName":null},{"geonameid":6539455,"name":"Grazzanise","admin3":"061042","localeAltName":null},{"geonameid":6539456,"name":"Macerata Campania","admin3":"061047","localeAltName":null},{"geonameid":6539457,"name":"Mondragone","admin3":"061052","localeAltName":null},{"geonameid":6539458,"name":"Pignataro Maggiore","admin3":"061060","localeAltName":null},{"geonameid":6539459,"name":"Pratella","admin3":"061064","localeAltName":null},{"geonameid":6539769,"name":"Alife","admin3":"061002","localeAltName":null},{"geonameid":6539985,"name":"Aversa","admin3":"061005","localeAltName":null},{"geonameid":6539986,"name":"Camigliano","admin3":"061011","localeAltName":null},{"geonameid":6539987,"name":"Maddaloni","admin3":"061048","localeAltName":null},{"geonameid":6540089,"name":"Galluccio","admin3":"061039","localeAltName":null},{"geonameid":6540090,"name":"Cesa","admin3":"061029","localeAltName":null},{"geonameid":6540282,"name":"Dragoni","admin3":"061033","localeAltName":null},{"geonameid":6540543,"name":"Ruviano","admin3":"061073"},{"geonameid":6540672,"name":"San Prisco","admin3":"061081","localeAltName":null},{"geonameid":6540673,"name":"Sant'Angelo d'Alife","admin3":"061086","localeAltName":null},{"geonameid":6541148,"name":"Arienzo","admin3":"061004","localeAltName":null},{"geonameid":6541149,"name":"Capriati a Volturno","admin3":"061014","localeAltName":null},{"geonameid":6541150,"name":"Santa Maria la Fossa","admin3":"061084","localeAltName":null},{"geonameid":6541151,"name":"Valle Agricola","admin3":"061096","localeAltName":null},{"geonameid":6541406,"name":"Carinola","admin3":"061017","localeAltName":null},{"geonameid":6541407,"name":"Casal di Principe","admin3":"061019","localeAltName":null},{"geonameid":6541408,"name":"Casapulla","admin3":"061021","localeAltName":null},{"geonameid":6541409,"name":"Marcianise","admin3":"061049","localeAltName":null},{"geonameid":6541410,"name":"Pontelatone","admin3":"061061"},{"geonameid":6541411,"name":"Presenzano","admin3":"061065","localeAltName":null},{"geonameid":6541622,"name":"Raviscanina","admin3":"061066","localeAltName":null},{"geonameid":6541677,"name":"Santa Maria a Vico","admin3":"061082","localeAltName":null},{"geonameid":6541869,"name":"Caserta","admin3":"061022","localeAltName":null},{"geonameid":6541897,"name":"Bellona","admin3":"061007","localeAltName":null},{"geonameid":6541898,"name":"Castel Volturno","admin3":"061027","localeAltName":null},{"geonameid":6541899,"name":"Gioia Sannitica","admin3":"061041","localeAltName":null},{"geonameid":6541900,"name":"Villa Literno","admin3":"061099","localeAltName":null},{"geonameid":6541985,"name":"Capua","admin3":"061015","localeAltName":null},{"geonameid":6542032,"name":"Caianello","admin3":"061008","localeAltName":null},{"geonameid":6542095,"name":"Capodrise","admin3":"061013","localeAltName":null},{"geonameid":6542109,"name":"Mignano Monte Lungo","admin3":"061051","localeAltName":null},{"geonameid":6542183,"name":"Baia e Latina","admin3":"061006","localeAltName":null},{"geonameid":6542184,"name":"Gallo Matese","admin3":"061038","localeAltName":null},{"geonameid":6542185,"name":"Marzano Appio","admin3":"061050","localeAltName":null},{"geonameid":6542186,"name":"Rocchetta e Croce","admin3":"061072"},{"geonameid":6542187,"name":"Tora e Piccilli","admin3":"061093"},{"geonameid":6542261,"name":"Gricignano di Aversa","admin3":"061043","localeAltName":null},{"geonameid":6542262,"name":"San Gregorio Matese","admin3":"061076","localeAltName":null},{"geonameid":6542278,"name":"Caiazzo","admin3":"061009","localeAltName":null},{"geonameid":6542325,"name":"San Cipriano d'Aversa","admin3":"061074","localeAltName":null},{"geonameid":6542326,"name":"San Felice a Cancello","admin3":"061075","localeAltName":null},{"geonameid":6542327,"name":"San Nicola la Strada","admin3":"061078","localeAltName":null},{"geonameid":6542334,"name":"Casagiove","admin3":"061018","localeAltName":null},{"geonameid":6542335,"name":"Frignano","admin3":"061037","localeAltName":null},{"geonameid":6542336,"name":"Orta di Atella","admin3":"061053","localeAltName":null},{"geonameid":6542337,"name":"San Marcellino","admin3":"061077","localeAltName":null},{"geonameid":6542338,"name":"Teverola","admin3":"061092","localeAltName":null},{"geonameid":6542348,"name":"Lusciano","admin3":"061046","localeAltName":null},{"geonameid":6542349,"name":"Parete","admin3":"061054","localeAltName":null},{"geonameid":6542350,"name":"Piedimonte Matese","admin3":"061057","localeAltName":null},{"geonameid":6542763,"name":"Castel di Sasso","admin3":"061024","localeAltName":null},{"geonameid":6542764,"name":"Castel Morrone","admin3":"061026","localeAltName":null},{"geonameid":6543277,"name":"Succivo","admin3":"061090","localeAltName":null},{"geonameid":6543606,"name":"Carinaro","admin3":"061016","localeAltName":null},{"geonameid":6543607,"name":"Castello del Matese","admin3":"061025","localeAltName":null},{"geonameid":6543608,"name":"Curti","admin3":"061032","localeAltName":null},{"geonameid":6543609,"name":"Piana di Monte Verna","admin3":"061056","localeAltName":null},{"geonameid":6543610,"name":"Villa di Briano","admin3":"061098","localeAltName":null},{"geonameid":6543611,"name":"Falciano del Massico","admin3":"061101","localeAltName":null},{"geonameid":6543612,"name":"Casapesenna","admin3":"061103","localeAltName":null},{"geonameid":6543714,"name":"Calvi Risorta","admin3":"061010","localeAltName":null},{"geonameid":6543715,"name":"Letino","admin3":"061044","localeAltName":null},{"geonameid":6543716,"name":"Pastorano","admin3":"061055","localeAltName":null}],"alternateNames":[{"alternatenameId":1351935,"geonameid":3179865,"isoLanguage":"it","alternateName":"Caserta","isPreferredName":true,"isShortName":true,"isColloquial":false,"isHistoric":false},{"alternatenameId":1352304,"geonameid":3181042,"isoLanguage":"it","alternateName":"Campania","isPreferredName":true,"isShortName":true,"isColloquial":false,"isHistoric":false}]},"__N_SSG":true}