{"pageProps":{"locale":"en","admin2":{"geonameid":5868437,"name":"Matanuska-Susitna Borough","country":"US","admin1":"AK","admin2":"170","admin3":"","latitude":"62.5005600","longitude":"-150.0055600"},"admin1":{"geonameid":5879092,"name":"Alaska","admin1":"AK","localeAltName":"Alaska"},"locations":[{"geonameid":5880661,"name":"Big Lake","admin3":""},{"geonameid":5858289,"name":"Butte","admin3":""},{"geonameid":7262859,"name":"Farm Loop","admin3":""},{"geonameid":7262861,"name":"Fishhook","admin3":""},{"geonameid":5862727,"name":"Gateway","admin3":""},{"geonameid":5864312,"name":"Houston","admin3":""},{"geonameid":7262897,"name":"Knik-Fairview","admin3":""},{"geonameid":7262905,"name":"Lakes","admin3":""},{"geonameid":5867241,"name":"Lazy Mountain","admin3":""},{"geonameid":5868651,"name":"Meadow Lakes","admin3":""},{"geonameid":5871146,"name":"Palmer","admin3":""},{"geonameid":7263043,"name":"Susitna North","admin3":""},{"geonameid":7263016,"name":"Sutton-Alpine","admin3":""},{"geonameid":5875796,"name":"Tanaina","admin3":""},{"geonameid":5877641,"name":"Wasilla","admin3":""},{"geonameid":5878102,"name":"Willow","admin3":""}],"admin3":[],"alternateNames":[{"alternatenameId":2089569,"geonameid":5879092,"isoLanguage":"en","alternateName":"Alaska","isPreferredName":true,"isShortName":true,"isColloquial":false,"isHistoric":false}]},"__N_SSG":true}