{"pageProps":{"locale":"ro","admin2":{"geonameid":668627,"name":"Comuna Roşiile","country":"RO","admin1":"39","admin2":"172698","admin3":"","latitude":"44.8853700","longitude":"23.9243800"},"admin1":{"geonameid":662892,"name":"Vâlcea","admin1":"39"},"locations":[{"geonameid":685718,"name":"Balaciu","admin3":""},{"geonameid":684473,"name":"Bodea","admin3":""},{"geonameid":682197,"name":"Cherăști","admin3":""},{"geonameid":679577,"name":"Dealu Teiului","admin3":""},{"geonameid":675964,"name":"Hotăroaia","admin3":""},{"geonameid":674259,"name":"Lupuiești","admin3":""},{"geonameid":673775,"name":"Marineşti","admin3":""},{"geonameid":671302,"name":"Păsărei","admin3":""},{"geonameid":671091,"name":"Pertești","admin3":""},{"geonameid":670511,"name":"Plesești","admin3":""},{"geonameid":669118,"name":"Rățălești","admin3":""},{"geonameid":668730,"name":"Românești","admin3":""},{"geonameid":668628,"name":"Roşiile","admin3":""},{"geonameid":662211,"name":"Zgubea","admin3":""}],"admin3":[],"alternateNames":[]},"__N_SSG":true}