{"pageProps":{"locale":"en","admin2":{"geonameid":5058882,"name":"Dickey County","country":"US","admin1":"ND","admin2":"021","admin3":"","latitude":"46.1101200","longitude":"-98.5046700","localeAltName":null},"admin1":{"geonameid":5690763,"name":"North Dakota","admin1":"ND","localeAltName":"North Dakota"},"locations":[{"geonameid":5059052,"name":"Ellendale","admin3":"23220","localeAltName":null},{"geonameid":5060756,"name":"Oakes","admin3":"58740","localeAltName":null}],"admin3":[{"geonameid":5058014,"name":"Township of Ada","admin3":"00300"},{"geonameid":5058042,"name":"Township of Albertha","admin3":"01020"},{"geonameid":5058045,"name":"Township of Albion","admin3":"01060"},{"geonameid":5058214,"name":"Township of Bear Creek","admin3":"05500"},{"geonameid":5058648,"name":"Township of Clement","admin3":"14540"},{"geonameid":5058893,"name":"Township of Divide","admin3":"19700"},{"geonameid":5059031,"name":"Township of Elden","admin3":"22740"},{"geonameid":5059057,"name":"City of Ellendale","admin3":"23220","localeAltName":null},{"geonameid":5059058,"name":"Township of Ellendale","admin3":"23260"},{"geonameid":5059080,"name":"Township of Elm","admin3":"23540"},{"geonameid":5059225,"name":"City of Forbes","admin3":"26980"},{"geonameid":5059297,"name":"City of Fullerton","admin3":"28780"},{"geonameid":5059341,"name":"Township of German","admin3":"29900"},{"geonameid":5059444,"name":"Township of Grand Valley","admin3":"32500"},{"geonameid":5059525,"name":"Township of Hamburg","admin3":"34500"},{"geonameid":5059759,"name":"Township of Hudson","admin3":"39220"},{"geonameid":5059833,"name":"Township of James River Valley","admin3":"40540"},{"geonameid":5059954,"name":"Township of Kent","admin3":"42300"},{"geonameid":5059955,"name":"Township of Kentner","admin3":"42340"},{"geonameid":5059959,"name":"Township of Keystone","admin3":"42500"},{"geonameid":5060224,"name":"Township of Lorraine","admin3":"48140"},{"geonameid":5060227,"name":"Township of Lovell","admin3":"48260"},{"geonameid":5060238,"name":"City of Ludden","admin3":"48460"},{"geonameid":5060302,"name":"Township of Maple","admin3":"50500"},{"geonameid":5060492,"name":"City of Monango","admin3":"53820"},{"geonameid":5060721,"name":"Township of Northwest","admin3":"58220"},{"geonameid":5060761,"name":"City of Oakes","admin3":"58740","localeAltName":null},{"geonameid":5061008,"name":"Township of Port Emma","admin3":"63820"},{"geonameid":5061010,"name":"Township of Porter","admin3":"63860"},{"geonameid":5061017,"name":"Township of Potsdam","admin3":"63980"},{"geonameid":5061123,"name":"Township of Riverdale","admin3":"66940"},{"geonameid":5062010,"name":"Township of Spring Valley","admin3":"75140"},{"geonameid":5062305,"name":"Township of Valley","admin3":"81100"},{"geonameid":5062307,"name":"Township of Van Meter","admin3":"81460"},{"geonameid":5062509,"name":"Township of Whitestone","admin3":"85700"},{"geonameid":5062588,"name":"Township of Wright","admin3":"87620"},{"geonameid":5062602,"name":"Township of Yorktown","admin3":"87940"},{"geonameid":5062605,"name":"Township of Young","admin3":"87980"}],"alternateNames":[{"alternatenameId":2080778,"geonameid":5690763,"isoLanguage":"en","alternateName":"North Dakota","isPreferredName":true,"isShortName":true,"isColloquial":false,"isHistoric":false}]},"__N_SSG":true}