{"pageProps":{"locale":"en","admin2":{"geonameid":5188486,"name":"Elk County","country":"US","admin1":"PA","admin2":"047","admin3":"","latitude":"41.4252300","longitude":"-78.6490900"},"admin1":{"geonameid":6254927,"name":"Pennsylvania","admin1":"PA","localeAltName":"Pennsylvania"},"locations":[{"geonameid":5195549,"name":"Johnsonburg","admin3":"38248"},{"geonameid":5208292,"name":"Ridgway","admin3":"64784"},{"geonameid":5210117,"name":"Saint Marys","admin3":"67344"}],"admin3":[{"geonameid":5179930,"name":"Township of Benezette","admin3":"05576"},{"geonameid":5190259,"name":"Township of Fox","admin3":"27088"},{"geonameid":5193614,"name":"Township of Highland","admin3":"34464"},{"geonameid":5194325,"name":"Township of Horton","admin3":"35816"},{"geonameid":5195276,"name":"Township of Jay","admin3":"37760"},{"geonameid":5195553,"name":"Borough of Johnsonburg","admin3":"38248"},{"geonameid":5195603,"name":"Township of Jones","admin3":"38368"},{"geonameid":5201488,"name":"Township of Millstone","admin3":"49888"},{"geonameid":5208294,"name":"Borough of Ridgway","admin3":"64784"},{"geonameid":5208295,"name":"Township of Ridgway","admin3":"64792"},{"geonameid":5210217,"name":"City of Saint Marys","admin3":"67344"},{"geonameid":5213339,"name":"Township of Spring Creek","admin3":"72928"}],"alternateNames":[{"alternatenameId":2186547,"geonameid":6254927,"isoLanguage":"en","alternateName":"Pennsylvania","isPreferredName":true,"isShortName":true,"isColloquial":false,"isHistoric":false}]},"__N_SSG":true}