{"pageProps":{"locale":"en","admin2":{"geonameid":5195307,"name":"Jefferson County","country":"US","admin1":"PA","admin2":"065","admin3":"","latitude":"41.1281500","longitude":"-78.9994200"},"admin1":{"geonameid":6254927,"name":"Pennsylvania","admin1":"PA","localeAltName":"Pennsylvania"},"locations":[{"geonameid":5177945,"name":"Albion","admin3":"05200"},{"geonameid":5181752,"name":"Brockway","admin3":"08960"},{"geonameid":5181828,"name":"Brookville","admin3":"09224"},{"geonameid":5189308,"name":"Falls Creek","admin3":"25136"},{"geonameid":5207307,"name":"Punxsutawney","admin3":"62920"},{"geonameid":5208111,"name":"Reynoldsville","admin3":"64376"},{"geonameid":5215087,"name":"Sykesville","admin3":"75888"}],"admin3":[{"geonameid":5179097,"name":"Township of Barnett","admin3":"04240"},{"geonameid":5179574,"name":"Township of Beaver","admin3":"04728"},{"geonameid":5179781,"name":"Township of Bell","admin3":"05200"},{"geonameid":5180469,"name":"Borough of Big Run","admin3":"06344"},{"geonameid":5181755,"name":"Borough of Brockway","admin3":"08960"},{"geonameid":5181832,"name":"Borough of Brookville","admin3":"09224"},{"geonameid":5184668,"name":"Township of Clover","admin3":"14408"},{"geonameid":5185497,"name":"Borough of Corsica","admin3":"16304"},{"geonameid":5188428,"name":"Township of Eldred","admin3":"22872"},{"geonameid":5189311,"name":"Borough of Falls Creek","admin3":"25136"},{"geonameid":5190866,"name":"Township of Gaskill","admin3":"28592"},{"geonameid":5193055,"name":"Township of Heath","admin3":"33448"},{"geonameid":5193233,"name":"Township of Henderson","admin3":"33816"},{"geonameid":5196470,"name":"Township of Knox","admin3":"40304"},{"geonameid":5200250,"name":"Township of McCalmont","admin3":"45888"},{"geonameid":5204455,"name":"Township of Oliver","admin3":"56712"},{"geonameid":5205699,"name":"Township of Perry","admin3":"59480"},{"geonameid":5206021,"name":"Township of Pine Creek","admin3":"60368"},{"geonameid":5206817,"name":"Township of Polk","admin3":"61920"},{"geonameid":5206985,"name":"Township of Porter","admin3":"62176"},{"geonameid":5207311,"name":"Borough of Punxsutawney","admin3":"62920"},{"geonameid":5208116,"name":"Borough of Reynoldsville","admin3":"64376"},{"geonameid":5208370,"name":"Township of Ringgold","admin3":"64960"},{"geonameid":5209002,"name":"Township of Rose","admin3":"66032"},{"geonameid":5212796,"name":"Township of Snyder","admin3":"71632"},{"geonameid":5214783,"name":"Borough of Summerville","admin3":"75168"},{"geonameid":5215089,"name":"Borough of Sykesville","admin3":"75888"},{"geonameid":5215653,"name":"Borough of Timblin","admin3":"76744"},{"geonameid":5216708,"name":"Township of Union","admin3":"78336"},{"geonameid":5218044,"name":"Township of Warsaw","admin3":"81120"},{"geonameid":5218148,"name":"Township of Washington","admin3":"81264"},{"geonameid":5219805,"name":"Township of Winslow","admin3":"85840"},{"geonameid":5220149,"name":"Borough of Worthville","admin3":"86568"},{"geonameid":5220390,"name":"Township of Young","admin3":"87168"}],"alternateNames":[{"alternatenameId":2186547,"geonameid":6254927,"isoLanguage":"en","alternateName":"Pennsylvania","isPreferredName":true,"isShortName":true,"isColloquial":false,"isHistoric":false}]},"__N_SSG":true}