{"pageProps":{"locale":"en","admin2":{"geonameid":5201756,"name":"Montgomery County","country":"US","admin1":"PA","admin2":"091","admin3":"","latitude":"40.2108300","longitude":"-75.3673000"},"admin1":{"geonameid":6254927,"name":"Pennsylvania","admin1":"PA","localeAltName":"Pennsylvania"},"locations":[{"geonameid":5177773,"name":"Abington","admin3":"00156"},{"geonameid":5178225,"name":"Ambler","admin3":"02264"},{"geonameid":5178481,"name":"Ardmore","admin3":"44976"},{"geonameid":5178686,"name":"Audubon","admin3":"45080"},{"geonameid":5178892,"name":"Bala-Cynwyd","admin3":"44976"},{"geonameid":5180961,"name":"Blue Bell","admin3":"84888"},{"geonameid":5181624,"name":"Bridgeport","admin3":"08568"},{"geonameid":5182059,"name":"Bryn Athyn","admin3":"09696"},{"geonameid":5182064,"name":"Bryn Mawr","admin3":"44976"},{"geonameid":5184966,"name":"Collegeville","admin3":"15192"},{"geonameid":5185267,"name":"Conshohocken","admin3":"15848"},{"geonameid":5187297,"name":"Dresher","admin3":"79008"},{"geonameid":5187727,"name":"Eagleville","admin3":"45080"},{"geonameid":5187925,"name":"East Greenville","admin3":"21200"},{"geonameid":5188948,"name":"Evansburg","admin3":"45080"},{"geonameid":5189872,"name":"Flourtown","admin3":"73088"},{"geonameid":5190089,"name":"Fort Washington","admin3":"79008"},{"geonameid":5191093,"name":"Gilbertsville","admin3":""},{"geonameid":5191327,"name":"Glenside","admin3":"00156"},{"geonameid":5192391,"name":"Halfway House","admin3":"79240"},{"geonameid":5192662,"name":"Harleysville","admin3":"45096"},{"geonameid":5192863,"name":"Hatboro","admin3":"33088"},{"geonameid":5192878,"name":"Hatfield","admin3":"33112"},{"geonameid":5194302,"name":"Horsham","admin3":"35808"},{"geonameid":5195363,"name":"Jenkintown","admin3":"38000"},{"geonameid":5196220,"name":"King of Prussia","admin3":"79136"},{"geonameid":5196605,"name":"Kulpsville","admin3":"77152"},{"geonameid":5196702,"name":"Lafayette Hill","admin3":"84624"},{"geonameid":5197159,"name":"Lansdale","admin3":"41432"},{"geonameid":5198034,"name":"Limerick","admin3":"43312"},{"geonameid":5199781,"name":"Maple Glen","admin3":"35808"},{"geonameid":5201776,"name":"Montgomeryville","admin3":"50640"},{"geonameid":5202869,"name":"Narberth","admin3":"52664"},{"geonameid":5203506,"name":"Norristown","admin3":"54656"},{"geonameid":5203788,"name":"North Wales","admin3":"55512"},{"geonameid":5204575,"name":"Oreland","admin3":"79008"},{"geonameid":4560291,"name":"Penn Wynne","admin3":"44976"},{"geonameid":5205484,"name":"Pennsburg","admin3":"59120"},{"geonameid":5206666,"name":"Plymouth Meeting","admin3":"84624"},{"geonameid":5207065,"name":"Pottsgrove","admin3":"45072"},{"geonameid":5207069,"name":"Pottstown","admin3":"62416"},{"geonameid":5207780,"name":"Red Hill","admin3":"63808"},{"geonameid":5208767,"name":"Rockledge","admin3":"65568"},{"geonameid":5209240,"name":"Royersford","admin3":"66576"},{"geonameid":5210764,"name":"Sanatoga","admin3":"45072"},{"geonameid":5211230,"name":"Schwenksville","admin3":"68328"},{"geonameid":5212412,"name":"Skippack","admin3":"71016"},{"geonameid":5212897,"name":"Souderton","admin3":"71856"},{"geonameid":5213370,"name":"Spring House","admin3":"44920"},{"geonameid":5213393,"name":"Spring Mount","admin3":"44912"},{"geonameid":5214449,"name":"Stowe","admin3":"83912"},{"geonameid":5215947,"name":"Trappe","admin3":"77304"},{"geonameid":5216092,"name":"Trooper","admin3":"45080"},{"geonameid":5218652,"name":"West Conshohocken","admin3":"82736"},{"geonameid":5218827,"name":"West Norriton","admin3":"83696"},{"geonameid":5219619,"name":"Willow Grove","admin3":"79176"},{"geonameid":5220150,"name":"Woxall","admin3":"79280"},{"geonameid":5220217,"name":"Wyncote","admin3":"12968"},{"geonameid":5220221,"name":"Wyndmoor","admin3":"73088"}],"admin3":[{"geonameid":4559355,"name":"Township of Lower Merion","admin3":"44976"},{"geonameid":5177786,"name":"Township of Abington","admin3":"00156"},{"geonameid":5178227,"name":"Borough of Ambler","admin3":"02264"},{"geonameid":5181629,"name":"Borough of Bridgeport","admin3":"08568"},{"geonameid":5182061,"name":"Borough of Bryn Athyn","admin3":"09696"},{"geonameid":5183949,"name":"Township of Cheltenham","admin3":"12968"},{"geonameid":5184969,"name":"Borough of Collegeville","admin3":"15192"},{"geonameid":5185272,"name":"Borough of Conshohocken","admin3":"15848"},{"geonameid":5187926,"name":"Borough of East Greenville","admin3":"21200"},{"geonameid":5188006,"name":"Township of East Norriton","admin3":"21600"},{"geonameid":5190305,"name":"Township of Franconia","admin3":"27280"},{"geonameid":5191863,"name":"Borough of Green Lane","admin3":"31088"},{"geonameid":5192865,"name":"Borough of Hatboro","admin3":"33088"},{"geonameid":5192879,"name":"Borough of Hatfield","admin3":"33112"},{"geonameid":5192880,"name":"Township of Hatfield","admin3":"33120"},{"geonameid":5194309,"name":"Township of Horsham","admin3":"35808"},{"geonameid":5195368,"name":"Borough of Jenkintown","admin3":"38000"},{"geonameid":5197161,"name":"Borough of Lansdale","admin3":"41432"},{"geonameid":5198039,"name":"Township of Limerick","admin3":"43312"},{"geonameid":5199103,"name":"Township of Lower Frederick","admin3":"44912"},{"geonameid":5199105,"name":"Township of Lower Gwynedd","admin3":"44920"},{"geonameid":5199140,"name":"Township of Lower Moreland","admin3":"45008"},{"geonameid":5199160,"name":"Township of Lower Pottsgrove","admin3":"45072"},{"geonameid":5199162,"name":"Township of Lower Providence","admin3":"45080"},{"geonameid":5199168,"name":"Township of Lower Salford","admin3":"45096"},{"geonameid":5199925,"name":"Township of Marlborough","admin3":"47592"},{"geonameid":5201775,"name":"Township of Montgomery","admin3":"50640"},{"geonameid":5202870,"name":"Borough of Narberth","admin3":"52664"},{"geonameid":5203185,"name":"Township of New Hanover","admin3":"53664"},{"geonameid":5203509,"name":"Borough of Norristown","admin3":"54656"},{"geonameid":5203790,"name":"Borough of North Wales","admin3":"55512"},{"geonameid":5205488,"name":"Borough of Pennsburg","admin3":"59120"},{"geonameid":5205658,"name":"Township of Perkiomen","admin3":"59392"},{"geonameid":5206673,"name":"Township of Plymouth","admin3":"61664"},{"geonameid":5207079,"name":"Borough of Pottstown","admin3":"62416"},{"geonameid":5207787,"name":"Borough of Red Hill","admin3":"63808"},{"geonameid":5208771,"name":"Borough of Rockledge","admin3":"65568"},{"geonameid":5209245,"name":"Borough of Royersford","admin3":"66576"},{"geonameid":5210688,"name":"Township of Salford","admin3":"67528"},{"geonameid":5211231,"name":"Borough of Schwenksville","admin3":"68328"},{"geonameid":5212416,"name":"Township of Skippack","admin3":"71016"},{"geonameid":5212902,"name":"Borough of Souderton","admin3":"71856"},{"geonameid":5213481,"name":"Township of Springfield","admin3":"73088"},{"geonameid":5215864,"name":"Township of Towamencin","admin3":"77152"},{"geonameid":5215949,"name":"Borough of Trappe","admin3":"77304"},{"geonameid":5216824,"name":"Township of Upper Frederick","admin3":"79040"},{"geonameid":5216827,"name":"Township of Upper Gwynedd","admin3":"79056"},{"geonameid":5216829,"name":"Township of Upper Hanover","admin3":"79064"},{"geonameid":5216833,"name":"Township of Upper Dublin","admin3":"79008"},{"geonameid":5216850,"name":"Township of Upper Merion","admin3":"79136"},{"geonameid":5216859,"name":"Township of Upper Moreland","admin3":"79176"},{"geonameid":5216886,"name":"Township of Upper Pottsgrove","admin3":"79240"},{"geonameid":5216890,"name":"Township of Upper Providence","admin3":"79256"},{"geonameid":5216897,"name":"Township of Upper Salford","admin3":"79280"},{"geonameid":5218653,"name":"Borough of West Conshohocken","admin3":"82736"},{"geonameid":5218828,"name":"Township of West Norriton","admin3":"83696"},{"geonameid":5218864,"name":"Township of West Pottsgrove","admin3":"83912"},{"geonameid":5219304,"name":"Township of Whitemarsh","admin3":"84624"},{"geonameid":5219359,"name":"Township of Whitpain","admin3":"84888"},{"geonameid":5220130,"name":"Township of Worcester","admin3":"86496"}],"alternateNames":[{"alternatenameId":2186547,"geonameid":6254927,"isoLanguage":"en","alternateName":"Pennsylvania","isPreferredName":true,"isShortName":true,"isColloquial":false,"isHistoric":false}]},"__N_SSG":true}