{"pageProps":{"locale":"en","admin2":{"geonameid":5203860,"name":"Northumberland County","country":"US","admin1":"PA","admin2":"097","admin3":"","latitude":"40.8519800","longitude":"-76.7093200"},"admin1":{"geonameid":6254927,"name":"Pennsylvania","admin1":"PA","localeAltName":"Pennsylvania"},"locations":[{"geonameid":5186862,"name":"Dewart","admin3":"18696"},{"geonameid":5188287,"name":"Edgewood","admin3":"14536"},{"geonameid":5188667,"name":"Elysburg","admin3":"63328"},{"geonameid":7257872,"name":"Fairview-Ferndale","admin3":"14536"},{"geonameid":5196601,"name":"Kulpmont","admin3":"40584"},{"geonameid":5199994,"name":"Marshallton","admin3":"14536"},{"geonameid":5201470,"name":"Milton","admin3":"50016"},{"geonameid":5202114,"name":"Mount Carmel","admin3":"51496"},{"geonameid":5203859,"name":"Northumberland","admin3":"55456"},{"geonameid":5208462,"name":"Riverside","admin3":"65112"},{"geonameid":5211622,"name":"Shamokin","admin3":"69600"},{"geonameid":5214814,"name":"Sunbury","admin3":"75304"},{"geonameid":5215995,"name":"Trevorton","admin3":"87280"},{"geonameid":5218246,"name":"Watsontown","admin3":"81616"}],"admin3":[{"geonameid":5184739,"name":"Township of Coal","admin3":"14536"},{"geonameid":5186704,"name":"Township of Delaware","admin3":"18696"},{"geonameid":5187862,"name":"Township of East Cameron","admin3":"20928"},{"geonameid":5187872,"name":"Township of East Chillisquaque","admin3":"20976"},{"geonameid":5193317,"name":"Borough of Herndon","admin3":"34080"},{"geonameid":5195170,"name":"Township of Jackson","admin3":"37432"},{"geonameid":5195634,"name":"Township of Jordan","admin3":"38456"},{"geonameid":5196602,"name":"Borough of Kulpmont","admin3":"40584"},{"geonameid":5197838,"name":"Township of Lewis","admin3":"42952"},{"geonameid":5198403,"name":"Township of Little Mahanoy","admin3":"43912"},{"geonameid":5199081,"name":"Township of Lower Augusta","admin3":"44856"},{"geonameid":5199130,"name":"Township of Lower Mahanoy","admin3":"44960"},{"geonameid":5199893,"name":"Borough of Marion Heights","admin3":"47480"},{"geonameid":5200411,"name":"Borough of McEwensville","admin3":"46120"},{"geonameid":5201479,"name":"Borough of Milton","admin3":"50016"},{"geonameid":5202136,"name":"Borough of Mount Carmel","admin3":"51496"},{"geonameid":5202137,"name":"Township of Mount Carmel","admin3":"51504"},{"geonameid":5203864,"name":"Borough of Northumberland","admin3":"55456"},{"geonameid":5206769,"name":"Township of Point","admin3":"61832"},{"geonameid":5207528,"name":"Township of Ralpho","admin3":"63328"},{"geonameid":5208476,"name":"Borough of Riverside","admin3":"65112"},{"geonameid":5208749,"name":"Township of Rockefeller","admin3":"65472"},{"geonameid":5209320,"name":"Township of Rush","admin3":"66752"},{"geonameid":5211634,"name":"City of Shamokin","admin3":"69600"},{"geonameid":5211635,"name":"Township of Shamokin","admin3":"69608"},{"geonameid":5212814,"name":"Borough of Snydertown","admin3":"71688"},{"geonameid":5214819,"name":"City of Sunbury","admin3":"75304"},{"geonameid":5216283,"name":"Township of Turbot","admin3":"77830"},{"geonameid":5216285,"name":"Borough of Turbotville","admin3":"77832"},{"geonameid":5216791,"name":"Township of Upper Augusta","admin3":"78744"},{"geonameid":5216845,"name":"Township of Upper Mahanoy","admin3":"79112"},{"geonameid":5218153,"name":"Township of Washington","admin3":"81304"},{"geonameid":5218251,"name":"Borough of Watsontown","admin3":"81616"},{"geonameid":5218640,"name":"Township of West Cameron","admin3":"82680"},{"geonameid":5218646,"name":"Township of West Chillisquaque","admin3":"82712"},{"geonameid":5220456,"name":"Township of Zerbe","admin3":"87280"}],"alternateNames":[{"alternatenameId":2186547,"geonameid":6254927,"isoLanguage":"en","alternateName":"Pennsylvania","isPreferredName":true,"isShortName":true,"isColloquial":false,"isHistoric":false}]},"__N_SSG":true}