{"pageProps":{"locale":"en","admin2":{"geonameid":5205669,"name":"Perry County","country":"US","admin1":"PA","admin2":"099","admin3":"","latitude":"40.3984100","longitude":"-77.2623000"},"admin1":{"geonameid":6254927,"name":"Pennsylvania","admin1":"PA","localeAltName":"Pennsylvania"},"locations":[{"geonameid":5187506,"name":"Duncannon","admin3":"20240"},{"geonameid":5200081,"name":"Marysville","admin3":"47968"},{"geonameid":5203112,"name":"New Bloomfield","admin3":"07040"},{"geonameid":5203317,"name":"Newport","admin3":"53968"}],"admin3":[{"geonameid":5180802,"name":"Borough of Blain","admin3":"06824"},{"geonameid":5180912,"name":"Borough of Bloomfield","admin3":"07040"},{"geonameid":5182278,"name":"Township of Buffalo","admin3":"10008"},{"geonameid":5183336,"name":"Township of Carroll","admin3":"11416"},{"geonameid":5183778,"name":"Township of Centre","admin3":"12360"},{"geonameid":5187507,"name":"Borough of Duncannon","admin3":"20240"},{"geonameid":5192082,"name":"Township of Greenwood","admin3":"31440"},{"geonameid":5194405,"name":"Township of Howe","admin3":"36000"},{"geonameid":5195171,"name":"Township of Jackson","admin3":"37440"},{"geonameid":5195695,"name":"Township of Juniata","admin3":"38616"},{"geonameid":5197118,"name":"Borough of Landisburg","admin3":"41272"},{"geonameid":5198597,"name":"Borough of Liverpool","admin3":"43968"},{"geonameid":5198598,"name":"Township of Liverpool","admin3":"43976"},{"geonameid":5200083,"name":"Borough of Marysville","admin3":"47968"},{"geonameid":5201382,"name":"Township of Miller","admin3":"49632"},{"geonameid":5201413,"name":"Borough of Millerstown","admin3":"49720"},{"geonameid":5203123,"name":"Borough of New Buffalo","admin3":"53320"},{"geonameid":5203325,"name":"Borough of Newport","admin3":"53968"},{"geonameid":5203829,"name":"Township of Northeast Madison","admin3":"54968"},{"geonameid":5204457,"name":"Township of Oliver","admin3":"56728"},{"geonameid":5205442,"name":"Township of Penn","admin3":"58856"},{"geonameid":5209382,"name":"Township of Rye","admin3":"66976"},{"geonameid":5210971,"name":"Township of Saville","admin3":"68032"},{"geonameid":5213170,"name":"Township of Southwest Madison","admin3":"72624"},{"geonameid":5213439,"name":"Township of Spring","admin3":"72848"},{"geonameid":5215744,"name":"Township of Toboyne","admin3":"76920"},{"geonameid":5216373,"name":"Township of Tuscarora","admin3":"77960"},{"geonameid":5216526,"name":"Township of Tyrone","admin3":"78184"},{"geonameid":5218259,"name":"Township of Watts","admin3":"81640"},{"geonameid":5219080,"name":"Township of Wheatfield","admin3":"84368"}],"alternateNames":[{"alternatenameId":2186547,"geonameid":6254927,"isoLanguage":"en","alternateName":"Pennsylvania","isPreferredName":true,"isShortName":true,"isColloquial":false,"isHistoric":false}]},"__N_SSG":true}