{"pageProps":{"locale":"en","admin2":{"geonameid":5205930,"name":"Pike County","country":"US","admin1":"PA","admin2":"103","admin3":"","latitude":"41.3319900","longitude":"-75.0338300"},"admin1":{"geonameid":6254927,"name":"Pennsylvania","admin1":"PA","localeAltName":"Pennsylvania"},"locations":[{"geonameid":5180607,"name":"Birchwood Lakes","admin3":"18704"},{"geonameid":5185135,"name":"Conashaugh Lakes","admin3":"19272"},{"geonameid":5191389,"name":"Gold Key Lake","admin3":"19272"},{"geonameid":5193169,"name":"Hemlock Farms","admin3":"07088"},{"geonameid":5200123,"name":"Matamoras","admin3":"48048"},{"geonameid":8086032,"name":"Pine Ridge","admin3":"42512"},{"geonameid":5207563,"name":"Pocono Ranch Lands","admin3":"42512"},{"geonameid":5210973,"name":"Saw Creek","admin3":"42512"},{"geonameid":5214867,"name":"Sunrise Lake","admin3":"19272"}],"admin3":[{"geonameid":5180922,"name":"Township of Blooming Grove","admin3":"07088"},{"geonameid":5186705,"name":"Township of Delaware","admin3":"18704"},{"geonameid":5186987,"name":"Township of Dingman","admin3":"19272"},{"geonameid":5191969,"name":"Township of Greene","admin3":"30976"},{"geonameid":5196689,"name":"Township of Lackawaxen","admin3":"40776"},{"geonameid":5197691,"name":"Township of Lehman","admin3":"42512"},{"geonameid":5200125,"name":"Borough of Matamoras","admin3":"48048"},{"geonameid":5201127,"name":"Borough of Milford","admin3":"49400"},{"geonameid":5201130,"name":"Township of Milford","admin3":"49408"},{"geonameid":5204969,"name":"Township of Palmyra","admin3":"57728"},{"geonameid":5206987,"name":"Township of Porter","admin3":"62192"},{"geonameid":5212086,"name":"Township of Shohola","admin3":"70496"},{"geonameid":5218968,"name":"Township of Westfall","admin3":"82928"}],"alternateNames":[{"alternatenameId":2186547,"geonameid":6254927,"isoLanguage":"en","alternateName":"Pennsylvania","isPreferredName":true,"isShortName":true,"isColloquial":false,"isHistoric":false}]},"__N_SSG":true}