{"pageProps":{"locale":"en","admin2":{"geonameid":5218273,"name":"Wayne County","country":"US","admin1":"PA","admin2":"127","admin3":"","latitude":"41.6487300","longitude":"-75.3032600"},"admin1":{"geonameid":6254927,"name":"Pennsylvania","admin1":"PA","localeAltName":"Pennsylvania"},"locations":[{"geonameid":5192925,"name":"Hawley","admin3":"33200"},{"geonameid":5194099,"name":"Honesdale","admin3":"35520"},{"geonameid":8085759,"name":"The Hideout","admin3":"67488"},{"geonameid":8085760,"name":"Wallenpaupack Lake Estates","admin3":"58480"},{"geonameid":5218268,"name":"Waymart","admin3":"81712"}],"admin3":[{"geonameid":5180069,"name":"Township of Berlin","admin3":"05784"},{"geonameid":5180139,"name":"Borough of Bethany","admin3":"05976"},{"geonameid":5182190,"name":"Township of Buckingham","admin3":"09824"},{"geonameid":5183105,"name":"Township of Canaan","admin3":"11056"},{"geonameid":5184007,"name":"Township of Cherry Ridge","admin3":"13096"},{"geonameid":5184637,"name":"Township of Clinton","admin3":"14352"},{"geonameid":5186289,"name":"Township of Damascus","admin3":"18104"},{"geonameid":5187290,"name":"Township of Dreher","admin3":"19864"},{"geonameid":5187669,"name":"Township of Dyberry","admin3":"20576"},{"geonameid":5192927,"name":"Borough of Hawley","admin3":"33200"},{"geonameid":5194097,"name":"Borough of Honesdale","admin3":"35520"},{"geonameid":5196987,"name":"Township of Lake","admin3":"40936"},{"geonameid":5197537,"name":"Township of Lebanon","admin3":"42176"},{"geonameid":5197672,"name":"Township of Lehigh","admin3":"42432"},{"geonameid":5199640,"name":"Township of Manchester","admin3":"46856"},{"geonameid":5202337,"name":"Township of Mount Pleasant","admin3":"51872"},{"geonameid":5204617,"name":"Township of Oregon","admin3":"57000"},{"geonameid":5204970,"name":"Township of Palmyra","admin3":"57736"},{"geonameid":5205239,"name":"Township of Paupack","admin3":"58480"},{"geonameid":5207165,"name":"Township of Preston","admin3":"62600"},{"geonameid":5207223,"name":"Borough of Prompton","admin3":"62744"},{"geonameid":5210680,"name":"Township of Salem","admin3":"67488"},{"geonameid":5211278,"name":"Township of Scott","admin3":"68416"},{"geonameid":5212979,"name":"Township of South Canaan","admin3":"72024"},{"geonameid":5213676,"name":"Borough of Starrucca","admin3":"73784"},{"geonameid":5214099,"name":"Township of Sterling","admin3":"73968"},{"geonameid":5215391,"name":"Township of Texas","admin3":"76424"},{"geonameid":5218269,"name":"Borough of Waymart","admin3":"81712"}],"alternateNames":[{"alternatenameId":2186547,"geonameid":6254927,"isoLanguage":"en","alternateName":"Pennsylvania","isPreferredName":true,"isShortName":true,"isColloquial":false,"isHistoric":false}]},"__N_SSG":true}