{"pageProps":{"locale":"en","admin2":{"geonameid":6544296,"name":"Gemeente Aa en Hunze","country":"NL","admin1":"01","admin2":"1680","admin3":"","latitude":"53.0044500","longitude":"6.7490800"},"admin1":{"geonameid":2756631,"name":"Provincie Drenthe","admin1":"01"},"locations":[{"geonameid":2759838,"name":"Amen","admin3":""},{"geonameid":2759778,"name":"Anderen","admin3":""},{"geonameid":2759746,"name":"Anloo","admin3":""},{"geonameid":2759729,"name":"Annen","admin3":""},{"geonameid":2759724,"name":"Annerveenschekanaal","admin3":""},{"geonameid":2759458,"name":"Balloo","admin3":""},{"geonameid":2758656,"name":"Bonnen","admin3":""},{"geonameid":2758655,"name":"Bonnerveen","admin3":""},{"geonameid":2758550,"name":"Bosje","admin3":""},{"geonameid":2758472,"name":"Bovenstreek","admin3":""},{"geonameid":2757543,"name":"De Hilte","admin3":""},{"geonameid":2757001,"name":"Deurze","admin3":""},{"geonameid":2756317,"name":"Eext","admin3":""},{"geonameid":2756314,"name":"Eexterveen","admin3":""},{"geonameid":2756313,"name":"Eexterveenschekanaal","admin3":""},{"geonameid":2756311,"name":"Eexterzandvoort","admin3":""},{"geonameid":2756242,"name":"Ekehaar","admin3":""},{"geonameid":2756224,"name":"Eldersloo","admin3":""},{"geonameid":2756218,"name":"Eleveld","admin3":""},{"geonameid":2755717,"name":"Gasselte","admin3":""},{"geonameid":2755715,"name":"Gasselterboerveen","admin3":""},{"geonameid":2755714,"name":"Gasselterboerveenschemond","admin3":""},{"geonameid":2755712,"name":"Gasselternijveen","admin3":""},{"geonameid":2755711,"name":"Gasselternijveenschemond","admin3":""},{"geonameid":6544694,"name":"Gasselternijveenschemond Eerste Dwarsdiep","admin3":""},{"geonameid":2746076,"name":"Gasselternijveenschemond Tweede Dwarsdiep","admin3":""},{"geonameid":2755707,"name":"Gasteren","admin3":""},{"geonameid":2755691,"name":"Geelbroek","admin3":""},{"geonameid":2755527,"name":"Gieten","admin3":""},{"geonameid":2755520,"name":"Gieterveen","admin3":""},{"geonameid":2755257,"name":"Grolloo","admin3":""},{"geonameid":2752382,"name":"Kostvlies","admin3":""},{"geonameid":2751108,"name":"Marwijksoord","admin3":""},{"geonameid":2750374,"name":"Nieuw-Annerveen","admin3":""},{"geonameid":2750335,"name":"Nieuwediep","admin3":""},{"geonameid":2750058,"name":"Nijlande","admin3":""},{"geonameid":2750005,"name":"Nooitgedacht","admin3":""},{"geonameid":2749187,"name":"Oud Annerveen","admin3":""},{"geonameid":2748723,"name":"Papenvoort","admin3":""},{"geonameid":2747979,"name":"Rolde","admin3":""},{"geonameid":2747545,"name":"Schipborg","admin3":""},{"geonameid":2747504,"name":"Schoonloo","admin3":""},{"geonameid":2747452,"name":"Schreierswijk","admin3":""},{"geonameid":2746929,"name":"Spijkerboor","admin3":""},{"geonameid":2746620,"name":"Streek","admin3":""},{"geonameid":2746190,"name":"Torenveen","admin3":""},{"geonameid":2745770,"name":"Veenhof","admin3":""},{"geonameid":2745206,"name":"Vredenheim","admin3":""}],"admin3":[],"alternateNames":[{"alternatenameId":11907792,"geonameid":2756631,"isoLanguage":"de","alternateName":"Drenthe","isPreferredName":true,"isShortName":true,"isColloquial":false,"isHistoric":false}]},"__N_SSG":true}