{"pageProps":{"locale":"en","admin2":{"geonameid":6544287,"name":"Gemeente Noordenveld","country":"NL","admin1":"01","admin2":"1699","admin3":"","latitude":"53.1149400","longitude":"6.4462200"},"admin1":{"geonameid":2756631,"name":"Provincie Drenthe","admin1":"01"},"locations":[{"geonameid":2759865,"name":"Altena","admin3":""},{"geonameid":2759861,"name":"Alteveer","admin3":""},{"geonameid":2759830,"name":"Amerika","admin3":""},{"geonameid":2758740,"name":"Boerelaan","admin3":""},{"geonameid":2757491,"name":"De Horst","admin3":""},{"geonameid":2757134,"name":"De Pol","admin3":""},{"geonameid":2756903,"name":"De Zulthe","admin3":""},{"geonameid":2756380,"name":"Een","admin3":""},{"geonameid":2756352,"name":"Een-West","admin3":""},{"geonameid":2755850,"name":"Foxwolde","admin3":""},{"geonameid":2751943,"name":"Langelo","admin3":""},{"geonameid":2751681,"name":"Leutingewolde","admin3":""},{"geonameid":2751613,"name":"Lieveren","admin3":""},{"geonameid":2750380,"name":"Nietap","admin3":""},{"geonameid":2750140,"name":"Nieuw-Roden","admin3":""},{"geonameid":2749796,"name":"Norg","admin3":""},{"geonameid":2748678,"name":"Peest","admin3":""},{"geonameid":2748673,"name":"Peize","admin3":""},{"geonameid":2748669,"name":"Peizermade","admin3":""},{"geonameid":2748666,"name":"Peizerwold","admin3":""},{"geonameid":2748026,"name":"Roden","admin3":""},{"geonameid":2748022,"name":"Roderesch","admin3":""},{"geonameid":2748018,"name":"Roderwolde","admin3":""},{"geonameid":2747769,"name":"Sandebuur","admin3":""},{"geonameid":2746802,"name":"Steenbergen","admin3":""},{"geonameid":2746454,"name":"Terheijl","admin3":""},{"geonameid":2745764,"name":"Veenhuizen","admin3":""},{"geonameid":2744679,"name":"Westervelde","admin3":""},{"geonameid":2743649,"name":"Zuidvelde","admin3":""}],"admin3":[],"alternateNames":[{"alternatenameId":11907792,"geonameid":2756631,"isoLanguage":"de","alternateName":"Drenthe","isPreferredName":true,"isShortName":true,"isColloquial":false,"isHistoric":false}]},"__N_SSG":true}