{"pageProps":{"locale":"en","admin2":{"geonameid":2758619,"name":"Gemeente Borger-Odoorn","country":"NL","admin1":"01","admin2":"1681","admin3":"","latitude":"52.9050100","longitude":"6.8804200"},"admin1":{"geonameid":2756631,"name":"Provincie Drenthe","admin1":"01"},"locations":[{"geonameid":2758729,"name":"Boermastreek","admin3":""},{"geonameid":2758621,"name":"Borger","admin3":""},{"geonameid":2758222,"name":"Bronneger","admin3":""},{"geonameid":2758221,"name":"Bronnegerveen","admin3":""},{"geonameid":2758156,"name":"Buinen","admin3":""},{"geonameid":2758154,"name":"Buinerveen","admin3":""},{"geonameid":2756818,"name":"Dikbroeken","admin3":""},{"geonameid":2756550,"name":"Drouwen","admin3":""},{"geonameid":2756549,"name":"Drouwenermond","admin3":""},{"geonameid":2756548,"name":"Drouwenerveen","admin3":""},{"geonameid":2756335,"name":"Eerste Exloërmond","admin3":""},{"geonameid":2756329,"name":"Ees","admin3":""},{"geonameid":2756327,"name":"Eesergroen","admin3":""},{"geonameid":2756325,"name":"Eeserveen","admin3":""},{"geonameid":2756192,"name":"Ellertshaar","admin3":""},{"geonameid":2755950,"name":"Exloërkijl","admin3":""},{"geonameid":2755948,"name":"Exloërveen","admin3":""},{"geonameid":2755947,"name":"Exloo","admin3":""},{"geonameid":2753411,"name":"Hunzebergen","admin3":""},{"geonameid":2753002,"name":"Kavelingen","admin3":""},{"geonameid":2752648,"name":"Klijndijk","admin3":""},{"geonameid":2750362,"name":"Nieuw-Buinen","admin3":""},{"geonameid":2749734,"name":"Odoorn","admin3":""},{"geonameid":2749730,"name":"Odoornerveen","admin3":""},{"geonameid":2746075,"name":"Tweede Exloërmond","admin3":""},{"geonameid":2746071,"name":"Tweede Valthermond","admin3":""},{"geonameid":2745846,"name":"Valthe","admin3":""},{"geonameid":2745845,"name":"Valtherblokken","admin3":""},{"geonameid":2745842,"name":"Valthermond","admin3":""},{"geonameid":2745841,"name":"Valthermussel","admin3":""},{"geonameid":2744801,"name":"Westdorp","admin3":""},{"geonameid":2744094,"name":"Zandberg","admin3":""},{"geonameid":2743791,"name":"Zuideind","admin3":""}],"admin3":[],"alternateNames":[{"alternatenameId":11907792,"geonameid":2756631,"isoLanguage":"de","alternateName":"Drenthe","isPreferredName":true,"isShortName":true,"isColloquial":false,"isHistoric":false}]},"__N_SSG":true}