{"pageProps":{"locale":"en","admin2":{"geonameid":3333170,"name":"Medway","country":"GB","admin1":"ENG","admin2":"I3","admin3":"","latitude":"51.4166700","longitude":"0.5000000"},"admin1":{"geonameid":6269131,"name":"England","admin1":"ENG"},"locations":[{"geonameid":2657476,"name":"Allhallows"},{"geonameid":6691899,"name":"Borstal"},{"geonameid":2653299,"name":"Chattenden"},{"geonameid":2652849,"name":"Cliffe"},{"geonameid":2652414,"name":"Cooling"},{"geonameid":2651662,"name":"Cuxton"},{"geonameid":2648236,"name":"Grain"},{"geonameid":2647616,"name":"Halling"},{"geonameid":2646953,"name":"High Halstow"},{"geonameid":2646656,"name":"Hoo"},{"geonameid":2645451,"name":"Kingsnorth"},{"geonameid":10247756,"name":"Lower Stoke"},{"geonameid":7648207,"name":"Luton"},{"geonameid":2639987,"name":"Port Victoria"},{"geonameid":2639268,"name":"Rochester"},{"geonameid":2638734,"name":"Saint Mary Hoo"},{"geonameid":2638123,"name":"Sharnal Street"},{"geonameid":2636869,"name":"Upper Stoke"},{"geonameid":2634911,"name":"Wainscott"}],"admin3":[{"geonameid":7290862,"name":"Cooling","admin3":"00LC003"},{"geonameid":7290863,"name":"Cuxton","admin3":"00LC004"},{"geonameid":7295553,"name":"Cliffe and Cliffe Woods","admin3":"00LC002"},{"geonameid":7295559,"name":"Frindsbury Extra","admin3":"00LC005"},{"geonameid":7295560,"name":"Halling","admin3":"00LC006"},{"geonameid":7296568,"name":"Allhallows","admin3":"00LC001"},{"geonameid":7296575,"name":"High Halstow","admin3":"00LC007"},{"geonameid":7296576,"name":"St. Mary Hoo","admin3":"00LC010"},{"geonameid":7299192,"name":"Isle of Grain","admin3":"00LC009"},{"geonameid":7301571,"name":"Stoke","admin3":"00LC011"},{"geonameid":7301801,"name":"Hoo St. Werburgh","admin3":"00LC008"}],"alternateNames":[]},"__N_SSG":true}