{"pageProps":{"locale":"en","admin2":{"geonameid":2757849,"name":"Gemeente Dalfsen","country":"NL","admin1":"15","admin2":"0148","admin3":"","latitude":"52.5246100","longitude":"6.2721400"},"admin1":{"geonameid":2748838,"name":"Provincie Overijssel","admin1":"15"},"locations":[{"geonameid":2759747,"name":"Ankum","admin3":""},{"geonameid":2758264,"name":"Broekhuizen","admin3":""},{"geonameid":2757850,"name":"Dalfsen","admin3":""},{"geonameid":2757306,"name":"De Marshoek","admin3":""},{"geonameid":2757300,"name":"De Meele","admin3":""},{"geonameid":2757209,"name":"Den Hulst","admin3":""},{"geonameid":2756137,"name":"Emmen","admin3":""},{"geonameid":2756102,"name":"Engeland","admin3":""},{"geonameid":2755572,"name":"Gerner","admin3":""},{"geonameid":2754310,"name":"Hessum","admin3":""},{"geonameid":2753877,"name":"Holt","admin3":""},{"geonameid":2753644,"name":"Hoonhorst","admin3":""},{"geonameid":2751732,"name":"Lemelerveld","admin3":""},{"geonameid":2751713,"name":"Lenthe","admin3":""},{"geonameid":6544886,"name":"Leusenerslag","admin3":""},{"geonameid":2751098,"name":"Mataram","admin3":""},{"geonameid":2750798,"name":"Millingen","admin3":""},{"geonameid":2750161,"name":"Nieuwleusen","admin3":""},{"geonameid":2749486,"name":"Ooster-Dalfsen","admin3":""},{"geonameid":2748927,"name":"Oudleusen","admin3":""},{"geonameid":2748325,"name":"Ranserveen","admin3":""},{"geonameid":2748299,"name":"Rechteren","admin3":""},{"geonameid":6544889,"name":"Rosengaarde","admin3":""},{"geonameid":2747818,"name":"Ruitenhuizen","admin3":""},{"geonameid":2747817,"name":"Ruitenveen","admin3":""},{"geonameid":2747172,"name":"Slennebroek","admin3":""},{"geonameid":2746617,"name":"Strenkhaar","admin3":""},{"geonameid":6544883,"name":"Vennenberg","admin3":""},{"geonameid":2744845,"name":"Welsum","admin3":""}],"admin3":[],"alternateNames":[{"alternatenameId":11907794,"geonameid":2748838,"isoLanguage":"de","alternateName":"Overijssel","isPreferredName":true,"isShortName":true,"isColloquial":false,"isHistoric":false}]},"__N_SSG":true}