{"pageProps":{"locale":"en","admin2":{"geonameid":2754456,"name":"Gemeente Hellendoorn","country":"NL","admin1":"15","admin2":"0163","admin3":"","latitude":"52.3902200","longitude":"6.4643400"},"admin1":{"geonameid":2748838,"name":"Provincie Overijssel","admin1":"15"},"locations":[{"geonameid":2757867,"name":"Daarle","admin3":""},{"geonameid":2757866,"name":"Daarlerveen","admin3":""},{"geonameid":2756403,"name":"Eelen","admin3":""},{"geonameid":2756305,"name":"Egede","admin3":""},{"geonameid":2755006,"name":"Haarle","admin3":""},{"geonameid":2754887,"name":"Hankate","admin3":""},{"geonameid":2754470,"name":"Helhuizen","admin3":""},{"geonameid":2754457,"name":"Hellendoorn","admin3":""},{"geonameid":2754112,"name":"Hexel","admin3":""},{"geonameid":2753443,"name":"Hulsen","admin3":""},{"geonameid":2751138,"name":"Marle","admin3":""},{"geonameid":2750039,"name":"Nijverdal","admin3":""},{"geonameid":2750025,"name":"Noetsele","admin3":""},{"geonameid":2748585,"name":"Piksen","admin3":""},{"geonameid":2748202,"name":"Rhaan","admin3":""},{"geonameid":2747442,"name":"Schuilenburg","admin3":""}],"admin3":[],"alternateNames":[{"alternatenameId":11907794,"geonameid":2748838,"isoLanguage":"de","alternateName":"Overijssel","isPreferredName":true,"isShortName":true,"isColloquial":false,"isHistoric":false}]},"__N_SSG":true}