{"pageProps":{"locale":"en","admin2":{"geonameid":4315120,"name":"Assumption Parish","country":"US","admin1":"LA","admin2":"007","admin3":"","latitude":"29.9007700","longitude":"-91.0625900","localeAltName":null},"admin1":{"geonameid":4331987,"name":"Louisiana","admin1":"LA","localeAltName":"Louisiana"},"locations":[{"geonameid":4316362,"name":"Belle Rose","admin3":"","localeAltName":null},{"geonameid":4330088,"name":"Labadieville","admin3":"","localeAltName":null},{"geonameid":4334696,"name":"Napoleonville","admin3":"","localeAltName":null},{"geonameid":4336418,"name":"Paincourtville","admin3":"","localeAltName":null},{"geonameid":4337049,"name":"Pierre Part","admin3":"","localeAltName":null},{"geonameid":4342949,"name":"Supreme","admin3":"","localeAltName":null}],"admin3":[],"alternateNames":[{"alternatenameId":2089571,"geonameid":4331987,"isoLanguage":"en","alternateName":"Louisiana","isPreferredName":true,"isShortName":true,"isColloquial":false,"isHistoric":false}]},"__N_SSG":true}