{"pageProps":{"locale":"en","admin2":{"geonameid":4317649,"name":"Bossier Parish","country":"US","admin1":"LA","admin2":"015","admin3":"","latitude":"32.6789900","longitude":"-93.6050000","localeAltName":null},"admin1":{"geonameid":4331987,"name":"Louisiana","admin1":"LA","localeAltName":"Louisiana"},"locations":[{"geonameid":4316471,"name":"Benton","admin3":"","localeAltName":null},{"geonameid":4317639,"name":"Bossier City","admin3":"","localeAltName":null},{"geonameid":4323488,"name":"Eastwood","admin3":"","localeAltName":null},{"geonameid":4327084,"name":"Haughton","admin3":"","localeAltName":null},{"geonameid":4337395,"name":"Plain Dealing","admin3":"","localeAltName":null},{"geonameid":4048888,"name":"Red Chute","admin3":"","localeAltName":null}],"admin3":[{"geonameid":11788732,"name":"City of Bossier City","admin3":"11788732"}],"alternateNames":[{"alternatenameId":2089571,"geonameid":4331987,"isoLanguage":"en","alternateName":"Louisiana","isPreferredName":true,"isShortName":true,"isColloquial":false,"isHistoric":false}]},"__N_SSG":true}