{"pageProps":{"locale":"en","admin2":{"geonameid":4318583,"name":"Calcasieu Parish","country":"US","admin1":"LA","admin2":"019","admin3":"","latitude":"30.2292200","longitude":"-93.3579500","localeAltName":null},"admin1":{"geonameid":4331987,"name":"Louisiana","admin1":"LA","localeAltName":"Louisiana"},"locations":[{"geonameid":4319058,"name":"Carlyss","admin3":"","localeAltName":null},{"geonameid":4321770,"name":"DeQuincy","admin3":"","localeAltName":null},{"geonameid":4325702,"name":"Gillis","admin3":"","localeAltName":null},{"geonameid":4327114,"name":"Hayes","admin3":"","localeAltName":null},{"geonameid":4328676,"name":"Iowa","admin3":"","localeAltName":null},{"geonameid":4330236,"name":"Lake Charles","admin3":"","localeAltName":null},{"geonameid":4333961,"name":"Moss Bluff","admin3":"","localeAltName":null},{"geonameid":4338068,"name":"Prien","admin3":"","localeAltName":null},{"geonameid":4342541,"name":"Starks","admin3":"","localeAltName":null},{"geonameid":4342816,"name":"Sulphur","admin3":"","localeAltName":null},{"geonameid":4344676,"name":"Vinton","admin3":"","localeAltName":null},{"geonameid":4345925,"name":"Westlake","admin3":"","localeAltName":null}],"admin3":[],"alternateNames":[{"alternatenameId":2089571,"geonameid":4331987,"isoLanguage":"en","alternateName":"Louisiana","isPreferredName":true,"isShortName":true,"isColloquial":false,"isHistoric":false}]},"__N_SSG":true}