{"pageProps":{"locale":"en","admin2":{"geonameid":4328261,"name":"Iberville Parish","country":"US","admin1":"LA","admin2":"047","admin3":"","latitude":"30.2585000","longitude":"-91.3493600","localeAltName":null},"admin1":{"geonameid":4331987,"name":"Louisiana","admin1":"LA","localeAltName":"Louisiana"},"locations":[{"geonameid":4315850,"name":"Bayou Goula","admin3":"","localeAltName":null},{"geonameid":4319180,"name":"Carville","admin3":"","localeAltName":null},{"geonameid":4321148,"name":"Crescent","admin3":"","localeAltName":null},{"geonameid":4326615,"name":"Grosse Tete","admin3":"","localeAltName":null},{"geonameid":4332582,"name":"Maringouin","admin3":"","localeAltName":null},{"geonameid":4337436,"name":"Plaquemine","admin3":"","localeAltName":null},{"geonameid":4339136,"name":"Rosedale","admin3":"","localeAltName":null},{"geonameid":4339690,"name":"Saint Gabriel","admin3":"","localeAltName":null},{"geonameid":4346053,"name":"White Castle","admin3":"","localeAltName":null}],"admin3":[],"alternateNames":[{"alternatenameId":2089571,"geonameid":4331987,"isoLanguage":"en","alternateName":"Louisiana","isPreferredName":true,"isShortName":true,"isColloquial":false,"isHistoric":false}]},"__N_SSG":true}