{"pageProps":{"locale":"en","admin2":{"geonameid":4339793,"name":"Saint James Parish","country":"US","admin1":"LA","admin2":"093","admin3":"","latitude":"30.0263000","longitude":"-90.7963200","localeAltName":null},"admin1":{"geonameid":4331987,"name":"Louisiana","admin1":"LA","localeAltName":"Louisiana"},"locations":[{"geonameid":4320643,"name":"Convent","admin3":"","localeAltName":null},{"geonameid":4326081,"name":"Gramercy","admin3":"","localeAltName":null},{"geonameid":4326211,"name":"Grand Point","admin3":"","localeAltName":null},{"geonameid":4332152,"name":"Lutcher","admin3":"","localeAltName":null},{"geonameid":4335535,"name":"North Vacherie","admin3":"","localeAltName":null},{"geonameid":4336678,"name":"Paulina","admin3":"","localeAltName":null},{"geonameid":4339738,"name":"Saint James","admin3":"","localeAltName":null},{"geonameid":4342089,"name":"South Vacherie","admin3":"","localeAltName":null},{"geonameid":4344186,"name":"Union","admin3":"","localeAltName":null},{"geonameid":4345644,"name":"Welcome","admin3":"","localeAltName":null}],"admin3":[],"alternateNames":[{"alternatenameId":2089571,"geonameid":4331987,"isoLanguage":"en","alternateName":"Louisiana","isPreferredName":true,"isShortName":true,"isColloquial":false,"isHistoric":false}]},"__N_SSG":true}