{"pageProps":{"locale":"en","admin2":{"geonameid":4344544,"name":"Vernon Parish","country":"US","admin1":"LA","admin2":"115","admin3":"","latitude":"31.1082900","longitude":"-93.1841500","localeAltName":null},"admin1":{"geonameid":4331987,"name":"Louisiana","admin1":"LA","localeAltName":"Louisiana"},"locations":[{"geonameid":4314770,"name":"Anacoco","admin3":"","localeAltName":null},{"geonameid":7259775,"name":"Fort Polk North","admin3":"","localeAltName":null},{"geonameid":7259776,"name":"Fort Polk South","admin3":"","localeAltName":null},{"geonameid":4330740,"name":"Leesville","admin3":"","localeAltName":null},{"geonameid":4335024,"name":"New Llano","admin3":"","localeAltName":null},{"geonameid":4337378,"name":"Pitkin","admin3":"","localeAltName":null},{"geonameid":4339179,"name":"Rosepine","admin3":"","localeAltName":null},{"geonameid":4341634,"name":"Simpson","admin3":"","localeAltName":null}],"admin3":[],"alternateNames":[{"alternatenameId":2089571,"geonameid":4331987,"isoLanguage":"en","alternateName":"Louisiana","isPreferredName":true,"isShortName":true,"isColloquial":false,"isHistoric":false}]},"__N_SSG":true}