{"pageProps":{"locale":"en","admin2":{"geonameid":8593703,"name":"Comox Valley Regional District","country":"CA","admin1":"02","admin2":"5926","admin3":"","latitude":"49.6869600","longitude":"-124.9820100"},"admin1":{"geonameid":5909050,"name":"British Columbia","admin1":"02"},"locations":[{"geonameid":5892346,"name":"Balmoral Beach","admin3":""},{"geonameid":5899274,"name":"Bevan","admin3":""},{"geonameid":5926432,"name":"Comox","admin3":"5926005"},{"geonameid":5930890,"name":"Courtenay","admin3":"5926010"},{"geonameid":5933885,"name":"Cumberland","admin3":"5926014"},{"geonameid":12076644,"name":"Denman Island Trust Area","admin3":""},{"geonameid":5976999,"name":"Hornby Island","admin3":""},{"geonameid":6050987,"name":"Lazo","admin3":""},{"geonameid":6057154,"name":"Little River","admin3":""},{"geonameid":6114228,"name":"Puntledge","admin3":""},{"geonameid":6128795,"name":"Royston","admin3":""},{"geonameid":6140565,"name":"Sandwick","admin3":"5926010"},{"geonameid":6141147,"name":"Saratoga Beach","admin3":""},{"geonameid":6171951,"name":"Union Bay","admin3":""},{"geonameid":6182139,"name":"Williams Beach","admin3":""}],"admin3":[{"geonameid":12031883,"name":"Courtenay","admin3":"5926010"},{"geonameid":12031973,"name":"Comox","admin3":"5926005"},{"geonameid":12031974,"name":"Cumberland","admin3":"5926014"}],"alternateNames":[]},"__N_SSG":true}