{"pageProps":{"locale":"ro","admin2":{"geonameid":673975,"name":"Comuna Mălureni","country":"RO","admin1":"03","admin2":"17049","admin3":"","latitude":"45.0478000","longitude":"24.7787500"},"admin1":{"geonameid":686192,"name":"Argeş","admin1":"03"},"locations":[{"geonameid":685897,"name":"Bădiceni","admin3":""},{"geonameid":684353,"name":"Bohari","admin3":""},{"geonameid":683284,"name":"Bunești","admin3":""},{"geonameid":683154,"name":"Buteşti","admin3":""},{"geonameid":683088,"name":"Cacaleţi","admin3":""},{"geonameid":678413,"name":"Faţa Câmpului","admin3":""},{"geonameid":677211,"name":"Gârcica","admin3":""},{"geonameid":673977,"name":"Mălureni","admin3":""},{"geonameid":671235,"name":"Păuleasca","admin3":""},{"geonameid":666501,"name":"Solea","admin3":""},{"geonameid":666430,"name":"Şoptana","admin3":""},{"geonameid":664753,"name":"Toplița","admin3":""},{"geonameid":663866,"name":"Valea Buţii","admin3":""},{"geonameid":663567,"name":"Valea Moşului","admin3":""},{"geonameid":662286,"name":"Zărnești","admin3":""},{"geonameid":662215,"name":"Zgaboeşti","admin3":""}],"admin3":[],"alternateNames":[]},"__N_SSG":true}