{"pageProps":{"locale":"en","admin2":{"geonameid":4256524,"name":"Dearborn County","country":"US","admin1":"IN","admin2":"029","admin3":"","latitude":"39.1451900","longitude":"-84.9732600"},"admin1":{"geonameid":4921868,"name":"Indiana","admin1":"IN","localeAltName":"Indiana"},"locations":[{"geonameid":4048332,"name":"Aurora","admin3":"11278"},{"geonameid":4254944,"name":"Bright","admin3":"49464"},{"geonameid":4256645,"name":"Dillsboro","admin3":"13024"},{"geonameid":4258277,"name":"Greendale","admin3":"42480"},{"geonameid":4258871,"name":"Hidden Valley","admin3":"49464"},{"geonameid":4260223,"name":"Lawrenceburg","admin3":"42480"}],"admin3":[{"geonameid":4255291,"name":"Township of Caesar Creek","admin3":"09730"},{"geonameid":4255609,"name":"Township of Center","admin3":"11278"},{"geonameid":4255852,"name":"Township of Clay","admin3":"13024"},{"geonameid":4258609,"name":"Township of Harrison","admin3":"31720"},{"geonameid":4259006,"name":"Township of Hogan","admin3":"34222"},{"geonameid":4259591,"name":"Township of Jackson","admin3":"36900"},{"geonameid":4259872,"name":"Township of Kelso","admin3":"39330"},{"geonameid":4260225,"name":"Township of Lawrenceburg","admin3":"42480"},{"geonameid":4260668,"name":"Township of Logan","admin3":"44604"},{"geonameid":4260895,"name":"Township of Manchester","admin3":"46368"},{"geonameid":4261435,"name":"Township of Miller","admin3":"49464"},{"geonameid":4265131,"name":"Township of Sparta","admin3":"71738"},{"geonameid":4266613,"name":"Township of Washington","admin3":"80540"},{"geonameid":4267281,"name":"Township of York","admin3":"85958"}],"alternateNames":[{"alternatenameId":2124819,"geonameid":4921868,"isoLanguage":"en","alternateName":"Indiana","isPreferredName":true,"isShortName":true,"isColloquial":false,"isHistoric":false}]},"__N_SSG":true}