{"pageProps":{"locale":"en","admin2":{"geonameid":4922493,"name":"Lake County","country":"US","admin1":"IN","admin2":"089","admin3":"","latitude":"41.4722100","longitude":"-87.3763700"},"admin1":{"geonameid":4921868,"name":"Indiana","admin1":"IN","localeAltName":"Indiana"},"locations":[{"geonameid":4918805,"name":"Cedar Lake","admin3":"31252"},{"geonameid":4919451,"name":"Crown Point","admin3":"11476"},{"geonameid":4919820,"name":"Dyer","admin3":""},{"geonameid":4919857,"name":"East Chicago","admin3":"54414"},{"geonameid":4920607,"name":"Gary","admin3":"09820"},{"geonameid":4920986,"name":"Griffith","admin3":"09820"},{"geonameid":4921100,"name":"Hammond","admin3":"54414"},{"geonameid":4921402,"name":"Highland","admin3":"54414"},{"geonameid":4921476,"name":"Hobart","admin3":"34132"},{"geonameid":4922501,"name":"Lake Dalecarlia","admin3":"11026"},{"geonameid":4922541,"name":"Lake Station","admin3":"34132"},{"geonameid":4923041,"name":"Lowell","admin3":"11026"},{"geonameid":4923482,"name":"Merrillville","admin3":"66096"},{"geonameid":4924014,"name":"Munster","admin3":"54414"},{"geonameid":4924095,"name":"New Chicago","admin3":"34132"},{"geonameid":4925793,"name":"Saint John","admin3":""},{"geonameid":4926170,"name":"Schererville","admin3":""},{"geonameid":4928208,"name":"Whiting","admin3":"54414"},{"geonameid":4928354,"name":"Winfield","admin3":"84896"}],"admin3":[{"geonameid":4918645,"name":"Township of Calumet","admin3":"09820"},{"geonameid":4918802,"name":"Township of Cedar Creek","admin3":"11026"},{"geonameid":4918861,"name":"Township of Center","admin3":"11476"},{"geonameid":4919835,"name":"Township of Eagle Creek","admin3":"19306"},{"geonameid":4921143,"name":"Township of Hanover","admin3":"31252"},{"geonameid":4921488,"name":"Township of Hobart","admin3":"34132"},{"geonameid":4924279,"name":"Township of North","admin3":"54414"},{"geonameid":4925607,"name":"Township of Ross","admin3":"66096"},{"geonameid":4928056,"name":"Township of West Creek","admin3":"82574"},{"geonameid":4928332,"name":"Township of Winfield","admin3":"84896"}],"alternateNames":[{"alternatenameId":2124819,"geonameid":4921868,"isoLanguage":"en","alternateName":"Indiana","isPreferredName":true,"isShortName":true,"isColloquial":false,"isHistoric":false}]},"__N_SSG":true}