{"pageProps":{"locale":"en","admin2":{"geonameid":4262595,"name":"Orange County","country":"US","admin1":"IN","admin2":"117","admin3":"","latitude":"38.5417800","longitude":"-86.4950700"},"admin1":{"geonameid":4921868,"name":"Indiana","admin1":"IN","localeAltName":"Indiana"},"locations":[{"geonameid":4257770,"name":"French Lick","admin3":"25990"},{"geonameid":4262618,"name":"Orleans","admin3":"57042"},{"geonameid":4262762,"name":"Paoli","admin3":"57798"}],"admin3":[{"geonameid":4257772,"name":"Township of French Lick","admin3":"25990"},{"geonameid":4258290,"name":"Township of Greenfield","admin3":"29556"},{"geonameid":4259601,"name":"Township of Jackson","admin3":"37260"},{"geonameid":4262332,"name":"Township of Northeast","admin3":"54648"},{"geonameid":4262347,"name":"Township of Northwest","admin3":"55152"},{"geonameid":4262601,"name":"Township of Orangeville","admin3":"56826"},{"geonameid":4262625,"name":"Township of Orleans","admin3":"57042"},{"geonameid":4262760,"name":"Township of Paoli","admin3":"57798"},{"geonameid":4265099,"name":"Township of Southeast","admin3":"71090"},{"geonameid":4265267,"name":"Township of Stampers Creek","admin3":"72548"}],"alternateNames":[{"alternatenameId":2124819,"geonameid":4921868,"isoLanguage":"en","alternateName":"Indiana","isPreferredName":true,"isShortName":true,"isColloquial":false,"isHistoric":false}]},"__N_SSG":true}