{"pageProps":{"locale":"en","admin2":{"geonameid":4265152,"name":"Spencer County","country":"US","admin1":"IN","admin2":"147","admin3":"","latitude":"38.0140600","longitude":"-87.0077100"},"admin1":{"geonameid":4921868,"name":"Indiana","admin1":"IN","localeAltName":"Indiana"},"locations":[{"geonameid":4256426,"name":"Dale","admin3":"10576"},{"geonameid":4263856,"name":"Rockport","admin3":"56160"},{"geonameid":4264457,"name":"Santa Claus","admin3":"10576"}],"admin3":[{"geonameid":4255499,"name":"Township of Carter","admin3":"10576"},{"geonameid":4255859,"name":"Township of Clay","admin3":"13240"},{"geonameid":4258176,"name":"Township of Grass","admin3":"28944"},{"geonameid":4258471,"name":"Township of Hammond","admin3":"31018"},{"geonameid":4258616,"name":"Township of Harrison","admin3":"31990"},{"geonameid":4259232,"name":"Township of Huff","admin3":"35140"},{"geonameid":4259607,"name":"Township of Jackson","admin3":"37422"},{"geonameid":4260792,"name":"Township of Luce","admin3":"45216"},{"geonameid":4262467,"name":"Township of Ohio","admin3":"56160"}],"alternateNames":[{"alternatenameId":2124819,"geonameid":4921868,"isoLanguage":"en","alternateName":"Indiana","isPreferredName":true,"isShortName":true,"isColloquial":false,"isHistoric":false}]},"__N_SSG":true}