{"pageProps":{"locale":"en","admin2":{"geonameid":4129533,"name":"Saint Francis County","country":"US","admin1":"AR","admin2":"123","admin3":"","latitude":"35.0220000","longitude":"-90.7477800"},"admin1":{"geonameid":4099753,"name":"Arkansas","admin1":"AR","localeAltName":"Arkansas"},"locations":[{"geonameid":4111382,"name":"Forrest City","admin3":"92340"},{"geonameid":4115578,"name":"Hughes","admin3":"91437"}],"admin3":[{"geonameid":4102036,"name":"Township of Black Fish","admin3":"90321"},{"geonameid":4111615,"name":"Township of Franks","admin3":"91368"},{"geonameid":4112064,"name":"Township of Garland","admin3":"91437"},{"geonameid":4112598,"name":"Township of Goodwin","admin3":"91482"},{"geonameid":4113219,"name":"Township of Griggs","admin3":"91539"},{"geonameid":4114447,"name":"Township of Heth","admin3":"91680"},{"geonameid":4116736,"name":"Township of Johnson","admin3":"91980"},{"geonameid":4117713,"name":"Township of L'Anguille","admin3":"92118"},{"geonameid":4120282,"name":"Township of Madison","admin3":"92340"},{"geonameid":4127409,"name":"Township of Prairie","admin3":"93009"},{"geonameid":4133298,"name":"Township of Telico","admin3":"93588"},{"geonameid":4136042,"name":"Township of Wheatley","admin3":"93981"}],"alternateNames":[{"alternatenameId":1979420,"geonameid":4099753,"isoLanguage":"en","alternateName":"Arkansas","isPreferredName":true,"isShortName":true,"isColloquial":false,"isHistoric":false}]},"__N_SSG":true}