{"pageProps":{"locale":"en","admin2":{"geonameid":4132456,"name":"Stone County","country":"US","admin1":"AR","admin2":"137","admin3":"","latitude":"35.8598700","longitude":"-92.1566800"},"admin1":{"geonameid":4099753,"name":"Arkansas","admin1":"AR","localeAltName":"Arkansas"},"locations":[{"geonameid":4122986,"name":"Mountain View","admin3":"90366"}],"admin3":[{"geonameid":4102346,"name":"Township of Blue Mountain","admin3":"90366"},{"geonameid":4103446,"name":"Township of Bryan","admin3":"90519"},{"geonameid":4110454,"name":"Township of Farris","admin3":"91275"},{"geonameid":4111085,"name":"Township of Flag","admin3":"91296"},{"geonameid":4111612,"name":"Township of Franklin","admin3":"91362"},{"geonameid":4113950,"name":"Township of Harris","admin3":"91614"},{"geonameid":4116833,"name":"Township of Jones","admin3":"92001"},{"geonameid":4118875,"name":"Township of Liberty","admin3":"92187"},{"geonameid":4119552,"name":"Township of Locust Grove","admin3":"92244"},{"geonameid":4124212,"name":"Township of Northwest","admin3":"92724"},{"geonameid":4128076,"name":"Township of Red River","admin3":"93090"},{"geonameid":4128132,"name":"Township of Red Stripe","admin3":"93099"},{"geonameid":4128372,"name":"Township of Richwoods","admin3":"93177"},{"geonameid":4128569,"name":"Township of Roasting Ear","admin3":"93207"},{"geonameid":4131414,"name":"Township of Smart","admin3":"93402"},{"geonameid":4133071,"name":"Township of Sylamore","admin3":"93567"},{"geonameid":4133608,"name":"Township of Timbo","admin3":"93609"},{"geonameid":4134056,"name":"Township of Turkey Creek","admin3":"93651"},{"geonameid":4134466,"name":"Township of Union","admin3":"93726"},{"geonameid":4135421,"name":"Township of Washington","admin3":"93930"},{"geonameid":4136760,"name":"Township of Wilson","admin3":"94092"},{"geonameid":7172156,"name":"Township of Arbana","admin3":"90053"},{"geonameid":7172178,"name":"Township of Marcella","admin3":"92374"},{"geonameid":7172606,"name":"Township of Optimus","admin3":"92764"}],"alternateNames":[{"alternatenameId":1979420,"geonameid":4099753,"isoLanguage":"en","alternateName":"Arkansas","isPreferredName":true,"isShortName":true,"isColloquial":false,"isHistoric":false}]},"__N_SSG":true}