{"pageProps":{"locale":"en","admin2":{"geonameid":4137047,"name":"Woodruff County","country":"US","admin1":"AR","admin2":"147","admin3":"","latitude":"35.1863300","longitude":"-91.2430700"},"admin1":{"geonameid":4099753,"name":"Arkansas","admin1":"AR","localeAltName":"Arkansas"},"locations":[{"geonameid":4099952,"name":"Augusta","admin3":"90078"},{"geonameid":4120981,"name":"McCrory","admin3":"91092"}],"admin3":[{"geonameid":4099960,"name":"Township of Augusta","admin3":"90078"},{"geonameid":4100385,"name":"Township of Barnes","admin3":"90114"},{"geonameid":4103982,"name":"Township of Cache","admin3":"90588"},{"geonameid":4104515,"name":"Township of Caney","admin3":"90657"},{"geonameid":4106736,"name":"Township of Cotton Plant","admin3":"90927"},{"geonameid":4107822,"name":"Township of De View","admin3":"91092"},{"geonameid":4108060,"name":"Township of Dent","admin3":"91068"},{"geonameid":4111616,"name":"Township of Franks","admin3":"91371"},{"geonameid":4111688,"name":"Township of Freeman","admin3":"91380"},{"geonameid":4112027,"name":"Township of Garden","admin3":"91419"},{"geonameid":4126985,"name":"Township of Point","admin3":"92934"},{"geonameid":4127654,"name":"Township of Pumpkin Bend","admin3":"93045"},{"geonameid":4136282,"name":"Township of White River","admin3":"94029"}],"alternateNames":[{"alternatenameId":1979420,"geonameid":4099753,"isoLanguage":"en","alternateName":"Arkansas","isPreferredName":true,"isShortName":true,"isColloquial":false,"isHistoric":false}]},"__N_SSG":true}