{"pageProps":{"locale":"en","admin2":{"geonameid":5091860,"name":"Rockingham County","country":"US","admin1":"NH","admin2":"015","admin3":"","latitude":"42.9845400","longitude":"-71.0889700"},"admin1":{"geonameid":5090174,"name":"New Hampshire","admin1":"NH","localeAltName":"New Hampshire"},"locations":[{"geonameid":5082790,"name":"Atkinson","admin3":"02340"},{"geonameid":5082811,"name":"Auburn","admin3":"02820"},{"geonameid":5083780,"name":"Brentwood","admin3":"07220"},{"geonameid":5084165,"name":"Candia","admin3":"09300"},{"geonameid":5084518,"name":"Chester","admin3":"12100"},{"geonameid":5085244,"name":"Danville","admin3":"17140"},{"geonameid":5085374,"name":"Derry","admin3":"17940"},{"geonameid":5085382,"name":"Derry Village","admin3":"17940"},{"geonameid":5085719,"name":"East Kingston","admin3":"21380"},{"geonameid":5085913,"name":"Epping","admin3":"24660"},{"geonameid":5085966,"name":"Exeter","admin3":"25380"},{"geonameid":5086383,"name":"Fremont","admin3":"27940"},{"geonameid":5086915,"name":"Greenland","admin3":"31700"},{"geonameid":5087105,"name":"Hampstead","admin3":"32900"},{"geonameid":5087110,"name":"Hampton","admin3":"33060"},{"geonameid":5087114,"name":"Hampton Beach","admin3":"33060"},{"geonameid":5087122,"name":"Hampton Falls","admin3":"33460"},{"geonameid":5088311,"name":"Kensington","admin3":"39780"},{"geonameid":5088377,"name":"Kingston","admin3":"40100"},{"geonameid":5088905,"name":"Londonderry","admin3":"43220"},{"geonameid":5090100,"name":"New Castle","admin3":"50980"},{"geonameid":5090246,"name":"Newmarket","admin3":"52340"},{"geonameid":5090268,"name":"Newton","admin3":"52900"},{"geonameid":5090383,"name":"North Hampton","admin3":"54580"},{"geonameid":5090470,"name":"Northwood","admin3":"56820"},{"geonameid":5090496,"name":"Nottingham","admin3":"57460"},{"geonameid":5091273,"name":"Plaistow","admin3":"62500"},{"geonameid":5091383,"name":"Portsmouth","admin3":"62900"},{"geonameid":5091636,"name":"Raymond","admin3":"64020"},{"geonameid":5092018,"name":"Rye","admin3":"66180"},{"geonameid":5092268,"name":"Salem","admin3":"66660"},{"geonameid":5092364,"name":"Sandown","admin3":"67620"},{"geonameid":5092485,"name":"Seabrook","admin3":"68260"},{"geonameid":5093259,"name":"Stratham Station","admin3":"74340"},{"geonameid":5094817,"name":"Windham","admin3":"85780"}],"admin3":[{"geonameid":5082798,"name":"Town of Atkinson","admin3":"02340"},{"geonameid":5082816,"name":"Town of Auburn","admin3":"02820"},{"geonameid":5083783,"name":"Town of Brentwood","admin3":"07220"},{"geonameid":5084171,"name":"Town of Candia","admin3":"09300"},{"geonameid":5084523,"name":"Town of Chester","admin3":"12100"},{"geonameid":5085248,"name":"Town of Danville","admin3":"17140"},{"geonameid":5085350,"name":"Town of Deerfield","admin3":"17460"},{"geonameid":5085384,"name":"Town of Derry","admin3":"17940"},{"geonameid":5085723,"name":"Town of East Kingston","admin3":"21380"},{"geonameid":5085917,"name":"Town of Epping","admin3":"24660"},{"geonameid":5085986,"name":"Town of Exeter","admin3":"25380"},{"geonameid":5086385,"name":"Town of Fremont","admin3":"27940"},{"geonameid":5086922,"name":"Town of Greenland","admin3":"31700"},{"geonameid":5087109,"name":"Town of Hampstead","admin3":"32900"},{"geonameid":5087130,"name":"Town of Hampton Falls","admin3":"33460"},{"geonameid":5087145,"name":"Town of Hampton","admin3":"33060"},{"geonameid":5088300,"name":"Town of Kensington","admin3":"39780"},{"geonameid":5088381,"name":"Town of Kingston","admin3":"40100"},{"geonameid":5088921,"name":"Town of Londonderry","admin3":"43220"},{"geonameid":5090105,"name":"Town of New Castle","admin3":"50980"},{"geonameid":5090221,"name":"Town of Newfields","admin3":"51380"},{"geonameid":5090244,"name":"Town of Newington","admin3":"51620"},{"geonameid":5090255,"name":"Town of Newmarket","admin3":"52340"},{"geonameid":5090271,"name":"Town of Newton","admin3":"52900"},{"geonameid":5090374,"name":"Town of North Hampton","admin3":"54580"},{"geonameid":5090478,"name":"Town of Northwood","admin3":"56820"},{"geonameid":5090503,"name":"Town of Nottingham","admin3":"57460"},{"geonameid":5091276,"name":"Town of Plaistow","admin3":"62500"},{"geonameid":5091402,"name":"City of Portsmouth","admin3":"62900"},{"geonameid":5091640,"name":"Town of Raymond","admin3":"64020"},{"geonameid":5092031,"name":"Town of Rye","admin3":"66180"},{"geonameid":5092275,"name":"Town of Salem","admin3":"66660"},{"geonameid":5092368,"name":"Town of Sandown","admin3":"67620"},{"geonameid":5092492,"name":"Town of Seabrook","admin3":"68260"},{"geonameid":5092897,"name":"Town of South Hampton","admin3":"71140"},{"geonameid":5093261,"name":"Town of Stratham","admin3":"74340"},{"geonameid":5094824,"name":"Town of Windham","admin3":"85780"}],"alternateNames":[{"alternatenameId":1980215,"geonameid":5090174,"isoLanguage":"en","alternateName":"New Hampshire","isPreferredName":true,"isShortName":true,"isColloquial":false,"isHistoric":false}]},"__N_SSG":true}