{"pageProps":{"locale":"en","admin1":{"geonameid":4971068,"name":"Maine","country":"US","admin1":"ME","latitude":"45.5003200","longitude":"-69.2497700"},"admin2":[{"geonameid":4956755,"name":"Androscoggin County","admin2":"001"},{"geonameid":4956873,"name":"Aroostook County","admin2":"003"},{"geonameid":4961900,"name":"Cumberland County","admin2":"005"},{"geonameid":4964821,"name":"Franklin County","admin2":"007"},{"geonameid":4966407,"name":"Hancock County","admin2":"009"},{"geonameid":4968714,"name":"Kennebec County","admin2":"011"},{"geonameid":4968996,"name":"Knox County","admin2":"013"},{"geonameid":4969555,"name":"Lincoln County","admin2":"015"},{"geonameid":4974522,"name":"Oxford County","admin2":"017"},{"geonameid":4974977,"name":"Penobscot County","admin2":"019"},{"geonameid":4975418,"name":"Piscataquis County","admin2":"021"},{"geonameid":4977278,"name":"Sagadahoc County","admin2":"023"},{"geonameid":4978972,"name":"Somerset County","admin2":"025"},{"geonameid":4982040,"name":"Waldo County","admin2":"027"},{"geonameid":4982182,"name":"Washington County","admin2":"029"},{"geonameid":4983621,"name":"York County","admin2":"031"}],"admin3":[],"country":{"geonameid":6252001,"country":"US","name":"United States"},"alternateNames":[{"alternatenameId":2422318,"geonameid":6252001,"isoLanguage":"de","alternateName":"USA","isPreferredName":true,"isShortName":true,"isColloquial":false,"isHistoric":false}]},"__N_SSG":true}