{"pageProps":{"locale":"en","admin1":{"geonameid":5037779,"name":"Minnesota","country":"US","admin1":"MN","latitude":"46.2502400","longitude":"-94.2505500","localeAltName":"Minnesota"},"admin2":[{"geonameid":5015979,"name":"Aitkin County","admin2":"001","localeAltName":null},{"geonameid":5016452,"name":"Anoka County","admin2":"003","localeAltName":null},{"geonameid":5017670,"name":"Becker County","admin2":"005","localeAltName":null},{"geonameid":5017805,"name":"Beltrami County","admin2":"007","localeAltName":null},{"geonameid":5017916,"name":"Benton County","admin2":"009","localeAltName":null},{"geonameid":5018364,"name":"Big Stone County","admin2":"011","localeAltName":null},{"geonameid":5018756,"name":"Blue Earth County","admin2":"013","localeAltName":null},{"geonameid":5019385,"name":"Brown County","admin2":"015","localeAltName":null},{"geonameid":5020429,"name":"Carlton County","admin2":"017","localeAltName":null},{"geonameid":5020499,"name":"Carver County","admin2":"019","localeAltName":null},{"geonameid":5020546,"name":"Cass County","admin2":"021","localeAltName":null},{"geonameid":5021038,"name":"Chippewa County","admin2":"023","localeAltName":null},{"geonameid":5021070,"name":"Chisago County","admin2":"025","localeAltName":null},{"geonameid":5021444,"name":"Clay County","admin2":"027","localeAltName":null},{"geonameid":5021535,"name":"Clearwater County","admin2":"029","localeAltName":null},{"geonameid":5021977,"name":"Cook County","admin2":"031","localeAltName":null},{"geonameid":5022154,"name":"Cottonwood County","admin2":"033","localeAltName":null},{"geonameid":5023545,"name":"Crow Wing County","admin2":"035","localeAltName":null},{"geonameid":5023752,"name":"Dakota County","admin2":"037","localeAltName":null},{"geonameid":5024432,"name":"Dodge County","admin2":"039","localeAltName":null},{"geonameid":5024544,"name":"Douglas County","admin2":"041","localeAltName":null},{"geonameid":5026292,"name":"Faribault County","admin2":"043","localeAltName":null},{"geonameid":5026478,"name":"Fillmore County","admin2":"045","localeAltName":null},{"geonameid":5027399,"name":"Freeborn County","admin2":"047","localeAltName":null},{"geonameid":5028232,"name":"Goodhue County","admin2":"049","localeAltName":null},{"geonameid":5028615,"name":"Grant County","admin2":"051","localeAltName":null},{"geonameid":5029877,"name":"Hennepin County","admin2":"053","localeAltName":null},{"geonameid":5030806,"name":"Houston County","admin2":"055","localeAltName":null},{"geonameid":5030862,"name":"Hubbard County","admin2":"057","localeAltName":null},{"geonameid":5031493,"name":"Isanti County","admin2":"059","localeAltName":null},{"geonameid":5031616,"name":"Itasca County","admin2":"061","localeAltName":null},{"geonameid":5031682,"name":"Jackson County","admin2":"063","localeAltName":null},{"geonameid":5032855,"name":"Kanabec County","admin2":"065","localeAltName":null},{"geonameid":5032867,"name":"Kandiyohi County","admin2":"067","localeAltName":null},{"geonameid":5033353,"name":"Kittson County","admin2":"069","localeAltName":null},{"geonameid":5033463,"name":"Koochiching County","admin2":"071","localeAltName":null},{"geonameid":5033637,"name":"Lac qui Parle County","admin2":"073","localeAltName":null},{"geonameid":5033738,"name":"Lake County","admin2":"075","localeAltName":null},{"geonameid":5033955,"name":"Lake of the Woods County","admin2":"077","localeAltName":null},{"geonameid":5034327,"name":"Le Sueur County","admin2":"079","localeAltName":null},{"geonameid":5034652,"name":"Lincoln County","admin2":"081","localeAltName":null},{"geonameid":5036131,"name":"Lyon County","admin2":"083","localeAltName":null},{"geonameid":5036279,"name":"Mahnomen County","admin2":"087","localeAltName":null},{"geonameid":5036734,"name":"Marshall County","admin2":"089","localeAltName":null},{"geonameid":5036797,"name":"Martin County","admin2":"091","localeAltName":null},{"geonameid":5037083,"name":"McLeod County","admin2":"085","localeAltName":null},{"geonameid":5037200,"name":"Meeker County","admin2":"093","localeAltName":null},{"geonameid":5037515,"name":"Mille Lacs County","admin2":"095","localeAltName":null},{"geonameid":5038318,"name":"Morrison County","admin2":"097","localeAltName":null},{"geonameid":5038458,"name":"Mower County","admin2":"099","localeAltName":null},{"geonameid":5038801,"name":"Murray County","admin2":"101","localeAltName":null},{"geonameid":5039249,"name":"Nicollet County","admin2":"103","localeAltName":null},{"geonameid":5039323,"name":"Nobles County","admin2":"105","localeAltName":null},{"geonameid":5039381,"name":"Norman County","admin2":"107","localeAltName":null},{"geonameid":5040211,"name":"Olmsted County","admin2":"109","localeAltName":null},{"geonameid":5040515,"name":"Otter Tail County","admin2":"111","localeAltName":null},{"geonameid":5041121,"name":"Pennington County","admin2":"113","localeAltName":null},{"geonameid":5041542,"name":"Pine County","admin2":"115","localeAltName":null},{"geonameid":5041756,"name":"Pipestone County","admin2":"117","localeAltName":null},{"geonameid":5041970,"name":"Polk County","admin2":"119","localeAltName":null},{"geonameid":5042066,"name":"Pope County","admin2":"121","localeAltName":null},{"geonameid":5042563,"name":"Ramsey County","admin2":"123","localeAltName":null},{"geonameid":5042730,"name":"Red Lake County","admin2":"125","localeAltName":null},{"geonameid":5042847,"name":"Redwood County","admin2":"127","localeAltName":null},{"geonameid":5042928,"name":"Renville County","admin2":"129","localeAltName":null},{"geonameid":5043007,"name":"Rice County","admin2":"131","localeAltName":null},{"geonameid":5043502,"name":"Rock County","admin2":"133","localeAltName":null},{"geonameid":5043753,"name":"Roseau County","admin2":"135","localeAltName":null},{"geonameid":5045020,"name":"Saint Louis County","admin2":"137","localeAltName":null},{"geonameid":5046749,"name":"Scott County","admin2":"139","localeAltName":null},{"geonameid":5047121,"name":"Sherburne County","admin2":"141","localeAltName":null},{"geonameid":5047260,"name":"Sibley County","admin2":"143","localeAltName":null},{"geonameid":5048685,"name":"Stearns County","admin2":"145","localeAltName":null},{"geonameid":5048696,"name":"Steele County","admin2":"147","localeAltName":null},{"geonameid":5048759,"name":"Stevens County","admin2":"149","localeAltName":null},{"geonameid":5049534,"name":"Swift County","admin2":"151","localeAltName":null},{"geonameid":5050162,"name":"Todd County","admin2":"153","localeAltName":null},{"geonameid":5050331,"name":"Traverse County","admin2":"155","localeAltName":null},{"geonameid":5051601,"name":"Wabasha County","admin2":"157","localeAltName":null},{"geonameid":5051662,"name":"Wadena County","admin2":"159","localeAltName":null},{"geonameid":5051907,"name":"Waseca County","admin2":"161","localeAltName":null},{"geonameid":5051936,"name":"Washington County","admin2":"163","localeAltName":null},{"geonameid":5052059,"name":"Watonwan County","admin2":"165","localeAltName":null},{"geonameid":5052862,"name":"Wilkin County","admin2":"167","localeAltName":null},{"geonameid":5053164,"name":"Winona County","admin2":"169","localeAltName":null},{"geonameid":5053485,"name":"Wright County","admin2":"171","localeAltName":null},{"geonameid":5053562,"name":"Yellow Medicine County","admin2":"173","localeAltName":null}],"admin3":[],"country":{"geonameid":6252001,"country":"US","name":"United States","localeAltName":null},"alternateNames":[{"alternatenameId":2089541,"geonameid":5037779,"isoLanguage":"en","alternateName":"Minnesota","isPreferredName":true,"isShortName":true,"isColloquial":false,"isHistoric":false},{"alternatenameId":2422318,"geonameid":6252001,"isoLanguage":"de","alternateName":"USA","isPreferredName":true,"isShortName":true,"isColloquial":false,"isHistoric":false}]},"__N_SSG":true}