{"pageProps":{"locale":"en","admin1":{"geonameid":5769223,"name":"South Dakota","country":"US","admin1":"SD","latitude":"44.5002600","longitude":"-100.2506900","localeAltName":"South Dakota"},"admin2":[{"geonameid":5226093,"name":"Aurora County","admin2":"003","localeAltName":null},{"geonameid":5226183,"name":"Beadle County","admin2":"005","localeAltName":null},{"geonameid":5762756,"name":"Bennett County","admin2":"007","localeAltName":null},{"geonameid":5226441,"name":"Bon Homme County","admin2":"009","localeAltName":null},{"geonameid":5226536,"name":"Brookings County","admin2":"011","localeAltName":null},{"geonameid":5226553,"name":"Brown County","admin2":"013","localeAltName":null},{"geonameid":5226565,"name":"Brule County","admin2":"015","localeAltName":null},{"geonameid":5226588,"name":"Buffalo County","admin2":"017","localeAltName":null},{"geonameid":5763234,"name":"Butte County","admin2":"019","localeAltName":null},{"geonameid":5763333,"name":"Campbell County","admin2":"021","localeAltName":null},{"geonameid":5226849,"name":"Charles Mix County","admin2":"023","localeAltName":null},{"geonameid":5226904,"name":"Clark County","admin2":"025","localeAltName":null},{"geonameid":5226973,"name":"Clay County","admin2":"027","localeAltName":null},{"geonameid":5226970,"name":"Codington County","admin2":"029","localeAltName":null},{"geonameid":5763761,"name":"Corson County","admin2":"031","localeAltName":null},{"geonameid":5763916,"name":"Custer County","admin2":"033","localeAltName":null},{"geonameid":5227222,"name":"Davison County","admin2":"035","localeAltName":null},{"geonameid":5227240,"name":"Day County","admin2":"037","localeAltName":null},{"geonameid":5227295,"name":"Deuel County","admin2":"039","localeAltName":null},{"geonameid":5764119,"name":"Dewey County","admin2":"041","localeAltName":null},{"geonameid":5227372,"name":"Douglas County","admin2":"043","localeAltName":null},{"geonameid":5227535,"name":"Edmunds County","admin2":"045","localeAltName":null},{"geonameid":5764690,"name":"Fall River County","admin2":"047","localeAltName":null},{"geonameid":5227752,"name":"Faulk County","admin2":"049","localeAltName":null},{"geonameid":5228179,"name":"Grant County","admin2":"051","localeAltName":null},{"geonameid":5228223,"name":"Gregory County","admin2":"053","localeAltName":null},{"geonameid":5765294,"name":"Haakon County","admin2":"055","localeAltName":null},{"geonameid":5228291,"name":"Hamlin County","admin2":"057","localeAltName":null},{"geonameid":5228302,"name":"Hand County","admin2":"059","localeAltName":null},{"geonameid":5228308,"name":"Hanson County","admin2":"061","localeAltName":null},{"geonameid":5765341,"name":"Harding County","admin2":"063","localeAltName":null},{"geonameid":5228654,"name":"Hughes County","admin2":"065","localeAltName":null},{"geonameid":5228688,"name":"Hutchinson County","admin2":"067","localeAltName":null},{"geonameid":5228693,"name":"Hyde County","admin2":"069","localeAltName":null},{"geonameid":5765964,"name":"Jackson County","admin2":"071","localeAltName":null},{"geonameid":5228817,"name":"Jerauld County","admin2":"073","localeAltName":null},{"geonameid":5766096,"name":"Jones County","admin2":"075","localeAltName":null},{"geonameid":5228997,"name":"Kingsbury County","admin2":"077","localeAltName":null},{"geonameid":5229128,"name":"Lake County","admin2":"079","localeAltName":null},{"geonameid":5766411,"name":"Lawrence County","admin2":"081","localeAltName":null},{"geonameid":5229313,"name":"Lincoln County","admin2":"083","localeAltName":null},{"geonameid":5229494,"name":"Lyman County","admin2":"085","localeAltName":null},{"geonameid":5229574,"name":"Marshall County","admin2":"091","localeAltName":null},{"geonameid":5229622,"name":"McCook County","admin2":"087","localeAltName":null},{"geonameid":5229653,"name":"McPherson County","admin2":"089","localeAltName":null},{"geonameid":5767000,"name":"Meade County","admin2":"093","localeAltName":null},{"geonameid":5767033,"name":"Mellette County","admin2":"095","localeAltName":null},{"geonameid":5229775,"name":"Miner County","admin2":"097","localeAltName":null},{"geonameid":5229782,"name":"Minnehaha County","admin2":"099","localeAltName":null},{"geonameid":5229837,"name":"Moody County","admin2":"101","localeAltName":null},{"geonameid":5768976,"name":"Oglala Lakota County","admin2":"102","localeAltName":null},{"geonameid":5767840,"name":"Pennington County","admin2":"103","localeAltName":null},{"geonameid":5767864,"name":"Perkins County","admin2":"105","localeAltName":null},{"geonameid":5230591,"name":"Potter County","admin2":"107","localeAltName":null},{"geonameid":5230872,"name":"Roberts County","admin2":"109","localeAltName":null},{"geonameid":5231251,"name":"Sanborn County","admin2":"111","localeAltName":null},{"geonameid":5231992,"name":"Spink County","admin2":"115","localeAltName":null},{"geonameid":5769386,"name":"Stanley County","admin2":"117","localeAltName":null},{"geonameid":5769502,"name":"Sully County","admin2":"119","localeAltName":null},{"geonameid":5769778,"name":"Todd County","admin2":"121","localeAltName":null},{"geonameid":5232417,"name":"Tripp County","admin2":"123","localeAltName":null},{"geonameid":5232458,"name":"Turner County","admin2":"125","localeAltName":null},{"geonameid":5232511,"name":"Union County","admin2":"127","localeAltName":null},{"geonameid":5232702,"name":"Walworth County","admin2":"129","localeAltName":null},{"geonameid":5233056,"name":"Yankton County","admin2":"135","localeAltName":null},{"geonameid":5770576,"name":"Ziebach County","admin2":"137","localeAltName":null}],"admin3":[],"country":{"geonameid":6252001,"country":"US","name":"United States","localeAltName":null},"alternateNames":[{"alternatenameId":2089551,"geonameid":5769223,"isoLanguage":"en","alternateName":"South Dakota","isPreferredName":true,"isShortName":true,"isColloquial":false,"isHistoric":false},{"alternatenameId":2422318,"geonameid":6252001,"isoLanguage":"de","alternateName":"USA","isPreferredName":true,"isShortName":true,"isColloquial":false,"isHistoric":false}]},"__N_SSG":true}