{"pageProps":{"locale":"en","admin2":{"geonameid":4456243,"name":"Bladen County","country":"US","admin1":"NC","admin2":"017","admin3":"","latitude":"34.6143100","longitude":"-78.5631800","localeAltName":null},"admin1":{"geonameid":4482348,"name":"North Carolina","admin1":"NC","localeAltName":"North Carolina"},"locations":[{"geonameid":4456253,"name":"Bladenboro","admin3":"90296","localeAltName":null},{"geonameid":4460910,"name":"Clarkton","admin3":"90392","localeAltName":null},{"geonameid":4465106,"name":"Elizabethtown","admin3":"91000","localeAltName":null},{"geonameid":4474123,"name":"Kelly","admin3":"91180","localeAltName":null},{"geonameid":4498603,"name":"White Lake","admin3":"90724","localeAltName":null}],"admin3":[{"geonameid":4452127,"name":"Township of Abbotts","admin3":"90004"},{"geonameid":4455309,"name":"Township of Bethel","admin3":"90244"},{"geonameid":4456258,"name":"Township of Bladenboro","admin3":"90296","localeAltName":null},{"geonameid":4457497,"name":"Township of Brown Marsh","admin3":"90392","localeAltName":null},{"geonameid":4459465,"name":"Township of Carvers Creek","admin3":"90528"},{"geonameid":4460071,"name":"Township of Central","admin3":"90604"},{"geonameid":4461463,"name":"Township of Colly","admin3":"90724","localeAltName":null},{"geonameid":4462845,"name":"Township of Cypress Creek","admin3":"90860"},{"geonameid":4465111,"name":"Township of Elizabethtown","admin3":"91000","localeAltName":null},{"geonameid":4467273,"name":"Township of Frenches Creek","admin3":"91180","localeAltName":null},{"geonameid":4471570,"name":"Township of Hollow","admin3":"91508"},{"geonameid":4474704,"name":"Township of Lake Creek","admin3":"91720"},{"geonameid":4495938,"name":"Township of Turnbull","admin3":"93784"},{"geonameid":4498705,"name":"Township of White Oak","admin3":"93964"},{"geonameid":4498863,"name":"Township of Whites Creek","admin3":"93992"}],"alternateNames":[{"alternatenameId":2089560,"geonameid":4482348,"isoLanguage":"en","alternateName":"North Carolina","isPreferredName":true,"isShortName":true,"isColloquial":false,"isHistoric":false}]},"__N_SSG":true}