{"pageProps":{"locale":"en","admin2":{"geonameid":4499127,"name":"Wilkes County","country":"US","admin1":"NC","admin2":"193","admin3":"","latitude":"36.2062100","longitude":"-81.1629200","localeAltName":null},"admin1":{"geonameid":4482348,"name":"North Carolina","admin1":"NC","localeAltName":"North Carolina"},"locations":[{"geonameid":4462501,"name":"Cricket","admin3":"92628","localeAltName":null},{"geonameid":4465700,"name":"Fairplains","admin3":"92332","localeAltName":null},{"geonameid":4470384,"name":"Hays","admin3":"92720","localeAltName":null},{"geonameid":4479602,"name":"Millers Creek","admin3":"92628","localeAltName":null},{"geonameid":4480150,"name":"Moravian Falls","admin3":"92116","localeAltName":null},{"geonameid":4481212,"name":"Mulberry","admin3":"92184","localeAltName":null},{"geonameid":4482577,"name":"North Wilkesboro","admin3":"92332","localeAltName":null},{"geonameid":4485807,"name":"Pleasant Hill","admin3":"90976","localeAltName":null},{"geonameid":4499138,"name":"Wilkesboro","admin3":"94012","localeAltName":null}],"admin3":[{"geonameid":4452803,"name":"Township of Antioch","admin3":"90072"},{"geonameid":4454425,"name":"Township of Beaver Creek","admin3":"90184"},{"geonameid":4456700,"name":"Township of Boomer","admin3":"90324"},{"geonameid":4457647,"name":"Township of Brushy Mountain","admin3":"90408"},{"geonameid":4465010,"name":"Township of Edwards","admin3":"90976","localeAltName":null},{"geonameid":4465154,"name":"Township of Elk","admin3":"91012"},{"geonameid":4473416,"name":"Township of Jobs Cabin","admin3":"91664"},{"geonameid":4475746,"name":"Township of Lewis Fork","admin3":"91788"},{"geonameid":4477337,"name":"Township of Lovelace","admin3":"91908"},{"geonameid":4480151,"name":"Township of Moravian Falls","admin3":"92116","localeAltName":null},{"geonameid":4481241,"name":"Township of Mulberry","admin3":"92184","localeAltName":null},{"geonameid":4481729,"name":"Township of New Castle","admin3":"92236"},{"geonameid":4482581,"name":"Township of North Wilkesboro","admin3":"92332","localeAltName":null},{"geonameid":4487459,"name":"Township of Reddies River","admin3":"92628","localeAltName":null},{"geonameid":4488466,"name":"Township of Rock Creek","admin3":"92720","localeAltName":null},{"geonameid":4492448,"name":"Township of Somers","admin3":"93024"},{"geonameid":4493248,"name":"Township of Stanton","admin3":"93092"},{"geonameid":4495553,"name":"Township of Traphill","admin3":"93756"},{"geonameid":4496303,"name":"Township of Union","admin3":"93820"},{"geonameid":4497472,"name":"Township of Walnut Grove","admin3":"93888"},{"geonameid":4499141,"name":"Township of Wilkesboro","admin3":"94012","localeAltName":null}],"alternateNames":[{"alternatenameId":2089560,"geonameid":4482348,"isoLanguage":"en","alternateName":"North Carolina","isPreferredName":true,"isShortName":true,"isColloquial":false,"isHistoric":false}]},"__N_SSG":true}