{"pageProps":{"locale":"en","admin2":{"geonameid":4671531,"name":"Atascosa County","country":"US","admin1":"TX","admin2":"013","admin3":"","latitude":"28.8935200","longitude":"-98.5271300","localeAltName":null},"admin1":{"geonameid":4736286,"name":"Texas","admin1":"TX","localeAltName":"Texas"},"locations":[{"geonameid":4680560,"name":"Charlotte","admin3":"","localeAltName":null},{"geonameid":4701686,"name":"Jourdanton","admin3":"","localeAltName":null},{"geonameid":4705856,"name":"Leming","admin3":"","localeAltName":null},{"geonameid":4708477,"name":"Lytle","admin3":"","localeAltName":null},{"geonameid":4719720,"name":"Pleasanton","admin3":"","localeAltName":null},{"geonameid":4720270,"name":"Poteet","admin3":"","localeAltName":null}],"admin3":[{"geonameid":7172840,"name":"City of Charlotte","admin3":"7172840"},{"geonameid":7173179,"name":"City of Jourdanton","admin3":"7173179"},{"geonameid":7173721,"name":"City of Lytle","admin3":"7173721"},{"geonameid":7174100,"name":"City of Pleasanton","admin3":"7174100"},{"geonameid":7174125,"name":"City of Poteet","admin3":"7174125"},{"geonameid":7175605,"name":"Town of Christine","admin3":"7175605"}],"alternateNames":[{"alternatenameId":1614423,"geonameid":4736286,"isoLanguage":"en","alternateName":"Texas","isPreferredName":true,"isShortName":true,"isColloquial":false,"isHistoric":false}]},"__N_SSG":true}