{"pageProps":{"locale":"en","admin2":{"geonameid":4675728,"name":"Bosque County","country":"US","admin1":"TX","admin2":"035","admin3":"","latitude":"31.9004000","longitude":"-97.6343500","localeAltName":null},"admin1":{"geonameid":4736286,"name":"Texas","admin1":"TX","localeAltName":"Texas"},"locations":[{"geonameid":4682066,"name":"Clifton","admin3":"","localeAltName":null},{"geonameid":4704303,"name":"Laguna Park","admin3":"","localeAltName":null},{"geonameid":4710782,"name":"Meridian","admin3":"","localeAltName":null},{"geonameid":4738825,"name":"Valley Mills","admin3":"","localeAltName":null},{"geonameid":4739935,"name":"Walnut Springs","admin3":"","localeAltName":null}],"admin3":[{"geonameid":7172874,"name":"City of Clifton","admin3":"7172874"},{"geonameid":7173148,"name":"City of Iredell","admin3":"7173148"},{"geonameid":7173256,"name":"City of Cranfills Gap","admin3":"7173256"},{"geonameid":7173846,"name":"City of Meridian","admin3":"7173846"},{"geonameid":7173891,"name":"City of Morgan","admin3":"7173891"},{"geonameid":7174622,"name":"City of Valley Mills","admin3":"7174622"},{"geonameid":7174644,"name":"City of Walnut Springs","admin3":"7174644"}],"alternateNames":[{"alternatenameId":1614423,"geonameid":4736286,"isoLanguage":"en","alternateName":"Texas","isPreferredName":true,"isShortName":true,"isColloquial":false,"isHistoric":false}]},"__N_SSG":true}