{"pageProps":{"locale":"en","admin2":{"geonameid":4679435,"name":"Cass County","country":"US","admin1":"TX","admin2":"067","admin3":"","latitude":"33.0775400","longitude":"-94.3435900","localeAltName":null},"admin1":{"geonameid":4736286,"name":"Texas","admin1":"TX","localeAltName":"Texas"},"locations":[{"geonameid":4671576,"name":"Atlanta","admin3":"","localeAltName":null},{"geonameid":4699392,"name":"Hughes Springs","admin3":"","localeAltName":null},{"geonameid":4706404,"name":"Linden","admin3":"","localeAltName":null},{"geonameid":4721041,"name":"Queen City","admin3":"","localeAltName":null}],"admin3":[{"geonameid":7173650,"name":"City of Hughes Springs","admin3":"7173650"},{"geonameid":7173673,"name":"City of Linden","admin3":"7173673"},{"geonameid":7174262,"name":"Town of Avinger","admin3":"7174262"},{"geonameid":7174303,"name":"Town of Bloomburg","admin3":"7174303"},{"geonameid":7174862,"name":"Town of Domino","admin3":"7174862"},{"geonameid":7174867,"name":"Town of Douglassville","admin3":"7174867"},{"geonameid":7175365,"name":"Town of Marietta","admin3":"7175365"},{"geonameid":11788638,"name":"City of Queen City","admin3":"11788638"},{"geonameid":11788755,"name":"City of Atlanta","admin3":"11788755"}],"alternateNames":[{"alternatenameId":1614423,"geonameid":4736286,"isoLanguage":"en","alternateName":"Texas","isPreferredName":true,"isShortName":true,"isColloquial":false,"isHistoric":false}]},"__N_SSG":true}