{"pageProps":{"locale":"en","admin2":{"geonameid":4685912,"name":"Denton County","country":"US","admin1":"TX","admin2":"121","admin3":"","latitude":"33.2052600","longitude":"-97.1169700","localeAltName":null},"admin1":{"geonameid":4736286,"name":"Texas","admin1":"TX","localeAltName":"Texas"},"locations":[{"geonameid":4671212,"name":"Argyle","admin3":"","localeAltName":null},{"geonameid":4671620,"name":"Aubrey","admin3":"","localeAltName":null},{"geonameid":4672514,"name":"Bartonville","admin3":"","localeAltName":null},{"geonameid":4683230,"name":"Copper Canyon","admin3":"","localeAltName":null},{"geonameid":4683317,"name":"Corinth","admin3":"","localeAltName":null},{"geonameid":7234896,"name":"Cross Roads","admin3":"","localeAltName":null},{"geonameid":4685907,"name":"Denton","admin3":"","localeAltName":null},{"geonameid":4686709,"name":"Double Oak","admin3":"","localeAltName":null},{"geonameid":4691585,"name":"Flower Mound","admin3":"","localeAltName":null},{"geonameid":4695672,"name":"Hackberry","admin3":"","localeAltName":null},{"geonameid":4829219,"name":"Hickory Creek","admin3":"","localeAltName":null},{"geonameid":4697645,"name":"Highland Village","admin3":"","localeAltName":null},{"geonameid":4701814,"name":"Justin","admin3":"","localeAltName":null},{"geonameid":4703759,"name":"Krugerville","admin3":"","localeAltName":null},{"geonameid":4703760,"name":"Krum","admin3":"","localeAltName":null},{"geonameid":4704482,"name":"Lake Dallas","admin3":"","localeAltName":null},{"geonameid":4705067,"name":"Lakewood Village","admin3":"","localeAltName":null},{"geonameid":7315364,"name":"Lantana","admin3":"","localeAltName":null},{"geonameid":4706057,"name":"Lewisville","admin3":"","localeAltName":null},{"geonameid":4706736,"name":"Little Elm","admin3":"","localeAltName":null},{"geonameid":4709278,"name":"Marshall Creek","admin3":"","localeAltName":null},{"geonameid":4715447,"name":"Northlake","admin3":"","localeAltName":null},{"geonameid":4715931,"name":"Oak Point","admin3":"","localeAltName":null},{"geonameid":7315377,"name":"Paloma Creek","admin3":"","localeAltName":null},{"geonameid":7315378,"name":"Paloma Creek South","admin3":"","localeAltName":null},{"geonameid":4719021,"name":"Pilot Point","admin3":"","localeAltName":null},{"geonameid":4719966,"name":"Ponder","admin3":"","localeAltName":null},{"geonameid":7315379,"name":"Providence","admin3":"","localeAltName":null},{"geonameid":4723024,"name":"Roanoke","admin3":"","localeAltName":null},{"geonameid":4726957,"name":"Sanger","admin3":"","localeAltName":null},{"geonameid":7315385,"name":"Savannah","admin3":"","localeAltName":null},{"geonameid":4728064,"name":"Shady Shores","admin3":"","localeAltName":null},{"geonameid":4736388,"name":"The Colony","admin3":"","localeAltName":null},{"geonameid":4737676,"name":"Trophy Club","admin3":"","localeAltName":null}],"admin3":[{"geonameid":7172946,"name":"City of Argyle","admin3":"7172946"},{"geonameid":7172961,"name":"City of Aubrey","admin3":"7172961"},{"geonameid":7173126,"name":"City of Carrollton","admin3":"7173126"},{"geonameid":7173183,"name":"City of Justin","admin3":"7173183"},{"geonameid":7173232,"name":"City of Corinth","admin3":"7173232"},{"geonameid":7173301,"name":"City of Denton","admin3":"7173301"},{"geonameid":7173619,"name":"City of Highland Village","admin3":"7173619"},{"geonameid":7173668,"name":"City of Lewisville","admin3":"7173668"},{"geonameid":7173678,"name":"City of Little Elm","admin3":"7173678"},{"geonameid":7173766,"name":"City of Roanoke","admin3":"7173766"},{"geonameid":7173993,"name":"City of Oak Point","admin3":"7173993"},{"geonameid":7174089,"name":"City of Pilot Point","admin3":"7174089"},{"geonameid":7174187,"name":"City of Krugerville","admin3":"7174187"},{"geonameid":7174188,"name":"City of Krum","admin3":"7174188"},{"geonameid":7174219,"name":"City of Lake Dallas","admin3":"7174219"},{"geonameid":7174230,"name":"City of Lakewood Village","admin3":"7174230"},{"geonameid":7174269,"name":"Town of Bartonville","admin3":"7174269"},{"geonameid":7174379,"name":"City of Sanger","admin3":"7174379"},{"geonameid":7174559,"name":"City of The Colony","admin3":"7174559"},{"geonameid":7174814,"name":"Town of Cross Roads","admin3":"7174814"},{"geonameid":7174856,"name":"Town of DISH","admin3":"7174856"},{"geonameid":7174864,"name":"Town of Double Oak","admin3":"7174864"},{"geonameid":7174917,"name":"Town of Ponder","admin3":"7174917"},{"geonameid":7175050,"name":"Town of Flower Mound","admin3":"7175050"},{"geonameid":7175133,"name":"Town of Hackberry","admin3":"7175133"},{"geonameid":7175158,"name":"Town of Hebron","admin3":"7175158"},{"geonameid":7175165,"name":"Town of Hickory Creek","admin3":"7175165"},{"geonameid":7175309,"name":"Town of Lincoln Park","admin3":"7175309"},{"geonameid":7175463,"name":"Town of Northlake","admin3":"7175463"},{"geonameid":7175644,"name":"Town of Copper Canyon","admin3":"7175644"},{"geonameid":7175648,"name":"Town of Corral City","admin3":"7175648"},{"geonameid":7175676,"name":"Town of Shady Shores","admin3":"7175676"},{"geonameid":7175800,"name":"Town of Trophy Club","admin3":"7175800"}],"alternateNames":[{"alternatenameId":1614423,"geonameid":4736286,"isoLanguage":"en","alternateName":"Texas","isPreferredName":true,"isShortName":true,"isColloquial":false,"isHistoric":false}]},"__N_SSG":true}