{"pageProps":{"locale":"en","admin2":{"geonameid":4696143,"name":"Hardin County","country":"US","admin1":"TX","admin2":"199","admin3":"","latitude":"30.3323700","longitude":"-94.3902200","localeAltName":null},"admin1":{"geonameid":4736286,"name":"Texas","admin1":"TX","localeAltName":"Texas"},"locations":[{"geonameid":4703726,"name":"Kountze","admin3":"","localeAltName":null},{"geonameid":4708328,"name":"Lumberton","admin3":"","localeAltName":null},{"geonameid":4719261,"name":"Pinewood Estates","admin3":"","localeAltName":null},{"geonameid":4728653,"name":"Silsbee","admin3":"","localeAltName":null},{"geonameid":4732862,"name":"Sour Lake","admin3":"","localeAltName":null},{"geonameid":4741898,"name":"Wildwood","admin3":"","localeAltName":null}],"admin3":[{"geonameid":7173716,"name":"City of Lumberton","admin3":"7173716"},{"geonameid":7173785,"name":"City of Rose Hill Acres","admin3":"7173785"},{"geonameid":7174184,"name":"City of Kountze","admin3":"7174184"},{"geonameid":7174444,"name":"City of Silsbee","admin3":"7174444"},{"geonameid":7174468,"name":"City of Sour Lake","admin3":"7174468"}],"alternateNames":[{"alternatenameId":1614423,"geonameid":4736286,"isoLanguage":"en","alternateName":"Texas","isPreferredName":true,"isShortName":true,"isColloquial":false,"isHistoric":false}]},"__N_SSG":true}