{"pageProps":{"locale":"en","admin2":{"geonameid":4697746,"name":"Hill County","country":"US","admin1":"TX","admin2":"217","admin3":"","latitude":"31.9906800","longitude":"-97.1324300","localeAltName":null},"admin1":{"geonameid":4736286,"name":"Texas","admin1":"TX","localeAltName":"Texas"},"locations":[{"geonameid":4697867,"name":"Hillsboro","admin3":"","localeAltName":null},{"geonameid":4699235,"name":"Hubbard","admin3":"","localeAltName":null},{"geonameid":4700235,"name":"Itasca","admin3":"","localeAltName":null},{"geonameid":4741714,"name":"Whitney","admin3":"","localeAltName":null}],"admin3":[{"geonameid":7172887,"name":"City of Abbott","admin3":"7172887"},{"geonameid":7172941,"name":"City of Aquilla","admin3":"7172941"},{"geonameid":7173154,"name":"City of Itasca","admin3":"7173154"},{"geonameid":7173249,"name":"City of Covington","admin3":"7173249"},{"geonameid":7173646,"name":"City of Hubbard","admin3":"7173646"},{"geonameid":7173903,"name":"City of Mount Calm","admin3":"7173903"},{"geonameid":7174307,"name":"Town of Blum","admin3":"7174307"},{"geonameid":7175344,"name":"Town of Malone","admin3":"7175344"},{"geonameid":7175395,"name":"Town of Mertens","admin3":"7175395"},{"geonameid":7175530,"name":"Town of Penelope","admin3":"7175530"},{"geonameid":7175550,"name":"Town of Bynum","admin3":"7175550"},{"geonameid":7175574,"name":"Town of Carl's Corner","admin3":"7175574"},{"geonameid":7175880,"name":"Town of Whitney","admin3":"7175880"},{"geonameid":11788543,"name":"City of Hillsboro","admin3":"11788543"}],"alternateNames":[{"alternatenameId":1614423,"geonameid":4736286,"isoLanguage":"en","alternateName":"Texas","isPreferredName":true,"isShortName":true,"isColloquial":false,"isHistoric":false}]},"__N_SSG":true}