{"pageProps":{"locale":"en","admin2":{"geonameid":4699487,"name":"Hunt County","country":"US","admin1":"TX","admin2":"231","admin3":"","latitude":"33.1236000","longitude":"-96.0854500","localeAltName":null},"admin1":{"geonameid":4736286,"name":"Texas","admin1":"TX","localeAltName":"Texas"},"locations":[{"geonameid":4678005,"name":"Caddo Mills","admin3":"","localeAltName":null},{"geonameid":4678599,"name":"Campbell","admin3":"","localeAltName":null},{"geonameid":4679936,"name":"Celeste","admin3":"","localeAltName":null},{"geonameid":4682762,"name":"Commerce","admin3":"","localeAltName":null},{"geonameid":4695066,"name":"Greenville","admin3":"","localeAltName":null},{"geonameid":4707445,"name":"Lone Oak","admin3":"","localeAltName":null},{"geonameid":4721089,"name":"Quinlan","admin3":"","localeAltName":null},{"geonameid":4741087,"name":"West Tawakoni","admin3":"","localeAltName":null},{"geonameid":4742800,"name":"Wolfe City","admin3":"","localeAltName":null}],"admin3":[{"geonameid":7172826,"name":"City of Celeste","admin3":"7172826"},{"geonameid":7173113,"name":"City of Campbell","admin3":"7173113"},{"geonameid":7173221,"name":"City of Commerce","admin3":"7173221"},{"geonameid":7173547,"name":"City of Greenville","admin3":"7173547"},{"geonameid":7173588,"name":"City of Hawk Cove","admin3":"7173588"},{"geonameid":7173688,"name":"City of Lone Oak","admin3":"7173688"},{"geonameid":7174151,"name":"City of Quinlan","admin3":"7174151"},{"geonameid":7174685,"name":"City of West Tawakoni","admin3":"7174685"},{"geonameid":7175457,"name":"Town of Neylandville","admin3":"7175457"},{"geonameid":7187202,"name":"City of Union Valley","admin3":"7187202"},{"geonameid":11788530,"name":"City of Caddo Mills","admin3":"11788530"},{"geonameid":11789067,"name":"City of Wolfe City","admin3":"11789067"}],"alternateNames":[{"alternatenameId":1614423,"geonameid":4736286,"isoLanguage":"en","alternateName":"Texas","isPreferredName":true,"isShortName":true,"isColloquial":false,"isHistoric":false}]},"__N_SSG":true}