{"pageProps":{"locale":"en","admin2":{"geonameid":4709580,"name":"Matagorda County","country":"US","admin1":"TX","admin2":"321","admin3":"","latitude":"28.7856500","longitude":"-96.0039800","localeAltName":null},"admin1":{"geonameid":4736286,"name":"Texas","admin1":"TX","localeAltName":"Texas"},"locations":[{"geonameid":4829307,"name":"Bay City","admin3":"","localeAltName":null},{"geonameid":4675014,"name":"Blessing","admin3":"","localeAltName":null},{"geonameid":4709193,"name":"Markham","admin3":"","localeAltName":null},{"geonameid":4709576,"name":"Matagorda","admin3":"","localeAltName":null},{"geonameid":4717218,"name":"Palacios","admin3":"","localeAltName":null},{"geonameid":4738908,"name":"Van Vleck","admin3":"","localeAltName":null}],"admin3":[{"geonameid":7174041,"name":"City of Palacios","admin3":"7174041"},{"geonameid":11788999,"name":"City of Bay City","admin3":"11788999"}],"alternateNames":[{"alternatenameId":1614423,"geonameid":4736286,"isoLanguage":"en","alternateName":"Texas","isPreferredName":true,"isShortName":true,"isColloquial":false,"isHistoric":false}]},"__N_SSG":true}