{"pageProps":{"locale":"en","admin2":{"geonameid":4713738,"name":"Nacogdoches County","country":"US","admin1":"TX","admin2":"347","admin3":"","latitude":"31.6159800","longitude":"-94.6158700","localeAltName":null},"admin1":{"geonameid":4736286,"name":"Texas","admin1":"TX","localeAltName":"Texas"},"locations":[{"geonameid":4684678,"name":"Cushing","admin3":"","localeAltName":null},{"geonameid":4693065,"name":"Garrison","admin3":"","localeAltName":null},{"geonameid":4713735,"name":"Nacogdoches","admin3":"","localeAltName":null}],"admin3":[{"geonameid":7172854,"name":"City of Chireno","admin3":"7172854"},{"geonameid":7172940,"name":"City of Appleby","admin3":"7172940"},{"geonameid":7173269,"name":"City of Cushing","admin3":"7173269"},{"geonameid":7173477,"name":"City of Garrison","admin3":"7173477"},{"geonameid":7173926,"name":"City of Nacogdoches","admin3":"7173926"}],"alternateNames":[{"alternatenameId":1614423,"geonameid":4736286,"isoLanguage":"en","alternateName":"Texas","isPreferredName":true,"isShortName":true,"isColloquial":false,"isHistoric":false}]},"__N_SSG":true}