{"pageProps":{"locale":"en","admin2":{"geonameid":4713849,"name":"Navarro County","country":"US","admin1":"TX","admin2":"349","admin3":"","latitude":"32.0469300","longitude":"-96.4724900","localeAltName":null},"admin1":{"geonameid":4736286,"name":"Texas","admin1":"TX","localeAltName":"Texas"},"locations":[{"geonameid":4675056,"name":"Blooming Grove","admin3":"","localeAltName":null},{"geonameid":4683462,"name":"Corsicana","admin3":"","localeAltName":null},{"geonameid":4685428,"name":"Dawson","admin3":"7174832","localeAltName":null},{"geonameid":4692600,"name":"Frost","admin3":"","localeAltName":null},{"geonameid":4703063,"name":"Kerens","admin3":"","localeAltName":null},{"geonameid":4722543,"name":"Rice","admin3":"","localeAltName":null}],"admin3":[{"geonameid":7172933,"name":"City of Angus","admin3":"7172933"},{"geonameid":7172985,"name":"City of Barry","admin3":"7172985"},{"geonameid":7173235,"name":"City of Corsicana","admin3":"7173235"},{"geonameid":7173403,"name":"City of Eureka","admin3":"7173403"},{"geonameid":7173461,"name":"City of Frost","admin3":"7173461"},{"geonameid":7173513,"name":"City of Goodlow","admin3":"7173513"},{"geonameid":7173742,"name":"City of Rice","admin3":"7173742"},{"geonameid":7174304,"name":"Town of Blooming Grove","admin3":"7174304"},{"geonameid":7174832,"name":"Town of Dawson","admin3":"7174832","localeAltName":null},{"geonameid":7174905,"name":"Town of Emhouse","admin3":"7174905"},{"geonameid":7174924,"name":"Town of Powell","admin3":"7174924"},{"geonameid":7174964,"name":"Town of Retreat","admin3":"7174964"},{"geonameid":7174968,"name":"Town of Richland","admin3":"7174968"},{"geonameid":7175402,"name":"Town of Mildred","admin3":"7175402"},{"geonameid":7175438,"name":"Town of Mustang","admin3":"7175438"},{"geonameid":7175444,"name":"Town of Navarro","admin3":"7175444"},{"geonameid":7175474,"name":"Town of Oak Valley","admin3":"7175474"},{"geonameid":11788950,"name":"City of Kerens","admin3":"11788950"}],"alternateNames":[{"alternatenameId":1614423,"geonameid":4736286,"isoLanguage":"en","alternateName":"Texas","isPreferredName":true,"isShortName":true,"isColloquial":false,"isHistoric":false}]},"__N_SSG":true}