{"pageProps":{"locale":"en","admin2":{"geonameid":4742143,"name":"Williamson County","country":"US","admin1":"TX","admin2":"491","admin3":"","latitude":"30.6480400","longitude":"-97.6007600","localeAltName":null},"admin1":{"geonameid":4736286,"name":"Texas","admin1":"TX","localeAltName":"Texas"},"locations":[{"geonameid":4670783,"name":"Anderson Mill","admin3":"","localeAltName":null},{"geonameid":4672479,"name":"Bartlett","admin3":"","localeAltName":null},{"geonameid":4676920,"name":"Brushy Creek","admin3":"","localeAltName":null},{"geonameid":4679867,"name":"Cedar Park","admin3":"","localeAltName":null},{"geonameid":4691524,"name":"Florence","admin3":"","localeAltName":null},{"geonameid":4693342,"name":"Georgetown","admin3":"","localeAltName":null},{"geonameid":4694521,"name":"Granger","admin3":"","localeAltName":null},{"geonameid":4699626,"name":"Hutto","admin3":"","localeAltName":null},{"geonameid":4700718,"name":"Jarrell","admin3":"","localeAltName":null},{"geonameid":4701458,"name":"Jollyville","admin3":"","localeAltName":null},{"geonameid":4705708,"name":"Leander","admin3":"","localeAltName":null},{"geonameid":4706161,"name":"Liberty Hill","admin3":"","localeAltName":null},{"geonameid":4724129,"name":"Round Rock","admin3":"","localeAltName":null},{"geonameid":4727831,"name":"Serenada","admin3":"","localeAltName":null},{"geonameid":4735702,"name":"Taylor","admin3":"","localeAltName":null},{"geonameid":4736700,"name":"Thrall","admin3":"","localeAltName":null}],"admin3":[{"geonameid":7172824,"name":"City of Cedar Park","admin3":"7172824"},{"geonameid":7172988,"name":"City of Bartlett","admin3":"7172988"},{"geonameid":7173130,"name":"City of Hutto","admin3":"7173130"},{"geonameid":7173163,"name":"City of Jarrell","admin3":"7173163"},{"geonameid":7173434,"name":"City of Florence","admin3":"7173434"},{"geonameid":7173486,"name":"City of Georgetown","admin3":"7173486"},{"geonameid":7173530,"name":"City of Granger","admin3":"7173530"},{"geonameid":7173655,"name":"City of Leander","admin3":"7173655"},{"geonameid":7173671,"name":"City of Liberty Hill","admin3":"7173671"},{"geonameid":7173792,"name":"City of Round Rock","admin3":"7173792"},{"geonameid":7174544,"name":"City of Taylor","admin3":"7174544"},{"geonameid":7174567,"name":"City of Thrall","admin3":"7174567"},{"geonameid":7174668,"name":"City of Weir","admin3":"7174668"},{"geonameid":11788283,"name":"City of Coupland","admin3":"11788283"}],"alternateNames":[{"alternatenameId":1614423,"geonameid":4736286,"isoLanguage":"en","alternateName":"Texas","isPreferredName":true,"isShortName":true,"isColloquial":false,"isHistoric":false}]},"__N_SSG":true}