{"pageProps":{"locale":"en","admin2":{"geonameid":4742850,"name":"Wood County","country":"US","admin1":"TX","admin2":"499","admin3":"","latitude":"32.7864100","longitude":"-95.3820600","localeAltName":null},"admin1":{"geonameid":4736286,"name":"Texas","admin1":"TX","localeAltName":"Texas"},"locations":[{"geonameid":4670091,"name":"Alba","admin3":"","localeAltName":null},{"geonameid":4695554,"name":"Gunter","admin3":"","localeAltName":null},{"geonameid":4696686,"name":"Hawkins","admin3":"","localeAltName":null},{"geonameid":6692230,"name":"Holly Lake Ranch","admin3":"","localeAltName":null},{"geonameid":4711628,"name":"Mineola","admin3":"","localeAltName":null},{"geonameid":4721115,"name":"Quitman","admin3":"","localeAltName":null},{"geonameid":4742620,"name":"Winnsboro","admin3":"","localeAltName":null}],"admin3":[{"geonameid":7173589,"name":"City of Hawkins","admin3":"7173589"},{"geonameid":7173869,"name":"City of Mineola","admin3":"7173869"},{"geonameid":7174153,"name":"City of Quitman","admin3":"7174153"},{"geonameid":7174722,"name":"City of Winnsboro","admin3":"7174722"},{"geonameid":7174765,"name":"Town of Alba","admin3":"7174765"},{"geonameid":7175916,"name":"Town of Yantis","admin3":"7175916"}],"alternateNames":[{"alternatenameId":1614423,"geonameid":4736286,"isoLanguage":"en","alternateName":"Texas","isPreferredName":true,"isShortName":true,"isColloquial":false,"isHistoric":false}]},"__N_SSG":true}