{"pageProps":{"locale":"en","admin2":{"geonameid":6119136,"name":"Regional District of North Okanagan","country":"CA","admin1":"02","admin2":"5937","admin3":"","latitude":"50.4165100","longitude":"-118.7523200"},"admin1":{"geonameid":5909050,"name":"British Columbia","admin1":"02"},"locations":[{"geonameid":5887048,"name":"Armstrong","admin3":"5937028"},{"geonameid":5895503,"name":"Beachcomber Bay","admin3":"5937014"},{"geonameid":5925058,"name":"Coldstream","admin3":"5937010"},{"geonameid":5948770,"name":"Enderby","admin3":"5937033"},{"geonameid":12156435,"name":"Grandview","admin3":"5937024"},{"geonameid":5978358,"name":"Hullcar","admin3":"5937024"},{"geonameid":6049998,"name":"Larkin","admin3":"5937024"},{"geonameid":6050726,"name":"Lavington","admin3":"5937010"},{"geonameid":6061958,"name":"Lumby","admin3":"5937005"},{"geonameid":9955340,"name":"Okanagan Landing","admin3":"5937014"},{"geonameid":12156434,"name":"Spallumcheen","admin3":"5937024"},{"geonameid":6173864,"name":"Vernon","admin3":"5937014"}],"admin3":[{"geonameid":6153105,"name":"Spallumcheen","admin3":"5937024"},{"geonameid":12031892,"name":"Armstrong","admin3":"5937028"},{"geonameid":12031893,"name":"Lumby","admin3":"5937005"},{"geonameid":12031894,"name":"Vernon","admin3":"5937014"},{"geonameid":12031983,"name":"Enderby","admin3":"5937033"},{"geonameid":12031985,"name":"Coldstream","admin3":"5937010"}],"alternateNames":[]},"__N_SSG":true}