{"pageProps":{"locale":"ro","admin1":{"geonameid":683016,"name":"Călăraşi","country":"RO","admin1":"41","latitude":"44.2500000","longitude":"27.0000000","localeAltName":null},"admin2":[{"geonameid":8334811,"name":"Comuna Alexandru Odobescu","admin2":"94125","localeAltName":null},{"geonameid":685154,"name":"Comuna Belciugatele","admin2":"101083","localeAltName":null},{"geonameid":8334843,"name":"Comuna Borcea","admin2":"92961","localeAltName":null},{"geonameid":682616,"name":"Comuna Căscioarele","admin2":"101724","localeAltName":null},{"geonameid":682034,"name":"Comuna Chirnogi","admin2":"101804","localeAltName":null},{"geonameid":682013,"name":"Comuna Chiselet","admin2":"101822","localeAltName":null},{"geonameid":681741,"name":"Comuna Ciocăneşti","admin2":"93085","localeAltName":null},{"geonameid":680132,"name":"Comuna Crivăţ","admin2":"180055","localeAltName":null},{"geonameid":679935,"name":"Comuna Curcani","admin2":"102419","localeAltName":null},{"geonameid":679848,"name":"Comuna Cuza Vodă","admin2":"93281","localeAltName":null},{"geonameid":679427,"name":"Comuna Dichiseni","admin2":"93325","localeAltName":null},{"geonameid":679094,"name":"Comuna Dor Mărunt","admin2":"93370","localeAltName":null},{"geonameid":679070,"name":"Comuna Dorobanţu","admin2":"93441","localeAltName":null},{"geonameid":679008,"name":"Comuna Dragalina","admin2":"93487","localeAltName":null},{"geonameid":678907,"name":"Comuna Dragoş Vodă","admin2":"93539","localeAltName":null},{"geonameid":677948,"name":"Comuna Frăsinet","admin2":"102838","localeAltName":null},{"geonameid":677879,"name":"Comuna Frumuşani","admin2":"102945","localeAltName":null},{"geonameid":677806,"name":"Comuna Fundeni","admin2":"103014","localeAltName":null},{"geonameid":677671,"name":"Comuna Gălbinaşi","admin2":"179962","localeAltName":null},{"geonameid":676811,"name":"Comuna Grădiştea","admin2":"93664","localeAltName":null},{"geonameid":676446,"name":"Comuna Gurbăneşti","admin2":"103568","localeAltName":null},{"geonameid":675681,"name":"Comuna Ileana","admin2":"103764","localeAltName":null},{"geonameid":675610,"name":"Comuna Independenţa","admin2":"93771","localeAltName":null},{"geonameid":675284,"name":"Comuna Jegălia","admin2":"93815","localeAltName":null},{"geonameid":674917,"name":"Comuna Lehliu","admin2":"93851","localeAltName":null},{"geonameid":674525,"name":"Comuna Luica","admin2":"104083","localeAltName":null},{"geonameid":674266,"name":"Comuna Lupşanu","admin2":"93931","localeAltName":null},{"geonameid":673263,"name":"Comuna Mânăstirea","admin2":"104181","localeAltName":null},{"geonameid":673047,"name":"Comuna Mitreni","admin2":"100638","localeAltName":null},{"geonameid":672976,"name":"Comuna Modelu","admin2":"92587","localeAltName":null},{"geonameid":672522,"name":"Comuna Nana","admin2":"104323","localeAltName":null},{"geonameid":672269,"name":"Comuna Nicolae Bălcescu","admin2":"104341","localeAltName":null},{"geonameid":671107,"name":"Comuna Perişoru","admin2":"94223","localeAltName":null},{"geonameid":670551,"name":"Comuna Plătăreşti","admin2":"104635","localeAltName":null},{"geonameid":669242,"name":"Comuna Radovanu","admin2":"104751","localeAltName":null},{"geonameid":668659,"name":"Comuna Roseţi","admin2":"94312","localeAltName":null},{"geonameid":667947,"name":"Comuna Săruleşti","admin2":"104886","localeAltName":null},{"geonameid":666560,"name":"Comuna Sohatu","admin2":"105222","localeAltName":null},{"geonameid":666503,"name":"Comuna Şoldanu","admin2":"105384","localeAltName":null},{"geonameid":666384,"name":"Comuna Spanţov","admin2":"105259","localeAltName":null},{"geonameid":8334637,"name":"Comuna Ştefan Cel Mare","admin2":"94562","localeAltName":null},{"geonameid":666213,"name":"Comuna Ştefan Vodă","admin2":"94580","localeAltName":null},{"geonameid":8334664,"name":"Comuna Tãmãdãu Mare","admin2":"105455","localeAltName":null},{"geonameid":664309,"name":"Comuna Ulmeni","admin2":"105605","localeAltName":null},{"geonameid":664285,"name":"Comuna Ulmu","admin2":"94606","localeAltName":null},{"geonameid":664197,"name":"Comuna Unirea","admin2":"94651","localeAltName":null},{"geonameid":8334735,"name":"Comuna Vâlcelele","admin2":"94731","localeAltName":null},{"geonameid":8334666,"name":"Comuna Valea Argovei","admin2":"105712","localeAltName":null},{"geonameid":663126,"name":"Comuna Vasilaţi","admin2":"105829","localeAltName":null},{"geonameid":662581,"name":"Comuna Vlad Ţepeş","admin2":"94768","localeAltName":null},{"geonameid":683022,"name":"Municipiul Călăraşi","admin2":"92569","localeAltName":null},{"geonameid":8334824,"name":"Municipiul Olteniţa","admin2":"100610","localeAltName":null},{"geonameid":683432,"name":"Oraş Budeşti","admin2":"101458","localeAltName":null},{"geonameid":677789,"name":"Oraş Fundulea","admin2":"103032","localeAltName":null},{"geonameid":8334885,"name":"Oraş Lehliu Garã","admin2":"93888","localeAltName":null}],"admin3":[],"country":{"geonameid":798549,"country":"RO","name":"România","localeAltName":"România"},"alternateNames":[{"alternatenameId":490801,"geonameid":798549,"isoLanguage":"ro","alternateName":"România","isPreferredName":true,"isShortName":true,"isColloquial":false,"isHistoric":false}]},"__N_SSG":true}