{"pageProps":{"locale":"ro","admin1":{"geonameid":680428,"name":"Covasna","country":"RO","admin1":"15","latitude":"45.9166700","longitude":"26.0000000","localeAltName":null},"admin2":[{"geonameid":686596,"name":"Comuna Aita Mare","admin2":"63777","localeAltName":null},{"geonameid":686217,"name":"Comuna Arcuş","admin2":"65113","localeAltName":null},{"geonameid":685348,"name":"Comuna Barcani","admin2":"63633","localeAltName":null},{"geonameid":685282,"name":"Comuna Băţani","admin2":"63802","localeAltName":null},{"geonameid":685136,"name":"Comuna Belin","admin2":"63866","localeAltName":null},{"geonameid":8334794,"name":"Comuna Bixad","admin2":"65121","localeAltName":null},{"geonameid":684451,"name":"Comuna Bodoc","admin2":"63893","localeAltName":null},{"geonameid":684169,"name":"Comuna Boroşneu Mare","admin2":"63937","localeAltName":null},{"geonameid":683923,"name":"Comuna Brăduţ","admin2":"64041","localeAltName":null},{"geonameid":683824,"name":"Comuna Brateş","admin2":"64005","localeAltName":null},{"geonameid":683715,"name":"Comuna Breţcu","admin2":"64096","localeAltName":null},{"geonameid":682576,"name":"Comuna Catalina","admin2":"64130","localeAltName":null},{"geonameid":682330,"name":"Comună Cernat","admin2":"64194","localeAltName":null},{"geonameid":682146,"name":"Comuna Chichiş","admin2":"64238","localeAltName":null},{"geonameid":681024,"name":"Comuna Comandău","admin2":"63553","localeAltName":null},{"geonameid":679797,"name":"Comuna Dalnic","admin2":"65147","localeAltName":null},{"geonameid":679276,"name":"Comuna Dobârlău","admin2":"64265","localeAltName":null},{"geonameid":678524,"name":"Comuna Estelnic","admin2":"65154","localeAltName":null},{"geonameid":677477,"name":"Comuna Ghelinţa","admin2":"64318","localeAltName":null},{"geonameid":677409,"name":"Comuna Ghidfalău","admin2":"64345","localeAltName":null},{"geonameid":676395,"name":"Comuna Hăghig","admin2":"64390","localeAltName":null},{"geonameid":675662,"name":"Comuna Ilieni","admin2":"64425","localeAltName":null},{"geonameid":674897,"name":"Comuna Lemnia","admin2":"64461","localeAltName":null},{"geonameid":674005,"name":"Comuna Malnaş","admin2":"64504","localeAltName":null},{"geonameid":673574,"name":"Comuna Mereni","admin2":"65105","localeAltName":null},{"geonameid":673471,"name":"Comuna Micfalău","admin2":"65139","localeAltName":null},{"geonameid":673020,"name":"Comuna Moacşa","admin2":"64568","localeAltName":null},{"geonameid":671888,"name":"Comuna Ojdula","admin2":"64602","localeAltName":null},{"geonameid":671579,"name":"Comuna Ozun","admin2":"64639","localeAltName":null},{"geonameid":670161,"name":"Comuna Poian","admin2":"64719","localeAltName":null},{"geonameid":669028,"name":"Comuna Reci","admin2":"64773","localeAltName":null},{"geonameid":666886,"name":"Comuna Sânzieni","admin2":"64826","localeAltName":null},{"geonameid":666789,"name":"Comuna Sita Buzăului","admin2":"63688","localeAltName":null},{"geonameid":664445,"name":"Comuna Turia","admin2":"64871","localeAltName":null},{"geonameid":662880,"name":"Comuna Vâlcele","admin2":"64942","localeAltName":null},{"geonameid":663810,"name":"Comuna Valea Crişului","admin2":"64906","localeAltName":null},{"geonameid":663603,"name":"Comuna Valea Mare","admin2":"65099","localeAltName":null},{"geonameid":662765,"name":"Comuna Vârghiş","admin2":"64997","localeAltName":null},{"geonameid":662371,"name":"Comuna Zăbala","admin2":"65048","localeAltName":null},{"geonameid":662350,"name":"Comuna Zagon","admin2":"65011","localeAltName":null},{"geonameid":8334792,"name":"Municipiul Sfântu Gheorghe","admin2":"63394","localeAltName":null},{"geonameid":8334842,"name":"Municipiul Târgu Secuiesc","admin2":"63740","localeAltName":null},{"geonameid":685417,"name":"Oraş Baraolt","admin2":"63447","localeAltName":null},{"geonameid":8334818,"name":"Oraş Covasna","admin2":"63526","localeAltName":null},{"geonameid":675584,"name":"Oraş Întorsura Buzãului","admin2":"63580","localeAltName":null}],"admin3":[],"country":{"geonameid":798549,"country":"RO","name":"România","localeAltName":"România"},"alternateNames":[{"alternatenameId":490801,"geonameid":798549,"isoLanguage":"ro","alternateName":"România","isPreferredName":true,"isShortName":true,"isColloquial":false,"isHistoric":false}]},"__N_SSG":true}