{"pageProps":{"locale":"ro","admin1":{"geonameid":865518,"name":"Ilfov","country":"RO","admin1":"43","latitude":"44.5833300","longitude":"26.1666700","localeAltName":null},"admin2":[{"geonameid":8334711,"name":"Comuna 1 Decembrie","admin2":"102543","localeAltName":null},{"geonameid":686643,"name":"Comuna Afumaţi","admin2":"100834","localeAltName":null},{"geonameid":685587,"name":"Comuna Baloteşti","admin2":"100969","localeAltName":null},{"geonameid":685074,"name":"Comuna Berceni","admin2":"101145","localeAltName":null},{"geonameid":683878,"name":"Comuna Brăneşti","admin2":"101298","localeAltName":null},{"geonameid":682300,"name":"Comuna Cernica","admin2":"101742","localeAltName":null},{"geonameid":682158,"name":"Comuna Chiajna","admin2":"179249","localeAltName":null},{"geonameid":681689,"name":"Comuna Ciolpani","admin2":"101902","localeAltName":null},{"geonameid":681646,"name":"Comuna Ciorogârla","admin2":"101957","localeAltName":null},{"geonameid":8334849,"name":"Comuna Clinceni","admin2":"102035","localeAltName":null},{"geonameid":680924,"name":"Comuna Copăceni","admin2":"179588","localeAltName":null},{"geonameid":680889,"name":"Comuna Corbeanca","admin2":"102160","localeAltName":null},{"geonameid":680749,"name":"Comuna Cornetu","admin2":"102213","localeAltName":null},{"geonameid":679731,"name":"Comuna Dărăşti-Ilfov","admin2":"102525","localeAltName":null},{"geonameid":679707,"name":"Comuna Dascălu Creaţa","admin2":"102473","localeAltName":null},{"geonameid":679116,"name":"Comuna Domneşti","admin2":"102570","localeAltName":null},{"geonameid":8334881,"name":"Comuna Dragomireşti-Vale","admin2":"102605","localeAltName":null},{"geonameid":677804,"name":"Comuna Fundeni-Dobroeşti","admin2":"179310","localeAltName":null},{"geonameid":677626,"name":"Comuna Găneasa","admin2":"103130","localeAltName":null},{"geonameid":8334589,"name":"Comuna Glina","admin2":"179347","localeAltName":null},{"geonameid":676810,"name":"Comuna Grădiştea","admin2":"103443","localeAltName":null},{"geonameid":676611,"name":"Comuna Gruiu","admin2":"103513","localeAltName":null},{"geonameid":675229,"name":"Comuna Jilava","admin2":"179383","localeAltName":null},{"geonameid":8334859,"name":"Comuna Moara Vlãsiei","admin2":"104243","localeAltName":null},{"geonameid":672936,"name":"Comuna Mogoşoaia","admin2":"179463","localeAltName":null},{"geonameid":8334739,"name":"Comuna Nuci","admin2":"104421","localeAltName":null},{"geonameid":8334888,"name":"Comuna Periş","admin2":"104546","localeAltName":null},{"geonameid":680295,"name":"Comuna Petrăchioaia","admin2":"104582","localeAltName":null},{"geonameid":666610,"name":"Comuna Snagov","admin2":"105160","localeAltName":null},{"geonameid":666228,"name":"Comuna Ştefãneştii De Jos","admin2":"105419","localeAltName":null},{"geonameid":664498,"name":"Comuna Tunari","admin2":"105570","localeAltName":null},{"geonameid":662967,"name":"Comuna Vidra","admin2":"105936","localeAltName":null},{"geonameid":683911,"name":"Oraş Bragadiru","admin2":"179221","localeAltName":null},{"geonameid":683393,"name":"Oraş Buftea","admin2":"100576","localeAltName":null},{"geonameid":681989,"name":"Oraş Chitila","admin2":"179285","localeAltName":null},{"geonameid":674111,"name":"Oraş Mãgurele","admin2":"179409","localeAltName":null},{"geonameid":671589,"name":"Oraş Otopeni","admin2":"179481","localeAltName":null},{"geonameid":671380,"name":"Oraş Pantelimon","admin2":"179515","localeAltName":null},{"geonameid":669869,"name":"Oraş Popeşti Leordeni","admin2":"179533","localeAltName":null},{"geonameid":662475,"name":"Voluntari City","admin2":"179551","localeAltName":null}],"admin3":[],"country":{"geonameid":798549,"country":"RO","name":"România","localeAltName":"România"},"alternateNames":[{"alternatenameId":490801,"geonameid":798549,"isoLanguage":"ro","alternateName":"România","isPreferredName":true,"isShortName":true,"isColloquial":false,"isHistoric":false},{"alternatenameId":8321538,"geonameid":865518,"isoLanguage":"en","alternateName":"Ilfov","isPreferredName":true,"isShortName":true,"isColloquial":false,"isHistoric":false}]},"__N_SSG":true}