{"pageProps":{"locale":"ro","admin1":{"geonameid":671857,"name":"Olt","country":"RO","admin1":"29","latitude":"44.3333300","longitude":"24.5000000","localeAltName":null},"admin2":[{"geonameid":685968,"name":"Comuna Băbiciu","admin2":"125659","localeAltName":null},{"geonameid":685641,"name":"Comuna Baldovineşti","admin2":"125677","localeAltName":null},{"geonameid":685524,"name":"Comuna Bălteni","admin2":"130286","localeAltName":null},{"geonameid":8334870,"name":"Comuna Bãrãşti","admin2":"125757","localeAltName":null},{"geonameid":684730,"name":"Comuna Bârza","admin2":"125846","localeAltName":null},{"geonameid":684533,"name":"Comuna Bobiceşti","admin2":"125873","localeAltName":null},{"geonameid":683678,"name":"Comuna Brâncoveni","admin2":"126022","localeAltName":null},{"geonameid":683841,"name":"Comuna Brastavăţu","admin2":"125962","localeAltName":null},{"geonameid":683737,"name":"Comuna Brebeni","admin2":"125999","localeAltName":null},{"geonameid":683581,"name":"Comuna Bucinişu","admin2":"126077","localeAltName":null},{"geonameid":682880,"name":"Comuna Cãlui","admin2":"130295","localeAltName":null},{"geonameid":681547,"name":"Comuna Cârlogani","admin2":"126166","localeAltName":null},{"geonameid":680810,"name":"Comuna Cezieni","admin2":"126102","localeAltName":null},{"geonameid":681907,"name":"Comuna Cilieni","admin2":"126148","localeAltName":null},{"geonameid":681095,"name":"Comuna Coloneşti","admin2":"126228","localeAltName":null},{"geonameid":680857,"name":"Comuna Corbu","admin2":"126326","localeAltName":null},{"geonameid":680519,"name":"Comuna Coteana","admin2":"126380","localeAltName":null},{"geonameid":680236,"name":"Comuna Crâmpoia","admin2":"126406","localeAltName":null},{"geonameid":8334981,"name":"Comuna Cungrea","admin2":"126503","localeAltName":null},{"geonameid":679895,"name":"Comuna Curtişoara","admin2":"126433","localeAltName":null},{"geonameid":679764,"name":"Comuna Dăneasa","admin2":"126585","localeAltName":null},{"geonameid":679447,"name":"Comuna Deveselu","admin2":"126647","localeAltName":null},{"geonameid":8334727,"name":"Comuna Dobreţu","admin2":"126674","localeAltName":null},{"geonameid":679212,"name":"Comuna Dobrosloveni","admin2":"126718","localeAltName":null},{"geonameid":679205,"name":"Comuna Dobroteasa","admin2":"126772","localeAltName":null},{"geonameid":679190,"name":"Comuna Dobrun","admin2":"126825","localeAltName":null},{"geonameid":678964,"name":"Comuna Drăghiceni","admin2":"125490","localeAltName":null},{"geonameid":678479,"name":"Comuna Făgeţelu","admin2":"126905","localeAltName":null},{"geonameid":678461,"name":"Comuna Fălcoiu","admin2":"126978","localeAltName":null},{"geonameid":678429,"name":"Comuna Fărcaşele","admin2":"127019","localeAltName":null},{"geonameid":677627,"name":"Comuna Găneasa","admin2":"127064","localeAltName":null},{"geonameid":677204,"name":"Comuna Gârcov","admin2":"125588","localeAltName":null},{"geonameid":677561,"name":"Comuna Găvăneşti","admin2":"130302","localeAltName":null},{"geonameid":677365,"name":"Comuna Ghimpeţeni","admin2":"130311","localeAltName":null},{"geonameid":677095,"name":"Comuna Giuvărăşti","admin2":"127126","localeAltName":null},{"geonameid":676865,"name":"Comuna Gostavăţu","admin2":"127144","localeAltName":null},{"geonameid":8334915,"name":"Comuna Grãdinari","admin2":"127171","localeAltName":null},{"geonameid":8334913,"name":"Comuna Grãdinile","admin2":"130320","localeAltName":null},{"geonameid":676682,"name":"Comuna Grojdibodu","admin2":"127224","localeAltName":null},{"geonameid":676502,"name":"Comuna Gura Padinii","admin2":"130339","localeAltName":null},{"geonameid":675838,"name":"Comuna Ianca","admin2":"127251","localeAltName":null},{"geonameid":675831,"name":"Comuna Iancu Jianu","admin2":"127288","localeAltName":null},{"geonameid":675757,"name":"Comuna Icoana","admin2":"127322","localeAltName":null},{"geonameid":8334886,"name":"Comuna Ipotesti","admin2":"130348","localeAltName":null},{"geonameid":675485,"name":"Comuna Izbiceni","admin2":"127368","localeAltName":null},{"geonameid":675371,"name":"Comuna Izvoarele","admin2":"127386","localeAltName":null},{"geonameid":674909,"name":"Comuna Leleasca","admin2":"127411","localeAltName":null},{"geonameid":673720,"name":"Comuna Mărunţei","admin2":"127493","localeAltName":null},{"geonameid":673411,"name":"Comuna Mihăeşti","admin2":"127536","localeAltName":null},{"geonameid":673325,"name":"Comuna Milcov","admin2":"127563","localeAltName":null},{"geonameid":672837,"name":"Comuna Morunglav","admin2":"127625","localeAltName":null},{"geonameid":672727,"name":"Comuna Movileni","admin2":"127689","localeAltName":null},{"geonameid":672262,"name":"Comuna Nicolae Titulescu","admin2":"127714","localeAltName":null},{"geonameid":672076,"name":"Comuna Obârşia","admin2":"127750","localeAltName":null},{"geonameid":672059,"name":"Comuna Oboga","admin2":"127812","localeAltName":null},{"geonameid":671789,"name":"Comuna Oporelu","admin2":"127858","localeAltName":null},{"geonameid":8334750,"name":"Comuna Optaşi-Mãgura","admin2":"127901","localeAltName":null},{"geonameid":671707,"name":"Comuna Orlea","admin2":"127938","localeAltName":null},{"geonameid":671658,"name":"Comuna Osica de Jos","admin2":"130357","localeAltName":null},{"geonameid":671656,"name":"Comuna Osica de Sus","admin2":"127983","localeAltName":null},{"geonameid":670680,"name":"Comuna Pârşcoveni","admin2":"128178","localeAltName":null},{"geonameid":671127,"name":"Comuna Perieţi","admin2":"128052","localeAltName":null},{"geonameid":670489,"name":"Comuna Pleşoiu","admin2":"128221","localeAltName":null},{"geonameid":670371,"name":"Comuna Poboru","admin2":"128301","localeAltName":null},{"geonameid":669605,"name":"Comuna Priseaca","admin2":"128436","localeAltName":null},{"geonameid":669251,"name":"Comuna Radomireşti","admin2":"128472","localeAltName":null},{"geonameid":669024,"name":"Comuna Redea","admin2":"128524","localeAltName":null},{"geonameid":668563,"name":"Comuna Rotunda","admin2":"128560","localeAltName":null},{"geonameid":668429,"name":"Comuna Rusăneşti","admin2":"128588","localeAltName":null},{"geonameid":667122,"name":"Comuna Sâmbureşti","admin2":"128882","localeAltName":null},{"geonameid":666836,"name":"Comuna Sârbii-Măgura","admin2":"130366","localeAltName":null},{"geonameid":667720,"name":"Comuna Scărişoara","admin2":"128613","localeAltName":null},{"geonameid":667661,"name":"Comuna Schitu","admin2":"128659","localeAltName":null},{"geonameid":667537,"name":"Comuna Seaca","admin2":"128864","localeAltName":null},{"geonameid":667366,"name":"Comuna Şerbăneşti","admin2":"129246","localeAltName":null},{"geonameid":666747,"name":"Comuna Slătioara","admin2":"125374","localeAltName":null},{"geonameid":666439,"name":"Comuna Şopârliţa","admin2":"130384","localeAltName":null},{"geonameid":666358,"name":"Comuna Spineni","admin2":"128962","localeAltName":null},{"geonameid":666335,"name":"Comuna Sprâncenata","admin2":"129040","localeAltName":null},{"geonameid":666246,"name":"Comuna Ştefan cel Mare","admin2":"129282","localeAltName":null},{"geonameid":666066,"name":"Comuna Stoeneşti","admin2":"129095","localeAltName":null},{"geonameid":666056,"name":"Comuna Stoicăneşti","admin2":"129111","localeAltName":null},{"geonameid":665989,"name":"Comuna Strejeşti","admin2":"129139","localeAltName":null},{"geonameid":665907,"name":"Comuna Studina","admin2":"129184","localeAltName":null},{"geonameid":665411,"name":"Comuna Tătuleşti","admin2":"129317","localeAltName":null},{"geonameid":665216,"name":"Comuna Teslui","admin2":"129380","localeAltName":null},{"geonameid":665198,"name":"Comuna Tia Mare","admin2":"129460","localeAltName":null},{"geonameid":664770,"name":"Comuna Topana","admin2":"129503","localeAltName":null},{"geonameid":664671,"name":"Comuna Traian","admin2":"129567","localeAltName":null},{"geonameid":664542,"name":"Comuna Tufeni","admin2":"129585","localeAltName":null},{"geonameid":664080,"name":"Comuna Urzica","admin2":"129629","localeAltName":null},{"geonameid":664023,"name":"Comuna Vădastra","admin2":"129718","localeAltName":null},{"geonameid":664021,"name":"Comuna Vădăstriţa","admin2":"129745","localeAltName":null},{"geonameid":662866,"name":"Comuna Vâlcele","admin2":"129987","localeAltName":null},{"geonameid":663605,"name":"Comuna Valea Mare","admin2":"129656","localeAltName":null},{"geonameid":663265,"name":"Comuna Văleni","admin2":"129763","localeAltName":null},{"geonameid":663041,"name":"Comuna Verguleasa","admin2":"129816","localeAltName":null},{"geonameid":662693,"name":"Comuna Vişina","admin2":"129898","localeAltName":null},{"geonameid":662690,"name":"Comuna Vişina Nouă","admin2":"130375","localeAltName":null},{"geonameid":662657,"name":"Comuna Vitomireşti","admin2":"129914","localeAltName":null},{"geonameid":662604,"name":"Comuna Vlădila","admin2":"130026","localeAltName":null},{"geonameid":662529,"name":"Comuna Voineasa","admin2":"130062","localeAltName":null},{"geonameid":662411,"name":"Comuna Vulpeni","admin2":"130124","localeAltName":null},{"geonameid":662393,"name":"Comuna Vultureşti","admin2":"130231","localeAltName":null},{"geonameid":8334987,"name":"Municipiul Caracal","admin2":"125472","localeAltName":null},{"geonameid":8334993,"name":"Municipiul Slatina","admin2":"125347","localeAltName":null},{"geonameid":8334854,"name":"Oraş Balş","admin2":"125418","localeAltName":null},{"geonameid":8334759,"name":"Oraş Corabia","admin2":"125542","localeAltName":null},{"geonameid":678986,"name":"Oraş Drãgãneşti-Olt","admin2":"125622","localeAltName":null},{"geonameid":670887,"name":"Oraş Piatra-Olt","admin2":"128105","localeAltName":null},{"geonameid":669770,"name":"Oraş Potcoava","admin2":"128374","localeAltName":null},{"geonameid":667592,"name":"Oraş Scorniceşti","admin2":"128711","localeAltName":null}],"admin3":[],"country":{"geonameid":798549,"country":"RO","name":"România","localeAltName":"România"},"alternateNames":[{"alternatenameId":490801,"geonameid":798549,"isoLanguage":"ro","alternateName":"România","isPreferredName":true,"isShortName":true,"isColloquial":false,"isHistoric":false}]},"__N_SSG":true}