{"pageProps":{"locale":"en","admin2":{"geonameid":4808274,"name":"Harrison County","country":"US","admin1":"WV","admin2":"033","admin3":"","latitude":"39.2835300","longitude":"-80.3798700","localeAltName":null},"admin1":{"geonameid":4826850,"name":"West Virginia","admin1":"WV","localeAltName":"West Virginia"},"locations":[{"geonameid":4797284,"name":"Anmoore","admin3":"","localeAltName":null},{"geonameid":4798838,"name":"Bethlehem","admin3":"","localeAltName":null},{"geonameid":4800081,"name":"Bridgeport","admin3":"","localeAltName":null},{"geonameid":4802316,"name":"Clarksburg","admin3":"","localeAltName":null},{"geonameid":4803960,"name":"Despard","admin3":"","localeAltName":null},{"geonameid":4805226,"name":"Enterprise","admin3":"","localeAltName":null},{"geonameid":4808624,"name":"Hepzibah","admin3":"","localeAltName":null},{"geonameid":4813416,"name":"Lumberport","admin3":"","localeAltName":null},{"geonameid":4816898,"name":"Nutter Fort","admin3":"","localeAltName":null},{"geonameid":4821203,"name":"Salem","admin3":"","localeAltName":null},{"geonameid":4822050,"name":"Shinnston","admin3":"","localeAltName":null},{"geonameid":4823571,"name":"Stonewood","admin3":"","localeAltName":null},{"geonameid":4829421,"name":"West Milford","admin3":"","localeAltName":null}],"admin3":[{"geonameid":11788513,"name":"City of Salem","admin3":"11788513"}],"alternateNames":[{"alternatenameId":2124822,"geonameid":4826850,"isoLanguage":"en","alternateName":"West Virginia","isPreferredName":true,"isShortName":true,"isColloquial":false,"isHistoric":false}]},"__N_SSG":true}