{"pageProps":{"locale":"en","admin2":{"geonameid":4819310,"name":"Raleigh County","country":"US","admin1":"WV","admin2":"081","admin3":"","latitude":"37.7713600","longitude":"-81.2486300","localeAltName":null},"admin1":{"geonameid":4826850,"name":"West Virginia","admin1":"WV","localeAltName":"West Virginia"},"locations":[{"geonameid":4798258,"name":"Beaver","admin3":"","localeAltName":null},{"geonameid":4798308,"name":"Beckley","admin3":"","localeAltName":null},{"geonameid":4799770,"name":"Bolt","admin3":"","localeAltName":null},{"geonameid":4799944,"name":"Bradley","admin3":"","localeAltName":null},{"geonameid":4802525,"name":"Coal City","admin3":"","localeAltName":null},{"geonameid":4803150,"name":"Crab Orchard","admin3":"","localeAltName":null},{"geonameid":4803616,"name":"Daniels","admin3":"","localeAltName":null},{"geonameid":4813512,"name":"Mabscott","admin3":"","localeAltName":null},{"geonameid":4813519,"name":"MacArthur","admin3":"","localeAltName":null},{"geonameid":4818383,"name":"Piney View","admin3":"","localeAltName":null},{"geonameid":4819121,"name":"Prosperity","admin3":"","localeAltName":null},{"geonameid":4821800,"name":"Shady Spring","admin3":"","localeAltName":null},{"geonameid":4822741,"name":"Sophia","admin3":"","localeAltName":null},{"geonameid":4823285,"name":"Stanaford","admin3":"","localeAltName":null}],"admin3":[],"alternateNames":[{"alternatenameId":2124822,"geonameid":4826850,"isoLanguage":"en","alternateName":"West Virginia","isPreferredName":true,"isShortName":true,"isColloquial":false,"isHistoric":false}]},"__N_SSG":true}