{"pageProps":{"locale":"en","admin2":{"geonameid":5151606,"name":"Cuyahoga County","country":"US","admin1":"OH","admin2":"035","admin3":"","latitude":"41.4787500","longitude":"-81.6778600","localeAltName":null},"admin1":{"geonameid":5165418,"name":"Ohio","admin1":"OH","localeAltName":"Ohio"},"locations":[{"geonameid":5146675,"name":"Bay Village","admin3":"04416","localeAltName":null},{"geonameid":5146711,"name":"Beachwood","admin3":"04500","localeAltName":null},{"geonameid":5146831,"name":"Bedford","admin3":"04878","localeAltName":null},{"geonameid":5146840,"name":"Bedford Heights","admin3":"04920","localeAltName":null},{"geonameid":5147083,"name":"Bentleyville","admin3":"05550","localeAltName":null},{"geonameid":5147097,"name":"Berea","admin3":"05690","localeAltName":null},{"geonameid":5148101,"name":"Bratenahl","admin3":"08336","localeAltName":null},{"geonameid":5148115,"name":"Brecksville","admin3":"08364","localeAltName":null},{"geonameid":5148273,"name":"Broadview Heights","admin3":"09064","localeAltName":null},{"geonameid":5148326,"name":"Brook Park","admin3":"09288","localeAltName":null},{"geonameid":5148346,"name":"Brooklyn","admin3":"09246","localeAltName":null},{"geonameid":5148352,"name":"Brooklyn Heights","admin3":"16000","localeAltName":null},{"geonameid":5149720,"name":"Chagrin Falls","admin3":"13372","localeAltName":null},{"geonameid":8062667,"name":"Clark-Fulton","admin3":"16000","localeAltName":null},{"geonameid":5150529,"name":"Cleveland","admin3":"16000","localeAltName":null},{"geonameid":4833320,"name":"Cleveland Heights","admin3":"16014","localeAltName":null},{"geonameid":5150792,"name":"Collinwood","admin3":"16000","localeAltName":null},{"geonameid":5151622,"name":"Cuyahoga Heights","admin3":"19806","localeAltName":null},{"geonameid":8062662,"name":"Detroit-Shoreway","admin3":"16000","localeAltName":null},{"geonameid":5152599,"name":"East Cleveland","admin3":"23380","localeAltName":null},{"geonameid":5153420,"name":"Euclid","admin3":"25704","localeAltName":null},{"geonameid":5153680,"name":"Fairview Park","admin3":"26446","localeAltName":null},{"geonameid":5155499,"name":"Garfield Heights","admin3":"29428","localeAltName":null},{"geonameid":5155534,"name":"Gates Mills","admin3":"29498","localeAltName":null},{"geonameid":5155824,"name":"Glendale","admin3":"04878","localeAltName":null},{"geonameid":5155858,"name":"Glenville","admin3":"16000","localeAltName":null},{"geonameid":5155871,"name":"Glenwillow","admin3":"30632","localeAltName":null},{"geonameid":5157497,"name":"Highland Heights","admin3":"35252","localeAltName":null},{"geonameid":5157502,"name":"Highland Hills","admin3":"35255","localeAltName":null},{"geonameid":5158067,"name":"Hough","admin3":"16000","localeAltName":null},{"geonameid":5158234,"name":"Hunting Valley","admin3":"36918","localeAltName":null},{"geonameid":5158404,"name":"Independence","admin3":"37240","localeAltName":null},{"geonameid":5160315,"name":"Lakewood","admin3":"41664","localeAltName":null},{"geonameid":5161493,"name":"Lyndhurst","admin3":"45556","localeAltName":null},{"geonameid":5161803,"name":"Maple Heights","admin3":"47306","localeAltName":null},{"geonameid":5162180,"name":"Mayfield","admin3":"48468","localeAltName":null},{"geonameid":5162188,"name":"Mayfield Heights","admin3":"48482","localeAltName":null},{"geonameid":5162851,"name":"Middleburg Heights","admin3":"49644","localeAltName":null},{"geonameid":5163448,"name":"Moreland Hills","admin3":"52052","localeAltName":null},{"geonameid":5164488,"name":"Newburgh Heights","admin3":"54250","localeAltName":null},{"geonameid":5164862,"name":"North Olmsted","admin3":"56882","localeAltName":null},{"geonameid":5164891,"name":"North Randall","admin3":"56924","localeAltName":null},{"geonameid":5164916,"name":"North Royalton","admin3":"57008","localeAltName":null},{"geonameid":5165311,"name":"Oakwood","admin3":"57750","localeAltName":null},{"geonameid":5165380,"name":"Ohio City","admin3":"16000","localeAltName":null},{"geonameid":5165635,"name":"Olmsted Falls","admin3":"58422","localeAltName":null},{"geonameid":5165695,"name":"Orange","admin3":"58604","localeAltName":null},{"geonameid":5166177,"name":"Parma","admin3":"61000","localeAltName":null},{"geonameid":5166184,"name":"Parma Heights","admin3":"61028","localeAltName":null},{"geonameid":5166438,"name":"Pepper Pike","admin3":"61686","localeAltName":null},{"geonameid":5168063,"name":"Richmond Heights","admin3":"66894","localeAltName":null},{"geonameid":5168491,"name":"Rocky River","admin3":"68056","localeAltName":null},{"geonameid":5171657,"name":"Seven Hills","admin3":"71416","localeAltName":null},{"geonameid":5171728,"name":"Shaker Heights","admin3":"71682","localeAltName":null},{"geonameid":5172387,"name":"Solon","admin3":"72928","localeAltName":null},{"geonameid":5172485,"name":"South Euclid","admin3":"73264","localeAltName":null},{"geonameid":5173237,"name":"Strongsville","admin3":"75098","localeAltName":null},{"geonameid":5174830,"name":"University Heights","admin3":"78932","localeAltName":null},{"geonameid":5174958,"name":"Valley View","admin3":"79268","localeAltName":null},{"geonameid":5175655,"name":"Walton Hills","admin3":"80738","localeAltName":null},{"geonameid":5175726,"name":"Warrensville Heights","admin3":"56924","localeAltName":null},{"geonameid":5176517,"name":"Westlake","admin3":"83622","localeAltName":null},{"geonameid":5177304,"name":"Woodmere","admin3":"86394","localeAltName":null}],"admin3":[{"geonameid":5146679,"name":"City of Bay Village","admin3":"04416","localeAltName":null},{"geonameid":5146717,"name":"City of Beachwood","admin3":"04500","localeAltName":null},{"geonameid":5146844,"name":"City of Bedford Heights","admin3":"04920","localeAltName":null},{"geonameid":5146849,"name":"City of Bedford","admin3":"04878","localeAltName":null},{"geonameid":5147084,"name":"Village of Bentleyville","admin3":"05550","localeAltName":null},{"geonameid":5147108,"name":"City of Berea","admin3":"05690","localeAltName":null},{"geonameid":5148104,"name":"Village of Bratenahl","admin3":"08336","localeAltName":null},{"geonameid":5148125,"name":"City of Brecksville","admin3":"08364","localeAltName":null},{"geonameid":5148276,"name":"City of Broadview Heights","admin3":"09064","localeAltName":null},{"geonameid":5148328,"name":"City of Brook Park","admin3":"09288","localeAltName":null},{"geonameid":5148356,"name":"Village of Brooklyn Heights","admin3":"09274"},{"geonameid":5148362,"name":"City of Brooklyn","admin3":"09246","localeAltName":null},{"geonameid":5149729,"name":"Township of Chagrin Falls","admin3":"13372","localeAltName":null},{"geonameid":5150555,"name":"City of Cleveland Heights","admin3":"16014","localeAltName":null},{"geonameid":5150583,"name":"City of Cleveland","admin3":"16000","localeAltName":null},{"geonameid":5151626,"name":"Village of Cuyahoga Heights","admin3":"19806","localeAltName":null},{"geonameid":5152605,"name":"City of East Cleveland","admin3":"23380","localeAltName":null},{"geonameid":5153448,"name":"City of Euclid","admin3":"25704","localeAltName":null},{"geonameid":5153687,"name":"City of Fairview Park","admin3":"26446","localeAltName":null},{"geonameid":5155502,"name":"City of Garfield Heights","admin3":"29428","localeAltName":null},{"geonameid":5155539,"name":"Village of Gates Mills","admin3":"29498","localeAltName":null},{"geonameid":5155874,"name":"Village of Glenwillow","admin3":"30632","localeAltName":null},{"geonameid":5157499,"name":"City of Highland Heights","admin3":"35252","localeAltName":null},{"geonameid":5157503,"name":"Village of Highland Hills","admin3":"35255","localeAltName":null},{"geonameid":5158236,"name":"Village of Hunting Valley","admin3":"36918","localeAltName":null},{"geonameid":5158421,"name":"City of Independence","admin3":"37240","localeAltName":null},{"geonameid":5160336,"name":"City of Lakewood","admin3":"41664","localeAltName":null},{"geonameid":5160931,"name":"Village of Linndale","admin3":"43918"},{"geonameid":5161497,"name":"City of Lyndhurst","admin3":"45556","localeAltName":null},{"geonameid":5161809,"name":"City of Maple Heights","admin3":"47306","localeAltName":null},{"geonameid":5162190,"name":"City of Mayfield Heights","admin3":"48482","localeAltName":null},{"geonameid":5162197,"name":"Village of Mayfield","admin3":"48468","localeAltName":null},{"geonameid":5162853,"name":"City of Middleburg Heights","admin3":"49644","localeAltName":null},{"geonameid":5163452,"name":"Village of Moreland Hills","admin3":"52052","localeAltName":null},{"geonameid":5164489,"name":"Village of Newburgh Heights","admin3":"54250","localeAltName":null},{"geonameid":5164871,"name":"City of North Olmsted","admin3":"56882","localeAltName":null},{"geonameid":5164894,"name":"Village of North Randall","admin3":"56924","localeAltName":null},{"geonameid":5164923,"name":"City of North Royalton","admin3":"57008","localeAltName":null},{"geonameid":5165331,"name":"Village of Oakwood","admin3":"57750","localeAltName":null},{"geonameid":5165639,"name":"City of Olmsted Falls","admin3":"58422","localeAltName":null},{"geonameid":5165643,"name":"Township of Olmsted","admin3":"58408"},{"geonameid":5165714,"name":"Village of Orange","admin3":"58604","localeAltName":null},{"geonameid":5166189,"name":"City of Parma Heights","admin3":"61028","localeAltName":null},{"geonameid":5166199,"name":"City of Parma","admin3":"61000","localeAltName":null},{"geonameid":5166442,"name":"City of Pepper Pike","admin3":"61686","localeAltName":null},{"geonameid":5168069,"name":"City of Richmond Heights","admin3":"66894","localeAltName":null},{"geonameid":5168506,"name":"City of Rocky River","admin3":"68056","localeAltName":null},{"geonameid":5171661,"name":"City of Seven Hills","admin3":"71416","localeAltName":null},{"geonameid":5171735,"name":"City of Shaker Heights","admin3":"71682","localeAltName":null},{"geonameid":5172395,"name":"City of Solon","admin3":"72928","localeAltName":null},{"geonameid":5172489,"name":"City of South Euclid","admin3":"73264","localeAltName":null},{"geonameid":5173248,"name":"City of Strongsville","admin3":"75098","localeAltName":null},{"geonameid":5174833,"name":"City of University Heights","admin3":"78932","localeAltName":null},{"geonameid":5174970,"name":"Village of Valley View","admin3":"79268","localeAltName":null},{"geonameid":5175658,"name":"Village of Walton Hills","admin3":"80738","localeAltName":null},{"geonameid":5175730,"name":"City of Warrensville Heights","admin3":"80990"},{"geonameid":5176525,"name":"City of Westlake","admin3":"83622","localeAltName":null},{"geonameid":5177306,"name":"Village of Woodmere","admin3":"86394","localeAltName":null}],"alternateNames":[{"alternatenameId":2089549,"geonameid":5165418,"isoLanguage":"en","alternateName":"Ohio","isPreferredName":true,"isShortName":true,"isColloquial":false,"isHistoric":false}]},"__N_SSG":true}