{"pageProps":{"locale":"en","admin2":{"geonameid":4512438,"name":"Gallia County","country":"US","admin1":"OH","admin2":"053","admin3":"","latitude":"38.8246700","longitude":"-82.3169100","localeAltName":null},"admin1":{"geonameid":5165418,"name":"Ohio","admin1":"OH","localeAltName":"Ohio"},"locations":[{"geonameid":4512449,"name":"Gallipolis","admin3":"29218","localeAltName":null},{"geonameid":4522533,"name":"Rio Grande","admin3":"65228","localeAltName":null}],"admin3":[{"geonameid":4505027,"name":"Township of Addison","admin3":"00422"},{"geonameid":4508422,"name":"Township of Cheshire","admin3":"13946"},{"geonameid":4508864,"name":"Township of Clay","admin3":"15462"},{"geonameid":4512455,"name":"Township of Gallipolis","admin3":"29218","localeAltName":null},{"geonameid":4513236,"name":"Township of Green","admin3":"31738"},{"geonameid":4513308,"name":"Township of Greenfield","admin3":"32074"},{"geonameid":4513471,"name":"Township of Guyan","admin3":"32760"},{"geonameid":4513832,"name":"Township of Harrison","admin3":"33824"},{"geonameid":4514857,"name":"Township of Huntington","admin3":"36848"},{"geonameid":4518693,"name":"Township of Morgan","admin3":"52094"},{"geonameid":4520372,"name":"Township of Ohio","admin3":"57974"},{"geonameid":4521118,"name":"Township of Perry","admin3":"61854"},{"geonameid":4522140,"name":"Township of Raccoon","admin3":"65228","localeAltName":null},{"geonameid":4525343,"name":"Township of Springfield","admin3":"74120"},{"geonameid":4527575,"name":"Township of Walnut","admin3":"80584"}],"alternateNames":[{"alternatenameId":2089549,"geonameid":5165418,"isoLanguage":"en","alternateName":"Ohio","isPreferredName":true,"isShortName":true,"isColloquial":false,"isHistoric":false}]},"__N_SSG":true}