{"pageProps":{"locale":"en","admin2":{"geonameid":5156770,"name":"Hancock County","country":"US","admin1":"OH","admin2":"063","admin3":"","latitude":"41.0019400","longitude":"-83.6665400","localeAltName":null},"admin1":{"geonameid":5165418,"name":"Ohio","admin1":"OH","localeAltName":"Ohio"},"locations":[{"geonameid":5145954,"name":"Arcadia","admin3":"81284","localeAltName":null},{"geonameid":5145962,"name":"Arlington","admin3":"02400","localeAltName":null},{"geonameid":5153924,"name":"Findlay","admin3":"27048","localeAltName":null},{"geonameid":5162260,"name":"McComb","admin3":"63268","localeAltName":null},{"geonameid":5167750,"name":"Rawson","admin3":"78330","localeAltName":null}],"admin3":[{"geonameid":5145597,"name":"Township of Allen","admin3":"01308"},{"geonameid":5145669,"name":"Township of Amanda","admin3":"01644"},{"geonameid":5147491,"name":"Township of Biglick","admin3":"06362"},{"geonameid":5147637,"name":"Township of Blanchard","admin3":"06838"},{"geonameid":5149380,"name":"Township of Cass","admin3":"12392"},{"geonameid":5151922,"name":"Township of Delaware","admin3":"21462"},{"geonameid":5152501,"name":"Township of Eagle","admin3":"23086"},{"geonameid":5153943,"name":"City of Findlay","admin3":"27048","localeAltName":null},{"geonameid":5159005,"name":"Township of Jackson","admin3":"37800"},{"geonameid":5160713,"name":"Township of Liberty","admin3":"43148"},{"geonameid":5161601,"name":"Township of Madison","admin3":"46438"},{"geonameid":5161932,"name":"Township of Marion","admin3":"47698"},{"geonameid":5165712,"name":"Township of Orange","admin3":"58632"},{"geonameid":5167118,"name":"Township of Pleasant","admin3":"63268","localeAltName":null},{"geonameid":5167306,"name":"Township of Portage","admin3":"64066"},{"geonameid":5174734,"name":"Township of Union","admin3":"78330","localeAltName":null},{"geonameid":5174987,"name":"Township of Van Buren","admin3":"79408"},{"geonameid":5175807,"name":"Township of Washington","admin3":"81284","localeAltName":null},{"geonameid":7165731,"name":"Village of Arlington","admin3":"02400","localeAltName":null}],"alternateNames":[{"alternatenameId":2089549,"geonameid":5165418,"isoLanguage":"en","alternateName":"Ohio","isPreferredName":true,"isShortName":true,"isColloquial":false,"isHistoric":false}]},"__N_SSG":true}