{"pageProps":{"locale":"de","admin2":{"geonameid":2937935,"name":"Regierungsbezirk Detmold","country":"DE","admin1":"07","admin2":"057","admin3":"","latitude":"51.9666000","longitude":"8.7833300","localeAltName":null},"admin1":{"geonameid":2861876,"name":"Nordrhein-Westfalen","admin1":"07","localeAltName":"Nordrhein-Westfalen"},"locations":[{"geonameid":2957864,"name":"Altenbeken","admin3":"05774","localeAltName":null},{"geonameid":2954164,"name":"Augustdorf","admin3":"05766","localeAltName":null},{"geonameid":2953525,"name":"Bad Driburg","admin3":"05762","localeAltName":null},{"geonameid":2899780,"name":"Bad Holzhausen","admin3":"05770","localeAltName":null},{"geonameid":2953405,"name":"Bad Lippspringe","admin3":"05774","localeAltName":null},{"geonameid":2953403,"name":"Bad Meinberg","admin3":"05766","localeAltName":null},{"geonameid":2953386,"name":"Bad Oeynhausen","admin3":"05770","localeAltName":null},{"geonameid":2953358,"name":"Bad Salzuflen","admin3":"05766","localeAltName":null},{"geonameid":2805785,"name":"Bad Wünnenberg","admin3":"05774","localeAltName":null},{"geonameid":2952444,"name":"Barntrup","admin3":"05766","localeAltName":null},{"geonameid":2949475,"name":"Beverungen","admin3":"05762","localeAltName":null},{"geonameid":2949186,"name":"Bielefeld","admin3":"05711","localeAltName":null},{"geonameid":2947641,"name":"Blomberg","admin3":"05766","localeAltName":null},{"geonameid":2946291,"name":"Borgentreich","admin3":"05762","localeAltName":null},{"geonameid":2946270,"name":"Borgholzhausen","admin3":"05754","localeAltName":null},{"geonameid":2945542,"name":"Brakel","admin3":"05762","localeAltName":null},{"geonameid":2941694,"name":"Bünde","admin3":"05758","localeAltName":null},{"geonameid":2941570,"name":"Büren","admin3":"05774","localeAltName":null},{"geonameid":2938389,"name":"Delbrück","admin3":"05774","localeAltName":null},{"geonameid":2937936,"name":"Detmold","admin3":"05766","localeAltName":null},{"geonameid":2936153,"name":"Dörentrup","admin3":"05766","localeAltName":null},{"geonameid":2930182,"name":"Enger","admin3":"05758","localeAltName":null},{"geonameid":2928874,"name":"Espelkamp","admin3":"05770","localeAltName":null},{"geonameid":2913366,"name":"Gütersloh","admin3":"05754","localeAltName":null},{"geonameid":2911520,"name":"Halle","admin3":"05754","localeAltName":null},{"geonameid":2910278,"name":"Harsewinkel","admin3":"05754","localeAltName":null},{"geonameid":2906121,"name":"Herford","admin3":"05758","localeAltName":null},{"geonameid":2904886,"name":"Hiddenhausen","admin3":"05758","localeAltName":null},{"geonameid":2904725,"name":"Hille","admin3":"05770","localeAltName":null},{"geonameid":2898924,"name":"Horn","admin3":"05766","localeAltName":null},{"geonameid":2898364,"name":"Hövelhof","admin3":"05774","localeAltName":null},{"geonameid":2898321,"name":"Höxter","admin3":"05762","localeAltName":null},{"geonameid":2897844,"name":"Hüllhorst","admin3":"05770","localeAltName":null},{"geonameid":2890425,"name":"Kirchlengern","admin3":"05758","localeAltName":null},{"geonameid":2881956,"name":"Lage","admin3":"05766","localeAltName":null},{"geonameid":2881175,"name":"Langenberg","admin3":"05754","localeAltName":null},{"geonameid":2878943,"name":"Lemgo","admin3":"05766","localeAltName":null},{"geonameid":2878673,"name":"Leopoldshöhe","admin3":"05766","localeAltName":null},{"geonameid":2878133,"name":"Lichtenau","admin3":"05774","localeAltName":null},{"geonameid":2876187,"name":"Löhne","admin3":"05758","localeAltName":null},{"geonameid":2875626,"name":"Lübbecke","admin3":"05770","localeAltName":null},{"geonameid":2875282,"name":"Lügde","admin3":"05766","localeAltName":null},{"geonameid":2871039,"name":"Minden","admin3":"05770","localeAltName":null},{"geonameid":2862675,"name":"Nieheim","admin3":"05762","localeAltName":null},{"geonameid":2859682,"name":"Obernbeck","admin3":"05758","localeAltName":null},{"geonameid":2857900,"name":"Oerlinghausen","admin3":"05766","localeAltName":null},{"geonameid":2855745,"name":"Paderborn","admin3":"05774","localeAltName":null},{"geonameid":2854655,"name":"Petershagen","admin3":"05770","localeAltName":null},{"geonameid":2852577,"name":"Porta Westfalica","admin3":"05770","localeAltName":null},{"geonameid":2852144,"name":"Preußisch Oldendorf","admin3":"05770","localeAltName":null},{"geonameid":2850887,"name":"Rahden","admin3":"05770","localeAltName":null},{"geonameid":2847690,"name":"Rheda-Wiedenbrück","admin3":"05754","localeAltName":null},{"geonameid":2846843,"name":"Rietberg","admin3":"05754","localeAltName":null},{"geonameid":2845919,"name":"Rödinghausen","admin3":"05758","localeAltName":null},{"geonameid":2842131,"name":"Salzkotten","admin3":"05774","localeAltName":null},{"geonameid":3207383,"name":"Schieder-Schwalenberg","admin3":"05766","localeAltName":null},{"geonameid":2838922,"name":"Schlangen","admin3":"05766","localeAltName":null},{"geonameid":2830637,"name":"Spenge","admin3":"05758","localeAltName":null},{"geonameid":2828050,"name":"Steinhagen","admin3":"05754","localeAltName":null},{"geonameid":2827990,"name":"Steinheim","admin3":"05762","localeAltName":null},{"geonameid":2817576,"name":"Verl","admin3":"05754","localeAltName":null},{"geonameid":2817537,"name":"Versmold","admin3":"05754","localeAltName":null},{"geonameid":2817105,"name":"Vlotho","admin3":"05758","localeAltName":null},{"geonameid":2814153,"name":"Warburg","admin3":"05762","localeAltName":null},{"geonameid":2810710,"name":"Werther","admin3":"05754","localeAltName":null},{"geonameid":2808619,"name":"Willebadessen","admin3":"05762","localeAltName":null}],"admin3":[{"geonameid":2871034,"name":"Kreis Minden-Lübbecke","admin3":"05770","localeAltName":null},{"geonameid":2876922,"name":"Kreis Lippe","admin3":"05766","localeAltName":null},{"geonameid":3221125,"name":"Kreisfreie Stadt Bielefeld","admin3":"05711","localeAltName":null},{"geonameid":3221127,"name":"Kreis Gütersloh","admin3":"05754","localeAltName":null},{"geonameid":3221129,"name":"Kreis Herford","admin3":"05758","localeAltName":null},{"geonameid":3231882,"name":"Kreis Höxter","admin3":"05762","localeAltName":null},{"geonameid":3231898,"name":"Kreis Paderborn","admin3":"05774","localeAltName":null}],"alternateNames":[{"alternatenameId":2080494,"geonameid":2861876,"isoLanguage":"de","alternateName":"Nordrhein-Westfalen","isPreferredName":true,"isShortName":true,"isColloquial":false,"isHistoric":false}]},"__N_SSG":true}