{"pageProps":{"locale":"en","admin2":{"geonameid":4243907,"name":"Marion County","country":"US","admin1":"IL","admin2":"121","admin3":"","latitude":"38.6495900","longitude":"-88.9189700","localeAltName":null},"admin1":{"geonameid":4896861,"name":"Illinois","admin1":"IL","localeAltName":"Illinois"},"locations":[{"geonameid":4235535,"name":"Central City","admin3":"12177","localeAltName":null},{"geonameid":4235587,"name":"Centralia","admin3":"12177","localeAltName":null},{"geonameid":4242307,"name":"Kinmundy","admin3":"40130","localeAltName":null},{"geonameid":4246147,"name":"Odin","admin3":"55223","localeAltName":null},{"geonameid":4246717,"name":"Patoka","admin3":"58070","localeAltName":null},{"geonameid":4249286,"name":"Salem","admin3":"67249","localeAltName":null},{"geonameid":4249437,"name":"Sandoval","admin3":"67457","localeAltName":null},{"geonameid":4252425,"name":"Wamac","admin3":"12177","localeAltName":null}],"admin3":[{"geonameid":4232651,"name":"Township of Alma","admin3":"00932"},{"geonameid":4235281,"name":"Township of Carrigan","admin3":"11436"},{"geonameid":4235599,"name":"Township of Centralia","admin3":"12177","localeAltName":null},{"geonameid":4238898,"name":"Township of Foster","admin3":"27195"},{"geonameid":4240063,"name":"Township of Haines","admin3":"32187"},{"geonameid":4241659,"name":"Township of Iuka","admin3":"37946"},{"geonameid":4242313,"name":"Township of Kinmundy","admin3":"40130","localeAltName":null},{"geonameid":4244333,"name":"Township of Meacham","admin3":"47826"},{"geonameid":4246150,"name":"Township of Odin","admin3":"55223","localeAltName":null},{"geonameid":4246396,"name":"Township of Omega","admin3":"56055"},{"geonameid":4246727,"name":"Township of Patoka","admin3":"58070","localeAltName":null},{"geonameid":4247751,"name":"Township of Raccoon","admin3":"62445"},{"geonameid":4248417,"name":"Township of Romine","admin3":"65455"},{"geonameid":4249337,"name":"Township of Salem","admin3":"67249","localeAltName":null},{"geonameid":4249441,"name":"Township of Sandoval","admin3":"67457","localeAltName":null},{"geonameid":4250658,"name":"Township of Stevenson","admin3":"72598"},{"geonameid":4251353,"name":"Township of Tonti","admin3":"75744"}],"alternateNames":[{"alternatenameId":2089562,"geonameid":4896861,"isoLanguage":"en","alternateName":"Illinois","isPreferredName":true,"isShortName":true,"isColloquial":false,"isHistoric":false}]},"__N_SSG":true}