{"pageProps":{"locale":"en","admin2":{"geonameid":4252486,"name":"Washington County","country":"US","admin1":"IL","admin2":"189","admin3":"","latitude":"38.3521700","longitude":"-89.4104500","localeAltName":null},"admin1":{"geonameid":4896861,"name":"Illinois","admin1":"IL","localeAltName":"Illinois"},"locations":[{"geonameid":4232964,"name":"Ashley","admin3":"02544","localeAltName":null},{"geonameid":4241091,"name":"Hoyleton","admin3":"36360","localeAltName":null},{"geonameid":4241612,"name":"Irvington","admin3":"37790","localeAltName":null},{"geonameid":4245376,"name":"Nashville","admin3":"51713","localeAltName":null},{"geonameid":4246180,"name":"Okawville","admin3":"55483","localeAltName":null}],"admin3":[{"geonameid":4232972,"name":"Township of Ashley","admin3":"02544","localeAltName":null},{"geonameid":4233394,"name":"Township of Beaucoup","admin3":"04442"},{"geonameid":4234173,"name":"Township of Bolo","admin3":"07172"},{"geonameid":4236481,"name":"Township of Covington","admin3":"17042"},{"geonameid":4237311,"name":"Township of Du Bois","admin3":"20877"},{"geonameid":4241094,"name":"Township of Hoyleton","admin3":"36360","localeAltName":null},{"geonameid":4241618,"name":"Township of Irvington","admin3":"37790","localeAltName":null},{"geonameid":4241866,"name":"Township of Johannisburg","admin3":"38453"},{"geonameid":4243326,"name":"Township of Lively Grove","admin3":"44108"},{"geonameid":4245385,"name":"Township of Nashville","admin3":"51713","localeAltName":null},{"geonameid":4246079,"name":"Township of Oakdale","admin3":"54599"},{"geonameid":4246185,"name":"Township of Okawville","admin3":"55483","localeAltName":null},{"geonameid":4246972,"name":"Township of Pilot Knob","admin3":"59858"},{"geonameid":4247310,"name":"Township of Plum Hill","admin3":"60807"},{"geonameid":4248081,"name":"Township of Richview","admin3":"63732"},{"geonameid":4251956,"name":"Township of Venedy","admin3":"77434"}],"alternateNames":[{"alternatenameId":2089562,"geonameid":4896861,"isoLanguage":"en","alternateName":"Illinois","isPreferredName":true,"isShortName":true,"isColloquial":false,"isHistoric":false}]},"__N_SSG":true}