{"pageProps":{"locale":"en","admin2":{"geonameid":5764690,"name":"Fall River County","country":"US","admin1":"SD","admin2":"047","admin3":"","latitude":"43.2393900","longitude":"-103.5275600","localeAltName":null},"admin1":{"geonameid":5769223,"name":"South Dakota","admin1":"SD","localeAltName":"South Dakota"},"locations":[{"geonameid":5764489,"name":"Edgemont","admin3":"18300","localeAltName":null},{"geonameid":5765751,"name":"Hot Springs","admin3":"30220","localeAltName":null}],"admin3":[{"geonameid":5762449,"name":"Township of Argentine","admin3":"02060"},{"geonameid":5764492,"name":"City of Edgemont","admin3":"18300","localeAltName":null},{"geonameid":5765748,"name":"City of Hot Springs","admin3":"30220","localeAltName":null},{"geonameid":5767544,"name":"Unorganized Territory of Northeast Fall River","admin3":"45560"},{"geonameid":5767609,"name":"Town of Oelrichs","admin3":"46500"},{"geonameid":5768127,"name":"Township of Provo","admin3":"52180"},{"geonameid":5769278,"name":"Unorganized Territory of Southwest Fall River","admin3":"59955"}],"alternateNames":[{"alternatenameId":2089551,"geonameid":5769223,"isoLanguage":"en","alternateName":"South Dakota","isPreferredName":true,"isShortName":true,"isColloquial":false,"isHistoric":false}]},"__N_SSG":true}