{"pageProps":{"locale":"it","admin2":{"geonameid":3171364,"name":"Provincia di Pavia","country":"IT","admin1":"09","admin2":"PV","admin3":"","latitude":"45.1166700","longitude":"9.1333300","localeAltName":"Pavia"},"admin1":{"geonameid":3174618,"name":"Lombardia","admin1":"09","localeAltName":"Lombardia"},"locations":[{"geonameid":3183370,"name":"Alagna","admin3":"018001","localeAltName":null},{"geonameid":3183309,"name":"Albonese","admin3":"018003","localeAltName":null},{"geonameid":3183306,"name":"Albuzzano","admin3":"018004","localeAltName":null},{"geonameid":3182888,"name":"Arena Po","admin3":"018005","localeAltName":null},{"geonameid":3182386,"name":"Barbianello","admin3":"018008","localeAltName":null},{"geonameid":3182318,"name":"Bascapè","admin3":"018009","localeAltName":null},{"geonameid":6534566,"name":"Bastida Pancarana","admin3":"018011","localeAltName":null},{"geonameid":3182237,"name":"Belgioioso","admin3":"018013","localeAltName":null},{"geonameid":3182167,"name":"Bereguardo","admin3":"018014","localeAltName":null},{"geonameid":9036155,"name":"Bivio Cava Manara","admin3":"018137","localeAltName":null},{"geonameid":6535208,"name":"Borgarello","admin3":"018015","localeAltName":null},{"geonameid":6534976,"name":"Borgo San Siro","admin3":"018018","localeAltName":null},{"geonameid":3181729,"name":"Bornasco","admin3":"018019","localeAltName":null},{"geonameid":3181573,"name":"Breme","admin3":"018022","localeAltName":null},{"geonameid":3181551,"name":"Bressana","admin3":"018023","localeAltName":null},{"geonameid":3181507,"name":"Broni","admin3":"018024","localeAltName":null},{"geonameid":8949955,"name":"Calignano","admin3":"018060","localeAltName":null},{"geonameid":8950011,"name":"Camporinaldo","admin3":"018093","localeAltName":null},{"geonameid":3180911,"name":"Campospinoso","admin3":"018026","localeAltName":null},{"geonameid":3180867,"name":"Candia Lomellina","admin3":"018027","localeAltName":null},{"geonameid":3180806,"name":"Canneto Pavese","admin3":"018029","localeAltName":null},{"geonameid":3180572,"name":"Carbonara al Ticino","admin3":"018030","localeAltName":null},{"geonameid":3180008,"name":"Casatisma","admin3":"018032","localeAltName":null},{"geonameid":8950390,"name":"Cascine Calderari","admin3":"018046","localeAltName":null},{"geonameid":3179925,"name":"Casei","admin3":"018033","localeAltName":null},{"geonameid":3179809,"name":"Casorate Primo","admin3":"018034","localeAltName":null},{"geonameid":8950186,"name":"Casottole","admin3":"018159","localeAltName":null},{"geonameid":3179778,"name":"Cassolnovo","admin3":"018035","localeAltName":null},{"geonameid":3179745,"name":"Casteggio","admin3":"018037","localeAltName":null},{"geonameid":6534756,"name":"Castelletto di Branduzzo","admin3":"018038","localeAltName":null},{"geonameid":8949935,"name":"Castelletto Po","admin3":"018038","localeAltName":null},{"geonameid":6535211,"name":"Castello d'Agogna","admin3":"018039","localeAltName":null},{"geonameid":3179550,"name":"Castelnovetto","admin3":"018040","localeAltName":null},{"geonameid":3179305,"name":"Cava Manara","admin3":"018041","localeAltName":null},{"geonameid":6535791,"name":"Ceranova","admin3":"018043","localeAltName":null},{"geonameid":3179082,"name":"Cergnago","admin3":"018045","localeAltName":null},{"geonameid":3179020,"name":"Certosa di Pavia","admin3":"018046","localeAltName":null},{"geonameid":3179000,"name":"Cervesina","admin3":"018047","localeAltName":null},{"geonameid":6534978,"name":"Chignolo Po","admin3":"018048","localeAltName":null},{"geonameid":3178698,"name":"Cilavegna","admin3":"018050","localeAltName":null},{"geonameid":3178506,"name":"Codevilla","admin3":"018051","localeAltName":null},{"geonameid":3178193,"name":"Confienza","admin3":"018052","localeAltName":null},{"geonameid":3178140,"name":"Copiano","admin3":"018053","localeAltName":null},{"geonameid":3178076,"name":"Cornale","admin3":"018191","localeAltName":null},{"geonameid":3177972,"name":"Corteolona","admin3":"018192","localeAltName":null},{"geonameid":6534535,"name":"Corvino San Quirico","admin3":"018057","localeAltName":null},{"geonameid":6535794,"name":"Cura Carpignano","admin3":"018060","localeAltName":null},{"geonameid":3177508,"name":"Dorno","admin3":"018061","localeAltName":null},{"geonameid":3177079,"name":"Ferrera Erbognone","admin3":"018062","localeAltName":null},{"geonameid":3176994,"name":"Filighera","admin3":"018063","localeAltName":null},{"geonameid":8950245,"name":"Fossarmato","admin3":"018110","localeAltName":null},{"geonameid":6534980,"name":"Frascarolo","admin3":"018065","localeAltName":null},{"geonameid":8949849,"name":"Fumo","admin3":"018057","localeAltName":null},{"geonameid":8948910,"name":"Gallo-Tre Re-Mezzana Corti","admin3":"018041","localeAltName":null},{"geonameid":3176333,"name":"Gambolò","admin3":"018068","localeAltName":null},{"geonameid":3176299,"name":"Garlasco","admin3":"018069","localeAltName":null},{"geonameid":3176196,"name":"Gerenzago","admin3":"018071","localeAltName":null},{"geonameid":8949215,"name":"Giovenzano","admin3":"018173","localeAltName":null},{"geonameid":3176043,"name":"Giussago","admin3":"018072","localeAltName":null},{"geonameid":3176019,"name":"Godiasco","admin3":"018073","localeAltName":null},{"geonameid":3175865,"name":"Gravellona","admin3":"018075","localeAltName":null},{"geonameid":3175798,"name":"Gropello Cairoli","admin3":"018076","localeAltName":null},{"geonameid":8949544,"name":"Gualdrasco","admin3":"018019","localeAltName":null},{"geonameid":8949232,"name":"Guinzano","admin3":"018072","localeAltName":null},{"geonameid":3175496,"name":"Inverno","admin3":"018077","localeAltName":null},{"geonameid":6534536,"name":"Inverno e Monteleone","admin3":"018077","localeAltName":null},{"geonameid":8949323,"name":"Lambrinia","admin3":"018048","localeAltName":null},{"geonameid":3175168,"name":"Landriano","admin3":"018078","localeAltName":null},{"geonameid":3175113,"name":"Lardirago","admin3":"018080","localeAltName":null},{"geonameid":6535212,"name":"Linarolo","admin3":"018081","localeAltName":null},{"geonameid":3174611,"name":"Lomello","admin3":"018083","localeAltName":null},{"geonameid":3174463,"name":"Lungavilla","admin3":"018084","localeAltName":null},{"geonameid":8950262,"name":"Madonna","admin3":"018137","localeAltName":null},{"geonameid":6534982,"name":"Magherno","admin3":"018085","localeAltName":null},{"geonameid":6534983,"name":"Marcignago","admin3":"018086","localeAltName":null},{"geonameid":6534984,"name":"Marzano","admin3":"018087","localeAltName":null},{"geonameid":3173667,"name":"Mede","admin3":"018088","localeAltName":null},{"geonameid":3173507,"name":"Mezzana Bigli","admin3":"018090","localeAltName":null},{"geonameid":3173502,"name":"Mezzanino","admin3":"018092","localeAltName":null},{"geonameid":3173377,"name":"Miradolo Terme","admin3":"018093","localeAltName":null},{"geonameid":3173033,"name":"Montebello","admin3":"018095","localeAltName":null},{"geonameid":6534537,"name":"Montecalvo Versiggia","admin3":"018096","localeAltName":null},{"geonameid":3172877,"name":"Monteleone","admin3":"018077","localeAltName":null},{"geonameid":3172632,"name":"Montù Beccaria","admin3":"018100","localeAltName":null},{"geonameid":6534538,"name":"Mornico Losana","admin3":"018101","localeAltName":null},{"geonameid":3172557,"name":"Mortara","admin3":"018102","localeAltName":null},{"geonameid":3172075,"name":"Olevano di Lomellina","admin3":"018104","localeAltName":null},{"geonameid":3171774,"name":"Ottobiano","admin3":"018106","localeAltName":null},{"geonameid":8949624,"name":"Pairana","admin3":"018078","localeAltName":null},{"geonameid":3171605,"name":"Palestro","admin3":"018107","localeAltName":null},{"geonameid":3171450,"name":"Parona","admin3":"018109","localeAltName":null},{"geonameid":3171366,"name":"Pavia","admin3":"018110","localeAltName":null},{"geonameid":3170763,"name":"Pieve Albignola","admin3":"018112","localeAltName":null},{"geonameid":3170757,"name":"Pieve del Cairo","admin3":"018113","localeAltName":null},{"geonameid":3170736,"name":"Pieve Porto Morone","admin3":"018114","localeAltName":null},{"geonameid":6535217,"name":"Pinarolo Po","admin3":"018115","localeAltName":null},{"geonameid":6535797,"name":"Pizzale","admin3":"018116","localeAltName":null},{"geonameid":3170127,"name":"Portalbera","admin3":"018118","localeAltName":null},{"geonameid":6534579,"name":"Redavalle","admin3":"018120","localeAltName":null},{"geonameid":8949673,"name":"Remondò","admin3":"018068","localeAltName":null},{"geonameid":3169468,"name":"Retorbido","admin3":"018121","localeAltName":null},{"geonameid":3169258,"name":"Rivanazzano","admin3":"018122","localeAltName":null},{"geonameid":3169212,"name":"Robbio","admin3":"018123","localeAltName":null},{"geonameid":6534581,"name":"Roncaro","admin3":"018129","localeAltName":null},{"geonameid":3168955,"name":"Rosasco","admin3":"018130","localeAltName":null},{"geonameid":8949242,"name":"Rotta","admin3":"018162","localeAltName":null},{"geonameid":6534582,"name":"Rovescala","admin3":"018131","localeAltName":null},{"geonameid":3168710,"name":"Sairano","admin3":"018190","localeAltName":null},{"geonameid":3168657,"name":"Salice Terme","admin3":"018073","localeAltName":null},{"geonameid":3168441,"name":"San Damiano al Colle","admin3":"018134","localeAltName":null},{"geonameid":3168344,"name":"San Genesio ed Uniti","admin3":"018135","localeAltName":null},{"geonameid":3168303,"name":"San Giorgio di Lomellina","admin3":"018136","localeAltName":null},{"geonameid":3168000,"name":"San Martino Siccomario","admin3":"018137","localeAltName":null},{"geonameid":3167159,"name":"San Zenone al Po","admin3":"018145","localeAltName":null},{"geonameid":3167945,"name":"Sannazzaro de' Burgondi","admin3":"018138","localeAltName":null},{"geonameid":6534583,"name":"Sant'Alessio Con Vialone","admin3":"018141","localeAltName":null},{"geonameid":3167438,"name":"Sant'Angelo Lomellina","admin3":"018144","localeAltName":null},{"geonameid":3167678,"name":"Santa Cristina","admin3":"018139","localeAltName":null},{"geonameid":3167642,"name":"Santa Giuletta","admin3":"018140","localeAltName":null},{"geonameid":6534545,"name":"Santa Margherita di Staffora","admin3":"018142","localeAltName":null},{"geonameid":6534584,"name":"Santa Maria della Versa","admin3":"018143","localeAltName":null},{"geonameid":3167108,"name":"Sartirana Lomellina","admin3":"018146","localeAltName":null},{"geonameid":3167001,"name":"Scaldasole","admin3":"018147","localeAltName":null},{"geonameid":3166521,"name":"Silvano Pietra","admin3":"018149","localeAltName":null},{"geonameid":3166479,"name":"Siziano","admin3":"018150","localeAltName":null},{"geonameid":3166449,"name":"Solaro","admin3":"018166","localeAltName":null},{"geonameid":6535218,"name":"Sommo","admin3":"018151","localeAltName":null},{"geonameid":3166114,"name":"Stradella","admin3":"018153","localeAltName":null},{"geonameid":3166055,"name":"Suardi","admin3":"018154","localeAltName":null},{"geonameid":3165485,"name":"Torrazza Coste","admin3":"018155","localeAltName":null},{"geonameid":6535220,"name":"Torre d'Arese","admin3":"018157","localeAltName":null},{"geonameid":3165454,"name":"Torre del Mangano","admin3":"018046","localeAltName":null},{"geonameid":6535221,"name":"Torrevecchia Pia","admin3":"018160","localeAltName":null},{"geonameid":8949554,"name":"Torriano","admin3":"018046","localeAltName":null},{"geonameid":6534601,"name":"Travacò Siccomario","admin3":"018162","localeAltName":null},{"geonameid":6535222,"name":"Trivolzio","admin3":"018163","localeAltName":null},{"geonameid":3165140,"name":"Tromello","admin3":"018164","localeAltName":null},{"geonameid":3165129,"name":"Trovo","admin3":"018165","localeAltName":null},{"geonameid":8950090,"name":"Turago Bordone","admin3":"018072","localeAltName":null},{"geonameid":3164850,"name":"Valle Lomellina","admin3":"018168","localeAltName":null},{"geonameid":8950176,"name":"Vallescuropasso-Località Stefano","admin3":"018049","localeAltName":null},{"geonameid":3164685,"name":"Varzi","admin3":"018171","localeAltName":null},{"geonameid":3164629,"name":"Vellezzo Bellini","admin3":"018173","localeAltName":null},{"geonameid":6534604,"name":"Verrua Po","admin3":"018175","localeAltName":null},{"geonameid":3164391,"name":"Vidigulfo","admin3":"018176","localeAltName":null},{"geonameid":8950307,"name":"Vigalfo","admin3":"018004","localeAltName":null},{"geonameid":3164376,"name":"Vigevano","admin3":"018177","localeAltName":null},{"geonameid":6693837,"name":"Vigonzone","admin3":"018160","localeAltName":null},{"geonameid":3164184,"name":"Villanova d'Ardenghi","admin3":"018179","localeAltName":null},{"geonameid":3164174,"name":"Villanterio","admin3":"018180","localeAltName":null},{"geonameid":6535225,"name":"Vistarino","admin3":"018181","localeAltName":null},{"geonameid":3163995,"name":"Voghera","admin3":"018182","localeAltName":null},{"geonameid":6534606,"name":"Zeccone","admin3":"018185","localeAltName":null},{"geonameid":3163893,"name":"Zeme","admin3":"018186","localeAltName":null},{"geonameid":3163885,"name":"Zerbolò","admin3":"018189","localeAltName":null},{"geonameid":3163873,"name":"Zibido al Lambro","admin3":"018160","localeAltName":null},{"geonameid":3163866,"name":"Zinasco Nuovo","admin3":"018190","localeAltName":null},{"geonameid":3163867,"name":"Zinasco Vecchio","admin3":"018190","localeAltName":null}],"admin3":[{"geonameid":3175495,"name":"Inverno e Monteleone","admin3":"018077","localeAltName":null},{"geonameid":6536170,"name":"Montebello della Battaglia","admin3":"018095","localeAltName":null},{"geonameid":6536181,"name":"San Genesio ed Uniti","admin3":"018135","localeAltName":null},{"geonameid":6536182,"name":"Santa Cristina e Bissone","admin3":"018139","localeAltName":null},{"geonameid":6536197,"name":"Albuzzano","admin3":"018004","localeAltName":null},{"geonameid":6536198,"name":"Belgioioso","admin3":"018013","localeAltName":null},{"geonameid":6536199,"name":"Borgo Priolo","admin3":"018016"},{"geonameid":6536202,"name":"Retorbido","admin3":"018121","localeAltName":null},{"geonameid":6536203,"name":"San Damiano al Colle","admin3":"018134","localeAltName":null},{"geonameid":6536204,"name":"Santa Giuletta","admin3":"018140","localeAltName":null},{"geonameid":6536205,"name":"Semiana","admin3":"018148"},{"geonameid":6536206,"name":"Suardi","admin3":"018154","localeAltName":null},{"geonameid":6536207,"name":"Torre d'Isola","admin3":"018159","localeAltName":null},{"geonameid":6536210,"name":"Zavattarello","admin3":"018184"},{"geonameid":6536376,"name":"Bressana Bottarone","admin3":"018023","localeAltName":null},{"geonameid":6536377,"name":"Canneto Pavese","admin3":"018029","localeAltName":null},{"geonameid":6536555,"name":"Borgoratto Mormorolo","admin3":"018017"},{"geonameid":6536556,"name":"Candia Lomellina","admin3":"018027","localeAltName":null},{"geonameid":6536557,"name":"Garlasco","admin3":"018069","localeAltName":null},{"geonameid":6536558,"name":"Godiasco Salice Terme","admin3":"018073","localeAltName":null},{"geonameid":6536559,"name":"Gropello Cairoli","admin3":"018076","localeAltName":null},{"geonameid":6536560,"name":"Landriano","admin3":"018078","localeAltName":null},{"geonameid":6536561,"name":"Mede","admin3":"018088","localeAltName":null},{"geonameid":6536562,"name":"Mezzana Bigli","admin3":"018090","localeAltName":null},{"geonameid":6536563,"name":"Montù Beccaria","admin3":"018100","localeAltName":null},{"geonameid":6536564,"name":"Mortara","admin3":"018102","localeAltName":null},{"geonameid":6536565,"name":"Olevano di Lomellina","admin3":"018104","localeAltName":null},{"geonameid":6536566,"name":"Ottobiano","admin3":"018106","localeAltName":null},{"geonameid":6536567,"name":"Pancarana","admin3":"018108"},{"geonameid":6536568,"name":"Pieve Porto Morone","admin3":"018114","localeAltName":null},{"geonameid":6537186,"name":"Barbianello","admin3":"018008","localeAltName":null},{"geonameid":6537188,"name":"Bornasco","admin3":"018019","localeAltName":null},{"geonameid":6537189,"name":"Breme","admin3":"018022","localeAltName":null},{"geonameid":6537190,"name":"Broni","admin3":"018024","localeAltName":null},{"geonameid":6537191,"name":"Calvignano","admin3":"018025"},{"geonameid":6537192,"name":"Carbonara al Ticino","admin3":"018030","localeAltName":null},{"geonameid":6537193,"name":"Casorate Primo","admin3":"018034","localeAltName":null},{"geonameid":6537194,"name":"Cassolnovo","admin3":"018035","localeAltName":null},{"geonameid":6537195,"name":"Langosco","admin3":"018079"},{"geonameid":6537196,"name":"Menconico","admin3":"018089"},{"geonameid":6537197,"name":"Palestro","admin3":"018107","localeAltName":null},{"geonameid":6537198,"name":"Pieve del Cairo","admin3":"018113","localeAltName":null},{"geonameid":6537199,"name":"Rivanazzano Terme","admin3":"018122","localeAltName":null},{"geonameid":6537200,"name":"Rognano","admin3":"018127"},{"geonameid":6537201,"name":"Romagnese","admin3":"018128"},{"geonameid":6537202,"name":"Rosasco","admin3":"018130","localeAltName":null},{"geonameid":6537203,"name":"San Martino Siccomario","admin3":"018137","localeAltName":null},{"geonameid":6537204,"name":"Sannazzaro de' Burgondi","admin3":"018138","localeAltName":null},{"geonameid":6537205,"name":"Valle Lomellina","admin3":"018168","localeAltName":null},{"geonameid":6537206,"name":"Varzi","admin3":"018171","localeAltName":null},{"geonameid":6537207,"name":"Zeme","admin3":"018186","localeAltName":null},{"geonameid":6539494,"name":"Castelnovetto","admin3":"018040","localeAltName":null},{"geonameid":6539495,"name":"Codevilla","admin3":"018051","localeAltName":null},{"geonameid":6539496,"name":"Confienza","admin3":"018052","localeAltName":null},{"geonameid":6539497,"name":"Copiano","admin3":"018053","localeAltName":null},{"geonameid":6539498,"name":"Corana","admin3":"018054"},{"geonameid":6539499,"name":"Dorno","admin3":"018061","localeAltName":null},{"geonameid":6539500,"name":"Ferrera Erbognone","admin3":"018062","localeAltName":null},{"geonameid":6539501,"name":"Fortunago","admin3":"018064"},{"geonameid":6539629,"name":"Volpara","admin3":"018183"},{"geonameid":6539677,"name":"Giussago","admin3":"018072","localeAltName":null},{"geonameid":6539788,"name":"Alagna","admin3":"018001","localeAltName":null},{"geonameid":6539789,"name":"Parona","admin3":"018109","localeAltName":null},{"geonameid":6539790,"name":"Valeggio","admin3":"018167"},{"geonameid":6540096,"name":"Cozzo","admin3":"018059"},{"geonameid":6540188,"name":"Rocca Susella","admin3":"018126"},{"geonameid":6540201,"name":"Badia Pavese","admin3":"018006"},{"geonameid":6540202,"name":"Bascapè","admin3":"018009","localeAltName":null},{"geonameid":6540203,"name":"Certosa di Pavia","admin3":"018046","localeAltName":null},{"geonameid":6540204,"name":"Bereguardo","admin3":"018014","localeAltName":null},{"geonameid":6540205,"name":"San Giorgio di Lomellina","admin3":"018136","localeAltName":null},{"geonameid":6540206,"name":"San Zenone al Po","admin3":"018145","localeAltName":null},{"geonameid":6540207,"name":"Scaldasole","admin3":"018147","localeAltName":null},{"geonameid":6540208,"name":"Silvano Pietra","admin3":"018149","localeAltName":null},{"geonameid":6540209,"name":"Stradella","admin3":"018153","localeAltName":null},{"geonameid":6540210,"name":"Tromello","admin3":"018164","localeAltName":null},{"geonameid":6540212,"name":"Vidigulfo","admin3":"018176","localeAltName":null},{"geonameid":6540213,"name":"Villanterio","admin3":"018180","localeAltName":null},{"geonameid":6540283,"name":"Casei Gerola","admin3":"018033","localeAltName":null},{"geonameid":6540353,"name":"Campospinoso","admin3":"018026","localeAltName":null},{"geonameid":6540354,"name":"Casteggio","admin3":"018037","localeAltName":null},{"geonameid":6540355,"name":"Cervesina","admin3":"018047","localeAltName":null},{"geonameid":6540356,"name":"Cilavegna","admin3":"018050","localeAltName":null},{"geonameid":6540358,"name":"Lomello","admin3":"018083","localeAltName":null},{"geonameid":6540359,"name":"Lungavilla","admin3":"018084","localeAltName":null},{"geonameid":6540360,"name":"Miradolo Terme","admin3":"018093","localeAltName":null},{"geonameid":6540361,"name":"Pietra de' Giorgi","admin3":"018111"},{"geonameid":6540623,"name":"Albonese","admin3":"018003","localeAltName":null},{"geonameid":6540624,"name":"Casatisma","admin3":"018032","localeAltName":null},{"geonameid":6540625,"name":"Gerenzago","admin3":"018071","localeAltName":null},{"geonameid":6540626,"name":"Mezzana Rabattone","admin3":"018091"},{"geonameid":6540627,"name":"Mezzanino","admin3":"018092","localeAltName":null},{"geonameid":6540628,"name":"Montalto Pavese","admin3":"018094"},{"geonameid":6540629,"name":"Montesegale","admin3":"018098"},{"geonameid":6540630,"name":"Robbio","admin3":"018123","localeAltName":null},{"geonameid":6540631,"name":"Sartirana Lomellina","admin3":"018146","localeAltName":null},{"geonameid":6540632,"name":"Torrazza Coste","admin3":"018155","localeAltName":null},{"geonameid":6540633,"name":"Vellezzo Bellini","admin3":"018173","localeAltName":null},{"geonameid":6540634,"name":"Vigevano","admin3":"018177","localeAltName":null},{"geonameid":6540635,"name":"Voghera","admin3":"018182","localeAltName":null},{"geonameid":6540636,"name":"Zerbolò","admin3":"018189","localeAltName":null},{"geonameid":6541426,"name":"Cava Manara","admin3":"018041","localeAltName":null},{"geonameid":6541428,"name":"Filighera","admin3":"018063","localeAltName":null},{"geonameid":6541501,"name":"Portalbera","admin3":"018118","localeAltName":null},{"geonameid":6541502,"name":"San Cipriano Po","admin3":"018133"},{"geonameid":6541526,"name":"Siziano","admin3":"018150","localeAltName":null},{"geonameid":6541527,"name":"Zerbo","admin3":"018188"},{"geonameid":6541547,"name":"Brallo di Pregola","admin3":"018021"},{"geonameid":6541566,"name":"Pieve Albignola","admin3":"018112","localeAltName":null},{"geonameid":6541593,"name":"Ponte Nizza","admin3":"018117"},{"geonameid":6541674,"name":"Arena Po","admin3":"018005","localeAltName":null},{"geonameid":6541713,"name":"Gambolò","admin3":"018068","localeAltName":null},{"geonameid":6541714,"name":"Lardirago","admin3":"018080","localeAltName":null},{"geonameid":6541715,"name":"Villanova d'Ardenghi","admin3":"018179","localeAltName":null},{"geonameid":6541854,"name":"Pavia","admin3":"018110","localeAltName":null},{"geonameid":6542013,"name":"Zinasco","admin3":"018190","localeAltName":null},{"geonameid":6542016,"name":"Trovo","admin3":"018165","localeAltName":null},{"geonameid":6542057,"name":"Gambarana","admin3":"018067"},{"geonameid":6542150,"name":"Cergnago","admin3":"018045","localeAltName":null},{"geonameid":6542164,"name":"Gravellona Lomellina","admin3":"018075","localeAltName":null},{"geonameid":6542166,"name":"Torre Beretti e Castellaro","admin3":"018156"},{"geonameid":6542220,"name":"Sant'Angelo Lomellina","admin3":"018144","localeAltName":null},{"geonameid":6542593,"name":"Corvino San Quirico","admin3":"018057","localeAltName":null},{"geonameid":6542594,"name":"Montecalvo Versiggia","admin3":"018096","localeAltName":null},{"geonameid":6542595,"name":"Mornico Losana","admin3":"018101","localeAltName":null},{"geonameid":6542599,"name":"Rocca de' Giorgi","admin3":"018125"},{"geonameid":6542600,"name":"Santa Margherita di Staffora","admin3":"018142","localeAltName":null},{"geonameid":6542601,"name":"Val di Nizza","admin3":"018166","localeAltName":null},{"geonameid":6542614,"name":"Bagnaria","admin3":"018007"},{"geonameid":6542616,"name":"Montescano","admin3":"018097"},{"geonameid":6542618,"name":"Bastida Pancarana","admin3":"018011","localeAltName":null},{"geonameid":6542628,"name":"Redavalle","admin3":"018120","localeAltName":null},{"geonameid":6542629,"name":"Robecco Pavese","admin3":"018124"},{"geonameid":6542630,"name":"Roncaro","admin3":"018129","localeAltName":null},{"geonameid":6542631,"name":"Rovescala","admin3":"018131","localeAltName":null},{"geonameid":6542632,"name":"Sant'Alessio con Vialone","admin3":"018141","localeAltName":null},{"geonameid":6542633,"name":"Santa Maria della Versa","admin3":"018143","localeAltName":null},{"geonameid":6542641,"name":"Torre de' Negri","admin3":"018158"},{"geonameid":6542642,"name":"Torricella Verzate","admin3":"018161"},{"geonameid":6542649,"name":"Travacò Siccomario","admin3":"018162","localeAltName":null},{"geonameid":6542650,"name":"Velezzo Lomellina","admin3":"018172"},{"geonameid":6542651,"name":"Verretto","admin3":"018174"},{"geonameid":6542652,"name":"Verrua Po","admin3":"018175","localeAltName":null},{"geonameid":6542654,"name":"Zeccone","admin3":"018185","localeAltName":null},{"geonameid":6542655,"name":"Zenevredo","admin3":"018187"},{"geonameid":6542784,"name":"Albaredo Arnaboldi","admin3":"018002"},{"geonameid":6542785,"name":"Castelletto di Branduzzo","admin3":"018038","localeAltName":null},{"geonameid":6542962,"name":"Borgo San Siro","admin3":"018018","localeAltName":null},{"geonameid":6542963,"name":"Castana","admin3":"018036"},{"geonameid":6542964,"name":"Chignolo Po","admin3":"018048","localeAltName":null},{"geonameid":6542965,"name":"Costa de' Nobili","admin3":"018058"},{"geonameid":6542966,"name":"Frascarolo","admin3":"018065","localeAltName":null},{"geonameid":6542967,"name":"Golferenzo","admin3":"018074"},{"geonameid":6542968,"name":"Magherno","admin3":"018085","localeAltName":null},{"geonameid":6542969,"name":"Marcignago","admin3":"018086","localeAltName":null},{"geonameid":6542970,"name":"Marzano","admin3":"018087","localeAltName":null},{"geonameid":6543192,"name":"Battuda","admin3":"018012"},{"geonameid":6543193,"name":"Borgarello","admin3":"018015","localeAltName":null},{"geonameid":6543194,"name":"Bosnasco","admin3":"018020"},{"geonameid":6543195,"name":"Casanova Lonati","admin3":"018031"},{"geonameid":6543196,"name":"Castello d'Agogna","admin3":"018039","localeAltName":null},{"geonameid":6543197,"name":"Linarolo","admin3":"018081","localeAltName":null},{"geonameid":6543198,"name":"Lirio","admin3":"018082"},{"geonameid":6543199,"name":"Monticelli Pavese","admin3":"018099"},{"geonameid":6543200,"name":"Nicorvo","admin3":"018103"},{"geonameid":6543201,"name":"Oliva Gessi","admin3":"018105"},{"geonameid":6543202,"name":"Pinarolo Po","admin3":"018115","localeAltName":null},{"geonameid":6543203,"name":"Sommo","admin3":"018151","localeAltName":null},{"geonameid":6543204,"name":"Spessa","admin3":"018152"},{"geonameid":6543205,"name":"Torre d'Arese","admin3":"018157","localeAltName":null},{"geonameid":6543206,"name":"Torrevecchia Pia","admin3":"018160","localeAltName":null},{"geonameid":6543207,"name":"Trivolzio","admin3":"018163","localeAltName":null},{"geonameid":6543208,"name":"Valle Salimbene","admin3":"018169"},{"geonameid":6543209,"name":"Villa Biscossi","admin3":"018178"},{"geonameid":6543210,"name":"Vistarino","admin3":"018181","localeAltName":null},{"geonameid":6543762,"name":"Cecima","admin3":"018042"},{"geonameid":6543763,"name":"Ceranova","admin3":"018043","localeAltName":null},{"geonameid":6543764,"name":"Ceretto Lomellina","admin3":"018044"},{"geonameid":6543765,"name":"Cigognola","admin3":"018049","localeAltName":null},{"geonameid":6543766,"name":"Cura Carpignano","admin3":"018060","localeAltName":null},{"geonameid":6543767,"name":"Galliavola","admin3":"018066"},{"geonameid":6543769,"name":"Pizzale","admin3":"018116","localeAltName":null},{"geonameid":6543770,"name":"Rea","admin3":"018119"},{"geonameid":11287676,"name":"Cornale e Bastida","admin3":"018191","localeAltName":null},{"geonameid":11287689,"name":"Corteolona e Genzone","admin3":"018192","localeAltName":null},{"geonameid":12032191,"name":"Colli Verdi","admin3":"018193"}],"alternateNames":[{"alternatenameId":1349324,"geonameid":3171364,"isoLanguage":"it","alternateName":"Pavia","isPreferredName":true,"isShortName":true,"isColloquial":false,"isHistoric":false},{"alternatenameId":1350323,"geonameid":3174618,"isoLanguage":"it","alternateName":"Lombardia","isPreferredName":true,"isShortName":true,"isColloquial":false,"isHistoric":false}]},"__N_SSG":true}