{"pageProps":{"locale":"it","admin2":{"geonameid":3177837,"name":"Provincia di Cremona","country":"IT","admin1":"09","admin2":"CR","admin3":"","latitude":"45.2333300","longitude":"9.9333300","localeAltName":"Cremona"},"admin1":{"geonameid":3174618,"name":"Lombardia","admin1":"09","localeAltName":"Lombardia"},"locations":[{"geonameid":3183519,"name":"Acquanegra Cremonese","admin3":"019001","localeAltName":null},{"geonameid":3183431,"name":"Agnadello","admin3":"019002","localeAltName":null},{"geonameid":3183053,"name":"Annicco","admin3":"019003","localeAltName":null},{"geonameid":8949333,"name":"Ardole San Marino","admin3":"019046","localeAltName":null},{"geonameid":3182613,"name":"Azzanello","admin3":"019004","localeAltName":null},{"geonameid":3182503,"name":"Bagnolo Cremasco","admin3":"019005","localeAltName":null},{"geonameid":8949067,"name":"Battaglione-Bagnara","admin3":"019036","localeAltName":null},{"geonameid":8347316,"name":"Bolzone","admin3":"019081","localeAltName":null},{"geonameid":6535226,"name":"Bonemerse","admin3":"019006","localeAltName":null},{"geonameid":3181859,"name":"Bordolano","admin3":"019007","localeAltName":null},{"geonameid":3181702,"name":"Boschetto","admin3":"019036","localeAltName":null},{"geonameid":8949260,"name":"Bosco Ex Parmigiano","admin3":"019048","localeAltName":null},{"geonameid":8950206,"name":"Bottaiano","admin3":"019079","localeAltName":null},{"geonameid":3181156,"name":"Calvatone","admin3":"019009","localeAltName":null},{"geonameid":3181076,"name":"Camisano","admin3":"019010","localeAltName":null},{"geonameid":6534985,"name":"Campagnola Cremasca","admin3":"019011","localeAltName":null},{"geonameid":3180722,"name":"Capergnanica","admin3":"019012","localeAltName":null},{"geonameid":6534553,"name":"Cappella Cantone","admin3":"019013","localeAltName":null},{"geonameid":3180645,"name":"Capralba","admin3":"019015","localeAltName":null},{"geonameid":8949563,"name":"Casalbellotto","admin3":"019021","localeAltName":null},{"geonameid":3180242,"name":"Casalbuttano","admin3":"019016","localeAltName":null},{"geonameid":6534554,"name":"Casale Cremasco","admin3":"019017","localeAltName":null},{"geonameid":3180195,"name":"Casaletto Ceredano","admin3":"019018","localeAltName":null},{"geonameid":6534986,"name":"Casaletto Vaprio","admin3":"019020","localeAltName":null},{"geonameid":3180177,"name":"Casalmaggiore","admin3":"019021","localeAltName":null},{"geonameid":3180175,"name":"Casalmorano","admin3":"019022","localeAltName":null},{"geonameid":8949513,"name":"Casanova del Morbasco","admin3":"019095","localeAltName":null},{"geonameid":3179708,"name":"Casteldidone","admin3":"019023","localeAltName":null},{"geonameid":3179636,"name":"Castelleone","admin3":"019025","localeAltName":null},{"geonameid":3179452,"name":"Castelverde","admin3":"019026","localeAltName":null},{"geonameid":6535230,"name":"Chieve","admin3":"019029","localeAltName":null},{"geonameid":3178716,"name":"Cicognolo","admin3":"019030","localeAltName":null},{"geonameid":3178701,"name":"Cignone","admin3":"019032","localeAltName":null},{"geonameid":3178674,"name":"Cingia de' Botti","admin3":"019031","localeAltName":null},{"geonameid":6534555,"name":"Corte de' Cortesi con Cignone","admin3":"019032","localeAltName":null},{"geonameid":6535231,"name":"Corte de' Frati","admin3":"019033","localeAltName":null},{"geonameid":3177888,"name":"Costa Sant'Abramo","admin3":"019026","localeAltName":null},{"geonameid":3177842,"name":"Credera","admin3":"019034","localeAltName":null},{"geonameid":3177841,"name":"Crema","admin3":"019035","localeAltName":null},{"geonameid":3177838,"name":"Cremona","admin3":"019036","localeAltName":null},{"geonameid":6535232,"name":"Cremosano","admin3":"019037","localeAltName":null},{"geonameid":3177749,"name":"Crotta d'Adda","admin3":"019038","localeAltName":null},{"geonameid":3177505,"name":"Dosimo","admin3":"019046","localeAltName":null},{"geonameid":3177490,"name":"Dovera","admin3":"019041","localeAltName":null},{"geonameid":8950273,"name":"Fengo","admin3":"019001","localeAltName":null},{"geonameid":6535233,"name":"Fiesco","admin3":"019043","localeAltName":null},{"geonameid":3176734,"name":"Formigara","admin3":"019044","localeAltName":null},{"geonameid":6534556,"name":"Gadesco-Pieve Delmona","admin3":"019046","localeAltName":null},{"geonameid":3176372,"name":"Gallignano","admin3":"019097","localeAltName":null},{"geonameid":3176226,"name":"Genivolta","admin3":"019047","localeAltName":null},{"geonameid":6535234,"name":"Gombito","admin3":"019049","localeAltName":null},{"geonameid":3175800,"name":"Grontardo","admin3":"019050","localeAltName":null},{"geonameid":3175753,"name":"Grumello Cremonese","admin3":"019051","localeAltName":null},{"geonameid":3175669,"name":"Gussola","admin3":"019052","localeAltName":null},{"geonameid":3175424,"name":"Isola Dovarese","admin3":"019053","localeAltName":null},{"geonameid":3175382,"name":"Izano","admin3":"019054","localeAltName":null},{"geonameid":3174354,"name":"Madignano","admin3":"019055","localeAltName":null},{"geonameid":6534990,"name":"Malagnino","admin3":"019056","localeAltName":null},{"geonameid":8949560,"name":"Maristella","admin3":"019036","localeAltName":null},{"geonameid":6535235,"name":"Martignana di Po","admin3":"019057","localeAltName":null},{"geonameid":6535236,"name":"Monte Cremasco","admin3":"019058","localeAltName":null},{"geonameid":3172657,"name":"Montodine","admin3":"019059","localeAltName":null},{"geonameid":3172540,"name":"Moscazzano","admin3":"019060","localeAltName":null},{"geonameid":3172511,"name":"Motta Baluffi","admin3":"019061","localeAltName":null},{"geonameid":8949343,"name":"Nosadello","admin3":"019067","localeAltName":null},{"geonameid":3172107,"name":"Offanengo","admin3":"019062","localeAltName":null},{"geonameid":3172041,"name":"Olmeneta","admin3":"019063","localeAltName":null},{"geonameid":3171794,"name":"Ostiano","admin3":"019064","localeAltName":null},{"geonameid":3171742,"name":"Paderno Ponchielli","admin3":"019065","localeAltName":null},{"geonameid":6534697,"name":"Palazzo Pignano","admin3":"019066","localeAltName":null},{"geonameid":3171529,"name":"Pandino","admin3":"019067","localeAltName":null},{"geonameid":6534560,"name":"Persico Dosimo","admin3":"019068","localeAltName":null},{"geonameid":3171160,"name":"Pescarolo","admin3":"019069","localeAltName":null},{"geonameid":3171055,"name":"Piadena","admin3":"019116","localeAltName":null},{"geonameid":6535237,"name":"Pianengo","admin3":"019072","localeAltName":null},{"geonameid":6535238,"name":"Pieranica","admin3":"019073","localeAltName":null},{"geonameid":3170742,"name":"Pieve d'Olmi","admin3":"019074","localeAltName":null},{"geonameid":3170734,"name":"Pieve San Giacomo","admin3":"019075","localeAltName":null},{"geonameid":3170597,"name":"Pizzighettone","admin3":"019076","localeAltName":null},{"geonameid":9036144,"name":"Pozzaglio","admin3":"019077","localeAltName":null},{"geonameid":3170010,"name":"Pozzaglio ed Uniti","admin3":"019077","localeAltName":null},{"geonameid":6535239,"name":"Quintano","admin3":"019078","localeAltName":null},{"geonameid":3169508,"name":"Regona","admin3":"019076","localeAltName":null},{"geonameid":6535240,"name":"Ricengo","admin3":"019079","localeAltName":null},{"geonameid":6534609,"name":"Ripalta Arpina","admin3":"019080","localeAltName":null},{"geonameid":6534610,"name":"Ripalta Guerina","admin3":"019082","localeAltName":null},{"geonameid":3169306,"name":"Ripalta Nuova","admin3":"019081","localeAltName":null},{"geonameid":3169252,"name":"Rivarolo del Re","admin3":"019083","localeAltName":null},{"geonameid":3169228,"name":"Rivolta d'Adda","admin3":"019084","localeAltName":null},{"geonameid":3169210,"name":"Robecco d'Oglio","admin3":"019085","localeAltName":null},{"geonameid":8949214,"name":"Roggione","admin3":"019076","localeAltName":null},{"geonameid":3169059,"name":"Romanengo","admin3":"019086","localeAltName":null},{"geonameid":8950063,"name":"Roncadello","admin3":"019021","localeAltName":null},{"geonameid":3168604,"name":"Salvirola","admin3":"019087","localeAltName":null},{"geonameid":3168558,"name":"San Bassano","admin3":"019088","localeAltName":null},{"geonameid":6534611,"name":"San Daniele Po","admin3":"019089","localeAltName":null},{"geonameid":3168397,"name":"San Felice","admin3":"019036","localeAltName":null},{"geonameid":3168242,"name":"San Giovanni in Croce","admin3":"019090","localeAltName":null},{"geonameid":8949886,"name":"Santo Stefano in Vairano","admin3":"019035","localeAltName":null},{"geonameid":3166986,"name":"Scandolara Ravara","admin3":"019092","localeAltName":null},{"geonameid":3166985,"name":"Scandolara Ripa d'Oglio","admin3":"019093","localeAltName":null},{"geonameid":8948929,"name":"Scannabue-Cascine Capri","admin3":"019066","localeAltName":null},{"geonameid":3166708,"name":"Sergnano","admin3":"019094","localeAltName":null},{"geonameid":8949055,"name":"Sesto Cremonese","admin3":"019095","localeAltName":null},{"geonameid":3166602,"name":"Sesto ed Uniti","admin3":"019095","localeAltName":null},{"geonameid":3166442,"name":"Solarolo Rainerio","admin3":"019096","localeAltName":null},{"geonameid":3166399,"name":"Soncino","admin3":"019097","localeAltName":null},{"geonameid":3166365,"name":"Soresina","admin3":"019098","localeAltName":null},{"geonameid":3166343,"name":"Sospiro","admin3":"019099","localeAltName":null},{"geonameid":6534991,"name":"Spinadesco","admin3":"019100","localeAltName":null},{"geonameid":3166251,"name":"Spineda","admin3":"019101","localeAltName":null},{"geonameid":3166241,"name":"Spino d'Adda","admin3":"019102","localeAltName":null},{"geonameid":3166205,"name":"Stagno Lombardo","admin3":"019103","localeAltName":null},{"geonameid":3165452,"name":"Torre de' Picenardi","admin3":"019107","localeAltName":null},{"geonameid":3165399,"name":"Torricella del Pizzo","admin3":"019108","localeAltName":null},{"geonameid":3165225,"name":"Trescore Cremasco","admin3":"019109","localeAltName":null},{"geonameid":3165174,"name":"Trigolo","admin3":"019110","localeAltName":null},{"geonameid":3164971,"name":"Vaiano Cremasco","admin3":"019111","localeAltName":null},{"geonameid":3164970,"name":"Vailate","admin3":"019112","localeAltName":null},{"geonameid":3164492,"name":"Vescovato","admin3":"019113","localeAltName":null},{"geonameid":3164398,"name":"Vicomoscano","admin3":"019021","localeAltName":null},{"geonameid":3163984,"name":"Volongo","admin3":"019114","localeAltName":null},{"geonameid":8347317,"name":"Zappello","admin3":"019081","localeAltName":null}],"admin3":[{"geonameid":6535944,"name":"Gabbioneta-Binanuova","admin3":"019045"},{"geonameid":6535994,"name":"Casale Cremasco-Vidolasco","admin3":"019017","localeAltName":null},{"geonameid":6535995,"name":"Gadesco-Pieve Delmona","admin3":"019046","localeAltName":null},{"geonameid":6536188,"name":"Casalbuttano ed Uniti","admin3":"019016","localeAltName":null},{"geonameid":6536191,"name":"Ripalta Cremasca","admin3":"019081","localeAltName":null},{"geonameid":6536212,"name":"Pizzighettone","admin3":"019076","localeAltName":null},{"geonameid":6536213,"name":"San Giovanni in Croce","admin3":"019090","localeAltName":null},{"geonameid":6536569,"name":"Casaletto Ceredano","admin3":"019018","localeAltName":null},{"geonameid":6536570,"name":"Casteldidone","admin3":"019023","localeAltName":null},{"geonameid":6536571,"name":"Cicognolo","admin3":"019030","localeAltName":null},{"geonameid":6536572,"name":"Cingia de' Botti","admin3":"019031","localeAltName":null},{"geonameid":6536573,"name":"Cumignano sul Naviglio","admin3":"019039"},{"geonameid":6536574,"name":"Formigara","admin3":"019044","localeAltName":null},{"geonameid":6536575,"name":"Grontardo","admin3":"019050","localeAltName":null},{"geonameid":6536576,"name":"Montodine","admin3":"019059","localeAltName":null},{"geonameid":6536577,"name":"Motta Baluffi","admin3":"019061","localeAltName":null},{"geonameid":6536579,"name":"Pieve d'Olmi","admin3":"019074","localeAltName":null},{"geonameid":6536580,"name":"Pieve San Giacomo","admin3":"019075","localeAltName":null},{"geonameid":6536581,"name":"Stagno Lombardo","admin3":"019103","localeAltName":null},{"geonameid":6536582,"name":"Ticengo","admin3":"019104"},{"geonameid":6536583,"name":"Vaiano Cremasco","admin3":"019111","localeAltName":null},{"geonameid":6537208,"name":"Agnadello","admin3":"019002","localeAltName":null},{"geonameid":6537209,"name":"Capergnanica","admin3":"019012","localeAltName":null},{"geonameid":6537210,"name":"Casalmorano","admin3":"019022","localeAltName":null},{"geonameid":6537211,"name":"Castelleone","admin3":"019025","localeAltName":null},{"geonameid":6537212,"name":"Dovera","admin3":"019041","localeAltName":null},{"geonameid":6537213,"name":"Genivolta","admin3":"019047","localeAltName":null},{"geonameid":6537214,"name":"Izano","admin3":"019054","localeAltName":null},{"geonameid":6537215,"name":"Moscazzano","admin3":"019060","localeAltName":null},{"geonameid":6537216,"name":"Olmeneta","admin3":"019063","localeAltName":null},{"geonameid":6537217,"name":"Ostiano","admin3":"019064","localeAltName":null},{"geonameid":6537218,"name":"Pandino","admin3":"019067","localeAltName":null},{"geonameid":6537219,"name":"Rivolta d'Adda","admin3":"019084","localeAltName":null},{"geonameid":6537220,"name":"Scandolara Ripa d'Oglio","admin3":"019093","localeAltName":null},{"geonameid":6537221,"name":"Sergnano","admin3":"019094","localeAltName":null},{"geonameid":6537222,"name":"Solarolo Rainerio","admin3":"019096","localeAltName":null},{"geonameid":6537223,"name":"Soncino","admin3":"019097","localeAltName":null},{"geonameid":6537224,"name":"Soresina","admin3":"019098","localeAltName":null},{"geonameid":6537225,"name":"Spino d'Adda","admin3":"019102","localeAltName":null},{"geonameid":6537226,"name":"Torlino Vimercati","admin3":"019105"},{"geonameid":6537227,"name":"Trescore Cremasco","admin3":"019109","localeAltName":null},{"geonameid":6537228,"name":"Vailate","admin3":"019112","localeAltName":null},{"geonameid":6539791,"name":"Vescovato","admin3":"019113","localeAltName":null},{"geonameid":6540195,"name":"Pescarolo ed Uniti","admin3":"019069","localeAltName":null},{"geonameid":6540196,"name":"Rivarolo del Re ed Uniti","admin3":"019083","localeAltName":null},{"geonameid":6540215,"name":"Romanengo","admin3":"019086","localeAltName":null},{"geonameid":6540216,"name":"Salvirola","admin3":"019087","localeAltName":null},{"geonameid":6540217,"name":"San Bassano","admin3":"019088","localeAltName":null},{"geonameid":6540362,"name":"Calvatone","admin3":"019009","localeAltName":null},{"geonameid":6540363,"name":"Camisano","admin3":"019010","localeAltName":null},{"geonameid":6540364,"name":"Capralba","admin3":"019015","localeAltName":null},{"geonameid":6540365,"name":"Crotta d'Adda","admin3":"019038","localeAltName":null},{"geonameid":6540366,"name":"Isola Dovarese","admin3":"019053","localeAltName":null},{"geonameid":6540367,"name":"Spineda","admin3":"019101","localeAltName":null},{"geonameid":6540368,"name":"Tornata","admin3":"019106"},{"geonameid":6540369,"name":"Torre de' Picenardi","admin3":"019107","localeAltName":null},{"geonameid":6540370,"name":"Volongo","admin3":"019114","localeAltName":null},{"geonameid":6540637,"name":"Bordolano","admin3":"019007","localeAltName":null},{"geonameid":6540638,"name":"Cappella de' Picenardi","admin3":"019014"},{"geonameid":6540639,"name":"Castelverde","admin3":"019026","localeAltName":null},{"geonameid":6540640,"name":"Crema","admin3":"019035","localeAltName":null},{"geonameid":6540641,"name":"Madignano","admin3":"019055","localeAltName":null},{"geonameid":6540642,"name":"Pessina Cremonese","admin3":"019070"},{"geonameid":6540643,"name":"Robecco d'Oglio","admin3":"019085","localeAltName":null},{"geonameid":6540644,"name":"Sospiro","admin3":"019099","localeAltName":null},{"geonameid":6540645,"name":"Torricella del Pizzo","admin3":"019108","localeAltName":null},{"geonameid":6541503,"name":"Annicco","admin3":"019003","localeAltName":null},{"geonameid":6541504,"name":"Azzanello","admin3":"019004","localeAltName":null},{"geonameid":6541524,"name":"Pozzaglio ed Uniti","admin3":"019077","localeAltName":null},{"geonameid":6541525,"name":"Sesto ed Uniti","admin3":"019095","localeAltName":null},{"geonameid":6541528,"name":"San Martino del Lago","admin3":"019091"},{"geonameid":6541529,"name":"Scandolara Ravara","admin3":"019092","localeAltName":null},{"geonameid":6541567,"name":"Casalmaggiore","admin3":"019021","localeAltName":null},{"geonameid":6541568,"name":"Castel Gabbiano","admin3":"019024"},{"geonameid":6541594,"name":"Trigolo","admin3":"019110","localeAltName":null},{"geonameid":6541675,"name":"Bagnolo Cremasco","admin3":"019005","localeAltName":null},{"geonameid":6541676,"name":"Gussola","admin3":"019052","localeAltName":null},{"geonameid":6541716,"name":"Offanengo","admin3":"019062","localeAltName":null},{"geonameid":6541717,"name":"Voltido","admin3":"019115"},{"geonameid":6541851,"name":"Cremona","admin3":"019036","localeAltName":null},{"geonameid":6542018,"name":"Acquanegra Cremonese","admin3":"019001","localeAltName":null},{"geonameid":6542168,"name":"Credera Rubbiano","admin3":"019034","localeAltName":null},{"geonameid":6542169,"name":"Grumello Cremonese ed Uniti","admin3":"019051","localeAltName":null},{"geonameid":6542208,"name":"Paderno Ponchielli","admin3":"019065","localeAltName":null},{"geonameid":6542608,"name":"Cappella Cantone","admin3":"019013","localeAltName":null},{"geonameid":6542609,"name":"Corte de' Cortesi con Cignone","admin3":"019032","localeAltName":null},{"geonameid":6542612,"name":"Persico Dosimo","admin3":"019068","localeAltName":null},{"geonameid":6542653,"name":"Gerre de' Caprioli","admin3":"019048","localeAltName":null},{"geonameid":6542657,"name":"Ripalta Arpina","admin3":"019080","localeAltName":null},{"geonameid":6542658,"name":"Ripalta Guerina","admin3":"019082","localeAltName":null},{"geonameid":6542659,"name":"San Daniele Po","admin3":"019089","localeAltName":null},{"geonameid":6542735,"name":"Palazzo Pignano","admin3":"019066","localeAltName":null},{"geonameid":6542971,"name":"Campagnola Cremasca","admin3":"019011","localeAltName":null},{"geonameid":6542972,"name":"Casaletto Vaprio","admin3":"019020","localeAltName":null},{"geonameid":6542973,"name":"Cella Dati","admin3":"019028"},{"geonameid":6542974,"name":"Derovere","admin3":"019040"},{"geonameid":6542976,"name":"Malagnino","admin3":"019056","localeAltName":null},{"geonameid":6542977,"name":"Spinadesco","admin3":"019100","localeAltName":null},{"geonameid":6543211,"name":"Bonemerse","admin3":"019006","localeAltName":null},{"geonameid":6543213,"name":"Casaletto di Sopra","admin3":"019019"},{"geonameid":6543214,"name":"Castelvisconti","admin3":"019027"},{"geonameid":6543215,"name":"Chieve","admin3":"019029","localeAltName":null},{"geonameid":6543216,"name":"Corte de' Frati","admin3":"019033","localeAltName":null},{"geonameid":6543217,"name":"Cremosano","admin3":"019037","localeAltName":null},{"geonameid":6543218,"name":"Fiesco","admin3":"019043","localeAltName":null},{"geonameid":6543219,"name":"Gombito","admin3":"019049","localeAltName":null},{"geonameid":6543220,"name":"Martignana di Po","admin3":"019057","localeAltName":null},{"geonameid":6543221,"name":"Monte Cremasco","admin3":"019058","localeAltName":null},{"geonameid":6543222,"name":"Pianengo","admin3":"019072","localeAltName":null},{"geonameid":6543223,"name":"Pieranica","admin3":"019073","localeAltName":null},{"geonameid":6543224,"name":"Quintano","admin3":"019078","localeAltName":null},{"geonameid":6543225,"name":"Ricengo","admin3":"019079","localeAltName":null},{"geonameid":12032194,"name":"Piadena Drizzona","admin3":"019116","localeAltName":null}],"alternateNames":[{"alternatenameId":1350323,"geonameid":3174618,"isoLanguage":"it","alternateName":"Lombardia","isPreferredName":true,"isShortName":true,"isColloquial":false,"isHistoric":false},{"alternatenameId":1351422,"geonameid":3177837,"isoLanguage":"it","alternateName":"Cremona","isPreferredName":true,"isShortName":true,"isColloquial":false,"isHistoric":false}]},"__N_SSG":true}