{"pageProps":{"locale":"it","admin2":{"geonameid":3164697,"name":"Provincia di Varese","country":"IT","admin1":"09","admin2":"VA","admin3":"","latitude":"45.8000000","longitude":"8.8000000","localeAltName":"Varese"},"admin1":{"geonameid":3174618,"name":"Lombardia","admin1":"09","localeAltName":"Lombardia"},"locations":[{"geonameid":3183311,"name":"Albizzate","admin3":"012002","localeAltName":null},{"geonameid":3183067,"name":"Angera","admin3":"012003","localeAltName":null},{"geonameid":6534244,"name":"Arcisate","admin3":"012004","localeAltName":null},{"geonameid":3182793,"name":"Arsago Seprio","admin3":"012005","localeAltName":null},{"geonameid":3182607,"name":"Azzate","admin3":"012006","localeAltName":null},{"geonameid":6534908,"name":"Azzio","admin3":"012007","localeAltName":null},{"geonameid":8949119,"name":"Baraggia","admin3":"012139","localeAltName":null},{"geonameid":6534909,"name":"Barasso","admin3":"012008","localeAltName":null},{"geonameid":6535090,"name":"Bardello","admin3":"012009","localeAltName":null},{"geonameid":8949995,"name":"Bedero","admin3":"012020","localeAltName":null},{"geonameid":6534910,"name":"Bedero Valcuvia","admin3":"012010","localeAltName":null},{"geonameid":3182116,"name":"Besano","admin3":"012011","localeAltName":null},{"geonameid":3182112,"name":"Besnate","admin3":"012012","localeAltName":null},{"geonameid":3182111,"name":"Besozzo","admin3":"012013","localeAltName":null},{"geonameid":3182069,"name":"Biandronno","admin3":"012014","localeAltName":null},{"geonameid":6535091,"name":"Bisuschio","admin3":"012015","localeAltName":null},{"geonameid":8948971,"name":"Bodio","admin3":"012016","localeAltName":null},{"geonameid":6534439,"name":"Bodio Lomnago","admin3":"012016","localeAltName":null},{"geonameid":8948825,"name":"Bolladello-Peveranza","admin3":"012029","localeAltName":null},{"geonameid":3181591,"name":"Brebbia","admin3":"012017","localeAltName":null},{"geonameid":6535092,"name":"Bregano","admin3":"012018","localeAltName":null},{"geonameid":8949041,"name":"Brenno Useria","admin3":"012004","localeAltName":null},{"geonameid":6534911,"name":"Brenta","admin3":"012019","localeAltName":null},{"geonameid":6534440,"name":"Brezzo di Bedero","admin3":"012020","localeAltName":null},{"geonameid":3181523,"name":"Brinzio","admin3":"012021","localeAltName":null},{"geonameid":6535093,"name":"Brunello","admin3":"012023","localeAltName":null},{"geonameid":6534912,"name":"Brusimpiano","admin3":"012024","localeAltName":null},{"geonameid":6535094,"name":"Buguggiate","admin3":"012025","localeAltName":null},{"geonameid":3181355,"name":"Busto Arsizio","admin3":"012026","localeAltName":null},{"geonameid":6534441,"name":"Cadegliano-Viconago","admin3":"012027","localeAltName":null},{"geonameid":6535095,"name":"Cadrezzate","admin3":"012143","localeAltName":null},{"geonameid":3181263,"name":"Cairate","admin3":"012029","localeAltName":null},{"geonameid":8949478,"name":"Calcinate del Pesce","admin3":"012133","localeAltName":null},{"geonameid":8949743,"name":"Caldana","admin3":"012053","localeAltName":null},{"geonameid":6535096,"name":"Cantello","admin3":"012030","localeAltName":null},{"geonameid":3180678,"name":"Capolago","admin3":"012133","localeAltName":null},{"geonameid":3180579,"name":"Caravate","admin3":"012031","localeAltName":null},{"geonameid":6534233,"name":"Cardano al Campo","admin3":"012032","localeAltName":null},{"geonameid":3180488,"name":"Carnago","admin3":"012033","localeAltName":null},{"geonameid":6534234,"name":"Caronno Pertusella","admin3":"012034","localeAltName":null},{"geonameid":6534913,"name":"Caronno Varesino","admin3":"012035","localeAltName":null},{"geonameid":6535097,"name":"Casale Litta","admin3":"012036","localeAltName":null},{"geonameid":3180151,"name":"Casalzuigno","admin3":"012037","localeAltName":null},{"geonameid":6535744,"name":"Casciago","admin3":"012038","localeAltName":null},{"geonameid":8949393,"name":"Cascina Elisa","admin3":"012118","localeAltName":null},{"geonameid":8949630,"name":"Cascine Maggio","admin3":"012047","localeAltName":null},{"geonameid":3179808,"name":"Casorate Sempione","admin3":"012039","localeAltName":null},{"geonameid":6534235,"name":"Cassano Magnago","admin3":"012040","localeAltName":null},{"geonameid":3179650,"name":"Castellanza","admin3":"012042","localeAltName":null},{"geonameid":8949026,"name":"Castello","admin3":"012045","localeAltName":null},{"geonameid":6534914,"name":"Castello Cabiaglio","admin3":"012043","localeAltName":null},{"geonameid":3179468,"name":"Castelseprio","admin3":"012044","localeAltName":null},{"geonameid":6534442,"name":"Castelveccana","admin3":"012045","localeAltName":null},{"geonameid":3179407,"name":"Castiglione Olona","admin3":"012046","localeAltName":null},{"geonameid":3179374,"name":"Castronno","admin3":"012047","localeAltName":null},{"geonameid":8950192,"name":"Cavagnano","admin3":"012058","localeAltName":null},{"geonameid":3179297,"name":"Cavaria Con Premezzo","admin3":"012048","localeAltName":null},{"geonameid":6535098,"name":"Cazzago Brabbia","admin3":"012049","localeAltName":null},{"geonameid":8949389,"name":"Cimbro","admin3":"012138","localeAltName":null},{"geonameid":3178640,"name":"Cislago","admin3":"012050","localeAltName":null},{"geonameid":3178611,"name":"Cittiglio","admin3":"012051","localeAltName":null},{"geonameid":6534915,"name":"Clivio","admin3":"012052","localeAltName":null},{"geonameid":8949908,"name":"Coarezza","admin3":"012123","localeAltName":null},{"geonameid":3178521,"name":"Cocquio","admin3":"012053","localeAltName":null},{"geonameid":8950289,"name":"Colmegna","admin3":"012092","localeAltName":null},{"geonameid":3178247,"name":"Comabbio","admin3":"012054","localeAltName":null},{"geonameid":3178237,"name":"Comerio","admin3":"012055","localeAltName":null},{"geonameid":3178102,"name":"Corgeno","admin3":"012138","localeAltName":null},{"geonameid":6535099,"name":"Cremenaga","admin3":"012056","localeAltName":null},{"geonameid":6535100,"name":"Crosio della Valle","admin3":"012057","localeAltName":null},{"geonameid":3177743,"name":"Crugnola","admin3":"012106","localeAltName":null},{"geonameid":6534916,"name":"Cuasso al Monte","admin3":"012058","localeAltName":null},{"geonameid":8949065,"name":"Cuasso al Piano","admin3":"012058","localeAltName":null},{"geonameid":6534917,"name":"Cugliate-Fabiasco","admin3":"012059","localeAltName":null},{"geonameid":6534918,"name":"Cunardo","admin3":"012060","localeAltName":null},{"geonameid":6535101,"name":"Cuveglio","admin3":"012062","localeAltName":null},{"geonameid":6535102,"name":"Cuvio","admin3":"012063","localeAltName":null},{"geonameid":6534919,"name":"Daverio","admin3":"012064","localeAltName":null},{"geonameid":3177448,"name":"Dumenza","admin3":"012065","localeAltName":null},{"geonameid":3177279,"name":"Fagnano Olona-Bergoro","admin3":"012067","localeAltName":null},{"geonameid":3177098,"name":"Ferno","admin3":"012068","localeAltName":null},{"geonameid":6535103,"name":"Ferrera di Varese","admin3":"012069","localeAltName":null},{"geonameid":8949680,"name":"Gaggiolo","admin3":"012030","localeAltName":null},{"geonameid":3176391,"name":"Gallarate","admin3":"012070","localeAltName":null},{"geonameid":6535104,"name":"Galliate Lombardo","admin3":"012071","localeAltName":null},{"geonameid":3176328,"name":"Ganna","admin3":"012131","localeAltName":null},{"geonameid":3176261,"name":"Gavirate","admin3":"012072","localeAltName":null},{"geonameid":3166937,"name":"Gazzada Schianno","admin3":"012073","localeAltName":null},{"geonameid":3176233,"name":"Gemonio","admin3":"012074","localeAltName":null},{"geonameid":6534236,"name":"Gerenzano","admin3":"012075","localeAltName":null},{"geonameid":6535105,"name":"Germignaga","admin3":"012076","localeAltName":null},{"geonameid":3176165,"name":"Ghirla","admin3":"012131","localeAltName":null},{"geonameid":3176012,"name":"Golasecca","admin3":"012077","localeAltName":null},{"geonameid":3175984,"name":"Gorla Maggiore","admin3":"012078","localeAltName":null},{"geonameid":6534921,"name":"Gorla Minore","admin3":"012079","localeAltName":null},{"geonameid":6534455,"name":"Gornate Olona","admin3":"012080","localeAltName":null},{"geonameid":8950126,"name":"Gornate Superiore","admin3":"012046","localeAltName":null},{"geonameid":6535106,"name":"Grantola","admin3":"012081","localeAltName":null},{"geonameid":6535107,"name":"Inarzo","admin3":"012082","localeAltName":null},{"geonameid":3175521,"name":"Induno Olona","admin3":"012083","localeAltName":null},{"geonameid":3175406,"name":"Ispra","admin3":"012084","localeAltName":null},{"geonameid":6534922,"name":"Jerago Con Orago","admin3":"012085","localeAltName":null},{"geonameid":3170213,"name":"Lavena Ponte Tresa","admin3":"012086","localeAltName":null},{"geonameid":3175003,"name":"Laveno","admin3":"012087","localeAltName":null},{"geonameid":6534923,"name":"Leggiuno","admin3":"012088","localeAltName":null},{"geonameid":6693897,"name":"Lisanza","admin3":"012120","localeAltName":null},{"geonameid":3174609,"name":"Lonate Ceppino","admin3":"012089","localeAltName":null},{"geonameid":3174608,"name":"Lonate Pozzolo","admin3":"012090","localeAltName":null},{"geonameid":6534397,"name":"Lozza","admin3":"012091","localeAltName":null},{"geonameid":3174483,"name":"Luino","admin3":"012092","localeAltName":null},{"geonameid":6535108,"name":"Luvinate","admin3":"012093","localeAltName":null},{"geonameid":3174411,"name":"Maccagno","admin3":"012142","localeAltName":null},{"geonameid":8949706,"name":"Maddalena","admin3":"012123","localeAltName":null},{"geonameid":6534398,"name":"Malgesso","admin3":"012095","localeAltName":null},{"geonameid":3174141,"name":"Malnate","admin3":"012096","localeAltName":null},{"geonameid":6535109,"name":"Marchirolo","admin3":"012097","localeAltName":null},{"geonameid":3173888,"name":"Marnate","admin3":"012098","localeAltName":null},{"geonameid":8949575,"name":"Massina","admin3":"012050","localeAltName":null},{"geonameid":3173573,"name":"Mercallo","admin3":"012101","localeAltName":null},{"geonameid":6534400,"name":"Mesenzana","admin3":"012102","localeAltName":null},{"geonameid":8949254,"name":"Monte","admin3":"012121","localeAltName":null},{"geonameid":8949625,"name":"Montonate","admin3":"012106","localeAltName":null},{"geonameid":6535110,"name":"Monvalle","admin3":"012104","localeAltName":null},{"geonameid":6535111,"name":"Morazzone","admin3":"012105","localeAltName":null},{"geonameid":3172585,"name":"Mornago","admin3":"012106","localeAltName":null},{"geonameid":6534456,"name":"Oggiona-Santo Stefano","admin3":"012107","localeAltName":null},{"geonameid":3172065,"name":"Olgiate Olona","admin3":"012108","localeAltName":null},{"geonameid":3171955,"name":"Origgio","admin3":"012109","localeAltName":null},{"geonameid":6534402,"name":"Orino","admin3":"012110","localeAltName":null},{"geonameid":3171845,"name":"Osmate","admin3":"012143","localeAltName":null},{"geonameid":8950344,"name":"Piano","admin3":"012022","localeAltName":null},{"geonameid":8949691,"name":"Poppino","admin3":"012092","localeAltName":null},{"geonameid":3170103,"name":"Porto Ceresio","admin3":"012113","localeAltName":null},{"geonameid":3170068,"name":"Porto Valtravaglia","admin3":"012114","localeAltName":null},{"geonameid":3169614,"name":"Rancio Valcuvia","admin3":"012115","localeAltName":null},{"geonameid":3169612,"name":"Ranco","admin3":"012116","localeAltName":null},{"geonameid":8949467,"name":"Rovate","admin3":"012033","localeAltName":null},{"geonameid":6534403,"name":"Saltrio","admin3":"012117","localeAltName":null},{"geonameid":3168599,"name":"Samarate","admin3":"012118","localeAltName":null},{"geonameid":8949750,"name":"San Macario","admin3":"012068","localeAltName":null},{"geonameid":6535112,"name":"Sangiano","admin3":"012141","localeAltName":null},{"geonameid":3167113,"name":"Saronno","admin3":"012119","localeAltName":null},{"geonameid":3166604,"name":"Sesto Calende","admin3":"012120","localeAltName":null},{"geonameid":3166440,"name":"Solbiate Arno","admin3":"012121","localeAltName":null},{"geonameid":3166439,"name":"Solbiate Olona","admin3":"012122","localeAltName":null},{"geonameid":3166409,"name":"Somma Lombardo","admin3":"012123","localeAltName":null},{"geonameid":3166032,"name":"Sumirago","admin3":"012124","localeAltName":null},{"geonameid":3165975,"name":"Taino","admin3":"012125","localeAltName":null},{"geonameid":3165772,"name":"Ternate","admin3":"012126","localeAltName":null},{"geonameid":3165501,"name":"Tornavento","admin3":"012090","localeAltName":null},{"geonameid":3165340,"name":"Tradate","admin3":"012127","localeAltName":null},{"geonameid":3165296,"name":"Travedona Monate","admin3":"012128","localeAltName":null},{"geonameid":6534237,"name":"Uboldo","admin3":"012130","localeAltName":null},{"geonameid":3164911,"name":"Valganna","admin3":"012131","localeAltName":null},{"geonameid":6534924,"name":"Varano Borghi","admin3":"012132","localeAltName":null},{"geonameid":3164699,"name":"Varese","admin3":"012133","localeAltName":null},{"geonameid":3164657,"name":"Vedano Olona","admin3":"012134","localeAltName":null},{"geonameid":3164609,"name":"Venegono Inferiore","admin3":"012136","localeAltName":null},{"geonameid":3164608,"name":"Venegono Superiore","admin3":"012137","localeAltName":null},{"geonameid":3164548,"name":"Vergiate","admin3":"012138","localeAltName":null},{"geonameid":3164373,"name":"Viggiù","admin3":"012139","localeAltName":null},{"geonameid":8949493,"name":"Villadosia","admin3":"012036","localeAltName":null}],"admin3":[{"geonameid":3176255,"name":"Gazzada Schianno","admin3":"012073","localeAltName":null},{"geonameid":3181469,"name":"Brusimpiano","admin3":"012024","localeAltName":null},{"geonameid":6535875,"name":"Laveno-Mombello","admin3":"012087","localeAltName":null},{"geonameid":6535878,"name":"Brissago-Valtravaglia","admin3":"012022","localeAltName":null},{"geonameid":6535883,"name":"Cocquio-Trevisago","admin3":"012053","localeAltName":null},{"geonameid":6535949,"name":"Travedona-Monate","admin3":"012128","localeAltName":null},{"geonameid":6535992,"name":"Cadegliano-Viconago","admin3":"012027","localeAltName":null},{"geonameid":6535993,"name":"Gornate Olona","admin3":"012080","localeAltName":"Gornate Olona"},{"geonameid":6536027,"name":"Cugliate-Fabiasco","admin3":"012059","localeAltName":null},{"geonameid":6536105,"name":"Vizzola Ticino","admin3":"012140"},{"geonameid":6536106,"name":"Mornago","admin3":"012106","localeAltName":null},{"geonameid":6536107,"name":"Origgio","admin3":"012109","localeAltName":null},{"geonameid":6536120,"name":"Fagnano Olona","admin3":"012067","localeAltName":null},{"geonameid":6536130,"name":"Valganna","admin3":"012131","localeAltName":null},{"geonameid":6536476,"name":"Albizzate","admin3":"012002","localeAltName":null},{"geonameid":6536477,"name":"Azzate","admin3":"012006","localeAltName":null},{"geonameid":6536478,"name":"Besnate","admin3":"012012","localeAltName":null},{"geonameid":6536479,"name":"Biandronno","admin3":"012014","localeAltName":null},{"geonameid":6536480,"name":"Brebbia","admin3":"012017","localeAltName":null},{"geonameid":6536481,"name":"Casorate Sempione","admin3":"012039","localeAltName":null},{"geonameid":6536482,"name":"Castelseprio","admin3":"012044","localeAltName":null},{"geonameid":6536483,"name":"Castronno","admin3":"012047","localeAltName":null},{"geonameid":6536484,"name":"Cittiglio","admin3":"012051","localeAltName":null},{"geonameid":6536485,"name":"Ferno","admin3":"012068","localeAltName":null},{"geonameid":6536486,"name":"Gorla Maggiore","admin3":"012078","localeAltName":null},{"geonameid":6536487,"name":"Ispra","admin3":"012084","localeAltName":null},{"geonameid":6536488,"name":"Taino","admin3":"012125","localeAltName":null},{"geonameid":6536489,"name":"Ternate","admin3":"012126","localeAltName":null},{"geonameid":6536490,"name":"Tronzano Lago Maggiore","admin3":"012129"},{"geonameid":6536491,"name":"Vergiate","admin3":"012138","localeAltName":null},{"geonameid":6536492,"name":"Viggiù","admin3":"012139","localeAltName":null},{"geonameid":6537074,"name":"Arsago Seprio","admin3":"012005","localeAltName":null},{"geonameid":6537075,"name":"Busto Arsizio","admin3":"012026","localeAltName":null},{"geonameid":6537076,"name":"Cavaria con Premezzo","admin3":"012048","localeAltName":null},{"geonameid":6537077,"name":"Comabbio","admin3":"012054","localeAltName":null},{"geonameid":6537078,"name":"Gallarate","admin3":"012070","localeAltName":null},{"geonameid":6537079,"name":"Gavirate","admin3":"012072","localeAltName":null},{"geonameid":6537080,"name":"Induno Olona","admin3":"012083","localeAltName":null},{"geonameid":6537081,"name":"Lonate Pozzolo","admin3":"012090","localeAltName":null},{"geonameid":6537082,"name":"Mercallo","admin3":"012101","localeAltName":null},{"geonameid":6537083,"name":"Porto Valtravaglia","admin3":"012114","localeAltName":null},{"geonameid":6537084,"name":"Rancio Valcuvia","admin3":"012115","localeAltName":null},{"geonameid":6537085,"name":"Samarate","admin3":"012118","localeAltName":null},{"geonameid":6537086,"name":"Saronno","admin3":"012119","localeAltName":null},{"geonameid":6537087,"name":"Solbiate Olona","admin3":"012122","localeAltName":null},{"geonameid":6537088,"name":"Somma Lombardo","admin3":"012123","localeAltName":null},{"geonameid":6537089,"name":"Tradate","admin3":"012127","localeAltName":null},{"geonameid":6537090,"name":"Venegono Inferiore","admin3":"012136","localeAltName":null},{"geonameid":6537091,"name":"Venegono Superiore","admin3":"012137","localeAltName":null},{"geonameid":6539462,"name":"Casalzuigno","admin3":"012037","localeAltName":null},{"geonameid":6539463,"name":"Castellanza","admin3":"012042","localeAltName":null},{"geonameid":6539613,"name":"Ranco","admin3":"012116","localeAltName":null},{"geonameid":6539778,"name":"Dumenza","admin3":"012065","localeAltName":null},{"geonameid":6539779,"name":"Marzio","admin3":"012099"},{"geonameid":6540157,"name":"Luino","admin3":"012092","localeAltName":null},{"geonameid":6540158,"name":"Marnate","admin3":"012098","localeAltName":null},{"geonameid":6540159,"name":"Olgiate Olona","admin3":"012108","localeAltName":null},{"geonameid":6540321,"name":"Brinzio","admin3":"012021","localeAltName":null},{"geonameid":6540322,"name":"Carnago","admin3":"012033","localeAltName":null},{"geonameid":6540323,"name":"Cislago","admin3":"012050","localeAltName":null},{"geonameid":6540324,"name":"Comerio","admin3":"012055","localeAltName":null},{"geonameid":6540325,"name":"Lonate Ceppino","admin3":"012089","localeAltName":null},{"geonameid":6540326,"name":"Vedano Olona","admin3":"012134","localeAltName":null},{"geonameid":6540566,"name":"Angera","admin3":"012003","localeAltName":null},{"geonameid":6540567,"name":"Caravate","admin3":"012031","localeAltName":null},{"geonameid":6540568,"name":"Gemonio","admin3":"012074","localeAltName":null},{"geonameid":6540569,"name":"Lavena Ponte Tresa","admin3":"012086","localeAltName":null},{"geonameid":6540571,"name":"Malnate","admin3":"012096","localeAltName":null},{"geonameid":6540572,"name":"Porto Ceresio","admin3":"012113","localeAltName":null},{"geonameid":6540573,"name":"Sesto Calende","admin3":"012120","localeAltName":null},{"geonameid":6540574,"name":"Solbiate Arno","admin3":"012121","localeAltName":null},{"geonameid":6541517,"name":"Sumirago","admin3":"012124","localeAltName":null},{"geonameid":6541557,"name":"Cairate","admin3":"012029","localeAltName":null},{"geonameid":6541629,"name":"Besozzo","admin3":"012013","localeAltName":null},{"geonameid":6541660,"name":"Castiglione Olona","admin3":"012046","localeAltName":null},{"geonameid":6542052,"name":"Besano","admin3":"012011","localeAltName":null},{"geonameid":6542053,"name":"Golasecca","admin3":"012077","localeAltName":null},{"geonameid":6542112,"name":"Varese","admin3":"012133","localeAltName":null},{"geonameid":6542160,"name":"Curiglia con Monteviasco","admin3":"012061"},{"geonameid":6542308,"name":"Cardano al Campo","admin3":"012032","localeAltName":null},{"geonameid":6542309,"name":"Caronno Pertusella","admin3":"012034","localeAltName":null},{"geonameid":6542310,"name":"Cassano Magnago","admin3":"012040","localeAltName":null},{"geonameid":6542311,"name":"Gerenzano","admin3":"012075","localeAltName":null},{"geonameid":6542312,"name":"Uboldo","admin3":"012130","localeAltName":null},{"geonameid":6542318,"name":"Arcisate","admin3":"012004","localeAltName":null},{"geonameid":6542466,"name":"Lozza","admin3":"012091","localeAltName":null},{"geonameid":6542467,"name":"Malgesso","admin3":"012095","localeAltName":null},{"geonameid":6542468,"name":"Masciago Primo","admin3":"012100"},{"geonameid":6542469,"name":"Mesenzana","admin3":"012102","localeAltName":null},{"geonameid":6542470,"name":"Montegrino Valtravaglia","admin3":"012103"},{"geonameid":6542471,"name":"Orino","admin3":"012110","localeAltName":null},{"geonameid":6542472,"name":"Saltrio","admin3":"012117","localeAltName":null},{"geonameid":6542505,"name":"Bodio Lomnago","admin3":"012016","localeAltName":null},{"geonameid":6542506,"name":"Brezzo di Bedero","admin3":"012020","localeAltName":null},{"geonameid":6542507,"name":"Castelveccana","admin3":"012045","localeAltName":null},{"geonameid":6542520,"name":"Oggiona con Santo Stefano","admin3":"012107","localeAltName":null},{"geonameid":6542895,"name":"Agra","admin3":"012001"},{"geonameid":6542896,"name":"Azzio","admin3":"012007","localeAltName":null},{"geonameid":6542897,"name":"Barasso","admin3":"012008","localeAltName":null},{"geonameid":6542898,"name":"Bedero Valcuvia","admin3":"012010","localeAltName":null},{"geonameid":6542899,"name":"Brenta","admin3":"012019","localeAltName":null},{"geonameid":6542900,"name":"Caronno Varesino","admin3":"012035","localeAltName":null},{"geonameid":6542901,"name":"Castello Cabiaglio","admin3":"012043","localeAltName":null},{"geonameid":6542902,"name":"Clivio","admin3":"012052","localeAltName":null},{"geonameid":6542903,"name":"Cuasso al Monte","admin3":"012058","localeAltName":null},{"geonameid":6542904,"name":"Cunardo","admin3":"012060","localeAltName":null},{"geonameid":6542905,"name":"Daverio","admin3":"012064","localeAltName":null},{"geonameid":6542906,"name":"Duno","admin3":"012066"},{"geonameid":6542907,"name":"Gorla Minore","admin3":"012079","localeAltName":null},{"geonameid":6542908,"name":"Jerago con Orago","admin3":"012085","localeAltName":null},{"geonameid":6542909,"name":"Leggiuno","admin3":"012088","localeAltName":null},{"geonameid":6542910,"name":"Varano Borghi","admin3":"012132","localeAltName":null},{"geonameid":6543076,"name":"Bardello","admin3":"012009","localeAltName":null},{"geonameid":6543077,"name":"Bisuschio","admin3":"012015","localeAltName":null},{"geonameid":6543078,"name":"Bregano","admin3":"012018","localeAltName":null},{"geonameid":6543079,"name":"Brunello","admin3":"012023","localeAltName":null},{"geonameid":6543080,"name":"Buguggiate","admin3":"012025","localeAltName":null},{"geonameid":6543082,"name":"Cantello","admin3":"012030","localeAltName":null},{"geonameid":6543083,"name":"Casale Litta","admin3":"012036","localeAltName":null},{"geonameid":6543084,"name":"Cazzago Brabbia","admin3":"012049","localeAltName":null},{"geonameid":6543085,"name":"Cremenaga","admin3":"012056","localeAltName":null},{"geonameid":6543086,"name":"Crosio della Valle","admin3":"012057","localeAltName":null},{"geonameid":6543087,"name":"Cuveglio","admin3":"012062","localeAltName":null},{"geonameid":6543088,"name":"Cuvio","admin3":"012063","localeAltName":null},{"geonameid":6543089,"name":"Ferrera di Varese","admin3":"012069","localeAltName":null},{"geonameid":6543090,"name":"Galliate Lombardo","admin3":"012071","localeAltName":null},{"geonameid":6543091,"name":"Germignaga","admin3":"012076","localeAltName":null},{"geonameid":6543092,"name":"Grantola","admin3":"012081","localeAltName":null},{"geonameid":6543093,"name":"Inarzo","admin3":"012082","localeAltName":null},{"geonameid":6543094,"name":"Luvinate","admin3":"012093","localeAltName":null},{"geonameid":6543095,"name":"Marchirolo","admin3":"012097","localeAltName":null},{"geonameid":6543096,"name":"Monvalle","admin3":"012104","localeAltName":null},{"geonameid":6543097,"name":"Morazzone","admin3":"012105","localeAltName":null},{"geonameid":6543098,"name":"Sangiano","admin3":"012141","localeAltName":null},{"geonameid":6543718,"name":"Casciago","admin3":"012038","localeAltName":null},{"geonameid":6543719,"name":"Cassano Valcuvia","admin3":"012041"},{"geonameid":11071791,"name":"Maccagno con Pino e Veddasca","admin3":"012142","localeAltName":null},{"geonameid":12032185,"name":"Cadrezzate con Osmate","admin3":"012143","localeAltName":null}],"alternateNames":[{"alternatenameId":2431308,"geonameid":3164697,"isoLanguage":"it","alternateName":"Varese","isPreferredName":true,"isShortName":true,"isColloquial":false,"isHistoric":false},{"alternatenameId":1350323,"geonameid":3174618,"isoLanguage":"it","alternateName":"Lombardia","isPreferredName":true,"isShortName":true,"isColloquial":false,"isHistoric":false},{"alternatenameId":7833989,"geonameid":6535993,"isoLanguage":"it","alternateName":"Gornate Olona","isPreferredName":true,"isShortName":true,"isColloquial":false,"isHistoric":false}]},"__N_SSG":true}