{"pageProps":{"locale":"en","admin2":{"geonameid":4287749,"name":"Christian County","country":"US","admin1":"KY","admin2":"047","admin3":"","latitude":"36.8941800","longitude":"-87.4903800","localeAltName":null},"admin1":{"geonameid":6254925,"name":"Kentucky","admin1":"KY","localeAltName":"Kentucky"},"locations":[{"geonameid":4289089,"name":"Crofton","admin3":"","localeAltName":null},{"geonameid":7259770,"name":"Fort Campbell North","admin3":"","localeAltName":null},{"geonameid":4295251,"name":"Hopkinsville","admin3":"","localeAltName":null},{"geonameid":4302827,"name":"Oak Grove","admin3":"","localeAltName":null},{"geonameid":4303861,"name":"Pembroke","admin3":"","localeAltName":null}],"admin3":[{"geonameid":7169822,"name":"City of Crofton","admin3":"7169822"},{"geonameid":7169983,"name":"City of Oak Grove","admin3":"7169983"},{"geonameid":7170051,"name":"City of Pembroke","admin3":"7170051"},{"geonameid":7170213,"name":"City of Hopkinsville","admin3":"7170213"},{"geonameid":7170295,"name":"City of LaFayette","admin3":"7170295"}],"alternateNames":[{"alternatenameId":6755489,"geonameid":6254925,"isoLanguage":"en","alternateName":"Kentucky","isPreferredName":true,"isShortName":true,"isColloquial":false,"isHistoric":false}]},"__N_SSG":true}