{"pageProps":{"locale":"ro","admin1":{"geonameid":665091,"name":"Timiş","country":"RO","admin1":"36","latitude":"45.6666700","longitude":"21.5000000"},"admin2":[{"geonameid":685614,"name":"Comuna Balinţ","admin2":"155546"},{"geonameid":685444,"name":"Comuna Banloc","admin2":"155591"},{"geonameid":685438,"name":"Comuna Bara","admin2":"155662"},{"geonameid":684782,"name":"Comuna Bârna","admin2":"155957"},{"geonameid":685227,"name":"Comuna Beba Veche","admin2":"155724"},{"geonameid":685210,"name":"Comuna Becicherecu Mic","admin2":"155760"},{"geonameid":685134,"name":"Comuna Belinţ","admin2":"155797"},{"geonameid":684955,"name":"Comuna Bethausen","admin2":"155840"},{"geonameid":684854,"name":"Comuna Biled","admin2":"155911"},{"geonameid":684816,"name":"Comuna Birda","admin2":"159366"},{"geonameid":684418,"name":"Comuna Bogda","admin2":"156035"},{"geonameid":684274,"name":"Comuna Boldur","admin2":"156106"},{"geonameid":683718,"name":"Comuna Brestovăţ","admin2":"156151"},{"geonameid":683544,"name":"Comuna Bucovăţ","admin2":"159516"},{"geonameid":682653,"name":"Comuna Cărpiniş","admin2":"156213"},{"geonameid":682427,"name":"Comuna Cenad","admin2":"156259"},{"geonameid":682422,"name":"Comuna Cenei","admin2":"156277"},{"geonameid":682232,"name":"Comuna Checea","admin2":"159375"},{"geonameid":682160,"name":"Comuna Chevereşu Mare","admin2":"156311"},{"geonameid":680991,"name":"Comuna Comloşu Mare","admin2":"156437"},{"geonameid":680590,"name":"Comuna Coşteiu","admin2":"156473"},{"geonameid":680244,"name":"Comuna Criciova","admin2":"156534"},{"geonameid":679908,"name":"Comuna Curtea","admin2":"156589"},{"geonameid":679715,"name":"Comuna Darova","admin2":"156623"},{"geonameid":679476,"name":"Comuna Denta","admin2":"156669"},{"geonameid":8334966,"name":"Comuna Dudeştii Noi","admin2":"159384"},{"geonameid":678781,"name":"Comuna Dudeştii Vechi","admin2":"156712"},{"geonameid":678726,"name":"Comuna Dumbrava","admin2":"156767"},{"geonameid":678676,"name":"Comuna Dumbrăviţa","admin2":"155261"},{"geonameid":678131,"name":"Comuna Fârdea","admin2":"156927"},{"geonameid":678295,"name":"Comuna Fibiş","admin2":"159393"},{"geonameid":678004,"name":"Comuna Foeni","admin2":"157004"},{"geonameid":677556,"name":"Comuna Gavojdia","admin2":"157031"},{"geonameid":677392,"name":"Comuna Ghilad","admin2":"159400"},{"geonameid":677312,"name":"Comuna Ghiroda","admin2":"155289"},{"geonameid":677298,"name":"Comuna Ghizela","admin2":"157193"},{"geonameid":677293,"name":"Comuna Giarmata","admin2":"157246"},{"geonameid":677287,"name":"Comuna Giera","admin2":"157273"},{"geonameid":677159,"name":"Comuna Giroc","admin2":"155314"},{"geonameid":677134,"name":"Comuna Giulvăz","admin2":"157317"},{"geonameid":676852,"name":"Comuna Gottlob","admin2":"159419"},{"geonameid":8334968,"name":"Comuna Iecea Mare","admin2":"159428"},{"geonameid":675294,"name":"Comuna Jamu Mare","admin2":"157362"},{"geonameid":675289,"name":"Comuna Jebel","admin2":"157424"},{"geonameid":674894,"name":"Comuna Lenauheim","admin2":"157451"},{"geonameid":674798,"name":"Comuna Liebling","admin2":"157497"},{"geonameid":8334734,"name":"Comuna Livezile","admin2":"159491"},{"geonameid":674585,"name":"Comuna Lovrin","admin2":"157530"},{"geonameid":673944,"name":"Comuna Mănăştiur","admin2":"157736"},{"geonameid":673813,"name":"Comuna Margina","admin2":"157585"},{"geonameid":673705,"name":"Comuna Maşloc","admin2":"157683"},{"geonameid":672866,"name":"Comuna Moraviţa","admin2":"157781"},{"geonameid":8334875,"name":"Comuna Moşniţa Nouã","admin2":"157834"},{"geonameid":672542,"name":"Comuna Nădrag","admin2":"157898"},{"geonameid":672184,"name":"Comuna Niţchidorf","admin2":"157923"},{"geonameid":671915,"name":"Comuna Ohaba Lungă","admin2":"157969"},{"geonameid":671675,"name":"Comuna Orţişoara","admin2":"158010"},{"geonameid":671609,"name":"Comuna Otelec","admin2":"159525"},{"geonameid":671512,"name":"Comuna Pădureni","admin2":"159446"},{"geonameid":671322,"name":"Comuna Parţa","admin2":"159437"},{"geonameid":671181,"name":"Comuna Peciu Nou","admin2":"158065"},{"geonameid":671137,"name":"Comuna Periam","admin2":"158109"},{"geonameid":671088,"name":"Comuna Pesac","admin2":"159507"},{"geonameid":670831,"name":"Comuna Pietroasa","admin2":"158136"},{"geonameid":670658,"name":"Comuna Pişchia","admin2":"158181"},{"geonameid":669314,"name":"Comuna Racoviţa","admin2":"158243"},{"geonameid":668978,"name":"Comuna Remetea Mare","admin2":"158396"},{"geonameid":668341,"name":"Comuna Săcălaz","admin2":"158564"},{"geonameid":668303,"name":"Comuna Sacoşu Turcesc","admin2":"158449"},{"geonameid":668268,"name":"Comuna Şag","admin2":"158779"},{"geonameid":667088,"name":"Comuna Sânandrei","admin2":"158653"},{"geonameid":668106,"name":"Comuna Şandra","admin2":"159464"},{"geonameid":666980,"name":"Comuna Sânmihaiu Român","admin2":"158699"},{"geonameid":666949,"name":"Comuna Sânpetru Mare","admin2":"158733"},{"geonameid":668012,"name":"Comuna Saravale","admin2":"159455"},{"geonameid":667899,"name":"Comuna Satchinez","admin2":"158528"},{"geonameid":667500,"name":"Comuna Secaş","admin2":"158608"},{"geonameid":666082,"name":"Comuna Ştiuca","admin2":"158804"},{"geonameid":8334827,"name":"Comuna Teremia Mare","admin2":"158859"},{"geonameid":664818,"name":"Comuna Tomeşti","admin2":"158895"},{"geonameid":664804,"name":"Comuna Tomnatic","admin2":"159473"},{"geonameid":8334806,"name":"Comuna Topolovãţu Mare","admin2":"158966"},{"geonameid":664715,"name":"Comuna Tormac","admin2":"159035"},{"geonameid":664665,"name":"Comuna Traian Vuia","admin2":"159071"},{"geonameid":664343,"name":"Comuna Uivar","admin2":"159142"},{"geonameid":663952,"name":"Comuna Vălcani","admin2":"159482"},{"geonameid":663170,"name":"Comuna Variaş","admin2":"159213"},{"geonameid":8334761,"name":"Comuna Victor Vlad Delamarina","admin2":"159259"},{"geonameid":662507,"name":"Comuna Voiteg","admin2":"159339"},{"geonameid":8334906,"name":"Municipiul Lugoj","admin2":"155350"},{"geonameid":8334795,"name":"Municipiul Timişoara","admin2":"155243"},{"geonameid":8334978,"name":"Oraş Buziaş","admin2":"155403"},{"geonameid":681970,"name":"Oraş Ciacova","admin2":"156357"},{"geonameid":8334877,"name":"Oraş Deta","admin2":"155458"},{"geonameid":678487,"name":"Oraş Fãget","admin2":"156801"},{"geonameid":677580,"name":"Oraş Gãtaia","admin2":"157086"},{"geonameid":8334683,"name":"Oraş Jimbolia","admin2":"155494"},{"geonameid":8334647,"name":"Oraş Recaş","admin2":"158314"},{"geonameid":8334972,"name":"Oraş Sânnicolau Mare","admin2":"155528"}],"country":{"geonameid":798549,"country":"RO","localeAltName":"România"},"alternateNames":[{"alternatenameId":490801,"geonameid":798549,"isoLanguage":"ro","alternateName":"România","isPreferredName":true,"isShortName":true,"isColloquial":false,"isHistoric":false}]},"__N_SSG":true}