{"pageProps":{"locale":"ro","admin1":{"geonameid":663116,"name":"Vaslui","country":"RO","admin1":"38","latitude":"46.5000000","longitude":"27.7500000"},"admin2":[{"geonameid":686547,"name":"Comuna Albeşti","admin2":"162014"},{"geonameid":686488,"name":"Comuna Alexandru Vlăhuţă","admin2":"162069"},{"geonameid":686112,"name":"Comuna Arsura","admin2":"162149"},{"geonameid":685951,"name":"Comuna Băcani","admin2":"162327"},{"geonameid":685933,"name":"Comuna Băceşti","admin2":"162381"},{"geonameid":685521,"name":"Comuna Bălteni","admin2":"162452"},{"geonameid":685488,"name":"Comuna Banca","admin2":"162194"},{"geonameid":685017,"name":"Comuna Berezeni","admin2":"162498"},{"geonameid":684617,"name":"Comuna Blăgeşti","admin2":"162559"},{"geonameid":684409,"name":"Comuna Bogdana","admin2":"162595"},{"geonameid":684386,"name":"Comuna Bogdăneşti","admin2":"162693"},{"geonameid":684383,"name":"Comuna Bogdăniţa","admin2":"162791"},{"geonameid":684064,"name":"Comuna Boţeşti","admin2":"162871"},{"geonameid":683271,"name":"Comuna Bunești Averești","admin2":"162924"},{"geonameid":681736,"name":"Comuna Ciocani","admin2":"167268"},{"geonameid":681182,"name":"Comuna Codăeşti","admin2":"163002"},{"geonameid":680697,"name":"Comuna Coroieşti","admin2":"163057"},{"geonameid":680564,"name":"Comuna Costeşti","admin2":"163137"},{"geonameid":680388,"name":"Comuna Cozmeşti","admin2":"167277"},{"geonameid":680270,"name":"Comuna Creţeşti","admin2":"163208"},{"geonameid":679751,"name":"Comuna Dăneşti","admin2":"163253"},{"geonameid":679512,"name":"Comuna Deleni","admin2":"163324"},{"geonameid":679498,"name":"Comuna Deleşti","admin2":"163379"},{"geonameid":675912,"name":"Comuna Dimitrie Cantemir","admin2":"164277"},{"geonameid":679173,"name":"Comuna Dodeşti","admin2":"167286"},{"geonameid":678919,"name":"Comuna Dragomireşti","admin2":"163486"},{"geonameid":678822,"name":"Comuna Drânceni","admin2":"163618"},{"geonameid":678557,"name":"Comuna Duda  Epureni","admin2":"163681"},{"geonameid":678664,"name":"Comuna Dumeşti","admin2":"163734"},{"geonameid":678558,"name":"Comuna Epureni","admin2":"163789"},{"geonameid":678464,"name":"Comuna Fălciu","admin2":"163832"},{"geonameid":678327,"name":"Comuna Fereşti","admin2":"167295"},{"geonameid":677862,"name":"Comuna Fruntişeni","admin2":"167231"},{"geonameid":677728,"name":"Comuna Găgeşti","admin2":"163903"},{"geonameid":677212,"name":"Comuna Gârceni","admin2":"164062"},{"geonameid":677434,"name":"Comuna Ghergheşti","admin2":"163967"},{"geonameid":676701,"name":"Comuna Griviţa","admin2":"164133"},{"geonameid":676126,"name":"Comuna Hoceni","admin2":"164197"},{"geonameid":675842,"name":"Comuna Iana","admin2":"164339"},{"geonameid":675782,"name":"Comuna Ibăneşti","admin2":"167222"},{"geonameid":675422,"name":"Comuna Ivăneşti","admin2":"164393"},{"geonameid":675415,"name":"Comuna Iveşti","admin2":"164543"},{"geonameid":674976,"name":"Comuna Laza","admin2":"164598"},{"geonameid":674729,"name":"Comuna Lipovăţ","admin2":"164687"},{"geonameid":674437,"name":"Comuna Lunca Banului","admin2":"164749"},{"geonameid":673963,"name":"Comuna Măluşteni","admin2":"164829"},{"geonameid":673465,"name":"Comuna Micleşti","admin2":"164892"},{"geonameid":672650,"name":"Comuna Muntenii de Jos","admin2":"164936"},{"geonameid":672648,"name":"Comuna Muntenii de Sus","admin2":"167302"},{"geonameid":671848,"name":"Comuna Olteneşti","admin2":"165069"},{"geonameid":671660,"name":"Comuna Oşeşti","admin2":"165130"},{"geonameid":671511,"name":"Comuna Pădureni","admin2":"165185"},{"geonameid":671130,"name":"Comuna Perieni","admin2":"165274"},{"geonameid":670369,"name":"Comuna Pochidia","admin2":"167311"},{"geonameid":670177,"name":"Comuna Pogana","admin2":"165416"},{"geonameid":8334900,"name":"Comuna Pogoneşti","admin2":"167259"},{"geonameid":670005,"name":"Comuna Poieneşti","admin2":"165336"},{"geonameid":669509,"name":"Comuna Puieşti","admin2":"165470"},{"geonameid":669492,"name":"Comuna Pungeşti","admin2":"165611"},{"geonameid":669462,"name":"Comuna Puşcaşi","admin2":"167320"},{"geonameid":669218,"name":"Comuna Rafaila","admin2":"167240"},{"geonameid":669062,"name":"Comuna Rebricea","admin2":"165719"},{"geonameid":668630,"name":"Comuna Roşieşti","admin2":"165817"},{"geonameid":666499,"name":"Comuna Soleşti","admin2":"165899"},{"geonameid":666285,"name":"Comuna Stănileşti","admin2":"165979"},{"geonameid":666244,"name":"Comuna Ştefan cel Mare","admin2":"166057"},{"geonameid":665793,"name":"Comuna Şuletea","admin2":"166137"},{"geonameid":665635,"name":"Comuna Tăcuta","admin2":"166235"},{"geonameid":665549,"name":"Comuna Tanacu","admin2":"166182"},{"geonameid":665454,"name":"Comuna Tătărăni","admin2":"166315"},{"geonameid":664857,"name":"Comuna Todireşti","admin2":"166413"},{"geonameid":8334817,"name":"Comuna Tutova","admin2":"166529"},{"geonameid":8334844,"name":"Comuna Vãleni","admin2":"166636"},{"geonameid":663009,"name":"Comuna Vetrişoaia","admin2":"166672"},{"geonameid":8334947,"name":"Comuna Viişoara","admin2":"166707"},{"geonameid":662819,"name":"Comuna Vinderei","admin2":"166770"},{"geonameid":8334911,"name":"Comuna Voineşti","admin2":"166869"},{"geonameid":662391,"name":"Comuna Vultureşti","admin2":"166985"},{"geonameid":662375,"name":"Comuna Vutcani","admin2":"167035"},{"geonameid":662301,"name":"Comuna Zăpodeni","admin2":"167071"},{"geonameid":662129,"name":"Comuna Zorleni","admin2":"167179"},{"geonameid":8334804,"name":"Municipiul Bârlad","admin2":"161794"},{"geonameid":8334931,"name":"Municipiul Huşi","admin2":"161829"},{"geonameid":8334837,"name":"Municipiul Vaslui","admin2":"161945"},{"geonameid":672614,"name":"Oraș Murgeni","admin2":"164981"},{"geonameid":672368,"name":"Oraş Negreşti","admin2":"161856"}],"country":{"geonameid":798549,"country":"RO","localeAltName":"România"},"alternateNames":[{"alternatenameId":490801,"geonameid":798549,"isoLanguage":"ro","alternateName":"România","isPreferredName":true,"isShortName":true,"isColloquial":false,"isHistoric":false}]},"__N_SSG":true}