{"pageProps":{"locale":"en","admin2":{"geonameid":4882561,"name":"Worth County","country":"US","admin1":"IA","admin2":"195","admin3":"","latitude":"43.3774000","longitude":"-93.2608500"},"admin1":{"geonameid":4862182,"name":"Iowa","admin1":"IA","localeAltName":"Iowa"},"locations":[{"geonameid":4866032,"name":"Manly","admin3":"92634"},{"geonameid":4869369,"name":"Northwood","admin3":"91797"}],"admin3":[{"geonameid":4847787,"name":"Township of Barton","admin3":"90132"},{"geonameid":4849373,"name":"Township of Bristol","admin3":"90345"},{"geonameid":4849445,"name":"Township of Brookfield","admin3":"90357"},{"geonameid":4853403,"name":"Township of Danville","admin3":"90891"},{"geonameid":4853680,"name":"Township of Deer Creek","admin3":"90939"},{"geonameid":4856564,"name":"Township of Fertile","admin3":"91338"},{"geonameid":4859418,"name":"Township of Grove","admin3":"91797"},{"geonameid":4859948,"name":"Township of Hartland","admin3":"91881"},{"geonameid":4863329,"name":"Township of Kensett","admin3":"92310"},{"geonameid":4864879,"name":"Township of Lincoln","admin3":"92634"},{"geonameid":4876460,"name":"Township of Silver Lake","admin3":"93909"},{"geonameid":4879446,"name":"Township of Union","admin3":"94287"}],"alternateNames":[{"alternatenameId":1980290,"geonameid":4862182,"isoLanguage":"en","alternateName":"Iowa","isPreferredName":true,"isShortName":true,"isColloquial":false,"isHistoric":false}]},"__N_SSG":true}