{"pageProps":{"locale":"ro","admin2":{"geonameid":673410,"name":"Comuna Mihăeşti","country":"RO","admin1":"39","admin2":"171325","admin3":"","latitude":"45.0328200","longitude":"24.2450100"},"admin1":{"geonameid":662892,"name":"Vâlcea","admin1":"39"},"locations":[{"geonameid":686122,"name":"Arsanca","admin3":""},{"geonameid":684751,"name":"Bârsești","admin3":""},{"geonameid":683322,"name":"Buleta","admin3":""},{"geonameid":676848,"name":"Govora","admin3":""},{"geonameid":676431,"name":"Gurișoara","admin3":""},{"geonameid":674158,"name":"Măgura","admin3":""},{"geonameid":674087,"name":"Mahalaua Mare","admin3":""},{"geonameid":673237,"name":"Mânăstirea Surpatele","admin3":""},{"geonameid":673417,"name":"Mihăeşti","admin3":""},{"geonameid":672661,"name":"Munteni","admin3":""},{"geonameid":672394,"name":"Negreni","admin3":""},{"geonameid":668504,"name":"Rugetu","admin3":""},{"geonameid":667724,"name":"Scărișoara","admin3":""},{"geonameid":667663,"name":"Schitu","admin3":""},{"geonameid":667629,"name":"Schitu-Zghiaburi","admin3":""},{"geonameid":665897,"name":"Stupărei","admin3":""},{"geonameid":662407,"name":"Vulpuești","admin3":""}],"admin3":[],"alternateNames":[]},"__N_SSG":true}