{"pageProps":{"locale":"ro","admin2":{"geonameid":680565,"name":"Comuna Costeşti","country":"RO","admin1":"39","admin2":"169253","admin3":"","latitude":"45.1693600","longitude":"24.0581300"},"admin1":{"geonameid":662892,"name":"Vâlcea","admin1":"39"},"locations":[{"geonameid":685617,"name":"Bălindeşti","admin3":""},{"geonameid":685143,"name":"Beleteşti","admin3":""},{"geonameid":684659,"name":"Bistrița","admin3":""},{"geonameid":682963,"name":"Călina","admin3":""},{"geonameid":680576,"name":"Costeşti","admin3":""},{"geonameid":679344,"name":"Din Tarsa","admin3":""},{"geonameid":678318,"name":"Ferigile","admin3":""},{"geonameid":677842,"name":"Fulgeşti","admin3":""},{"geonameid":676796,"name":"Grămăceşti","admin3":""},{"geonameid":673029,"name":"Mlăci","admin3":""},{"geonameid":670851,"name":"Pietreni","admin3":""},{"geonameid":667493,"name":"Secături","admin3":""},{"geonameid":666059,"name":"Stoicana","admin3":""},{"geonameid":663184,"name":"Văratici","admin3":""}],"admin3":[],"alternateNames":[]},"__N_SSG":true}