{"pageProps":{"locale":"it","admin2":{"geonameid":3164526,"name":"Provincia di Verona","country":"IT","admin1":"20","admin2":"VR","admin3":"","latitude":"45.4166700","longitude":"11.0333300","localeAltName":"Verona"},"admin1":{"geonameid":3164604,"name":"Veneto","admin1":"20","localeAltName":null},"locations":[{"geonameid":3183458,"name":"Affi","admin3":"023001","localeAltName":null},{"geonameid":8949631,"name":"Albarè Stazione","admin3":"023030","localeAltName":null},{"geonameid":3183350,"name":"Albaredo d'Adige","admin3":"023002","localeAltName":null},{"geonameid":8949725,"name":"Albaro","admin3":"023064","localeAltName":null},{"geonameid":8948964,"name":"Alpo","admin3":"023096","localeAltName":null},{"geonameid":6534652,"name":"Angiari","admin3":"023003","localeAltName":null},{"geonameid":8129098,"name":"Arbizzano-Santa Maria","admin3":"023052","localeAltName":null},{"geonameid":3182907,"name":"Arcole","admin3":"023004","localeAltName":null},{"geonameid":8949078,"name":"Asparetto","admin3":"023025","localeAltName":null},{"geonameid":3182581,"name":"Badia Calavena","admin3":"023005","localeAltName":null},{"geonameid":3182507,"name":"Bagnolo","admin3":"023054","localeAltName":null},{"geonameid":3182364,"name":"Bardolino","admin3":"023006","localeAltName":null},{"geonameid":8604860,"name":"Bassone","admin3":"023091","localeAltName":null},{"geonameid":6534219,"name":"Beccacivetta-Azzano","admin3":"023021","localeAltName":null},{"geonameid":3182242,"name":"Belfiore","admin3":"023007","localeAltName":null},{"geonameid":3182087,"name":"Bevilacqua","admin3":"023008","localeAltName":null},{"geonameid":3182018,"name":"Bionde","admin3":"023068","localeAltName":null},{"geonameid":3181895,"name":"Bonavicina","admin3":"023075","localeAltName":null},{"geonameid":3181894,"name":"Bonavigo","admin3":"023009","localeAltName":null},{"geonameid":3181886,"name":"Bonferraro","admin3":"023084","localeAltName":null},{"geonameid":6534653,"name":"Boschi Sant'Anna","admin3":"023010","localeAltName":null},{"geonameid":3181689,"name":"Bosco Chiesanuova","admin3":"023011","localeAltName":null},{"geonameid":3181637,"name":"Bovolone","admin3":"023012","localeAltName":null},{"geonameid":6534597,"name":"Brentino Belluno","admin3":"023013","localeAltName":null},{"geonameid":6534598,"name":"Brenzone","admin3":"023014","localeAltName":null},{"geonameid":8948888,"name":"Brognoligo-Costalunga","admin3":"023050","localeAltName":null},{"geonameid":8949919,"name":"Bure","admin3":"023076","localeAltName":null},{"geonameid":3181359,"name":"Bussolengo","admin3":"023015","localeAltName":null},{"geonameid":3181348,"name":"Buttapietra","admin3":"023016","localeAltName":null},{"geonameid":3181313,"name":"Ca' degli Oppi","admin3":"023055","localeAltName":null},{"geonameid":8949329,"name":"Caldierino-Rota","admin3":"023017","localeAltName":null},{"geonameid":6535572,"name":"Caldiero","admin3":"023017","localeAltName":null},{"geonameid":8949422,"name":"Calmasino","admin3":"023006","localeAltName":null},{"geonameid":8949864,"name":"Caluri","admin3":"023096","localeAltName":null},{"geonameid":8949043,"name":"Campagnola","admin3":"023097","localeAltName":null},{"geonameid":3175605,"name":"Capitello","admin3":"023029","localeAltName":null},{"geonameid":3180611,"name":"Caprino Veronese","admin3":"023018","localeAltName":null},{"geonameid":8949533,"name":"Carpi","admin3":"023095","localeAltName":null},{"geonameid":3180205,"name":"Casaleone","admin3":"023019","localeAltName":null},{"geonameid":8950025,"name":"Caselle","admin3":"023061","localeAltName":null},{"geonameid":6951015,"name":"Caselle","admin3":"023082","localeAltName":null},{"geonameid":3179768,"name":"Castagnaro","admin3":"023020","localeAltName":null},{"geonameid":6534221,"name":"Castelnuovo del Garda","admin3":"023022","localeAltName":null},{"geonameid":3179334,"name":"Cavajon Veronese","admin3":"023023","localeAltName":null},{"geonameid":8063841,"name":"Cavalcaselle","admin3":"023022","localeAltName":null},{"geonameid":6535573,"name":"Cazzano di Tramigna","admin3":"023024","localeAltName":null},{"geonameid":8949280,"name":"Cellore","admin3":"023039","localeAltName":null},{"geonameid":3179106,"name":"Cerea","admin3":"023025","localeAltName":null},{"geonameid":8950351,"name":"Ceredello","admin3":"023018","localeAltName":null},{"geonameid":6534654,"name":"Cerro Veronese","admin3":"023026","localeAltName":null},{"geonameid":8950132,"name":"Cogollo","admin3":"023087","localeAltName":null},{"geonameid":3178469,"name":"Colà","admin3":"023043","localeAltName":null},{"geonameid":3178288,"name":"Cologna Veneta","admin3":"023027","localeAltName":null},{"geonameid":6534655,"name":"Colognola ai Colli","admin3":"023028","localeAltName":null},{"geonameid":3178123,"name":"Corbiolo","admin3":"023011","localeAltName":null},{"geonameid":8950338,"name":"Coriano","admin3":"023002","localeAltName":null},{"geonameid":6693772,"name":"Corrubbio","admin3":"023076","localeAltName":null},{"geonameid":3177882,"name":"Costermano","admin3":"023030","localeAltName":null},{"geonameid":6589669,"name":"Custoza","admin3":"023082","localeAltName":null},{"geonameid":3177552,"name":"Dolcè","admin3":"023031","localeAltName":null},{"geonameid":3177497,"name":"Dossobuono","admin3":"023096","localeAltName":null},{"geonameid":3177370,"name":"Erbè","admin3":"023032","localeAltName":null},{"geonameid":8949340,"name":"Fane","admin3":"023052","localeAltName":null},{"geonameid":8949378,"name":"Forette","admin3":"023094","localeAltName":null},{"geonameid":3176489,"name":"Fumane","admin3":"023035","localeAltName":null},{"geonameid":8950377,"name":"Gallese","admin3":"023044","localeAltName":null},{"geonameid":3176320,"name":"Garda","admin3":"023036","localeAltName":null},{"geonameid":9036375,"name":"Gazzolo-Volpino","admin3":"023004","localeAltName":null},{"geonameid":3175830,"name":"Grezzana","admin3":"023038","localeAltName":null},{"geonameid":8949809,"name":"Grezzano","admin3":"023051","localeAltName":null},{"geonameid":3175584,"name":"Illasi","admin3":"023039","localeAltName":null},{"geonameid":3175428,"name":"Isola della Scala","admin3":"023040","localeAltName":null},{"geonameid":6535574,"name":"Isola Rizza","admin3":"023041","localeAltName":null},{"geonameid":8949737,"name":"Isolalta","admin3":"023094","localeAltName":null},{"geonameid":6534600,"name":"Lavagno","admin3":"023042","localeAltName":null},{"geonameid":3174975,"name":"Lazise","admin3":"023043","localeAltName":null},{"geonameid":3174922,"name":"Legnago","admin3":"023044","localeAltName":null},{"geonameid":8949079,"name":"Locara","admin3":"023069","localeAltName":null},{"geonameid":3174505,"name":"Lugagnano","admin3":"023083","localeAltName":null},{"geonameid":3174413,"name":"Maccacari","admin3":"023037","localeAltName":null},{"geonameid":9036185,"name":"Madonna di Dossobuono","admin3":"023091","localeAltName":null},{"geonameid":3174233,"name":"Magugnano","admin3":"023014","localeAltName":null},{"geonameid":3174188,"name":"Malcesine","admin3":"023045","localeAltName":null},{"geonameid":8949794,"name":"Marcellise","admin3":"023073","localeAltName":null},{"geonameid":3181640,"name":"Marchesino-Bovo","admin3":"023016","localeAltName":null},{"geonameid":8949808,"name":"Menà","admin3":"023020","localeAltName":null},{"geonameid":6535575,"name":"Mezzane di Sotto","admin3":"023047","localeAltName":null},{"geonameid":3173462,"name":"Michellorie","admin3":"023002","localeAltName":null},{"geonameid":3173408,"name":"Minerbe","admin3":"023048","localeAltName":null},{"geonameid":3173339,"name":"Mizzole","admin3":"023091","localeAltName":null},{"geonameid":3172990,"name":"Montecchia di Crosara","admin3":"023049","localeAltName":null},{"geonameid":3172922,"name":"Monteforte d'Alpone","admin3":"023050","localeAltName":null},{"geonameid":8949791,"name":"Montericco","admin3":"023052","localeAltName":null},{"geonameid":3176828,"name":"Monticelli-Fontana","admin3":"023042","localeAltName":null},{"geonameid":3172642,"name":"Montorio","admin3":"023091","localeAltName":null},{"geonameid":3172494,"name":"Mozzecane","admin3":"023051","localeAltName":null},{"geonameid":3172338,"name":"Negrar","admin3":"023052","localeAltName":null},{"geonameid":3172235,"name":"Nogara","admin3":"023053","localeAltName":null},{"geonameid":3172232,"name":"Nogarole Rocca","admin3":"023054","localeAltName":null},{"geonameid":3171995,"name":"Oppeano","admin3":"023055","localeAltName":null},{"geonameid":6620342,"name":"Ospedaletto","admin3":"023058","localeAltName":null},{"geonameid":3171547,"name":"Palù","admin3":"023056","localeAltName":null},{"geonameid":3171449,"name":"Parona","admin3":"023091","localeAltName":null},{"geonameid":3171399,"name":"Pastrengo","admin3":"023057","localeAltName":null},{"geonameid":8555928,"name":"Pedemonte","admin3":"023076","localeAltName":null},{"geonameid":3171292,"name":"Pellegrina","admin3":"023040","localeAltName":null},{"geonameid":8949509,"name":"Perzacco","admin3":"023097","localeAltName":null},{"geonameid":3171169,"name":"Pescantina","admin3":"023058","localeAltName":null},{"geonameid":3171152,"name":"Peschiera del Garda","admin3":"023059","localeAltName":null},{"geonameid":8949873,"name":"Pesina Spezie","admin3":"023018","localeAltName":null},{"geonameid":8949782,"name":"Pesine Bisse","admin3":"023018","localeAltName":null},{"geonameid":8949581,"name":"Pizzoletta","admin3":"023096","localeAltName":null},{"geonameid":3170412,"name":"Poiano","admin3":"023091","localeAltName":null},{"geonameid":3170019,"name":"Povegliano Veronese","admin3":"023060","localeAltName":null},{"geonameid":8949317,"name":"Pradelle","admin3":"023054","localeAltName":null},{"geonameid":3169841,"name":"Pressana","admin3":"023061","localeAltName":null},{"geonameid":8949097,"name":"Quaderni","admin3":"023096","localeAltName":null},{"geonameid":3169624,"name":"Raldon","admin3":"023071","localeAltName":null},{"geonameid":8950264,"name":"Rivalta","admin3":"023013","localeAltName":null},{"geonameid":6534999,"name":"Rivoli Veronese","admin3":"023062","localeAltName":null},{"geonameid":3169030,"name":"Roncà","admin3":"023063","localeAltName":null},{"geonameid":8181698,"name":"Roncanova","admin3":"023037","localeAltName":null},{"geonameid":3169004,"name":"Ronco All'Adige","admin3":"023064","localeAltName":null},{"geonameid":8949915,"name":"Roncolevà","admin3":"023088","localeAltName":null},{"geonameid":8949265,"name":"Rosegaferro","admin3":"023096","localeAltName":null},{"geonameid":6535576,"name":"Roverchiara","admin3":"023065","localeAltName":null},{"geonameid":9036176,"name":"Roverchiaretta","admin3":"023065","localeAltName":null},{"geonameid":6534657,"name":"Roveredo di Guà","admin3":"023066","localeAltName":null},{"geonameid":3168642,"name":"Salionze","admin3":"023089","localeAltName":null},{"geonameid":3168637,"name":"Salizzole","admin3":"023068","localeAltName":null},{"geonameid":3168514,"name":"San Bonifacio","admin3":"023069","localeAltName":null},{"geonameid":3168512,"name":"San Briccio","admin3":"023042","localeAltName":null},{"geonameid":8949633,"name":"San Felice","admin3":"023091","localeAltName":null},{"geonameid":3168379,"name":"San Floriano","admin3":"023076","localeAltName":null},{"geonameid":3168296,"name":"San Giorgio in Salici","admin3":"023083","localeAltName":null},{"geonameid":3168245,"name":"San Giovanni Ilarione","admin3":"023070","localeAltName":null},{"geonameid":3168236,"name":"San Giovanni Lupatoto","admin3":"023071","localeAltName":null},{"geonameid":8948942,"name":"San Gregorio","admin3":"023092","localeAltName":null},{"geonameid":3168030,"name":"San Martino Buon Albergo","admin3":"023073","localeAltName":null},{"geonameid":3167908,"name":"San Pancrazio","admin3":"023091","localeAltName":null},{"geonameid":8948900,"name":"San Pietro","admin3":"023042","localeAltName":null},{"geonameid":6535577,"name":"San Pietro di Morubio","admin3":"023075","localeAltName":null},{"geonameid":6534260,"name":"San Pietro in Cariano","admin3":"023076","localeAltName":null},{"geonameid":3167765,"name":"San Rocco","admin3":"023067","localeAltName":null},{"geonameid":8949194,"name":"San Vito al Mantico","admin3":"023015","localeAltName":null},{"geonameid":3167176,"name":"San Vittore","admin3":"023028","localeAltName":null},{"geonameid":8949381,"name":"San Zeno","admin3":"023079","localeAltName":null},{"geonameid":8949448,"name":"San Zeno","admin3":"023051","localeAltName":null},{"geonameid":3167162,"name":"San Zeno di Montagna","admin3":"023079","localeAltName":null},{"geonameid":7304054,"name":"Sandrà","admin3":"023022","localeAltName":null},{"geonameid":3168182,"name":"Sanguinetto","admin3":"023072","localeAltName":null},{"geonameid":3167513,"name":"Sant'Ambrogio di Valpollicella","admin3":"023077","localeAltName":null},{"geonameid":8950281,"name":"Santa Lucia","admin3":"023058","localeAltName":null},{"geonameid":3167533,"name":"Santa Maria In Stelle","admin3":"023091","localeAltName":null},{"geonameid":3181901,"name":"Santo Stefano-Bonaldo","admin3":"023098","localeAltName":null},{"geonameid":8949464,"name":"Sega","admin3":"023023","localeAltName":null},{"geonameid":3166578,"name":"Settimo","admin3":"023058","localeAltName":null},{"geonameid":3166468,"name":"Soave","admin3":"023081","localeAltName":null},{"geonameid":3166410,"name":"Sommacampagna","admin3":"023082","localeAltName":null},{"geonameid":3166400,"name":"Sona","admin3":"023083","localeAltName":null},{"geonameid":6535578,"name":"Sorgà","admin3":"023084","localeAltName":null},{"geonameid":8949253,"name":"Spinimbecco","admin3":"023095","localeAltName":null},{"geonameid":3174491,"name":"Stallavena-Lugo","admin3":"023038","localeAltName":null},{"geonameid":8948794,"name":"Strà-Montanara-Pieve","admin3":"023028","localeAltName":null},{"geonameid":8949759,"name":"Tarmassia","admin3":"023040","localeAltName":null},{"geonameid":3165747,"name":"Terrazzo","admin3":"023085","localeAltName":null},{"geonameid":3165740,"name":"Terrossa","admin3":"023063","localeAltName":null},{"geonameid":8950123,"name":"Tombazosana","admin3":"023064","localeAltName":null},{"geonameid":3165395,"name":"Torri del Benaco","admin3":"023086","localeAltName":null},{"geonameid":3165262,"name":"Tregnago","admin3":"023087","localeAltName":null},{"geonameid":3165210,"name":"Trevenzuolo","admin3":"023088","localeAltName":null},{"geonameid":11072712,"name":"Vago","admin3":"023042","localeAltName":null},{"geonameid":3164924,"name":"Valeggio sul Mincio","admin3":"023089","localeAltName":null},{"geonameid":7290085,"name":"Valgatara","admin3":"023046","localeAltName":null},{"geonameid":3164818,"name":"Vallese","admin3":"023055","localeAltName":null},{"geonameid":3164527,"name":"Verona","admin3":"023091","localeAltName":null},{"geonameid":3164523,"name":"Veronella","admin3":"023092","localeAltName":null},{"geonameid":3164485,"name":"Vestenanova","admin3":"023093","localeAltName":null},{"geonameid":9036132,"name":"Via Pastrengo","admin3":"023015","localeAltName":null},{"geonameid":3164381,"name":"Vigasio","admin3":"023094","localeAltName":null},{"geonameid":3164303,"name":"Villa Bartolomea","admin3":"023095","localeAltName":null},{"geonameid":8949598,"name":"Villabella","admin3":"023069","localeAltName":null},{"geonameid":3164248,"name":"Villafontana","admin3":"023012","localeAltName":null},{"geonameid":3164241,"name":"Villafranca di Verona","admin3":"023096","localeAltName":null},{"geonameid":3163987,"name":"Volargne","admin3":"023031","localeAltName":null},{"geonameid":3163878,"name":"Zevio","admin3":"023097","localeAltName":null},{"geonameid":3163870,"name":"Zimella","admin3":"023098","localeAltName":null},{"geonameid":8949871,"name":"Zona Artigianale Foroni","admin3":"023089","localeAltName":null}],"admin3":[{"geonameid":3179722,"name":"Castel d'Azzano","admin3":"023021","localeAltName":null},{"geonameid":3181558,"name":"Brenzone sul Garda","admin3":"023014","localeAltName":null},{"geonameid":6536209,"name":"Sant'Ambrogio di Valpolicella","admin3":"023077","localeAltName":null},{"geonameid":6536260,"name":"Bosco Chiesanuova","admin3":"023011","localeAltName":null},{"geonameid":6536261,"name":"Bussolengo","admin3":"023015","localeAltName":null},{"geonameid":6536262,"name":"Castagnaro","admin3":"023020","localeAltName":null},{"geonameid":6536263,"name":"Malcesine","admin3":"023045","localeAltName":null},{"geonameid":6536264,"name":"Mozzecane","admin3":"023051","localeAltName":null},{"geonameid":6536265,"name":"Peschiera del Garda","admin3":"023059","localeAltName":null},{"geonameid":6536600,"name":"Sona","admin3":"023083","localeAltName":null},{"geonameid":6536601,"name":"Terrazzo","admin3":"023085","localeAltName":null},{"geonameid":6536602,"name":"Torri del Benaco","admin3":"023086","localeAltName":null},{"geonameid":6536603,"name":"Tregnago","admin3":"023087","localeAltName":null},{"geonameid":6536604,"name":"Trevenzuolo","admin3":"023088","localeAltName":null},{"geonameid":6536605,"name":"Valeggio sul Mincio","admin3":"023089","localeAltName":null},{"geonameid":6536606,"name":"Villa Bartolomea","admin3":"023095","localeAltName":null},{"geonameid":6536607,"name":"Villafranca di Verona","admin3":"023096","localeAltName":null},{"geonameid":6536608,"name":"Zevio","admin3":"023097","localeAltName":null},{"geonameid":6538229,"name":"Affi","admin3":"023001","localeAltName":null},{"geonameid":6538230,"name":"Albaredo d'Adige","admin3":"023002","localeAltName":null},{"geonameid":6538231,"name":"Arcole","admin3":"023004","localeAltName":null},{"geonameid":6538232,"name":"Badia Calavena","admin3":"023005","localeAltName":null},{"geonameid":6538233,"name":"Bevilacqua","admin3":"023008","localeAltName":null},{"geonameid":6538234,"name":"Bovolone","admin3":"023012","localeAltName":null},{"geonameid":6538235,"name":"Casaleone","admin3":"023019","localeAltName":null},{"geonameid":6538236,"name":"Cavaion Veronese","admin3":"023023","localeAltName":null},{"geonameid":6538237,"name":"Dolcè","admin3":"023031","localeAltName":null},{"geonameid":6538238,"name":"Erbè","admin3":"023032","localeAltName":null},{"geonameid":6538239,"name":"Grezzana","admin3":"023038","localeAltName":null},{"geonameid":6538240,"name":"Isola della Scala","admin3":"023040","localeAltName":null},{"geonameid":6538241,"name":"Lazise","admin3":"023043","localeAltName":null},{"geonameid":6538242,"name":"Minerbe","admin3":"023048","localeAltName":null},{"geonameid":6538243,"name":"Montecchia di Crosara","admin3":"023049","localeAltName":null},{"geonameid":6538244,"name":"Monteforte d'Alpone","admin3":"023050","localeAltName":null},{"geonameid":6538245,"name":"Oppeano","admin3":"023055","localeAltName":null},{"geonameid":6538246,"name":"Pressana","admin3":"023061","localeAltName":null},{"geonameid":6538247,"name":"Ronco all'Adige","admin3":"023064","localeAltName":null},{"geonameid":6538248,"name":"Veronella","admin3":"023092","localeAltName":null},{"geonameid":6538249,"name":"Vigasio","admin3":"023094","localeAltName":null},{"geonameid":6539638,"name":"Legnago","admin3":"023044","localeAltName":null},{"geonameid":6539683,"name":"Roncà","admin3":"023063","localeAltName":null},{"geonameid":6539684,"name":"Soave","admin3":"023081","localeAltName":null},{"geonameid":6539918,"name":"Belfiore","admin3":"023007","localeAltName":null},{"geonameid":6539919,"name":"Erbezzo","admin3":"023033"},{"geonameid":6539920,"name":"Sanguinetto","admin3":"023072","localeAltName":null},{"geonameid":6540129,"name":"Zimella","admin3":"023098","localeAltName":null},{"geonameid":6540239,"name":"Gazzo Veronese","admin3":"023037","localeAltName":null},{"geonameid":6540240,"name":"Bardolino","admin3":"023006","localeAltName":null},{"geonameid":6540241,"name":"Caprino Veronese","admin3":"023018","localeAltName":null},{"geonameid":6540242,"name":"Costermano sul Garda","admin3":"023030","localeAltName":null},{"geonameid":6540243,"name":"Fumane","admin3":"023035","localeAltName":null},{"geonameid":6540244,"name":"Nogara","admin3":"023053","localeAltName":null},{"geonameid":6540245,"name":"Pastrengo","admin3":"023057","localeAltName":null},{"geonameid":6540247,"name":"San Giovanni Lupatoto","admin3":"023071","localeAltName":null},{"geonameid":6540248,"name":"San Martino Buon Albergo","admin3":"023073","localeAltName":null},{"geonameid":6540378,"name":"Sant'Anna d'Alfaedo","admin3":"023078"},{"geonameid":6540971,"name":"Bonavigo","admin3":"023009","localeAltName":null},{"geonameid":6540972,"name":"Buttapietra","admin3":"023016","localeAltName":null},{"geonameid":6540973,"name":"Cerea","admin3":"023025","localeAltName":null},{"geonameid":6540974,"name":"Cologna Veneta","admin3":"023027","localeAltName":null},{"geonameid":6540975,"name":"Ferrara di Monte Baldo","admin3":"023034"},{"geonameid":6540976,"name":"Illasi","admin3":"023039","localeAltName":null},{"geonameid":6540977,"name":"Palù","admin3":"023056","localeAltName":null},{"geonameid":6540978,"name":"Pescantina","admin3":"023058","localeAltName":null},{"geonameid":6540979,"name":"San Bonifacio","admin3":"023069","localeAltName":null},{"geonameid":6540980,"name":"Sommacampagna","admin3":"023082","localeAltName":null},{"geonameid":6540981,"name":"Vestenanova","admin3":"023093","localeAltName":null},{"geonameid":6541509,"name":"Negrar di Valpolicella","admin3":"023052","localeAltName":null},{"geonameid":6541510,"name":"Nogarole Rocca","admin3":"023054","localeAltName":null},{"geonameid":6541536,"name":"San Mauro di Saline","admin3":"023074"},{"geonameid":6541595,"name":"Povegliano Veronese","admin3":"023060","localeAltName":null},{"geonameid":6541811,"name":"Garda","admin3":"023036","localeAltName":null},{"geonameid":6541812,"name":"Marano di Valpolicella","admin3":"023046","localeAltName":null},{"geonameid":6541813,"name":"Salizzole","admin3":"023068","localeAltName":null},{"geonameid":6541865,"name":"Verona","admin3":"023091","localeAltName":null},{"geonameid":6542017,"name":"San Zeno di Montagna","admin3":"023079","localeAltName":null},{"geonameid":6542021,"name":"San Giovanni Ilarione","admin3":"023070","localeAltName":null},{"geonameid":6542299,"name":"Castelnuovo del Garda","admin3":"023022","localeAltName":null},{"geonameid":6542333,"name":"San Pietro in Cariano","admin3":"023076","localeAltName":null},{"geonameid":6542646,"name":"Brentino Belluno","admin3":"023013","localeAltName":null},{"geonameid":6542647,"name":"Concamarise","admin3":"023029","localeAltName":null},{"geonameid":6542648,"name":"Lavagno","admin3":"023042","localeAltName":null},{"geonameid":6542699,"name":"Angiari","admin3":"023003","localeAltName":null},{"geonameid":6542700,"name":"Boschi Sant'Anna","admin3":"023010","localeAltName":null},{"geonameid":6542701,"name":"Cerro Veronese","admin3":"023026","localeAltName":null},{"geonameid":6542702,"name":"Colognola ai Colli","admin3":"023028","localeAltName":null},{"geonameid":6542704,"name":"Roveredo di Guà","admin3":"023066","localeAltName":null},{"geonameid":6542705,"name":"Roverè Veronese","admin3":"023067","localeAltName":null},{"geonameid":6542985,"name":"Rivoli Veronese","admin3":"023062","localeAltName":null},{"geonameid":6542986,"name":"Selva di Progno","admin3":"023080"},{"geonameid":6543553,"name":"Caldiero","admin3":"023017","localeAltName":null},{"geonameid":6543554,"name":"Cazzano di Tramigna","admin3":"023024","localeAltName":null},{"geonameid":6543555,"name":"Isola Rizza","admin3":"023041","localeAltName":null},{"geonameid":6543556,"name":"Mezzane di Sotto","admin3":"023047","localeAltName":null},{"geonameid":6543557,"name":"Roverchiara","admin3":"023065","localeAltName":null},{"geonameid":6543558,"name":"San Pietro di Morubio","admin3":"023075","localeAltName":null},{"geonameid":6543559,"name":"Sorgà","admin3":"023084","localeAltName":null},{"geonameid":6543560,"name":"Velo Veronese","admin3":"023090"}],"alternateNames":[{"alternatenameId":1347208,"geonameid":3164526,"isoLanguage":"it","alternateName":"Verona","isPreferredName":true,"isShortName":true,"isColloquial":false,"isHistoric":false}]},"__N_SSG":true}