{"pageProps":{"locale":"it","admin2":{"geonameid":3182209,"name":"Provincia di Belluno","country":"IT","admin1":"20","admin2":"BL","admin3":"","latitude":"46.2500000","longitude":"12.1333300","localeAltName":"Belluno"},"admin1":{"geonameid":3164604,"name":"Veneto","admin1":"20","localeAltName":null},"locations":[{"geonameid":3183420,"name":"Agordo","admin3":"025001","localeAltName":null},{"geonameid":6535015,"name":"Alano di Piave","admin3":"025002","localeAltName":null},{"geonameid":3183268,"name":"Alleghe","admin3":"025003","localeAltName":null},{"geonameid":3182999,"name":"Anzù","admin3":"025021","localeAltName":null},{"geonameid":3182791,"name":"Arsiè","admin3":"025004","localeAltName":null},{"geonameid":3182779,"name":"Arten","admin3":"025022","localeAltName":null},{"geonameid":3182671,"name":"Auronzo","admin3":"025005","localeAltName":null},{"geonameid":3182210,"name":"Belluno","admin3":"025006","localeAltName":null},{"geonameid":3219676,"name":"Bolzano","admin3":"025006","localeAltName":null},{"geonameid":3181867,"name":"Borca","admin3":"025007","localeAltName":null},{"geonameid":3181248,"name":"Calalzo di Cadore","admin3":"025008","localeAltName":null},{"geonameid":3219526,"name":"Caleipo-Sossai","admin3":"025006","localeAltName":null},{"geonameid":3219362,"name":"Campolongo","admin3":"025050","localeAltName":null},{"geonameid":3180895,"name":"Canale d'Agordo","admin3":"025023","localeAltName":null},{"geonameid":3180864,"name":"Candide","admin3":"025015","localeAltName":null},{"geonameid":3179579,"name":"Castello Lavazzo","admin3":"025071","localeAltName":null},{"geonameid":3219541,"name":"Castion","admin3":"025006","localeAltName":null},{"geonameid":8950113,"name":"Caviola","admin3":"025019","localeAltName":null},{"geonameid":3179178,"name":"Cencenighe Agordino","admin3":"025010","localeAltName":null},{"geonameid":3178952,"name":"Cesiomaggiore","admin3":"025011","localeAltName":null},{"geonameid":3219692,"name":"Codissago","admin3":"025071","localeAltName":null},{"geonameid":8949565,"name":"Colmirano","admin3":"025002","localeAltName":null},{"geonameid":8949936,"name":"Cornei","admin3":"025072","localeAltName":null},{"geonameid":3177952,"name":"Cortina d'Ampezzo","admin3":"025016","localeAltName":null},{"geonameid":3177539,"name":"Domegge di Cadore","admin3":"025018","localeAltName":null},{"geonameid":8950393,"name":"Facen-Travagola","admin3":"025036","localeAltName":null},{"geonameid":3177178,"name":"Farra d'Alpago","admin3":"025072","localeAltName":null},{"geonameid":3177120,"name":"Feltre","admin3":"025021","localeAltName":null},{"geonameid":8949591,"name":"Foen","admin3":"025021","localeAltName":null},{"geonameid":3176778,"name":"Fonzaso","admin3":"025022","localeAltName":null},{"geonameid":3176684,"name":"Forno di Zoldo","admin3":"025073","localeAltName":null},{"geonameid":3176668,"name":"Fortogna","admin3":"025071","localeAltName":null},{"geonameid":3175974,"name":"Gosaldo","admin3":"025025","localeAltName":null},{"geonameid":3219690,"name":"Igne","admin3":"025071","localeAltName":null},{"geonameid":3175017,"name":"La Valle Agordina","admin3":"025027","localeAltName":null},{"geonameid":3219377,"name":"Laggio di Cadore","admin3":"025065","localeAltName":null},{"geonameid":3175189,"name":"Lamon","admin3":"025026","localeAltName":null},{"geonameid":3174885,"name":"Lentiai","admin3":"025074","localeAltName":null},{"geonameid":3219660,"name":"Levego","admin3":"025006","localeAltName":null},{"geonameid":3174773,"name":"Libano","admin3":"025053","localeAltName":null},{"geonameid":3219568,"name":"Limana","admin3":"025029","localeAltName":null},{"geonameid":3174663,"name":"Livinallongo del Col di Lana","admin3":"025030","localeAltName":null},{"geonameid":3174598,"name":"Longarone","admin3":"025071","localeAltName":null},{"geonameid":3174574,"name":"Lorenzago di Cadore","admin3":"025032","localeAltName":null},{"geonameid":3174538,"name":"Lozzo di Cadore","admin3":"025033","localeAltName":null},{"geonameid":3173811,"name":"Mas","admin3":"025053","localeAltName":null},{"geonameid":3219588,"name":"Meano","admin3":"025048","localeAltName":null},{"geonameid":3173644,"name":"Mel","admin3":"025074","localeAltName":null},{"geonameid":3219672,"name":"Mis","admin3":"025056","localeAltName":null},{"geonameid":3171731,"name":"Padola","admin3":"025015","localeAltName":null},{"geonameid":3171338,"name":"Pedavena","admin3":"025036","localeAltName":null},{"geonameid":9036126,"name":"Pie' Falcade","admin3":"025019","localeAltName":null},{"geonameid":3170754,"name":"Pieve di Cadore","admin3":"025039","localeAltName":null},{"geonameid":3170239,"name":"Ponte nelle Alpi","admin3":"025040","localeAltName":null},{"geonameid":3170367,"name":"Ponte nelle Alpi-Polpet","admin3":"025040","localeAltName":null},{"geonameid":3218773,"name":"Pozzale","admin3":"025039","localeAltName":null},{"geonameid":3169750,"name":"Puos d'Alpago","admin3":"025072","localeAltName":null},{"geonameid":3169673,"name":"Quero","admin3":"025070","localeAltName":null},{"geonameid":3219578,"name":"Roe Alte","admin3":"025053","localeAltName":null},{"geonameid":3167833,"name":"San Pietro di Cadore","admin3":"025047","localeAltName":null},{"geonameid":3167182,"name":"San Vito","admin3":"025051","localeAltName":null},{"geonameid":3167634,"name":"Santa Giustina","admin3":"025048","localeAltName":null},{"geonameid":3167244,"name":"Santo Stefano di Cadore","admin3":"025050","localeAltName":null},{"geonameid":3166826,"name":"Sedico","admin3":"025053","localeAltName":null},{"geonameid":3166775,"name":"Selva di Cadore","admin3":"025054","localeAltName":null},{"geonameid":3166710,"name":"Seren del Grappa","admin3":"025055","localeAltName":null},{"geonameid":3219640,"name":"Soccher-Paiane-Casan-Arsie","admin3":"025040","localeAltName":null},{"geonameid":3166342,"name":"Sospirolo","admin3":"025056","localeAltName":null},{"geonameid":6534759,"name":"Sovramonte","admin3":"025058","localeAltName":null},{"geonameid":3165978,"name":"Taibon Agordino","admin3":"025059","localeAltName":null},{"geonameid":3219557,"name":"Trichiana","admin3":"025074","localeAltName":null},{"geonameid":6534798,"name":"Vallada Agordina","admin3":"025062","localeAltName":null},{"geonameid":3219716,"name":"Valle di Cadore","admin3":"025063","localeAltName":null},{"geonameid":3164615,"name":"Venas","admin3":"025063","localeAltName":null},{"geonameid":3219600,"name":"Villa di Villa","admin3":"025074","localeAltName":null},{"geonameid":3164292,"name":"Villabruna-Umin","admin3":"025021","localeAltName":null},{"geonameid":3169021,"name":"Villapiana-Ronchena","admin3":"025074","localeAltName":null},{"geonameid":3164046,"name":"Visome","admin3":"025006","localeAltName":null},{"geonameid":3163998,"name":"Vodo","admin3":"025066","localeAltName":null},{"geonameid":3163966,"name":"Voltago Agordino","admin3":"025067","localeAltName":null},{"geonameid":11468289,"name":"Zoldo Alto","admin3":"025073","localeAltName":null}],"admin3":[{"geonameid":3163847,"name":"Zoppè di Cadore","admin3":"025069"},{"geonameid":6536214,"name":"Borca di Cadore","admin3":"025007","localeAltName":null},{"geonameid":6536271,"name":"Calalzo di Cadore","admin3":"025008","localeAltName":null},{"geonameid":6536272,"name":"Feltre","admin3":"025021","localeAltName":null},{"geonameid":6536274,"name":"Ospitale di Cadore","admin3":"025035"},{"geonameid":6536275,"name":"Perarolo di Cadore","admin3":"025037"},{"geonameid":6536276,"name":"San Pietro di Cadore","admin3":"025047","localeAltName":null},{"geonameid":6536378,"name":"Cibiana di Cadore","admin3":"025013"},{"geonameid":6536381,"name":"Gosaldo","admin3":"025025","localeAltName":null},{"geonameid":6536382,"name":"Livinallongo del Col di Lana","admin3":"025030","localeAltName":null},{"geonameid":6536383,"name":"Ponte nelle Alpi","admin3":"025040","localeAltName":null},{"geonameid":6536384,"name":"San Vito di Cadore","admin3":"025051","localeAltName":null},{"geonameid":6536633,"name":"Alleghe","admin3":"025003","localeAltName":null},{"geonameid":6536634,"name":"Sospirolo","admin3":"025056","localeAltName":null},{"geonameid":6536635,"name":"Soverzene","admin3":"025057"},{"geonameid":6536636,"name":"Valle di Cadore","admin3":"025063","localeAltName":null},{"geonameid":6538274,"name":"Cesiomaggiore","admin3":"025011","localeAltName":null},{"geonameid":6538275,"name":"Cortina d'Ampezzo","admin3":"025016","localeAltName":null},{"geonameid":6538276,"name":"Domegge di Cadore","admin3":"025018","localeAltName":null},{"geonameid":6538277,"name":"Fonzaso","admin3":"025022","localeAltName":null},{"geonameid":6538279,"name":"Lamon","admin3":"025026","localeAltName":null},{"geonameid":6538280,"name":"La Valle Agordina","admin3":"025027","localeAltName":null},{"geonameid":6538282,"name":"Longarone","admin3":"025071","localeAltName":null},{"geonameid":6538283,"name":"Lorenzago di Cadore","admin3":"025032","localeAltName":null},{"geonameid":6538284,"name":"Lozzo di Cadore","admin3":"025033","localeAltName":null},{"geonameid":6538285,"name":"Pedavena","admin3":"025036","localeAltName":null},{"geonameid":6538287,"name":"Santo Stefano di Cadore","admin3":"025050","localeAltName":null},{"geonameid":6538288,"name":"Sedico","admin3":"025053","localeAltName":null},{"geonameid":6538291,"name":"Vigo di Cadore","admin3":"025065","localeAltName":null},{"geonameid":6539660,"name":"Comelico Superiore","admin3":"025015","localeAltName":null},{"geonameid":6539687,"name":"Agordo","admin3":"025001","localeAltName":null},{"geonameid":6539688,"name":"Arsiè","admin3":"025004","localeAltName":null},{"geonameid":6539689,"name":"Santa Giustina","admin3":"025048","localeAltName":null},{"geonameid":6540117,"name":"Belluno","admin3":"025006","localeAltName":null},{"geonameid":6540218,"name":"Chies d'Alpago","admin3":"025012"},{"geonameid":6540252,"name":"Canale d'Agordo","admin3":"025023","localeAltName":null},{"geonameid":6540285,"name":"Selva di Cadore","admin3":"025054","localeAltName":null},{"geonameid":6540991,"name":"Seren del Grappa","admin3":"025055","localeAltName":null},{"geonameid":6541531,"name":"Auronzo di Cadore","admin3":"025005","localeAltName":null},{"geonameid":6541548,"name":"Falcade","admin3":"025019","localeAltName":null},{"geonameid":6541575,"name":"Colle Santa Lucia","admin3":"025014"},{"geonameid":6541818,"name":"Pieve di Cadore","admin3":"025039","localeAltName":null},{"geonameid":6542023,"name":"Limana","admin3":"025029","localeAltName":null},{"geonameid":6542177,"name":"Rivamonte Agordino","admin3":"025043"},{"geonameid":6542188,"name":"Danta di Cadore","admin3":"025017"},{"geonameid":6542189,"name":"San Tomaso Agordino","admin3":"025049"},{"geonameid":6542191,"name":"Taibon Agordino","admin3":"025059","localeAltName":null},{"geonameid":6542193,"name":"Vodo Cadore","admin3":"025066","localeAltName":null},{"geonameid":6542194,"name":"Voltago Agordino","admin3":"025067","localeAltName":null},{"geonameid":6542249,"name":"Cencenighe Agordino","admin3":"025010","localeAltName":null},{"geonameid":6542709,"name":"San Gregorio nelle Alpi","admin3":"025045"},{"geonameid":6542710,"name":"San Nicolò di Comelico","admin3":"025046"},{"geonameid":6542787,"name":"Sovramonte","admin3":"025058","localeAltName":null},{"geonameid":6542797,"name":"Vallada Agordina","admin3":"025062","localeAltName":null},{"geonameid":6543001,"name":"Alano di Piave","admin3":"025002","localeAltName":null},{"geonameid":6543570,"name":"Rocca Pietore","admin3":"025044"},{"geonameid":6543571,"name":"Tambre","admin3":"025060"},{"geonameid":11072055,"name":"Quero Vas","admin3":"025070","localeAltName":null},{"geonameid":11287673,"name":"Val di Zoldo","admin3":"025073","localeAltName":null},{"geonameid":11287678,"name":"Alpago","admin3":"025072","localeAltName":null},{"geonameid":12032178,"name":"Borgo Valbelluna","admin3":"025074","localeAltName":null}],"alternateNames":[{"alternatenameId":1352606,"geonameid":3182209,"isoLanguage":"it","alternateName":"Belluno","isPreferredName":true,"isShortName":true,"isColloquial":false,"isHistoric":false}]},"__N_SSG":true}