{"pageProps":{"locale":"en","admin2":{"geonameid":6049141,"name":"Lanaudière","country":"CA","admin1":"10","admin2":"14","admin3":"","latitude":"46.7667800","longitude":"-73.8324800"},"admin1":{"geonameid":6115047,"name":"Québec","admin1":"10"},"locations":[{"geonameid":5899017,"name":"Berthierville","admin3":"52035"},{"geonameid":5908989,"name":"Brise-du-Lac","admin3":"62053"},{"geonameid":5913510,"name":"Californie","admin3":"52090"},{"geonameid":5914502,"name":"Camp-Ouareau","admin3":"62055"},{"geonameid":5919833,"name":"Chantelle","admin3":"62047"},{"geonameid":5920089,"name":"Charlemagne","admin3":"60005"},{"geonameid":5920996,"name":"Chertsey","admin3":"62047"},{"geonameid":5924942,"name":"Coin-Lavigne","admin3":""},{"geonameid":5931427,"name":"Crabtree","admin3":"61013"},{"geonameid":5932750,"name":"Croissant-du-Bourg","admin3":"60028"},{"geonameid":5941046,"name":"Domaine-Asselin","admin3":"61035"},{"geonameid":5941052,"name":"Domaine-Beaudoin","admin3":"61013"},{"geonameid":5941057,"name":"Domaine-Beauport","admin3":"63055"},{"geonameid":5941058,"name":"Domaine-Beausoleil","admin3":"52085"},{"geonameid":5941063,"name":"Domaine-Bellevue","admin3":"52035"},{"geonameid":5941072,"name":"Domaine-Breton","admin3":"63055"},{"geonameid":5941073,"name":"Domaine-Brien","admin3":"63048"},{"geonameid":5941074,"name":"Domaine-Brisebois","admin3":"63048"},{"geonameid":5941077,"name":"Domaine-Bruneau","admin3":"52085"},{"geonameid":5941089,"name":"Domaine-C.-L.-C.","admin3":"63048"},{"geonameid":5941081,"name":"Domaine-Carillon","admin3":"61050"},{"geonameid":5941083,"name":"Domaine-Chantelois","admin3":"63048"},{"geonameid":5941085,"name":"Domaine-Charbonneau","admin3":"63048"},{"geonameid":5941123,"name":"Domaine-de-Provence","admin3":"64008"},{"geonameid":5941136,"name":"Domaine-des-Deux-Lacs","admin3":"60040"},{"geonameid":5941138,"name":"Domaine-des-Fleurs","admin3":"60028"},{"geonameid":5941155,"name":"Domaine-des-Prairies","admin3":"61030"},{"geonameid":5941166,"name":"Domaine-des-Sapins","admin3":"52085"},{"geonameid":5941185,"name":"Domaine-du-Lac-des-Fourches","admin3":"63060"},{"geonameid":5941187,"name":"Domaine-du-Lac-des-Pins","admin3":"63060"},{"geonameid":5941188,"name":"Domaine-du-Lac-du-Moulin","admin3":"63060"},{"geonameid":5941193,"name":"Domaine-du-Lac-Kildare","admin3":"62037"},{"geonameid":5941195,"name":"Domaine-du-Lac-Quinn","admin3":"63060"},{"geonameid":5941196,"name":"Domaine-du-Lac-Raymond","admin3":"63055"},{"geonameid":5941199,"name":"Domaine-du-Repos","admin3":"63023"},{"geonameid":5941203,"name":"Domaine-Entrelacs","admin3":"62053"},{"geonameid":5941216,"name":"Domaine-Gagnon","admin3":"63048"},{"geonameid":5941217,"name":"Domaine-Gagnon","admin3":"62007"},{"geonameid":5941221,"name":"Domaine-Gareau","admin3":"52085"},{"geonameid":5941226,"name":"Domaine-Granger","admin3":"52085"},{"geonameid":5941248,"name":"Domaine-Lafortune","admin3":"61027"},{"geonameid":5941261,"name":"Domaine-Lemenn","admin3":"63060"},{"geonameid":5941270,"name":"Domaine-Lord","admin3":"63048"},{"geonameid":5941271,"name":"Domaine-Lorraine","admin3":"61013"},{"geonameid":5941278,"name":"Domaine-Marier","admin3":"62007"},{"geonameid":5941281,"name":"Domaine-Martel","admin3":"60028"},{"geonameid":5941287,"name":"Domaine-Mirko","admin3":"64015"},{"geonameid":5941293,"name":"Domaine-Morin","admin3":"52085"},{"geonameid":5941299,"name":"Domaine-Ouellet","admin3":"60028"},{"geonameid":5941303,"name":"Domaine-Pacha","admin3":"64008"},{"geonameid":5941305,"name":"Domaine-Papin","admin3":"60028"},{"geonameid":5941328,"name":"Domaine-Rivest","admin3":"52085"},{"geonameid":5941340,"name":"Domaine-Sainte-Julienne","admin3":"63060"},{"geonameid":5941346,"name":"Domaine-San-Air","admin3":"63048"},{"geonameid":5941348,"name":"Domaine-Sarrazin","admin3":"52085"},{"geonameid":5949074,"name":"Entrelacs","admin3":"62053"},{"geonameid":5987650,"name":"Joliette","admin3":"61020"},{"geonameid":6050263,"name":"L'Assomption","admin3":"60028"},{"geonameid":6052583,"name":"L'Épiphanie","admin3":"60035"},{"geonameid":6035852,"name":"La Corniche","admin3":"62060"},{"geonameid":6047903,"name":"La Fourche","admin3":"63060"},{"geonameid":6049811,"name":"La Plaine","admin3":"64008"},{"geonameid":6050740,"name":"La Visitation-de-l'Île-Dupas","admin3":"52050"},{"geonameid":5999551,"name":"Lac-Baribeau","admin3":"62060"},{"geonameid":5999878,"name":"Lac-Beaudry","admin3":"63055"},{"geonameid":6001998,"name":"Lac-Brien","admin3":"63055"},{"geonameid":6003943,"name":"Lac-Chanoine","admin3":"62025"},{"geonameid":6004759,"name":"Lac-Clair","admin3":"62037"},{"geonameid":6004914,"name":"Lac-Clef","admin3":"62060"},{"geonameid":6005045,"name":"Lac-Cloutier-Nord","admin3":"62020"},{"geonameid":6005393,"name":"Lac-Corbeau","admin3":"62075"},{"geonameid":6005910,"name":"Lac-Cristal","admin3":"63055"},{"geonameid":6006616,"name":"Lac-David","admin3":"62047"},{"geonameid":6010425,"name":"Lac-Deligny","admin3":"52095"},{"geonameid":6011172,"name":"Lac-des-Aulnes","admin3":"62060"},{"geonameid":6016911,"name":"Lac-du-Marcheur","admin3":"62055"},{"geonameid":6016004,"name":"Lac-Duffy","admin3":"63055"},{"geonameid":6027271,"name":"Lac-Kataway","admin3":"62085"},{"geonameid":6028448,"name":"Lac-Lajoie","admin3":""},{"geonameid":6028795,"name":"Lac-Laplaine","admin3":"64015"},{"geonameid":6028996,"name":"Lac-Lasalle","admin3":"62070"},{"geonameid":6030434,"name":"Lac-Long-Nord","admin3":"62025"},{"geonameid":6030443,"name":"Lac-Long-Sud","admin3":"62025"},{"geonameid":6033976,"name":"Lac-Morin","admin3":"63048"},{"geonameid":6035986,"name":"Lac-Ouareau","admin3":"62060"},{"geonameid":6037747,"name":"Lac-Pimbina","admin3":"62060"},{"geonameid":6038670,"name":"Lac-Provost","admin3":"62060"},{"geonameid":6040205,"name":"Lac-Rocher","admin3":"61050"},{"geonameid":6040723,"name":"Lac-Rouge-Nord","admin3":"62025"},{"geonameid":6041261,"name":"Lac-Saint-Louis","admin3":"62080"},{"geonameid":6041521,"name":"Lac-Samson","admin3":"64015"},{"geonameid":6042570,"name":"Lac-Siesta","admin3":"63055"},{"geonameid":6044813,"name":"Lac-Tire","admin3":"62060"},{"geonameid":6046408,"name":"Lac-Vert-Nord","admin3":"62025"},{"geonameid":6046411,"name":"Lac-Vert-Sud","admin3":"62025"},{"geonameid":6325515,"name":"Lachenaie","admin3":"64008"},{"geonameid":6049537,"name":"Lanoraie","admin3":"52017"},{"geonameid":6050520,"name":"Laurence","admin3":"63035"},{"geonameid":6050650,"name":"Lavaltrie","admin3":"52007"},{"geonameid":6051473,"name":"Le Cordon","admin3":"63023"},{"geonameid":6051804,"name":"Le Gardeur","admin3":"60013"},{"geonameid":6052798,"name":"Les Dalles","admin3":"63065"},{"geonameid":6059971,"name":"Look Out Park","admin3":"62037"},{"geonameid":6060407,"name":"Lorraine","admin3":"64008"},{"geonameid":6062144,"name":"Lussier","admin3":"62060"},{"geonameid":12076630,"name":"Manawan","admin3":""},{"geonameid":6065088,"name":"Mandeville","admin3":"52095"},{"geonameid":6065403,"name":"Manouane","admin3":""},{"geonameid":6067494,"name":"Mascouche","admin3":"64015"},{"geonameid":6067496,"name":"Mascouche Heights","admin3":"64015"},{"geonameid":6067497,"name":"Mascouche-Ouest","admin3":"64015"},{"geonameid":6067658,"name":"Masonville","admin3":"62037"},{"geonameid":6076803,"name":"Montcalm","admin3":"63065"},{"geonameid":6077676,"name":"Moorcrest","admin3":"64015"},{"geonameid":6081632,"name":"Mount Loyal","admin3":"62037"},{"geonameid":6091333,"name":"Notre-Dame-de-la-Merci","admin3":"62055"},{"geonameid":6091422,"name":"Notre-Dame-des-Prairies","admin3":"61030"},{"geonameid":6104257,"name":"Pied-de-la-Montagne","admin3":"61050"},{"geonameid":6105880,"name":"Place-Gervais","admin3":"52040"},{"geonameid":6105883,"name":"Place-Jardin-des-Beaux-Arts","admin3":"62007"},{"geonameid":6105884,"name":"Place-Joseph","admin3":"64015"},{"geonameid":6105909,"name":"Place-Versailles","admin3":"61005"},{"geonameid":6106213,"name":"Plateau-Normandie","admin3":"64015"},{"geonameid":6109940,"name":"Pont-du-Gouvernement","admin3":"62047"},{"geonameid":6110460,"name":"Pont-Mousseau","admin3":"63040"},{"geonameid":6116691,"name":"Rapide-Mascouche","admin3":"64015"},{"geonameid":6117611,"name":"Rawdon","admin3":"62037"},{"geonameid":6119518,"name":"Repentigny","admin3":"60013"},{"geonameid":6131095,"name":"Ruisseau-des-Anges","admin3":"63035"},{"geonameid":6136079,"name":"Ruisseau-Vacher","admin3":"63013"},{"geonameid":6137375,"name":"Saint-Alphonse-Rodriguez","admin3":"62025"},{"geonameid":6137543,"name":"Saint-Calixte","admin3":"63055"},{"geonameid":6137546,"name":"Saint-Calixte-de-Kilkenny","admin3":"63055"},{"geonameid":6137547,"name":"Saint-Calixte-Nord","admin3":"63055"},{"geonameid":6137579,"name":"Saint-Charles-Borromée","admin3":"61035"},{"geonameid":6137590,"name":"Saint-Charles-de-Montcalm","admin3":"62047"},{"geonameid":6137617,"name":"Saint-Cléophas-de-Brandon","admin3":"52075"},{"geonameid":6137641,"name":"Saint-Cuthbert","admin3":"52062"},{"geonameid":6137689,"name":"Saint-Donat","admin3":"62060"},{"geonameid":6138112,"name":"Saint-Esprit","admin3":"63030"},{"geonameid":6138210,"name":"Saint-Félix-de-Valois","admin3":"62007"},{"geonameid":6138260,"name":"Saint-Gabriel","admin3":"52080"},{"geonameid":6138330,"name":"Saint-Guillaume-Nord","admin3":""},{"geonameid":6138390,"name":"Saint-Ignace-du-Lac","admin3":"62085"},{"geonameid":6138411,"name":"Saint-Jacques","admin3":"63013"},{"geonameid":6138472,"name":"Saint-Jean-de-Matha","admin3":"62015"},{"geonameid":6138474,"name":"Saint-Jean-de-Matha","admin3":"62015"},{"geonameid":6138643,"name":"Saint-Lin-Laurentides","admin3":"63048"},{"geonameid":6138671,"name":"Saint-Louis-de-Terrebonne","admin3":"64008"},{"geonameid":6138802,"name":"Saint-Michel-des-Saints","admin3":"62085"},{"geonameid":11429023,"name":"Saint-Norbert","admin3":"52070"},{"geonameid":6138869,"name":"Saint-Paul","admin3":"61005"},{"geonameid":6138888,"name":"Saint-Paul-d'Industrie","admin3":"61005"},{"geonameid":6138923,"name":"Saint-Pierre","admin3":"61020"},{"geonameid":11696024,"name":"Saint-Roch-de-l'Achigan","admin3":"63035"},{"geonameid":6139024,"name":"Saint-Roch-Ouest","admin3":"63040"},{"geonameid":6139123,"name":"Saint-Thomas","admin3":"61027"},{"geonameid":6139180,"name":"Saint-Viateur","admin3":"52062"},{"geonameid":6139210,"name":"Saint-Zénon","admin3":"62080"},{"geonameid":6137764,"name":"Sainte-Béatrix","admin3":"62020"},{"geonameid":11257143,"name":"Sainte-Côme","admin3":"62065"},{"geonameid":11429024,"name":"Sainte-Élisabeth","admin3":"52030"},{"geonameid":6137875,"name":"Sainte-Émélie-de-l'Énergie","admin3":"62070"},{"geonameid":6137947,"name":"Sainte-Julienne","admin3":"63060"},{"geonameid":6137980,"name":"Sainte-Marcelline-de-Kildare","admin3":"62030"},{"geonameid":6138041,"name":"Sainte-Mélanie","admin3":"61050"},{"geonameid":6141437,"name":"Sault-Saint-Lin","admin3":"63048"},{"geonameid":6162996,"name":"Terrasse-de-Luxe","admin3":"52085"},{"geonameid":6163012,"name":"Terrebonne","admin3":"64008"},{"geonameid":6173565,"name":"Vaucluse","admin3":"60028"},{"geonameid":6174288,"name":"Village-des-Geoffroy","admin3":"62015"}],"admin3":[{"geonameid":6091375,"name":"Notre-Dame-de-Lourdes","admin3":"61045"},{"geonameid":6137357,"name":"Saint-Alexis","admin3":"63023"},{"geonameid":6137387,"name":"Saint-Ambroise-de-Kildare","admin3":"61040"},{"geonameid":6137484,"name":"Saint-Barthélemy","admin3":"52055"},{"geonameid":6137628,"name":"Saint-Côme","admin3":"62065"},{"geonameid":6137657,"name":"Saint-Damien","admin3":"62075"},{"geonameid":6137677,"name":"Saint-Didace","admin3":"52090"},{"geonameid":6137864,"name":"Sainte-Élisabeth","admin3":"52030"},{"geonameid":6137901,"name":"Sainte-Geneviève-de-Berthier","admin3":"52040"},{"geonameid":6138025,"name":"Sainte-Marie-Salomé","admin3":"63005"},{"geonameid":6138267,"name":"Saint-Gabriel-de-Brandon","admin3":"52085"},{"geonameid":6138383,"name":"Saint-Ignace-de-Loyola","admin3":"52045"},{"geonameid":6138639,"name":"Saint-Liguori","admin3":"63065"},{"geonameid":6138835,"name":"Saint-Norbert","admin3":"52070"},{"geonameid":6139018,"name":"Saint-Roch-de-l'Achigan","admin3":"63035"},{"geonameid":6139097,"name":"Saint-Sulpice","admin3":"60020"},{"geonameid":8672543,"name":"Saint-Gabriel","admin3":"52080"},{"geonameid":8672546,"name":"Sainte-Julienne","admin3":"63060"},{"geonameid":8672602,"name":"Saint-Lin-Laurentides","admin3":"63048"},{"geonameid":8672604,"name":"L'Épiphanie","admin3":"60040"},{"geonameid":8672773,"name":"Saint-Cléophas-de-Brandon","admin3":"52075"},{"geonameid":8672978,"name":"Saint-Cuthbert","admin3":"52062"},{"geonameid":8673017,"name":"Saint-Thomas","admin3":"61027"},{"geonameid":8673140,"name":"Lanoraie","admin3":"52017"},{"geonameid":8673241,"name":"La Visitation-de-l'Île-Dupas","admin3":"52050"},{"geonameid":8673317,"name":"Sainte-Marcelline-de-Kildare","admin3":"62030"},{"geonameid":8673431,"name":"Entrelacs","admin3":"62053"},{"geonameid":8673465,"name":"Sainte-Béatrix","admin3":"62020"},{"geonameid":8673481,"name":"Chertsey","admin3":"62047"},{"geonameid":8673551,"name":"Saint-Zénon","admin3":"62080"},{"geonameid":8673557,"name":"Saint-Donat","admin3":"62060"},{"geonameid":8673567,"name":"Saint-Jean-de-Matha","admin3":"62015"},{"geonameid":8673628,"name":"Sainte-Émélie-de-l'Énergie","admin3":"62070"},{"geonameid":8673642,"name":"Notre-Dame-de-la-Merci","admin3":"62055"},{"geonameid":8673667,"name":"Saint-Charles-Borromée","admin3":"61035"},{"geonameid":8673676,"name":"Saint-Calixte","admin3":"63055"},{"geonameid":8673687,"name":"Saint-Alphonse-Rodriguez","admin3":"62025"},{"geonameid":8673728,"name":"Saint-Pierre","admin3":"61020"},{"geonameid":8673735,"name":"Saint-Félix-de-Valois","admin3":"62007"},{"geonameid":8673782,"name":"Mascouche","admin3":"64015"},{"geonameid":8673794,"name":"Berthierville","admin3":"52035"},{"geonameid":8673889,"name":"Terrebonne","admin3":"64008"},{"geonameid":8673906,"name":"Mandeville","admin3":"52095"},{"geonameid":8673909,"name":"Saint-Paul","admin3":"61005"},{"geonameid":8673953,"name":"L'Épiphanie","admin3":"60035"},{"geonameid":8673996,"name":"Rawdon","admin3":"62037"},{"geonameid":8674091,"name":"Lavaltrie","admin3":"52007"},{"geonameid":8674116,"name":"Sainte-Mélanie","admin3":"61050"},{"geonameid":8674121,"name":"Saint-Esprit","admin3":"63030"},{"geonameid":8674125,"name":"Notre-Dame-des-Prairies","admin3":"61030"},{"geonameid":8674168,"name":"Charlemagne","admin3":"60005"},{"geonameid":8674172,"name":"Saint-Roch-Ouest","admin3":"63040"},{"geonameid":8674204,"name":"Repentigny","admin3":"60013"},{"geonameid":8674207,"name":"Saint-Jacques","admin3":"63013"},{"geonameid":8674247,"name":"Saint-Michel-des-Saints","admin3":"62085"},{"geonameid":8674251,"name":"Crabtree","admin3":"61013"}],"alternateNames":[]},"__N_SSG":true}