{"pageProps":{"locale":"en","admin2":{"geonameid":6119134,"name":"Regional District of Mount Waddington","country":"CA","admin1":"02","admin2":"5943","admin3":"","latitude":"51.2884700","longitude":"-126.0851100"},"admin1":{"geonameid":5909050,"name":"British Columbia","admin1":"02"},"locations":[{"geonameid":5883385,"name":"Alert Bay","admin3":"5943008"},{"geonameid":5896668,"name":"Beaver Cove","admin3":""},{"geonameid":8556278,"name":"Coal Harbour","admin3":""},{"geonameid":5955944,"name":"Fort Rupert","admin3":"5943023"},{"geonameid":5973071,"name":"Health Bay","admin3":""},{"geonameid":5976009,"name":"Holberg","admin3":""},{"geonameid":5976855,"name":"Hopetown","admin3":""},{"geonameid":5986486,"name":"Jeune Landing","admin3":"5943017"},{"geonameid":5992212,"name":"Kingcome","admin3":""},{"geonameid":5992215,"name":"Kingcome Inlet","admin3":""},{"geonameid":8260972,"name":"Knights Inlet","admin3":""},{"geonameid":5993853,"name":"Kokish","admin3":""},{"geonameid":6064246,"name":"Mahatta River","admin3":""},{"geonameid":6074993,"name":"Minstrel Island","admin3":""},{"geonameid":6075572,"name":"Mitchell Bay","admin3":""},{"geonameid":6111640,"name":"Port Alice","admin3":"5943017"},{"geonameid":6111862,"name":"Port Hardy","admin3":"5943023"},{"geonameid":6111953,"name":"Port McNeill","admin3":"5943012"},{"geonameid":6115030,"name":"Quatsino","admin3":""},{"geonameid":6136318,"name":"Rumble Beach","admin3":"5943017"},{"geonameid":6142526,"name":"Scott Cove","admin3":""},{"geonameid":6147246,"name":"Shushartie","admin3":""},{"geonameid":6151026,"name":"Sointula","admin3":""},{"geonameid":6159811,"name":"Suquash","admin3":""},{"geonameid":6162574,"name":"Telegraph Cove","admin3":""},{"geonameid":6165538,"name":"Thompson Sound","admin3":""},{"geonameid":6173865,"name":"Vernon","admin3":""},{"geonameid":6183305,"name":"Winter Harbour","admin3":""},{"geonameid":6185790,"name":"Yreka","admin3":""}],"admin3":[{"geonameid":12031897,"name":"Alert Bay","admin3":"5943008"},{"geonameid":12031898,"name":"Port McNeill","admin3":"5943012"},{"geonameid":12031992,"name":"Port Alice","admin3":"5943017"},{"geonameid":12031993,"name":"Port Hardy","admin3":"5943023"}],"alternateNames":[]},"__N_SSG":true}