{"pageProps":{"locale":"ro","admin2":{"geonameid":682326,"name":"Comuna Cernăteşti","country":"RO","admin1":"11","admin2":"46019","admin3":"","latitude":"45.2983800","longitude":"26.7626000"},"admin1":{"geonameid":683121,"name":"Buzău","admin1":"11"},"locations":[{"geonameid":686516,"name":"Aldeni","admin3":""},{"geonameid":685874,"name":"Băești","admin3":""},{"geonameid":682992,"name":"Căldărușa","admin3":""},{"geonameid":682328,"name":"Cernăteşti","admin3":""},{"geonameid":681481,"name":"Ciuciurile","admin3":""},{"geonameid":679709,"name":"Dăscăleşti","admin3":""},{"geonameid":677848,"name":"Fulga","admin3":""},{"geonameid":674736,"name":"Lipieni","admin3":""},{"geonameid":674363,"name":"Lunca Puţului","admin3":""},{"geonameid":674047,"name":"Mălăeşti","admin3":""},{"geonameid":673947,"name":"Manasia","admin3":""},{"geonameid":670346,"name":"Podeni","admin3":""},{"geonameid":667836,"name":"Satu Nou","admin3":""},{"geonameid":662638,"name":"Vlădeni","admin3":""},{"geonameid":662279,"name":"Zărneștii de Slănic","admin3":""}],"admin3":[],"alternateNames":[]},"__N_SSG":true}