{"pageProps":{"locale":"en","admin2":{"geonameid":4232512,"name":"Adams County","country":"US","admin1":"IL","admin2":"001","admin3":"","latitude":"39.9878900","longitude":"-91.1884900"},"admin1":{"geonameid":4896861,"name":"Illinois","admin1":"IL","localeAltName":"Illinois"},"locations":[{"geonameid":4886464,"name":"Camp Point","admin3":"10890"},{"geonameid":4246765,"name":"Payson","admin3":"58278"},{"geonameid":4247703,"name":"Quincy","admin3":"62380"}],"admin3":[{"geonameid":4233822,"name":"Township of Beverly","admin3":"05742"},{"geonameid":4234900,"name":"Township of Burton","admin3":"10019"},{"geonameid":4236231,"name":"Township of Columbus","admin3":"15859"},{"geonameid":4236288,"name":"Township of Concord","admin3":"16015"},{"geonameid":4237824,"name":"Township of Ellington","admin3":"23412"},{"geonameid":4238190,"name":"Township of Fall Creek","admin3":"25258"},{"geonameid":4239437,"name":"Township of Gilmer","admin3":"29288"},{"geonameid":4242958,"name":"Township of Liberty","admin3":"43146"},{"geonameid":4244271,"name":"Township of McKee","admin3":"45746"},{"geonameid":4244373,"name":"Township of Melrose","admin3":"48203"},{"geonameid":4246770,"name":"Township of Payson","admin3":"58278"},{"geonameid":4247724,"name":"Township of Quincy","admin3":"62380"},{"geonameid":4248048,"name":"Township of Richfield","admin3":"63550"},{"geonameid":4248204,"name":"Township of Riverside","admin3":"64408"},{"geonameid":4886466,"name":"Township of Camp Point","admin3":"10890"},{"geonameid":4888158,"name":"Township of Clayton","admin3":"14780"},{"geonameid":4896373,"name":"Township of Honey Creek","admin3":"35957"},{"geonameid":4896539,"name":"Township of Houston","admin3":"36295"},{"geonameid":4898257,"name":"Township of Keene","admin3":"39220"},{"geonameid":4899806,"name":"Township of Lima","admin3":"43458"},{"geonameid":4901943,"name":"Township of Mendon","admin3":"48320"},{"geonameid":4904082,"name":"Township of Northeast","admin3":"53624"},{"geonameid":4914694,"name":"Township of Ursa","admin3":"77057"}],"alternateNames":[{"alternatenameId":2089562,"geonameid":4896861,"isoLanguage":"en","alternateName":"Illinois","isPreferredName":true,"isShortName":true,"isColloquial":false,"isHistoric":false}]},"__N_SSG":true}