{"pageProps":{"locale":"en","admin2":{"geonameid":4235369,"name":"Cass County","country":"US","admin1":"IL","admin2":"017","admin3":"","latitude":"39.9735600","longitude":"-90.2473800"},"admin1":{"geonameid":4896861,"name":"Illinois","admin1":"IL","localeAltName":"Illinois"},"locations":[{"geonameid":4232953,"name":"Ashland","admin3":"02518"},{"geonameid":4884282,"name":"Beardstown","admin3":"04364"},{"geonameid":4252071,"name":"Virginia","admin3":"78214"}],"admin3":[{"geonameid":4232875,"name":"Township of Arenzville","admin3":"01959"},{"geonameid":4232962,"name":"Township of Ashland","admin3":"02518"},{"geonameid":4240053,"name":"Township of Hagener","admin3":"32148"},{"geonameid":4246899,"name":"Township of Philadelphia","admin3":"59481"},{"geonameid":4252078,"name":"Township of Virginia","admin3":"78214"},{"geonameid":4884292,"name":"Township of Beardstown","admin3":"04364"},{"geonameid":4885226,"name":"Township of Bluff Springs","admin3":"06938"},{"geonameid":4887192,"name":"Township of Chandlerville","admin3":"12463"},{"geonameid":4903670,"name":"Township of Newmansville","admin3":"52662"},{"geonameid":4905294,"name":"Township of Panther Creek","admin3":"57550"},{"geonameid":4910567,"name":"Township of Sangamon Valley","admin3":"67600"}],"alternateNames":[{"alternatenameId":2089562,"geonameid":4896861,"isoLanguage":"en","alternateName":"Illinois","isPreferredName":true,"isShortName":true,"isColloquial":false,"isHistoric":false}]},"__N_SSG":true}