{"pageProps":{"locale":"en","admin2":{"geonameid":4890213,"name":"DuPage County","country":"US","admin1":"IL","admin2":"043","admin3":"","latitude":"41.8519500","longitude":"-88.0856700"},"admin1":{"geonameid":4896861,"name":"Illinois","admin1":"IL","localeAltName":"Illinois"},"locations":[{"geonameid":4882920,"name":"Addison","admin3":"00250"},{"geonameid":4884509,"name":"Bensenville","admin3":"00250"},{"geonameid":4885156,"name":"Bloomingdale","admin3":"06600"},{"geonameid":4886090,"name":"Burr Ridge","admin3":"20604"},{"geonameid":4886662,"name":"Carol Stream","admin3":"06600"},{"geonameid":4888080,"name":"Clarendon Hills","admin3":"20604"},{"geonameid":4889447,"name":"Darien","admin3":"20604"},{"geonameid":4890119,"name":"Downers Grove","admin3":"20604"},{"geonameid":4891010,"name":"Elmhurst","admin3":"83947"},{"geonameid":4893811,"name":"Glen Ellyn","admin3":"49451"},{"geonameid":4832038,"name":"Glendale Heights","admin3":"06600"},{"geonameid":4896012,"name":"Hinsdale","admin3":"20604"},{"geonameid":4897654,"name":"Itasca","admin3":"00250"},{"geonameid":4900080,"name":"Lisle","admin3":"43952"},{"geonameid":4900373,"name":"Lombard","admin3":"83947"},{"geonameid":4901839,"name":"Medinah","admin3":"06600"},{"geonameid":4903279,"name":"Naperville","admin3":"51635"},{"geonameid":4904277,"name":"Oak Brook","admin3":"83947"},{"geonameid":4904447,"name":"Oakbrook Terrace","admin3":"83947"},{"geonameid":4908173,"name":"Roselle","admin3":"06600"},{"geonameid":4914830,"name":"Villa Park","admin3":"83947"},{"geonameid":4915525,"name":"Warrenville","admin3":"82413"},{"geonameid":4915764,"name":"Wayne","admin3":"79410"},{"geonameid":4915963,"name":"West Chicago","admin3":"82413"},{"geonameid":4916207,"name":"Westmont","admin3":"20604"},{"geonameid":4916288,"name":"Wheaton","admin3":"49451"},{"geonameid":4916709,"name":"Willowbrook","admin3":"20604"},{"geonameid":4916826,"name":"Winfield","admin3":"82413"},{"geonameid":4916975,"name":"Wood Dale","admin3":"00250"},{"geonameid":4917089,"name":"Woodridge","admin3":"43952"}],"admin3":[{"geonameid":4882939,"name":"Township of Addison","admin3":"00250"},{"geonameid":4885163,"name":"Township of Bloomingdale","admin3":"06600"},{"geonameid":4890127,"name":"Township of Downers Grove","admin3":"20604"},{"geonameid":4900086,"name":"Township of Lisle","admin3":"43952"},{"geonameid":4902346,"name":"Township of Milton","admin3":"49451"},{"geonameid":4903290,"name":"Township of Naperville","admin3":"51635"},{"geonameid":4915775,"name":"Township of Wayne","admin3":"79410"},{"geonameid":4916832,"name":"Township of Winfield","admin3":"82413"},{"geonameid":4917288,"name":"Township of York","admin3":"83947"}],"alternateNames":[{"alternatenameId":2089562,"geonameid":4896861,"isoLanguage":"en","alternateName":"Illinois","isPreferredName":true,"isShortName":true,"isColloquial":false,"isHistoric":false}]},"__N_SSG":true}