{"pageProps":{"locale":"en","admin2":{"geonameid":4239230,"name":"Gallatin County","country":"US","admin1":"IL","admin2":"059","admin3":"","latitude":"37.7627500","longitude":"-88.2305000"},"admin1":{"geonameid":4896861,"name":"Illinois","admin1":"IL","localeAltName":"Illinois"},"locations":[{"geonameid":4249830,"name":"Shawneetown","admin3":"30302"}],"admin3":[{"geonameid":4048310,"name":"Township of Ridgway","admin3":"64031"},{"geonameid":4232938,"name":"Township of Asbury","admin3":"02427"},{"geonameid":4234284,"name":"Township of Bowlesville","admin3":"07536"},{"geonameid":4237441,"name":"Township of Eagle Creek","admin3":"21449"},{"geonameid":4237991,"name":"Township of Equality","admin3":"24361"},{"geonameid":4239528,"name":"Township of Gold Hill","admin3":"30302"},{"geonameid":4245539,"name":"Township of New Haven","admin3":"52519"},{"geonameid":4245808,"name":"Township of North Fork","admin3":"53702"},{"geonameid":4246393,"name":"Township of Omaha","admin3":"56016"},{"geonameid":4249829,"name":"Township of Shawnee","admin3":"69069"}],"alternateNames":[{"alternatenameId":2089562,"geonameid":4896861,"isoLanguage":"en","alternateName":"Illinois","isPreferredName":true,"isShortName":true,"isColloquial":false,"isHistoric":false}]},"__N_SSG":true}