{"pageProps":{"locale":"en","admin2":{"geonameid":4897521,"name":"Iroquois County","country":"US","admin1":"IL","admin2":"075","admin3":"","latitude":"40.7472300","longitude":"-87.8243000"},"admin1":{"geonameid":4896861,"name":"Illinois","admin1":"IL","localeAltName":"Illinois"},"locations":[{"geonameid":4888208,"name":"Clifton","admin3":"12814"},{"geonameid":4893755,"name":"Gilman","admin3":"20487"},{"geonameid":4902229,"name":"Milford","admin3":"49061"},{"geonameid":4904809,"name":"Onarga","admin3":"56094"},{"geonameid":4911259,"name":"Sheldon","admin3":"69225"},{"geonameid":4915703,"name":"Watseka","admin3":"48814"}],"admin3":[{"geonameid":4883643,"name":"Township of Artesia","admin3":"02401"},{"geonameid":4883675,"name":"Township of Ash Grove","admin3":"02453"},{"geonameid":4883692,"name":"Township of Ashkum","admin3":"02492"},{"geonameid":4884323,"name":"Township of Beaver","admin3":"04455"},{"geonameid":4884327,"name":"Township of Beaverville","admin3":"04520"},{"geonameid":4884451,"name":"Township of Belmont","admin3":"05014"},{"geonameid":4887311,"name":"Township of Chebanse","admin3":"12814"},{"geonameid":4888584,"name":"Township of Concord","admin3":"16041"},{"geonameid":4889101,"name":"Township of Crescent","admin3":"17367"},{"geonameid":4889407,"name":"Township of Danforth","admin3":"18511"},{"geonameid":4890108,"name":"Township of Douglas","admin3":"20487"},{"geonameid":4892886,"name":"Township of Fountain Creek","admin3":"27286"},{"geonameid":4897536,"name":"Township of Iroquois","admin3":"37725"},{"geonameid":4900332,"name":"Township of Loda","admin3":"44277"},{"geonameid":4900568,"name":"Township of Lovejoy","admin3":"44979"},{"geonameid":4901343,"name":"Township of Martinton","admin3":"47293"},{"geonameid":4902169,"name":"Township of Middleport","admin3":"48814"},{"geonameid":4902234,"name":"Township of Milford","admin3":"49061"},{"geonameid":4902242,"name":"Township of Milks Grove","admin3":"49074"},{"geonameid":4904813,"name":"Township of Onarga","admin3":"56094"},{"geonameid":4905299,"name":"Township of Papineau","admin3":"57589"},{"geonameid":4905924,"name":"Township of Pigeon Grove","admin3":"59767"},{"geonameid":4906640,"name":"Township of Prairie Green","admin3":"61665"},{"geonameid":4907558,"name":"Township of Ridgeland","admin3":"63901"},{"geonameid":4911269,"name":"Township of Sheldon","admin3":"69225"},{"geonameid":4912582,"name":"Township of Stockland","admin3":"72773"}],"alternateNames":[{"alternatenameId":2089562,"geonameid":4896861,"isoLanguage":"en","alternateName":"Illinois","isPreferredName":true,"isShortName":true,"isColloquial":false,"isHistoric":false}]},"__N_SSG":true}