{"pageProps":{"locale":"en","admin2":{"geonameid":4904601,"name":"Ogle County","country":"US","admin1":"IL","admin2":"141","admin3":"","latitude":"42.0426400","longitude":"-89.3206500"},"admin1":{"geonameid":4896861,"name":"Illinois","admin1":"IL","localeAltName":"Illinois"},"locations":[{"geonameid":4886188,"name":"Byron","admin3":"10253"},{"geonameid":4886717,"name":"Carthage","admin3":"74535"},{"geonameid":4889496,"name":"Davis Junction","admin3":"68302"},{"geonameid":4892818,"name":"Forreston","admin3":"27078"},{"geonameid":4895936,"name":"Hillcrest","admin3":"26298"},{"geonameid":4902955,"name":"Mount Morris","admin3":"51011"},{"geonameid":4904898,"name":"Oregon","admin3":"56504"},{"geonameid":4906421,"name":"Polo","admin3":"09421"},{"geonameid":4907863,"name":"Rochelle","admin3":"26298"},{"geonameid":4912566,"name":"Stillman Valley","admin3":"46903"}],"admin3":[{"geonameid":4885735,"name":"Township of Brookville","admin3":"08784"},{"geonameid":4885951,"name":"Township of Buffalo","admin3":"09421"},{"geonameid":4886197,"name":"Township of Byron","admin3":"10253"},{"geonameid":4889727,"name":"Township of Dement","admin3":"19382"},{"geonameid":4890416,"name":"Township of Eagle Point","admin3":"21501"},{"geonameid":4892633,"name":"Township of Flagg","admin3":"26298"},{"geonameid":4892826,"name":"Township of Forreston","admin3":"27078"},{"geonameid":4894328,"name":"Township of Grand Detour","admin3":"30718"},{"geonameid":4898945,"name":"Township of Lafayette","admin3":"40650"},{"geonameid":4899489,"name":"Township of Leaf River","admin3":"42470"},{"geonameid":4899976,"name":"Township of Lincoln","admin3":"43549"},{"geonameid":4900736,"name":"Township of Lynnville","admin3":"45382"},{"geonameid":4901203,"name":"Township of Marion","admin3":"46903"},{"geonameid":4901380,"name":"Township of Maryland","admin3":"47358"},{"geonameid":4902535,"name":"Township of Monroe","admin3":"50049"},{"geonameid":4902959,"name":"Township of Mount Morris","admin3":"51011"},{"geonameid":4904907,"name":"Township of Oregon-Nashua","admin3":"56504"},{"geonameid":4905989,"name":"Township of Pine Creek","admin3":"59897"},{"geonameid":4906020,"name":"Township of Pine Rock","admin3":"59975"},{"geonameid":4907995,"name":"Township of Rockvale","admin3":"65182"},{"geonameid":4910921,"name":"Township of Scott","admin3":"68302"},{"geonameid":4913268,"name":"Township of Taylor","admin3":"74535"},{"geonameid":4916398,"name":"Township of White Rock","admin3":"81399"},{"geonameid":4917155,"name":"Township of Woosung","admin3":"83492"}],"alternateNames":[{"alternatenameId":2089562,"geonameid":4896861,"isoLanguage":"en","alternateName":"Illinois","isPreferredName":true,"isShortName":true,"isColloquial":false,"isHistoric":false}]},"__N_SSG":true}