{"pageProps":{"locale":"en","admin2":{"geonameid":4249847,"name":"Shelby County","country":"US","admin1":"IL","admin2":"173","admin3":"","latitude":"39.3911600","longitude":"-88.8055400"},"admin1":{"geonameid":4896861,"name":"Illinois","admin1":"IL","localeAltName":"Illinois"},"locations":[{"geonameid":4245258,"name":"Moweaqua","admin3":"51245"},{"geonameid":4249857,"name":"Shelbyville","admin3":"69199"},{"geonameid":4253280,"name":"Windsor","admin3":"82335"}],"admin3":[{"geonameid":4232947,"name":"Township of Ash Grove","admin3":"02466"},{"geonameid":4233908,"name":"Township of Big Spring","admin3":"06002"},{"geonameid":4235972,"name":"Township of Clarksburg","admin3":"14637"},{"geonameid":4236145,"name":"Township of Cold Spring","admin3":"15417"},{"geonameid":4237303,"name":"Township of Dry Point","admin3":"20851"},{"geonameid":4238746,"name":"Township of Flat Branch","admin3":"26337"},{"geonameid":4240539,"name":"Township of Herrick","admin3":"34345"},{"geonameid":4240865,"name":"Township of Holland","admin3":"35567"},{"geonameid":4242671,"name":"Township of Lakewood","admin3":"41690"},{"geonameid":4245249,"name":"Township of Moweaqua","admin3":"51245"},{"geonameid":4246140,"name":"Township of Oconee","admin3":"55145"},{"geonameid":4246179,"name":"Township of Okaw","admin3":"55457"},{"geonameid":4246810,"name":"Township of Penn","admin3":"58590"},{"geonameid":4246930,"name":"Township of Pickaway","admin3":"59663"},{"geonameid":4247547,"name":"Township of Prairie","admin3":"61522"},{"geonameid":4248075,"name":"Township of Richland","admin3":"63615"},{"geonameid":4248120,"name":"Township of Ridge","admin3":"63836"},{"geonameid":4248466,"name":"Township of Rose","admin3":"65637"},{"geonameid":4248595,"name":"Township of Rural","admin3":"66313"},{"geonameid":4249864,"name":"Township of Shelbyville","admin3":"69199"},{"geonameid":4250040,"name":"Township of Sigel","admin3":"69927"},{"geonameid":4251327,"name":"Township of Todds Point","admin3":"75588"},{"geonameid":4251377,"name":"Township of Tower Hill","admin3":"75861"},{"geonameid":4253286,"name":"Township of Windsor","admin3":"82335"}],"alternateNames":[{"alternatenameId":2089562,"geonameid":4896861,"isoLanguage":"en","alternateName":"Illinois","isPreferredName":true,"isShortName":true,"isColloquial":false,"isHistoric":false}]},"__N_SSG":true}