{"pageProps":{"locale":"ro","admin1":{"geonameid":677692,"name":"Galaţi","country":"RO","admin1":"18","latitude":"45.7500000","longitude":"27.7500000"},"admin2":[{"geonameid":685738,"name":"Comuna Bălăbăneşti","admin2":"75542"},{"geonameid":685671,"name":"Comuna Bălăşeşti","admin2":"75613"},{"geonameid":685634,"name":"Comuna Băleni","admin2":"75668"},{"geonameid":685470,"name":"Comuna Băneasa","admin2":"75686"},{"geonameid":685345,"name":"Comuna Barcea","admin2":"75515"},{"geonameid":8334723,"name":"Comuna Bereşti-Meria","admin2":"75356"},{"geonameid":683909,"name":"Comuna Brăhăşeşti","admin2":"75766"},{"geonameid":683853,"name":"Comuna Braniştea","admin2":"75711"},{"geonameid":683563,"name":"Comuna Buciumeni","admin2":"75819"},{"geonameid":682510,"name":"Comuna Cavadineşti","admin2":"75864"},{"geonameid":682283,"name":"Comuna Cerţeşti","admin2":"75917"},{"geonameid":680739,"name":"Comuna Corni","admin2":"76004"},{"geonameid":680706,"name":"Comuna Corod","admin2":"75953"},{"geonameid":680621,"name":"Comuna Cosmeşti","admin2":"76040"},{"geonameid":680597,"name":"Comuna Costache Negri","admin2":"76111"},{"geonameid":680052,"name":"Comuna Cuca","admin2":"76139"},{"geonameid":680002,"name":"Comuna Cudalbi","admin2":"76157"},{"geonameid":679847,"name":"Comuna Cuza Vodă","admin2":"77595"},{"geonameid":678992,"name":"Comuna Drăgăneşti","admin2":"75221"},{"geonameid":678879,"name":"Comuna Drăguşeni","admin2":"76175"},{"geonameid":678115,"name":"Comuna Fârţăneşti","admin2":"76255"},{"geonameid":677984,"name":"Comuna Folteşti","admin2":"76282"},{"geonameid":677869,"name":"Comuna Frumuşiţa","admin2":"76317"},{"geonameid":677805,"name":"Comuna Fundeni","admin2":"76353"},{"geonameid":677406,"name":"Comuna Ghidigeni","admin2":"76406"},{"geonameid":676971,"name":"Comuna Gohor","admin2":"76497"},{"geonameid":676702,"name":"Comuna Griviţa","admin2":"76558"},{"geonameid":675609,"name":"Comuna Independenţa","admin2":"76585"},{"geonameid":675416,"name":"Comuna Iveşti","admin2":"76601"},{"geonameid":675181,"name":"Comuna Jorăşti","admin2":"76638"},{"geonameid":674794,"name":"Comuna Lieşti","admin2":"76674"},{"geonameid":673701,"name":"Comuna Măstăcani","admin2":"76718"},{"geonameid":673684,"name":"Comuna Matca","admin2":"76692"},{"geonameid":672726,"name":"Comuna Movileni","admin2":"76745"},{"geonameid":672657,"name":"Comuna Munteni","admin2":"75258"},{"geonameid":672526,"name":"Comuna Nămoloasa","admin2":"76763"},{"geonameid":672355,"name":"Comuna Negrileşti","admin2":"77579"},{"geonameid":672243,"name":"Comuna Nicoreşti","admin2":"76807"},{"geonameid":672117,"name":"Comuna Oancea","admin2":"76932"},{"geonameid":671186,"name":"Comuna Pechea","admin2":"76969"},{"geonameid":670647,"name":"Comuna Piscu","admin2":"76996"},{"geonameid":670109,"name":"Comuna Poiana","admin2":"77587"},{"geonameid":669629,"name":"Comuna Priponeşti","admin2":"77028"},{"geonameid":669268,"name":"Comuna Rădeşti","admin2":"77561"},{"geonameid":669007,"name":"Comuna Rediu","admin2":"77082"},{"geonameid":667624,"name":"Comuna Scânteieşti","admin2":"77126"},{"geonameid":667689,"name":"Comuna Schela","admin2":"77153"},{"geonameid":667399,"name":"Comuna Şendreni","admin2":"75114"},{"geonameid":666669,"name":"Comuna Slobozia Conachi","admin2":"77180"},{"geonameid":666622,"name":"Comuna Smârdan","admin2":"77224"},{"geonameid":666612,"name":"Comuna Smulţi","admin2":"77260"},{"geonameid":8334950,"name":"Comuna Suceveni","admin2":"77288"},{"geonameid":8334867,"name":"Comuna Suhurlui","admin2":"77601"},{"geonameid":665241,"name":"Comuna Ţepu","admin2":"77377"},{"geonameid":664556,"name":"Comuna Tudor Vladimirescu","admin2":"77313"},{"geonameid":664504,"name":"Comuna Tuluceşti","admin2":"77331"},{"geonameid":664279,"name":"Comuna Umbrăreşti","admin2":"77402"},{"geonameid":8334905,"name":"Comuna Valea Mãrului","admin2":"77475"},{"geonameid":662832,"name":"Comuna Vânători","admin2":"75150"},{"geonameid":662758,"name":"Comuna Vârlezi","admin2":"77509"},{"geonameid":662614,"name":"Comuna Vlădeşti","admin2":"77536"},{"geonameid":8334672,"name":"Municipiul Galaţi","admin2":"75098"},{"geonameid":8334701,"name":"Municipiul Tecuci","admin2":"75203"},{"geonameid":685033,"name":"Oraş Bereşti","admin2":"75338"},{"geonameid":683350,"name":"Oraș Târgu Bujor","admin2":"75472"}],"country":{"geonameid":798549,"country":"RO","localeAltName":"România"},"alternateNames":[{"alternatenameId":490801,"geonameid":798549,"isoLanguage":"ro","alternateName":"România","isPreferredName":true,"isShortName":true,"isColloquial":false,"isHistoric":false}]},"__N_SSG":true}