{"pageProps":{"locale":"ro","admin1":{"geonameid":672628,"name":"Mureş","country":"RO","admin1":"27","latitude":"46.6666700","longitude":"24.5833300"},"admin2":[{"geonameid":686704,"name":"Comuna Acăţari","admin2":"114970"},{"geonameid":686683,"name":"Comuna Adămuş","admin2":"115076"},{"geonameid":686548,"name":"Comuna Albeşti","admin2":"114603"},{"geonameid":686416,"name":"Comuna Aluniş","admin2":"115147"},{"geonameid":686271,"name":"Comuna Apold","admin2":"115183"},{"geonameid":8334799,"name":"Comuna Aţintiş","admin2":"115236"},{"geonameid":8334976,"name":"Comuna Bãgaciu","admin2":"115575"},{"geonameid":685849,"name":"Comuna Bahnea","admin2":"115307"},{"geonameid":685742,"name":"Comuna Băla","admin2":"115600"},{"geonameid":685666,"name":"Comuna Bălăuşeri","admin2":"115637"},{"geonameid":685480,"name":"Comuna Band","admin2":"115389"},{"geonameid":685258,"name":"Comuna Batoş","admin2":"115520"},{"geonameid":8334999,"name":"Comuna Beica De Jos","admin2":"115708"},{"geonameid":685043,"name":"Comuna Bereni","admin2":"120511"},{"geonameid":684902,"name":"Comuna Bichiş","admin2":"115771"},{"geonameid":684432,"name":"Comuna Bogata","admin2":"115824"},{"geonameid":683680,"name":"Comuna Brâncoveneşti","admin2":"115897"},{"geonameid":683753,"name":"Comuna Breaza","admin2":"115851"},{"geonameid":682458,"name":"Comuna Ceuaşu De Câmpie","admin2":"115959"},{"geonameid":682170,"name":"Comuna Cheţani","admin2":"116046"},{"geonameid":682155,"name":"Comuna Chibed","admin2":"120478"},{"geonameid":8334745,"name":"Comuna Chiheru De Jos","admin2":"116126"},{"geonameid":680689,"name":"Comuna Coroisânmartin","admin2":"116171"},{"geonameid":680675,"name":"Comuna Corunca","admin2":"120487"},{"geonameid":680397,"name":"Comuna Cozma","admin2":"116224"},{"geonameid":680363,"name":"Comuna Crăciuneşti","admin2":"116288"},{"geonameid":680347,"name":"Comuna Crãieşti","admin2":"116340"},{"geonameid":680174,"name":"Comuna Cristeşti","admin2":"114355"},{"geonameid":8334848,"name":"Comuna Cucerdea","admin2":"116395"},{"geonameid":680043,"name":"Comuna Cuci","admin2":"116439"},{"geonameid":679762,"name":"Comuna Daneş","admin2":"116493"},{"geonameid":679563,"name":"Comuna Deda","admin2":"116545"},{"geonameid":678545,"name":"Comuna Eremitu","admin2":"116590"},{"geonameid":678534,"name":"Comuna Ernei","admin2":"116652"},{"geonameid":678143,"name":"Comuna Fântânele","admin2":"116796"},{"geonameid":678454,"name":"Comuna Fărăgău","admin2":"116723"},{"geonameid":677653,"name":"Comuna Găleşti","admin2":"116867"},{"geonameid":677616,"name":"Comuna Găneşti","admin2":"116938"},{"geonameid":677506,"name":"Comuna Gheorghe Doja","admin2":"116983"},{"geonameid":677356,"name":"Comuna Ghindari","admin2":"117042"},{"geonameid":677038,"name":"Comuna Glodeni","admin2":"117113"},{"geonameid":676891,"name":"Comuna Gorneşti","admin2":"117177"},{"geonameid":676768,"name":"Comuna Grebenişu de Câmpie","admin2":"117275"},{"geonameid":676436,"name":"Comuna Gurghiu","admin2":"117319"},{"geonameid":676123,"name":"Comuna Hodac","admin2":"117426"},{"geonameid":676092,"name":"Comuna Hodoşa","admin2":"117505"},{"geonameid":675778,"name":"Comuna Ibăneşti Pădure","admin2":"117550"},{"geonameid":675765,"name":"Comuna Iclănzel","admin2":"117667"},{"geonameid":675749,"name":"Comuna Ideciu de Jos","admin2":"117783"},{"geonameid":8334884,"name":"Comuna Livezeni","admin2":"117925"},{"geonameid":674444,"name":"Comuna Lunca","admin2":"117998"},{"geonameid":674429,"name":"Comuna Lunca Bradului","admin2":"118058"},{"geonameid":674211,"name":"Comuna Mădăraş","admin2":"120502"},{"geonameid":674183,"name":"Comuna Măgherani","admin2":"118094"},{"geonameid":673488,"name":"Comuna Mica","admin2":"118209"},{"geonameid":673349,"name":"Comuna Miheşu de Câmpie","admin2":"118370"},{"geonameid":672550,"name":"Comuna Nadeş","admin2":"118469"},{"geonameid":672455,"name":"Comuna Neaua","admin2":"118511"},{"geonameid":671947,"name":"Comuna Ogra","admin2":"118575"},{"geonameid":671389,"name":"Comuna Pănet","admin2":"118691"},{"geonameid":671362,"name":"Comuna Papiu Ilarian","admin2":"118637"},{"geonameid":671299,"name":"Comuna Păsăreni","admin2":"118753"},{"geonameid":671033,"name":"Comuna Petelea","admin2":"118799"},{"geonameid":670179,"name":"Comuna Pogăceaua","admin2":"118824"},{"geonameid":668914,"name":"Comuna Râciu","admin2":"118995"},{"geonameid":669132,"name":"Comuna Răstoliţa","admin2":"118931"},{"geonameid":668381,"name":"Comuna Ruşii Munţi","admin2":"119153"},{"geonameid":667058,"name":"Comuna Sâncraiu de Mureş","admin2":"114382"},{"geonameid":667033,"name":"Comuna Sângeorgiu de Mureş","admin2":"114417"},{"geonameid":667025,"name":"Comuna Sânger","admin2":"119386"},{"geonameid":666961,"name":"Comuna Sânpaul","admin2":"119466"},{"geonameid":666953,"name":"Comuna Sânpetru de Câmpie","admin2":"119527"},{"geonameid":666932,"name":"Comuna Sântana de Mureş","admin2":"114453"},{"geonameid":668023,"name":"Comuna Sărăţeni","admin2":"120496"},{"geonameid":667922,"name":"Comuna Saschiz","admin2":"119206"},{"geonameid":667769,"name":"Comuna Şăulia","admin2":"119750"},{"geonameid":667081,"name":"Comuna Şincai","admin2":"119803"},{"geonameid":8334954,"name":"Comuna Solovãstru","admin2":"119590"},{"geonameid":666125,"name":"Comuna Stânceni","admin2":"119625"},{"geonameid":8334660,"name":"Comuna Suplac","admin2":"119661"},{"geonameid":665683,"name":"Comuna Suseni","admin2":"119723"},{"geonameid":665510,"name":"Comuna Tãureni","admin2":"119858"},{"geonameid":663714,"name":"Comuna Valea Largă","admin2":"119974"},{"geonameid":662830,"name":"Comuna Vânători","admin2":"120254"},{"geonameid":663172,"name":"Comuna Vărgata","admin2":"120076"},{"geonameid":663104,"name":"Comuna Vătava","admin2":"120138"},{"geonameid":663019,"name":"Comuna Veţca","admin2":"120174"},{"geonameid":8334757,"name":"Comuna Viişoara","admin2":"120218"},{"geonameid":662495,"name":"Comuna Voivodeni","admin2":"120316"},{"geonameid":662355,"name":"Comuna Zagăr","admin2":"120343"},{"geonameid":8334938,"name":"Comuna Zau De Câmpie","admin2":"120370"},{"geonameid":8334828,"name":"Municipiul Reghin","admin2":"114809"},{"geonameid":8334977,"name":"Municipiul Sighişoara","admin2":"114514"},{"geonameid":8334747,"name":"Municipiul Târgu Mureş","admin2":"114319"},{"geonameid":8334746,"name":"Municipiul Târnãveni","admin2":"114925"},{"geonameid":667031,"name":"Oraş   Sângeorgiu De Pãdure","admin2":"119331"},{"geonameid":675726,"name":"Oraş Iernut","admin2":"117827"},{"geonameid":674539,"name":"Oraş Luduş","admin2":"114710"},{"geonameid":673439,"name":"Oraş Miercurea Nirajului","admin2":"118281"},{"geonameid":667965,"name":"Oraş Sarmaşu","admin2":"119242"},{"geonameid":8334863,"name":"Oraş Sovata","admin2":"114854"},{"geonameid":664268,"name":"Oraş Ungheni","admin2":"119894"}],"country":{"geonameid":798549,"country":"RO","localeAltName":"România"},"alternateNames":[{"alternatenameId":490801,"geonameid":798549,"isoLanguage":"ro","alternateName":"România","isPreferredName":true,"isShortName":true,"isColloquial":false,"isHistoric":false}]},"__N_SSG":true}