{"pageProps":{"locale":"ro","admin1":{"geonameid":662447,"name":"Vrancea","country":"RO","admin1":"40","latitude":"45.7500000","longitude":"26.9166700","localeAltName":"Vrancea"},"admin2":[{"geonameid":686349,"name":"Comuna Andreiaşu de Jos","admin2":"175126"},{"geonameid":685623,"name":"Comuna Băleşti","admin2":"175206"},{"geonameid":684748,"name":"Comuna Bârseşti","admin2":"175224"},{"geonameid":684850,"name":"Comuna Bilieşti","admin2":"178929"},{"geonameid":684375,"name":"Comuna Bogheşti","admin2":"175260"},{"geonameid":684261,"name":"Comuna Boloteşti","admin2":"175368"},{"geonameid":684210,"name":"Comuna Bordeşti","admin2":"175439"},{"geonameid":683629,"name":"Comuna Broşteni","admin2":"175466"},{"geonameid":681860,"name":"Comuna Câmpineanca","admin2":"174780"},{"geonameid":681835,"name":"Comuna Câmpuri","admin2":"175670"},{"geonameid":681558,"name":"Comuna Cârligele","admin2":"175732"},{"geonameid":682078,"name":"Comuna Chiojdeni","admin2":"175509"},{"geonameid":681662,"name":"Comuna Ciorăşti","admin2":"175590"},{"geonameid":680873,"name":"Comuna Corbiţa","admin2":"175787"},{"geonameid":680508,"name":"Comuna Coteşti","admin2":"175885"},{"geonameid":678699,"name":"Comună Dumbrăveni","admin2":"175938"},{"geonameid":678650,"name":"Comuna Dumitreşti","admin2":"175983"},{"geonameid":678097,"name":"Comuna Fitioneşti","admin2":"176150"},{"geonameid":8334851,"name":"Comuna Garoafa","admin2":"176212"},{"geonameid":676942,"name":"Comuna Goleşti","admin2":"174824"},{"geonameid":676933,"name":"Comuna Gologanu","admin2":"178938"},{"geonameid":676584,"name":"Comuna Gugeşti","admin2":"176301"},{"geonameid":676556,"name":"Comuna Gura Caliţei","admin2":"176338"},{"geonameid":676062,"name":"Comuna Homocea","admin2":"176445"},{"geonameid":675292,"name":"Comuna Jariştea","admin2":"176506"},{"geonameid":675207,"name":"Comuna Jitia","admin2":"176551"},{"geonameid":674065,"name":"Comuna Măicăneşti","admin2":"176613"},{"geonameid":673592,"name":"Comuna Mera","admin2":"176686"},{"geonameid":8334937,"name":"Comuna Milcovul","admin2":"176748"},{"geonameid":672717,"name":"Comuna Moviliţa","admin2":"176793"},{"geonameid":672514,"name":"Comuna Năneşti","admin2":"176855"},{"geonameid":672500,"name":"Comuna Năruja","admin2":"176891"},{"geonameid":672356,"name":"Comuna Negrileşti","admin2":"178885"},{"geonameid":672300,"name":"Comuna Nereju","admin2":"176944"},{"geonameid":672189,"name":"Comuna Nistoreşti","admin2":"177003"},{"geonameid":8334996,"name":"Comuna Obrejiţa","admin2":"178947"},{"geonameid":671441,"name":"Comuna Paltin","admin2":"177101"},{"geonameid":671222,"name":"Comuna Păuleşti","admin2":"178910"},{"geonameid":671207,"name":"Comuna Păuneşti","admin2":"177236"},{"geonameid":670399,"name":"Comuna Ploscuţeni","admin2":"178894"},{"geonameid":8334990,"name":"Comuna Poiana Cristei","admin2":"177263"},{"geonameid":669877,"name":"Comuna Popeşti","admin2":"178901"},{"geonameid":669502,"name":"Comuna Pufeşti","admin2":"177352"},{"geonameid":669347,"name":"Comuna Răcoasa","admin2":"177405"},{"geonameid":669136,"name":"Comuna Răstoaca","admin2":"178956"},{"geonameid":668992,"name":"Comuna Reghiu","admin2":"177469"},{"geonameid":668493,"name":"Comuna Rugineşti","admin2":"177557"},{"geonameid":667215,"name":"Comuna Sihlea","admin2":"177600"},{"geonameid":666675,"name":"Comuna Slobozia Bradului","admin2":"177655"},{"geonameid":666672,"name":"Comuna Slobozia-Ciorăşti","admin2":"177726"},{"geonameid":666392,"name":"Comuna Soveja","admin2":"177762"},{"geonameid":666331,"name":"Comuna Spulber","admin2":"178965"},{"geonameid":666006,"name":"Comuna Străoane","admin2":"177799"},{"geonameid":665753,"name":"Comuna Suraia","admin2":"177842"},{"geonameid":665094,"name":"Comuna Tâmboeşti","admin2":"178046"},{"geonameid":665543,"name":"Comuna Tănăsoaia","admin2":"177879"},{"geonameid":8334857,"name":"Comuna Tãtãranu","admin2":"177986"},{"geonameid":665149,"name":"Comuna Ţifeşti","admin2":"178180"},{"geonameid":664506,"name":"Comuna Tulnici","admin2":"178117"},{"geonameid":664168,"name":"Comuna Urecheşti","admin2":"178279"},{"geonameid":663445,"name":"Comuna Valea Sării","admin2":"178313"},{"geonameid":662831,"name":"Comuna Vânători","admin2":"178607"},{"geonameid":662737,"name":"Comuna Vârteşcoiu","admin2":"178689"},{"geonameid":662966,"name":"Comuna Vidra","admin2":"178377"},{"geonameid":662798,"name":"Comuna Vintileasca","admin2":"178475"},{"geonameid":8334772,"name":"Comuna Vizantea-Livezi","admin2":"178545"},{"geonameid":662436,"name":"Comuna Vrâncioaia","admin2":"178750"},{"geonameid":662384,"name":"Comuna Vulturu","admin2":"178821"},{"geonameid":8334958,"name":"Municipiul  Adjud","admin2":"174860"},{"geonameid":8334936,"name":"Municipiul Focşani","admin2":"174744"},{"geonameid":8334935,"name":"Oraş Mãrãşeşti","admin2":"174922"},{"geonameid":8334932,"name":"Oraş Odobeşti","admin2":"175019"},{"geonameid":8334934,"name":"Oraş Panciu","admin2":"175055"}],"country":{"geonameid":798549,"country":"RO","localeAltName":"România"},"alternateNames":[{"alternatenameId":391637,"geonameid":662447,"isoLanguage":"ro","alternateName":"Vrancea","isPreferredName":true,"isShortName":true,"isColloquial":false,"isHistoric":false},{"alternatenameId":490801,"geonameid":798549,"isoLanguage":"ro","alternateName":"România","isPreferredName":true,"isShortName":true,"isColloquial":false,"isHistoric":false}]},"__N_SSG":true}