{"pageProps":{"locale":"ro","admin2":{"geonameid":664975,"name":"Comuna Târlişua","country":"RO","admin1":"06","admin2":"35152","admin3":"","latitude":"47.4058400","longitude":"24.1651400"},"admin1":{"geonameid":684647,"name":"Bistriţa-Năsăud","admin1":"06"},"locations":[{"geonameid":686615,"name":"Agrieș"},{"geonameid":686613,"name":"Agrieş-Luncă"},{"geonameid":686614,"name":"Agrieșel"},{"geonameid":684193,"name":"Borleasa"},{"geonameid":681612,"name":"Cireași"},{"geonameid":680594,"name":"Costeasca"},{"geonameid":676696,"name":"Groapa Arieş"},{"geonameid":675432,"name":"Ivăneasa"},{"geonameid":675308,"name":"Izvoru Pietrii"},{"geonameid":674359,"name":"Lunca Săteasca"},{"geonameid":672894,"name":"Molișet"},{"geonameid":671743,"name":"Oarzina"},{"geonameid":669390,"name":"Răcăteșu"},{"geonameid":669186,"name":"Răpănaşu"},{"geonameid":667393,"name":"Șendroaia"},{"geonameid":665954,"name":"Strâmbulici"},{"geonameid":664976,"name":"Târlişua"}],"admin3":[],"alternateNames":[]},"__N_SSG":true}