{"pageProps":{"locale":"en","admin2":{"geonameid":4154550,"name":"Escambia County","country":"US","admin1":"FL","admin2":"033","admin3":"","latitude":"30.6144000","longitude":"-87.3413600"},"admin1":{"geonameid":4155751,"name":"Florida","admin1":"FL","localeAltName":"Florida"},"locations":[{"geonameid":4147290,"name":"Bellview","admin3":""},{"geonameid":4148803,"name":"Brent","admin3":""},{"geonameid":4149956,"name":"Cantonment","admin3":""},{"geonameid":4150517,"name":"Century","admin3":""},{"geonameid":4154047,"name":"East Pensacola Heights","admin3":""},{"geonameid":4154489,"name":"Ensley","admin3":""},{"geonameid":4155017,"name":"Ferry Pass","admin3":""},{"geonameid":4156975,"name":"Gonzalez","admin3":""},{"geonameid":4157095,"name":"Goulding","admin3":""},{"geonameid":4164728,"name":"Molino","admin3":""},{"geonameid":4165519,"name":"Myrtle Grove","admin3":""},{"geonameid":4168228,"name":"Pensacola","admin3":""},{"geonameid":4177465,"name":"Warrington","admin3":""},{"geonameid":4177908,"name":"West Pensacola","admin3":""}],"admin3":[{"geonameid":7170053,"name":"City of Pensacola","admin3":"7170053"},{"geonameid":7171494,"name":"Town of Century","admin3":"7171494"}],"alternateNames":[{"alternatenameId":2080779,"geonameid":4155751,"isoLanguage":"en","alternateName":"Florida","isPreferredName":true,"isShortName":true,"isColloquial":false,"isHistoric":false}]},"__N_SSG":true}