{"pageProps":{"locale":"en","admin2":{"geonameid":4167510,"name":"Palm Beach County","country":"US","admin1":"FL","admin2":"099","admin3":"","latitude":"26.6475700","longitude":"-80.4365100"},"admin1":{"geonameid":4155751,"name":"Florida","admin1":"FL","localeAltName":"Florida"},"locations":[{"geonameid":4145571,"name":"Aberdeen","admin3":""},{"geonameid":4146372,"name":"Atlantis","admin3":""},{"geonameid":4147241,"name":"Belle Glade","admin3":""},{"geonameid":4147242,"name":"Belle Glade Camp","admin3":""},{"geonameid":4148399,"name":"Boca Del Mar","admin3":""},{"geonameid":4148410,"name":"Boca Pointe","admin3":""},{"geonameid":4148411,"name":"Boca Raton","admin3":""},{"geonameid":4148677,"name":"Boynton Beach","admin3":""},{"geonameid":4153132,"name":"Delray Beach","admin3":""},{"geonameid":4157467,"name":"Greenacres City","admin3":""},{"geonameid":4158239,"name":"Haverhill","admin3":""},{"geonameid":4158599,"name":"Highland Beach","admin3":""},{"geonameid":4159484,"name":"Hypoluxo","admin3":""},{"geonameid":4160604,"name":"Juno Beach","admin3":""},{"geonameid":4160610,"name":"Jupiter","admin3":""},{"geonameid":4160932,"name":"Kings Point","admin3":""},{"geonameid":4161161,"name":"Lake Belvedere Estates","admin3":""},{"geonameid":4161195,"name":"Lake Clarke Shores","admin3":""},{"geonameid":4161334,"name":"Lake Park","admin3":""},{"geonameid":4161422,"name":"Lake Worth","admin3":""},{"geonameid":4161424,"name":"Lake Worth Corridor","admin3":""},{"geonameid":4161571,"name":"Lantana","admin3":""},{"geonameid":4162004,"name":"Limestone Creek","admin3":""},{"geonameid":4162948,"name":"Loxahatchee Groves","admin3":""},{"geonameid":4163322,"name":"Mangonia Park","admin3":""},{"geonameid":4166253,"name":"North Palm Beach","admin3":""},{"geonameid":4166738,"name":"Ocean Ridge","admin3":""},{"geonameid":4167473,"name":"Pahokee","admin3":""},{"geonameid":4167505,"name":"Palm Beach","admin3":"","localeAltName":"Palm Beach"},{"geonameid":4167519,"name":"Palm Beach Gardens","admin3":""},{"geonameid":4167533,"name":"Palm Beach Shores","admin3":""},{"geonameid":4167583,"name":"Palm Springs","admin3":""},{"geonameid":4168804,"name":"Plantation Mobile Home Park","admin3":""},{"geonameid":4170174,"name":"Riviera Beach","admin3":""},{"geonameid":4170617,"name":"Royal Palm Beach","admin3":""},{"geonameid":4170625,"name":"Royal Palm Estates","admin3":""},{"geonameid":7260095,"name":"Sandalfoot Cove","admin3":""},{"geonameid":4172248,"name":"Schall Circle","admin3":""},{"geonameid":4172460,"name":"Seminole Manor","admin3":""},{"geonameid":4173376,"name":"South Bay","admin3":""},{"geonameid":4173522,"name":"South Palm Beach","admin3":""},{"geonameid":4175011,"name":"Tequesta","admin3":""},{"geonameid":8096113,"name":"The Acreage","admin3":""},{"geonameid":4176508,"name":"Villages of Oriole","admin3":""},{"geonameid":4177703,"name":"Wellington","admin3":""},{"geonameid":4177816,"name":"West Gate","admin3":""},{"geonameid":4177887,"name":"West Palm Beach","admin3":""}],"admin3":[{"geonameid":7169343,"name":"City of Atlantis","admin3":"7169343"},{"geonameid":7169600,"name":"City of Belle Glade","admin3":"7169600"},{"geonameid":7169635,"name":"City of Boca Raton","admin3":"7169635"},{"geonameid":7169646,"name":"City of Boynton Beach","admin3":"7169646"},{"geonameid":7169859,"name":"City of Delray Beach","admin3":"7169859"},{"geonameid":7170020,"name":"City of Pahokee","admin3":"7170020"},{"geonameid":7170025,"name":"City of Palm Beach Gardens","admin3":"7170025"},{"geonameid":7170139,"name":"City of Riviera Beach","admin3":"7170139"},{"geonameid":7170306,"name":"City of Lake Worth","admin3":"7170306"},{"geonameid":7170692,"name":"Town of Briny Breezes","admin3":"7170692"},{"geonameid":7170836,"name":"City of South Bay","admin3":"7170836"},{"geonameid":7170987,"name":"City of West Palm Beach","admin3":"7170987"},{"geonameid":7171055,"name":"Town of Haverhill","admin3":"7171055"},{"geonameid":7171083,"name":"Town of Highland Beach","admin3":"7171083"},{"geonameid":7171130,"name":"Town of Hypoluxo","admin3":"7171130"},{"geonameid":7171175,"name":"Town of Juno Beach","admin3":"7171175"},{"geonameid":7171176,"name":"Town of Jupiter","admin3":"7171176"},{"geonameid":7171177,"name":"Town of Jupiter Inlet Colony","admin3":"7171177"},{"geonameid":7171216,"name":"Town of Lake Clarke Shores","admin3":"7171216"},{"geonameid":7171219,"name":"Town of Lake Park","admin3":"7171219"},{"geonameid":7171232,"name":"Town of Lantana","admin3":"7171232"},{"geonameid":7171297,"name":"Town of Loxahatchee Groves","admin3":"7171297"},{"geonameid":7171330,"name":"Town of Manalapan","admin3":"7171330"},{"geonameid":7171524,"name":"Town of Cloud Lake","admin3":"7171524"},{"geonameid":7171813,"name":"Town of Glen Ridge","admin3":"7171813"},{"geonameid":7171862,"name":"Town of Gulf Stream","admin3":"7171862"},{"geonameid":7172252,"name":"Town of Ocean Ridge","admin3":"7172252"},{"geonameid":7172286,"name":"Town of Palm Beach Shores","admin3":"7172286"},{"geonameid":7172582,"name":"Town of South Palm Beach","admin3":"7172582"},{"geonameid":7172672,"name":"Village of Golf","admin3":"7172672"},{"geonameid":7172717,"name":"Village of North Palm Beach","admin3":"7172717"},{"geonameid":7172721,"name":"Village of Palm Springs","admin3":"7172721"},{"geonameid":7172763,"name":"Village of Tequesta","admin3":"7172763"},{"geonameid":7172771,"name":"Village of Wellington","admin3":"7172771"},{"geonameid":7317704,"name":"City of Greenacres","admin3":"7317704"},{"geonameid":7318224,"name":"Town of Mangonia Park","admin3":"7318224"}],"alternateNames":[{"alternatenameId":2080779,"geonameid":4155751,"isoLanguage":"en","alternateName":"Florida","isPreferredName":true,"isShortName":true,"isColloquial":false,"isHistoric":false},{"alternatenameId":2728339,"geonameid":4167505,"isoLanguage":"en","alternateName":"Palm Beach","isPreferredName":true,"isShortName":true,"isColloquial":false,"isHistoric":false}]},"__N_SSG":true}