{"pageProps":{"locale":"en","admin2":{"geonameid":4168618,"name":"Pinellas County","country":"US","admin1":"FL","admin2":"103","admin3":"","latitude":"27.9026800","longitude":"-82.7395500"},"admin1":{"geonameid":4155751,"name":"Florida","admin1":"FL","localeAltName":"Florida"},"locations":[{"geonameid":4146855,"name":"Bay Pines","admin3":""},{"geonameid":4147255,"name":"Belleair","admin3":""},{"geonameid":4147257,"name":"Belleair Beach","admin3":""},{"geonameid":4147258,"name":"Belleair Bluffs","admin3":""},{"geonameid":4151316,"name":"Clearwater","admin3":""},{"geonameid":4153759,"name":"Dunedin","admin3":""},{"geonameid":4154008,"name":"East Lake","admin3":""},{"geonameid":4154937,"name":"Feather Sound","admin3":""},{"geonameid":4156462,"name":"Gandy","admin3":""},{"geonameid":7315227,"name":"Greenbriar","admin3":""},{"geonameid":4157687,"name":"Gulfport","admin3":""},{"geonameid":4158032,"name":"Harbor Bluffs","admin3":""},{"geonameid":4159675,"name":"Indian Rocks Beach","admin3":""},{"geonameid":4159677,"name":"Indian Shores","admin3":""},{"geonameid":4160749,"name":"Kenneth City","admin3":""},{"geonameid":4161580,"name":"Largo","admin3":""},{"geonameid":4161705,"name":"Lealman","admin3":""},{"geonameid":4163129,"name":"Madeira Beach","admin3":""},{"geonameid":4166288,"name":"North Redington Beach","admin3":""},{"geonameid":4166936,"name":"Oldsmar","admin3":""},{"geonameid":4167545,"name":"Palm Harbor","admin3":""},{"geonameid":4168630,"name":"Pinellas Park","admin3":""},{"geonameid":4169810,"name":"Redington Beach","admin3":""},{"geonameid":4169811,"name":"Redington Shores","admin3":""},{"geonameid":4170019,"name":"Ridgecrest","admin3":""},{"geonameid":4170797,"name":"Safety Harbor","admin3":""},{"geonameid":4171010,"name":"Saint George","admin3":""},{"geonameid":4171522,"name":"Saint Pete Beach","admin3":""},{"geonameid":4172434,"name":"Seminole","admin3":""},{"geonameid":4173467,"name":"South Highpoint","admin3":""},{"geonameid":4173524,"name":"South Pasadena","admin3":""},{"geonameid":4171563,"name":"St. Petersburg","admin3":""},{"geonameid":4174855,"name":"Tarpon Springs","admin3":""},{"geonameid":4175331,"name":"Tierra Verde","admin3":""},{"geonameid":4175626,"name":"Treasure Island","admin3":""},{"geonameid":4177960,"name":"West and East Lealman","admin3":""}],"admin3":[{"geonameid":7169380,"name":"City of Dunedin","admin3":"7169380"},{"geonameid":7169556,"name":"City of Gulfport","admin3":"7169556"},{"geonameid":7169603,"name":"City of Belleair Beach","admin3":"7169603"},{"geonameid":7169604,"name":"City of Belleair Bluffs","admin3":"7169604"},{"geonameid":7169763,"name":"City of Clearwater","admin3":"7169763"},{"geonameid":7170000,"name":"City of Oldsmar","admin3":"7170000"},{"geonameid":7170065,"name":"City of Pinellas Park","admin3":"7170065"},{"geonameid":7170233,"name":"City of Indian Rocks Beach","admin3":"7170233"},{"geonameid":7170320,"name":"City of Largo","admin3":"7170320"},{"geonameid":7170390,"name":"City of Madeira Beach","admin3":"7170390"},{"geonameid":7170605,"name":"Town of Belleair","admin3":"7170605"},{"geonameid":7170606,"name":"Town of Belleair Shore","admin3":"7170606"},{"geonameid":7170757,"name":"City of Safety Harbor","admin3":"7170757"},{"geonameid":7170767,"name":"City of Saint Pete Beach","admin3":"7170767"},{"geonameid":7170802,"name":"City of Seminole","admin3":"7170802"},{"geonameid":7170840,"name":"City of South Pasadena","admin3":"7170840"},{"geonameid":7170887,"name":"City of Tarpon Springs","admin3":"7170887"},{"geonameid":7170908,"name":"City of Treasure Island","admin3":"7170908"},{"geonameid":7171138,"name":"Town of Indian Shores","admin3":"7171138"},{"geonameid":7171186,"name":"Town of Kenneth City","admin3":"7171186"},{"geonameid":7172226,"name":"Town of North Redington Beach","admin3":"7172226"},{"geonameid":7172403,"name":"Town of Redington Beach","admin3":"7172403"},{"geonameid":7172404,"name":"Town of Redington Shores","admin3":"7172404"},{"geonameid":7318106,"name":"City of Saint Petersburg","admin3":"7318106"}],"alternateNames":[{"alternatenameId":2080779,"geonameid":4155751,"isoLanguage":"en","alternateName":"Florida","isPreferredName":true,"isShortName":true,"isColloquial":false,"isHistoric":false}]},"__N_SSG":true}