{"pageProps":{"locale":"en","admin2":{"geonameid":4171153,"name":"Saint Johns County","country":"US","admin1":"FL","admin2":"109","admin3":"","latitude":"29.9121800","longitude":"-81.4098900"},"admin1":{"geonameid":4155751,"name":"Florida","admin1":"FL","localeAltName":"Florida"},"locations":[{"geonameid":4149453,"name":"Butler Beach","admin3":""},{"geonameid":7315226,"name":"Flagler Estates","admin3":""},{"geonameid":4156331,"name":"Fruit Cove","admin3":""},{"geonameid":7315235,"name":"Nocatee","admin3":""},{"geonameid":4167601,"name":"Palm Valley","admin3":""},{"geonameid":4169060,"name":"Ponte Vedra Beach","admin3":""},{"geonameid":4170894,"name":"Saint Augustine","admin3":""},{"geonameid":4170896,"name":"Saint Augustine Beach","admin3":""},{"geonameid":4170908,"name":"Saint Augustine Shores","admin3":""},{"geonameid":7223060,"name":"Saint Augustine South","admin3":""},{"geonameid":4172206,"name":"Sawgrass","admin3":""},{"geonameid":11704266,"name":"St. Johns","admin3":""},{"geonameid":4176509,"name":"Villano Beach","admin3":""}],"admin3":[{"geonameid":7170758,"name":"City of Saint Augustine","admin3":"7170758"},{"geonameid":7170759,"name":"City of Saint Augustine Beach","admin3":"7170759"},{"geonameid":7171886,"name":"Town of Hastings","admin3":"7171886"}],"alternateNames":[{"alternatenameId":2080779,"geonameid":4155751,"isoLanguage":"en","alternateName":"Florida","isPreferredName":true,"isShortName":true,"isColloquial":false,"isHistoric":false}]},"__N_SSG":true}