{"pageProps":{"locale":"en","admin2":{"geonameid":3333131,"name":"Bradford","country":"GB","admin1":"ENG","admin2":"B4","admin3":"","latitude":"53.8333300","longitude":"-1.8333300","localeAltName":"Bradford"},"admin1":{"geonameid":6269131,"name":"England","admin1":"ENG","localeAltName":"England"},"locations":[{"geonameid":2657680,"name":"Addingham","admin3":"00CX001"},{"geonameid":2657245,"name":"Apperley Bridge","admin3":""},{"geonameid":2656627,"name":"Baildon","admin3":"00CX016"},{"geonameid":2655887,"name":"Ben Rhydding","admin3":"00CX004"},{"geonameid":2655700,"name":"Bierley","admin3":""},{"geonameid":2655642,"name":"Bingley","admin3":"00CX017"},{"geonameid":2654993,"name":"Bradford","admin3":""},{"geonameid":2654285,"name":"Burley in Wharfedale","admin3":"00CX014"},{"geonameid":2654152,"name":"Buttershaw","admin3":"00CX010"},{"geonameid":2652900,"name":"Clayton","admin3":"00CX010"},{"geonameid":11072197,"name":"Cross Roads","admin3":"00CX008"},{"geonameid":2651748,"name":"Cullingworth","admin3":"00CX002"},{"geonameid":2651374,"name":"Denholme","admin3":"00CX003"},{"geonameid":2650838,"name":"Dudley Hill","admin3":"00CX018"},{"geonameid":2649910,"name":"Esholt","admin3":""},{"geonameid":2647278,"name":"Haworth","admin3":"00CX008"},{"geonameid":2646293,"name":"Idle","admin3":"00CX013"},{"geonameid":2646272,"name":"Ilkley","admin3":"00CX004"},{"geonameid":2646197,"name":"Ingrow","admin3":"00CX009"},{"geonameid":2645889,"name":"Keighley","admin3":"00CX009"},{"geonameid":11776854,"name":"Little Germany","admin3":""},{"geonameid":2643479,"name":"Low Moor","admin3":""},{"geonameid":2642743,"name":"Menston","admin3":"00CX015"},{"geonameid":2642592,"name":"Middleton","admin3":"00CX004"},{"geonameid":2641115,"name":"Oakworth","admin3":"00CX008"},{"geonameid":2640731,"name":"Oxenhope","admin3":"00CX005"},{"geonameid":2639792,"name":"Queensbury","admin3":""},{"geonameid":2638652,"name":"Saltaire","admin3":""},{"geonameid":2637958,"name":"Shipley","admin3":""},{"geonameid":2637833,"name":"Silsden","admin3":"00CX006"},{"geonameid":2636963,"name":"Steeton","admin3":"00CX007"},{"geonameid":2635973,"name":"Thornton","admin3":""},{"geonameid":2635697,"name":"Tong","admin3":""},{"geonameid":2635045,"name":"Utley","admin3":"00CX009"},{"geonameid":2633990,"name":"Wibsey","admin3":"00CX018"},{"geonameid":2633880,"name":"Wilsden","admin3":"00CX012"},{"geonameid":2633457,"name":"Wyke","admin3":""}],"admin3":[{"geonameid":7292857,"name":"Denholme","admin3":"00CX003"},{"geonameid":7292858,"name":"Sandy Lane","admin3":"00CX011"},{"geonameid":7292859,"name":"Baildon","admin3":"00CX016"},{"geonameid":7299758,"name":"Cullingworth","admin3":"00CX002"},{"geonameid":7299759,"name":"Oxenhope","admin3":"00CX005"},{"geonameid":7299760,"name":"Steeton with Eastburn","admin3":"00CX007"},{"geonameid":7299761,"name":"Haworth, Cross Roads and Stanbury","admin3":"00CX008"},{"geonameid":7299762,"name":"Burley","admin3":"00CX014"},{"geonameid":7299765,"name":"Trident","admin3":"00CX018"},{"geonameid":7300548,"name":"Addingham","admin3":"00CX001"},{"geonameid":7300549,"name":"Silsden","admin3":"00CX006"},{"geonameid":7300563,"name":"Clayton","admin3":"00CX010"},{"geonameid":7300564,"name":"Menston","admin3":"00CX015"},{"geonameid":7301701,"name":"Ilkley","admin3":"00CX004"},{"geonameid":7301702,"name":"Keighley","admin3":"00CX009"},{"geonameid":7301703,"name":"Wilsden","admin3":"00CX012"},{"geonameid":7301704,"name":"Wrose","admin3":"00CX013"},{"geonameid":7301705,"name":"Harden","admin3":"00CX017"}],"alternateNames":[{"alternatenameId":8666535,"geonameid":3333131,"isoLanguage":"en","alternateName":"Bradford","isPreferredName":true,"isShortName":true,"isColloquial":false,"isHistoric":false},{"alternatenameId":1626647,"geonameid":6269131,"isoLanguage":"en","alternateName":"England","isPreferredName":true,"isShortName":true,"isColloquial":false,"isHistoric":false}]},"__N_SSG":true}