{"pageProps":{"locale":"en","admin2":{"geonameid":2637532,"name":"Somerset","country":"GB","admin1":"ENG","admin2":"M3","admin3":"","latitude":"51.0833300","longitude":"-3.0000000"},"admin1":{"geonameid":6269131,"name":"England","admin1":"ENG","localeAltName":"England"},"locations":[{"geonameid":2657589,"name":"Aisholt","admin3":"40UC"},{"geonameid":2657511,"name":"Alford","admin3":"40UD"},{"geonameid":3345411,"name":"Alhampton","admin3":"40UB"},{"geonameid":2657484,"name":"Aller","admin3":"40UD"},{"geonameid":3345352,"name":"Allerford","admin3":"40UF"},{"geonameid":2657313,"name":"Angersleigh","admin3":"40UE"},{"geonameid":11592756,"name":"Ash","admin3":"40UD"},{"geonameid":2656927,"name":"Ash Priors","admin3":"40UE"},{"geonameid":2656965,"name":"Ashcott","admin3":"40UC"},{"geonameid":2656851,"name":"Athelney","admin3":"40UE"},{"geonameid":2656730,"name":"Axbridge","admin3":"40UC"},{"geonameid":2656648,"name":"Badgworth","admin3":"40UC"},{"geonameid":2656428,"name":"Baltonsborough","admin3":"40UB"},{"geonameid":2656256,"name":"Barrington","admin3":"40UD"},{"geonameid":2656209,"name":"Barton Saint David","admin3":"40UD"},{"geonameid":11593091,"name":"Barwick","admin3":"40UD"},{"geonameid":2656190,"name":"Bason Bridge","admin3":"40UC"},{"geonameid":2656174,"name":"Batcombe","admin3":"40UB"},{"geonameid":2656055,"name":"Beckington","admin3":"40UB"},{"geonameid":2655857,"name":"Berkley","admin3":"40UB"},{"geonameid":2655838,"name":"Berrow","admin3":"40UC"},{"geonameid":2655717,"name":"Bicknoller","admin3":"40UF"},{"geonameid":2655646,"name":"Binegar","admin3":"40UB"},{"geonameid":2655564,"name":"Bishops Lydeard","admin3":"40UE"},{"geonameid":3345372,"name":"Blackford","admin3":"40UC"},{"geonameid":2655326,"name":"Blue Anchor","admin3":"40UF"},{"geonameid":2655139,"name":"Bossington","admin3":"40UF"},{"geonameid":2654994,"name":"Bradford","admin3":"40UE"},{"geonameid":6619766,"name":"Bradley Cross","admin3":"40UC"},{"geonameid":3345357,"name":"Bratton","admin3":"40UF"},{"geonameid":2654829,"name":"Brean","admin3":"40UC"},{"geonameid":2654786,"name":"Brent Knoll","admin3":"40UC"},{"geonameid":3345355,"name":"Bridgetown","admin3":"40UF"},{"geonameid":2654730,"name":"Bridgwater","admin3":"40UC"},{"geonameid":2654629,"name":"Broadway","admin3":"40UD"},{"geonameid":2654582,"name":"Brompton Ralph","admin3":"40UF"},{"geonameid":2654581,"name":"Brompton Regis","admin3":"40UF"},{"geonameid":3345368,"name":"Broomfield","admin3":"40UC"},{"geonameid":2654455,"name":"Brushford","admin3":"40UF"},{"geonameid":2654454,"name":"Bruton","admin3":"40UD"},{"geonameid":2654401,"name":"Buckland Dinham","admin3":"40UB"},{"geonameid":2654269,"name":"Burnham-on-Sea","admin3":"40UC"},{"geonameid":3345373,"name":"Burtle","admin3":"40UC"},{"geonameid":3345383,"name":"Burton","admin3":"40UF"},{"geonameid":2654163,"name":"Butleigh","admin3":"40UB"},{"geonameid":11592623,"name":"Cannington","admin3":"40UC"},{"geonameid":9199904,"name":"Capton","admin3":"40UF"},{"geonameid":2653792,"name":"Carhampton","admin3":"40UF"},{"geonameid":2653601,"name":"Castle Cary","admin3":"40UD"},{"geonameid":11592779,"name":"Catcott","admin3":"40UC"},{"geonameid":2653371,"name":"Chapel Allerton","admin3":"40UC"},{"geonameid":2653346,"name":"Chard","admin3":"40UD"},{"geonameid":2653329,"name":"Charlton","admin3":"40UB"},{"geonameid":11592604,"name":"Charlton Horethorne","admin3":"40UD"},{"geonameid":2653323,"name":"Charlton Mackrell","admin3":"40UD"},{"geonameid":2653321,"name":"Charlton Musgrove","admin3":"40UD"},{"geonameid":6619736,"name":"Charterhouse","admin3":"40UB"},{"geonameid":2653281,"name":"Cheddar","admin3":"40UC"},{"geonameid":2653275,"name":"Chedzoy","admin3":"40UC"},{"geonameid":2653226,"name":"Chesterblade","admin3":"40UB"},{"geonameid":2653195,"name":"Chewton Mendip","admin3":"40UB"},{"geonameid":2653175,"name":"Chilcompton","admin3":"40UB"},{"geonameid":2653161,"name":"Chillington","admin3":"40UD"},{"geonameid":6640031,"name":"Chilthorne Domer","admin3":"40UD"},{"geonameid":11592629,"name":"Chilton Polden","admin3":"40UC"},{"geonameid":3345381,"name":"Chilton Trinity","admin3":"40UC"},{"geonameid":2653146,"name":"Chinnock","admin3":"40UD"},{"geonameid":9256227,"name":"Chipley","admin3":"40UE"},{"geonameid":2653135,"name":"Chipstable","admin3":"40UE"},{"geonameid":2653127,"name":"Chiselborough","admin3":"40UD"},{"geonameid":2652928,"name":"Clatworthy","admin3":"40UF"},{"geonameid":3345393,"name":"Cocklake","admin3":"40UC"},{"geonameid":2652597,"name":"Cole","admin3":"40UD"},{"geonameid":11592778,"name":"Coleford","admin3":"40UB"},{"geonameid":2652509,"name":"Combe Florey","admin3":"40UE"},{"geonameid":2652501,"name":"Combe Saint Nicholas","admin3":"40UD"},{"geonameid":10377127,"name":"Compton Bishop Village","admin3":"40UC"},{"geonameid":2652490,"name":"Compton Dundon","admin3":"40UD"},{"geonameid":2652375,"name":"Corfe","admin3":"40UE"},{"geonameid":6620326,"name":"Corton Denham","admin3":"40UD"},{"geonameid":2652291,"name":"Cossington","admin3":"40UC"},{"geonameid":2652286,"name":"Cote","admin3":"40UC"},{"geonameid":2652280,"name":"Cothelstone","admin3":"40UE"},{"geonameid":8063453,"name":"Coxley","admin3":"40UB"},{"geonameid":2634461,"name":"Cranmore","admin3":"40UB"},{"geonameid":2652030,"name":"Creech Saint Michael","admin3":"40UE"},{"geonameid":2652000,"name":"Crewkerne","admin3":"40UD"},{"geonameid":6620324,"name":"Cricket St Thomas","admin3":"40UD"},{"geonameid":3345408,"name":"Croscombe","admin3":"40UB"},{"geonameid":6619748,"name":"Cross","admin3":"40UC"},{"geonameid":2651851,"name":"Crowcombe","admin3":"40UF"},{"geonameid":2651787,"name":"Cucklington","admin3":"40UD"},{"geonameid":2651764,"name":"Culbone","admin3":"40UF"},{"geonameid":2651692,"name":"Curland","admin3":"40UE"},{"geonameid":2651682,"name":"Curry Mallet","admin3":"40UD"},{"geonameid":2651680,"name":"Curry Rivel","admin3":"40UD"},{"geonameid":2651668,"name":"Cutcombe","admin3":"40UF"},{"geonameid":2651211,"name":"Ditcheat","admin3":"40UB"},{"geonameid":2651175,"name":"Dodington","admin3":"40UF"},{"geonameid":2651111,"name":"Donyatt","admin3":"40UD"},{"geonameid":6693168,"name":"Dowlish Wake","admin3":"40UD"},{"geonameid":2651028,"name":"Downhead","admin3":"40UB"},{"geonameid":2651008,"name":"Draycott","admin3":"40UB"},{"geonameid":2651004,"name":"Drayton","admin3":"40UD"},{"geonameid":7522246,"name":"Dulcote","admin3":"40UB"},{"geonameid":2650804,"name":"Dulverton","admin3":"40UF"},{"geonameid":2650777,"name":"Dunball","admin3":"40UC"},{"geonameid":2650750,"name":"Dundon","admin3":"40UD"},{"geonameid":2650654,"name":"Dunster","admin3":"40UF"},{"geonameid":2650625,"name":"Durleigh","admin3":"40UC"},{"geonameid":2650612,"name":"Durston","admin3":"40UE"},{"geonameid":3345388,"name":"East Brent","admin3":"40UC"},{"geonameid":2650483,"name":"East Chinnock","admin3":"40UD"},{"geonameid":2650475,"name":"East Cranmore","admin3":"40UB"},{"geonameid":7535662,"name":"East Horrington","admin3":"40UB"},{"geonameid":3345376,"name":"East Huntspill","admin3":"40UC"},{"geonameid":2650383,"name":"East Lydford","admin3":"40UB"},{"geonameid":2650356,"name":"East Pennard","admin3":"40UB"},{"geonameid":2650350,"name":"East Quantoxhead","admin3":"40UF"},{"geonameid":11071947,"name":"East Woodlands","admin3":"40UB"},{"geonameid":2650219,"name":"Edington","admin3":"40UC"},{"geonameid":6693024,"name":"Edingworth","admin3":"40UC"},{"geonameid":3345378,"name":"Edithmead","admin3":"40UC"},{"geonameid":10377814,"name":"Ellicombe","admin3":"40UF"},{"geonameid":11071936,"name":"Elliot's Green","admin3":"40UB"},{"geonameid":2650026,"name":"Elworthy","admin3":"40UF"},{"geonameid":2650010,"name":"Emborough","admin3":"40UB"},{"geonameid":2649986,"name":"Enmore","admin3":"40UC"},{"geonameid":2649842,"name":"Evercreech","admin3":"40UB"},{"geonameid":2649806,"name":"Exford","admin3":"40UF"},{"geonameid":2649797,"name":"Exton","admin3":"40UF"},{"geonameid":11073434,"name":"Farleigh Hungerford","admin3":"40UB"},{"geonameid":3345397,"name":"Faulkland","admin3":"40UB"},{"geonameid":2649572,"name":"Feltham","admin3":"40UE"},{"geonameid":2649350,"name":"Fitzhead","admin3":"40UE"},{"geonameid":2649348,"name":"Fivehead","admin3":"40UD"},{"geonameid":2649024,"name":"Frome","admin3":"40UB"},{"geonameid":2648559,"name":"Glastonbury","admin3":"40UB"},{"geonameid":2648378,"name":"Goathurst","admin3":"40UC"},{"geonameid":2648367,"name":"Godney","admin3":"40UB"},{"geonameid":11071959,"name":"Great Elm","admin3":"40UB"},{"geonameid":11496571,"name":"Greenham","admin3":"40UE"},{"geonameid":2647925,"name":"Greinton","admin3":"40UC"},{"geonameid":2647607,"name":"Halse","admin3":"40UE"},{"geonameid":2647496,"name":"Hardington","admin3":"40UB"},{"geonameid":2647369,"name":"Haselbury Plucknett","admin3":"40UD"},{"geonameid":2647352,"name":"Hatch Beauchamp","admin3":"40UE"},{"geonameid":2647296,"name":"Hawkaller","admin3":"40UE"},{"geonameid":2647286,"name":"Hawkridge","admin3":"40UF"},{"geonameid":6693561,"name":"Henlade","admin3":"40UE"},{"geonameid":2647088,"name":"Henstridge","admin3":"40UD"},{"geonameid":2647087,"name":"Henton","admin3":"40UB"},{"geonameid":2646952,"name":"High Ham","admin3":"40UD"},{"geonameid":2646977,"name":"Highbridge","admin3":"40UC"},{"geonameid":2646964,"name":"Higher Wambrook","admin3":"40UD"},{"geonameid":10376359,"name":"Hindon","admin3":"40UF"},{"geonameid":2646842,"name":"Hinton St George","admin3":"40UD","localeAltName":"Hinton St George"},{"geonameid":2646775,"name":"Holcombe","admin3":"40UB"},{"geonameid":2646762,"name":"Holford","admin3":"40UF"},{"geonameid":10376360,"name":"Holnicote","admin3":"40UF"},{"geonameid":3345414,"name":"Holton","admin3":"40UD"},{"geonameid":2646599,"name":"Hornblotton","admin3":"40UB"},{"geonameid":3345409,"name":"Hornblotton Green","admin3":"40UB"},{"geonameid":11593305,"name":"Horsington","admin3":"40UD"},{"geonameid":11592735,"name":"Horton","admin3":"40UD"},{"geonameid":2646377,"name":"Huntspill","admin3":"40UC"},{"geonameid":2646374,"name":"Hurcot","admin3":"40UD"},{"geonameid":2646279,"name":"Ilchester","admin3":"40UD"},{"geonameid":2646265,"name":"Ilminster","admin3":"40UD"},{"geonameid":2646263,"name":"Ilton","admin3":"40UD"},{"geonameid":2646013,"name":"Isle Brewers","admin3":"40UD"},{"geonameid":11592743,"name":"Keinton Mandeville","admin3":"40UD"},{"geonameid":2645597,"name":"Kilmersdon","admin3":"40UB"},{"geonameid":2645546,"name":"Kilton","admin3":"40UF"},{"geonameid":3345365,"name":"Kilve","admin3":"40UF"},{"geonameid":2645482,"name":"Kingsbury Episcopi","admin3":"40UD"},{"geonameid":2645472,"name":"Kingsdon","admin3":"40UD"},{"geonameid":2645436,"name":"Kingston St Mary","admin3":"40UE"},{"geonameid":2644990,"name":"Lambrook","admin3":"40UD"},{"geonameid":3345407,"name":"Lamyatt","admin3":"40UB"},{"geonameid":6620458,"name":"Langford Budville","admin3":"40UE"},{"geonameid":3345364,"name":"Langley Marsh","admin3":"40UE"},{"geonameid":2644914,"name":"Langport","admin3":"40UD"},{"geonameid":2644650,"name":"Leigh upon Mendip","admin3":"40UB"},{"geonameid":2644656,"name":"Leighton","admin3":"40UB"},{"geonameid":2644503,"name":"Lilstock","admin3":"40UF"},{"geonameid":2644212,"name":"Litton","admin3":"40UB"},{"geonameid":2643670,"name":"Long Load","admin3":"40UD"},{"geonameid":2643626,"name":"Long Sutton","admin3":"40UD"},{"geonameid":6619734,"name":"Longbottom","admin3":"40UC"},{"geonameid":2643602,"name":"Lopen","admin3":"40UD"},{"geonameid":6693167,"name":"Lopenhead","admin3":"40UD"},{"geonameid":3345370,"name":"Low Ham","admin3":"40UD"},{"geonameid":11071955,"name":"Lower Watley","admin3":"40UB"},{"geonameid":10377128,"name":"Lower Weare","admin3":"40UC"},{"geonameid":2643448,"name":"Luccombe","admin3":"40UF"},{"geonameid":2643334,"name":"Luxborough","admin3":"40UF"},{"geonameid":3345366,"name":"Lydeard Saint Lawrence","admin3":"40UE"},{"geonameid":2643307,"name":"Lympsham","admin3":"40UC"},{"geonameid":2643294,"name":"Lyng","admin3":"40UC"},{"geonameid":11001286,"name":"Mare Green","admin3":"40UE"},{"geonameid":2643035,"name":"Mark","admin3":"40UC"},{"geonameid":10377813,"name":"Marsh Street","admin3":"40UF"},{"geonameid":11071951,"name":"Marston Bigot","admin3":"40UB"},{"geonameid":2642967,"name":"Marston Magna","admin3":"40UD"},{"geonameid":2642947,"name":"Martock","admin3":"40UD"},{"geonameid":2642844,"name":"Meare","admin3":"40UB"},{"geonameid":2642776,"name":"Mells","admin3":"40UB"},{"geonameid":6947756,"name":"Mendip","admin3":"40UB"},{"geonameid":8299865,"name":"Merriott","admin3":"40UD"},{"geonameid":2642621,"name":"Middle Chinnock","admin3":"40UD"},{"geonameid":2642571,"name":"Middlezoy","admin3":"40UC"},{"geonameid":2642549,"name":"Milborne Port","admin3":"40UD"},{"geonameid":12022228,"name":"Milborne Wick","admin3":"40UD"},{"geonameid":2642457,"name":"Milverton","admin3":"40UE"},{"geonameid":2642450,"name":"Minehead","admin3":"40UF"},{"geonameid":2642418,"name":"Misterton","admin3":"40UD"},{"geonameid":3345358,"name":"Monksilver","admin3":"40UF"},{"geonameid":3345367,"name":"Monkton Heathfield","admin3":"40UE"},{"geonameid":2642308,"name":"Montacute","admin3":"40UD"},{"geonameid":2642058,"name":"Muchelney","admin3":"40UD"},{"geonameid":2642024,"name":"Mudford","admin3":"40UD"},{"geonameid":2641774,"name":"Nether Stowey","admin3":"40UC"},{"geonameid":2641762,"name":"Nettlecombe","admin3":"40UF"},{"geonameid":2641425,"name":"North Barrow","admin3":"40UD"},{"geonameid":2641412,"name":"North Brewham","admin3":"40UD"},{"geonameid":2641409,"name":"North Cadbury","admin3":"40UD"},{"geonameid":2641395,"name":"North Cheriton","admin3":"40UD"},{"geonameid":2641379,"name":"North Curry","admin3":"40UE"},{"geonameid":2641293,"name":"North Newton","admin3":"40UC"},{"geonameid":2641284,"name":"North Petherton","admin3":"40UC"},{"geonameid":2641214,"name":"North Wootton","admin3":"40UB"},{"geonameid":3345374,"name":"Northmoor Green or Moorland","admin3":"40UC"},{"geonameid":2641189,"name":"Norton Fitzwarren","admin3":"40UE"},{"geonameid":2641183,"name":"Norton St Philip","admin3":"40UB"},{"geonameid":2641154,"name":"Nunney","admin3":"40UB"},{"geonameid":11071953,"name":"Nunney Catch","admin3":"40UB"},{"geonameid":2641138,"name":"Nynehead","admin3":"40UE"},{"geonameid":2641131,"name":"Oake","admin3":"40UE"},{"geonameid":2641126,"name":"Oakhill","admin3":"40UB"},{"geonameid":7670876,"name":"Odcombe","admin3":"40UD"},{"geonameid":2640859,"name":"Othery","admin3":"40UC"},{"geonameid":2640847,"name":"Otterford","admin3":"40UE"},{"geonameid":2640843,"name":"Otterhampton","admin3":"40UC"},{"geonameid":2640554,"name":"Pawlett","admin3":"40UC"},{"geonameid":2640411,"name":"Penselwood","admin3":"40UD"},{"geonameid":10376353,"name":"Periton","admin3":"40UF"},{"geonameid":2640282,"name":"Pilton","admin3":"40UB"},{"geonameid":3345412,"name":"Pitcombe","admin3":"40UD"},{"geonameid":2640251,"name":"Pitminster","admin3":"40UE"},{"geonameid":2640250,"name":"Pitney","admin3":"40UD"},{"geonameid":6693560,"name":"Podimore","admin3":"40UD"},{"geonameid":2640150,"name":"Polsham","admin3":"40UB"},{"geonameid":2640088,"name":"Porlock","admin3":"40UF"},{"geonameid":2639894,"name":"Priddy","admin3":"40UB"},{"geonameid":2639844,"name":"Puriton","admin3":"40UC"},{"geonameid":2639822,"name":"Pylle","admin3":"40UB"},{"geonameid":2639795,"name":"Queen Camel","admin3":"40UD"},{"geonameid":2639724,"name":"Raddington","admin3":"40UE"},{"geonameid":2639536,"name":"Redlynch","admin3":"40UD"},{"geonameid":11593381,"name":"Rimpton","admin3":"40UD"},{"geonameid":2639240,"name":"Rode","admin3":"40UB"},{"geonameid":2639230,"name":"Rodney Stoke","admin3":"40UB"},{"geonameid":2639168,"name":"Rooks Bridge","admin3":"40UC"},{"geonameid":6619488,"name":"Rowberrow","admin3":"40UC"},{"geonameid":6619489,"name":"Rowberrow Bottom","admin3":"40UC"},{"geonameid":11593383,"name":"Ruishton","admin3":"40UE"},{"geonameid":2638818,"name":"Saint Decumans","admin3":"40UF"},{"geonameid":2638619,"name":"Sampford Arundel","admin3":"40UE"},{"geonameid":6691806,"name":"Seavington st. Mary","admin3":"40UD"},{"geonameid":6691805,"name":"Seavington st. Michael","admin3":"40UD"},{"geonameid":2638212,"name":"Selworthy","admin3":"40UF"},{"geonameid":2638129,"name":"Shapwick","admin3":"40UC"},{"geonameid":11592755,"name":"Shepton Beauchamp","admin3":"40UD"},{"geonameid":2638035,"name":"Shepton Mallet","admin3":"40UB"},{"geonameid":3345413,"name":"Shepton Montague","admin3":"40UD"},{"geonameid":2637961,"name":"Shipham","admin3":"40UC"},{"geonameid":10345350,"name":"Shurton","admin3":"40UF"},{"geonameid":2637822,"name":"Simonsbath","admin3":"40UF"},{"geonameid":2637714,"name":"Skilgate","admin3":"40UF"},{"geonameid":2637527,"name":"Somerton","admin3":"40UD"},{"geonameid":2637482,"name":"South Barrow","admin3":"40UD"},{"geonameid":2637470,"name":"South Brewham","admin3":"40UD"},{"geonameid":2637466,"name":"South Cadbury","admin3":"40UD"},{"geonameid":2637455,"name":"South Cheriton","admin3":"40UD"},{"geonameid":2637347,"name":"South Petherton","admin3":"40UD"},{"geonameid":2637255,"name":"Sparkford","admin3":"40UD"},{"geonameid":2637251,"name":"Spaxton","admin3":"40UC"},{"geonameid":11071961,"name":"Spring Gardens","admin3":"40UB"},{"geonameid":2637026,"name":"Staple Fitzpaine","admin3":"40UE"},{"geonameid":6619758,"name":"Star","admin3":"40UC"},{"geonameid":3345369,"name":"Stathe","admin3":"40UE"},{"geonameid":2636988,"name":"Stawell","admin3":"40UC"},{"geonameid":2636987,"name":"Stawley","admin3":"40UE"},{"geonameid":2636943,"name":"Steart","admin3":"40UC"},{"geonameid":3345384,"name":"Stockland Bristol","admin3":"40UC"},{"geonameid":2636883,"name":"Stocklinch","admin3":"40UD"},{"geonameid":2636871,"name":"Stogumber","admin3":"40UF"},{"geonameid":2636870,"name":"Stogursey","admin3":"40UF"},{"geonameid":2636835,"name":"Stoke Saint Gregory","admin3":"40UE"},{"geonameid":6691925,"name":"Stoke St Michael","admin3":"40UB"},{"geonameid":8299847,"name":"Stoke-sub-Hamdon","admin3":"40UD"},{"geonameid":2636828,"name":"Stolford","admin3":"40UF"},{"geonameid":6619694,"name":"Ston Easton","admin3":"40UB"},{"geonameid":3345379,"name":"Stone Allerton","admin3":"40UC"},{"geonameid":3345406,"name":"Stoney Stratton","admin3":"40UB"},{"geonameid":2636754,"name":"Stowell","admin3":"40UD"},{"geonameid":2636679,"name":"Stratton-on-the-Fosse","admin3":"40UB"},{"geonameid":2636671,"name":"Street","admin3":"40UB"},{"geonameid":2636489,"name":"Sutton Bingham","admin3":"40UD"},{"geonameid":2636481,"name":"Sutton Mallet","admin3":"40UC"},{"geonameid":2636480,"name":"Sutton Montis","admin3":"40UD"},{"geonameid":2636177,"name":"Taunton","admin3":"40UE"},{"geonameid":2636120,"name":"Templecombe","admin3":"40UD"},{"geonameid":2636046,"name":"Theale","admin3":"40UC"},{"geonameid":2635990,"name":"Thornfalcon","admin3":"40UE"},{"geonameid":2635892,"name":"Thurloxton","admin3":"40UC"},{"geonameid":2635805,"name":"Timberscombe","admin3":"40UF"},{"geonameid":2635790,"name":"Tintinhull","admin3":"40UD"},{"geonameid":10376356,"name":"Tivington","admin3":"40UF"},{"geonameid":2635728,"name":"Tolland","admin3":"40UE"},{"geonameid":2635552,"name":"Treborough","admin3":"40UF"},{"geonameid":3345415,"name":"Trudoxhill","admin3":"40UB"},{"geonameid":2635419,"name":"Trull","admin3":"40UE"},{"geonameid":6619733,"name":"Tynings Farm","admin3":"40UC"},{"geonameid":11071949,"name":"Tytherington","admin3":"40UB"},{"geonameid":10345357,"name":"Up Mudford","admin3":"40UD"},{"geonameid":2635098,"name":"Upton","admin3":"40UF"},{"geonameid":2635085,"name":"Upton Noble","admin3":"40UB"},{"geonameid":2634837,"name":"Walton","admin3":"40UB"},{"geonameid":2634819,"name":"Wambrook","admin3":"40UD"},{"geonameid":2634802,"name":"Wanstrow","admin3":"40UB"},{"geonameid":2634719,"name":"Washford","admin3":"40UF"},{"geonameid":2634704,"name":"Watchet","admin3":"40UF"},{"geonameid":3345377,"name":"Watchfield","admin3":"40UC"},{"geonameid":3345363,"name":"Waterrow","admin3":"40UE"},{"geonameid":11071956,"name":"Watley Village","admin3":"40UB"},{"geonameid":2634633,"name":"Weare","admin3":"40UC"},{"geonameid":10377125,"name":"Webbington","admin3":"40UC"},{"geonameid":2634618,"name":"Wedmore","admin3":"40UC"},{"geonameid":2634575,"name":"Wellington","admin3":"40UE"},{"geonameid":2634569,"name":"Wells","admin3":"40UB"},{"geonameid":3345382,"name":"Wembdon","admin3":"40UC"},{"geonameid":2634509,"name":"West Bagborough","admin3":"40UE"},{"geonameid":2634490,"name":"West Buckland","admin3":"40UE"},{"geonameid":6693235,"name":"West Camel","admin3":"40UD"},{"geonameid":2634471,"name":"West Chinnock","admin3":"40UD"},{"geonameid":2634468,"name":"West Coker","admin3":"40UD"},{"geonameid":2634395,"name":"West Hatch","admin3":"40UE"},{"geonameid":10345348,"name":"West Horrington","admin3":"40UB"},{"geonameid":2634351,"name":"West Lydford","admin3":"40UB"},{"geonameid":2634339,"name":"West Monkton","admin3":"40UE"},{"geonameid":2634333,"name":"West Myne","admin3":"40UF"},{"geonameid":2634294,"name":"West Pennard","admin3":"40UB"},{"geonameid":2634289,"name":"West Quantoxhead","admin3":"40UF"},{"geonameid":11071948,"name":"West Woodlands","admin3":"40UB"},{"geonameid":2634484,"name":"Westbury-sub-Mendip","admin3":"40UB"},{"geonameid":3345371,"name":"Westhay","admin3":"40UB"},{"geonameid":2634300,"name":"Westonzoyland","admin3":"40UC"},{"geonameid":3345354,"name":"Wheddon Cross","admin3":"40UF"},{"geonameid":2634118,"name":"White Ball","admin3":"40UE"},{"geonameid":11549154,"name":"Whitelackington","admin3":"40UD"},{"geonameid":2633894,"name":"Williton","admin3":"40UF"},{"geonameid":2633875,"name":"Wilton","admin3":"40UE"},{"geonameid":2633861,"name":"Wincanton","admin3":"40UD"},{"geonameid":2633811,"name":"Winsford","admin3":"40UF"},{"geonameid":2633809,"name":"Winsham","admin3":"40UD"},{"geonameid":6691924,"name":"Witham Friary","admin3":"40UB"},{"geonameid":2633734,"name":"Withycombe","admin3":"40UF"},{"geonameid":2633732,"name":"Withypool","admin3":"40UF"},{"geonameid":2633720,"name":"Wiveliscombe","admin3":"40UE"},{"geonameid":10376354,"name":"Woodcombe","admin3":"40UF"},{"geonameid":2633610,"name":"Wookey","admin3":"40UB"},{"geonameid":3345375,"name":"Woolavington","admin3":"40UC"},{"geonameid":7303370,"name":"Woolminstone","admin3":"40UD"},{"geonameid":2633584,"name":"Woolverton","admin3":"40UB"},{"geonameid":3345356,"name":"Wootton Courtenay","admin3":"40UF"},{"geonameid":7870532,"name":"Wrantage","admin3":"40UE"},{"geonameid":3345410,"name":"Wraxall","admin3":"40UB"},{"geonameid":10376358,"name":"Wydon","admin3":"40UF"},{"geonameid":8858003,"name":"Wyke Champflower","admin3":"40UD"},{"geonameid":2633416,"name":"Yarlington","admin3":"40UD"},{"geonameid":2633373,"name":"Yeovil","admin3":"40UD"},{"geonameid":11549389,"name":"Yeovil Marsh","admin3":"40UD"},{"geonameid":2633371,"name":"Yeovilton","admin3":"40UD"}],"admin3":[{"geonameid":7290623,"name":"Mendip District","admin3":"40UB"},{"geonameid":7290624,"name":"Sedgemoor District","admin3":"40UC"},{"geonameid":7290625,"name":"South Somerset District","admin3":"40UD"},{"geonameid":7290626,"name":"Taunton Deane District","admin3":"40UE"},{"geonameid":7290627,"name":"West Somerset District","admin3":"40UF"}],"alternateNames":[{"alternatenameId":7666729,"geonameid":2646842,"isoLanguage":"en","alternateName":"Hinton St George","isPreferredName":true,"isShortName":true,"isColloquial":false,"isHistoric":false},{"alternatenameId":1626647,"geonameid":6269131,"isoLanguage":"en","alternateName":"England","isPreferredName":true,"isShortName":true,"isColloquial":false,"isHistoric":false}]},"__N_SSG":true}