{"pageProps":{"locale":"en","admin2":{"geonameid":6544289,"name":"Gemeente Hof van Twente","country":"NL","admin1":"15","admin2":"1735","admin3":"","latitude":"52.2434100","longitude":"6.5974900"},"admin1":{"geonameid":2748838,"name":"Provincie Overijssel","admin1":"15"},"locations":[{"geonameid":2760024,"name":"Achterhoek","admin3":""},{"geonameid":11395895,"name":"Ambt Delden","admin3":""},{"geonameid":2759586,"name":"Azelo","admin3":""},{"geonameid":2759180,"name":"Bentelo","admin3":""},{"geonameid":2759008,"name":"Beusbergen","admin3":""},{"geonameid":2757370,"name":"Delden","admin3":""},{"geonameid":2757369,"name":"Deldenerbroek","admin3":""},{"geonameid":2757368,"name":"Deldeneresch","admin3":""},{"geonameid":2756878,"name":"Diepenheim","admin3":""},{"geonameid":2756180,"name":"Elsen","admin3":""},{"geonameid":2756177,"name":"Elsenerbroek","admin3":""},{"geonameid":2755449,"name":"Goor","admin3":""},{"geonameid":2754389,"name":"Hengevelde","admin3":""},{"geonameid":2754358,"name":"Herike","admin3":""},{"geonameid":2752908,"name":"Kerspel","admin3":""},{"geonameid":2752907,"name":"Kerspel-Goor","admin3":""},{"geonameid":2752132,"name":"Kwartierdorp","admin3":""},{"geonameid":2751161,"name":"Markelo","admin3":""},{"geonameid":2751158,"name":"Markeloschebroek","admin3":""},{"geonameid":2751142,"name":"Markvelde","admin3":""},{"geonameid":2748476,"name":"Pothoek","admin3":""},{"geonameid":2747522,"name":"Schoolbuurt","admin3":""},{"geonameid":2746672,"name":"Stokkum","admin3":""},{"geonameid":2746671,"name":"Stokkumerbroek","admin3":""},{"geonameid":2745226,"name":"Vossenbrink","admin3":""},{"geonameid":2744554,"name":"Wiene","admin3":""},{"geonameid":2743973,"name":"Zeldam","admin3":""}],"admin3":[],"alternateNames":[{"alternatenameId":11907794,"geonameid":2748838,"isoLanguage":"de","alternateName":"Overijssel","isPreferredName":true,"isShortName":true,"isColloquial":false,"isHistoric":false}]},"__N_SSG":true}