{"pageProps":{"locale":"en","admin2":{"geonameid":4683066,"name":"Cooke County","country":"US","admin1":"TX","admin2":"097","admin3":"","latitude":"33.6391900","longitude":"-97.2126200","localeAltName":null},"admin1":{"geonameid":4736286,"name":"Texas","admin1":"TX","localeAltName":"Texas"},"locations":[{"geonameid":4692746,"name":"Gainesville","admin3":"","localeAltName":null},{"geonameid":4704655,"name":"Lake Kiowa","admin3":"","localeAltName":null},{"geonameid":4706431,"name":"Lindsay","admin3":"","localeAltName":null},{"geonameid":4713351,"name":"Muenster","admin3":"","localeAltName":null},{"geonameid":4738850,"name":"Valley View","admin3":"","localeAltName":null}],"admin3":[{"geonameid":7173107,"name":"City of Callisburg","admin3":"7173107"},{"geonameid":7173469,"name":"City of Gainesville","admin3":"7173469"},{"geonameid":7173913,"name":"City of Muenster","admin3":"7173913"},{"geonameid":7175312,"name":"City of Lindsay","admin3":"7175312"},{"geonameid":7175472,"name":"Town of Oak Ridge","admin3":"7175472"},{"geonameid":7175819,"name":"City of Valley View","admin3":"7175819"}],"alternateNames":[{"alternatenameId":1614423,"geonameid":4736286,"isoLanguage":"en","alternateName":"Texas","isPreferredName":true,"isShortName":true,"isColloquial":false,"isHistoric":false}]},"__N_SSG":true}