{"pageProps":{"locale":"en","admin2":{"geonameid":2754999,"name":"Gemeente Haarlemmermeer","country":"NL","admin1":"07","admin2":"0394","admin3":"","latitude":"52.3062300","longitude":"4.6841800"},"admin1":{"geonameid":2749879,"name":"Provincie Noord-Holland","admin1":"07"},"locations":[{"geonameid":2760132,"name":"Aalsmeerderbrug","admin3":""},{"geonameid":2760073,"name":"Abbenes","admin3":""},{"geonameid":2759524,"name":"Badhoevedorp","admin3":""},{"geonameid":2759266,"name":"Beinsdorp","admin3":""},{"geonameid":2758722,"name":"Boesingheliede","admin3":""},{"geonameid":2758138,"name":"Buitenkaag","admin3":""},{"geonameid":2758085,"name":"Burgerveen","admin3":""},{"geonameid":2757875,"name":"Cruquius","admin3":""},{"geonameid":2757534,"name":"De Hoek","admin3":""},{"geonameid":2755001,"name":"Haarlemmerliede","admin3":""},{"geonameid":2754943,"name":"Halfweg","admin3":""},{"geonameid":2753801,"name":"Hoofddorp","admin3":""},{"geonameid":2753523,"name":"Huigsloot","admin3":""},{"geonameid":2746263,"name":"Kabel","admin3":""},{"geonameid":2751748,"name":"Leimuiderbrug","admin3":""},{"geonameid":2751605,"name":"Lijnden","admin3":""},{"geonameid":2751544,"name":"Lisserbroek","admin3":""},{"geonameid":2750121,"name":"Nieuw-Vennep","admin3":""},{"geonameid":2750297,"name":"Nieuwe Meer","admin3":""},{"geonameid":2750345,"name":"Nieuwebrug","admin3":""},{"geonameid":2749063,"name":"Oude Meer","admin3":""},{"geonameid":2748654,"name":"Penningsveer","admin3":""},{"geonameid":2748086,"name":"Rijsenhout","admin3":""},{"geonameid":2747869,"name":"Rozenburg","admin3":""},{"geonameid":10173839,"name":"Schiphol","admin3":""},{"geonameid":10173838,"name":"Schiphol-Rijk","admin3":""},{"geonameid":2746986,"name":"Spaarndam","admin3":""},{"geonameid":2746983,"name":"Spaarnwoude","admin3":""},{"geonameid":2745528,"name":"Vijfhuizen","admin3":""},{"geonameid":2745506,"name":"Vinkebrug","admin3":""},{"geonameid":2744946,"name":"Weberbuurt","admin3":""},{"geonameid":2744592,"name":"Weteringbrug","admin3":""},{"geonameid":2743588,"name":"Zwaanshoek","admin3":""},{"geonameid":2743574,"name":"Zwanenburg","admin3":""}],"admin3":[],"alternateNames":[]},"__N_SSG":true}