{"pageProps":{"locale":"de","admin2":{"geonameid":8260136,"name":"Biel/Bienne District","country":"CH","admin1":"BE","admin2":"242","admin3":"","latitude":"47.1272500","longitude":"7.2617400"},"admin1":{"geonameid":2661551,"name":"Canton de Berne","admin1":"BE"},"locations":[{"geonameid":2661566,"name":"Bellmund","admin3":"732"},{"geonameid":2661513,"name":"Biel/Bienne","admin3":"371"},{"geonameid":2661375,"name":"Brügg","admin3":"733"},{"geonameid":2660842,"name":"Evilard","admin3":"372"},{"geonameid":2659957,"name":"Lengnau","admin3":"387"},{"geonameid":2659890,"name":"Ligerz","admin3":"740"},{"geonameid":2659791,"name":"Magglingen","admin3":"372"},{"geonameid":2659701,"name":"Meinisberg","admin3":"390"},{"geonameid":2659584,"name":"Mörigen","admin3":"742"},{"geonameid":2659474,"name":"Nidau","admin3":"743"},{"geonameid":2659282,"name":"Orpund","admin3":"744"},{"geonameid":2659203,"name":"Pieterlen","admin3":"392"},{"geonameid":2658284,"name":"Twann","admin3":"756"}],"admin3":[{"geonameid":7285026,"name":"Aegerten","admin3":"731"},{"geonameid":7285190,"name":"Bellmund","admin3":"732"},{"geonameid":7285241,"name":"Biel/Bienne","admin3":"371"},{"geonameid":7285349,"name":"Brügg","admin3":"733"},{"geonameid":7285785,"name":"Evilard/Leubringen","admin3":"372"},{"geonameid":7286146,"name":"Ipsach","admin3":"739"},{"geonameid":7286313,"name":"Lengnau (BE)","admin3":"387"},{"geonameid":7286350,"name":"Ligerz","admin3":"740"},{"geonameid":7286474,"name":"Meinisberg","admin3":"390"},{"geonameid":7286555,"name":"Mörigen","admin3":"742"},{"geonameid":7286633,"name":"Nidau","admin3":"743"},{"geonameid":7286753,"name":"Orpund","admin3":"744"},{"geonameid":7286797,"name":"Pieterlen","admin3":"392"},{"geonameid":7286820,"name":"Port","admin3":"745"},{"geonameid":7287013,"name":"Safnern","admin3":"746"},{"geonameid":7287083,"name":"Scheuren","admin3":"747"},{"geonameid":7287119,"name":"Schwadernau","admin3":"748"},{"geonameid":7287271,"name":"Sutz-Lattrigen","admin3":"750"},{"geonameid":8260351,"name":"Twann-Tüscherz","admin3":"756"}],"alternateNames":[]},"__N_SSG":true}