{"pageProps":{"locale":"de","admin2":{"geonameid":8260141,"name":"Oberaargau","country":"CH","admin1":"BE","admin2":"244","admin3":"","latitude":"47.1920200","longitude":"7.7455300"},"admin1":{"geonameid":2661551,"name":"Canton de Berne","admin1":"BE"},"locations":[{"geonameid":2661874,"name":"Aarwangen","admin3":"321"},{"geonameid":2661692,"name":"Attiswil","admin3":"971"},{"geonameid":2661620,"name":"Bannwil","admin3":"323"},{"geonameid":2660876,"name":"Eriswil","admin3":"953"},{"geonameid":2660566,"name":"Gondiswil","admin3":"326"},{"geonameid":2660355,"name":"Herzogenbuchsee","admin3":"979"},{"geonameid":2660281,"name":"Huttwil","admin3":"954"},{"geonameid":2660147,"name":"Kleindietwil","admin3":"332"},{"geonameid":2660034,"name":"Langenthal","admin3":"329"},{"geonameid":2659845,"name":"Lotzwil","admin3":"331"},{"geonameid":2659805,"name":"Madiswil","admin3":"332"},{"geonameid":2659695,"name":"Melchnau","admin3":"333"},{"geonameid":2659470,"name":"Niederbipp","admin3":"981"},{"geonameid":2659408,"name":"Oberbipp","admin3":"983"},{"geonameid":2659364,"name":"Oberönz","admin3":"979"},{"geonameid":2659314,"name":"Ochlenberg","admin3":"985"},{"geonameid":2658994,"name":"Roggwil","admin3":"337"},{"geonameid":2658991,"name":"Rohrbach","admin3":"338"},{"geonameid":2658655,"name":"Seeberg","admin3":"988"},{"geonameid":2658219,"name":"Ursenbach","admin3":"344"},{"geonameid":2658057,"name":"Walterswil","admin3":"959"},{"geonameid":2658052,"name":"Wangen an der Aare","admin3":"992"},{"geonameid":2658006,"name":"Wiedlisbach","admin3":"995"},{"geonameid":2657945,"name":"Wynau","admin3":"345"},{"geonameid":2657943,"name":"Wyssachen","admin3":"960"}],"admin3":[{"geonameid":7285016,"name":"Aarwangen","admin3":"321"},{"geonameid":7285113,"name":"Attiswil","admin3":"971"},{"geonameid":7285120,"name":"Auswil","admin3":"322"},{"geonameid":7285152,"name":"Bannwil","admin3":"323"},{"geonameid":7285210,"name":"Berken","admin3":"972"},{"geonameid":7285222,"name":"Bettenhausen","admin3":"973"},{"geonameid":7285268,"name":"Bleienbach","admin3":"324"},{"geonameid":7285406,"name":"Busswil bei Melchnau","admin3":"325"},{"geonameid":7285746,"name":"Eriswil","admin3":"953"},{"geonameid":7285797,"name":"Farnern","admin3":"975"},{"geonameid":7285938,"name":"Gondiswil","admin3":"326"},{"geonameid":7285951,"name":"Graben","admin3":"976"},{"geonameid":7286050,"name":"Heimenhausen","admin3":"977"},{"geonameid":7286078,"name":"Herzogenbuchsee","admin3":"979"},{"geonameid":7286128,"name":"Huttwil","admin3":"954"},{"geonameid":7286139,"name":"Inkwil","admin3":"980"},{"geonameid":7286259,"name":"Langenthal","admin3":"329"},{"geonameid":7286375,"name":"Lotzwil","admin3":"331"},{"geonameid":7286412,"name":"Madiswil","admin3":"332"},{"geonameid":7286477,"name":"Melchnau","admin3":"333"},{"geonameid":7286634,"name":"Niederbipp","admin3":"981"},{"geonameid":7286646,"name":"Niederönz","admin3":"982"},{"geonameid":7286674,"name":"Oberbipp","admin3":"983"},{"geonameid":7286726,"name":"Ochlenberg","admin3":"985"},{"geonameid":7286729,"name":"Oeschenbach","admin3":"335"},{"geonameid":7286878,"name":"Reisiswil","admin3":"336"},{"geonameid":7286929,"name":"Roggwil (BE)","admin3":"337"},{"geonameid":7286932,"name":"Rohrbach","admin3":"338"},{"geonameid":7286933,"name":"Rohrbachgraben","admin3":"339"},{"geonameid":7286982,"name":"Rumisberg","admin3":"987"},{"geonameid":7287002,"name":"Rütschelen","admin3":"340"},{"geonameid":7287124,"name":"Schwarzhäusern","admin3":"341"},{"geonameid":7287131,"name":"Seeberg","admin3":"988"},{"geonameid":7287305,"name":"Thörigen","admin3":"989"},{"geonameid":7287308,"name":"Thunstetten","admin3":"342"},{"geonameid":7287393,"name":"Ursenbach","admin3":"344"},{"geonameid":7287530,"name":"Walliswil bei Niederbipp","admin3":"990"},{"geonameid":7287531,"name":"Walliswil bei Wangen","admin3":"991"},{"geonameid":7287536,"name":"Walterswil (BE)","admin3":"959"},{"geonameid":7287539,"name":"Wangen an der Aare","admin3":"992"},{"geonameid":7287542,"name":"Wangenried","admin3":"993"},{"geonameid":7287568,"name":"Wiedlisbach","admin3":"995"},{"geonameid":7287616,"name":"Wynau","admin3":"345"},{"geonameid":7287618,"name":"Wyssachen","admin3":"960"}],"alternateNames":[]},"__N_SSG":true}