{"pageProps":{"locale":"de","admin2":{"geonameid":8260138,"name":"Thun District","country":"CH","admin1":"BE","admin2":"247","admin3":"","latitude":"46.7629000","longitude":"7.6250300"},"admin1":{"geonameid":2661551,"name":"Canton de Berne","admin1":"BE"},"locations":[{"geonameid":2661755,"name":"Amsoldingen","admin3":"921"},{"geonameid":2661467,"name":"Blumenstein","admin3":"943"},{"geonameid":2661352,"name":"Buchholterberg","admin3":"923"},{"geonameid":2661318,"name":"Burgistein","admin3":"863"},{"geonameid":2660875,"name":"Eriz","admin3":"932"},{"geonameid":2660833,"name":"Fahrni","admin3":"925"},{"geonameid":2660391,"name":"Heiligenschwendi","admin3":"927"},{"geonameid":2660390,"name":"Heimberg","admin3":"928"},{"geonameid":2660351,"name":"Hilterfingen","admin3":"929"},{"geonameid":2659338,"name":"Oberstocken","admin3":"770"},{"geonameid":2659067,"name":"Reutigen","admin3":"767"},{"geonameid":2658642,"name":"Seftigen","admin3":"883"},{"geonameid":2658597,"name":"Sigriswil","admin3":"938"},{"geonameid":2658494,"name":"Steffisburg","admin3":"939"},{"geonameid":2658394,"name":"Teuffenthal","admin3":"940"},{"geonameid":2658382,"name":"Thierachern","admin3":"941"},{"geonameid":2658377,"name":"Thun","admin3":"942"},{"geonameid":2658277,"name":"Uetendorf","admin3":"944"},{"geonameid":2658213,"name":"Uttigen","admin3":"944"},{"geonameid":2658083,"name":"Wachseldorn","admin3":"946"},{"geonameid":2658043,"name":"Wattenwil","admin3":"886"}],"admin3":[{"geonameid":7285074,"name":"Amsoldingen","admin3":"921"},{"geonameid":7285273,"name":"Blumenstein","admin3":"922"},{"geonameid":7285368,"name":"Buchholterberg","admin3":"923"},{"geonameid":7285393,"name":"Burgistein","admin3":"863"},{"geonameid":7285747,"name":"Eriz","admin3":"924"},{"geonameid":7285788,"name":"Fahrni","admin3":"925"},{"geonameid":7285856,"name":"Forst-Längenbühl","admin3":"948"},{"geonameid":7286011,"name":"Gurzelen","admin3":"867"},{"geonameid":7286048,"name":"Heiligenschwendi","admin3":"927"},{"geonameid":7286049,"name":"Heimberg","admin3":"928"},{"geonameid":7286083,"name":"Hilterfingen","admin3":"929"},{"geonameid":7286105,"name":"Homberg","admin3":"931"},{"geonameid":7286113,"name":"Horrenbach-Buchen","admin3":"932"},{"geonameid":7286697,"name":"Oberhofen am Thunersee","admin3":"934"},{"geonameid":7286702,"name":"Oberlangenegg","admin3":"935"},{"geonameid":7286806,"name":"Pohlern","admin3":"936"},{"geonameid":7286888,"name":"Reutigen","admin3":"767"},{"geonameid":7287140,"name":"Seftigen","admin3":"883"},{"geonameid":7287170,"name":"Sigriswil","admin3":"938"},{"geonameid":7287224,"name":"Steffisburg","admin3":"939"},{"geonameid":7287295,"name":"Teuffenthal (BE)","admin3":"940"},{"geonameid":7287302,"name":"Thierachern","admin3":"941"},{"geonameid":7287306,"name":"Thun","admin3":"942"},{"geonameid":7287359,"name":"Uebeschi","admin3":"943"},{"geonameid":7287363,"name":"Uetendorf","admin3":"944"},{"geonameid":7287381,"name":"Unterlangenegg","admin3":"945"},{"geonameid":7287398,"name":"Uttigen","admin3":"885"},{"geonameid":7287512,"name":"Wachseldorn","admin3":"946"},{"geonameid":7287548,"name":"Wattenwil","admin3":"886"},{"geonameid":7287655,"name":"Zwieselberg","admin3":"947"},{"geonameid":8740953,"name":"Stocken-Höfen","admin3":"770"}],"alternateNames":[]},"__N_SSG":true}