{"pageProps":{"locale":"en","admin2":{"geonameid":2756430,"name":"Gemeente Edam-Volendam","country":"NL","admin1":"07","admin2":"0385","admin3":"","latitude":"52.5055600","longitude":"5.0592000"},"admin1":{"geonameid":2749879,"name":"Provincie Noord-Holland","admin1":"07"},"locations":[{"geonameid":2759590,"name":"Axwijk","admin3":""},{"geonameid":2759280,"name":"Beets","admin3":""},{"geonameid":2756431,"name":"Edam","admin3":""},{"geonameid":2755998,"name":"Etersheim","admin3":""},{"geonameid":2754039,"name":"Hobrede","admin3":""},{"geonameid":2753038,"name":"Katham","admin3":""},{"geonameid":2752140,"name":"Kwadijk","admin3":""},{"geonameid":2750881,"name":"Middelie","admin3":""},{"geonameid":2750543,"name":"Munnikeveld","admin3":""},{"geonameid":2749366,"name":"Oosthuizen","admin3":""},{"geonameid":2747681,"name":"Schardam","admin3":""},{"geonameid":2747307,"name":"Singelwijk","admin3":""},{"geonameid":2745601,"name":"Verloren Einde","admin3":""},{"geonameid":2745340,"name":"Volendam","admin3":""},{"geonameid":2745025,"name":"Warder","admin3":""}],"admin3":[],"alternateNames":[]},"__N_SSG":true}