{"pageProps":{"locale":"it","admin2":{"geonameid":6458617,"name":"Provincia di Lodi","country":"IT","admin1":"09","admin2":"LO","admin3":"","latitude":"45.2963800","longitude":"9.5285800","localeAltName":"Lodi"},"admin1":{"geonameid":3174618,"name":"Lombardia","admin1":"09","localeAltName":"Lombardia"},"locations":[{"geonameid":8949358,"name":"Bargano","admin3":"098060","localeAltName":null},{"geonameid":8950047,"name":"Basiasco","admin3":"098034","localeAltName":null},{"geonameid":3182128,"name":"Bertonico","admin3":"098002","localeAltName":null},{"geonameid":3181946,"name":"Boffalora d'Adda","admin3":"098003","localeAltName":null},{"geonameid":3181835,"name":"Borghetto Lodigiano","admin3":"098004","localeAltName":null},{"geonameid":6535708,"name":"Borgo San Giovanni","admin3":"098005","localeAltName":null},{"geonameid":3181575,"name":"Brembio","admin3":"098006","localeAltName":null},{"geonameid":8949943,"name":"Cadilana","admin3":"098024","localeAltName":null},{"geonameid":8949921,"name":"Calvenzano","admin3":"098012","localeAltName":null},{"geonameid":3181123,"name":"Camairago","admin3":"098062","localeAltName":null},{"geonameid":3180176,"name":"Casalmaiocco","admin3":"098009","localeAltName":null},{"geonameid":3180168,"name":"Casalpusterlengo","admin3":"098010","localeAltName":null},{"geonameid":6535709,"name":"Caselle Landi","admin3":"098011","localeAltName":null},{"geonameid":3179912,"name":"Caselle Lurani","admin3":"098012","localeAltName":null},{"geonameid":8949390,"name":"Cassino d'Alberi","admin3":"098041","localeAltName":null},{"geonameid":3179534,"name":"Castelnuovo Bocca d'Adda","admin3":"098013","localeAltName":null},{"geonameid":3179423,"name":"Castiglione d'Adda","admin3":"098014","localeAltName":null},{"geonameid":6534830,"name":"Castiraga Vidardo","admin3":"098015","localeAltName":null},{"geonameid":3179338,"name":"Cavacurta","admin3":"098062","localeAltName":null},{"geonameid":3179280,"name":"Cavenago d'Adda","admin3":"098017","localeAltName":null},{"geonameid":6535366,"name":"Cervignano d'Adda","admin3":"098018","localeAltName":null},{"geonameid":3178499,"name":"Codogno","admin3":"098019","localeAltName":null},{"geonameid":3178241,"name":"Comazzo","admin3":"098020","localeAltName":null},{"geonameid":3178045,"name":"Corno Giovine","admin3":"098022","localeAltName":null},{"geonameid":3177826,"name":"Crespiatica","admin3":"098025","localeAltName":null},{"geonameid":3176846,"name":"Fombio","admin3":"098026","localeAltName":null},{"geonameid":8950070,"name":"Fornaci","admin3":"098057","localeAltName":null},{"geonameid":6535711,"name":"Galgagnano","admin3":"098027","localeAltName":null},{"geonameid":6535367,"name":"Graffignana","admin3":"098028","localeAltName":null},{"geonameid":3175716,"name":"Guardamiglio","admin3":"098029","localeAltName":null},{"geonameid":8950061,"name":"Lavagna","admin3":"098020","localeAltName":null},{"geonameid":6535712,"name":"Livraga","admin3":"098030","localeAltName":null},{"geonameid":3174638,"name":"Lodi","admin3":"098031","localeAltName":null},{"geonameid":3174636,"name":"Lodi Vecchio","admin3":"098032","localeAltName":null},{"geonameid":8949742,"name":"Madonnina e Cologno","admin3":"098009","localeAltName":null},{"geonameid":6535368,"name":"Mairago","admin3":"098034","localeAltName":null},{"geonameid":8948990,"name":"Mairano","admin3":"098008","localeAltName":null},{"geonameid":3174183,"name":"Maleo","admin3":"098035","localeAltName":null},{"geonameid":6535714,"name":"Marudo","admin3":"098036","localeAltName":null},{"geonameid":6535715,"name":"Massalengo-Motta Vigana","admin3":"098037","localeAltName":null},{"geonameid":6535716,"name":"Merlino","admin3":"098039","localeAltName":null},{"geonameid":8950395,"name":"Mignete","admin3":"098061","localeAltName":null},{"geonameid":8950367,"name":"Mirabello","admin3":"098053","localeAltName":null},{"geonameid":3173073,"name":"Montanaso Lombardo","admin3":"098040","localeAltName":null},{"geonameid":6535717,"name":"Mulazzano","admin3":"098041","localeAltName":null},{"geonameid":9036405,"name":"Muzza di Cornegliano Laudense","admin3":"098021","localeAltName":null},{"geonameid":3171951,"name":"Orio Litta","admin3":"098042","localeAltName":null},{"geonameid":6535369,"name":"Ospedaletto Lodigiano","admin3":"098043","localeAltName":null},{"geonameid":3171817,"name":"Ossago Lodigiano","admin3":"098044","localeAltName":null},{"geonameid":6535370,"name":"Pieve Fissiraga","admin3":"098045","localeAltName":null},{"geonameid":3176185,"name":"Quartiano","admin3":"098041","localeAltName":null},{"geonameid":8949476,"name":"Retegno","admin3":"098026","localeAltName":null},{"geonameid":6535718,"name":"Salerano sul Lambro","admin3":"098046","localeAltName":null},{"geonameid":3168382,"name":"San Fiorano","admin3":"098047","localeAltName":null},{"geonameid":6535371,"name":"San Martino in Strada","admin3":"098048","localeAltName":null},{"geonameid":8950041,"name":"San Martino Pizzolano","admin3":"098054","localeAltName":null},{"geonameid":6535719,"name":"San Rocco al Porto","admin3":"098049","localeAltName":null},{"geonameid":3167439,"name":"Sant'Angelo Lodigiano","admin3":"098050","localeAltName":null},{"geonameid":6535720,"name":"Santo Stefano Lodigiano","admin3":"098051","localeAltName":null},{"geonameid":3166829,"name":"Secugnago","admin3":"098052","localeAltName":null},{"geonameid":3166733,"name":"Senna Lodigiana","admin3":"098053","localeAltName":null},{"geonameid":6535721,"name":"Somaglia","admin3":"098054","localeAltName":null},{"geonameid":6535372,"name":"Sordio","admin3":"098055","localeAltName":null},{"geonameid":3165892,"name":"Tavazzano","admin3":"098056","localeAltName":null},{"geonameid":6534698,"name":"Terranova dei Passerini","admin3":"098057","localeAltName":null},{"geonameid":8199695,"name":"Terraverde-Corte Palasio","admin3":"098024","localeAltName":null},{"geonameid":3165102,"name":"Turano Lodigiano","admin3":"098058","localeAltName":null},{"geonameid":6535373,"name":"Valera Fratta","admin3":"098059","localeAltName":null},{"geonameid":8948918,"name":"Vidardo","admin3":"098015","localeAltName":null},{"geonameid":3163894,"name":"Zelo Buon Persico","admin3":"098061","localeAltName":null},{"geonameid":8949080,"name":"Zorlesco","admin3":"098010","localeAltName":null}],"admin3":[{"geonameid":3165891,"name":"Tavazzano con Villavesco","admin3":"098056","localeAltName":null},{"geonameid":6538008,"name":"Bertonico","admin3":"098002","localeAltName":null},{"geonameid":6538009,"name":"Brembio","admin3":"098006","localeAltName":null},{"geonameid":6538010,"name":"Casalmaiocco","admin3":"098009","localeAltName":null},{"geonameid":6538012,"name":"Cavenago d'Adda","admin3":"098017","localeAltName":null},{"geonameid":6538013,"name":"Corno Giovine","admin3":"098022","localeAltName":null},{"geonameid":6538014,"name":"Crespiatica","admin3":"098025","localeAltName":null},{"geonameid":6538015,"name":"Sant'Angelo Lodigiano","admin3":"098050","localeAltName":null},{"geonameid":6539413,"name":"Borghetto Lodigiano","admin3":"098004","localeAltName":null},{"geonameid":6539414,"name":"Casalpusterlengo","admin3":"098010","localeAltName":null},{"geonameid":6539415,"name":"Castiglione d'Adda","admin3":"098014","localeAltName":null},{"geonameid":6539416,"name":"Fombio","admin3":"098026","localeAltName":null},{"geonameid":6539417,"name":"Maleo","admin3":"098035","localeAltName":null},{"geonameid":6539418,"name":"Montanaso Lombardo","admin3":"098040","localeAltName":null},{"geonameid":6539419,"name":"San Fiorano","admin3":"098047","localeAltName":null},{"geonameid":6539420,"name":"Secugnago","admin3":"098052","localeAltName":null},{"geonameid":6539421,"name":"Turano Lodigiano","admin3":"098058","localeAltName":null},{"geonameid":6540114,"name":"Lodi","admin3":"098031","localeAltName":null},{"geonameid":6540894,"name":"Boffalora d'Adda","admin3":"098003","localeAltName":null},{"geonameid":6540895,"name":"Orio Litta","admin3":"098042","localeAltName":null},{"geonameid":6541387,"name":"Castelnuovo Bocca d'Adda","admin3":"098013","localeAltName":null},{"geonameid":6541388,"name":"Codogno","admin3":"098019","localeAltName":null},{"geonameid":6541389,"name":"Comazzo","admin3":"098020","localeAltName":null},{"geonameid":6541390,"name":"Guardamiglio","admin3":"098029","localeAltName":null},{"geonameid":6541391,"name":"Lodi Vecchio","admin3":"098032","localeAltName":null},{"geonameid":6541784,"name":"Caselle Lurani","admin3":"098012","localeAltName":null},{"geonameid":6541785,"name":"Senna Lodigiana","admin3":"098053","localeAltName":null},{"geonameid":6541786,"name":"Zelo Buon Persico","admin3":"098061","localeAltName":null},{"geonameid":6541981,"name":"Meleti","admin3":"098038"},{"geonameid":6542238,"name":"Ossago Lodigiano","admin3":"098044","localeAltName":null},{"geonameid":6542733,"name":"Cornegliano Laudense","admin3":"098021","localeAltName":null},{"geonameid":6542736,"name":"Terranova dei Passerini","admin3":"098057","localeAltName":null},{"geonameid":6542822,"name":"Castiraga Vidardo","admin3":"098015","localeAltName":null},{"geonameid":6542823,"name":"Corte Palasio","admin3":"098024","localeAltName":null},{"geonameid":6543348,"name":"Casaletto Lodigiano","admin3":"098008","localeAltName":null},{"geonameid":6543349,"name":"Cervignano d'Adda","admin3":"098018","localeAltName":null},{"geonameid":6543350,"name":"Graffignana","admin3":"098028","localeAltName":null},{"geonameid":6543351,"name":"Mairago","admin3":"098034","localeAltName":null},{"geonameid":6543352,"name":"Ospedaletto Lodigiano","admin3":"098043","localeAltName":null},{"geonameid":6543353,"name":"Pieve Fissiraga","admin3":"098045","localeAltName":null},{"geonameid":6543354,"name":"San Martino in Strada","admin3":"098048","localeAltName":null},{"geonameid":6543355,"name":"Sordio","admin3":"098055","localeAltName":null},{"geonameid":6543356,"name":"Valera Fratta","admin3":"098059","localeAltName":null},{"geonameid":6543357,"name":"Villanova del Sillaro","admin3":"098060","localeAltName":null},{"geonameid":6543681,"name":"Abbadia Cerreto","admin3":"098001"},{"geonameid":6543682,"name":"Borgo San Giovanni","admin3":"098005","localeAltName":null},{"geonameid":6543683,"name":"Caselle Landi","admin3":"098011","localeAltName":null},{"geonameid":6543684,"name":"Cornovecchio","admin3":"098023"},{"geonameid":6543685,"name":"Galgagnano","admin3":"098027","localeAltName":null},{"geonameid":6543686,"name":"Livraga","admin3":"098030","localeAltName":null},{"geonameid":6543687,"name":"Maccastorna","admin3":"098033"},{"geonameid":6543688,"name":"Marudo","admin3":"098036","localeAltName":null},{"geonameid":6543689,"name":"Massalengo","admin3":"098037","localeAltName":null},{"geonameid":6543690,"name":"Merlino","admin3":"098039","localeAltName":null},{"geonameid":6543691,"name":"Mulazzano","admin3":"098041","localeAltName":null},{"geonameid":6543692,"name":"Salerano sul Lambro","admin3":"098046","localeAltName":null},{"geonameid":6543693,"name":"San Rocco al Porto","admin3":"098049","localeAltName":null},{"geonameid":6543694,"name":"Santo Stefano Lodigiano","admin3":"098051","localeAltName":null},{"geonameid":6543695,"name":"Somaglia","admin3":"098054","localeAltName":null},{"geonameid":12032165,"name":"Castelgerundo","admin3":"098062","localeAltName":null}],"alternateNames":[{"alternatenameId":1350323,"geonameid":3174618,"isoLanguage":"it","alternateName":"Lombardia","isPreferredName":true,"isShortName":true,"isColloquial":false,"isHistoric":false},{"alternatenameId":2431300,"geonameid":6458617,"isoLanguage":"it","alternateName":"Lodi","isPreferredName":true,"isShortName":true,"isColloquial":false,"isHistoric":false}]},"__N_SSG":true}