{"pageProps":{"locale":"en","admin2":{"geonameid":3333134,"name":"City of Bristol","country":"GB","admin1":"ENG","admin2":"B7","admin3":"","latitude":"51.4500000","longitude":"-2.6000000","localeAltName":"Bristol"},"admin1":{"geonameid":6269131,"name":"England","admin1":"ENG","localeAltName":"England"},"locations":[{"geonameid":2656737,"name":"Avonmouth","admin3":"00HD029","localeAltName":null},{"geonameid":2656038,"name":"Bedminster","admin3":"","localeAltName":null},{"geonameid":9884034,"name":"Bishopsworth","admin3":"","localeAltName":null},{"geonameid":2654677,"name":"Brislington","admin3":"00HD046","localeAltName":null},{"geonameid":2654675,"name":"Bristol","admin3":"","localeAltName":null},{"geonameid":2652843,"name":"Clifton","admin3":"","localeAltName":null},{"geonameid":12047505,"name":"Easton","admin3":"","localeAltName":null},{"geonameid":2649366,"name":"Fishponds","admin3":"00HD045","localeAltName":null},{"geonameid":2647117,"name":"Henbury","admin3":"","localeAltName":null},{"geonameid":11592099,"name":"Henleaze","admin3":"","localeAltName":null},{"geonameid":9257671,"name":"Hotwells","admin3":"","localeAltName":null},{"geonameid":2638287,"name":"Sea Mills","admin3":"","localeAltName":null},{"geonameid":2637940,"name":"Shirehampton","admin3":"00HC016","localeAltName":null},{"geonameid":2637013,"name":"Stapleton","admin3":"","localeAltName":null},{"geonameid":11592098,"name":"Stoke Bishop","admin3":"","localeAltName":null},{"geonameid":11550752,"name":"Westbury on Trym","admin3":"","localeAltName":null}],"admin3":[],"alternateNames":[{"alternatenameId":8666500,"geonameid":3333134,"isoLanguage":"en","alternateName":"Bristol","isPreferredName":true,"isShortName":true,"isColloquial":false,"isHistoric":false},{"alternatenameId":1626647,"geonameid":6269131,"isoLanguage":"en","alternateName":"England","isPreferredName":true,"isShortName":true,"isColloquial":false,"isHistoric":false}]},"__N_SSG":true}