{"pageProps":{"locale":"en","admin2":{"geonameid":2649889,"name":"Essex","country":"GB","admin1":"ENG","admin2":"E4","admin3":"","latitude":"51.8333300","longitude":"0.5833300","localeAltName":"Essex"},"admin1":{"geonameid":6269131,"name":"England","admin1":"ENG","localeAltName":"England"},"locations":[{"geonameid":2657880,"name":"Abberton","admin3":"22UG","localeAltName":null},{"geonameid":2657878,"name":"Abbess Roding","admin3":"22UH","localeAltName":null},{"geonameid":9072588,"name":"Abridge","admin3":"22UH","localeAltName":null},{"geonameid":11962029,"name":"Alphamstone","admin3":"22UC","localeAltName":null},{"geonameid":2657433,"name":"Alresford","admin3":"22UN","localeAltName":null},{"geonameid":2657417,"name":"Althorne","admin3":"22UK","localeAltName":null},{"geonameid":2657168,"name":"Ardleigh","admin3":"22UN","localeAltName":null},{"geonameid":2657079,"name":"Arkesden","admin3":"22UQ","localeAltName":null},{"geonameid":2656964,"name":"Ashdon","admin3":"22UQ","localeAltName":null},{"geonameid":2656962,"name":"Asheldham","admin3":"22UK","localeAltName":null},{"geonameid":2656961,"name":"Ashen","admin3":"22UC","localeAltName":null},{"geonameid":2656319,"name":"Barling","admin3":"22UL","localeAltName":null},{"geonameid":2656279,"name":"Barnston","admin3":"22UQ","localeAltName":null},{"geonameid":2656194,"name":"Basildon","admin3":"22UB","localeAltName":null},{"geonameid":2656159,"name":"Battlesbridge","admin3":"22UF","localeAltName":null},{"geonameid":11550760,"name":"Beacon End","admin3":"22UG","localeAltName":null},{"geonameid":2655991,"name":"Belchamp Otten","admin3":"22UC","localeAltName":null},{"geonameid":2655990,"name":"Belchamp Saint Paul","admin3":"22UC","localeAltName":null},{"geonameid":12022672,"name":"Belchamp Walter","admin3":"22UC","localeAltName":null},{"geonameid":2655866,"name":"Berden","admin3":"22UQ","localeAltName":null},{"geonameid":2655718,"name":"Bicknacre","admin3":"22UF","localeAltName":null},{"geonameid":2655672,"name":"Billericay","admin3":"22UB","localeAltName":null},{"geonameid":2655633,"name":"Birch","admin3":"22UG","localeAltName":null},{"geonameid":2655630,"name":"Birchanger","admin3":"22UQ","localeAltName":null},{"geonameid":2655623,"name":"Birdbrook","admin3":"22UC","localeAltName":null},{"geonameid":9884702,"name":"Birds Green","admin3":"22UH","localeAltName":null},{"geonameid":2655460,"name":"Black Notley","admin3":"22UC","localeAltName":null},{"geonameid":2655466,"name":"Blackmore","admin3":"22UD","localeAltName":null},{"geonameid":2655295,"name":"Bobbingworth","admin3":"22UH","localeAltName":null},{"geonameid":2655292,"name":"Bocking Churchstreet","admin3":"22UC","localeAltName":null},{"geonameid":2655187,"name":"Boreham","admin3":"22UF","localeAltName":null},{"geonameid":2655174,"name":"Borley","admin3":"22UC","localeAltName":null},{"geonameid":2655065,"name":"Bowers Gifford","admin3":"22UB","localeAltName":null},{"geonameid":2655038,"name":"Boxted","admin3":"22UG","localeAltName":null},{"geonameid":2654997,"name":"Bradfield","admin3":"22UN","localeAltName":null},{"geonameid":11593104,"name":"Bradfield Heath","admin3":"22UN","localeAltName":null},{"geonameid":2654975,"name":"Bradwell","admin3":"22UC","localeAltName":null},{"geonameid":2654972,"name":"Bradwell on Sea","admin3":"22UK","localeAltName":null},{"geonameid":2654938,"name":"Braintree","admin3":"22UC","localeAltName":null},{"geonameid":2654782,"name":"Brentwood","admin3":"22UD","localeAltName":null},{"geonameid":2654711,"name":"Brightlingsea","admin3":"22UN","localeAltName":null},{"geonameid":2654550,"name":"Broomfield","admin3":"22UF","localeAltName":null},{"geonameid":2654477,"name":"Broxted","admin3":"22UQ","localeAltName":null},{"geonameid":2654412,"name":"Buckhurst Hill","admin3":"22UH","localeAltName":null},{"geonameid":2654341,"name":"Bulmer","admin3":"22UC","localeAltName":null},{"geonameid":11593117,"name":"Bumble's Green","admin3":"22UH","localeAltName":null},{"geonameid":11962028,"name":"Bures Hamlet","admin3":"22UC","localeAltName":null},{"geonameid":2654270,"name":"Burnham-on-Crouch","admin3":"22UK","localeAltName":null},{"geonameid":2653896,"name":"Canewdon","admin3":"22UL","localeAltName":null},{"geonameid":7911271,"name":"Canvey Island","admin3":"22UE","localeAltName":null},{"geonameid":2653579,"name":"Castle Hedingham","admin3":"22UC","localeAltName":null},{"geonameid":2653348,"name":"Chappel","admin3":"22UG","localeAltName":null},{"geonameid":2653302,"name":"Chatley","admin3":"22UF","localeAltName":null},{"geonameid":2653266,"name":"Chelmsford","admin3":"22UF","localeAltName":null},{"geonameid":2653186,"name":"Chickney","admin3":"22UQ","localeAltName":null},{"geonameid":2653178,"name":"Chigwell","admin3":"22UH","localeAltName":null},{"geonameid":2653138,"name":"Chipping Ongar","admin3":"22UH","localeAltName":null},{"geonameid":11592608,"name":"Chrishall","admin3":"22UQ","localeAltName":null},{"geonameid":2652974,"name":"Clacton-on-Sea","admin3":"22UN","localeAltName":null},{"geonameid":9884697,"name":"Clatterford End","admin3":"22UH","localeAltName":null},{"geonameid":2652919,"name":"Clavering","admin3":"22UQ","localeAltName":null},{"geonameid":2652640,"name":"Coggeshall","admin3":"22UC","localeAltName":null},{"geonameid":2652618,"name":"Colchester","admin3":"22UG","localeAltName":null},{"geonameid":2652605,"name":"Cold Norton","admin3":"22UK","localeAltName":null},{"geonameid":11592714,"name":"Colne Engaine","admin3":"22UC","localeAltName":null},{"geonameid":2652403,"name":"Copford","admin3":"22UG","localeAltName":null},{"geonameid":2652012,"name":"Cressing","admin3":"22UC","localeAltName":null},{"geonameid":2651532,"name":"Danbury","admin3":"22UF","localeAltName":null},{"geonameid":2651438,"name":"Debden","admin3":"22UQ","localeAltName":null},{"geonameid":2651434,"name":"Dedham","admin3":"22UG","localeAltName":null},{"geonameid":2651379,"name":"Dengie","admin3":"22UK","localeAltName":null},{"geonameid":11593169,"name":"Doddinghurst","admin3":"22UD","localeAltName":null},{"geonameid":2651047,"name":"Dovercourt","admin3":"22UN","localeAltName":null},{"geonameid":2650550,"name":"Earls Colne","admin3":"22UC","localeAltName":null},{"geonameid":2650426,"name":"East Hanningfield","admin3":"22UF","localeAltName":null},{"geonameid":2650412,"name":"East Horndon","admin3":"22UD","localeAltName":null},{"geonameid":10627497,"name":"East Mersea","admin3":"22UG","localeAltName":null},{"geonameid":6693626,"name":"Eight Ash Green","admin3":"22UG","localeAltName":null},{"geonameid":11593175,"name":"Elmdon","admin3":"22UQ","localeAltName":null},{"geonameid":7535951,"name":"Elmstead Market","admin3":"22UN","localeAltName":null},{"geonameid":2650059,"name":"Elsenham","admin3":"22UQ","localeAltName":null},{"geonameid":2649963,"name":"Epping","admin3":"22UH","localeAltName":null},{"geonameid":2649960,"name":"Epping Green","admin3":"22UH","localeAltName":null},{"geonameid":2649659,"name":"Farnham","admin3":"22UQ","localeAltName":null},{"geonameid":2649623,"name":"Faulkbourne","admin3":"22UC","localeAltName":null},{"geonameid":2649588,"name":"Feering","admin3":"22UC","localeAltName":null},{"geonameid":2649574,"name":"Felsted","admin3":"22UQ","localeAltName":null},{"geonameid":2649442,"name":"Finchingfield","admin3":"22UC","localeAltName":null},{"geonameid":2649418,"name":"Fingringhoe","admin3":"22UG","localeAltName":null},{"geonameid":7115533,"name":"Ford End","admin3":"22UF","localeAltName":null},{"geonameid":2649230,"name":"Fordham","admin3":"22UG","localeAltName":null},{"geonameid":10345360,"name":"Foster Street","admin3":"22UH","localeAltName":null},{"geonameid":2649144,"name":"Foulness","admin3":"22UL","localeAltName":null},{"geonameid":2649049,"name":"Frinton-on-Sea","admin3":"22UN","localeAltName":null},{"geonameid":2649060,"name":"Fryerning","admin3":"22UD","localeAltName":null},{"geonameid":2648971,"name":"Fyfield","admin3":"22UH","localeAltName":null},{"geonameid":2648918,"name":"Galleywood","admin3":"22UF","localeAltName":null},{"geonameid":2648711,"name":"Gestingthorpe","admin3":"22UC","localeAltName":null},{"geonameid":2648347,"name":"Goldhanger","admin3":"22UK","localeAltName":null},{"geonameid":2648335,"name":"Good Easter","admin3":"22UF","localeAltName":null},{"geonameid":2648278,"name":"Gosfield","admin3":"22UC","localeAltName":null},{"geonameid":6690801,"name":"Grange Hill","admin3":"22UH","localeAltName":null},{"geonameid":2648171,"name":"Great Baddow","admin3":"22UF","localeAltName":null},{"geonameid":2648169,"name":"Great Bardfield","admin3":"22UC","localeAltName":null},{"geonameid":2648162,"name":"Great Bentley","admin3":"22UN","localeAltName":null},{"geonameid":2648152,"name":"Great Braxted","admin3":"22UK","localeAltName":null},{"geonameid":2648146,"name":"Great Bromley","admin3":"22UN","localeAltName":null},{"geonameid":2648143,"name":"Great Burstead","admin3":"22UB","localeAltName":null},{"geonameid":2648142,"name":"Great Canfield","admin3":"22UQ","localeAltName":null},{"geonameid":2648136,"name":"Great Chesterford","admin3":"22UQ","localeAltName":null},{"geonameid":2648134,"name":"Great Clacton","admin3":"22UN","localeAltName":null},{"geonameid":2648117,"name":"Great Dunmow","admin3":"22UQ","localeAltName":null},{"geonameid":2648116,"name":"Great Easton","admin3":"22UQ","localeAltName":null},{"geonameid":2648091,"name":"Great Hallingbury","admin3":"22UQ","localeAltName":null},{"geonameid":2648080,"name":"Great Holland","admin3":"22UN","localeAltName":null},{"geonameid":2648079,"name":"Great Horkesley","admin3":"22UG","localeAltName":null},{"geonameid":2648069,"name":"Great Leighs","admin3":"22UF","localeAltName":null},{"geonameid":2648062,"name":"Great Maplestead","admin3":"22UC","localeAltName":null},{"geonameid":2648049,"name":"Great Oakley","admin3":"22UN","localeAltName":null},{"geonameid":2648039,"name":"Great Parndon","admin3":"22UJ","localeAltName":null},{"geonameid":2648029,"name":"Great Saling","admin3":"22UC","localeAltName":null},{"geonameid":2648027,"name":"Great Sampford","admin3":"22UQ","localeAltName":null},{"geonameid":2648005,"name":"Great Tey","admin3":"22UG","localeAltName":null},{"geonameid":2648003,"name":"Great Totham","admin3":"22UK","localeAltName":null},{"geonameid":2648000,"name":"Great Wakering","admin3":"22UL","localeAltName":null},{"geonameid":2647998,"name":"Great Waltham","admin3":"22UF","localeAltName":null},{"geonameid":2647997,"name":"Great Warley Street","admin3":"22UD","localeAltName":null},{"geonameid":2647993,"name":"Great Wigborough","admin3":"22UG","localeAltName":null},{"geonameid":2647983,"name":"Great Yeldham","admin3":"22UC","localeAltName":null},{"geonameid":2647941,"name":"Greensted","admin3":"22UH","localeAltName":null},{"geonameid":2647679,"name":"Hadleigh","admin3":"22UE","localeAltName":null},{"geonameid":2647672,"name":"Hadstock","admin3":"22UQ","localeAltName":null},{"geonameid":2647604,"name":"Halstead","admin3":"22UC","localeAltName":null},{"geonameid":2647461,"name":"Harlow","admin3":"22UJ","localeAltName":null},{"geonameid":2647383,"name":"Harwich","admin3":"22UN","localeAltName":null},{"geonameid":8299274,"name":"Hastingwood","admin3":"22UH","localeAltName":null},{"geonameid":2647346,"name":"Hatfield Broad Oak","admin3":"22UQ","localeAltName":null},{"geonameid":2647345,"name":"Hatfield Heath","admin3":"22UQ","localeAltName":null},{"geonameid":2647343,"name":"Hatfield Peverel","admin3":"22UC","localeAltName":null},{"geonameid":2647282,"name":"Hawkwell","admin3":"22UL","localeAltName":null},{"geonameid":12031851,"name":"Hazeleigh","admin3":"22UK","localeAltName":null},{"geonameid":11550757,"name":"Heckfordbridge","admin3":"22UG","localeAltName":null},{"geonameid":2647173,"name":"Helion Bumpstead","admin3":"22UC","localeAltName":null},{"geonameid":2647125,"name":"Hempstead","admin3":"22UQ","localeAltName":null},{"geonameid":2647106,"name":"Henham","admin3":"22UQ","localeAltName":null},{"geonameid":8063658,"name":"Herongate","admin3":"22UD","localeAltName":null},{"geonameid":2647005,"name":"Heybridge","admin3":"22UK","localeAltName":null},{"geonameid":2646969,"name":"High Easter","admin3":"22UQ","localeAltName":null},{"geonameid":2646936,"name":"High Ongar","admin3":"22UH","localeAltName":null},{"geonameid":2646931,"name":"High Roding","admin3":"22UQ","localeAltName":null},{"geonameid":2646987,"name":"Higham","admin3":"22UG","localeAltName":null},{"geonameid":2646815,"name":"Hockley","admin3":"22UL","localeAltName":null},{"geonameid":2644312,"name":"Holland-on-Sea","admin3":"22UN","localeAltName":null},{"geonameid":12207128,"name":"Hullbridge","admin3":"22UL","localeAltName":null},{"geonameid":2646341,"name":"Hutton","admin3":"22UD","localeAltName":null},{"geonameid":2646219,"name":"Ingatestone","admin3":"22UD","localeAltName":null},{"geonameid":2646198,"name":"Ingrave","admin3":"22UD","localeAltName":null},{"geonameid":2646071,"name":"Inworth","admin3":"22UG","localeAltName":null},{"geonameid":11875837,"name":"Jaywick","admin3":"22UN","localeAltName":null},{"geonameid":2645841,"name":"Kelvedon","admin3":"22UC","localeAltName":null},{"geonameid":2645840,"name":"Kelvedon Hatch","admin3":"22UD","localeAltName":null},{"geonameid":2645340,"name":"Kirby Cross","admin3":"22UN","localeAltName":null},{"geonameid":11669855,"name":"Kirby-le-Soken","admin3":"22UN","localeAltName":null},{"geonameid":2645032,"name":"Laindon","admin3":"22UB","localeAltName":null},{"geonameid":2645012,"name":"Lamarsh","admin3":"22UC","localeAltName":null},{"geonameid":2644942,"name":"Langdon Hills","admin3":"22UB","localeAltName":null},{"geonameid":2644938,"name":"Langford","admin3":"22UK","localeAltName":null},{"geonameid":2644923,"name":"Langley","admin3":"22UQ","localeAltName":null},{"geonameid":2644829,"name":"Latchingdon and Snoreham","admin3":"22UK","localeAltName":null},{"geonameid":2644791,"name":"Lawford","admin3":"22UN","localeAltName":null},{"geonameid":2644771,"name":"Layer de la Haye","admin3":"22UG","localeAltName":null},{"geonameid":2644770,"name":"Layer Marney","admin3":"22UG","localeAltName":null},{"geonameid":11593319,"name":"Leaden Roding","admin3":"22UQ","localeAltName":null},{"geonameid":2644549,"name":"Lexden","admin3":"22UG","localeAltName":null},{"geonameid":2644474,"name":"Lindsell","admin3":"22UQ","localeAltName":null},{"geonameid":2644394,"name":"Liston","admin3":"22UC","localeAltName":null},{"geonameid":2644379,"name":"Little Baddow","admin3":"22UF","localeAltName":null},{"geonameid":2644373,"name":"Little Bentley","admin3":"22UN","localeAltName":null},{"geonameid":12188584,"name":"Little Braxted","admin3":"22UK","localeAltName":null},{"geonameid":2644362,"name":"Little Bromley","admin3":"22UN","localeAltName":null},{"geonameid":2644360,"name":"Little Burstead","admin3":"22UB","localeAltName":null},{"geonameid":2644357,"name":"Little Canfield","admin3":"22UQ","localeAltName":null},{"geonameid":2644351,"name":"Little Chesterford","admin3":"22UQ","localeAltName":null},{"geonameid":2644350,"name":"Little Clacton","admin3":"22UN","localeAltName":null},{"geonameid":2644334,"name":"Little Dunmow","admin3":"22UQ","localeAltName":null},{"geonameid":7280721,"name":"Little Easton","admin3":"22UQ","localeAltName":null},{"geonameid":6693510,"name":"Little Hallingbury","admin3":"22UQ","localeAltName":null},{"geonameid":2644278,"name":"Little Oakley","admin3":"22UN","localeAltName":null},{"geonameid":11550755,"name":"Little Parndon","admin3":"22UJ","localeAltName":null},{"geonameid":11593327,"name":"Little Totham","admin3":"22UK","localeAltName":null},{"geonameid":2644232,"name":"Little Wakering","admin3":"22UL","localeAltName":null},{"geonameid":2644231,"name":"Little Walden","admin3":"22UQ","localeAltName":null},{"geonameid":2644229,"name":"Little Waltham","admin3":"22UF","localeAltName":null},{"geonameid":2644228,"name":"Little Warley","admin3":"22UD","localeAltName":null},{"geonameid":2644221,"name":"Little Wigborough","admin3":"22UG","localeAltName":null},{"geonameid":2644359,"name":"Littlebury","admin3":"22UQ","localeAltName":null},{"geonameid":2643558,"name":"Loughton","admin3":"22UH","localeAltName":null},{"geonameid":2643160,"name":"Maldon","admin3":"22UK","localeAltName":null},{"geonameid":2643107,"name":"Manningtree","admin3":"22UN","localeAltName":null},{"geonameid":2643088,"name":"Manuden","admin3":"22UQ","localeAltName":null},{"geonameid":2643046,"name":"Margaret Roding","admin3":"22UQ","localeAltName":null},{"geonameid":2643045,"name":"Margaretting","admin3":"22UF","localeAltName":null},{"geonameid":2643012,"name":"Marks Tey","admin3":"22UG","localeAltName":null},{"geonameid":2643013,"name":"Markshall","admin3":"22UC","localeAltName":null},{"geonameid":2642917,"name":"Matching","admin3":"22UH","localeAltName":null},{"geonameid":2642874,"name":"Mayland","admin3":"22UK","localeAltName":null},{"geonameid":2642698,"name":"Messing","admin3":"22UG","localeAltName":null},{"geonameid":2642602,"name":"Middle Street","admin3":"22UH","localeAltName":null},{"geonameid":2642600,"name":"Middleton","admin3":"22UC","localeAltName":null},{"geonameid":2642541,"name":"Mile End","admin3":"22UG","localeAltName":null},{"geonameid":9884701,"name":"Millers Green","admin3":"22UH","localeAltName":null},{"geonameid":2642416,"name":"Mistley","admin3":"22UN","localeAltName":null},{"geonameid":2642205,"name":"Moreton","admin3":"22UH","localeAltName":null},{"geonameid":2642112,"name":"Mount Bures","admin3":"22UG","localeAltName":null},{"geonameid":2642102,"name":"Mountnessing","admin3":"22UD","localeAltName":null},{"geonameid":2641964,"name":"Mundon","admin3":"22UK","localeAltName":null},{"geonameid":2641856,"name":"Navestock","admin3":"22UD","localeAltName":null},{"geonameid":2641847,"name":"Nazeing","admin3":"22UH","localeAltName":null},{"geonameid":2641748,"name":"Nevendon","admin3":"22UB","localeAltName":null},{"geonameid":2641597,"name":"Newport","admin3":"22UQ","localeAltName":null},{"geonameid":2641357,"name":"North Fambridge","admin3":"22UK","localeAltName":null},{"geonameid":2641229,"name":"North Weald","admin3":"22UH","localeAltName":null},{"geonameid":2641188,"name":"Norton Heath","admin3":"22UH","localeAltName":null},{"geonameid":9973409,"name":"Norton Mandeville","admin3":"22UH","localeAltName":null},{"geonameid":11788280,"name":"Old Harlow","admin3":"22UJ","localeAltName":null},{"geonameid":2640753,"name":"Ovington","admin3":"22UC","localeAltName":null},{"geonameid":2640655,"name":"Panfield","admin3":"22UC","localeAltName":null},{"geonameid":2640612,"name":"Parkeston","admin3":"22UN","localeAltName":null},{"geonameid":2640564,"name":"Pattiswick","admin3":"22UC","localeAltName":null},{"geonameid":2640532,"name":"Pebmarsh","admin3":"22UC","localeAltName":null},{"geonameid":2640513,"name":"Peldon","admin3":"22UG","localeAltName":null},{"geonameid":2640246,"name":"Pitsea","admin3":"22UB","localeAltName":null},{"geonameid":2640216,"name":"Pleshey","admin3":"22UF","localeAltName":null},{"geonameid":2639968,"name":"Potter Street","admin3":"22UJ","localeAltName":null},{"geonameid":2639843,"name":"Purleigh","admin3":"22UK","localeAltName":null},{"geonameid":2639780,"name":"Quendon","admin3":"22UQ","localeAltName":null},{"geonameid":2639711,"name":"Radwinter","admin3":"22UQ","localeAltName":null},{"geonameid":2639665,"name":"Ramsey","admin3":"22UN","localeAltName":null},{"geonameid":2639587,"name":"Rawreth","admin3":"22UL","localeAltName":null},{"geonameid":2639583,"name":"Rayleigh","admin3":"22UL","localeAltName":null},{"geonameid":2639582,"name":"Rayne","admin3":"22UC","localeAltName":null},{"geonameid":2639477,"name":"Rettendon","admin3":"22UF","localeAltName":null},{"geonameid":6693237,"name":"Rickling Green","admin3":"22UQ","localeAltName":null},{"geonameid":2639372,"name":"Ridgewell","admin3":"22UC","localeAltName":null},{"geonameid":2639302,"name":"Rivenhall","admin3":"22UC","localeAltName":null},{"geonameid":6693221,"name":"Rivenhall End","admin3":"22UC","localeAltName":null},{"geonameid":2639265,"name":"Rochford","admin3":"22UL","localeAltName":null},{"geonameid":2639045,"name":"Rowhedge","admin3":"22UG","localeAltName":null},{"geonameid":2639028,"name":"Roxwell","admin3":"22UF","localeAltName":null},{"geonameid":2639020,"name":"Roydon","admin3":"22UH","localeAltName":null},{"geonameid":2638878,"name":"Saffron Walden","admin3":"22UQ","localeAltName":null},{"geonameid":2638760,"name":"Saint Lawrence","admin3":"22UK","localeAltName":null},{"geonameid":2638708,"name":"Saint Osyth","admin3":"22UN","localeAltName":null},{"geonameid":2638679,"name":"Salcott","admin3":"22UG","localeAltName":null},{"geonameid":11592731,"name":"Sewards End","admin3":"22UQ","localeAltName":null},{"geonameid":2638149,"name":"Shalford","admin3":"22UC","localeAltName":null},{"geonameid":2638082,"name":"Sheering","admin3":"22UH","localeAltName":null},{"geonameid":9973411,"name":"Shelley","admin3":"22UH","localeAltName":null},{"geonameid":2638053,"name":"Shenfield","admin3":"22UD","localeAltName":null},{"geonameid":2637871,"name":"Sible Hedingham","admin3":"22UC","localeAltName":null},{"geonameid":6694284,"name":"Silver End","admin3":"22UC","localeAltName":null},{"geonameid":2637476,"name":"South Benfleet","admin3":"22UE","localeAltName":null},{"geonameid":2637413,"name":"South Hanningfield","admin3":"22UF","localeAltName":null},{"geonameid":11887254,"name":"South Weald","admin3":"22UD","localeAltName":null},{"geonameid":11592769,"name":"South Woodham Ferrers","admin3":"22UF","localeAltName":null},{"geonameid":2637374,"name":"Southminster","admin3":"22UK","localeAltName":null},{"geonameid":6693125,"name":"Springfield","admin3":"22UF","localeAltName":null},{"geonameid":2637105,"name":"Stambourne","admin3":"22UC","localeAltName":null},{"geonameid":2637083,"name":"Stanford Rivers","admin3":"22UH","localeAltName":null},{"geonameid":2637052,"name":"Stansted Mountfitchet","admin3":"22UQ","localeAltName":null},{"geonameid":11550758,"name":"Stanway","admin3":"22UG","localeAltName":null},{"geonameid":2637020,"name":"Stapleford Abbots","admin3":"22UH","localeAltName":null},{"geonameid":2637019,"name":"Stapleford Tawney","admin3":"22UH","localeAltName":null},{"geonameid":2636981,"name":"Stebbing","admin3":"22UQ","localeAltName":null},{"geonameid":2636971,"name":"Steeple","admin3":"22UK","localeAltName":null},{"geonameid":2636968,"name":"Steeple Bumpstead","admin3":"22UC","localeAltName":null},{"geonameid":2636908,"name":"Stisted","admin3":"22UC","localeAltName":null},{"geonameid":2636896,"name":"Stock","admin3":"22UF","localeAltName":null},{"geonameid":11593453,"name":"Stondon Massey","admin3":"22UD","localeAltName":null},{"geonameid":2636662,"name":"Strethall","admin3":"22UQ","localeAltName":null},{"geonameid":2636585,"name":"Sturmer","admin3":"22UC","localeAltName":null},{"geonameid":2636502,"name":"Sutton","admin3":"22UL","localeAltName":null},{"geonameid":2636315,"name":"Takeley","admin3":"22UQ","localeAltName":null},{"geonameid":11593465,"name":"Takeley Street","admin3":"22UQ","localeAltName":null},{"geonameid":2636097,"name":"Terling","admin3":"22UC","localeAltName":null},{"geonameid":2636047,"name":"Thaxted","admin3":"22UQ","localeAltName":null},{"geonameid":9257710,"name":"The Downs","admin3":"22UQ","localeAltName":null},{"geonameid":9884700,"name":"The Village Willingale","admin3":"22UH","localeAltName":null},{"geonameid":2636031,"name":"Theydon Bois","admin3":"22UH","localeAltName":null},{"geonameid":2635950,"name":"Thorpe le Soken","admin3":"22UN","localeAltName":null},{"geonameid":2635940,"name":"Thorrington","admin3":"22UN","localeAltName":null},{"geonameid":2635902,"name":"Thundersley","admin3":"22UE","localeAltName":null},{"geonameid":2635835,"name":"Tilbury Juxta Clare","admin3":"22UC","localeAltName":null},{"geonameid":2635826,"name":"Tillingham","admin3":"22UK","localeAltName":null},{"geonameid":2635808,"name":"Tilty","admin3":"22UQ","localeAltName":null},{"geonameid":2635783,"name":"Tiptree","admin3":"22UG","localeAltName":null},{"geonameid":10277746,"name":"Tiptree Heath","admin3":"22UK","localeAltName":null},{"geonameid":2635720,"name":"Tollesbury","admin3":"22UK","localeAltName":null},{"geonameid":2635719,"name":"Tolleshunt D’Arcy","admin3":"22UK","localeAltName":null},{"geonameid":2635718,"name":"Tolleshunt Knights","admin3":"22UK","localeAltName":null},{"geonameid":2635717,"name":"Tolleshunt Major","admin3":"22UK","localeAltName":null},{"geonameid":2635681,"name":"Toppesfield","admin3":"22UC","localeAltName":null},{"geonameid":2635223,"name":"Ugley","admin3":"22UQ","localeAltName":null},{"geonameid":6690800,"name":"Upshire","admin3":"22UH","localeAltName":null},{"geonameid":2635015,"name":"Vange","admin3":"22UB","localeAltName":null},{"geonameid":2634949,"name":"Virley","admin3":"22UK","localeAltName":null},{"geonameid":2634843,"name":"Waltham Abbey","admin3":"22UH","localeAltName":null},{"geonameid":2634841,"name":"Waltham Holy Cross","admin3":"22UH","localeAltName":null},{"geonameid":2634826,"name":"Walton-on-the-Naze","admin3":"22UN","localeAltName":null},{"geonameid":2634608,"name":"Weeley","admin3":"22UN","localeAltName":null},{"geonameid":2634541,"name":"Wendens Ambo","admin3":"22UQ","localeAltName":null},{"geonameid":2634499,"name":"West Bergholt","admin3":"22UG","localeAltName":null},{"geonameid":2634400,"name":"West Hanningfield","admin3":"22UF","localeAltName":null},{"geonameid":2634345,"name":"West Mersea","admin3":"22UG","localeAltName":null},{"geonameid":2634212,"name":"Wethersfield","admin3":"22UC","localeAltName":null},{"geonameid":2634066,"name":"White Notley","admin3":"22UC","localeAltName":null},{"geonameid":2634063,"name":"White Roding","admin3":"22UQ","localeAltName":null},{"geonameid":2633979,"name":"Wicken Bonhunt","admin3":"22UQ","localeAltName":null},{"geonameid":2633976,"name":"Wickford","admin3":"22UB","localeAltName":null},{"geonameid":2633973,"name":"Wickham Bishops","admin3":"22UK","localeAltName":null},{"geonameid":2633963,"name":"Widdington","admin3":"22UQ","localeAltName":null},{"geonameid":2633957,"name":"Widford","admin3":"22UF","localeAltName":null},{"geonameid":2633902,"name":"Willingale Doe","admin3":"22UH","localeAltName":null},{"geonameid":2633867,"name":"Wimbish","admin3":"22UQ","localeAltName":null},{"geonameid":2633749,"name":"Witham","admin3":"22UC","localeAltName":null},{"geonameid":9884699,"name":"Witney Green","admin3":"22UH","localeAltName":null},{"geonameid":2633717,"name":"Wivenhoe","admin3":"22UG","localeAltName":null},{"geonameid":2633715,"name":"Wix","admin3":"22UN","localeAltName":null},{"geonameid":2633649,"name":"Woodham Ferrers","admin3":"22UF","localeAltName":null},{"geonameid":2633647,"name":"Woodham Mortimer","admin3":"22UK","localeAltName":null},{"geonameid":2633541,"name":"Wormingford","admin3":"22UG","localeAltName":null},{"geonameid":2633506,"name":"Wrabness","admin3":"22UN","localeAltName":null},{"geonameid":2633481,"name":"Writtle","admin3":"22UF","localeAltName":null}],"admin3":[{"geonameid":2639266,"name":"Rochford","admin3":"22UL","localeAltName":null},{"geonameid":7290541,"name":"Chelmsford District","admin3":"22UF","localeAltName":null},{"geonameid":7290542,"name":"Colchester District","admin3":"22UG","localeAltName":null},{"geonameid":7290543,"name":"Epping Forest District","admin3":"22UH","localeAltName":null},{"geonameid":7290544,"name":"Harlow District","admin3":"22UJ","localeAltName":null},{"geonameid":7290545,"name":"Maldon District","admin3":"22UK","localeAltName":null},{"geonameid":7290546,"name":"Tendring District","admin3":"22UN","localeAltName":null},{"geonameid":7290547,"name":"Uttlesford District","admin3":"22UQ","localeAltName":null},{"geonameid":7290689,"name":"Basildon District","admin3":"22UB","localeAltName":null},{"geonameid":7290690,"name":"Braintree District","admin3":"22UC","localeAltName":null},{"geonameid":7290691,"name":"Brentwood District","admin3":"22UD","localeAltName":null},{"geonameid":7290692,"name":"Castle Point District","admin3":"22UE","localeAltName":null}],"alternateNames":[{"alternatenameId":2254279,"geonameid":2649889,"isoLanguage":"en","alternateName":"Essex","isPreferredName":true,"isShortName":true,"isColloquial":false,"isHistoric":false},{"alternatenameId":1626647,"geonameid":6269131,"isoLanguage":"en","alternateName":"England","isPreferredName":true,"isShortName":true,"isColloquial":false,"isHistoric":false}]},"__N_SSG":true}