{"pageProps":{"locale":"en","admin2":{"geonameid":2636561,"name":"Suffolk","country":"GB","admin1":"ENG","admin2":"N5","admin3":"","latitude":"52.1666700","longitude":"1.0000000","localeAltName":null},"admin1":{"geonameid":6269131,"name":"England","admin1":"ENG","localeAltName":"England"},"locations":[{"geonameid":11592631,"name":"Acton","admin3":"42UB","localeAltName":null},{"geonameid":2657557,"name":"Aldeburgh","admin3":"42UG","localeAltName":null},{"geonameid":2657538,"name":"Alderton","admin3":"42UG","localeAltName":null},{"geonameid":2657535,"name":"Aldham","admin3":"42UB","localeAltName":null},{"geonameid":2657527,"name":"Aldringham","admin3":"42UG","localeAltName":null},{"geonameid":12035768,"name":"All Saints South Elmham","admin3":"42UH","localeAltName":null},{"geonameid":2657437,"name":"Alpheton","admin3":"42UB","localeAltName":null},{"geonameid":11996474,"name":"Ash Street","admin3":"42UB","localeAltName":null},{"geonameid":2656982,"name":"Ashbocking","admin3":"42UE","localeAltName":null},{"geonameid":2656958,"name":"Ashfield","admin3":"42UE","localeAltName":null},{"geonameid":2656892,"name":"Aspall","admin3":"42UE","localeAltName":null},{"geonameid":2656885,"name":"Assington","admin3":"42UB","localeAltName":null},{"geonameid":12023504,"name":"Audley End","admin3":"42UB","localeAltName":null},{"geonameid":2656668,"name":"Bacton","admin3":"42UE","localeAltName":null},{"geonameid":2656647,"name":"Badingham","admin3":"42UG","localeAltName":null},{"geonameid":2656640,"name":"Badwell Ash","admin3":"42UE","localeAltName":null},{"geonameid":2656351,"name":"Bardwell","admin3":"42UF","localeAltName":null},{"geonameid":2656332,"name":"Barking","admin3":"42UE","localeAltName":null},{"geonameid":9884580,"name":"Barnaby Green","admin3":"42UH","localeAltName":null},{"geonameid":2656304,"name":"Barnardiston","admin3":"42UF","localeAltName":null},{"geonameid":2656300,"name":"Barnby","admin3":"42UH","localeAltName":null},{"geonameid":2656292,"name":"Barnham","admin3":"42UF","localeAltName":null},{"geonameid":2656290,"name":"Barningham","admin3":"42UF","localeAltName":null},{"geonameid":2656248,"name":"Barrow","admin3":"42UF","localeAltName":null},{"geonameid":6693613,"name":"Barton Mills","admin3":"42UC","localeAltName":null},{"geonameid":2656147,"name":"Bawdsey","admin3":"42UG","localeAltName":null},{"geonameid":2656133,"name":"Baylham","admin3":"42UE","localeAltName":null},{"geonameid":2656102,"name":"Bealings","admin3":"42UG","localeAltName":null},{"geonameid":2656067,"name":"Beccles","admin3":"42UH","localeAltName":null},{"geonameid":2656047,"name":"Bedfield","admin3":"42UE","localeAltName":null},{"geonameid":2656041,"name":"Bedingfield","admin3":"42UE","localeAltName":null},{"geonameid":2655939,"name":"Belstead","admin3":"42UB","localeAltName":null},{"geonameid":2655920,"name":"Benacre","admin3":"42UH","localeAltName":null},{"geonameid":11887925,"name":"Benhall","admin3":"42UG","localeAltName":null},{"geonameid":11837925,"name":"Benhall Green","admin3":"42UG","localeAltName":null},{"geonameid":2655884,"name":"Bentley","admin3":"42UB","localeAltName":null},{"geonameid":7874329,"name":"Beyton","admin3":"42UE","localeAltName":null},{"geonameid":2655673,"name":"Bildeston","admin3":"42UB","localeAltName":null},{"geonameid":2655370,"name":"Blaxhall","admin3":"42UG","localeAltName":null},{"geonameid":11593100,"name":"Blundeston","admin3":"42UH","localeAltName":null},{"geonameid":2655318,"name":"Blyford","admin3":"42UH","localeAltName":null},{"geonameid":2655312,"name":"Blythburgh","admin3":"42UG","localeAltName":null},{"geonameid":2655134,"name":"Botesdale","admin3":"42UE","localeAltName":null},{"geonameid":11996481,"name":"Bower House Tye","admin3":"42UB","localeAltName":null},{"geonameid":2655044,"name":"Boxford","admin3":"42UB","localeAltName":null},{"geonameid":2655037,"name":"Boxted","admin3":"42UB","localeAltName":null},{"geonameid":2655027,"name":"Boyton","admin3":"42UG","localeAltName":null},{"geonameid":2654995,"name":"Bradfield St George","admin3":"42UF","localeAltName":null},{"geonameid":2654987,"name":"Bradley","admin3":"42UF","localeAltName":null},{"geonameid":2654929,"name":"Bramfield","admin3":"42UG","localeAltName":null},{"geonameid":2654928,"name":"Bramford","admin3":"42UE","localeAltName":null},{"geonameid":2654918,"name":"Brampton","admin3":"42UH","localeAltName":null},{"geonameid":11593106,"name":"Brandeston","admin3":"42UG","localeAltName":null},{"geonameid":2654896,"name":"Brandon","admin3":"42UC","localeAltName":null},{"geonameid":11592622,"name":"Brantham","admin3":"42UB","localeAltName":null},{"geonameid":2654810,"name":"Bredfield","admin3":"42UG","localeAltName":null},{"geonameid":2654788,"name":"Brent Eleigh","admin3":"42UB","localeAltName":null},{"geonameid":2654770,"name":"Brettenham","admin3":"42UB","localeAltName":null},{"geonameid":11996488,"name":"Bridge Street","admin3":"42UB","localeAltName":null},{"geonameid":11996472,"name":"Broad Street","admin3":"42UB","localeAltName":null},{"geonameid":2654607,"name":"Brockley","admin3":"42UF","localeAltName":null},{"geonameid":12023505,"name":"Brockley Green","admin3":"42UF","localeAltName":null},{"geonameid":2654595,"name":"Brome","admin3":"42UE","localeAltName":null},{"geonameid":2654594,"name":"Brome Street","admin3":"42UE","localeAltName":null},{"geonameid":2654593,"name":"Bromeswell","admin3":"42UG","localeAltName":null},{"geonameid":2654463,"name":"Bruisyard","admin3":"42UG","localeAltName":null},{"geonameid":2654460,"name":"Brundish","admin3":"42UE","localeAltName":null},{"geonameid":2654395,"name":"Bucklesham","admin3":"42UG","localeAltName":null},{"geonameid":2654327,"name":"Bungay","admin3":"42UH","localeAltName":null},{"geonameid":11996485,"name":"Bures Green","admin3":"42UB","localeAltName":null},{"geonameid":2654313,"name":"Bures Saint Mary","admin3":"42UB","localeAltName":null},{"geonameid":2654307,"name":"Burgh","admin3":"42UG","localeAltName":null},{"geonameid":2654224,"name":"Burstall","admin3":"42UB","localeAltName":null},{"geonameid":2654186,"name":"Bury St Edmunds","admin3":"42UF","localeAltName":null},{"geonameid":2654162,"name":"Butley","admin3":"42UG","localeAltName":null},{"geonameid":2654144,"name":"Buxhall","admin3":"42UE","localeAltName":null},{"geonameid":11996465,"name":"Calais Street","admin3":"42UB","localeAltName":null},{"geonameid":12188582,"name":"California","admin3":"42UD","localeAltName":null},{"geonameid":2653909,"name":"Campsea Ash","admin3":"42UG","localeAltName":null},{"geonameid":2653845,"name":"Capel Saint Mary","admin3":"42UB","localeAltName":null},{"geonameid":2653760,"name":"Carlton Colville","admin3":"42UH","localeAltName":null},{"geonameid":12188583,"name":"Castle Hill","admin3":"42UD","localeAltName":null},{"geonameid":11996468,"name":"Castling's Heath","admin3":"42UB","localeAltName":null},{"geonameid":2653476,"name":"Cavendish","admin3":"42UF","localeAltName":null},{"geonameid":2653475,"name":"Cavenham","admin3":"42UC","localeAltName":null},{"geonameid":6301919,"name":"Chantry","admin3":"42UD","localeAltName":null},{"geonameid":2653312,"name":"Charsfield","admin3":"42UG","localeAltName":null},{"geonameid":2653296,"name":"Chattisham","admin3":"42UB","localeAltName":null},{"geonameid":2653282,"name":"Chedburgh","admin3":"42UF","localeAltName":null},{"geonameid":2653277,"name":"Chediston","admin3":"42UG","localeAltName":null},{"geonameid":2653268,"name":"Chelmondiston","admin3":"42UB","localeAltName":null},{"geonameid":2653262,"name":"Chelsworth","admin3":"42UB","localeAltName":null},{"geonameid":11996490,"name":"Chelsworth Common","admin3":"42UB","localeAltName":null},{"geonameid":2653202,"name":"Chevington","admin3":"42UF","localeAltName":null},{"geonameid":2653163,"name":"Chillesford","admin3":"42UG","localeAltName":null},{"geonameid":11996442,"name":"Chilton","admin3":"42UB","localeAltName":null},{"geonameid":2652941,"name":"Clare","admin3":"42UF","localeAltName":null},{"geonameid":2652909,"name":"Claydon","admin3":"42UE","localeAltName":null},{"geonameid":2652789,"name":"Clopton","admin3":"42UG","localeAltName":null},{"geonameid":2652674,"name":"Cockfield","admin3":"42UB","localeAltName":null},{"geonameid":2652662,"name":"Coddenham","admin3":"42UE","localeAltName":null},{"geonameid":11593147,"name":"Combs","admin3":"42UE","localeAltName":null},{"geonameid":2652467,"name":"Coney Weston","admin3":"42UF","localeAltName":null},{"geonameid":2652422,"name":"Cookley","admin3":"42UG","localeAltName":null},{"geonameid":2652407,"name":"Copdock","admin3":"42UB","localeAltName":null},{"geonameid":2652308,"name":"Corton","admin3":"42UH","localeAltName":null},{"geonameid":2652261,"name":"Cotton","admin3":"42UE","localeAltName":null},{"geonameid":9884581,"name":"Cove Bottom","admin3":"42UH","localeAltName":null},{"geonameid":2652225,"name":"Covehithe","admin3":"42UH","localeAltName":null},{"geonameid":2652189,"name":"Cowlinge","admin3":"42UF","localeAltName":null},{"geonameid":11593159,"name":"Cransford","admin3":"42UG","localeAltName":null},{"geonameid":2652068,"name":"Cratfield","admin3":"42UG","localeAltName":null},{"geonameid":2652024,"name":"Creeting St Mary","admin3":"42UE","localeAltName":null},{"geonameid":2652006,"name":"Cretingham","admin3":"42UG","localeAltName":null},{"geonameid":2651847,"name":"Crowfield","admin3":"42UE","localeAltName":null},{"geonameid":11593165,"name":"Culford","admin3":"42UF","localeAltName":null},{"geonameid":2651590,"name":"Dalham","admin3":"42UC","localeAltName":null},{"geonameid":2651502,"name":"Darsham","admin3":"42UG","localeAltName":null},{"geonameid":2651439,"name":"Debach","admin3":"42UG","localeAltName":null},{"geonameid":2651436,"name":"Debenham","admin3":"42UE","localeAltName":null},{"geonameid":2651376,"name":"Denham","admin3":"42UE","localeAltName":null},{"geonameid":2651377,"name":"Denham","admin3":"42UF","localeAltName":null},{"geonameid":2651370,"name":"Dennington","admin3":"42UG","localeAltName":null},{"geonameid":2651364,"name":"Denston","admin3":"42UF","localeAltName":null},{"geonameid":2651351,"name":"Depden","admin3":"42UF","localeAltName":null},{"geonameid":11996486,"name":"Dorking Tye","admin3":"42UB","localeAltName":null},{"geonameid":11996480,"name":"Drakestone Green","admin3":"42UB","localeAltName":null},{"geonameid":2650637,"name":"Dunwich","admin3":"42UG","localeAltName":null},{"geonameid":2650544,"name":"Earl Soham","admin3":"42UG","localeAltName":null},{"geonameid":11887928,"name":"Earl Stonham","admin3":"42UE","localeAltName":null},{"geonameid":2650499,"name":"East Bergholt","admin3":"42UB","localeAltName":null},{"geonameid":2650366,"name":"Easton","admin3":"42UG","localeAltName":null},{"geonameid":2650202,"name":"Edwardstone","admin3":"42UB","localeAltName":null},{"geonameid":2650084,"name":"Ellough","admin3":"42UH","localeAltName":null},{"geonameid":11592746,"name":"Elmsett","admin3":"42UB","localeAltName":null},{"geonameid":2650068,"name":"Elmswell","admin3":"42UE","localeAltName":null},{"geonameid":2650032,"name":"Elveden","admin3":"42UC","localeAltName":null},{"geonameid":2649938,"name":"Eriswell","admin3":"42UC","localeAltName":null},{"geonameid":2649919,"name":"Erwarton","admin3":"42UB","localeAltName":null},{"geonameid":2649854,"name":"Euston","admin3":"42UF","localeAltName":null},{"geonameid":2649799,"name":"Exning","admin3":"42UC","localeAltName":null},{"geonameid":2649789,"name":"Eye","admin3":"42UE","localeAltName":null},{"geonameid":2649781,"name":"Eyke","admin3":"42UG","localeAltName":null},{"geonameid":2649724,"name":"Falkenham","admin3":"42UG","localeAltName":null},{"geonameid":2649658,"name":"Farnham","admin3":"42UG","localeAltName":null},{"geonameid":2649579,"name":"Felixstowe","admin3":"42UG","localeAltName":null},{"geonameid":2649575,"name":"Felsham","admin3":"42UE","localeAltName":null},{"geonameid":2649404,"name":"Finningham","admin3":"42UE","localeAltName":null},{"geonameid":11876501,"name":"Flatford","admin3":"42UB","localeAltName":null},{"geonameid":2649308,"name":"Flempton","admin3":"42UF","localeAltName":null},{"geonameid":2649293,"name":"Flixton","admin3":"42UH","localeAltName":null},{"geonameid":11902760,"name":"Flowton","admin3":"42UE","localeAltName":null},{"geonameid":2649195,"name":"Fornham All Saints","admin3":"42UF","localeAltName":null},{"geonameid":2649194,"name":"Fornham Saint Martin","admin3":"42UF","localeAltName":null},{"geonameid":6620443,"name":"Fornham St. Genevieve","admin3":"42UF","localeAltName":null},{"geonameid":2649104,"name":"Framlingham","admin3":"42UG","localeAltName":null},{"geonameid":2649099,"name":"Framsden","admin3":"42UE","localeAltName":null},{"geonameid":2649084,"name":"Freckenham","admin3":"42UC","localeAltName":null},{"geonameid":2649066,"name":"Fressingfield","admin3":"42UE","localeAltName":null},{"geonameid":2649065,"name":"Freston","admin3":"42UB","localeAltName":null},{"geonameid":2649043,"name":"Friston","admin3":"42UG","localeAltName":null},{"geonameid":2649017,"name":"Frostenden","admin3":"42UH","localeAltName":null},{"geonameid":6301917,"name":"Gainsborough","admin3":"42UD","localeAltName":null},{"geonameid":2648751,"name":"Gazeley","admin3":"42UC","localeAltName":null},{"geonameid":2648636,"name":"Gipping","admin3":"42UE","localeAltName":null},{"geonameid":2648622,"name":"Gisleham","admin3":"42UH","localeAltName":null},{"geonameid":2648621,"name":"Gislingham","admin3":"42UE","localeAltName":null},{"geonameid":2648549,"name":"Glemsford","admin3":"42UB","localeAltName":null},{"geonameid":11996471,"name":"Gosling Green","admin3":"42UB","localeAltName":null},{"geonameid":2648173,"name":"Great Ashfield","admin3":"42UE","localeAltName":null},{"geonameid":2648164,"name":"Great Barton","admin3":"42UF","localeAltName":null},{"geonameid":2648157,"name":"Great Blakenham","admin3":"42UE","localeAltName":null},{"geonameid":2648151,"name":"Great Bricett","admin3":"42UE","localeAltName":null},{"geonameid":2648131,"name":"Great Cornard","admin3":"42UB","localeAltName":null},{"geonameid":2648106,"name":"Great Finborough","admin3":"42UE","localeAltName":null},{"geonameid":2648098,"name":"Great Glemham","admin3":"42UG","localeAltName":null},{"geonameid":2648065,"name":"Great Livermere","admin3":"42UF","localeAltName":null},{"geonameid":2648025,"name":"Great Saxham","admin3":"42UF","localeAltName":null},{"geonameid":2647999,"name":"Great Waldingfield","admin3":"42UB","localeAltName":null},{"geonameid":2647995,"name":"Great Welnetham","admin3":"42UF","localeAltName":null},{"geonameid":11996462,"name":"Great Wenham","admin3":"42UB","localeAltName":null},{"geonameid":2647987,"name":"Great Wratting","admin3":"42UF","localeAltName":null},{"geonameid":12188581,"name":"Greenwich","admin3":"42UD","localeAltName":null},{"geonameid":11996398,"name":"Groton","admin3":"42UB","localeAltName":null},{"geonameid":2647815,"name":"Grundisburgh","admin3":"42UG","localeAltName":null},{"geonameid":2647755,"name":"Gunton","admin3":"42UH","localeAltName":null},{"geonameid":2647678,"name":"Hadleigh","admin3":"42UB","localeAltName":null},{"geonameid":11996482,"name":"Hadleigh Heath","admin3":"42UB","localeAltName":null},{"geonameid":11996487,"name":"Hagmore Green","admin3":"42UB","localeAltName":null},{"geonameid":2647638,"name":"Halesworth","admin3":"42UH","localeAltName":null},{"geonameid":2647479,"name":"Hargrave","admin3":"42UF","localeAltName":null},{"geonameid":2647474,"name":"Harkstead","admin3":"42UB","localeAltName":null},{"geonameid":12023503,"name":"Harrow Green","admin3":"42UB","localeAltName":null},{"geonameid":2647413,"name":"Hartest","admin3":"42UB","localeAltName":null},{"geonameid":2647329,"name":"Haughley","admin3":"42UE","localeAltName":null},{"geonameid":2647310,"name":"Haverhill","admin3":"42UF","localeAltName":null},{"geonameid":2647294,"name":"Hawkedon","admin3":"42UF","localeAltName":null},{"geonameid":11887929,"name":"Helmingham","admin3":"42UE","localeAltName":null},{"geonameid":2647132,"name":"Hemingstone","admin3":"42UE","localeAltName":null},{"geonameid":2647130,"name":"Hemley","admin3":"42UG","localeAltName":null},{"geonameid":2647107,"name":"Hengrave","admin3":"42UF","localeAltName":null},{"geonameid":9884579,"name":"Henham","admin3":"42UH","localeAltName":null},{"geonameid":2647103,"name":"Henley","admin3":"42UE","localeAltName":null},{"geonameid":2647089,"name":"Henstead","admin3":"42UH","localeAltName":null},{"geonameid":2647077,"name":"Hepworth","admin3":"42UF","localeAltName":null},{"geonameid":2647052,"name":"Herringfleet","admin3":"42UH","localeAltName":null},{"geonameid":2647050,"name":"Herringswell","admin3":"42UC","localeAltName":null},{"geonameid":2647035,"name":"Hessett","admin3":"42UE","localeAltName":null},{"geonameid":2647016,"name":"Heveningham","admin3":"42UG","localeAltName":null},{"geonameid":2646986,"name":"Higham","admin3":"42UC","localeAltName":null},{"geonameid":11593304,"name":"Hinderclay","admin3":"42UE","localeAltName":null},{"geonameid":2646852,"name":"Hintlesham","admin3":"42UB","localeAltName":null},{"geonameid":2646827,"name":"Hitcham","admin3":"42UB","localeAltName":null},{"geonameid":2646778,"name":"Holbrook","admin3":"42UB","localeAltName":null},{"geonameid":2646750,"name":"Hollesley","admin3":"42UG","localeAltName":null},{"geonameid":2646698,"name":"Holton","admin3":"42UH","localeAltName":null},{"geonameid":11996451,"name":"Holton St Mary","admin3":"42UB","localeAltName":null},{"geonameid":2646661,"name":"Honington","admin3":"42UF","localeAltName":null},{"geonameid":2646621,"name":"Hopton","admin3":"42UF","localeAltName":null},{"geonameid":2646608,"name":"Horham","admin3":"42UE","localeAltName":null},{"geonameid":11996459,"name":"Horner's Green","admin3":"42UB","localeAltName":null},{"geonameid":6620336,"name":"Horringer","admin3":"42UF","localeAltName":null},{"geonameid":2646477,"name":"Hoxne","admin3":"42UE","localeAltName":null},{"geonameid":2646414,"name":"Hundon","admin3":"42UF","localeAltName":null},{"geonameid":2646389,"name":"Huntingfield","admin3":"42UG","localeAltName":null},{"geonameid":2646302,"name":"Icklingham","admin3":"42UC","localeAltName":null},{"geonameid":2646273,"name":"Ilketshall St Andrew","admin3":"42UH","localeAltName":null},{"geonameid":12035765,"name":"Ilketshall St Andrew","admin3":"42UH","localeAltName":null},{"geonameid":12035767,"name":"Ilketshall St John","admin3":"42UH","localeAltName":null},{"geonameid":2638758,"name":"Ilketshall St Lawrence","admin3":"42UH","localeAltName":null},{"geonameid":12035766,"name":"Ilketshall St Margaret","admin3":"42UH","localeAltName":null},{"geonameid":2646213,"name":"Ingham","admin3":"42UF","localeAltName":null},{"geonameid":2646057,"name":"Ipswich","admin3":"42UD","localeAltName":null},{"geonameid":2645983,"name":"Ixworth","admin3":"42UF","localeAltName":null},{"geonameid":2645982,"name":"Ixworth Thorpe","admin3":"42UF","localeAltName":null},{"geonameid":2645900,"name":"Kedington","admin3":"42UF","localeAltName":null},{"geonameid":2645854,"name":"Kelsale","admin3":"42UG","localeAltName":null},{"geonameid":2645795,"name":"Kentford","admin3":"42UC","localeAltName":null},{"geonameid":2645787,"name":"Kenton","admin3":"42UE","localeAltName":null},{"geonameid":2645766,"name":"Kersey","admin3":"42UB","localeAltName":null},{"geonameid":11996478,"name":"Kersey Tye","admin3":"42UB","localeAltName":null},{"geonameid":11996479,"name":"Kersey Upland","admin3":"42UB","localeAltName":null},{"geonameid":6301921,"name":"Kesgrave","admin3":"42UG","localeAltName":null},{"geonameid":2645761,"name":"Kessingland","admin3":"42UH","localeAltName":null},{"geonameid":11996452,"name":"Kettlebaston","admin3":"42UB","localeAltName":null},{"geonameid":2645749,"name":"Kettleburgh","admin3":"42UG","localeAltName":null},{"geonameid":9257674,"name":"Kirkley","admin3":"42UH","localeAltName":null},{"geonameid":2645223,"name":"Kirton","admin3":"42UG","localeAltName":null},{"geonameid":2645156,"name":"Knettishall","admin3":"42UF","localeAltName":null},{"geonameid":11887940,"name":"Knodishall","admin3":"42UG","localeAltName":null},{"geonameid":2645074,"name":"Lackford","admin3":"42UF","localeAltName":null},{"geonameid":9883965,"name":"Lackford Green","admin3":"42UF","localeAltName":null},{"geonameid":2645020,"name":"Lakenheath","admin3":"42UC","localeAltName":null},{"geonameid":2644933,"name":"Langham","admin3":"42UE","localeAltName":null},{"geonameid":2644803,"name":"Lavenham","admin3":"42UB","localeAltName":null},{"geonameid":2644785,"name":"Lawshall","admin3":"42UB","localeAltName":null},{"geonameid":2644779,"name":"Laxfield","admin3":"42UE","localeAltName":null},{"geonameid":2644769,"name":"Layham","admin3":"42UB","localeAltName":null},{"geonameid":11593320,"name":"Leavenheath","admin3":"42UB","localeAltName":null},{"geonameid":2644642,"name":"Leiston","admin3":"42UG","localeAltName":null},{"geonameid":2644563,"name":"Levington","admin3":"42UG","localeAltName":null},{"geonameid":2644523,"name":"Lidgate","admin3":"42UF","localeAltName":null},{"geonameid":11887931,"name":"Lindsey","admin3":"42UB","localeAltName":null},{"geonameid":11996469,"name":"Lindsey Tye","admin3":"42UB","localeAltName":null},{"geonameid":11902763,"name":"Little Blakenham","admin3":"42UE","localeAltName":null},{"geonameid":11996454,"name":"Little Cornard","admin3":"42UB","localeAltName":null},{"geonameid":2644328,"name":"Little Glemham","admin3":"42UG","localeAltName":null},{"geonameid":2644258,"name":"Little Saxham","admin3":"42UF","localeAltName":null},{"geonameid":11593328,"name":"Little Waldingfield","admin3":"42UB","localeAltName":null},{"geonameid":2644223,"name":"Little Welnetham","admin3":"42UF","localeAltName":null},{"geonameid":11996463,"name":"Little Wenham","admin3":"42UB","localeAltName":null},{"geonameid":2643661,"name":"Long Melford","admin3":"42UB","localeAltName":null},{"geonameid":2643490,"name":"Lowestoft","admin3":"42UH","localeAltName":null},{"geonameid":6301918,"name":"Maidenhall","admin3":"42UD","localeAltName":null},{"geonameid":2643020,"name":"Market Weston","admin3":"42UF","localeAltName":null},{"geonameid":2643008,"name":"Marlesford","admin3":"42UG","localeAltName":null},{"geonameid":2642951,"name":"Martlesham","admin3":"42UG","localeAltName":null},{"geonameid":2642780,"name":"Mellis","admin3":"42UE","localeAltName":null},{"geonameid":2642765,"name":"Melton","admin3":"42UG","localeAltName":null},{"geonameid":2642752,"name":"Mendham","admin3":"42UE","localeAltName":null},{"geonameid":2642750,"name":"Mendlesham","admin3":"42UE","localeAltName":null},{"geonameid":2642696,"name":"Metfield","admin3":"42UE","localeAltName":null},{"geonameid":2642688,"name":"Mettingham","admin3":"42UH","localeAltName":null},{"geonameid":2642646,"name":"Mickfield","admin3":"42UE","localeAltName":null},{"geonameid":2642599,"name":"Middleton","admin3":"42UG","localeAltName":null},{"geonameid":11996455,"name":"Milden","admin3":"42UB","localeAltName":null},{"geonameid":2642543,"name":"Mildenhall","admin3":"42UC","localeAltName":null},{"geonameid":11996396,"name":"Mill Green","admin3":"42UB","localeAltName":null},{"geonameid":2642329,"name":"Monks Eleigh","admin3":"42UB","localeAltName":null},{"geonameid":2642125,"name":"Moulton","admin3":"42UC","localeAltName":null},{"geonameid":2641918,"name":"Nacton","admin3":"42UG","localeAltName":null},{"geonameid":11996457,"name":"Naughton","admin3":"42UB","localeAltName":null},{"geonameid":2641850,"name":"Nayland","admin3":"42UB","localeAltName":null},{"geonameid":11996456,"name":"Nedging","admin3":"42UB","localeAltName":null},{"geonameid":2641828,"name":"Needham Market","admin3":"42UE","localeAltName":null},{"geonameid":11902764,"name":"Nettlestead","admin3":"42UE","localeAltName":null},{"geonameid":2641703,"name":"Newbourne","admin3":"42UG","localeAltName":null},{"geonameid":2641616,"name":"Newmarket","admin3":"42UC","localeAltName":null},{"geonameid":11592738,"name":"Newton","admin3":"42UB","localeAltName":null},{"geonameid":9883954,"name":"North Common","admin3":"42UF","localeAltName":null},{"geonameid":2641386,"name":"North Cove","admin3":"42UH","localeAltName":null},{"geonameid":2641204,"name":"Norton","admin3":"42UE","localeAltName":null},{"geonameid":2641102,"name":"Occold","admin3":"42UE","localeAltName":null},{"geonameid":2641066,"name":"Offton","admin3":"42UE","localeAltName":null},{"geonameid":2641003,"name":"Old Newton","admin3":"42UE","localeAltName":null},{"geonameid":11887932,"name":"Onehouse","admin3":"42UE","localeAltName":null},{"geonameid":2640930,"name":"Orford","admin3":"42UG","localeAltName":null},{"geonameid":2640858,"name":"Otley","admin3":"42UG","localeAltName":null},{"geonameid":2640829,"name":"Oulton","admin3":"42UH","localeAltName":null},{"geonameid":11837929,"name":"Oulton Broad","admin3":"42UH","localeAltName":null},{"geonameid":2640821,"name":"Ousden","admin3":"42UF","localeAltName":null},{"geonameid":2640675,"name":"Pakefield","admin3":"42UH","localeAltName":null},{"geonameid":2640674,"name":"Pakenham","admin3":"42UF","localeAltName":null},{"geonameid":12217462,"name":"Palgrave","admin3":"42UE","localeAltName":null},{"geonameid":2640620,"name":"Parham","admin3":"42UG","localeAltName":null},{"geonameid":11996470,"name":"Parliament Heath","admin3":"42UB","localeAltName":null},{"geonameid":2640537,"name":"Peasenhall","admin3":"42UG","localeAltName":null},{"geonameid":11887933,"name":"Pettaugh","admin3":"42UE","localeAltName":null},{"geonameid":2640335,"name":"Pettistree","admin3":"42UG","localeAltName":null},{"geonameid":12122705,"name":"Pin MIll","admin3":"42UB","localeAltName":null},{"geonameid":2640221,"name":"Playford","admin3":"42UG","localeAltName":null},{"geonameid":2640149,"name":"Polstead","admin3":"42UB","localeAltName":null},{"geonameid":11996483,"name":"Polstead Heath","admin3":"42UB","localeAltName":null},{"geonameid":2639983,"name":"Poslingford","admin3":"42UF","localeAltName":null},{"geonameid":2639915,"name":"Preston St Mary","admin3":"42UB","localeAltName":null},{"geonameid":11996395,"name":"Priory Green","admin3":"42UB","localeAltName":null},{"geonameid":2639657,"name":"Ramsholt","admin3":"42UG","localeAltName":null},{"geonameid":2639608,"name":"Rattlesden","admin3":"42UE","localeAltName":null},{"geonameid":6301933,"name":"Ravenswood","admin3":"42UD","localeAltName":null},{"geonameid":2639584,"name":"Raydon","admin3":"42UB","localeAltName":null},{"geonameid":11592603,"name":"Red Lodge","admin3":"42UC","localeAltName":null},{"geonameid":2639556,"name":"Rede","admin3":"42UF","localeAltName":null},{"geonameid":2639551,"name":"Redgrave","admin3":"42UE","localeAltName":null},{"geonameid":2639539,"name":"Redisham","admin3":"42UH","localeAltName":null},{"geonameid":2639497,"name":"Rendham","admin3":"42UG","localeAltName":null},{"geonameid":2639496,"name":"Rendlesham","admin3":"42UG","localeAltName":null},{"geonameid":2639474,"name":"Reydon","admin3":"42UH","localeAltName":null},{"geonameid":2639382,"name":"Rickinghall","admin3":"42UE","localeAltName":null},{"geonameid":2639339,"name":"Ringshall","admin3":"42UE","localeAltName":null},{"geonameid":2639318,"name":"Risby","admin3":"42UF","localeAltName":null},{"geonameid":2639311,"name":"Rishangles","admin3":"42UE","localeAltName":null},{"geonameid":11996458,"name":"Rose Green","admin3":"42UB","localeAltName":null},{"geonameid":6693643,"name":"Rougham","admin3":"42UF","localeAltName":null},{"geonameid":11996394,"name":"Round Maple","admin3":"42UB","localeAltName":null},{"geonameid":2638968,"name":"Rumburgh","admin3":"42UH","localeAltName":null},{"geonameid":2638949,"name":"Rushbrooke","admin3":"42UF","localeAltName":null},{"geonameid":2638944,"name":"Rushmere","admin3":"42UH","localeAltName":null},{"geonameid":7670891,"name":"Rushmere St Andrew","admin3":"42UG","localeAltName":null},{"geonameid":2638824,"name":"Saint Cross","admin3":"42UH","localeAltName":null},{"geonameid":2638774,"name":"Saint James","admin3":"42UH","localeAltName":null},{"geonameid":2638749,"name":"Saint Margaret","admin3":"42UH","localeAltName":null},{"geonameid":2638519,"name":"Santon","admin3":"42UC","localeAltName":null},{"geonameid":8129270,"name":"Santon Downham","admin3":"42UC","localeAltName":null},{"geonameid":2638514,"name":"Sapiston","admin3":"42UF","localeAltName":null},{"geonameid":2638464,"name":"Saxmundham","admin3":"42UG","localeAltName":null},{"geonameid":2638462,"name":"Saxtead","admin3":"42UG","localeAltName":null},{"geonameid":2638211,"name":"Semer","admin3":"42UB","localeAltName":null},{"geonameid":2638159,"name":"Shadingfield","admin3":"42UH","localeAltName":null},{"geonameid":2638066,"name":"Shelley","admin3":"42UB","localeAltName":null},{"geonameid":11996397,"name":"Sherbourne Street","admin3":"42UB","localeAltName":null},{"geonameid":2637974,"name":"Shimpling","admin3":"42UB","localeAltName":null},{"geonameid":11996491,"name":"Shimpling Street","admin3":"42UB","localeAltName":null},{"geonameid":11875434,"name":"Shingle Street","admin3":"42UG","localeAltName":null},{"geonameid":2637908,"name":"Shotley","admin3":"42UB","localeAltName":null},{"geonameid":2637906,"name":"Shotley Gate","admin3":"42UB","localeAltName":null},{"geonameid":2637902,"name":"Shottisham","admin3":"42UG","localeAltName":null},{"geonameid":2637868,"name":"Sibton","admin3":"42UG","localeAltName":null},{"geonameid":2637796,"name":"Sizewell","admin3":"42UG","localeAltName":null},{"geonameid":2637596,"name":"Snape","admin3":"42UG","localeAltName":null},{"geonameid":2637535,"name":"Somerleyton","admin3":"42UH","localeAltName":null},{"geonameid":2637529,"name":"Somersham","admin3":"42UE","localeAltName":null},{"geonameid":11996460,"name":"Somerton","admin3":"42UB","localeAltName":null},{"geonameid":2637509,"name":"Sotherton","admin3":"42UH","localeAltName":null},{"geonameid":2637508,"name":"Sotterley","admin3":"42UH","localeAltName":null},{"geonameid":2637448,"name":"South Cove","admin3":"42UH","localeAltName":null},{"geonameid":2637277,"name":"Southwold","admin3":"42UH","localeAltName":null},{"geonameid":2637231,"name":"Spexhall","admin3":"42UH","localeAltName":null},{"geonameid":2637183,"name":"Sproughton","admin3":"42UB","localeAltName":null},{"geonameid":12035769,"name":"St Michael South Elmham","admin3":"42UH","localeAltName":null},{"geonameid":12035772,"name":"St Peter South Elmham","admin3":"42UH","localeAltName":null},{"geonameid":11996475,"name":"Stackyard Green","admin3":"42UB","localeAltName":null},{"geonameid":2637060,"name":"Stanningfield","admin3":"42UF","localeAltName":null},{"geonameid":2637055,"name":"Stanstead","admin3":"42UB","localeAltName":null},{"geonameid":2637049,"name":"Stanton","admin3":"42UF","localeAltName":null},{"geonameid":12188580,"name":"Stoke","admin3":"42UD","localeAltName":null},{"geonameid":2636864,"name":"Stoke by Clare","admin3":"42UF","localeAltName":null},{"geonameid":6301920,"name":"Stoke Park","admin3":"42UD","localeAltName":null},{"geonameid":2636863,"name":"Stoke-by-Nayland","admin3":"42UB","localeAltName":null},{"geonameid":11996467,"name":"Stone Street","admin3":"42UB","localeAltName":null},{"geonameid":2636800,"name":"Stonham Aspal","admin3":"42UE","localeAltName":null},{"geonameid":8063185,"name":"Stoven","admin3":"42UH","localeAltName":null},{"geonameid":2636749,"name":"Stowmarket","admin3":"42UE","localeAltName":null},{"geonameid":11887934,"name":"Stowupland","admin3":"42UE","localeAltName":null},{"geonameid":2636738,"name":"Stradbroke","admin3":"42UE","localeAltName":null},{"geonameid":2636737,"name":"Stradishall","admin3":"42UF","localeAltName":null},{"geonameid":11887935,"name":"Stratford St Andrew","admin3":"42UG","localeAltName":null},{"geonameid":11887936,"name":"Stratford St Mary","admin3":"42UB","localeAltName":null},{"geonameid":2636579,"name":"Stuston","admin3":"42UE","localeAltName":null},{"geonameid":2636578,"name":"Stutton","admin3":"42UB","localeAltName":null},{"geonameid":2636567,"name":"Sudbourne","admin3":"42UG","localeAltName":null},{"geonameid":2636564,"name":"Sudbury","admin3":"42UB","localeAltName":null},{"geonameid":2636501,"name":"Sutton","admin3":"42UG","localeAltName":null},{"geonameid":2636395,"name":"Swilland","admin3":"42UG","localeAltName":null},{"geonameid":11996473,"name":"Swingleton Green","admin3":"42UB","localeAltName":null},{"geonameid":7290325,"name":"Syleham","admin3":"42UE","localeAltName":null},{"geonameid":2636257,"name":"Tannington","admin3":"42UE","localeAltName":null},{"geonameid":11887937,"name":"Tattingstone","admin3":"42UB","localeAltName":null},{"geonameid":2636044,"name":"Theberton","admin3":"42UG","localeAltName":null},{"geonameid":11996484,"name":"Thorington Street","admin3":"42UB","localeAltName":null},{"geonameid":2635998,"name":"Thorndon","admin3":"42UE","localeAltName":null},{"geonameid":2635985,"name":"Thornham Magna","admin3":"42UE","localeAltName":null},{"geonameid":2635984,"name":"Thornham Parva","admin3":"42UE","localeAltName":null},{"geonameid":11996461,"name":"Thorpe Morieux","admin3":"42UB","localeAltName":null},{"geonameid":2635949,"name":"Thorpeness","admin3":"42UG","localeAltName":null},{"geonameid":2635893,"name":"Thurlow","admin3":"42UF","localeAltName":null},{"geonameid":2635877,"name":"Thurston","admin3":"42UE","localeAltName":null},{"geonameid":2635874,"name":"Thwaite","admin3":"42UE","localeAltName":null},{"geonameid":2635800,"name":"Timworth","admin3":"42UF","localeAltName":null},{"geonameid":2635615,"name":"Tostock","admin3":"42UE","localeAltName":null},{"geonameid":2635461,"name":"Trimley Heath","admin3":"42UG","localeAltName":null},{"geonameid":6930878,"name":"Trimley St Martin","admin3":"42UG","localeAltName":null},{"geonameid":6930879,"name":"Trimley St Mary","admin3":"42UG","localeAltName":null},{"geonameid":2635439,"name":"Troston","admin3":"42UF","localeAltName":null},{"geonameid":11887943,"name":"Tuddenham St Martin","admin3":"42UG","localeAltName":null},{"geonameid":2635397,"name":"Tuddenham St Mary","admin3":"42UC","localeAltName":null},{"geonameid":2635355,"name":"Tunstall","admin3":"42UG","localeAltName":null},{"geonameid":2635231,"name":"Ufford","admin3":"42UG","localeAltName":null},{"geonameid":11996476,"name":"Upsher Green","admin3":"42UB","localeAltName":null},{"geonameid":9883955,"name":"Upthorpe","admin3":"42UF","localeAltName":null},{"geonameid":2634907,"name":"Walberswick","admin3":"42UG","localeAltName":null},{"geonameid":2634897,"name":"Waldringfield","admin3":"42UG","localeAltName":null},{"geonameid":2634858,"name":"Walpole","admin3":"42UG","localeAltName":null},{"geonameid":2634849,"name":"Walsham le Willows","admin3":"42UE","localeAltName":null},{"geonameid":2634836,"name":"Walton","admin3":"42UG","localeAltName":null},{"geonameid":2634811,"name":"Wangford","admin3":"42UH","localeAltName":null},{"geonameid":11887902,"name":"Washbrook","admin3":"42UB","localeAltName":null},{"geonameid":11996489,"name":"Washmere Green","admin3":"42UB","localeAltName":null},{"geonameid":2634664,"name":"Wattisfield","admin3":"42UE","localeAltName":null},{"geonameid":2634663,"name":"Wattisham","admin3":"42UB","localeAltName":null},{"geonameid":2634535,"name":"Wenhaston","admin3":"42UG","localeAltName":null},{"geonameid":2634279,"name":"West Row","admin3":"42UC","localeAltName":null},{"geonameid":2634261,"name":"West Stow","admin3":"42UF","localeAltName":null},{"geonameid":2634437,"name":"Westerfield","admin3":"42UG","localeAltName":null},{"geonameid":2634365,"name":"Westleton","admin3":"42UG","localeAltName":null},{"geonameid":2634363,"name":"Westley","admin3":"42UF","localeAltName":null},{"geonameid":2634325,"name":"Weston","admin3":"42UH","localeAltName":null},{"geonameid":2634213,"name":"Wetheringsett","admin3":"42UE","localeAltName":null},{"geonameid":2634205,"name":"Weybread","admin3":"42UE","localeAltName":null},{"geonameid":2634178,"name":"Whatfield","admin3":"42UB","localeAltName":null},{"geonameid":10171172,"name":"Whelp Street","admin3":"42UB","localeAltName":null},{"geonameid":2634161,"name":"Whepstead","admin3":"42UF","localeAltName":null},{"geonameid":2634159,"name":"Wherstead","admin3":"42UB","localeAltName":null},{"geonameid":11996466,"name":"Whitestreet Green","admin3":"42UB","localeAltName":null},{"geonameid":2634008,"name":"Whitton","admin3":"42UD","localeAltName":null},{"geonameid":10171171,"name":"Wicker Street Green","admin3":"42UB","localeAltName":null},{"geonameid":2633971,"name":"Wickham Market","admin3":"42UG","localeAltName":null},{"geonameid":2633972,"name":"Wickhambrook","admin3":"42UF","localeAltName":null},{"geonameid":2633923,"name":"Wilby","admin3":"42UE","localeAltName":null},{"geonameid":11996477,"name":"William's Green","admin3":"42UB","localeAltName":null},{"geonameid":2633822,"name":"Wingfield","admin3":"42UE","localeAltName":null},{"geonameid":2633762,"name":"Wissett","admin3":"42UH","localeAltName":null},{"geonameid":2633760,"name":"Wissington","admin3":"42UB","localeAltName":null},{"geonameid":11996464,"name":"Withermarsh Green","admin3":"42UB","localeAltName":null},{"geonameid":2633742,"name":"Withersfield","admin3":"42UF","localeAltName":null},{"geonameid":2633730,"name":"Witnesham","admin3":"42UG","localeAltName":null},{"geonameid":2633671,"name":"Woodbridge","admin3":"42UG","localeAltName":null},{"geonameid":2633595,"name":"Woolpit","admin3":"42UE","localeAltName":null},{"geonameid":2633585,"name":"Woolverstone","admin3":"42UB","localeAltName":null},{"geonameid":2633557,"name":"Wordwell","admin3":"42UF","localeAltName":null},{"geonameid":2633546,"name":"Worlingham","admin3":"42UH","localeAltName":null},{"geonameid":2633545,"name":"Worlington","admin3":"42UC","localeAltName":null},{"geonameid":2633544,"name":"Worlingworth","admin3":"42UE","localeAltName":null},{"geonameid":2633524,"name":"Wortham","admin3":"42UE","localeAltName":null},{"geonameid":2633488,"name":"Wrentham","admin3":"42UH","localeAltName":null},{"geonameid":2633429,"name":"Wyverstone","admin3":"42UE","localeAltName":null},{"geonameid":2633400,"name":"Yaxley","admin3":"42UE","localeAltName":null},{"geonameid":2633344,"name":"Yoxford","admin3":"42UG","localeAltName":null}],"admin3":[{"geonameid":2649217,"name":"Forest Heath District","admin3":"42UC","localeAltName":null},{"geonameid":7290633,"name":"Babergh District","admin3":"42UB","localeAltName":null},{"geonameid":7290634,"name":"Ipswich District","admin3":"42UD","localeAltName":null},{"geonameid":7290635,"name":"Mid Suffolk District","admin3":"42UE","localeAltName":null},{"geonameid":7290636,"name":"St. Edmundsbury District","admin3":"42UF","localeAltName":null},{"geonameid":7290637,"name":"Suffolk Coastal District","admin3":"42UG","localeAltName":null},{"geonameid":7290638,"name":"Waveney District","admin3":"42UH","localeAltName":null}],"alternateNames":[{"alternatenameId":1626647,"geonameid":6269131,"isoLanguage":"en","alternateName":"England","isPreferredName":true,"isShortName":true,"isColloquial":false,"isHistoric":false}]},"__N_SSG":true}