{"pageProps":{"locale":"en","admin2":{"geonameid":2636512,"name":"Surrey","country":"GB","admin1":"ENG","admin2":"N7","admin3":"","latitude":"51.2500000","longitude":"-0.3333300","localeAltName":"Surrey"},"admin1":{"geonameid":6269131,"name":"England","admin1":"ENG","localeAltName":"England"},"locations":[{"geonameid":2657779,"name":"Abinger","admin3":"43UE","localeAltName":null},{"geonameid":9409570,"name":"Abinger Common","admin3":"43UE","localeAltName":null},{"geonameid":9409462,"name":"Abinger Hammer","admin3":"43UE","localeAltName":null},{"geonameid":2657676,"name":"Addlestone","admin3":"43UG","localeAltName":null},{"geonameid":2657568,"name":"Albury","admin3":"43UD","localeAltName":null},{"geonameid":2657512,"name":"Alfold","admin3":"43UL","localeAltName":null},{"geonameid":10244162,"name":"Alfold Crossways","admin3":"43UL","localeAltName":null},{"geonameid":9538926,"name":"Artington","admin3":"43UD","localeAltName":null},{"geonameid":2656913,"name":"Ash Vale","admin3":"43UD","localeAltName":null},{"geonameid":2656954,"name":"Ashford","admin3":"43UH","localeAltName":null},{"geonameid":2656924,"name":"Ashtead","admin3":"43UE","localeAltName":null},{"geonameid":2656632,"name":"Bagshot","admin3":"43UJ","localeAltName":null},{"geonameid":2656379,"name":"Banstead","admin3":"43UF","localeAltName":null},{"geonameid":9884100,"name":"Batt's Corner","admin3":"43UL","localeAltName":null},{"geonameid":2655807,"name":"Betchworth","admin3":"43UE","localeAltName":null},{"geonameid":2655545,"name":"Bisley","admin3":"43UJ","localeAltName":null},{"geonameid":7117874,"name":"Blackheath","admin3":"43UL","localeAltName":null},{"geonameid":2655352,"name":"Bletchingley","admin3":"43UK","localeAltName":null},{"geonameid":2655344,"name":"Blindley Heath","admin3":"43UK","localeAltName":null},{"geonameid":2655205,"name":"Bookham","admin3":"43UE","localeAltName":null},{"geonameid":9884577,"name":"Bowl Head Green","admin3":"43UL","localeAltName":null},{"geonameid":7116370,"name":"Boxgrove Park","admin3":"43UD","localeAltName":null},{"geonameid":2654924,"name":"Bramley","admin3":"43UL","localeAltName":null},{"geonameid":9538922,"name":"Broadford","admin3":"43UD","localeAltName":null},{"geonameid":9884576,"name":"Brook","admin3":"43UL","localeAltName":null},{"geonameid":10104862,"name":"Brooklands","admin3":"43UB","localeAltName":null},{"geonameid":2654558,"name":"Brookwood","admin3":"43UM","localeAltName":null},{"geonameid":10103752,"name":"Brookwood Heath","admin3":"43UD","localeAltName":null},{"geonameid":2654407,"name":"Buckland","admin3":"43UE","localeAltName":null},{"geonameid":10104031,"name":"Burgh Heath","admin3":"43UF","localeAltName":null},{"geonameid":7116367,"name":"Burpham","admin3":"43UD","localeAltName":null},{"geonameid":2654221,"name":"Burstow","admin3":"43UK","localeAltName":null},{"geonameid":10377336,"name":"Busbridge","admin3":"43UL","localeAltName":null},{"geonameid":7116369,"name":"Bushy Hill","admin3":"43UD","localeAltName":null},{"geonameid":2654136,"name":"Byfleet","admin3":"43UM","localeAltName":null},{"geonameid":2653947,"name":"Camberley","admin3":"43UJ","localeAltName":null},{"geonameid":2653855,"name":"Capel","admin3":"43UE","localeAltName":null},{"geonameid":10376321,"name":"Castle End","admin3":"43UG","localeAltName":null},{"geonameid":2653520,"name":"Caterham","admin3":"43UK","localeAltName":null},{"geonameid":10109892,"name":"Catteshall","admin3":"43UL","localeAltName":null},{"geonameid":11593128,"name":"Chaldon","admin3":"43UK","localeAltName":null},{"geonameid":10104851,"name":"Charleshill","admin3":"43UL","localeAltName":null},{"geonameid":2653319,"name":"Charlwood","admin3":"43UE","localeAltName":null},{"geonameid":10109891,"name":"Charterhouse","admin3":"43UL","localeAltName":null},{"geonameid":2653263,"name":"Chelsham","admin3":"43UK","localeAltName":null},{"geonameid":2653239,"name":"Chertsey","admin3":"43UG","localeAltName":null},{"geonameid":2653183,"name":"Chiddingfold","admin3":"43UL","localeAltName":null},{"geonameid":2653149,"name":"Chilworth","admin3":"43UD","localeAltName":null},{"geonameid":2653134,"name":"Chipstead","admin3":"43UF","localeAltName":null},{"geonameid":2653109,"name":"Chobham","admin3":"43UJ","localeAltName":null},{"geonameid":10377798,"name":"Church Town","admin3":"43UK","localeAltName":null},{"geonameid":6620426,"name":"Churt","admin3":"43UL","localeAltName":null},{"geonameid":2652907,"name":"Claygate","admin3":"43UB","localeAltName":null},{"geonameid":2652689,"name":"Cobham","admin3":"43UB","localeAltName":null},{"geonameid":10104152,"name":"Coldharbour","admin3":"43UE","localeAltName":null},{"geonameid":2652489,"name":"Compton","admin3":"43UD","localeAltName":null},{"geonameid":11071970,"name":"Compton","admin3":"43UL","localeAltName":null},{"geonameid":2652082,"name":"Cranleigh","admin3":"43UL","localeAltName":null},{"geonameid":2651844,"name":"Crowhurst","admin3":"43UK","localeAltName":null},{"geonameid":2651476,"name":"Dawesgreen","admin3":"43UE","localeAltName":null},{"geonameid":2651422,"name":"Deepcut","admin3":"43UJ","localeAltName":null},{"geonameid":6690830,"name":"Ditton Hill","admin3":"43UB","localeAltName":null},{"geonameid":9884099,"name":"Dockenfield","admin3":"43UL","localeAltName":null},{"geonameid":6620356,"name":"Domewood","admin3":"43UK","localeAltName":null},{"geonameid":2651095,"name":"Dorking","admin3":"43UE","localeAltName":null},{"geonameid":2651093,"name":"Dormansland","admin3":"43UK","localeAltName":null},{"geonameid":2651021,"name":"Downside","admin3":"43UB","localeAltName":null},{"geonameid":2650665,"name":"Dunsfold","admin3":"43UL","localeAltName":null},{"geonameid":6947762,"name":"Duxhurst","admin3":"43UF","localeAltName":null},{"geonameid":2650539,"name":"Earlswood","admin3":"43UF","localeAltName":null},{"geonameid":2650481,"name":"East Clandon","admin3":"43UD","localeAltName":null},{"geonameid":2650411,"name":"East Horsley","admin3":"43UD","localeAltName":null},{"geonameid":10377319,"name":"East Horsley Village","admin3":"43UD","localeAltName":null},{"geonameid":2650376,"name":"East Molesey","admin3":"43UB","localeAltName":null},{"geonameid":2650195,"name":"Effingham","admin3":"43UD","localeAltName":null},{"geonameid":9694430,"name":"Effingham","admin3":"43UD","localeAltName":null},{"geonameid":2650188,"name":"Egham","admin3":"43UG","localeAltName":null},{"geonameid":10376317,"name":"Egham Hythe","admin3":"43UG","localeAltName":null},{"geonameid":10377753,"name":"Ellen's Green","admin3":"43UL","localeAltName":null},{"geonameid":2650051,"name":"Elstead","admin3":"43UL","localeAltName":null},{"geonameid":2649992,"name":"Englefield Green","admin3":"43UG","localeAltName":null},{"geonameid":9884569,"name":"Enton","admin3":"43UL","localeAltName":null},{"geonameid":9884570,"name":"Enton Green","admin3":"43UL","localeAltName":null},{"geonameid":2649957,"name":"Epsom","admin3":"43UC","localeAltName":null},{"geonameid":2649911,"name":"Esher","admin3":"43UB","localeAltName":null},{"geonameid":6690867,"name":"Ewell","admin3":"43UC","localeAltName":null},{"geonameid":2649817,"name":"Ewhurst","admin3":"43UL","localeAltName":null},{"geonameid":10376314,"name":"Fairlands","admin3":"43UD","localeAltName":null},{"geonameid":2649681,"name":"Farleigh","admin3":"43UK","localeAltName":null},{"geonameid":10109902,"name":"Farncombe","admin3":"43UL","localeAltName":null},{"geonameid":2649660,"name":"Farnham","admin3":"43UL","localeAltName":null},{"geonameid":2649585,"name":"Felbridge","admin3":"43UK","localeAltName":null},{"geonameid":9409561,"name":"Felcourt","admin3":"43UK","localeAltName":null},{"geonameid":7287910,"name":"Fetcham","admin3":"43UE","localeAltName":null},{"geonameid":11593191,"name":"Flexford","admin3":"43UD","localeAltName":null},{"geonameid":10104020,"name":"Forest Green","admin3":"43UE","localeAltName":null},{"geonameid":2649071,"name":"Frensham","admin3":"43UL","localeAltName":null},{"geonameid":9409571,"name":"Friday Street","admin3":"43UE","localeAltName":null},{"geonameid":2649052,"name":"Frimley","admin3":"43UJ","localeAltName":null},{"geonameid":10104050,"name":"Frimley Green","admin3":"43UJ","localeAltName":null},{"geonameid":2648769,"name":"Gatton","admin3":"43UF","localeAltName":null},{"geonameid":2648767,"name":"Gatwick","admin3":"43UE","localeAltName":null},{"geonameid":9884008,"name":"Givons Grove","admin3":"43UE","localeAltName":null},{"geonameid":2648372,"name":"Godalming","admin3":"43UL","localeAltName":null},{"geonameid":2648363,"name":"Godstone","admin3":"43UK","localeAltName":null},{"geonameid":2648336,"name":"Gomshall","admin3":"43UD","localeAltName":null},{"geonameid":2648154,"name":"Great Bookham","admin3":"43UE","localeAltName":null},{"geonameid":2647793,"name":"Guildford","admin3":"43UD","localeAltName":null},{"geonameid":2647644,"name":"Hale","admin3":"43UL","localeAltName":null},{"geonameid":2647581,"name":"Hambledon","admin3":"43UL","localeAltName":null},{"geonameid":2647375,"name":"Hascombe","admin3":"43UL","localeAltName":null},{"geonameid":2647365,"name":"Haslemere","admin3":"43UL","localeAltName":null},{"geonameid":10104026,"name":"Headley","admin3":"43UE","localeAltName":null},{"geonameid":10104850,"name":"Heath End","admin3":"43UL","localeAltName":null},{"geonameid":2647049,"name":"Hersham","admin3":"43UB","localeAltName":null},{"geonameid":6690831,"name":"Hinchley Wood","admin3":"43UB","localeAltName":null},{"geonameid":2646863,"name":"Hindhead","admin3":"43UL","localeAltName":null},{"geonameid":2646732,"name":"Holmbury St Mary","admin3":"43UD","localeAltName":null},{"geonameid":2646706,"name":"Holmwood","admin3":"43UE","localeAltName":null},{"geonameid":10104042,"name":"Hook Heath","admin3":"43UM","localeAltName":null},{"geonameid":2646647,"name":"Hookwood","admin3":"43UE","localeAltName":null},{"geonameid":10104030,"name":"Hooley","admin3":"43UF","localeAltName":null},{"geonameid":2646606,"name":"Horley","admin3":"43UF","localeAltName":null},{"geonameid":2646589,"name":"Horne","admin3":"43UK","localeAltName":null},{"geonameid":2646566,"name":"Horsell","admin3":"43UM","localeAltName":null},{"geonameid":10109911,"name":"Hurtmore","admin3":"43UD","localeAltName":null},{"geonameid":9884571,"name":"Hydestile","admin3":"43UL","localeAltName":null},{"geonameid":7116373,"name":"Jacob's Well","admin3":"43UD","localeAltName":null},{"geonameid":10104016,"name":"Jayes Park","admin3":"43UE","localeAltName":null},{"geonameid":10104044,"name":"Kingfield","admin3":"43UM","localeAltName":null},{"geonameid":2645419,"name":"Kingswood","admin3":"43UF","localeAltName":null},{"geonameid":2645414,"name":"Kingswood Warren","admin3":"43UC","localeAltName":null},{"geonameid":6693245,"name":"Knaphill","admin3":"43UM","localeAltName":null},{"geonameid":2645016,"name":"Laleham","admin3":"43UH","localeAltName":null},{"geonameid":2644837,"name":"Lashenden","admin3":"43UL","localeAltName":null},{"geonameid":2644726,"name":"Leatherhead","admin3":"43UE","localeAltName":null},{"geonameid":2644664,"name":"Leigh","admin3":"43UE","localeAltName":null},{"geonameid":7116406,"name":"Lightwater","admin3":"43UJ","localeAltName":null},{"geonameid":2644491,"name":"Limpsfield","admin3":"43UK","localeAltName":null},{"geonameid":2644455,"name":"Lingfield","admin3":"43UK","localeAltName":null},{"geonameid":2644369,"name":"Little Bookham","admin3":"43UE","localeAltName":null},{"geonameid":2643701,"name":"Long Ditton","admin3":"43UB","localeAltName":null},{"geonameid":2643705,"name":"Longcross","admin3":"43UJ","localeAltName":null},{"geonameid":10104849,"name":"Lower Hale","admin3":"43UL","localeAltName":null},{"geonameid":2643512,"name":"Lower Kingswood","admin3":"43UF","localeAltName":null},{"geonameid":10104043,"name":"Mayford","admin3":"43UM","localeAltName":null},{"geonameid":10244155,"name":"Meadowlands","admin3":"43UG","localeAltName":null},{"geonameid":2642720,"name":"Merrow","admin3":"43UD","localeAltName":null},{"geonameid":2642711,"name":"Merstham","admin3":"43UF","localeAltName":null},{"geonameid":2642642,"name":"Mickleham","admin3":"43UE","localeAltName":null},{"geonameid":2642537,"name":"Milford","admin3":"43UL","localeAltName":null},{"geonameid":9884094,"name":"Millbridge","admin3":"43UL","localeAltName":null},{"geonameid":10104029,"name":"Mogador","admin3":"43UF","localeAltName":null},{"geonameid":2642369,"name":"Molesey","admin3":"43UB","localeAltName":null},{"geonameid":10104032,"name":"Mugswell","admin3":"43UF","localeAltName":null},{"geonameid":2641924,"name":"Mytchett","admin3":"43UJ","localeAltName":null},{"geonameid":2641671,"name":"New Chapel","admin3":"43UK","localeAltName":null},{"geonameid":2641654,"name":"Newdigate","admin3":"43UE","localeAltName":null},{"geonameid":9883994,"name":"Newland's Corner","admin3":"43UD","localeAltName":null},{"geonameid":2641447,"name":"Normandy","admin3":"43UD","localeAltName":null},{"geonameid":9409260,"name":"North Holmwood","admin3":"43UE","localeAltName":null},{"geonameid":2641144,"name":"Nutfield","admin3":"43UK","localeAltName":null},{"geonameid":2641110,"name":"Oatlands Park","admin3":"43UB","localeAltName":null},{"geonameid":2641092,"name":"Ockham","admin3":"43UD","localeAltName":null},{"geonameid":2641090,"name":"Ockley","admin3":"43UE","localeAltName":null},{"geonameid":10104047,"name":"Old Woking","admin3":"43UM","localeAltName":null},{"geonameid":6930639,"name":"Onslow Village","admin3":"43UD","localeAltName":null},{"geonameid":2640840,"name":"Ottershaw","admin3":"43UG","localeAltName":null},{"geonameid":11593356,"name":"Outwood","admin3":"43UK","localeAltName":null},{"geonameid":2640718,"name":"Oxshott","admin3":"43UE","localeAltName":null},{"geonameid":2640717,"name":"Oxted","admin3":"43UK","localeAltName":null},{"geonameid":6930640,"name":"Park Barn","admin3":"43UD","localeAltName":null},{"geonameid":6693640,"name":"Peaslake","admin3":"43UD","localeAltName":null},{"geonameid":10377168,"name":"Peasmarsh","admin3":"43UD","localeAltName":null},{"geonameid":10104028,"name":"Pebble Coombe","admin3":"43UF","localeAltName":null},{"geonameid":2640374,"name":"Peper Harow","admin3":"43UD","localeAltName":null},{"geonameid":2640269,"name":"Pirbright","admin3":"43UD","localeAltName":null},{"geonameid":2639833,"name":"Puttenham","admin3":"43UD","localeAltName":null},{"geonameid":2639820,"name":"Pyrford","admin3":"43UD","localeAltName":null},{"geonameid":10377317,"name":"Ranmore Common","admin3":"43UE","localeAltName":null},{"geonameid":2639545,"name":"Redhill","admin3":"43UF","localeAltName":null},{"geonameid":2639506,"name":"Reigate","admin3":"43UF","localeAltName":null},{"geonameid":2639326,"name":"Ripley","admin3":"43UD","localeAltName":null},{"geonameid":9884102,"name":"Rushmoor","admin3":"43UL","localeAltName":null},{"geonameid":2638669,"name":"Salfords","admin3":"43UF","localeAltName":null},{"geonameid":9884575,"name":"Sandhills","admin3":"43UL","localeAltName":null},{"geonameid":2638297,"name":"Seale","admin3":"43UD","localeAltName":null},{"geonameid":2638207,"name":"Send","admin3":"43UD","localeAltName":null},{"geonameid":2638206,"name":"Sendmarsh","admin3":"43UD","localeAltName":null},{"geonameid":10109916,"name":"Shackleford","admin3":"43UD","localeAltName":null},{"geonameid":2638150,"name":"Shalford","admin3":"43UD","localeAltName":null},{"geonameid":11593388,"name":"Shamley Green","admin3":"43UL","localeAltName":null},{"geonameid":10104055,"name":"Sheerwater","admin3":"43UM","localeAltName":null},{"geonameid":2638039,"name":"Shepperton","admin3":"43UH","localeAltName":null},{"geonameid":2638026,"name":"Shere","admin3":"43UD","localeAltName":null},{"geonameid":9884095,"name":"Shortfield Common","admin3":"43UL","localeAltName":null},{"geonameid":2637905,"name":"Shottermill","admin3":"43UL","localeAltName":null},{"geonameid":6947761,"name":"Sidlow","admin3":"43UF","localeAltName":null},{"geonameid":11593405,"name":"South Nutfield","admin3":"43UK","localeAltName":null},{"geonameid":9884096,"name":"Spreakley","admin3":"43UL","localeAltName":null},{"geonameid":10104051,"name":"St. John's","admin3":"43UM","localeAltName":null},{"geonameid":2637126,"name":"Staines","admin3":"43UH","localeAltName":null},{"geonameid":2637035,"name":"Stanwell","admin3":"43UH","localeAltName":null},{"geonameid":6690828,"name":"Stoke d'Abernon","admin3":"43UB","localeAltName":null},{"geonameid":2636860,"name":"Stoke D’Abernon","admin3":"43UE","localeAltName":null},{"geonameid":7521347,"name":"Stoneleigh","admin3":"43UC","localeAltName":null},{"geonameid":2636779,"name":"Stoughton","admin3":"43UD","localeAltName":null},{"geonameid":2636533,"name":"Sunbury Common","admin3":"43UH","localeAltName":null},{"geonameid":2636534,"name":"Sunbury-on-Thames","admin3":"43UH","localeAltName":null},{"geonameid":2636331,"name":"Tadworth","admin3":"43UF","localeAltName":null},{"geonameid":2636270,"name":"Tandridge","admin3":"43UK","localeAltName":null},{"geonameid":2636184,"name":"Tatsfield","admin3":"43UK","localeAltName":null},{"geonameid":2649824,"name":"Tattenham Corner","admin3":"43UF","localeAltName":null},{"geonameid":2636062,"name":"Thames Ditton","admin3":"43UB","localeAltName":null},{"geonameid":10104027,"name":"The Hermitage","admin3":"43UF","localeAltName":null},{"geonameid":10104846,"name":"The Sands","admin3":"43UD","localeAltName":null},{"geonameid":2635954,"name":"Thorpe","admin3":"43UG","localeAltName":null},{"geonameid":2635882,"name":"Thursley","admin3":"43UL","localeAltName":null},{"geonameid":7116383,"name":"Tilford","admin3":"43UL","localeAltName":null},{"geonameid":2635766,"name":"Titsey","admin3":"43UK","localeAltName":null},{"geonameid":2635695,"name":"Tongham","admin3":"43UD","localeAltName":null},{"geonameid":9884572,"name":"Tuesley","admin3":"43UL","localeAltName":null},{"geonameid":2635128,"name":"Upper Hale","admin3":"43UL","localeAltName":null},{"geonameid":6620367,"name":"Virginia Water","admin3":"43UG","localeAltName":null},{"geonameid":10104019,"name":"Walliswood","admin3":"43UE","localeAltName":null},{"geonameid":2634828,"name":"Walton on the Hill","admin3":"43UF","localeAltName":null},{"geonameid":2634825,"name":"Walton-on-Thames","admin3":"43UB","localeAltName":null},{"geonameid":7116381,"name":"Wanborough","admin3":"43UD","localeAltName":null},{"geonameid":2634759,"name":"Warlingham","admin3":"43UK","localeAltName":null},{"geonameid":6949118,"name":"Watercolour","admin3":"43UF","localeAltName":null},{"geonameid":2634526,"name":"Wentworth","admin3":"43UG","localeAltName":null},{"geonameid":2634500,"name":"West Bedfont","admin3":"43UH","localeAltName":null},{"geonameid":2634478,"name":"West Byfleet","admin3":"43UM","localeAltName":null},{"geonameid":2634469,"name":"West Clandon","admin3":"43UD","localeAltName":null},{"geonameid":2634388,"name":"West Horsley","admin3":"43UD","localeAltName":null},{"geonameid":2634340,"name":"West Molesey","admin3":"43UB","localeAltName":null},{"geonameid":2634465,"name":"Westcott","admin3":"43UE","localeAltName":null},{"geonameid":10104025,"name":"Westhumble","admin3":"43UE","localeAltName":null},{"geonameid":2634204,"name":"Weybridge","admin3":"43UB","localeAltName":null},{"geonameid":10104829,"name":"White Bushes","admin3":"43UF","localeAltName":null},{"geonameid":2633993,"name":"Whyteleafe","admin3":"43UK","localeAltName":null},{"geonameid":2633849,"name":"Windlesham","admin3":"43UJ","localeAltName":null},{"geonameid":2633763,"name":"Wisley","admin3":"43UD","localeAltName":null},{"geonameid":2633731,"name":"Witley","admin3":"43UL","localeAltName":null},{"geonameid":2633709,"name":"Woking","admin3":"43UM","localeAltName":null},{"geonameid":2633707,"name":"Woldingham","admin3":"43UK","localeAltName":null},{"geonameid":2633677,"name":"Wonersh","admin3":"43UL","localeAltName":null},{"geonameid":10376313,"name":"Wood Street Village","admin3":"43UD","localeAltName":null},{"geonameid":10104056,"name":"Woodham","admin3":"43UG","localeAltName":null},{"geonameid":10171168,"name":"Wormley","admin3":"43UL","localeAltName":null},{"geonameid":2633532,"name":"Worplesdon","admin3":"43UD","localeAltName":null},{"geonameid":2633512,"name":"Wotton","admin3":"43UE","localeAltName":null},{"geonameid":2633492,"name":"Wrecclesham","admin3":"43UL","localeAltName":null}],"admin3":[{"geonameid":2636511,"name":"Surrey Heath","admin3":"43UJ","localeAltName":null},{"geonameid":2639505,"name":"Reigate and Banstead District","admin3":"43UF","localeAltName":null},{"geonameid":2642367,"name":"Mole Valley","admin3":"43UE","localeAltName":null},{"geonameid":2650079,"name":"Elmbridge District","admin3":"43UB","localeAltName":null},{"geonameid":7290639,"name":"Epsom and Ewell District","admin3":"43UC","localeAltName":null},{"geonameid":7290640,"name":"Guildford District","admin3":"43UD","localeAltName":null},{"geonameid":7290641,"name":"Runnymede District","admin3":"43UG","localeAltName":null},{"geonameid":7290642,"name":"Spelthorne District","admin3":"43UH","localeAltName":null},{"geonameid":7290643,"name":"Tandridge District","admin3":"43UK","localeAltName":null},{"geonameid":7290644,"name":"Waverley District","admin3":"43UL","localeAltName":null},{"geonameid":7290645,"name":"Woking District","admin3":"43UM","localeAltName":null}],"alternateNames":[{"alternatenameId":2254239,"geonameid":2636512,"isoLanguage":"en","alternateName":"Surrey","isPreferredName":true,"isShortName":true,"isColloquial":false,"isHistoric":false},{"alternatenameId":1626647,"geonameid":6269131,"isoLanguage":"en","alternateName":"England","isPreferredName":true,"isShortName":true,"isColloquial":false,"isHistoric":false}]},"__N_SSG":true}