{"pageProps":{"locale":"en","admin2":{"geonameid":8593704,"name":"Northern Rockies Regional Municipality","country":"CA","admin1":"02","admin2":"5959","admin3":"","latitude":"59.0019600","longitude":"-123.7541200"},"admin1":{"geonameid":5909050,"name":"British Columbia","admin1":"02"},"locations":[{"geonameid":5924457,"name":"Coal River","admin3":"5959007"},{"geonameid":5953023,"name":"Fireside","admin3":"5959007"},{"geonameid":5955268,"name":"Fontas","admin3":"5959007"},{"geonameid":5955902,"name":"Fort Nelson","admin3":"5959007"},{"geonameid":5988644,"name":"Kahntah","admin3":"5959007"},{"geonameid":6053510,"name":"Liard River","admin3":"5959007"},{"geonameid":6064168,"name":"Magnum Mine","admin3":"5959007"},{"geonameid":6084165,"name":"Muncho Lake","admin3":"5959007"},{"geonameid":6085087,"name":"Muskwa","admin3":"5959007"},{"geonameid":6086896,"name":"Nelson Forks","admin3":"5959007"},{"geonameid":6093165,"name":"Old Fort Nelson","admin3":"5959007"},{"geonameid":6150136,"name":"Smith River","admin3":"5959007"},{"geonameid":6150524,"name":"Snake River","admin3":"5959007"},{"geonameid":6155817,"name":"Steamboat","admin3":"5959007"},{"geonameid":6159308,"name":"Summit Lake","admin3":"5959007"},{"geonameid":6167094,"name":"Toad River","admin3":"5959007"}],"admin3":[{"geonameid":12031928,"name":"Northern Rockies","admin3":"5959007"}],"alternateNames":[]},"__N_SSG":true}