{"pageProps":{"locale":"en","admin2":{"geonameid":6119130,"name":"Regional District of East Kootenay","country":"CA","admin1":"02","admin2":"5901","admin3":"","latitude":"49.9166400","longitude":"-115.7520900"},"admin1":{"geonameid":5909050,"name":"British Columbia","admin1":"02"},"locations":[{"geonameid":5914778,"name":"Canal Flats","admin3":"5901043"},{"geonameid":5919957,"name":"Chapman Camp","admin3":"5901028"},{"geonameid":5927764,"name":"Corbin","admin3":"5901006"},{"geonameid":5931800,"name":"Cranbrook","admin3":"5901022"},{"geonameid":5933486,"name":"Crowsnest","admin3":"5901006"},{"geonameid":5947708,"name":"Elkford","admin3":"5901003"},{"geonameid":5983626,"name":"Invermere","admin3":"5901039"},{"geonameid":5992059,"name":"Kimberley","admin3":"5901028"},{"geonameid":6067478,"name":"Marysville","admin3":"5901028"},{"geonameid":6126941,"name":"Rockyview","admin3":"5901022"},{"geonameid":6128473,"name":"Round Prairie","admin3":"5901003"},{"geonameid":6153250,"name":"Sparwood","admin3":"5901006"}],"admin3":[{"geonameid":6153249,"name":"Sparwood","admin3":"5901006"},{"geonameid":12031855,"name":"Cranbrook","admin3":"5901022"},{"geonameid":12031856,"name":"Invermere","admin3":"5901039"},{"geonameid":12031912,"name":"Elkford","admin3":"5901003"},{"geonameid":12031913,"name":"Canal Flats","admin3":"5901043"},{"geonameid":12031933,"name":"Fernie","admin3":"5901012"},{"geonameid":12031934,"name":"Kimberley","admin3":"5901028"},{"geonameid":12031935,"name":"Radium Hot Springs","admin3":"5901040"}],"alternateNames":[]},"__N_SSG":true}