{"pageProps":{"locale":"en","admin2":{"geonameid":6119127,"name":"Regional District of Central Kootenay","country":"CA","admin1":"02","admin2":"5903","admin3":"","latitude":"49.9165500","longitude":"-117.5022200"},"admin1":{"geonameid":5909050,"name":"British Columbia","admin1":"02"},"locations":[{"geonameid":5883692,"name":"Alice Siding","admin3":"5903004"},{"geonameid":5908902,"name":"Brilliant","admin3":""},{"geonameid":5918118,"name":"Castlegar","admin3":"5903045"},{"geonameid":5932311,"name":"Creston","admin3":"5903004"},{"geonameid":5951842,"name":"Fauquier","admin3":""},{"geonameid":5989566,"name":"Kaslo","admin3":"5903023"},{"geonameid":5992584,"name":"Kinnaird","admin3":"5903045"},{"geonameid":6079653,"name":"Mountain Station","admin3":"5903015"},{"geonameid":6085665,"name":"Nakusp","admin3":"5903050"},{"geonameid":6086871,"name":"Nelson","admin3":"5903015"},{"geonameid":6087524,"name":"New Denver","admin3":"5903032"},{"geonameid":6125909,"name":"Robson West","admin3":""},{"geonameid":6139413,"name":"Salmo","admin3":"5903011"},{"geonameid":6147932,"name":"Silverton","admin3":"5903027"},{"geonameid":6149600,"name":"Slocan","admin3":"5903019"}],"admin3":[{"geonameid":12031857,"name":"Castlegar","admin3":"5903045"},{"geonameid":12031858,"name":"Nelson","admin3":"5903015"},{"geonameid":12031859,"name":"New Denver","admin3":"5903032"},{"geonameid":12031914,"name":"Creston","admin3":"5903004"},{"geonameid":12031915,"name":"Kaslo","admin3":"5903023"},{"geonameid":12031922,"name":"Nakusp","admin3":"5903050"},{"geonameid":12031923,"name":"Salmo","admin3":"5903011"},{"geonameid":12031924,"name":"Silverton","admin3":"5903027"},{"geonameid":12031925,"name":"Slocan","admin3":"5903019"}],"alternateNames":[]},"__N_SSG":true}