{"pageProps":{"locale":"en","admin2":{"geonameid":6148773,"name":"Skeena-Queen Charlotte Regional District","country":"CA","admin1":"02","admin2":"5947","admin3":"","latitude":"53.7494700","longitude":"-132.0034300"},"admin1":{"geonameid":5909050,"name":"British Columbia","admin1":"02"},"locations":[{"geonameid":5883997,"name":"Alliford Bay","admin3":""},{"geonameid":5933962,"name":"Cumshewa","admin3":""},{"geonameid":5937541,"name":"Delkatla","admin3":"5947023"},{"geonameid":5939243,"name":"Digby Island","admin3":""},{"geonameid":8629135,"name":"Dodge Cove","admin3":""},{"geonameid":5960537,"name":"Georgetown Mills","admin3":""},{"geonameid":8629185,"name":"Haida","admin3":""},{"geonameid":5969015,"name":"Haina","admin3":""},{"geonameid":5971595,"name":"Hartley Bay","admin3":""},{"geonameid":5975519,"name":"Hippa","admin3":""},{"geonameid":5978752,"name":"Hunts Inlet","admin3":""},{"geonameid":5986080,"name":"Jedway","admin3":""},{"geonameid":5988483,"name":"Juskatla","admin3":"5947030"},{"geonameid":5988699,"name":"Kaisun","admin3":""},{"geonameid":5993080,"name":"Kitkatla","admin3":""},{"geonameid":5993202,"name":"Kiusta","admin3":""},{"geonameid":5994429,"name":"Kung","admin3":""},{"geonameid":6050809,"name":"Lawnhill","admin3":""},{"geonameid":6050948,"name":"Lax Kw'alaams","admin3":""},{"geonameid":6058238,"name":"Lockeport","admin3":""},{"geonameid":6067676,"name":"Masset","admin3":"5947023"},{"geonameid":6072530,"name":"Metlakatla","admin3":""},{"geonameid":6087479,"name":"New Clew","admin3":""},{"geonameid":6088455,"name":"Ninstints","admin3":""},{"geonameid":6093300,"name":"Old Massett","admin3":""},{"geonameid":6093985,"name":"Oona River","admin3":""},{"geonameid":6094638,"name":"Osland","admin3":""},{"geonameid":6111070,"name":"Porcher Island","admin3":""},{"geonameid":6111701,"name":"Port Clements","admin3":"5947030"},{"geonameid":6111742,"name":"Port Edward","admin3":"5947007"},{"geonameid":6111843,"name":"Port Essington","admin3":""},{"geonameid":12196137,"name":"Port Simpson","admin3":""},{"geonameid":6113406,"name":"Prince Rupert","admin3":"5947012"},{"geonameid":6115065,"name":"Queen Charlotte","admin3":"5947026"},{"geonameid":6127607,"name":"Rose Harbour","admin3":""},{"geonameid":6140529,"name":"Sandspit","admin3":""},{"geonameid":6144582,"name":"Sewall","admin3":""},{"geonameid":6145164,"name":"Shannon Bay","admin3":""},{"geonameid":6148761,"name":"Skedans","admin3":""},{"geonameid":6148858,"name":"Skidegate","admin3":""},{"geonameid":6148863,"name":"Skidegate Landing","admin3":"5947026"},{"geonameid":6161584,"name":"Tanu","admin3":""},{"geonameid":6166231,"name":"Thurston Harbour","admin3":""},{"geonameid":6167054,"name":"Tlell","admin3":""},{"geonameid":6185108,"name":"Yaku","admin3":""}],"admin3":[{"geonameid":12031899,"name":"Port Edward","admin3":"5947007"},{"geonameid":12031900,"name":"Prince Rupert","admin3":"5947012"},{"geonameid":12031901,"name":"Queen Charlotte","admin3":"5947026"},{"geonameid":12031994,"name":"Masset","admin3":"5947023"},{"geonameid":12031996,"name":"Port Clements","admin3":"5947030"}],"alternateNames":[]},"__N_SSG":true}