{"pageProps":{"locale":"ro","admin2":{"geonameid":674270,"name":"Comuna Lupşa","country":"RO","admin1":"01","admin2":"5336","admin3":"","latitude":"46.3489100","longitude":"23.2045500"},"admin1":{"geonameid":686581,"name":"Alba","admin1":"01"},"locations":[{"geonameid":684815,"name":"Bârdeşti","admin3":""},{"geonameid":684728,"name":"Bârzan","admin3":""},{"geonameid":679922,"name":"Curmătură","admin3":""},{"geonameid":678628,"name":"După Deal","admin3":""},{"geonameid":677547,"name":"Geamăna","admin3":""},{"geonameid":676406,"name":"Hădărău","admin3":""},{"geonameid":676071,"name":"Holobani","admin3":""},{"geonameid":674950,"name":"Lazuri","admin3":""},{"geonameid":674474,"name":"Lunca","admin3":""},{"geonameid":674272,"name":"Lupşa","admin3":""},{"geonameid":673268,"name":"Mănăstire","admin3":""},{"geonameid":673120,"name":"Mârgaia","admin3":""},{"geonameid":673454,"name":"Micudia","admin3":""},{"geonameid":673040,"name":"Mitruţeşti","admin3":""},{"geonameid":672594,"name":"Mușca","admin3":""},{"geonameid":670736,"name":"Pârâu Cărbunari","admin3":""},{"geonameid":670972,"name":"Petrici","admin3":""},{"geonameid":670607,"name":"Pițiga","admin3":""},{"geonameid":669797,"name":"Poșogani","admin3":""},{"geonameid":669216,"name":"Rafileşti","admin3":""},{"geonameid":667939,"name":"Șasa","admin3":""},{"geonameid":667371,"name":"Şerbăneşti","admin3":""},{"geonameid":665858,"name":"Sub Piatră","admin3":""},{"geonameid":664613,"name":"Trifești","admin3":""},{"geonameid":663962,"name":"Văi","admin3":""},{"geonameid":663742,"name":"Valea Holhorii","admin3":""},{"geonameid":663658,"name":"Valea Lupșii","admin3":""},{"geonameid":663620,"name":"Valea Mare","admin3":""},{"geonameid":663444,"name":"Valea Șesii","admin3":""},{"geonameid":662803,"name":"Vința","admin3":""}],"admin3":[],"alternateNames":[]},"__N_SSG":true}