{"pageProps":{"locale":"en","admin2":{"geonameid":8593708,"name":"Gloucester County","country":"CA","admin1":"04","admin2":"1315","admin3":"","latitude":"47.6496600","longitude":"-65.2533000"},"admin1":{"geonameid":6087430,"name":"New Brunswick/Nouveau-Brunswick","admin1":"04"},"locations":[{"geonameid":12069867,"name":"Alcida","admin3":""},{"geonameid":12069876,"name":"Alderwood","admin3":""},{"geonameid":12123622,"name":"Allardville East","admin3":""},{"geonameid":12069869,"name":"Anse-Bleue","admin3":""},{"geonameid":12069877,"name":"Baie De Petit-Pokemouche","admin3":""},{"geonameid":12096349,"name":"Bartibog Station","admin3":""},{"geonameid":12069871,"name":"Bas-Caraquet","admin3":""},{"geonameid":12096350,"name":"Bear Landing","admin3":""},{"geonameid":12069875,"name":"Benoit","admin3":""},{"geonameid":11838446,"name":"Big River","admin3":""},{"geonameid":12069874,"name":"Bios-Blanc","admin3":""},{"geonameid":12069870,"name":"Black Rock","admin3":""},{"geonameid":12123682,"name":"Bois Hébert","admin3":""},{"geonameid":12069878,"name":"Bois-Gagnon","admin3":""},{"geonameid":12069879,"name":"Burnsville","admin3":""},{"geonameid":12069880,"name":"Butte-d'Or","admin3":""},{"geonameid":12069881,"name":"Canobie","admin3":""},{"geonameid":12069882,"name":"Canton des Basques","admin3":""},{"geonameid":12069883,"name":"Cap-Bateau","admin3":""},{"geonameid":12069885,"name":"Carron Point","admin3":""},{"geonameid":12069887,"name":"Chamberlain Settlement","admin3":""},{"geonameid":12069888,"name":"Chiasson","admin3":""},{"geonameid":12069895,"name":"Clifton","admin3":""},{"geonameid":12069929,"name":"Coteau Road","admin3":""},{"geonameid":12070156,"name":"Cowans Creek","admin3":""},{"geonameid":12069896,"name":"Dauversière","admin3":""},{"geonameid":12070144,"name":"Duguayville","admin3":""},{"geonameid":12069941,"name":"Dunlop","admin3":""},{"geonameid":12070157,"name":"Evangeline","admin3":""},{"geonameid":12070158,"name":"Four Roads","admin3":""},{"geonameid":12069942,"name":"Free Grant","admin3":""},{"geonameid":12069892,"name":"Gaspereau","admin3":""},{"geonameid":12070160,"name":"Gauvreau","admin3":""},{"geonameid":12069904,"name":"Gloucester Junction","admin3":""},{"geonameid":12069943,"name":"Goodwin Mill","admin3":""},{"geonameid":12070145,"name":"Hacheyville","admin3":""},{"geonameid":12069872,"name":"Haut-Paquetville","admin3":""},{"geonameid":12076665,"name":"Haut-Sheila","admin3":""},{"geonameid":12070161,"name":"Haut-Shippagan","admin3":""},{"geonameid":11350712,"name":"Janeville","admin3":""},{"geonameid":12077035,"name":"Landry","admin3":""},{"geonameid":12096346,"name":"Laplante","admin3":""},{"geonameid":12070163,"name":"Le Goulet","admin3":""},{"geonameid":12070173,"name":"Leech","admin3":""},{"geonameid":12069893,"name":"Little Gaspereau","admin3":""},{"geonameid":12070164,"name":"Losier Settlement","admin3":""},{"geonameid":12069944,"name":"Lugar","admin3":""},{"geonameid":12069897,"name":"Madran","admin3":""},{"geonameid":11789599,"name":"Maisonnette","admin3":""},{"geonameid":12070165,"name":"Maltempec","admin3":""},{"geonameid":12069945,"name":"Middle River","admin3":""},{"geonameid":6943602,"name":"Miscou","admin3":""},{"geonameid":12123621,"name":"Nepisiguit Falls","admin3":""},{"geonameid":12069946,"name":"Nicholas Denys","admin3":""},{"geonameid":11838441,"name":"Nigadoo","admin3":""},{"geonameid":12069947,"name":"North Tetagouche","admin3":""},{"geonameid":12070146,"name":"Notre-Dame-des-Érables","admin3":""},{"geonameid":12123624,"name":"Pabineau Falls","admin3":""},{"geonameid":11838443,"name":"Paquetville","admin3":""},{"geonameid":12069873,"name":"Petit-Paquetville","admin3":""},{"geonameid":12069899,"name":"Petit-Rocher-Nord","admin3":""},{"geonameid":12069900,"name":"Petit-Rocher-Ouest","admin3":""},{"geonameid":12070162,"name":"Petit-Shippagan","admin3":""},{"geonameid":12069903,"name":"Petite-Lamèque","admin3":""},{"geonameid":12069931,"name":"Petite-Rivière-de-l'Ile","admin3":""},{"geonameid":12069932,"name":"Pigeon Hill","admin3":""},{"geonameid":12070172,"name":"Pointe A Tom","admin3":""},{"geonameid":12070174,"name":"Pointe des Robichaud","admin3":""},{"geonameid":12070166,"name":"Pointe-à-Bouleau","admin3":""},{"geonameid":12069933,"name":"Pointe-Alexandre","admin3":""},{"geonameid":12069934,"name":"Pointe-Brûlée","admin3":""},{"geonameid":12069935,"name":"Pointe-Canot","admin3":""},{"geonameid":12070167,"name":"Pointe-Sauvage","admin3":""},{"geonameid":12069894,"name":"Pokemouche","admin3":""},{"geonameid":12069902,"name":"Pokeshaw","admin3":""},{"geonameid":12069936,"name":"Pokesudie","admin3":""},{"geonameid":12070175,"name":"Pont-Lafrance","admin3":""},{"geonameid":12070168,"name":"Pont-Landry","admin3":""},{"geonameid":12070147,"name":"Rang-Saint-Georges","admin3":""},{"geonameid":12070136,"name":"Rio Grande","admin3":""},{"geonameid":12069889,"name":"Rivière-à-la-Truite","admin3":""},{"geonameid":12070137,"name":"Robertville","admin3":""},{"geonameid":12070148,"name":"Rocheville","admin3":""},{"geonameid":12070138,"name":"Rosehill","admin3":""},{"geonameid":12070139,"name":"Rough Waters","admin3":""},{"geonameid":12076661,"name":"Saint Irénée and Alderwood","admin3":""},{"geonameid":12096557,"name":"Saint Laurent","admin3":""},{"geonameid":12070149,"name":"Saint-Amateur","admin3":""},{"geonameid":12070151,"name":"Saint-Irénée","admin3":""},{"geonameid":6943607,"name":"Saint-Isidore","admin3":""},{"geonameid":12123623,"name":"Saint-Laurent Nord","admin3":""},{"geonameid":12069928,"name":"Saint-Léolin","admin3":""},{"geonameid":12070176,"name":"Saint-Pons","admin3":""},{"geonameid":12069890,"name":"Saint-Raphaël-sur-Mer","admin3":""},{"geonameid":12070150,"name":"Saint-Sauveur","admin3":""},{"geonameid":12069937,"name":"Saint-Simon","admin3":""},{"geonameid":12070169,"name":"Sainte Rose","admin3":""},{"geonameid":12070140,"name":"Sainte Rosette","admin3":""},{"geonameid":12069938,"name":"Sainte-Cécile","admin3":""},{"geonameid":12070141,"name":"Sainte-Louise","admin3":""},{"geonameid":12069939,"name":"Sainte-Marie-Saint-Raphaël","admin3":""},{"geonameid":12070142,"name":"Salmon Beach","admin3":""},{"geonameid":12070170,"name":"Saumarez","admin3":""},{"geonameid":12069940,"name":"Savoy Landing","admin3":""},{"geonameid":12069949,"name":"Sheila","admin3":""},{"geonameid":11789760,"name":"Shippagan","admin3":""},{"geonameid":12070159,"name":"Six Roads","admin3":""},{"geonameid":12070143,"name":"Sormany","admin3":""},{"geonameid":11838447,"name":"South Tetagouche","admin3":""},{"geonameid":12070152,"name":"Stonehaven","admin3":""},{"geonameid":12123683,"name":"Tetagouche Falls","admin3":""},{"geonameid":12070153,"name":"Tilley Road","admin3":""},{"geonameid":12070177,"name":"Tracadie Beach","admin3":""},{"geonameid":12069901,"name":"Tremblay","admin3":""},{"geonameid":12070154,"name":"Trudel","admin3":""},{"geonameid":12070178,"name":"Val-Comeau","admin3":""},{"geonameid":12070155,"name":"Val-Doucet","admin3":""},{"geonameid":12070171,"name":"Village-Blanchard","admin3":""}],"admin3":[],"alternateNames":[]},"__N_SSG":true}