{"pageProps":{"locale":"en","admin2":{"geonameid":8593709,"name":"Madawaska County","country":"CA","admin1":"04","admin2":"1313","admin3":"","latitude":"47.4253000","longitude":"-68.2058700"},"admin1":{"geonameid":6087430,"name":"New Brunswick/Nouveau-Brunswick","admin1":"04"},"locations":[{"geonameid":12096426,"name":"Bellefleur","admin3":""},{"geonameid":12096427,"name":"Bellefleur Station","admin3":""},{"geonameid":12096376,"name":"Caron Brook","admin3":""},{"geonameid":12096367,"name":"Ciquart","admin3":""},{"geonameid":11822501,"name":"Clair","admin3":""},{"geonameid":12096432,"name":"Comeau Ridge","admin3":""},{"geonameid":12096377,"name":"Concession-de-Baker-Brook","admin3":""},{"geonameid":12096379,"name":"Concession-des-Bouchard","admin3":""},{"geonameid":12096422,"name":"Concession-des-Jaunes","admin3":""},{"geonameid":12096381,"name":"Concession-des-Lang","admin3":""},{"geonameid":12096383,"name":"Concession-des-Ouellette","admin3":""},{"geonameid":12096380,"name":"Concession-des-Vasseur","admin3":""},{"geonameid":12096386,"name":"Concession-des-Viel","admin3":""},{"geonameid":12096423,"name":"Connors","admin3":""},{"geonameid":12096434,"name":"Coombes Road","admin3":""},{"geonameid":12096394,"name":"Couturier Siding","admin3":""},{"geonameid":12096428,"name":"Cyr Junction","admin3":""},{"geonameid":12096395,"name":"Davis Mill","admin3":""},{"geonameid":12096396,"name":"Deuxième-Sault","admin3":""},{"geonameid":12096397,"name":"Ennemond","admin3":""},{"geonameid":12096417,"name":"Flemming","admin3":""},{"geonameid":12096418,"name":"Fourche-à-Clark","admin3":""},{"geonameid":12096398,"name":"Francoeur","admin3":""},{"geonameid":12096436,"name":"Grand-Ruisseau","admin3":""},{"geonameid":12096369,"name":"Grandmaison","admin3":""},{"geonameid":12096370,"name":"Halfway Depot","admin3":""},{"geonameid":12096438,"name":"Harrison Brook Settlement","admin3":""},{"geonameid":12096399,"name":"Iroquois","admin3":""},{"geonameid":12096400,"name":"Jalbert","admin3":""},{"geonameid":11523812,"name":"Lac Baker","admin3":""},{"geonameid":12096387,"name":"Lac-Unique","admin3":""},{"geonameid":12096388,"name":"Les Rapides","admin3":""},{"geonameid":12096405,"name":"Levesque","admin3":""},{"geonameid":12096433,"name":"Levesque Settlement","admin3":""},{"geonameid":12096406,"name":"Madawaska Maliseet First Nation","admin3":""},{"geonameid":12096440,"name":"Martin Siding","admin3":""},{"geonameid":12096419,"name":"Miller Line Cache","admin3":""},{"geonameid":12096408,"name":"Montagne-de-la-Croix","admin3":""},{"geonameid":12096407,"name":"Montagne-des-Roy","admin3":""},{"geonameid":12096409,"name":"Montagne-des-Therrien","admin3":""},{"geonameid":12096372,"name":"Moulin-Morneault","admin3":""},{"geonameid":12096404,"name":"Notre-Dame-de-Lourdes","admin3":""},{"geonameid":12096410,"name":"Patrieville","admin3":""},{"geonameid":12096425,"name":"Pelletiers Mill","admin3":""},{"geonameid":12096411,"name":"Petite-Rivière-à-la-Truite","admin3":""},{"geonameid":12096389,"name":"Pinniquine","admin3":""},{"geonameid":12096441,"name":"Poitras Siding","admin3":""},{"geonameid":12096384,"name":"Portage-du-Lac","admin3":""},{"geonameid":12096442,"name":"Powers Creek","admin3":""},{"geonameid":12096412,"name":"Prime","admin3":""},{"geonameid":12096393,"name":"Quatre-Coins","admin3":""},{"geonameid":12096413,"name":"Quisibis","admin3":""},{"geonameid":12096373,"name":"Rang-des-Bossé","admin3":""},{"geonameid":12096430,"name":"Rang-des-Bourgoin","admin3":""},{"geonameid":12096382,"name":"Rang-des-Collin","admin3":""},{"geonameid":12096374,"name":"Rang-des-Couturier","admin3":""},{"geonameid":12096403,"name":"Rang-des-Deschêne","admin3":""},{"geonameid":12096401,"name":"Rang-des-Lavoie","admin3":""},{"geonameid":12096392,"name":"Rang-des-Morneault","admin3":""},{"geonameid":12096378,"name":"Rang-Saint-Joseph","admin3":""},{"geonameid":12096318,"name":"Riceville","admin3":""},{"geonameid":12077043,"name":"Rivière-à-la-Truite","admin3":""},{"geonameid":9034820,"name":"Riviére-Verte","admin3":""},{"geonameid":12096444,"name":"Saint-Amand","admin3":""},{"geonameid":11789602,"name":"Saint-Basile","admin3":""},{"geonameid":11838448,"name":"Saint-François-de-Madawaska","admin3":""},{"geonameid":12077042,"name":"Saint-Jacques","admin3":""},{"geonameid":12096375,"name":"Saint-Joseph-de-Madawaska","admin3":""},{"geonameid":7731836,"name":"Saint-Léonard","admin3":""},{"geonameid":12096429,"name":"Saint-Léonard-Parent","admin3":""},{"geonameid":12077044,"name":"Sainte-Anne-de-Madawaska","admin3":""},{"geonameid":12096439,"name":"Siegas","admin3":""},{"geonameid":12096420,"name":"Siegas Lake Settlement","admin3":""},{"geonameid":12096414,"name":"Sirois","admin3":""},{"geonameid":12096385,"name":"Soucy","admin3":""},{"geonameid":12096431,"name":"St-André","admin3":""},{"geonameid":12096415,"name":"St-Hilaire","admin3":""},{"geonameid":12096371,"name":"Sweeney Settlement","admin3":""},{"geonameid":12096424,"name":"Val Oakes","admin3":""},{"geonameid":12096390,"name":"Val-Lambert","admin3":""},{"geonameid":12096391,"name":"Val-Nadeau","admin3":""},{"geonameid":12096421,"name":"Veneer","admin3":""},{"geonameid":12096416,"name":"Verret","admin3":""},{"geonameid":12096437,"name":"Violette Settlement","admin3":""},{"geonameid":12096446,"name":"Woodville","admin3":""}],"admin3":[],"alternateNames":[]},"__N_SSG":true}