{"pageProps":{"locale":"en","admin2":{"geonameid":4964821,"name":"Franklin County","country":"US","admin1":"ME","admin2":"007","admin3":"","latitude":"44.9741700","longitude":"-70.4441000"},"admin1":{"geonameid":4971068,"name":"Maine","admin1":"ME"},"locations":[{"geonameid":4957031,"name":"Avon","admin3":"02235"},{"geonameid":4960332,"name":"Carthage","admin3":"10915"},{"geonameid":4960771,"name":"Chesterville","admin3":"12595"},{"geonameid":4960829,"name":"Chisholm","admin3":"35625"},{"geonameid":4963858,"name":"Eustis","admin3":"24005"},{"geonameid":4964024,"name":"Farmington","admin3":"24775"},{"geonameid":4968234,"name":"Jay","admin3":"35625"},{"geonameid":4968894,"name":"Kingfield","admin3":"37025"},{"geonameid":4973288,"name":"New Sharon","admin3":"49345"},{"geonameid":4973297,"name":"New Vineyard","admin3":"49520"},{"geonameid":5281077,"name":"Phillips","admin3":"58445"},{"geonameid":4980051,"name":"Strong","admin3":"74825"},{"geonameid":4980455,"name":"Temple","admin3":"75980"},{"geonameid":4983257,"name":"Wilton","admin3":"85850"}],"admin3":[{"geonameid":4957035,"name":"Town of Avon","admin3":"02235"},{"geonameid":4960269,"name":"Town of Carrabassett Valley","admin3":"10740"},{"geonameid":4960333,"name":"Town of Carthage","admin3":"10915"},{"geonameid":4960775,"name":"Town of Chesterville","admin3":"12595"},{"geonameid":4961483,"name":"Plantation of Coplin","admin3":"14205"},{"geonameid":4962058,"name":"Plantation of Dallas","admin3":"16165"},{"geonameid":4963267,"name":"Unorganized Territory of East Central Franklin","admin3":"19865"},{"geonameid":4963863,"name":"Town of Eustis","admin3":"24005"},{"geonameid":4964030,"name":"Town of Farmington","admin3":"24775"},{"geonameid":4967951,"name":"Town of Industry","admin3":"34820"},{"geonameid":4968241,"name":"Town of Jay","admin3":"35625"},{"geonameid":4968899,"name":"Town of Kingfield","admin3":"37025"},{"geonameid":4973290,"name":"Town of New Sharon","admin3":"49345"},{"geonameid":4973301,"name":"Town of New Vineyard","admin3":"49520"},{"geonameid":4973568,"name":"Unorganized Territory of North Franklin","admin3":"51400"},{"geonameid":4975151,"name":"Town of Phillips","admin3":"58445"},{"geonameid":4976336,"name":"Plantation of Rangeley","admin3":"61875"},{"geonameid":4976337,"name":"Town of Rangeley","admin3":"61840"},{"geonameid":4977754,"name":"Plantation of Sandy River","admin3":"65655"},{"geonameid":4979162,"name":"Unorganized Territory of South Franklin","admin3":"70760"},{"geonameid":4980055,"name":"Town of Strong","admin3":"74825"},{"geonameid":4980468,"name":"Town of Temple","admin3":"75980"},{"geonameid":4982379,"name":"Town of Weld","admin3":"81300"},{"geonameid":4982599,"name":"Unorganized Territory of West Central Franklin","admin3":"82235"},{"geonameid":4983263,"name":"Town of Wilton","admin3":"85850"},{"geonameid":4983555,"name":"Unorganized Territory of Wyman","admin3":"87680"}],"alternateNames":[]},"__N_SSG":true}