{"pageProps":{"locale":"en","admin2":{"geonameid":4983621,"name":"York County","country":"US","admin1":"ME","admin2":"031","admin3":"","latitude":"43.4292300","longitude":"-70.6701500"},"admin1":{"geonameid":4971068,"name":"Maine","admin1":"ME"},"locations":[{"geonameid":4956462,"name":"Acton","admin3":"00275"},{"geonameid":4832342,"name":"Alfred","admin3":"00730"},{"geonameid":4956893,"name":"Arundel","admin3":"01605"},{"geonameid":4832356,"name":"Berwick","admin3":"04720"},{"geonameid":4958141,"name":"Biddeford","admin3":"04860"},{"geonameid":4959799,"name":"Buxton","admin3":"09410"},{"geonameid":4960091,"name":"Cape Neddick","admin3":"87985"},{"geonameid":4961511,"name":"Cornish","admin3":"14485"},{"geonameid":6545140,"name":"Dayton","admin3":"16725"},{"geonameid":4963642,"name":"Eliot","admin3":"22955"},{"geonameid":4967361,"name":"Hollis Center","admin3":"33665"},{"geonameid":4968729,"name":"Kennebunk","admin3":"36535"},{"geonameid":4968747,"name":"Kennebunkport","admin3":"36745"},{"geonameid":4968937,"name":"Kittery","admin3":"37270"},{"geonameid":4968933,"name":"Kittery Point","admin3":"37270"},{"geonameid":4969066,"name":"Lake Arrowhead","admin3":"80530"},{"geonameid":4969280,"name":"Lebanon","admin3":"38425"},{"geonameid":4969529,"name":"Limerick","admin3":"39195"},{"geonameid":4969542,"name":"Limington","admin3":"39405"},{"geonameid":4973346,"name":"Newfield","admin3":"48750"},{"geonameid":4973463,"name":"North Berwick","admin3":"50325"},{"geonameid":4974108,"name":"Ogunquit","admin3":"54980"},{"geonameid":4974194,"name":"Old Orchard Beach","admin3":"55085"},{"geonameid":4974703,"name":"Parsonsfield","admin3":"56870"},{"geonameid":4977222,"name":"Saco","admin3":"64675"},{"geonameid":4977762,"name":"Sanford","admin3":"65725"},{"geonameid":4978367,"name":"Shapleigh","admin3":"67475"},{"geonameid":4979050,"name":"South Berwick","admin3":"70030"},{"geonameid":4979158,"name":"South Eliot","admin3":"22955"},{"geonameid":4979261,"name":"South Sanford","admin3":"65725"},{"geonameid":4979580,"name":"Springvale","admin3":"65725"},{"geonameid":4982218,"name":"Waterboro","admin3":"80530"},{"geonameid":4982394,"name":"Wells Beach Station","admin3":"81475"},{"geonameid":5281094,"name":"West Kennebunk","admin3":"36535"},{"geonameid":4983611,"name":"York Beach","admin3":"87985"},{"geonameid":4983625,"name":"York Harbor","admin3":"87985"}],"admin3":[{"geonameid":4956466,"name":"Town of Acton","admin3":"00275"},{"geonameid":4956603,"name":"Town of Alfred","admin3":"00730"},{"geonameid":4956900,"name":"Town of Arundel","admin3":"01605"},{"geonameid":4958077,"name":"Town of Berwick","admin3":"04720"},{"geonameid":4958129,"name":"City of Biddeford","admin3":"04860"},{"geonameid":4959803,"name":"Town of Buxton","admin3":"09410"},{"geonameid":4961517,"name":"Town of Cornish","admin3":"14485"},{"geonameid":4962200,"name":"Town of Dayton","admin3":"16725"},{"geonameid":4963651,"name":"Town of Eliot","admin3":"22955"},{"geonameid":4967366,"name":"Town of Hollis","admin3":"33665"},{"geonameid":4968746,"name":"Town of Kennebunk","admin3":"36535"},{"geonameid":4968758,"name":"Town of Kennebunkport","admin3":"36745"},{"geonameid":4968935,"name":"Town of Kittery","admin3":"37270"},{"geonameid":4969282,"name":"Town of Lebanon","admin3":"38425"},{"geonameid":4969531,"name":"Town of Limerick","admin3":"39195"},{"geonameid":4969545,"name":"Town of Limington","admin3":"39405"},{"geonameid":4970863,"name":"Town of Lyman","admin3":"41750"},{"geonameid":4973324,"name":"Town of Newfield","admin3":"48750"},{"geonameid":4973464,"name":"Town of North Berwick","admin3":"50325"},{"geonameid":4974121,"name":"Town of Ogunquit","admin3":"54980"},{"geonameid":4974198,"name":"Town of Old Orchard Beach","admin3":"55085"},{"geonameid":4974705,"name":"Town of Parsonsfield","admin3":"56870"},{"geonameid":4977237,"name":"City of Saco","admin3":"64675"},{"geonameid":4977777,"name":"City of Sanford","admin3":"65725"},{"geonameid":4978373,"name":"Town of Shapleigh","admin3":"67475"},{"geonameid":4979052,"name":"Town of South Berwick","admin3":"70030"},{"geonameid":4982222,"name":"Town of Waterboro","admin3":"80530"},{"geonameid":4982412,"name":"Town of Wells","admin3":"81475"},{"geonameid":4983661,"name":"Town of York","admin3":"87985"}],"alternateNames":[]},"__N_SSG":true}