{"pageProps":{"locale":"ro","admin2":{"geonameid":676992,"name":"Comuna Goieşti","country":"RO","admin1":"17","admin2":"72677","admin3":"","latitude":"44.4862700","longitude":"23.7537500"},"admin1":{"geonameid":679134,"name":"Dolj","admin1":"17"},"locations":[{"geonameid":686675,"name":"Adâncata","admin3":""},{"geonameid":681651,"name":"Ciorobeşti","admin3":""},{"geonameid":678172,"name":"Fântâni","admin3":""},{"geonameid":676995,"name":"Goiești","admin3":""},{"geonameid":676620,"name":"Gruița","admin3":""},{"geonameid":674049,"name":"Mălăești","admin3":""},{"geonameid":672948,"name":"Mogoșești","admin3":""},{"geonameid":672701,"name":"Muereni","admin3":""},{"geonameid":670781,"name":"Piorești","admin3":""},{"geonameid":669953,"name":"Pometești","admin3":""},{"geonameid":669926,"name":"Popeasa","admin3":""},{"geonameid":668194,"name":"Sălciile","admin3":""},{"geonameid":665542,"name":"Țandăra","admin3":""},{"geonameid":662601,"name":"Vladimir","admin3":""},{"geonameid":662165,"name":"Zlătari","admin3":""}],"admin3":[],"alternateNames":[]},"__N_SSG":true}