{"pageProps":{"locale":"en","admin2":{"geonameid":6052311,"name":"Lennox and Addington County","country":"CA","admin1":"08","admin2":"3511","admin3":"","latitude":"44.5001200","longitude":"-76.9994400"},"admin1":{"geonameid":6093943,"name":"Ontario","admin1":"08"},"locations":[{"geonameid":5884492,"name":"Amherstview","admin3":"3511005"},{"geonameid":5887782,"name":"Asselstine","admin3":"3511005"},{"geonameid":5894924,"name":"Bath","admin3":"3511005"},{"geonameid":5895466,"name":"Bayview","admin3":"3511005"},{"geonameid":5897921,"name":"Bellheck","admin3":"3511030"},{"geonameid":5901950,"name":"Bishop Corners","admin3":"3511035"},{"geonameid":5918596,"name":"Caverlys Landing","admin3":"3511035"},{"geonameid":5919261,"name":"Centreville","admin3":"3511030"},{"geonameid":5921563,"name":"Chippewa","admin3":"3511030"},{"geonameid":5925106,"name":"Colebrook","admin3":"3511030"},{"geonameid":5933508,"name":"Croydon","admin3":"3511030"},{"geonameid":5937753,"name":"Denbigh","admin3":"3511035"},{"geonameid":5938249,"name":"Desmond","admin3":"3511030"},{"geonameid":5948508,"name":"Emerald","admin3":"3511005"},{"geonameid":5949028,"name":"Enterprise","admin3":"3511030"},{"geonameid":5949260,"name":"Erinsville","admin3":"3511030"},{"geonameid":12022553,"name":"Ernestown Township","admin3":"3511005"},{"geonameid":5952218,"name":"Ferguson Corners","admin3":"3511035"},{"geonameid":5954761,"name":"Flinton Corner","admin3":"3511035"},{"geonameid":5961772,"name":"Glastonbury","admin3":"3511035"},{"geonameid":5961945,"name":"Glenfield","admin3":"3511035"},{"geonameid":5967797,"name":"Gull Creek","admin3":"3511030"},{"geonameid":5975429,"name":"Hinch","admin3":"3511030"},{"geonameid":5983186,"name":"Ingle","admin3":"3511030"},{"geonameid":5988860,"name":"Kaladar","admin3":"3511035"},{"geonameid":6052345,"name":"Lens","admin3":"3511030"},{"geonameid":6054512,"name":"Links Mills","admin3":"3511005"},{"geonameid":6067669,"name":"Massanoga","admin3":"3511035"},{"geonameid":6069803,"name":"McGuire Settlement","admin3":"3511030"},{"geonameid":6069904,"name":"McIntyre","admin3":"3511005"},{"geonameid":6074054,"name":"Millers Corner","admin3":"3511005"},{"geonameid":6074108,"name":"Millhaven","admin3":"3511005"},{"geonameid":6074369,"name":"Milsap","admin3":"3511030"},{"geonameid":6079036,"name":"Morven","admin3":"3511005"},{"geonameid":6079048,"name":"Moscow","admin3":"3511030"},{"geonameid":6087434,"name":"Newburgh","admin3":"3511030"},{"geonameid":6088044,"name":"Nicholsons Point","admin3":"3511005"},{"geonameid":6092580,"name":"Odessa","admin3":"3511005"},{"geonameid":6115102,"name":"Queens Acres","admin3":"3511005"},{"geonameid":6119245,"name":"Reidville","admin3":"3511030"},{"geonameid":6125860,"name":"Roblin","admin3":"3511030"},{"geonameid":6127613,"name":"Rose Hill","admin3":"3511035"},{"geonameid":6149294,"name":"Slate Falls","admin3":"3511035"},{"geonameid":6156130,"name":"Stella","admin3":"3511005"},{"geonameid":6157681,"name":"Storms Corners","admin3":"3511005"},{"geonameid":6157992,"name":"Strathcona","admin3":"3511030"},{"geonameid":6160707,"name":"Switzerville","admin3":"3511005"},{"geonameid":10941899,"name":"Tamworth","admin3":"3511030"},{"geonameid":6165729,"name":"Thorpe","admin3":"3511005"},{"geonameid":6173702,"name":"Vennachar","admin3":"3511035"},{"geonameid":6173703,"name":"Vennachar Junction","admin3":"3511035"},{"geonameid":6174437,"name":"Violet","admin3":"3511005"},{"geonameid":6178181,"name":"Weslemkoon","admin3":"3511035"},{"geonameid":6178185,"name":"Wesley","admin3":"3511030"},{"geonameid":6182786,"name":"Wilton","admin3":"3511005"},{"geonameid":6185213,"name":"Yarker","admin3":"3511030"}],"admin3":[{"geonameid":5882316,"name":"Addington Highlands","admin3":"3511035"},{"geonameid":6061718,"name":"Loyalist","admin3":"3511005"},{"geonameid":6157316,"name":"Stone Mills","admin3":"3511030"}],"alternateNames":[]},"__N_SSG":true}