{"pageProps":{"locale":"en","admin2":{"geonameid":6166139,"name":"Thunder Bay District","country":"CA","admin1":"08","admin2":"3558","admin3":"","latitude":"49.5001100","longitude":"-88.5000400"},"admin1":{"geonameid":6093943,"name":"Ontario","admin1":"08"},"locations":[{"geonameid":5887044,"name":"Armstrong","admin3":""},{"geonameid":5887116,"name":"Armstrong Station","admin3":""},{"geonameid":5917742,"name":"Carters Corners","admin3":"3558011"},{"geonameid":5941815,"name":"Dorion","admin3":"3558034"},{"geonameid":5954734,"name":"Flint","admin3":"3558016"},{"geonameid":5960603,"name":"Geraldton","admin3":""},{"geonameid":5971538,"name":"Harstone","admin3":"3558011"},{"geonameid":5979103,"name":"Hymers","admin3":"3558012"},{"geonameid":5986160,"name":"Jelly","admin3":"3558011"},{"geonameid":11874716,"name":"Kakabeka Falls","admin3":"3558011"},{"geonameid":11152651,"name":"Longlac","admin3":""},{"geonameid":6065253,"name":"Manitouwadge","admin3":"3558066"},{"geonameid":6068882,"name":"McCluskeys Corners","admin3":"3558011"},{"geonameid":6073711,"name":"Millar","admin3":"3558011"},{"geonameid":6076026,"name":"Mokomon","admin3":"3558019"},{"geonameid":6084434,"name":"Murillo","admin3":"3558011"},{"geonameid":6088485,"name":"Nipigon","admin3":"3558044"},{"geonameid":11231714,"name":"Nolalu","admin3":""},{"geonameid":6092487,"name":"O'Connor","admin3":"3558016"},{"geonameid":6095267,"name":"Ouimet","admin3":"3558034"},{"geonameid":6142256,"name":"Schreiber","admin3":"3558051"},{"geonameid":6142360,"name":"Scoble West","admin3":"3558012"},{"geonameid":6144069,"name":"Sellars","admin3":"3558012"},{"geonameid":6149328,"name":"Slate River Valley","admin3":"3558011"},{"geonameid":6152174,"name":"South Gillies","admin3":"3558012"},{"geonameid":6155185,"name":"Stanley","admin3":"3558011"},{"geonameid":6162951,"name":"Terrace Bay","admin3":"3558054"},{"geonameid":6166142,"name":"Thunder Bay","admin3":""}],"admin3":[{"geonameid":5926740,"name":"Conmee","admin3":"3558019"},{"geonameid":5941814,"name":"Dorion","admin3":"3558034"},{"geonameid":5961232,"name":"Gillies","admin3":"3558012"},{"geonameid":6065254,"name":"Manitouwadge","admin3":"3558066"},{"geonameid":6088487,"name":"Nipigon","admin3":"3558044"},{"geonameid":6092490,"name":"O'Connor","admin3":"3558016"},{"geonameid":6093550,"name":"Oliver Paipoonge","admin3":"3558011"},{"geonameid":6118659,"name":"Red Rock","admin3":"3558041"},{"geonameid":6142255,"name":"Schreiber","admin3":"3558051"},{"geonameid":6162952,"name":"Terrace Bay","admin3":"3558054"}],"alternateNames":[]},"__N_SSG":true}