{"pageProps":{"locale":"it","admin2":{"geonameid":3181526,"name":"Provincia di Brindisi","country":"IT","admin1":"13","admin2":"BR","admin3":"","latitude":"40.5833300","longitude":"17.6666700","localeAltName":"Brindisi"},"admin1":{"geonameid":3169778,"name":"Puglia","admin1":"13","localeAltName":null},"locations":[{"geonameid":8950197,"name":"Betlemme","admin3":"074001","localeAltName":null},{"geonameid":3181528,"name":"Brindisi","admin3":"074001","localeAltName":null},{"geonameid":3180462,"name":"Carovigno","admin3":"074002","localeAltName":null},{"geonameid":8949385,"name":"Casalini","admin3":"074005","localeAltName":null},{"geonameid":3179218,"name":"Ceglie Messapica","admin3":"074003","localeAltName":null},{"geonameid":3179190,"name":"Cellino San Marco","admin3":"074004","localeAltName":null},{"geonameid":3178630,"name":"Cisternino","admin3":"074005","localeAltName":null},{"geonameid":3177366,"name":"Erchie","admin3":"074006","localeAltName":null},{"geonameid":3177171,"name":"Fasano","admin3":"074007","localeAltName":null},{"geonameid":3176603,"name":"Francavilla Fontana","admin3":"074008","localeAltName":null},{"geonameid":8949230,"name":"La Rosa","admin3":"074001","localeAltName":null},{"geonameid":8948897,"name":"Lamie di Olimpie-Selva","admin3":"074007","localeAltName":null},{"geonameid":3175061,"name":"Latiano","admin3":"074009","localeAltName":null},{"geonameid":8949564,"name":"Madonna Pozzo Guacito","admin3":"074007","localeAltName":null},{"geonameid":8949013,"name":"Materdomini","admin3":"074001","localeAltName":null},{"geonameid":3173537,"name":"Mesagne","admin3":"074010","localeAltName":null},{"geonameid":7289464,"name":"Montalbano","admin3":"074007","localeAltName":null},{"geonameid":3171961,"name":"Oria","admin3":"074011","localeAltName":null},{"geonameid":3171786,"name":"Ostuni","admin3":"074012","localeAltName":null},{"geonameid":3171065,"name":"Pezze di Greco","admin3":"074007","localeAltName":null},{"geonameid":3168430,"name":"San Donaci","admin3":"074013","localeAltName":null},{"geonameid":3167955,"name":"San Michele Salentino","admin3":"074014","localeAltName":null},{"geonameid":3167903,"name":"San Pancrazio Salentino","admin3":"074015","localeAltName":null},{"geonameid":3167811,"name":"San Pietro Vernotico","admin3":"074016","localeAltName":null},{"geonameid":3167184,"name":"San Vito dei Normanni","admin3":"074017","localeAltName":null},{"geonameid":6620316,"name":"Savelletri","admin3":"074007","localeAltName":null},{"geonameid":7289463,"name":"Speziale","admin3":"074007","localeAltName":null},{"geonameid":9036189,"name":"Stazione di Fasano","admin3":"074007","localeAltName":null},{"geonameid":3165535,"name":"Torchiarolo","admin3":"074018","localeAltName":null},{"geonameid":3165420,"name":"Torre Santa Susanna","admin3":"074019","localeAltName":null},{"geonameid":7870479,"name":"Tuturano","admin3":"074001","localeAltName":null},{"geonameid":3164282,"name":"Villa Castelli","admin3":"074020","localeAltName":null}],"admin3":[{"geonameid":6537572,"name":"Ceglie Messapica","admin3":"074003","localeAltName":null},{"geonameid":6537573,"name":"Cellino San Marco","admin3":"074004","localeAltName":null},{"geonameid":6537574,"name":"Erchie","admin3":"074006","localeAltName":null},{"geonameid":6537575,"name":"Latiano","admin3":"074009","localeAltName":null},{"geonameid":6537576,"name":"San Donaci","admin3":"074013","localeAltName":null},{"geonameid":6537577,"name":"San Pancrazio Salentino","admin3":"074015","localeAltName":null},{"geonameid":6537578,"name":"Torre Santa Susanna","admin3":"074019","localeAltName":null},{"geonameid":6537579,"name":"Villa Castelli","admin3":"074020","localeAltName":null},{"geonameid":6538959,"name":"Carovigno","admin3":"074002","localeAltName":null},{"geonameid":6538960,"name":"Francavilla Fontana","admin3":"074008","localeAltName":null},{"geonameid":6538961,"name":"Ostuni","admin3":"074012","localeAltName":null},{"geonameid":6538962,"name":"San Pietro Vernotico","admin3":"074016","localeAltName":null},{"geonameid":6538963,"name":"Torchiarolo","admin3":"074018","localeAltName":null},{"geonameid":6540025,"name":"Fasano","admin3":"074007","localeAltName":null},{"geonameid":6540026,"name":"Oria","admin3":"074011","localeAltName":null},{"geonameid":6540109,"name":"Brindisi","admin3":"074001","localeAltName":null},{"geonameid":6540751,"name":"Cisternino","admin3":"074005","localeAltName":null},{"geonameid":6540752,"name":"San Michele Salentino","admin3":"074014","localeAltName":null},{"geonameid":6540753,"name":"San Vito dei Normanni","admin3":"074017","localeAltName":null},{"geonameid":6541262,"name":"Mesagne","admin3":"074010","localeAltName":null}],"alternateNames":[{"alternatenameId":1352414,"geonameid":3181526,"isoLanguage":"it","alternateName":"Brindisi","isPreferredName":true,"isShortName":true,"isColloquial":false,"isHistoric":false}]},"__N_SSG":true}