{"pageProps":{"locale":"de","admin2":{"geonameid":6458841,"name":"Bezirk Bucheggberg","country":"CH","admin1":"SO","admin2":"1103","admin3":"","latitude":"47.1320500","longitude":"7.4788500"},"admin1":{"geonameid":2658563,"name":"Kanton Solothurn","admin1":"SO"},"locations":[{"geonameid":2661630,"name":"Balm bei Messen","admin3":"2457"},{"geonameid":2661367,"name":"Brunnenthal","admin3":"2457"},{"geonameid":2660354,"name":"Hessigkofen","admin3":"2465"},{"geonameid":2660085,"name":"Küttigkofen","admin3":"2465"},{"geonameid":2659674,"name":"Messen","admin3":"2457"},{"geonameid":2658715,"name":"Schnottwil","admin3":"2461"}],"admin3":[{"geonameid":7285243,"name":"Biezwil","admin3":"2445"},{"geonameid":7286399,"name":"Lüterkofen-Ichertswil","admin3":"2455"},{"geonameid":7286400,"name":"Lüterswil-Gächliwil","admin3":"2456"},{"geonameid":7286494,"name":"Messen","admin3":"2457"},{"geonameid":7287104,"name":"Schnottwil","admin3":"2461"},{"geonameid":7287383,"name":"Unterramsern","admin3":"2463"},{"geonameid":8740959,"name":"Lüsslingen-Nennigkofen","admin3":"2464"},{"geonameid":8740960,"name":"Buchegg","admin3":"2465"}],"alternateNames":[]},"__N_SSG":true}