{"pageProps":{"locale":"de","admin1":{"geonameid":2861876,"name":"Nordrhein-Westfalen","country":"DE","admin1":"07","latitude":"51.2189500","longitude":"6.7633900","localeAltName":"Nordrhein-Westfalen"},"admin2":[{"geonameid":2934245,"name":"Düsseldorf District","admin2":"051","localeAltName":null},{"geonameid":2955470,"name":"Regierungsbezirk Arnsberg","admin2":"059","localeAltName":null},{"geonameid":2937935,"name":"Regierungsbezirk Detmold","admin2":"057","localeAltName":null},{"geonameid":2886241,"name":"Regierungsbezirk Köln","admin2":"053","localeAltName":null},{"geonameid":2867539,"name":"Regierungsbezirk Münster","admin2":"055","localeAltName":null}],"admin3":[],"country":{"geonameid":2921044,"country":"DE","name":"Federal Republic of Germany","localeAltName":"Deutschland"},"alternateNames":[{"alternatenameId":2080494,"geonameid":2861876,"isoLanguage":"de","alternateName":"Nordrhein-Westfalen","isPreferredName":true,"isShortName":true,"isColloquial":false,"isHistoric":false},{"alternatenameId":1557479,"geonameid":2921044,"isoLanguage":"de","alternateName":"Deutschland","isPreferredName":true,"isShortName":true,"isColloquial":false,"isHistoric":false},{"alternatenameId":1557482,"geonameid":2921044,"isoLanguage":"en","alternateName":"Germany","isPreferredName":true,"isShortName":true,"isColloquial":false,"isHistoric":false}]},"__N_SSG":true}