{"pageProps":{"locale":"en","admin2":{"geonameid":5066605,"name":"Custer County","country":"US","admin1":"NE","admin2":"041","admin3":"","latitude":"41.3942600","longitude":"-99.7261400","localeAltName":null},"admin1":{"geonameid":5073708,"name":"Nebraska","admin1":"NE","localeAltName":"Nebraska"},"locations":[{"geonameid":5693267,"name":"Arnold","admin3":"02130","localeAltName":null},{"geonameid":5064638,"name":"Broken Bow","admin3":"06610","localeAltName":null},{"geonameid":5065051,"name":"Callaway","admin3":"12630","localeAltName":null},{"geonameid":5077686,"name":"Sargent","admin3":"43720","localeAltName":null}],"admin3":[{"geonameid":5062869,"name":"Township of Algernon","admin3":"00835"},{"geonameid":5063020,"name":"Township of Ansley","admin3":"01570"},{"geonameid":5063971,"name":"Township of Berwyn","admin3":"04685"},{"geonameid":5064652,"name":"City of Broken Bow","admin3":"06610","localeAltName":null},{"geonameid":5064653,"name":"Township of Broken Bow","admin3":"06645"},{"geonameid":5065891,"name":"Township of Cliff","admin3":"09620"},{"geonameid":5066086,"name":"Township of Comstock","admin3":"10215"},{"geonameid":5066194,"name":"Township of Corner","admin3":"10530"},{"geonameid":5066615,"name":"Township of Custer","admin3":"11930"},{"geonameid":5066851,"name":"Township of Delight","admin3":"12630","localeAltName":null},{"geonameid":5067122,"name":"Township of Douglas Grove","admin3":"13575"},{"geonameid":5067353,"name":"Township of East Custer","admin3":"14170"},{"geonameid":5067536,"name":"Township of Elk Creek","admin3":"14940"},{"geonameid":5068904,"name":"Township of Garfield","admin3":"18160"},{"geonameid":5069358,"name":"Township of Grant","admin3":"19770"},{"geonameid":5071480,"name":"Township of Kilfoil","admin3":"25370"},{"geonameid":5072020,"name":"Township of Lillian","admin3":"27120"},{"geonameid":5072405,"name":"Township of Loup","admin3":"29365"},{"geonameid":5073119,"name":"Township of Milburn","admin3":"32025"},{"geonameid":5073593,"name":"Township of Myrtle","admin3":"33495"},{"geonameid":5076630,"name":"Township of Ryno","admin3":"42880"},{"geonameid":5077688,"name":"Township of Sargent","admin3":"43720","localeAltName":null},{"geonameid":5079456,"name":"Township of Spring Creek","admin3":"46450"},{"geonameid":5080491,"name":"Township of Triumph","admin3":"49180"},{"geonameid":5081140,"name":"Township of Victoria","admin3":"50685"},{"geonameid":5081695,"name":"Township of West Union","admin3":"52715"},{"geonameid":5081725,"name":"Township of Westerville","admin3":"52365"},{"geonameid":5082216,"name":"Township of Wood River","admin3":"53625"},{"geonameid":5693284,"name":"Township of Arnold","admin3":"02130","localeAltName":null},{"geonameid":5695133,"name":"Township of Elim","admin3":"14835"},{"geonameid":5696054,"name":"Township of Hayes","admin3":"21590"},{"geonameid":5700514,"name":"Township of Wayne","admin3":"51805"}],"alternateNames":[{"alternatenameId":2124821,"geonameid":5073708,"isoLanguage":"en","alternateName":"Nebraska","isPreferredName":true,"isShortName":true,"isColloquial":false,"isHistoric":false}]},"__N_SSG":true}