{"pageProps":{"locale":"en","admin2":{"geonameid":5075315,"name":"Platte County","country":"US","admin1":"NE","admin2":"141","admin3":"","latitude":"41.5712900","longitude":"-97.5211600","localeAltName":null},"admin1":{"geonameid":5073708,"name":"Nebraska","admin1":"NE","localeAltName":"Nebraska"},"locations":[{"geonameid":5066001,"name":"Columbus","admin3":"10110","localeAltName":null},{"geonameid":5070540,"name":"Humphrey","admin3":"23515","localeAltName":null}],"admin3":[{"geonameid":5064184,"name":"Township of Bismark","admin3":"05070"},{"geonameid":5064924,"name":"Township of Burrows","admin3":"07275"},{"geonameid":5064971,"name":"Township of Butler","admin3":"07450"},{"geonameid":5066026,"name":"City of Columbus","admin3":"10110","localeAltName":null},{"geonameid":5066027,"name":"Township of Columbus","admin3":"10145"},{"geonameid":5066430,"name":"Township of Creston","admin3":"11335"},{"geonameid":5069326,"name":"Township of Grand Prairie","admin3":"19630"},{"geonameid":5069366,"name":"Township of Granville","admin3":"19945"},{"geonameid":5070549,"name":"Township of Humphrey","admin3":"23515","localeAltName":null},{"geonameid":5071111,"name":"Township of Joliet","admin3":"24775"},{"geonameid":5072356,"name":"Township of Lost Creek","admin3":"29225"},{"geonameid":5072407,"name":"Township of Loup","admin3":"29435"},{"geonameid":5073318,"name":"Township of Monroe","admin3":"32620"},{"geonameid":5074358,"name":"Township of Oconee","admin3":"35630"},{"geonameid":5076744,"name":"Township of Saint Bernard","admin3":"42950"},{"geonameid":5078876,"name":"Township of Shell Creek","admin3":"44665"},{"geonameid":5078925,"name":"Township of Sherman","admin3":"45015"},{"geonameid":5081281,"name":"Township of Walker","admin3":"51140"},{"geonameid":5082242,"name":"Township of Woodville","admin3":"53730"}],"alternateNames":[{"alternatenameId":2124821,"geonameid":5073708,"isoLanguage":"en","alternateName":"Nebraska","isPreferredName":true,"isShortName":true,"isColloquial":false,"isHistoric":false}]},"__N_SSG":true}