{"pageProps":{"locale":"de","admin1":{"geonameid":2951839,"name":"Bavaria","country":"DE","admin1":"02","latitude":"49.0000000","longitude":"11.5000000","localeAltName":"Bayern"},"admin2":[{"geonameid":2863622,"name":"Lower Bavaria","admin2":"092","localeAltName":null},{"geonameid":2870736,"name":"Regierungsbezirk Mittelfranken","admin2":"095","localeAltName":null},{"geonameid":2819564,"name":"Regierungsbezirk Unterfranken","admin2":"096","localeAltName":null},{"geonameid":2835521,"name":"Swabia","admin2":"097","localeAltName":null},{"geonameid":2861322,"name":"Upper Bavaria","admin2":"091","localeAltName":null},{"geonameid":2860681,"name":"Upper Franconia","admin2":"094","localeAltName":"Oberfranken"},{"geonameid":2859444,"name":"Upper Palatinate","admin2":"093","localeAltName":null}],"admin3":[],"country":{"geonameid":2921044,"country":"DE","name":"Federal Republic of Germany","localeAltName":"Deutschland"},"alternateNames":[{"alternatenameId":16359857,"geonameid":2860681,"isoLanguage":"de","alternateName":"Oberfranken","isPreferredName":true,"isShortName":true,"isColloquial":false,"isHistoric":false},{"alternatenameId":1557479,"geonameid":2921044,"isoLanguage":"de","alternateName":"Deutschland","isPreferredName":true,"isShortName":true,"isColloquial":false,"isHistoric":false},{"alternatenameId":1557482,"geonameid":2921044,"isoLanguage":"en","alternateName":"Germany","isPreferredName":true,"isShortName":true,"isColloquial":false,"isHistoric":false},{"alternatenameId":1894550,"geonameid":2951839,"isoLanguage":"de","alternateName":"Bayern","isPreferredName":true,"isShortName":true,"isColloquial":false,"isHistoric":false},{"alternatenameId":1894551,"geonameid":2951839,"isoLanguage":"en","alternateName":"Bavaria","isPreferredName":true,"isShortName":true,"isColloquial":false,"isHistoric":false}]},"__N_SSG":true}