{"pageProps":{"locale":"de","admin1":{"geonameid":2862926,"name":"Lower Saxony","country":"DE","admin1":"06","latitude":"52.8333300","longitude":"9.1666700","localeAltName":"Niedersachsen"},"admin2":[],"admin3":[{"geonameid":3221011,"name":"Kreisfreie Stadt Braunschweig","admin3":"03101","localeAltName":null},{"geonameid":3221066,"name":"Kreisfreie Stadt Delmenhorst","admin3":"03401","localeAltName":null},{"geonameid":3221070,"name":"Kreisfreie Stadt Emden","admin3":"03402","localeAltName":null},{"geonameid":3221095,"name":"Kreisfreie Stadt Oldenburg","admin3":"03403","localeAltName":null},{"geonameid":3221096,"name":"Kreisfreie Stadt Osnabrück","admin3":"03404","localeAltName":null},{"geonameid":3221018,"name":"Kreisfreie Stadt Salzgitter","admin3":"03102","localeAltName":null},{"geonameid":3221100,"name":"Kreisfreie Stadt Wilhelmshaven","admin3":"03405","localeAltName":null},{"geonameid":3221023,"name":"Kreisfreie Stadt Wolfsburg","admin3":"03103","localeAltName":null},{"geonameid":3221058,"name":"Landkreis Ammerland","admin3":"03451","localeAltName":null},{"geonameid":3221059,"name":"Landkreis Aurich","admin3":"03452","localeAltName":null},{"geonameid":2940212,"name":"Landkreis Celle","admin3":"03351","localeAltName":null},{"geonameid":3221064,"name":"Landkreis Cloppenburg","admin3":"03453","localeAltName":null},{"geonameid":2939657,"name":"Landkreis Cuxhaven","admin3":"03352","localeAltName":null},{"geonameid":3221024,"name":"Landkreis Diepholz","admin3":"03251","localeAltName":null},{"geonameid":3221073,"name":"Landkreis Emsland","admin3":"03454","localeAltName":null},{"geonameid":2924362,"name":"Landkreis Friesland","admin3":"03455","localeAltName":null},{"geonameid":2920479,"name":"Landkreis Gifhorn","admin3":"03151","localeAltName":null},{"geonameid":3221012,"name":"Landkreis Goslar","admin3":"03153","localeAltName":null},{"geonameid":3221013,"name":"Landkreis Göttingen","admin3":"03159","localeAltName":null},{"geonameid":3221075,"name":"Landkreis Grafschaft Bentheim","admin3":"03456","localeAltName":null},{"geonameid":3221027,"name":"Landkreis Hameln-Pyrmont","admin3":"03252","localeAltName":null},{"geonameid":2910684,"name":"Landkreis Harburg","admin3":"03353","localeAltName":null},{"geonameid":2831482,"name":"Landkreis Heidekreis","admin3":"03358","localeAltName":null},{"geonameid":3221014,"name":"Landkreis Helmstedt","admin3":"03154","localeAltName":null},{"geonameid":2803461,"name":"Landkreis Hildesheim","admin3":"03254","localeAltName":null},{"geonameid":3221036,"name":"Landkreis Holzminden","admin3":"03255","localeAltName":null},{"geonameid":3221094,"name":"Landkreis Leer","admin3":"03457","localeAltName":null},{"geonameid":3221038,"name":"Landkreis Lüchow-Dannenberg","admin3":"03354","localeAltName":null},{"geonameid":3221040,"name":"Landkreis Lüneburg","admin3":"03355","localeAltName":null},{"geonameid":2862622,"name":"Landkreis Nienburg/Weser","admin3":"03256","localeAltName":null},{"geonameid":3221015,"name":"Landkreis Northeim","admin3":"03155","localeAltName":null},{"geonameid":2857455,"name":"Landkreis Oldenburg","admin3":"03458","localeAltName":null},{"geonameid":3221098,"name":"Landkreis Osnabrück","admin3":"03459","localeAltName":null},{"geonameid":3221042,"name":"Landkreis Osterholz","admin3":"03356","localeAltName":null},{"geonameid":3221017,"name":"Landkreis Peine","admin3":"03157","localeAltName":null},{"geonameid":2840133,"name":"Landkreis Schaumburg","admin3":"03257","localeAltName":null},{"geonameid":3221046,"name":"Landkreis Stade","admin3":"03359","localeAltName":null},{"geonameid":3221049,"name":"Landkreis Uelzen","admin3":"03360","localeAltName":null},{"geonameid":3221097,"name":"Landkreis Vechta","admin3":"03460","localeAltName":null},{"geonameid":2817598,"name":"Landkreis Verden","admin3":"03361","localeAltName":null},{"geonameid":3221099,"name":"Landkreis Wesermarsch","admin3":"03461","localeAltName":null},{"geonameid":3221101,"name":"Landkreis Wittmund","admin3":"03462","localeAltName":null},{"geonameid":3221020,"name":"Landkreis Wolfenbüttel","admin3":"03158","localeAltName":null},{"geonameid":3221033,"name":"Region Hannover","admin3":"03241","localeAltName":null},{"geonameid":3221044,"name":"Rotenburg (Wümme)","admin3":"03357","localeAltName":null}],"country":{"geonameid":2921044,"country":"DE","name":"Federal Republic of Germany","localeAltName":"Deutschland"},"alternateNames":[{"alternatenameId":2080496,"geonameid":2862926,"isoLanguage":"de","alternateName":"Niedersachsen","isPreferredName":true,"isShortName":true,"isColloquial":false,"isHistoric":false},{"alternatenameId":1557479,"geonameid":2921044,"isoLanguage":"de","alternateName":"Deutschland","isPreferredName":true,"isShortName":true,"isColloquial":false,"isHistoric":false},{"alternatenameId":1557482,"geonameid":2921044,"isoLanguage":"en","alternateName":"Germany","isPreferredName":true,"isShortName":true,"isColloquial":false,"isHistoric":false}]},"__N_SSG":true}