{"pageProps":{"locale":"de","admin1":{"geonameid":2847618,"name":"Rheinland-Pfalz","country":"DE","admin1":"08","latitude":"49.6666700","longitude":"7.5000000","localeAltName":"Rheinland-Pfalz"},"admin2":[],"admin3":[{"geonameid":2936213,"name":"Donnersbergkreis","admin3":"07333","localeAltName":null},{"geonameid":3247913,"name":"Eifelkreis Bitburg-Prüm","admin3":"07232","localeAltName":null},{"geonameid":2925546,"name":"Kreisfreie Stadt Frankenthal (Pfalz)","admin3":"07311","localeAltName":null},{"geonameid":3247900,"name":"Kreisfreie Stadt Kaiserslautern","admin3":"07312","localeAltName":null},{"geonameid":3247459,"name":"Kreisfreie Stadt Koblenz","admin3":"07111","localeAltName":null},{"geonameid":3247905,"name":"Kreisfreie Stadt Landau in der Pfalz","admin3":"07313","localeAltName":null},{"geonameid":3247910,"name":"Kreisfreie Stadt Ludwigshafen am Rhein","admin3":"07314","localeAltName":null},{"geonameid":3247465,"name":"Kreisfreie Stadt Mainz","admin3":"07315","localeAltName":null},{"geonameid":3247906,"name":"Kreisfreie Stadt Neustadt an der Weinstraße","admin3":"07316","localeAltName":null},{"geonameid":3247903,"name":"Kreisfreie Stadt Pirmasens","admin3":"07317","localeAltName":null},{"geonameid":3247908,"name":"Kreisfreie Stadt Speyer","admin3":"07318","localeAltName":null},{"geonameid":3247911,"name":"Kreisfreie Stadt Trier","admin3":"07211","localeAltName":null},{"geonameid":3247467,"name":"Kreisfreie Stadt Worms","admin3":"07319","localeAltName":null},{"geonameid":3247902,"name":"Kreisfreie Stadt Zweibrücken","admin3":"07320","localeAltName":null},{"geonameid":3247460,"name":"Landkreis Ahrweiler","admin3":"07131","localeAltName":null},{"geonameid":3247456,"name":"Landkreis Altenkirchen","admin3":"07132","localeAltName":null},{"geonameid":2956708,"name":"Landkreis Alzey-Worms","admin3":"07331","localeAltName":null},{"geonameid":2953523,"name":"Landkreis Bad Dürkheim","admin3":"07332","localeAltName":null},{"geonameid":2953415,"name":"Landkreis Bad Kreuznach","admin3":"07133","localeAltName":null},{"geonameid":3247912,"name":"Landkreis Bernkastel-Wittlich","admin3":"07231","localeAltName":null},{"geonameid":2948589,"name":"Landkreis Birkenfeld","admin3":"07134","localeAltName":null},{"geonameid":3247464,"name":"Landkreis Cochem-Zell","admin3":"07135","localeAltName":null},{"geonameid":3247907,"name":"Landkreis Germersheim","admin3":"07334","localeAltName":null},{"geonameid":2894002,"name":"Landkreis Kaiserslautern","admin3":"07335","localeAltName":null},{"geonameid":3247901,"name":"Landkreis Kusel","admin3":"07336","localeAltName":null},{"geonameid":3247466,"name":"Landkreis Mainz-Bingen","admin3":"07339","localeAltName":null},{"geonameid":3247461,"name":"Landkreis Mayen-Koblenz","admin3":"07137","localeAltName":null},{"geonameid":3247458,"name":"Landkreis Neuwied","admin3":"07138","localeAltName":null},{"geonameid":2825001,"name":"Landkreis Südliche Weinstraße","admin3":"07337","localeAltName":null},{"geonameid":2821160,"name":"Landkreis Trier-Saarburg","admin3":"07235","localeAltName":null},{"geonameid":3247463,"name":"Rhein-Hunsrück-Kreis","admin3":"07140","localeAltName":null},{"geonameid":3247462,"name":"Rhein-Lahn-Kreis","admin3":"07141","localeAltName":null},{"geonameid":3247909,"name":"Rhein-Pfalz-Kreis","admin3":"07338","localeAltName":null},{"geonameid":3247904,"name":"Südwestpfalz","admin3":"07340","localeAltName":null},{"geonameid":3247914,"name":"Vulkaneifel","admin3":"07233","localeAltName":null},{"geonameid":3247457,"name":"Westerwaldkreis","admin3":"07143","localeAltName":null}],"country":{"geonameid":2921044,"country":"DE","name":"Federal Republic of Germany","localeAltName":"Deutschland"},"alternateNames":[{"alternatenameId":1765786,"geonameid":2847618,"isoLanguage":"de","alternateName":"Rheinland-Pfalz","isPreferredName":true,"isShortName":true,"isColloquial":false,"isHistoric":false},{"alternatenameId":1557479,"geonameid":2921044,"isoLanguage":"de","alternateName":"Deutschland","isPreferredName":true,"isShortName":true,"isColloquial":false,"isHistoric":false},{"alternatenameId":1557482,"geonameid":2921044,"isoLanguage":"en","alternateName":"Germany","isPreferredName":true,"isShortName":true,"isColloquial":false,"isHistoric":false}]},"__N_SSG":true}