{"pageProps":{"locale":"de","admin1":{"geonameid":2842565,"name":"Saxony-Anhalt","country":"DE","admin1":"14","latitude":"52.0000000","longitude":"11.7333000","localeAltName":"Sachsen-Anhalt"},"admin2":[],"admin3":[{"geonameid":2842111,"name":"Altmarkkreis Salzwedel","admin3":"15081","localeAltName":null},{"geonameid":2948163,"name":"Anhalt-Bitterfeld","admin3":"15082","localeAltName":null},{"geonameid":3302159,"name":"Börde","admin3":"15083","localeAltName":null},{"geonameid":3302156,"name":"Burgenlandkreis","admin3":"15084","localeAltName":null},{"geonameid":2937956,"name":"Dessau-Roßlau","admin3":"15001","localeAltName":null},{"geonameid":3302158,"name":"Jerichower Land","admin3":"15086","localeAltName":null},{"geonameid":2911516,"name":"Kreisfreie Stadt Halle","admin3":"15002","localeAltName":null},{"geonameid":2874544,"name":"Landeshauptstadt Magdeburg","admin3":"15003","localeAltName":null},{"geonameid":2911664,"name":"Landkreis Harz","admin3":"15085","localeAltName":null},{"geonameid":2827478,"name":"Landkreis Stendal","admin3":"15090","localeAltName":null},{"geonameid":2807345,"name":"Landkreis Wittenberg","admin3":"15091","localeAltName":null},{"geonameid":3302155,"name":"Mansfeld-Südharz","admin3":"15087","localeAltName":null},{"geonameid":2842671,"name":"Saalekreis","admin3":"15088","localeAltName":null},{"geonameid":2950072,"name":"Salzlandkreis","admin3":"15089","localeAltName":null}],"country":{"geonameid":2921044,"country":"DE","name":"Federal Republic of Germany","localeAltName":"Deutschland"},"alternateNames":[{"alternatenameId":2080258,"geonameid":2842565,"isoLanguage":"de","alternateName":"Sachsen-Anhalt","isPreferredName":true,"isShortName":true,"isColloquial":false,"isHistoric":false},{"alternatenameId":1557479,"geonameid":2921044,"isoLanguage":"de","alternateName":"Deutschland","isPreferredName":true,"isShortName":true,"isColloquial":false,"isHistoric":false},{"alternatenameId":1557482,"geonameid":2921044,"isoLanguage":"en","alternateName":"Germany","isPreferredName":true,"isShortName":true,"isColloquial":false,"isHistoric":false}]},"__N_SSG":true}