{"pageProps":{"locale":"ro","admin1":{"geonameid":667267,"name":"Sibiu","country":"RO","admin1":"33"},"admin2":[{"geonameid":686467,"name":"Comuna Alma"},{"geonameid":686430,"name":"Comuna Alțâna"},{"geonameid":686269,"name":"Comuna Apoldu de Jos"},{"geonameid":686125,"name":"Comuna Arpaşu de Jos"},{"geonameid":686064,"name":"Comuna Aţel"},{"geonameid":686007,"name":"Comuna Axente Sever"},{"geonameid":684810,"name":"Comuna Bârghiş"},{"geonameid":685232,"name":"Comuna Bazna"},{"geonameid":684886,"name":"Comuna Biertan"},{"geonameid":684607,"name":"Comuna Blăjel"},{"geonameid":8334778,"name":"Comuna Boiţa"},{"geonameid":683962,"name":"Comuna Brădeni"},{"geonameid":683831,"name":"Comuna Brateiu"},{"geonameid":683620,"name":"Comuna Bruiu"},{"geonameid":681522,"name":"Comuna Cârţa"},{"geonameid":681516,"name":"Comuna Cârţişoara"},{"geonameid":682027,"name":"Comuna Chirpăr"},{"geonameid":680164,"name":"Comuna Cristian"},{"geonameid":679323,"name":"Comuna Dârlos"},{"geonameid":676494,"name":"Comuna Gura Râului"},{"geonameid":676088,"name":"Comuna Hoghilag"},{"geonameid":675862,"name":"Comuna Iacobeni"},{"geonameid":675217,"name":"Comuna Jina"},{"geonameid":675002,"name":"Comuna Laslea"},{"geonameid":674635,"name":"Comuna Loamneş"},{"geonameid":674543,"name":"Comuna Ludoş"},{"geonameid":673749,"name":"Comuna Marpod"},{"geonameid":673565,"name":"Comuna Merghindeal"},{"geonameid":673484,"name":"Comuna Micăsasa"},{"geonameid":673390,"name":"Comuna Mihăileni"},{"geonameid":672822,"name":"Comuna Moşna"},{"geonameid":672175,"name":"Comuna Nocrich"},{"geonameid":671710,"name":"Comuna Orlat"},{"geonameid":671242,"name":"Comuna Păuca"},{"geonameid":670032,"name":"Comuna Poiana Sibiului"},{"geonameid":669854,"name":"Comuna Poplaca"},{"geonameid":669817,"name":"Comuna Porumbacu de Jos"},{"geonameid":669315,"name":"Comuna Racoviţa"},{"geonameid":669155,"name":"Comuna Răşinari"},{"geonameid":668808,"name":"Comuna Râu Sadului"},{"geonameid":668651,"name":"Comuna Roşia"},{"geonameid":668275,"name":"Comuna Sadu"},{"geonameid":667444,"name":"Comuna Şeica Mare"},{"geonameid":667442,"name":"Comuna Şeica Mică"},{"geonameid":667419,"name":"Comuna Şelimbăr"},{"geonameid":666726,"name":"Comuna Slimnic"},{"geonameid":665751,"name":"Comuna Şura Mare"},{"geonameid":665749,"name":"Comuna Şura Mică"},{"geonameid":8334775,"name":"Comuna Târnava"},{"geonameid":665100,"name":"Comuna Tilişca"},{"geonameid":8334825,"name":"Comuna Turnu Roşu"},{"geonameid":663310,"name":"Comuna Valea Viilor"},{"geonameid":662378,"name":"Comuna Vurpăr"},{"geonameid":8334663,"name":"Municipiul Mediaş"},{"geonameid":8334650,"name":"Municipiul Sibiu"},{"geonameid":8334970,"name":"Oraş Agnita"},{"geonameid":686010,"name":"Oraş Avrig"},{"geonameid":8334908,"name":"Oraş Cisnãdie"},{"geonameid":680900,"name":"Oraş Copşa Micã"},{"geonameid":8334858,"name":"Oraş Dumbrãveni"},{"geonameid":8334657,"name":"Oraş Miercurea Sibiului"},{"geonameid":672022,"name":"Oraş Ocna Sibiului"},{"geonameid":8334777,"name":"Oraş Sãlişte"},{"geonameid":665605,"name":"Oraş Tãlmaciu"}],"alternateNames":[{"alternatenameId":490801,"geonameid":798549,"isoLanguage":"ro","alternateName":"România","isPreferredName":true,"isShortName":true,"isColloquial":false,"isHistoric":false}]},"__N_SSG":true}