{"pageProps":{"locale":"en","admin2":{"geonameid":2745704,"name":"Gemeente Veldhoven","country":"NL","admin1":"06","admin2":"0861","admin3":"","latitude":"51.4125300","longitude":"5.3805200"},"admin1":{"geonameid":2749990,"name":"Provincie Noord-Brabant","admin1":"06"},"locations":[{"geonameid":2746245,"name":"’t Look","admin3":""},{"geonameid":2759066,"name":"Berkt","admin3":""},{"geonameid":2757442,"name":"D’ Ekker","admin3":""},{"geonameid":2756780,"name":"Djept","admin3":""},{"geonameid":2754945,"name":"Halfmijl","admin3":""},{"geonameid":2754647,"name":"Heers","admin3":""},{"geonameid":2754605,"name":"Heiberg","admin3":""},{"geonameid":2754525,"name":"Heike","admin3":""},{"geonameid":2753755,"name":"Hoogeind","admin3":""},{"geonameid":2751030,"name":"Meerveldhoven","admin3":""},{"geonameid":2750571,"name":"Muggenhol","admin3":""},{"geonameid":2749703,"name":"Oerle","admin3":""},{"geonameid":2747485,"name":"Schoot","admin3":""},{"geonameid":2746188,"name":"Toterfout","admin3":""},{"geonameid":2745706,"name":"Veldhoven","admin3":""},{"geonameid":2744060,"name":"Zandoerle","admin3":""},{"geonameid":2744006,"name":"Zeelst","admin3":""},{"geonameid":2743864,"name":"Zittard","admin3":""},{"geonameid":2743844,"name":"Zonderwijk","admin3":""}],"admin3":[],"alternateNames":[{"alternatenameId":11907788,"geonameid":2749990,"isoLanguage":"de","alternateName":"Nordbrabant","isPreferredName":true,"isShortName":true,"isColloquial":false,"isHistoric":false}]},"__N_SSG":true}