{"pageProps":{"locale":"de","admin2":{"geonameid":2886241,"name":"Regierungsbezirk Köln","country":"DE","admin1":"07","admin2":"053","admin3":"","latitude":"50.7833300","longitude":"6.8666000","localeAltName":null},"admin1":{"geonameid":2861876,"name":"Nordrhein-Westfalen","admin1":"07","localeAltName":"Nordrhein-Westfalen"},"locations":[{"geonameid":3247449,"name":"Aachen","admin3":"05334","localeAltName":null},{"geonameid":2958580,"name":"Aldenhoven","admin3":"05358","localeAltName":null},{"geonameid":2958516,"name":"Alfter","admin3":"05382","localeAltName":null},{"geonameid":2958141,"name":"Alsdorf","admin3":"05334","localeAltName":null},{"geonameid":6691073,"name":"Altstadt Nord","admin3":"05315","localeAltName":null},{"geonameid":6691072,"name":"Altstadt Sud","admin3":"05315","localeAltName":null},{"geonameid":2953435,"name":"Bad Honnef","admin3":"05382","localeAltName":null},{"geonameid":2953398,"name":"Bad Münstereifel","admin3":"05366","localeAltName":null},{"geonameid":2953302,"name":"Baesweiler","admin3":"05334","localeAltName":null},{"geonameid":2951860,"name":"Bayenthal","admin3":"05315","localeAltName":null},{"geonameid":2951648,"name":"Bedburg","admin3":"05362","localeAltName":null},{"geonameid":2950438,"name":"Bergheim","admin3":"05362","localeAltName":null},{"geonameid":2950349,"name":"Bergisch Gladbach","admin3":"05378","localeAltName":null},{"geonameid":2950294,"name":"Bergneustadt","admin3":"05374","localeAltName":null},{"geonameid":6691078,"name":"Bilderstöckchen","admin3":"05315","localeAltName":null},{"geonameid":2948056,"name":"Blankenheim","admin3":"05366","localeAltName":null},{"geonameid":2946447,"name":"Bonn","admin3":"05314","localeAltName":null},{"geonameid":2946111,"name":"Bornheim","admin3":"05382","localeAltName":null},{"geonameid":9292811,"name":"Boseroth","admin3":"05382","localeAltName":null},{"geonameid":2944803,"name":"Breinigerberg","admin3":"05334","localeAltName":null},{"geonameid":2943320,"name":"Brühl","admin3":"05362","localeAltName":null},{"geonameid":8593860,"name":"Buchforst","admin3":"05315","localeAltName":null},{"geonameid":2942446,"name":"Buchheim","admin3":"05315","localeAltName":null},{"geonameid":2940942,"name":"Burscheid","admin3":"05378","localeAltName":null},{"geonameid":2939442,"name":"Dahlem","admin3":"05366","localeAltName":null},{"geonameid":9292813,"name":"Dahlhausen","admin3":"05382","localeAltName":null},{"geonameid":2937790,"name":"Deutz","admin3":"05315","localeAltName":null},{"geonameid":2934498,"name":"Dürboslar","admin3":"05358","localeAltName":null},{"geonameid":2934486,"name":"Düren","admin3":"05358","localeAltName":null},{"geonameid":2931881,"name":"Eil","admin3":"05315","localeAltName":null},{"geonameid":2931699,"name":"Einruhr","admin3":"05334","localeAltName":null},{"geonameid":2931361,"name":"Eitorf","admin3":"05382","localeAltName":null},{"geonameid":2930778,"name":"Elsdorf","admin3":"05362","localeAltName":null},{"geonameid":2930228,"name":"Engelsdorf","admin3":"05358","localeAltName":null},{"geonameid":2930216,"name":"Engelskirchen","admin3":"05374","localeAltName":null},{"geonameid":2929671,"name":"Erftstadt","admin3":"05362","localeAltName":null},{"geonameid":2929622,"name":"Erkelenz","admin3":"05370","localeAltName":null},{"geonameid":2928963,"name":"Eschweiler","admin3":"05334","localeAltName":null},{"geonameid":2928396,"name":"Euskirchen","admin3":"05366","localeAltName":null},{"geonameid":2925259,"name":"Frechen","admin3":"05362","localeAltName":null},{"geonameid":2925203,"name":"Freialdenhoven","admin3":"05358","localeAltName":null},{"geonameid":2922722,"name":"Gangelt","admin3":"05370","localeAltName":null},{"geonameid":2921837,"name":"Geilenkirchen","admin3":"05370","localeAltName":null},{"geonameid":2917726,"name":"Gremberghoven","admin3":"05315","localeAltName":null},{"geonameid":2913761,"name":"Gummersbach","admin3":"05374","localeAltName":null},{"geonameid":9292812,"name":"Hartenberg","admin3":"05382","localeAltName":null},{"geonameid":2907459,"name":"Heimbach","admin3":"05358","localeAltName":null},{"geonameid":2907201,"name":"Heinsberg","admin3":"05370","localeAltName":null},{"geonameid":2906843,"name":"Hellenthal","admin3":"05366","localeAltName":null},{"geonameid":2906376,"name":"Hennef","admin3":"05382","localeAltName":null},{"geonameid":2905455,"name":"Herzogenrath","admin3":"05334","localeAltName":null},{"geonameid":2901908,"name":"Höhenberg","admin3":"05315","localeAltName":null},{"geonameid":2898111,"name":"Hückelhoven","admin3":"05370","localeAltName":null},{"geonameid":2898098,"name":"Hückeswagen","admin3":"05374","localeAltName":null},{"geonameid":2897732,"name":"Humboldtkolonie","admin3":"05315","localeAltName":null},{"geonameid":2897216,"name":"Hürth","admin3":"05362","localeAltName":null},{"geonameid":2896120,"name":"Inden","admin3":"05358","localeAltName":null},{"geonameid":2894553,"name":"Jülich","admin3":"05358","localeAltName":null},{"geonameid":8593861,"name":"Kalk","admin3":"05315","localeAltName":null},{"geonameid":2893762,"name":"Kall","admin3":"05366","localeAltName":null},{"geonameid":2891524,"name":"Kerpen","admin3":"05362","localeAltName":null},{"geonameid":2886242,"name":"Köln","admin3":"05315","localeAltName":null},{"geonameid":2885734,"name":"Königswinter","admin3":"05382","localeAltName":null},{"geonameid":2884245,"name":"Kreuzau","admin3":"05358","localeAltName":null},{"geonameid":2882318,"name":"Kürten","admin3":"05378","localeAltName":null},{"geonameid":2880726,"name":"Langerwehe","admin3":"05358","localeAltName":null},{"geonameid":2879315,"name":"Leichlingen","admin3":"05378","localeAltName":null},{"geonameid":2878234,"name":"Leverkusen","admin3":"05316","localeAltName":null},{"geonameid":2877142,"name":"Lindlar","admin3":"05374","localeAltName":null},{"geonameid":2877021,"name":"Linnich","admin3":"05358","localeAltName":null},{"geonameid":2876218,"name":"Lohmar","admin3":"05382","localeAltName":null},{"geonameid":2873574,"name":"Marienheide","admin3":"05374","localeAltName":null},{"geonameid":2872611,"name":"Mechernich","admin3":"05366","localeAltName":null},{"geonameid":2872582,"name":"Meckenheim","admin3":"05382","localeAltName":null},{"geonameid":2871963,"name":"Mengenich","admin3":"05315","localeAltName":null},{"geonameid":2869756,"name":"Monschau","admin3":"05334","localeAltName":null},{"geonameid":2869196,"name":"Morsbach","admin3":"05374","localeAltName":null},{"geonameid":2868936,"name":"Much","admin3":"05382","localeAltName":null},{"geonameid":8593865,"name":"Mülheim","admin3":"05315","localeAltName":null},{"geonameid":2866336,"name":"Nettersheim","admin3":"05366","localeAltName":null},{"geonameid":8521656,"name":"Neu-Pattern","admin3":"05358","localeAltName":null},{"geonameid":6691076,"name":"Neuehrenfeld","admin3":"05315","localeAltName":null},{"geonameid":8593855,"name":"Neustadt/Nord","admin3":"05315","localeAltName":null},{"geonameid":8593856,"name":"Neustadt/Süd","admin3":"05315","localeAltName":null},{"geonameid":2863711,"name":"Nideggen","admin3":"05358","localeAltName":null},{"geonameid":2863223,"name":"Niederkassel","admin3":"05382","localeAltName":null},{"geonameid":2863119,"name":"Niedermerz","admin3":"05358","localeAltName":null},{"geonameid":2862698,"name":"Niederzier","admin3":"05358","localeAltName":null},{"geonameid":2862375,"name":"Nippes","admin3":"05315","localeAltName":null},{"geonameid":2861801,"name":"Nörvenich","admin3":"05358","localeAltName":null},{"geonameid":2861677,"name":"Nümbrecht","admin3":"05374","localeAltName":null},{"geonameid":2858103,"name":"Odenthal","admin3":"05378","localeAltName":null},{"geonameid":2857185,"name":"Opladen","admin3":"05316","localeAltName":null},{"geonameid":2856857,"name":"Ossendorf","admin3":"05315","localeAltName":null},{"geonameid":2856288,"name":"Ostheim","admin3":"05315","localeAltName":null},{"geonameid":2855859,"name":"Overath","admin3":"05378","localeAltName":null},{"geonameid":2852863,"name":"Poll","admin3":"05315","localeAltName":null},{"geonameid":2852566,"name":"Porz am Rhein","admin3":"05315","localeAltName":null},{"geonameid":2851762,"name":"Puffendorf","admin3":"05334","localeAltName":null},{"geonameid":2851746,"name":"Pulheim","admin3":"05362","localeAltName":null},{"geonameid":2850995,"name":"Radevormwald","admin3":"05374","localeAltName":null},{"geonameid":2850224,"name":"Rath","admin3":"05315","localeAltName":null},{"geonameid":2847666,"name":"Rheinbach","admin3":"05382","localeAltName":null},{"geonameid":2847013,"name":"Riehl","admin3":"05315","localeAltName":null},{"geonameid":2844277,"name":"Roetgen","admin3":"05334","localeAltName":null},{"geonameid":2844862,"name":"Rösrath","admin3":"05378","localeAltName":null},{"geonameid":2842960,"name":"Ruppichteroth","admin3":"05382","localeAltName":null},{"geonameid":2842944,"name":"Rurberg","admin3":"05334","localeAltName":null},{"geonameid":2841648,"name":"Sankt Augustin","admin3":"05382","localeAltName":null},{"geonameid":2838743,"name":"Schleiden","admin3":"05358","localeAltName":null},{"geonameid":2838744,"name":"Schleiden","admin3":"05366","localeAltName":null},{"geonameid":2832521,"name":"Siegburg","admin3":"05382","localeAltName":null},{"geonameid":2832333,"name":"Siersdorf","admin3":"05358","localeAltName":null},{"geonameid":2832023,"name":"Simmerath","admin3":"05334","localeAltName":null},{"geonameid":2831888,"name":"Sinnersdorf","admin3":"05362","localeAltName":null},{"geonameid":2826595,"name":"Stolberg","admin3":"05334","localeAltName":null},{"geonameid":2826359,"name":"Stoßdorf","admin3":"05382","localeAltName":null},{"geonameid":2822073,"name":"Titz","admin3":"05358","localeAltName":null},{"geonameid":2821029,"name":"Troisdorf","admin3":"05382","localeAltName":null},{"geonameid":2820736,"name":"Türnich","admin3":"05362","localeAltName":null},{"geonameid":2820621,"name":"Übach-Palenberg","admin3":"05370","localeAltName":null},{"geonameid":2817506,"name":"Vettweiß","admin3":"05358","localeAltName":null},{"geonameid":2815678,"name":"Wachtberg","admin3":"05382","localeAltName":null},{"geonameid":2815375,"name":"Wahn-Heide","admin3":"05315","localeAltName":null},{"geonameid":2815137,"name":"Waldbröl","admin3":"05374","localeAltName":null},{"geonameid":2815035,"name":"Waldfeucht","admin3":"05370","localeAltName":null},{"geonameid":2813786,"name":"Wassenberg","admin3":"05370","localeAltName":null},{"geonameid":2813390,"name":"Wegberg","admin3":"05370","localeAltName":null},{"geonameid":9294076,"name":"Weiler","admin3":"05382","localeAltName":null},{"geonameid":2812522,"name":"Weilerswist","admin3":"05366","localeAltName":null},{"geonameid":2810855,"name":"Wermelskirchen","admin3":"05378","localeAltName":null},{"geonameid":2810612,"name":"Wesseling","admin3":"05362","localeAltName":null},{"geonameid":2809517,"name":"Wiehl","admin3":"05374","localeAltName":null},{"geonameid":2807594,"name":"Wipperfürth","admin3":"05374","localeAltName":null},{"geonameid":2805644,"name":"Würselen","admin3":"05334","localeAltName":null},{"geonameid":2803723,"name":"Zülpich","admin3":"05366","localeAltName":null}],"admin3":[{"geonameid":2847604,"name":"Rhein-Sieg-Kreis","admin3":"05382","localeAltName":null},{"geonameid":3247445,"name":"Oberbergischer Kreis","admin3":"05374","localeAltName":null},{"geonameid":3247446,"name":"Rheinisch-Bergischer Kreis","admin3":"05378","localeAltName":null},{"geonameid":3247447,"name":"Kreisfreie Stadt Leverkusen","admin3":"05316","localeAltName":null},{"geonameid":3247448,"name":"Städteregion Aachen","admin3":"05334","localeAltName":null},{"geonameid":3247450,"name":"Kreisfreie Stadt Bonn","admin3":"05314","localeAltName":null},{"geonameid":3247451,"name":"Kreisfreie Stadt Köln","admin3":"05315","localeAltName":null},{"geonameid":3247452,"name":"Kreis Euskirchen","admin3":"05366","localeAltName":null},{"geonameid":3247453,"name":"Kreis Düren","admin3":"05358","localeAltName":null},{"geonameid":3247454,"name":"Rhein-Erft-Kreis","admin3":"05362","localeAltName":null},{"geonameid":3247455,"name":"Kreis Heinsberg","admin3":"05370","localeAltName":null}],"alternateNames":[{"alternatenameId":2080494,"geonameid":2861876,"isoLanguage":"de","alternateName":"Nordrhein-Westfalen","isPreferredName":true,"isShortName":true,"isColloquial":false,"isHistoric":false}]},"__N_SSG":true}