{"pageProps":{"locale":"en","admin2":{"geonameid":2751282,"name":"Gemeente Maastricht","country":"NL","admin1":"05","admin2":"0935","admin3":"","latitude":"50.8500000","longitude":"5.7000000","localeAltName":null},"admin1":{"geonameid":2751596,"name":"Provincie Limburg","admin1":"05","localeAltName":"Limburg"},"locations":[{"geonameid":2759850,"name":"Amby","admin3":"","localeAltName":null},{"geonameid":2759254,"name":"Belfort","admin3":"","localeAltName":null},{"geonameid":2758971,"name":"Biesland","admin3":"","localeAltName":null},{"geonameid":2758611,"name":"Borgharen","admin3":"","localeAltName":null},{"geonameid":2757575,"name":"De Heeg","admin3":"","localeAltName":null},{"geonameid":2754682,"name":"Heer","admin3":"","localeAltName":null},{"geonameid":2754156,"name":"Heugem","admin3":"","localeAltName":null},{"geonameid":2753300,"name":"Itteren","admin3":"","localeAltName":null},{"geonameid":2751593,"name":"Limmel","admin3":"","localeAltName":null},{"geonameid":2751283,"name":"Maastricht","admin3":"","localeAltName":null},{"geonameid":2751247,"name":"Malberg","admin3":"","localeAltName":null},{"geonameid":2751169,"name":"MariÃ«nwaard","admin3":"","localeAltName":null},{"geonameid":2749170,"name":"Oud-Caberg","admin3":"","localeAltName":null},{"geonameid":2748889,"name":"Oud-Vroenhoven","admin3":"","localeAltName":null},{"geonameid":2748474,"name":"Pottenberg","admin3":"","localeAltName":null},{"geonameid":2747673,"name":"Scharn","admin3":"","localeAltName":null},{"geonameid":2747218,"name":"Sint Pieter","admin3":"","localeAltName":null},{"geonameid":2744486,"name":"Wijk","admin3":"","localeAltName":null},{"geonameid":2744227,"name":"Wolder","admin3":"","localeAltName":null}],"admin3":[],"alternateNames":[{"alternatenameId":9073257,"geonameid":2751596,"isoLanguage":"en","alternateName":"Limburg","isPreferredName":true,"isShortName":true,"isColloquial":false,"isHistoric":false},{"alternatenameId":9073258,"geonameid":2751596,"isoLanguage":"de","alternateName":"Limburg","isPreferredName":true,"isShortName":true,"isColloquial":false,"isHistoric":false}]},"__N_SSG":true}