{"pageProps":{"locale":"en","admin2":{"geonameid":2759152,"name":"Gemeente Bergen","country":"NL","admin1":"05","admin2":"0893","admin3":"","latitude":"51.5771700","longitude":"6.0901400","localeAltName":null},"admin1":{"geonameid":2751596,"name":"Provincie Limburg","admin1":"05","localeAltName":"Limburg"},"locations":[{"geonameid":2759946,"name":"Afferden","admin3":"","localeAltName":null},{"geonameid":2759932,"name":"Aijen","admin3":"","localeAltName":null},{"geonameid":6544787,"name":"Beekheuvel","admin3":"","localeAltName":null},{"geonameid":2759155,"name":"Bergen","admin3":"","localeAltName":null},{"geonameid":2759115,"name":"Bergsche Heide","admin3":"","localeAltName":null},{"geonameid":2758840,"name":"Bleijenbeek","admin3":"","localeAltName":null},{"geonameid":2758538,"name":"Bosscherheide","admin3":"","localeAltName":null},{"geonameid":2757585,"name":"De Hamert","admin3":"","localeAltName":null},{"geonameid":2756156,"name":"Elsteren","admin3":"","localeAltName":null},{"geonameid":2755588,"name":"Gening","admin3":"","localeAltName":null},{"geonameid":2755189,"name":"Groote Horst","admin3":"","localeAltName":null},{"geonameid":2754398,"name":"Hengeland","admin3":"","localeAltName":null},{"geonameid":2754154,"name":"Heukelom","admin3":"","localeAltName":null},{"geonameid":2753111,"name":"Kamp","admin3":"","localeAltName":null},{"geonameid":2752742,"name":"Kleine-Horst","admin3":"","localeAltName":null},{"geonameid":2752588,"name":"Knikkerdorp","admin3":"","localeAltName":null},{"geonameid":2752561,"name":"Koekoek","admin3":"","localeAltName":null},{"geonameid":2752007,"name":"Lakei","admin3":"","localeAltName":null},{"geonameid":2751699,"name":"Leuken","admin3":"","localeAltName":null},{"geonameid":2750366,"name":"Nieuw-Bergen","admin3":"","localeAltName":null},{"geonameid":2749313,"name":"Op de Belt","admin3":"","localeAltName":null},{"geonameid":2748731,"name":"Papenbeek","admin3":"","localeAltName":null},{"geonameid":2748064,"name":"Rimpelt","admin3":"","localeAltName":null},{"geonameid":2747340,"name":"Siebengewald","admin3":"","localeAltName":null},{"geonameid":2747101,"name":"Smal","admin3":"","localeAltName":null},{"geonameid":6544811,"name":"t Leuken","admin3":"","localeAltName":null},{"geonameid":2746127,"name":"Tuindorp","admin3":"","localeAltName":null},{"geonameid":2745180,"name":"Vrij","admin3":"","localeAltName":null},{"geonameid":2744865,"name":"Well","admin3":"","localeAltName":null},{"geonameid":2744859,"name":"Wellerlooi","admin3":"","localeAltName":null},{"geonameid":2744007,"name":"Zeelberg","admin3":"","localeAltName":null}],"admin3":[],"alternateNames":[{"alternatenameId":9073257,"geonameid":2751596,"isoLanguage":"en","alternateName":"Limburg","isPreferredName":true,"isShortName":true,"isColloquial":false,"isHistoric":false},{"alternatenameId":9073258,"geonameid":2751596,"isoLanguage":"de","alternateName":"Limburg","isPreferredName":true,"isShortName":true,"isColloquial":false,"isHistoric":false}]},"__N_SSG":true}