{"pageProps":{"locale":"ro","admin2":{"geonameid":8334779,"name":"Comuna Vaţa De Jos","country":"RO","admin1":"21","admin2":"91795","admin3":"","latitude":"46.1843200","longitude":"22.5800200"},"admin1":{"geonameid":675917,"name":"Hunedoara","admin1":"21"},"locations":[{"geonameid":685722,"name":"Bălacia"},{"geonameid":685313,"name":"Basarabasa"},{"geonameid":685308,"name":"Basarabiţa"},{"geonameid":684739,"name":"Birtin"},{"geonameid":683903,"name":"Brăiasa"},{"geonameid":683623,"name":"Brotuna"},{"geonameid":682496,"name":"Căzănești"},{"geonameid":682384,"name":"Cerboaia"},{"geonameid":681421,"name":"Ciungani"},{"geonameid":680325,"name":"Cram"},{"geonameid":679664,"name":"Dealu Buneşti"},{"geonameid":679606,"name":"Dealu Mateşti"},{"geonameid":679429,"name":"Dicarâş"},{"geonameid":676610,"name":"Gruiu Lung"},{"geonameid":676607,"name":"Gruiu Mărului"},{"geonameid":674138,"name":"Măgura"},{"geonameid":674120,"name":"Măgureanu"},{"geonameid":672033,"name":"Ocișor"},{"geonameid":672032,"name":"Ociu"},{"geonameid":669718,"name":"Prăvăleni"},{"geonameid":669639,"name":"Prihodiște"},{"geonameid":666378,"name":"Spătăreşti"},{"geonameid":664969,"name":"Târnava de Criş"},{"geonameid":664943,"name":"Târsa"},{"geonameid":665448,"name":"Tătărăștii de Criș"},{"geonameid":663899,"name":"Valea Bocşei"},{"geonameid":663505,"name":"Valea Ponor"},{"geonameid":663111,"name":"Vaţa de Jos"},{"geonameid":663110,"name":"Vața de Sus"},{"geonameid":663103,"name":"Vătişoara"}],"admin3":[],"alternateNames":[]},"__N_SSG":true}