{"pageProps":{"locale":"ro","admin2":{"geonameid":8334607,"name":"Municipiul Craiova","country":"RO","admin1":"17","admin2":"69900","admin3":"","latitude":"44.3194300","longitude":"23.8087500"},"admin1":{"geonameid":679134,"name":"Dolj","admin1":"17"},"locations":[{"geonameid":685335,"name":"Bariera Vâlcii"},{"geonameid":684217,"name":"Bordeiu"},{"geonameid":682850,"name":"Canalu"},{"geonameid":680329,"name":"cart. Craiovița Nouă"},{"geonameid":682318,"name":"Cernele"},{"geonameid":682315,"name":"Cernelele de Sus"},{"geonameid":680332,"name":"Craiova"},{"geonameid":679594,"name":"Dealu Perilor"},{"geonameid":678510,"name":"Făcăi"},{"geonameid":677447,"name":"Gherceştii Noi"},{"geonameid":675315,"name":"Izvorul Rece"},{"geonameid":674399,"name":"Lunca Jiului"},{"geonameid":672966,"name":"Mofleni"},{"geonameid":670240,"name":"Poenari"},{"geonameid":669849,"name":"Popoveni"},{"geonameid":668704,"name":"Româneşti"},{"geonameid":668554,"name":"Rovine"},{"geonameid":667099,"name":"Șimnicu de Jos"},{"geonameid":662343,"name":"Zahana"}],"admin3":[],"alternateNames":[]},"__N_SSG":true}