{"pageProps":{"locale":"en","admin2":{"geonameid":12022130,"name":"Molenlanden","country":"NL","admin1":"11","admin2":"1978","admin3":"","latitude":"51.8846500","longitude":"4.8452100"},"admin1":{"geonameid":2743698,"name":"Provincie Zuid-Holland","admin1":"11"},"locations":[{"geonameid":2759816,"name":"Ammerssluis","admin3":""},{"geonameid":2759673,"name":"Arkel","admin3":""},{"geonameid":2758825,"name":"Bleskensgraaf","admin3":""},{"geonameid":2758405,"name":"Brandwijk","admin3":""},{"geonameid":2757688,"name":"De Donk","admin3":""},{"geonameid":2757239,"name":"Den Dool","admin3":""},{"geonameid":2756171,"name":"Elshout","admin3":""},{"geonameid":2755613,"name":"Gelkenes","admin3":""},{"geonameid":2755529,"name":"Giessen-Oudekerk","admin3":""},{"geonameid":2755533,"name":"Giessenburg","admin3":""},{"geonameid":2755514,"name":"Gijbeland","admin3":""},{"geonameid":2755405,"name":"Goudriaan","admin3":""},{"geonameid":2755386,"name":"Graafland","admin3":""},{"geonameid":2755239,"name":"Groot-Ammers","admin3":""},{"geonameid":2753957,"name":"Hofwegen","admin3":""},{"geonameid":2753789,"name":"Hoogblokland","admin3":""},{"geonameid":2753634,"name":"Hoornaar","admin3":""},{"geonameid":2752828,"name":"Kinderdijk","admin3":""},{"geonameid":2752455,"name":"Kooiwijk","admin3":""},{"geonameid":2752124,"name":"Laag-Blokland","admin3":""},{"geonameid":2751924,"name":"Langerak","admin3":""},{"geonameid":2751621,"name":"Liesveld","admin3":""},{"geonameid":2750791,"name":"Minkeloos","admin3":""},{"geonameid":2750736,"name":"Molenaarsgraaf","admin3":""},{"geonameid":2750563,"name":"Muisbroek","admin3":""},{"geonameid":2750469,"name":"Nederslingeland","admin3":""},{"geonameid":2750163,"name":"Nieuw-Lekkerland","admin3":""},{"geonameid":2750146,"name":"Nieuwpoort","admin3":""},{"geonameid":2749967,"name":"Noordeloos","admin3":""},{"geonameid":2749195,"name":"Ottoland","admin3":""},{"geonameid":2749189,"name":"Oud-Alblas","admin3":""},{"geonameid":2748821,"name":"Overslingeland","admin3":""},{"geonameid":2748626,"name":"Peursum","admin3":""},{"geonameid":6544912,"name":"Pinkenveer","admin3":""},{"geonameid":2748142,"name":"Rietveld","admin3":""},{"geonameid":2747636,"name":"Schelluinen","admin3":""},{"geonameid":2746623,"name":"Streefkerk","admin3":""},{"geonameid":2745147,"name":"Vuilendam","admin3":""},{"geonameid":11395750,"name":"Waal","admin3":""},{"geonameid":2744467,"name":"Wijngaarden","admin3":""}],"admin3":[],"alternateNames":[{"alternatenameId":11907789,"geonameid":2743698,"isoLanguage":"de","alternateName":"SÃ¼dholland","isPreferredName":true,"isShortName":true,"isColloquial":false,"isHistoric":false}]},"__N_SSG":true}