{"pageProps":{"locale":"it","admin2":{"geonameid":3175531,"name":"Provincia di Imperia","country":"IT","admin1":"08","admin2":"IM","admin3":"","latitude":"43.9666700","longitude":"7.7833300","localeAltName":"Imperia"},"admin1":{"geonameid":3174725,"name":"Liguria","admin1":"08","localeAltName":"Liguria"},"locations":[{"geonameid":3182597,"name":"Badalucco","admin3":"008006","localeAltName":null},{"geonameid":3181864,"name":"Bordighera","admin3":"008008","localeAltName":null},{"geonameid":8950024,"name":"Borgo Sant'Agata","admin3":"008031","localeAltName":null},{"geonameid":3180927,"name":"Camporosso","admin3":"008011","localeAltName":null},{"geonameid":3179078,"name":"Ceriana","admin3":"008016","localeAltName":null},{"geonameid":3178987,"name":"Cervo","admin3":"008017","localeAltName":null},{"geonameid":3177597,"name":"Diano Castello","admin3":"008026","localeAltName":null},{"geonameid":3177595,"name":"Diano Marina","admin3":"008027","localeAltName":null},{"geonameid":3177594,"name":"Diano San Pietro","admin3":"008028","localeAltName":null},{"geonameid":3177551,"name":"Dolceacqua","admin3":"008029","localeAltName":null},{"geonameid":3177550,"name":"Dolcedo","admin3":"008030","localeAltName":null},{"geonameid":3175532,"name":"Imperia","admin3":"008031","localeAltName":null},{"geonameid":3175433,"name":"Isolabona","admin3":"008032","localeAltName":null},{"geonameid":8949668,"name":"Latte","admin3":"008065","localeAltName":null},{"geonameid":3171839,"name":"Ospedaletti","admin3":"008039","localeAltName":null},{"geonameid":3171207,"name":"Perinaldo","admin3":"008040","localeAltName":null},{"geonameid":3170743,"name":"Pieve di Teco","admin3":"008042","localeAltName":null},{"geonameid":3170721,"name":"Pigna","admin3":"008043","localeAltName":null},{"geonameid":3170508,"name":"Poggi Inferiore Poggi Superiore","admin3":"008031","localeAltName":null},{"geonameid":3170334,"name":"Pompeiana","admin3":"008044","localeAltName":null},{"geonameid":3170282,"name":"Pontedassio","admin3":"008045","localeAltName":null},{"geonameid":3170140,"name":"Pornassio","admin3":"008046","localeAltName":null},{"geonameid":3169267,"name":"Riva Ligure","admin3":"008050","localeAltName":null},{"geonameid":6355084,"name":"San Bartolomeo al Mare","admin3":"008052","localeAltName":null},{"geonameid":3168522,"name":"San Biagio della Cima","admin3":"008053","localeAltName":null},{"geonameid":3168117,"name":"San Lorenzo al Mare","admin3":"008054","localeAltName":null},{"geonameid":3167777,"name":"San Remo","admin3":"008055","localeAltName":null},{"geonameid":3167251,"name":"Santo Stefano al Mare","admin3":"008056","localeAltName":null},{"geonameid":3166434,"name":"Soldano","admin3":"008058","localeAltName":null},{"geonameid":3165993,"name":"Taggia","admin3":"008059","localeAltName":null},{"geonameid":3164872,"name":"Vallebona","admin3":"008062","localeAltName":null},{"geonameid":3164862,"name":"Vallecrosia","admin3":"008063","localeAltName":null},{"geonameid":3164582,"name":"Ventimiglia","admin3":"008065","localeAltName":null}],"admin3":[{"geonameid":3169866,"name":"Prel√†","admin3":"008047"},{"geonameid":3172047,"name":"Olivetta San Michele","admin3":"008038"},{"geonameid":6536063,"name":"Airole","admin3":"008001"},{"geonameid":6536064,"name":"Apricale","admin3":"008002"},{"geonameid":6536065,"name":"Aurigo","admin3":"008005"},{"geonameid":6536066,"name":"Badalucco","admin3":"008006","localeAltName":null},{"geonameid":6536070,"name":"Chiusanico","admin3":"008019"},{"geonameid":6536071,"name":"Cipressa","admin3":"008021"},{"geonameid":6536072,"name":"Dolceacqua","admin3":"008029","localeAltName":null},{"geonameid":6536073,"name":"Isolabona","admin3":"008032","localeAltName":null},{"geonameid":6536075,"name":"Montegrosso Pian Latte","admin3":"008037"},{"geonameid":6536076,"name":"Perinaldo","admin3":"008040","localeAltName":null},{"geonameid":6536077,"name":"Pigna","admin3":"008043","localeAltName":null},{"geonameid":6536078,"name":"Pompeiana","admin3":"008044","localeAltName":null},{"geonameid":6536079,"name":"Rocchetta Nervina","admin3":"008051"},{"geonameid":6536115,"name":"Pornassio","admin3":"008046","localeAltName":null},{"geonameid":6536463,"name":"San Bartolomeo al Mare","admin3":"008052","localeAltName":null},{"geonameid":6536464,"name":"Santo Stefano al Mare","admin3":"008056","localeAltName":null},{"geonameid":6536465,"name":"Soldano","admin3":"008058","localeAltName":null},{"geonameid":6536466,"name":"Terzorio","admin3":"008060"},{"geonameid":6536467,"name":"Vessalico","admin3":"008066"},{"geonameid":6536468,"name":"Villa Faraldi","admin3":"008067"},{"geonameid":6537035,"name":"Ceriana","admin3":"008016","localeAltName":null},{"geonameid":6537036,"name":"Chiusavecchia","admin3":"008020"},{"geonameid":6537037,"name":"Civezza","admin3":"008022"},{"geonameid":6537038,"name":"Costarainera","admin3":"008024"},{"geonameid":6537039,"name":"Dolcedo","admin3":"008030","localeAltName":null},{"geonameid":6537040,"name":"Lucinasco","admin3":"008033"},{"geonameid":6537041,"name":"Molini di Triora","admin3":"008035"},{"geonameid":6537042,"name":"Ospedaletti","admin3":"008039","localeAltName":null},{"geonameid":6537043,"name":"Pietrabruna","admin3":"008041"},{"geonameid":6537044,"name":"Pontedassio","admin3":"008045","localeAltName":null},{"geonameid":6537045,"name":"Riva Ligure","admin3":"008050","localeAltName":null},{"geonameid":6537046,"name":"San Biagio della Cima","admin3":"008053","localeAltName":null},{"geonameid":6537047,"name":"San Lorenzo al Mare","admin3":"008054","localeAltName":null},{"geonameid":6537048,"name":"Vasia","admin3":"008064"},{"geonameid":6539609,"name":"Castellaro","admin3":"008014"},{"geonameid":6539670,"name":"Vallebona","admin3":"008062","localeAltName":null},{"geonameid":6539774,"name":"Cervo","admin3":"008017","localeAltName":null},{"geonameid":6540142,"name":"Caravonica","admin3":"008012"},{"geonameid":6540144,"name":"Cesio","admin3":"008018"},{"geonameid":6540145,"name":"Diano Marina","admin3":"008027","localeAltName":null},{"geonameid":6540319,"name":"Triora","admin3":"008061"},{"geonameid":6540548,"name":"Borghetto d'Arroscia","admin3":"008009"},{"geonameid":6540549,"name":"Borgomaro","admin3":"008010"},{"geonameid":6540550,"name":"Rezzo","admin3":"008049"},{"geonameid":6540551,"name":"Seborga","admin3":"008057"},{"geonameid":6540552,"name":"Vallecrosia","admin3":"008063","localeAltName":null},{"geonameid":6540553,"name":"Ventimiglia","admin3":"008065","localeAltName":null},{"geonameid":6541483,"name":"Camporosso","admin3":"008011","localeAltName":null},{"geonameid":6541484,"name":"Imperia","admin3":"008031","localeAltName":null},{"geonameid":6541485,"name":"Pieve di Teco","admin3":"008042","localeAltName":null},{"geonameid":6541656,"name":"Bordighera","admin3":"008008","localeAltName":null},{"geonameid":6542049,"name":"Diano Castello","admin3":"008026","localeAltName":null},{"geonameid":6542050,"name":"Diano San Pietro","admin3":"008028","localeAltName":null},{"geonameid":6542051,"name":"Taggia","admin3":"008059","localeAltName":null},{"geonameid":6542207,"name":"Sanremo","admin3":"008055","localeAltName":null},{"geonameid":6542218,"name":"Castel Vittorio","admin3":"008015"},{"geonameid":6542427,"name":"Aquila d'Arroscia","admin3":"008003"},{"geonameid":6542429,"name":"Cosio d'Arroscia","admin3":"008023"},{"geonameid":6542430,"name":"Diano Arentino","admin3":"008025"},{"geonameid":6542431,"name":"Mendatica","admin3":"008034"},{"geonameid":6542497,"name":"Ranzo","admin3":"008048"},{"geonameid":6542792,"name":"Bajardo","admin3":"008007"},{"geonameid":6543067,"name":"Armo","admin3":"008004"},{"geonameid":12032156,"name":"Montalto Carpasio","admin3":"008068"}],"alternateNames":[{"alternatenameId":1350376,"geonameid":3174725,"isoLanguage":"it","alternateName":"Liguria","isPreferredName":true,"isShortName":true,"isColloquial":false,"isHistoric":false},{"alternatenameId":2254513,"geonameid":3174725,"isoLanguage":"en","alternateName":"Liguria","isPreferredName":true,"isShortName":true,"isColloquial":false,"isHistoric":false},{"alternatenameId":1350675,"geonameid":3175531,"isoLanguage":"it","alternateName":"Imperia","isPreferredName":true,"isShortName":true,"isColloquial":false,"isHistoric":false}]},"__N_SSG":true}