{"pageProps":{"locale":"de","admin2":{"geonameid":6458766,"name":"Goms District","country":"CH","admin1":"VS","admin2":"2304","admin3":"","latitude":"46.4616100","longitude":"8.2219000"},"admin1":{"geonameid":2658205,"name":"Canton du Valais","admin1":"VS"},"locations":[{"geonameid":2661673,"name":"Ausserbinn","admin3":"6056"},{"geonameid":2661565,"name":"Bellwald","admin3":"6052"},{"geonameid":2661469,"name":"Blitzingen","admin3":"6077"},{"geonameid":2660868,"name":"Ernen","admin3":"6056"},{"geonameid":2660781,"name":"Fiesch","admin3":"6057"},{"geonameid":2660627,"name":"Geschinen","admin3":"6077"},{"geonameid":2659982,"name":"Lax","admin3":"6056"},{"geonameid":2659562,"name":"MÃ¼hlebach","admin3":"6056"},{"geonameid":2659449,"name":"Niederwald","admin3":"6077"},{"geonameid":2659329,"name":"Oberwald","admin3":"6076"},{"geonameid":2658268,"name":"Ulrichen","admin3":"6076"}],"admin3":[{"geonameid":7285191,"name":"Bellwald","admin3":"6052"},{"geonameid":7285247,"name":"Binn","admin3":"6054"},{"geonameid":7285758,"name":"Ernen","admin3":"6056"},{"geonameid":7285819,"name":"Fiesch","admin3":"6057"},{"geonameid":7285821,"name":"Fieschertal","admin3":"6058"},{"geonameid":7286293,"name":"Lax","admin3":"6061"},{"geonameid":7286691,"name":"Obergoms","admin3":"6076"},{"geonameid":11611716,"name":"Goms","admin3":"6077"}],"alternateNames":[]},"__N_SSG":true}