{"pageProps":{"locale":"de","admin2":{"geonameid":6458872,"name":"Hérens District","country":"CH","admin1":"VS","admin2":"2305","admin3":"","latitude":"46.1940700","longitude":"7.4239100"},"admin1":{"geonameid":2658205,"name":"Canton du Valais","admin1":"VS"},"locations":[{"geonameid":2661655,"name":"Ayent","admin3":"6082"},{"geonameid":2660840,"name":"Evolène","admin3":"6083"},{"geonameid":2660371,"name":"Hérémence","admin3":"6084"},{"geonameid":2659741,"name":"Mase","admin3":"6090"},{"geonameid":2659508,"name":"Nax","admin3":"6090"},{"geonameid":2658865,"name":"Saint-Martin","admin3":"6087"},{"geonameid":2658158,"name":"Vernamiège","admin3":"6090"},{"geonameid":2658144,"name":"Vex","admin3":"6089"}],"admin3":[{"geonameid":6691641,"name":"Saint-Martin","admin3":"6087"},{"geonameid":7285131,"name":"Ayent","admin3":"6082"},{"geonameid":7285787,"name":"Evolène","admin3":"6083"},{"geonameid":7286065,"name":"Hérémence","admin3":"6084"},{"geonameid":7287445,"name":"Vex","admin3":"6089"},{"geonameid":8260340,"name":"Mont-Noble","admin3":"6090"}],"alternateNames":[]},"__N_SSG":true}