{"pageProps":{"locale":"de","admin2":{"geonameid":2659752,"name":"Martigny District","country":"CH","admin1":"VS","admin2":"2307","admin3":"","latitude":"46.1238600","longitude":"7.1035400"},"admin1":{"geonameid":2658205,"name":"Canton du Valais","admin1":"VS"},"locations":[{"geonameid":2661209,"name":"Charrat","admin3":"6136"},{"geonameid":2660841,"name":"Evionnaz","admin3":"6142"},{"geonameid":2660700,"name":"Fully","admin3":"6133"},{"geonameid":2660242,"name":"Iserables","admin3":"6134"},{"geonameid":2659899,"name":"Leytron","admin3":"6135"},{"geonameid":2659750,"name":"Martigny-Combe","admin3":"6137"},{"geonameid":2659748,"name":"Martigny-Ville","admin3":"6136"},{"geonameid":2659046,"name":"Riddes","admin3":"6139"},{"geonameid":2658881,"name":"Saillon","admin3":"6140"},{"geonameid":2658769,"name":"Saxon","admin3":"6141"},{"geonameid":2658314,"name":"Trient","admin3":"6142"}],"admin3":[{"geonameid":7285315,"name":"Bovernier","admin3":"6131"},{"geonameid":7285878,"name":"Fully","admin3":"6133"},{"geonameid":7286150,"name":"Is√©rables","admin3":"6134"},{"geonameid":7286344,"name":"Leytron","admin3":"6135"},{"geonameid":7286444,"name":"Martigny","admin3":"6136"},{"geonameid":7286445,"name":"Martigny-Combe","admin3":"6137"},{"geonameid":7286900,"name":"Riddes","admin3":"6139"},{"geonameid":7287018,"name":"Saillon","admin3":"6140"},{"geonameid":7287069,"name":"Saxon","admin3":"6141"},{"geonameid":7287332,"name":"Trient","admin3":"6142"}],"alternateNames":[]},"__N_SSG":true}