{"pageProps":{"locale":"en","admin2":{"geonameid":2758095,"name":"Gemeente Buren","country":"NL","admin1":"03","admin2":"0214","admin3":"","latitude":"51.9090100","longitude":"5.3340300"},"admin1":{"geonameid":2755634,"name":"Provincie Gelderland","admin1":"03"},"locations":[{"geonameid":2760130,"name":"Aalst","admin3":""},{"geonameid":2759645,"name":"Asch","admin3":""},{"geonameid":2759006,"name":"Beusichem","admin3":""},{"geonameid":2758648,"name":"Bontemorgen","admin3":""},{"geonameid":2758097,"name":"Buren","admin3":""},{"geonameid":2757750,"name":"De Bosjes","admin3":""},{"geonameid":2757545,"name":"De Heuvel","admin3":""},{"geonameid":2757307,"name":"De Mars","admin3":""},{"geonameid":2756924,"name":"De Woerd","admin3":""},{"geonameid":2757228,"name":"Den Eng","admin3":""},{"geonameid":2756432,"name":"Eck en Wiel","admin3":""},{"geonameid":2756044,"name":"Erichem","admin3":""},{"geonameid":2756009,"name":"Essebroek","admin3":""},{"geonameid":2755737,"name":"Ganzert","admin3":""},{"geonameid":2753692,"name":"Hoog Kana","admin3":""},{"geonameid":2753680,"name":"Hoogmeien","admin3":""},{"geonameid":2753316,"name":"Ingen","admin3":""},{"geonameid":2752952,"name":"Kerk-Avezaath","admin3":""},{"geonameid":2752642,"name":"Klinkenberg","admin3":""},{"geonameid":2751683,"name":"Leutes","admin3":""},{"geonameid":2751641,"name":"Lienden","admin3":""},{"geonameid":2751400,"name":"Luchtenburg","admin3":""},{"geonameid":2751351,"name":"Lutterveld","admin3":""},{"geonameid":2751085,"name":"Maurik","admin3":""},{"geonameid":2751034,"name":"Meerten","admin3":""},{"geonameid":2751033,"name":"Meertenwei","admin3":""},{"geonameid":2749609,"name":"Ommeren","admin3":""},{"geonameid":2749608,"name":"Ommerenveld","admin3":""},{"geonameid":2748306,"name":"Ravenswaaij","admin3":""},{"geonameid":2748077,"name":"Rijswijk","admin3":""},{"geonameid":2746066,"name":"Tweesluizen","admin3":""},{"geonameid":2745876,"name":"Valentijn","admin3":""},{"geonameid":2744095,"name":"Zandberg","admin3":""},{"geonameid":2743919,"name":"Zevenmorgen","admin3":""},{"geonameid":2743861,"name":"Zoelen","admin3":""},{"geonameid":2743858,"name":"Zoelmond","admin3":""},{"geonameid":2743537,"name":"Zwarte Paard","admin3":""}],"admin3":[],"alternateNames":[{"alternatenameId":11907787,"geonameid":2755634,"isoLanguage":"de","alternateName":"Gelderland","isPreferredName":true,"isShortName":true,"isColloquial":false,"isHistoric":false}]},"__N_SSG":true}