{"pageProps":{"locale":"en","admin2":{"geonameid":2744513,"name":"Gemeente Wijchen","country":"NL","admin1":"03","admin2":"0296","admin3":"","latitude":"51.8188400","longitude":"5.6986200"},"admin1":{"geonameid":2755634,"name":"Provincie Gelderland","admin1":"03"},"locations":[{"geonameid":2760018,"name":"Achterlo","admin3":""},{"geonameid":2759853,"name":"Alverna","admin3":""},{"geonameid":2759480,"name":"Balgoy","admin3":""},{"geonameid":2759385,"name":"Batenburg","admin3":""},{"geonameid":6544774,"name":"Berendonck","admin3":""},{"geonameid":2759129,"name":"Bergharen","admin3":""},{"geonameid":6544766,"name":"Boskant","admin3":""},{"geonameid":2758119,"name":"Bullenkamp","admin3":""},{"geonameid":2757218,"name":"Den Hoef","admin3":""},{"geonameid":2754492,"name":"Heiveld","admin3":""},{"geonameid":2754342,"name":"Hernen","admin3":""},{"geonameid":6544765,"name":"Hoogbroek","admin3":""},{"geonameid":6544773,"name":"Klispoel","admin3":""},{"geonameid":2752090,"name":"Laak","admin3":""},{"geonameid":2751692,"name":"Leur","admin3":""},{"geonameid":2751642,"name":"Lienden","admin3":""},{"geonameid":2751389,"name":"Lunen","admin3":""},{"geonameid":2750108,"name":"Niftrik","admin3":""},{"geonameid":2748708,"name":"Passerot","admin3":""},{"geonameid":2746505,"name":"Teersdijk","admin3":""},{"geonameid":2745877,"name":"Valendries","admin3":""},{"geonameid":2744581,"name":"Wezel","admin3":""},{"geonameid":2744514,"name":"Wijchen","admin3":""},{"geonameid":2744242,"name":"Woezik","admin3":""},{"geonameid":2744241,"name":"Woezikrot","admin3":""},{"geonameid":2744181,"name":"Woord","admin3":""}],"admin3":[],"alternateNames":[{"alternatenameId":11907787,"geonameid":2755634,"isoLanguage":"de","alternateName":"Gelderland","isPreferredName":true,"isShortName":true,"isColloquial":false,"isHistoric":false}]},"__N_SSG":true}