{"pageProps":{"locale":"en","admin2":{"geonameid":2756231,"name":"Gemeente Elburg","country":"NL","admin1":"03","admin2":"0230","admin3":"","latitude":"52.4148700","longitude":"5.8486800"},"admin1":{"geonameid":2755634,"name":"Provincie Gelderland","admin1":"03"},"locations":[{"geonameid":2759701,"name":"Aperloo","admin3":""},{"geonameid":2756964,"name":"De Vrijheid","admin3":""},{"geonameid":2756677,"name":"Doornspijk","admin3":""},{"geonameid":2756232,"name":"Elburg","admin3":""},{"geonameid":2753945,"name":"Hoge Enk","admin3":""},{"geonameid":2752055,"name":"Lage Bijssel","admin3":""},{"geonameid":2750130,"name":"Nieuwstad","admin3":""},{"geonameid":2749506,"name":"Oostendorp","admin3":""},{"geonameid":2749369,"name":"Oosthoek","admin3":""},{"geonameid":2746371,"name":"t Harde","admin3":""},{"geonameid":2744828,"name":"Werfhorst","admin3":""},{"geonameid":2744812,"name":"Wessinge","admin3":""}],"admin3":[],"alternateNames":[{"alternatenameId":11907787,"geonameid":2755634,"isoLanguage":"de","alternateName":"Gelderland","isPreferredName":true,"isShortName":true,"isColloquial":false,"isHistoric":false}]},"__N_SSG":true}