{"pageProps":{"locale":"en","admin2":{"geonameid":2751536,"name":"Gemeente Lochem","country":"NL","admin1":"03","admin2":"0262","admin3":"","latitude":"52.1847800","longitude":"6.3370000"},"admin1":{"geonameid":2755634,"name":"Provincie Gelderland","admin1":"03"},"locations":[{"geonameid":2759884,"name":"Almen","admin3":""},{"geonameid":2759811,"name":"Ampsen","admin3":""},{"geonameid":2759667,"name":"Armhoede","admin3":""},{"geonameid":2759429,"name":"Barchem","admin3":""},{"geonameid":2758577,"name":"Boschheurne","admin3":""},{"geonameid":6544784,"name":"De Schoolt","admin3":""},{"geonameid":2756418,"name":"Eefde","admin3":""},{"geonameid":2756050,"name":"Epse","admin3":""},{"geonameid":2755952,"name":"Exel","admin3":""},{"geonameid":2755951,"name":"Exel-Tol","admin3":""},{"geonameid":2755428,"name":"Gorssel","admin3":""},{"geonameid":2755229,"name":"Groot Dochteren","admin3":""},{"geonameid":2754835,"name":"Harfsen","admin3":""},{"geonameid":2753203,"name":"Joppe","admin3":""},{"geonameid":2752778,"name":"Klein Dochteren","admin3":""},{"geonameid":2752261,"name":"Kring van Dorth","admin3":""},{"geonameid":2751936,"name":"Langen","admin3":""},{"geonameid":2751875,"name":"Laren","admin3":""},{"geonameid":2751537,"name":"Lochem","admin3":""},{"geonameid":2750404,"name":"Nettelhorst","admin3":""},{"geonameid":2749562,"name":"Oolde","admin3":""},{"geonameid":2748381,"name":"Quatre Bras","admin3":""},{"geonameid":2743497,"name":"Zwiep","admin3":""}],"admin3":[],"alternateNames":[{"alternatenameId":11907787,"geonameid":2755634,"isoLanguage":"de","alternateName":"Gelderland","isPreferredName":true,"isShortName":true,"isColloquial":false,"isHistoric":false}]},"__N_SSG":true}