{"pageProps":{"locale":"ro","admin2":{"geonameid":663862,"name":"Comuna Valea Călugărească","country":"RO","admin1":"30","admin2":"135949","admin3":"","latitude":"44.9552700","longitude":"26.1612200"},"admin1":{"geonameid":669737,"name":"Prahova","admin1":"30"},"locations":[{"geonameid":686099,"name":"Arva"},{"geonameid":680628,"name":"Coslegi"},{"geonameid":679317,"name":"Dârvari"},{"geonameid":672242,"name":"Nicovanii Mari"},{"geonameid":672241,"name":"Nicovanii Mici"},{"geonameid":671384,"name":"Pantazi"},{"geonameid":669386,"name":"Rachieri"},{"geonameid":669265,"name":"Radila"},{"geonameid":667685,"name":"Schiau"},{"geonameid":663863,"name":"Valea Călugărească"},{"geonameid":663719,"name":"Valea Largă"},{"geonameid":663639,"name":"Valea Mantei"},{"geonameid":663549,"name":"Valea Nicovani"},{"geonameid":663514,"name":"Valea Poienii"},{"geonameid":663502,"name":"Valea Popii"},{"geonameid":663337,"name":"Valea Ursoii"},{"geonameid":662770,"name":"Vârfurile"}],"admin3":[],"alternateNames":[]},"__N_SSG":true}