{"pageProps":{"locale":"en","admin2":{"geonameid":2754668,"name":"Gemeente Heerenveen","country":"NL","admin1":"02","admin2":"0074","admin3":"","latitude":"52.9422000","longitude":"6.0441000"},"admin1":{"geonameid":2755812,"name":"Provincie Friesland","admin1":"02"},"locations":[{"geonameid":2759922,"name":"Akkrum","admin3":""},{"geonameid":2749669,"name":"Aldeboarn","admin3":""},{"geonameid":2749006,"name":"Aldskou","admin3":""},{"geonameid":2759213,"name":"Benedenknijpe","admin3":""},{"geonameid":2758893,"name":"Birstum","admin3":""},{"geonameid":6639666,"name":"Bokkum","admin3":""},{"geonameid":2758651,"name":"Bontebok","admin3":""},{"geonameid":2758492,"name":"Bovenknijpe","admin3":""},{"geonameid":2758225,"name":"Brongerga","admin3":""},{"geonameid":2757619,"name":"De Greiden","admin3":""},{"geonameid":6697854,"name":"De Knipe","admin3":""},{"geonameid":2749492,"name":"Easterboarn","admin3":""},{"geonameid":2755569,"name":"Gersloot","admin3":""},{"geonameid":6639669,"name":"Goattum","admin3":""},{"geonameid":2754797,"name":"Haskerdijken","admin3":""},{"geonameid":2754669,"name":"Heerenveen","admin3":""},{"geonameid":6639667,"name":"Henshuizen","admin3":""},{"geonameid":2753599,"name":"Hoornsterzwaag","admin3":""},{"geonameid":2753619,"name":"Hoornsterzwaagcompagnie","admin3":""},{"geonameid":6692371,"name":"Jubbega","admin3":""},{"geonameid":2753190,"name":"Jubbega Derde Sluis","admin3":""},{"geonameid":2753189,"name":"Jubbega-Schurega","admin3":""},{"geonameid":2753188,"name":"Jubbegastercompagnie","admin3":""},{"geonameid":2753034,"name":"Katlijk","admin3":""},{"geonameid":2751742,"name":"Lekkerterp","admin3":""},{"geonameid":2751395,"name":"Luinjeberd","admin3":""},{"geonameid":2750805,"name":"Mildam","admin3":""},{"geonameid":2750690,"name":"Molenhoek","admin3":""},{"geonameid":2750420,"name":"Nes","admin3":""},{"geonameid":2750343,"name":"Nieuwebrug","admin3":""},{"geonameid":2750310,"name":"Nieuwehorne","admin3":""},{"geonameid":2750246,"name":"Nieuweschoot","admin3":""},{"geonameid":2749251,"name":"Oranjewoud","admin3":""},{"geonameid":2749109,"name":"Oudehorne","admin3":""},{"geonameid":2749108,"name":"Oudehornstercompagnie","admin3":""},{"geonameid":2749007,"name":"Oudeschoot","admin3":""},{"geonameid":2748970,"name":"Oudewegstervaart","admin3":""},{"geonameid":6639668,"name":"Pean","admin3":""},{"geonameid":2748491,"name":"Poppenhuzen","admin3":""},{"geonameid":2747325,"name":"Sijthuizen","admin3":""},{"geonameid":2746995,"name":"Soarremoarre","admin3":""},{"geonameid":2746915,"name":"Spitsendijk","admin3":""},{"geonameid":2746470,"name":"Terband","admin3":""},{"geonameid":2746274,"name":"Tjalleberd","admin3":""},{"geonameid":2745006,"name":"Warniahuzen","admin3":""}],"admin3":[],"alternateNames":[{"alternatenameId":5463435,"geonameid":2755812,"isoLanguage":"de","alternateName":"Friesland","isPreferredName":true,"isShortName":true,"isColloquial":false,"isHistoric":false}]},"__N_SSG":true}