{"pageProps":{"locale":"en","admin2":{"geonameid":5181416,"name":"Bradford County","country":"US","admin1":"PA","admin2":"015","admin3":"","latitude":"41.7886700","longitude":"-76.5154500","localeAltName":null},"admin1":{"geonameid":6254927,"name":"Pennsylvania","admin1":"PA","localeAltName":"Pennsylvania"},"locations":[{"geonameid":5178651,"name":"Athens","admin3":"03392","localeAltName":null},{"geonameid":5183169,"name":"Canton","admin3":"11160","localeAltName":null},{"geonameid":5185033,"name":"Columbia Cross Roads","admin3":"15376","localeAltName":null},{"geonameid":5201733,"name":"Monroeton","admin3":"50432","localeAltName":null},{"geonameid":5211037,"name":"Sayre","admin3":"68096","localeAltName":null},{"geonameid":5213126,"name":"South Waverly","admin3":"72592","localeAltName":null},{"geonameid":5215859,"name":"Towanda","admin3":"77168","localeAltName":null},{"geonameid":5216182,"name":"Troy","admin3":"77584","localeAltName":null},{"geonameid":5220186,"name":"Wyalusing","admin3":"86656","localeAltName":null}],"admin3":[{"geonameid":5177934,"name":"Borough of Alba","admin3":"00572"},{"geonameid":5177938,"name":"Township of Albany","admin3":"00596"},{"geonameid":5178506,"name":"Township of Armenia","admin3":"03056"},{"geonameid":5178652,"name":"Borough of Athens","admin3":"03392","localeAltName":null},{"geonameid":5178653,"name":"Township of Athens","admin3":"03400"},{"geonameid":5178693,"name":"Township of Asylum","admin3":"03360"},{"geonameid":5182429,"name":"Borough of Burlington","admin3":"10240"},{"geonameid":5182430,"name":"Township of Burlington","admin3":"10248"},{"geonameid":5183170,"name":"Borough of Canton","admin3":"11160","localeAltName":null},{"geonameid":5183171,"name":"Township of Canton","admin3":"11168"},{"geonameid":5185043,"name":"Township of Columbia","admin3":"15376","localeAltName":null},{"geonameid":5190387,"name":"Township of Franklin","admin3":"27344"},{"geonameid":5191687,"name":"Township of Granville","admin3":"30464"},{"geonameid":5193325,"name":"Township of Herrick","admin3":"34088"},{"geonameid":5197480,"name":"Borough of Le Raysville","admin3":"42824"},{"geonameid":5197768,"name":"Township of Leroy","admin3":"42856"},{"geonameid":5198213,"name":"Township of Litchfield","admin3":"43792"},{"geonameid":5201726,"name":"Borough of Monroe","admin3":"50432","localeAltName":null},{"geonameid":5201727,"name":"Township of Monroe","admin3":"50440"},{"geonameid":5203093,"name":"Borough of New Albany","admin3":"53152"},{"geonameid":5203776,"name":"Township of North Towanda","admin3":"55448"},{"geonameid":5204607,"name":"Township of Orwell","admin3":"57176"},{"geonameid":5204737,"name":"Township of Overton","admin3":"57448"},{"geonameid":5205938,"name":"Township of Pike","admin3":"60184"},{"geonameid":5208272,"name":"Township of Ridgebury","admin3":"64696"},{"geonameid":5208926,"name":"Borough of Rome","admin3":"65944"},{"geonameid":5208927,"name":"Township of Rome","admin3":"65952"},{"geonameid":5211041,"name":"Borough of Sayre","admin3":"68096","localeAltName":null},{"geonameid":5211933,"name":"Township of Sheshequin","admin3":"70208"},{"geonameid":5212663,"name":"Township of Smithfield","admin3":"71312"},{"geonameid":5212989,"name":"Township of South Creek","admin3":"72096"},{"geonameid":5213127,"name":"Borough of South Waverly","admin3":"72592","localeAltName":null},{"geonameid":5213475,"name":"Township of Springfield","admin3":"73008"},{"geonameid":5213635,"name":"Township of Standing Stone","admin3":"73632"},{"geonameid":5214139,"name":"Township of Stevens","admin3":"74032"},{"geonameid":5215104,"name":"Borough of Sylvania","admin3":"75944"},{"geonameid":5215380,"name":"Township of Terry","admin3":"76408"},{"geonameid":5215868,"name":"Borough of Towanda","admin3":"77168","localeAltName":null},{"geonameid":5215869,"name":"Township of Towanda","admin3":"77176"},{"geonameid":5216191,"name":"Borough of Troy","admin3":"77584","localeAltName":null},{"geonameid":5216192,"name":"Township of Troy","admin3":"77592"},{"geonameid":5216371,"name":"Township of Tuscarora","admin3":"77936"},{"geonameid":5216554,"name":"Township of Ulster","admin3":"78232"},{"geonameid":5218003,"name":"Township of Warren","admin3":"80984"},{"geonameid":5218448,"name":"Township of Wells","admin3":"82144"},{"geonameid":5218638,"name":"Township of West Burlington","admin3":"82656"},{"geonameid":5219665,"name":"Township of Wilmot","admin3":"85544"},{"geonameid":5219751,"name":"Township of Windham","admin3":"85672"},{"geonameid":5220190,"name":"Borough of Wyalusing","admin3":"86656","localeAltName":null},{"geonameid":5220191,"name":"Township of Wyalusing","admin3":"86664"},{"geonameid":5220261,"name":"Township of Wysox","admin3":"86912"}],"alternateNames":[{"alternatenameId":2186547,"geonameid":6254927,"isoLanguage":"en","alternateName":"Pennsylvania","isPreferredName":true,"isShortName":true,"isColloquial":false,"isHistoric":false}]},"__N_SSG":true}