{"pageProps":{"locale":"ro","admin1":{"geonameid":685947,"name":"Bacău","country":"RO","admin1":"04","latitude":"46.4166700","longitude":"26.8333300"},"admin2":[{"geonameid":686635,"name":"Comuna Agăş","admin2":"21007"},{"geonameid":686211,"name":"Comuna Ardeoani","admin2":"21098"},{"geonameid":686087,"name":"Comuna Asău","admin2":"21123"},{"geonameid":685661,"name":"Comuna Balcani","admin2":"21196"},{"geonameid":684765,"name":"Comuna Bârsăneşti","admin2":"21454"},{"geonameid":685030,"name":"Comuna Bereşti-Bistriţa","admin2":"21249"},{"geonameid":685024,"name":"Comuna Bereşti-Tazlău","admin2":"21338"},{"geonameid":684969,"name":"Comuna Berzunţi","admin2":"21418"},{"geonameid":684616,"name":"Comuna Blăgeşti","admin2":"21506"},{"geonameid":684387,"name":"Comuna Bogdăneşti","admin2":"21560"},{"geonameid":683606,"name":"Comuna Brusturoasa","admin2":"21597"},{"geonameid":683557,"name":"Comuna Buciumi","admin2":"26338"},{"geonameid":683366,"name":"Comuna Buhoci","admin2":"21668"},{"geonameid":683043,"name":"Comuna Căiuţi","admin2":"21757"},{"geonameid":673257,"name":"Comuna Caşin","admin2":"21720"},{"geonameid":681339,"name":"Comuna Cleja","admin2":"21855"},{"geonameid":681094,"name":"Comuna Coloneşti","admin2":"21891"},{"geonameid":680893,"name":"Comuna Corbasca","admin2":"21971"},{"geonameid":680484,"name":"Comuna Coţofăneşti","admin2":"22059"},{"geonameid":679787,"name":"Comuna Dămieneşti","admin2":"22111"},{"geonameid":8334699,"name":"Comuna Dealu Morii","admin2":"22237"},{"geonameid":679165,"name":"Comuna Dofteana","admin2":"22380"},{"geonameid":678450,"name":"Comuna Faraoani","admin2":"22460"},{"geonameid":678252,"name":"Comuna Filipeni","admin2":"22488"},{"geonameid":678246,"name":"Comuna Filipeşti","admin2":"22576"},{"geonameid":677722,"name":"Comuna Găiceana","admin2":"22665"},{"geonameid":8334687,"name":"Comuna Gârleni","admin2":"22781"},{"geonameid":677376,"name":"Comuna Ghimeş-Făget","admin2":"22718"},{"geonameid":8334679,"name":"Comuna Gioseni","admin2":"26346"},{"geonameid":677083,"name":"Comuna Glăvăneşti","admin2":"22834"},{"geonameid":668844,"name":"Comuna Gura Văii","admin2":"20607"},{"geonameid":676261,"name":"Comuna Helegiu","admin2":"22898"},{"geonameid":676250,"name":"Comuna Hemeiuşi","admin2":"20313"},{"geonameid":676015,"name":"Comuna Horgeşti","admin2":"22941"},{"geonameid":675899,"name":"Comuna Huruieşti","admin2":"23047"},{"geonameid":675455,"name":"Comuna Iteşti","admin2":"26379"},{"geonameid":675332,"name":"Comuna Izvoru Berheciului","admin2":"23127"},{"geonameid":674825,"name":"Comuna Letea Veche","admin2":"20359"},{"geonameid":674731,"name":"Comuna Lipova","admin2":"23207"},{"geonameid":8334722,"name":"Comuna Livezi","admin2":"23289"},{"geonameid":8334656,"name":"Comuna Luizi-Cãlugãra","admin2":"23350"},{"geonameid":674171,"name":"Comuna Măgireşti","admin2":"23387"},{"geonameid":674129,"name":"Comuna Măgura","admin2":"20411"},{"geonameid":8334655,"name":"Comuna Mãnãstirea Caşin","admin2":"23449"},{"geonameid":673788,"name":"Comuna Mărgineni","admin2":"20466"},{"geonameid":672759,"name":"Comuna Motoşeni","admin2":"23494"},{"geonameid":672363,"name":"Comuna Negri","admin2":"23644"},{"geonameid":672267,"name":"Comuna Nicolae Bălcescu","admin2":"23715"},{"geonameid":671970,"name":"Comuna Odobeşti","admin2":"26353"},{"geonameid":671894,"name":"Comuna Oituz","admin2":"23797"},{"geonameid":8334831,"name":"Comuna Onceşti","admin2":"23868"},{"geonameid":671735,"name":"Comuna Orbeni","admin2":"23948"},{"geonameid":671468,"name":"Comuna Palanca","admin2":"23975"},{"geonameid":671400,"name":"Comuna Pănceşti","admin2":"24187"},{"geonameid":671351,"name":"Comuna Parava","admin2":"24034"},{"geonameid":670767,"name":"Comuna Pârgăreşti","admin2":"24276"},{"geonameid":671335,"name":"Comuna Parincea","admin2":"24089"},{"geonameid":670705,"name":"Comuna Pârjol","admin2":"24338"},{"geonameid":670471,"name":"Comuna Plopana","admin2":"24427"},{"geonameid":670256,"name":"Comuna Podu Turcului","admin2":"24524"},{"geonameid":670271,"name":"Comuna Poduri","admin2":"24631"},{"geonameid":669724,"name":"Comuna Prăjeşti","admin2":"26361"},{"geonameid":669407,"name":"Comuna Răcăciuni","admin2":"24766"},{"geonameid":669363,"name":"Comuna Răchitoasa","admin2":"24837"},{"geonameid":669332,"name":"Comuna Racova","admin2":"24711"},{"geonameid":668609,"name":"Comuna Roşiori","admin2":"24999"},{"geonameid":668103,"name":"Comuna Sănduleni","admin2":"25148"},{"geonameid":668039,"name":"Comuna Sărata","admin2":"26320"},{"geonameid":667916,"name":"Comuna Sascut","admin2":"25068"},{"geonameid":667777,"name":"Comuna Săuceşti","admin2":"25228"},{"geonameid":667584,"name":"Comuna Scorţeni","admin2":"25291"},{"geonameid":667464,"name":"Comuna Secuieni","admin2":"25362"},{"geonameid":666482,"name":"Comuna Solonţ","admin2":"25488"},{"geonameid":666283,"name":"Comuna Stănişeşti","admin2":"25521"},{"geonameid":663413,"name":"Comuna Ştefan Cel Mare","admin2":"20670"},{"geonameid":665920,"name":"Comuna Strugari","admin2":"25629"},{"geonameid":8334959,"name":"Comuna Tamaşi","admin2":"25692"},{"geonameid":664990,"name":"Comuna Târgu Trotuş","admin2":"25825"},{"geonameid":665449,"name":"Comuna Tătărăşti","admin2":"25745"},{"geonameid":664667,"name":"Comuna Traian","admin2":"25861"},{"geonameid":8334719,"name":"Comuna Ungureni","admin2":"25932"},{"geonameid":664167,"name":"Comuna Urecheşti","admin2":"26029"},{"geonameid":663412,"name":"Comuna Valea Seacă","admin2":"26083"},{"geonameid":8334850,"name":"Comuna Vultureni","admin2":"26118"},{"geonameid":662224,"name":"Comuna Zemeş","admin2":"26289"},{"geonameid":8306520,"name":"Municipiul Bacãu","admin2":"20297"},{"geonameid":8306838,"name":"Municipiul Moineşti","admin2":"20876"},{"geonameid":677464,"name":"Municipiul Oneşti","admin2":"20563"},{"geonameid":8306597,"name":"Oraş Buhuşi","admin2":"20778"},{"geonameid":8306731,"name":"Oraş Comãneşti","admin2":"20821"},{"geonameid":679719,"name":"Oraş Dãrmãneşti","admin2":"22166"},{"geonameid":8306945,"name":"Oraş Slãnic-Moldova","admin2":"20910"},{"geonameid":8307014,"name":"Oraş Târgu Ocna","admin2":"20965"}],"country":{"geonameid":798549,"country":"RO","name":"România","localeAltName":"România"},"alternateNames":[{"alternatenameId":490801,"geonameid":798549,"isoLanguage":"ro","alternateName":"România","isPreferredName":true,"isShortName":true,"isColloquial":false,"isHistoric":false}]},"__N_SSG":true}