{"pageProps":{"locale":"ro","admin1":{"geonameid":679385,"name":"Dâmboviţa","country":"RO","admin1":"16","latitude":"44.9166700","longitude":"25.5000000"},"admin2":[{"geonameid":686308,"name":"Comuna Aninoasa","admin2":"65379"},{"geonameid":685629,"name":"Comuna Băleni Sârbi","admin2":"66198"},{"geonameid":685365,"name":"Comuna Bărbuleţu","admin2":"66223"},{"geonameid":684946,"name":"Comuna Bezdead","admin2":"66330"},{"geonameid":684859,"name":"Comuna Bilciureşti","admin2":"66401"},{"geonameid":683876,"name":"Comuna Brăneşti","admin2":"66009"},{"geonameid":683854,"name":"Comuna Braniştea","admin2":"66152"},{"geonameid":683696,"name":"Comuna Brezoaele","admin2":"101341"},{"geonameid":683564,"name":"Comuna Buciumeni","admin2":"66438"},{"geonameid":683526,"name":"Comuna Bucşani","admin2":"66474"},{"geonameid":683152,"name":"Comuna Butimanu","admin2":"101564"},{"geonameid":681805,"name":"Comuna Cândeşti Vale","admin2":"66526"},{"geonameid":681740,"name":"Comuna Ciocăneşti","admin2":"101840"},{"geonameid":681250,"name":"Comuna Cobia de Sus","admin2":"66580"},{"geonameid":681150,"name":"Comuna Cojasca","admin2":"66697"},{"geonameid":680997,"name":"Comuna Comişani","admin2":"66731"},{"geonameid":680948,"name":"Comuna Conţeşti","admin2":"66768"},{"geonameid":680875,"name":"Comuna Corbii Mari","admin2":"66857"},{"geonameid":680791,"name":"Comuna Cornăţelu","admin2":"66955"},{"geonameid":680768,"name":"Comuna Corneşti","admin2":"67014"},{"geonameid":680559,"name":"Comuna Costeştii din Vale","admin2":"67121"},{"geonameid":680214,"name":"Comuna Crângurile","admin2":"67167"},{"geonameid":680260,"name":"Comuna Crevedia","admin2":"102286"},{"geonameid":679721,"name":"Comuna Dărmăneşti","admin2":"67256"},{"geonameid":679263,"name":"Comuna Dobra","admin2":"67292"},{"geonameid":679155,"name":"Comuna Doiceşti","admin2":"65413"},{"geonameid":678953,"name":"Comuna Dragodana","admin2":"67327"},{"geonameid":678920,"name":"Comuna Dragomireşti","admin2":"67407"},{"geonameid":678202,"name":"Comuna Finta","admin2":"67470"},{"geonameid":677040,"name":"Comuna Glodeni","admin2":"67522"},{"geonameid":676536,"name":"Comuna Gura Foii","admin2":"65707"},{"geonameid":676505,"name":"Comuna Gura Ocniţei","admin2":"67595"},{"geonameid":676480,"name":"Comuna Gura Şuţii","admin2":"67648"},{"geonameid":675926,"name":"Comuna Hulubeşti","admin2":"67675"},{"geonameid":8334686,"name":"Comuna I. L. Caragiale","admin2":"67737"},{"geonameid":678592,"name":"Comuna Iedera","admin2":"65869"},{"geonameid":674558,"name":"Comuna Lucieni","admin2":"67773"},{"geonameid":674549,"name":"Comuna Ludeşti","admin2":"67835"},{"geonameid":674306,"name":"Comuna Lunguleţu","admin2":"67906"},{"geonameid":673985,"name":"Comuna Malu cu Flori","admin2":"67942"},{"geonameid":673925,"name":"Comuna Măneşti","admin2":"68002"},{"geonameid":673690,"name":"Comuna Mătăsaru","admin2":"68048"},{"geonameid":672952,"name":"Comuna Mogoşani","admin2":"68128"},{"geonameid":672846,"name":"Comuna Moroeni","admin2":"68182"},{"geonameid":672841,"name":"Comuna Morteni","admin2":"68253"},{"geonameid":672785,"name":"Comuna Moţãieni","admin2":"65645"},{"geonameid":672253,"name":"Comuna Niculeşti","admin2":"104387"},{"geonameid":672140,"name":"Comuna Nucet","admin2":"68280"},{"geonameid":672013,"name":"Comuna Ocniţa","admin2":"68324"},{"geonameid":671971,"name":"Comuna Odobeşti","admin2":"68342"},{"geonameid":671094,"name":"Comuna Perşinari","admin2":"179935"},{"geonameid":670990,"name":"Comuna Petreşti","admin2":"65752"},{"geonameid":670860,"name":"Comuna Pietrari","admin2":"179908"},{"geonameid":670814,"name":"Comuna Pietroşiţa","admin2":"68404"},{"geonameid":670112,"name":"Comuna Poiana","admin2":"68431"},{"geonameid":669752,"name":"Comuna Potlogi","admin2":"68468"},{"geonameid":669575,"name":"Comuna Produleşti","admin2":"68529"},{"geonameid":669523,"name":"Comuna Pucheni","admin2":"68565"},{"geonameid":669349,"name":"Comuna Raciu","admin2":"179891"},{"geonameid":669168,"name":"Comuna Răscăeţi","admin2":"179926"},{"geonameid":668821,"name":"Comuna Râu Alb","admin2":"179917"},{"geonameid":669122,"name":"Comuna Rãzvad","admin2":"65431"},{"geonameid":668454,"name":"Comuna Runcu","admin2":"68716"},{"geonameid":668179,"name":"Comuna Sălcioara","admin2":"68789"},{"geonameid":667428,"name":"Comuna Şelaru","admin2":"68887"},{"geonameid":666662,"name":"Comuna Slobozia Moara","admin2":"105142"},{"geonameid":666406,"name":"Comuna Şotânga","admin2":"65477"},{"geonameid":665478,"name":"Comuna Tărtăşeşti","admin2":"105534"},{"geonameid":665455,"name":"Comuna Tătărani","admin2":"68921"},{"geonameid":664328,"name":"Comuna Ulieşti","admin2":"68976"},{"geonameid":664291,"name":"Comuna Ulmi","admin2":"65501"},{"geonameid":664038,"name":"Comuna Văcăreşti","admin2":"69250"},{"geonameid":663668,"name":"Comuna Valea Lungă","admin2":"69063"},{"geonameid":663604,"name":"Comuna Valea Mare","admin2":"69170"},{"geonameid":663260,"name":"Comuna Văleni-Dâmboviţa","admin2":"69303"},{"geonameid":662771,"name":"Comuna Vârfuri","admin2":"69447"},{"geonameid":662692,"name":"Comuna Vişina","admin2":"69330"},{"geonameid":662686,"name":"Comuna Vişineşti","admin2":"69394"},{"geonameid":662629,"name":"Comuna Vlădeni","admin2":"179711"},{"geonameid":662515,"name":"Comuna Voineşti","admin2":"69526"},{"geonameid":662423,"name":"Comuna Vulcana Băi","admin2":"69615"},{"geonameid":662420,"name":"Comuna Vulcana-Pandele","admin2":"179640"},{"geonameid":8334632,"name":"Municipiul Moreni","admin2":"65841"},{"geonameid":8334634,"name":"Municipiul Târgovişte","admin2":"65342"},{"geonameid":678289,"name":"Oraş Fieni","admin2":"65609"},{"geonameid":8334633,"name":"Oraş Gãeşti","admin2":"65681"},{"geonameid":8334631,"name":"Oraş Pucioasa","admin2":"65921"},{"geonameid":669403,"name":"Oraş Rãcari","admin2":"68627"},{"geonameid":664889,"name":"Oraş Titu","admin2":"66081"}],"country":{"geonameid":798549,"country":"RO","name":"România","localeAltName":"România"},"alternateNames":[{"alternatenameId":490801,"geonameid":798549,"isoLanguage":"ro","alternateName":"România","isPreferredName":true,"isShortName":true,"isColloquial":false,"isHistoric":false}]},"__N_SSG":true}