{"pageProps":{"locale":"en","admin2":{"geonameid":5597922,"name":"Kootenai County","country":"US","admin1":"ID","admin2":"055","admin3":"","latitude":"47.6745600","longitude":"-116.7000100","localeAltName":null},"admin1":{"geonameid":5596512,"name":"Idaho","admin1":"ID","localeAltName":"Idaho"},"locations":[{"geonameid":5584330,"name":"Athol","admin3":"","localeAltName":null},{"geonameid":5589173,"name":"Coeur d'Alene","admin3":"","localeAltName":null},{"geonameid":5590453,"name":"Dalton Gardens","admin3":"","localeAltName":null},{"geonameid":5595272,"name":"Hauser","admin3":"","localeAltName":null},{"geonameid":5595320,"name":"Hayden","admin3":"","localeAltName":null},{"geonameid":5595336,"name":"Hayden Lake","admin3":"","localeAltName":null},{"geonameid":5604353,"name":"Post Falls","admin3":"","localeAltName":null},{"geonameid":5553955,"name":"Rathdrum","admin3":"","localeAltName":null},{"geonameid":5608388,"name":"Spirit Lake","admin3":"","localeAltName":null}],"admin3":[{"geonameid":11788297,"name":"City of Harrison","admin3":"11788297"},{"geonameid":11788360,"name":"City of Coeur d'Alene","admin3":"11788360"}],"alternateNames":[{"alternatenameId":2089559,"geonameid":5596512,"isoLanguage":"en","alternateName":"Idaho","isPreferredName":true,"isShortName":true,"isColloquial":false,"isHistoric":false}]},"__N_SSG":true}