{"pageProps":{"locale":"en","admin1":{"geonameid":5481136,"name":"New Mexico","country":"US","admin1":"NM","latitude":"34.5003400","longitude":"-106.0008500","localeAltName":"New Mexico"},"admin2":[{"geonameid":5457180,"name":"Bernalillo County","admin2":"001","localeAltName":null},{"geonameid":5460788,"name":"Catron County","admin2":"003","localeAltName":null},{"geonameid":5461428,"name":"Chaves County","admin2":"005","localeAltName":null},{"geonameid":5462019,"name":"Cibola County","admin2":"006","localeAltName":null},{"geonameid":5462567,"name":"Colfax County","admin2":"007","localeAltName":null},{"geonameid":5464151,"name":"Curry County","admin2":"009","localeAltName":null},{"geonameid":5464477,"name":"De Baca County","admin2":"011","localeAltName":null},{"geonameid":5465283,"name":"Do√±a Ana County","admin2":"013","localeAltName":null},{"geonameid":5466318,"name":"Eddy County","admin2":"015","localeAltName":null},{"geonameid":5469835,"name":"Grant County","admin2":"017","localeAltName":null},{"geonameid":5470197,"name":"Guadalupe County","admin2":"019","localeAltName":null},{"geonameid":5470675,"name":"Harding County","admin2":"021","localeAltName":null},{"geonameid":5471293,"name":"Hidalgo County","admin2":"023","localeAltName":null},{"geonameid":5475594,"name":"Lea County","admin2":"025","localeAltName":null},{"geonameid":5475934,"name":"Lincoln County","admin2":"027","localeAltName":null},{"geonameid":5476834,"name":"Los Alamos County","admin2":"028","localeAltName":null},{"geonameid":5477433,"name":"Luna County","admin2":"029","localeAltName":null},{"geonameid":5478585,"name":"McKinley County","admin2":"031","localeAltName":null},{"geonameid":5480123,"name":"Mora County","admin2":"033","localeAltName":null},{"geonameid":5482932,"name":"Otero County","admin2":"035","localeAltName":null},{"geonameid":5485605,"name":"Quay County","admin2":"037","localeAltName":null},{"geonameid":5487732,"name":"Rio Arriba County","admin2":"039","localeAltName":null},{"geonameid":5488372,"name":"Roosevelt County","admin2":"041","localeAltName":null},{"geonameid":5489698,"name":"San Juan County","admin2":"045","localeAltName":null},{"geonameid":5489818,"name":"San Miguel County","admin2":"047","localeAltName":null},{"geonameid":5490135,"name":"Sandoval County","admin2":"043","localeAltName":null},{"geonameid":5490272,"name":"Santa Fe County","admin2":"049","localeAltName":null},{"geonameid":5491395,"name":"Sierra County","admin2":"051","localeAltName":null},{"geonameid":5492031,"name":"Socorro County","admin2":"053","localeAltName":null},{"geonameid":5493780,"name":"Taos County","admin2":"055","localeAltName":null},{"geonameid":5494881,"name":"Torrance County","admin2":"057","localeAltName":null},{"geonameid":5495841,"name":"Union County","admin2":"059","localeAltName":null},{"geonameid":5496319,"name":"Valencia County","admin2":"061","localeAltName":null}],"admin3":[],"country":{"geonameid":6252001,"country":"US","name":"United States","localeAltName":null},"alternateNames":[{"alternatenameId":2124824,"geonameid":5481136,"isoLanguage":"en","alternateName":"New Mexico","isPreferredName":true,"isShortName":true,"isColloquial":false,"isHistoric":false},{"alternatenameId":2422318,"geonameid":6252001,"isoLanguage":"de","alternateName":"USA","isPreferredName":true,"isShortName":true,"isColloquial":false,"isHistoric":false}]},"__N_SSG":true}