{"pageProps":{"locale":"en","admin2":{"geonameid":5180052,"name":"Berks County","country":"US","admin1":"PA","admin2":"011","admin3":"","latitude":"40.4163000","longitude":"-75.9260000","localeAltName":null},"admin1":{"geonameid":6254927,"name":"Pennsylvania","admin1":"PA","localeAltName":"Pennsylvania"},"locations":[{"geonameid":5178088,"name":"Alleghenyville","admin3":"08344","localeAltName":null},{"geonameid":5178254,"name":"Amity Gardens","admin3":"02328","localeAltName":null},{"geonameid":5178975,"name":"Bally","admin3":"03984","localeAltName":null},{"geonameid":5179614,"name":"Bechtelsville","admin3":"04896","localeAltName":null},{"geonameid":5180079,"name":"Bernville","admin3":"05848","localeAltName":null},{"geonameid":5180620,"name":"Birdsboro","admin3":"06504","localeAltName":null},{"geonameid":5180859,"name":"Blandon","admin3":"46680","localeAltName":null},{"geonameid":5181375,"name":"Boyertown","admin3":"07960","localeAltName":null},{"geonameid":8481845,"name":"Colony Park","admin3":"72824","localeAltName":null},{"geonameid":5186381,"name":"Dauberville","admin3":"12344","localeAltName":null},{"geonameid":5188255,"name":"Edenburg","admin3":"85720","localeAltName":null},{"geonameid":5189828,"name":"Fleetwood","admin3":"26280","localeAltName":null},{"geonameid":5189888,"name":"Flying Hills","admin3":"17720","localeAltName":null},{"geonameid":7220835,"name":"Fox Chase","admin3":"52200","localeAltName":null},{"geonameid":5191055,"name":"Gibraltar","admin3":"65320","localeAltName":null},{"geonameid":5191513,"name":"Gouglersville","admin3":"17720","localeAltName":null},{"geonameid":8481846,"name":"Greenfields","admin3":"05816","localeAltName":null},{"geonameid":5192134,"name":"Grill","admin3":"17720","localeAltName":null},{"geonameid":5192444,"name":"Hamburg","admin3":"32120","localeAltName":null},{"geonameid":5193294,"name":"Hereford","admin3":"34016","localeAltName":null},{"geonameid":5194658,"name":"Hyde Park","admin3":"52200","localeAltName":null},{"geonameid":5195186,"name":"Jacksonwald","admin3":"24384","localeAltName":null},{"geonameid":5195978,"name":"Kenhorst","admin3":"39256","localeAltName":null},{"geonameid":5196621,"name":"Kutztown","admin3":"40656","localeAltName":null},{"geonameid":5197398,"name":"Laureldale","admin3":"41768","localeAltName":null},{"geonameid":5197590,"name":"Leesport","admin3":"42352","localeAltName":null},{"geonameid":5198089,"name":"Lincoln Park","admin3":"72824","localeAltName":null},{"geonameid":5198980,"name":"Lorane","admin3":"24384","localeAltName":null},{"geonameid":5200849,"name":"Mertztown","admin3":"44584","localeAltName":null},{"geonameid":5201641,"name":"Mohnton","admin3":"50272","localeAltName":null},{"geonameid":5201804,"name":"Montrose","admin3":"17720","localeAltName":null},{"geonameid":7221697,"name":"Montrose Manor","admin3":"17720","localeAltName":null},{"geonameid":5201937,"name":"Morgantown","admin3":"10696","localeAltName":null},{"geonameid":5202264,"name":"Mount Penn","admin3":"51760","localeAltName":null},{"geonameid":5202691,"name":"Muhlenberg Park","admin3":"52200","localeAltName":null},{"geonameid":5203105,"name":"New Berlinville","admin3":"14984","localeAltName":null},{"geonameid":5203207,"name":"New Jerusalem","admin3":"65544","localeAltName":null},{"geonameid":5204432,"name":"Oley","admin3":"56672","localeAltName":null},{"geonameid":5205497,"name":"Pennside","admin3":"44840","localeAltName":null},{"geonameid":5205594,"name":"Pennwyn","admin3":"17720","localeAltName":null},{"geonameid":5207728,"name":"Reading","admin3":"63624","localeAltName":null},{"geonameid":5207794,"name":"Red Lion","admin3":"44584","localeAltName":null},{"geonameid":5207976,"name":"Reiffton","admin3":"24384","localeAltName":null},{"geonameid":5208454,"name":"River View Park","admin3":"52200","localeAltName":null},{"geonameid":5208600,"name":"Robesonia","admin3":"65336","localeAltName":null},{"geonameid":5210029,"name":"Saint Lawrence","admin3":"","localeAltName":null},{"geonameid":5211953,"name":"Shillington","admin3":"70248","localeAltName":null},{"geonameid":5212072,"name":"Shoemakersville","admin3":"70464","localeAltName":null},{"geonameid":5212342,"name":"Sinking Spring","admin3":"70880","localeAltName":null},{"geonameid":5213115,"name":"South Temple","admin3":"52200","localeAltName":null},{"geonameid":5213397,"name":"Spring Ridge","admin3":"72824","localeAltName":null},{"geonameid":5213488,"name":"Springmont","admin3":"72824","localeAltName":null},{"geonameid":5214346,"name":"Stony Creek Mills","admin3":"44840","localeAltName":null},{"geonameid":5214422,"name":"Stouchsburg","admin3":"47440","localeAltName":null},{"geonameid":5215325,"name":"Temple","admin3":"52200","localeAltName":null},{"geonameid":5215826,"name":"Topton","admin3":"77104","localeAltName":null},{"geonameid":5218485,"name":"Wernersville","admin3":"82296","localeAltName":null},{"geonameid":5218726,"name":"West Hamburg","admin3":"76712","localeAltName":null},{"geonameid":5218765,"name":"West Lawn","admin3":"72824","localeAltName":null},{"geonameid":5218867,"name":"West Reading","admin3":"83928","localeAltName":null},{"geonameid":5218940,"name":"West Wyomissing","admin3":"72824","localeAltName":null},{"geonameid":5219331,"name":"Whitfield","admin3":"72824","localeAltName":null},{"geonameid":5219972,"name":"Womelsdorf","admin3":"86056","localeAltName":null},{"geonameid":5220248,"name":"Wyomissing","admin3":"86880","localeAltName":null},{"geonameid":5220276,"name":"Wyomissing Hills","admin3":"86880","localeAltName":null}],"admin3":[{"geonameid":4833468,"name":"Borough of Boyertown","admin3":"07960","localeAltName":null},{"geonameid":5177937,"name":"Township of Albany","admin3":"00588"},{"geonameid":5178181,"name":"Township of Alsace","admin3":"02120"},{"geonameid":5178258,"name":"Township of Amity","admin3":"02328","localeAltName":null},{"geonameid":5178976,"name":"Borough of Bally","admin3":"03984","localeAltName":null},{"geonameid":5179615,"name":"Borough of Bechtelsville","admin3":"04896","localeAltName":null},{"geonameid":5180072,"name":"Township of Bern","admin3":"05816","localeAltName":null},{"geonameid":5180080,"name":"Borough of Bernville","admin3":"05848","localeAltName":null},{"geonameid":5180211,"name":"Township of Bethel","admin3":"06008"},{"geonameid":5180623,"name":"Borough of Birdsboro","admin3":"06504","localeAltName":null},{"geonameid":5181534,"name":"Township of Brecknock","admin3":"08344","localeAltName":null},{"geonameid":5182698,"name":"Township of Caernarvon","admin3":"10696","localeAltName":null},{"geonameid":5183677,"name":"Borough of Centerport","admin3":"12104"},{"geonameid":5183777,"name":"Township of Centre","admin3":"12344","localeAltName":null},{"geonameid":5184919,"name":"Township of Colebrookdale","admin3":"14984","localeAltName":null},{"geonameid":5186129,"name":"Township of Cumru","admin3":"17720","localeAltName":null},{"geonameid":5187007,"name":"Township of District","admin3":"19312"},{"geonameid":5187209,"name":"Township of Douglass","admin3":"19664"},{"geonameid":5187740,"name":"Township of Earl","admin3":"20680"},{"geonameid":5189012,"name":"Township of Exeter","admin3":"24384","localeAltName":null},{"geonameid":5189833,"name":"Borough of Fleetwood","admin3":"26280","localeAltName":null},{"geonameid":5192033,"name":"Township of Greenwich","admin3":"31352"},{"geonameid":5192448,"name":"Borough of Hamburg","admin3":"32120","localeAltName":null},{"geonameid":5193106,"name":"Township of Heidelberg","admin3":"33600"},{"geonameid":5193297,"name":"Township of Hereford","admin3":"34016","localeAltName":null},{"geonameid":5195334,"name":"Township of Jefferson","admin3":"37824"},{"geonameid":5195979,"name":"Borough of Kenhorst","admin3":"39256","localeAltName":null},{"geonameid":5196628,"name":"Borough of Kutztown","admin3":"40656","localeAltName":null},{"geonameid":5197399,"name":"Borough of Laureldale","admin3":"41768","localeAltName":null},{"geonameid":5197591,"name":"Borough of Leesport","admin3":"42352","localeAltName":null},{"geonameid":5197741,"name":"Borough of Lenhartsville","admin3":"42688"},{"geonameid":5198941,"name":"Township of Longswamp","admin3":"44584","localeAltName":null},{"geonameid":5199079,"name":"Township of Lower Alsace","admin3":"44840","localeAltName":null},{"geonameid":5199106,"name":"Township of Lower Heidelberg","admin3":"44928"},{"geonameid":5199388,"name":"Borough of Lyons","admin3":"45752"},{"geonameid":5199552,"name":"Township of Maidencreek","admin3":"46680","localeAltName":null},{"geonameid":5199897,"name":"Township of Marion","admin3":"47440","localeAltName":null},{"geonameid":5200173,"name":"Township of Maxatawny","admin3":"48128"},{"geonameid":5201643,"name":"Borough of Mohnton","admin3":"50272","localeAltName":null},{"geonameid":5202268,"name":"Borough of Mount Penn","admin3":"51760","localeAltName":null},{"geonameid":5202693,"name":"Township of Muhlenberg","admin3":"52200","localeAltName":null},{"geonameid":5203240,"name":"Borough of New Morgan","admin3":"53916"},{"geonameid":5203681,"name":"Township of North Heidelberg","admin3":"55088"},{"geonameid":5204441,"name":"Township of Oley","admin3":"56672","localeAltName":null},{"geonameid":5204512,"name":"Township of Ontelaunee","admin3":"56856"},{"geonameid":5205434,"name":"Township of Penn","admin3":"58784"},{"geonameid":5205696,"name":"Township of Perry","admin3":"59448"},{"geonameid":5205937,"name":"Township of Pike","admin3":"60176"},{"geonameid":5207741,"name":"City of Reading","admin3":"63624","localeAltName":null},{"geonameid":5208210,"name":"Township of Richmond","admin3":"64592"},{"geonameid":5208599,"name":"Township of Robeson","admin3":"65320","localeAltName":null},{"geonameid":5208601,"name":"Borough of Robesonia","admin3":"65336","localeAltName":null},{"geonameid":5208765,"name":"Township of Rockland","admin3":"65544","localeAltName":null},{"geonameid":5209307,"name":"Township of Ruscombmanor","admin3":"66728"},{"geonameid":5211956,"name":"Borough of Shillington","admin3":"70248","localeAltName":null},{"geonameid":5212073,"name":"Borough of Shoemakersville","admin3":"70464","localeAltName":null},{"geonameid":5212347,"name":"Borough of Sinking Spring","admin3":"70880","localeAltName":null},{"geonameid":5213032,"name":"Township of South Heidelberg","admin3":"72208"},{"geonameid":5213436,"name":"Township of Spring","admin3":"72824","localeAltName":null},{"geonameid":5214496,"name":"Borough of Strausstown","admin3":"74744"},{"geonameid":5215641,"name":"Township of Tilden","admin3":"76712","localeAltName":null},{"geonameid":5215828,"name":"Borough of Topton","admin3":"77104","localeAltName":null},{"geonameid":5216248,"name":"Township of Tulpehocken","admin3":"77752"},{"geonameid":5216702,"name":"Township of Union","admin3":"78280"},{"geonameid":5216792,"name":"Township of Upper Bern","admin3":"78752"},{"geonameid":5216910,"name":"Township of Upper Tulpehocken","admin3":"79328"},{"geonameid":5218140,"name":"Township of Washington","admin3":"81184"},{"geonameid":5218488,"name":"Borough of Wernersville","admin3":"82296","localeAltName":null},{"geonameid":5218868,"name":"Borough of West Reading","admin3":"83928","localeAltName":null},{"geonameid":5219767,"name":"Township of Windsor","admin3":"85720","localeAltName":null},{"geonameid":5219973,"name":"Borough of Womelsdorf","admin3":"86056","localeAltName":null},{"geonameid":5220257,"name":"Borough of Wyomissing","admin3":"86880","localeAltName":null}],"alternateNames":[{"alternatenameId":2186547,"geonameid":6254927,"isoLanguage":"en","alternateName":"Pennsylvania","isPreferredName":true,"isShortName":true,"isColloquial":false,"isHistoric":false}]},"__N_SSG":true}