{"pageProps":{"locale":"en","admin2":{"geonameid":5182829,"name":"Cambria County","country":"US","admin1":"PA","admin2":"021","admin3":"","latitude":"40.4952900","longitude":"-78.7137000","localeAltName":null},"admin1":{"geonameid":6254927,"name":"Pennsylvania","admin1":"PA","localeAltName":"Pennsylvania"},"locations":[{"geonameid":5179102,"name":"Barnesboro","admin3":"55000","localeAltName":null},{"geonameid":5179577,"name":"Beaverdale","admin3":"75144","localeAltName":null},{"geonameid":5179856,"name":"Belmont","admin3":"74432","localeAltName":null},{"geonameid":5181938,"name":"Brownstown","admin3":"09400","localeAltName":null},{"geonameid":5183339,"name":"Carrolltown","admin3":"11456","localeAltName":null},{"geonameid":5185052,"name":"Colver","admin3":"10880","localeAltName":null},{"geonameid":5185128,"name":"Conemaugh","admin3":"38288","localeAltName":null},{"geonameid":5185861,"name":"Cresson","admin3":"17136","localeAltName":null},{"geonameid":5186244,"name":"Dale","admin3":"18000","localeAltName":null},{"geonameid":5187874,"name":"East Conemaugh","admin3":"20992","localeAltName":null},{"geonameid":5188193,"name":"Ebensburg","admin3":"22144","localeAltName":null},{"geonameid":5188469,"name":"Elim","admin3":"79360","localeAltName":null},{"geonameid":5189482,"name":"Ferndale","admin3":"25680","localeAltName":null},{"geonameid":5190769,"name":"Gallitzin","admin3":"28328","localeAltName":null},{"geonameid":5190928,"name":"Geistown","admin3":"28720","localeAltName":null},{"geonameid":5192858,"name":"Hastings","admin3":"33080","localeAltName":null},{"geonameid":5195561,"name":"Johnstown","admin3":"38288","localeAltName":null},{"geonameid":5198006,"name":"Lilly","admin3":"43248","localeAltName":null},{"geonameid":5198977,"name":"Lorain","admin3":"44664","localeAltName":null},{"geonameid":5198988,"name":"Loretto","admin3":"44704","localeAltName":null},{"geonameid":5202740,"name":"Mundys Corner","admin3":"37352","localeAltName":null},{"geonameid":5202860,"name":"Nanty Glo","admin3":"52616","localeAltName":null},{"geonameid":5203837,"name":"Northern Cambria","admin3":"55000","localeAltName":null},{"geonameid":5204166,"name":"Oakland","admin3":"74432","localeAltName":null},{"geonameid":5205215,"name":"Patton","admin3":"58432","localeAltName":null},{"geonameid":5206961,"name":"Portage","admin3":"62048","localeAltName":null},{"geonameid":5208080,"name":"Revloc","admin3":"10880","localeAltName":null},{"geonameid":5210699,"name":"Salix","admin3":"00308","localeAltName":null},{"geonameid":5210908,"name":"Sankertown","admin3":"67920","localeAltName":null},{"geonameid":5211048,"name":"Scalp Level","admin3":"68104","localeAltName":null},{"geonameid":5213001,"name":"South Fork","admin3":"72168","localeAltName":null},{"geonameid":5213155,"name":"Southmont","admin3":"72344","localeAltName":null},{"geonameid":5213188,"name":"Spangler","admin3":"55000","localeAltName":null},{"geonameid":5213361,"name":"Spring Hill","admin3":"62056","localeAltName":null},{"geonameid":5217260,"name":"Vinco","admin3":"37352","localeAltName":null},{"geonameid":5219003,"name":"Westmont","admin3":"83584","localeAltName":null}],"admin3":[{"geonameid":4833494,"name":"Township of Conemaugh","admin3":"15552"},{"geonameid":5177867,"name":"Township of Adams","admin3":"00308","localeAltName":null},{"geonameid":5178084,"name":"Township of Allegheny","admin3":"00868"},{"geonameid":5178626,"name":"Borough of Ashville","admin3":"03296"},{"geonameid":5179116,"name":"Township of Barr","admin3":"04272"},{"geonameid":5180770,"name":"Township of Blacklick","admin3":"06736"},{"geonameid":5181943,"name":"Borough of Brownstown","admin3":"09400","localeAltName":null},{"geonameid":5182837,"name":"Township of Cambria","admin3":"10880","localeAltName":null},{"geonameid":5183344,"name":"Borough of Carrolltown","admin3":"11456","localeAltName":null},{"geonameid":5183410,"name":"Borough of Cassandra","admin3":"11616"},{"geonameid":5184076,"name":"Borough of Chest Springs","admin3":"13384"},{"geonameid":5184077,"name":"Township of Chest","admin3":"13192"},{"geonameid":5184557,"name":"Township of Clearfield","admin3":"14056"},{"geonameid":5185864,"name":"Borough of Cresson","admin3":"17136","localeAltName":null},{"geonameid":5185865,"name":"Township of Cresson","admin3":"17144"},{"geonameid":5186055,"name":"Township of Croyle","admin3":"17496"},{"geonameid":5186241,"name":"Borough of Daisytown","admin3":"17976"},{"geonameid":5186251,"name":"Borough of Dale","admin3":"18000","localeAltName":null},{"geonameid":5186516,"name":"Township of Dean","admin3":"18432"},{"geonameid":5187867,"name":"Township of East Carroll","admin3":"20952"},{"geonameid":5187876,"name":"Borough of East Conemaugh","admin3":"20992","localeAltName":null},{"geonameid":5188084,"name":"Township of East Taylor","admin3":"21896"},{"geonameid":5188198,"name":"Borough of Ebensburg","admin3":"22144","localeAltName":null},{"geonameid":5188360,"name":"Borough of Ehrenfeld","admin3":"22712"},{"geonameid":5188410,"name":"Township of Elder","admin3":"22808"},{"geonameid":5189486,"name":"Borough of Ferndale","admin3":"25680","localeAltName":null},{"geonameid":5190384,"name":"Borough of Franklin","admin3":"27360"},{"geonameid":5190761,"name":"Borough of Gallitzin","admin3":"28328","localeAltName":null},{"geonameid":5190762,"name":"Township of Gallitzin","admin3":"28336"},{"geonameid":5190929,"name":"Borough of Geistown","admin3":"28720","localeAltName":null},{"geonameid":5192862,"name":"Borough of Hastings","admin3":"33080","localeAltName":null},{"geonameid":5195162,"name":"Township of Jackson","admin3":"37352","localeAltName":null},{"geonameid":5195568,"name":"City of Johnstown","admin3":"38288","localeAltName":null},{"geonameid":5198007,"name":"Borough of Lilly","admin3":"43248","localeAltName":null},{"geonameid":5198978,"name":"Borough of Lorain","admin3":"44664","localeAltName":null},{"geonameid":5198992,"name":"Borough of Loretto","admin3":"44704","localeAltName":null},{"geonameid":5199197,"name":"Township of Lower Yoder","admin3":"45160"},{"geonameid":5201059,"name":"Township of Middle Taylor","admin3":"49104"},{"geonameid":5202744,"name":"Township of Munster","admin3":"52360"},{"geonameid":5202861,"name":"Borough of Nanty-Glo","admin3":"52616","localeAltName":null},{"geonameid":5205228,"name":"Borough of Patton","admin3":"58432","localeAltName":null},{"geonameid":5206964,"name":"Borough of Portage","admin3":"62048","localeAltName":null},{"geonameid":5206965,"name":"Township of Portage","admin3":"62056","localeAltName":null},{"geonameid":5207727,"name":"Township of Reade","admin3":"63608"},{"geonameid":5208195,"name":"Township of Richland","admin3":"64544"},{"geonameid":5210909,"name":"Borough of Sankertown","admin3":"67920","localeAltName":null},{"geonameid":5211050,"name":"Borough of Scalp Level","admin3":"68104","localeAltName":null},{"geonameid":5213021,"name":"Borough of South Fork","admin3":"72168","localeAltName":null},{"geonameid":5213156,"name":"Borough of Southmont","admin3":"72344","localeAltName":null},{"geonameid":5214404,"name":"Township of Stonycreek","admin3":"74432","localeAltName":null},{"geonameid":5214748,"name":"Township of Summerhill","admin3":"75144","localeAltName":null},{"geonameid":5214929,"name":"Township of Susquehanna","admin3":"75520"},{"geonameid":5216278,"name":"Borough of Tunnelhill","admin3":"77808"},{"geonameid":5216924,"name":"Township of Upper Yoder","admin3":"79360","localeAltName":null},{"geonameid":5217276,"name":"Borough of Vintondale","admin3":"80288"},{"geonameid":5218142,"name":"Township of Washington","admin3":"81200"},{"geonameid":5218642,"name":"Township of West Carroll","admin3":"82688"},{"geonameid":5218907,"name":"Township of West Taylor","admin3":"84080"},{"geonameid":5219008,"name":"Borough of Westmont","admin3":"83584","localeAltName":null},{"geonameid":5219267,"name":"Township of White","admin3":"84448"},{"geonameid":5219663,"name":"Borough of Wilmore","admin3":"85528"},{"geonameid":6326717,"name":"Borough of Northern Cambria","admin3":"55000","localeAltName":null},{"geonameid":6326719,"name":"Borough of Summerhill","admin3":"75136"}],"alternateNames":[{"alternatenameId":2186547,"geonameid":6254927,"isoLanguage":"en","alternateName":"Pennsylvania","isPreferredName":true,"isShortName":true,"isColloquial":false,"isHistoric":false}]},"__N_SSG":true}