{"pageProps":{"locale":"en","admin2":{"geonameid":5189967,"name":"Forest County","country":"US","admin1":"PA","admin2":"053","admin3":"","latitude":"41.5130700","longitude":"-79.2360100","localeAltName":null},"admin1":{"geonameid":6254927,"name":"Pennsylvania","admin1":"PA","localeAltName":"Pennsylvania"},"locations":[{"geonameid":5199876,"name":"Marienville","admin3":"38016","localeAltName":null}],"admin3":[{"geonameid":5179096,"name":"Township of Barnett","admin3":"04224"},{"geonameid":5191938,"name":"Township of Green","admin3":"30808"},{"geonameid":5192702,"name":"Township of Harmony","admin3":"32704"},{"geonameid":5193483,"name":"Township of Hickory","admin3":"34240"},{"geonameid":5194404,"name":"Township of Howe","admin3":"35992"},{"geonameid":5195373,"name":"Township of Jenks","admin3":"38016","localeAltName":null},{"geonameid":5196261,"name":"Township of Kingsley","admin3":"39760"},{"geonameid":5215707,"name":"Borough of Tionesta","admin3":"76848"},{"geonameid":5215708,"name":"Township of Tionesta","admin3":"76864"}],"alternateNames":[{"alternatenameId":2186547,"geonameid":6254927,"isoLanguage":"en","alternateName":"Pennsylvania","isPreferredName":true,"isShortName":true,"isColloquial":false,"isHistoric":false}]},"__N_SSG":true}