{"pageProps":{"locale":"ro","admin2":{"geonameid":686579,"name":"Comuna Albac","country":"RO","admin1":"01","admin2":"2130","admin3":"","latitude":"46.4524600","longitude":"22.9502700"},"admin1":{"geonameid":686581,"name":"Alba","admin1":"01"},"locations":[{"geonameid":686580,"name":"Albac","admin3":""},{"geonameid":685409,"name":"Bărăști","admin3":""},{"geonameid":683466,"name":"Budăieşti","admin3":""},{"geonameid":681681,"name":"Cionești","admin3":""},{"geonameid":680572,"name":"Costești","admin3":""},{"geonameid":679633,"name":"Dealu Lămășoi","admin3":""},{"geonameid":679451,"name":"Deve","admin3":""},{"geonameid":678418,"name":"Fața","admin3":""},{"geonameid":670507,"name":"Pleșești","admin3":""},{"geonameid":669761,"name":"Potionci","admin3":""},{"geonameid":668748,"name":"Rogoz","admin3":""},{"geonameid":668663,"name":"Roșești","admin3":""},{"geonameid":668397,"name":"Rusești","admin3":""},{"geonameid":666556,"name":"Sohodol","admin3":""},{"geonameid":665551,"name":"Tamboreşti","admin3":""}],"admin3":[],"alternateNames":[]},"__N_SSG":true}