{"pageProps":{"locale":"en","admin2":{"geonameid":12165737,"name":"Bournemouth, Christchurch and Poole Council","country":"GB","admin1":"ENG","admin2":"AA","admin3":"","latitude":"50.7315100","longitude":"-1.9070300","localeAltName":null},"admin1":{"geonameid":6269131,"name":"England","admin1":"ENG","localeAltName":"England"},"locations":[{"geonameid":8063664,"name":"Ashley Cross","admin3":"","localeAltName":null},{"geonameid":2655095,"name":"Bournemouth","admin3":"19UC","localeAltName":null},{"geonameid":8063665,"name":"Branksome","admin3":"","localeAltName":null},{"geonameid":2654219,"name":"Burton","admin3":"19UC","localeAltName":null},{"geonameid":2653895,"name":"Canford Cliffs","admin3":"","localeAltName":null},{"geonameid":6940518,"name":"Canford Heath","admin3":"19UD","localeAltName":null},{"geonameid":2653894,"name":"Canford Magna","admin3":"19UD","localeAltName":null},{"geonameid":6544187,"name":"Charminster","admin3":"","localeAltName":null},{"geonameid":2653075,"name":"Christchurch","admin3":"19UC","localeAltName":null},{"geonameid":2650358,"name":"East Parley","admin3":"19UC","localeAltName":null},{"geonameid":2647539,"name":"Hamworthy","admin3":"19UG","localeAltName":null},{"geonameid":3211309,"name":"Highcliffe","admin3":"19UC","localeAltName":null},{"geonameid":10102257,"name":"Hillbourne","admin3":"","localeAltName":null},{"geonameid":2646851,"name":"Hinton","admin3":"19UC","localeAltName":null},{"geonameid":2646770,"name":"Holdenhurst","admin3":"","localeAltName":null},{"geonameid":2646365,"name":"Hurn","admin3":"19UC","localeAltName":null},{"geonameid":2646285,"name":"Iford","admin3":"","localeAltName":null},{"geonameid":6544195,"name":"Kinson","admin3":"19UD","localeAltName":null},{"geonameid":10102263,"name":"Lower Hamworthy","admin3":"","localeAltName":null},{"geonameid":8714266,"name":"Merley","admin3":"","localeAltName":null},{"geonameid":11550746,"name":"Moordown","admin3":"","localeAltName":null},{"geonameid":9430066,"name":"Mudeford","admin3":"19UC","localeAltName":null},{"geonameid":6544194,"name":"Northbourne","admin3":"","localeAltName":null},{"geonameid":10102260,"name":"Nuffield Industrial Estate","admin3":"","localeAltName":null},{"geonameid":10102261,"name":"Oakdale","admin3":"","localeAltName":null},{"geonameid":2640101,"name":"Poole","admin3":"","localeAltName":null},{"geonameid":2637473,"name":"Southbourne","admin3":"","localeAltName":null},{"geonameid":10102262,"name":"Stanley Green","admin3":"","localeAltName":null},{"geonameid":10375989,"name":"Stanpit","admin3":"19UC","localeAltName":null},{"geonameid":10103967,"name":"Tuckton","admin3":"","localeAltName":null},{"geonameid":6544193,"name":"Wallisdown","admin3":"19UD","localeAltName":null},{"geonameid":10102259,"name":"Waterloo","admin3":"","localeAltName":null},{"geonameid":6544188,"name":"Westbourne","admin3":"","localeAltName":null},{"geonameid":6544197,"name":"Wick","admin3":"","localeAltName":null},{"geonameid":6951033,"name":"Winkton","admin3":"19UC","localeAltName":null},{"geonameid":2633779,"name":"Winton","admin3":"","localeAltName":null}],"admin3":[{"geonameid":7290680,"name":"Christchurch District","admin3":"19UC","localeAltName":null}],"alternateNames":[{"alternatenameId":1626647,"geonameid":6269131,"isoLanguage":"en","alternateName":"England","isPreferredName":true,"isShortName":true,"isColloquial":false,"isHistoric":false}]},"__N_SSG":true}