{"pageProps":{"locale":"en","admin2":{"geonameid":2751072,"name":"Gemeente Medemblik","country":"NL","admin1":"07","admin2":"0420","admin3":"","latitude":"52.7249600","longitude":"5.1220400"},"admin1":{"geonameid":2749879,"name":"Provincie Noord-Holland","admin1":"07"},"locations":[{"geonameid":2760078,"name":"Abbekerk","admin3":""},{"geonameid":2759774,"name":"Andijk","admin3":""},{"geonameid":2759775,"name":"Andijk","admin3":""},{"geonameid":2759444,"name":"Bangert","admin3":""},{"geonameid":2759191,"name":"Benningbroek","admin3":""},{"geonameid":2758246,"name":"Broekoord","admin3":""},{"geonameid":2758744,"name":"Broerdijk","admin3":""},{"geonameid":2757713,"name":"De Buurt","admin3":""},{"geonameid":2755554,"name":"Geuzenbuurt","admin3":""},{"geonameid":2754755,"name":"Hauwert","admin3":""},{"geonameid":2754182,"name":"Het Westeinde","admin3":""},{"geonameid":6621540,"name":"Kerkbuurt","admin3":""},{"geonameid":2752000,"name":"Lambertschaag","admin3":""},{"geonameid":2751746,"name":"Lekermeer","admin3":""},{"geonameid":2751073,"name":"Medemblik","admin3":""},{"geonameid":2750829,"name":"Midwoud","admin3":""},{"geonameid":2750718,"name":"Molenbuurt","admin3":""},{"geonameid":2750398,"name":"Nibbixwoud","admin3":""},{"geonameid":2749599,"name":"Onderdijk","admin3":""},{"geonameid":2749321,"name":"Oostwoud","admin3":""},{"geonameid":2749281,"name":"Opperdoes","admin3":""},{"geonameid":2747332,"name":"Sijbekarspel","admin3":""},{"geonameid":2746048,"name":"Twisk","admin3":""},{"geonameid":2745703,"name":"Veldhuis","admin3":""},{"geonameid":2744820,"name":"Wervershoof","admin3":""},{"geonameid":2744450,"name":"Wijzend","admin3":""},{"geonameid":2744237,"name":"Wognum","admin3":""},{"geonameid":2743593,"name":"Zwaagdijk-Oost","admin3":""},{"geonameid":2743592,"name":"Zwaagdijk-West","admin3":""}],"admin3":[],"alternateNames":[]},"__N_SSG":true}