{"pageProps":{"locale":"en","admin2":{"geonameid":3345301,"name":"Gemeente Wijdemeren","country":"NL","admin1":"07","admin2":"1696","admin3":"","latitude":"52.2275600","longitude":"5.0844500"},"admin1":{"geonameid":2749879,"name":"Provincie Noord-Holland","admin1":"07"},"locations":[{"geonameid":2759751,"name":"Ankeveen","admin3":""},{"geonameid":2759749,"name":"Ankeveense Rade","admin3":""},{"geonameid":6544751,"name":"Boomhoek","admin3":""},{"geonameid":2758329,"name":"Breukeleveen","admin3":""},{"geonameid":2754056,"name":"Hinderdam","admin3":""},{"geonameid":2753913,"name":"Hollandsch Ankeveen","admin3":""},{"geonameid":2753579,"name":"Horstermeer","admin3":""},{"geonameid":2752409,"name":"Kortenhoef","admin3":""},{"geonameid":8714374,"name":"Loosdrecht","admin3":""},{"geonameid":2750525,"name":"Muyeveld","admin3":""},{"geonameid":2750476,"name":"Nederhorst den Berg","admin3":""},{"geonameid":2750158,"name":"Nieuw-Loosdrecht","admin3":""},{"geonameid":2748926,"name":"Oud-Loosdrecht","admin3":""},{"geonameid":2748915,"name":"Oudover","admin3":""},{"geonameid":2748828,"name":"Overmeer","admin3":""},{"geonameid":2747377,"name":"s-Graveland","admin3":""}],"admin3":[],"alternateNames":[]},"__N_SSG":true}