{"pageProps":{"locale":"en","admin2":{"geonameid":6544245,"name":"Gemeente Twenterand","country":"NL","admin1":"15","admin2":"1700","admin3":"","latitude":"52.4497400","longitude":"6.5612200"},"admin1":{"geonameid":2748838,"name":"Provincie Overijssel","admin1":"15"},"locations":[{"geonameid":2758189,"name":"Bruinehaar","admin3":""},{"geonameid":2757844,"name":"Dalvoorden","admin3":""},{"geonameid":2757128,"name":"De Pollen","admin3":""},{"geonameid":2757224,"name":"Den Ham","admin3":""},{"geonameid":2755680,"name":"Geerdijk","admin3":""},{"geonameid":2754932,"name":"Hallerhoek","admin3":""},{"geonameid":2751587,"name":"Linde","admin3":""},{"geonameid":2751264,"name":"Magele","admin3":""},{"geonameid":2751056,"name":"Meer","admin3":""},{"geonameid":2750150,"name":"Nieuwoord","admin3":""},{"geonameid":2749855,"name":"Noord-Meer","admin3":""},{"geonameid":2745182,"name":"Vriezenveen","admin3":""},{"geonameid":2745169,"name":"Vroomshoop","admin3":""},{"geonameid":2744741,"name":"Westerhaar-Vriezenveensewijk","admin3":""},{"geonameid":2756943,"name":"Westerhoeven","admin3":""},{"geonameid":2743557,"name":"Zwarte Gat","admin3":""}],"admin3":[],"alternateNames":[{"alternatenameId":11907794,"geonameid":2748838,"isoLanguage":"de","alternateName":"Overijssel","isPreferredName":true,"isShortName":true,"isColloquial":false,"isHistoric":false}]},"__N_SSG":true}