{"pageProps":{"locale":"en","admin2":{"geonameid":2756986,"name":"Gemeente Deventer","country":"NL","admin1":"15","admin2":"0150","admin3":"","latitude":"52.2692700","longitude":"6.2379500"},"admin1":{"geonameid":2748838,"name":"Provincie Overijssel","admin1":"15"},"locations":[{"geonameid":2759702,"name":"Apenhuizen","admin3":""},{"geonameid":2759597,"name":"Averlo","admin3":""},{"geonameid":2759381,"name":"Bathmen","admin3":""},{"geonameid":2759099,"name":"Bergweide","admin3":""},{"geonameid":2758623,"name":"Borgele","admin3":""},{"geonameid":2757924,"name":"Colmschate","admin3":""},{"geonameid":2757488,"name":"De Hoven","admin3":""},{"geonameid":2756987,"name":"Deventer","admin3":""},{"geonameid":2756875,"name":"Diepenveen","admin3":""},{"geonameid":2756653,"name":"Dortherhoek","admin3":""},{"geonameid":2755810,"name":"Frieswijk","admin3":""},{"geonameid":2754226,"name":"Het Oostrik","admin3":""},{"geonameid":2752972,"name":"Keizerslanden","admin3":""},{"geonameid":2752620,"name":"Kloosterlanden","admin3":""},{"geonameid":2751702,"name":"Lettele","admin3":""},{"geonameid":2751588,"name":"Linde","admin3":""},{"geonameid":2751480,"name":"Loo","admin3":""},{"geonameid":2750725,"name":"Molenbelt","admin3":""},{"geonameid":2749675,"name":"Okkenbroek","admin3":""},{"geonameid":2749056,"name":"Oude Molen","admin3":""},{"geonameid":2748801,"name":"Oxe","admin3":""},{"geonameid":2748609,"name":"Pieriksmars","admin3":""},{"geonameid":2748546,"name":"Platvoet","admin3":""},{"geonameid":2748332,"name":"Rande","admin3":""},{"geonameid":2748163,"name":"Riele","admin3":""},{"geonameid":2748039,"name":"Rivierenwijk","admin3":""},{"geonameid":2747704,"name":"Schalkhaar","admin3":""},{"geonameid":2747046,"name":"Snippeling","admin3":""},{"geonameid":2746266,"name":"Tjoene","admin3":""},{"geonameid":2744038,"name":"Zandweerd","admin3":""},{"geonameid":2743678,"name":"Zuidloo","admin3":""}],"admin3":[],"alternateNames":[{"alternatenameId":11907794,"geonameid":2748838,"isoLanguage":"de","alternateName":"Overijssel","isPreferredName":true,"isShortName":true,"isColloquial":false,"isHistoric":false}]},"__N_SSG":true}