{"pageProps":{"locale":"en","admin2":{"geonameid":2748370,"name":"Gemeente Raalte","country":"NL","admin1":"15","admin2":"0177","admin3":"","latitude":"52.4029900","longitude":"6.2877300"},"admin1":{"geonameid":2748838,"name":"Provincie Overijssel","admin1":"15"},"locations":[{"geonameid":2758720,"name":"Boetele","admin3":""},{"geonameid":2758250,"name":"Broekland","admin3":""},{"geonameid":2757518,"name":"De Hooge Wegen","admin3":""},{"geonameid":2754621,"name":"Heeten","admin3":""},{"geonameid":2754502,"name":"Heino","admin3":""},{"geonameid":2752094,"name":"Laag Zuthem","admin3":""},{"geonameid":2751637,"name":"Lierderholthuis","admin3":""},{"geonameid":2751577,"name":"Linderte","admin3":""},{"geonameid":2751357,"name":"Luttenberg","admin3":""},{"geonameid":2751172,"name":"MariÃ«nheem","admin3":""},{"geonameid":2750195,"name":"Nieuw-Heeten","admin3":""},{"geonameid":2748545,"name":"Pleegste","admin3":""},{"geonameid":2748371,"name":"Raalte","admin3":""},{"geonameid":2748355,"name":"Raarhoek","admin3":""},{"geonameid":2748342,"name":"Ramele","admin3":""},{"geonameid":2747508,"name":"Schoonheten","admin3":""},{"geonameid":2746305,"name":"Tijenraan","admin3":""},{"geonameid":2745712,"name":"Veldhoek","admin3":""}],"admin3":[],"alternateNames":[{"alternatenameId":11907794,"geonameid":2748838,"isoLanguage":"de","alternateName":"Overijssel","isPreferredName":true,"isShortName":true,"isColloquial":false,"isHistoric":false}]},"__N_SSG":true}