{"pageProps":{"locale":"de","admin2":{"geonameid":6458820,"name":"See District","country":"CH","admin1":"FR","admin2":"1005","admin3":"","latitude":"46.9101600","longitude":"7.1408800"},"admin1":{"geonameid":2660717,"name":"Canton de Fribourg","admin1":"FR"},"locations":[{"geonameid":2661617,"name":"Barberêche","admin3":"2254"},{"geonameid":8436414,"name":"Bas-Vully","admin3":"2284"},{"geonameid":2661119,"name":"Cordast","admin3":"2262"},{"geonameid":2661098,"name":"Courgevaux","admin3":"2250"},{"geonameid":2661097,"name":"Courlevon","admin3":"2275"},{"geonameid":2660730,"name":"Fräschels","admin3":"2258"},{"geonameid":2660674,"name":"Galmiz","admin3":"2259"},{"geonameid":2660223,"name":"Jeuss","admin3":"2275"},{"geonameid":2660170,"name":"Kerzers","admin3":"2265"},{"geonameid":2659895,"name":"Liebistorf","admin3":"2262"},{"geonameid":2659824,"name":"Lurtigen","admin3":"2275"},{"geonameid":2659529,"name":"Murten/Morat","admin3":"2275"},{"geonameid":2658063,"name":"Wallenbuch","admin3":"2262"},{"geonameid":2658062,"name":"Wallenried","admin3":"2254"}],"admin3":[{"geonameid":7285577,"name":"Courgevaux","admin3":"2250"},{"geonameid":7285584,"name":"Courtepin","admin3":"2254"},{"geonameid":7285591,"name":"Cressier (FR)","admin3":"2257"},{"geonameid":7285858,"name":"Fräschels","admin3":"2258"},{"geonameid":7285887,"name":"Galmiz","admin3":"2259"},{"geonameid":7285900,"name":"Gempenach","admin3":"2260"},{"geonameid":7285974,"name":"Greng","admin3":"2261"},{"geonameid":7286008,"name":"Gurmels","admin3":"2262"},{"geonameid":7286188,"name":"Kerzers","admin3":"2265"},{"geonameid":7286205,"name":"Kleinbösingen","admin3":"2266"},{"geonameid":7286501,"name":"Meyriez","admin3":"2271"},{"geonameid":7286511,"name":"Misery-Courtion","admin3":"2272"},{"geonameid":7286593,"name":"Muntelier","admin3":"2274"},{"geonameid":7286603,"name":"Murten/Morat","admin3":"2275"},{"geonameid":7286901,"name":"Ried bei Kerzers","admin3":"2276"},{"geonameid":7287208,"name":"Staatswald Galm","admin3":"2391"},{"geonameid":7287368,"name":"Ulmiz","admin3":"2278"},{"geonameid":11611717,"name":"Mont-Vully","admin3":"2284"}],"alternateNames":[]},"__N_SSG":true}