{"pageProps":{"locale":"de","admin2":{"geonameid":2867539,"name":"Regierungsbezirk Münster","country":"DE","admin1":"07","admin2":"055","admin3":"","latitude":"51.9666000","longitude":"7.4333000","localeAltName":null},"admin1":{"geonameid":2861876,"name":"Nordrhein-Westfalen","admin1":"07","localeAltName":"Nordrhein-Westfalen"},"locations":[{"geonameid":2959279,"name":"Ahaus","admin3":"05554","localeAltName":null},{"geonameid":2959223,"name":"Ahlen","admin3":"05570","localeAltName":null},{"geonameid":2957829,"name":"Altenberge","admin3":"05566","localeAltName":null},{"geonameid":2955224,"name":"Ascheberg","admin3":"05558","localeAltName":null},{"geonameid":2951654,"name":"Beckum","admin3":"05570","localeAltName":null},{"geonameid":2951596,"name":"Beelen","admin3":"05570","localeAltName":null},{"geonameid":2948944,"name":"Billerbeck","admin3":"05558","localeAltName":null},{"geonameid":2948717,"name":"Birgte","admin3":"05566","localeAltName":null},{"geonameid":2947421,"name":"Bocholt","admin3":"05554","localeAltName":null},{"geonameid":2946228,"name":"Borken","admin3":"05554","localeAltName":null},{"geonameid":2945756,"name":"Bottrop","admin3":"05512","localeAltName":null},{"geonameid":2940231,"name":"Castrop-Rauxel","admin3":"05562","localeAltName":null},{"geonameid":2939945,"name":"Coesfeld","admin3":"05558","localeAltName":null},{"geonameid":2938784,"name":"Datteln","admin3":"05562","localeAltName":null},{"geonameid":2935530,"name":"Dorsten","admin3":"05562","localeAltName":null},{"geonameid":2935209,"name":"Dreierwalde","admin3":"05566","localeAltName":null},{"geonameid":2935042,"name":"Drensteinfurt","admin3":"05570","localeAltName":null},{"geonameid":2934662,"name":"Dülmen","admin3":"05558","localeAltName":null},{"geonameid":2930449,"name":"Emsdetten","admin3":"05566","localeAltName":null},{"geonameid":2930030,"name":"Ennigerloh","admin3":"05570","localeAltName":null},{"geonameid":2928320,"name":"Everswinkel","admin3":"05570","localeAltName":null},{"geonameid":2921466,"name":"Gelsenkirchen","admin3":"05513","localeAltName":null},{"geonameid":2920842,"name":"Gescher","admin3":"05554","localeAltName":null},{"geonameid":2920236,"name":"Gladbeck","admin3":"05562","localeAltName":null},{"geonameid":2917544,"name":"Greven","admin3":"05566","localeAltName":null},{"geonameid":2917138,"name":"Gronau","admin3":"05554","localeAltName":null},{"geonameid":2911395,"name":"Haltern am See","admin3":"05562","localeAltName":null},{"geonameid":2908597,"name":"Havixbeck","admin3":"05558","localeAltName":null},{"geonameid":2908330,"name":"Heek","admin3":"05554","localeAltName":null},{"geonameid":2907889,"name":"Heiden","admin3":"05554","localeAltName":null},{"geonameid":2905560,"name":"Herten","admin3":"05562","localeAltName":null},{"geonameid":2898603,"name":"Hörstel","admin3":"05566","localeAltName":null},{"geonameid":2898541,"name":"Horstmar","admin3":"05566","localeAltName":null},{"geonameid":2896817,"name":"Ibbenbüren","admin3":"05566","localeAltName":null},{"geonameid":2895630,"name":"Isselburg","admin3":"05554","localeAltName":null},{"geonameid":2888344,"name":"Klein Reken","admin3":"05554","localeAltName":null},{"geonameid":2881991,"name":"Ladbergen","admin3":"05566","localeAltName":null},{"geonameid":2881973,"name":"Laer","admin3":"05566","localeAltName":null},{"geonameid":2879653,"name":"Legden","admin3":"05554","localeAltName":null},{"geonameid":2878840,"name":"Lengerich","admin3":"05566","localeAltName":null},{"geonameid":2877843,"name":"Lienen","admin3":"05566","localeAltName":null},{"geonameid":2875760,"name":"Lotte","admin3":"05566","localeAltName":null},{"geonameid":2875417,"name":"Lüdinghausen","admin3":"05558","localeAltName":null},{"geonameid":2873263,"name":"Marl","admin3":"05562","localeAltName":null},{"geonameid":2871591,"name":"Metelen","admin3":"05566","localeAltName":null},{"geonameid":2871540,"name":"Mettingen","admin3":"05566","localeAltName":null},{"geonameid":2867543,"name":"Münster","admin3":"05515","localeAltName":null},{"geonameid":2865641,"name":"Neuenkirchen","admin3":"05566","localeAltName":null},{"geonameid":2861923,"name":"Nordkirchen","admin3":"05558","localeAltName":null},{"geonameid":2861847,"name":"Nordwalde","admin3":"05566","localeAltName":null},{"geonameid":2861733,"name":"Nottuln","admin3":"05558","localeAltName":null},{"geonameid":2858245,"name":"Ochtrup","admin3":"05566","localeAltName":null},{"geonameid":2857943,"name":"Oelde","admin3":"05570","localeAltName":null},{"geonameid":2857904,"name":"Oer-Erkenschwick","admin3":"05562","localeAltName":null},{"geonameid":2857363,"name":"Olfen","admin3":"05558","localeAltName":null},{"geonameid":2856816,"name":"Ostbevern","admin3":"05570","localeAltName":null},{"geonameid":2850942,"name":"Raesfeld","admin3":"05554","localeAltName":null},{"geonameid":2849689,"name":"Recke","admin3":"05566","localeAltName":null},{"geonameid":2849647,"name":"Recklinghausen","admin3":"05562","localeAltName":null},{"geonameid":2847689,"name":"Rhede","admin3":"05554","localeAltName":null},{"geonameid":2847645,"name":"Rheine","admin3":"05566","localeAltName":null},{"geonameid":2842441,"name":"Saerbeck","admin3":"05566","localeAltName":null},{"geonameid":2841351,"name":"Sassenberg","admin3":"05570","localeAltName":null},{"geonameid":2836390,"name":"Schöppingen","admin3":"05554","localeAltName":null},{"geonameid":2833079,"name":"Senden","admin3":"05558","localeAltName":null},{"geonameid":2833076,"name":"Sendenhorst","admin3":"05570","localeAltName":null},{"geonameid":2829758,"name":"Stadtlohn","admin3":"05554","localeAltName":null},{"geonameid":2828105,"name":"Steinfurt","admin3":"05566","localeAltName":null},{"geonameid":2824998,"name":"Südlohn","admin3":"05554","localeAltName":null},{"geonameid":2823728,"name":"Tecklenburg","admin3":"05566","localeAltName":null},{"geonameid":2823590,"name":"Telgte","admin3":"05570","localeAltName":null},{"geonameid":2817704,"name":"Velen","admin3":"05554","localeAltName":null},{"geonameid":2815824,"name":"Vreden","admin3":"05554","localeAltName":null},{"geonameid":2815563,"name":"Wadersloh","admin3":"05570","localeAltName":null},{"geonameid":2814362,"name":"Waltrop","admin3":"05562","localeAltName":null},{"geonameid":2814127,"name":"Warendorf","admin3":"05570","localeAltName":null},{"geonameid":2810289,"name":"Westerkappeln","admin3":"05566","localeAltName":null},{"geonameid":2809919,"name":"Wettringen","admin3":"05566","localeAltName":null}],"admin3":[{"geonameid":2849645,"name":"Kreis Recklinghausen","admin3":"05562","localeAltName":null},{"geonameid":2939944,"name":"Kreis Coesfeld","admin3":"05558","localeAltName":null},{"geonameid":3247439,"name":"Kreisfreie Stadt Gelsenkirchen","admin3":"05513","localeAltName":null},{"geonameid":3247440,"name":"Kreisfreie Stadt Bottrop","admin3":"05512","localeAltName":null},{"geonameid":3247441,"name":"Kreis Borken","admin3":"05554","localeAltName":null},{"geonameid":3247442,"name":"Kreisfreie Stadt Münster","admin3":"05515","localeAltName":null},{"geonameid":3247443,"name":"Kreis Steinfurt","admin3":"05566","localeAltName":null},{"geonameid":3247444,"name":"Kreis Warendorf","admin3":"05570","localeAltName":null}],"alternateNames":[{"alternatenameId":2080494,"geonameid":2861876,"isoLanguage":"de","alternateName":"Nordrhein-Westfalen","isPreferredName":true,"isShortName":true,"isColloquial":false,"isHistoric":false}]},"__N_SSG":true}