{"pageProps":{"locale":"ro","admin2":{"geonameid":676477,"name":"Comuna Gura Teghii","country":"RO","admin1":"11","admin2":"47079","admin3":"","latitude":"45.5070300","longitude":"26.4344100"},"admin1":{"geonameid":683121,"name":"Buzău","admin1":"11"},"locations":[{"geonameid":686197,"name":"Argăsileşti"},{"geonameid":677754,"name":"Furtunești"},{"geonameid":676856,"name":"Gotescu"},{"geonameid":676501,"name":"Gura Păltinişului"},{"geonameid":676478,"name":"Gura Teghii"},{"geonameid":675583,"name":"Între Bâsci"},{"geonameid":675542,"name":"Ioneşti"},{"geonameid":674351,"name":"Lunca Vâscului"},{"geonameid":672597,"name":"Muşa-Mare"},{"geonameid":672325,"name":"Nemertea"},{"geonameid":671434,"name":"Păltiniș"},{"geonameid":670975,"name":"Petriceni"},{"geonameid":670902,"name":"Piatra Corbului"},{"geonameid":670090,"name":"Poiana cu Rugi"},{"geonameid":668666,"name":"Roşcoiu"},{"geonameid":667462,"name":"Secuiu"},{"geonameid":665544,"name":"Tănăsoaia"},{"geonameid":665351,"name":"Tega"},{"geonameid":663999,"name":"Vadu Oii"},{"geonameid":663166,"name":"Varlaam"}],"admin3":[],"alternateNames":[]},"__N_SSG":true}