{"pageProps":{"locale":"en","admin2":{"geonameid":4107027,"name":"Crawford County","country":"US","admin1":"AR","admin2":"033","admin3":"","latitude":"35.5888300","longitude":"-94.2431200","localeAltName":null},"admin1":{"geonameid":4099753,"name":"Arkansas","admin1":"AR","localeAltName":"Arkansas"},"locations":[{"geonameid":4099296,"name":"Alma","admin3":"90024","localeAltName":null},{"geonameid":4105064,"name":"Cedarville","admin3":"90726","localeAltName":null},{"geonameid":4109338,"name":"Dyer","admin3":"91176","localeAltName":null},{"geonameid":4117417,"name":"Kibler","admin3":"92039","localeAltName":null},{"geonameid":4123018,"name":"Mountainburg","admin3":"92614","localeAltName":null},{"geonameid":4123120,"name":"Mulberry","admin3":"92648","localeAltName":null},{"geonameid":4134716,"name":"Van Buren","admin3":"93771","localeAltName":null}],"admin3":[{"geonameid":4099305,"name":"Township of Alma","admin3":"90024","localeAltName":null},{"geonameid":4104989,"name":"Township of Cedar Creek","admin3":"90717"},{"geonameid":4105070,"name":"Township of Cedarville","admin3":"90726","localeAltName":null},{"geonameid":4105482,"name":"Township of Chester","admin3":"90777"},{"geonameid":4106832,"name":"Township of Cove City","admin3":"90942"},{"geonameid":4108868,"name":"Township of Dora","admin3":"91124"},{"geonameid":4109343,"name":"Township of Dyer","admin3":"91176","localeAltName":null},{"geonameid":4116403,"name":"Township of Jasper","admin3":"91905"},{"geonameid":4118267,"name":"Township of Lancaster","admin3":"92112"},{"geonameid":4118629,"name":"Township of Lees Creek","admin3":"92145"},{"geonameid":4124897,"name":"Township of Oliver Springs","admin3":"92754"},{"geonameid":4127137,"name":"Township of Porter","admin3":"92961"},{"geonameid":4129321,"name":"Township of Rudy","admin3":"93252"},{"geonameid":4134593,"name":"Township of Upper","admin3":"93738"},{"geonameid":4134705,"name":"Township of Van Buren","admin3":"93771","localeAltName":null},{"geonameid":4134872,"name":"Township of Vine Prairie","admin3":"93810"},{"geonameid":4136364,"name":"Township of Whitley","admin3":"94044"},{"geonameid":4136795,"name":"Township of Winfrey","admin3":"94098"},{"geonameid":7172161,"name":"Township of Bidville","admin3":"90248"},{"geonameid":7172165,"name":"Township of Dean Springs","admin3":"91043"},{"geonameid":7172174,"name":"Township of Kibler","admin3":"92039","localeAltName":null},{"geonameid":7172176,"name":"Township of Locke","admin3":"92240"},{"geonameid":7172180,"name":"Township of Mountainburg","admin3":"92614","localeAltName":null},{"geonameid":7172181,"name":"Township of Mulberry","admin3":"92648","localeAltName":null},{"geonameid":7172610,"name":"Township of Uniontown","admin3":"93733"}],"alternateNames":[{"alternatenameId":1979420,"geonameid":4099753,"isoLanguage":"en","alternateName":"Arkansas","isPreferredName":true,"isShortName":true,"isColloquial":false,"isHistoric":false}]},"__N_SSG":true}