{"pageProps":{"locale":"en","admin2":{"geonameid":6176824,"name":"Regional Municipality of Waterloo","country":"CA","admin1":"08","admin2":"3530","admin3":"","latitude":"43.5001000","longitude":"-80.4996900"},"admin1":{"geonameid":6093943,"name":"Ontario","admin1":"08"},"locations":[{"geonameid":5888737,"name":"Ayr","admin3":"3530004"},{"geonameid":5889167,"name":"Baden","admin3":"3530020"},{"geonameid":5898786,"name":"Berlett's Corners","admin3":"3530020"},{"geonameid":5908481,"name":"Breslau","admin3":"3530035"},{"geonameid":5924326,"name":"Clyde","admin3":"3530004"},{"geonameid":5926576,"name":"Conestogo","admin3":"3530035"},{"geonameid":5933074,"name":"Crosshill","admin3":"3530027"},{"geonameid":5941835,"name":"Dorking","admin3":"3530027"},{"geonameid":5948045,"name":"Elmira","admin3":"3530035"},{"geonameid":5954834,"name":"Floradale","admin3":"3530035"},{"geonameid":5966073,"name":"Greenfield","admin3":"3530004"},{"geonameid":5972378,"name":"Hawkesville","admin3":"3530027"},{"geonameid":5987995,"name":"Josephsburg","admin3":"3530020"},{"geonameid":5992540,"name":"Kingwood","admin3":"3530027"},{"geonameid":5992996,"name":"Kitchener","admin3":""},{"geonameid":6054551,"name":"Linwood","admin3":"3530027"},{"geonameid":6054623,"name":"Lisbon","admin3":"3530020"},{"geonameid":6062186,"name":"Luxemburg","admin3":"3530020"},{"geonameid":6065301,"name":"Mannheim","admin3":"3530020"},{"geonameid":8593679,"name":"Maryhill","admin3":"3530035"},{"geonameid":6087530,"name":"New Dundee","admin3":"3530020"},{"geonameid":6087591,"name":"New Hamburg","admin3":"3530020"},{"geonameid":6087745,"name":"New Prussia","admin3":"3530020"},{"geonameid":6091100,"name":"North Woolwich","admin3":"3530035"},{"geonameid":6094443,"name":"Orr's Lake","admin3":"3530004"},{"geonameid":6113143,"name":"Preston","admin3":"3530004"},{"geonameid":6114210,"name":"Punkeydoodles Corners","admin3":"3530020"},{"geonameid":6119229,"name":"Reid's Mill","admin3":"3530004"},{"geonameid":6119242,"name":"Reidsville","admin3":"3530004"},{"geonameid":6127698,"name":"Rosendale","admin3":"3530035"},{"geonameid":6142034,"name":"Schindelsteddle","admin3":"3530020"},{"geonameid":6146122,"name":"Shep's Subdivision","admin3":"3530004"},{"geonameid":6154920,"name":"St. Agatha","admin3":"3530020"},{"geonameid":8593834,"name":"St. Jacobs","admin3":"3530035"},{"geonameid":6177752,"name":"Weissenburg","admin3":"3530035"},{"geonameid":6177893,"name":"Wellesley","admin3":"3530027"},{"geonameid":6182559,"name":"Wilmot Centre","admin3":"3530020"},{"geonameid":6184825,"name":"Wrigley Corners","admin3":"3530004"},{"geonameid":6186183,"name":"Zuber Corners","admin3":"3530035"}],"admin3":[{"geonameid":6089705,"name":"North Dumfries","admin3":"3530004"},{"geonameid":6177895,"name":"Wellesley","admin3":"3530027"},{"geonameid":6182555,"name":"Wilmot","admin3":"3530020"},{"geonameid":6184530,"name":"Woolwich","admin3":"3530035"}],"alternateNames":[]},"__N_SSG":true}