{"pageProps":{"locale":"en","admin2":{"geonameid":6172003,"name":"United Counties of Stormont, Dundas and Glengarry","country":"CA","admin1":"08","admin2":"3501","admin3":"","latitude":"45.2500900","longitude":"-74.6659700"},"admin1":{"geonameid":6093943,"name":"Ontario","admin1":"08"},"locations":[{"geonameid":5883490,"name":"Alexandria","admin3":"3501050"},{"geonameid":5885394,"name":"Annable Settlement","admin3":"3501030"},{"geonameid":5886435,"name":"Apple Hill","admin3":"3501050"},{"geonameid":5886609,"name":"Archer","admin3":"3501020"},{"geonameid":5887955,"name":"Athol","admin3":"3501050"},{"geonameid":5888561,"name":"Avondale","admin3":"3501005"},{"geonameid":5888572,"name":"Avonmore","admin3":"3501042"},{"geonameid":5892131,"name":"Baldwins Bridge","admin3":"3501030"},{"geonameid":5892413,"name":"Baltics Corners","admin3":"3501050"},{"geonameid":5897281,"name":"Beckstead","admin3":"3501020"},{"geonameid":5899183,"name":"Bethune Bush","admin3":"3501030"},{"geonameid":5903154,"name":"Black River","admin3":"3501011"},{"geonameid":5904021,"name":"Bloomington","admin3":"3501042"},{"geonameid":5906280,"name":"Boucks Hill","admin3":"3501020"},{"geonameid":5908204,"name":"Breadalbane","admin3":"3501050"},{"geonameid":5908660,"name":"Bridge End","admin3":"3501005"},{"geonameid":5909319,"name":"Brodie","admin3":"3501050"},{"geonameid":5909817,"name":"Brown House Corner","admin3":"3501005"},{"geonameid":5911317,"name":"Bunker Hill","admin3":"3501011"},{"geonameid":5912371,"name":"Bush Glen","admin3":"3501011"},{"geonameid":5913207,"name":"Cahore","admin3":"3501042"},{"geonameid":5913922,"name":"Camerons Point","admin3":"3501005"},{"geonameid":5914900,"name":"Cannamore","admin3":"3501042"},{"geonameid":5917970,"name":"Cashions Glen","admin3":"3501005"},{"geonameid":5918012,"name":"Cass Bridge","admin3":"3501030"},{"geonameid":5918815,"name":"Cedar Grove","admin3":"3501011"},{"geonameid":5921066,"name":"Chesterville","admin3":"3501030"},{"geonameid":5922122,"name":"Churchill Heights","admin3":"3501011"},{"geonameid":5924201,"name":"Cloverdale","admin3":"3501030"},{"geonameid":5926157,"name":"Colquhoun","admin3":"3501020"},{"geonameid":5926753,"name":"Connaught","admin3":"3501030"},{"geonameid":5928068,"name":"Cornwall Centre","admin3":"3501011"},{"geonameid":5934155,"name":"Curry Hill","admin3":"3501005"},{"geonameid":5934671,"name":"Dalhousie Mills","admin3":"3501005"},{"geonameid":5940307,"name":"Dixon","admin3":"3501011"},{"geonameid":5941445,"name":"Dominionville","admin3":"3501050"},{"geonameid":5941849,"name":"Dornie","admin3":"3501050"},{"geonameid":5944569,"name":"Dyer","admin3":"3501042"},{"geonameid":5947996,"name":"Elma","admin3":"3501020"},{"geonameid":5951750,"name":"Fassifern","admin3":"3501050"},{"geonameid":5952722,"name":"Finch","admin3":"3501042"},{"geonameid":5953833,"name":"Fiskes Corners","admin3":"3501050"},{"geonameid":5956051,"name":"Forward","admin3":"3501030"},{"geonameid":5958385,"name":"Froatburn","admin3":"3501020"},{"geonameid":5959143,"name":"Gallingertown","admin3":"3501011"},{"geonameid":5961941,"name":"Glen Falloch","admin3":"3501005"},{"geonameid":5961963,"name":"Glen Gordon","admin3":"3501005"},{"geonameid":5962027,"name":"Glen Nevis","admin3":"3501005"},{"geonameid":5962041,"name":"Glen Norman","admin3":"3501005"},{"geonameid":5962075,"name":"Glen Robertson","admin3":"3501050"},{"geonameid":5962090,"name":"Glen Stewart","admin3":"3501020"},{"geonameid":5961845,"name":"Glenbrook","admin3":"3501005"},{"geonameid":5961897,"name":"Glendale","admin3":"3501005"},{"geonameid":5962080,"name":"Glenroy","admin3":"3501005"},{"geonameid":5962662,"name":"Goldfield","admin3":"3501042"},{"geonameid":5964955,"name":"Grantley","admin3":"3501020"},{"geonameid":5964988,"name":"Grants Corners","admin3":"3501011"},{"geonameid":5965475,"name":"Gravel Hill","admin3":"3501042"},{"geonameid":5967621,"name":"Guaytown","admin3":"3501050"},{"geonameid":5968778,"name":"Haddo","admin3":"3501020"},{"geonameid":5969032,"name":"Hainsville","admin3":"3501020"},{"geonameid":5971071,"name":"Harmony","admin3":"3501030"},{"geonameid":5971423,"name":"Harrisons Corners","admin3":"3501011"},{"geonameid":5975668,"name":"Hoasic","admin3":"3501020"},{"geonameid":5983193,"name":"Ingleside","admin3":"3501011"},{"geonameid":5983993,"name":"Iroquois","admin3":"3501020"},{"geonameid":5992814,"name":"Kirkhill","admin3":"3501050"},{"geonameid":6047932,"name":"Laggan","admin3":"3501050"},{"geonameid":6049144,"name":"Lancaster","admin3":"3501005"},{"geonameid":6054135,"name":"Limerick","admin3":"3501030"},{"geonameid":6058174,"name":"Lochiel","admin3":"3501050"},{"geonameid":6058178,"name":"Lochinvar","admin3":"3501050"},{"geonameid":6058361,"name":"Lodi","admin3":"3501042"},{"geonameid":6059800,"name":"Long Sault","admin3":"3501011"},{"geonameid":6060358,"name":"Lorne","admin3":"3501050"},{"geonameid":6062797,"name":"MacDonalds Grove","admin3":"3501042"},{"geonameid":6062954,"name":"MacGillivrays Bridge","admin3":"3501005"},{"geonameid":6065681,"name":"Maple Ridge","admin3":"3501030"},{"geonameid":6068242,"name":"Maxville","admin3":"3501050"},{"geonameid":6068980,"name":"McCormick","admin3":"3501050"},{"geonameid":6069105,"name":"McCrimmon","admin3":"3501050"},{"geonameid":6070831,"name":"McMillans Corners","admin3":"3501042"},{"geonameid":6072019,"name":"Melvin Settlement","admin3":"3501030"},{"geonameid":6076317,"name":"Monkland","admin3":"3501042"},{"geonameid":6077945,"name":"Moose Creek","admin3":"3501042"},{"geonameid":6078511,"name":"Morewood","admin3":"3501030"},{"geonameid":6078737,"name":"Morrisburg","admin3":"3501020"},{"geonameid":6084113,"name":"Mulloys","admin3":"3501030"},{"geonameid":6084295,"name":"Munroes Mills","admin3":"3501005"},{"geonameid":6085261,"name":"Muttonville","admin3":"3501020"},{"geonameid":6086263,"name":"Nation Valley","admin3":"3501030"},{"geonameid":6089488,"name":"North Branch","admin3":"3501005"},{"geonameid":6090274,"name":"North Lunenburg","admin3":"3501011"},{"geonameid":6090783,"name":"North Valley","admin3":"3501011"},{"geonameid":6091084,"name":"North Winchester","admin3":"3501030"},{"geonameid":6090005,"name":"Northfield","admin3":"3501011"},{"geonameid":6090011,"name":"Northfield Station","admin3":"3501011"},{"geonameid":6091610,"name":"Nudell Bush","admin3":"3501020"},{"geonameid":6092119,"name":"Oak Valley","admin3":"3501020"},{"geonameid":6094233,"name":"Orchardside","admin3":"3501020"},{"geonameid":6094379,"name":"Ormond","admin3":"3501030"},{"geonameid":6104179,"name":"Picnic Grove","admin3":"3501005"},{"geonameid":6104977,"name":"Pine Grove","admin3":"3501050"},{"geonameid":6104994,"name":"Pine Hill","admin3":"3501005"},{"geonameid":6106356,"name":"Pleasant Valley","admin3":"3501020"},{"geonameid":6106357,"name":"Pleasant Valley","admin3":"3501011"},{"geonameid":6119230,"name":"Reids Mills","admin3":"3501030"},{"geonameid":6122730,"name":"Riverside Heights","admin3":"3501020"},{"geonameid":6127609,"name":"Rosehaven","admin3":"3501030"},{"geonameid":6128626,"name":"Rowena","admin3":"3501020"},{"geonameid":6140295,"name":"Sandfield Mills","admin3":"3501011"},{"geonameid":6140505,"name":"Sandringham","admin3":"3501042"},{"geonameid":6140555,"name":"Sandtown","admin3":"3501011"},{"geonameid":6152326,"name":"South Lancaster","admin3":"3501005"},{"geonameid":6152405,"name":"South Mountain","admin3":"3501030"},{"geonameid":6156145,"name":"St. Elmo","admin3":"3501050"},{"geonameid":6157961,"name":"St. Raphaels","admin3":"3501005"},{"geonameid":6155088,"name":"Stampville","admin3":"3501020"},{"geonameid":6156556,"name":"Stewarts Glen","admin3":"3501050"},{"geonameid":6157885,"name":"Straders Hill","admin3":"3501020"},{"geonameid":6158022,"name":"Strathmore","admin3":"3501042"},{"geonameid":6159256,"name":"Summerstown","admin3":"3501005"},{"geonameid":6159257,"name":"Summerstown Station","admin3":"3501005"},{"geonameid":6162253,"name":"Tayside","admin3":"3501042"},{"geonameid":6163484,"name":"The Boyne","admin3":"3501030"},{"geonameid":6164406,"name":"The Ninth","admin3":"3501030"},{"geonameid":6164782,"name":"The Sixth","admin3":"3501020"},{"geonameid":6167306,"name":"Tolmies Corners","admin3":"3501042"},{"geonameid":6168226,"name":"Toyes Hill","admin3":"3501020"},{"geonameid":6171543,"name":"Tyotown","admin3":"3501005"},{"geonameid":6173215,"name":"Valleys Corners","admin3":"3501042"},{"geonameid":6173305,"name":"VanCamp","admin3":"3501030"},{"geonameid":6174404,"name":"Vinegar Hill","admin3":"3501030"},{"geonameid":6176212,"name":"Warina","admin3":"3501042"},{"geonameid":6182142,"name":"Williamsburg","admin3":"3501020"},{"geonameid":6182823,"name":"Winchester","admin3":"3501030"},{"geonameid":6182834,"name":"Winchester Springs","admin3":"3501030"}],"admin3":[{"geonameid":6089706,"name":"North Dundas","admin3":"3501030"},{"geonameid":6090054,"name":"North Glengarry","admin3":"3501050"},{"geonameid":6090688,"name":"North Stormont","admin3":"3501042"},{"geonameid":6151867,"name":"South Dundas","admin3":"3501020"},{"geonameid":6152179,"name":"South Glengarry","admin3":"3501005"},{"geonameid":6152662,"name":"South Stormont","admin3":"3501011"}],"alternateNames":[]},"__N_SSG":true}