{"pageProps":{"locale":"en","admin2":{"geonameid":4151140,"name":"Citrus County","country":"US","admin1":"FL","admin2":"017","admin3":"","latitude":"28.8475700","longitude":"-82.5201100","localeAltName":null},"admin1":{"geonameid":4155751,"name":"Florida","admin1":"FL","localeAltName":"Florida"},"locations":[{"geonameid":4147581,"name":"Beverly Hills","admin3":"","localeAltName":null},{"geonameid":4148053,"name":"Black Diamond","admin3":"","localeAltName":null},{"geonameid":4151153,"name":"Citrus Hills","admin3":"","localeAltName":null},{"geonameid":4151163,"name":"Citrus Springs","admin3":"","localeAltName":null},{"geonameid":4152487,"name":"Crystal River","admin3":"","localeAltName":null},{"geonameid":4155623,"name":"Floral City","admin3":"","localeAltName":null},{"geonameid":4158445,"name":"Hernando","admin3":"","localeAltName":null},{"geonameid":4159071,"name":"Homosassa","admin3":"","localeAltName":null},{"geonameid":4159077,"name":"Homosassa Springs","admin3":"","localeAltName":null},{"geonameid":4159786,"name":"Inverness","admin3":"","localeAltName":null},{"geonameid":7259891,"name":"Inverness Highlands North","admin3":"","localeAltName":null},{"geonameid":7259892,"name":"Inverness Highlands South","admin3":"","localeAltName":null},{"geonameid":4161733,"name":"Lecanto","admin3":"","localeAltName":null},{"geonameid":4168563,"name":"Pine Ridge","admin3":"","localeAltName":null},{"geonameid":4174252,"name":"Sugarmill Woods","admin3":"","localeAltName":null}],"admin3":[{"geonameid":7170237,"name":"City of Inverness","admin3":"7170237"},{"geonameid":7317828,"name":"City of Crystal River","admin3":"7317828"}],"alternateNames":[{"alternatenameId":2080779,"geonameid":4155751,"isoLanguage":"en","alternateName":"Florida","isPreferredName":true,"isShortName":true,"isColloquial":false,"isHistoric":false}]},"__N_SSG":true}