{"pageProps":{"locale":"en","admin2":{"geonameid":11353074,"name":"Ards and North Down","country":"GB","admin1":"NIR","admin2":"N09000011","admin3":"","latitude":"54.5343900","longitude":"-5.6294700"},"admin1":{"geonameid":2641364,"name":"Northern Ireland","admin1":"NIR"},"locations":[{"geonameid":2657173,"name":"Ardkeen"},{"geonameid":2657153,"name":"Ardmillan"},{"geonameid":2656520,"name":"Ballydrain"},{"geonameid":2656509,"name":"Ballygowan"},{"geonameid":2656465,"name":"Ballywalter"},{"geonameid":2656396,"name":"Bangor"},{"geonameid":2656338,"name":"Bar Hall"},{"geonameid":2653658,"name":"Carrowdore"},{"geonameid":2652800,"name":"Cloghy"},{"geonameid":2652505,"name":"Comber"},{"geonameid":2652452,"name":"Conlig"},{"geonameid":2652058,"name":"Crawfordsburn"},{"geonameid":2651723,"name":"Cultra"},{"geonameid":2651700,"name":"Cunningburn"},{"geonameid":2651133,"name":"Donaghadee"},{"geonameid":2650937,"name":"Drumhirk"},{"geonameid":2648558,"name":"Glastry"},{"geonameid":2647905,"name":"Greyabbey"},{"geonameid":2647842,"name":"Groomsport"},{"geonameid":2647179,"name":"Helenâ€™s Bay"},{"geonameid":2646670,"name":"Holywood"},{"geonameid":2645913,"name":"Kearney"},{"geonameid":2645628,"name":"Killinchy"},{"geonameid":2645329,"name":"Kircubbin"},{"geonameid":2645259,"name":"Kirkistown"},{"geonameid":2642511,"name":"Millisle"},{"geonameid":2641519,"name":"Newtownards"},{"geonameid":2641149,"name":"Nuns Quarter"},{"geonameid":2640084,"name":"Portaferry"},{"geonameid":2640078,"name":"Portavogie"},{"geonameid":2639349,"name":"Ringboy"},{"geonameid":8436512,"name":"Rubane"},{"geonameid":2637798,"name":"Six Road Ends"}],"admin3":[],"alternateNames":[]},"__N_SSG":true}