{"pageProps":{"locale":"it","admin2":{"geonameid":3171727,"name":"Provincia di Padova","country":"IT","admin1":"20","admin2":"PD","admin3":"","latitude":"45.3500000","longitude":"11.8166700","localeAltName":"Padova"},"admin1":{"geonameid":3164604,"name":"Veneto","admin1":"20","localeAltName":null},"locations":[{"geonameid":3183587,"name":"Abano Terme","admin3":"028001","localeAltName":null},{"geonameid":3183575,"name":"Abbazia Pisani","admin3":"028101","localeAltName":null},{"geonameid":3183434,"name":"Agna","admin3":"028002","localeAltName":null},{"geonameid":3183319,"name":"Albignasego","admin3":"028003","localeAltName":null},{"geonameid":3183060,"name":"Anguillara Veneta","admin3":"028004","localeAltName":null},{"geonameid":12188755,"name":"Arcella","admin3":"028060","localeAltName":null},{"geonameid":8949420,"name":"Arlesega","admin3":"028054","localeAltName":null},{"geonameid":3182805,"name":"Arquà Petrarca","admin3":"028005","localeAltName":null},{"geonameid":3182802,"name":"Arre","admin3":"028006","localeAltName":null},{"geonameid":3182760,"name":"Arzercavalli","admin3":"028090","localeAltName":null},{"geonameid":3219192,"name":"Arzerello","admin3":"028065","localeAltName":null},{"geonameid":3182759,"name":"Arzergrande","admin3":"028007","localeAltName":null},{"geonameid":3182513,"name":"Bagnoli di Sopra","admin3":"028008","localeAltName":null},{"geonameid":3182422,"name":"Baone","admin3":"028009","localeAltName":null},{"geonameid":8949044,"name":"Bastia","admin3":"028071","localeAltName":null},{"geonameid":3182278,"name":"Battaglia Terme","admin3":"028011","localeAltName":null},{"geonameid":8949037,"name":"Bertipaglia","admin3":"028048","localeAltName":null},{"geonameid":6535591,"name":"Boara Pisani","admin3":"028012","localeAltName":null},{"geonameid":3181762,"name":"Borgoricco-San Michele delle Badesse-Sant'Eufemia","admin3":"028013","localeAltName":null},{"geonameid":3181691,"name":"Bosco","admin3":"028072","localeAltName":null},{"geonameid":3181639,"name":"Bovolenta","admin3":"028014","localeAltName":null},{"geonameid":3181552,"name":"Bresega","admin3":"028067","localeAltName":null},{"geonameid":3181494,"name":"Brugine","admin3":"028015","localeAltName":null},{"geonameid":7302318,"name":"Ca' Onorai","admin3":"028032","localeAltName":null},{"geonameid":3181288,"name":"Cadoneghe","admin3":"028016","localeAltName":null},{"geonameid":3181273,"name":"Cagnola","admin3":"028026","localeAltName":null},{"geonameid":8950364,"name":"Camazzole","admin3":"028023","localeAltName":null},{"geonameid":3219183,"name":"Cambroso","admin3":"028033","localeAltName":null},{"geonameid":3181057,"name":"Campagnola","admin3":"028015","localeAltName":null},{"geonameid":3180919,"name":"Campo San Martino","admin3":"028020","localeAltName":null},{"geonameid":3180983,"name":"Campodarsego","admin3":"028017","localeAltName":null},{"geonameid":3180973,"name":"Campodoro","admin3":"028018","localeAltName":null},{"geonameid":3180920,"name":"Camposampiero","admin3":"028019","localeAltName":null},{"geonameid":3180866,"name":"Candiana","admin3":"028021","localeAltName":null},{"geonameid":8950318,"name":"Canton Madonna","admin3":"028073","localeAltName":null},{"geonameid":8950145,"name":"Carbonara","admin3":"028071","localeAltName":null},{"geonameid":3180554,"name":"Carceri","admin3":"028022","localeAltName":null},{"geonameid":3180493,"name":"Carmignano","admin3":"028084","localeAltName":null},{"geonameid":3180491,"name":"Carmignano di Brenta","admin3":"028023","localeAltName":null},{"geonameid":6534282,"name":"Carrara San Giorgio","admin3":"028106","localeAltName":null},{"geonameid":6535018,"name":"Cartura","admin3":"028026","localeAltName":null},{"geonameid":3180215,"name":"Casale di Scodosia","admin3":"028027","localeAltName":null},{"geonameid":3180166,"name":"Casalserugo","admin3":"028028","localeAltName":null},{"geonameid":8948775,"name":"Caselle","admin3":"028086","localeAltName":null},{"geonameid":3179741,"name":"Castelbaldo","admin3":"028029","localeAltName":null},{"geonameid":8949077,"name":"Cavino","admin3":"028075","localeAltName":null},{"geonameid":6535592,"name":"Cervarese Santa Croce","admin3":"028030","localeAltName":null},{"geonameid":3178622,"name":"Cittadella","admin3":"028032","localeAltName":null},{"geonameid":3219303,"name":"Civé","admin3":"028035","localeAltName":null},{"geonameid":3178507,"name":"Codevigo","admin3":"028033","localeAltName":null},{"geonameid":9036366,"name":"Codiverno","admin3":"028100","localeAltName":null},{"geonameid":3219340,"name":"Conche","admin3":"028033","localeAltName":null},{"geonameid":3178180,"name":"Conselve","admin3":"028034","localeAltName":null},{"geonameid":3178071,"name":"Cornegliana","admin3":"028106","localeAltName":null},{"geonameid":3178015,"name":"Correzzola","admin3":"028035","localeAltName":null},{"geonameid":3177995,"name":"Corte","admin3":"028065","localeAltName":null},{"geonameid":3177666,"name":"Curtarolo","admin3":"028036","localeAltName":null},{"geonameid":8949632,"name":"Deserto","admin3":"028037","localeAltName":null},{"geonameid":9036399,"name":"Due Carrare","admin3":"028106","localeAltName":null},{"geonameid":3177337,"name":"Este","admin3":"028037","localeAltName":null},{"geonameid":8604861,"name":"Feriole","admin3":"028089","localeAltName":null},{"geonameid":3176797,"name":"Fontaniva","admin3":"028038","localeAltName":null},{"geonameid":3176647,"name":"Fossalta","admin3":"028093","localeAltName":null},{"geonameid":3176373,"name":"Galliera Veneta","admin3":"028039","localeAltName":null},{"geonameid":3176346,"name":"Galzignano","admin3":"028040","localeAltName":null},{"geonameid":3176246,"name":"Gazzo","admin3":"028041","localeAltName":null},{"geonameid":3175885,"name":"Grantorto","admin3":"028042","localeAltName":null},{"geonameid":3175884,"name":"Granze","admin3":"028043","localeAltName":null},{"geonameid":8950076,"name":"Grossa","admin3":"028041","localeAltName":null},{"geonameid":3174920,"name":"Legnaro","admin3":"028044","localeAltName":null},{"geonameid":3174807,"name":"Levada","admin3":"028064","localeAltName":null},{"geonameid":3174718,"name":"Limena","admin3":"028045","localeAltName":null},{"geonameid":3174680,"name":"Lissaro","admin3":"028054","localeAltName":null},{"geonameid":3174577,"name":"Loreggia","admin3":"028046","localeAltName":null},{"geonameid":3174576,"name":"Loreggiola","admin3":"028046","localeAltName":null},{"geonameid":3174539,"name":"Lozzo Atestino","admin3":"028047","localeAltName":null},{"geonameid":8948769,"name":"Mandriola-Sant'Agostino","admin3":"028003","localeAltName":null},{"geonameid":3173800,"name":"Maserà di Padova","admin3":"028048","localeAltName":null},{"geonameid":6535593,"name":"Masi","admin3":"028049","localeAltName":null},{"geonameid":6534622,"name":"Massanzago-Ca' Baglioni-San Dono","admin3":"028050","localeAltName":null},{"geonameid":6534623,"name":"Megliadino San Fidenzio","admin3":"028107","localeAltName":null},{"geonameid":3173650,"name":"Megliadino San Vitale","admin3":"028052","localeAltName":null},{"geonameid":8948732,"name":"Mejaniga","admin3":"028016","localeAltName":null},{"geonameid":3173544,"name":"Merlara","admin3":"028053","localeAltName":null},{"geonameid":3173528,"name":"Mestrino","admin3":"028054","localeAltName":null},{"geonameid":3173491,"name":"Mezzavia","admin3":"028106","localeAltName":null},{"geonameid":3173124,"name":"Monselice","admin3":"028055","localeAltName":null},{"geonameid":3173110,"name":"Montagnana","admin3":"028056","localeAltName":null},{"geonameid":3172890,"name":"Montegrotto Terme","admin3":"028057","localeAltName":null},{"geonameid":6639636,"name":"Montemerlo","admin3":"028030","localeAltName":null},{"geonameid":8950093,"name":"Mussolini","admin3":"028104","localeAltName":null},{"geonameid":6534220,"name":"Noventa","admin3":"028058","localeAltName":null},{"geonameid":8949081,"name":"Oltre Brenta","admin3":"028058","localeAltName":null},{"geonameid":3171829,"name":"Ospedaletto Euganeo","admin3":"028059","localeAltName":null},{"geonameid":3171728,"name":"Padova","admin3":"028060","localeAltName":null},{"geonameid":3171199,"name":"Pernumia","admin3":"028061","localeAltName":null},{"geonameid":3171056,"name":"Piacenza d'Adige","admin3":"028062","localeAltName":null},{"geonameid":3170886,"name":"Piazzola sul Brenta","admin3":"028063","localeAltName":null},{"geonameid":8948854,"name":"Pieve","admin3":"028036","localeAltName":null},{"geonameid":3170670,"name":"Piombino Dese","admin3":"028064","localeAltName":null},{"geonameid":8948923,"name":"Pionca","admin3":"028100","localeAltName":null},{"geonameid":3170657,"name":"Piove di Sacco-Piovega","admin3":"028065","localeAltName":null},{"geonameid":8950027,"name":"Pisana","admin3":"028088","localeAltName":null},{"geonameid":3170359,"name":"Polverara","admin3":"028066","localeAltName":null},{"geonameid":3170320,"name":"Ponso","admin3":"028067","localeAltName":null},{"geonameid":3170220,"name":"Ponte San Nicolò","admin3":"028069","localeAltName":null},{"geonameid":3170250,"name":"Pontelongo","admin3":"028068","localeAltName":null},{"geonameid":3170224,"name":"Ponterotto-Giustizia","admin3":"028045","localeAltName":null},{"geonameid":3169988,"name":"Pozzonovo","admin3":"028070","localeAltName":null},{"geonameid":3169844,"name":"Presina","admin3":"028063","localeAltName":null},{"geonameid":8950213,"name":"Prisco-Sandrin Piccolo","admin3":"028099","localeAltName":null},{"geonameid":8950117,"name":"Rivadolmo","admin3":"028009","localeAltName":null},{"geonameid":3169025,"name":"Roncajette","admin3":"028069","localeAltName":null},{"geonameid":8949950,"name":"Ronchi","admin3":"028064","localeAltName":null},{"geonameid":8949401,"name":"Ronchi di Campanile","admin3":"028103","localeAltName":null},{"geonameid":3168827,"name":"Rubano","admin3":"028072","localeAltName":null},{"geonameid":8949472,"name":"Rustega","admin3":"028019","localeAltName":null},{"geonameid":3168732,"name":"Saccolongo","admin3":"028073","localeAltName":null},{"geonameid":8949103,"name":"Saletto","admin3":"028099","localeAltName":null},{"geonameid":3168665,"name":"Saletto","admin3":"028107","localeAltName":null},{"geonameid":8949030,"name":"San Biagio","admin3":"028089","localeAltName":null},{"geonameid":9036180,"name":"San Fidenzio","admin3":"028107","localeAltName":null},{"geonameid":6535594,"name":"San Giorgio delle Pertiche","admin3":"028075","localeAltName":null},{"geonameid":3168298,"name":"San Giorgio in Bosco","admin3":"028076","localeAltName":null},{"geonameid":3168297,"name":"San Giorgio in Brenta","admin3":"028038","localeAltName":null},{"geonameid":8949872,"name":"San Marco","admin3":"028096","localeAltName":null},{"geonameid":3168018,"name":"San Martino di Lupari","admin3":"028077","localeAltName":null},{"geonameid":3167821,"name":"San Pietro in Gu","admin3":"028078","localeAltName":null},{"geonameid":3167810,"name":"San Pietro Viminario","admin3":"028079","localeAltName":null},{"geonameid":8949360,"name":"San Vito","admin3":"028100","localeAltName":null},{"geonameid":3167515,"name":"Sant'Ambrogio","admin3":"028093","localeAltName":null},{"geonameid":3167448,"name":"Sant'Angelo di Piove di Sacco","admin3":"028082","localeAltName":null},{"geonameid":8950394,"name":"Sant'Anna Morosina","admin3":"028076","localeAltName":null},{"geonameid":3167345,"name":"Sant'Elena","admin3":"028083","localeAltName":null},{"geonameid":3167662,"name":"Santa Croce Bigolina","admin3":"028032","localeAltName":null},{"geonameid":3167633,"name":"Santa Giustina in Colle","admin3":"028080","localeAltName":null},{"geonameid":3167596,"name":"Santa Margherita d'Adige","admin3":"028107","localeAltName":null},{"geonameid":8948936,"name":"Santa Maria di Non","admin3":"028036","localeAltName":null},{"geonameid":6534223,"name":"Saonara","admin3":"028085","localeAltName":null},{"geonameid":3167120,"name":"Sarmeola","admin3":"028072","localeAltName":null},{"geonameid":3166766,"name":"Selvazzano Dentro","admin3":"028086","localeAltName":null},{"geonameid":3166429,"name":"Solesino","admin3":"028087","localeAltName":null},{"geonameid":3166194,"name":"Stanghella","admin3":"028088","localeAltName":null},{"geonameid":8948892,"name":"Taggì","admin3":"028103","localeAltName":null},{"geonameid":8949372,"name":"Tavo","admin3":"028099","localeAltName":null},{"geonameid":3165824,"name":"Tencarola","admin3":"028086","localeAltName":null},{"geonameid":8949334,"name":"Terradura","admin3":"028106","localeAltName":null},{"geonameid":8949958,"name":"Terraglione","admin3":"028099","localeAltName":null},{"geonameid":6534669,"name":"Terrassa Padovana","admin3":"028090","localeAltName":null},{"geonameid":3165576,"name":"Tombolo","admin3":"028091","localeAltName":null},{"geonameid":3165438,"name":"Torreglia","admin3":"028092","localeAltName":null},{"geonameid":3219042,"name":"Torreselle","admin3":"028064","localeAltName":null},{"geonameid":3165286,"name":"Trebaseleghe","admin3":"028093","localeAltName":null},{"geonameid":3165251,"name":"Tremignon","admin3":"028063","localeAltName":null},{"geonameid":3165235,"name":"Treponti","admin3":"028089","localeAltName":null},{"geonameid":3165195,"name":"Tribano","admin3":"028094","localeAltName":null},{"geonameid":6535019,"name":"Urbana","admin3":"028095","localeAltName":null},{"geonameid":8949657,"name":"Vaccarino","admin3":"028063","localeAltName":null},{"geonameid":3219185,"name":"Vallonga","admin3":"028007","localeAltName":null},{"geonameid":6544078,"name":"Valsanzibio","admin3":"028040","localeAltName":null},{"geonameid":3164647,"name":"Veggiano","admin3":"028096","localeAltName":null},{"geonameid":3164493,"name":"Vescovana","admin3":"028097","localeAltName":null},{"geonameid":6535020,"name":"Vighizzolo d'Este","admin3":"028098","localeAltName":null},{"geonameid":3164332,"name":"Vigodarzere","admin3":"028099","localeAltName":null},{"geonameid":3164318,"name":"Vigonza","admin3":"028100","localeAltName":null},{"geonameid":3164268,"name":"Villa del Bosco","admin3":"028035","localeAltName":null},{"geonameid":3164266,"name":"Villa del Conte","admin3":"028101","localeAltName":null},{"geonameid":3164252,"name":"Villa Estense","admin3":"028102","localeAltName":null},{"geonameid":6535021,"name":"Villafranca Padovana","admin3":"028103","localeAltName":null},{"geonameid":8949124,"name":"Villaguattera","admin3":"028072","localeAltName":null},{"geonameid":3164217,"name":"Villalta","admin3":"028041","localeAltName":null},{"geonameid":6534625,"name":"Villanova","admin3":"028104","localeAltName":null},{"geonameid":8948765,"name":"Villatora","admin3":"028085","localeAltName":null},{"geonameid":6534626,"name":"Vò","admin3":"028105","localeAltName":null},{"geonameid":8949822,"name":"Zeminiana","admin3":"028050","localeAltName":null}],"admin3":[{"geonameid":3172174,"name":"Noventa Padovana","admin3":"028058","localeAltName":null},{"geonameid":6536288,"name":"Rovolon","admin3":"028071","localeAltName":null},{"geonameid":6536293,"name":"Teolo","admin3":"028089","localeAltName":null},{"geonameid":6536294,"name":"San Giorgio in Bosco","admin3":"028076","localeAltName":null},{"geonameid":6536295,"name":"Santa Giustina in Colle","admin3":"028080","localeAltName":null},{"geonameid":6536296,"name":"Sant'Angelo di Piove di Sacco","admin3":"028082","localeAltName":null},{"geonameid":6536297,"name":"Trebaseleghe","admin3":"028093","localeAltName":null},{"geonameid":6536344,"name":"Cinto Euganeo","admin3":"028031"},{"geonameid":6536663,"name":"Arquà Petrarca","admin3":"028005","localeAltName":null},{"geonameid":6536664,"name":"Bagnoli di Sopra","admin3":"028008","localeAltName":null},{"geonameid":6536665,"name":"Battaglia Terme","admin3":"028011","localeAltName":null},{"geonameid":6536666,"name":"Brugine","admin3":"028015","localeAltName":null},{"geonameid":6536667,"name":"Campodoro","admin3":"028018","localeAltName":null},{"geonameid":6536668,"name":"Candiana","admin3":"028021","localeAltName":null},{"geonameid":6536669,"name":"Codevigo","admin3":"028033","localeAltName":null},{"geonameid":6536670,"name":"Conselve","admin3":"028034","localeAltName":null},{"geonameid":6536671,"name":"Correzzola","admin3":"028035","localeAltName":null},{"geonameid":6536672,"name":"Fontaniva","admin3":"028038","localeAltName":null},{"geonameid":6536673,"name":"Piacenza d'Adige","admin3":"028062","localeAltName":null},{"geonameid":6536674,"name":"Pozzonovo","admin3":"028070","localeAltName":null},{"geonameid":6536675,"name":"Tribano","admin3":"028094","localeAltName":null},{"geonameid":6536676,"name":"Vescovana","admin3":"028097","localeAltName":null},{"geonameid":6536677,"name":"Villa del Conte","admin3":"028101","localeAltName":null},{"geonameid":6536678,"name":"Villa Estense","admin3":"028102","localeAltName":null},{"geonameid":6538325,"name":"Albignasego","admin3":"028003","localeAltName":null},{"geonameid":6538326,"name":"Anguillara Veneta","admin3":"028004","localeAltName":null},{"geonameid":6538327,"name":"Arre","admin3":"028006","localeAltName":null},{"geonameid":6538328,"name":"Arzergrande","admin3":"028007","localeAltName":null},{"geonameid":6538329,"name":"Bovolenta","admin3":"028014","localeAltName":null},{"geonameid":6538330,"name":"Camposampiero","admin3":"028019","localeAltName":null},{"geonameid":6538331,"name":"Carmignano di Brenta","admin3":"028023","localeAltName":null},{"geonameid":6538332,"name":"Casale di Scodosia","admin3":"028027","localeAltName":null},{"geonameid":6538333,"name":"Castelbaldo","admin3":"028029","localeAltName":null},{"geonameid":6538334,"name":"Curtarolo","admin3":"028036","localeAltName":null},{"geonameid":6538335,"name":"Legnaro","admin3":"028044","localeAltName":null},{"geonameid":6538336,"name":"Lozzo Atestino","admin3":"028047","localeAltName":null},{"geonameid":6538337,"name":"Maserà di Padova","admin3":"028048","localeAltName":null},{"geonameid":6538338,"name":"Merlara","admin3":"028053","localeAltName":null},{"geonameid":6538339,"name":"Piazzola sul Brenta","admin3":"028063","localeAltName":null},{"geonameid":6538340,"name":"Piombino Dese","admin3":"028064","localeAltName":null},{"geonameid":6538341,"name":"Pontelongo","admin3":"028068","localeAltName":null},{"geonameid":6538342,"name":"San Martino di Lupari","admin3":"028077","localeAltName":null},{"geonameid":6538344,"name":"Stanghella","admin3":"028088","localeAltName":null},{"geonameid":6538345,"name":"Tombolo","admin3":"028091","localeAltName":null},{"geonameid":6538346,"name":"Vigodarzere","admin3":"028099","localeAltName":null},{"geonameid":6539641,"name":"Barbona","admin3":"028010"},{"geonameid":6539692,"name":"Ponso","admin3":"028067","localeAltName":null},{"geonameid":6539923,"name":"Agna","admin3":"028002","localeAltName":null},{"geonameid":6539924,"name":"Carceri","admin3":"028022","localeAltName":null},{"geonameid":6539925,"name":"Cittadella","admin3":"028032","localeAltName":null},{"geonameid":6539926,"name":"Gazzo","admin3":"028041","localeAltName":null},{"geonameid":6539927,"name":"Montagnana","admin3":"028056","localeAltName":null},{"geonameid":6539928,"name":"Piove di Sacco","admin3":"028065","localeAltName":null},{"geonameid":6540259,"name":"San Pietro Viminario","admin3":"028079","localeAltName":null},{"geonameid":6540260,"name":"Solesino","admin3":"028087","localeAltName":null},{"geonameid":6540269,"name":"Sant'Urbano","admin3":"028084","localeAltName":null},{"geonameid":6540271,"name":"Cadoneghe","admin3":"028016","localeAltName":null},{"geonameid":6540394,"name":"Baone","admin3":"028009","localeAltName":null},{"geonameid":6540395,"name":"Campo San Martino","admin3":"028020","localeAltName":null},{"geonameid":6540396,"name":"Granze","admin3":"028043","localeAltName":null},{"geonameid":6540397,"name":"Limena","admin3":"028045","localeAltName":null},{"geonameid":6540398,"name":"Mestrino","admin3":"028054","localeAltName":null},{"geonameid":6540399,"name":"Veggiano","admin3":"028096","localeAltName":null},{"geonameid":6541001,"name":"Abano Terme","admin3":"028001","localeAltName":null},{"geonameid":6541002,"name":"Casalserugo","admin3":"028028","localeAltName":null},{"geonameid":6541003,"name":"Este","admin3":"028037","localeAltName":null},{"geonameid":6541004,"name":"Grantorto","admin3":"028042","localeAltName":null},{"geonameid":6541005,"name":"Monselice","admin3":"028055","localeAltName":null},{"geonameid":6541006,"name":"Ospedaletto Euganeo","admin3":"028059","localeAltName":null},{"geonameid":6541007,"name":"Pernumia","admin3":"028061","localeAltName":null},{"geonameid":6541008,"name":"Polverara","admin3":"028066","localeAltName":null},{"geonameid":6541009,"name":"Saccolongo","admin3":"028073","localeAltName":null},{"geonameid":6541505,"name":"Borgoricco","admin3":"028013","localeAltName":null},{"geonameid":6541600,"name":"Campodarsego","admin3":"028017","localeAltName":null},{"geonameid":6541601,"name":"Rubano","admin3":"028072","localeAltName":null},{"geonameid":6541822,"name":"Galliera Veneta","admin3":"028039","localeAltName":null},{"geonameid":6541823,"name":"Loreggia","admin3":"028046","localeAltName":null},{"geonameid":6541824,"name":"Megliadino San Vitale","admin3":"028052","localeAltName":null},{"geonameid":6541825,"name":"Sant'Elena","admin3":"028083","localeAltName":null},{"geonameid":6541826,"name":"Selvazzano Dentro","admin3":"028086","localeAltName":null},{"geonameid":6542079,"name":"Montegrotto Terme","admin3":"028057","localeAltName":null},{"geonameid":6542080,"name":"Torreglia","admin3":"028092","localeAltName":null},{"geonameid":6542081,"name":"Vigonza","admin3":"028100","localeAltName":null},{"geonameid":6542133,"name":"San Pietro in Gu","admin3":"028078","localeAltName":null},{"geonameid":6542171,"name":"Galzignano Terme","admin3":"028040","localeAltName":null},{"geonameid":6542281,"name":"Padova","admin3":"028060","localeAltName":null},{"geonameid":6542290,"name":"Ponte San Nicolò","admin3":"028069","localeAltName":null},{"geonameid":6542301,"name":"Saonara","admin3":"028085","localeAltName":null},{"geonameid":6542353,"name":"Due Carrare","admin3":"028106","localeAltName":null},{"geonameid":6542670,"name":"Massanzago","admin3":"028050","localeAltName":null},{"geonameid":6542673,"name":"Villanova di Camposampiero","admin3":"028104","localeAltName":null},{"geonameid":6542674,"name":"Vo'","admin3":"028105","localeAltName":"Vo'"},{"geonameid":6542714,"name":"Terrassa Padovana","admin3":"028090","localeAltName":null},{"geonameid":6543004,"name":"Cartura","admin3":"028026","localeAltName":null},{"geonameid":6543005,"name":"Urbana","admin3":"028095","localeAltName":null},{"geonameid":6543006,"name":"Vighizzolo d'Este","admin3":"028098","localeAltName":null},{"geonameid":6543007,"name":"Villafranca Padovana","admin3":"028103","localeAltName":null},{"geonameid":6543572,"name":"Boara Pisani","admin3":"028012","localeAltName":null},{"geonameid":6543573,"name":"Cervarese Santa Croce","admin3":"028030","localeAltName":null},{"geonameid":6543574,"name":"Masi","admin3":"028049","localeAltName":null},{"geonameid":6543575,"name":"San Giorgio delle Pertiche","admin3":"028075","localeAltName":null},{"geonameid":12032198,"name":"Borgo Veneto","admin3":"028107","localeAltName":null}],"alternateNames":[{"alternatenameId":1349425,"geonameid":3171727,"isoLanguage":"it","alternateName":"Padova","isPreferredName":true,"isShortName":true,"isColloquial":false,"isHistoric":false},{"alternatenameId":2431356,"geonameid":3171727,"isoLanguage":"de","alternateName":"Padua","isPreferredName":true,"isShortName":true,"isColloquial":false,"isHistoric":false},{"alternatenameId":2431358,"geonameid":3171727,"isoLanguage":"en","alternateName":"Padua","isPreferredName":true,"isShortName":true,"isColloquial":false,"isHistoric":false},{"alternatenameId":7481426,"geonameid":6542674,"isoLanguage":"it","alternateName":"Vo'","isPreferredName":true,"isShortName":true,"isColloquial":false,"isHistoric":false}]},"__N_SSG":true}