{"pageProps":{"locale":"en","admin2":{"geonameid":4116263,"name":"Jackson County","country":"US","admin1":"AR","admin2":"067","admin3":"","latitude":"35.5992300","longitude":"-91.2145700","localeAltName":null},"admin1":{"geonameid":4099753,"name":"Arkansas","admin1":"AR","localeAltName":"Arkansas"},"locations":[{"geonameid":4108184,"name":"Diaz","admin3":"93696","localeAltName":null},{"geonameid":4123830,"name":"Newport","admin3":"93696","localeAltName":null},{"geonameid":4133024,"name":"Swifton","admin3":"91470","localeAltName":null},{"geonameid":4133971,"name":"Tuckerman","admin3":"90315","localeAltName":null}],"admin3":[{"geonameid":4100429,"name":"Township of Barren","admin3":"90126"},{"geonameid":4100508,"name":"Township of Bateman","admin3":"90147"},{"geonameid":4101959,"name":"Township of Bird","admin3":"90315","localeAltName":null},{"geonameid":4102915,"name":"Township of Breckenridge","admin3":"90459"},{"geonameid":4103445,"name":"Township of Bryan","admin3":"90516"},{"geonameid":4103979,"name":"Township of Cache","admin3":"90579"},{"geonameid":4106902,"name":"Township of Cow Lake","admin3":"90948"},{"geonameid":4112388,"name":"Township of Glaize","admin3":"91467"},{"geonameid":4112390,"name":"Township of Glass","admin3":"91470","localeAltName":null},{"geonameid":4113268,"name":"Township of Grubbs","admin3":"91554"},{"geonameid":4116455,"name":"Township of Jefferson","admin3":"91929"},{"geonameid":4128368,"name":"Township of Richwoods","admin3":"93165"},{"geonameid":4134456,"name":"Township of Union","admin3":"93696","localeAltName":null},{"geonameid":4134851,"name":"Township of Village","admin3":"93804"}],"alternateNames":[{"alternatenameId":1979420,"geonameid":4099753,"isoLanguage":"en","alternateName":"Arkansas","isPreferredName":true,"isShortName":true,"isColloquial":false,"isHistoric":false}]},"__N_SSG":true}