{"pageProps":{"locale":"en","admin2":{"geonameid":4127846,"name":"Randolph County","country":"US","admin1":"AR","admin2":"121","admin3":"","latitude":"36.3414800","longitude":"-91.0277200","localeAltName":null},"admin1":{"geonameid":4099753,"name":"Arkansas","admin1":"AR","localeAltName":"Arkansas"},"locations":[{"geonameid":4126923,"name":"Pocahontas","admin3":"91059","localeAltName":null}],"admin3":[{"geonameid":4100144,"name":"Township of Baker","admin3":"90093"},{"geonameid":4103063,"name":"Township of Bristow","admin3":"90486"},{"geonameid":4103871,"name":"Township of Butler","admin3":"90564"},{"geonameid":4106349,"name":"Township of Columbia","admin3":"90909"},{"geonameid":4107417,"name":"Township of Current River","admin3":"90990"},{"geonameid":4108028,"name":"Township of Demun","admin3":"91059","localeAltName":null},{"geonameid":4109838,"name":"Township of Eleven Point","admin3":"91221"},{"geonameid":4111469,"name":"Township of Foster","admin3":"91323"},{"geonameid":4115918,"name":"Township of Ingram","admin3":"91833"},{"geonameid":4116307,"name":"Township of Jackson","admin3":"91878"},{"geonameid":4116385,"name":"Township of Janes Creek","admin3":"91899"},{"geonameid":4119109,"name":"Township of Little Black","admin3":"92220"},{"geonameid":4124306,"name":"Township of O'Kean","admin3":"92742"},{"geonameid":4128261,"name":"Township of Reyno","admin3":"93117"},{"geonameid":4128324,"name":"Township of Richardson","admin3":"93126"},{"geonameid":4129342,"name":"Township of Running Lake","admin3":"93255"},{"geonameid":4130962,"name":"Township of Shiloh","admin3":"93363"},{"geonameid":4131127,"name":"Township of Siloam","admin3":"93378"},{"geonameid":4132073,"name":"Township of Spring River","admin3":"93480"},{"geonameid":4134464,"name":"Township of Union","admin3":"93720"},{"geonameid":4135338,"name":"Township of Warm Springs","admin3":"93891"},{"geonameid":4135445,"name":"Township of Water Valley","admin3":"93948"},{"geonameid":4136511,"name":"Township of Wiley","admin3":"94059"},{"geonameid":7172164,"name":"Township of Dalton","admin3":"91012"},{"geonameid":7172168,"name":"Township of East Roanoke","admin3":"91204"},{"geonameid":7172612,"name":"Township of West Roanoke","admin3":"93974"}],"alternateNames":[{"alternatenameId":1979420,"geonameid":4099753,"isoLanguage":"en","alternateName":"Arkansas","isPreferredName":true,"isShortName":true,"isColloquial":false,"isHistoric":false}]},"__N_SSG":true}