{"pageProps":{"locale":"it","admin2":{"geonameid":3165071,"name":"Udine","country":"IT","admin1":"06","admin2":"UD","admin3":"","latitude":"46.1640800","longitude":"13.1779400","localeAltName":"Udine"},"admin1":{"geonameid":3176525,"name":"Friuli Venezia Giulia","admin1":"06","localeAltName":"Friuli Venezia Giulia"},"locations":[{"geonameid":3183389,"name":"Aiello del Friuli","admin3":"030001","localeAltName":null},{"geonameid":3183296,"name":"Alesso","admin3":"030124","localeAltName":null},{"geonameid":3183127,"name":"Amaro","admin3":"030002","localeAltName":null},{"geonameid":3183105,"name":"Ampezzo","admin3":"030003","localeAltName":null},{"geonameid":3182943,"name":"Aquileia","admin3":"030004","localeAltName":null},{"geonameid":3182783,"name":"Arta Terme","admin3":"030005","localeAltName":null},{"geonameid":3182782,"name":"Artegna","admin3":"030006","localeAltName":null},{"geonameid":3182692,"name":"Attimis","admin3":"030007","localeAltName":null},{"geonameid":3217574,"name":"Bagnaria Arsa","admin3":"030008","localeAltName":null},{"geonameid":3219982,"name":"Basaldella","admin3":"030016","localeAltName":null},{"geonameid":3182308,"name":"Basiliano","admin3":"030009","localeAltName":null},{"geonameid":3220008,"name":"Basiliano-Vissandone","admin3":"030009","localeAltName":null},{"geonameid":3182132,"name":"Bertiolo","admin3":"030010","localeAltName":null},{"geonameid":3217642,"name":"Biauzzo","admin3":"030027","localeAltName":null},{"geonameid":3182054,"name":"Bicinicco","admin3":"030011","localeAltName":null},{"geonameid":3181982,"name":"Blessano","admin3":"030009","localeAltName":null},{"geonameid":3220087,"name":"Bordano","admin3":"030012","localeAltName":null},{"geonameid":3181595,"name":"Brazzacco","admin3":"030063","localeAltName":null},{"geonameid":3220009,"name":"Bressa","admin3":"030016","localeAltName":null},{"geonameid":8950242,"name":"Bueriis","admin3":"030052","localeAltName":null},{"geonameid":3181424,"name":"Buia","admin3":"030013","localeAltName":null},{"geonameid":3181345,"name":"Buttrio","admin3":"030014","localeAltName":null},{"geonameid":3217644,"name":"Camino al Tagliamento","admin3":"030015","localeAltName":null},{"geonameid":3219989,"name":"Campeglio","admin3":"030036","localeAltName":null},{"geonameid":3180971,"name":"Campoformido","admin3":"030016","localeAltName":null},{"geonameid":3180952,"name":"Campolongo al Torre","admin3":"030138","localeAltName":null},{"geonameid":3343593,"name":"Campolongo al Torre-Cavenzano","admin3":"030138","localeAltName":null},{"geonameid":3180925,"name":"Camporosso in Valcanale","admin3":"030117","localeAltName":null},{"geonameid":3220126,"name":"Caneva di Tolmezzo","admin3":"030121","localeAltName":null},{"geonameid":3180672,"name":"Caporiacco","admin3":"030028","localeAltName":null},{"geonameid":3219977,"name":"Cargnacco","admin3":"030079","localeAltName":null},{"geonameid":3180498,"name":"Carlino","admin3":"030018","localeAltName":null},{"geonameid":3180459,"name":"Carpacco","admin3":"030032","localeAltName":null},{"geonameid":3180448,"name":"Carpeneto","admin3":"030079","localeAltName":null},{"geonameid":8949909,"name":"Casale della Madonna","admin3":"030018","localeAltName":null},{"geonameid":8950308,"name":"Casanova","admin3":"030057","localeAltName":null},{"geonameid":3179800,"name":"Cassacco","admin3":"030019","localeAltName":null},{"geonameid":3179388,"name":"Castions delle Mura","admin3":"030008","localeAltName":null},{"geonameid":3179387,"name":"Castions di Strada","admin3":"030020","localeAltName":null},{"geonameid":3179290,"name":"Cavazzo Carnico","admin3":"030021","localeAltName":null},{"geonameid":3219193,"name":"Cercivento","admin3":"030022","localeAltName":null},{"geonameid":3219972,"name":"Cerneglons","admin3":"030091","localeAltName":null},{"geonameid":3178992,"name":"Cervignano del Friuli","admin3":"030023","localeAltName":null},{"geonameid":3178633,"name":"Cisterna","admin3":"030031","localeAltName":null},{"geonameid":3178605,"name":"Cividale del Friuli","admin3":"030026","localeAltName":null},{"geonameid":3178496,"name":"Codroipo","admin3":"030027","localeAltName":null},{"geonameid":3220030,"name":"Colloredo di Monte Albano","admin3":"030028","localeAltName":null},{"geonameid":3220042,"name":"Colloredo di Monte Albano-Lauzzana","admin3":"030028","localeAltName":null},{"geonameid":3178298,"name":"Colloredo di Prato","admin3":"030072","localeAltName":null},{"geonameid":3220017,"name":"Colugna","admin3":"030118","localeAltName":null},{"geonameid":3178046,"name":"Corno di Rosazzo","admin3":"030030","localeAltName":null},{"geonameid":3177927,"name":"Coseano","admin3":"030031","localeAltName":null},{"geonameid":3177584,"name":"Dignano","admin3":"030032","localeAltName":null},{"geonameid":3177548,"name":"Dolegnano","admin3":"030101","localeAltName":null},{"geonameid":3177392,"name":"Enemonzo-Quinis","admin3":"030035","localeAltName":null},{"geonameid":3177305,"name":"Faedis","admin3":"030036","localeAltName":null},{"geonameid":3177292,"name":"Fagagna","admin3":"030037","localeAltName":null},{"geonameid":3177128,"name":"Felettis","admin3":"030011","localeAltName":null},{"geonameid":6534636,"name":"Fiumicello","admin3":"030190","localeAltName":null},{"geonameid":3176917,"name":"Flaibano","admin3":"030039","localeAltName":null},{"geonameid":3220184,"name":"Forgaria nel Friuli","admin3":"030137","localeAltName":null},{"geonameid":3176697,"name":"Forni di Sopra","admin3":"030041","localeAltName":null},{"geonameid":3176696,"name":"Forni di Sotto","admin3":"030042","localeAltName":null},{"geonameid":3176386,"name":"Galleriano","admin3":"030048","localeAltName":null},{"geonameid":3176234,"name":"Gemona","admin3":"030043","localeAltName":null},{"geonameid":3176003,"name":"Gonars","admin3":"030044","localeAltName":null},{"geonameid":3217614,"name":"Gorgo","admin3":"030046","localeAltName":null},{"geonameid":3220321,"name":"Gradisca","admin3":"030109","localeAltName":null},{"geonameid":3219289,"name":"Granvilla","admin3":"030189","localeAltName":null},{"geonameid":3175659,"name":"Ialmicco","admin3":"030070","localeAltName":null},{"geonameid":3175477,"name":"Ipplis","admin3":"030083","localeAltName":null},{"geonameid":3175055,"name":"Latisana","admin3":"030046","localeAltName":null},{"geonameid":3175025,"name":"Lauzacco","admin3":"030074","localeAltName":null},{"geonameid":3175013,"name":"Lavariano","admin3":"030062","localeAltName":null},{"geonameid":3174824,"name":"Lestizza","admin3":"030048","localeAltName":null},{"geonameid":3174729,"name":"Lignano Sabbiadoro","admin3":"030049","localeAltName":null},{"geonameid":3217504,"name":"Lumignacco","admin3":"030074","localeAltName":null},{"geonameid":3220280,"name":"Madrisio","admin3":"030037","localeAltName":null},{"geonameid":3174245,"name":"Magnano in Riviera","admin3":"030052","localeAltName":null},{"geonameid":6535597,"name":"Majano","admin3":"030053","localeAltName":null},{"geonameid":3174045,"name":"Manzano","admin3":"030055","localeAltName":null},{"geonameid":3174017,"name":"Marano Lagunare","admin3":"030056","localeAltName":null},{"geonameid":3173845,"name":"Martignacco","admin3":"030057","localeAltName":null},{"geonameid":3173663,"name":"Medeuzza","admin3":"030101","localeAltName":null},{"geonameid":3173601,"name":"Mels","admin3":"030028","localeAltName":null},{"geonameid":3173552,"name":"Mereto di Tomba","admin3":"030058","localeAltName":null},{"geonameid":8949321,"name":"Moggio di Sotto","admin3":"030059","localeAltName":null},{"geonameid":3173318,"name":"Moggio Udinese","admin3":"030059","localeAltName":null},{"geonameid":3173307,"name":"Moimacco","admin3":"030060","localeAltName":null},{"geonameid":3220057,"name":"Montenars","admin3":"030061","localeAltName":null},{"geonameid":3172555,"name":"Mortegliano","admin3":"030062","localeAltName":null},{"geonameid":3172542,"name":"Moruzzo","admin3":"030063","localeAltName":null},{"geonameid":3220190,"name":"Muris","admin3":"030087","localeAltName":null},{"geonameid":3172406,"name":"Muzzana del Turgnano","admin3":"030064","localeAltName":null},{"geonameid":3172293,"name":"Nespoledo-Villacaccia","admin3":"030048","localeAltName":null},{"geonameid":3172259,"name":"Nimis","admin3":"030065","localeAltName":null},{"geonameid":3172233,"name":"Nogaredo di Prato","admin3":"030057","localeAltName":null},{"geonameid":3219967,"name":"Orsaria","admin3":"030083","localeAltName":null},{"geonameid":3171870,"name":"Orzano","admin3":"030091","localeAltName":null},{"geonameid":3171842,"name":"Osoppo","admin3":"030066","localeAltName":null},{"geonameid":3171770,"name":"Ovaro","admin3":"030067","localeAltName":null},{"geonameid":3220022,"name":"Pagnacco","admin3":"030068","localeAltName":null},{"geonameid":3171625,"name":"Palazzolo dello Stella","admin3":"030069","localeAltName":null},{"geonameid":3171573,"name":"Palmanova","admin3":"030070","localeAltName":null},{"geonameid":3171541,"name":"Paluzza","admin3":"030071","localeAltName":null},{"geonameid":3171503,"name":"Pantianicco","admin3":"030058","localeAltName":null},{"geonameid":3217464,"name":"Papariano","admin3":"030190","localeAltName":null},{"geonameid":3171432,"name":"Pasian di Prato","admin3":"030072","localeAltName":null},{"geonameid":3220012,"name":"Passons","admin3":"030072","localeAltName":null},{"geonameid":3171372,"name":"Paularo","admin3":"030073","localeAltName":null},{"geonameid":3217502,"name":"Pavia di Udine","admin3":"030074","localeAltName":null},{"geonameid":3171223,"name":"Percoto","admin3":"030074","localeAltName":null},{"geonameid":3217612,"name":"Pertegada","admin3":"030046","localeAltName":null},{"geonameid":3217426,"name":"Perteole","admin3":"030098","localeAltName":null},{"geonameid":3170568,"name":"Plasencis","admin3":"030058","localeAltName":null},{"geonameid":3170546,"name":"Pocenia","admin3":"030075","localeAltName":null},{"geonameid":3170297,"name":"Pontebba","admin3":"030076","localeAltName":null},{"geonameid":3170136,"name":"Porpetto","admin3":"030077","localeAltName":null},{"geonameid":3170016,"name":"Povoletto","admin3":"030078","localeAltName":null},{"geonameid":3343601,"name":"Pozzecco","admin3":"030010","localeAltName":null},{"geonameid":3169981,"name":"Pozzuolo del Friuli","admin3":"030079","localeAltName":null},{"geonameid":3219973,"name":"Pradamano","admin3":"030080","localeAltName":null},{"geonameid":3169913,"name":"Prato Carnico","admin3":"030081","localeAltName":null},{"geonameid":3169883,"name":"Precenicco","admin3":"030082","localeAltName":null},{"geonameid":3169862,"name":"Premariacco","admin3":"030083","localeAltName":null},{"geonameid":3219999,"name":"Primulacco","admin3":"030078","localeAltName":null},{"geonameid":3169723,"name":"Qualso","admin3":"030090","localeAltName":null},{"geonameid":3219996,"name":"Ravosa-Magredis","admin3":"030078","localeAltName":null},{"geonameid":3219998,"name":"Reana del Roiale","admin3":"030127","localeAltName":null},{"geonameid":6534641,"name":"Reana del Rojale","admin3":"030090","localeAltName":null},{"geonameid":3169502,"name":"Remanzacco","admin3":"030091","localeAltName":null},{"geonameid":3169288,"name":"Risano","admin3":"030074","localeAltName":null},{"geonameid":3169249,"name":"Rivarotta","admin3":"030188","localeAltName":null},{"geonameid":3169246,"name":"Rive d'Arcano","admin3":"030095","localeAltName":null},{"geonameid":3169238,"name":"Rivignano","admin3":"030188","localeAltName":null},{"geonameid":3174606,"name":"Rivolto-Lonca","admin3":"030027","localeAltName":null},{"geonameid":3169097,"name":"Rodeano","admin3":"030095","localeAltName":null},{"geonameid":3169054,"name":"Romans","admin3":"030130","localeAltName":null},{"geonameid":3169014,"name":"Ronchis","admin3":"030097","localeAltName":null},{"geonameid":3217430,"name":"Ruda","admin3":"030098","localeAltName":null},{"geonameid":3168584,"name":"Sammardenchia","admin3":"030079","localeAltName":null},{"geonameid":3168438,"name":"San Daniele del Friuli","admin3":"030099","localeAltName":null},{"geonameid":3220192,"name":"San Giacomo","admin3":"030087","localeAltName":null},{"geonameid":3168302,"name":"San Giorgio di Nogaro","admin3":"030100","localeAltName":null},{"geonameid":3168259,"name":"San Giovanni al Natisone","admin3":"030101","localeAltName":null},{"geonameid":3168124,"name":"San Lorenzo","admin3":"030109","localeAltName":null},{"geonameid":3167837,"name":"San Pietro al Natisone","admin3":"030103","localeAltName":null},{"geonameid":3167223,"name":"San Valentino","admin3":"030190","localeAltName":null},{"geonameid":3217440,"name":"San Vito al Torre","admin3":"030105","localeAltName":null},{"geonameid":3167181,"name":"San Vito di Fagagna","admin3":"030106","localeAltName":null},{"geonameid":3167541,"name":"Santa Maria","admin3":"030048","localeAltName":null},{"geonameid":3167530,"name":"Santa Maria la Longa","admin3":"030104","localeAltName":null},{"geonameid":3167153,"name":"Sappada","admin3":"030189","localeAltName":null},{"geonameid":3167018,"name":"Savorgnano del Torre","admin3":"030078","localeAltName":null},{"geonameid":3166897,"name":"Sclaunicco","admin3":"030048","localeAltName":null},{"geonameid":3166827,"name":"Sedegliano","admin3":"030109","localeAltName":null},{"geonameid":3217435,"name":"Sevegliano","admin3":"030008","localeAltName":null},{"geonameid":3220043,"name":"Silvella","admin3":"030106","localeAltName":null},{"geonameid":3343596,"name":"Sottoselva","admin3":"030070","localeAltName":null},{"geonameid":3217427,"name":"Strassoldo","admin3":"030023","localeAltName":null},{"geonameid":3219195,"name":"Sutrio","admin3":"030112","localeAltName":null},{"geonameid":3165959,"name":"Talmassons","admin3":"030114","localeAltName":null},{"geonameid":3165923,"name":"Tarcento","admin3":"030116","localeAltName":null},{"geonameid":3165912,"name":"Tarvisio","admin3":"030117","localeAltName":null},{"geonameid":3165896,"name":"Tavagnacco","admin3":"030118","localeAltName":null},{"geonameid":3165808,"name":"Teor","admin3":"030188","localeAltName":null},{"geonameid":3217462,"name":"Terzo d'Aquileia","admin3":"030120","localeAltName":null},{"geonameid":3165584,"name":"Tolmezzo","admin3":"030121","localeAltName":null},{"geonameid":3165474,"name":"Torreano","admin3":"030122","localeAltName":null},{"geonameid":3165376,"name":"Torsa","admin3":"030075","localeAltName":null},{"geonameid":3165363,"name":"Torviscosa","admin3":"030123","localeAltName":null},{"geonameid":6535598,"name":"Treppo Carnico","admin3":"030191","localeAltName":null},{"geonameid":3165234,"name":"Treppo Grande","admin3":"030126","localeAltName":null},{"geonameid":3165189,"name":"Tricesimo","admin3":"030127","localeAltName":null},{"geonameid":3165151,"name":"Trivignano Udinese","admin3":"030128","localeAltName":null},{"geonameid":3165072,"name":"Udine","admin3":"030129","localeAltName":null},{"geonameid":3220007,"name":"Variano","admin3":"030009","localeAltName":null},{"geonameid":3164692,"name":"Varmo","admin3":"030130","localeAltName":null},{"geonameid":3164611,"name":"Vendoglio-Carvacco","admin3":"030126","localeAltName":null},{"geonameid":3164570,"name":"Venzone","admin3":"030131","localeAltName":null},{"geonameid":3164131,"name":"Villa Santina","admin3":"030133","localeAltName":null},{"geonameid":3164111,"name":"Villa Vicentina","admin3":"030190","localeAltName":null},{"geonameid":3164187,"name":"Villanova","admin3":"030099","localeAltName":null},{"geonameid":3217400,"name":"Villanova","admin3":"030101","localeAltName":null},{"geonameid":3164171,"name":"Villaorba","admin3":"030009","localeAltName":null},{"geonameid":3217433,"name":"Visco","admin3":"030135","localeAltName":null},{"geonameid":3163862,"name":"Ziracco","admin3":"030091","localeAltName":null},{"geonameid":3165794,"name":"Zugliano-Terenzano-Cargnacco","admin3":"030079","localeAltName":null}],"admin3":[{"geonameid":3166464,"name":"Socchieve","admin3":"030110"},{"geonameid":6535946,"name":"Chiopris-Viscone","admin3":"030024"},{"geonameid":6536246,"name":"Enemonzo","admin3":"030035","localeAltName":null},{"geonameid":6536247,"name":"Malborghetto Valbruna","admin3":"030054"},{"geonameid":6536249,"name":"Moggio Udinese","admin3":"030059","localeAltName":null},{"geonameid":6536250,"name":"Montenars","admin3":"030061","localeAltName":null},{"geonameid":6536251,"name":"Prato Carnico","admin3":"030081","localeAltName":null},{"geonameid":6536252,"name":"Ragogna","admin3":"030087","localeAltName":null},{"geonameid":6536298,"name":"Drenchia","admin3":"030034"},{"geonameid":6536299,"name":"Aiello del Friuli","admin3":"030001","localeAltName":null},{"geonameid":6536300,"name":"Attimis","admin3":"030007","localeAltName":null},{"geonameid":6536301,"name":"Bertiolo","admin3":"030010","localeAltName":null},{"geonameid":6536302,"name":"Bordano","admin3":"030012","localeAltName":null},{"geonameid":6536303,"name":"Buttrio","admin3":"030014","localeAltName":null},{"geonameid":6536304,"name":"Camino al Tagliamento","admin3":"030015","localeAltName":null},{"geonameid":6536305,"name":"Carlino","admin3":"030018","localeAltName":null},{"geonameid":6536306,"name":"Cavazzo Carnico","admin3":"030021","localeAltName":null},{"geonameid":6536307,"name":"Chiusaforte","admin3":"030025"},{"geonameid":6536308,"name":"Codroipo","admin3":"030027","localeAltName":null},{"geonameid":6536309,"name":"Comeglians","admin3":"030029"},{"geonameid":6536310,"name":"Corno di Rosazzo","admin3":"030030","localeAltName":null},{"geonameid":6536311,"name":"Dignano","admin3":"030032","localeAltName":null},{"geonameid":6536312,"name":"Gonars","admin3":"030044","localeAltName":null},{"geonameid":6536313,"name":"Paluzza","admin3":"030071","localeAltName":null},{"geonameid":6536314,"name":"Paularo","admin3":"030073","localeAltName":null},{"geonameid":6536315,"name":"Pocenia","admin3":"030075","localeAltName":null},{"geonameid":6536316,"name":"Povoletto","admin3":"030078","localeAltName":null},{"geonameid":6536317,"name":"Pozzuolo del Friuli","admin3":"030079","localeAltName":null},{"geonameid":6536318,"name":"Pradamano","admin3":"030080","localeAltName":null},{"geonameid":6536319,"name":"Preone","admin3":"030084"},{"geonameid":6536320,"name":"Pulfero","admin3":"030086"},{"geonameid":6536321,"name":"Remanzacco","admin3":"030091","localeAltName":null},{"geonameid":6536322,"name":"Resiutta","admin3":"030093"},{"geonameid":6536323,"name":"Rigolato","admin3":"030094"},{"geonameid":6536342,"name":"Lusevera","admin3":"030051"},{"geonameid":6536687,"name":"Mereto di Tomba","admin3":"030058","localeAltName":null},{"geonameid":6536688,"name":"Palmanova","admin3":"030070","localeAltName":null},{"geonameid":6536690,"name":"Santa Maria la Longa","admin3":"030104","localeAltName":null},{"geonameid":6536691,"name":"San Vito al Torre","admin3":"030105","localeAltName":null},{"geonameid":6536692,"name":"Stregna","admin3":"030111"},{"geonameid":6536693,"name":"Talmassons","admin3":"030114","localeAltName":null},{"geonameid":6536694,"name":"Tarcento","admin3":"030116","localeAltName":null},{"geonameid":6536695,"name":"Trivignano Udinese","admin3":"030128","localeAltName":null},{"geonameid":6536696,"name":"Venzone","admin3":"030131","localeAltName":null},{"geonameid":6538360,"name":"Amaro","admin3":"030002","localeAltName":null},{"geonameid":6538361,"name":"Arta Terme","admin3":"030005","localeAltName":null},{"geonameid":6538362,"name":"Campoformido","admin3":"030016","localeAltName":null},{"geonameid":6538363,"name":"Cervignano del Friuli","admin3":"030023","localeAltName":null},{"geonameid":6538364,"name":"Cividale del Friuli","admin3":"030026","localeAltName":null},{"geonameid":6538365,"name":"Coseano","admin3":"030031","localeAltName":null},{"geonameid":6538366,"name":"Faedis","admin3":"030036","localeAltName":null},{"geonameid":6538367,"name":"Flaibano","admin3":"030039","localeAltName":null},{"geonameid":6538368,"name":"Forni di Sopra","admin3":"030041","localeAltName":null},{"geonameid":6538369,"name":"Forni di Sotto","admin3":"030042","localeAltName":null},{"geonameid":6538370,"name":"Lauco","admin3":"030047"},{"geonameid":6538371,"name":"Lestizza","admin3":"030048","localeAltName":null},{"geonameid":6538373,"name":"Marano Lagunare","admin3":"030056","localeAltName":null},{"geonameid":6538374,"name":"Martignacco","admin3":"030057","localeAltName":null},{"geonameid":6538375,"name":"Moimacco","admin3":"030060","localeAltName":null},{"geonameid":6538376,"name":"Mortegliano","admin3":"030062","localeAltName":null},{"geonameid":6538377,"name":"Moruzzo","admin3":"030063","localeAltName":null},{"geonameid":6538378,"name":"Muzzana del Turgnano","admin3":"030064","localeAltName":null},{"geonameid":6538379,"name":"Ovaro","admin3":"030067","localeAltName":null},{"geonameid":6538380,"name":"Pagnacco","admin3":"030068","localeAltName":null},{"geonameid":6538381,"name":"Palazzolo dello Stella","admin3":"030069","localeAltName":null},{"geonameid":6538382,"name":"Pasian di Prato","admin3":"030072","localeAltName":null},{"geonameid":6538383,"name":"Pontebba","admin3":"030076","localeAltName":null},{"geonameid":6538384,"name":"Porpetto","admin3":"030077","localeAltName":null},{"geonameid":6538385,"name":"Precenicco","admin3":"030082","localeAltName":null},{"geonameid":6538386,"name":"Premariacco","admin3":"030083","localeAltName":null},{"geonameid":6538387,"name":"Ravascletto","admin3":"030088"},{"geonameid":6538388,"name":"Raveo","admin3":"030089"},{"geonameid":6538389,"name":"Rive d'Arcano","admin3":"030095","localeAltName":null},{"geonameid":6538390,"name":"Ruda","admin3":"030098","localeAltName":null},{"geonameid":6538391,"name":"San Daniele del Friuli","admin3":"030099","localeAltName":null},{"geonameid":6538392,"name":"San Giorgio di Nogaro","admin3":"030100","localeAltName":null},{"geonameid":6538393,"name":"San Giovanni al Natisone","admin3":"030101","localeAltName":null},{"geonameid":6538394,"name":"Sutrio","admin3":"030112","localeAltName":null},{"geonameid":6538395,"name":"Taipana","admin3":"030113"},{"geonameid":6538397,"name":"Torviscosa","admin3":"030123","localeAltName":null},{"geonameid":6538398,"name":"Trasaghis","admin3":"030124","localeAltName":null},{"geonameid":6538399,"name":"Villa Santina","admin3":"030133","localeAltName":null},{"geonameid":6538401,"name":"Visco","admin3":"030135","localeAltName":null},{"geonameid":6538402,"name":"Zuglio","admin3":"030136"},{"geonameid":6539645,"name":"Ampezzo","admin3":"030003","localeAltName":null},{"geonameid":6539646,"name":"Cercivento","admin3":"030022","localeAltName":null},{"geonameid":6539647,"name":"Dogna","admin3":"030033"},{"geonameid":6539648,"name":"Pavia di Udine","admin3":"030074","localeAltName":null},{"geonameid":6539649,"name":"Ronchis","admin3":"030097","localeAltName":null},{"geonameid":6539695,"name":"Osoppo","admin3":"030066","localeAltName":null},{"geonameid":6539696,"name":"Savogna","admin3":"030108"},{"geonameid":6539697,"name":"Sedegliano","admin3":"030109","localeAltName":null},{"geonameid":6539698,"name":"Torreano","admin3":"030122","localeAltName":null},{"geonameid":6539699,"name":"Varmo","admin3":"030130","localeAltName":null},{"geonameid":6539930,"name":"Aquileia","admin3":"030004","localeAltName":null},{"geonameid":6539931,"name":"Bicinicco","admin3":"030011","localeAltName":null},{"geonameid":6539932,"name":"Fagagna","admin3":"030037","localeAltName":null},{"geonameid":6539933,"name":"Forni Avoltri","admin3":"030040"},{"geonameid":6539934,"name":"Latisana","admin3":"030046","localeAltName":null},{"geonameid":6539935,"name":"Manzano","admin3":"030055","localeAltName":null},{"geonameid":6539936,"name":"Prepotto","admin3":"030085"},{"geonameid":6539937,"name":"Tarvisio","admin3":"030117","localeAltName":null},{"geonameid":6540119,"name":"Udine","admin3":"030129","localeAltName":null},{"geonameid":6540130,"name":"San Leonardo","admin3":"030102"},{"geonameid":6540233,"name":"Gemona del Friuli","admin3":"030043","localeAltName":null},{"geonameid":6540234,"name":"Grimacco","admin3":"030045"},{"geonameid":6540404,"name":"Nimis","admin3":"030065","localeAltName":null},{"geonameid":6540405,"name":"Tolmezzo","admin3":"030121","localeAltName":null},{"geonameid":6541017,"name":"Magnano in Riviera","admin3":"030052","localeAltName":null},{"geonameid":6541018,"name":"San Pietro al Natisone","admin3":"030103","localeAltName":null},{"geonameid":6541019,"name":"Treppo Grande","admin3":"030126","localeAltName":null},{"geonameid":6541507,"name":"Sauris","admin3":"030107"},{"geonameid":6541602,"name":"San Vito di Fagagna","admin3":"030106","localeAltName":null},{"geonameid":6541603,"name":"Tricesimo","admin3":"030127","localeAltName":null},{"geonameid":6542020,"name":"Basiliano","admin3":"030009","localeAltName":null},{"geonameid":6542024,"name":"Cassacco","admin3":"030019","localeAltName":null},{"geonameid":6542026,"name":"Tavagnacco","admin3":"030118","localeAltName":null},{"geonameid":6542082,"name":"Artegna","admin3":"030006","localeAltName":null},{"geonameid":6542083,"name":"Lignano Sabbiadoro","admin3":"030049","localeAltName":null},{"geonameid":6542144,"name":"Castions di Strada","admin3":"030020","localeAltName":null},{"geonameid":6542175,"name":"Colloredo di Monte Albano","admin3":"030028","localeAltName":null},{"geonameid":6542179,"name":"Bagnaria Arsa","admin3":"030008","localeAltName":null},{"geonameid":6542209,"name":"Terzo d'Aquileia","admin3":"030120","localeAltName":null},{"geonameid":6542250,"name":"Forgaria nel Friuli","admin3":"030137","localeAltName":null},{"geonameid":6542682,"name":"Buja","admin3":"030013","localeAltName":null},{"geonameid":6542688,"name":"Reana del Rojale","admin3":"030090","localeAltName":null},{"geonameid":6542689,"name":"Resia","admin3":"030092"},{"geonameid":6542697,"name":"Verzegnis","admin3":"030132"},{"geonameid":6543578,"name":"Majano","admin3":"030053","localeAltName":null},{"geonameid":7669366,"name":"Campolongo Tapogliano","admin3":"030138","localeAltName":null},{"geonameid":8658899,"name":"Rivignano Teor","admin3":"030188","localeAltName":null},{"geonameid":12032163,"name":"Sappada","admin3":"030189","localeAltName":null},{"geonameid":12032187,"name":"Fiumicello Villa Vicentina","admin3":"030190","localeAltName":null},{"geonameid":12032190,"name":"Treppo Ligosullo","admin3":"030191","localeAltName":null}],"alternateNames":[{"alternatenameId":1347384,"geonameid":3165071,"isoLanguage":"it","alternateName":"Udine","isPreferredName":true,"isShortName":true,"isColloquial":false,"isHistoric":false},{"alternatenameId":1351012,"geonameid":3176525,"isoLanguage":"it","alternateName":"Friuli Venezia Giulia","isPreferredName":true,"isShortName":true,"isColloquial":false,"isHistoric":false}]},"__N_SSG":true}