{"pageProps":{"locale":"en","admin2":{"geonameid":2749682,"name":"Gemeente Oirschot","country":"NL","admin1":"06","admin2":"0823","admin3":"","latitude":"51.4906200","longitude":"5.2895900"},"admin1":{"geonameid":2749990,"name":"Provincie Noord-Brabant","admin1":"06"},"locations":[{"geonameid":2758942,"name":"Bijsterveld","admin3":""},{"geonameid":2758526,"name":"Boterwijk","admin3":""},{"geonameid":2757813,"name":"De Baest","admin3":""},{"geonameid":2757044,"name":"De Stad","admin3":""},{"geonameid":2756601,"name":"Driehoek","admin3":""},{"geonameid":2756489,"name":"Dun","admin3":""},{"geonameid":2755979,"name":"Evenheuvel","admin3":""},{"geonameid":6544849,"name":"Groene Woud","admin3":""},{"geonameid":2754720,"name":"Hedel","admin3":""},{"geonameid":2753753,"name":"Hoogeind","admin3":""},{"geonameid":2753396,"name":"Huygevoort","admin3":""},{"geonameid":2753023,"name":"Kattenberg","admin3":""},{"geonameid":2752173,"name":"Kuikseind","admin3":""},{"geonameid":6544842,"name":"Lieveld","admin3":""},{"geonameid":2751407,"name":"Lubberstraat","admin3":""},{"geonameid":2750903,"name":"Middelbeers","admin3":""},{"geonameid":2750714,"name":"Moleneind","admin3":""},{"geonameid":2749788,"name":"Notel","admin3":""},{"geonameid":2749683,"name":"Oirschot","admin3":""},{"geonameid":11746903,"name":"Oost West en Middelbeers","admin3":""},{"geonameid":2749513,"name":"Oostelbeers","admin3":""},{"geonameid":6544828,"name":"Pandgat","admin3":""},{"geonameid":6544836,"name":"Polsdonken","admin3":""},{"geonameid":2747052,"name":"Snepseind","admin3":""},{"geonameid":2746907,"name":"Spoordonk","admin3":""},{"geonameid":2746626,"name":"Straten","admin3":""},{"geonameid":2746365,"name":"Theetuin","admin3":""},{"geonameid":2746168,"name":"Tregelaar","admin3":""},{"geonameid":2745272,"name":"Voorteind","admin3":""},{"geonameid":2744782,"name":"Westelbeers","admin3":""}],"admin3":[],"alternateNames":[{"alternatenameId":11907788,"geonameid":2749990,"isoLanguage":"de","alternateName":"Nordbrabant","isPreferredName":true,"isShortName":true,"isColloquial":false,"isHistoric":false}]},"__N_SSG":true}