{"pageProps":{"locale":"en","admin2":{"geonameid":2759553,"name":"Gemeente Baarle-Nassau","country":"NL","admin1":"06","admin2":"0744","admin3":"","latitude":"51.4354400","longitude":"4.9118000"},"admin1":{"geonameid":2749990,"name":"Provincie Noord-Brabant","admin1":"06"},"locations":[{"geonameid":2759554,"name":"Baarle-Nassau","admin3":""},{"geonameid":2759552,"name":"Baarle-Nassau-grens","admin3":""},{"geonameid":2759555,"name":"Boschhoven","admin3":""},{"geonameid":2757996,"name":"Castelr√©","admin3":""},{"geonameid":2756596,"name":"Driehuizen","admin3":""},{"geonameid":2756279,"name":"Eikelenbosch","admin3":""},{"geonameid":2755543,"name":"Ghil","admin3":""},{"geonameid":2755430,"name":"Gorpeind","admin3":""},{"geonameid":2755237,"name":"Groot-Bedaf","admin3":""},{"geonameid":2754730,"name":"Hazenberg","admin3":""},{"geonameid":2754636,"name":"Heesboom","admin3":""},{"geonameid":2749557,"name":"Heikant","admin3":""},{"geonameid":2754544,"name":"Heikant","admin3":""},{"geonameid":6544865,"name":"Het Goordonk","admin3":""},{"geonameid":2753787,"name":"Hoogbraak","admin3":""},{"geonameid":2753756,"name":"Hoogeind","admin3":""},{"geonameid":2752974,"name":"Keizershoek","admin3":""},{"geonameid":2752787,"name":"Klein-Bedaf","admin3":""},{"geonameid":2751647,"name":"Liefkenshoek","admin3":""},{"geonameid":2792052,"name":"Loveren","admin3":""},{"geonameid":2751411,"name":"Loveren","admin3":""},{"geonameid":2751336,"name":"Maaijkant","admin3":""},{"geonameid":2750236,"name":"Nieuwe Strumpt","admin3":""},{"geonameid":2750069,"name":"Nijhoven","admin3":""},{"geonameid":2749558,"name":"Oordeelse Straat","admin3":""},{"geonameid":2748997,"name":"Oude Strumpt","admin3":""},{"geonameid":2748222,"name":"Reth","admin3":""},{"geonameid":2748212,"name":"Reuth","admin3":""},{"geonameid":2747695,"name":"Schaluinen","admin3":""},{"geonameid":2746221,"name":"Tommel","admin3":""},{"geonameid":2745949,"name":"Ulicoten","admin3":""},{"geonameid":2745721,"name":"Veldbraak","admin3":""},{"geonameid":2745241,"name":"Voske","admin3":""}],"admin3":[],"alternateNames":[{"alternatenameId":11907788,"geonameid":2749990,"isoLanguage":"de","alternateName":"Nordbrabant","isPreferredName":true,"isShortName":true,"isColloquial":false,"isHistoric":false}]},"__N_SSG":true}