{"pageProps":{"locale":"en","admin2":{"geonameid":6544232,"name":"Gemeente Geldrop-Mierlo","country":"NL","admin1":"06","admin2":"1771","admin3":"","latitude":"51.4337200","longitude":"5.5992600"},"admin1":{"geonameid":2749990,"name":"Provincie Noord-Brabant","admin1":"06"},"locations":[{"geonameid":2759929,"name":"Akert","admin3":""},{"geonameid":2759326,"name":"Beekweide","admin3":""},{"geonameid":2759263,"name":"Bekelaar","admin3":""},{"geonameid":2759169,"name":"Berenbroek","admin3":""},{"geonameid":2758449,"name":"Braakhuizen","admin3":""},{"geonameid":2758416,"name":"Brand","admin3":""},{"geonameid":2758408,"name":"Brandevoort","admin3":""},{"geonameid":2757938,"name":"Coevering","admin3":""},{"geonameid":2757326,"name":"De Loo","admin3":""},{"geonameid":2756881,"name":"Diepenbroek","admin3":""},{"geonameid":2755619,"name":"Geldrop","admin3":""},{"geonameid":2755581,"name":"Genoenhuis","admin3":""},{"geonameid":2755508,"name":"Gijzenrooi","admin3":""},{"geonameid":2755450,"name":"Goor","admin3":""},{"geonameid":2754575,"name":"Heiderschoor","admin3":""},{"geonameid":2754295,"name":"Het Broek","admin3":""},{"geonameid":2753699,"name":"Hoog Geldrop","admin3":""},{"geonameid":2753567,"name":"Hout","admin3":""},{"geonameid":2753438,"name":"Hulst","admin3":""},{"geonameid":2752857,"name":"Kievit","admin3":""},{"geonameid":2752301,"name":"Kranenbroek","admin3":""},{"geonameid":2751512,"name":"Loeswijk","admin3":""},{"geonameid":2751403,"name":"Luchen","admin3":""},{"geonameid":2751070,"name":"Medevoort","admin3":""},{"geonameid":2750821,"name":"Mierlo","admin3":""},{"geonameid":2748870,"name":"Overakker","admin3":""},{"geonameid":2747425,"name":"Schutsboom","admin3":""},{"geonameid":2746735,"name":"Stepekolk","admin3":""},{"geonameid":2746156,"name":"Trimpert","admin3":""},{"geonameid":2745269,"name":"Voortje","admin3":""},{"geonameid":2743956,"name":"Zesgehuchten","admin3":""}],"admin3":[],"alternateNames":[{"alternatenameId":11907788,"geonameid":2749990,"isoLanguage":"de","alternateName":"Nordbrabant","isPreferredName":true,"isShortName":true,"isColloquial":false,"isHistoric":false}]},"__N_SSG":true}