{"pageProps":{"locale":"en","admin2":{"geonameid":3333245,"name":"Neath Port Talbot","country":"GB","admin1":"WLS","admin2":"Y5","admin3":"","latitude":"51.6666700","longitude":"-3.7500000"},"admin1":{"geonameid":2634895,"name":"Wales","admin1":"WLS"},"locations":[{"geonameid":2657826,"name":"Aberdulais"},{"geonameid":2657807,"name":"Abergwynfi"},{"geonameid":2657458,"name":"Alltwen"},{"geonameid":6692309,"name":"Baglan"},{"geonameid":3345326,"name":"Blaengwrach"},{"geonameid":3345325,"name":"Blaengwynfi"},{"geonameid":2654668,"name":"Briton Ferry"},{"geonameid":2654449,"name":"Bryn"},{"geonameid":2654447,"name":"Brynamman"},{"geonameid":2652999,"name":"Cilybebyll"},{"geonameid":3345277,"name":"Croeserw"},{"geonameid":2651795,"name":"Crynant"},{"geonameid":2651656,"name":"Cwmafan"},{"geonameid":2651637,"name":"Cymmer"},{"geonameid":2650595,"name":"Duffryn"},{"geonameid":2648385,"name":"Glyn-neath"},{"geonameid":2648390,"name":"Glyncorrwg"},{"geonameid":11126098,"name":"Jersey Marine"},{"geonameid":2644159,"name":"Llandarcy"},{"geonameid":2644024,"name":"Llangiwg"},{"geonameid":2643048,"name":"Margam"},{"geonameid":2641843,"name":"Neath"},{"geonameid":2640959,"name":"Onllwyn"},{"geonameid":2640135,"name":"Pontardawe"},{"geonameid":2640118,"name":"Pontrhydyfen"},{"geonameid":2639989,"name":"Port Talbot"},{"geonameid":2639482,"name":"Resolven"},{"geonameid":2638185,"name":"Seven Sisters"},{"geonameid":2637720,"name":"Skewen"},{"geonameid":2636323,"name":"Taibach"},{"geonameid":2633337,"name":"Ystalyfera"}],"admin3":[{"geonameid":7291109,"name":"Tai-Bach","admin3":"00NZ029"},{"geonameid":7291137,"name":"Seven Sisters","admin3":"00NZ028"},{"geonameid":7292963,"name":"Baglan","admin3":"00NZ002"},{"geonameid":7292967,"name":"Bryn","admin3":"00NZ007"},{"geonameid":7292968,"name":"Clyne and Melincourt","admin3":"00NZ009"},{"geonameid":7292969,"name":"Dyffryn Clydach","admin3":"00NZ014"},{"geonameid":7292970,"name":"Glyncorrwg","admin3":"00NZ015"},{"geonameid":7292971,"name":"Margam","admin3":"00NZ018"},{"geonameid":7292972,"name":"Pelenna","admin3":"00NZ022"},{"geonameid":7294315,"name":"Aberavon","admin3":"00NZ001"},{"geonameid":7294317,"name":"Cwmavon","admin3":"00NZ012"},{"geonameid":7294318,"name":"Pontardawe","admin3":"00NZ023"},{"geonameid":7294319,"name":"Resolven","admin3":"00NZ025"},{"geonameid":7294321,"name":"Sandfields East","admin3":"00NZ026"},{"geonameid":7294332,"name":"Port Talbot","admin3":"00NZ024"},{"geonameid":7296375,"name":"Ystalyfera","admin3":"00NZ031"},{"geonameid":7297561,"name":"Cwmllynfell","admin3":"00NZ013"},{"geonameid":7297562,"name":"Gwaun-Cae-Gurwen","admin3":"00NZ017"},{"geonameid":7297939,"name":"Sandfields West","admin3":"00NZ027"},{"geonameid":7298355,"name":"Baglan Bay","admin3":"00NZ003"},{"geonameid":7298868,"name":"Coedffranc","admin3":"00NZ010"},{"geonameid":7298869,"name":"Margam Moors","admin3":"00NZ019"},{"geonameid":7299856,"name":"Blaengwrach","admin3":"00NZ004"},{"geonameid":7299857,"name":"Blaenhonddan","admin3":"00NZ005"},{"geonameid":7299858,"name":"Briton Ferry","admin3":"00NZ006"},{"geonameid":7299859,"name":"Cilybebyll","admin3":"00NZ008"},{"geonameid":7299860,"name":"Crynant","admin3":"00NZ011"},{"geonameid":7299861,"name":"Glynneath","admin3":"00NZ016"},{"geonameid":7299862,"name":"Onllwyn","admin3":"00NZ021"},{"geonameid":7299864,"name":"Tonna","admin3":"00NZ030"},{"geonameid":7299867,"name":"Neath","admin3":"00NZ020"}],"alternateNames":[]},"__N_SSG":true}