{"pageProps":{"locale":"en","admin2":{"geonameid":2651292,"name":"Devon","country":"GB","admin1":"ENG","admin2":"D4","admin3":"","latitude":"50.7500000","longitude":"-3.7500000","localeAltName":"Devon"},"admin1":{"geonameid":6269131,"name":"England","admin1":"ENG","localeAltName":"England"},"locations":[{"geonameid":2657871,"name":"Abbots Bickington"},{"geonameid":2657866,"name":"Abbotsham"},{"geonameid":2657864,"name":"Abbotskerswell"},{"geonameid":2657436,"name":"Alphington"},{"geonameid":2657233,"name":"Appledore"},{"geonameid":2657069,"name":"Arlington"},{"geonameid":2656977,"name":"Ashburton"},{"geonameid":2656976,"name":"Ashbury"},{"geonameid":2656956,"name":"Ashford"},{"geonameid":10377783,"name":"Ashley"},{"geonameid":2656926,"name":"Ashreigney"},{"geonameid":2656925,"name":"Ashsprington"},{"geonameid":2656923,"name":"Ashton"},{"geonameid":2656912,"name":"Ashwater"},{"geonameid":2656849,"name":"Atherington"},{"geonameid":2656755,"name":"Aveton Gifford"},{"geonameid":2656725,"name":"Axminster"},{"geonameid":2656724,"name":"Axmouth"},{"geonameid":2656720,"name":"Aylesbeare"},{"geonameid":2656422,"name":"Bampton"},{"geonameid":11887939,"name":"Bantham"},{"geonameid":6951011,"name":"Barbrook"},{"geonameid":2656281,"name":"Barnstaple"},{"geonameid":2656116,"name":"Beaford"},{"geonameid":2656071,"name":"Beaworthy"},{"geonameid":2656018,"name":"Beer"},{"geonameid":10244119,"name":"Bellever"},{"geonameid":2655938,"name":"Belstone"},{"geonameid":10377345,"name":"Benton"},{"geonameid":2655864,"name":"Bere Alston"},{"geonameid":2655833,"name":"Berry Pomeroy"},{"geonameid":2655834,"name":"Berrynarbor"},{"geonameid":2655723,"name":"Bickington"},{"geonameid":11594835,"name":"Bickleigh"},{"geonameid":2655722,"name":"Bickleigh"},{"geonameid":2655707,"name":"Bideford"},{"geonameid":2655697,"name":"Bigbury on Sea"},{"geonameid":11593096,"name":"Bishop's Tawton"},{"geonameid":2655563,"name":"Bishops Nympton"},{"geonameid":2655559,"name":"Bishops Tawton"},{"geonameid":2655558,"name":"Bishopsteignton"},{"geonameid":2655540,"name":"Bittadon"},{"geonameid":2655439,"name":"Black Torrington"},{"geonameid":2655528,"name":"Blackawton"},{"geonameid":2655408,"name":"Blagberry"},{"geonameid":7303906,"name":"Bolberry Down"},{"geonameid":2655247,"name":"Bolham"},{"geonameid":2655081,"name":"Bovey Tracey"},{"geonameid":2655077,"name":"Bow"},{"geonameid":2654979,"name":"Bradninch"},{"geonameid":2654976,"name":"Bradstone"},{"geonameid":2654971,"name":"Bradworthy"},{"geonameid":2654920,"name":"Brampford Speke"},{"geonameid":2654886,"name":"Branscombe"},{"geonameid":2654865,"name":"Bratton Clovelly"},{"geonameid":2654864,"name":"Bratton Fleming"},{"geonameid":2654858,"name":"Braunton"},{"geonameid":10377346,"name":"Brayford"},{"geonameid":10100363,"name":"Brendon Village"},{"geonameid":2654785,"name":"Brentor"},{"geonameid":2654762,"name":"Bridestowe"},{"geonameid":2654761,"name":"Bridford"},{"geonameid":10100343,"name":"Bridge Ball"},{"geonameid":2654735,"name":"Bridgerule"},{"geonameid":2654662,"name":"Brixton"},{"geonameid":2654654,"name":"Broad Clyst"},{"geonameid":2654649,"name":"Broadhembury"},{"geonameid":2654648,"name":"Broadhempston"},{"geonameid":2654621,"name":"Broadwoodkelly"},{"geonameid":2654620,"name":"Broadwoodwidger"},{"geonameid":2654485,"name":"Brownston"},{"geonameid":12095343,"name":"Buck's Cross"},{"geonameid":2654416,"name":"Buckfastleigh"},{"geonameid":2654402,"name":"Buckland Brewer"},{"geonameid":2654400,"name":"Buckland in the Moor"},{"geonameid":2654399,"name":"Buckland Monachorum"},{"geonameid":2654376,"name":"Budleigh Salterton"},{"geonameid":2654354,"name":"Bulkworthy"},{"geonameid":2654288,"name":"Burlescombe"},{"geonameid":2654235,"name":"Burrington"},{"geonameid":2654158,"name":"Butterleigh"},{"geonameid":2654117,"name":"Cadbury"},{"geonameid":2654113,"name":"Cadeleigh"},{"geonameid":2653408,"name":"Chagford"},{"geonameid":2653390,"name":"Challacombe"},{"geonameid":2653355,"name":"Chapelton"},{"geonameid":2653344,"name":"Chardstock"},{"geonameid":2653336,"name":"Charles"},{"geonameid":2653294,"name":"Chawleigh"},{"geonameid":10100344,"name":"Cheriton"},{"geonameid":2653247,"name":"Cheriton Bishop"},{"geonameid":2653246,"name":"Cheriton Fitzpaine"},{"geonameid":2653166,"name":"Chillaton"},{"geonameid":2653118,"name":"Chittlehamholt"},{"geonameid":2653117,"name":"Chittlehampton"},{"geonameid":2653115,"name":"Chivenor"},{"geonameid":2653066,"name":"Christow"},{"geonameid":2653056,"name":"Chudleigh"},{"geonameid":2653055,"name":"Chudleigh Knighton"},{"geonameid":2653051,"name":"Chulmleigh"},{"geonameid":2653023,"name":"Churchstow"},{"geonameid":2652916,"name":"Clawton"},{"geonameid":2652776,"name":"Clovelly"},{"geonameid":2652720,"name":"Clyst Honiton"},{"geonameid":2652719,"name":"Clyst Hydon"},{"geonameid":2652718,"name":"Clyst Saint Lawrence"},{"geonameid":2652717,"name":"Clyst St Mary"},{"geonameid":2652645,"name":"Coffinswell"},{"geonameid":2652621,"name":"Colaton Raleigh"},{"geonameid":2652603,"name":"Coldridge"},{"geonameid":2652595,"name":"Colebrooke"},{"geonameid":10377784,"name":"Collipriest"},{"geonameid":2652512,"name":"Colyford"},{"geonameid":2652511,"name":"Colyton"},{"geonameid":2652508,"name":"Combe Martin"},{"geonameid":2652500,"name":"Combpyne"},{"geonameid":2652424,"name":"Cookbury"},{"geonameid":2652390,"name":"Copplestone"},{"geonameid":2652352,"name":"Cornwood"},{"geonameid":2652351,"name":"Cornworthy"},{"geonameid":2652301,"name":"Coryton"},{"geonameid":2652277,"name":"Cotleigh"},{"geonameid":2652240,"name":"Countess Wear"},{"geonameid":2652237,"name":"Countisbury"},{"geonameid":2652034,"name":"Crediton"},{"geonameid":8714318,"name":"Crockernwell"},{"geonameid":2651837,"name":"Crownhill"},{"geonameid":2651818,"name":"Croyde"},{"geonameid":6697721,"name":"Croyde Bay"},{"geonameid":2651739,"name":"Cullompton"},{"geonameid":2651731,"name":"Culmstock"},{"geonameid":2651542,"name":"Dalwood"},{"geonameid":2651514,"name":"Dartington"},{"geonameid":2651498,"name":"Dartmouth"},{"geonameid":2651474,"name":"Dawlish"},{"geonameid":2651467,"name":"Dean"},{"geonameid":2651462,"name":"Dean Prior"},{"geonameid":2651384,"name":"Denbury"},{"geonameid":2651371,"name":"Dennington"},{"geonameid":2651225,"name":"Diptford"},{"geonameid":2651206,"name":"Dittisham"},{"geonameid":2651177,"name":"Doddiscombsleigh"},{"geonameid":2651146,"name":"Dolton"},{"geonameid":2651056,"name":"Dousland"},{"geonameid":11072010,"name":"Drakeland Corner"},{"geonameid":2650992,"name":"Drewsteignton"},{"geonameid":2650713,"name":"Dunkeswell"},{"geonameid":2650664,"name":"Dunsford"},{"geonameid":2650647,"name":"Dunterton"},{"geonameid":2650513,"name":"East Allington"},{"geonameid":2650510,"name":"East Anstey"},{"geonameid":2650494,"name":"East Buckland"},{"geonameid":2650493,"name":"East Budleigh"},{"geonameid":2650469,"name":"East Down"},{"geonameid":10100339,"name":"East Lyn"},{"geonameid":2650353,"name":"East Portlemouth"},{"geonameid":2634292,"name":"East Prawle"},{"geonameid":2650351,"name":"East Putford"},{"geonameid":2650304,"name":"East Worlington"},{"geonameid":9538977,"name":"East-The-Water"},{"geonameid":11550098,"name":"Eastleigh"},{"geonameid":2650193,"name":"Eggbuckland"},{"geonameid":2650192,"name":"Eggesford"},{"geonameid":2649932,"name":"Ermington"},{"geonameid":2649814,"name":"Exbourne"},{"geonameid":2649808,"name":"Exeter"},{"geonameid":2649803,"name":"Exminster"},{"geonameid":2649800,"name":"Exmouth"},{"geonameid":2649734,"name":"Fairmile"},{"geonameid":11592749,"name":"Feniton"},{"geonameid":2649456,"name":"Filleigh"},{"geonameid":8063452,"name":"Folly Gate"},{"geonameid":2649076,"name":"Fremington"},{"geonameid":2649039,"name":"Frithelstock"},{"geonameid":2648910,"name":"Galmpton"},{"geonameid":2648719,"name":"George Nympton"},{"geonameid":2648721,"name":"Georgeham"},{"geonameid":2648716,"name":"Germansweek"},{"geonameid":2648684,"name":"Gidleigh"},{"geonameid":2648619,"name":"Gittisham"},{"geonameid":2648332,"name":"Goodleigh"},{"geonameid":2648004,"name":"Great Torrington"},{"geonameid":9538976,"name":"Greenville Ridge"},{"geonameid":2647647,"name":"Halberton"},{"geonameid":2647591,"name":"Halwell"},{"geonameid":2647590,"name":"Halwill"},{"geonameid":11593291,"name":"Halwill Junction"},{"geonameid":9538975,"name":"Handy Cross"},{"geonameid":2647510,"name":"Harberton"},{"geonameid":2647480,"name":"Harford"},{"geonameid":2647403,"name":"Hartland"},{"geonameid":2647341,"name":"Hatherleigh"},{"geonameid":2647295,"name":"Hawkchurch"},{"geonameid":11126123,"name":"Hawley Bottom"},{"geonameid":8436366,"name":"Haytor"},{"geonameid":6691884,"name":"Heavitree"},{"geonameid":2647180,"name":"Hele"},{"geonameid":2647137,"name":"Hemerdon"},{"geonameid":2647119,"name":"Hemyock"},{"geonameid":2647096,"name":"Hennock"},{"geonameid":2646980,"name":"High Bickington"},{"geonameid":2646978,"name":"High Bray"},{"geonameid":2646983,"name":"Highampton"},{"geonameid":2646919,"name":"Highweek"},{"geonameid":10100340,"name":"Hillsford"},{"geonameid":2646825,"name":"Hittisleigh"},{"geonameid":2646811,"name":"Hockworthy"},{"geonameid":2646782,"name":"Holbeton"},{"geonameid":2646773,"name":"Holcombe Burnell"},{"geonameid":9973420,"name":"Holcombe Burnell Barton"},{"geonameid":2646772,"name":"Holcombe Rogus"},{"geonameid":2646755,"name":"Hollacombe"},{"geonameid":2646705,"name":"Holne"},{"geonameid":2646704,"name":"Holsworthy"},{"geonameid":2646658,"name":"Honiton"},{"geonameid":2646642,"name":"Hope Cove"},{"geonameid":2646578,"name":"Horrabridge"},{"geonameid":2646440,"name":"Humber"},{"geonameid":11072016,"name":"Hunsdon"},{"geonameid":2646379,"name":"Huntsham"},{"geonameid":12188585,"name":"Huntshaw"},{"geonameid":6324522,"name":"Huxham"},{"geonameid":2646298,"name":"Iddesleigh"},{"geonameid":2646297,"name":"Ide"},{"geonameid":2646296,"name":"Ideford"},{"geonameid":2646276,"name":"Ilfracombe"},{"geonameid":2646264,"name":"Ilsington"},{"geonameid":7303908,"name":"Inner Hope"},{"geonameid":2646151,"name":"Instow"},{"geonameid":2646062,"name":"Ipplepen"},{"geonameid":2645988,"name":"Ivybridge"},{"geonameid":2645978,"name":"Jacobstowe"},{"geonameid":2645859,"name":"Kelly"},{"geonameid":2645811,"name":"Kennerleigh"},{"geonameid":6693513,"name":"Kennford"},{"geonameid":2645794,"name":"Kentisbeare"},{"geonameid":2645793,"name":"Kentisbury"},{"geonameid":2645789,"name":"Kenton"},{"geonameid":2645592,"name":"Kilmington"},{"geonameid":2645449,"name":"Kings Nympton"},{"geonameid":2645486,"name":"Kingsbridge"},{"geonameid":2645464,"name":"Kingskerswell"},{"geonameid":2645442,"name":"Kingsteignton"},{"geonameid":2645440,"name":"Kingston"},{"geonameid":2645421,"name":"Kingswear"},{"geonameid":2645095,"name":"Knowstone"},{"geonameid":2644988,"name":"Lamerton"},{"geonameid":11592616,"name":"Landkey"},{"geonameid":2644898,"name":"Langtree"},{"geonameid":2644872,"name":"Lapford"},{"geonameid":2644699,"name":"Lee"},{"geonameid":6693637,"name":"Lee Mill"},{"geonameid":11072013,"name":"Lee Mill Bridge"},{"geonameid":11072014,"name":"Lee Mill Industrial Estate"},{"geonameid":11072007,"name":"Lee Moor"},{"geonameid":6620448,"name":"Lewdown"},{"geonameid":2644550,"name":"Lewtrenchard"},{"geonameid":2644516,"name":"Lifton"},{"geonameid":2644233,"name":"Little Torrington"},{"geonameid":2644321,"name":"Littleham"},{"geonameid":2643784,"name":"Loddiswell"},{"geonameid":2643698,"name":"Longdown"},{"geonameid":2643466,"name":"Loxbear"},{"geonameid":2643465,"name":"Loxhore"},{"geonameid":2643439,"name":"Ludbrook"},{"geonameid":2643421,"name":"Luffincott"},{"geonameid":2643364,"name":"Luppitt"},{"geonameid":2643344,"name":"Lustleigh"},{"geonameid":2643340,"name":"Luton"},{"geonameid":2643325,"name":"Lydford"},{"geonameid":2643306,"name":"Lympstone"},{"geonameid":2643291,"name":"Lynmouth"},{"geonameid":2643285,"name":"Lynton"},{"geonameid":2643164,"name":"Malborough"},{"geonameid":2643126,"name":"Manaton"},{"geonameid":2643038,"name":"Mariansleigh"},{"geonameid":2643009,"name":"Marldon"},{"geonameid":2642953,"name":"Martinhoe"},{"geonameid":2642934,"name":"Marwood"},{"geonameid":7288350,"name":"Mary Tavy"},{"geonameid":2642926,"name":"Marystow"},{"geonameid":2642925,"name":"Marytavy"},{"geonameid":2642839,"name":"Meavy"},{"geonameid":2642826,"name":"Meeth"},{"geonameid":6955245,"name":"Meldon"},{"geonameid":2642756,"name":"Membury"},{"geonameid":2642721,"name":"Merrivale"},{"geonameid":2642719,"name":"Merryfield"},{"geonameid":2642704,"name":"Merton"},{"geonameid":2642699,"name":"Meshaw"},{"geonameid":2642538,"name":"Milford"},{"geonameid":2642471,"name":"Milton Abbot"},{"geonameid":2642468,"name":"Milton Damerel"},{"geonameid":2642395,"name":"Modbury"},{"geonameid":2642366,"name":"Molland"},{"geonameid":2642333,"name":"Monkleigh"},{"geonameid":2642331,"name":"Monkokehampton"},{"geonameid":2642320,"name":"Monkton"},{"geonameid":2642237,"name":"Morchard Bishop"},{"geonameid":2642217,"name":"Morebath"},{"geonameid":2642209,"name":"Moreleigh"},{"geonameid":2642201,"name":"Moretonhampstead"},{"geonameid":2642174,"name":"Mortehoe"},{"geonameid":2641944,"name":"Musbury"},{"geonameid":2641557,"name":"Newton Abbot"},{"geonameid":2641552,"name":"Newton Ferrers"},{"geonameid":2641536,"name":"Newton Poppleford"},{"geonameid":2641531,"name":"Newton Saint Petrock"},{"geonameid":2641532,"name":"Newton St Cyres"},{"geonameid":2641414,"name":"North Bovey"},{"geonameid":6947733,"name":"North Hessary Tor"},{"geonameid":2641333,"name":"North Huish"},{"geonameid":2641302,"name":"North Molton"},{"geonameid":2641245,"name":"North Tawton"},{"geonameid":2641434,"name":"Northam"},{"geonameid":2641387,"name":"Northcott"},{"geonameid":2641316,"name":"Northleigh"},{"geonameid":2641313,"name":"Northlew"},{"geonameid":2641129,"name":"Oakford"},{"geonameid":2641065,"name":"Offwell"},{"geonameid":2641049,"name":"Okehampton"},{"geonameid":3345361,"name":"Oldways End"},{"geonameid":2640837,"name":"Otterton"},{"geonameid":2640834,"name":"Ottery St Mary"},{"geonameid":7303907,"name":"Outer Hope"},{"geonameid":2640660,"name":"Pancrasweek"},{"geonameid":2640608,"name":"Parkham"},{"geonameid":2640598,"name":"Parracombe"},{"geonameid":2640551,"name":"Payhembury"},{"geonameid":2640430,"name":"Pennymoor"},{"geonameid":2640346,"name":"Peters Marland"},{"geonameid":2640341,"name":"Petertavy"},{"geonameid":2640339,"name":"Petrockstow"},{"geonameid":2640283,"name":"Pilton"},{"geonameid":2640277,"name":"Pinhoe"},{"geonameid":2640192,"name":"Plympton"},{"geonameid":2640189,"name":"Plymtree"},{"geonameid":2640147,"name":"Poltimore"},{"geonameid":2639982,"name":"Postbridge"},{"geonameid":2639960,"name":"Poughill"},{"geonameid":2639951,"name":"Powderham"},{"geonameid":2639885,"name":"Princetown"},{"geonameid":2639869,"name":"Puddington"},{"geonameid":2639817,"name":"Pyworthy"},{"geonameid":2639737,"name":"Rackenford"},{"geonameid":2639609,"name":"Rattery"},{"geonameid":7910363,"name":"Raymond's Hill"},{"geonameid":6324523,"name":"Rewe"},{"geonameid":2639278,"name":"Roborough"},{"geonameid":2639259,"name":"Rockbeare"},{"geonameid":2639195,"name":"Romansleigh"},{"geonameid":2639152,"name":"Rose Ash"},{"geonameid":2639056,"name":"Rousdon"},{"geonameid":10794260,"name":"Rumleigh"},{"geonameid":2638839,"name":"Saint Budeaux"},{"geonameid":2638791,"name":"Saint Giles on the Heath"},{"geonameid":2638682,"name":"Salcombe"},{"geonameid":2638680,"name":"Salcombe Regis"},{"geonameid":2638618,"name":"Sampford Courtenay"},{"geonameid":2638617,"name":"Sampford Peverell"},{"geonameid":2638616,"name":"Sampford Spiney"},{"geonameid":2638594,"name":"Sandford"},{"geonameid":2638564,"name":"Sandquay"},{"geonameid":2638497,"name":"Satterleigh"},{"geonameid":2638278,"name":"Seaton"},{"geonameid":8521328,"name":"Shaldon"},{"geonameid":2638115,"name":"Shaugh Prior"},{"geonameid":2638099,"name":"Shebbear"},{"geonameid":2638085,"name":"Sheepstor"},{"geonameid":2638084,"name":"Sheepwash"},{"geonameid":3345362,"name":"Shillingford"},{"geonameid":2637931,"name":"Shirwell"},{"geonameid":2637875,"name":"Shute"},{"geonameid":2637863,"name":"Sidbury"},{"geonameid":2637853,"name":"Sidmouth"},{"geonameid":2637826,"name":"Silverton"},{"geonameid":2637668,"name":"Slapton"},{"geonameid":11072012,"name":"Smithaleigh"},{"geonameid":2637495,"name":"Sourton"},{"geonameid":2637471,"name":"South Brent"},{"geonameid":2637376,"name":"South Milton"},{"geonameid":2637373,"name":"South Molton"},{"geonameid":2637344,"name":"South Pool"},{"geonameid":2637312,"name":"South Tawton"},{"geonameid":2637272,"name":"South Zeal"},{"geonameid":2637385,"name":"Southleigh"},{"geonameid":11072011,"name":"Sparkwell Village"},{"geonameid":2637199,"name":"Spreyton"},{"geonameid":6691885,"name":"St. Leonards"},{"geonameid":6691886,"name":"St. Loyes"},{"geonameid":6691883,"name":"St. Thomas"},{"geonameid":2637008,"name":"Starcross"},{"geonameid":2636991,"name":"Staverton"},{"geonameid":2636924,"name":"Sticklepath"},{"geonameid":2636886,"name":"Stockland"},{"geonameid":2636885,"name":"Stockleigh English"},{"geonameid":2636884,"name":"Stockleigh Pomeroy"},{"geonameid":2636862,"name":"Stoke Canon"},{"geonameid":2636856,"name":"Stoke Fleming"},{"geonameid":2636855,"name":"Stoke Gabriel"},{"geonameid":2636836,"name":"Stoke Rivers"},{"geonameid":2636848,"name":"Stokeinteignhead"},{"geonameid":2636842,"name":"Stokenham"},{"geonameid":2636794,"name":"Stoodleigh"},{"geonameid":2636750,"name":"Stowford"},{"geonameid":2636665,"name":"Strete"},{"geonameid":2636509,"name":"Sutcombe"},{"geonameid":2636393,"name":"Swimbridge"},{"geonameid":2636358,"name":"Sydenham Damerel"},{"geonameid":2636311,"name":"Talaton"},{"geonameid":2636174,"name":"Tavistock"},{"geonameid":2636169,"name":"Tawstock"},{"geonameid":2636148,"name":"Tedburn Saint Mary"},{"geonameid":2636133,"name":"Teigngrace"},{"geonameid":2636132,"name":"Teignmouth"},{"geonameid":2636111,"name":"Templeton"},{"geonameid":2636082,"name":"Tetcott"},{"geonameid":2636037,"name":"Thelbridge"},{"geonameid":2636003,"name":"Thornbury"},{"geonameid":2635939,"name":"Thorverton"},{"geonameid":2635913,"name":"Throwleigh"},{"geonameid":2635909,"name":"Thrushelton"},{"geonameid":2635894,"name":"Thurlestone"},{"geonameid":10100364,"name":"Tippacott"},{"geonameid":2635784,"name":"Tipton Saint John"},{"geonameid":2635762,"name":"Tiverton"},{"geonameid":2635680,"name":"Topsham"},{"geonameid":8063443,"name":"Torcross"},{"geonameid":2635610,"name":"Totnes"},{"geonameid":2635499,"name":"Trentishoe"},{"geonameid":2635411,"name":"Trusham"},{"geonameid":2635301,"name":"Twitchen"},{"geonameid":2635300,"name":"Two Bridges"},{"geonameid":2635234,"name":"Uffculme"},{"geonameid":2635226,"name":"Ugborough"},{"geonameid":2635180,"name":"Umberleigh"},{"geonameid":2635152,"name":"Uplowman"},{"geonameid":2635151,"name":"Uplyme"},{"geonameid":2635149,"name":"Upottery"},{"geonameid":2635083,"name":"Upton Pyne"},{"geonameid":2634986,"name":"Venn Ottery"},{"geonameid":2634951,"name":"Virginstow"},{"geonameid":2634880,"name":"Walkhampton"},{"geonameid":2634765,"name":"Warkleigh"},{"geonameid":2634720,"name":"Washfield"},{"geonameid":2634632,"name":"Weare Giffard"},{"geonameid":2634592,"name":"Welcombe"},{"geonameid":2634548,"name":"Wembury"},{"geonameid":2634515,"name":"West Alvington"},{"geonameid":2634514,"name":"West Anstey"},{"geonameid":2634489,"name":"West Buckland"},{"geonameid":2634452,"name":"West Down"},{"geonameid":12195558,"name":"West Hill"},{"geonameid":10100336,"name":"West Lyn"},{"geonameid":2634290,"name":"West Putford"},{"geonameid":2634223,"name":"West Worlington"},{"geonameid":11072017,"name":"Westlake"},{"geonameid":2634366,"name":"Westleigh"},{"geonameid":2634240,"name":"Westward Ho!"},{"geonameid":2634153,"name":"Whimple"},{"geonameid":2634132,"name":"Whitchurch"},{"geonameid":2634057,"name":"Whitestone"},{"geonameid":2633961,"name":"Widecombe in the Moor"},{"geonameid":2633951,"name":"Widworthy"},{"geonameid":2633916,"name":"Willand"},{"geonameid":6696486,"name":"Wilmington"},{"geonameid":10100348,"name":"Wilsham"},{"geonameid":2633818,"name":"Winkleigh"},{"geonameid":9538974,"name":"Winsford"},{"geonameid":2633745,"name":"Witheridge"},{"geonameid":2633737,"name":"Withleigh"},{"geonameid":6693657,"name":"Woodbury"},{"geonameid":2633637,"name":"Woodland"},{"geonameid":11072015,"name":"Woodlands"},{"geonameid":2633635,"name":"Woodleigh"},{"geonameid":2633608,"name":"Woolacombe"},{"geonameid":2633603,"name":"Woolfardisworthy"},{"geonameid":2633604,"name":"Woolfardisworthy"},{"geonameid":6619990,"name":"Wotter"},{"geonameid":2633505,"name":"Wrafton"},{"geonameid":2633502,"name":"Wrangaton"},{"geonameid":2633420,"name":"Yarcombe"},{"geonameid":2633394,"name":"Yealmpton"},{"geonameid":2633382,"name":"Yelverton"},{"geonameid":2633375,"name":"Yeoford"},{"geonameid":2633327,"name":"Zeal Monachorum"}],"admin3":[{"geonameid":2635640,"name":"Torridge District","admin3":"18UK"},{"geonameid":2637414,"name":"South Hams District","admin3":"18UG"},{"geonameid":7290674,"name":"East Devon District","admin3":"18UB"},{"geonameid":7290675,"name":"Exeter District","admin3":"18UC"},{"geonameid":7290676,"name":"Mid Devon District","admin3":"18UD"},{"geonameid":7290677,"name":"North Devon District","admin3":"18UE"},{"geonameid":7290678,"name":"Teignbridge District","admin3":"18UH"},{"geonameid":7290679,"name":"West Devon District","admin3":"18UL"}],"alternateNames":[{"alternatenameId":2254287,"geonameid":2651292,"isoLanguage":"en","alternateName":"Devon","isPreferredName":true,"isShortName":true,"isColloquial":false,"isHistoric":false},{"alternatenameId":1626647,"geonameid":6269131,"isoLanguage":"en","alternateName":"England","isPreferredName":true,"isShortName":true,"isColloquial":false,"isHistoric":false}]},"__N_SSG":true}