{"pageProps":{"locale":"en","admin2":{"geonameid":2744910,"name":"Gemeente Weert","country":"NL","admin1":"05","admin2":"0988","admin3":"","latitude":"51.2341800","longitude":"5.6906700","localeAltName":null},"admin1":{"geonameid":2751596,"name":"Provincie Limburg","admin1":"05","localeAltName":"Limburg"},"locations":[{"geonameid":2759855,"name":"Altweert","admin3":"","localeAltName":null},{"geonameid":2759854,"name":"Altweerterheide","admin3":"","localeAltName":null},{"geonameid":2758557,"name":"Boshoven","admin3":"","localeAltName":null},{"geonameid":6544756,"name":"Breyvin","admin3":"","localeAltName":null},{"geonameid":6544798,"name":"Castert","admin3":"","localeAltName":null},{"geonameid":2755307,"name":"Crixhoek","admin3":"","localeAltName":null},{"geonameid":6544757,"name":"De Berg","admin3":"","localeAltName":null},{"geonameid":2757494,"name":"De Horst","admin3":"","localeAltName":null},{"geonameid":2756839,"name":"Dijkerstraat","admin3":"","localeAltName":null},{"geonameid":2754608,"name":"Hei","admin3":"","localeAltName":null},{"geonameid":2753562,"name":"Houtbroek","admin3":"","localeAltName":null},{"geonameid":2753402,"name":"Hushoven","admin3":"","localeAltName":null},{"geonameid":2753046,"name":"Kastert","admin3":"","localeAltName":null},{"geonameid":2752993,"name":"Keent","admin3":"","localeAltName":null},{"geonameid":2752084,"name":"Laar","admin3":"","localeAltName":null},{"geonameid":2751700,"name":"Leuken","admin3":"","localeAltName":null},{"geonameid":2750752,"name":"Moesdijk","admin3":"","localeAltName":null},{"geonameid":2750751,"name":"Moesel","admin3":"","localeAltName":null},{"geonameid":6544805,"name":"Rietbroek","admin3":"","localeAltName":null},{"geonameid":2746631,"name":"Stramproy","admin3":"","localeAltName":null},{"geonameid":2746546,"name":"Swartbroek","admin3":"","localeAltName":null},{"geonameid":2746114,"name":"Tungelroy","admin3":"","localeAltName":null},{"geonameid":6544800,"name":"Vlootkant","admin3":"","localeAltName":null},{"geonameid":2745211,"name":"Vrakker","admin3":"","localeAltName":null},{"geonameid":2744911,"name":"Weert","admin3":"","localeAltName":null},{"geonameid":6544690,"name":"Wisbroek","admin3":"","localeAltName":null}],"admin3":[],"alternateNames":[{"alternatenameId":9073257,"geonameid":2751596,"isoLanguage":"en","alternateName":"Limburg","isPreferredName":true,"isShortName":true,"isColloquial":false,"isHistoric":false},{"alternatenameId":9073258,"geonameid":2751596,"isoLanguage":"de","alternateName":"Limburg","isPreferredName":true,"isShortName":true,"isColloquial":false,"isHistoric":false}]},"__N_SSG":true}