{"pageProps":{"locale":"en","admin2":{"geonameid":4276120,"name":"Nemaha County","country":"US","admin1":"KS","admin2":"131","admin3":"","latitude":"39.7834500","longitude":"-96.0141000","localeAltName":null},"admin1":{"geonameid":4273857,"name":"Kansas","admin1":"KS","localeAltName":"Kansas"},"locations":[{"geonameid":4269365,"name":"Centralia","admin3":"32900","localeAltName":null},{"geonameid":4278489,"name":"Sabetha","admin3":"62025","localeAltName":null},{"geonameid":4279170,"name":"Seneca","admin3":"63950","localeAltName":null}],"admin3":[{"geonameid":4267385,"name":"Township of Adams","admin3":"00275"},{"geonameid":4268191,"name":"Township of Berwick","admin3":"06375"},{"geonameid":4269063,"name":"Township of Capioma","admin3":"10575"},{"geonameid":4269287,"name":"Township of Center","admin3":"11900"},{"geonameid":4269679,"name":"Township of Clear Creek","admin3":"13775"},{"geonameid":4272054,"name":"Township of Gilman","admin3":"26275"},{"geonameid":4272243,"name":"Township of Granada","admin3":"27275"},{"geonameid":4272687,"name":"Township of Harrison","admin3":"30375"},{"geonameid":4273133,"name":"Township of Home","admin3":"32900","localeAltName":null},{"geonameid":4273365,"name":"Township of Illinois","admin3":"33725"},{"geonameid":4275091,"name":"Township of Marion","admin3":"44775"},{"geonameid":4275640,"name":"Township of Mitchell","admin3":"47475"},{"geonameid":4276127,"name":"Township of Nemaha","admin3":"49625"},{"geonameid":4276172,"name":"Township of Neuchatel","admin3":"50050"},{"geonameid":4277936,"name":"Township of Red Vermillion","admin3":"58750"},{"geonameid":4277966,"name":"Township of Reilly","admin3":"58900"},{"geonameid":4278038,"name":"Township of Richmond","admin3":"59725"},{"geonameid":4278224,"name":"Township of Rock Creek","admin3":"60600"},{"geonameid":4278495,"name":"City of Sabetha","admin3":"62025","localeAltName":null},{"geonameid":4279175,"name":"City of Seneca","admin3":"63950","localeAltName":null},{"geonameid":4281308,"name":"Township of Washington","admin3":"75675"},{"geonameid":4281650,"name":"Township of Wetmore","admin3":"77575"}],"alternateNames":[{"alternatenameId":2080124,"geonameid":4273857,"isoLanguage":"en","alternateName":"Kansas","isPreferredName":true,"isShortName":true,"isColloquial":false,"isHistoric":false}]},"__N_SSG":true}