{"pageProps":{"locale":"en","admin2":{"geonameid":5112392,"name":"Chemung County","country":"US","admin1":"NY","admin2":"015","admin3":"","latitude":"42.1412500","longitude":"-76.7600300","localeAltName":null},"admin1":{"geonameid":5128638,"name":"New York","admin1":"NY","localeAltName":"New York"},"locations":[{"geonameid":5109053,"name":"Big Flats","admin3":"06475","localeAltName":null},{"geonameid":5110067,"name":"Breesport","admin3":"35705","localeAltName":null},{"geonameid":5116497,"name":"Elmira","admin3":"24229","localeAltName":null},{"geonameid":5116500,"name":"Elmira Heights","admin3":"35705","localeAltName":null},{"geonameid":5121309,"name":"Horseheads","admin3":"35705","localeAltName":null},{"geonameid":7258752,"name":"Horseheads North","admin3":"35705","localeAltName":null},{"geonameid":5131493,"name":"Pine Valley","admin3":"77310","localeAltName":null},{"geonameid":5139058,"name":"Southport","admin3":"69617","localeAltName":null},{"geonameid":5142164,"name":"Van Etten","admin3":"76892","localeAltName":null},{"geonameid":5143585,"name":"Wellsburg","admin3":"02781","localeAltName":null},{"geonameid":5143786,"name":"West Elmira","admin3":"24240","localeAltName":null}],"admin3":[{"geonameid":5107436,"name":"Town of Ashland","admin3":"02781","localeAltName":null},{"geonameid":5107784,"name":"Town of Baldwin","admin3":"04132"},{"geonameid":5109054,"name":"Town of Big Flats","admin3":"06475","localeAltName":null},{"geonameid":5111823,"name":"Town of Catlin","admin3":"12947"},{"geonameid":5112394,"name":"Town of Chemung","admin3":"15077"},{"geonameid":5116504,"name":"City of Elmira","admin3":"24229","localeAltName":null},{"geonameid":5116505,"name":"Town of Elmira","admin3":"24240","localeAltName":null},{"geonameid":5116650,"name":"Town of Erin","admin3":"24636"},{"geonameid":5121310,"name":"Town of Horseheads","admin3":"35705","localeAltName":null},{"geonameid":5139060,"name":"Town of Southport","admin3":"69617","localeAltName":null},{"geonameid":5142167,"name":"Town of Van Etten","admin3":"76892","localeAltName":null},{"geonameid":5142304,"name":"Town of Veteran","admin3":"77310","localeAltName":null}],"alternateNames":[{"alternatenameId":1980360,"geonameid":5128638,"isoLanguage":"de","alternateName":"New York","isPreferredName":true,"isShortName":true,"isColloquial":false,"isHistoric":false},{"alternatenameId":1980362,"geonameid":5128638,"isoLanguage":"en","alternateName":"New York","isPreferredName":true,"isShortName":true,"isColloquial":false,"isHistoric":false}]},"__N_SSG":true}