{"pageProps":{"locale":"en","admin2":{"geonameid":6090771,"name":"Northumberland County","country":"CA","admin1":"04","admin2":"1309","admin3":"","latitude":"46.9168000","longitude":"-65.9987700"},"admin1":{"geonameid":6087430,"name":"New Brunswick/Nouveau-Brunswick","admin1":"04"},"locations":[{"geonameid":12096569,"name":"Amostown","admin3":""},{"geonameid":12097167,"name":"Astle","admin3":""},{"geonameid":12096528,"name":"Auburnville","admin3":""},{"geonameid":12096466,"name":"Back Lots","admin3":""},{"geonameid":12076641,"name":"Baie Ste. Anne","admin3":""},{"geonameid":12096529,"name":"Barryville","admin3":""},{"geonameid":12096530,"name":"Bartibog Bridge","admin3":""},{"geonameid":12096531,"name":"Bay du Vin","admin3":""},{"geonameid":12096461,"name":"Bayshore","admin3":""},{"geonameid":12096467,"name":"Beaver Brook Station","admin3":""},{"geonameid":12096469,"name":"Bellefond","admin3":""},{"geonameid":12123157,"name":"Bettsburg","admin3":""},{"geonameid":12096473,"name":"Big Hole","admin3":""},{"geonameid":12096570,"name":"Big Hole Brook","admin3":""},{"geonameid":12096533,"name":"Black River Bridge","admin3":""},{"geonameid":12076659,"name":"Brantville","admin3":""},{"geonameid":12096450,"name":"Breau Road","admin3":""},{"geonameid":12096534,"name":"Burnt Church","admin3":""},{"geonameid":12096514,"name":"Bushville","admin3":""},{"geonameid":12096456,"name":"Cains Point","admin3":""},{"geonameid":12096451,"name":"Caissie Road","admin3":""},{"geonameid":12096571,"name":"Carrolls Crossing","admin3":""},{"geonameid":12096525,"name":"Centre Napan","admin3":""},{"geonameid":12096515,"name":"Chaplin Island Road","admin3":""},{"geonameid":5920447,"name":"Chatham","admin3":""},{"geonameid":12096457,"name":"Christies Landing","admin3":""},{"geonameid":12096453,"name":"Comeau Settlement","admin3":""},{"geonameid":12096459,"name":"Covedell","admin3":""},{"geonameid":12096516,"name":"Cross Roads","admin3":""},{"geonameid":12096524,"name":"Curtis Park","admin3":""},{"geonameid":12096517,"name":"Curventon","admin3":""},{"geonameid":12096564,"name":"Dennis","admin3":""},{"geonameid":12096518,"name":"Douglastown","admin3":""},{"geonameid":12096535,"name":"Drisdelle Settlement","admin3":""},{"geonameid":12096468,"name":"East Beaver Brook","admin3":""},{"geonameid":12096567,"name":"Eel Ground","admin3":""},{"geonameid":12096536,"name":"Eel River Bridge","admin3":""},{"geonameid":12096559,"name":"Escuminac","admin3":""},{"geonameid":12076657,"name":"Fairisle","admin3":""},{"geonameid":12096519,"name":"Ferry Road","admin3":""},{"geonameid":12096537,"name":"Forest Corner","admin3":""},{"geonameid":12096539,"name":"Fowlies Mill","admin3":""},{"geonameid":12096540,"name":"Gardiner Point","admin3":""},{"geonameid":12096460,"name":"Gaythorne","admin3":""},{"geonameid":12097156,"name":"Gordon Vale","admin3":""},{"geonameid":12096572,"name":"Grand Lake Road","admin3":""},{"geonameid":12096541,"name":"Gregan","admin3":""},{"geonameid":12096560,"name":"Hardwood Settlement","admin3":""},{"geonameid":12097089,"name":"Hayesville","admin3":""},{"geonameid":12096573,"name":"Hazelton","admin3":""},{"geonameid":12096448,"name":"Heath Steele","admin3":""},{"geonameid":12096471,"name":"Highbank","admin3":""},{"geonameid":12096574,"name":"Holtville","admin3":""},{"geonameid":12096532,"name":"Hortons Creek","admin3":""},{"geonameid":12096449,"name":"Indian Falls Depot","admin3":""},{"geonameid":12096583,"name":"Keenans","admin3":""},{"geonameid":12096543,"name":"Lagacéville","admin3":""},{"geonameid":12096546,"name":"Little Bartibog","admin3":""},{"geonameid":12096550,"name":"Little Branch","admin3":""},{"geonameid":12096562,"name":"Loggie Lodge","admin3":""},{"geonameid":12096548,"name":"Loggieville","admin3":""},{"geonameid":12096523,"name":"Lower Chatham head","admin3":""},{"geonameid":12096551,"name":"Lower Napan","admin3":""},{"geonameid":12096454,"name":"Lower Neguac","admin3":""},{"geonameid":12096547,"name":"Lower Newcastle","admin3":""},{"geonameid":8740856,"name":"Ludlow","admin3":""},{"geonameid":12096526,"name":"Lumsden Road","admin3":""},{"geonameid":12096561,"name":"Manuels","admin3":""},{"geonameid":12096527,"name":"Maple Glen","admin3":""},{"geonameid":12096565,"name":"McGraw Brook","admin3":""},{"geonameid":12096566,"name":"McKendrick Lake","admin3":""},{"geonameid":12096575,"name":"McNamee","admin3":""},{"geonameid":12096552,"name":"Millbank","admin3":""},{"geonameid":6075081,"name":"Miramichi","admin3":""},{"geonameid":12096520,"name":"Moorefield","admin3":""},{"geonameid":12096521,"name":"Morrison Cove","admin3":""},{"geonameid":12096549,"name":"Napan Bay","admin3":""},{"geonameid":12096576,"name":"Nelson Hollow","admin3":""},{"geonameid":12096553,"name":"New Jersey","admin3":""},{"geonameid":12096522,"name":"Nordin","admin3":""},{"geonameid":12097171,"name":"North Cains","admin3":""},{"geonameid":12096577,"name":"O'Donnells","admin3":""},{"geonameid":12096458,"name":"Old Dans Landing","admin3":""},{"geonameid":12097163,"name":"Parker Ridge","admin3":""},{"geonameid":12096568,"name":"Parker Road","admin3":""},{"geonameid":12096472,"name":"Patterson Siding","admin3":""},{"geonameid":12096554,"name":"Point aux Carr","admin3":""},{"geonameid":12096463,"name":"Pontgravé","admin3":""},{"geonameid":12096447,"name":"Popple Depot","admin3":""},{"geonameid":12096579,"name":"Porter Cove","admin3":""},{"geonameid":12096563,"name":"Pratts Camp","admin3":""},{"geonameid":12096455,"name":"Price Settlement","admin3":""},{"geonameid":12096578,"name":"Priceville","admin3":""},{"geonameid":12096555,"name":"Rivière-des-Caches","admin3":""},{"geonameid":12096462,"name":"Rivière-du-Portage","admin3":""},{"geonameid":12096452,"name":"Robichaud Settlement","admin3":""},{"geonameid":12096580,"name":"Russelltown","admin3":""},{"geonameid":12096556,"name":"Russellville","admin3":""},{"geonameid":11185752,"name":"Sevogle","admin3":""},{"geonameid":12123279,"name":"South Nelson","admin3":""},{"geonameid":12096581,"name":"South Road Settlement","admin3":""},{"geonameid":12096582,"name":"Storeytown","admin3":""},{"geonameid":12104817,"name":"Stymiest","admin3":""},{"geonameid":12076660,"name":"Tabusintac","admin3":""},{"geonameid":12096584,"name":"Taxis River","admin3":""},{"geonameid":12096470,"name":"Telly Road Crossing","admin3":""},{"geonameid":12097090,"name":"Tugtown","admin3":""},{"geonameid":11231674,"name":"Wayerton","admin3":""},{"geonameid":12096558,"name":"Winston","admin3":""},{"geonameid":12096465,"name":"Wishart Point","admin3":""}],"admin3":[],"alternateNames":[]},"__N_SSG":true}