{"pageProps":{"locale":"it","admin2":{"geonameid":6457405,"name":"Provincia di Vibo-Valentia","country":"IT","admin1":"03","admin2":"VV","admin3":"","latitude":"38.6995800","longitude":"16.1274100","localeAltName":"Vibo Valentia"},"admin1":{"geonameid":2525468,"name":"Calabria","admin1":"03","localeAltName":"Calabria"},"locations":[{"geonameid":2525776,"name":"Acquaro","admin3":"102001","localeAltName":null},{"geonameid":2525683,"name":"Arena","admin3":"102002","localeAltName":null},{"geonameid":2525663,"name":"Arzona-Pizzinni","admin3":"102012","localeAltName":null},{"geonameid":8949679,"name":"Brattirò","admin3":"102009","localeAltName":null},{"geonameid":2525501,"name":"Briatico","admin3":"102003","localeAltName":null},{"geonameid":6535724,"name":"Brognaturo","admin3":"102004","localeAltName":null},{"geonameid":2525454,"name":"Calimera","admin3":"102032","localeAltName":null},{"geonameid":2525388,"name":"Capistrano","admin3":"102005","localeAltName":null},{"geonameid":2525353,"name":"Caria","admin3":"102009","localeAltName":null},{"geonameid":2525014,"name":"Cessaniti","admin3":"102006","localeAltName":null},{"geonameid":8949820,"name":"Contrada Difesa II","admin3":"102027","localeAltName":null},{"geonameid":2524868,"name":"Dasà","admin3":"102007","localeAltName":null},{"geonameid":2524852,"name":"Dinami","admin3":"102008","localeAltName":null},{"geonameid":2524808,"name":"Fabrizia","admin3":"102010","localeAltName":null},{"geonameid":2524758,"name":"Filadelfia","admin3":"102011","localeAltName":null},{"geonameid":2524751,"name":"Filogaso","admin3":"102013","localeAltName":null},{"geonameid":2524708,"name":"Francavilla Angitola","admin3":"102014","localeAltName":null},{"geonameid":2524705,"name":"Francica","admin3":"102015","localeAltName":null},{"geonameid":2523311,"name":"Gerocarne","admin3":"102016","localeAltName":null},{"geonameid":6534832,"name":"Jonadi","admin3":"102017","localeAltName":null},{"geonameid":6535725,"name":"Joppolo","admin3":"102018","localeAltName":null},{"geonameid":2524388,"name":"Limbadi-Caroni","admin3":"102019","localeAltName":null},{"geonameid":2524370,"name":"Longobardi","admin3":"102047","localeAltName":null},{"geonameid":2524328,"name":"Maierato","admin3":"102020","localeAltName":null},{"geonameid":2524189,"name":"Melicuccà","admin3":"102008","localeAltName":null},{"geonameid":2524151,"name":"Mileto","admin3":"102021","localeAltName":null},{"geonameid":2524090,"name":"Mongiana","admin3":"102022","localeAltName":null},{"geonameid":2524083,"name":"Monsoreto","admin3":"102008","localeAltName":null},{"geonameid":2524065,"name":"Monterosso Calabro","admin3":"102023","localeAltName":null},{"geonameid":2524008,"name":"Nicotera","admin3":"102025","localeAltName":null},{"geonameid":2523895,"name":"Pannaconi","admin3":"102006","localeAltName":null},{"geonameid":2523880,"name":"Paravati","admin3":"102021","localeAltName":null},{"geonameid":2523876,"name":"Parghelia","admin3":"102026","localeAltName":null},{"geonameid":2523829,"name":"Pernocari-Presinaci","admin3":"102031","localeAltName":null},{"geonameid":2523764,"name":"Piscopio","admin3":"102047","localeAltName":null},{"geonameid":2523762,"name":"Pizzo","admin3":"102027","localeAltName":null},{"geonameid":2523758,"name":"Pizzoni","admin3":"102028","localeAltName":null},{"geonameid":2523618,"name":"Ricadi","admin3":"102030","localeAltName":null},{"geonameid":2523588,"name":"Rombiolo","admin3":"102031","localeAltName":null},{"geonameid":2523516,"name":"San Calogero","admin3":"102032","localeAltName":null},{"geonameid":2523505,"name":"San Costantino","admin3":"102003","localeAltName":null},{"geonameid":2523504,"name":"San Costantino Calabro","admin3":"102033","localeAltName":null},{"geonameid":2523447,"name":"San Gregorio d'Ippona","admin3":"102034","localeAltName":null},{"geonameid":2523409,"name":"San Nicola da Crissa","admin3":"102035","localeAltName":null},{"geonameid":2523407,"name":"San Nicolò","admin3":"102030","localeAltName":null},{"geonameid":2523258,"name":"Sant'Onofrio","admin3":"102036","localeAltName":null},{"geonameid":2523357,"name":"Santa Domenica","admin3":"102030","localeAltName":null},{"geonameid":2523146,"name":"Serra San Bruno","admin3":"102037","localeAltName":null},{"geonameid":2523098,"name":"Simbario","admin3":"102038","localeAltName":null},{"geonameid":2523053,"name":"Sorianello","admin3":"102039","localeAltName":null},{"geonameid":2523052,"name":"Soriano Calabro","admin3":"102040","localeAltName":null},{"geonameid":6535866,"name":"Spadola","admin3":"102041","localeAltName":null},{"geonameid":2523020,"name":"Spilinga","admin3":"102042","localeAltName":null},{"geonameid":6535378,"name":"Stefanaconi","admin3":"102043","localeAltName":null},{"geonameid":2522847,"name":"Tropea","admin3":"102044","localeAltName":null},{"geonameid":2522792,"name":"Vazzano","admin3":"102046","localeAltName":null},{"geonameid":2522776,"name":"Vibo Valentia","admin3":"102047","localeAltName":null},{"geonameid":2522699,"name":"Zaccanopoli","admin3":"102048","localeAltName":null},{"geonameid":2522691,"name":"Zambrone","admin3":"102049","localeAltName":null},{"geonameid":6535726,"name":"Zungri","admin3":"102050","localeAltName":null}],"admin3":[{"geonameid":6538023,"name":"Dasà","admin3":"102007","localeAltName":null},{"geonameid":6538024,"name":"Drapia","admin3":"102009","localeAltName":null},{"geonameid":6538025,"name":"Filadelfia","admin3":"102011","localeAltName":null},{"geonameid":6538026,"name":"Filogaso","admin3":"102013","localeAltName":null},{"geonameid":6538027,"name":"Mongiana","admin3":"102022","localeAltName":null},{"geonameid":6538028,"name":"Ricadi","admin3":"102030","localeAltName":null},{"geonameid":6538029,"name":"Simbario","admin3":"102038","localeAltName":null},{"geonameid":6538030,"name":"Tropea","admin3":"102044","localeAltName":null},{"geonameid":6539432,"name":"Cessaniti","admin3":"102006","localeAltName":null},{"geonameid":6539433,"name":"Fabrizia","admin3":"102010","localeAltName":null},{"geonameid":6539434,"name":"Limbadi","admin3":"102019","localeAltName":null},{"geonameid":6539435,"name":"Maierato","admin3":"102020","localeAltName":null},{"geonameid":6539436,"name":"Parghelia","admin3":"102026","localeAltName":null},{"geonameid":6539437,"name":"Vazzano","admin3":"102046","localeAltName":null},{"geonameid":6539438,"name":"Zambrone","admin3":"102049","localeAltName":null},{"geonameid":6539599,"name":"Polia","admin3":"102029"},{"geonameid":6539600,"name":"Rombiolo","admin3":"102031","localeAltName":null},{"geonameid":6539601,"name":"San Costantino Calabro","admin3":"102033","localeAltName":null},{"geonameid":6539602,"name":"San Nicola da Crissa","admin3":"102035","localeAltName":null},{"geonameid":6539603,"name":"Soriano Calabro","admin3":"102040","localeAltName":null},{"geonameid":6539894,"name":"Nicotera","admin3":"102025","localeAltName":null},{"geonameid":6539895,"name":"Sant'Onofrio","admin3":"102036","localeAltName":null},{"geonameid":6540084,"name":"Acquaro","admin3":"102001","localeAltName":null},{"geonameid":6540085,"name":"Arena","admin3":"102002","localeAltName":null},{"geonameid":6540086,"name":"Pizzo","admin3":"102027","localeAltName":null},{"geonameid":6540115,"name":"Vibo Valentia","admin3":"102047","localeAltName":null},{"geonameid":6540901,"name":"Briatico","admin3":"102003","localeAltName":null},{"geonameid":6540902,"name":"Capistrano","admin3":"102005","localeAltName":null},{"geonameid":6540903,"name":"Dinami","admin3":"102008","localeAltName":null},{"geonameid":6540904,"name":"San Calogero","admin3":"102032","localeAltName":null},{"geonameid":6540905,"name":"San Gregorio d'Ippona","admin3":"102034","localeAltName":null},{"geonameid":6540906,"name":"Serra San Bruno","admin3":"102037","localeAltName":null},{"geonameid":6541398,"name":"Mileto","admin3":"102021","localeAltName":null},{"geonameid":6541477,"name":"Pizzoni","admin3":"102028","localeAltName":null},{"geonameid":6541478,"name":"Spilinga","admin3":"102042","localeAltName":null},{"geonameid":6541788,"name":"Francavilla Angitola","admin3":"102014","localeAltName":null},{"geonameid":6541789,"name":"Francica","admin3":"102015","localeAltName":null},{"geonameid":6541790,"name":"Sorianello","admin3":"102039","localeAltName":null},{"geonameid":6541983,"name":"Zaccanopoli","admin3":"102048","localeAltName":null},{"geonameid":6542007,"name":"Vallelonga","admin3":"102045"},{"geonameid":6542108,"name":"Nardodipace","admin3":"102024"},{"geonameid":6542142,"name":"Gerocarne","admin3":"102016","localeAltName":null},{"geonameid":6542240,"name":"Monterosso Calabro","admin3":"102023","localeAltName":null},{"geonameid":6542824,"name":"Ionadi","admin3":"102017","localeAltName":null},{"geonameid":6543360,"name":"Filandari","admin3":"102012","localeAltName":null},{"geonameid":6543361,"name":"Stefanaconi","admin3":"102043","localeAltName":null},{"geonameid":6543698,"name":"Brognaturo","admin3":"102004","localeAltName":null},{"geonameid":6543699,"name":"Joppolo","admin3":"102018","localeAltName":null},{"geonameid":6543700,"name":"Zungri","admin3":"102050","localeAltName":null},{"geonameid":6543837,"name":"Spadola","admin3":"102041","localeAltName":null}],"alternateNames":[{"alternatenameId":1621273,"geonameid":2525468,"isoLanguage":"it","alternateName":"Calabria","isPreferredName":true,"isShortName":true,"isColloquial":false,"isHistoric":false},{"alternatenameId":2431259,"geonameid":6457405,"isoLanguage":"it","alternateName":"Vibo Valentia","isPreferredName":true,"isShortName":true,"isColloquial":false,"isHistoric":false}]},"__N_SSG":true}