{"pageProps":{"locale":"it","admin2":{"geonameid":2525058,"name":"Provincia di Catanzaro","country":"IT","admin1":"03","admin2":"CZ","admin3":"","latitude":"38.9166700","longitude":"16.4333300","localeAltName":"Catanzaro"},"admin1":{"geonameid":2525468,"name":"Calabria","admin1":"03","localeAltName":"Calabria"},"locations":[{"geonameid":8949020,"name":"Acconia","admin3":"079039","localeAltName":null},{"geonameid":2525757,"name":"Albi","admin3":"079002","localeAltName":null},{"geonameid":2525726,"name":"Amaroni","admin3":"079003","localeAltName":null},{"geonameid":6535314,"name":"Amato","admin3":"079004","localeAltName":null},{"geonameid":2525715,"name":"Andali","admin3":"079005","localeAltName":null},{"geonameid":2525633,"name":"Badolato Marina","admin3":"079008","localeAltName":null},{"geonameid":8949367,"name":"Barone","admin3":"079023","localeAltName":null},{"geonameid":6535315,"name":"Belcastro","admin3":"079009","localeAltName":null},{"geonameid":2525525,"name":"Borgia","admin3":"079011","localeAltName":null},{"geonameid":2525517,"name":"Botricello","admin3":"079012","localeAltName":null},{"geonameid":8950321,"name":"Calalunga-Pietragrande","admin3":"079080","localeAltName":null},{"geonameid":8950218,"name":"Cancello","admin3":"079129","localeAltName":null},{"geonameid":2525369,"name":"Caraffa di Catanzaro","admin3":"079017","localeAltName":null},{"geonameid":2525358,"name":"Cardinale","admin3":"079018","localeAltName":null},{"geonameid":2525347,"name":"Carlopoli","admin3":"079020","localeAltName":null},{"geonameid":2525106,"name":"Castagna","admin3":"079020","localeAltName":null},{"geonameid":2525059,"name":"Catanzaro","admin3":"079023","localeAltName":null},{"geonameid":8948858,"name":"Cava-Cuculera Nobile","admin3":"079023","localeAltName":null},{"geonameid":8949866,"name":"Cavora-Lenticchia","admin3":"079058","localeAltName":null},{"geonameid":2525036,"name":"Cenadi","admin3":"079024","localeAltName":null},{"geonameid":2525019,"name":"Cerva","admin3":"079027","localeAltName":null},{"geonameid":2525009,"name":"Chiaravalle Centrale","admin3":"079029","localeAltName":null},{"geonameid":2524992,"name":"Cicala","admin3":"079030","localeAltName":null},{"geonameid":6534809,"name":"Conflenti","admin3":"079033","localeAltName":null},{"geonameid":2524915,"name":"Cortale","admin3":"079034","localeAltName":null},{"geonameid":2524894,"name":"Crichi","admin3":"079133","localeAltName":null},{"geonameid":2524883,"name":"Cropani","admin3":"079036","localeAltName":null},{"geonameid":8714325,"name":"Cropani Marina","admin3":"079036","localeAltName":null},{"geonameid":2524872,"name":"Curinga","admin3":"079039","localeAltName":null},{"geonameid":2524866,"name":"Davoli","admin3":"079042","localeAltName":null},{"geonameid":2524863,"name":"Decollatura","admin3":"079043","localeAltName":null},{"geonameid":2524800,"name":"Falerna","admin3":"079047","localeAltName":null},{"geonameid":9036373,"name":"Falerna Scalo","admin3":"079047","localeAltName":null},{"geonameid":8949660,"name":"Fronti","admin3":"079160","localeAltName":null},{"geonameid":2524656,"name":"Gasperina","admin3":"079056","localeAltName":null},{"geonameid":8950115,"name":"Germaneto","admin3":"079023","localeAltName":null},{"geonameid":2524610,"name":"Gimigliano","admin3":"079058","localeAltName":null},{"geonameid":2524600,"name":"Girifalco","admin3":"079059","localeAltName":null},{"geonameid":2524593,"name":"Gizzeria","admin3":"079060","localeAltName":null},{"geonameid":2524557,"name":"Guardavalle","admin3":"079061","localeAltName":null},{"geonameid":8948937,"name":"Guardavalle Marina","admin3":"079061","localeAltName":null},{"geonameid":8949282,"name":"Isca Marina","admin3":"079063","localeAltName":null},{"geonameid":6535317,"name":"Jacurso","admin3":"079065","localeAltName":null},{"geonameid":6534232,"name":"Lamezia Terme","admin3":"079160","localeAltName":null},{"geonameid":2524335,"name":"Magisano","admin3":"079068","localeAltName":null},{"geonameid":8950089,"name":"Magolà","admin3":"079160","localeAltName":null},{"geonameid":2524331,"name":"Maida","admin3":"079069","localeAltName":null},{"geonameid":2524282,"name":"Marcellinara","admin3":"079072","localeAltName":null},{"geonameid":8948840,"name":"Marina di Davoli","admin3":"079042","localeAltName":null},{"geonameid":8949982,"name":"Marinella","admin3":"079160","localeAltName":null},{"geonameid":8949568,"name":"Martelletto","admin3":"079131","localeAltName":null},{"geonameid":8949273,"name":"Martelli-Laganosa","admin3":"079123","localeAltName":null},{"geonameid":2524243,"name":"Martirano","admin3":"079073","localeAltName":null},{"geonameid":2524242,"name":"Martirano Lombardo","admin3":"079074","localeAltName":null},{"geonameid":2524158,"name":"Miglierina","admin3":"079077","localeAltName":null},{"geonameid":2524074,"name":"Montauro","admin3":"079080","localeAltName":null},{"geonameid":2524067,"name":"Montepaone","admin3":"079081","localeAltName":null},{"geonameid":8354627,"name":"Montepaone Lido","admin3":"079081","localeAltName":null},{"geonameid":8949508,"name":"Mortilla","admin3":"079060","localeAltName":null},{"geonameid":2524042,"name":"Motta Santa Lucia","admin3":"079083","localeAltName":null},{"geonameid":2524013,"name":"Nicastro","admin3":"079160","localeAltName":null},{"geonameid":8948987,"name":"Nocera Scalo","admin3":"079087","localeAltName":null},{"geonameid":2524000,"name":"Nocera Terinese","admin3":"079087","localeAltName":null},{"geonameid":2523975,"name":"Olivadi","admin3":"079088","localeAltName":null},{"geonameid":2523921,"name":"Palermiti","admin3":"079089","localeAltName":null},{"geonameid":2523838,"name":"Pentone","admin3":"079092","localeAltName":null},{"geonameid":2523818,"name":"Petrizzi","admin3":"079094","localeAltName":null},{"geonameid":2523817,"name":"Petronà","admin3":"079095","localeAltName":null},{"geonameid":8949714,"name":"Piano D'Agazio","admin3":"079127","localeAltName":null},{"geonameid":2523799,"name":"Pianopoli","admin3":"079096","localeAltName":null},{"geonameid":2523750,"name":"Platania","admin3":"079099","localeAltName":null},{"geonameid":8949981,"name":"Pratora","admin3":"079147","localeAltName":null},{"geonameid":8714328,"name":"Roccelletta","admin3":"079011","localeAltName":null},{"geonameid":2523535,"name":"Sambiase","admin3":"079160","localeAltName":null},{"geonameid":2523432,"name":"San Mango d'Aquino","admin3":"079110","localeAltName":null},{"geonameid":2523389,"name":"San Pietro a Maida","admin3":"079114","localeAltName":null},{"geonameid":2523388,"name":"San Pietro Apostolo","admin3":"079115","localeAltName":null},{"geonameid":7287794,"name":"San Sostene Marina","admin3":"079116","localeAltName":null},{"geonameid":2523237,"name":"San Vito Sullo Ionio","admin3":"079122","localeAltName":null},{"geonameid":2523313,"name":"Sant'Andrea Apostolo dello Ionio","admin3":"079118","localeAltName":null},{"geonameid":8659142,"name":"Sant'Andrea Ionio Marina","admin3":"079118","localeAltName":null},{"geonameid":2523276,"name":"Sant'Elia","admin3":"079023","localeAltName":null},{"geonameid":2523367,"name":"Santa Caterina dello Ionio","admin3":"079117","localeAltName":null},{"geonameid":9036117,"name":"Santa Caterina dello Ionio Marina","admin3":"079117","localeAltName":null},{"geonameid":2523265,"name":"Santa Eufemia Lamezia","admin3":"079160","localeAltName":null},{"geonameid":2523217,"name":"Satriano","admin3":"079123","localeAltName":null},{"geonameid":6535319,"name":"Sellia Marina","admin3":"079127","localeAltName":null},{"geonameid":2523145,"name":"Serrastretta","admin3":"079129","localeAltName":null},{"geonameid":2523137,"name":"Sersale","admin3":"079130","localeAltName":null},{"geonameid":6535654,"name":"Settingiano","admin3":"079131","localeAltName":null},{"geonameid":2523125,"name":"Siano","admin3":"079023","localeAltName":null},{"geonameid":8949720,"name":"Simeri Mare","admin3":"079133","localeAltName":null},{"geonameid":2523055,"name":"Sorbo San Basile","admin3":"079134","localeAltName":null},{"geonameid":2523045,"name":"Soverato Marina","admin3":"079137","localeAltName":null},{"geonameid":2523044,"name":"Soverato Superiore","admin3":"079137","localeAltName":null},{"geonameid":2523043,"name":"Soveria Mannelli","admin3":"079138","localeAltName":null},{"geonameid":2523042,"name":"Soveria Simeri","admin3":"079139","localeAltName":null},{"geonameid":2523010,"name":"Squillace","admin3":"079142","localeAltName":null},{"geonameid":8949243,"name":"Squillace Lido","admin3":"079142","localeAltName":null},{"geonameid":2523004,"name":"Staletti","admin3":"079143","localeAltName":null},{"geonameid":2522969,"name":"Taverna","admin3":"079146","localeAltName":null},{"geonameid":2522930,"name":"Tiriolo","admin3":"079147","localeAltName":null},{"geonameid":2522911,"name":"Torre di Ruggiero","admin3":"079148","localeAltName":null},{"geonameid":2522825,"name":"Uria","admin3":"079127","localeAltName":null},{"geonameid":2522803,"name":"Vallefiorita","admin3":"079151","localeAltName":null},{"geonameid":2522791,"name":"Vena di Maida","admin3":"079069","localeAltName":null},{"geonameid":2522692,"name":"Zagarise","admin3":"079157","localeAltName":null}],"admin3":[{"geonameid":2523095,"name":"Simeri Crichi","admin3":"079133","localeAltName":null},{"geonameid":6536402,"name":"Stalettì","admin3":"079143","localeAltName":null},{"geonameid":6537693,"name":"Albi","admin3":"079002","localeAltName":null},{"geonameid":6537694,"name":"Cenadi","admin3":"079024","localeAltName":null},{"geonameid":6537695,"name":"Gasperina","admin3":"079056","localeAltName":null},{"geonameid":6537696,"name":"Guardavalle","admin3":"079061","localeAltName":null},{"geonameid":6537697,"name":"Isca sullo Ionio","admin3":"079063","localeAltName":null},{"geonameid":6537698,"name":"Miglierina","admin3":"079077","localeAltName":null},{"geonameid":6537699,"name":"San Floro","admin3":"079108"},{"geonameid":6537700,"name":"San Sostene","admin3":"079116","localeAltName":null},{"geonameid":6537701,"name":"Santa Caterina dello Ionio","admin3":"079117","localeAltName":null},{"geonameid":6537702,"name":"San Vito sullo Ionio","admin3":"079122","localeAltName":null},{"geonameid":6537703,"name":"Serrastretta","admin3":"079129","localeAltName":null},{"geonameid":6537704,"name":"Sorbo San Basile","admin3":"079134","localeAltName":null},{"geonameid":6539071,"name":"Andali","admin3":"079005","localeAltName":null},{"geonameid":6539072,"name":"Botricello","admin3":"079012","localeAltName":null},{"geonameid":6539073,"name":"Caraffa di Catanzaro","admin3":"079017","localeAltName":null},{"geonameid":6539074,"name":"Carlopoli","admin3":"079020","localeAltName":null},{"geonameid":6539075,"name":"Chiaravalle Centrale","admin3":"079029","localeAltName":null},{"geonameid":6539076,"name":"Cicala","admin3":"079030","localeAltName":null},{"geonameid":6539077,"name":"Davoli","admin3":"079042","localeAltName":null},{"geonameid":6539078,"name":"Falerna","admin3":"079047","localeAltName":null},{"geonameid":6539079,"name":"Gizzeria","admin3":"079060","localeAltName":null},{"geonameid":6539080,"name":"Marcedusa","admin3":"079071"},{"geonameid":6539081,"name":"Martirano Lombardo","admin3":"079074","localeAltName":null},{"geonameid":6539082,"name":"Montepaone","admin3":"079081","localeAltName":null},{"geonameid":6539083,"name":"Palermiti","admin3":"079089","localeAltName":null},{"geonameid":6539084,"name":"Pentone","admin3":"079092","localeAltName":null},{"geonameid":6539085,"name":"Petrizzi","admin3":"079094","localeAltName":null},{"geonameid":6539086,"name":"Petronà","admin3":"079095","localeAltName":null},{"geonameid":6539087,"name":"Pianopoli","admin3":"079096","localeAltName":null},{"geonameid":6539088,"name":"Platania","admin3":"079099","localeAltName":null},{"geonameid":6539089,"name":"Soveria Mannelli","admin3":"079138","localeAltName":null},{"geonameid":6539090,"name":"Soveria Simeri","admin3":"079139","localeAltName":null},{"geonameid":6539091,"name":"Squillace","admin3":"079142","localeAltName":null},{"geonameid":6539092,"name":"Torre di Ruggiero","admin3":"079148","localeAltName":null},{"geonameid":6539854,"name":"Badolato","admin3":"079008","localeAltName":null},{"geonameid":6539855,"name":"Decollatura","admin3":"079043","localeAltName":null},{"geonameid":6539856,"name":"Taverna","admin3":"079146","localeAltName":null},{"geonameid":6540040,"name":"Cortale","admin3":"079034","localeAltName":null},{"geonameid":6540041,"name":"Cropani","admin3":"079036","localeAltName":null},{"geonameid":6540042,"name":"Gimigliano","admin3":"079058","localeAltName":null},{"geonameid":6540043,"name":"Satriano","admin3":"079123","localeAltName":null},{"geonameid":6540273,"name":"Curinga","admin3":"079039","localeAltName":null},{"geonameid":6540801,"name":"Borgia","admin3":"079011","localeAltName":null},{"geonameid":6540802,"name":"Fossato Serralta","admin3":"079052"},{"geonameid":6540803,"name":"Girifalco","admin3":"079059","localeAltName":null},{"geonameid":6540804,"name":"Maida","admin3":"079069","localeAltName":null},{"geonameid":6540805,"name":"Montauro","admin3":"079080","localeAltName":null},{"geonameid":6540806,"name":"Motta Santa Lucia","admin3":"079083","localeAltName":null},{"geonameid":6540807,"name":"Sant'Andrea Apostolo dello Ionio","admin3":"079118","localeAltName":null},{"geonameid":6540808,"name":"Sersale","admin3":"079130","localeAltName":null},{"geonameid":6541303,"name":"Amaroni","admin3":"079003","localeAltName":null},{"geonameid":6541304,"name":"Cerva","admin3":"079027","localeAltName":null},{"geonameid":6541305,"name":"Olivadi","admin3":"079088","localeAltName":null},{"geonameid":6541306,"name":"San Pietro Apostolo","admin3":"079115","localeAltName":null},{"geonameid":6541307,"name":"Sellia","admin3":"079126"},{"geonameid":6541308,"name":"Tiriolo","admin3":"079147","localeAltName":null},{"geonameid":6541309,"name":"Vallefiorita","admin3":"079151","localeAltName":null},{"geonameid":6541310,"name":"Zagarise","admin3":"079157","localeAltName":null},{"geonameid":6541459,"name":"Martirano","admin3":"079073","localeAltName":null},{"geonameid":6541750,"name":"Argusto","admin3":"079007"},{"geonameid":6541751,"name":"Cardinale","admin3":"079018","localeAltName":null},{"geonameid":6541752,"name":"San Mango d'Aquino","admin3":"079110","localeAltName":null},{"geonameid":6541753,"name":"San Pietro a Maida","admin3":"079114","localeAltName":null},{"geonameid":6541858,"name":"Catanzaro","admin3":"079023","localeAltName":null},{"geonameid":6541952,"name":"Centrache","admin3":"079025"},{"geonameid":6541953,"name":"Marcellinara","admin3":"079072","localeAltName":null},{"geonameid":6541954,"name":"Nocera Terinese","admin3":"079087","localeAltName":null},{"geonameid":6542288,"name":"Soverato","admin3":"079137","localeAltName":null},{"geonameid":6542307,"name":"Lamezia Terme","admin3":"079160","localeAltName":null},{"geonameid":6542803,"name":"Conflenti","admin3":"079033","localeAltName":null},{"geonameid":6543298,"name":"Amato","admin3":"079004","localeAltName":null},{"geonameid":6543299,"name":"Belcastro","admin3":"079009","localeAltName":null},{"geonameid":6543300,"name":"Feroleto Antico","admin3":"079048"},{"geonameid":6543301,"name":"Jacurso","admin3":"079065","localeAltName":null},{"geonameid":6543302,"name":"Magisano","admin3":"079068","localeAltName":null},{"geonameid":6543303,"name":"Sellia Marina","admin3":"079127","localeAltName":null},{"geonameid":6543632,"name":"Gagliato","admin3":"079055"},{"geonameid":6543633,"name":"Settingiano","admin3":"079131","localeAltName":null}],"alternateNames":[{"alternatenameId":1183552,"geonameid":2525058,"isoLanguage":"it","alternateName":"Catanzaro","isPreferredName":true,"isShortName":true,"isColloquial":false,"isHistoric":false},{"alternatenameId":1621273,"geonameid":2525468,"isoLanguage":"it","alternateName":"Calabria","isPreferredName":true,"isShortName":true,"isColloquial":false,"isHistoric":false}]},"__N_SSG":true}