{"pageProps":{"locale":"en","admin2":{"geonameid":4347790,"name":"Baltimore County","country":"US","admin1":"MD","admin2":"005","admin3":"","latitude":"39.4430700","longitude":"-76.6163200"},"admin1":{"geonameid":4361885,"name":"Maryland","admin1":"MD","localeAltName":"Maryland"},"locations":[{"geonameid":4347371,"name":"Arbutus","admin3":""},{"geonameid":4347800,"name":"Baltimore Highlands","admin3":""},{"geonameid":4349175,"name":"Bowleys Quarters","admin3":""},{"geonameid":4350413,"name":"Carney","admin3":""},{"geonameid":4350635,"name":"Catonsville","admin3":""},{"geonameid":4351037,"name":"Charlestown","admin3":""},{"geonameid":4351887,"name":"Cockeysville","admin3":""},{"geonameid":4353765,"name":"Dundalk","admin3":""},{"geonameid":4354060,"name":"Edgemere","admin3":""},{"geonameid":4354428,"name":"Essex","admin3":""},{"geonameid":4355958,"name":"Garrison","admin3":""},{"geonameid":4357289,"name":"Hampton","admin3":""},{"geonameid":4358701,"name":"Hunt Valley","admin3":""},{"geonameid":4359984,"name":"Kingsville","admin3":""},{"geonameid":4360328,"name":"Lansdowne","admin3":""},{"geonameid":4360954,"name":"Lochearn","admin3":""},{"geonameid":4361379,"name":"Lutherville","admin3":""},{"geonameid":7258897,"name":"Lutherville-Timonium","admin3":""},{"geonameid":4362009,"name":"Mays Chapel","admin3":""},{"geonameid":4362344,"name":"Middle River","admin3":""},{"geonameid":4362438,"name":"Milford Mill","admin3":""},{"geonameid":4364690,"name":"Overlea","admin3":""},{"geonameid":4364727,"name":"Owings Mills","admin3":""},{"geonameid":4364946,"name":"Parkville","admin3":""},{"geonameid":4365227,"name":"Perry Hall","admin3":""},{"geonameid":4365387,"name":"Pikesville","admin3":""},{"geonameid":4366476,"name":"Randallstown","admin3":""},{"geonameid":4366647,"name":"Reisterstown","admin3":""},{"geonameid":4367372,"name":"Rosedale","admin3":""},{"geonameid":4367419,"name":"Rossville","admin3":""},{"geonameid":4371420,"name":"Timonium","admin3":""},{"geonameid":4371582,"name":"Towson","admin3":""},{"geonameid":4373426,"name":"White Marsh","admin3":""},{"geonameid":4374054,"name":"Woodlawn","admin3":""}],"admin3":[],"alternateNames":[{"alternatenameId":1979906,"geonameid":4361885,"isoLanguage":"en","alternateName":"Maryland","isPreferredName":true,"isShortName":true,"isColloquial":false,"isHistoric":false}]},"__N_SSG":true}