{"pageProps":{"locale":"en","admin2":{"geonameid":4350123,"name":"Calvert County","country":"US","admin1":"MD","admin2":"009","admin3":"","latitude":"38.5347100","longitude":"-76.5305600"},"admin1":{"geonameid":4361885,"name":"Maryland","admin1":"MD","localeAltName":"Maryland"},"locations":[{"geonameid":4351184,"name":"Chesapeake Beach","admin3":""},{"geonameid":4351228,"name":"Chesapeake Ranch Estates","admin3":""},{"geonameid":4353667,"name":"Drum Point","admin3":""},{"geonameid":4353798,"name":"Dunkirk","admin3":""},{"geonameid":4353805,"name":"Dunkirk Town Center","admin3":""},{"geonameid":4358772,"name":"Huntingtown","admin3":""},{"geonameid":4358779,"name":"Huntingtown Town Center","admin3":""},{"geonameid":4361109,"name":"Long Beach","admin3":""},{"geonameid":4361365,"name":"Lusby","admin3":""},{"geonameid":4363831,"name":"North Beach","admin3":""},{"geonameid":4364721,"name":"Owings","admin3":""},{"geonameid":4366159,"name":"Prince Frederick","admin3":""},{"geonameid":4369872,"name":"Solomons","admin3":""}],"admin3":[],"alternateNames":[{"alternatenameId":1979906,"geonameid":4361885,"isoLanguage":"en","alternateName":"Maryland","isPreferredName":true,"isShortName":true,"isColloquial":false,"isHistoric":false}]},"__N_SSG":true}