{"pageProps":{"locale":"en","admin2":{"geonameid":4585002,"name":"Lexington County","country":"US","admin1":"SC","admin2":"063","admin3":"","latitude":"33.9023300","longitude":"-81.2721900","localeAltName":null},"admin1":{"geonameid":4597040,"name":"South Carolina","admin1":"SC","localeAltName":"South Carolina"},"locations":[{"geonameid":4570111,"name":"Batesburg","admin3":"","localeAltName":null},{"geonameid":4570117,"name":"Batesburg-Leesville","admin3":"","localeAltName":null},{"geonameid":4573888,"name":"Cayce","admin3":"","localeAltName":null},{"geonameid":4574280,"name":"Chapin","admin3":"","localeAltName":null},{"geonameid":4579571,"name":"Gaston","admin3":"","localeAltName":null},{"geonameid":4579757,"name":"Gilbert","admin3":"","localeAltName":null},{"geonameid":4583057,"name":"Irmo","admin3":"","localeAltName":null},{"geonameid":4584885,"name":"Leesville","admin3":"","localeAltName":null},{"geonameid":4585000,"name":"Lexington","admin3":"","localeAltName":null},{"geonameid":7260518,"name":"Oak Grove","admin3":"","localeAltName":null},{"geonameid":4590739,"name":"Pelion","admin3":"","localeAltName":null},{"geonameid":4591304,"name":"Pineridge","admin3":"","localeAltName":null},{"geonameid":4592453,"name":"Red Bank","admin3":"","localeAltName":null},{"geonameid":4593724,"name":"Saint Andrews","admin3":"","localeAltName":null},{"geonameid":4595374,"name":"Seven Oaks","admin3":"","localeAltName":null},{"geonameid":4597044,"name":"South Congaree","admin3":"","localeAltName":null},{"geonameid":4597398,"name":"Springdale","admin3":"","localeAltName":null},{"geonameid":4598098,"name":"Swansea","admin3":"","localeAltName":null},{"geonameid":4600541,"name":"West Columbia","admin3":"","localeAltName":null}],"admin3":[],"alternateNames":[{"alternatenameId":2089561,"geonameid":4597040,"isoLanguage":"en","alternateName":"South Carolina","isPreferredName":true,"isShortName":true,"isColloquial":false,"isHistoric":false}]},"__N_SSG":true}