{"pageProps":{"locale":"en","admin2":{"geonameid":4267492,"name":"Allen County","country":"US","admin1":"KS","admin2":"001","admin3":"","latitude":"37.8857300","longitude":"-95.3013900","localeAltName":null},"admin1":{"geonameid":4273857,"name":"Kansas","admin1":"KS","localeAltName":"Kansas"},"locations":[{"geonameid":4271990,"name":"Gas","admin3":"20550","localeAltName":null},{"geonameid":4273255,"name":"Humboldt","admin3":"33450","localeAltName":null},{"geonameid":4273441,"name":"Iola","admin3":"34300","localeAltName":null},{"geonameid":4274077,"name":"La Harpe","admin3":"37725","localeAltName":null},{"geonameid":4275714,"name":"Moran","admin3":"44850","localeAltName":null}],"admin3":[{"geonameid":4269095,"name":"Township of Carlyle","admin3":"10725"},{"geonameid":4269969,"name":"Township of Cottage Grove","admin3":"15825"},{"geonameid":4270307,"name":"Township of Deer Creek","admin3":"17175"},{"geonameid":4271002,"name":"Township of Elm","admin3":"20550","localeAltName":null},{"geonameid":4271030,"name":"Township of Elsmore","admin3":"20900"},{"geonameid":4272019,"name":"Township of Geneva","admin3":"26100"},{"geonameid":4273262,"name":"City of Humboldt","admin3":"33450","localeAltName":null},{"geonameid":4273263,"name":"Township of Humboldt","admin3":"33475"},{"geonameid":4273453,"name":"City of Iola","admin3":"34300","localeAltName":null},{"geonameid":4273454,"name":"Township of Iola","admin3":"34325"},{"geonameid":4274080,"name":"City of La Harpe","admin3":"37725","localeAltName":null},{"geonameid":4274699,"name":"Township of Logan","admin3":"41725"},{"geonameid":4275098,"name":"Township of Marmaton","admin3":"44850","localeAltName":null},{"geonameid":4276767,"name":"Township of Osage","admin3":"53075"},{"geonameid":4278882,"name":"Township of Salem","admin3":"62600"}],"alternateNames":[{"alternatenameId":2080124,"geonameid":4273857,"isoLanguage":"en","alternateName":"Kansas","isPreferredName":true,"isShortName":true,"isColloquial":false,"isHistoric":false}]},"__N_SSG":true}