{"pageProps":{"locale":"en","admin2":{"geonameid":4269648,"name":"Clay County","country":"US","admin1":"KS","admin2":"027","admin3":"","latitude":"39.3497100","longitude":"-97.1651700","localeAltName":null},"admin1":{"geonameid":4273857,"name":"Kansas","admin1":"KS","localeAltName":"Kansas"},"locations":[{"geonameid":4269642,"name":"Clay Center","admin3":"13625","localeAltName":null},{"geonameid":4281116,"name":"Wakefield","admin3":"59025","localeAltName":null}],"admin3":[{"geonameid":4267745,"name":"Township of Athelstane","admin3":"02950"},{"geonameid":4268383,"name":"Township of Blaine","admin3":"07050"},{"geonameid":4268419,"name":"Township of Bloom","admin3":"07325"},{"geonameid":4269406,"name":"Township of Chapman","admin3":"12525"},{"geonameid":4269646,"name":"City of Clay Center","admin3":"13625","localeAltName":null},{"geonameid":4269647,"name":"Township of Clay Center","admin3":"13650"},{"geonameid":4271228,"name":"Township of Exeter","admin3":"22100"},{"geonameid":4271599,"name":"Township of Five Creeks","admin3":"23475"},{"geonameid":4271964,"name":"Township of Garfield","admin3":"25500"},{"geonameid":4272052,"name":"Township of Gill","admin3":"26250"},{"geonameid":4272194,"name":"Township of Goshen","admin3":"27025"},{"geonameid":4272299,"name":"Township of Grant","admin3":"27500"},{"geonameid":4272773,"name":"Township of Hayes","admin3":"30875"},{"geonameid":4272969,"name":"Township of Highland","admin3":"31825"},{"geonameid":4276007,"name":"Township of Mulberry","admin3":"49000"},{"geonameid":4276553,"name":"Township of Oakland","admin3":"51725"},{"geonameid":4278015,"name":"Township of Republican","admin3":"59025","localeAltName":null},{"geonameid":4279305,"name":"Township of Sherman","admin3":"64850"},{"geonameid":4280841,"name":"Township of Union","admin3":"72075"}],"alternateNames":[{"alternatenameId":2080124,"geonameid":4273857,"isoLanguage":"en","alternateName":"Kansas","isPreferredName":true,"isShortName":true,"isColloquial":false,"isHistoric":false}]},"__N_SSG":true}