{"pageProps":{"locale":"en","admin2":{"geonameid":4281852,"name":"Wilson County","country":"US","admin1":"KS","admin2":"205","admin3":"","latitude":"37.5592400","longitude":"-95.7433900","localeAltName":null},"admin1":{"geonameid":4273857,"name":"Kansas","admin1":"KS","localeAltName":"Kansas"},"locations":[{"geonameid":4271796,"name":"Fredonia","admin3":"24575","localeAltName":null},{"geonameid":4276128,"name":"Neodesha","admin3":"49650","localeAltName":null}],"admin3":[{"geonameid":4269226,"name":"Township of Cedar","admin3":"11375"},{"geonameid":4269297,"name":"Township of Center","admin3":"12225"},{"geonameid":4269497,"name":"Township of Chetopa","admin3":"13000"},{"geonameid":4269728,"name":"Township of Clifton","admin3":"14250"},{"geonameid":4269820,"name":"Township of Colfax","admin3":"14825"},{"geonameid":4270563,"name":"Township of Duck Creek","admin3":"18800"},{"geonameid":4271385,"name":"Township of Fall River","admin3":"22825"},{"geonameid":4271802,"name":"City of Fredonia","admin3":"24575","localeAltName":null},{"geonameid":4272494,"name":"Township of Guilford","admin3":"29200"},{"geonameid":4276131,"name":"City of Neodesha","admin3":"49650","localeAltName":null},{"geonameid":4276132,"name":"Township of Neodesha","admin3":"49675"},{"geonameid":4276236,"name":"Township of Newark","admin3":"50200"},{"geonameid":4277437,"name":"Township of Pleasant Valley","admin3":"56650"},{"geonameid":4277724,"name":"Township of Prairie","admin3":"57425"},{"geonameid":4280335,"name":"Township of Talleyrand","admin3":"69900"},{"geonameid":4280981,"name":"Township of Verdigris","admin3":"73500"},{"geonameid":4281369,"name":"Township of Webster","admin3":"76300"}],"alternateNames":[{"alternatenameId":2080124,"geonameid":4273857,"isoLanguage":"en","alternateName":"Kansas","isPreferredName":true,"isShortName":true,"isColloquial":false,"isHistoric":false}]},"__N_SSG":true}