{"pageProps":{"locale":"en","admin2":{"geonameid":4457580,"name":"Brunswick County","country":"US","admin1":"NC","admin2":"019","admin3":"","latitude":"34.0389700","longitude":"-78.2272800"},"admin1":{"geonameid":4482348,"name":"North Carolina","admin1":"NC","localeAltName":"North Carolina"},"locations":[{"geonameid":4454893,"name":"Belville","admin3":"93252"},{"geonameid":4456593,"name":"Boiling Spring Lakes","admin3":"93252"},{"geonameid":4458584,"name":"Calabash","admin3":"92900"},{"geonameid":4459298,"name":"Carolina Shores","admin3":"92900"},{"geonameid":4475622,"name":"Leland","admin3":"92324"},{"geonameid":4476919,"name":"Long Beach","admin3":"92992"},{"geonameid":4481551,"name":"Navassa","admin3":"92324"},{"geonameid":4482916,"name":"Oak Island","admin3":"92992"},{"geonameid":4489504,"name":"Saint James","admin3":"91884"},{"geonameid":4490976,"name":"Shallotte","admin3":"91884"},{"geonameid":4492756,"name":"Southport","admin3":"92992"},{"geonameid":4494082,"name":"Sunset Beach","admin3":"92900"}],"admin3":[{"geonameid":4476785,"name":"Township of Lockwoods Folly","admin3":"91884"},{"geonameid":4482666,"name":"Township of Northwest","admin3":"92324"},{"geonameid":4490985,"name":"Township of Shallotte","admin3":"92900"},{"geonameid":4492210,"name":"Township of Smithville","admin3":"92992"},{"geonameid":4495336,"name":"Township of Town Creek","admin3":"93252"},{"geonameid":4497219,"name":"Township of Waccamaw","admin3":"93868"}],"alternateNames":[{"alternatenameId":2089560,"geonameid":4482348,"isoLanguage":"en","alternateName":"North Carolina","isPreferredName":true,"isShortName":true,"isColloquial":false,"isHistoric":false}]},"__N_SSG":true}