{"pageProps":{"locale":"en","admin2":{"geonameid":4458155,"name":"Buncombe County","country":"US","admin1":"NC","admin2":"021","admin3":"","latitude":"35.6112200","longitude":"-82.5301000"},"admin1":{"geonameid":4482348,"name":"North Carolina","admin1":"NC","localeAltName":"North Carolina"},"locations":[{"geonameid":4453066,"name":"Asheville","admin3":"90086"},{"geonameid":4453238,"name":"Avery Creek","admin3":"90108"},{"geonameid":4454988,"name":"Bent Creek","admin3":"90108"},{"geonameid":4455999,"name":"Biltmore Forest","admin3":"90088"},{"geonameid":4456121,"name":"Black Mountain","admin3":"90284"},{"geonameid":4465705,"name":"Fairview","admin3":"91056"},{"geonameid":4489236,"name":"Royal Pines","admin3":"90086"},{"geonameid":4494217,"name":"Swannanoa","admin3":"93180"},{"geonameid":4497912,"name":"Weaverville","admin3":"92648"},{"geonameid":4499850,"name":"Woodfin","admin3":"90088"}],"admin3":[{"geonameid":4453062,"name":"Township of Asheville","admin3":"90088"},{"geonameid":4453242,"name":"Township of Avery Creek","admin3":"90108"},{"geonameid":4456143,"name":"Township of Black Mountain","admin3":"90284"},{"geonameid":4457305,"name":"Township of Broad River","admin3":"90380"},{"geonameid":4465773,"name":"Township of Fairview","admin3":"91056"},{"geonameid":4466424,"name":"Township of Flat Creek","admin3":"91116"},{"geonameid":4467262,"name":"Township of French Broad","admin3":"91176"},{"geonameid":4472962,"name":"Township of Ivy","admin3":"91604"},{"geonameid":4475618,"name":"Township of Leicester","admin3":"91776"},{"geonameid":4475964,"name":"Township of Limestone","admin3":"91816"},{"geonameid":4477433,"name":"Township of Lower Hominy","admin3":"91932"},{"geonameid":4487583,"name":"Township of Reems Creek","admin3":"92648"},{"geonameid":4490252,"name":"Township of Sandy Mush","admin3":"92832"},{"geonameid":4494227,"name":"Township of Swannanoa","admin3":"93180"},{"geonameid":4496400,"name":"Township of Upper Hominy","admin3":"93840"},{"geonameid":7169337,"name":"City of Asheville","admin3":"90086"}],"alternateNames":[{"alternatenameId":2089560,"geonameid":4482348,"isoLanguage":"en","alternateName":"North Carolina","isPreferredName":true,"isShortName":true,"isColloquial":false,"isHistoric":false}]},"__N_SSG":true}