{"pageProps":{"locale":"en","admin2":{"geonameid":4459547,"name":"Caswell County","country":"US","admin1":"NC","admin2":"033","admin3":"","latitude":"36.3933500","longitude":"-79.3335900"},"admin1":{"geonameid":4482348,"name":"North Carolina","admin1":"NC","localeAltName":"North Carolina"},"locations":[{"geonameid":4500166,"name":"Yanceyville","admin3":"94120"}],"admin3":[{"geonameid":4452649,"name":"Township of Anderson","admin3":"90056"},{"geonameid":4462932,"name":"Township of Dan River","admin3":"90880"},{"geonameid":4471142,"name":"Township of Hightowers","admin3":"91492"},{"geonameid":4475427,"name":"Township of Leasburg","admin3":"91756"},{"geonameid":4476814,"name":"Township of Locust Hill","admin3":"91888"},{"geonameid":4479662,"name":"Township of Milton","admin3":"92080"},{"geonameid":4484480,"name":"Township of Pelham","admin3":"92468"},{"geonameid":4493644,"name":"Township of Stoney Creek","admin3":"93137"},{"geonameid":4500167,"name":"Township of Yanceyville","admin3":"94120"}],"alternateNames":[{"alternatenameId":2089560,"geonameid":4482348,"isoLanguage":"en","alternateName":"North Carolina","isPreferredName":true,"isShortName":true,"isColloquial":false,"isHistoric":false}]},"__N_SSG":true}