{"pageProps":{"locale":"en","admin2":{"geonameid":4464351,"name":"Duplin County","country":"US","admin1":"NC","admin2":"061","admin3":"","latitude":"34.9362800","longitude":"-77.9329400"},"admin1":{"geonameid":4482348,"name":"North Carolina","admin1":"NC","localeAltName":"North Carolina"},"locations":[{"geonameid":4455473,"name":"Beulaville","admin3":"91820"},{"geonameid":4488954,"name":"Rose Hill","admin3":"92752"},{"geonameid":4497385,"name":"Wallace","admin3":"91600"},{"geonameid":4497643,"name":"Warsaw","admin3":"93900"}],"admin3":[{"geonameid":4462846,"name":"Township of Cypress Creek","admin3":"90864"},{"geonameid":4465782,"name":"Township of Faison","admin3":"91060"},{"geonameid":4468141,"name":"Township of Glisson","admin3":"91240"},{"geonameid":4472846,"name":"Township of Island Creek","admin3":"91600"},{"geonameid":4474150,"name":"Township of Kenansville","admin3":"91688"},{"geonameid":4475985,"name":"Township of Limestone","admin3":"91820"},{"geonameid":4477771,"name":"Township of Magnolia","admin3":"91960"},{"geonameid":4488544,"name":"Township of Rockfish","admin3":"92728"},{"geonameid":4488965,"name":"Township of Rose Hill","admin3":"92752"},{"geonameid":4492163,"name":"Township of Smith","admin3":"92972"},{"geonameid":4497646,"name":"Township of Warsaw","admin3":"93900"},{"geonameid":4499783,"name":"Township of Wolfscrape","admin3":"94092"},{"geonameid":4828777,"name":"Township of Albertson","admin3":"90020"}],"alternateNames":[{"alternatenameId":2089560,"geonameid":4482348,"isoLanguage":"en","alternateName":"North Carolina","isPreferredName":true,"isShortName":true,"isColloquial":false,"isHistoric":false}]},"__N_SSG":true}