{"pageProps":{"locale":"en","admin2":{"geonameid":4467141,"name":"Franklin County","country":"US","admin1":"NC","admin2":"069","admin3":"","latitude":"36.0827900","longitude":"-78.2856100"},"admin1":{"geonameid":4482348,"name":"North Carolina","admin1":"NC","localeAltName":"North Carolina"},"locations":[{"geonameid":4467161,"name":"Franklinton","admin3":"91170"},{"geonameid":4477296,"name":"Louisburg","admin3":"91906"},{"geonameid":4500320,"name":"Youngsville","admin3":"94150"}],"admin3":[{"geonameid":4495384,"name":"Township of Dunn","admin3":"90926"},{"geonameid":4495396,"name":"Township of Louisburg","admin3":"91906"},{"geonameid":4495421,"name":"Township of Harris","admin3":"91414"},{"geonameid":4495439,"name":"Township of Youngsville","admin3":"94150"},{"geonameid":4495445,"name":"Township of Franklinton","admin3":"91170"},{"geonameid":4495457,"name":"Township of Hayesville","admin3":"91438"},{"geonameid":4495471,"name":"Township of Sandy Creek","admin3":"92822"},{"geonameid":4495481,"name":"Township of Gold Mine","admin3":"91258"},{"geonameid":4495487,"name":"Township of Cedar Rock","admin3":"90590"},{"geonameid":4495496,"name":"Township of Cypress Creek","admin3":"90866"}],"alternateNames":[{"alternatenameId":2089560,"geonameid":4482348,"isoLanguage":"en","alternateName":"North Carolina","isPreferredName":true,"isShortName":true,"isColloquial":false,"isHistoric":false}]},"__N_SSG":true}