{"pageProps":{"locale":"en","admin2":{"geonameid":4478142,"name":"Martin County","country":"US","admin1":"NC","admin2":"117","admin3":"","latitude":"35.8416000","longitude":"-77.1070800"},"admin1":{"geonameid":4482348,"name":"North Carolina","admin1":"NC","localeAltName":"North Carolina"},"locations":[{"geonameid":4488314,"name":"Robersonville","admin3":"92712"},{"geonameid":4499294,"name":"Williamston","admin3":"94040"}],"admin3":[{"geonameid":4454251,"name":"Township of Beargrass","admin3":"90176"},{"geonameid":4462591,"name":"Township of Cross Roads","admin3":"90836"},{"geonameid":4468352,"name":"Township of Goose Nest","admin3":"91268"},{"geonameid":4469273,"name":"Township of Griffins","admin3":"91332"},{"geonameid":4469729,"name":"Township of Hamilton","admin3":"91388"},{"geonameid":4473167,"name":"Township of Jamesville","admin3":"91644"},{"geonameid":4486232,"name":"Township of Poplar Point","admin3":"92556"},{"geonameid":4488315,"name":"Township of Robersonville","admin3":"92712"},{"geonameid":4499267,"name":"Township of Williams","admin3":"94024"},{"geonameid":4499301,"name":"Township of Williamston","admin3":"94040"}],"alternateNames":[{"alternatenameId":2089560,"geonameid":4482348,"isoLanguage":"en","alternateName":"North Carolina","isPreferredName":true,"isShortName":true,"isColloquial":false,"isHistoric":false}]},"__N_SSG":true}