{"pageProps":{"locale":"en","admin2":{"geonameid":4484498,"name":"Pender County","country":"US","admin1":"NC","admin2":"141","admin3":"","latitude":"34.5149400","longitude":"-77.8888700"},"admin1":{"geonameid":4482348,"name":"North Carolina","admin1":"NC","localeAltName":"North Carolina"},"locations":[{"geonameid":4458175,"name":"Burgaw","admin3":"90444"},{"geonameid":4469765,"name":"Hampstead","admin3":"93248"},{"geonameid":4488758,"name":"Rocky Point","admin3":"92744"},{"geonameid":4494127,"name":"Surf City","admin3":"93248"}],"admin3":[{"geonameid":4458178,"name":"Township of Burgaw","admin3":"90444"},{"geonameid":4459085,"name":"Township of Canetuck","admin3":"90496"},{"geonameid":4459554,"name":"Township of Caswell","admin3":"90548"},{"geonameid":4461496,"name":"Township of Columbia","admin3":"90728"},{"geonameid":4468509,"name":"Township of Grady","admin3":"91272"},{"geonameid":4471658,"name":"Township of Holly","admin3":"91516"},{"geonameid":4477091,"name":"Township of Long Creek","admin3":"91900"},{"geonameid":4488773,"name":"Township of Rocky Point","admin3":"92744"},{"geonameid":4495293,"name":"Township of Topsail","admin3":"93248"},{"geonameid":4496299,"name":"Township of Union","admin3":"93804"}],"alternateNames":[{"alternatenameId":2089560,"geonameid":4482348,"isoLanguage":"en","alternateName":"North Carolina","isPreferredName":true,"isShortName":true,"isColloquial":false,"isHistoric":false}]},"__N_SSG":true}