{"pageProps":{"locale":"en","admin2":{"geonameid":4487127,"name":"Randolph County","country":"US","admin1":"NC","admin2":"151","admin3":"","latitude":"35.7103300","longitude":"-79.8061600"},"admin1":{"geonameid":4482348,"name":"North Carolina","admin1":"NC","localeAltName":"North Carolina"},"locations":[{"geonameid":4452871,"name":"Archdale","admin3":"93768"},{"geonameid":4453035,"name":"Asheboro","admin3":"90084"},{"geonameid":4467167,"name":"Franklinville","admin3":"91172"},{"geonameid":4475785,"name":"Liberty","admin3":"91800"},{"geonameid":4487078,"name":"Ramseur","admin3":"90732"},{"geonameid":4487116,"name":"Randleman","admin3":"92620"},{"geonameid":4495616,"name":"Trinity","admin3":"93768"}],"admin3":[{"geonameid":4453046,"name":"Township of Asheboro","admin3":"90084"},{"geonameid":4453326,"name":"Township of Back Creek","admin3":"90116"},{"geonameid":4457440,"name":"Township of Brower","admin3":"90388"},{"geonameid":4459824,"name":"Township of Cedar Grove","admin3":"90584"},{"geonameid":4461361,"name":"Township of Coleridge","admin3":"90716"},{"geonameid":4461497,"name":"Township of Columbia","admin3":"90732"},{"geonameid":4461616,"name":"Township of Concord","admin3":"90748"},{"geonameid":4467169,"name":"Township of Franklinville","admin3":"91172"},{"geonameid":4475695,"name":"Township of Level Cross","admin3":"91784"},{"geonameid":4475840,"name":"Township of Liberty","admin3":"91800"},{"geonameid":4481894,"name":"Township of New Hope","admin3":"92252"},{"geonameid":4481946,"name":"Township of New Market","admin3":"92268"},{"geonameid":4485799,"name":"Township of Pleasant Grove","admin3":"92532"},{"geonameid":4486680,"name":"Township of Providence","admin3":"92580"},{"geonameid":4487122,"name":"Township of Randleman","admin3":"92620"},{"geonameid":4487939,"name":"Township of Richland","admin3":"92668"},{"geonameid":4494392,"name":"Township of Tabernacle","admin3":"93208"},{"geonameid":4495667,"name":"Township of Trinity","admin3":"93768"},{"geonameid":4496300,"name":"Township of Union","admin3":"93808"},{"geonameid":4828806,"name":"Township of Grant","admin3":"91276"}],"alternateNames":[{"alternatenameId":2089560,"geonameid":4482348,"isoLanguage":"en","alternateName":"North Carolina","isPreferredName":true,"isShortName":true,"isColloquial":false,"isHistoric":false}]},"__N_SSG":true}