{"pageProps":{"locale":"en","admin2":{"geonameid":4487947,"name":"Richmond County","country":"US","admin1":"NC","admin2":"153","admin3":"","latitude":"35.0059400","longitude":"-79.7478300"},"admin1":{"geonameid":4482348,"name":"North Carolina","admin1":"NC","localeAltName":"North Carolina"},"locations":[{"geonameid":4461890,"name":"Cordova","admin3":"94088"},{"geonameid":4464672,"name":"East Rockingham","admin3":"94088"},{"geonameid":4465198,"name":"Ellerbe","admin3":"92084"},{"geonameid":4469730,"name":"Hamlet","admin3":"91988"},{"geonameid":4488587,"name":"Rockingham","admin3":"92736"}],"admin3":[{"geonameid":4454561,"name":"Township of Beaverdam","admin3":"90200"},{"geonameid":4456116,"name":"Township of Black Jack","admin3":"90280"},{"geonameid":4478026,"name":"Township of Marks Creek","admin3":"91988"},{"geonameid":4479712,"name":"Township of Mineral Springs","admin3":"92084"},{"geonameid":4488581,"name":"Township of Rockingham","admin3":"92736"},{"geonameid":4493364,"name":"Township of Steeles","admin3":"93116"},{"geonameid":4499744,"name":"Township of Wolf Pit","admin3":"94088"}],"alternateNames":[{"alternatenameId":2089560,"geonameid":4482348,"isoLanguage":"en","alternateName":"North Carolina","isPreferredName":true,"isShortName":true,"isColloquial":false,"isHistoric":false}]},"__N_SSG":true}