{"pageProps":{"locale":"en","admin2":{"geonameid":4490053,"name":"Sampson County","country":"US","admin1":"NC","admin2":"163","admin3":"","latitude":"34.9916300","longitude":"-78.3715200"},"admin1":{"geonameid":4482348,"name":"North Carolina","admin1":"NC","localeAltName":"North Carolina"},"locations":[{"geonameid":4461101,"name":"Clinton","admin3":"93032"},{"geonameid":4485665,"name":"Plain View","admin3":"92524"},{"geonameid":4488978,"name":"Roseboro","admin3":"91844"}],"admin3":[{"geonameid":4454898,"name":"Township of Belvoir","admin3":"90228"},{"geonameid":4463729,"name":"Township of Dismal","admin3":"90904"},{"geonameid":4467159,"name":"Township of Franklin","admin3":"91164"},{"geonameid":4469691,"name":"Township of Halls","admin3":"91380"},{"geonameid":4470721,"name":"Township of Herring","admin3":"91460"},{"geonameid":4471776,"name":"Township of Honeycutt","admin3":"91528"},{"geonameid":4476078,"name":"Township of Lisbon","admin3":"91836"},{"geonameid":4476199,"name":"Township of Little Coharie","admin3":"91844"},{"geonameid":4478562,"name":"Township of McDaniels","admin3":"91944"},{"geonameid":4479726,"name":"Township of Mingo","admin3":"92088"},{"geonameid":4482111,"name":"Township of Newton Grove","admin3":"92288"},{"geonameid":4482357,"name":"Township of North Clinton","admin3":"92308"},{"geonameid":4485429,"name":"Township of Piney Grove","admin3":"92516"},{"geonameid":4485670,"name":"Township of Plain View","admin3":"92524"},{"geonameid":4492509,"name":"Township of South Clinton","admin3":"93032"},{"geonameid":4492657,"name":"Township of South River","admin3":"93052"},{"geonameid":4494626,"name":"Township of Taylors Bridge","admin3":"93224"},{"geonameid":4495914,"name":"Township of Turkey","admin3":"93780"},{"geonameid":4498341,"name":"Township of Westbrook","admin3":"93939"}],"alternateNames":[{"alternatenameId":2089560,"geonameid":4482348,"isoLanguage":"en","alternateName":"North Carolina","isPreferredName":true,"isShortName":true,"isColloquial":false,"isHistoric":false}]},"__N_SSG":true}