{"pageProps":{"locale":"en","admin2":{"geonameid":4497707,"name":"Watauga County","country":"US","admin1":"NC","admin2":"189","admin3":"","latitude":"36.2311000","longitude":"-81.6963700"},"admin1":{"geonameid":4482348,"name":"North Carolina","admin1":"NC","localeAltName":"North Carolina"},"locations":[{"geonameid":4456376,"name":"Blowing Rock","admin3":"90300"},{"geonameid":4456703,"name":"Boone","admin3":"90332"},{"geonameid":4466951,"name":"Foscoe","admin3":"93912"}],"admin3":[{"geonameid":4453530,"name":"Township of Bald Mountain","admin3":"90132"},{"geonameid":4454562,"name":"Township of Beaverdam","admin3":"90204"},{"geonameid":4456381,"name":"Township of Blowing Rock","admin3":"90300"},{"geonameid":4456441,"name":"Township of Blue Ridge","admin3":"90308"},{"geonameid":4456737,"name":"Township of Boone","admin3":"90332"},{"geonameid":4457632,"name":"Township of Brushy Fork","admin3":"90404"},{"geonameid":4462115,"name":"Township of Cove Creek","admin3":"90788"},{"geonameid":4465153,"name":"Township of Elk","admin3":"91008"},{"geonameid":4475257,"name":"Township of Laurel Creek","admin3":"91744"},{"geonameid":4478894,"name":"Township of Meat Camp","admin3":"92032"},{"geonameid":4481983,"name":"Township of New River","admin3":"92276"},{"geonameid":4482449,"name":"Township of North Fork","admin3":"92320"},{"geonameid":4491121,"name":"Township of Shawneehaw","admin3":"92916"},{"geonameid":4493660,"name":"Township of Stony Fork","admin3":"93152"},{"geonameid":4497718,"name":"Township of Watauga","admin3":"93912"}],"alternateNames":[{"alternatenameId":2089560,"geonameid":4482348,"isoLanguage":"en","alternateName":"North Carolina","isPreferredName":true,"isShortName":true,"isColloquial":false,"isHistoric":false}]},"__N_SSG":true}