{"pageProps":{"locale":"en","admin2":{"geonameid":4937280,"name":"Franklin County","country":"US","admin1":"MA","admin2":"011","admin3":"","latitude":"42.5831200","longitude":"-72.5918700","localeAltName":null},"admin1":{"geonameid":6254926,"name":"Massachusetts","admin1":"MA","localeAltName":"Massachusetts"},"locations":[{"geonameid":4929276,"name":"Ashfield","admin3":"02095","localeAltName":null},{"geonameid":4930437,"name":"Bernardston","admin3":"05560","localeAltName":null},{"geonameid":4931627,"name":"Buckland","admin3":"09595","localeAltName":null},{"geonameid":4932757,"name":"Charlemont","admin3":"12505","localeAltName":null},{"geonameid":4933660,"name":"Colrain","admin3":"14885","localeAltName":null},{"geonameid":4933841,"name":"Conway","admin3":"15200","localeAltName":null},{"geonameid":4934711,"name":"Deerfield","admin3":"16670","localeAltName":null},{"geonameid":4935939,"name":"Erving","admin3":"21780","localeAltName":null},{"geonameid":4937751,"name":"Gill","admin3":"25730","localeAltName":null},{"geonameid":4938378,"name":"Greenfield","admin3":"27100","localeAltName":null},{"geonameid":4939211,"name":"Heath","admin3":"29650","localeAltName":null},{"geonameid":4941899,"name":"Leverett","admin3":"35180","localeAltName":null},{"geonameid":4941949,"name":"Leyden","admin3":"35285","localeAltName":null},{"geonameid":4944154,"name":"Millers Falls","admin3":"21780","localeAltName":null},{"geonameid":4944413,"name":"Montague","admin3":"42285","localeAltName":null},{"geonameid":4945228,"name":"New Salem","admin3":"45490","localeAltName":null},{"geonameid":4945878,"name":"Northfield","admin3":"47835","localeAltName":null},{"geonameid":4946383,"name":"Orange","admin3":"51265","localeAltName":null},{"geonameid":4950747,"name":"Shelburne","admin3":"61135","localeAltName":null},{"geonameid":4950749,"name":"Shelburne Falls","admin3":"61135","localeAltName":null},{"geonameid":4950922,"name":"Shutesbury","admin3":"61905","localeAltName":null},{"geonameid":4951357,"name":"South Deerfield","admin3":"16670","localeAltName":null},{"geonameid":4953473,"name":"Turners Falls","admin3":"42285","localeAltName":null},{"geonameid":4954537,"name":"Warwick","admin3":"73265","localeAltName":null},{"geonameid":4954794,"name":"Wendell","admin3":"74525","localeAltName":null},{"geonameid":4955376,"name":"Whately","admin3":"79110","localeAltName":null}],"admin3":[{"geonameid":4929280,"name":"Town of Ashfield","admin3":"02095","localeAltName":null},{"geonameid":4930438,"name":"Town of Bernardston","admin3":"05560","localeAltName":null},{"geonameid":4931632,"name":"Town of Buckland","admin3":"09595","localeAltName":null},{"geonameid":4932759,"name":"Town of Charlemont","admin3":"12505","localeAltName":null},{"geonameid":4933663,"name":"Town of Colrain","admin3":"14885","localeAltName":null},{"geonameid":4933849,"name":"Town of Conway","admin3":"15200","localeAltName":null},{"geonameid":4934723,"name":"Town of Deerfield","admin3":"16670","localeAltName":null},{"geonameid":4935943,"name":"Town of Erving","admin3":"21780","localeAltName":null},{"geonameid":4937756,"name":"Town of Gill","admin3":"25730","localeAltName":null},{"geonameid":4938393,"name":"City of Greenfield Town","admin3":"27100","localeAltName":null},{"geonameid":4939127,"name":"Town of Hawley","admin3":"29475"},{"geonameid":4939218,"name":"Town of Heath","admin3":"29650","localeAltName":null},{"geonameid":4941908,"name":"Town of Leverett","admin3":"35180","localeAltName":null},{"geonameid":4941953,"name":"Town of Leyden","admin3":"35285","localeAltName":null},{"geonameid":4944346,"name":"Town of Monroe","admin3":"42040"},{"geonameid":4944373,"name":"Town of Montague","admin3":"42285","localeAltName":null},{"geonameid":4945233,"name":"Town of New Salem","admin3":"45490","localeAltName":null},{"geonameid":4945892,"name":"Town of Northfield","admin3":"47835","localeAltName":null},{"geonameid":4946390,"name":"Town of Orange","admin3":"51265","localeAltName":null},{"geonameid":4949141,"name":"Town of Rowe","admin3":"58335"},{"geonameid":4950756,"name":"Town of Shelburne","admin3":"61135","localeAltName":null},{"geonameid":4950928,"name":"Town of Shutesbury","admin3":"61905","localeAltName":null},{"geonameid":4952390,"name":"Town of Sunderland","admin3":"68400"},{"geonameid":4954542,"name":"Town of Warwick","admin3":"73265","localeAltName":null},{"geonameid":4954800,"name":"Town of Wendell","admin3":"74525","localeAltName":null},{"geonameid":4955380,"name":"Town of Whately","admin3":"79110","localeAltName":null}],"alternateNames":[{"alternatenameId":6755490,"geonameid":6254926,"isoLanguage":"en","alternateName":"Massachusetts","isPreferredName":true,"isShortName":true,"isColloquial":false,"isHistoric":false}]},"__N_SSG":true}