{"pageProps":{"locale":"en","admin2":{"geonameid":4859441,"name":"Grundy County","country":"US","admin1":"IA","admin2":"075","admin3":"","latitude":"42.4018700","longitude":"-92.7914200","localeAltName":null},"admin1":{"geonameid":4862182,"name":"Iowa","admin1":"IA","localeAltName":"Iowa"},"locations":[{"geonameid":4852519,"name":"Conrad","admin3":"90675","localeAltName":null},{"geonameid":4854158,"name":"Dike","admin3":"91656","localeAltName":null},{"geonameid":4859430,"name":"Grundy Center","admin3":"93258","localeAltName":null},{"geonameid":4872729,"name":"Reinbeck","admin3":"90249","localeAltName":null},{"geonameid":4881170,"name":"Wellsburg","admin3":"93882","localeAltName":null}],"admin3":[{"geonameid":4848001,"name":"Township of Beaver","admin3":"90159"},{"geonameid":4848724,"name":"Township of Black Hawk","admin3":"90249","localeAltName":null},{"geonameid":4851879,"name":"Township of Clay","admin3":"90675","localeAltName":null},{"geonameid":4852230,"name":"Township of Colfax","admin3":"90762"},{"geonameid":4855992,"name":"Township of Fairfield","admin3":"91281"},{"geonameid":4856506,"name":"Township of Felix","admin3":"91329"},{"geonameid":4858298,"name":"Township of German","admin3":"91560"},{"geonameid":4859025,"name":"Township of Grant","admin3":"91656","localeAltName":null},{"geonameid":4864851,"name":"Township of Lincoln","admin3":"92550"},{"geonameid":4866921,"name":"Township of Melrose","admin3":"92907"},{"geonameid":4870588,"name":"Township of Palermo","admin3":"93258","localeAltName":null},{"geonameid":4871603,"name":"Township of Pleasant Valley","admin3":"93414"},{"geonameid":4876285,"name":"Township of Shiloh","admin3":"93882","localeAltName":null},{"geonameid":4880841,"name":"Township of Washington","admin3":"94500"}],"alternateNames":[{"alternatenameId":1980290,"geonameid":4862182,"isoLanguage":"en","alternateName":"Iowa","isPreferredName":true,"isShortName":true,"isColloquial":false,"isHistoric":false}]},"__N_SSG":true}