{"pageProps":{"locale":"ro","admin2":{"geonameid":684921,"name":"Oraş Bicaz","country":"RO","admin1":"28","admin2":"120968","admin3":"","latitude":"46.9489000","longitude":"26.0798200"},"admin1":{"geonameid":672460,"name":"Neamţ","admin1":"28"},"locations":[{"geonameid":684924,"name":"Bicaz","admin3":""},{"geonameid":682780,"name":"Capșa","admin3":""},{"geonameid":681535,"name":"Cârnu","admin3":""},{"geonameid":682636,"name":"Cartieru Nou","admin3":""},{"geonameid":681136,"name":"Cojujana","admin3":""},{"geonameid":679175,"name":"Dodeni","admin3":""},{"geonameid":677555,"name":"Gavrilesceni","admin3":""},{"geonameid":675339,"name":"Izvoru Alb","admin3":""},{"geonameid":675312,"name":"Izvoru Muntelui","admin3":""},{"geonameid":673864,"name":"Mărceni","admin3":""},{"geonameid":670904,"name":"Piatra Cârnului","admin3":""},{"geonameid":670903,"name":"Piatra Corbului","admin3":""},{"geonameid":670242,"name":"Poenari","admin3":""},{"geonameid":670096,"name":"Poiana Cârnului","admin3":""},{"geonameid":669746,"name":"Potoci","admin3":""},{"geonameid":668407,"name":"Ruseni","admin3":""},{"geonameid":667478,"name":"Secu","admin3":""}],"admin3":[],"alternateNames":[]},"__N_SSG":true}