{"pageProps":{"locale":"en","admin2":{"geonameid":4294031,"name":"Hardin County","country":"US","admin1":"KY","admin2":"093","admin3":"","latitude":"37.6979200","longitude":"-85.9633700"},"admin1":{"geonameid":6254925,"name":"Kentucky","admin1":"KY","localeAltName":"Kentucky"},"locations":[{"geonameid":4290988,"name":"Elizabethtown","admin3":""},{"geonameid":7259771,"name":"Fort Knox","admin3":""},{"geonameid":4305504,"name":"Radcliff","admin3":""},{"geonameid":4312096,"name":"Vine Grove","admin3":""}],"admin3":[{"geonameid":7169405,"name":"City of Elizabethtown","admin3":"7169405"},{"geonameid":7170110,"name":"City of Radcliff","admin3":"7170110"},{"geonameid":7170834,"name":"City of Sonora","admin3":"7170834"},{"geonameid":7170928,"name":"City of Upton","admin3":"7170928"},{"geonameid":7170946,"name":"City of Vine Grove","admin3":"7170946"}],"alternateNames":[{"alternatenameId":6755489,"geonameid":6254925,"isoLanguage":"en","alternateName":"Kentucky","isPreferredName":true,"isShortName":true,"isColloquial":false,"isHistoric":false}]},"__N_SSG":true}