{"pageProps":{"locale":"en","admin2":{"geonameid":2647071,"name":"Herefordshire","country":"GB","admin1":"ENG","admin2":"F7","admin3":"","latitude":"52.0833300","longitude":"-2.7500000"},"admin1":{"geonameid":6269131,"name":"England","admin1":"ENG","localeAltName":"England"},"locations":[{"geonameid":2657876,"name":"Abbey Dore"},{"geonameid":2657699,"name":"Aconbury"},{"geonameid":2657671,"name":"Adforton"},{"geonameid":2657485,"name":"Allensmore"},{"geonameid":2657457,"name":"Almeley"},{"geonameid":2656928,"name":"Ashperton"},{"geonameid":2656870,"name":"Aston"},{"geonameid":2656861,"name":"Aston Ingham"},{"geonameid":2656712,"name":"Aymestrey"},{"geonameid":2656669,"name":"Bacton"},{"geonameid":8224198,"name":"Bartestree"},{"geonameid":6692919,"name":"Belmont"},{"geonameid":2655608,"name":"Birley"},{"geonameid":2655567,"name":"Bishops Frome"},{"geonameid":2655386,"name":"Blakemere"},{"geonameid":2655282,"name":"Bodenham"},{"geonameid":2655149,"name":"Bosbury"},{"geonameid":2654913,"name":"Brampton Bryan"},{"geonameid":2654811,"name":"Bredenbury"},{"geonameid":2654806,"name":"Bredwardine"},{"geonameid":10100301,"name":"Bridge Sollers"},{"geonameid":2654699,"name":"Brimfield"},{"geonameid":2654641,"name":"Broad Oak"},{"geonameid":2654612,"name":"Brockhampton"},{"geonameid":7521882,"name":"Brockhampton Estate"},{"geonameid":2654578,"name":"Bromyard"},{"geonameid":2654347,"name":"Bullingham"},{"geonameid":2654299,"name":"Burghill"},{"geonameid":2654233,"name":"Burrington"},{"geonameid":2654135,"name":"Byford"},{"geonameid":2654125,"name":"Byton"},{"geonameid":2653978,"name":"Callow"},{"geonameid":2653879,"name":"Canon Frome"},{"geonameid":2653583,"name":"Castle Frome"},{"geonameid":10100287,"name":"Chilstone"},{"geonameid":11593140,"name":"Clehonger"},{"geonameid":2652844,"name":"Clifford"},{"geonameid":2652809,"name":"Clodock"},{"geonameid":2652557,"name":"Collington"},{"geonameid":2652518,"name":"Colwall"},{"geonameid":9409270,"name":"Cornett"},{"geonameid":2652035,"name":"Credenhill"},{"geonameid":2651955,"name":"Croft"},{"geonameid":2651846,"name":"Crow Hill"},{"geonameid":10100289,"name":"Cublington"},{"geonameid":2651256,"name":"Dilwyn"},{"geonameid":2651243,"name":"Dinmore"},{"geonameid":2651186,"name":"Docklow"},{"geonameid":2651113,"name":"Donnington"},{"geonameid":2651078,"name":"Dorstone"},{"geonameid":2651019,"name":"Downton"},{"geonameid":2650561,"name":"Eardisland"},{"geonameid":2650560,"name":"Eardisley"},{"geonameid":2650371,"name":"Eastnor"},{"geonameid":2650296,"name":"Eaton Bishop"},{"geonameid":2650201,"name":"Edwin Loach"},{"geonameid":2650040,"name":"Elton"},{"geonameid":2649834,"name":"Evesbatch"},{"geonameid":2649815,"name":"Ewyas Harold"},{"geonameid":2649790,"name":"Eye"},{"geonameid":2649769,"name":"Eyton"},{"geonameid":2649121,"name":"Fownhope"},{"geonameid":2649114,"name":"Foy"},{"geonameid":2648789,"name":"Garway"},{"geonameid":2648352,"name":"Golden Cross"},{"geonameid":2648327,"name":"Goodrich"},{"geonameid":11776855,"name":"Gosford"},{"geonameid":2647548,"name":"Hampton Bishop"},{"geonameid":6697172,"name":"Hatfield"},{"geonameid":2647074,"name":"Hereford"},{"geonameid":2647070,"name":"Hergest"},{"geonameid":2646823,"name":"Hoarwithy"},{"geonameid":2646724,"name":"Holme Lacy"},{"geonameid":2646623,"name":"Hope under Dinmore"},{"geonameid":2646439,"name":"Humber"},{"geonameid":6942444,"name":"Kenchester"},{"geonameid":2645796,"name":"Kentchurch"},{"geonameid":2645776,"name":"Kerne Bridge"},{"geonameid":2645559,"name":"Kilpeck"},{"geonameid":2645537,"name":"Kimbolton"},{"geonameid":2645447,"name":"Kings Pyon"},{"geonameid":2645461,"name":"Kingsland"},{"geonameid":2645430,"name":"Kingstone"},{"geonameid":2645410,"name":"Kington"},{"geonameid":2645374,"name":"Kinnersley"},{"geonameid":2645363,"name":"Kinsham"},{"geonameid":2644766,"name":"Lea"},{"geonameid":2644707,"name":"Ledbury"},{"geonameid":2644671,"name":"Legion Cross"},{"geonameid":2644647,"name":"Leinthall Earls"},{"geonameid":2644646,"name":"Leinthall Starkes"},{"geonameid":2644645,"name":"Leintwardine"},{"geonameid":2644613,"name":"Leominster"},{"geonameid":2644583,"name":"Letton"},{"geonameid":2644456,"name":"Lingen"},{"geonameid":2644435,"name":"Linton"},{"geonameid":2644345,"name":"Little Cowarne"},{"geonameid":2644339,"name":"Little Dewchurch"},{"geonameid":2644292,"name":"Little Marcle"},{"geonameid":2644162,"name":"Llancillo"},{"geonameid":2644043,"name":"Llangarron"},{"geonameid":2643959,"name":"Llanrothal"},{"geonameid":2643925,"name":"Llanveynoe"},{"geonameid":2643920,"name":"Llanwarne"},{"geonameid":2643618,"name":"Longtown"},{"geonameid":2643533,"name":"Lower Bullingham"},{"geonameid":2643411,"name":"Lugwardine"},{"geonameid":10100298,"name":"Lulham"},{"geonameid":2643343,"name":"Luston"},{"geonameid":2643281,"name":"Lyonshall"},{"geonameid":2643230,"name":"Madley"},{"geonameid":2643099,"name":"Mansel Gamage"},{"geonameid":2642962,"name":"Marstow"},{"geonameid":2642912,"name":"Mathon"},{"geonameid":2642652,"name":"Michaelchurch Escley"},{"geonameid":2642582,"name":"Middleton on the Hill"},{"geonameid":2642403,"name":"Moccas"},{"geonameid":7601880,"name":"Moorend Cross"},{"geonameid":2642280,"name":"Moorhampton"},{"geonameid":2642232,"name":"Mordiford"},{"geonameid":9409268,"name":"Moreton Jeffries"},{"geonameid":2642199,"name":"Moreton on Lugg"},{"geonameid":2642061,"name":"Much Birch"},{"geonameid":2642060,"name":"Much Cowarne"},{"geonameid":2642059,"name":"Much Dewchurch"},{"geonameid":2642055,"name":"Much Marcle"},{"geonameid":2641192,"name":"Norton Canon"},{"geonameid":2641088,"name":"Ocle Pychard"},{"geonameid":2640920,"name":"Orleton"},{"geonameid":2640504,"name":"Pembridge"},{"geonameid":2640483,"name":"Pencombe"},{"geonameid":2640482,"name":"Pencoyd"},{"geonameid":2640353,"name":"Peterchurch"},{"geonameid":2640342,"name":"Peterstow"},{"geonameid":2640116,"name":"Pontrilas"},{"geonameid":2639903,"name":"Preston on Wye"},{"geonameid":2639899,"name":"Preston Wynne"},{"geonameid":2639836,"name":"Putley"},{"geonameid":6947754,"name":"Ridge Hill"},{"geonameid":2639319,"name":"Risbury"},{"geonameid":2639110,"name":"Ross on Wye"},{"geonameid":2639039,"name":"Rowlstone"},{"geonameid":2638815,"name":"Saint Devereux"},{"geonameid":2638750,"name":"Saint Margaret"},{"geonameid":2638687,"name":"Saint Weonards"},{"geonameid":2638503,"name":"Sarnesfield"},{"geonameid":2638226,"name":"Sellack"},{"geonameid":10100291,"name":"Shenmore"},{"geonameid":2637929,"name":"Shobdon"},{"geonameid":2637090,"name":"Stanford Bishop"},{"geonameid":2636999,"name":"Staunton"},{"geonameid":2636997,"name":"Staunton on Wye"},{"geonameid":2636976,"name":"Steens Bridge"},{"geonameid":2636879,"name":"Stockton"},{"geonameid":2636858,"name":"Stoke Edith"},{"geonameid":2636847,"name":"Stoke Lacy"},{"geonameid":10345363,"name":"Stoke Lane"},{"geonameid":2636838,"name":"Stoke Prior"},{"geonameid":2636664,"name":"Stretford"},{"geonameid":2636499,"name":"Sutton"},{"geonameid":6693000,"name":"Symonds Yat"},{"geonameid":11592727,"name":"Tarrington"},{"geonameid":2636145,"name":"Tedstone Delamere"},{"geonameid":2636001,"name":"Thornbury"},{"geonameid":2635907,"name":"Thruxton"},{"geonameid":2635767,"name":"Titley"},{"geonameid":2635343,"name":"Turnastone"},{"geonameid":2635288,"name":"Tyberton"},{"geonameid":2635193,"name":"Ullingswick"},{"geonameid":6620449,"name":"Upper Colwall"},{"geonameid":2635110,"name":"Upper Sapey"},{"geonameid":2635089,"name":"Upton Bishop"},{"geonameid":2634939,"name":"Vowchurch"},{"geonameid":2634930,"name":"Wacton"},{"geonameid":2634890,"name":"Walford"},{"geonameid":2634574,"name":"Wellington"},{"geonameid":2634524,"name":"Weobley"},{"geonameid":2634390,"name":"Westhide"},{"geonameid":2634305,"name":"Weston under Penyard"},{"geonameid":2634139,"name":"Whitbourne"},{"geonameid":2634126,"name":"Whitchurch"},{"geonameid":2634025,"name":"Whitney"},{"geonameid":2633937,"name":"Wigmore"},{"geonameid":2633909,"name":"Willersley"},{"geonameid":2633873,"name":"Wilton"},{"geonameid":2633833,"name":"Winforton"},{"geonameid":8581459,"name":"Winslow Mill"},{"geonameid":2633739,"name":"Withington"},{"geonameid":2633602,"name":"Woolhope"},{"geonameid":2633582,"name":"Woonton"},{"geonameid":2633411,"name":"Yarpole"},{"geonameid":2633403,"name":"Yatton"},{"geonameid":2633398,"name":"Yazor"}],"admin3":[{"geonameid":7290783,"name":"Lucton","admin3":"00GA138"},{"geonameid":7290785,"name":"Much Cowarne","admin3":"00GA156"},{"geonameid":7290786,"name":"Much Dewchurch","admin3":"00GA157"},{"geonameid":7290787,"name":"Munsley","admin3":"00GA159"},{"geonameid":7290788,"name":"Orleton","admin3":"00GA166"},{"geonameid":7291048,"name":"Letton","admin3":"00GA120"},{"geonameid":7291049,"name":"Linton","admin3":"00GA123"},{"geonameid":7291050,"name":"Little Dewchurch","admin3":"00GA126"},{"geonameid":7291051,"name":"Llanrothal","admin3":"00GA132"},{"geonameid":7291052,"name":"Longtown","admin3":"00GA135"},{"geonameid":7291154,"name":"Marden","admin3":"00GA145"},{"geonameid":7291410,"name":"Abbey Dore","admin3":"00GA001"},{"geonameid":7291411,"name":"Bacton","admin3":"00GA012"},{"geonameid":7291412,"name":"Bishopstone","admin3":"00GA017"},{"geonameid":7291413,"name":"Blakemere","admin3":"00GA018"},{"geonameid":7291414,"name":"Bodenham","admin3":"00GA019"},{"geonameid":7291417,"name":"Brobury with Monnington on Wye","admin3":"00GA032"},{"geonameid":7291418,"name":"Brockhampton","admin3":"00GA033"},{"geonameid":7291419,"name":"Bromyard and Winslow","admin3":"00GA035"},{"geonameid":7291420,"name":"Byton","admin3":"00GA040"},{"geonameid":7291421,"name":"Canon Frome","admin3":"00GA042"},{"geonameid":7291422,"name":"Combe","admin3":"00GA050"},{"geonameid":7291423,"name":"Dinedor","admin3":"00GA058"},{"geonameid":7291424,"name":"Dormington","admin3":"00GA062"},{"geonameid":7291425,"name":"Eardisland","admin3":"00GA066"},{"geonameid":7291426,"name":"Eardisley","admin3":"00GA067"},{"geonameid":7291427,"name":"Ewyas Harold","admin3":"00GA075"},{"geonameid":7291428,"name":"Eye, Moreton and Ashton","admin3":"00GA076"},{"geonameid":7291429,"name":"Grafton","admin3":"00GA085"},{"geonameid":7291430,"name":"Hampton Charles","admin3":"00GA088"},{"geonameid":7291431,"name":"Hatfield and Newhampton","admin3":"00GA090"},{"geonameid":7291432,"name":"Kenchester","admin3":"00GA100"},{"geonameid":7291433,"name":"Kingstone","admin3":"00GA108"},{"geonameid":7291434,"name":"Knill","admin3":"00GA113"},{"geonameid":7291435,"name":"Laysters","admin3":"00GA114"},{"geonameid":7291436,"name":"Lingen","admin3":"00GA121"},{"geonameid":7291437,"name":"Linton","admin3":"00GA122"},{"geonameid":7291438,"name":"Llanveynoe","admin3":"00GA133"},{"geonameid":7291439,"name":"Lyonshall","admin3":"00GA141"},{"geonameid":7291440,"name":"Mansell Gamage","admin3":"00GA143"},{"geonameid":7291441,"name":"Mansell Lacy","admin3":"00GA144"},{"geonameid":7291442,"name":"Mathon","admin3":"00GA147"},{"geonameid":7291443,"name":"Michaelchurch Escley","admin3":"00GA148"},{"geonameid":7291444,"name":"Much Birch","admin3":"00GA155"},{"geonameid":7291445,"name":"Newton","admin3":"00GA161"},{"geonameid":7291446,"name":"Norton Canon","admin3":"00GA163"},{"geonameid":7291447,"name":"Ocle Pychard","admin3":"00GA164"},{"geonameid":7291448,"name":"Orcop","admin3":"00GA165"},{"geonameid":7291449,"name":"Pipe and Lyde","admin3":"00GA172"},{"geonameid":7291450,"name":"Preston on Wye","admin3":"00GA175"},{"geonameid":7291964,"name":"King's Pyon","admin3":"00GA105"},{"geonameid":7293135,"name":"Aston Ingham","admin3":"00GA008"},{"geonameid":7293151,"name":"Acton Beauchamp","admin3":"00GA003"},{"geonameid":7293152,"name":"Brampton Bryan","admin3":"00GA023"},{"geonameid":7293153,"name":"Bredenbury","admin3":"00GA024"},{"geonameid":7293154,"name":"Bredwardine","admin3":"00GA025"},{"geonameid":7293155,"name":"Brilley","admin3":"00GA029"},{"geonameid":7293156,"name":"Byford","admin3":"00GA039"},{"geonameid":7293157,"name":"Callow","admin3":"00GA041"},{"geonameid":7293158,"name":"Clehonger","admin3":"00GA045"},{"geonameid":7293159,"name":"Clifford","admin3":"00GA046"},{"geonameid":7293160,"name":"Cradley","admin3":"00GA051"},{"geonameid":7293161,"name":"Craswall","admin3":"00GA052"},{"geonameid":7293162,"name":"Dinmore","admin3":"00GA059"},{"geonameid":7293163,"name":"Dulas","admin3":"00GA065"},{"geonameid":7293164,"name":"Eaton Bishop","admin3":"00GA069"},{"geonameid":7293165,"name":"Eggleton","admin3":"00GA072"},{"geonameid":7293166,"name":"Elton","admin3":"00GA073"},{"geonameid":7293167,"name":"Eyton","admin3":"00GA077"},{"geonameid":7293168,"name":"Felton","admin3":"00GA078"},{"geonameid":7293169,"name":"Ganarew","admin3":"00GA082"},{"geonameid":7293170,"name":"Harewood","admin3":"00GA089"},{"geonameid":7293171,"name":"Withington","admin3":"00GA232"},{"geonameid":7294227,"name":"Little Birch","admin3":"00GA124"},{"geonameid":7294228,"name":"Mordiford","admin3":"00GA152"},{"geonameid":7294229,"name":"Preston Wynne","admin3":"00GA176"},{"geonameid":7294230,"name":"Shobdon","admin3":"00GA189"},{"geonameid":7294481,"name":"Avenbury","admin3":"00GA009"},{"geonameid":7294491,"name":"Bartestree","admin3":"00GA014"},{"geonameid":7294492,"name":"Bishop's Frome","admin3":"00GA016"},{"geonameid":7294493,"name":"Bolstone","admin3":"00GA020"},{"geonameid":7294494,"name":"Bosbury","admin3":"00GA021"},{"geonameid":7294495,"name":"Bridge Sollers","admin3":"00GA027"},{"geonameid":7294496,"name":"Bridstow","admin3":"00GA028"},{"geonameid":7294497,"name":"Brimfield","admin3":"00GA030"},{"geonameid":7294498,"name":"Brockhampton","admin3":"00GA034"},{"geonameid":7294499,"name":"Castle Frome","admin3":"00GA044"},{"geonameid":7294500,"name":"Coddington","admin3":"00GA047"},{"geonameid":7294501,"name":"Colwall","admin3":"00GA049"},{"geonameid":7294502,"name":"Donnington","admin3":"00GA061"},{"geonameid":7294503,"name":"Dorstone","admin3":"00GA063"},{"geonameid":7294504,"name":"Eastnor","admin3":"00GA068"},{"geonameid":7294505,"name":"Evesbatch","admin3":"00GA074"},{"geonameid":7294506,"name":"Fownhope","admin3":"00GA080"},{"geonameid":7294507,"name":"Foy","admin3":"00GA081"},{"geonameid":7294508,"name":"Garway","admin3":"00GA083"},{"geonameid":7294509,"name":"Hampton Bishop","admin3":"00GA087"},{"geonameid":7294510,"name":"Haywood","admin3":"00GA091"},{"geonameid":7294511,"name":"Holme Lacy","admin3":"00GA093"},{"geonameid":7294512,"name":"Hope Mansell","admin3":"00GA095"},{"geonameid":7294513,"name":"Hope under Dinmore","admin3":"00GA096"},{"geonameid":7294514,"name":"Huntington","admin3":"00GA099"},{"geonameid":7294515,"name":"Kentchurch","admin3":"00GA102"},{"geonameid":7294516,"name":"Kimbolton","admin3":"00GA104"},{"geonameid":7294517,"name":"Kington","admin3":"00GA109"},{"geonameid":7294518,"name":"Ledbury","admin3":"00GA116"},{"geonameid":7294519,"name":"Little Hereford","admin3":"00GA127"},{"geonameid":7294520,"name":"Llancillo","admin3":"00GA129"},{"geonameid":7294521,"name":"Middleton on the Hill","admin3":"00GA149"},{"geonameid":7294522,"name":"Monkland and Stretford","admin3":"00GA151"},{"geonameid":7294523,"name":"Moreton on Lugg","admin3":"00GA154"},{"geonameid":7294524,"name":"Much Marcle","admin3":"00GA158"},{"geonameid":7294525,"name":"Newton","admin3":"00GA160"},{"geonameid":7294526,"name":"Norton","admin3":"00GA162"},{"geonameid":7294527,"name":"Pencoyd","admin3":"00GA169"},{"geonameid":7294528,"name":"Peterchurch","admin3":"00GA170"},{"geonameid":7294529,"name":"Peterstow","admin3":"00GA171"},{"geonameid":7294530,"name":"Richards Castle (Hereford)","admin3":"00GA179"},{"geonameid":7294531,"name":"Stanford Bishop","admin3":"00GA191"},{"geonameid":7294532,"name":"Staunton on Wye","admin3":"00GA194"},{"geonameid":7294533,"name":"Thornbury","admin3":"00GA203"},{"geonameid":7294534,"name":"Turnastone","admin3":"00GA208"},{"geonameid":7294535,"name":"Upton Bishop","admin3":"00GA212"},{"geonameid":7294536,"name":"Wacton","admin3":"00GA214"},{"geonameid":7294537,"name":"Walford, Letton and Newton","admin3":"00GA216"},{"geonameid":7294538,"name":"Wellington Heath","admin3":"00GA219"},{"geonameid":7294539,"name":"Whitbourne","admin3":"00GA226"},{"geonameid":7294540,"name":"Wolferlow","admin3":"00GA233"},{"geonameid":7294541,"name":"Woolhope","admin3":"00GA234"},{"geonameid":7294542,"name":"Belmont Rural","admin3":"00GA239"},{"geonameid":7294543,"name":"Hereford","admin3":"00GA240"},{"geonameid":7294551,"name":"Whitchurch","admin3":"00GA227"},{"geonameid":7294690,"name":"Almeley","admin3":"00GA006"},{"geonameid":7294691,"name":"Ashperton","admin3":"00GA007"},{"geonameid":7294692,"name":"Aymestrey","admin3":"00GA011"},{"geonameid":7294704,"name":"Adforton","admin3":"00GA004"},{"geonameid":7294705,"name":"Allensmore","admin3":"00GA005"},{"geonameid":7294706,"name":"Ballingham","admin3":"00GA013"},{"geonameid":7294707,"name":"Birley with Upper Hill","admin3":"00GA015"},{"geonameid":7294708,"name":"Brampton Abbotts","admin3":"00GA022"},{"geonameid":7294709,"name":"Breinton","admin3":"00GA026"},{"geonameid":7294710,"name":"Buckton and Coxall","admin3":"00GA036"},{"geonameid":7294711,"name":"Burghill","admin3":"00GA037"},{"geonameid":7294712,"name":"Collington","admin3":"00GA048"},{"geonameid":7294713,"name":"Dewsall","admin3":"00GA056"},{"geonameid":7294714,"name":"Dilwyn","admin3":"00GA057"},{"geonameid":7294715,"name":"Docklow and Hampton Wafer","admin3":"00GA060"},{"geonameid":7294716,"name":"Downton","admin3":"00GA064"},{"geonameid":7294717,"name":"Edvin Loach and Saltmarshe","admin3":"00GA070"},{"geonameid":7294718,"name":"Edwyn Ralph","admin3":"00GA071"},{"geonameid":7294719,"name":"Goodrich","admin3":"00GA084"},{"geonameid":7294720,"name":"Grendon Bishop","admin3":"00GA086"},{"geonameid":7294721,"name":"Holmer & Shelwick","admin3":"00GA094"},{"geonameid":7294722,"name":"How Caple","admin3":"00GA097"},{"geonameid":7294723,"name":"Humber","admin3":"00GA098"},{"geonameid":7294724,"name":"Kenderchurch","admin3":"00GA101"},{"geonameid":7294725,"name":"Kilpeck","admin3":"00GA103"},{"geonameid":7294726,"name":"Kingsland","admin3":"00GA107"},{"geonameid":7294727,"name":"Kington Rural","admin3":"00GA110"},{"geonameid":7294728,"name":"Leinthall Starkes","admin3":"00GA117"},{"geonameid":7294729,"name":"Leintwardine","admin3":"00GA118"},{"geonameid":7294730,"name":"Leominster","admin3":"00GA119"},{"geonameid":7294739,"name":"Pencombe with Grendon Warren","admin3":"00GA168"},{"geonameid":7294740,"name":"St. Devereux","admin3":"00GA184"},{"geonameid":7294741,"name":"Sarnesfield","admin3":"00GA187"},{"geonameid":7294742,"name":"Sellack","admin3":"00GA188"},{"geonameid":7294743,"name":"Staunton on Arrow","admin3":"00GA193"},{"geonameid":7294744,"name":"Tarrington","admin3":"00GA200"},{"geonameid":7294745,"name":"Tedstone Wafer","admin3":"00GA202"},{"geonameid":7294746,"name":"Tyberton","admin3":"00GA209"},{"geonameid":7294747,"name":"Ullingswick","admin3":"00GA210"},{"geonameid":7294748,"name":"Weobley","admin3":"00GA222"},{"geonameid":7294749,"name":"Westhide","admin3":"00GA223"},{"geonameid":7294750,"name":"Weston Beggard","admin3":"00GA224"},{"geonameid":7294751,"name":"Wigmore","admin3":"00GA229"},{"geonameid":7294752,"name":"Willey","admin3":"00GA231"},{"geonameid":7294753,"name":"Wormbridge","admin3":"00GA235"},{"geonameid":7294754,"name":"Yatton","admin3":"00GA237"},{"geonameid":7296041,"name":"Sutton","admin3":"00GA199"},{"geonameid":7296214,"name":"Stretton Sugwas","admin3":"00GA198"},{"geonameid":7296215,"name":"Tedstone Delamere","admin3":"00GA201"},{"geonameid":7296216,"name":"Treville","admin3":"00GA207"},{"geonameid":7296217,"name":"Vowchurch","admin3":"00GA213"},{"geonameid":7296218,"name":"Walford","admin3":"00GA215"},{"geonameid":7296219,"name":"Welsh Bicknor","admin3":"00GA220"},{"geonameid":7296220,"name":"Weston under Penyard","admin3":"00GA225"},{"geonameid":7296221,"name":"Whitney-on-Wye","admin3":"00GA228"},{"geonameid":7296480,"name":"Pixley","admin3":"00GA174"},{"geonameid":7296481,"name":"Putley","admin3":"00GA178"},{"geonameid":7296482,"name":"Rowlstone","admin3":"00GA183"},{"geonameid":7297575,"name":"Lower Bullingham","admin3":"00GA136"},{"geonameid":7297576,"name":"Lower Harpton","admin3":"00GA137"},{"geonameid":7297577,"name":"Pembridge","admin3":"00GA167"},{"geonameid":7297578,"name":"Stoke Edith","admin3":"00GA195"},{"geonameid":7297940,"name":"Brinsop and Wormsley","admin3":"00GA031"},{"geonameid":7297941,"name":"Ford and Stoke Prior","admin3":"00GA079"},{"geonameid":7297942,"name":"Hentland","admin3":"00GA092"},{"geonameid":7297943,"name":"Kinnersley","admin3":"00GA111"},{"geonameid":7297944,"name":"Kinsham","admin3":"00GA112"},{"geonameid":7297945,"name":"Lea","admin3":"00GA115"},{"geonameid":7297946,"name":"Little Cowarne","admin3":"00GA125"},{"geonameid":7297947,"name":"Little Marcle","admin3":"00GA128"},{"geonameid":7297948,"name":"Llandinabo","admin3":"00GA130"},{"geonameid":7297949,"name":"Lugwardine","admin3":"00GA139"},{"geonameid":7297950,"name":"Luston","admin3":"00GA140"},{"geonameid":7297951,"name":"Madley","admin3":"00GA142"},{"geonameid":7297952,"name":"Marstow","admin3":"00GA146"},{"geonameid":7297953,"name":"Moccas","admin3":"00GA150"},{"geonameid":7297954,"name":"Moreton Jeffries","admin3":"00GA153"},{"geonameid":7297955,"name":"Rodd, Nash and Little Brampton","admin3":"00GA180"},{"geonameid":7297956,"name":"Ross-on-Wye","admin3":"00GA181"},{"geonameid":7297957,"name":"Ross Rural","admin3":"00GA182"},{"geonameid":7297958,"name":"St. Margarets","admin3":"00GA185"},{"geonameid":7297959,"name":"St. Weonards","admin3":"00GA186"},{"geonameid":7297960,"name":"Sollers Hope","admin3":"00GA190"},{"geonameid":7297961,"name":"Stapleton","admin3":"00GA192"},{"geonameid":7297962,"name":"Stoke Lacy","admin3":"00GA196"},{"geonameid":7298055,"name":"Aconbury","admin3":"00GA002"},{"geonameid":7298056,"name":"Canon Pyon","admin3":"00GA043"},{"geonameid":7298057,"name":"Credenhill","admin3":"00GA053"},{"geonameid":7298058,"name":"Croft and Yarpole","admin3":"00GA054"},{"geonameid":7298059,"name":"Cusop","admin3":"00GA055"},{"geonameid":7298378,"name":"Llangarron","admin3":"00GA131"},{"geonameid":7298881,"name":"Burrington","admin3":"00GA038"},{"geonameid":7298882,"name":"Kings Caple","admin3":"00GA106"},{"geonameid":7298883,"name":"Pipe Aston","admin3":"00GA173"},{"geonameid":7298884,"name":"Pudlestone","admin3":"00GA177"},{"geonameid":7298885,"name":"Wellington","admin3":"00GA218"},{"geonameid":7300090,"name":"Aylton","admin3":"00GA010"},{"geonameid":7300092,"name":"Stretton Grandison","admin3":"00GA197"},{"geonameid":7300093,"name":"Thruxton","admin3":"00GA204"},{"geonameid":7300094,"name":"Titley","admin3":"00GA205"},{"geonameid":7300095,"name":"Tretire with Michaelchurch","admin3":"00GA206"},{"geonameid":7300096,"name":"Upper Sapey","admin3":"00GA211"},{"geonameid":7300097,"name":"Walterstone","admin3":"00GA217"},{"geonameid":7300098,"name":"Welsh Newton","admin3":"00GA221"},{"geonameid":7300099,"name":"Willersley and Winforton","admin3":"00GA230"},{"geonameid":7300100,"name":"Yarkhill","admin3":"00GA236"},{"geonameid":7300101,"name":"Yazor","admin3":"00GA238"},{"geonameid":7301661,"name":"Llanwarne","admin3":"00GA134"}],"alternateNames":[{"alternatenameId":1626647,"geonameid":6269131,"isoLanguage":"en","alternateName":"England","isPreferredName":true,"isShortName":true,"isColloquial":false,"isHistoric":false}]},"__N_SSG":true}