{"pageProps":{"locale":"en","admin2":{"geonameid":2745368,"name":"Gemeente Voerendaal","country":"NL","admin1":"05","admin2":"0986","admin3":"","latitude":"50.8711700","longitude":"5.9149500","localeAltName":null},"admin1":{"geonameid":2751596,"name":"Provincie Limburg","admin1":"05","localeAltName":"Limburg"},"locations":[{"geonameid":2759400,"name":"Barrier","admin3":"","localeAltName":null},{"geonameid":2757925,"name":"Colmont","admin3":"","localeAltName":null},{"geonameid":2757887,"name":"Craubeek","admin3":"","localeAltName":null},{"geonameid":2756754,"name":"Dolberg","admin3":"","localeAltName":null},{"geonameid":2755803,"name":"Fromberg","admin3":"","localeAltName":null},{"geonameid":6544810,"name":"Hellebeuk","admin3":"","localeAltName":null},{"geonameid":2752646,"name":"Klimmen","admin3":"","localeAltName":null},{"geonameid":2752364,"name":"Koulen","admin3":"","localeAltName":null},{"geonameid":2752151,"name":"Kunrade","admin3":"","localeAltName":null},{"geonameid":2750792,"name":"Mingersberg","admin3":"","localeAltName":null},{"geonameid":2748843,"name":"Overheek","admin3":"","localeAltName":null},{"geonameid":2748328,"name":"Ransdaal","admin3":"","localeAltName":null},{"geonameid":2748223,"name":"Retersbeek","admin3":"","localeAltName":null},{"geonameid":2746431,"name":"Termaar","admin3":"","localeAltName":null},{"geonameid":2746429,"name":"Termoors","admin3":"","localeAltName":null},{"geonameid":2746014,"name":"Ubachsberg","admin3":"","localeAltName":null},{"geonameid":2745369,"name":"Voerendaal","admin3":"","localeAltName":null},{"geonameid":2744586,"name":"Weustenrade","admin3":"","localeAltName":null},{"geonameid":2744330,"name":"Winthagen","admin3":"","localeAltName":null}],"admin3":[],"alternateNames":[{"alternatenameId":9073257,"geonameid":2751596,"isoLanguage":"en","alternateName":"Limburg","isPreferredName":true,"isShortName":true,"isColloquial":false,"isHistoric":false},{"alternatenameId":9073258,"geonameid":2751596,"isoLanguage":"de","alternateName":"Limburg","isPreferredName":true,"isShortName":true,"isColloquial":false,"isHistoric":false}]},"__N_SSG":true}