{"pageProps":{"locale":"en","admin2":{"geonameid":6544255,"name":"Gemeente Sittard-Geleen","country":"NL","admin1":"05","admin2":"1883","admin3":"","latitude":"51.0107400","longitude":"5.8228800","localeAltName":null},"admin1":{"geonameid":2751596,"name":"Provincie Limburg","admin1":"05","localeAltName":"Limburg"},"locations":[{"geonameid":2760058,"name":"Abshoven","admin3":"","localeAltName":null},{"geonameid":2758602,"name":"Born","admin3":"","localeAltName":null},{"geonameid":2758241,"name":"Broeksittard","admin3":"","localeAltName":null},{"geonameid":2758167,"name":"Buchten","admin3":"","localeAltName":null},{"geonameid":2757837,"name":"Daniken","admin3":"","localeAltName":null},{"geonameid":2756248,"name":"Einighausen","admin3":"","localeAltName":null},{"geonameid":2755616,"name":"Geleen","admin3":"","localeAltName":null},{"geonameid":2755378,"name":"Graetheide","admin3":"","localeAltName":null},{"geonameid":2755337,"name":"Grevenbicht","admin3":"","localeAltName":null},{"geonameid":2755040,"name":"Guttecoven","admin3":"","localeAltName":null},{"geonameid":2754046,"name":"Hitsberg","admin3":"","localeAltName":null},{"geonameid":2753856,"name":"Holtum","admin3":"","localeAltName":null},{"geonameid":2752293,"name":"Krawinkel","admin3":"","localeAltName":null},{"geonameid":10242474,"name":"Landgraaf","admin3":"","localeAltName":null},{"geonameid":2751756,"name":"Leijenbroek","admin3":"","localeAltName":null},{"geonameid":2751599,"name":"Limbricht","admin3":"","localeAltName":null},{"geonameid":2751583,"name":"Lindenheuvel","admin3":"","localeAltName":null},{"geonameid":2751355,"name":"Lutterade","admin3":"","localeAltName":null},{"geonameid":2750539,"name":"Munstergeleen","admin3":"","localeAltName":null},{"geonameid":2749748,"name":"Obbicht","admin3":"","localeAltName":null},{"geonameid":2749293,"name":"Ophoven","admin3":"","localeAltName":null},{"geonameid":2748839,"name":"Overhoven","admin3":"","localeAltName":null},{"geonameid":2748726,"name":"Papenhoven","admin3":"","localeAltName":null},{"geonameid":2748063,"name":"Ringoven","admin3":"","localeAltName":null},{"geonameid":2747538,"name":"Schippersbeek","admin3":"","localeAltName":null},{"geonameid":6544714,"name":"Schipperskerk","admin3":"","localeAltName":null},{"geonameid":2747203,"name":"Sittard","admin3":"","localeAltName":null},{"geonameid":2746870,"name":"Stadbroek","admin3":"","localeAltName":null},{"geonameid":2744329,"name":"Windraak","admin3":"","localeAltName":null}],"admin3":[],"alternateNames":[{"alternatenameId":9073257,"geonameid":2751596,"isoLanguage":"en","alternateName":"Limburg","isPreferredName":true,"isShortName":true,"isColloquial":false,"isHistoric":false},{"alternatenameId":9073258,"geonameid":2751596,"isoLanguage":"de","alternateName":"Limburg","isPreferredName":true,"isShortName":true,"isColloquial":false,"isHistoric":false}]},"__N_SSG":true}