{"pageProps":{"locale":"en","admin2":{"geonameid":2759285,"name":"Gemeente Beesel","country":"NL","admin1":"05","admin2":"0889","admin3":"","latitude":"51.2701600","longitude":"6.0677100","localeAltName":null},"admin1":{"geonameid":2751596,"name":"Provincie Limburg","admin1":"05","localeAltName":"Limburg"},"locations":[{"geonameid":2759498,"name":"Bakheide","admin3":"","localeAltName":null},{"geonameid":2759286,"name":"Beesel","admin3":"","localeAltName":null},{"geonameid":2758066,"name":"Bussereind","admin3":"","localeAltName":null},{"geonameid":2751788,"name":"Leeuwen","admin3":"","localeAltName":null},{"geonameid":2751043,"name":"Meerlebroek","admin3":"","localeAltName":null},{"geonameid":2749696,"name":"Offenbeek","admin3":"","localeAltName":null},{"geonameid":2748208,"name":"Reuver","admin3":"","localeAltName":null},{"geonameid":2748127,"name":"Rijkel","admin3":"","localeAltName":null}],"admin3":[],"alternateNames":[{"alternatenameId":9073257,"geonameid":2751596,"isoLanguage":"en","alternateName":"Limburg","isPreferredName":true,"isShortName":true,"isColloquial":false,"isHistoric":false},{"alternatenameId":9073258,"geonameid":2751596,"isoLanguage":"de","alternateName":"Limburg","isPreferredName":true,"isShortName":true,"isColloquial":false,"isHistoric":false}]},"__N_SSG":true}