{"pageProps":{"locale":"en","admin2":{"geonameid":5916918,"name":"Cariboo Regional District","country":"CA","admin1":"02","admin2":"5941","admin3":"","latitude":"52.3331300","longitude":"-123.1696100"},"admin1":{"geonameid":5909050,"name":"British Columbia","admin1":"02"},"locations":[{"geonameid":5881639,"name":"100 Mile House","admin3":"5941005"},{"geonameid":12188701,"name":"Anahim Lake","admin3":""},{"geonameid":5950675,"name":"Exeter","admin3":"5941005"},{"geonameid":12076680,"name":"Fox Mountain","admin3":""},{"geonameid":5961901,"name":"Glendale","admin3":"5941009"},{"geonameid":6105274,"name":"Pine Valley","admin3":""},{"geonameid":6115187,"name":"Quesnel","admin3":"5941013"},{"geonameid":6177948,"name":"Wells","admin3":"5941025"},{"geonameid":6177949,"name":"Wells","admin3":"5941025"},{"geonameid":6182212,"name":"Williams Lake","admin3":"5941009"}],"admin3":[{"geonameid":12031896,"name":"One Hundred Mile House","admin3":"5941005"},{"geonameid":12031988,"name":"Wells","admin3":"5941025"},{"geonameid":12031990,"name":"Quesnel","admin3":"5941013"},{"geonameid":12031991,"name":"Williams Lake","admin3":"5941009"}],"alternateNames":[]},"__N_SSG":true}