{"pageProps":{"locale":"en","admin2":{"geonameid":4238245,"name":"Fayette County","country":"US","admin1":"IL","admin2":"051","admin3":"","latitude":"39.0001900","longitude":"-89.0241400","localeAltName":null},"admin1":{"geonameid":4896861,"name":"Illinois","admin1":"IL","localeAltName":"Illinois"},"locations":[{"geonameid":4234577,"name":"Brownstown","admin3":"56913","localeAltName":null},{"geonameid":4238210,"name":"Farina","admin3":"40533","localeAltName":null},{"geonameid":4247779,"name":"Ramsey","admin3":"62640","localeAltName":null},{"geonameid":4248788,"name":"Saint Elmo","admin3":"03155","localeAltName":null},{"geonameid":4251917,"name":"Vandalia","admin3":"77330","localeAltName":null}],"admin3":[{"geonameid":4233071,"name":"Township of Avena","admin3":"03155","localeAltName":null},{"geonameid":4233368,"name":"Township of Bear Grove","admin3":"04377"},{"geonameid":4234289,"name":"Township of Bowling Green","admin3":"07562"},{"geonameid":4235300,"name":"Township of Carson","admin3":"11501"},{"geonameid":4241200,"name":"Township of Hurricane","admin3":"36802"},{"geonameid":4242103,"name":"Township of Kaskaskia","admin3":"39116"},{"geonameid":4242426,"name":"Township of La Clede","admin3":"40533","localeAltName":null},{"geonameid":4243426,"name":"Township of Lone Grove","admin3":"44459"},{"geonameid":4243548,"name":"Township of Loudon","admin3":"44901"},{"geonameid":4246475,"name":"Township of Otego","admin3":"56913","localeAltName":null},{"geonameid":4247390,"name":"Township of Pope","admin3":"61106"},{"geonameid":4247793,"name":"Township of Ramsey","admin3":"62640","localeAltName":null},{"geonameid":4249671,"name":"Township of Sefton","admin3":"68549"},{"geonameid":4249698,"name":"Township of Seminary","admin3":"68601"},{"geonameid":4249771,"name":"Township of Shafter","admin3":"68926"},{"geonameid":4249796,"name":"Township of Sharon","admin3":"69017"},{"geonameid":4250333,"name":"Township of South Hurricane","admin3":"70876"},{"geonameid":4251932,"name":"Township of Vandalia","admin3":"77330","localeAltName":null},{"geonameid":4252921,"name":"Township of Wheatland","admin3":"81022"},{"geonameid":4253082,"name":"Township of Wilberton","admin3":"81568"}],"alternateNames":[{"alternatenameId":2089562,"geonameid":4896861,"isoLanguage":"en","alternateName":"Illinois","isPreferredName":true,"isShortName":true,"isColloquial":false,"isHistoric":false}]},"__N_SSG":true}