{"pageProps":{"locale":"en","admin2":{"geonameid":4907910,"name":"Rock Island County","country":"US","admin1":"IL","admin2":"161","admin3":"","latitude":"41.4673300","longitude":"-90.5674300","localeAltName":null},"admin1":{"geonameid":4896861,"name":"Illinois","admin1":"IL","localeAltName":"Illinois"},"locations":[{"geonameid":4883311,"name":"Andalusia","admin3":"01439","localeAltName":null},{"geonameid":4886590,"name":"Carbon Cliff","admin3":"32577","localeAltName":null},{"geonameid":4888296,"name":"Coal Valley","admin3":"15248","localeAltName":null},{"geonameid":4888760,"name":"Cordova","admin3":"16379","localeAltName":null},{"geonameid":4889008,"name":"Coyne Center","admin3":"07549","localeAltName":null},{"geonameid":4890536,"name":"East Moline","admin3":"70993","localeAltName":null},{"geonameid":4895027,"name":"Hampton","admin3":"32577","localeAltName":null},{"geonameid":4896009,"name":"Hillsdale","admin3":"10955","localeAltName":null},{"geonameid":4902218,"name":"Milan","admin3":"06301","localeAltName":null},{"geonameid":4902476,"name":"Moline","admin3":"49880","localeAltName":null},{"geonameid":4904298,"name":"Oak Grove","admin3":"07549","localeAltName":null},{"geonameid":4906491,"name":"Port Byron","admin3":"61236","localeAltName":null},{"geonameid":4907143,"name":"Rapids City","admin3":"32577","localeAltName":null},{"geonameid":4907422,"name":"Reynolds","admin3":"22632","localeAltName":null},{"geonameid":4907907,"name":"Rock Island","admin3":"65091","localeAltName":null},{"geonameid":4911516,"name":"Silvis","admin3":"32577","localeAltName":null}],"admin3":[{"geonameid":4831922,"name":"Township of Blackhawk","admin3":"06301","localeAltName":null},{"geonameid":4883318,"name":"Township of Andalusia","admin3":"01439","localeAltName":null},{"geonameid":4885374,"name":"Township of Bowling","admin3":"07549","localeAltName":null},{"geonameid":4885944,"name":"Township of Buffalo Prairie","admin3":"09512"},{"geonameid":4886697,"name":"Township of Canoe Creek","admin3":"10955","localeAltName":null},{"geonameid":4888301,"name":"Township of Coal Valley","admin3":"15248","localeAltName":null},{"geonameid":4888318,"name":"Township of Coe","admin3":"15326"},{"geonameid":4888762,"name":"Township of Cordova","admin3":"16379","localeAltName":null},{"geonameid":4890196,"name":"Township of Drury","admin3":"20825"},{"geonameid":4890724,"name":"Township of Edgington","admin3":"22632","localeAltName":null},{"geonameid":4895033,"name":"Township of Hampton","admin3":"32577","localeAltName":null},{"geonameid":4902484,"name":"Township of Moline","admin3":"49880","localeAltName":null},{"geonameid":4906493,"name":"Township of Port Byron","admin3":"61236","localeAltName":null},{"geonameid":4907919,"name":"Township of Rock Island","admin3":"65091","localeAltName":null},{"geonameid":4908307,"name":"Township of Rural","admin3":"66300"},{"geonameid":4911959,"name":"Township of South Moline","admin3":"70993","localeAltName":null},{"geonameid":4912006,"name":"Township of South Rock Island","admin3":"71201"},{"geonameid":4917459,"name":"Township of Zuma","admin3":"84246"}],"alternateNames":[{"alternatenameId":2089562,"geonameid":4896861,"isoLanguage":"en","alternateName":"Illinois","isPreferredName":true,"isShortName":true,"isColloquial":false,"isHistoric":false}]},"__N_SSG":true}