{"pageProps":{"locale":"en","admin2":{"geonameid":4752255,"name":"Chesterfield County","country":"US","admin1":"VA","admin2":"041","admin3":"","latitude":"37.3785200","longitude":"-77.5869400","localeAltName":null},"admin1":{"geonameid":6254928,"name":"Virginia","admin1":"VA","localeAltName":"Virginia"},"locations":[{"geonameid":4746526,"name":"Bellwood","admin3":"","localeAltName":null},{"geonameid":4746664,"name":"Bensley","admin3":"","localeAltName":null},{"geonameid":4748305,"name":"Bon Air","admin3":"","localeAltName":null},{"geonameid":4748726,"name":"Brandermill","admin3":"","localeAltName":null},{"geonameid":4752229,"name":"Chester","admin3":"","localeAltName":null},{"geonameid":4752261,"name":"Chesterfield Court House","admin3":"","localeAltName":null},{"geonameid":4757734,"name":"Enon","admin3":"","localeAltName":null},{"geonameid":4757863,"name":"Ettrick","admin3":"","localeAltName":null},{"geonameid":4772009,"name":"Matoaca","admin3":"","localeAltName":null},{"geonameid":8480062,"name":"Meadowbrook","admin3":"","localeAltName":null},{"geonameid":7728582,"name":"Woodlake","admin3":"","localeAltName":null}],"admin3":[],"alternateNames":[{"alternatenameId":6755491,"geonameid":6254928,"isoLanguage":"en","alternateName":"Virginia","isPreferredName":true,"isShortName":true,"isColloquial":false,"isHistoric":false}]},"__N_SSG":true}