{"pageProps":{"locale":"en","admin2":{"geonameid":4758041,"name":"Fairfax County","country":"US","admin1":"VA","admin2":"059","admin3":"","latitude":"38.8346900","longitude":"-77.2762200","localeAltName":null},"admin1":{"geonameid":6254928,"name":"Virginia","admin1":"VA","localeAltName":"Virginia"},"locations":[{"geonameid":4744468,"name":"Annandale","admin3":"","localeAltName":null},{"geonameid":4745272,"name":"Baileys Crossroads","admin3":"","localeAltName":null},{"geonameid":4746457,"name":"Belle Haven","admin3":"","localeAltName":null},{"geonameid":4749950,"name":"Burke","admin3":"","localeAltName":null},{"geonameid":4751839,"name":"Centreville","admin3":"","localeAltName":null},{"geonameid":4751935,"name":"Chantilly","admin3":"","localeAltName":null},{"geonameid":4756348,"name":"Dranesville","admin3":"","localeAltName":null},{"geonameid":4756736,"name":"Dunn Loring","admin3":"","localeAltName":null},{"geonameid":4758102,"name":"Fairfax Station","admin3":"","localeAltName":null},{"geonameid":4759430,"name":"Floris","admin3":"","localeAltName":null},{"geonameid":7257902,"name":"Fort Belvoir","admin3":"","localeAltName":null},{"geonameid":4046704,"name":"Fort Hunt","admin3":"","localeAltName":null},{"geonameid":4759968,"name":"Franconia","admin3":"","localeAltName":null},{"geonameid":4761951,"name":"Great Falls","admin3":"","localeAltName":null},{"geonameid":4762155,"name":"Greenbriar","admin3":"","localeAltName":null},{"geonameid":4762493,"name":"Groveton","admin3":"","localeAltName":null},{"geonameid":4763436,"name":"Hayfield","admin3":"","localeAltName":null},{"geonameid":4763793,"name":"Herndon","admin3":"","localeAltName":null},{"geonameid":4765392,"name":"Huntington","admin3":"","localeAltName":null},{"geonameid":4765520,"name":"Hybla Valley","admin3":"","localeAltName":null},{"geonameid":4765553,"name":"Idylwood","admin3":"","localeAltName":null},{"geonameid":4767864,"name":"Kings Park","admin3":"","localeAltName":null},{"geonameid":7315398,"name":"Kings Park West","admin3":"","localeAltName":null},{"geonameid":4768185,"name":"Lake Barcroft","admin3":"","localeAltName":null},{"geonameid":9670593,"name":"Laurel Hill","admin3":"","localeAltName":null},{"geonameid":4769608,"name":"Lincolnia","admin3":"","localeAltName":null},{"geonameid":4770714,"name":"Lorton","admin3":"","localeAltName":null},{"geonameid":4771494,"name":"Mantua","admin3":"","localeAltName":null},{"geonameid":4772354,"name":"McLean","admin3":"","localeAltName":null},{"geonameid":4772735,"name":"Merrifield","admin3":"","localeAltName":null},{"geonameid":7258318,"name":"Mount Vernon","admin3":"","localeAltName":null},{"geonameid":4775981,"name":"Newington","admin3":"","localeAltName":null},{"geonameid":4776472,"name":"North Springfield","admin3":"","localeAltName":null},{"geonameid":8097131,"name":"Oak Hill","admin3":"","localeAltName":null},{"geonameid":4776970,"name":"Oakton","admin3":"","localeAltName":null},{"geonameid":4778945,"name":"Pimmit Hills","admin3":"","localeAltName":null},{"geonameid":4781129,"name":"Ravensworth","admin3":"","localeAltName":null},{"geonameid":4781530,"name":"Reston","admin3":"","localeAltName":null},{"geonameid":4782864,"name":"Rose Hill","admin3":"","localeAltName":null},{"geonameid":4784902,"name":"Seven Corners","admin3":"","localeAltName":null},{"geonameid":4787117,"name":"Springfield","admin3":"","localeAltName":null},{"geonameid":4790534,"name":"Tysons Corner","admin3":"","localeAltName":null},{"geonameid":4791160,"name":"Vienna","admin3":"","localeAltName":null},{"geonameid":7258780,"name":"West Falls Church","admin3":"","localeAltName":null},{"geonameid":4792901,"name":"West Springfield","admin3":"","localeAltName":null},{"geonameid":4794350,"name":"Wolf Trap","admin3":"","localeAltName":null},{"geonameid":8480064,"name":"Woodburn","admin3":"","localeAltName":null},{"geonameid":4794531,"name":"Woodlawn","admin3":"","localeAltName":null}],"admin3":[],"alternateNames":[{"alternatenameId":6755491,"geonameid":6254928,"isoLanguage":"en","alternateName":"Virginia","isPreferredName":true,"isShortName":true,"isColloquial":false,"isHistoric":false}]},"__N_SSG":true}