{"pageProps":{"locale":"en","admin2":{"geonameid":4770746,"name":"Loudoun County","country":"US","admin1":"VA","admin2":"107","admin3":"","latitude":"39.0906800","longitude":"-77.6357200","localeAltName":null},"admin1":{"geonameid":6254928,"name":"Virginia","admin1":"VA","localeAltName":"Virginia"},"locations":[{"geonameid":4744870,"name":"Ashburn","admin3":"","localeAltName":null},{"geonameid":4746535,"name":"Belmont","admin3":"","localeAltName":null},{"geonameid":4748703,"name":"Brambleton","admin3":"","localeAltName":null},{"geonameid":4749103,"name":"Broadlands","admin3":"","localeAltName":null},{"geonameid":4754219,"name":"Countryside","admin3":"","localeAltName":null},{"geonameid":4756636,"name":"Dulles Town Center","admin3":"","localeAltName":null},{"geonameid":4762836,"name":"Hamilton","admin3":"","localeAltName":null},{"geonameid":4769125,"name":"Leesburg","admin3":"","localeAltName":null},{"geonameid":7315399,"name":"Loudoun Valley Estates","admin3":"","localeAltName":null},{"geonameid":4770817,"name":"Lovettsville","admin3":"","localeAltName":null},{"geonameid":4770931,"name":"Lowes Island","admin3":"","localeAltName":null},{"geonameid":4772904,"name":"Middleburg","admin3":"","localeAltName":null},{"geonameid":4776694,"name":"Oak Grove","admin3":"","localeAltName":null},{"geonameid":4780641,"name":"Purcellville","admin3":"","localeAltName":null},{"geonameid":4783020,"name":"Round Hill","admin3":"","localeAltName":null},{"geonameid":4786667,"name":"South Riding","admin3":"","localeAltName":null},{"geonameid":4787534,"name":"Sterling","admin3":"","localeAltName":null},{"geonameid":4788216,"name":"Sugarland Run","admin3":"","localeAltName":null},{"geonameid":4790763,"name":"University Center","admin3":"","localeAltName":null}],"admin3":[],"alternateNames":[{"alternatenameId":6755491,"geonameid":6254928,"isoLanguage":"en","alternateName":"Virginia","isPreferredName":true,"isShortName":true,"isColloquial":false,"isHistoric":false}]},"__N_SSG":true}