{"pageProps":{"locale":"en","admin2":{"geonameid":4851303,"name":"Chickasaw County","country":"US","admin1":"IA","admin2":"037","admin3":"","latitude":"43.0600400","longitude":"-92.3176600","localeAltName":null},"admin1":{"geonameid":4862182,"name":"Iowa","admin1":"IA","localeAltName":"Iowa"},"locations":[{"geonameid":4857727,"name":"Fredericksburg","admin3":"91083","localeAltName":null},{"geonameid":4868498,"name":"Nashua","admin3":"90324","localeAltName":null},{"geonameid":4868686,"name":"New Hampton","admin3":"93081","localeAltName":null}],"admin3":[{"geonameid":4849218,"name":"Township of Bradford","admin3":"90324","localeAltName":null},{"geonameid":4851310,"name":"Township of Chickasaw","admin3":"90663"},{"geonameid":4853527,"name":"Township of Dayton","admin3":"90909"},{"geonameid":4853690,"name":"Township of Deerfield","admin3":"90942"},{"geonameid":4854478,"name":"Township of Dresden","admin3":"91083","localeAltName":null},{"geonameid":4857739,"name":"Township of Fredericksburg","admin3":"91437"},{"geonameid":4862397,"name":"Township of Jacksonville","admin3":"92184"},{"geonameid":4868702,"name":"Township of New Hampton","admin3":"93081","localeAltName":null},{"geonameid":4872933,"name":"Township of Richland","admin3":"93576"},{"geonameid":4877453,"name":"Township of Stapleton","admin3":"94008"},{"geonameid":4879920,"name":"Township of Utica","admin3":"94299"},{"geonameid":4880832,"name":"Township of Washington","admin3":"94473"}],"alternateNames":[{"alternatenameId":1980290,"geonameid":4862182,"isoLanguage":"en","alternateName":"Iowa","isPreferredName":true,"isShortName":true,"isColloquial":false,"isHistoric":false}]},"__N_SSG":true}