{"pageProps":{"locale":"ro","admin2":{"geonameid":673584,"name":"Comuna Merei","country":"RO","admin1":"11","admin2":"47453","admin3":"","latitude":"45.1310200","longitude":"26.6612700"},"admin1":{"geonameid":683121,"name":"Buzău","admin1":"11"},"locations":[{"geonameid":681776,"name":"Ciobănoaia","admin3":""},{"geonameid":681459,"name":"Ciuhoiu","admin3":""},{"geonameid":679625,"name":"Dealul Viei","admin3":""},{"geonameid":679229,"name":"Dobrilești","admin3":""},{"geonameid":676490,"name":"Gura Sărății","admin3":""},{"geonameid":675322,"name":"Izvoru Dulce","admin3":""},{"geonameid":674740,"name":"Lipia","admin3":""},{"geonameid":673586,"name":"Merei","admin3":""},{"geonameid":672588,"name":"Muscelu Dărei","admin3":""},{"geonameid":672316,"name":"Nenciu","admin3":""},{"geonameid":672312,"name":"Nenciulești","admin3":""},{"geonameid":671984,"name":"Odăile","admin3":""},{"geonameid":671937,"name":"Ogrăzile","admin3":""},{"geonameid":671899,"name":"Oişeanu","admin3":""},{"geonameid":668034,"name":"Sărata-Monteoru","admin3":""},{"geonameid":668032,"name":"Sărata-Nenciuleşti","admin3":""},{"geonameid":664428,"name":"Turtureşti","admin3":""},{"geonameid":663888,"name":"Valea Botei","admin3":""},{"geonameid":663485,"name":"Valea Puțului Merei","admin3":""},{"geonameid":663486,"name":"Valea Puţului-Lipia","admin3":""},{"geonameid":663302,"name":"Valea Vistierului","admin3":""}],"admin3":[],"alternateNames":[]},"__N_SSG":true}