{"pageProps":{"locale":"en","admin2":{"geonameid":4670841,"name":"Angelina County","country":"US","admin1":"TX","admin2":"005","admin3":"","latitude":"31.2547600","longitude":"-94.6118500","localeAltName":null},"admin1":{"geonameid":4736286,"name":"Texas","admin1":"TX","localeAltName":"Texas"},"locations":[{"geonameid":4677524,"name":"Burke","admin3":"","localeAltName":null},{"geonameid":4686131,"name":"Diboll","admin3":"","localeAltName":null},{"geonameid":4699302,"name":"Hudson","admin3":"","localeAltName":null},{"geonameid":4699533,"name":"Huntington","admin3":"","localeAltName":null},{"geonameid":4708308,"name":"Lufkin","admin3":"","localeAltName":null},{"geonameid":4722038,"name":"Redland","admin3":"","localeAltName":null},{"geonameid":4743605,"name":"Zavalla","admin3":"","localeAltName":null}],"admin3":[{"geonameid":7173093,"name":"City of Burke","admin3":"7173093"},{"geonameid":7173309,"name":"City of Diboll","admin3":"7173309"},{"geonameid":7173647,"name":"City of Hudson","admin3":"7173647"},{"geonameid":7173654,"name":"City of Huntington","admin3":"7173654"},{"geonameid":7173714,"name":"City of Lufkin","admin3":"7173714"},{"geonameid":7174754,"name":"City of Zavalla","admin3":"7174754"}],"alternateNames":[{"alternatenameId":1614423,"geonameid":4736286,"isoLanguage":"en","alternateName":"Texas","isPreferredName":true,"isShortName":true,"isColloquial":false,"isHistoric":false}]},"__N_SSG":true}