{"pageProps":{"locale":"ro","admin2":{"geonameid":662831,"name":"Comuna Vânători","country":"RO","admin1":"40","admin2":"178607","admin3":"","latitude":"45.7387500","longitude":"27.2695100","localeAltName":null},"admin1":{"geonameid":662447,"name":"Vrancea","admin1":"40","localeAltName":"Vrancea"},"locations":[{"geonameid":685563,"name":"Balta Raței","admin3":"","localeAltName":null},{"geonameid":675183,"name":"Jorăști","admin3":"","localeAltName":null},{"geonameid":673134,"name":"Mirceștii Noi","admin3":"","localeAltName":null},{"geonameid":673133,"name":"Mirceștii Vechi","admin3":"","localeAltName":null},{"geonameid":671357,"name":"Paraipani","admin3":"","localeAltName":null},{"geonameid":670999,"name":"Petrești","admin3":"","localeAltName":null},{"geonameid":669235,"name":"Rădulești","admin3":"","localeAltName":null},{"geonameid":662841,"name":"Vânători","admin3":"","localeAltName":null}],"admin3":[],"alternateNames":[{"alternatenameId":391637,"geonameid":662447,"isoLanguage":"ro","alternateName":"Vrancea","isPreferredName":true,"isShortName":true,"isColloquial":false,"isHistoric":false}]},"__N_SSG":true}