{"pageProps":{"locale":"ro","admin2":{"geonameid":8334934,"name":"Ora≈ü Panciu","country":"RO","admin1":"40","admin2":"175055","admin3":"","latitude":"45.9066100","longitude":"27.0935800","localeAltName":null},"admin1":{"geonameid":662447,"name":"Vrancea","admin1":"40","localeAltName":"Vrancea"},"locations":[{"geonameid":682152,"name":"Chicera","admin3":"","localeAltName":null},{"geonameid":680086,"name":"Crucea de Jos","admin3":"","localeAltName":null},{"geonameid":680083,"name":"Crucea de Sus","admin3":"","localeAltName":null},{"geonameid":678730,"name":"Dumbrava","admin3":"","localeAltName":null},{"geonameid":672329,"name":"Neicu","admin3":"","localeAltName":null},{"geonameid":671398,"name":"Panciu","admin3":"","localeAltName":null},{"geonameid":667803,"name":"Satu Nou","admin3":"","localeAltName":null}],"admin3":[],"alternateNames":[{"alternatenameId":391637,"geonameid":662447,"isoLanguage":"ro","alternateName":"Vrancea","isPreferredName":true,"isShortName":true,"isColloquial":false,"isHistoric":false}]},"__N_SSG":true}