{"pageProps":{"locale":"en","admin2":{"geonameid":4997791,"name":"Kalamazoo County","country":"US","admin1":"MI","admin2":"077","admin3":"","latitude":"42.2454500","longitude":"-85.5311800","localeAltName":null},"admin1":{"geonameid":5001836,"name":"Michigan","admin1":"MI","localeAltName":"Michigan"},"locations":[{"geonameid":4984575,"name":"Augusta","admin3":"69820","localeAltName":null},{"geonameid":4989127,"name":"Climax","admin3":"16460","localeAltName":null},{"geonameid":7259593,"name":"Comstock Northwest","admin3":"17680","localeAltName":null},{"geonameid":4991740,"name":"Eastwood","admin3":"42180","localeAltName":null},{"geonameid":4993609,"name":"Galesburg","admin3":"31260","localeAltName":null},{"geonameid":4997787,"name":"Kalamazoo","admin3":"42160","localeAltName":null},{"geonameid":5004961,"name":"Parchment","admin3":"62340","localeAltName":null},{"geonameid":5006250,"name":"Portage","admin3":"65560","localeAltName":null},{"geonameid":5007115,"name":"Richland","admin3":"68260","localeAltName":null},{"geonameid":5009185,"name":"Schoolcraft","admin3":"71880","localeAltName":null},{"geonameid":5010512,"name":"South Gull Lake","admin3":"69820","localeAltName":null},{"geonameid":5013252,"name":"Vicksburg","admin3":"71880","localeAltName":null},{"geonameid":5014706,"name":"Westwood","admin3":"42180","localeAltName":null}],"admin3":[{"geonameid":4983884,"name":"Township of Alamo","admin3":"00840"},{"geonameid":4986810,"name":"Township of Brady","admin3":"09920"},{"geonameid":4988571,"name":"Township of Charleston","admin3":"14720"},{"geonameid":4989128,"name":"Township of Climax","admin3":"16460","localeAltName":null},{"geonameid":4989439,"name":"Charter Township of Comstock","admin3":"17680","localeAltName":null},{"geonameid":4989595,"name":"Charter Township of Cooper","admin3":"17980"},{"geonameid":4993610,"name":"City of Galesburg","admin3":"31260","localeAltName":null},{"geonameid":4997797,"name":"City of Kalamazoo","admin3":"42160","localeAltName":null},{"geonameid":4997798,"name":"Charter Township of Kalamazoo","admin3":"42180","localeAltName":null},{"geonameid":5004632,"name":"Charter Township of Oshtemo","admin3":"61400"},{"geonameid":5004950,"name":"City of Parchment","admin3":"62340","localeAltName":null},{"geonameid":5005122,"name":"Township of Pavilion","admin3":"62960"},{"geonameid":5006282,"name":"City of Portage","admin3":"65560","localeAltName":null},{"geonameid":5006426,"name":"Township of Prairie Ronde","admin3":"66200"},{"geonameid":5007120,"name":"Township of Richland","admin3":"68260","localeAltName":null},{"geonameid":5007676,"name":"Township of Ross","admin3":"69820","localeAltName":null},{"geonameid":5009191,"name":"Township of Schoolcraft","admin3":"71880","localeAltName":null},{"geonameid":5012033,"name":"Charter Township of Texas","admin3":"79300"},{"geonameid":5013902,"name":"Township of Wakeshma","admin3":"82840"}],"alternateNames":[{"alternatenameId":2124820,"geonameid":5001836,"isoLanguage":"en","alternateName":"Michigan","isPreferredName":true,"isShortName":true,"isColloquial":false,"isHistoric":false}]},"__N_SSG":true}