{"pageProps":{"locale":"en","admin2":{"geonameid":4185265,"name":"Burke County","country":"US","admin1":"GA","admin2":"033","admin3":"","latitude":"33.0611500","longitude":"-82.0007800","localeAltName":null},"admin1":{"geonameid":4197000,"name":"Georgia","admin1":"GA","localeAltName":"Georgia"},"locations":[{"geonameid":4221394,"name":"Sardis","admin3":"","localeAltName":null},{"geonameid":4229791,"name":"Waynesboro","admin3":"","localeAltName":null}],"admin3":[{"geonameid":7170280,"name":"City of Keysville","admin3":"7170280"},{"geonameid":7170787,"name":"City of Sardis","admin3":"7170787"},{"geonameid":7170943,"name":"City of Vidette","admin3":"7170943"},{"geonameid":7170976,"name":"City of Waynesboro","admin3":"7170976"},{"geonameid":7317858,"name":"City of Midville","admin3":"7317858"}],"alternateNames":[{"alternatenameId":2089570,"geonameid":4197000,"isoLanguage":"en","alternateName":"Georgia","isPreferredName":true,"isShortName":true,"isColloquial":false,"isHistoric":false}]},"__N_SSG":true}