{"pageProps":{"locale":"en","admin2":{"geonameid":4189828,"name":"Coweta County","country":"US","admin1":"GA","admin2":"077","admin3":"","latitude":"33.3534600","longitude":"-84.7633700","localeAltName":null},"admin1":{"geonameid":4197000,"name":"Georgia","admin1":"GA","localeAltName":"Georgia"},"locations":[{"geonameid":4192686,"name":"East Newnan","admin3":"","localeAltName":null},{"geonameid":4197884,"name":"Grantville","admin3":"","localeAltName":null},{"geonameid":4212684,"name":"Newnan","admin3":"","localeAltName":null},{"geonameid":4221953,"name":"Senoia","admin3":"","localeAltName":null}],"admin3":[{"geonameid":7317702,"name":"City of Grantville","admin3":"7317702"},{"geonameid":7317896,"name":"City of Newnan","admin3":"7317896"},{"geonameid":7318114,"name":"City of Senoia","admin3":"7318114"}],"alternateNames":[{"alternatenameId":2089570,"geonameid":4197000,"isoLanguage":"en","alternateName":"Georgia","isPreferredName":true,"isShortName":true,"isColloquial":false,"isHistoric":false}]},"__N_SSG":true}