{"pageProps":{"locale":"en","admin2":{"geonameid":4196508,"name":"Fulton County","country":"US","admin1":"GA","admin2":"121","admin3":"","latitude":"33.7902500","longitude":"-84.4670200","localeAltName":null},"admin1":{"geonameid":4197000,"name":"Georgia","admin1":"GA","localeAltName":"Georgia"},"locations":[{"geonameid":4179574,"name":"Alpharetta","admin3":"","localeAltName":null},{"geonameid":4180439,"name":"Atlanta","admin3":"","localeAltName":null},{"geonameid":7179381,"name":"Chattahoochee Hills","admin3":"","localeAltName":null},{"geonameid":4188815,"name":"College Park","admin3":"","localeAltName":null},{"geonameid":4192674,"name":"East Point","admin3":"","localeAltName":null},{"geonameid":4194121,"name":"Fairburn","admin3":"","localeAltName":null},{"geonameid":4199075,"name":"Hapeville","admin3":"","localeAltName":null},{"geonameid":6331909,"name":"Johns Creek","admin3":"","localeAltName":null},{"geonameid":6331908,"name":"Milton","admin3":"","localeAltName":null},{"geonameid":4211484,"name":"Mountain Park","admin3":"","localeAltName":null},{"geonameid":4214627,"name":"Palmetto","admin3":"","localeAltName":null},{"geonameid":12212746,"name":"Reynoldstown","admin3":"7317640","localeAltName":null},{"geonameid":4219934,"name":"Roswell","admin3":"","localeAltName":null},{"geonameid":4221333,"name":"Sandy Springs","admin3":"","localeAltName":null},{"geonameid":4227777,"name":"Union City","admin3":"","localeAltName":null}],"admin3":[{"geonameid":7169893,"name":"City of Milton","admin3":"7169893"},{"geonameid":7170027,"name":"City of Palmetto","admin3":"7170027"},{"geonameid":7170265,"name":"City of Johns Creek","admin3":"7170265"},{"geonameid":7170780,"name":"City of Sandy Springs","admin3":"7170780"},{"geonameid":7179370,"name":"City of Chattahoochee Hills","admin3":"7179370"},{"geonameid":7317640,"name":"City of Atlanta","admin3":"7317640","localeAltName":null},{"geonameid":7317669,"name":"City of Fairburn","admin3":"7317669"},{"geonameid":7317724,"name":"City of Hapeville","admin3":"7317724"},{"geonameid":7317807,"name":"City of College Park","admin3":"7317807"},{"geonameid":7317881,"name":"City of Mountain Park","admin3":"7317881"},{"geonameid":7317973,"name":"City of Roswell","admin3":"7317973"},{"geonameid":7318171,"name":"City of Union City","admin3":"7318171"},{"geonameid":11788288,"name":"City of East Point","admin3":"11788288"},{"geonameid":11788370,"name":"City of Alpharetta","admin3":"11788370"}],"alternateNames":[{"alternatenameId":2089570,"geonameid":4197000,"isoLanguage":"en","alternateName":"Georgia","isPreferredName":true,"isShortName":true,"isColloquial":false,"isHistoric":false}]},"__N_SSG":true}