{"pageProps":{"locale":"en","admin2":{"geonameid":4199102,"name":"Haralson County","country":"US","admin1":"GA","admin2":"143","admin3":"","latitude":"33.7942300","longitude":"-85.2110300","localeAltName":null},"admin1":{"geonameid":4197000,"name":"Georgia","admin1":"GA","localeAltName":"Georgia"},"locations":[{"geonameid":4184222,"name":"Bremen","admin3":"","localeAltName":null},{"geonameid":4184962,"name":"Buchanan","admin3":"","localeAltName":null},{"geonameid":4225658,"name":"Tallapoosa","admin3":"","localeAltName":null},{"geonameid":4229053,"name":"Waco","admin3":"","localeAltName":null}],"admin3":[{"geonameid":7169657,"name":"City of Bremen","admin3":"7169657"},{"geonameid":7170884,"name":"City of Tallapoosa","admin3":"7170884"},{"geonameid":7170947,"name":"City of Waco","admin3":"7170947"},{"geonameid":7317767,"name":"City of Buchanan","admin3":"7317767"}],"alternateNames":[{"alternatenameId":2089570,"geonameid":4197000,"isoLanguage":"en","alternateName":"Georgia","isPreferredName":true,"isShortName":true,"isColloquial":false,"isHistoric":false}]},"__N_SSG":true}