{"pageProps":{"locale":"en","admin2":{"geonameid":4200051,"name":"Henry County","country":"US","admin1":"GA","admin2":"151","admin3":"","latitude":"33.4530000","longitude":"-84.1542000","localeAltName":null},"admin1":{"geonameid":4197000,"name":"Georgia","admin1":"GA","localeAltName":"Georgia"},"locations":[{"geonameid":4198972,"name":"Hampton","admin3":"","localeAltName":null},{"geonameid":4206502,"name":"Locust Grove","admin3":"","localeAltName":null},{"geonameid":4208442,"name":"McDonough","admin3":"","localeAltName":null},{"geonameid":4224681,"name":"Stockbridge","admin3":"","localeAltName":null}],"admin3":[{"geonameid":7317723,"name":"City of Hampton","admin3":"7317723"},{"geonameid":7318057,"name":"City of Locust Grove","admin3":"7318057"},{"geonameid":7318092,"name":"City of McDonough","admin3":"7318092"},{"geonameid":7318137,"name":"City of Stockbridge","admin3":"7318137"}],"alternateNames":[{"alternatenameId":2089570,"geonameid":4197000,"isoLanguage":"en","alternateName":"Georgia","isPreferredName":true,"isShortName":true,"isColloquial":false,"isHistoric":false}]},"__N_SSG":true}