{"pageProps":{"locale":"en","admin2":{"geonameid":4229371,"name":"Walton County","country":"US","admin1":"GA","admin2":"297","admin3":"","latitude":"33.7815600","longitude":"-83.7338500","localeAltName":null},"admin1":{"geonameid":4197000,"name":"Georgia","admin1":"GA","localeAltName":"Georgia"},"locations":[{"geonameid":4206547,"name":"Loganville","admin3":"","localeAltName":null},{"geonameid":4209884,"name":"Monroe","admin3":"","localeAltName":null},{"geonameid":4223469,"name":"Social Circle","admin3":"","localeAltName":null},{"geonameid":4229317,"name":"Walnut Grove","admin3":"","localeAltName":null}],"admin3":[{"geonameid":7169514,"name":"City of Good Hope","admin3":"7169514"},{"geonameid":7170264,"name":"City of Jersey","admin3":"7170264"},{"geonameid":7170953,"name":"City of Walnut Grove","admin3":"7170953"},{"geonameid":7317866,"name":"City of Monroe","admin3":"7317866"},{"geonameid":7318058,"name":"City of Loganville","admin3":"7318058"},{"geonameid":7318121,"name":"City of Social Circle","admin3":"7318121"}],"alternateNames":[{"alternatenameId":2089570,"geonameid":4197000,"isoLanguage":"en","alternateName":"Georgia","isPreferredName":true,"isShortName":true,"isColloquial":false,"isHistoric":false}]},"__N_SSG":true}