{"pageProps":{"locale":"en","admin2":{"geonameid":2759632,"name":"Gemeente Assen","country":"NL","admin1":"01","admin2":"0106","admin3":"","latitude":"52.9963500","longitude":"6.5525500"},"admin1":{"geonameid":2756631,"name":"Provincie Drenthe","admin1":"01"},"locations":[{"geonameid":2759719,"name":"Anreep","admin3":""},{"geonameid":2759633,"name":"Assen","admin3":""},{"geonameid":2759516,"name":"Baggel Huizen","admin3":""},{"geonameid":2757592,"name":"De Haar","admin3":""},{"geonameid":2755365,"name":"Graswijk","admin3":""},{"geonameid":2752614,"name":"Kloosterveen","admin3":""},{"geonameid":2752418,"name":"Kort Bossen","admin3":""},{"geonameid":2751459,"name":"Loon","admin3":""},{"geonameid":11951321,"name":"Marsdijk","admin3":""},{"geonameid":2749910,"name":"Noorderpark","admin3":""},{"geonameid":2748686,"name":"Peelo","admin3":""},{"geonameid":2748575,"name":"Pittelo","admin3":""},{"geonameid":2748193,"name":"Rhee","admin3":""},{"geonameid":2747586,"name":"Schieven","admin3":""},{"geonameid":2746476,"name":"Ter Aard","admin3":""},{"geonameid":2746013,"name":"Ubbena","admin3":""},{"geonameid":2745200,"name":"Vredeveld","admin3":""},{"geonameid":2744284,"name":"Witten","admin3":""},{"geonameid":6544759,"name":"Zeyerveen","admin3":""},{"geonameid":6544760,"name":"Zeyerveld","admin3":""}],"admin3":[],"alternateNames":[{"alternatenameId":11907792,"geonameid":2756631,"isoLanguage":"de","alternateName":"Drenthe","isPreferredName":true,"isShortName":true,"isColloquial":false,"isHistoric":false}]},"__N_SSG":true}