{"pageProps":{"locale":"en","admin2":{"geonameid":4057837,"name":"Cullman County","country":"US","admin1":"AL","admin2":"043","admin3":"","latitude":"34.1319400","longitude":"-86.8676200","localeAltName":null},"admin1":{"geonameid":4829764,"name":"Alabama","admin1":"AL","localeAltName":"Alabama"},"locations":[{"geonameid":4831085,"name":"Baileyton","admin3":"","localeAltName":null},{"geonameid":4057835,"name":"Cullman","admin3":"","localeAltName":null},{"geonameid":4058971,"name":"Dodge City","admin3":"","localeAltName":null},{"geonameid":4064548,"name":"Good Hope","admin3":"","localeAltName":null},{"geonameid":4066065,"name":"Hanceville","admin3":"","localeAltName":null},{"geonameid":4067784,"name":"Holly Pond","admin3":"","localeAltName":null},{"geonameid":4070318,"name":"Joppa","admin3":"","localeAltName":null},{"geonameid":4091006,"name":"South Vinemont","admin3":"","localeAltName":null},{"geonameid":4097095,"name":"West Point","admin3":"","localeAltName":null}],"admin3":[],"alternateNames":[{"alternatenameId":1632834,"geonameid":4829764,"isoLanguage":"en","alternateName":"Alabama","isPreferredName":true,"isShortName":true,"isColloquial":false,"isHistoric":false}]},"__N_SSG":true}