{"pageProps":{"locale":"en","admin2":{"geonameid":4058479,"name":"DeKalb County","country":"US","admin1":"AL","admin2":"049","admin3":"","latitude":"34.4597700","longitude":"-85.8041400","localeAltName":null},"admin1":{"geonameid":4829764,"name":"Alabama","admin1":"AL","localeAltName":"Alabama"},"locations":[{"geonameid":4056381,"name":"Collinsville","admin3":"","localeAltName":null},{"geonameid":4057731,"name":"Crossville","admin3":"","localeAltName":null},{"geonameid":4062861,"name":"Fort Payne","admin3":"","localeAltName":null},{"geonameid":4063613,"name":"Fyffe","admin3":"","localeAltName":null},{"geonameid":4064020,"name":"Geraldine","admin3":"","localeAltName":null},{"geonameid":4066844,"name":"Henagar","admin3":"","localeAltName":null},{"geonameid":4068778,"name":"Ider","admin3":"","localeAltName":null},{"geonameid":4078346,"name":"Mount Vernon","admin3":"","localeAltName":null},{"geonameid":4084691,"name":"Powell","admin3":"","localeAltName":null},{"geonameid":4085373,"name":"Rainsville","admin3":"","localeAltName":null},{"geonameid":4092692,"name":"Sylvania","admin3":"","localeAltName":null},{"geonameid":4095233,"name":"Valley Head","admin3":"","localeAltName":null}],"admin3":[],"alternateNames":[{"alternatenameId":1632834,"geonameid":4829764,"isoLanguage":"en","alternateName":"Alabama","isPreferredName":true,"isShortName":true,"isColloquial":false,"isHistoric":false}]},"__N_SSG":true}