{"pageProps":{"locale":"en","admin2":{"geonameid":4060938,"name":"Etowah County","country":"US","admin1":"AL","admin2":"055","admin3":"","latitude":"34.0452500","longitude":"-86.0347600","localeAltName":null},"admin1":{"geonameid":4829764,"name":"Alabama","admin1":"AL","localeAltName":"Alabama"},"locations":[{"geonameid":4830069,"name":"Altoona","admin3":"","localeAltName":null},{"geonameid":4830768,"name":"Attalla","admin3":"","localeAltName":null},{"geonameid":4831176,"name":"Ballplay","admin3":"","localeAltName":null},{"geonameid":7315156,"name":"Carlisle-Rockledge","admin3":"","localeAltName":null},{"geonameid":4060324,"name":"Egypt","admin3":"","localeAltName":null},{"geonameid":4063619,"name":"Gadsden","admin3":"","localeAltName":null},{"geonameid":4063684,"name":"Gallant","admin3":"","localeAltName":null},{"geonameid":4064310,"name":"Glencoe","admin3":"","localeAltName":null},{"geonameid":4067623,"name":"Hokes Bluff","admin3":"","localeAltName":null},{"geonameid":4069309,"name":"Ivalee","admin3":"","localeAltName":null},{"geonameid":4085336,"name":"Rainbow City","admin3":"","localeAltName":null},{"geonameid":4085659,"name":"Reece City","admin3":"","localeAltName":null},{"geonameid":4088704,"name":"Sardis City","admin3":"","localeAltName":null},{"geonameid":4091058,"name":"Southside","admin3":"","localeAltName":null},{"geonameid":4096248,"name":"Walnut Grove","admin3":"","localeAltName":null},{"geonameid":4097588,"name":"Whitesboro","admin3":"","localeAltName":null}],"admin3":[{"geonameid":11788627,"name":"City of Rainbow City","admin3":"11788627"}],"alternateNames":[{"alternatenameId":1632834,"geonameid":4829764,"isoLanguage":"en","alternateName":"Alabama","isPreferredName":true,"isShortName":true,"isColloquial":false,"isHistoric":false}]},"__N_SSG":true}