{"pageProps":{"locale":"en","admin2":{"geonameid":4069696,"name":"Jefferson County","country":"US","admin1":"AL","admin2":"073","admin3":"","latitude":"33.5543100","longitude":"-86.8964900","localeAltName":null},"admin1":{"geonameid":4829764,"name":"Alabama","admin1":"AL","localeAltName":"Alabama"},"locations":[{"geonameid":4829588,"name":"Adamsville","admin3":"","localeAltName":null},{"geonameid":4830478,"name":"Argo","admin3":"","localeAltName":null},{"geonameid":4048023,"name":"Bessemer","admin3":"","localeAltName":null},{"geonameid":4049979,"name":"Birmingham","admin3":"","localeAltName":null},{"geonameid":4047198,"name":"Brighton","admin3":"","localeAltName":null},{"geonameid":4051955,"name":"Brookside","admin3":"","localeAltName":null},{"geonameid":4052964,"name":"Cahaba Heights","admin3":"","localeAltName":null},{"geonameid":4054378,"name":"Center Point","admin3":"","localeAltName":null},{"geonameid":4054593,"name":"Chalkville","admin3":"","localeAltName":null},{"geonameid":4055650,"name":"Clay","admin3":"","localeAltName":null},{"geonameid":4056515,"name":"Concord","admin3":"","localeAltName":null},{"geonameid":8605041,"name":"Dixiana","admin3":"","localeAltName":null},{"geonameid":4060232,"name":"Edgewater","admin3":"","localeAltName":null},{"geonameid":4061206,"name":"Fairfield","admin3":"","localeAltName":null},{"geonameid":4062774,"name":"Forestdale","admin3":"","localeAltName":null},{"geonameid":4063570,"name":"Fultondale","admin3":"","localeAltName":null},{"geonameid":4063765,"name":"Gardendale","admin3":"","localeAltName":null},{"geonameid":4065029,"name":"Grayson Valley","admin3":"","localeAltName":null},{"geonameid":4065034,"name":"Graysville","admin3":"","localeAltName":null},{"geonameid":4067815,"name":"Hollywood","admin3":"","localeAltName":null},{"geonameid":4067927,"name":"Homewood","admin3":"","localeAltName":null},{"geonameid":4067994,"name":"Hoover","admin3":"","localeAltName":null},{"geonameid":4068446,"name":"Hueytown","admin3":"","localeAltName":null},{"geonameid":4069243,"name":"Irondale","admin3":"","localeAltName":null},{"geonameid":4070806,"name":"Kimberly","admin3":"","localeAltName":null},{"geonameid":4072130,"name":"Leeds","admin3":"","localeAltName":null},{"geonameid":4072842,"name":"Lipscomb","admin3":"","localeAltName":null},{"geonameid":4075368,"name":"McDonald Chapel","admin3":"","localeAltName":null},{"geonameid":4075977,"name":"Midfield","admin3":"","localeAltName":null},{"geonameid":4076468,"name":"Minor","admin3":"","localeAltName":null},{"geonameid":4077143,"name":"Morris","admin3":"","localeAltName":null},{"geonameid":4077867,"name":"Mount Olive","admin3":"","localeAltName":null},{"geonameid":4078646,"name":"Mountain Brook","admin3":"","localeAltName":null},{"geonameid":4078859,"name":"Mulga","admin3":"","localeAltName":null},{"geonameid":4083697,"name":"Pinson","admin3":"","localeAltName":null},{"geonameid":4083846,"name":"Pleasant Grove","admin3":"","localeAltName":null},{"geonameid":4086500,"name":"Rock Creek","admin3":"","localeAltName":null},{"geonameid":4092689,"name":"Sylvan Springs","admin3":"","localeAltName":null},{"geonameid":4092970,"name":"Tarrant","admin3":"","localeAltName":null},{"geonameid":4093961,"name":"Trafford","admin3":"","localeAltName":null},{"geonameid":4094212,"name":"Trussville","admin3":"","localeAltName":null},{"geonameid":4095415,"name":"Vestavia Hills","admin3":"","localeAltName":null},{"geonameid":4096404,"name":"Warrior","admin3":"","localeAltName":null}],"admin3":[{"geonameid":11788399,"name":"City of Tarrant","admin3":"11788399"},{"geonameid":11788851,"name":"City of Birmingham","admin3":"11788851"}],"alternateNames":[{"alternatenameId":1632834,"geonameid":4829764,"isoLanguage":"en","alternateName":"Alabama","isPreferredName":true,"isShortName":true,"isColloquial":false,"isHistoric":false}]},"__N_SSG":true}