{"pageProps":{"locale":"en","admin2":{"geonameid":4077029,"name":"Morgan County","country":"US","admin1":"AL","admin2":"103","admin3":"","latitude":"34.4534700","longitude":"-86.8529300","localeAltName":null},"admin1":{"geonameid":4829764,"name":"Alabama","admin1":"AL","localeAltName":"Alabama"},"locations":[{"geonameid":4058198,"name":"Danville","admin3":"","localeAltName":null},{"geonameid":4058553,"name":"Decatur","admin3":"","localeAltName":null},{"geonameid":4060998,"name":"Eva","admin3":"","localeAltName":null},{"geonameid":4061466,"name":"Falkville","admin3":"","localeAltName":null},{"geonameid":4062523,"name":"Flint City","admin3":"","localeAltName":null},{"geonameid":4066449,"name":"Hartselle","admin3":"","localeAltName":null},{"geonameid":4084883,"name":"Priceville","admin3":"","localeAltName":null},{"geonameid":4090853,"name":"Somerville","admin3":"","localeAltName":null},{"geonameid":4094048,"name":"Trinity","admin3":"","localeAltName":null}],"admin3":[],"alternateNames":[{"alternatenameId":1632834,"geonameid":4829764,"isoLanguage":"en","alternateName":"Alabama","isPreferredName":true,"isShortName":true,"isColloquial":false,"isHistoric":false}]},"__N_SSG":true}