{"pageProps":{"locale":"en","admin2":{"geonameid":4092827,"name":"Tallapoosa County","country":"US","admin1":"AL","admin2":"123","admin3":"","latitude":"32.8624000","longitude":"-85.7975000","localeAltName":null},"admin1":{"geonameid":4829764,"name":"Alabama","admin1":"AL","localeAltName":"Alabama"},"locations":[{"geonameid":4829843,"name":"Alexander City","admin3":"","localeAltName":null},{"geonameid":4053318,"name":"Camp Hill","admin3":"","localeAltName":null},{"geonameid":4058027,"name":"Dadeville","admin3":"","localeAltName":null},{"geonameid":4069545,"name":"Jacksons Gap","admin3":"","localeAltName":null},{"geonameid":4080080,"name":"New Site","admin3":"","localeAltName":null},{"geonameid":4081816,"name":"Our Town","admin3":"","localeAltName":null},{"geonameid":4085711,"name":"Reeltown","admin3":"","localeAltName":null}],"admin3":[],"alternateNames":[{"alternatenameId":1632834,"geonameid":4829764,"isoLanguage":"en","alternateName":"Alabama","isPreferredName":true,"isShortName":true,"isColloquial":false,"isHistoric":false}]},"__N_SSG":true}