{"pageProps":{"locale":"it","admin2":{"geonameid":3170146,"name":"Pordenone","country":"IT","admin1":"06","admin2":"PN","admin3":"","latitude":"46.1018200","longitude":"12.6900200","localeAltName":"Pordenone"},"admin1":{"geonameid":3176525,"name":"Friuli Venezia Giulia","admin1":"06","localeAltName":"Friuli Venezia Giulia"},"locations":[{"geonameid":3182927,"name":"Arba","admin3":"093002","localeAltName":null},{"geonameid":3182763,"name":"Arzene","admin3":"093053","localeAltName":null},{"geonameid":3182635,"name":"Aviano","admin3":"093004","localeAltName":null},{"geonameid":3179596,"name":"Aviano-Castello","admin3":"093004","localeAltName":null},{"geonameid":3182608,"name":"Azzano Decimo","admin3":"093005","localeAltName":null},{"geonameid":3182547,"name":"Bagnarola","admin3":"093043","localeAltName":null},{"geonameid":3182392,"name":"Barbeano","admin3":"093044","localeAltName":null},{"geonameid":3217759,"name":"Barco","admin3":"093035","localeAltName":null},{"geonameid":3181492,"name":"Brugnera","admin3":"093007","localeAltName":null},{"geonameid":3181446,"name":"Budoia","admin3":"093008","localeAltName":null},{"geonameid":8949538,"name":"Campagna","admin3":"093025","localeAltName":null},{"geonameid":3180844,"name":"Caneva","admin3":"093009","localeAltName":null},{"geonameid":3180045,"name":"Casarsa della Delizia","admin3":"093010","localeAltName":null},{"geonameid":8950074,"name":"Casette","admin3":"093043","localeAltName":null},{"geonameid":3179389,"name":"Castions","admin3":"093051","localeAltName":null},{"geonameid":3179293,"name":"Cavasso Nuovo","admin3":"093012","localeAltName":null},{"geonameid":3179263,"name":"Cavolano-Schiavoi","admin3":"093037","localeAltName":null},{"geonameid":3179240,"name":"Cecchini","admin3":"093029","localeAltName":null},{"geonameid":3179151,"name":"Ceolini","admin3":"093022","localeAltName":null},{"geonameid":3178780,"name":"Chions","admin3":"093013","localeAltName":null},{"geonameid":3178679,"name":"Cinque Strade-Cimpello","admin3":"093021","localeAltName":null},{"geonameid":3221658,"name":"Claut","admin3":"093015","localeAltName":null},{"geonameid":3178112,"name":"Cordenons","admin3":"093017","localeAltName":null},{"geonameid":3178109,"name":"Cordovado","admin3":"093018","localeAltName":null},{"geonameid":3217761,"name":"Fagnigola","admin3":"093005","localeAltName":null},{"geonameid":3177221,"name":"Fanna","admin3":"093020","localeAltName":null},{"geonameid":3176927,"name":"Fiume Veneto","admin3":"093021","localeAltName":null},{"geonameid":8949789,"name":"Frattina","admin3":"093035","localeAltName":null},{"geonameid":3218627,"name":"Ghirano","admin3":"093034","localeAltName":null},{"geonameid":3220295,"name":"Giais","admin3":"093004","localeAltName":null},{"geonameid":3217814,"name":"Gleris","admin3":"093041","localeAltName":null},{"geonameid":3174825,"name":"Lestans","admin3":"093042","localeAltName":null},{"geonameid":3174084,"name":"Maniago","admin3":"093025","localeAltName":null},{"geonameid":3220294,"name":"Marsure","admin3":"093004","localeAltName":null},{"geonameid":3173653,"name":"Meduno","admin3":"093026","localeAltName":null},{"geonameid":3172787,"name":"Montereale Valcellina","admin3":"093027","localeAltName":null},{"geonameid":3172561,"name":"Morsano","admin3":"093028","localeAltName":null},{"geonameid":8949461,"name":"Musil","admin3":"093017","localeAltName":null},{"geonameid":8029996,"name":"Nave","admin3":"093022","localeAltName":null},{"geonameid":3171981,"name":"Orcenico Inferiore","admin3":"093051","localeAltName":null},{"geonameid":3217719,"name":"Palse","admin3":"093032","localeAltName":null},{"geonameid":3171431,"name":"Pasiano","admin3":"093029","localeAltName":null},{"geonameid":3170404,"name":"Polcenigo","admin3":"093031","localeAltName":null},{"geonameid":3170154,"name":"Porcia","admin3":"093032","localeAltName":null},{"geonameid":3170147,"name":"Pordenone","admin3":"093033","localeAltName":null},{"geonameid":3217768,"name":"Pozzo","admin3":"093029","localeAltName":null},{"geonameid":3169935,"name":"Prata di Pordenone","admin3":"093034","localeAltName":null},{"geonameid":3169893,"name":"Pravisdomini","admin3":"093035","localeAltName":null},{"geonameid":3169789,"name":"Provesano","admin3":"093038","localeAltName":null},{"geonameid":3217767,"name":"Puia-Villanova","admin3":"093034","localeAltName":null},{"geonameid":3220662,"name":"Ramuscello","admin3":"093043","localeAltName":null},{"geonameid":3169569,"name":"Rauscedo-Domanins","admin3":"093038","localeAltName":null},{"geonameid":3168969,"name":"Rosa","admin3":"093041","localeAltName":null},{"geonameid":3168858,"name":"Roveredo in Piano","admin3":"093036","localeAltName":null},{"geonameid":3168730,"name":"Sacile","admin3":"093037","localeAltName":null},{"geonameid":3220330,"name":"San Foca","admin3":"093040","localeAltName":null},{"geonameid":3168306,"name":"San Giorgio della Richinvelda","admin3":"093038","localeAltName":null},{"geonameid":3168270,"name":"San Giovanni","admin3":"093031","localeAltName":null},{"geonameid":3217721,"name":"San Giovanni di Livenza","admin3":"093037","localeAltName":null},{"geonameid":3168167,"name":"San Leonardo","admin3":"093027","localeAltName":null},{"geonameid":3220328,"name":"San Martino al Tagliamento","admin3":"093039","localeAltName":null},{"geonameid":3168045,"name":"San Martino Di Campagna","admin3":"093004","localeAltName":null},{"geonameid":3167780,"name":"San Quirino","admin3":"093040","localeAltName":null},{"geonameid":3167186,"name":"San Vito al Tagliamento","admin3":"093041","localeAltName":null},{"geonameid":3217816,"name":"Savorgnano","admin3":"093041","localeAltName":null},{"geonameid":3166823,"name":"Sedrano","admin3":"093040","localeAltName":null},{"geonameid":3166718,"name":"Sequals","admin3":"093042","localeAltName":null},{"geonameid":3166605,"name":"Sesto al Reghena","admin3":"093043","localeAltName":null},{"geonameid":3166262,"name":"Spilimbergo","admin3":"093044","localeAltName":null},{"geonameid":3165954,"name":"Tamai","admin3":"093007","localeAltName":null},{"geonameid":3165290,"name":"Travesio","admin3":"093047","localeAltName":null},{"geonameid":3220289,"name":"Usago","admin3":"093047","localeAltName":null},{"geonameid":3164969,"name":"Vajont","admin3":"093052","localeAltName":null},{"geonameid":3164918,"name":"Valeriano","admin3":"093030","localeAltName":null},{"geonameid":3164745,"name":"Valvasone","admin3":"093053","localeAltName":null},{"geonameid":3164319,"name":"Vigonovo-Fontanafredda","admin3":"093022","localeAltName":null},{"geonameid":8949698,"name":"Villa D'Arco","admin3":"093017","localeAltName":null},{"geonameid":3164087,"name":"Villotta","admin3":"093013","localeAltName":null},{"geonameid":3164086,"name":"Visinale","admin3":"093029","localeAltName":null},{"geonameid":3164018,"name":"Vivaro","admin3":"093050","localeAltName":null},{"geonameid":3163846,"name":"Zoppola","admin3":"093051","localeAltName":null}],"admin3":[{"geonameid":3174085,"name":"Maniago","admin3":"093025","localeAltName":null},{"geonameid":3178552,"name":"Claut","admin3":"093015","localeAltName":null},{"geonameid":3179548,"name":"Castelnovo del Friuli","admin3":"093011"},{"geonameid":6536343,"name":"Vito d'Asio","admin3":"093049"},{"geonameid":6536406,"name":"Fontanafredda","admin3":"093022","localeAltName":null},{"geonameid":6536407,"name":"Morsano al Tagliamento","admin3":"093028","localeAltName":null},{"geonameid":6537925,"name":"Andreis","admin3":"093001"},{"geonameid":6537926,"name":"Barcis","admin3":"093006"},{"geonameid":6537927,"name":"Budoia","admin3":"093008","localeAltName":null},{"geonameid":6537928,"name":"Clauzetto","admin3":"093016"},{"geonameid":6537929,"name":"Cordenons","admin3":"093017","localeAltName":null},{"geonameid":6537930,"name":"Cordovado","admin3":"093018","localeAltName":null},{"geonameid":6537931,"name":"Fanna","admin3":"093020","localeAltName":null},{"geonameid":6537932,"name":"Fiume Veneto","admin3":"093021","localeAltName":null},{"geonameid":6537933,"name":"Meduno","admin3":"093026","localeAltName":null},{"geonameid":6537934,"name":"Pinzano al Tagliamento","admin3":"093030","localeAltName":null},{"geonameid":6537935,"name":"Roveredo in Piano","admin3":"093036","localeAltName":null},{"geonameid":6537936,"name":"San Giorgio della Richinvelda","admin3":"093038","localeAltName":null},{"geonameid":6537937,"name":"Sequals","admin3":"093042","localeAltName":null},{"geonameid":6537938,"name":"Sesto al Reghena","admin3":"093043","localeAltName":null},{"geonameid":6537939,"name":"Travesio","admin3":"093047","localeAltName":null},{"geonameid":6537940,"name":"Zoppola","admin3":"093051","localeAltName":null},{"geonameid":6539323,"name":"Arba","admin3":"093002","localeAltName":null},{"geonameid":6539324,"name":"Brugnera","admin3":"093007","localeAltName":null},{"geonameid":6539325,"name":"Casarsa della Delizia","admin3":"093010","localeAltName":null},{"geonameid":6539326,"name":"Cavasso Nuovo","admin3":"093012","localeAltName":null},{"geonameid":6539327,"name":"Cimolais","admin3":"093014"},{"geonameid":6539328,"name":"Frisanco","admin3":"093024"},{"geonameid":6539329,"name":"Porcia","admin3":"093032","localeAltName":null},{"geonameid":6539330,"name":"Pravisdomini","admin3":"093035","localeAltName":null},{"geonameid":6539331,"name":"San Quirino","admin3":"093040","localeAltName":null},{"geonameid":6539332,"name":"San Vito al Tagliamento","admin3":"093041","localeAltName":null},{"geonameid":6539333,"name":"Spilimbergo","admin3":"093044","localeAltName":null},{"geonameid":6539334,"name":"Tramonti di Sopra","admin3":"093045"},{"geonameid":6539335,"name":"Tramonti di Sotto","admin3":"093046"},{"geonameid":6539337,"name":"Vajont","admin3":"093052","localeAltName":null},{"geonameid":6539659,"name":"Chions","admin3":"093013","localeAltName":null},{"geonameid":6539663,"name":"Caneva","admin3":"093009","localeAltName":null},{"geonameid":6539881,"name":"Sacile","admin3":"093037","localeAltName":null},{"geonameid":6540072,"name":"Polcenigo","admin3":"093031","localeAltName":null},{"geonameid":6540073,"name":"Vivaro","admin3":"093050","localeAltName":null},{"geonameid":6540112,"name":"Pordenone","admin3":"093033","localeAltName":null},{"geonameid":6540298,"name":"Aviano","admin3":"093004","localeAltName":null},{"geonameid":6541371,"name":"Montereale Valcellina","admin3":"093027","localeAltName":null},{"geonameid":6541975,"name":"Azzano Decimo","admin3":"093005","localeAltName":null},{"geonameid":6541976,"name":"Prata di Pordenone","admin3":"093034","localeAltName":null},{"geonameid":6542106,"name":"San Martino al Tagliamento","admin3":"093039","localeAltName":null},{"geonameid":6542201,"name":"Erto e Casso","admin3":"093019"},{"geonameid":6542202,"name":"Pasiano di Pordenone","admin3":"093029","localeAltName":null},{"geonameid":11287686,"name":"Valvasone Arzene","admin3":"093053","localeAltName":null}],"alternateNames":[{"alternatenameId":1970634,"geonameid":3170146,"isoLanguage":"it","alternateName":"Pordenone","isPreferredName":true,"isShortName":true,"isColloquial":false,"isHistoric":false},{"alternatenameId":1351012,"geonameid":3176525,"isoLanguage":"it","alternateName":"Friuli Venezia Giulia","isPreferredName":true,"isShortName":true,"isColloquial":false,"isHistoric":false}]},"__N_SSG":true}