{"pageProps":{"locale":"en","admin2":{"geonameid":4277604,"name":"Pottawatomie County","country":"US","admin1":"KS","admin2":"149","admin3":"","latitude":"39.3790100","longitude":"-96.3424400","localeAltName":null},"admin1":{"geonameid":4273857,"name":"Kansas","admin1":"KS","localeAltName":"Kansas"},"locations":[{"geonameid":4276693,"name":"Onaga","admin3":"46700","localeAltName":null},{"geonameid":4278604,"name":"Saint George","admin3":"","localeAltName":null},{"geonameid":4278741,"name":"Saint Marys","admin3":"","localeAltName":null},{"geonameid":4281227,"name":"Wamego","admin3":"75350","localeAltName":null},{"geonameid":4281614,"name":"Westmoreland","admin3":"60625","localeAltName":null}],"admin3":[{"geonameid":4268134,"name":"Township of Belvue","admin3":"05950"},{"geonameid":4268470,"name":"Township of Blue Valley","admin3":"07725"},{"geonameid":4268471,"name":"Township of Blue","admin3":"07550"},{"geonameid":4269290,"name":"Township of Center","admin3":"12000"},{"geonameid":4269680,"name":"Township of Clear Creek","admin3":"13800"},{"geonameid":4271077,"name":"Township of Emmett","admin3":"21125"},{"geonameid":4272314,"name":"Township of Grant","admin3":"27950"},{"geonameid":4272391,"name":"Township of Green","admin3":"28450"},{"geonameid":4274508,"name":"Township of Lincoln","admin3":"41000"},{"geonameid":4274760,"name":"Township of Lone Tree","admin3":"42550"},{"geonameid":4274838,"name":"Township of Louisville","admin3":"42950"},{"geonameid":4275531,"name":"Township of Mill Creek","admin3":"46700","localeAltName":null},{"geonameid":4277615,"name":"Township of Pottawatomie","admin3":"57250"},{"geonameid":4278225,"name":"Township of Rock Creek","admin3":"60625","localeAltName":null},{"geonameid":4278580,"name":"Township of Saint Clere","admin3":"62150"},{"geonameid":4279226,"name":"Township of Shannon","admin3":"64300"},{"geonameid":4279311,"name":"Township of Sherman","admin3":"65050"},{"geonameid":4279839,"name":"Township of Spring Creek","admin3":"67475"},{"geonameid":4280847,"name":"Township of Union","admin3":"72250"},{"geonameid":4281031,"name":"Township of Vienna","admin3":"73875"},{"geonameid":4281229,"name":"Township of Wamego","admin3":"75350","localeAltName":null}],"alternateNames":[{"alternatenameId":2080124,"geonameid":4273857,"isoLanguage":"en","alternateName":"Kansas","isPreferredName":true,"isShortName":true,"isColloquial":false,"isHistoric":false}]},"__N_SSG":true}