{"pageProps":{"locale":"en","admin2":{"geonameid":2753718,"name":"Gemeente Hoogeveen","country":"NL","admin1":"01","admin2":"0118","admin3":"","latitude":"52.7182000","longitude":"6.5180300"},"admin1":{"geonameid":2756631,"name":"Provincie Drenthe","admin1":"01"},"locations":[{"geonameid":2760016,"name":"Achterom","admin3":""},{"geonameid":11746705,"name":"Alteveer gem Hoogeveen","admin3":""},{"geonameid":2757855,"name":"Dalerend","admin3":""},{"geonameid":2756947,"name":"De Weide","admin3":""},{"geonameid":2756211,"name":"Elim","admin3":""},{"geonameid":2755882,"name":"Fluitenberg","admin3":""},{"geonameid":2753907,"name":"Hollandscheveld","admin3":""},{"geonameid":2753719,"name":"Hoogeveen","admin3":""},{"geonameid":2753141,"name":"Kalenberg","admin3":""},{"geonameid":2752317,"name":"Krakeel","admin3":""},{"geonameid":2750595,"name":"Moscou","admin3":""},{"geonameid":6544761,"name":"Nieuw Moscou","admin3":""},{"geonameid":2750257,"name":"Nieuweroord","admin3":""},{"geonameid":2750170,"name":"Nieuwlande","admin3":""},{"geonameid":2750043,"name":"Nijstad","admin3":""},{"geonameid":2749834,"name":"Noordscheschut","admin3":""},{"geonameid":2749777,"name":"Nuil","admin3":""},{"geonameid":2748643,"name":"Pesse","admin3":""},{"geonameid":2747496,"name":"Schoon Velde","admin3":""},{"geonameid":2747345,"name":"SiberiÃ«","admin3":""},{"geonameid":2746855,"name":"Stadterij","admin3":""},{"geonameid":2746572,"name":"Stuifzand","admin3":""},{"geonameid":2746242,"name":"t Noorden","admin3":""},{"geonameid":2746328,"name":"Tiendeveen","admin3":""},{"geonameid":2745772,"name":"Veenesluis","admin3":""},{"geonameid":2744210,"name":"Wolfsbos","admin3":""},{"geonameid":2743740,"name":"Zuideropgaande","admin3":""},{"geonameid":2743519,"name":"Zwartschaap","admin3":""}],"admin3":[],"alternateNames":[{"alternatenameId":11907792,"geonameid":2756631,"isoLanguage":"de","alternateName":"Drenthe","isPreferredName":true,"isShortName":true,"isColloquial":false,"isHistoric":false}]},"__N_SSG":true}