{"pageProps":{"locale":"en","admin2":{"geonameid":6544297,"name":"Gemeente Midden-Drenthe","country":"NL","admin1":"01","admin2":"1731","admin3":"","latitude":"52.8671600","longitude":"6.5384000"},"admin1":{"geonameid":2756631,"name":"Provincie Drenthe","admin1":"01"},"locations":[{"geonameid":2759857,"name":"Alting","admin3":""},{"geonameid":2759475,"name":"Balinge","admin3":""},{"geonameid":2759271,"name":"Beilen","admin3":""},{"geonameid":2759267,"name":"Beilervaart","admin3":""},{"geonameid":2758479,"name":"Bovensmilde","admin3":""},{"geonameid":2758171,"name":"Brunsting","admin3":""},{"geonameid":2758168,"name":"Bruntinge","admin3":""},{"geonameid":2757129,"name":"De Polle","admin3":""},{"geonameid":2756570,"name":"Drijber","admin3":""},{"geonameid":2756188,"name":"Elp","admin3":""},{"geonameid":2755987,"name":"Eursing","admin3":""},{"geonameid":2755984,"name":"Eursinge","admin3":""},{"geonameid":2755727,"name":"Garminge","admin3":""},{"geonameid":2754092,"name":"Hijken","admin3":""},{"geonameid":2754089,"name":"Hijkersmilde","admin3":""},{"geonameid":2753869,"name":"Holthe","admin3":""},{"geonameid":2753724,"name":"Hoogersmilde","admin3":""},{"geonameid":2753698,"name":"Hooghalen","admin3":""},{"geonameid":2752801,"name":"Klatering","admin3":""},{"geonameid":2752115,"name":"Laaghalen","admin3":""},{"geonameid":2752112,"name":"Laaghalerveen","admin3":""},{"geonameid":2751611,"name":"Lieving","admin3":""},{"geonameid":2751255,"name":"Makkum","admin3":""},{"geonameid":2751209,"name":"Mantinge","admin3":""},{"geonameid":2750373,"name":"Nieuw-Balinge","admin3":""},{"geonameid":2749791,"name":"Norgervaart","admin3":""},{"geonameid":2749271,"name":"Oranje","admin3":""},{"geonameid":2749247,"name":"Orvelte","admin3":""},{"geonameid":2748191,"name":"Rheeveld","admin3":""},{"geonameid":2747100,"name":"Smalbroek","admin3":""},{"geonameid":2747076,"name":"Smilde","admin3":""},{"geonameid":2746944,"name":"Spier","admin3":""},{"geonameid":2746444,"name":"Ter Horst","admin3":""},{"geonameid":2744769,"name":"Westerbork","admin3":""},{"geonameid":2744454,"name":"Wijster","admin3":""},{"geonameid":2744269,"name":"Witteveen","admin3":""},{"geonameid":2743651,"name":"Zuidveld","admin3":""},{"geonameid":2743495,"name":"Zwiggelte","admin3":""}],"admin3":[],"alternateNames":[{"alternatenameId":11907792,"geonameid":2756631,"isoLanguage":"de","alternateName":"Drenthe","isPreferredName":true,"isShortName":true,"isColloquial":false,"isHistoric":false}]},"__N_SSG":true}