{"pageProps":{"locale":"it","admin2":{"geonameid":3173767,"name":"Provincia di Massa-Carrara","country":"IT","admin1":"16","admin2":"MS","admin3":"","latitude":"44.2500000","longitude":"10.0500000","localeAltName":"Massa-Carrara"},"admin1":{"geonameid":3165361,"name":"Toscana","admin1":"16","localeAltName":"Toscana"},"locations":[{"geonameid":3183324,"name":"Albiano Magra","admin3":"045001","localeAltName":null},{"geonameid":3182806,"name":"Arpiola-Pianfurcano","admin3":"045012","localeAltName":null},{"geonameid":3182686,"name":"Aulla","admin3":"045001","localeAltName":null},{"geonameid":3182497,"name":"Bagnone","admin3":"045002","localeAltName":null},{"geonameid":3182398,"name":"Barbarasco","admin3":"045015","localeAltName":null},{"geonameid":3182251,"name":"Bedizzano","admin3":"045003","localeAltName":null},{"geonameid":8949029,"name":"Borghetto-Melara","admin3":"045008","localeAltName":null},{"geonameid":3178670,"name":"Capanne-Prato-Cinquale","admin3":"045011","localeAltName":null},{"geonameid":3180423,"name":"Carrara","admin3":"045003","localeAltName":null},{"geonameid":8556341,"name":"Casette","admin3":"045010","localeAltName":null},{"geonameid":8949764,"name":"Codena","admin3":"045003","localeAltName":null},{"geonameid":6535613,"name":"Filattiera","admin3":"045006","localeAltName":null},{"geonameid":3176919,"name":"Fivizzano","admin3":"045007","localeAltName":null},{"geonameid":3176693,"name":"Forno","admin3":"045010","localeAltName":null},{"geonameid":3175954,"name":"Gragnana","admin3":"045003","localeAltName":null},{"geonameid":8531814,"name":"Gragnola","admin3":"045007","localeAltName":null},{"geonameid":3174760,"name":"Licciana Nardi","admin3":"045009","localeAltName":null},{"geonameid":3173935,"name":"Marina di Carrara","admin3":"045003","localeAltName":null},{"geonameid":3173931,"name":"Marina di Massa","admin3":"045010","localeAltName":null},{"geonameid":8950066,"name":"Masero","admin3":"045009","localeAltName":null},{"geonameid":3173775,"name":"Massa","admin3":"045010","localeAltName":null},{"geonameid":8950304,"name":"Montale","admin3":"045013","localeAltName":null},{"geonameid":7117914,"name":"Monti","admin3":"045009","localeAltName":null},{"geonameid":3172669,"name":"Montignoso","admin3":"045011","localeAltName":null},{"geonameid":3172627,"name":"Monzone","admin3":"045007","localeAltName":null},{"geonameid":3171585,"name":"Pallerone","admin3":"045001","localeAltName":null},{"geonameid":3170538,"name":"Podenzana","admin3":"045013","localeAltName":null},{"geonameid":3170191,"name":"Pontremoli","admin3":"045014","localeAltName":null},{"geonameid":8949231,"name":"San Vito-Cerreto","admin3":"045011","localeAltName":null},{"geonameid":3165966,"name":"Stallone-Talavorno","admin3":"045012","localeAltName":null},{"geonameid":3165749,"name":"Terrarossa","admin3":"045009","localeAltName":null},{"geonameid":8949914,"name":"Torano","admin3":"045003","localeAltName":null},{"geonameid":3164240,"name":"Villafranca in Lunigiana","admin3":"045016","localeAltName":null},{"geonameid":6534679,"name":"Zeri","admin3":"045017","localeAltName":null}],"admin3":[{"geonameid":3163884,"name":"Zeri","admin3":"045017","localeAltName":null},{"geonameid":6536324,"name":"Podenzana","admin3":"045013","localeAltName":null},{"geonameid":6536807,"name":"Bagnone","admin3":"045002","localeAltName":null},{"geonameid":6536808,"name":"Fivizzano","admin3":"045007","localeAltName":null},{"geonameid":6536809,"name":"Fosdinovo","admin3":"045008","localeAltName":null},{"geonameid":6538547,"name":"Licciana Nardi","admin3":"045009","localeAltName":null},{"geonameid":6538548,"name":"Mulazzo","admin3":"045012","localeAltName":null},{"geonameid":6539650,"name":"Montignoso","admin3":"045011","localeAltName":null},{"geonameid":6541078,"name":"Pontremoli","admin3":"045014","localeAltName":null},{"geonameid":6541079,"name":"Villafranca in Lunigiana","admin3":"045016","localeAltName":null},{"geonameid":6541642,"name":"Casola in Lunigiana","admin3":"045004"},{"geonameid":6541878,"name":"Aulla","admin3":"045001","localeAltName":null},{"geonameid":6542087,"name":"Carrara","admin3":"045003","localeAltName":null},{"geonameid":6542128,"name":"Massa","admin3":"045010","localeAltName":null},{"geonameid":6542743,"name":"Tresana","admin3":"045015","localeAltName":null},{"geonameid":6543025,"name":"Comano","admin3":"045005"},{"geonameid":6543593,"name":"Filattiera","admin3":"045006","localeAltName":null}],"alternateNames":[{"alternatenameId":1347493,"geonameid":3165361,"isoLanguage":"it","alternateName":"Toscana","isPreferredName":true,"isShortName":true,"isColloquial":false,"isHistoric":false},{"alternatenameId":2431347,"geonameid":3173767,"isoLanguage":"it","alternateName":"Massa-Carrara","isPreferredName":true,"isShortName":true,"isColloquial":false,"isHistoric":false}]},"__N_SSG":true}