{"pageProps":{"locale":"de","location":{"geonameid":2921044,"name":"Federal Republic of Germany","country":"DE","latitude":"51.5000000","longitude":"10.5000000","localeAltName":"Deutschland"},"locations":[{"geonameid":2953481,"name":"Baden-Württemberg","admin1":"01","localeAltName":"Baden-Württemberg"},{"geonameid":2951839,"name":"Bavaria","admin1":"02","localeAltName":"Bayern"},{"geonameid":2945356,"name":"Brandenburg","admin1":"11","localeAltName":"Brandenburg"},{"geonameid":2944387,"name":"Bremen","admin1":"03","localeAltName":"Bremen"},{"geonameid":2911297,"name":"Free and Hanseatic City of Hamburg","admin1":"04","localeAltName":"Hamburg"},{"geonameid":2905330,"name":"Hessen","admin1":"05","localeAltName":"Hessen"},{"geonameid":2950157,"name":"Land Berlin","admin1":"16","localeAltName":null},{"geonameid":2862926,"name":"Lower Saxony","admin1":"06","localeAltName":"Niedersachsen"},{"geonameid":2872567,"name":"Mecklenburg-Western Pomerania","admin1":"12","localeAltName":"Mecklenburg-Vorpommern"},{"geonameid":2861876,"name":"Nordrhein-Westfalen","admin1":"07","localeAltName":"Nordrhein-Westfalen"},{"geonameid":2847618,"name":"Rheinland-Pfalz","admin1":"08","localeAltName":"Rheinland-Pfalz"},{"geonameid":2842635,"name":"Saarland","admin1":"09","localeAltName":"Saarland"},{"geonameid":2842566,"name":"Saxony","admin1":"13","localeAltName":"Sachsen"},{"geonameid":2842565,"name":"Saxony-Anhalt","admin1":"14","localeAltName":"Sachsen-Anhalt"},{"geonameid":2838632,"name":"Schleswig-Holstein","admin1":"10","localeAltName":"Schleswig-Holstein"},{"geonameid":2822542,"name":"Thuringia","admin1":"15","localeAltName":"Thüringen"}],"alternateNames":[{"alternatenameId":2185077,"geonameid":2822542,"isoLanguage":"de","alternateName":"Thüringen","isPreferredName":true,"isShortName":true,"isColloquial":false,"isHistoric":false},{"alternatenameId":2080260,"geonameid":2838632,"isoLanguage":"de","alternateName":"Schleswig-Holstein","isPreferredName":true,"isShortName":true,"isColloquial":false,"isHistoric":false},{"alternatenameId":2080258,"geonameid":2842565,"isoLanguage":"de","alternateName":"Sachsen-Anhalt","isPreferredName":true,"isShortName":true,"isColloquial":false,"isHistoric":false},{"alternatenameId":2431432,"geonameid":2842566,"isoLanguage":"en","alternateName":"Saxony","isPreferredName":true,"isShortName":true,"isColloquial":false,"isHistoric":false},{"alternatenameId":7975928,"geonameid":2842566,"isoLanguage":"de","alternateName":"Sachsen","isPreferredName":true,"isShortName":true,"isColloquial":false,"isHistoric":false},{"alternatenameId":1620115,"geonameid":2842635,"isoLanguage":"de","alternateName":"Saarland","isPreferredName":true,"isShortName":true,"isColloquial":false,"isHistoric":false},{"alternatenameId":1765786,"geonameid":2847618,"isoLanguage":"de","alternateName":"Rheinland-Pfalz","isPreferredName":true,"isShortName":true,"isColloquial":false,"isHistoric":false},{"alternatenameId":2080494,"geonameid":2861876,"isoLanguage":"de","alternateName":"Nordrhein-Westfalen","isPreferredName":true,"isShortName":true,"isColloquial":false,"isHistoric":false},{"alternatenameId":2080496,"geonameid":2862926,"isoLanguage":"de","alternateName":"Niedersachsen","isPreferredName":true,"isShortName":true,"isColloquial":false,"isHistoric":false},{"alternatenameId":2080498,"geonameid":2872567,"isoLanguage":"de","alternateName":"Mecklenburg-Vorpommern","isPreferredName":true,"isShortName":true,"isColloquial":false,"isHistoric":false},{"alternatenameId":2256571,"geonameid":2905330,"isoLanguage":"de","alternateName":"Hessen","isPreferredName":true,"isShortName":true,"isColloquial":false,"isHistoric":false},{"alternatenameId":2080254,"geonameid":2911297,"isoLanguage":"de","alternateName":"Hamburg","isPreferredName":true,"isShortName":true,"isColloquial":false,"isHistoric":false},{"alternatenameId":1557479,"geonameid":2921044,"isoLanguage":"de","alternateName":"Deutschland","isPreferredName":true,"isShortName":true,"isColloquial":false,"isHistoric":false},{"alternatenameId":1557482,"geonameid":2921044,"isoLanguage":"en","alternateName":"Germany","isPreferredName":true,"isShortName":true,"isColloquial":false,"isHistoric":false},{"alternatenameId":2080252,"geonameid":2944387,"isoLanguage":"de","alternateName":"Bremen","isPreferredName":true,"isShortName":true,"isColloquial":false,"isHistoric":false},{"alternatenameId":2080501,"geonameid":2945356,"isoLanguage":"de","alternateName":"Brandenburg","isPreferredName":true,"isShortName":true,"isColloquial":false,"isHistoric":false},{"alternatenameId":2426270,"geonameid":2945356,"isoLanguage":"en","alternateName":"Brandenburg","isPreferredName":true,"isShortName":true,"isColloquial":false,"isHistoric":false},{"alternatenameId":1894550,"geonameid":2951839,"isoLanguage":"de","alternateName":"Bayern","isPreferredName":true,"isShortName":true,"isColloquial":false,"isHistoric":false},{"alternatenameId":1894551,"geonameid":2951839,"isoLanguage":"en","alternateName":"Bavaria","isPreferredName":true,"isShortName":true,"isColloquial":false,"isHistoric":false},{"alternatenameId":2080248,"geonameid":2953481,"isoLanguage":"de","alternateName":"Baden-Württemberg","isPreferredName":true,"isShortName":true,"isColloquial":false,"isHistoric":false}]},"__N_SSG":true}