{"pageProps":{"locale":"en","admin2":{"geonameid":4158712,"name":"Hillsborough County","country":"US","admin1":"FL","admin2":"057","admin3":"","latitude":"27.9062300","longitude":"-82.3469200","localeAltName":null},"admin1":{"geonameid":4155751,"name":"Florida","admin1":"FL","localeAltName":"Florida"},"locations":[{"geonameid":4146161,"name":"Apollo Beach","admin3":"","localeAltName":null},{"geonameid":4146588,"name":"Balm","admin3":"","localeAltName":null},{"geonameid":4148207,"name":"Bloomingdale","admin3":"","localeAltName":null},{"geonameid":4148674,"name":"Boyette","admin3":"","localeAltName":null},{"geonameid":4148757,"name":"Brandon","admin3":"","localeAltName":null},{"geonameid":4150115,"name":"Carrollwood","admin3":"","localeAltName":null},{"geonameid":4150118,"name":"Carrollwood Village","admin3":"","localeAltName":null},{"geonameid":4150727,"name":"Cheval","admin3":"","localeAltName":null},{"geonameid":4151157,"name":"Citrus Park","admin3":"","localeAltName":null},{"geonameid":4153553,"name":"Dover","admin3":"","localeAltName":null},{"geonameid":7259705,"name":"East Lake-Orient Park","admin3":"","localeAltName":null},{"geonameid":4154280,"name":"Egypt Lake-Leto","admin3":"","localeAltName":null},{"geonameid":4155430,"name":"Fish Hawk","admin3":"","localeAltName":null},{"geonameid":4156748,"name":"Gibsonton","admin3":"","localeAltName":null},{"geonameid":7259823,"name":"Greater Northdale","admin3":"","localeAltName":null},{"geonameid":4160822,"name":"Keystone","admin3":"","localeAltName":null},{"geonameid":4161313,"name":"Lake Magdalene","admin3":"","localeAltName":null},{"geonameid":4163033,"name":"Lutz","admin3":"","localeAltName":null},{"geonameid":4163318,"name":"Mango","admin3":"","localeAltName":null},{"geonameid":8479411,"name":"Northdale","admin3":"","localeAltName":null},{"geonameid":7260548,"name":"Palm River-Clair Mel","admin3":"","localeAltName":null},{"geonameid":4168062,"name":"Pebble Creek","admin3":"","localeAltName":null},{"geonameid":4168773,"name":"Plant City","admin3":"","localeAltName":null},{"geonameid":4169378,"name":"Progress Village","admin3":"","localeAltName":null},{"geonameid":4170156,"name":"Riverview","admin3":"","localeAltName":null},{"geonameid":4170688,"name":"Ruskin","admin3":"","localeAltName":null},{"geonameid":4172413,"name":"Seffner","admin3":"","localeAltName":null},{"geonameid":4174317,"name":"Sun City Center","admin3":"","localeAltName":null},{"geonameid":4174757,"name":"Tampa","admin3":"","localeAltName":null},{"geonameid":4174969,"name":"Temple Terrace","admin3":"","localeAltName":null},{"geonameid":4175269,"name":"Thonotosassa","admin3":"","localeAltName":null},{"geonameid":4175538,"name":"Town 'n' Country","admin3":"","localeAltName":null},{"geonameid":7260219,"name":"University","admin3":"","localeAltName":null},{"geonameid":4176318,"name":"Valrico","admin3":"","localeAltName":null},{"geonameid":4177779,"name":"Westchase","admin3":"","localeAltName":null},{"geonameid":4178488,"name":"Wimauma","admin3":"","localeAltName":null}],"admin3":[{"geonameid":7170893,"name":"City of Temple Terrace","admin3":"7170893"},{"geonameid":7318152,"name":"City of Tampa","admin3":"7318152"},{"geonameid":11788343,"name":"City of Plant City","admin3":"11788343"}],"alternateNames":[{"alternatenameId":2080779,"geonameid":4155751,"isoLanguage":"en","alternateName":"Florida","isPreferredName":true,"isShortName":true,"isColloquial":false,"isHistoric":false}]},"__N_SSG":true}