{"pageProps":{"locale":"en","admin2":{"geonameid":4163456,"name":"Marion County","country":"US","admin1":"FL","admin2":"083","admin3":"","latitude":"29.2102000","longitude":"-82.0566800","localeAltName":null},"admin1":{"geonameid":4155751,"name":"Florida","admin1":"FL","localeAltName":"Florida"},"locations":[{"geonameid":4147263,"name":"Belleview","admin3":"","localeAltName":null},{"geonameid":4151132,"name":"Citra","admin3":"","localeAltName":null},{"geonameid":4153790,"name":"Dunnellon","admin3":"","localeAltName":null},{"geonameid":4166673,"name":"Ocala","admin3":"","localeAltName":null},{"geonameid":4169780,"name":"Reddick","admin3":"","localeAltName":null},{"geonameid":4173002,"name":"Silver Springs","admin3":"","localeAltName":null},{"geonameid":4173007,"name":"Silver Springs Shores","admin3":"","localeAltName":null}],"admin3":[{"geonameid":7171374,"name":"Town of McIntosh","admin3":"7171374"},{"geonameid":7172402,"name":"Town of Reddick","admin3":"7172402"},{"geonameid":7317652,"name":"City of Dunnellon","admin3":"7317652"},{"geonameid":11788488,"name":"City of Belleview","admin3":"11788488"},{"geonameid":11788529,"name":"City of Ocala","admin3":"11788529"}],"alternateNames":[{"alternatenameId":2080779,"geonameid":4155751,"isoLanguage":"en","alternateName":"Florida","isPreferredName":true,"isShortName":true,"isColloquial":false,"isHistoric":false}]},"__N_SSG":true}