{"pageProps":{"locale":"en","admin2":{"geonameid":5247230,"name":"Burnett County","country":"US","admin1":"WI","admin2":"013","admin3":"","latitude":"45.8627200","longitude":"-92.3675700"},"admin1":{"geonameid":5279468,"name":"Wisconsin","admin1":"WI","localeAltName":"Wisconsin"},"locations":[{"geonameid":5254880,"name":"Grantsburg","admin3":"30450"}],"admin3":[{"geonameid":5243974,"name":"Town of Anderson","admin3":"01900"},{"geonameid":5246171,"name":"Town of Blaine","admin3":"08025"},{"geonameid":5250085,"name":"Town of Daniels","admin3":"18750"},{"geonameid":5250559,"name":"Town of Dewey","admin3":"19925"},{"geonameid":5254888,"name":"Town of Grantsburg","admin3":"30475"},{"geonameid":5254889,"name":"Village of Grantsburg","admin3":"30450"},{"geonameid":5257711,"name":"Town of Jackson","admin3":"37650"},{"geonameid":5258986,"name":"Town of La Follette","admin3":"40975"},{"geonameid":5260093,"name":"Town of Lincoln","admin3":"44325"},{"geonameid":5262510,"name":"Town of Meenon","admin3":"50650"},{"geonameid":5265438,"name":"Town of Oakland","admin3":"59075"},{"geonameid":5269493,"name":"Town of Roosevelt","admin3":"69325"},{"geonameid":5269790,"name":"Town of Rusk","admin3":"70225"},{"geonameid":5272138,"name":"Town of Sand Lake","admin3":"71450"},{"geonameid":5272557,"name":"Town of Scott","admin3":"72225"},{"geonameid":5273318,"name":"Town of Siren","admin3":"74200"},{"geonameid":5273319,"name":"Village of Siren","admin3":"74175"},{"geonameid":5275313,"name":"Town of Swiss","admin3":"78775"},{"geonameid":5276041,"name":"Town of Trade Lake","admin3":"80375"},{"geonameid":5276868,"name":"Town of Union","admin3":"81500"},{"geonameid":5278238,"name":"Town of Webb Lake","admin3":"84975"},{"geonameid":5278277,"name":"Village of Webster","admin3":"85025"},{"geonameid":5278575,"name":"Town of West Marshland","admin3":"85850"},{"geonameid":5279582,"name":"Town of Wood River","admin3":"88900"}],"alternateNames":[{"alternatenameId":2089565,"geonameid":5279468,"isoLanguage":"en","alternateName":"Wisconsin","isPreferredName":true,"isShortName":true,"isColloquial":false,"isHistoric":false}]},"__N_SSG":true}