{"pageProps":{"locale":"en","admin2":{"geonameid":5249193,"name":"Columbia County","country":"US","admin1":"WI","admin2":"021","admin3":"","latitude":"43.4666000","longitude":"-89.3337300"},"admin1":{"geonameid":5279468,"name":"Wisconsin","admin1":"WI","localeAltName":"Wisconsin"},"locations":[{"geonameid":5249205,"name":"Columbus","admin3":"16450"},{"geonameid":5252474,"name":"Fall River","admin3":"25150"},{"geonameid":5259313,"name":"Lake Wisconsin","admin3":"45375"},{"geonameid":5260694,"name":"Lodi","admin3":"45350"},{"geonameid":5266199,"name":"Pardeeville","admin3":"61100"},{"geonameid":5267785,"name":"Portage","admin3":"64100"},{"geonameid":5267923,"name":"Poynette","admin3":"64900"},{"geonameid":5268977,"name":"Rio","admin3":"68100"},{"geonameid":5279422,"name":"Wisconsin Dells","admin3":"88150"}],"admin3":[{"geonameid":5244159,"name":"Town of Arlington","admin3":"02825"},{"geonameid":5244160,"name":"Village of Arlington","admin3":"02800"},{"geonameid":5247423,"name":"Town of Caledonia","admin3":"11900"},{"geonameid":5247531,"name":"Village of Cambria","admin3":"12200"},{"geonameid":5249221,"name":"City of Columbus","admin3":"16450"},{"geonameid":5249222,"name":"Town of Columbus","admin3":"16475"},{"geonameid":5249577,"name":"Town of Courtland","admin3":"17325"},{"geonameid":5250388,"name":"Town of Dekorra","admin3":"19375"},{"geonameid":5250874,"name":"Village of Doylestown","admin3":"20775"},{"geonameid":5252478,"name":"Village of Fall River","admin3":"25150"},{"geonameid":5253519,"name":"Town of Fort Winnebago","admin3":"26725"},{"geonameid":5253569,"name":"Town of Fountain Prairie","admin3":"26875"},{"geonameid":5253904,"name":"Village of Friesland","admin3":"28000"},{"geonameid":5255440,"name":"Town of Hampden","admin3":"32375"},{"geonameid":5259705,"name":"Town of Leeds","admin3":"43125"},{"geonameid":5259860,"name":"Town of Lewiston","admin3":"43775"},{"geonameid":5260701,"name":"City of Lodi","admin3":"45350"},{"geonameid":5260702,"name":"Town of Lodi","admin3":"45375"},{"geonameid":5261217,"name":"Town of Lowville","admin3":"46050"},{"geonameid":5261814,"name":"Town of Marcellon","admin3":"49150"},{"geonameid":5264549,"name":"Town of Newport","admin3":"57025"},{"geonameid":5265871,"name":"Town of Otsego","admin3":"60687"},{"geonameid":5266118,"name":"Town of Pacific","admin3":"60925"},{"geonameid":5266205,"name":"Village of Pardeeville","admin3":"61100"},{"geonameid":5267803,"name":"City of Portage","admin3":"64100"},{"geonameid":5267927,"name":"Village of Poynette","admin3":"64900"},{"geonameid":5268365,"name":"Town of Randolph","admin3":"66175"},{"geonameid":5268949,"name":"Village of Rio","admin3":"68100"},{"geonameid":5272558,"name":"Town of Scott","admin3":"72250"},{"geonameid":5274351,"name":"Town of Springvale","admin3":"76225"},{"geonameid":5278595,"name":"Town of West Point","admin3":"86100"},{"geonameid":5279413,"name":"City of Wisconsin Dells","admin3":"88150"},{"geonameid":5279786,"name":"Town of Wyocena","admin3":"89325"},{"geonameid":5279787,"name":"Village of Wyocena","admin3":"89300"}],"alternateNames":[{"alternatenameId":2089565,"geonameid":5279468,"isoLanguage":"en","alternateName":"Wisconsin","isPreferredName":true,"isShortName":true,"isColloquial":false,"isHistoric":false}]},"__N_SSG":true}