{"pageProps":{"locale":"en","admin2":{"geonameid":5250074,"name":"Dane County","country":"US","admin1":"WI","admin2":"025","admin3":"","latitude":"43.0673500","longitude":"-89.4183200"},"admin1":{"geonameid":5279468,"name":"Wisconsin","admin1":"WI","localeAltName":"Wisconsin"},"locations":[{"geonameid":5245354,"name":"Belleville","admin3":"06300"},{"geonameid":5246060,"name":"Black Earth","admin3":"07800"},{"geonameid":5247533,"name":"Cambridge","admin3":"12225"},{"geonameid":5249503,"name":"Cottage Grove","admin3":"17175"},{"geonameid":5249778,"name":"Cross Plains","admin3":"17775"},{"geonameid":5250072,"name":"Dane","admin3":"18700"},{"geonameid":5250188,"name":"De Forest","admin3":"19350"},{"geonameid":5250368,"name":"Deerfield","admin3":"19250"},{"geonameid":5253219,"name":"Fitchburg","admin3":"25950"},{"geonameid":5261457,"name":"Madison","admin3":"48000"},{"geonameid":5261638,"name":"Maple Bluff","admin3":"48750"},{"geonameid":5261952,"name":"Marshall","admin3":"49575"},{"geonameid":5262150,"name":"Mazomanie","admin3":"50225"},{"geonameid":5262262,"name":"McFarland","admin3":"46850"},{"geonameid":5262838,"name":"Middleton","admin3":"51575"},{"geonameid":5263323,"name":"Monona","admin3":"53675"},{"geonameid":5263667,"name":"Mount Horeb","admin3":"54725"},{"geonameid":5265785,"name":"Oregon","admin3":"60200"},{"geonameid":5269671,"name":"Roxbury","admin3":"69850"},{"geonameid":5269819,"name":"Rutland","admin3":"70400"},{"geonameid":5273087,"name":"Shorewood Hills","admin3":"73750"},{"geonameid":5274787,"name":"Stoughton","admin3":"77675"},{"geonameid":5275020,"name":"Sun Prairie","admin3":"78600"},{"geonameid":5277142,"name":"Verona","admin3":"82600"},{"geonameid":5278073,"name":"Waunakee","admin3":"84350"},{"geonameid":5279311,"name":"Windsor","admin3":""}],"admin3":[{"geonameid":5243671,"name":"Town of Albion","admin3":"00875"},{"geonameid":5245358,"name":"Village of Belleville","admin3":"06300"},{"geonameid":5245526,"name":"Town of Berry","admin3":"07025"},{"geonameid":5246065,"name":"Town of Black Earth","admin3":"07825"},{"geonameid":5246066,"name":"Village of Black Earth","admin3":"07800"},{"geonameid":5246245,"name":"Town of Blooming Grove","admin3":"08350"},{"geonameid":5246273,"name":"Town of Blue Mounds","admin3":"08500"},{"geonameid":5246274,"name":"Village of Blue Mounds","admin3":"08475"},{"geonameid":5246789,"name":"Town of Bristol","admin3":"09775"},{"geonameid":5247205,"name":"Town of Burke","admin3":"11150"},{"geonameid":5247536,"name":"Village of Cambridge","admin3":"12225"},{"geonameid":5248626,"name":"Town of Christiana","admin3":"14650"},{"geonameid":5249508,"name":"Town of Cottage Grove","admin3":"17200"},{"geonameid":5249509,"name":"Village of Cottage Grove","admin3":"17175"},{"geonameid":5249779,"name":"Town of Cross Plains","admin3":"17800"},{"geonameid":5249780,"name":"Village of Cross Plains","admin3":"17775"},{"geonameid":5250079,"name":"Town of Dane","admin3":"18725"},{"geonameid":5250080,"name":"Village of Dane","admin3":"18700"},{"geonameid":5250196,"name":"Village of DeForest","admin3":"19350"},{"geonameid":5250371,"name":"Town of Deerfield","admin3":"19275"},{"geonameid":5250373,"name":"Village of Deerfield","admin3":"19250"},{"geonameid":5251027,"name":"Town of Dunkirk","admin3":"21100"},{"geonameid":5251042,"name":"Town of Dunn","admin3":"21125"},{"geonameid":5253208,"name":"City of Fitchburg","admin3":"25950"},{"geonameid":5261482,"name":"City of Madison","admin3":"48000"},{"geonameid":5261483,"name":"Town of Madison","admin3":"48025"},{"geonameid":5261640,"name":"Village of Maple Bluff","admin3":"48750"},{"geonameid":5261968,"name":"Village of Marshall","admin3":"49575"},{"geonameid":5262157,"name":"Town of Mazomanie","admin3":"50250"},{"geonameid":5262158,"name":"Village of Mazomanie","admin3":"50225"},{"geonameid":5262266,"name":"Village of McFarland","admin3":"46850"},{"geonameid":5262496,"name":"Town of Medina","admin3":"50475"},{"geonameid":5262850,"name":"City of Middleton","admin3":"51575"},{"geonameid":5262851,"name":"Town of Middleton","admin3":"51600"},{"geonameid":5263329,"name":"City of Monona","admin3":"53675"},{"geonameid":5263402,"name":"Town of Montrose","admin3":"54100"},{"geonameid":5263674,"name":"Village of Mount Horeb","admin3":"54725"},{"geonameid":5265790,"name":"Town of Oregon","admin3":"60225"},{"geonameid":5265791,"name":"Village of Oregon","admin3":"60200"},{"geonameid":5266629,"name":"Town of Perry","admin3":"62050"},{"geonameid":5267435,"name":"Town of Pleasant Springs","admin3":"63375"},{"geonameid":5268090,"name":"Town of Primrose","admin3":"65575"},{"geonameid":5269316,"name":"Village of Rockdale","admin3":"68725"},{"geonameid":5269677,"name":"Town of Roxbury","admin3":"69850"},{"geonameid":5269822,"name":"Town of Rutland","admin3":"70400"},{"geonameid":5273089,"name":"Village of Shorewood Hills","admin3":"73750"},{"geonameid":5274333,"name":"Town of Springdale","admin3":"75850"},{"geonameid":5274340,"name":"Town of Springfield","admin3":"75875"},{"geonameid":5274795,"name":"City of Stoughton","admin3":"77675"},{"geonameid":5275023,"name":"City of Sun Prairie","admin3":"78600"},{"geonameid":5275024,"name":"Town of Sun Prairie","admin3":"78625"},{"geonameid":5277126,"name":"Town of Vermont","admin3":"82525"},{"geonameid":5277146,"name":"City of Verona","admin3":"82600"},{"geonameid":5277147,"name":"Town of Verona","admin3":"82625"},{"geonameid":5277210,"name":"Town of Vienna","admin3":"82750"},{"geonameid":5278080,"name":"Village of Waunakee","admin3":"84350"},{"geonameid":5278708,"name":"Town of Westport","admin3":"86125"},{"geonameid":5279867,"name":"Town of York","admin3":"89450"}],"alternateNames":[{"alternatenameId":2089565,"geonameid":5279468,"isoLanguage":"en","alternateName":"Wisconsin","isPreferredName":true,"isShortName":true,"isColloquial":false,"isHistoric":false}]},"__N_SSG":true}