{"pageProps":{"locale":"en","admin2":{"geonameid":5258193,"name":"Juneau County","country":"US","admin1":"WI","admin2":"057","admin3":"","latitude":"43.9244400","longitude":"-90.1140200"},"admin1":{"geonameid":5279468,"name":"Wisconsin","admin1":"WI","localeAltName":"Wisconsin"},"locations":[{"geonameid":5251866,"name":"Elroy","admin3":"23800"},{"geonameid":5262113,"name":"Mauston","admin3":"50025"},{"geonameid":5264447,"name":"New Lisbon","admin3":"56900"}],"admin3":[{"geonameid":5244161,"name":"Town of Armenia","admin3":"02850"},{"geonameid":5247606,"name":"Village of Camp Douglas","admin3":"12350"},{"geonameid":5248911,"name":"Town of Clearfield","admin3":"15225"},{"geonameid":5249962,"name":"Town of Cutler","admin3":"18225"},{"geonameid":5251869,"name":"City of Elroy","admin3":"23800"},{"geonameid":5252706,"name":"Town of Finley","admin3":"25850"},{"geonameid":5253572,"name":"Town of Fountain","admin3":"26825"},{"geonameid":5254221,"name":"Town of Germantown","admin3":"28850"},{"geonameid":5257190,"name":"Village of Hustler","admin3":"36675"},{"geonameid":5258555,"name":"Town of Kildare","admin3":"39575"},{"geonameid":5258661,"name":"Town of Kingston","admin3":"39800"},{"geonameid":5259768,"name":"Town of Lemonweir","admin3":"43300"},{"geonameid":5260130,"name":"Town of Lindina","admin3":"44675"},{"geonameid":5260176,"name":"Town of Lisbon","admin3":"44825"},{"geonameid":5261379,"name":"Village of Lyndon Station","admin3":"46600"},{"geonameid":5261380,"name":"Town of Lyndon","admin3":"46525"},{"geonameid":5261887,"name":"Town of Marion","admin3":"49375"},{"geonameid":5262097,"name":"City of Mauston","admin3":"50025"},{"geonameid":5264216,"name":"Town of Necedah","admin3":"55725"},{"geonameid":5264217,"name":"Village of Necedah","admin3":"55700"},{"geonameid":5264454,"name":"City of New Lisbon","admin3":"56900"},{"geonameid":5265766,"name":"Town of Orange","admin3":"60150"},{"geonameid":5267604,"name":"Town of Plymouth","admin3":"63650"},{"geonameid":5272689,"name":"Town of Seven Mile Creek","admin3":"72625"},{"geonameid":5275009,"name":"Town of Summit","admin3":"78300"},{"geonameid":5276711,"name":"Village of Union Center","admin3":"81725"},{"geonameid":5279549,"name":"Town of Wonewoc","admin3":"88525"},{"geonameid":5279550,"name":"Village of Wonewoc","admin3":"88500"}],"alternateNames":[{"alternatenameId":2089565,"geonameid":5279468,"isoLanguage":"en","alternateName":"Wisconsin","isPreferredName":true,"isShortName":true,"isColloquial":false,"isHistoric":false}]},"__N_SSG":true}