{"pageProps":{"locale":"en","admin1":{"geonameid":2749990,"name":"Provincie Noord-Brabant","country":"NL","admin1":"06","latitude":"51.6666700","longitude":"5.0000000","localeAltName":null},"admin2":[{"geonameid":12022128,"name":"Altena","admin2":"1959","localeAltName":null},{"geonameid":2759131,"name":"Bergeijk","admin2":"1724","localeAltName":null},{"geonameid":2747350,"name":"Gemeente 's-Hertogenbosch","admin2":"0796","localeAltName":null},{"geonameid":6544249,"name":"Gemeente Alphen-Chaam","admin2":"1723","localeAltName":null},{"geonameid":2759619,"name":"Gemeente Asten","admin2":"0743","localeAltName":null},{"geonameid":2759553,"name":"Gemeente Baarle-Nassau","admin2":"0744","localeAltName":null},{"geonameid":2759144,"name":"Gemeente Bergen op Zoom","admin2":"0748","localeAltName":null},{"geonameid":6544268,"name":"Gemeente Bernheze","admin2":"1721","localeAltName":null},{"geonameid":2759039,"name":"Gemeente Best","admin2":"0753","localeAltName":null},{"geonameid":2758877,"name":"Gemeente Bladel","admin2":"1728","localeAltName":null},{"geonameid":2758757,"name":"Gemeente Boekel","admin2":"0755","localeAltName":null},{"geonameid":2758461,"name":"Gemeente Boxmeer","admin2":"0756","localeAltName":null},{"geonameid":2758459,"name":"Gemeente Boxtel","admin2":"0757","localeAltName":null},{"geonameid":2758400,"name":"Gemeente Breda","admin2":"0758","localeAltName":null},{"geonameid":6544288,"name":"Gemeente Cranendonck","admin2":"1706","localeAltName":null},{"geonameid":2757873,"name":"Gemeente Cuijk","admin2":"1684","localeAltName":null},{"geonameid":2757008,"name":"Gemeente Deurne","admin2":"0762","localeAltName":null},{"geonameid":2756722,"name":"Gemeente Dongen","admin2":"0766","localeAltName":null},{"geonameid":2751271,"name":"Gemeente Drimmelen","admin2":"1719","localeAltName":null},{"geonameid":2756341,"name":"Gemeente Eersel","admin2":"0770","localeAltName":null},{"geonameid":2756252,"name":"Gemeente Eindhoven","admin2":"0772","localeAltName":null},{"geonameid":2755994,"name":"Gemeente Etten-Leur","admin2":"0777","localeAltName":null},{"geonameid":2755668,"name":"Gemeente Geertruidenberg","admin2":"0779","localeAltName":null},{"geonameid":6544232,"name":"Gemeente Geldrop-Mierlo","admin2":"1771","localeAltName":null},{"geonameid":6544279,"name":"Gemeente Gemert-Bakel","admin2":"1652","localeAltName":null},{"geonameid":2755506,"name":"Gemeente Gilze en Rijen","admin2":"0784","localeAltName":null},{"geonameid":2755463,"name":"Gemeente Goirle","admin2":"0785","localeAltName":null},{"geonameid":2755357,"name":"Gemeente Grave","admin2":"0786","localeAltName":null},{"geonameid":2755008,"name":"Gemeente Haaren","admin2":"0788","localeAltName":null},{"geonameid":6544271,"name":"Gemeente Halderberge","admin2":"1655","localeAltName":null},{"geonameid":6544277,"name":"Gemeente Heeze-Leende","admin2":"1658","localeAltName":null},{"geonameid":2754446,"name":"Gemeente Helmond","admin2":"0794","localeAltName":null},{"geonameid":2754134,"name":"Gemeente Heusden","admin2":"0797","localeAltName":null},{"geonameid":2754065,"name":"Gemeente Hilvarenbeek","admin2":"0798","localeAltName":null},{"geonameid":6544266,"name":"Gemeente Laarbeek","admin2":"1659","localeAltName":null},{"geonameid":6544292,"name":"Gemeente Landerd","admin2":"1685","localeAltName":null},{"geonameid":2751455,"name":"Gemeente Loon op Zand","admin2":"0809","localeAltName":null},{"geonameid":2750800,"name":"Gemeente Mill en Sint Hubert","admin2":"0815","localeAltName":null},{"geonameid":6251995,"name":"Gemeente Moerdijk","admin2":"1709","localeAltName":null},{"geonameid":2749779,"name":"Gemeente Nuenen, Gerwen en Nederwetten","admin2":"0820","localeAltName":null},{"geonameid":2749682,"name":"Gemeente Oirschot","admin2":"0823","localeAltName":null},{"geonameid":2749679,"name":"Gemeente Oisterwijk","admin2":"0824","localeAltName":null},{"geonameid":2749447,"name":"Gemeente Oosterhout","admin2":"0826","localeAltName":null},{"geonameid":2749233,"name":"Gemeente Oss","admin2":"0828","localeAltName":null},{"geonameid":6544280,"name":"Gemeente Reusel-De Mierden","admin2":"1667","localeAltName":null},{"geonameid":2747857,"name":"Gemeente Rucphen","admin2":"0840","localeAltName":null},{"geonameid":2749288,"name":"Gemeente Sint Anthonis","admin2":"1702","localeAltName":null},{"geonameid":2747233,"name":"Gemeente Sint-Michielsgestel","admin2":"0845","localeAltName":null},{"geonameid":2747020,"name":"Gemeente Someren","admin2":"0847","localeAltName":null},{"geonameid":2747009,"name":"Gemeente Son en Breugel","admin2":"0848","localeAltName":null},{"geonameid":2746801,"name":"Gemeente Steenbergen","admin2":"0851","localeAltName":null},{"geonameid":2746300,"name":"Gemeente Tilburg","admin2":"0855","localeAltName":null},{"geonameid":2746004,"name":"Gemeente Uden","admin2":"0856","localeAltName":null},{"geonameid":2745859,"name":"Gemeente Valkenswaard","admin2":"0858","localeAltName":null},{"geonameid":2745704,"name":"Gemeente Veldhoven","admin2":"0861","localeAltName":null},{"geonameid":2745153,"name":"Gemeente Vught","admin2":"0865","localeAltName":null},{"geonameid":2745126,"name":"Gemeente Waalre","admin2":"0866","localeAltName":null},{"geonameid":2745122,"name":"Gemeente Waalwijk","admin2":"0867","localeAltName":null},{"geonameid":2744256,"name":"Gemeente Woensdrecht","admin2":"0873","localeAltName":null},{"geonameid":2743618,"name":"Gemeente Zundert","admin2":"0879","localeAltName":null},{"geonameid":11669500,"name":"Meierijstad","admin2":"1948","localeAltName":null},{"geonameid":2747929,"name":"Roosendaal","admin2":"1674","localeAltName":null}],"admin3":[],"country":{"geonameid":2750405,"country":"NL","name":"Kingdom of the Netherlands","localeAltName":"Netherlands"},"alternateNames":[{"alternatenameId":11907788,"geonameid":2749990,"isoLanguage":"de","alternateName":"Nordbrabant","isPreferredName":true,"isShortName":true,"isColloquial":false,"isHistoric":false},{"alternatenameId":1559973,"geonameid":2750405,"isoLanguage":"en","alternateName":"Netherlands","isPreferredName":true,"isShortName":true,"isColloquial":false,"isHistoric":false}]},"__N_SSG":true}