{"pageProps":{"locale":"en","admin1":{"geonameid":2748838,"name":"Provincie Overijssel","country":"NL","admin1":"15","latitude":"52.4166700","longitude":"6.5000000","localeAltName":null},"admin2":[{"geonameid":2759886,"name":"Gemeente Almelo","admin2":"0141","localeAltName":null},{"geonameid":2758597,"name":"Gemeente Borne","admin2":"0147","localeAltName":null},{"geonameid":2757849,"name":"Gemeente Dalfsen","admin2":"0148","localeAltName":null},{"geonameid":2756986,"name":"Gemeente Deventer","admin2":"0150","localeAltName":null},{"geonameid":6544285,"name":"Gemeente Dinkelland","admin2":"1774","localeAltName":null},{"geonameid":2756070,"name":"Gemeente Enschede","admin2":"0153","localeAltName":null},{"geonameid":2755031,"name":"Gemeente Haaksbergen","admin2":"0158","localeAltName":null},{"geonameid":2754858,"name":"Gemeente Hardenberg","admin2":"0160","localeAltName":null},{"geonameid":2754456,"name":"Gemeente Hellendoorn","admin2":"0163","localeAltName":null},{"geonameid":2754392,"name":"Gemeente Hengelo","admin2":"0164","localeAltName":null},{"geonameid":6544289,"name":"Gemeente Hof van Twente","admin2":"1735","localeAltName":null},{"geonameid":2753104,"name":"Gemeente Kampen","admin2":"0166","localeAltName":null},{"geonameid":2751423,"name":"Gemeente Losser","admin2":"0168","localeAltName":null},{"geonameid":2749643,"name":"Gemeente Oldenzaal","admin2":"0173","localeAltName":null},{"geonameid":6544248,"name":"Gemeente Olst-Wijhe","admin2":"1773","localeAltName":null},{"geonameid":2749611,"name":"Gemeente Ommen","admin2":"0175","localeAltName":null},{"geonameid":2748370,"name":"Gemeente Raalte","admin2":"0177","localeAltName":null},{"geonameid":6544230,"name":"Gemeente Rijssen-Holten","admin2":"1742","localeAltName":null},{"geonameid":2746837,"name":"Gemeente Staphorst","admin2":"0180","localeAltName":null},{"geonameid":6544235,"name":"Gemeente Steenwijkerland","admin2":"1708","localeAltName":null},{"geonameid":2746132,"name":"Gemeente Tubbergen","admin2":"0183","localeAltName":null},{"geonameid":6544245,"name":"Gemeente Twenterand","admin2":"1700","localeAltName":null},{"geonameid":2744548,"name":"Gemeente Wierden","admin2":"0189","localeAltName":null},{"geonameid":6544260,"name":"Gemeente Zwartewaterland","admin2":"1896","localeAltName":null},{"geonameid":2743476,"name":"Gemeente Zwolle","admin2":"0193","localeAltName":null}],"admin3":[],"country":{"geonameid":2750405,"country":"NL","name":"Kingdom of the Netherlands","localeAltName":"Netherlands"},"alternateNames":[{"alternatenameId":11907794,"geonameid":2748838,"isoLanguage":"de","alternateName":"Overijssel","isPreferredName":true,"isShortName":true,"isColloquial":false,"isHistoric":false},{"alternatenameId":1559973,"geonameid":2750405,"isoLanguage":"en","alternateName":"Netherlands","isPreferredName":true,"isShortName":true,"isColloquial":false,"isHistoric":false}]},"__N_SSG":true}