{"pageProps":{"locale":"en","admin1":{"geonameid":2755249,"name":"Provincie Groningen","country":"NL","admin1":"04","latitude":"53.2500000","longitude":"6.7500000","localeAltName":null},"admin2":[{"geonameid":7535498,"name":"Gemeente  Oldambt","admin2":"1895","localeAltName":null},{"geonameid":2759686,"name":"Gemeente Appingedam","admin2":"0003","localeAltName":null},{"geonameid":2757339,"name":"Gemeente Delfzijl","admin2":"0010","localeAltName":null},{"geonameid":2755250,"name":"Gemeente Groningen","admin2":"0014","localeAltName":null},{"geonameid":2751428,"name":"Gemeente Loppersum","admin2":"0024","localeAltName":null},{"geonameid":6544234,"name":"Gemeente Pekela","admin2":"0765","localeAltName":null},{"geonameid":2746859,"name":"Gemeente Stadskanaal","admin2":"0037","localeAltName":null},{"geonameid":2745782,"name":"Gemeente Veendam","admin2":"0047","localeAltName":null},{"geonameid":12022126,"name":"Het Hogeland","admin2":"1966","localeAltName":null},{"geonameid":12022125,"name":"Midden-Groningen","admin2":"1952","localeAltName":null},{"geonameid":2744721,"name":"Westerkwartier","admin2":"1969","localeAltName":null},{"geonameid":12022124,"name":"Westerwolde","admin2":"1950","localeAltName":null}],"admin3":[],"country":{"geonameid":2750405,"country":"NL","name":"Kingdom of the Netherlands","localeAltName":"Netherlands"},"alternateNames":[{"alternatenameId":1559973,"geonameid":2750405,"isoLanguage":"en","alternateName":"Netherlands","isPreferredName":true,"isShortName":true,"isColloquial":false,"isHistoric":false},{"alternatenameId":11907791,"geonameid":2755249,"isoLanguage":"de","alternateName":"Groningen","isPreferredName":true,"isShortName":true,"isColloquial":false,"isHistoric":false}]},"__N_SSG":true}