{"pageProps":{"locale":"en","admin1":{"geonameid":2749879,"name":"Provincie Noord-Holland","country":"NL","admin1":"07","latitude":"52.5833300","longitude":"4.9166700","localeAltName":null},"admin2":[{"geonameid":2760133,"name":"Gemeente Aalsmeer","admin2":"0358","localeAltName":null},{"geonameid":2759898,"name":"Gemeente Alkmaar","admin2":"0361","localeAltName":null},{"geonameid":2759797,"name":"Gemeente Amstelveen","admin2":"0362","localeAltName":null},{"geonameid":2759793,"name":"Gemeente Amsterdam","admin2":"0363","localeAltName":null},{"geonameid":2759320,"name":"Gemeente Beemster","admin2":"0370","localeAltName":null},{"geonameid":2759151,"name":"Gemeente Bergen","admin2":"0373","localeAltName":"Bergen"},{"geonameid":2758997,"name":"Gemeente Beverwijk","admin2":"0375","localeAltName":null},{"geonameid":2758867,"name":"Gemeente Blaricum","admin2":"0376","localeAltName":null},{"geonameid":2758802,"name":"Gemeente Bloemendaal","admin2":"0377","localeAltName":null},{"geonameid":2757990,"name":"Gemeente Castricum","admin2":"0383","localeAltName":null},{"geonameid":2757219,"name":"Gemeente Den Helder","admin2":"0400","localeAltName":null},{"geonameid":2756887,"name":"Gemeente Diemen","admin2":"0384","localeAltName":null},{"geonameid":6544254,"name":"Gemeente Drechterland","admin2":"0498","localeAltName":null},{"geonameid":2756430,"name":"Gemeente Edam-Volendam","admin2":"0385","localeAltName":null},{"geonameid":2756076,"name":"Gemeente Enkhuizen","admin2":"0388","localeAltName":null},{"geonameid":2755002,"name":"Gemeente Haarlem","admin2":"0392","localeAltName":null},{"geonameid":2754999,"name":"Gemeente Haarlemmermeer","admin2":"0394","localeAltName":null},{"geonameid":2754696,"name":"Gemeente Heemskerk","admin2":"0396","localeAltName":null},{"geonameid":2754691,"name":"Gemeente Heemstede","admin2":"0397","localeAltName":null},{"geonameid":2754658,"name":"Gemeente Heerhugowaard","admin2":"0398","localeAltName":null},{"geonameid":2754515,"name":"Gemeente Heiloo","admin2":"0399","localeAltName":null},{"geonameid":2754063,"name":"Gemeente Hilversum","admin2":"0402","localeAltName":null},{"geonameid":8426240,"name":"Gemeente Hollands Kroon","admin2":"1911","localeAltName":null},{"geonameid":2753635,"name":"Gemeente Hoorn","admin2":"0405","localeAltName":null},{"geonameid":2753467,"name":"Gemeente Huizen","admin2":"0406","localeAltName":null},{"geonameid":6544220,"name":"Gemeente Koggenland","admin2":"1598","localeAltName":null},{"geonameid":2751979,"name":"Gemeente Landsmeer","admin2":"0415","localeAltName":null},{"geonameid":2751962,"name":"Gemeente Langedijk","admin2":"0416","localeAltName":null},{"geonameid":2751873,"name":"Gemeente Laren","admin2":"0417","localeAltName":null},{"geonameid":2751072,"name":"Gemeente Medemblik","admin2":"0420","localeAltName":null},{"geonameid":2749319,"name":"Gemeente Oostzaan","admin2":"0431","localeAltName":null},{"geonameid":2749285,"name":"Gemeente Opmeer","admin2":"0432","localeAltName":null},{"geonameid":2749027,"name":"Gemeente Ouder-Amstel","admin2":"0437","localeAltName":null},{"geonameid":2748412,"name":"Gemeente Purmerend","admin2":"0439","localeAltName":null},{"geonameid":2747719,"name":"Gemeente Schagen","admin2":"0441","localeAltName":null},{"geonameid":6544238,"name":"Gemeente Stede Broec","admin2":"0532","localeAltName":null},{"geonameid":2746383,"name":"Gemeente Texel","admin2":"0448","localeAltName":null},{"geonameid":2745977,"name":"Gemeente Uitgeest","admin2":"0450","localeAltName":null},{"geonameid":2745972,"name":"Gemeente Uithoorn","admin2":"0451","localeAltName":null},{"geonameid":2745675,"name":"Gemeente Velsen","admin2":"0453","localeAltName":null},{"geonameid":2758257,"name":"Gemeente Waterland","admin2":"0852","localeAltName":null},{"geonameid":2744903,"name":"Gemeente Weesp","admin2":"0457","localeAltName":null},{"geonameid":3345301,"name":"Gemeente Wijdemeren","admin2":"1696","localeAltName":null},{"geonameid":6544263,"name":"Gemeente Wormerland","admin2":"0880","localeAltName":null},{"geonameid":2744113,"name":"Gemeente Zaanstad","admin2":"0479","localeAltName":null},{"geonameid":2744040,"name":"Gemeente Zandvoort","admin2":"0473","localeAltName":null},{"geonameid":11189015,"name":"Gooise Meren","admin2":"1942","localeAltName":null}],"admin3":[],"country":{"geonameid":2750405,"country":"NL","name":"Kingdom of the Netherlands","localeAltName":"Netherlands"},"alternateNames":[{"alternatenameId":1559973,"geonameid":2750405,"isoLanguage":"en","alternateName":"Netherlands","isPreferredName":true,"isShortName":true,"isColloquial":false,"isHistoric":false},{"alternatenameId":2426343,"geonameid":2759151,"isoLanguage":"en","alternateName":"Bergen","isPreferredName":true,"isShortName":true,"isColloquial":false,"isHistoric":false}]},"__N_SSG":true}