{"pageProps":{"locale":"en","admin1":{"geonameid":2755812,"name":"Provincie Friesland","country":"NL","admin1":"02","latitude":"53.1666700","longitude":"5.8333300","localeAltName":null},"admin2":[{"geonameid":10287303,"name":"De Fryske Marren","admin2":"1940","localeAltName":null},{"geonameid":2759982,"name":"Gemeente Achtkarspelen","admin2":"0059","localeAltName":null},{"geonameid":2759844,"name":"Gemeente Ameland","admin2":"0060","localeAltName":null},{"geonameid":2757834,"name":"Gemeente Dantumadiel","admin2":"1891","localeAltName":null},{"geonameid":2754816,"name":"Gemeente Harlingen","admin2":"0072","localeAltName":null},{"geonameid":2754668,"name":"Gemeente Heerenveen","admin2":"0074","localeAltName":null},{"geonameid":2751791,"name":"Gemeente Leeuwarden","admin2":"0080","localeAltName":null},{"geonameid":2749339,"name":"Gemeente Ooststellingwerf","admin2":"0085","localeAltName":null},{"geonameid":2749277,"name":"Gemeente Opsterland","admin2":"0086","localeAltName":null},{"geonameid":2747589,"name":"Gemeente Schiermonnikoog","admin2":"0088","localeAltName":null},{"geonameid":2747091,"name":"Gemeente Smallingerland","admin2":"0090","localeAltName":null},{"geonameid":2746412,"name":"Gemeente Terschelling","admin2":"0093","localeAltName":null},{"geonameid":6544304,"name":"Gemeente Tytsjerksteradiel","admin2":"0737","localeAltName":null},{"geonameid":2745417,"name":"Gemeente Vlieland","admin2":"0096","localeAltName":null},{"geonameid":2744609,"name":"Gemeente Weststellingwerf","admin2":"0098","localeAltName":null},{"geonameid":12022131,"name":"Noardeast-Fryslân","admin2":"1970","localeAltName":null},{"geonameid":8260049,"name":"Sûdwest Fryslân","admin2":"1900","localeAltName":null},{"geonameid":12022123,"name":"Waadhoeke","admin2":"1949","localeAltName":null}],"admin3":[],"country":{"geonameid":2750405,"country":"NL","name":"Kingdom of the Netherlands","localeAltName":"Netherlands"},"alternateNames":[{"alternatenameId":1559973,"geonameid":2750405,"isoLanguage":"en","alternateName":"Netherlands","isPreferredName":true,"isShortName":true,"isColloquial":false,"isHistoric":false},{"alternatenameId":5463435,"geonameid":2755812,"isoLanguage":"de","alternateName":"Friesland","isPreferredName":true,"isShortName":true,"isColloquial":false,"isHistoric":false}]},"__N_SSG":true}