{"pageProps":{"locale":"ro","admin2":{"geonameid":683571,"name":"Comuna Bucium","country":"RO","admin1":"01","admin2":"3459","admin3":"","latitude":"46.2613100","longitude":"23.1574200"},"admin1":{"geonameid":686581,"name":"Alba","admin1":"01"},"locations":[{"geonameid":686331,"name":"Anghelești"},{"geonameid":684691,"name":"Bisericani"},{"geonameid":684218,"name":"Bordei"},{"geonameid":683576,"name":"Bucium"},{"geonameid":683577,"name":"Bucium"},{"geonameid":683551,"name":"Bucium-Sat"},{"geonameid":682379,"name":"Cerbu"},{"geonameid":681478,"name":"Ciuculești"},{"geonameid":681114,"name":"Coleșeni"},{"geonameid":679616,"name":"Dealu Mare"},{"geonameid":679164,"name":"Dogărești"},{"geonameid":678330,"name":"Ferești"},{"geonameid":678058,"name":"Florești"},{"geonameid":677126,"name":"Giurcueşti"},{"geonameid":676522,"name":"Gura Izbitei"},{"geonameid":676257,"name":"Helești"},{"geonameid":675406,"name":"Izbicioara"},{"geonameid":675405,"name":"Izbita"},{"geonameid":10861116,"name":"Jurcuiești"},{"geonameid":674258,"name":"Lupulești"},{"geonameid":674149,"name":"Măgura"},{"geonameid":672676,"name":"Muntari"},{"geonameid":671006,"name":"Petreni"},{"geonameid":670144,"name":"Poiana"},{"geonameid":670217,"name":"Poieni"},{"geonameid":666110,"name":"Stâlnișoara"},{"geonameid":662893,"name":"Vâlcea"},{"geonameid":663944,"name":"Vale"},{"geonameid":663936,"name":"Valea Abruzel"},{"geonameid":663932,"name":"Valea Albă"},{"geonameid":10861117,"name":"Valea Cerbului"},{"geonameid":663551,"name":"Valea Negrilesii"},{"geonameid":663508,"name":"Valea Poienii"},{"geonameid":663402,"name":"Valea Șesii"},{"geonameid":663282,"name":"Văleni"}],"admin3":[],"alternateNames":[]},"__N_SSG":true}