{"pageProps":{"locale":"ro","admin2":{"geonameid":8334962,"name":"Municipiul Sighetu Marmaţiei","country":"RO","admin1":"25","admin2":"106559","admin3":"","latitude":"47.9191400","longitude":"23.8867900"},"admin1":{"geonameid":673887,"name":"Maramureş","admin1":"25"},"locations":[{"geonameid":682868,"name":"Cămara Sighet","admin3":""},{"geonameid":681839,"name":"Câmpu Negru","admin3":""},{"geonameid":679660,"name":"Dealu Cetăţii","admin3":""},{"geonameid":679289,"name":"Dobăeş","admin3":""},{"geonameid":676334,"name":"Hăneşti","admin3":""},{"geonameid":675821,"name":"Iapa","admin3":""},{"geonameid":674955,"name":"Lazu Baciului","admin3":""},{"geonameid":667227,"name":"Sighetu Marmaţiei","admin3":""},{"geonameid":665815,"name":"Şugău","admin3":""},{"geonameid":664006,"name":"Vadu Izei","admin3":""},{"geonameid":11000591,"name":"Valea Cufundoasă","admin3":""},{"geonameid":663737,"name":"Valea Hotarului","admin3":""},{"geonameid":663340,"name":"Valea Ungurului","admin3":""}],"admin3":[],"alternateNames":[]},"__N_SSG":true}