{"pageProps":{"locale":"it","admin2":{"geonameid":3174529,"name":"Provincia di Lucca","country":"IT","admin1":"16","admin2":"LU","admin3":"","latitude":"44.0333300","longitude":"10.4500000","localeAltName":"Lucca"},"admin1":{"geonameid":3165361,"name":"Toscana","admin1":"16","localeAltName":"Toscana"},"locations":[{"geonameid":3183147,"name":"Altopascio","admin3":"046001","localeAltName":null},{"geonameid":3182538,"name":"Bagni di Lucca","admin3":"046002","localeAltName":null},{"geonameid":3182358,"name":"Barga","admin3":"046003","localeAltName":null},{"geonameid":3181815,"name":"Borgo a Mozzano","admin3":"046004","localeAltName":null},{"geonameid":3181125,"name":"Camaiore","admin3":"046005","localeAltName":null},{"geonameid":3180929,"name":"Camporgiano","admin3":"046006","localeAltName":null},{"geonameid":3180733,"name":"Capannori","admin3":"046007","localeAltName":null},{"geonameid":3179523,"name":"Castelnuovo di Garfagnana","admin3":"046009","localeAltName":null},{"geonameid":3179456,"name":"Castelvecchio Pascoli","admin3":"046003","localeAltName":null},{"geonameid":3178107,"name":"Coreglia Antelminelli","admin3":"046011","localeAltName":null},{"geonameid":8949932,"name":"Corsagna","admin3":"046004","localeAltName":null},{"geonameid":8581483,"name":"Corsanico-Bargecchia","admin3":"046018","localeAltName":null},{"geonameid":3177587,"name":"Diecimo","admin3":"046004","localeAltName":null},{"geonameid":8950080,"name":"Filecchio","admin3":"046003","localeAltName":null},{"geonameid":3176711,"name":"Fornaci di Barga","admin3":"046003","localeAltName":null},{"geonameid":3176674,"name":"Forte dei Marmi","admin3":"046013","localeAltName":null},{"geonameid":3176378,"name":"Gallicano","admin3":"046015","localeAltName":null},{"geonameid":3175999,"name":"Gorfigliano","admin3":"046019","localeAltName":null},{"geonameid":3174530,"name":"Lucca","admin3":"046017","localeAltName":null},{"geonameid":8949723,"name":"Marginone","admin3":"046001","localeAltName":null},{"geonameid":3173754,"name":"Massarosa","admin3":"046018","localeAltName":null},{"geonameid":6544038,"name":"Matraia","admin3":"046007","localeAltName":null},{"geonameid":6615554,"name":"Nocchi","admin3":"046005","localeAltName":null},{"geonameid":8948998,"name":"Piano di Conca","admin3":"046018","localeAltName":null},{"geonameid":3176158,"name":"Piano di Coreglia-Ghivizzano","admin3":"046011","localeAltName":null},{"geonameid":9036357,"name":"Piano di Mommio","admin3":"046018","localeAltName":null},{"geonameid":3170896,"name":"Piazza al Serchio-San Michele","admin3":"046023","localeAltName":null},{"geonameid":3170778,"name":"Pietrasanta","admin3":"046024","localeAltName":null},{"geonameid":3170740,"name":"Pieve Fosciana","admin3":"046025","localeAltName":null},{"geonameid":8949974,"name":"Ponte All'Ania","admin3":"046003","localeAltName":null},{"geonameid":3170163,"name":"Porcari","admin3":"046026","localeAltName":null},{"geonameid":3169682,"name":"Ripa-Pozzi-Querceta-Ponterosso","admin3":"046028","localeAltName":null},{"geonameid":3168010,"name":"San Martino in Freddana-Monsagrati","admin3":"046022","localeAltName":null},{"geonameid":6534680,"name":"San Romano in Garfagnana","admin3":"046027","localeAltName":null},{"geonameid":8949705,"name":"San Salvatore","admin3":"046021","localeAltName":null},{"geonameid":3166714,"name":"Seravezza","admin3":"046028","localeAltName":null},{"geonameid":3166274,"name":"Spianate","admin3":"046001","localeAltName":null},{"geonameid":6544065,"name":"Stiava","admin3":"046018","localeAltName":null},{"geonameid":3166099,"name":"Strettoia","admin3":"046024","localeAltName":null},{"geonameid":3165455,"name":"Torre del Lago Puccini","admin3":"046033","localeAltName":null},{"geonameid":3164928,"name":"Valdottavo","admin3":"046004","localeAltName":null},{"geonameid":3164433,"name":"Viareggio","admin3":"046033","localeAltName":null}],"admin3":[{"geonameid":6536325,"name":"Piazza al Serchio","admin3":"046023","localeAltName":null},{"geonameid":6536810,"name":"Borgo a Mozzano","admin3":"046004","localeAltName":null},{"geonameid":6536811,"name":"Castiglione di Garfagnana","admin3":"046010"},{"geonameid":6536812,"name":"Coreglia Antelminelli","admin3":"046011","localeAltName":null},{"geonameid":6536813,"name":"Massarosa","admin3":"046018","localeAltName":null},{"geonameid":6536814,"name":"Minucciano","admin3":"046019","localeAltName":null},{"geonameid":6536815,"name":"Pescaglia","admin3":"046022","localeAltName":null},{"geonameid":6536816,"name":"Pieve Fosciana","admin3":"046025","localeAltName":null},{"geonameid":6538549,"name":"Altopascio","admin3":"046001","localeAltName":null},{"geonameid":6539733,"name":"Barga","admin3":"046003","localeAltName":null},{"geonameid":6539959,"name":"Bagni di Lucca","admin3":"046002","localeAltName":null},{"geonameid":6539960,"name":"Pietrasanta","admin3":"046024","localeAltName":null},{"geonameid":6540268,"name":"Stazzema","admin3":"046030"},{"geonameid":6540277,"name":"Vagli Sotto","admin3":"046031"},{"geonameid":6540465,"name":"Porcari","admin3":"046026","localeAltName":null},{"geonameid":6541080,"name":"Camporgiano","admin3":"046006","localeAltName":null},{"geonameid":6541081,"name":"Gallicano","admin3":"046015","localeAltName":null},{"geonameid":6541082,"name":"Molazzana","admin3":"046020"},{"geonameid":6541083,"name":"Villa Basilica","admin3":"046034"},{"geonameid":6541643,"name":"Montecarlo","admin3":"046021","localeAltName":null},{"geonameid":6541644,"name":"Seravezza","admin3":"046028","localeAltName":null},{"geonameid":6541645,"name":"Viareggio","admin3":"046033","localeAltName":null},{"geonameid":6541879,"name":"Castelnuovo di Garfagnana","admin3":"046009","localeAltName":null},{"geonameid":6541880,"name":"Forte dei Marmi","admin3":"046013","localeAltName":null},{"geonameid":6542041,"name":"Capannori","admin3":"046007","localeAltName":null},{"geonameid":6542121,"name":"Lucca","admin3":"046017","localeAltName":null},{"geonameid":6542137,"name":"Camaiore","admin3":"046005","localeAltName":null},{"geonameid":6542720,"name":"San Romano in Garfagnana","admin3":"046027","localeAltName":null},{"geonameid":6543594,"name":"Careggine","admin3":"046008"},{"geonameid":6543595,"name":"Fosciandora","admin3":"046014"},{"geonameid":6543597,"name":"Villa Collemandina","admin3":"046035"},{"geonameid":8659031,"name":"Fabbriche di Vergemoli","admin3":"046036"},{"geonameid":11287664,"name":"Sillano Giuncugnano","admin3":"046037"}],"alternateNames":[{"alternatenameId":1347493,"geonameid":3165361,"isoLanguage":"it","alternateName":"Toscana","isPreferredName":true,"isShortName":true,"isColloquial":false,"isHistoric":false},{"alternatenameId":1350306,"geonameid":3174529,"isoLanguage":"it","alternateName":"Lucca","isPreferredName":true,"isShortName":true,"isColloquial":false,"isHistoric":false}]},"__N_SSG":true}