{"pageProps":{"locale":"ro","admin2":{"geonameid":669509,"name":"Comuna Puieşti","country":"RO","admin1":"38","admin2":"165470","admin3":"","latitude":"46.4454100","longitude":"27.4621400"},"admin1":{"geonameid":663116,"name":"Vaslui","admin1":"38"},"locations":[{"geonameid":685328,"name":"Bărtăluș-Mocani","admin3":""},{"geonameid":685327,"name":"Bărtăluș-Răzeși","admin3":""},{"geonameid":682969,"name":"Călimănești","admin3":""},{"geonameid":682242,"name":"Cetățuia","admin3":""},{"geonameid":680181,"name":"Cristești","admin3":""},{"geonameid":678158,"name":"Fântânele","admin3":""},{"geonameid":677841,"name":"Fulgu","admin3":""},{"geonameid":677262,"name":"Gâlţeşti","admin3":""},{"geonameid":675719,"name":"Iezer","admin3":""},{"geonameid":675076,"name":"Lălești","admin3":""},{"geonameid":669505,"name":"Pueşti-Sat","admin3":""},{"geonameid":669499,"name":"Puieşti","admin3":""},{"geonameid":668583,"name":"Rotari","admin3":""},{"geonameid":668389,"name":"Ruși","admin3":""},{"geonameid":667911,"name":"Şase Martie","admin3":""},{"geonameid":665904,"name":"Studineţul","admin3":""},{"geonameid":664488,"name":"Tupilaţi","admin3":""}],"admin3":[],"alternateNames":[]},"__N_SSG":true}