{"pageProps":{"locale":"en","admin2":{"geonameid":5001932,"name":"Midland County","country":"US","admin1":"MI","admin2":"111","admin3":"","latitude":"43.6468600","longitude":"-84.3881100","localeAltName":null},"admin1":{"geonameid":5001836,"name":"Michigan","admin1":"MI","localeAltName":"Michigan"},"locations":[{"geonameid":4989304,"name":"Coleman","admin3":"17100","localeAltName":null},{"geonameid":5001929,"name":"Midland","admin3":"53780","localeAltName":null},{"geonameid":5008936,"name":"Sanford","admin3":"41760","localeAltName":null}],"admin3":[{"geonameid":4989307,"name":"City of Coleman","admin3":"17100","localeAltName":null},{"geonameid":4991819,"name":"Township of Edenville","admin3":"24830"},{"geonameid":4993803,"name":"Township of Geneva","admin3":"31820"},{"geonameid":4994698,"name":"Township of Greendale","admin3":"34860"},{"geonameid":4996378,"name":"Township of Homer","admin3":"38980"},{"geonameid":4996454,"name":"Township of Hope","admin3":"39160"},{"geonameid":4997127,"name":"Township of Ingersoll","admin3":"40620"},{"geonameid":4997459,"name":"Township of Jasper","admin3":"41560"},{"geonameid":4997525,"name":"Township of Jerome","admin3":"41760","localeAltName":null},{"geonameid":4998875,"name":"Charter Township of Larkin","admin3":"46160"},{"geonameid":4999017,"name":"Township of Lee","admin3":"46640"},{"geonameid":4999353,"name":"Township of Lincoln","admin3":"47680"},{"geonameid":5001936,"name":"City of Midland","admin3":"53780","localeAltName":null},{"geonameid":5001937,"name":"Charter Township of Midland","admin3":"53800"},{"geonameid":5002118,"name":"Township of Mills","admin3":"54320"},{"geonameid":5002669,"name":"Township of Mount Haley","admin3":"55940"},{"geonameid":5006308,"name":"Township of Porter","admin3":"65740"},{"geonameid":5014064,"name":"Township of Warren","admin3":"84020"}],"alternateNames":[{"alternatenameId":2124820,"geonameid":5001836,"isoLanguage":"en","alternateName":"Michigan","isPreferredName":true,"isShortName":true,"isColloquial":false,"isHistoric":false}]},"__N_SSG":true}