{"pageProps":{"locale":"en","admin2":{"geonameid":5004521,"name":"Ontonagon County","country":"US","admin1":"MI","admin2":"131","admin3":"","latitude":"46.7774900","longitude":"-89.3051100","localeAltName":null},"admin1":{"geonameid":5001836,"name":"Michigan","admin1":"MI","localeAltName":"Michigan"},"locations":[{"geonameid":5004520,"name":"Ontonagon","admin3":"60880","localeAltName":null}],"admin3":[{"geonameid":4985741,"name":"Township of Bergland","admin3":"07640"},{"geonameid":4986558,"name":"Township of Bohemia","admin3":"09460"},{"geonameid":4988074,"name":"Township of Carp Lake","admin3":"13520"},{"geonameid":4994715,"name":"Township of Greenland","admin3":"35000"},{"geonameid":4995059,"name":"Township of Haight","admin3":"35960"},{"geonameid":4997179,"name":"Township of Interior","admin3":"40760"},{"geonameid":5001150,"name":"Township of Matchwood","admin3":"52320"},{"geonameid":5001506,"name":"Township of McMillan","admin3":"50460"},{"geonameid":5004538,"name":"Township of Ontonagon","admin3":"60880","localeAltName":null},{"geonameid":5007455,"name":"Township of Rockland","admin3":"69140"},{"geonameid":5011038,"name":"Township of Stannard","admin3":"76180"}],"alternateNames":[{"alternatenameId":2124820,"geonameid":5001836,"isoLanguage":"en","alternateName":"Michigan","isPreferredName":true,"isShortName":true,"isColloquial":false,"isHistoric":false}]},"__N_SSG":true}