{"pageProps":{"locale":"it","admin2":{"geonameid":3170646,"name":"Province of Pisa","country":"IT","admin1":"16","admin2":"PI","admin3":"","latitude":"43.4166700","longitude":"10.7166700","localeAltName":null},"admin1":{"geonameid":3165361,"name":"Toscana","admin1":"16","localeAltName":"Toscana"},"locations":[{"geonameid":8948935,"name":"Asciano","admin3":"050031","localeAltName":null},{"geonameid":6698391,"name":"Avane","admin3":"050037","localeAltName":null},{"geonameid":3182040,"name":"Bientina","admin3":"050001","localeAltName":null},{"geonameid":3181351,"name":"Buti","admin3":"050002","localeAltName":null},{"geonameid":3181229,"name":"Calci","admin3":"050003","localeAltName":null},{"geonameid":3181227,"name":"Calcinaia","admin3":"050004","localeAltName":null},{"geonameid":8949301,"name":"Campo","admin3":"050031","localeAltName":null},{"geonameid":3180734,"name":"Capannoli","admin3":"050005","localeAltName":null},{"geonameid":8950247,"name":"Caprona","admin3":"050038","localeAltName":null},{"geonameid":3180209,"name":"Casale Marittimo","admin3":"050006","localeAltName":null},{"geonameid":3179979,"name":"Casciana Terme","admin3":"050040","localeAltName":null},{"geonameid":3179977,"name":"Cascina","admin3":"050008","localeAltName":null},{"geonameid":8948851,"name":"Cascine-La Croce","admin3":"050002","localeAltName":null},{"geonameid":3179420,"name":"Castel del Bosco","admin3":"050022","localeAltName":null},{"geonameid":3179687,"name":"Castelfranco di Sotto","admin3":"050009","localeAltName":null},{"geonameid":3179622,"name":"Castellina Marittima","admin3":"050010","localeAltName":null},{"geonameid":3179520,"name":"Castelnuovo di Val di Cecina","admin3":"050011","localeAltName":null},{"geonameid":3179180,"name":"Cenaia","admin3":"050041","localeAltName":null},{"geonameid":8949947,"name":"Cerretti","admin3":"050035","localeAltName":null},{"geonameid":3178869,"name":"Chianni","admin3":"050012","localeAltName":null},{"geonameid":8949274,"name":"Chiesino-Collodi","admin3":"050004","localeAltName":null},{"geonameid":3177825,"name":"Crespina","admin3":"050041","localeAltName":null},{"geonameid":8630072,"name":"Fabbrica","admin3":"050025","localeAltName":null},{"geonameid":3177150,"name":"Fauglia","admin3":"050014","localeAltName":null},{"geonameid":3176998,"name":"Filettole","admin3":"050037","localeAltName":null},{"geonameid":8129097,"name":"Fiorino","admin3":"050020","localeAltName":null},{"geonameid":3176758,"name":"Forcoli","admin3":"050024","localeAltName":null},{"geonameid":3176718,"name":"Fornacette","admin3":"050004","localeAltName":null},{"geonameid":8949285,"name":"Gabella","admin3":"050003","localeAltName":null},{"geonameid":8949001,"name":"Gello","admin3":"050031","localeAltName":null},{"geonameid":3175697,"name":"Guardistallo","admin3":"050015","localeAltName":null},{"geonameid":8949284,"name":"Il Romito","admin3":"050029","localeAltName":null},{"geonameid":8949996,"name":"Isola","admin3":"050032","localeAltName":null},{"geonameid":8949744,"name":"La Borra","admin3":"050029","localeAltName":null},{"geonameid":8949054,"name":"La Rotta","admin3":"050029","localeAltName":null},{"geonameid":8950361,"name":"La Serra","admin3":"050032","localeAltName":null},{"geonameid":3175240,"name":"Lajatico","admin3":"050016","localeAltName":null},{"geonameid":3175108,"name":"Lari","admin3":"050040","localeAltName":null},{"geonameid":3175060,"name":"Latignano","admin3":"050008","localeAltName":null},{"geonameid":3175022,"name":"Lavaiano","admin3":"050040","localeAltName":null},{"geonameid":3166249,"name":"Le Casine-Perignano-Spinelli","admin3":"050040","localeAltName":null},{"geonameid":3174341,"name":"Madonna dell'Acqua","admin3":"050031","localeAltName":null},{"geonameid":3173927,"name":"Marina di Pisa","admin3":"050026","localeAltName":null},{"geonameid":3165639,"name":"Marina di Pisa-Tirrenia-Calambrone","admin3":"050026","localeAltName":null},{"geonameid":3173846,"name":"Marti","admin3":"050022","localeAltName":null},{"geonameid":8949019,"name":"Metato","admin3":"050031","localeAltName":null},{"geonameid":3173448,"name":"Migliarino","admin3":"050037","localeAltName":null},{"geonameid":3173013,"name":"Montecalvoli","admin3":"050035","localeAltName":null},{"geonameid":8949686,"name":"Montecerboli","admin3":"050027","localeAltName":null},{"geonameid":6535041,"name":"Montescudaio","admin3":"050020","localeAltName":null},{"geonameid":3172650,"name":"Montopoli","admin3":"050022","localeAltName":null},{"geonameid":6544086,"name":"Orentano","admin3":"050009","localeAltName":null},{"geonameid":8949413,"name":"Orzignano","admin3":"050031","localeAltName":null},{"geonameid":3171660,"name":"Palaia","admin3":"050024","localeAltName":null},{"geonameid":3171352,"name":"Peccioli","admin3":"050025","localeAltName":null},{"geonameid":3170647,"name":"Pisa","admin3":"050026","localeAltName":null},{"geonameid":3170352,"name":"Pomarance","admin3":"050027","localeAltName":null},{"geonameid":3170321,"name":"Ponsacco","admin3":"050028","localeAltName":null},{"geonameid":8948766,"name":"Pontasserchio","admin3":"050031","localeAltName":null},{"geonameid":3170306,"name":"Ponte A Elsa","admin3":"050032","localeAltName":null},{"geonameid":8949922,"name":"Ponte d'Oro","admin3":"050031","localeAltName":null},{"geonameid":3170272,"name":"Pontedera","admin3":"050029","localeAltName":null},{"geonameid":8949910,"name":"Quattro Strade","admin3":"050040","localeAltName":null},{"geonameid":8949213,"name":"Quattro Strade","admin3":"050001","localeAltName":null},{"geonameid":3169311,"name":"Ripafratta-Farneta","admin3":"050031","localeAltName":null},{"geonameid":3169302,"name":"Riparbella","admin3":"050030","localeAltName":null},{"geonameid":3168650,"name":"Saline","admin3":"050039","localeAltName":null},{"geonameid":8949038,"name":"San Donato","admin3":"050032","localeAltName":null},{"geonameid":8949937,"name":"San Donato","admin3":"050035","localeAltName":null},{"geonameid":3168221,"name":"San Giuliano Terme","admin3":"050031","localeAltName":null},{"geonameid":3167953,"name":"San Miniato","admin3":"050032","localeAltName":null},{"geonameid":3167954,"name":"San Miniato Basso","admin3":"050032","localeAltName":null},{"geonameid":8949142,"name":"San Pietro Belvedere","admin3":"050005","localeAltName":null},{"geonameid":3167764,"name":"San Romano","admin3":"050032","localeAltName":null},{"geonameid":3167658,"name":"Santa Croce sull'Arno","admin3":"050033","localeAltName":null},{"geonameid":8949797,"name":"Santa Lucia","admin3":"050029","localeAltName":null},{"geonameid":3167567,"name":"Santa Maria a Monte","admin3":"050035","localeAltName":null},{"geonameid":3166769,"name":"Selvatelle","admin3":"050036","localeAltName":null},{"geonameid":3165742,"name":"Terricciola","admin3":"050036","localeAltName":null},{"geonameid":3165267,"name":"Treggiaia","admin3":"050029","localeAltName":null},{"geonameid":3165055,"name":"Uliveto Terme","admin3":"050038","localeAltName":null},{"geonameid":8949312,"name":"Val di Cava","admin3":"050028","localeAltName":null},{"geonameid":3164663,"name":"Vecchiano-Nodica","admin3":"050037","localeAltName":null},{"geonameid":3164396,"name":"Vicopisano","admin3":"050038","localeAltName":null},{"geonameid":8949860,"name":"Villa Campanile","admin3":"050009","localeAltName":null},{"geonameid":3163962,"name":"Volterra","admin3":"050039","localeAltName":null}],"admin3":[{"geonameid":6536355,"name":"Montopoli in Val d'Arno","admin3":"050022","localeAltName":null},{"geonameid":6536832,"name":"Bientina","admin3":"050001","localeAltName":null},{"geonameid":6536833,"name":"Calcinaia","admin3":"050004","localeAltName":null},{"geonameid":6536834,"name":"Castellina Marittima","admin3":"050010","localeAltName":null},{"geonameid":6536835,"name":"Guardistallo","admin3":"050015","localeAltName":null},{"geonameid":6536837,"name":"Palaia","admin3":"050024","localeAltName":null},{"geonameid":6536838,"name":"Peccioli","admin3":"050025","localeAltName":null},{"geonameid":6536839,"name":"Pontedera","admin3":"050029","localeAltName":null},{"geonameid":6536840,"name":"Riparbella","admin3":"050030","localeAltName":null},{"geonameid":6538571,"name":"Buti","admin3":"050002","localeAltName":null},{"geonameid":6538572,"name":"Casale Marittimo","admin3":"050006","localeAltName":null},{"geonameid":6538573,"name":"Castelfranco di Sotto","admin3":"050009","localeAltName":null},{"geonameid":6538574,"name":"Chianni","admin3":"050012","localeAltName":null},{"geonameid":6538576,"name":"Fauglia","admin3":"050014","localeAltName":null},{"geonameid":6538578,"name":"Monteverdi Marittimo","admin3":"050021"},{"geonameid":6538579,"name":"Pomarance","admin3":"050027","localeAltName":null},{"geonameid":6538580,"name":"Ponsacco","admin3":"050028","localeAltName":null},{"geonameid":6538581,"name":"San Giuliano Terme","admin3":"050031","localeAltName":null},{"geonameid":6538582,"name":"Santa Maria a Monte","admin3":"050035","localeAltName":null},{"geonameid":6538583,"name":"Vecchiano","admin3":"050037","localeAltName":null},{"geonameid":6539737,"name":"Santa Luce","admin3":"050034"},{"geonameid":6539738,"name":"Volterra","admin3":"050039","localeAltName":null},{"geonameid":6540477,"name":"Capannoli","admin3":"050005","localeAltName":null},{"geonameid":6541094,"name":"Calci","admin3":"050003","localeAltName":null},{"geonameid":6541095,"name":"Terricciola","admin3":"050036","localeAltName":null},{"geonameid":6541096,"name":"Vicopisano","admin3":"050038","localeAltName":null},{"geonameid":6541882,"name":"Lajatico","admin3":"050016","localeAltName":null},{"geonameid":6542090,"name":"Cascina","admin3":"050008","localeAltName":null},{"geonameid":6542091,"name":"San Miniato","admin3":"050032","localeAltName":null},{"geonameid":6542122,"name":"Pisa","admin3":"050026","localeAltName":null},{"geonameid":6542147,"name":"Castelnuovo di Val di Cecina","admin3":"050011","localeAltName":null},{"geonameid":6542214,"name":"Montecatini Val di Cecina","admin3":"050019"},{"geonameid":6542291,"name":"Santa Croce sull'Arno","admin3":"050033","localeAltName":null},{"geonameid":6543027,"name":"Montescudaio","admin3":"050020","localeAltName":null},{"geonameid":6543598,"name":"Orciano Pisano","admin3":"050023"},{"geonameid":8659032,"name":"Crespina Lorenzana","admin3":"050041","localeAltName":null},{"geonameid":8659033,"name":"Casciana Terme Lari","admin3":"050040","localeAltName":null}],"alternateNames":[{"alternatenameId":1347493,"geonameid":3165361,"isoLanguage":"it","alternateName":"Toscana","isPreferredName":true,"isShortName":true,"isColloquial":false,"isHistoric":false}]},"__N_SSG":true}