{"pageProps":{"locale":"it","admin2":{"geonameid":3175784,"name":"Provincia di Grosseto","country":"IT","admin1":"16","admin2":"GR","admin3":"","latitude":"42.8333300","longitude":"11.2500000","localeAltName":"Grosseto"},"admin1":{"geonameid":3165361,"name":"Toscana","admin1":"16","localeAltName":"Toscana"},"locations":[{"geonameid":6543983,"name":"Albinia","admin3":"053018","localeAltName":null},{"geonameid":3182912,"name":"Arcidosso","admin3":"053001","localeAltName":null},{"geonameid":3182493,"name":"Bagno Roselle","admin3":"053011","localeAltName":null},{"geonameid":3182509,"name":"Bagnolo","admin3":"053022","localeAltName":null},{"geonameid":3182284,"name":"Batignano","admin3":"053011","localeAltName":null},{"geonameid":3181630,"name":"Braccagni","admin3":"053011","localeAltName":null},{"geonameid":3181218,"name":"Caldana","admin3":"053010","localeAltName":null},{"geonameid":3181060,"name":"Campagnatico","admin3":"053002","localeAltName":null},{"geonameid":3180743,"name":"Capalbio","admin3":"053003","localeAltName":null},{"geonameid":8950229,"name":"Capalbio Scalo","admin3":"053003","localeAltName":null},{"geonameid":3179715,"name":"Castel del Piano","admin3":"053004","localeAltName":null},{"geonameid":3179641,"name":"Castell'Azzara","admin3":"053005","localeAltName":null},{"geonameid":3179418,"name":"Castiglione della Pescaia","admin3":"053006","localeAltName":null},{"geonameid":3178672,"name":"Cinigiano","admin3":"053007","localeAltName":null},{"geonameid":3178569,"name":"Civitella Marittima","admin3":"053008","localeAltName":null},{"geonameid":8950276,"name":"Filare-Boschetto-Miniera","admin3":"053010","localeAltName":null},{"geonameid":3176849,"name":"Follonica","admin3":"053009","localeAltName":null},{"geonameid":3176793,"name":"Fonteblanda","admin3":"053018","localeAltName":null},{"geonameid":3176259,"name":"Gavorrano","admin3":"053010","localeAltName":null},{"geonameid":3176120,"name":"Giglio Castello","admin3":"053012","localeAltName":null},{"geonameid":3176117,"name":"Giglio Porto","admin3":"053012","localeAltName":null},{"geonameid":3175786,"name":"Grosseto","admin3":"053011","localeAltName":null},{"geonameid":6534705,"name":"Isola del Giglio","admin3":"053012","localeAltName":null},{"geonameid":3175400,"name":"Istia D'Ombrone-Le Stiacciole","admin3":"053011","localeAltName":null},{"geonameid":3174259,"name":"Magliano in Toscana","admin3":"053013","localeAltName":null},{"geonameid":3174112,"name":"Manciano","admin3":"053014","localeAltName":null},{"geonameid":3173932,"name":"Marina di Grosseto","admin3":"053011","localeAltName":null},{"geonameid":3173758,"name":"Massa Marittima","admin3":"053015","localeAltName":null},{"geonameid":6534227,"name":"Monte Argentario","admin3":"053016","localeAltName":null},{"geonameid":3172767,"name":"Monterotondo Marittimo","admin3":"053027","localeAltName":null},{"geonameid":3172701,"name":"Montiano","admin3":"053013","localeAltName":null},{"geonameid":3171985,"name":"Orbetello","admin3":"053018","localeAltName":null},{"geonameid":9036381,"name":"Orbetello Scalo","admin3":"053018","localeAltName":null},{"geonameid":3171699,"name":"Paganico","admin3":"053008","localeAltName":null},{"geonameid":3170615,"name":"Pitigliano","admin3":"053019","localeAltName":null},{"geonameid":8950385,"name":"Portiglioni","admin3":"053024","localeAltName":null},{"geonameid":3170119,"name":"Porto Ercole","admin3":"053016","localeAltName":null},{"geonameid":3170071,"name":"Porto Santo Stefano","admin3":"053016","localeAltName":null},{"geonameid":3169940,"name":"Prata","admin3":"053015","localeAltName":null},{"geonameid":3169437,"name":"Ribolla","admin3":"053021","localeAltName":null},{"geonameid":3169284,"name":"Rispescia","admin3":"053011","localeAltName":null},{"geonameid":3169128,"name":"Roccastrada","admin3":"053021","localeAltName":null},{"geonameid":3169124,"name":"Roccatederighi","admin3":"053021","localeAltName":null},{"geonameid":3167655,"name":"Santa Fiora","admin3":"053022","localeAltName":null},{"geonameid":3167066,"name":"Sassofortino","admin3":"053021","localeAltName":null},{"geonameid":3166975,"name":"Scansano","admin3":"053023","localeAltName":null},{"geonameid":8643874,"name":"Scarlino Scalo","admin3":"053024","localeAltName":null},{"geonameid":3166385,"name":"Sorano","admin3":"053026","localeAltName":null},{"geonameid":9036169,"name":"Sticciano Scalo","admin3":"053021","localeAltName":null}],"admin3":[{"geonameid":3173038,"name":"Monte Argentario","admin3":"053016","localeAltName":null},{"geonameid":3178567,"name":"Civitella Paganico","admin3":"053008","localeAltName":null},{"geonameid":6536857,"name":"Capalbio","admin3":"053003","localeAltName":null},{"geonameid":6536858,"name":"Castiglione della Pescaia","admin3":"053006","localeAltName":null},{"geonameid":6536859,"name":"Manciano","admin3":"053014","localeAltName":null},{"geonameid":6536860,"name":"Montieri","admin3":"053017"},{"geonameid":6536861,"name":"Roccalbegna","admin3":"053020"},{"geonameid":6536862,"name":"Scansano","admin3":"053023","localeAltName":null},{"geonameid":6536863,"name":"Monterotondo Marittimo","admin3":"053027","localeAltName":null},{"geonameid":6538606,"name":"Campagnatico","admin3":"053002","localeAltName":null},{"geonameid":6538607,"name":"Castell'Azzara","admin3":"053005","localeAltName":null},{"geonameid":6538608,"name":"Magliano in Toscana","admin3":"053013","localeAltName":null},{"geonameid":6538609,"name":"Massa Marittima","admin3":"053015","localeAltName":null},{"geonameid":6538610,"name":"Scarlino","admin3":"053024","localeAltName":null},{"geonameid":6538611,"name":"Seggiano","admin3":"053025"},{"geonameid":6539742,"name":"Pitigliano","admin3":"053019","localeAltName":null},{"geonameid":6539743,"name":"Sorano","admin3":"053026","localeAltName":null},{"geonameid":6539968,"name":"Castel del Piano","admin3":"053004","localeAltName":null},{"geonameid":6540487,"name":"Arcidosso","admin3":"053001","localeAltName":null},{"geonameid":6540488,"name":"Gavorrano","admin3":"053010","localeAltName":null},{"geonameid":6541105,"name":"Cinigiano","admin3":"053007","localeAltName":null},{"geonameid":6541106,"name":"Follonica","admin3":"053009","localeAltName":null},{"geonameid":6541107,"name":"Orbetello","admin3":"053018","localeAltName":null},{"geonameid":6541108,"name":"Roccastrada","admin3":"053021","localeAltName":null},{"geonameid":6541868,"name":"Grosseto","admin3":"053011","localeAltName":null},{"geonameid":6541885,"name":"Santa Fiora","admin3":"053022","localeAltName":null},{"geonameid":6542742,"name":"Isola del Giglio","admin3":"053012","localeAltName":null},{"geonameid":6543599,"name":"Semproniano","admin3":"053028"}],"alternateNames":[{"alternatenameId":1347493,"geonameid":3165361,"isoLanguage":"it","alternateName":"Toscana","isPreferredName":true,"isShortName":true,"isColloquial":false,"isHistoric":false},{"alternatenameId":1350749,"geonameid":3175784,"isoLanguage":"it","alternateName":"Grosseto","isPreferredName":true,"isShortName":true,"isColloquial":false,"isHistoric":false}]},"__N_SSG":true}