{"pageProps":{"locale":"en","admin2":{"geonameid":4283067,"name":"Ballard County","country":"US","admin1":"KY","admin2":"007","admin3":"","latitude":"37.0584300","longitude":"-88.9993400","localeAltName":null},"admin1":{"geonameid":6254925,"name":"Kentucky","admin1":"KY","localeAltName":"Kentucky"},"locations":[{"geonameid":4283182,"name":"Barlow","admin3":"","localeAltName":null},{"geonameid":4296970,"name":"Kevil","admin3":"","localeAltName":null},{"geonameid":4297236,"name":"La Center","admin3":"","localeAltName":null},{"geonameid":4313395,"name":"Wickliffe","admin3":"","localeAltName":null}],"admin3":[{"geonameid":7169366,"name":"City of Barlow","admin3":"7169366"},{"geonameid":7169629,"name":"City of Blandville","admin3":"7169629"},{"geonameid":7170289,"name":"City of La Center","admin3":"7170289"},{"geonameid":7171005,"name":"City of Wickliffe","admin3":"7171005"}],"alternateNames":[{"alternatenameId":6755489,"geonameid":6254925,"isoLanguage":"en","alternateName":"Kentucky","isPreferredName":true,"isShortName":true,"isColloquial":false,"isHistoric":false}]},"__N_SSG":true}