{"pageProps":{"locale":"en","admin2":{"geonameid":4285302,"name":"Boyd County","country":"US","admin1":"KY","admin2":"019","admin3":"","latitude":"38.3595700","longitude":"-82.6877300","localeAltName":null},"admin1":{"geonameid":6254925,"name":"Kentucky","admin1":"KY","localeAltName":"Kentucky"},"locations":[{"geonameid":4282757,"name":"Ashland","admin3":"","localeAltName":null},{"geonameid":4286913,"name":"Cannonsburg","admin3":"","localeAltName":null},{"geonameid":4287192,"name":"Catlettsburg","admin3":"","localeAltName":null},{"geonameid":4295940,"name":"Ironville","admin3":"","localeAltName":null},{"geonameid":4300488,"name":"Meads","admin3":"","localeAltName":null},{"geonameid":4313093,"name":"Westwood","admin3":"","localeAltName":null}],"admin3":[{"geonameid":7169338,"name":"City of Ashland","admin3":"7169338"},{"geonameid":7169725,"name":"City of Catlettsburg","admin3":"7169725"}],"alternateNames":[{"alternatenameId":6755489,"geonameid":6254925,"isoLanguage":"en","alternateName":"Kentucky","isPreferredName":true,"isShortName":true,"isColloquial":false,"isHistoric":false}]},"__N_SSG":true}