{"pageProps":{"locale":"en","admin2":{"geonameid":4621908,"name":"Fayette County","country":"US","admin1":"TN","admin2":"047","admin3":"","latitude":"35.1970800","longitude":"-89.4143700","localeAltName":null},"admin1":{"geonameid":4662168,"name":"Tennessee","admin1":"TN","localeAltName":"Tennessee"},"locations":[{"geonameid":4624172,"name":"Gallaway","admin3":"","localeAltName":null},{"geonameid":4629217,"name":"Hickory Withe","admin3":"","localeAltName":null},{"geonameid":4642988,"name":"Moscow","admin3":"","localeAltName":null},{"geonameid":4646637,"name":"Oakland","admin3":"","localeAltName":null},{"geonameid":4649783,"name":"Piperton","admin3":"","localeAltName":null},{"geonameid":4654530,"name":"Rossville","admin3":"","localeAltName":null},{"geonameid":4658802,"name":"Somerville","admin3":"","localeAltName":null}],"admin3":[],"alternateNames":[{"alternatenameId":2089557,"geonameid":4662168,"isoLanguage":"en","alternateName":"Tennessee","isPreferredName":true,"isShortName":true,"isColloquial":false,"isHistoric":false}]},"__N_SSG":true}