{"pageProps":{"locale":"en","admin2":{"geonameid":4627306,"name":"Hamilton County","country":"US","admin1":"TN","admin2":"065","admin3":"","latitude":"35.1808600","longitude":"-85.1647900","localeAltName":null},"admin1":{"geonameid":4662168,"name":"Tennessee","admin1":"TN","localeAltName":"Tennessee"},"locations":[{"geonameid":4602916,"name":"Apison","admin3":"","localeAltName":null},{"geonameid":4612862,"name":"Chattanooga","admin3":"","localeAltName":null},{"geonameid":4614720,"name":"Collegedale","admin3":"","localeAltName":null},{"geonameid":4619943,"name":"East Brainerd","admin3":"","localeAltName":null},{"geonameid":4619947,"name":"East Chattanooga","admin3":"","localeAltName":null},{"geonameid":4620131,"name":"East Ridge","admin3":"","localeAltName":null},{"geonameid":4621469,"name":"Fairmount","admin3":"","localeAltName":null},{"geonameid":4621745,"name":"Falling Water","admin3":"","localeAltName":null},{"geonameid":4627983,"name":"Harrison","admin3":"","localeAltName":null},{"geonameid":4635304,"name":"Lakesite","admin3":"","localeAltName":null},{"geonameid":4638144,"name":"Lookout Mountain","admin3":"","localeAltName":null},{"geonameid":4641495,"name":"Middle Valley","admin3":"","localeAltName":null},{"geonameid":7315351,"name":"Mowbray Mountain","admin3":"","localeAltName":null},{"geonameid":4647313,"name":"Ooltewah","admin3":"","localeAltName":null},{"geonameid":4652341,"name":"Red Bank","admin3":"","localeAltName":null},{"geonameid":4655515,"name":"Sale Creek","admin3":"","localeAltName":null},{"geonameid":4657633,"name":"Signal Mountain","admin3":"","localeAltName":null},{"geonameid":4658766,"name":"Soddy-Daisy","admin3":"","localeAltName":null},{"geonameid":4665312,"name":"Walden","admin3":"","localeAltName":null}],"admin3":[],"alternateNames":[{"alternatenameId":2089557,"geonameid":4662168,"isoLanguage":"en","alternateName":"Tennessee","isPreferredName":true,"isShortName":true,"isColloquial":false,"isHistoric":false}]},"__N_SSG":true}