{"pageProps":{"locale":"en","admin2":{"geonameid":4639514,"name":"Marion County","country":"US","admin1":"TN","admin2":"115","admin3":"","latitude":"35.1293500","longitude":"-85.6220300","localeAltName":null},"admin1":{"geonameid":4662168,"name":"Tennessee","admin1":"TN","localeAltName":"Tennessee"},"locations":[{"geonameid":4632892,"name":"Jasper","admin3":"","localeAltName":null},{"geonameid":4634474,"name":"Kimball","admin3":"","localeAltName":null},{"geonameid":4642403,"name":"Monteagle","admin3":"","localeAltName":null},{"geonameid":4645099,"name":"New Hope","admin3":"","localeAltName":null},{"geonameid":4651214,"name":"Powells Crossroads","admin3":"","localeAltName":null},{"geonameid":4659005,"name":"South Pittsburg","admin3":"","localeAltName":null},{"geonameid":4667608,"name":"Whitwell","admin3":"","localeAltName":null}],"admin3":[],"alternateNames":[{"alternatenameId":2089557,"geonameid":4662168,"isoLanguage":"en","alternateName":"Tennessee","isPreferredName":true,"isShortName":true,"isColloquial":false,"isHistoric":false}]},"__N_SSG":true}