{"pageProps":{"locale":"en","admin2":{"geonameid":4661017,"name":"Sumner County","country":"US","admin1":"TN","admin2":"165","admin3":"","latitude":"36.4694100","longitude":"-86.4603600","localeAltName":null},"admin1":{"geonameid":4662168,"name":"Tennessee","admin1":"TN","localeAltName":"Tennessee"},"locations":[{"geonameid":4611742,"name":"Castalian Springs","admin3":"","localeAltName":null},{"geonameid":4624180,"name":"Gallatin","admin3":"","localeAltName":null},{"geonameid":4628735,"name":"Hendersonville","admin3":"","localeAltName":null},{"geonameid":4641974,"name":"Millersville","admin3":"","localeAltName":null},{"geonameid":4650946,"name":"Portland","admin3":"","localeAltName":null},{"geonameid":4656650,"name":"Shackle Island","admin3":"","localeAltName":null},{"geonameid":4665608,"name":"Walnut Grove","admin3":"","localeAltName":null},{"geonameid":4666960,"name":"Westmoreland","admin3":"","localeAltName":null},{"geonameid":4667282,"name":"White House","admin3":"","localeAltName":null}],"admin3":[],"alternateNames":[{"alternatenameId":2089557,"geonameid":4662168,"isoLanguage":"en","alternateName":"Tennessee","isPreferredName":true,"isShortName":true,"isColloquial":false,"isHistoric":false}]},"__N_SSG":true}