{"pageProps":{"locale":"ro","admin2":{"geonameid":683145,"name":"Comuna Butoieşti","country":"RO","admin1":"26","admin2":"111006","admin3":"","latitude":"44.5703700","longitude":"23.3758700"},"admin1":{"geonameid":673612,"name":"Mehedinţi","admin1":"26"},"locations":[{"geonameid":686180,"name":"Arginești","admin3":""},{"geonameid":686049,"name":"Atârnaţi","admin3":""},{"geonameid":683360,"name":"Buicești","admin3":""},{"geonameid":683357,"name":"Buiceşti de Pluta","admin3":""},{"geonameid":683146,"name":"Butoieşti","admin3":""},{"geonameid":676517,"name":"Gura Motrului","admin3":""},{"geonameid":675158,"name":"Jugastru","admin3":""},{"geonameid":675157,"name":"Jugastru Nou","admin3":""},{"geonameid":675156,"name":"Jugastru Vechi","admin3":""},{"geonameid":671142,"name":"Pereţu","admin3":""},{"geonameid":670383,"name":"Pluta","admin3":""},{"geonameid":669225,"name":"Răduțești","admin3":""},{"geonameid":665056,"name":"Ţânţaru","admin3":""}],"admin3":[],"alternateNames":[]},"__N_SSG":true}