{"pageProps":{"locale":"ro","admin2":{"geonameid":8334865,"name":"Comuna Dumbrava","country":"RO","admin1":"26","admin2":"111587","admin3":"","latitude":"44.5211700","longitude":"23.1356400"},"admin1":{"geonameid":673612,"name":"Mehedinţi","admin1":"26"},"locations":[{"geonameid":686521,"name":"Albulești","admin3":""},{"geonameid":683688,"name":"Brâgleasa","admin3":""},{"geonameid":678722,"name":"Dumbrava de Jos","admin3":""},{"geonameid":678720,"name":"Dumbrava de Mijloc","admin3":""},{"geonameid":678719,"name":"Dumbrava de Sus","admin3":""},{"geonameid":676935,"name":"Golineasa","admin3":""},{"geonameid":676200,"name":"Higiu","admin3":""},{"geonameid":672814,"name":"Moşneni","admin3":""},{"geonameid":668777,"name":"Rocșoreni","admin3":""},{"geonameid":664101,"name":"Ursoaia","admin3":""},{"geonameid":663638,"name":"Valea Marcului","admin3":""},{"geonameid":663160,"name":"Varodia","admin3":""},{"geonameid":662610,"name":"Vlădica","admin3":""}],"admin3":[],"alternateNames":[]},"__N_SSG":true}