{"pageProps":{"locale":"en","admin2":{"geonameid":3333142,"name":"Derby","country":"GB","admin1":"ENG","admin2":"D2","admin3":"","latitude":"52.9207000","longitude":"-1.4721700","localeAltName":"Derby"},"admin1":{"geonameid":6269131,"name":"England","admin1":"ENG","localeAltName":"England"},"locations":[{"geonameid":2657479,"name":"Allestree"},{"geonameid":8378603,"name":"Alvaston"},{"geonameid":2653414,"name":"Chaddesden"},{"geonameid":2651516,"name":"Darley Abbey"},{"geonameid":2651347,"name":"Derby"},{"geonameid":2644273,"name":"Littleover"},{"geonameid":2642640,"name":"Mickleover"},{"geonameid":11863036,"name":"Sinfin"}],"admin3":[],"alternateNames":[{"alternatenameId":8666492,"geonameid":3333142,"isoLanguage":"en","alternateName":"Derby","isPreferredName":true,"isShortName":true,"isColloquial":false,"isHistoric":false},{"alternatenameId":1626647,"geonameid":6269131,"isoLanguage":"en","alternateName":"England","isPreferredName":true,"isShortName":true,"isColloquial":false,"isHistoric":false}]},"__N_SSG":true}