{"pageProps":{"locale":"en","admin2":{"geonameid":4462997,"name":"Dare County","country":"US","admin1":"NC","admin2":"055","admin3":"","latitude":"35.7866300","longitude":"-75.7809400","localeAltName":null},"admin1":{"geonameid":4482348,"name":"North Carolina","admin1":"NC","localeAltName":"North Carolina"},"locations":[{"geonameid":4453244,"name":"Avon","admin3":"91702","localeAltName":null},{"geonameid":4458391,"name":"Buxton","admin3":"91424","localeAltName":null},{"geonameid":4470225,"name":"Hatteras","admin3":"91424","localeAltName":null},{"geonameid":4474274,"name":"Kill Devil Hills","admin3":"90096","localeAltName":null},{"geonameid":4474505,"name":"Kitty Hawk","admin3":"90096","localeAltName":null},{"geonameid":4477886,"name":"Manns Harbor","admin3":"90824","localeAltName":null},{"geonameid":4477893,"name":"Manteo","admin3":"92196","localeAltName":null},{"geonameid":4481427,"name":"Nags Head","admin3":"92196","localeAltName":null},{"geonameid":4492732,"name":"Southern Shores","admin3":"90096","localeAltName":null},{"geonameid":4497520,"name":"Wanchese","admin3":"92196","localeAltName":null}],"admin3":[{"geonameid":4453153,"name":"Township of Atlantic","admin3":"90096","localeAltName":null},{"geonameid":4462527,"name":"Township of Croatan","admin3":"90824","localeAltName":null},{"geonameid":4464626,"name":"Township of East Lake","admin3":"90964"},{"geonameid":4470222,"name":"Township of Hatteras","admin3":"91424","localeAltName":null},{"geonameid":4474186,"name":"Township of Kinnakeet","admin3":"91702","localeAltName":null},{"geonameid":4481432,"name":"Township of Nags Head","admin3":"92196","localeAltName":null}],"alternateNames":[{"alternatenameId":2089560,"geonameid":4482348,"isoLanguage":"en","alternateName":"North Carolina","isPreferredName":true,"isShortName":true,"isColloquial":false,"isHistoric":false}]},"__N_SSG":true}