{"pageProps":{"locale":"en","admin2":{"geonameid":4312732,"name":"Warren County","country":"US","admin1":"KY","admin2":"227","admin3":"","latitude":"36.9935800","longitude":"-86.4238000","localeAltName":null},"admin1":{"geonameid":6254925,"name":"Kentucky","admin1":"KY","localeAltName":"Kentucky"},"locations":[{"geonameid":4285268,"name":"Bowling Green","admin3":"","localeAltName":null},{"geonameid":4304523,"name":"Plano","admin3":"","localeAltName":null},{"geonameid":4308838,"name":"Smiths Grove","admin3":"","localeAltName":null}],"admin3":[{"geonameid":7169644,"name":"City of Bowling Green","admin3":"7169644"},{"geonameid":7169988,"name":"City of Oakland","admin3":"7169988"},{"geonameid":7170076,"name":"City of Plum Springs","admin3":"7170076"},{"geonameid":7170828,"name":"City of Smiths Grove","admin3":"7170828"},{"geonameid":7171033,"name":"City of Woodburn","admin3":"7171033"}],"alternateNames":[{"alternatenameId":6755489,"geonameid":6254925,"isoLanguage":"en","alternateName":"Kentucky","isPreferredName":true,"isShortName":true,"isColloquial":false,"isHistoric":false}]},"__N_SSG":true}