{"pageProps":{"locale":"ro","admin2":{"geonameid":8334672,"name":"Municipiul Galaţi","country":"RO","admin1":"18","admin2":"75098","admin3":"","latitude":"45.4407800","longitude":"28.0411800"},"admin1":{"geonameid":677692,"name":"Galaţi","admin1":"18"},"locations":[{"geonameid":686004,"name":"Azaclău","admin3":""},{"geonameid":685374,"name":"Barboşi","admin3":""},{"geonameid":685372,"name":"Barboşi-Cartier","admin3":""},{"geonameid":685288,"name":"Baston","admin3":""},{"geonameid":683825,"name":"Brateş","admin3":""},{"geonameid":682643,"name":"Cartieru Demobilizaţilor","admin3":""},{"geonameid":682641,"name":"Cartierul Baston","admin3":""},{"geonameid":678267,"name":"Fileşti","admin3":""},{"geonameid":677697,"name":"Galaţi","admin3":""},{"geonameid":674090,"name":"Mahalaua Brateş","admin3":""},{"geonameid":671620,"name":"Ostrovu Azaclău","admin3":""},{"geonameid":666508,"name":"Şoldana","admin3":""},{"geonameid":665118,"name":"Ţiglina","admin3":""}],"admin3":[],"alternateNames":[]},"__N_SSG":true}