{"pageProps":{"locale":"en","admin2":{"geonameid":2750946,"name":"Gemeente Meppel","country":"NL","admin1":"01","admin2":"0119","admin3":"","latitude":"52.7088500","longitude":"6.1972700"},"admin1":{"geonameid":2756631,"name":"Provincie Drenthe","admin1":"01"},"locations":[{"geonameid":2758263,"name":"Broekhuizen","admin3":""},{"geonameid":2757432,"name":"De Klosse","admin3":""},{"geonameid":2757424,"name":"De Kolk","admin3":""},{"geonameid":2747541,"name":"De Schiphorst","admin3":""},{"geonameid":2754313,"name":"Hesselingen","admin3":""},{"geonameid":2752574,"name":"Koedijkslanden","admin3":""},{"geonameid":2752539,"name":"Kolderveen","admin3":""},{"geonameid":2752538,"name":"Kolderveense Bovenboer","admin3":""},{"geonameid":2750947,"name":"Meppel","admin3":""},{"geonameid":2750077,"name":"Nijentap","admin3":""},{"geonameid":2750075,"name":"Nijeveen","admin3":""},{"geonameid":2750073,"name":"Nijeveense Bovenboer","admin3":""},{"geonameid":2749495,"name":"Oosterboer","admin3":""},{"geonameid":2747994,"name":"Rogat","admin3":""},{"geonameid":2744760,"name":"Westerbuurt","admin3":""}],"admin3":[],"alternateNames":[{"alternatenameId":11907792,"geonameid":2756631,"isoLanguage":"de","alternateName":"Drenthe","isPreferredName":true,"isShortName":true,"isColloquial":false,"isHistoric":false}]},"__N_SSG":true}