{"pageProps":{"locale":"en","admin2":{"geonameid":4270946,"name":"Ellsworth County","country":"US","admin1":"KS","admin2":"053","admin3":"","latitude":"38.6966300","longitude":"-98.2047300","localeAltName":null},"admin1":{"geonameid":4273857,"name":"Kansas","admin1":"KS","localeAltName":"Kansas"},"locations":[{"geonameid":4270945,"name":"Ellsworth","admin3":"20500","localeAltName":null},{"geonameid":4281846,"name":"Wilson","admin3":"79700","localeAltName":null}],"admin3":[{"geonameid":4267707,"name":"Township of Ash Creek","admin3":"02575"},{"geonameid":4268375,"name":"Township of Black Wolf","admin3":"07025"},{"geonameid":4269106,"name":"Township of Carneiro","admin3":"10800"},{"geonameid":4269677,"name":"Township of Clear Creek","admin3":"13725"},{"geonameid":4269839,"name":"Township of Columbia","admin3":"15025"},{"geonameid":4270951,"name":"City of Ellsworth","admin3":"20500","localeAltName":null},{"geonameid":4270952,"name":"Township of Ellsworth","admin3":"20525"},{"geonameid":4271084,"name":"Township of Empire","admin3":"21150"},{"geonameid":4271966,"name":"Township of Garfield","admin3":"25575"},{"geonameid":4272367,"name":"Township of Green Garden","admin3":"28600"},{"geonameid":4274234,"name":"Township of Langley","admin3":"38600"},{"geonameid":4274499,"name":"Township of Lincoln","admin3":"40675"},{"geonameid":4276008,"name":"Township of Mulberry","admin3":"49050"},{"geonameid":4276299,"name":"Township of Noble","admin3":"50825"},{"geonameid":4276928,"name":"Township of Palacky","admin3":"54100"},{"geonameid":4279308,"name":"Township of Sherman","admin3":"64950"},{"geonameid":4280431,"name":"Township of Thomas","admin3":"70450"},{"geonameid":4280649,"name":"Township of Trivoli","admin3":"71525"},{"geonameid":4280939,"name":"Township of Valley","admin3":"72800"},{"geonameid":4281875,"name":"Township of Wilson","admin3":"79700","localeAltName":null}],"alternateNames":[{"alternatenameId":2080124,"geonameid":4273857,"isoLanguage":"en","alternateName":"Kansas","isPreferredName":true,"isShortName":true,"isColloquial":false,"isHistoric":false}]},"__N_SSG":true}