{"pageProps":{"locale":"en","admin2":{"geonameid":4273563,"name":"Jefferson County","country":"US","admin1":"KS","admin2":"087","admin3":"","latitude":"39.2357600","longitude":"-95.3834500","localeAltName":null},"admin1":{"geonameid":4273857,"name":"Kansas","admin1":"KS","localeAltName":"Kansas"},"locations":[{"geonameid":4275255,"name":"McLouth","admin3":"72150","localeAltName":null},{"geonameid":4275385,"name":"Meriden","admin3":"60575","localeAltName":null},{"geonameid":4276465,"name":"Nortonville","admin3":"51475","localeAltName":null},{"geonameid":4276792,"name":"Oskaloosa","admin3":"53400","localeAltName":null},{"geonameid":4276908,"name":"Ozawkie","admin3":"53950","localeAltName":null},{"geonameid":4277131,"name":"Perry","admin3":"36575","localeAltName":null},{"geonameid":4280917,"name":"Valley Falls","admin3":"17425","localeAltName":null},{"geonameid":4281882,"name":"Winchester","admin3":"35250","localeAltName":null}],"admin3":[{"geonameid":4270325,"name":"Township of Delaware","admin3":"17425","localeAltName":null},{"geonameid":4271352,"name":"Township of Fairview","admin3":"22525"},{"geonameid":4273581,"name":"Township of Jefferson","admin3":"35250","localeAltName":null},{"geonameid":4273874,"name":"Township of Kaw","admin3":"36125"},{"geonameid":4273948,"name":"Township of Kentucky","admin3":"36575","localeAltName":null},{"geonameid":4276464,"name":"Township of Norton","admin3":"51475","localeAltName":null},{"geonameid":4276795,"name":"Township of Oskaloosa","admin3":"53400","localeAltName":null},{"geonameid":4276909,"name":"Township of Ozawkie","admin3":"53950","localeAltName":null},{"geonameid":4278223,"name":"Township of Rock Creek","admin3":"60575","localeAltName":null},{"geonameid":4278450,"name":"Township of Rural","admin3":"61700"},{"geonameid":4279012,"name":"Township of Sarcoxie","admin3":"63100"},{"geonameid":4280844,"name":"Township of Union","admin3":"72150","localeAltName":null}],"alternateNames":[{"alternatenameId":2080124,"geonameid":4273857,"isoLanguage":"en","alternateName":"Kansas","isPreferredName":true,"isShortName":true,"isColloquial":false,"isHistoric":false}]},"__N_SSG":true}