{"pageProps":{"locale":"en","admin2":{"geonameid":4275428,"name":"Miami County","country":"US","admin1":"KS","admin2":"121","admin3":"","latitude":"38.5635800","longitude":"-94.8380600","localeAltName":null},"admin1":{"geonameid":4273857,"name":"Kansas","admin1":"KS","localeAltName":"Kansas"},"locations":[{"geonameid":4274828,"name":"Louisburg","admin3":"42875","localeAltName":null},{"geonameid":4276772,"name":"Osawatomie","admin3":"53225","localeAltName":null},{"geonameid":4276956,"name":"Paola","admin3":"54250","localeAltName":null}],"admin3":[{"geonameid":4274833,"name":"City of Louisburg","admin3":"42875","localeAltName":null},{"geonameid":4275151,"name":"Township of Marysville","admin3":"45100"},{"geonameid":4275433,"name":"Township of Miami","admin3":"46100"},{"geonameid":4275461,"name":"Township of Middle Creek","admin3":"46225"},{"geonameid":4275801,"name":"Township of Mound","admin3":"48700"},{"geonameid":4276771,"name":"Township of Osage","admin3":"53175"},{"geonameid":4276777,"name":"City of Osawatomie","admin3":"53225","localeAltName":null},{"geonameid":4276778,"name":"Township of Osawatomie","admin3":"53250"},{"geonameid":4276951,"name":"City of Paola","admin3":"54250","localeAltName":null},{"geonameid":4276952,"name":"Township of Paola","admin3":"54275"},{"geonameid":4278030,"name":"Township of Richland","admin3":"59475"},{"geonameid":4279924,"name":"Township of Stanton","admin3":"67925"},{"geonameid":4280106,"name":"Township of Sugar Creek","admin3":"68825"},{"geonameid":4280375,"name":"Township of Ten Mile","admin3":"70125"},{"geonameid":4280944,"name":"Township of Valley","admin3":"72950"},{"geonameid":4281344,"name":"Township of Wea","admin3":"76225"}],"alternateNames":[{"alternatenameId":2080124,"geonameid":4273857,"isoLanguage":"en","alternateName":"Kansas","isPreferredName":true,"isShortName":true,"isColloquial":false,"isHistoric":false}]},"__N_SSG":true}