{"pageProps":{"locale":"en","admin2":{"geonameid":5446576,"name":"Stevens County","country":"US","admin1":"KS","admin2":"189","admin3":"","latitude":"37.1923200","longitude":"-101.3120500","localeAltName":null},"admin1":{"geonameid":4273857,"name":"Kansas","admin1":"KS","localeAltName":"Kansas"},"locations":[{"geonameid":5445636,"name":"Hugoton","admin3":"12200","localeAltName":null}],"admin3":[{"geonameid":5445007,"name":"Township of Banner","admin3":"04125"},{"geonameid":5445141,"name":"Township of Center","admin3":"12200","localeAltName":null},{"geonameid":5445556,"name":"Township of Harmony","admin3":"30150"},{"geonameid":5446032,"name":"Township of Moscow","admin3":"48625"},{"geonameid":5446702,"name":"Township of Voorhees","admin3":"74200"},{"geonameid":5446745,"name":"Township of West Center","admin3":"76800"}],"alternateNames":[{"alternatenameId":2080124,"geonameid":4273857,"isoLanguage":"en","alternateName":"Kansas","isPreferredName":true,"isShortName":true,"isColloquial":false,"isHistoric":false}]},"__N_SSG":true}