{"pageProps":{"locale":"en","admin2":{"geonameid":5323622,"name":"Amador County","country":"US","admin1":"CA","admin2":"005","admin3":"","latitude":"38.4463900","longitude":"-120.6511200","localeAltName":null},"admin1":{"geonameid":5332921,"name":"California","admin1":"CA","localeAltName":"California"},"locations":[{"geonameid":8481839,"name":"Buckhorn","admin3":"","localeAltName":null},{"geonameid":7315194,"name":"Camanche North Shore","admin3":"","localeAltName":null},{"geonameid":5333177,"name":"Camanche Village","admin3":"","localeAltName":null},{"geonameid":5359634,"name":"Ione","admin3":"","localeAltName":null},{"geonameid":5360160,"name":"Jackson","admin3":"","localeAltName":null},{"geonameid":5382907,"name":"Pine Grove","admin3":"","localeAltName":null},{"geonameid":5383283,"name":"Pioneer","admin3":"","localeAltName":null},{"geonameid":5383872,"name":"Plymouth","admin3":"","localeAltName":null},{"geonameid":7315206,"name":"Red Corral","admin3":"","localeAltName":null},{"geonameid":5400400,"name":"Sutter Creek","admin3":"","localeAltName":null}],"admin3":[{"geonameid":11788523,"name":"City of Plymouth","admin3":"11788523"},{"geonameid":11788737,"name":"City of Amador City","admin3":"11788737"},{"geonameid":11788959,"name":"City of Sutter Creek","admin3":"11788959"},{"geonameid":11788993,"name":"City of Ione","admin3":"11788993"}],"alternateNames":[{"alternatenameId":1632217,"geonameid":5332921,"isoLanguage":"en","alternateName":"California","isPreferredName":true,"isShortName":true,"isColloquial":false,"isHistoric":false}]},"__N_SSG":true}