{"pageProps":{"locale":"en","admin2":{"geonameid":5368381,"name":"Los Angeles County","country":"US","admin1":"CA","admin2":"037","admin3":"","latitude":"34.1980100","longitude":"-118.2610200","localeAltName":null},"admin1":{"geonameid":5332921,"name":"California","admin1":"CA","localeAltName":"California"},"locations":[{"geonameid":5322317,"name":"Acton","admin3":"","localeAltName":null},{"geonameid":5322551,"name":"Agoura","admin3":"","localeAltName":null},{"geonameid":5322553,"name":"Agoura Hills","admin3":"","localeAltName":null},{"geonameid":5322591,"name":"Agua Dulce","admin3":"","localeAltName":null},{"geonameid":5323060,"name":"Alhambra","admin3":"","localeAltName":null},{"geonameid":5323371,"name":"Alondra Park","admin3":"","localeAltName":null},{"geonameid":5323525,"name":"Altadena","admin3":"","localeAltName":null},{"geonameid":5324477,"name":"Arcadia","admin3":"","localeAltName":null},{"geonameid":5324862,"name":"Artesia","admin3":"","localeAltName":null},{"geonameid":5325305,"name":"Avalon","admin3":"","localeAltName":null},{"geonameid":5325372,"name":"Avocado Heights","admin3":"","localeAltName":null},{"geonameid":5325423,"name":"Azusa","admin3":"","localeAltName":null},{"geonameid":5325866,"name":"Baldwin Park","admin3":"","localeAltName":null},{"geonameid":5327298,"name":"Bell","admin3":"","localeAltName":null},{"geonameid":5327319,"name":"Bell Gardens","admin3":"","localeAltName":null},{"geonameid":5327422,"name":"Bellflower","admin3":"","localeAltName":null},{"geonameid":5327489,"name":"Belvedere","admin3":"","localeAltName":null},{"geonameid":5328041,"name":"Beverly Hills","admin3":"","localeAltName":null},{"geonameid":5330413,"name":"Boyle Heights","admin3":"","localeAltName":null},{"geonameid":5330443,"name":"Bradbury","admin3":"","localeAltName":null},{"geonameid":5331835,"name":"Burbank","admin3":"","localeAltName":null},{"geonameid":5332593,"name":"Calabasas","admin3":"","localeAltName":null},{"geonameid":5333913,"name":"Canoga Park","admin3":"","localeAltName":null},{"geonameid":5333944,"name":"Canyon Country","admin3":"","localeAltName":null},{"geonameid":5334519,"name":"Carson","admin3":"","localeAltName":null},{"geonameid":5334799,"name":"Castaic","admin3":"","localeAltName":null},{"geonameid":5335662,"name":"Century City","admin3":"","localeAltName":null},{"geonameid":5335663,"name":"Cerritos","admin3":"","localeAltName":null},{"geonameid":5336017,"name":"Charter Oak","admin3":"","localeAltName":null},{"geonameid":5336054,"name":"Chatsworth","admin3":"","localeAltName":null},{"geonameid":5337551,"name":"Citrus","admin3":"","localeAltName":null},{"geonameid":5337696,"name":"Claremont","admin3":"","localeAltName":null},{"geonameid":5338929,"name":"Commerce","admin3":"","localeAltName":null},{"geonameid":5339066,"name":"Compton","admin3":"","localeAltName":null},{"geonameid":5340175,"name":"Covina","admin3":"","localeAltName":null},{"geonameid":5341051,"name":"Cudahy","admin3":"","localeAltName":null},{"geonameid":5341114,"name":"Culver City","admin3":"","localeAltName":null},{"geonameid":5342425,"name":"Del Aire","admin3":"","localeAltName":null},{"geonameid":5342750,"name":"Desert View Highlands","admin3":"","localeAltName":null},{"geonameid":5342992,"name":"Diamond Bar","admin3":"","localeAltName":null},{"geonameid":5343858,"name":"Downey","admin3":"","localeAltName":null},{"geonameid":5344147,"name":"Duarte","admin3":"","localeAltName":null},{"geonameid":5344987,"name":"East La Mirada","admin3":"","localeAltName":null},{"geonameid":5344994,"name":"East Los Angeles","admin3":"","localeAltName":null},{"geonameid":5345038,"name":"East Pasadena","admin3":"","localeAltName":null},{"geonameid":5344817,"name":"East Rancho Dominguez","admin3":"","localeAltName":null},{"geonameid":5345071,"name":"East San Gabriel","admin3":"","localeAltName":null},{"geonameid":10104154,"name":"Echo Park","admin3":"","localeAltName":null},{"geonameid":5345743,"name":"El Monte","admin3":"","localeAltName":null},{"geonameid":5345860,"name":"El Segundo","admin3":"","localeAltName":null},{"geonameid":5346649,"name":"Encino","admin3":"","localeAltName":null},{"geonameid":7261268,"name":"Florence-Graham","admin3":"","localeAltName":null},{"geonameid":5351549,"name":"Gardena","admin3":"","localeAltName":null},{"geonameid":5352423,"name":"Glendale","admin3":"","localeAltName":null},{"geonameid":5352439,"name":"Glendora","admin3":"","localeAltName":null},{"geonameid":5354104,"name":"Green Valley","admin3":"","localeAltName":null},{"geonameid":5354819,"name":"Hacienda Heights","admin3":"","localeAltName":null},{"geonameid":5355782,"name":"Hawaiian Gardens","admin3":"","localeAltName":null},{"geonameid":5355828,"name":"Hawthorne","admin3":"","localeAltName":null},{"geonameid":5356521,"name":"Hermosa Beach","admin3":"","localeAltName":null},{"geonameid":5356700,"name":"Hidden Hills","admin3":"","localeAltName":null},{"geonameid":5357527,"name":"Hollywood","admin3":"","localeAltName":null},{"geonameid":5358736,"name":"Huntington Park","admin3":"","localeAltName":null},{"geonameid":5359488,"name":"Inglewood","admin3":"","localeAltName":null},{"geonameid":5359817,"name":"Irwindale","admin3":"","localeAltName":null},{"geonameid":5363748,"name":"Koreatown","admin3":"","localeAltName":null},{"geonameid":5363859,"name":"La Ca√±ada Flintridge","admin3":"","localeAltName":null},{"geonameid":7261553,"name":"La Crescenta-Montrose","admin3":"","localeAltName":null},{"geonameid":5363925,"name":"La Habra Heights","admin3":"","localeAltName":null},{"geonameid":5364007,"name":"La Mirada","admin3":"","localeAltName":null},{"geonameid":5364066,"name":"La Puente","admin3":"","localeAltName":null},{"geonameid":5364134,"name":"La Verne","admin3":"","localeAltName":null},{"geonameid":5364195,"name":"Ladera Heights","admin3":"","localeAltName":null},{"geonameid":5364549,"name":"Lake Hughes","admin3":"","localeAltName":null},{"geonameid":5364571,"name":"Lake Los Angeles","admin3":"","localeAltName":null},{"geonameid":5364855,"name":"Lakewood","admin3":"","localeAltName":null},{"geonameid":5364940,"name":"Lancaster","admin3":"","localeAltName":null},{"geonameid":5365171,"name":"Las Flores","admin3":"","localeAltName":null},{"geonameid":5365603,"name":"Lawndale","admin3":"","localeAltName":null},{"geonameid":5365937,"name":"Lennox","admin3":"","localeAltName":null},{"geonameid":5365976,"name":"Leona Valley","admin3":"","localeAltName":null},{"geonameid":5367308,"name":"Littlerock","admin3":"","localeAltName":null},{"geonameid":5367767,"name":"Lomita","admin3":"","localeAltName":null},{"geonameid":5367929,"name":"Long Beach","admin3":"","localeAltName":null},{"geonameid":5368361,"name":"Los Angeles","admin3":"","localeAltName":null},{"geonameid":5369367,"name":"Lynwood","admin3":"","localeAltName":null},{"geonameid":5369906,"name":"Malibu","admin3":"","localeAltName":null},{"geonameid":5370082,"name":"Manhattan Beach","admin3":"","localeAltName":null},{"geonameid":5370542,"name":"Marina del Rey","admin3":"","localeAltName":null},{"geonameid":5371243,"name":"Mayflower Village","admin3":"","localeAltName":null},{"geonameid":5371261,"name":"Maywood","admin3":"","localeAltName":null},{"geonameid":5374175,"name":"Monrovia","admin3":"","localeAltName":null},{"geonameid":5374322,"name":"Montebello","admin3":"","localeAltName":null},{"geonameid":5374406,"name":"Monterey Park","admin3":"","localeAltName":null},{"geonameid":5377381,"name":"North El Monte","admin3":"","localeAltName":null},{"geonameid":5394409,"name":"North Hills","admin3":"","localeAltName":null},{"geonameid":5377654,"name":"North Hollywood","admin3":"","localeAltName":null},{"geonameid":5377985,"name":"Northridge","admin3":"","localeAltName":null},{"geonameid":5377995,"name":"Norwalk","admin3":"","localeAltName":null},{"geonameid":5380698,"name":"Palmdale","admin3":"","localeAltName":null},{"geonameid":5380883,"name":"Palos Verdes Estates","admin3":"","localeAltName":null},{"geonameid":5381110,"name":"Paramount","admin3":"","localeAltName":null},{"geonameid":5381396,"name":"Pasadena","admin3":"","localeAltName":null},{"geonameid":5382496,"name":"Pico Rivera","admin3":"","localeAltName":null},{"geonameid":5384170,"name":"Pomona","admin3":"","localeAltName":null},{"geonameid":5385393,"name":"Quartz Hill","admin3":"","localeAltName":null},{"geonameid":5386035,"name":"Rancho Palos Verdes","admin3":"","localeAltName":null},{"geonameid":5386785,"name":"Redondo Beach","admin3":"","localeAltName":null},{"geonameid":5388593,"name":"Rolling Hills","admin3":"","localeAltName":null},{"geonameid":5388601,"name":"Rolling Hills Estates","admin3":"","localeAltName":null},{"geonameid":5388867,"name":"Rosemead","admin3":"","localeAltName":null},{"geonameid":5389126,"name":"Rowland Heights","admin3":"","localeAltName":null},{"geonameid":5391891,"name":"San Dimas","admin3":"","localeAltName":null},{"geonameid":5391945,"name":"San Fernando","admin3":"","localeAltName":null},{"geonameid":5392034,"name":"San Gabriel","admin3":"","localeAltName":null},{"geonameid":5392400,"name":"San Marino","admin3":"","localeAltName":null},{"geonameid":5392528,"name":"San Pedro","admin3":"","localeAltName":null},{"geonameid":5393049,"name":"Santa Clarita","admin3":"","localeAltName":null},{"geonameid":5393128,"name":"Santa Fe Springs","admin3":"","localeAltName":null},{"geonameid":5393212,"name":"Santa Monica","admin3":"","localeAltName":null},{"geonameid":5394814,"name":"Shadow Hills","admin3":"","localeAltName":null},{"geonameid":5395244,"name":"Sherman Oaks","admin3":"","localeAltName":null},{"geonameid":5395622,"name":"Sierra Madre","admin3":"","localeAltName":null},{"geonameid":5395754,"name":"Signal Hill","admin3":"","localeAltName":null},{"geonameid":10104153,"name":"Silver Lake","admin3":"","localeAltName":null},{"geonameid":5397376,"name":"South El Monte","admin3":"","localeAltName":null},{"geonameid":5397603,"name":"South Gate","admin3":"","localeAltName":null},{"geonameid":5397717,"name":"South Pasadena","admin3":"","localeAltName":null},{"geonameid":5397771,"name":"South San Gabriel","admin3":"","localeAltName":null},{"geonameid":5397777,"name":"South San Jose Hills","admin3":"","localeAltName":null},{"geonameid":5397841,"name":"South Whittier","admin3":"","localeAltName":null},{"geonameid":6690773,"name":"Stevenson Ranch","admin3":"","localeAltName":null},{"geonameid":5399438,"name":"Studio City","admin3":"","localeAltName":null},{"geonameid":7315210,"name":"Sun Village","admin3":"","localeAltName":null},{"geonameid":5399976,"name":"Sunland","admin3":"","localeAltName":null},{"geonameid":5401469,"name":"Temple City","admin3":"","localeAltName":null},{"geonameid":5402961,"name":"Topanga","admin3":"","localeAltName":null},{"geonameid":5403022,"name":"Torrance","admin3":"","localeAltName":null},{"geonameid":5403767,"name":"Tujunga","admin3":"","localeAltName":null},{"geonameid":5404794,"name":"Universal City","admin3":"","localeAltName":null},{"geonameid":5405279,"name":"Val Verde","admin3":"","localeAltName":null},{"geonameid":5405288,"name":"Valencia","admin3":"","localeAltName":null},{"geonameid":5405326,"name":"Valinda","admin3":"","localeAltName":null},{"geonameid":11838960,"name":"Valley Glen","admin3":"","localeAltName":null},{"geonameid":5405693,"name":"Van Nuys","admin3":"","localeAltName":null},{"geonameid":5405841,"name":"Venice","admin3":"","localeAltName":"Venice"},{"geonameid":7262460,"name":"View Park-Windsor Hills","admin3":"","localeAltName":null},{"geonameid":7262464,"name":"Vincent","admin3":"","localeAltName":null},{"geonameid":5406421,"name":"Vincent","admin3":"","localeAltName":null},{"geonameid":5406976,"name":"Walnut","admin3":"","localeAltName":null},{"geonameid":5407030,"name":"Walnut Park","admin3":"","localeAltName":null},{"geonameid":5407841,"name":"West Athens","admin3":"","localeAltName":null},{"geonameid":5407908,"name":"West Carson","admin3":"","localeAltName":null},{"geonameid":5407933,"name":"West Covina","admin3":"","localeAltName":null},{"geonameid":8030162,"name":"West Hills","admin3":"","localeAltName":null},{"geonameid":5408076,"name":"West Hollywood","admin3":"","localeAltName":null},{"geonameid":5408191,"name":"West Puente Valley","admin3":"","localeAltName":null},{"geonameid":5407927,"name":"West Rancho Dominguez","admin3":"","localeAltName":null},{"geonameid":7262518,"name":"West Whittier-Los Nietos","admin3":"","localeAltName":null},{"geonameid":5408395,"name":"Westlake Village","admin3":"","localeAltName":null},{"geonameid":5408431,"name":"Westmont","admin3":"","localeAltName":null},{"geonameid":5408522,"name":"Westwood","admin3":"","localeAltName":null},{"geonameid":5409059,"name":"Whittier","admin3":"","localeAltName":null},{"geonameid":5409768,"name":"Willowbrook","admin3":"","localeAltName":null},{"geonameid":5410438,"name":"Woodland Hills","admin3":"","localeAltName":null}],"admin3":[{"geonameid":11788289,"name":"City of El Segundo","admin3":"11788289"},{"geonameid":11788299,"name":"City of South Gate","admin3":"11788299"},{"geonameid":11788304,"name":"City of Palmdale","admin3":"11788304"},{"geonameid":11788320,"name":"City of Glendale","admin3":"11788320"},{"geonameid":11788366,"name":"City of Carson","admin3":"11788366"},{"geonameid":11788374,"name":"City of Cudahy","admin3":"11788374"},{"geonameid":11788375,"name":"City of Maywood","admin3":"11788375"},{"geonameid":11788391,"name":"City of Downey","admin3":"11788391"},{"geonameid":11788401,"name":"City of Huntington Park","admin3":"11788401"},{"geonameid":11788419,"name":"City of Arcadia","admin3":"11788419"},{"geonameid":11788426,"name":"City of Santa Monica","admin3":"11788426"},{"geonameid":11788427,"name":"City of Hawthorne","admin3":"11788427"},{"geonameid":11788458,"name":"City of Bellflower","admin3":"11788458"},{"geonameid":11788480,"name":"City of Bradbury","admin3":"11788480"},{"geonameid":11788483,"name":"City of Glendora","admin3":"11788483"},{"geonameid":11788487,"name":"City of Lawndale","admin3":"11788487"},{"geonameid":11788499,"name":"City of Sierra Madre","admin3":"11788499"},{"geonameid":11788500,"name":"City of Beverly Hills","admin3":"11788500"},{"geonameid":11788509,"name":"City of Pico Rivera","admin3":"11788509"},{"geonameid":11788531,"name":"City of Industry","admin3":"11788531"},{"geonameid":11788534,"name":"City of Norwalk","admin3":"11788534"},{"geonameid":11788545,"name":"City of San Fernando","admin3":"11788545"},{"geonameid":11788554,"name":"City of Irwindale","admin3":"11788554"},{"geonameid":11788560,"name":"City of Walnut","admin3":"11788560"},{"geonameid":11788561,"name":"City of Cerritos","admin3":"11788561"},{"geonameid":11788576,"name":"City of Agoura Hills","admin3":"11788576"},{"geonameid":11788581,"name":"City of Burbank","admin3":"11788581"},{"geonameid":11788583,"name":"City of Pomona","admin3":"11788583"},{"geonameid":11788589,"name":"City of Temple City","admin3":"11788589"},{"geonameid":11788599,"name":"City of San Dimas","admin3":"11788599"},{"geonameid":11788606,"name":"City of Manhattan Beach","admin3":"11788606"},{"geonameid":11788608,"name":"City of Montebello","admin3":"11788608"},{"geonameid":11788630,"name":"City of Hawaiian Gardens","admin3":"11788630"},{"geonameid":11788632,"name":"City of San Marino","admin3":"11788632"},{"geonameid":11788641,"name":"City of Alhambra","admin3":"11788641"},{"geonameid":11788647,"name":"City of Gardena","admin3":"11788647"},{"geonameid":11788653,"name":"City of Culver City","admin3":"11788653"},{"geonameid":11788680,"name":"City of Hermosa Beach","admin3":"11788680"},{"geonameid":11788690,"name":"City of Baldwin Park","admin3":"11788690"},{"geonameid":11788713,"name":"City of Pasadena","admin3":"11788713"},{"geonameid":11788760,"name":"City of Lynwood","admin3":"11788760"},{"geonameid":11788780,"name":"City of Redondo Beach","admin3":"11788780"},{"geonameid":11788798,"name":"City of Signal Hill","admin3":"11788798"},{"geonameid":11788813,"name":"City of Palos Verdes Estates","admin3":"11788813"},{"geonameid":11788819,"name":"City of Lancaster","admin3":"11788819"},{"geonameid":11788820,"name":"City of La Verne","admin3":"11788820"},{"geonameid":11788829,"name":"City of Long Beach","admin3":"11788829"},{"geonameid":11788852,"name":"City of Bell Gardens","admin3":"11788852"},{"geonameid":11788860,"name":"City of Covina","admin3":"11788860"},{"geonameid":11788874,"name":"City of Whittier","admin3":"11788874"},{"geonameid":11788877,"name":"City of Commerce","admin3":"11788877"},{"geonameid":11788892,"name":"City of Monterey Park","admin3":"11788892"},{"geonameid":11788904,"name":"City of Claremont","admin3":"11788904"},{"geonameid":11788913,"name":"City of Bell","admin3":"11788913"},{"geonameid":11788930,"name":"City of Torrance","admin3":"11788930"},{"geonameid":11788935,"name":"City of La Mirada","admin3":"11788935"},{"geonameid":11788943,"name":"City of Vernon","admin3":"11788943"},{"geonameid":11788947,"name":"City of South Pasadena","admin3":"11788947"},{"geonameid":11788977,"name":"City of Inglewood","admin3":"11788977"},{"geonameid":11788983,"name":"City of Lakewood","admin3":"11788983"},{"geonameid":11788994,"name":"City of Duarte","admin3":"11788994"},{"geonameid":11789012,"name":"City of Monrovia","admin3":"11789012"},{"geonameid":11789027,"name":"City of Hidden Hills","admin3":"11789027"},{"geonameid":11789032,"name":"City of Lomita","admin3":"11789032"},{"geonameid":11789046,"name":"City of Paramount","admin3":"11789046"},{"geonameid":11789061,"name":"City of West Covina","admin3":"11789061"}],"alternateNames":[{"alternatenameId":1632217,"geonameid":5332921,"isoLanguage":"en","alternateName":"California","isPreferredName":true,"isShortName":true,"isColloquial":false,"isHistoric":false},{"alternatenameId":2728618,"geonameid":5405841,"isoLanguage":"en","alternateName":"Venice","isPreferredName":true,"isShortName":true,"isColloquial":false,"isHistoric":false}]},"__N_SSG":true}