{"pageProps":{"locale":"en","admin2":{"geonameid":5383832,"name":"Plumas County","country":"US","admin1":"CA","admin2":"063","admin3":"","latitude":"40.0046800","longitude":"-120.8386000","localeAltName":null},"admin1":{"geonameid":5332921,"name":"California","admin1":"CA","localeAltName":"California"},"locations":[{"geonameid":5561279,"name":"Chester","admin3":"","localeAltName":null},{"geonameid":5342530,"name":"Delleker","admin3":"","localeAltName":null},{"geonameid":5345053,"name":"East Quincy","admin3":"","localeAltName":null},{"geonameid":5353397,"name":"Graeagle","admin3":"","localeAltName":null},{"geonameid":5564488,"name":"Greenville","admin3":"","localeAltName":null},{"geonameid":5564701,"name":"Hamilton Branch","admin3":"","localeAltName":null},{"geonameid":5384438,"name":"Portola","admin3":"","localeAltName":null},{"geonameid":5385487,"name":"Quincy","admin3":"","localeAltName":null}],"admin3":[{"geonameid":11788605,"name":"City of Portola","admin3":"11788605"}],"alternateNames":[{"alternatenameId":1632217,"geonameid":5332921,"isoLanguage":"en","alternateName":"California","isPreferredName":true,"isShortName":true,"isColloquial":false,"isHistoric":false}]},"__N_SSG":true}