{"pageProps":{"locale":"en","admin2":{"geonameid":5392329,"name":"San Luis Obispo County","country":"US","admin1":"CA","admin2":"079","admin3":"","latitude":"35.3874200","longitude":"-120.4522000","localeAltName":null},"admin1":{"geonameid":5332921,"name":"California","admin1":"CA","localeAltName":"California"},"locations":[{"geonameid":5324802,"name":"Arroyo Grande","admin3":"","localeAltName":null},{"geonameid":5325111,"name":"Atascadero","admin3":"","localeAltName":null},{"geonameid":5325371,"name":"Avila Beach","admin3":"","localeAltName":null},{"geonameid":7315193,"name":"Blacklake","admin3":"","localeAltName":null},{"geonameid":5332963,"name":"Callender","admin3":"","localeAltName":null},{"geonameid":5333207,"name":"Cambria","admin3":"","localeAltName":null},{"geonameid":5335131,"name":"Cayucos","admin3":"","localeAltName":null},{"geonameid":5354552,"name":"Grover Beach","admin3":"","localeAltName":null},{"geonameid":5364615,"name":"Lake Nacimiento","admin3":"","localeAltName":null},{"geonameid":5368474,"name":"Los Berros","admin3":"","localeAltName":null},{"geonameid":5368565,"name":"Los Osos","admin3":"","localeAltName":null},{"geonameid":5374920,"name":"Morro Bay","admin3":"","localeAltName":null},{"geonameid":5377100,"name":"Nipomo","admin3":"","localeAltName":null},{"geonameid":5378763,"name":"Oceano","admin3":"","localeAltName":null},{"geonameid":5381438,"name":"Paso Robles","admin3":"","localeAltName":null},{"geonameid":5383431,"name":"Pismo Beach","admin3":"","localeAltName":null},{"geonameid":5392323,"name":"San Luis Obispo","admin3":"","localeAltName":null},{"geonameid":5392448,"name":"San Miguel","admin3":"","localeAltName":null},{"geonameid":5393154,"name":"Santa Margarita","admin3":"","localeAltName":null},{"geonameid":5394892,"name":"Shandon","admin3":"","localeAltName":null},{"geonameid":5401516,"name":"Templeton","admin3":"","localeAltName":null},{"geonameid":7315212,"name":"Woodlands","admin3":"","localeAltName":null}],"admin3":[{"geonameid":11788633,"name":"City of Grover Beach","admin3":"11788633"},{"geonameid":11788985,"name":"City of Morro Bay","admin3":"11788985"},{"geonameid":11789043,"name":"City of San Luis Obispo","admin3":"11789043"},{"geonameid":11789052,"name":"City of Pismo Beach","admin3":"11789052"}],"alternateNames":[{"alternatenameId":1632217,"geonameid":5332921,"isoLanguage":"en","alternateName":"California","isPreferredName":true,"isShortName":true,"isColloquial":false,"isHistoric":false}]},"__N_SSG":true}