{"pageProps":{"locale":"en","admin2":{"geonameid":5393068,"name":"Santa Cruz County","country":"US","admin1":"CA","admin2":"087","admin3":"","latitude":"37.0216100","longitude":"-122.0097900","localeAltName":null},"admin1":{"geonameid":5332921,"name":"California","admin1":"CA","localeAltName":"California"},"locations":[{"geonameid":5323781,"name":"Amesti","admin3":"","localeAltName":null},{"geonameid":5324400,"name":"Aptos","admin3":"","localeAltName":null},{"geonameid":7260801,"name":"Aptos Hills-Larkin Valley","admin3":"","localeAltName":null},{"geonameid":5327522,"name":"Ben Lomond","admin3":"","localeAltName":null},{"geonameid":5330003,"name":"Bonny Doon","admin3":"","localeAltName":null},{"geonameid":5330222,"name":"Boulder Creek","admin3":"","localeAltName":null},{"geonameid":5330938,"name":"Brookdale","admin3":"","localeAltName":null},{"geonameid":5334096,"name":"Capitola","admin3":"","localeAltName":null},{"geonameid":5339749,"name":"Corralitos","admin3":"","localeAltName":null},{"geonameid":5341789,"name":"Day Valley","admin3":"","localeAltName":null},{"geonameid":5347903,"name":"Felton","admin3":"","localeAltName":null},{"geonameid":5350678,"name":"Freedom","admin3":"","localeAltName":null},{"geonameid":5359577,"name":"Interlaken","admin3":"","localeAltName":null},{"geonameid":5364104,"name":"La Selva Beach","admin3":"","localeAltName":null},{"geonameid":5367314,"name":"Live Oak","admin3":"","localeAltName":null},{"geonameid":5367785,"name":"Lompico","admin3":"","localeAltName":null},{"geonameid":5375187,"name":"Mount Hermon","admin3":"","localeAltName":null},{"geonameid":5381421,"name":"Pasatiempo","admin3":"","localeAltName":null},{"geonameid":5387673,"name":"Rio Del Mar","admin3":"","localeAltName":null},{"geonameid":5393052,"name":"Santa Cruz","admin3":"","localeAltName":null},{"geonameid":5393971,"name":"Scotts Valley","admin3":"","localeAltName":null},{"geonameid":5394076,"name":"Seacliff","admin3":"","localeAltName":null},{"geonameid":5397166,"name":"Soquel","admin3":"","localeAltName":null},{"geonameid":5404274,"name":"Twin Lakes","admin3":"","localeAltName":null},{"geonameid":5407529,"name":"Watsonville","admin3":"","localeAltName":null},{"geonameid":5411148,"name":"Zayante","admin3":"","localeAltName":null}],"admin3":[{"geonameid":11788650,"name":"City of Scotts Valley","admin3":"11788650"},{"geonameid":11788775,"name":"City of Santa Cruz","admin3":"11788775"},{"geonameid":11788951,"name":"City of Capitola","admin3":"11788951"}],"alternateNames":[{"alternatenameId":1632217,"geonameid":5332921,"isoLanguage":"en","alternateName":"California","isPreferredName":true,"isShortName":true,"isColloquial":false,"isHistoric":false}]},"__N_SSG":true}