{"pageProps":{"locale":"en","admin2":{"geonameid":5398597,"name":"Stanislaus County","country":"US","admin1":"CA","admin2":"099","admin3":"","latitude":"37.5591400","longitude":"-120.9976900","localeAltName":null},"admin1":{"geonameid":5332921,"name":"California","admin1":"CA","localeAltName":"California"},"locations":[{"geonameid":7260952,"name":"Bret Harte","admin3":"","localeAltName":null},{"geonameid":5332318,"name":"Bystrom","admin3":"","localeAltName":null},{"geonameid":5335650,"name":"Ceres","admin3":"","localeAltName":null},{"geonameid":5342449,"name":"Del Rio","admin3":"","localeAltName":null},{"geonameid":5342586,"name":"Denair","admin3":"","localeAltName":null},{"geonameid":7315195,"name":"Diablo Grande","admin3":"","localeAltName":null},{"geonameid":5345025,"name":"East Oakdale","admin3":"","localeAltName":null},{"geonameid":5346551,"name":"Empire","admin3":"","localeAltName":null},{"geonameid":5353910,"name":"Grayson","admin3":"","localeAltName":null},{"geonameid":5356662,"name":"Hickman","admin3":"","localeAltName":null},{"geonameid":5358539,"name":"Hughson","admin3":"","localeAltName":null},{"geonameid":5363058,"name":"Keyes","admin3":"","localeAltName":null},{"geonameid":5373900,"name":"Modesto","admin3":"","localeAltName":null},{"geonameid":5376870,"name":"Newman","admin3":"","localeAltName":null},{"geonameid":5378500,"name":"Oakdale","admin3":"","localeAltName":null},{"geonameid":5381515,"name":"Patterson","admin3":"","localeAltName":null},{"geonameid":5387844,"name":"Riverbank","admin3":"","localeAltName":null},{"geonameid":5387865,"name":"Riverdale Park","admin3":"","localeAltName":null},{"geonameid":5391291,"name":"Salida","admin3":"","localeAltName":null},{"geonameid":5394774,"name":"Shackelford","admin3":"","localeAltName":null},{"geonameid":5404024,"name":"Turlock","admin3":"","localeAltName":null},{"geonameid":5407463,"name":"Waterford","admin3":"","localeAltName":null},{"geonameid":7262504,"name":"West Modesto","admin3":"","localeAltName":null},{"geonameid":5408400,"name":"Westley","admin3":"","localeAltName":null}],"admin3":[{"geonameid":11788312,"name":"City of Oakdale","admin3":"11788312"},{"geonameid":11788382,"name":"City of Patterson","admin3":"11788382"},{"geonameid":11788475,"name":"City of Riverbank","admin3":"11788475"},{"geonameid":11788673,"name":"City of Modesto","admin3":"11788673"},{"geonameid":11788841,"name":"City of Hughson","admin3":"11788841"},{"geonameid":11788910,"name":"City of Ceres","admin3":"11788910"},{"geonameid":11788992,"name":"City of Turlock","admin3":"11788992"}],"alternateNames":[{"alternatenameId":1632217,"geonameid":5332921,"isoLanguage":"en","alternateName":"California","isPreferredName":true,"isShortName":true,"isColloquial":false,"isHistoric":false}]},"__N_SSG":true}