{"pageProps":{"locale":"en","admin2":{"geonameid":5572575,"name":"Tehama County","country":"US","admin1":"CA","admin2":"103","admin3":"","latitude":"40.1257400","longitude":"-122.2338800","localeAltName":null},"admin1":{"geonameid":5332921,"name":"California","admin1":"CA","localeAltName":"California"},"locations":[{"geonameid":5559593,"name":"Bend","admin3":"","localeAltName":null},{"geonameid":5339614,"name":"Corning","admin3":"","localeAltName":null},{"geonameid":5564132,"name":"Gerber","admin3":"","localeAltName":null},{"geonameid":5567220,"name":"Los Molinos","admin3":"","localeAltName":null},{"geonameid":7176030,"name":"Rancho Tehama Reserve","admin3":"","localeAltName":null},{"geonameid":5570065,"name":"Red Bluff","admin3":"","localeAltName":null}],"admin3":[{"geonameid":11788421,"name":"City of Red Bluff","admin3":"11788421"},{"geonameid":11788600,"name":"City of Corning","admin3":"11788600"}],"alternateNames":[{"alternatenameId":1632217,"geonameid":5332921,"isoLanguage":"en","alternateName":"California","isPreferredName":true,"isShortName":true,"isColloquial":false,"isHistoric":false}]},"__N_SSG":true}