{"pageProps":{"locale":"en","admin2":{"geonameid":3333248,"name":"City and County of Swansea","country":"GB","admin1":"WLS","admin2":"Z1","admin3":"","latitude":"51.5833300","longitude":"-4.0000000"},"admin1":{"geonameid":2634895,"name":"Wales","admin1":"WLS","localeAltName":"Wales"},"locations":[{"geonameid":2655556,"name":"Bishopston","admin3":"00NX002"},{"geonameid":3345224,"name":"Burry Green","admin3":"00NX015"},{"geonameid":2653249,"name":"Cheriton","admin3":"00NX015"},{"geonameid":2652734,"name":"Clydach","admin3":"00NX005"},{"geonameid":3345230,"name":"Crofty","admin3":"00NX017"},{"geonameid":6621401,"name":"Cwmbwrla","admin3":"00NX007"},{"geonameid":2650642,"name":"Dunvant","admin3":"00NX008"},{"geonameid":2649583,"name":"Felindre","admin3":"00NX021"},{"geonameid":2648612,"name":"Glais","admin3":"00NX001"},{"geonameid":2648290,"name":"Gorseinon","admin3":"00NX009"},{"geonameid":8468657,"name":"Gower","admin3":"00NX027"},{"geonameid":2648254,"name":"Gowerton","admin3":"00NX010"},{"geonameid":3345239,"name":"Grovesend","admin3":"00NX011"},{"geonameid":3345226,"name":"Horton","admin3":"00NX028"},{"geonameid":3345237,"name":"Ilston","admin3":"00NX012"},{"geonameid":2645649,"name":"Killay","admin3":"00NX013"},{"geonameid":2645157,"name":"Knelston","admin3":"00NX031"},{"geonameid":3345223,"name":"Landimore","admin3":"00NX015"},{"geonameid":2644963,"name":"Landore","admin3":"00NX014"},{"geonameid":3345225,"name":"Llanddewi","admin3":"00NX031"},{"geonameid":2644029,"name":"Llangennith","admin3":"00NX015"},{"geonameid":2643977,"name":"Llanmadoc","admin3":"00NX015"},{"geonameid":2643976,"name":"Llanmorlais","admin3":"00NX017"},{"geonameid":2643965,"name":"Llanrhidian","admin3":"00NX018"},{"geonameid":11551036,"name":"Llansamlet Community","admin3":"00NX019"},{"geonameid":2643561,"name":"Loughor","admin3":"00NX020"},{"geonameid":2642180,"name":"Morriston","admin3":"00NX022"},{"geonameid":2641971,"name":"Mumbles","admin3":"00NX023"},{"geonameid":11593553,"name":"Murton","admin3":"00NX002"},{"geonameid":11551038,"name":"Mynyddbach Community","admin3":"00NX024"},{"geonameid":2641503,"name":"Nicholaston","admin3":"00NX012"},{"geonameid":2640713,"name":"Oxwich","admin3":"00NX028"},{"geonameid":2640705,"name":"Oystermouth","admin3":"00NX023"},{"geonameid":2640640,"name":"Pant-y-ffynnon","admin3":"00NX021"},{"geonameid":3345232,"name":"Parkmill","admin3":"00NX012"},{"geonameid":2640485,"name":"Pen-clawdd","admin3":"00NX017"},{"geonameid":3345240,"name":"Penllergaer","admin3":"00NX026"},{"geonameid":3345231,"name":"Penmaen","admin3":"00NX012"},{"geonameid":3345233,"name":"Pennard","admin3":"00NX027"},{"geonameid":2640417,"name":"Penrice","admin3":"00NX028"},{"geonameid":2640134,"name":"Pontarddulais","admin3":"00NX030"},{"geonameid":3345241,"name":"Pontlliw","admin3":"00NX029"},{"geonameid":2639988,"name":"Port Tennant","admin3":"00NX034"},{"geonameid":2640061,"name":"Port-Eynon","admin3":"00NX031"},{"geonameid":2639472,"name":"Reynoldston","admin3":"00NX032"},{"geonameid":2639432,"name":"Rhossili","admin3":"00NX033"},{"geonameid":3345227,"name":"Scurlage","admin3":"00NX031"},{"geonameid":3345234,"name":"Southgate","admin3":"00NX027"},{"geonameid":2636432,"name":"Swansea","admin3":"00NX004"},{"geonameid":3345236,"name":"Three Crosses","admin3":"00NX017"},{"geonameid":3345235,"name":"Upper Killay","admin3":"00NX038"},{"geonameid":3345238,"name":"Waunarlwydd","admin3":"00NX006"},{"geonameid":10171167,"name":"Ynysforgan","admin3":"00NX022"}],"admin3":[{"geonameid":2643879,"name":"Llwchwr","admin3":"00NX020"},{"geonameid":7291575,"name":"Cwmbwrla","admin3":"00NX007"},{"geonameid":7291576,"name":"Grovesend and Waungron","admin3":"00NX011"},{"geonameid":7291577,"name":"Morriston","admin3":"00NX022"},{"geonameid":7291578,"name":"Penllergaer","admin3":"00NX026"},{"geonameid":7291579,"name":"Pennard","admin3":"00NX027"},{"geonameid":7291580,"name":"Rhossili","admin3":"00NX033"},{"geonameid":7291581,"name":"Townhill","admin3":"00NX036"},{"geonameid":7292831,"name":"Clydach","admin3":"00NX005"},{"geonameid":7292832,"name":"Killay","admin3":"00NX013"},{"geonameid":7292833,"name":"Pontlliw and Tircoed","admin3":"00NX029"},{"geonameid":7292834,"name":"Reynoldston","admin3":"00NX032"},{"geonameid":7292835,"name":"Uplands","admin3":"00NX037"},{"geonameid":7294198,"name":"Gowerton","admin3":"00NX010"},{"geonameid":7295808,"name":"Mynyddbach","admin3":"00NX024"},{"geonameid":7297805,"name":"Mumbles","admin3":"00NX023"},{"geonameid":7299725,"name":"Castle","admin3":"00NX004"},{"geonameid":7299726,"name":"Cockett","admin3":"00NX006"},{"geonameid":7299727,"name":"Gorseinon","admin3":"00NX009"},{"geonameid":7299728,"name":"Llangennith, Llanmadoc and Cheriton","admin3":"00NX015"},{"geonameid":7299729,"name":"Penderry","admin3":"00NX025"},{"geonameid":7299730,"name":"Penrice","admin3":"00NX028"},{"geonameid":7299731,"name":"Port Eynon","admin3":"00NX031"},{"geonameid":7299732,"name":"St Thomas","admin3":"00NX034"},{"geonameid":7299733,"name":"Sketty","admin3":"00NX035"},{"geonameid":7299734,"name":"Upper Killay","admin3":"00NX038"},{"geonameid":7300390,"name":"Mawr","admin3":"00NX021"},{"geonameid":7300391,"name":"Birchgrove","admin3":"00NX001"},{"geonameid":7300392,"name":"Bishopston","admin3":"00NX002"},{"geonameid":7300393,"name":"Llangyfelach","admin3":"00NX016"},{"geonameid":7300394,"name":"Llanrhidian Lower","admin3":"00NX018"},{"geonameid":7300396,"name":"Llansamlet","admin3":"00NX019"},{"geonameid":7300397,"name":"Llanrhidian Higher","admin3":"00NX017"},{"geonameid":7301673,"name":"Bonymaen","admin3":"00NX003"},{"geonameid":7301674,"name":"Dunvant","admin3":"00NX008"},{"geonameid":7301675,"name":"Ilston","admin3":"00NX012"},{"geonameid":7301676,"name":"Landore","admin3":"00NX014"},{"geonameid":7301677,"name":"Pontardulais","admin3":"00NX030"}],"alternateNames":[{"alternatenameId":1626654,"geonameid":2634895,"isoLanguage":"en","alternateName":"Wales","isPreferredName":true,"isShortName":true,"isColloquial":false,"isHistoric":false}]},"__N_SSG":true}