{"pageProps":{"locale":"en","admin2":{"geonameid":3333243,"name":"Merthyr Tydfil County Borough","country":"GB","admin1":"WLS","admin2":"Y3","admin3":"","latitude":"51.7500000","longitude":"-3.3333300","localeAltName":"Merthyr Tydfil"},"admin1":{"geonameid":2634895,"name":"Wales","admin1":"WLS","localeAltName":"Wales"},"locations":[{"geonameid":2657845,"name":"Abercanaid","admin3":"00PH011"},{"geonameid":2657821,"name":"Aberfan","admin3":"00PH005"},{"geonameid":8199609,"name":"Bedlinog","admin3":"00PH001"},{"geonameid":2653450,"name":"Cefn-coed-y-cymmer","admin3":"00PH012"},{"geonameid":2651039,"name":"Dowlais","admin3":"00PH003"},{"geonameid":2642705,"name":"Merthyr Tydfil","admin3":"00PH009"},{"geonameid":2640113,"name":"Pont Sticill","admin3":"00PH012"},{"geonameid":2639812,"name":"Quakers Yard","admin3":"00PH010"},{"geonameid":2635524,"name":"Treharris","admin3":"00PH010"},{"geonameid":2635452,"name":"Troedyrhiw","admin3":"00PH011"}],"admin3":[{"geonameid":7295584,"name":"Gurnos","admin3":"00PH004"},{"geonameid":7295585,"name":"Penydarren","admin3":"00PH008"},{"geonameid":7296581,"name":"Dowlais","admin3":"00PH003"},{"geonameid":7296582,"name":"Park","admin3":"00PH007"},{"geonameid":7296583,"name":"Town","admin3":"00PH009"},{"geonameid":7296584,"name":"Vaynor","admin3":"00PH012"},{"geonameid":7297822,"name":"Merthyr Vale","admin3":"00PH005"},{"geonameid":7298978,"name":"Bedlinog","admin3":"00PH001"},{"geonameid":7299210,"name":"Cyfarthfa","admin3":"00PH002"},{"geonameid":7299211,"name":"Pant","admin3":"00PH006"},{"geonameid":7299212,"name":"Treharris","admin3":"00PH010"},{"geonameid":7301820,"name":"Troed-y-Rhiw","admin3":"00PH011"}],"alternateNames":[{"alternatenameId":1626654,"geonameid":2634895,"isoLanguage":"en","alternateName":"Wales","isPreferredName":true,"isShortName":true,"isColloquial":false,"isHistoric":false},{"alternatenameId":2184823,"geonameid":3333243,"isoLanguage":"en","alternateName":"Merthyr Tydfil","isPreferredName":true,"isShortName":true,"isColloquial":false,"isHistoric":false}]},"__N_SSG":true}