{"pageProps":{"locale":"it","admin2":{"geonameid":3165523,"name":"Torino","country":"IT","admin1":"12","admin2":"TO","admin3":"","latitude":"45.1333300","longitude":"7.3666700","localeAltName":"Torino"},"admin1":{"geonameid":3170831,"name":"Piemonte","admin1":"12","localeAltName":null},"locations":[{"geonameid":3183439,"name":"Agliè","admin3":"001001","localeAltName":null},{"geonameid":8948778,"name":"Airali","admin3":"001139","localeAltName":null},{"geonameid":3183380,"name":"Airasca","admin3":"001002","localeAltName":null},{"geonameid":3183322,"name":"Albiano d'Ivrea","admin3":"001004","localeAltName":null},{"geonameid":3183257,"name":"Almese-Rivera","admin3":"001006","localeAltName":null},{"geonameid":3183187,"name":"Alpignano","admin3":"001008","localeAltName":null},{"geonameid":3183081,"name":"Andezeno","admin3":"001009","localeAltName":null},{"geonameid":8949852,"name":"Are","admin3":"001047","localeAltName":null},{"geonameid":3182846,"name":"Arignano","admin3":"001012","localeAltName":null},{"geonameid":3182634,"name":"Avigliana","admin3":"001013","localeAltName":null},{"geonameid":3182615,"name":"Azeglio","admin3":"001014","localeAltName":null},{"geonameid":6535053,"name":"Bairo","admin3":"001015","localeAltName":null},{"geonameid":3182466,"name":"Balangero","admin3":"001016","localeAltName":null},{"geonameid":3182461,"name":"Baldissero Torinese","admin3":"001018","localeAltName":null},{"geonameid":6535806,"name":"Banchette","admin3":"001020","localeAltName":null},{"geonameid":8949018,"name":"Baratte","admin3":"001305","localeAltName":null},{"geonameid":3182402,"name":"Barbania","admin3":"001021","localeAltName":null},{"geonameid":3182362,"name":"Bardonecchia","admin3":"001022","localeAltName":null},{"geonameid":6535807,"name":"Barone Canavese","admin3":"001023","localeAltName":null},{"geonameid":3182245,"name":"Beinasco","admin3":"001024","localeAltName":null},{"geonameid":8950054,"name":"Benne","admin3":"001094","localeAltName":null},{"geonameid":6535386,"name":"Bibiana","admin3":"001025","localeAltName":null},{"geonameid":3181930,"name":"Bollengo","admin3":"001027","localeAltName":null},{"geonameid":3181850,"name":"Borgaro Torinese","admin3":"001028","localeAltName":null},{"geonameid":8949045,"name":"Borgo Melano","admin3":"001024","localeAltName":null},{"geonameid":8949838,"name":"Borgo Revel","admin3":"001293","localeAltName":null},{"geonameid":3181799,"name":"Borgofranco d'Ivrea","admin3":"001030","localeAltName":null},{"geonameid":3181787,"name":"Borgomasino","admin3":"001031","localeAltName":null},{"geonameid":3181782,"name":"Borgone Susa","admin3":"001032","localeAltName":null},{"geonameid":8950278,"name":"Boschetto","admin3":"001082","localeAltName":null},{"geonameid":3181684,"name":"Bosconero","admin3":"001033","localeAltName":null},{"geonameid":3181605,"name":"Brandizzo","admin3":"001034","localeAltName":null},{"geonameid":3181539,"name":"Bricherasio","admin3":"001035","localeAltName":null},{"geonameid":3181488,"name":"Bruino","admin3":"001038","localeAltName":null},{"geonameid":3181472,"name":"Brusasco","admin3":"001039","localeAltName":null},{"geonameid":6535387,"name":"Bruzolo","admin3":"001040","localeAltName":null},{"geonameid":3181392,"name":"Buriasco","admin3":"001041","localeAltName":null},{"geonameid":3181389,"name":"Burolo","admin3":"001042","localeAltName":null},{"geonameid":3181381,"name":"Busano","admin3":"001043","localeAltName":null},{"geonameid":3181358,"name":"Bussoleno","admin3":"001044","localeAltName":null},{"geonameid":3181347,"name":"Buttigliera Alta","admin3":"001045","localeAltName":null},{"geonameid":6535388,"name":"Cafasse","admin3":"001046","localeAltName":null},{"geonameid":3181164,"name":"Caluso","admin3":"001047","localeAltName":null},{"geonameid":3181111,"name":"Cambiano","admin3":"001048","localeAltName":null},{"geonameid":6534288,"name":"Campiglione","admin3":"001049","localeAltName":null},{"geonameid":3180868,"name":"Candia Canavese","admin3":"001050","localeAltName":null},{"geonameid":3180861,"name":"Candiolo","admin3":"001051","localeAltName":null},{"geonameid":6535265,"name":"Cantalupa","admin3":"001053","localeAltName":null},{"geonameid":3180766,"name":"Cantoira","admin3":"001054","localeAltName":null},{"geonameid":3180621,"name":"Caprie","admin3":"001055","localeAltName":null},{"geonameid":3180578,"name":"Caravino","admin3":"001056","localeAltName":null},{"geonameid":3180531,"name":"Carema","admin3":"001057","localeAltName":null},{"geonameid":3180511,"name":"Carignano","admin3":"001058","localeAltName":null},{"geonameid":3180496,"name":"Carmagnola","admin3":"001059","localeAltName":null},{"geonameid":3180350,"name":"Casabianca","admin3":"001293","localeAltName":null},{"geonameid":3180245,"name":"Casalborgone","admin3":"001060","localeAltName":null},{"geonameid":3179958,"name":"Cascinette d'Ivrea","admin3":"001061","localeAltName":null},{"geonameid":3179922,"name":"Caselette","admin3":"001062","localeAltName":null},{"geonameid":3179911,"name":"Caselle Torinese","admin3":"001063","localeAltName":null},{"geonameid":3179761,"name":"Castagneto Po","admin3":"001064","localeAltName":null},{"geonameid":6535389,"name":"Castagnole Piemonte","admin3":"001065","localeAltName":null},{"geonameid":3179659,"name":"Castellamonte","admin3":"001066","localeAltName":null},{"geonameid":6535390,"name":"Castiglione Torinese","admin3":"001068","localeAltName":null},{"geonameid":6535867,"name":"Cavagnolo","admin3":"001069","localeAltName":null},{"geonameid":8950159,"name":"Cavalleri-Fumeri","admin3":"001059","localeAltName":null},{"geonameid":3179257,"name":"Cavour","admin3":"001070","localeAltName":null},{"geonameid":6535266,"name":"Cercenasco","admin3":"001071","localeAltName":null},{"geonameid":8949583,"name":"Cerone","admin3":"001269","localeAltName":null},{"geonameid":3178976,"name":"Cesana Torinese","admin3":"001074","localeAltName":null},{"geonameid":6535392,"name":"Chiaverano","admin3":"001077","localeAltName":null},{"geonameid":3178818,"name":"Chieri","admin3":"001078","localeAltName":null},{"geonameid":3178782,"name":"Chiomonte","admin3":"001080","localeAltName":null},{"geonameid":6535268,"name":"Chiusa di San Michele","admin3":"001081","localeAltName":null},{"geonameid":3178745,"name":"Chivasso","admin3":"001082","localeAltName":null},{"geonameid":3178650,"name":"Ciriè","admin3":"001086","localeAltName":null},{"geonameid":6534296,"name":"Coassolo Torinese","admin3":"001088","localeAltName":null},{"geonameid":3178536,"name":"Coazze","admin3":"001089","localeAltName":null},{"geonameid":3178338,"name":"Colle Sestriere","admin3":"001263","localeAltName":null},{"geonameid":3178388,"name":"Collegno","admin3":"001090","localeAltName":null},{"geonameid":6535271,"name":"Colleretto Giacosa","admin3":"001092","localeAltName":null},{"geonameid":3178198,"name":"Condove","admin3":"001093","localeAltName":null},{"geonameid":8950181,"name":"Corbiglia","admin3":"001302","localeAltName":null},{"geonameid":3178093,"name":"Corio","admin3":"001094","localeAltName":null},{"geonameid":3177726,"name":"Cuceglio","admin3":"001096","localeAltName":null},{"geonameid":3177704,"name":"Cumiana","admin3":"001097","localeAltName":null},{"geonameid":3177695,"name":"Cuorgnè","admin3":"001098","localeAltName":null},{"geonameid":8949002,"name":"Drubiaglio-Grangia","admin3":"001013","localeAltName":null},{"geonameid":3177471,"name":"Druento","admin3":"001099","localeAltName":null},{"geonameid":8949375,"name":"Favari-Avatanei","admin3":"001197","localeAltName":null},{"geonameid":3177140,"name":"Favria","admin3":"001101","localeAltName":null},{"geonameid":3177127,"name":"Feletto","admin3":"001102","localeAltName":null},{"geonameid":8948881,"name":"Ferriera","admin3":"001045","localeAltName":null},{"geonameid":3177047,"name":"Fiano","admin3":"001104","localeAltName":null},{"geonameid":6535273,"name":"Fiorano Canavese","admin3":"001105","localeAltName":null},{"geonameid":3176869,"name":"Foglizzo","admin3":"001106","localeAltName":null},{"geonameid":8948917,"name":"Fornaci","admin3":"001024","localeAltName":null},{"geonameid":3176687,"name":"Forno Canavese","admin3":"001107","localeAltName":null},{"geonameid":3176521,"name":"Front","admin3":"001109","localeAltName":null},{"geonameid":6535393,"name":"Frossasco","admin3":"001110","localeAltName":null},{"geonameid":8948834,"name":"Garino","admin3":"001309","localeAltName":null},{"geonameid":3176285,"name":"Gassino Torinese","admin3":"001112","localeAltName":null},{"geonameid":8948939,"name":"Gerbido","admin3":"001120","localeAltName":null},{"geonameid":8948770,"name":"Gerbole","admin3":"001214","localeAltName":null},{"geonameid":9036402,"name":"Gerbole-Zucche","admin3":"001315","localeAltName":null},{"geonameid":3176193,"name":"Germagnano","admin3":"001113","localeAltName":null},{"geonameid":6535395,"name":"Giaglione","admin3":"001114","localeAltName":null},{"geonameid":3176130,"name":"Giaveno","admin3":"001115","localeAltName":null},{"geonameid":6535274,"name":"Givoletto","admin3":"001116","localeAltName":null},{"geonameid":8949975,"name":"Grangia","admin3":"001076","localeAltName":null},{"geonameid":6535396,"name":"Gravere","admin3":"001117","localeAltName":null},{"geonameid":6535275,"name":"Grosso","admin3":"001119","localeAltName":null},{"geonameid":3175755,"name":"Grugliasco","admin3":"001120","localeAltName":null},{"geonameid":6534297,"name":"Inverso Pinasca","admin3":"001122","localeAltName":null},{"geonameid":3175384,"name":"Ivrea","admin3":"001125","localeAltName":null},{"geonameid":6535399,"name":"La Cassa","admin3":"001126","localeAltName":null},{"geonameid":3175228,"name":"La Loggia","admin3":"001127","localeAltName":null},{"geonameid":3175150,"name":"Lanzo Torinese","admin3":"001128","localeAltName":null},{"geonameid":3175033,"name":"Lauriano","admin3":"001129","localeAltName":null},{"geonameid":3174911,"name":"Leini","admin3":"001130","localeAltName":null},{"geonameid":8533775,"name":"Lesna","admin3":"001120","localeAltName":null},{"geonameid":3174827,"name":"Lessolo","admin3":"001132","localeAltName":null},{"geonameid":3174647,"name":"Locana","admin3":"001134","localeAltName":null},{"geonameid":3174615,"name":"Lombardore","admin3":"001135","localeAltName":null},{"geonameid":6535808,"name":"Lombriasco","admin3":"001136","localeAltName":null},{"geonameid":3174580,"name":"Loranzè","admin3":"001137","localeAltName":null},{"geonameid":3174429,"name":"Luserna","admin3":"001139","localeAltName":null},{"geonameid":6535402,"name":"Lusigliè","admin3":"001141","localeAltName":null},{"geonameid":6535403,"name":"Macello","admin3":"001142","localeAltName":null},{"geonameid":8950160,"name":"Malanghero","admin3":"001248","localeAltName":null},{"geonameid":11611008,"name":"Mappano","admin3":"001316","localeAltName":null},{"geonameid":6535811,"name":"Marentino","admin3":"001144","localeAltName":null},{"geonameid":8949295,"name":"Marocchi","admin3":"001197","localeAltName":null},{"geonameid":3173714,"name":"Mathi","admin3":"001146","localeAltName":null},{"geonameid":6535404,"name":"Mattie","admin3":"001147","localeAltName":null},{"geonameid":3173682,"name":"Mazze","admin3":"001148","localeAltName":null},{"geonameid":6535812,"name":"Meana di Susa","admin3":"001149","localeAltName":null},{"geonameid":3173557,"name":"Mercenasco","admin3":"001150","localeAltName":null},{"geonameid":6535813,"name":"Mezzenile","admin3":"001152","localeAltName":null},{"geonameid":3173437,"name":"Milanere","admin3":"001006","localeAltName":null},{"geonameid":8949953,"name":"Miradolo","admin3":"001254","localeAltName":null},{"geonameid":6534307,"name":"Mompantero","admin3":"001154","localeAltName":null},{"geonameid":7799838,"name":"Monasterolo","admin3":"001046","localeAltName":null},{"geonameid":3173180,"name":"Moncalieri","admin3":"001156","localeAltName":null},{"geonameid":3173088,"name":"Montalenghe","admin3":"001159","localeAltName":null},{"geonameid":3173081,"name":"Montalto Dora","admin3":"001160","localeAltName":null},{"geonameid":3173074,"name":"Montanaro","admin3":"001161","localeAltName":null},{"geonameid":8948999,"name":"Montelera","admin3":"001284","localeAltName":null},{"geonameid":3172721,"name":"Monteu da Po","admin3":"001162","localeAltName":null},{"geonameid":3172269,"name":"Nichelino","admin3":"001164","localeAltName":null},{"geonameid":3172226,"name":"Nole","admin3":"001166","localeAltName":null},{"geonameid":3172215,"name":"None","admin3":"001168","localeAltName":null},{"geonameid":8949524,"name":"Novaretto","admin3":"001055","localeAltName":null},{"geonameid":3172099,"name":"Oglianico","admin3":"001170","localeAltName":null},{"geonameid":8949638,"name":"Olimpia","admin3":"001265","localeAltName":null},{"geonameid":3171986,"name":"Orbassano","admin3":"001171","localeAltName":null},{"geonameid":3171952,"name":"Orio Canavese","admin3":"001172","localeAltName":null},{"geonameid":6535814,"name":"Osasco","admin3":"001173","localeAltName":null},{"geonameid":6535815,"name":"Osasio","admin3":"001174","localeAltName":null},{"geonameid":3171772,"name":"Oulx","admin3":"001175","localeAltName":null},{"geonameid":3171762,"name":"Ozegna","admin3":"001176","localeAltName":null},{"geonameid":3171636,"name":"Palazzo Canavese","admin3":"001177","localeAltName":null},{"geonameid":3171533,"name":"Pancalieri","admin3":"001178","localeAltName":null},{"geonameid":8948993,"name":"Pasta","admin3":"001214","localeAltName":null},{"geonameid":3171367,"name":"Pavarolo","admin3":"001180","localeAltName":null},{"geonameid":3171358,"name":"Pavone Canavese","admin3":"001181","localeAltName":null},{"geonameid":3171351,"name":"Pecetto","admin3":"001183","localeAltName":null},{"geonameid":3171193,"name":"Perosa Argentina","admin3":"001184","localeAltName":null},{"geonameid":6535412,"name":"Pertusio","admin3":"001187","localeAltName":null},{"geonameid":3171117,"name":"Pessione","admin3":"001078","localeAltName":null},{"geonameid":8948996,"name":"Piana San Raffaele","admin3":"001252","localeAltName":null},{"geonameid":3170978,"name":"Pianezza","admin3":"001189","localeAltName":null},{"geonameid":6534308,"name":"Pinasca-Dubbione","admin3":"001190","localeAltName":null},{"geonameid":3170694,"name":"Pinerolo","admin3":"001191","localeAltName":null},{"geonameid":6534250,"name":"Pino Torinese","admin3":"001192","localeAltName":null},{"geonameid":6535413,"name":"Piobesi Torinese","admin3":"001193","localeAltName":null},{"geonameid":3170659,"name":"Piossasco","admin3":"001194","localeAltName":null},{"geonameid":6535414,"name":"Piscina","admin3":"001195","localeAltName":null},{"geonameid":6535415,"name":"Piverone","admin3":"001196","localeAltName":null},{"geonameid":3170408,"name":"Poirino","admin3":"001197","localeAltName":null},{"geonameid":3170351,"name":"Pomaretto","admin3":"001198","localeAltName":null},{"geonameid":8948977,"name":"Pomaretto","admin3":"001069","localeAltName":null},{"geonameid":3170316,"name":"Pont-Canavese","admin3":"001199","localeAltName":null},{"geonameid":8949644,"name":"Pontepietra","admin3":"001115","localeAltName":null},{"geonameid":6535416,"name":"Porte","admin3":"001200","localeAltName":null},{"geonameid":3169951,"name":"Pralormo","admin3":"001203","localeAltName":null},{"geonameid":6534310,"name":"Prarostino","admin3":"001205","localeAltName":null},{"geonameid":3169668,"name":"Quincinetto","admin3":"001210","localeAltName":null},{"geonameid":3169543,"name":"Reano","admin3":"001211","localeAltName":null},{"geonameid":3169460,"name":"Revigliasco","admin3":"001156","localeAltName":null},{"geonameid":8949148,"name":"Riva","admin3":"001191","localeAltName":null},{"geonameid":3169256,"name":"Riva Presso Chieri","admin3":"001215","localeAltName":null},{"geonameid":3169262,"name":"Rivalta di Torino","admin3":"001214","localeAltName":null},{"geonameid":3169255,"name":"Rivara","admin3":"001216","localeAltName":null},{"geonameid":3169253,"name":"Rivarolo Canavese","admin3":"001217","localeAltName":null},{"geonameid":6535417,"name":"Rivarossa","admin3":"001218","localeAltName":null},{"geonameid":3169231,"name":"Rivoli","admin3":"001219","localeAltName":null},{"geonameid":3169215,"name":"Robassomero","admin3":"001220","localeAltName":null},{"geonameid":3169198,"name":"Rocca Canavese","admin3":"001221","localeAltName":null},{"geonameid":3169099,"name":"Rodallo","admin3":"001047","localeAltName":null},{"geonameid":6535418,"name":"Roletto","admin3":"001222","localeAltName":null},{"geonameid":3169057,"name":"Romano Canavese","admin3":"001223","localeAltName":null},{"geonameid":3168983,"name":"Rondissone","admin3":"001225","localeAltName":null},{"geonameid":6535420,"name":"Rosta","admin3":"001228","localeAltName":null},{"geonameid":6534318,"name":"Roure","admin3":"001227","localeAltName":null},{"geonameid":3168823,"name":"Rubiana","admin3":"001229","localeAltName":null},{"geonameid":6535421,"name":"Rueglio","admin3":"001230","localeAltName":null},{"geonameid":3168689,"name":"Salassa","admin3":"001231","localeAltName":null},{"geonameid":3168580,"name":"Samone","admin3":"001235","localeAltName":null},{"geonameid":3168544,"name":"San Benigno Canavese","admin3":"001236","localeAltName":null},{"geonameid":8949788,"name":"San Bernardino","admin3":"001276","localeAltName":null},{"geonameid":6535422,"name":"San Carlo Canavese","admin3":"001237","localeAltName":null},{"geonameid":6535279,"name":"San Didero","admin3":"001239","localeAltName":null},{"geonameid":3168362,"name":"San Francesco al Campo","admin3":"001240","localeAltName":null},{"geonameid":6535280,"name":"San Germano Chisone","admin3":"001242","localeAltName":null},{"geonameid":3168321,"name":"San Gillio","admin3":"001243","localeAltName":null},{"geonameid":3168307,"name":"San Giorgio Canavese","admin3":"001244","localeAltName":null},{"geonameid":3168288,"name":"San Giorio","admin3":"001245","localeAltName":null},{"geonameid":3168201,"name":"San Giusto Canavese","admin3":"001246","localeAltName":null},{"geonameid":3167990,"name":"San Maurizio","admin3":"001248","localeAltName":null},{"geonameid":3167978,"name":"San Mauro Torinese","admin3":"001249","localeAltName":null},{"geonameid":8949432,"name":"San Michele e Grato","admin3":"001059","localeAltName":null},{"geonameid":8949588,"name":"San Pietro","admin3":"001183","localeAltName":null},{"geonameid":6535816,"name":"San Pietro Val Lemina","admin3":"001250","localeAltName":null},{"geonameid":6534320,"name":"San Raffaele Cimena","admin3":"001252","localeAltName":null},{"geonameid":6535817,"name":"San Sebastiano da Po","admin3":"001253","localeAltName":null},{"geonameid":6535818,"name":"San Secondo di Pinerolo","admin3":"001254","localeAltName":null},{"geonameid":3168350,"name":"Sangano","admin3":"001241","localeAltName":null},{"geonameid":3167514,"name":"Sant'Ambrogio di Torino","admin3":"001255","localeAltName":null},{"geonameid":3167390,"name":"Sant'Antonino di Susa","admin3":"001256","localeAltName":null},{"geonameid":6534258,"name":"Santena","admin3":"001257","localeAltName":null},{"geonameid":3167045,"name":"Sauze d'Oulx","admin3":"001259","localeAltName":null},{"geonameid":8949024,"name":"Savonera","admin3":"001090","localeAltName":null},{"geonameid":3167000,"name":"Scalenghe","admin3":"001260","localeAltName":null},{"geonameid":3166596,"name":"Sestriere","admin3":"001263","localeAltName":null},{"geonameid":3166576,"name":"Settimo Torinese","admin3":"001265","localeAltName":null},{"geonameid":3166575,"name":"Settimo Vittone","admin3":"001266","localeAltName":null},{"geonameid":3166297,"name":"Sparone","admin3":"001267","localeAltName":null},{"geonameid":3166110,"name":"Strambino","admin3":"001269","localeAltName":null},{"geonameid":3166018,"name":"Susa","admin3":"001270","localeAltName":null},{"geonameid":8948967,"name":"Tagliaferro","admin3":"001156","localeAltName":null},{"geonameid":3165895,"name":"Tavagnasco","admin3":"001271","localeAltName":null},{"geonameid":8949203,"name":"Tetti Neirotti","admin3":"001219","localeAltName":null},{"geonameid":8948988,"name":"Tonengo-Casale","admin3":"001148","localeAltName":null},{"geonameid":6535819,"name":"Torrazza Piemonte","admin3":"001273","localeAltName":null},{"geonameid":6535820,"name":"Torre Canavese","admin3":"001274","localeAltName":null},{"geonameid":3165427,"name":"Torre Pellice","admin3":"001275","localeAltName":null},{"geonameid":3165323,"name":"Trana","admin3":"001276","localeAltName":null},{"geonameid":6534321,"name":"Traves","admin3":"001279","localeAltName":null},{"geonameid":3165142,"name":"Trofarello","admin3":"001280","localeAltName":null},{"geonameid":8950121,"name":"Tuninetti","admin3":"001059","localeAltName":null},{"geonameid":3165524,"name":"Turin","admin3":"001272","localeAltName":null},{"geonameid":6535822,"name":"Vaie","admin3":"001283","localeAltName":null},{"geonameid":6534322,"name":"Val della Torre","admin3":"001284","localeAltName":null},{"geonameid":3164909,"name":"Valgioie","admin3":"001285","localeAltName":null},{"geonameid":3164796,"name":"Vallo","admin3":"001047","localeAltName":null},{"geonameid":6535426,"name":"Vallo Torinese","admin3":"001286","localeAltName":null},{"geonameid":3164768,"name":"Valperga","admin3":"001287","localeAltName":null},{"geonameid":6535823,"name":"Varisella","admin3":"001289","localeAltName":null},{"geonameid":9036143,"name":"Vauda Canavese Superiore","admin3":"001290","localeAltName":null},{"geonameid":3164617,"name":"Venaria Reale","admin3":"001292","localeAltName":null},{"geonameid":3164620,"name":"Venaus","admin3":"001291","localeAltName":null},{"geonameid":3164529,"name":"Verolengo","admin3":"001293","localeAltName":null},{"geonameid":6534335,"name":"Verrua Savoia","admin3":"001294","localeAltName":null},{"geonameid":3164483,"name":"Vestignè","admin3":"001295","localeAltName":null},{"geonameid":3164321,"name":"Vigone","admin3":"001299","localeAltName":null},{"geonameid":3164239,"name":"Villafranca Piemonte","admin3":"001300","localeAltName":null},{"geonameid":6535427,"name":"Villanova Canavese","admin3":"001301","localeAltName":null},{"geonameid":6535827,"name":"Villar Dora","admin3":"001303","localeAltName":null},{"geonameid":3164154,"name":"Villar Focchiardo","admin3":"001305","localeAltName":null},{"geonameid":3164146,"name":"Villar Pellice","admin3":"001306","localeAltName":null},{"geonameid":3164145,"name":"Villar Perosa","admin3":"001307","localeAltName":null},{"geonameid":6535826,"name":"Villarbasse","admin3":"001302","localeAltName":null},{"geonameid":3164158,"name":"Villareggia","admin3":"001304","localeAltName":null},{"geonameid":3164128,"name":"Villastellone","admin3":"001308","localeAltName":null},{"geonameid":6534259,"name":"Vinovo","admin3":"001309","localeAltName":null},{"geonameid":8949969,"name":"Viotto","admin3":"001260","localeAltName":null},{"geonameid":3164062,"name":"Virle Piemonte","admin3":"001310","localeAltName":null},{"geonameid":6535428,"name":"Vische","admin3":"001311","localeAltName":null},{"geonameid":3163974,"name":"Volpiano","admin3":"001314","localeAltName":null},{"geonameid":3163950,"name":"Volvera","admin3":"001315","localeAltName":null}],"admin3":[{"geonameid":3164058,"name":"Vische","admin3":"001311","localeAltName":null},{"geonameid":3164070,"name":"Vinovo","admin3":"001309","localeAltName":null},{"geonameid":3165525,"name":"Torino","admin3":"001272","localeAltName":null},{"geonameid":3169953,"name":"Prali","admin3":"001202"},{"geonameid":3169958,"name":"Pragelato","admin3":"001201"},{"geonameid":3175385,"name":"Ivrea","admin3":"001125","localeAltName":null},{"geonameid":3181282,"name":"Cafasse","admin3":"001046","localeAltName":null},{"geonameid":6535988,"name":"Campiglione Fenile","admin3":"001049","localeAltName":null},{"geonameid":6536030,"name":"Pont-Canavese","admin3":"001199","localeAltName":null},{"geonameid":6536032,"name":"Canischio","admin3":"001052"},{"geonameid":6536036,"name":"Leini","admin3":"001130","localeAltName":null},{"geonameid":6536045,"name":"San Maurizio Canavese","admin3":"001248","localeAltName":null},{"geonameid":6536051,"name":"Villar Focchiardo","admin3":"001305","localeAltName":null},{"geonameid":6537004,"name":"Agliè","admin3":"001001","localeAltName":null},{"geonameid":6537005,"name":"Airasca","admin3":"001002","localeAltName":null},{"geonameid":6537006,"name":"Ala di Stura","admin3":"001003"},{"geonameid":6537007,"name":"Alpette","admin3":"001007"},{"geonameid":6537008,"name":"Andrate","admin3":"001010"},{"geonameid":6537009,"name":"Azeglio","admin3":"001014","localeAltName":null},{"geonameid":6537010,"name":"Balangero","admin3":"001016","localeAltName":null},{"geonameid":6537011,"name":"Baldissero Torinese","admin3":"001018","localeAltName":null},{"geonameid":6537016,"name":"Alpignano","admin3":"001008","localeAltName":null},{"geonameid":6537017,"name":"Andezeno","admin3":"001009","localeAltName":null},{"geonameid":6537018,"name":"Arignano","admin3":"001012","localeAltName":null},{"geonameid":6537019,"name":"Balme","admin3":"001019"},{"geonameid":6537258,"name":"Bricherasio","admin3":"001035","localeAltName":null},{"geonameid":6537259,"name":"Brosso","admin3":"001036"},{"geonameid":6537260,"name":"Buriasco","admin3":"001041","localeAltName":null},{"geonameid":6537261,"name":"Burolo","admin3":"001042","localeAltName":null},{"geonameid":6537262,"name":"Busano","admin3":"001043","localeAltName":null},{"geonameid":6537263,"name":"Buttigliera Alta","admin3":"001045","localeAltName":null},{"geonameid":6537264,"name":"Caprie","admin3":"001055","localeAltName":null},{"geonameid":6537265,"name":"Carmagnola","admin3":"001059","localeAltName":null},{"geonameid":6537266,"name":"Castagneto Po","admin3":"001064","localeAltName":null},{"geonameid":6537267,"name":"Ceres","admin3":"001072"},{"geonameid":6537268,"name":"Cesana Torinese","admin3":"001074","localeAltName":null},{"geonameid":6537269,"name":"Cinzano","admin3":"001085"},{"geonameid":6537270,"name":"Claviere","admin3":"001087"},{"geonameid":6537271,"name":"Condove","admin3":"001093","localeAltName":null},{"geonameid":6537272,"name":"Corio","admin3":"001094","localeAltName":null},{"geonameid":6537273,"name":"Cumiana","admin3":"001097","localeAltName":null},{"geonameid":6537274,"name":"Forno Canavese","admin3":"001107","localeAltName":null},{"geonameid":6537275,"name":"Gassino Torinese","admin3":"001112","localeAltName":null},{"geonameid":6537276,"name":"Grugliasco","admin3":"001120","localeAltName":null},{"geonameid":6537277,"name":"Ingria","admin3":"001121"},{"geonameid":6537278,"name":"La Loggia","admin3":"001127","localeAltName":null},{"geonameid":6537279,"name":"Lessolo","admin3":"001132","localeAltName":null},{"geonameid":6537280,"name":"Poirino","admin3":"001197","localeAltName":null},{"geonameid":6537281,"name":"Pralormo","admin3":"001203","localeAltName":null},{"geonameid":6537282,"name":"Prascorsano","admin3":"001206"},{"geonameid":6537283,"name":"Reano","admin3":"001211","localeAltName":null},{"geonameid":6537284,"name":"Robassomero","admin3":"001220","localeAltName":null},{"geonameid":6537285,"name":"Rubiana","admin3":"001229","localeAltName":null},{"geonameid":6537286,"name":"Salbertrand","admin3":"001232"},{"geonameid":6537287,"name":"Sangano","admin3":"001241","localeAltName":null},{"geonameid":6538037,"name":"Barbania","admin3":"001021","localeAltName":null},{"geonameid":6538038,"name":"Beinasco","admin3":"001024","localeAltName":null},{"geonameid":6538039,"name":"Bobbio Pellice","admin3":"001026"},{"geonameid":6538040,"name":"Bollengo","admin3":"001027","localeAltName":null},{"geonameid":6538041,"name":"Borgaro Torinese","admin3":"001028","localeAltName":null},{"geonameid":6538042,"name":"Borgiallo","admin3":"001029"},{"geonameid":6538043,"name":"Bussoleno","admin3":"001044","localeAltName":null},{"geonameid":6538044,"name":"Cambiano","admin3":"001048","localeAltName":null},{"geonameid":6538045,"name":"Candia Canavese","admin3":"001050","localeAltName":null},{"geonameid":6538046,"name":"Caravino","admin3":"001056","localeAltName":null},{"geonameid":6538047,"name":"Carema","admin3":"001057","localeAltName":null},{"geonameid":6538048,"name":"Caselette","admin3":"001062","localeAltName":null},{"geonameid":6538049,"name":"Castellamonte","admin3":"001066","localeAltName":null},{"geonameid":6538050,"name":"Chialamberto","admin3":"001075"},{"geonameid":6538051,"name":"Chiomonte","admin3":"001080","localeAltName":null},{"geonameid":6538052,"name":"Chivasso","admin3":"001082","localeAltName":null},{"geonameid":6538053,"name":"Collegno","admin3":"001090","localeAltName":null},{"geonameid":6538054,"name":"Cuceglio","admin3":"001096","localeAltName":null},{"geonameid":6538055,"name":"Cuorgnè","admin3":"001098","localeAltName":null},{"geonameid":6538056,"name":"Druento","admin3":"001099","localeAltName":null},{"geonameid":6538057,"name":"Exilles","admin3":"001100"},{"geonameid":6538058,"name":"Favria","admin3":"001101","localeAltName":null},{"geonameid":6538059,"name":"Fenestrelle","admin3":"001103"},{"geonameid":6538060,"name":"Foglizzo","admin3":"001106","localeAltName":null},{"geonameid":6538061,"name":"Front","admin3":"001109","localeAltName":null},{"geonameid":6538062,"name":"Lemie","admin3":"001131"},{"geonameid":6538063,"name":"Mazzè","admin3":"001148","localeAltName":null},{"geonameid":6538064,"name":"Moncalieri","admin3":"001156","localeAltName":null},{"geonameid":6538066,"name":"Montalenghe","admin3":"001159","localeAltName":null},{"geonameid":6538067,"name":"Monteu da Po","admin3":"001162","localeAltName":null},{"geonameid":6538068,"name":"Noasca","admin3":"001165"},{"geonameid":6538069,"name":"Nomaglio","admin3":"001167"},{"geonameid":6538070,"name":"Novalesa","admin3":"001169"},{"geonameid":6538071,"name":"Orio Canavese","admin3":"001172","localeAltName":null},{"geonameid":6538072,"name":"Pancalieri","admin3":"001178","localeAltName":null},{"geonameid":6538073,"name":"Piossasco","admin3":"001194","localeAltName":null},{"geonameid":6538074,"name":"Quassolo","admin3":"001209"},{"geonameid":6538075,"name":"Quincinetto","admin3":"001210","localeAltName":null},{"geonameid":6538076,"name":"Rivalba","admin3":"001213"},{"geonameid":6538077,"name":"Rivalta di Torino","admin3":"001214","localeAltName":null},{"geonameid":6538078,"name":"Riva presso Chieri","admin3":"001215","localeAltName":null},{"geonameid":6538079,"name":"Romano Canavese","admin3":"001223","localeAltName":null},{"geonameid":6538080,"name":"Rondissone","admin3":"001225","localeAltName":null},{"geonameid":6538081,"name":"San Giorgio Canavese","admin3":"001244","localeAltName":null},{"geonameid":6538082,"name":"San Giusto Canavese","admin3":"001246","localeAltName":null},{"geonameid":6538083,"name":"Sant'Ambrogio di Torino","admin3":"001255","localeAltName":null},{"geonameid":6538084,"name":"Sciolze","admin3":"001262"},{"geonameid":6538085,"name":"Strambino","admin3":"001269","localeAltName":null},{"geonameid":6538086,"name":"Trana","admin3":"001276","localeAltName":null},{"geonameid":6538087,"name":"Traversella","admin3":"001278"},{"geonameid":6538088,"name":"Trofarello","admin3":"001280","localeAltName":null},{"geonameid":6538089,"name":"Usseglio","admin3":"001282"},{"geonameid":6538090,"name":"Valperga","admin3":"001287","localeAltName":null},{"geonameid":6538091,"name":"Verolengo","admin3":"001293","localeAltName":null},{"geonameid":6538093,"name":"Vigone","admin3":"001299","localeAltName":null},{"geonameid":6538094,"name":"Villareggia","admin3":"001304","localeAltName":null},{"geonameid":6538095,"name":"Villastellone","admin3":"001308","localeAltName":null},{"geonameid":6539513,"name":"Bardonecchia","admin3":"001022","localeAltName":null},{"geonameid":6539514,"name":"Groscavallo","admin3":"001118"},{"geonameid":6539515,"name":"Borgomasino","admin3":"001031","localeAltName":null},{"geonameid":6539516,"name":"Bosconero","admin3":"001033","localeAltName":null},{"geonameid":6539517,"name":"Locana","admin3":"001134","localeAltName":null},{"geonameid":6539518,"name":"Lombardore","admin3":"001135","localeAltName":null},{"geonameid":6539519,"name":"Mathi","admin3":"001146","localeAltName":null},{"geonameid":6539520,"name":"None","admin3":"001168","localeAltName":null},{"geonameid":6539521,"name":"Pavarolo","admin3":"001180","localeAltName":null},{"geonameid":6539522,"name":"San Martino Canavese","admin3":"001247"},{"geonameid":6539523,"name":"San Ponso","admin3":"001251"},{"geonameid":6539524,"name":"Scarmagno","admin3":"001261"},{"geonameid":6539525,"name":"Settimo Vittone","admin3":"001266","localeAltName":null},{"geonameid":6539526,"name":"Sparone","admin3":"001267","localeAltName":null},{"geonameid":6539527,"name":"Torre Pellice","admin3":"001275","localeAltName":null},{"geonameid":6539528,"name":"Valprato Soana","admin3":"001288"},{"geonameid":6539529,"name":"Vestignè","admin3":"001295","localeAltName":null},{"geonameid":6539530,"name":"Villar Pellice","admin3":"001306","localeAltName":null},{"geonameid":6539531,"name":"Virle Piemonte","admin3":"001310","localeAltName":null},{"geonameid":6539532,"name":"Viù","admin3":"001313"},{"geonameid":6539533,"name":"Volpiano","admin3":"001314","localeAltName":null},{"geonameid":6539585,"name":"Ozegna","admin3":"001176","localeAltName":null},{"geonameid":6539800,"name":"Chieri","admin3":"001078","localeAltName":null},{"geonameid":6539801,"name":"Feletto","admin3":"001102","localeAltName":null},{"geonameid":6539802,"name":"Frassinetto","admin3":"001108"},{"geonameid":6539803,"name":"Pianezza","admin3":"001189","localeAltName":null},{"geonameid":6539804,"name":"Samone","admin3":"001235","localeAltName":null},{"geonameid":6539897,"name":"Cavour","admin3":"001070","localeAltName":null},{"geonameid":6539898,"name":"Coazze","admin3":"001089","localeAltName":null},{"geonameid":6539899,"name":"Fiano","admin3":"001104","localeAltName":null},{"geonameid":6539900,"name":"Montanaro","admin3":"001161","localeAltName":null},{"geonameid":6539901,"name":"Parella","admin3":"001179"},{"geonameid":6539902,"name":"Rivoli","admin3":"001219","localeAltName":null},{"geonameid":6540100,"name":"Oulx","admin3":"001175","localeAltName":null},{"geonameid":6540101,"name":"Susa","admin3":"001270","localeAltName":null},{"geonameid":6540132,"name":"Massello","admin3":"001145"},{"geonameid":6540137,"name":"Sestriere","admin3":"001263","localeAltName":null},{"geonameid":6540542,"name":"Almese","admin3":"001006","localeAltName":null},{"geonameid":6540544,"name":"Avigliana","admin3":"001013","localeAltName":null},{"geonameid":6540657,"name":"Brandizzo","admin3":"001034","localeAltName":null},{"geonameid":6540658,"name":"Caluso","admin3":"001047","localeAltName":null},{"geonameid":6540659,"name":"Carignano","admin3":"001058","localeAltName":null},{"geonameid":6540660,"name":"Caselle Torinese","admin3":"001063","localeAltName":null},{"geonameid":6540661,"name":"Ceresole Reale","admin3":"001073"},{"geonameid":6540662,"name":"Pinerolo","admin3":"001191","localeAltName":null},{"geonameid":6540663,"name":"Rocca Canavese","admin3":"001221","localeAltName":null},{"geonameid":6540664,"name":"Salassa","admin3":"001231","localeAltName":null},{"geonameid":6540665,"name":"San Gillio","admin3":"001243","localeAltName":null},{"geonameid":6540907,"name":"Candiolo","admin3":"001051","localeAltName":null},{"geonameid":6540908,"name":"Cantoira","admin3":"001054","localeAltName":null},{"geonameid":6540909,"name":"Castelnuovo Nigra","admin3":"001067"},{"geonameid":6540910,"name":"Cintano","admin3":"001084"},{"geonameid":6540911,"name":"Lanzo Torinese","admin3":"001128","localeAltName":null},{"geonameid":6540912,"name":"Lauriano","admin3":"001129","localeAltName":null},{"geonameid":6540913,"name":"Loranzè","admin3":"001137","localeAltName":null},{"geonameid":6540914,"name":"Mercenasco","admin3":"001150","localeAltName":null},{"geonameid":6540915,"name":"Nichelino","admin3":"001164","localeAltName":null},{"geonameid":6540916,"name":"Oglianico","admin3":"001170","localeAltName":null},{"geonameid":6540917,"name":"Palazzo Canavese","admin3":"001177","localeAltName":null},{"geonameid":6540918,"name":"Pessinetto","admin3":"001188"},{"geonameid":6540919,"name":"Rivara","admin3":"001216","localeAltName":null},{"geonameid":6540920,"name":"Ronco Canavese","admin3":"001224"},{"geonameid":6540921,"name":"San Francesco al Campo","admin3":"001240","localeAltName":null},{"geonameid":6540922,"name":"Settimo Rottaro","admin3":"001264"},{"geonameid":6540923,"name":"Settimo Torinese","admin3":"001265","localeAltName":null},{"geonameid":6540924,"name":"Tavagnasco","admin3":"001271","localeAltName":null},{"geonameid":6540925,"name":"Venaus","admin3":"001291","localeAltName":null},{"geonameid":6540926,"name":"Vistrorio","admin3":"001312"},{"geonameid":6540927,"name":"Volvera","admin3":"001315","localeAltName":null},{"geonameid":6541431,"name":"Borgone Susa","admin3":"001032","localeAltName":null},{"geonameid":6541432,"name":"Montalto Dora","admin3":"001160","localeAltName":null},{"geonameid":6541433,"name":"Nole","admin3":"001166","localeAltName":null},{"geonameid":6541434,"name":"Pavone Canavese","admin3":"001181","localeAltName":null},{"geonameid":6541435,"name":"San Mauro Torinese","admin3":"001249","localeAltName":null},{"geonameid":6541436,"name":"Sant'Antonino di Susa","admin3":"001256","localeAltName":null},{"geonameid":6541437,"name":"Sauze di Cesana","admin3":"001258"},{"geonameid":6541438,"name":"Sauze d'Oulx","admin3":"001259","localeAltName":null},{"geonameid":6541439,"name":"Scalenghe","admin3":"001260","localeAltName":null},{"geonameid":6541440,"name":"Valgioie","admin3":"001285","localeAltName":null},{"geonameid":6541441,"name":"Venaria Reale","admin3":"001292","localeAltName":null},{"geonameid":6541480,"name":"Luserna San Giovanni","admin3":"001139","localeAltName":null},{"geonameid":6541621,"name":"Albiano d'Ivrea","admin3":"001004","localeAltName":null},{"geonameid":6541720,"name":"Germagnano","admin3":"001113","localeAltName":null},{"geonameid":6541721,"name":"Perosa Argentina","admin3":"001184","localeAltName":null},{"geonameid":6541722,"name":"Perrero","admin3":"001186"},{"geonameid":6541791,"name":"Borgofranco d'Ivrea","admin3":"001030","localeAltName":null},{"geonameid":6541792,"name":"Bruino","admin3":"001038","localeAltName":null},{"geonameid":6541793,"name":"Casalborgone","admin3":"001060","localeAltName":null},{"geonameid":6541794,"name":"Giaveno","admin3":"001115","localeAltName":null},{"geonameid":6541795,"name":"Quagliuzzo","admin3":"001208"},{"geonameid":6541796,"name":"Rivarolo Canavese","admin3":"001217","localeAltName":null},{"geonameid":6541797,"name":"San Benigno Canavese","admin3":"001236","localeAltName":null},{"geonameid":6541798,"name":"Villar Perosa","admin3":"001307","localeAltName":null},{"geonameid":6541995,"name":"Orbassano","admin3":"001171","localeAltName":null},{"geonameid":6542074,"name":"Pomaretto","admin3":"001198","localeAltName":null},{"geonameid":6542075,"name":"Villafranca Piemonte","admin3":"001300","localeAltName":null},{"geonameid":6542143,"name":"Ciriè","admin3":"001086","localeAltName":null},{"geonameid":6542156,"name":"Pecetto Torinese","admin3":"001183","localeAltName":null},{"geonameid":6542158,"name":"San Giorio di Susa","admin3":"001245","localeAltName":null},{"geonameid":6542222,"name":"Brusasco","admin3":"001039","localeAltName":null},{"geonameid":6542223,"name":"Cascinette d'Ivrea","admin3":"001061","localeAltName":null},{"geonameid":6542241,"name":"Moriondo Torinese","admin3":"001163"},{"geonameid":6542324,"name":"Pino Torinese","admin3":"001192","localeAltName":null},{"geonameid":6542332,"name":"Santena","admin3":"001257","localeAltName":null},{"geonameid":6542358,"name":"Brozolo","admin3":"001037"},{"geonameid":6542366,"name":"Coassolo Torinese","admin3":"001088","localeAltName":null},{"geonameid":6542367,"name":"Inverso Pinasca","admin3":"001122","localeAltName":null},{"geonameid":6542377,"name":"Mompantero","admin3":"001154","localeAltName":null},{"geonameid":6542378,"name":"Pinasca","admin3":"001190","localeAltName":null},{"geonameid":6542379,"name":"Pramollo","admin3":"001204"},{"geonameid":6542380,"name":"Prarostino","admin3":"001205","localeAltName":null},{"geonameid":6542388,"name":"Roure","admin3":"001227","localeAltName":null},{"geonameid":6542389,"name":"Salza di Pinerolo","admin3":"001234"},{"geonameid":6542390,"name":"San Raffaele Cimena","admin3":"001252","localeAltName":null},{"geonameid":6542391,"name":"Traves","admin3":"001279","localeAltName":null},{"geonameid":6542392,"name":"Val della Torre","admin3":"001284","localeAltName":null},{"geonameid":6542404,"name":"Vauda Canavese","admin3":"001290","localeAltName":null},{"geonameid":6542405,"name":"Verrua Savoia","admin3":"001294","localeAltName":null},{"geonameid":6543039,"name":"Bairo","admin3":"001015","localeAltName":null},{"geonameid":6543040,"name":"Baldissero Canavese","admin3":"001017"},{"geonameid":6543041,"name":"Angrogna","admin3":"001011"},{"geonameid":6543250,"name":"Cantalupa","admin3":"001053","localeAltName":null},{"geonameid":6543251,"name":"Cercenasco","admin3":"001071","localeAltName":null},{"geonameid":6543252,"name":"Chiesanuova","admin3":"001079"},{"geonameid":6543253,"name":"Chiusa di San Michele","admin3":"001081","localeAltName":null},{"geonameid":6543254,"name":"Ciconio","admin3":"001083"},{"geonameid":6543255,"name":"Colleretto Castelnuovo","admin3":"001091"},{"geonameid":6543256,"name":"Colleretto Giacosa","admin3":"001092","localeAltName":null},{"geonameid":6543257,"name":"Cossano Canavese","admin3":"001095"},{"geonameid":6543258,"name":"Fiorano Canavese","admin3":"001105","localeAltName":null},{"geonameid":6543259,"name":"Givoletto","admin3":"001116","localeAltName":null},{"geonameid":6543260,"name":"Grosso","admin3":"001119","localeAltName":null},{"geonameid":6543261,"name":"Pratiglione","admin3":"001207"},{"geonameid":6543262,"name":"Ribordone","admin3":"001212"},{"geonameid":6543263,"name":"Salerano Canavese","admin3":"001233"},{"geonameid":6543264,"name":"San Didero","admin3":"001239","localeAltName":null},{"geonameid":6543265,"name":"San Germano Chisone","admin3":"001242","localeAltName":null},{"geonameid":6543369,"name":"Bibiana","admin3":"001025","localeAltName":null},{"geonameid":6543370,"name":"Bruzolo","admin3":"001040","localeAltName":null},{"geonameid":6543371,"name":"Castagnole Piemonte","admin3":"001065","localeAltName":null},{"geonameid":6543372,"name":"Castiglione Torinese","admin3":"001068","localeAltName":null},{"geonameid":6543373,"name":"Chianocco","admin3":"001076","localeAltName":null},{"geonameid":6543374,"name":"Chiaverano","admin3":"001077","localeAltName":null},{"geonameid":6543375,"name":"Frossasco","admin3":"001110","localeAltName":null},{"geonameid":6543376,"name":"Garzigliana","admin3":"001111"},{"geonameid":6543377,"name":"Giaglione","admin3":"001114","localeAltName":null},{"geonameid":6543378,"name":"Gravere","admin3":"001117","localeAltName":null},{"geonameid":6543379,"name":"Isolabella","admin3":"001123"},{"geonameid":6543380,"name":"Issiglio","admin3":"001124"},{"geonameid":6543381,"name":"La Cassa","admin3":"001126","localeAltName":null},{"geonameid":6543382,"name":"Levone","admin3":"001133"},{"geonameid":6543384,"name":"Lusigliè","admin3":"001141","localeAltName":null},{"geonameid":6543385,"name":"Macello","admin3":"001142","localeAltName":null},{"geonameid":6543386,"name":"Mattie","admin3":"001147","localeAltName":null},{"geonameid":6543388,"name":"Mombello di Torino","admin3":"001153"},{"geonameid":6543389,"name":"Monastero di Lanzo","admin3":"001155"},{"geonameid":6543390,"name":"Moncenisio","admin3":"001157"},{"geonameid":6543391,"name":"Montaldo Torinese","admin3":"001158"},{"geonameid":6543393,"name":"Perosa Canavese","admin3":"001185"},{"geonameid":6543394,"name":"Pertusio","admin3":"001187","localeAltName":null},{"geonameid":6543395,"name":"Piobesi Torinese","admin3":"001193","localeAltName":null},{"geonameid":6543396,"name":"Piscina","admin3":"001195","localeAltName":null},{"geonameid":6543397,"name":"Piverone","admin3":"001196","localeAltName":null},{"geonameid":6543398,"name":"Porte","admin3":"001200","localeAltName":null},{"geonameid":6543399,"name":"Rivarossa","admin3":"001218","localeAltName":null},{"geonameid":6543400,"name":"Roletto","admin3":"001222","localeAltName":null},{"geonameid":6543401,"name":"Rorà","admin3":"001226"},{"geonameid":6543402,"name":"Rosta","admin3":"001228","localeAltName":null},{"geonameid":6543403,"name":"Rueglio","admin3":"001230","localeAltName":null},{"geonameid":6543404,"name":"San Carlo Canavese","admin3":"001237","localeAltName":null},{"geonameid":6543405,"name":"San Colombano Belmonte","admin3":"001238"},{"geonameid":6543406,"name":"Strambinello","admin3":"001268"},{"geonameid":6543407,"name":"Usseaux","admin3":"001281"},{"geonameid":6543408,"name":"Vallo Torinese","admin3":"001286","localeAltName":null},{"geonameid":6543409,"name":"Villanova Canavese","admin3":"001301","localeAltName":null},{"geonameid":6543777,"name":"Banchette","admin3":"001020","localeAltName":null},{"geonameid":6543778,"name":"Barone Canavese","admin3":"001023","localeAltName":null},{"geonameid":6543779,"name":"Lombriasco","admin3":"001136","localeAltName":null},{"geonameid":6543780,"name":"Lusernetta","admin3":"001140"},{"geonameid":6543781,"name":"Maglione","admin3":"001143"},{"geonameid":6543782,"name":"Marentino","admin3":"001144","localeAltName":null},{"geonameid":6543783,"name":"Meana di Susa","admin3":"001149","localeAltName":null},{"geonameid":6543784,"name":"Mezzenile","admin3":"001152","localeAltName":null},{"geonameid":6543785,"name":"Osasco","admin3":"001173","localeAltName":null},{"geonameid":6543786,"name":"Osasio","admin3":"001174","localeAltName":null},{"geonameid":6543787,"name":"San Pietro Val Lemina","admin3":"001250","localeAltName":null},{"geonameid":6543788,"name":"San Sebastiano da Po","admin3":"001253","localeAltName":null},{"geonameid":6543789,"name":"San Secondo di Pinerolo","admin3":"001254","localeAltName":null},{"geonameid":6543790,"name":"Torrazza Piemonte","admin3":"001273","localeAltName":null},{"geonameid":6543791,"name":"Torre Canavese","admin3":"001274","localeAltName":null},{"geonameid":6543793,"name":"Vaie","admin3":"001283","localeAltName":null},{"geonameid":6543794,"name":"Varisella","admin3":"001289","localeAltName":null},{"geonameid":6543795,"name":"Vialfrè","admin3":"001296"},{"geonameid":6543796,"name":"Vidracco","admin3":"001298"},{"geonameid":6543797,"name":"Villarbasse","admin3":"001302","localeAltName":null},{"geonameid":6543798,"name":"Villar Dora","admin3":"001303","localeAltName":null},{"geonameid":6543838,"name":"Cavagnolo","admin3":"001069","localeAltName":null},{"geonameid":11670254,"name":"Mappano","admin3":"001316","localeAltName":null},{"geonameid":12032175,"name":"Val di Chy","admin3":"001317"},{"geonameid":12032200,"name":"Valchiusa","admin3":"001318"}],"alternateNames":[{"alternatenameId":1347539,"geonameid":3165523,"isoLanguage":"it","alternateName":"Torino","isPreferredName":true,"isShortName":true,"isColloquial":false,"isHistoric":false},{"alternatenameId":2431323,"geonameid":3165523,"isoLanguage":"de","alternateName":"Turin","isPreferredName":true,"isShortName":true,"isColloquial":false,"isHistoric":false}]},"__N_SSG":true}