{"pageProps":{"locale":"en","admin2":{"geonameid":4848237,"name":"Benton County","country":"US","admin1":"IA","admin2":"011","admin3":"","latitude":"42.0801900","longitude":"-92.0656900","localeAltName":null},"admin1":{"geonameid":4862182,"name":"Iowa","admin1":"IA","localeAltName":"Iowa"},"locations":[{"geonameid":4847375,"name":"Atkins","admin3":"91455","localeAltName":null},{"geonameid":4848106,"name":"Belle Plaine","admin3":"90178","localeAltName":null},{"geonameid":4848774,"name":"Blairstown","admin3":"92421","localeAltName":null},{"geonameid":4863425,"name":"Keystone","admin3":"92289","localeAltName":null},{"geonameid":4868882,"name":"Newhall","admin3":"91161","localeAltName":null},{"geonameid":4869401,"name":"Norway","admin3":"91350","localeAltName":null},{"geonameid":4876179,"name":"Shellsburg","admin3":"93838","localeAltName":null},{"geonameid":4879881,"name":"Urbana","admin3":"93438","localeAltName":null},{"geonameid":4880024,"name":"Van Horne","admin3":"94170","localeAltName":null},{"geonameid":4880268,"name":"Vinton","admin3":"94360","localeAltName":null},{"geonameid":4880442,"name":"Walford","admin3":"91350","localeAltName":null}],"admin3":[{"geonameid":4848117,"name":"City of Belle Plaine","admin3":"90178","localeAltName":null},{"geonameid":4848248,"name":"Township of Benton","admin3":"90201"},{"geonameid":4848578,"name":"Township of Big Grove","admin3":"90237"},{"geonameid":4849532,"name":"Township of Bruce","admin3":"90363"},{"geonameid":4850351,"name":"Township of Canton","admin3":"90465"},{"geonameid":4850815,"name":"Township of Cedar","admin3":"90522"},{"geonameid":4855092,"name":"Township of Eden","admin3":"91131"},{"geonameid":4855243,"name":"Township of Eldorado","admin3":"91161","localeAltName":null},{"geonameid":4857291,"name":"Township of Florence","admin3":"91350","localeAltName":null},{"geonameid":4857821,"name":"Township of Fremont","admin3":"91455","localeAltName":null},{"geonameid":4859920,"name":"Township of Harrison","admin3":"91857"},{"geonameid":4861002,"name":"Township of Homer","admin3":"91974"},{"geonameid":4862184,"name":"Township of Iowa","admin3":"92052"},{"geonameid":4862360,"name":"Township of Jackson","admin3":"92091"},{"geonameid":4864516,"name":"Township of Leroy","admin3":"92421","localeAltName":null},{"geonameid":4867753,"name":"Township of Monroe","admin3":"92964"},{"geonameid":4871786,"name":"Township of Polk","admin3":"93438","localeAltName":null},{"geonameid":4874169,"name":"Township of Saint Clair","admin3":"93732"},{"geonameid":4876189,"name":"City of Shellsburg","admin3":"93838","localeAltName":null},{"geonameid":4878295,"name":"Township of Taylor","admin3":"94095"},{"geonameid":4879407,"name":"Township of Union","admin3":"94170","localeAltName":null},{"geonameid":4880278,"name":"City of Vinton","admin3":"94360","localeAltName":null},{"geonameid":5280962,"name":"Township of Kane","admin3":"92289","localeAltName":null}],"alternateNames":[{"alternatenameId":1980290,"geonameid":4862182,"isoLanguage":"en","alternateName":"Iowa","isPreferredName":true,"isShortName":true,"isColloquial":false,"isHistoric":false}]},"__N_SSG":true}