{"pageProps":{"locale":"en","admin2":{"geonameid":4851866,"name":"Clay County","country":"US","admin1":"IA","admin2":"041","admin3":"","latitude":"43.0825800","longitude":"-95.1509200","localeAltName":null},"admin1":{"geonameid":4862182,"name":"Iowa","admin1":"IA","localeAltName":"Iowa"},"locations":[{"geonameid":4855862,"name":"Everly","admin3":"92709","localeAltName":null},{"geonameid":4877138,"name":"Spencer","admin3":"93955","localeAltName":null}],"admin3":[{"geonameid":4851878,"name":"Township of Clay","admin3":"90672"},{"geonameid":4854271,"name":"Township of Douglas","admin3":"91035"},{"geonameid":4857789,"name":"Township of Freeman","admin3":"91452"},{"geonameid":4858086,"name":"Township of Garfield","admin3":"91512"},{"geonameid":4858374,"name":"Township of Gillett Grove","admin3":"91569"},{"geonameid":4860378,"name":"Township of Herdland","admin3":"91914"},{"geonameid":4864033,"name":"Township of Lake","admin3":"92349"},{"geonameid":4864848,"name":"Township of Lincoln","admin3":"92541"},{"geonameid":4865305,"name":"Township of Logan","admin3":"92691"},{"geonameid":4865359,"name":"Township of Lone Tree","admin3":"92709","localeAltName":null},{"geonameid":4866816,"name":"Township of Meadow","admin3":"92901"},{"geonameid":4871099,"name":"Township of Peterson","admin3":"93312"},{"geonameid":4873198,"name":"Township of Riverton","admin3":"93645"},{"geonameid":4876572,"name":"Township of Sioux","admin3":"93912"},{"geonameid":4877166,"name":"City of Spencer","admin3":"93955","localeAltName":null},{"geonameid":4877902,"name":"Township of Summit","admin3":"94038"},{"geonameid":4880887,"name":"Township of Waterford","admin3":"94590"}],"alternateNames":[{"alternatenameId":1980290,"geonameid":4862182,"isoLanguage":"en","alternateName":"Iowa","isPreferredName":true,"isShortName":true,"isColloquial":false,"isHistoric":false}]},"__N_SSG":true}