{"pageProps":{"locale":"en","admin2":{"geonameid":4853335,"name":"Dallas County","country":"US","admin1":"IA","admin2":"049","admin3":"","latitude":"41.6848900","longitude":"-94.0397400","localeAltName":null},"admin1":{"geonameid":4862182,"name":"Iowa","admin1":"IA","localeAltName":"Iowa"},"locations":[{"geonameid":4846398,"name":"Adel","admin3":"90018","localeAltName":null},{"geonameid":4853325,"name":"Dallas Center","admin3":"90018","localeAltName":null},{"geonameid":4853537,"name":"De Soto","admin3":"94326","localeAltName":null},{"geonameid":4853908,"name":"Dexter","admin3":"94194","localeAltName":null},{"geonameid":4858952,"name":"Granger","admin3":"91647","localeAltName":null},{"geonameid":4871019,"name":"Perry","admin3":"93993","localeAltName":null},{"geonameid":4872657,"name":"Redfield","admin3":"94194","localeAltName":null},{"geonameid":4880034,"name":"Van Meter","admin3":"94326","localeAltName":null},{"geonameid":4880981,"name":"Waukee","admin3":"94395","localeAltName":null},{"geonameid":4882453,"name":"Woodward","admin3":"90972","localeAltName":null}],"admin3":[{"geonameid":4846379,"name":"Township of Adams","admin3":"90003"},{"geonameid":4846414,"name":"Township of Adel","admin3":"90018","localeAltName":null},{"geonameid":4848000,"name":"Township of Beaver","admin3":"90156"},{"geonameid":4849080,"name":"Township of Boone","admin3":"90300"},{"geonameid":4852229,"name":"Township of Colfax","admin3":"90759"},{"geonameid":4853346,"name":"Township of Dallas","admin3":"90879"},{"geonameid":4853869,"name":"Township of Des Moines","admin3":"90972","localeAltName":null},{"geonameid":4859022,"name":"Township of Grant","admin3":"91647","localeAltName":null},{"geonameid":4864849,"name":"Township of Lincoln","admin3":"92544"},{"geonameid":4864953,"name":"Township of Linn","admin3":"92646"},{"geonameid":4877320,"name":"Township of Spring Valley","admin3":"93993","localeAltName":null},{"geonameid":4877840,"name":"Township of Sugar Grove","admin3":"94029"},{"geonameid":4879415,"name":"Township of Union","admin3":"94194","localeAltName":null},{"geonameid":4880043,"name":"Township of Van Meter","admin3":"94326","localeAltName":null},{"geonameid":4880584,"name":"Township of Walnut","admin3":"94395","localeAltName":null},{"geonameid":4880836,"name":"Township of Washington","admin3":"94485"}],"alternateNames":[{"alternatenameId":1980290,"geonameid":4862182,"isoLanguage":"en","alternateName":"Iowa","isPreferredName":true,"isShortName":true,"isColloquial":false,"isHistoric":false}]},"__N_SSG":true}