{"pageProps":{"locale":"en","admin2":{"geonameid":4853961,"name":"Dickinson County","country":"US","admin1":"IA","admin2":"059","admin3":"","latitude":"43.3779800","longitude":"-95.1508300","localeAltName":null},"admin1":{"geonameid":4862182,"name":"Iowa","admin1":"IA","localeAltName":"Iowa"},"locations":[{"geonameid":4847187,"name":"Arnolds Park","admin3":"90639","localeAltName":null},{"geonameid":4863989,"name":"Lake Park","admin3":"93903","localeAltName":null},{"geonameid":4867373,"name":"Milford","admin3":"93168","localeAltName":null},{"geonameid":4869801,"name":"Okoboji","admin3":"90639","localeAltName":null},{"geonameid":4870142,"name":"Orleans","admin3":"93960","localeAltName":null},{"geonameid":4877184,"name":"Spirit Lake","admin3":"90639","localeAltName":null}],"admin3":[{"geonameid":4850888,"name":"Township of Center Grove","admin3":"90639","localeAltName":null},{"geonameid":4853937,"name":"Township of Diamond Lake","admin3":"90999"},{"geonameid":4855886,"name":"Township of Excelsior","admin3":"91257"},{"geonameid":4864073,"name":"Township of Lakeville","admin3":"92379"},{"geonameid":4865236,"name":"Township of Lloyd","admin3":"92673"},{"geonameid":4867384,"name":"Township of Milford","admin3":"92931"},{"geonameid":4869813,"name":"Township of Okoboji","admin3":"93168","localeAltName":null},{"geonameid":4872936,"name":"Township of Richland","admin3":"93585"},{"geonameid":4876458,"name":"Township of Silver Lake","admin3":"93903","localeAltName":null},{"geonameid":4877200,"name":"Township of Spirit Lake","admin3":"93960","localeAltName":null},{"geonameid":4878039,"name":"Township of Superior","admin3":"94062"},{"geonameid":4881667,"name":"Township of Westport","admin3":"94698"}],"alternateNames":[{"alternatenameId":1980290,"geonameid":4862182,"isoLanguage":"en","alternateName":"Iowa","isPreferredName":true,"isShortName":true,"isColloquial":false,"isHistoric":false}]},"__N_SSG":true}