{"pageProps":{"locale":"en","admin2":{"geonameid":4854534,"name":"Dubuque County","country":"US","admin1":"IA","admin2":"061","admin3":"","latitude":"42.4688300","longitude":"-90.8824600","localeAltName":null},"admin1":{"geonameid":4862182,"name":"Iowa","admin1":"IA","localeAltName":"Iowa"},"locations":[{"geonameid":4847226,"name":"Asbury","admin3":"91086","localeAltName":null},{"geonameid":4850549,"name":"Cascade","admin3":"90486","localeAltName":null},{"geonameid":4854529,"name":"Dubuque","admin3":"91085","localeAltName":null},{"geonameid":4854711,"name":"Dyersville","admin3":"93108","localeAltName":null},{"geonameid":4855679,"name":"Epworth","admin3":"94098","localeAltName":null},{"geonameid":4856296,"name":"Farley","admin3":"94098","localeAltName":null},{"geonameid":4870988,"name":"Peosta","admin3":"94332","localeAltName":null}],"admin3":[{"geonameid":4850560,"name":"Township of Cascade","admin3":"90486","localeAltName":null},{"geonameid":4850943,"name":"Township of Center","admin3":"90597"},{"geonameid":4852440,"name":"Township of Concord","admin3":"90798"},{"geonameid":4854152,"name":"Township of Dodge","admin3":"91005"},{"geonameid":4854561,"name":"City of Dubuque","admin3":"91085","localeAltName":null},{"geonameid":4854562,"name":"Township of Dubuque","admin3":"91086","localeAltName":null},{"geonameid":4862187,"name":"Township of Iowa","admin3":"92061"},{"geonameid":4862545,"name":"Township of Jefferson","admin3":"92217"},{"geonameid":4864639,"name":"Township of Liberty","admin3":"92451"},{"geonameid":4868037,"name":"Township of Mosalem","admin3":"93024"},{"geonameid":4868843,"name":"Township of New Wine","admin3":"93108","localeAltName":null},{"geonameid":4871065,"name":"Township of Peru","admin3":"93309"},{"geonameid":4871977,"name":"Township of Prairie Creek","admin3":"93498"},{"geonameid":4878193,"name":"Township of Table Mound","admin3":"94077"},{"geonameid":4878296,"name":"Township of Taylor","admin3":"94098","localeAltName":null},{"geonameid":4880129,"name":"Township of Vernon","admin3":"94332","localeAltName":null},{"geonameid":4880838,"name":"Township of Washington","admin3":"94491"},{"geonameid":4881866,"name":"Township of Whitewater","admin3":"94728"}],"alternateNames":[{"alternatenameId":1980290,"geonameid":4862182,"isoLanguage":"en","alternateName":"Iowa","isPreferredName":true,"isShortName":true,"isColloquial":false,"isHistoric":false}]},"__N_SSG":true}