{"pageProps":{"locale":"en","admin2":{"geonameid":4855587,"name":"Emmet County","country":"US","admin1":"IA","admin2":"063","admin3":"","latitude":"43.3780200","longitude":"-94.6784800","localeAltName":null},"admin1":{"geonameid":4862182,"name":"Iowa","admin1":"IA","localeAltName":"Iowa"},"locations":[{"geonameid":4847161,"name":"Armstrong","admin3":"90081","localeAltName":null},{"geonameid":4855709,"name":"Estherville","admin3":"91242","localeAltName":null}],"admin3":[{"geonameid":4847166,"name":"Township of Armstrong Grove","admin3":"90081","localeAltName":null},{"geonameid":4850944,"name":"Township of Center","admin3":"90600"},{"geonameid":4853779,"name":"Township of Denmark","admin3":"90963"},{"geonameid":4855445,"name":"Township of Ellsworth","admin3":"91209"},{"geonameid":4855593,"name":"Township of Emmet","admin3":"91221"},{"geonameid":4855724,"name":"Township of Estherville","admin3":"91242","localeAltName":null},{"geonameid":4860548,"name":"Township of High Lake","admin3":"91926"},{"geonameid":4862109,"name":"Township of Iowa Lake","admin3":"92079"},{"geonameid":4862304,"name":"Township of Jack Creek","admin3":"92085"},{"geonameid":4864850,"name":"Township of Lincoln","admin3":"92547"},{"geonameid":4878090,"name":"Township of Swan Lake","admin3":"94065"},{"geonameid":4879177,"name":"Township of Twelve Mile Lake","admin3":"94146"}],"alternateNames":[{"alternatenameId":1980290,"geonameid":4862182,"isoLanguage":"en","alternateName":"Iowa","isPreferredName":true,"isShortName":true,"isColloquial":false,"isHistoric":false}]},"__N_SSG":true}