{"pageProps":{"locale":"en","admin2":{"geonameid":4859624,"name":"Hamilton County","country":"US","admin1":"IA","admin2":"079","admin3":"","latitude":"42.3837700","longitude":"-93.7068100","localeAltName":null},"admin1":{"geonameid":4862182,"name":"Iowa","admin1":"IA","localeAltName":"Iowa"},"locations":[{"geonameid":4855423,"name":"Ellsworth","admin3":"92553","localeAltName":null},{"geonameid":4862659,"name":"Jewell","admin3":"92739","localeAltName":null},{"geonameid":4877714,"name":"Stratford","admin3":"92850","localeAltName":null},{"geonameid":4881096,"name":"Webster City","admin3":"94633","localeAltName":null}],"admin3":[{"geonameid":4848772,"name":"Township of Blairsburg","admin3":"90264"},{"geonameid":4850601,"name":"Township of Cass","admin3":"90504"},{"geonameid":4851954,"name":"Township of Clear Lake","admin3":"90722"},{"geonameid":4855446,"name":"Township of Ellsworth","admin3":"91212"},{"geonameid":4857779,"name":"Township of Freedom","admin3":"91446"},{"geonameid":4857828,"name":"Township of Fremont","admin3":"91476"},{"geonameid":4859637,"name":"Township of Hamilton","admin3":"91812"},{"geonameid":4861633,"name":"Township of Independence","admin3":"92019"},{"geonameid":4864640,"name":"Township of Liberty","admin3":"92454"},{"geonameid":4864852,"name":"Township of Lincoln","admin3":"92553","localeAltName":null},{"geonameid":4865752,"name":"Township of Lyon","admin3":"92739","localeAltName":null},{"geonameid":4866302,"name":"Township of Marion","admin3":"92850","localeAltName":null},{"geonameid":4873579,"name":"Township of Rose Grove","admin3":"93696"},{"geonameid":4875809,"name":"Township of Scott","admin3":"93783"},{"geonameid":4881097,"name":"City of Webster City","admin3":"94633","localeAltName":null},{"geonameid":4881122,"name":"Township of Webster","admin3":"94623"},{"geonameid":4882006,"name":"Township of Williams","admin3":"94737"}],"alternateNames":[{"alternatenameId":1980290,"geonameid":4862182,"isoLanguage":"en","alternateName":"Iowa","isPreferredName":true,"isShortName":true,"isColloquial":false,"isHistoric":false}]},"__N_SSG":true}