{"pageProps":{"locale":"en","admin2":{"geonameid":4859901,"name":"Harrison County","country":"US","admin1":"IA","admin2":"085","admin3":"","latitude":"41.6828500","longitude":"-95.8169200","localeAltName":null},"admin1":{"geonameid":4862182,"name":"Iowa","admin1":"IA","localeAltName":"Iowa"},"locations":[{"geonameid":4854644,"name":"Dunlap","admin3":"91863","localeAltName":null},{"geonameid":4865287,"name":"Logan","admin3":"92223","localeAltName":null},{"geonameid":4867597,"name":"Missouri Valley","admin3":"93738","localeAltName":null},{"geonameid":4882378,"name":"Woodbine","admin3":"90318","localeAltName":null}],"admin3":[{"geonameid":4846667,"name":"Township of Allen","admin3":"90039"},{"geonameid":4849188,"name":"Township of Boyer","admin3":"90318","localeAltName":null},{"geonameid":4850043,"name":"Township of Calhoun","admin3":"90444"},{"geonameid":4850602,"name":"Township of Cass","admin3":"90507"},{"geonameid":4851718,"name":"Township of Cincinnati","admin3":"90666"},{"geonameid":4851881,"name":"Township of Clay","admin3":"90681"},{"geonameid":4854272,"name":"Township of Douglas","admin3":"91038"},{"geonameid":4859922,"name":"Township of Harrison","admin3":"91863","localeAltName":null},{"geonameid":4862371,"name":"Township of Jackson","admin3":"92124"},{"geonameid":4862547,"name":"Township of Jefferson","admin3":"92223","localeAltName":null},{"geonameid":4863812,"name":"Township of La Grange","admin3":"92343"},{"geonameid":4864853,"name":"Township of Lincoln","admin3":"92556"},{"geonameid":4865143,"name":"Township of Little Sioux","admin3":"92664"},{"geonameid":4865884,"name":"Township of Magnolia","admin3":"92790"},{"geonameid":4867934,"name":"Township of Morgan","admin3":"93012"},{"geonameid":4872415,"name":"Township of Raglan","admin3":"93534"},{"geonameid":4874511,"name":"Township of Saint John","admin3":"93738","localeAltName":null},{"geonameid":4878297,"name":"Township of Taylor","admin3":"94101"},{"geonameid":4879423,"name":"Township of Union","admin3":"94218"},{"geonameid":4880842,"name":"Township of Washington","admin3":"94503"}],"alternateNames":[{"alternatenameId":1980290,"geonameid":4862182,"isoLanguage":"en","alternateName":"Iowa","isPreferredName":true,"isShortName":true,"isColloquial":false,"isHistoric":false}]},"__N_SSG":true}