{"pageProps":{"locale":"en","admin2":{"geonameid":4861232,"name":"Howard County","country":"US","admin1":"IA","admin2":"089","admin3":"","latitude":"43.3567700","longitude":"-92.3172000","localeAltName":null},"admin1":{"geonameid":4862182,"name":"Iowa","admin1":"IA","localeAltName":"Iowa"},"locations":[{"geonameid":4853059,"name":"Cresco","admin3":"94347","localeAltName":null},{"geonameid":4855472,"name":"Elma","admin3":"90024","localeAltName":null},{"geonameid":4872882,"name":"Riceville","admin3":"92190","localeAltName":null}],"admin3":[{"geonameid":4846458,"name":"Township of Afton","admin3":"90024","localeAltName":null},{"geonameid":4846554,"name":"Township of Albion","admin3":"90033"},{"geonameid":4851290,"name":"Township of Chester","admin3":"90657"},{"geonameid":4857423,"name":"Township of Forest City","admin3":"91368"},{"geonameid":4861231,"name":"Township of Howard Center","admin3":"92001"},{"geonameid":4861251,"name":"Township of Howard","admin3":"91989"},{"geonameid":4862438,"name":"Township of Jamestown","admin3":"92190","localeAltName":null},{"geonameid":4868796,"name":"Township of New Oregon","admin3":"93090"},{"geonameid":4869499,"name":"Township of Oak Dale","admin3":"93150"},{"geonameid":4870702,"name":"Township of Paris","admin3":"93273"},{"geonameid":4875572,"name":"Township of Saratoga","admin3":"93756"},{"geonameid":4880125,"name":"Township of Vernon Springs","admin3":"94347","localeAltName":null}],"alternateNames":[{"alternatenameId":1980290,"geonameid":4862182,"isoLanguage":"en","alternateName":"Iowa","isPreferredName":true,"isShortName":true,"isColloquial":false,"isHistoric":false}]},"__N_SSG":true}