{"pageProps":{"locale":"en","admin2":{"geonameid":4862732,"name":"Johnson County","country":"US","admin1":"IA","admin2":"103","admin3":"","latitude":"41.6715500","longitude":"-91.5880800","localeAltName":null},"admin1":{"geonameid":4862182,"name":"Iowa","admin1":"IA","localeAltName":"Iowa"},"locations":[{"geonameid":4852640,"name":"Coralville","admin3":"94686","localeAltName":null},{"geonameid":4860677,"name":"Hills","admin3":"92463","localeAltName":null},{"geonameid":4862034,"name":"Iowa City","admin3":"92077","localeAltName":null},{"geonameid":4865338,"name":"Lone Tree","admin3":"91479","localeAltName":null},{"geonameid":4869195,"name":"North Liberty","admin3":"93285","localeAltName":null},{"geonameid":4870511,"name":"Oxford","admin3":"93249","localeAltName":null},{"geonameid":4876323,"name":"Shueyville","admin3":"92229","localeAltName":null},{"geonameid":4876867,"name":"Solon","admin3":"90240","localeAltName":null},{"geonameid":4878159,"name":"Swisher","admin3":"92229","localeAltName":null},{"geonameid":4878585,"name":"Tiffin","admin3":"90714","localeAltName":null},{"geonameid":4879817,"name":"University Heights","admin3":"94686","localeAltName":null}],"admin3":[{"geonameid":4848579,"name":"Township of Big Grove","admin3":"90240","localeAltName":null},{"geonameid":4850822,"name":"Township of Cedar","admin3":"90543"},{"geonameid":4851931,"name":"Township of Clear Creek","admin3":"90714","localeAltName":null},{"geonameid":4854947,"name":"Township of East Lucas","admin3":"91119"},{"geonameid":4857829,"name":"Township of Fremont","admin3":"91479","localeAltName":null},{"geonameid":4858863,"name":"Township of Graham","admin3":"91599"},{"geonameid":4859785,"name":"Township of Hardin","admin3":"91836"},{"geonameid":4862035,"name":"City of Iowa City","admin3":"92077","localeAltName":null},{"geonameid":4862549,"name":"Township of Jefferson","admin3":"92229","localeAltName":null},{"geonameid":4864643,"name":"Township of Liberty","admin3":"92463","localeAltName":null},{"geonameid":4864855,"name":"Township of Lincoln","admin3":"92562"},{"geonameid":4865862,"name":"Township of Madison","admin3":"92766"},{"geonameid":4867756,"name":"Township of Monroe","admin3":"92973"},{"geonameid":4868906,"name":"Township of Newport","admin3":"93093"},{"geonameid":4870526,"name":"Township of Oxford","admin3":"93249","localeAltName":null},{"geonameid":4870962,"name":"Township of Penn","admin3":"93285","localeAltName":null},{"geonameid":4871604,"name":"Township of Pleasant Valley","admin3":"93417"},{"geonameid":4875811,"name":"Township of Scott","admin3":"93789"},{"geonameid":4876074,"name":"Township of Sharon","admin3":"93831"},{"geonameid":4879425,"name":"Township of Union","admin3":"94224"},{"geonameid":4880846,"name":"Township of Washington","admin3":"94515"},{"geonameid":4881457,"name":"Township of West Lucas","admin3":"94686","localeAltName":null}],"alternateNames":[{"alternatenameId":1980290,"geonameid":4862182,"isoLanguage":"en","alternateName":"Iowa","isPreferredName":true,"isShortName":true,"isColloquial":false,"isHistoric":false}]},"__N_SSG":true}