{"pageProps":{"locale":"en","admin2":{"geonameid":4863753,"name":"Kossuth County","country":"US","admin1":"IA","admin2":"109","admin3":"","latitude":"43.2041300","longitude":"-94.2067200","localeAltName":null},"admin1":{"geonameid":4862182,"name":"Iowa","admin1":"IA","localeAltName":"Iowa"},"locations":[{"geonameid":4846602,"name":"Algona","admin3":"90037","localeAltName":null},{"geonameid":4847672,"name":"Bancroft","admin3":"91767","localeAltName":null},{"geonameid":4849892,"name":"Burt","admin3":"90417","localeAltName":null},{"geonameid":4878106,"name":"Swea City","admin3":"91866","localeAltName":null},{"geonameid":4881277,"name":"West Bend","admin3":"91521","localeAltName":null}],"admin3":[{"geonameid":4846616,"name":"City of Algona","admin3":"90037","localeAltName":null},{"geonameid":4849756,"name":"Township of Buffalo","admin3":"90387"},{"geonameid":4849900,"name":"Township of Burt","admin3":"90417","localeAltName":null},{"geonameid":4853067,"name":"Township of Cresco","admin3":"90855"},{"geonameid":4854781,"name":"Township of Eagle","admin3":"91095"},{"geonameid":4856535,"name":"Township of Fenton","admin3":"91332"},{"geonameid":4858089,"name":"Township of Garfield","admin3":"91521","localeAltName":null},{"geonameid":4858299,"name":"Township of German","admin3":"91563"},{"geonameid":4859029,"name":"Township of Grant","admin3":"91668"},{"geonameid":4859303,"name":"Township of Greenwood","admin3":"91767","localeAltName":null},{"geonameid":4859923,"name":"Township of Harrison","admin3":"91866","localeAltName":null},{"geonameid":4860274,"name":"Township of Hebron","admin3":"91905"},{"geonameid":4862235,"name":"Township of Irvington","admin3":"92082"},{"geonameid":4864390,"name":"Township of Ledyard","admin3":"92394"},{"geonameid":4864856,"name":"Township of Lincoln","admin3":"92565"},{"geonameid":4865494,"name":"Township of Lotts Creek","admin3":"92721"},{"geonameid":4865600,"name":"Township of Lu Verne","admin3":"92730"},{"geonameid":4871688,"name":"Township of Plum Creek","admin3":"93426"},{"geonameid":4871863,"name":"Township of Portland","admin3":"93459"},{"geonameid":4872058,"name":"Township of Prairie","admin3":"93492"},{"geonameid":4872474,"name":"Township of Ramsey","admin3":"93537"},{"geonameid":4873121,"name":"Township of Riverdale","admin3":"93636"},{"geonameid":4875896,"name":"Township of Seneca","admin3":"93810"},{"geonameid":4876246,"name":"Township of Sherman","admin3":"93864"},{"geonameid":4877345,"name":"Township of Springfield","admin3":"93981"},{"geonameid":4878115,"name":"Township of Swea","admin3":"94071"},{"geonameid":4879426,"name":"Township of Union","admin3":"94227"},{"geonameid":4881231,"name":"Township of Wesley","admin3":"94644"},{"geonameid":4881888,"name":"Township of Whittemore","admin3":"94731"}],"alternateNames":[{"alternatenameId":1980290,"geonameid":4862182,"isoLanguage":"en","alternateName":"Iowa","isPreferredName":true,"isShortName":true,"isColloquial":false,"isHistoric":false}]},"__N_SSG":true}