{"pageProps":{"locale":"en","admin2":{"geonameid":4864395,"name":"Lee County","country":"US","admin1":"IA","admin2":"111","admin3":"","latitude":"40.6419800","longitude":"-91.4792600","localeAltName":null},"admin1":{"geonameid":4862182,"name":"Iowa","admin1":"IA","localeAltName":"Iowa"},"locations":[{"geonameid":4854201,"name":"Donnellson","admin3":"91407","localeAltName":null},{"geonameid":4857507,"name":"Fort Madison","admin3":"92772","localeAltName":null},{"geonameid":4863349,"name":"Keokuk","admin3":"92311","localeAltName":null},{"geonameid":4867830,"name":"Montrose","admin3":"93000","localeAltName":null},{"geonameid":4881492,"name":"West Point","admin3":"94695","localeAltName":null}],"admin3":[{"geonameid":4850823,"name":"Township of Cedar","admin3":"90546"},{"geonameid":4851183,"name":"Township of Charleston","admin3":"90647"},{"geonameid":4853780,"name":"Township of Denmark","admin3":"90966"},{"geonameid":4853872,"name":"Township of Des Moines","admin3":"90981"},{"geonameid":4857698,"name":"Township of Franklin","admin3":"91407","localeAltName":null},{"geonameid":4859143,"name":"Township of Green Bay","admin3":"91743"},{"geonameid":4859924,"name":"Township of Harrison","admin3":"91869"},{"geonameid":4862376,"name":"Township of Jackson","admin3":"92139"},{"geonameid":4862550,"name":"Township of Jefferson","admin3":"92232"},{"geonameid":4863375,"name":"City of Keokuk","admin3":"92311","localeAltName":null},{"geonameid":4865864,"name":"Township of Madison","admin3":"92772","localeAltName":null},{"geonameid":4866304,"name":"Township of Marion","admin3":"92856"},{"geonameid":4867841,"name":"Township of Montrose","admin3":"93000","localeAltName":null},{"geonameid":4871566,"name":"Township of Pleasant Ridge","admin3":"93402"},{"geonameid":4880015,"name":"Township of Van Buren","admin3":"94320"},{"geonameid":4880849,"name":"Township of Washington","admin3":"94524"},{"geonameid":4881506,"name":"Township of West Point","admin3":"94695","localeAltName":null}],"alternateNames":[{"alternatenameId":1980290,"geonameid":4862182,"isoLanguage":"en","alternateName":"Iowa","isPreferredName":true,"isShortName":true,"isColloquial":false,"isHistoric":false}]},"__N_SSG":true}