{"pageProps":{"locale":"en","admin2":{"geonameid":4865744,"name":"Lyon County","country":"US","admin1":"IA","admin2":"119","admin3":"","latitude":"43.3805000","longitude":"-96.2102900","localeAltName":null},"admin1":{"geonameid":4862182,"name":"Iowa","admin1":"IA","localeAltName":"Iowa"},"locations":[{"geonameid":4854215,"name":"Doon","admin3":"91014","localeAltName":null},{"geonameid":4858239,"name":"George","admin3":"94707","localeAltName":null},{"geonameid":4862001,"name":"Inwood","admin3":"93606","localeAltName":null},{"geonameid":4864192,"name":"Larchwood","admin3":"92385","localeAltName":null},{"geonameid":4873354,"name":"Rock Rapids","admin3":"93660","localeAltName":null}],"admin3":[{"geonameid":4846705,"name":"Township of Allison","admin3":"90051"},{"geonameid":4850859,"name":"Township of Centennial","admin3":"90579"},{"geonameid":4852001,"name":"Township of Cleveland","admin3":"90735"},{"geonameid":4853319,"name":"Township of Dale","admin3":"90873"},{"geonameid":4854222,"name":"Township of Doon","admin3":"91014","localeAltName":null},{"geonameid":4855273,"name":"Township of Elgin","admin3":"91164"},{"geonameid":4858090,"name":"Township of Garfield","admin3":"91524"},{"geonameid":4859031,"name":"Township of Grant","admin3":"91674"},{"geonameid":4864200,"name":"Township of Larchwood","admin3":"92385","localeAltName":null},{"geonameid":4864600,"name":"Township of Liberal","admin3":"92436"},{"geonameid":4865307,"name":"Township of Logan","admin3":"92697"},{"geonameid":4865753,"name":"Township of Lyon","admin3":"92742"},{"geonameid":4867310,"name":"Township of Midland","admin3":"92925"},{"geonameid":4872943,"name":"Township of Richland","admin3":"93606","localeAltName":null},{"geonameid":4873188,"name":"Township of Riverside","admin3":"93642"},{"geonameid":4873389,"name":"Township of Rock","admin3":"93660","localeAltName":null},{"geonameid":4876573,"name":"Township of Sioux","admin3":"93915"},{"geonameid":4881753,"name":"Township of Wheeler","admin3":"94707","localeAltName":null}],"alternateNames":[{"alternatenameId":1980290,"geonameid":4862182,"isoLanguage":"en","alternateName":"Iowa","isPreferredName":true,"isShortName":true,"isColloquial":false,"isHistoric":false}]},"__N_SSG":true}