{"pageProps":{"locale":"en","admin2":{"geonameid":4871736,"name":"Pocahontas County","country":"US","admin1":"IA","admin2":"151","admin3":"","latitude":"42.7341400","longitude":"-94.6787500","localeAltName":null},"admin1":{"geonameid":4862182,"name":"Iowa","admin1":"IA","localeAltName":"Iowa"},"locations":[{"geonameid":4857364,"name":"Fonda","admin3":"90564","localeAltName":null},{"geonameid":4864265,"name":"Laurens","admin3":"94068","localeAltName":null},{"geonameid":4871727,"name":"Pocahontas","admin3":"90621","localeAltName":null},{"geonameid":4873508,"name":"Rolfe","admin3":"93685","localeAltName":null}],"admin3":[{"geonameid":4848142,"name":"Township of Bellville","admin3":"90183"},{"geonameid":4850829,"name":"Township of Cedar","admin3":"90564","localeAltName":null},{"geonameid":4850951,"name":"Township of Center","admin3":"90621","localeAltName":null},{"geonameid":4852232,"name":"Township of Colfax","admin3":"90768"},{"geonameid":4853228,"name":"Township of Cummins","admin3":"90867"},{"geonameid":4853873,"name":"Township of Des Moines","admin3":"90984"},{"geonameid":4854306,"name":"Township of Dover","admin3":"91074"},{"geonameid":4858094,"name":"Township of Garfield","admin3":"91536"},{"geonameid":4859037,"name":"Township of Grant","admin3":"91692"},{"geonameid":4864037,"name":"Township of Lake","admin3":"92361"},{"geonameid":4864865,"name":"Township of Lincoln","admin3":"92592"},{"geonameid":4865232,"name":"Township of Lizard","admin3":"92670"},{"geonameid":4866369,"name":"Township of Marshall","admin3":"92880"},{"geonameid":4871924,"name":"Township of Powhatan","admin3":"93474"},{"geonameid":4873517,"name":"City of Rolfe","admin3":"93685","localeAltName":null},{"geonameid":4873557,"name":"Township of Roosevelt","admin3":"93690"},{"geonameid":4876249,"name":"Township of Sherman","admin3":"93873"},{"geonameid":4878091,"name":"Township of Swan Lake","admin3":"94068","localeAltName":null}],"alternateNames":[{"alternatenameId":1980290,"geonameid":4862182,"isoLanguage":"en","alternateName":"Iowa","isPreferredName":true,"isShortName":true,"isColloquial":false,"isHistoric":false}]},"__N_SSG":true}