{"pageProps":{"locale":"en","admin2":{"geonameid":4876545,"name":"Sioux County","country":"US","admin1":"IA","admin2":"167","admin3":"","latitude":"43.0826200","longitude":"-96.1778800","localeAltName":null},"admin1":{"geonameid":4862182,"name":"Iowa","admin1":"IA","localeAltName":"Iowa"},"locations":[{"geonameid":4846745,"name":"Alton","admin3":"93051","localeAltName":null},{"geonameid":4849161,"name":"Boyden","admin3":"93852","localeAltName":null},{"geonameid":4860066,"name":"Hawarden","admin3":"92703","localeAltName":null},{"geonameid":4861198,"name":"Hospers","admin3":"91359","localeAltName":null},{"geonameid":4861319,"name":"Hull","admin3":"92613","localeAltName":null},{"geonameid":4862204,"name":"Ireton","admin3":"93549","localeAltName":null},{"geonameid":4870083,"name":"Orange City","admin3":"91965","localeAltName":null},{"geonameid":4873371,"name":"Rock Valley","admin3":"93666","localeAltName":null},{"geonameid":4876510,"name":"Sioux Center","admin3":"94653","localeAltName":null}],"admin3":[{"geonameid":4849786,"name":"Township of Buncombe","admin3":"90399"},{"geonameid":4850361,"name":"Township of Capel","admin3":"90468"},{"geonameid":4850954,"name":"Township of Center","admin3":"90630"},{"geonameid":4854782,"name":"Township of Eagle","admin3":"91098"},{"geonameid":4854956,"name":"Township of East Orange","admin3":"91122"},{"geonameid":4857336,"name":"Township of Floyd","admin3":"91359","localeAltName":null},{"geonameid":4858095,"name":"Township of Garfield","admin3":"91539"},{"geonameid":4859040,"name":"Township of Grant","admin3":"91701"},{"geonameid":4860861,"name":"Township of Holland","admin3":"91965","localeAltName":null},{"geonameid":4864872,"name":"Township of Lincoln","admin3":"92613","localeAltName":null},{"geonameid":4865309,"name":"Township of Logan","admin3":"92703","localeAltName":null},{"geonameid":4865734,"name":"Township of Lynn","admin3":"92733"},{"geonameid":4868515,"name":"Township of Nassau","admin3":"93051","localeAltName":null},{"geonameid":4871406,"name":"Township of Plato","admin3":"93345"},{"geonameid":4872554,"name":"Township of Reading","admin3":"93549","localeAltName":null},{"geonameid":4873391,"name":"Township of Rock","admin3":"93666","localeAltName":null},{"geonameid":4875926,"name":"Township of Settlers","admin3":"93813"},{"geonameid":4876225,"name":"Township of Sheridan","admin3":"93852","localeAltName":null},{"geonameid":4876250,"name":"Township of Sherman","admin3":"93876"},{"geonameid":4876576,"name":"Township of Sioux","admin3":"93924"},{"geonameid":4880862,"name":"Township of Washington","admin3":"94563"},{"geonameid":4881135,"name":"Township of Welcome","admin3":"94635"},{"geonameid":4881306,"name":"Township of West Branch","admin3":"94653","localeAltName":null}],"alternateNames":[{"alternatenameId":1980290,"geonameid":4862182,"isoLanguage":"en","alternateName":"Iowa","isPreferredName":true,"isShortName":true,"isColloquial":false,"isHistoric":false}]},"__N_SSG":true}