{"pageProps":{"locale":"en","admin2":{"geonameid":4877685,"name":"Story County","country":"US","admin1":"IA","admin2":"169","admin3":"","latitude":"42.0362400","longitude":"-93.4650400","localeAltName":null},"admin1":{"geonameid":4862182,"name":"Iowa","admin1":"IA","localeAltName":"Iowa"},"locations":[{"geonameid":4846834,"name":"Ames","admin3":"91428","localeAltName":null},{"geonameid":4850220,"name":"Cambridge","admin3":"94269","localeAltName":null},{"geonameid":4852282,"name":"Colo","admin3":"93066","localeAltName":null},{"geonameid":4858343,"name":"Gilbert","admin3":"91428","localeAltName":null},{"geonameid":4861422,"name":"Huxley","admin3":"93261","localeAltName":null},{"geonameid":4866535,"name":"Maxwell","admin3":"92034","localeAltName":null},{"geonameid":4868620,"name":"Nevada","admin3":"93063","localeAltName":null},{"geonameid":4873496,"name":"Roland","admin3":"91992","localeAltName":null},{"geonameid":4876661,"name":"Slater","admin3":"93261","localeAltName":null},{"geonameid":4877676,"name":"Story City","admin3":"92340","localeAltName":null},{"geonameid":4882660,"name":"Zearing","admin3":"92616","localeAltName":null}],"admin3":[{"geonameid":4852279,"name":"Township of Collins","admin3":"90777"},{"geonameid":4857705,"name":"Township of Franklin","admin3":"91428","localeAltName":null},{"geonameid":4859041,"name":"Township of Grant","admin3":"91704"},{"geonameid":4861252,"name":"Township of Howard","admin3":"91992","localeAltName":null},{"geonameid":4861680,"name":"Township of Indian Creek","admin3":"92034","localeAltName":null},{"geonameid":4863883,"name":"Township of Lafayette","admin3":"92340","localeAltName":null},{"geonameid":4864873,"name":"Township of Lincoln","admin3":"92616","localeAltName":null},{"geonameid":4867385,"name":"Township of Milford","admin3":"92934"},{"geonameid":4868631,"name":"Township of Nevada","admin3":"93063","localeAltName":null},{"geonameid":4868636,"name":"Township of New Albany","admin3":"93066","localeAltName":null},{"geonameid":4870600,"name":"Township of Palestine","admin3":"93261","localeAltName":null},{"geonameid":4872946,"name":"Township of Richland","admin3":"93615"},{"geonameid":4876251,"name":"Township of Sherman","admin3":"93879"},{"geonameid":4879440,"name":"Township of Union","admin3":"94269","localeAltName":null},{"geonameid":4880714,"name":"Township of Warren","admin3":"94437"},{"geonameid":4880863,"name":"Township of Washington","admin3":"94566"}],"alternateNames":[{"alternatenameId":1980290,"geonameid":4862182,"isoLanguage":"en","alternateName":"Iowa","isPreferredName":true,"isShortName":true,"isColloquial":false,"isHistoric":false}]},"__N_SSG":true}