{"pageProps":{"locale":"en","admin2":{"geonameid":2759886,"name":"Gemeente Almelo","country":"NL","admin1":"15","admin2":"0141","admin3":"","latitude":"52.3446300","longitude":"6.6594200"},"admin1":{"geonameid":2748838,"name":"Provincie Overijssel","admin1":"15"},"locations":[{"geonameid":2760151,"name":"Aadorp","admin3":""},{"geonameid":2759887,"name":"Almelo","admin3":""},{"geonameid":2759371,"name":"Bavinkel","admin3":""},{"geonameid":2758691,"name":"Bolkshoek","admin3":""},{"geonameid":2758595,"name":"Bornerbroek","admin3":""},{"geonameid":2757818,"name":"De Aa","admin3":""},{"geonameid":6639582,"name":"De Riet","admin3":""},{"geonameid":2754960,"name":"Haghoek","admin3":""},{"geonameid":6618521,"name":"Hedeman","admin3":""},{"geonameid":2752597,"name":"Kluppelshuizen","admin3":""},{"geonameid":2750047,"name":"Nijrees","admin3":""},{"geonameid":2747106,"name":"Sluitersveld","admin3":""},{"geonameid":2746097,"name":"Tusveld","admin3":""},{"geonameid":2744979,"name":"Wateregge","admin3":""}],"admin3":[],"alternateNames":[{"alternatenameId":11907794,"geonameid":2748838,"isoLanguage":"de","alternateName":"Overijssel","isPreferredName":true,"isShortName":true,"isColloquial":false,"isHistoric":false}]},"__N_SSG":true}