{"pageProps":{"locale":"en","admin2":{"geonameid":11995136,"name":"Inuvik Region","country":"CA","admin1":"13","admin2":"11995136","admin3":"","latitude":"68.3567800","longitude":"-133.7140900"},"admin1":{"geonameid":6091069,"name":"Northwest Territories","admin1":"13"},"locations":[{"geonameid":5882953,"name":"Aklavik","admin3":"6101025"},{"geonameid":5955898,"name":"Fort McPherson","admin3":"6101015"},{"geonameid":5983607,"name":"Inuvik","admin3":"6101017"},{"geonameid":6099793,"name":"Paulatuk","admin3":"6101014"},{"geonameid":6137052,"name":"Sachs Harbour","admin3":"6101041"},{"geonameid":6169740,"name":"Tsiigehtchic","admin3":"6101010"},{"geonameid":6170031,"name":"Tuktoyaktuk","admin3":"6101036"},{"geonameid":5976257,"name":"Ulukhaktok","admin3":"6101095"}],"admin3":[{"geonameid":11995146,"name":"Aklavik","admin3":"6101025"},{"geonameid":11995149,"name":"Tuktoyaktuk","admin3":"6101036"},{"geonameid":11995153,"name":"Fort McPherson","admin3":"6101015"},{"geonameid":11995168,"name":"Sachs Harbour","admin3":"6101041"},{"geonameid":11995170,"name":"Paulatuk","admin3":"6101014"},{"geonameid":11995171,"name":"Tsiigehtchic","admin3":"6101010"},{"geonameid":11995177,"name":"Inuvik","admin3":"6101017"},{"geonameid":11995178,"name":"Ulukhaktok","admin3":"6101095"}],"alternateNames":[]},"__N_SSG":true}