{"pageProps":{"locale":"en","admin2":{"geonameid":5058990,"name":"Eddy County","country":"US","admin1":"ND","admin2":"027","admin3":"","latitude":"47.7175900","longitude":"-98.9015800","localeAltName":null},"admin1":{"geonameid":5690763,"name":"North Dakota","admin1":"ND","localeAltName":"North Dakota"},"locations":[{"geonameid":5060614,"name":"New Rockford","admin3":"56620","localeAltName":null}],"admin3":[{"geonameid":5058485,"name":"Township of Bush","admin3":"11140"},{"geonameid":5058612,"name":"Township of Cherry Lake","admin3":"13820"},{"geonameid":5058681,"name":"Township of Columbia","admin3":"15420"},{"geonameid":5058683,"name":"Township of Colvin","admin3":"15540"},{"geonameid":5058995,"name":"Township of Eddy","admin3":"21980"},{"geonameid":5059271,"name":"Township of Freeborn","admin3":"28420"},{"geonameid":5059326,"name":"Township of Gates","admin3":"29700"},{"geonameid":5059446,"name":"Township of Grandfield","admin3":"32020"},{"geonameid":5059667,"name":"Township of Hillsdale","admin3":"38180"},{"geonameid":5060040,"name":"Township of Lake Washington","admin3":"44100"},{"geonameid":5060559,"name":"Township of Munster","admin3":"55100"},{"geonameid":5060617,"name":"City of New Rockford","admin3":"56620","localeAltName":null},{"geonameid":5060853,"name":"Township of Paradise","admin3":"60740"},{"geonameid":5060983,"name":"Township of Pleasant Prairie","admin3":"63220"},{"geonameid":5061189,"name":"Township of Rosefield","admin3":"68180"},{"geonameid":5061856,"name":"Township of Sheldon","admin3":"72140"},{"geonameid":5061881,"name":"City of Sheyenne","admin3":"72580"},{"geonameid":5062111,"name":"Township of Superior","admin3":"77140"},{"geonameid":5062187,"name":"Township of Tiffany","admin3":"78860"},{"geonameid":7165597,"name":"Township of New Rockford","admin3":"56660"}],"alternateNames":[{"alternatenameId":2080778,"geonameid":5690763,"isoLanguage":"en","alternateName":"North Dakota","isPreferredName":true,"isShortName":true,"isColloquial":false,"isHistoric":false}]},"__N_SSG":true}