{"pageProps":{"locale":"ro","admin2":{"geonameid":682491,"name":"Comuna Căzăneşti","country":"RO","admin1":"26","admin2":"111097","admin3":"","latitude":"44.7047500","longitude":"22.9057500"},"admin1":{"geonameid":673612,"name":"Mehedinţi","admin1":"26"},"locations":[{"geonameid":681895,"name":"Câlniceşti","admin3":""},{"geonameid":682499,"name":"Căzăneşti","admin3":""},{"geonameid":678550,"name":"Ercea","admin3":""},{"geonameid":677221,"name":"Gârbovățu de Sus","admin3":""},{"geonameid":676850,"name":"Govodarva","admin3":""},{"geonameid":675636,"name":"Ilovu","admin3":""},{"geonameid":675243,"name":"Jignița","admin3":""},{"geonameid":671421,"name":"Păltinișu","admin3":""},{"geonameid":670153,"name":"Poiana","admin3":""},{"geonameid":668658,"name":"Roșia","admin3":""},{"geonameid":667318,"name":"Severinești","admin3":""},{"geonameid":665806,"name":"Suharu","admin3":""},{"geonameid":663929,"name":"Valea Alunului","admin3":""},{"geonameid":663905,"name":"Valea Bisericii","admin3":""},{"geonameid":663819,"name":"Valea Coșuștei","admin3":""}],"admin3":[],"alternateNames":[]},"__N_SSG":true}