{"pageProps":{"locale":"en","admin2":{"geonameid":5146092,"name":"Ashtabula County","country":"US","admin1":"OH","admin2":"007","admin3":"","latitude":"41.8963800","longitude":"-80.7590100"},"admin1":{"geonameid":5165418,"name":"Ohio","admin1":"OH","localeAltName":"Ohio"},"locations":[{"geonameid":5145770,"name":"Andover","admin3":"02064"},{"geonameid":5146089,"name":"Ashtabula","admin3":"02652"},{"geonameid":5150986,"name":"Conneaut","admin3":"18350"},{"geonameid":5152947,"name":"Edgewood","admin3":"02652"},{"geonameid":5155572,"name":"Geneva","admin3":"29624"},{"geonameid":5155587,"name":"Geneva-on-the-Lake","admin3":"29624"},{"geonameid":5159071,"name":"Jefferson","admin3":"38514"},{"geonameid":5164812,"name":"North Kingsville","admin3":"56700"},{"geonameid":5165763,"name":"Orwell","admin3":"58870"},{"geonameid":5168341,"name":"Roaming Shores","admin3":"52066"}],"admin3":[{"geonameid":5145764,"name":"Township of Andover","admin3":"02064"},{"geonameid":5146112,"name":"Township of Ashtabula","admin3":"02652"},{"geonameid":5146255,"name":"Township of Austinburg","admin3":"03156"},{"geonameid":5149917,"name":"Township of Cherry Valley","admin3":"13890"},{"geonameid":5150744,"name":"Township of Colebrook","admin3":"16560"},{"geonameid":5150999,"name":"City of Conneaut","admin3":"18350"},{"geonameid":5151985,"name":"Township of Denmark","admin3":"21672"},{"geonameid":5152216,"name":"Township of Dorset","admin3":"22344"},{"geonameid":5155584,"name":"Township of Geneva","admin3":"29624"},{"geonameid":5156944,"name":"Township of Harpersfield","admin3":"33642"},{"geonameid":5157062,"name":"Township of Hartsgrove","admin3":"34300"},{"geonameid":5159123,"name":"Township of Jefferson","admin3":"38514"},{"geonameid":5159771,"name":"Township of Kingsville","admin3":"40404"},{"geonameid":5160593,"name":"Township of Lenox","admin3":"42742"},{"geonameid":5163331,"name":"Township of Monroe","admin3":"51296"},{"geonameid":5163466,"name":"Township of Morgan","admin3":"52066"},{"geonameid":5164367,"name":"Township of New Lyme","admin3":"54964"},{"geonameid":5164816,"name":"Village of North Kingsville","admin3":"56700"},{"geonameid":5165767,"name":"Township of Orwell","admin3":"58870"},{"geonameid":5166654,"name":"Township of Pierpont","admin3":"62568"},{"geonameid":5167178,"name":"Township of Plymouth","admin3":"63772"},{"geonameid":5168076,"name":"Township of Richmond","admin3":"66796"},{"geonameid":5168568,"name":"Township of Rome","admin3":"68224"},{"geonameid":5170808,"name":"Township of Saybrook","admin3":"70646"},{"geonameid":5171863,"name":"Township of Sheffield","admin3":"72053"},{"geonameid":5174427,"name":"Township of Trumbull","admin3":"77686"},{"geonameid":5175923,"name":"Township of Wayne","admin3":"82040"},{"geonameid":5176898,"name":"Township of Williamsfield","admin3":"85372"},{"geonameid":5177112,"name":"Township of Windsor","admin3":"85988"}],"alternateNames":[{"alternatenameId":2089549,"geonameid":5165418,"isoLanguage":"en","alternateName":"Ohio","isPreferredName":true,"isShortName":true,"isColloquial":false,"isHistoric":false}]},"__N_SSG":true}