{"pageProps":{"locale":"en","admin2":{"geonameid":4508810,"name":"Clark County","country":"US","admin1":"OH","admin2":"023","admin3":"","latitude":"39.9167800","longitude":"-83.7839000"},"admin1":{"geonameid":5165418,"name":"Ohio","admin1":"OH","localeAltName":"Ohio"},"locations":[{"geonameid":4509699,"name":"Crystal Lakes","admin3":"06054"},{"geonameid":4511086,"name":"Enon","admin3":"46788"},{"geonameid":4513216,"name":"Green Meadows","admin3":"46788"},{"geonameid":4514429,"name":"Holiday Valley","admin3":"46788"},{"geonameid":4516749,"name":"Lisbon","admin3":"33586"},{"geonameid":4519497,"name":"New Carlisle","admin3":"06054"},{"geonameid":4519950,"name":"Northridge","admin3":"51912"},{"geonameid":4520864,"name":"Park Layne","admin3":"06054"},{"geonameid":4525041,"name":"South Charleston","admin3":"46354"},{"geonameid":4525353,"name":"Springfield","admin3":"74118"}],"admin3":[{"geonameid":4506422,"name":"Township of Bethel","admin3":"06054"},{"geonameid":4512617,"name":"Township of German","admin3":"29862"},{"geonameid":4513233,"name":"Township of Green","admin3":"31703"},{"geonameid":4513768,"name":"Township of Harmony","admin3":"33586"},{"geonameid":4517344,"name":"Township of Mad River","admin3":"46788"},{"geonameid":4517402,"name":"Township of Madison","admin3":"46354"},{"geonameid":4518644,"name":"Township of Moorefield","admin3":"51912"},{"geonameid":4521264,"name":"Township of Pike","admin3":"62610"},{"geonameid":4521626,"name":"Township of Pleasant","admin3":"63226"},{"geonameid":4525341,"name":"City of Springfield","admin3":"74118"},{"geonameid":4525342,"name":"Township of Springfield","admin3":"74119"}],"alternateNames":[{"alternatenameId":2089549,"geonameid":5165418,"isoLanguage":"en","alternateName":"Ohio","isPreferredName":true,"isShortName":true,"isColloquial":false,"isHistoric":false}]},"__N_SSG":true}