{"pageProps":{"locale":"en","admin2":{"geonameid":4511521,"name":"Fayette County","country":"US","admin1":"OH","admin2":"047","admin3":"","latitude":"39.5598800","longitude":"-83.4561000"},"admin1":{"geonameid":5165418,"name":"Ohio","admin1":"OH","localeAltName":"Ohio"},"locations":[{"geonameid":4515485,"name":"Jeffersonville","admin3":"38598"},{"geonameid":4527660,"name":"Washington Court House","admin3":"81718"}],"admin3":[{"geonameid":4509275,"name":"Township of Concord","admin3":"18154"},{"geonameid":4513235,"name":"Township of Green","admin3":"31724"},{"geonameid":4515443,"name":"Township of Jasper","admin3":"38388"},{"geonameid":4515475,"name":"Township of Jefferson","admin3":"38598"},{"geonameid":4517404,"name":"Township of Madison","admin3":"46396"},{"geonameid":4517610,"name":"Township of Marion","admin3":"47684"},{"geonameid":4520806,"name":"Township of Paint","admin3":"59486"},{"geonameid":4521117,"name":"Township of Perry","admin3":"61826"},{"geonameid":4526892,"name":"Township of Union","admin3":"78316"},{"geonameid":4527697,"name":"City of Washington Court House","admin3":"81718"},{"geonameid":4527799,"name":"Township of Wayne","admin3":"82166"}],"alternateNames":[{"alternatenameId":2089549,"geonameid":5165418,"isoLanguage":"en","alternateName":"Ohio","isPreferredName":true,"isShortName":true,"isColloquial":false,"isHistoric":false}]},"__N_SSG":true}