{"pageProps":{"locale":"en","admin2":{"geonameid":5156615,"name":"Guernsey County","country":"US","admin1":"OH","admin2":"059","admin3":"","latitude":"40.0520500","longitude":"-81.4942600"},"admin1":{"geonameid":5165418,"name":"Ohio","admin1":"OH","localeAltName":"Ohio"},"locations":[{"geonameid":4507599,"name":"Byesville","admin3":"37786"},{"geonameid":5149007,"name":"Cambridge","admin3":"11003"},{"geonameid":5161741,"name":"Mantua","admin3":"40838"}],"admin3":[{"geonameid":4515369,"name":"Township of Jackson","admin3":"37786"},{"geonameid":4518435,"name":"Township of Millwood","admin3":"50568"},{"geonameid":4522466,"name":"Township of Richland","admin3":"66698"},{"geonameid":4525228,"name":"Township of Spencer","admin3":"73986"},{"geonameid":4527097,"name":"Township of Valley","admin3":"79156"},{"geonameid":4528139,"name":"Township of Westland","admin3":"83664"},{"geonameid":5145407,"name":"Township of Adams","admin3":"00282"},{"geonameid":5149020,"name":"Township of Cambridge","admin3":"11003"},{"geonameid":5149591,"name":"Township of Center","admin3":"12938"},{"geonameid":5159127,"name":"Township of Jefferson","admin3":"38640"},{"geonameid":5159907,"name":"Township of Knox","admin3":"40838"},{"geonameid":5160712,"name":"Township of Liberty","admin3":"43134"},{"geonameid":5161181,"name":"Township of Londonderry","admin3":"44716"},{"geonameid":5161600,"name":"Township of Madison","admin3":"46424"},{"geonameid":5163334,"name":"Township of Monroe","admin3":"51380"},{"geonameid":5165980,"name":"Township of Oxford","admin3":"59290"},{"geonameid":5175806,"name":"Township of Washington","admin3":"81256"},{"geonameid":5176640,"name":"Township of Wheeling","admin3":"84616"},{"geonameid":5177019,"name":"Township of Wills","admin3":"85708"}],"alternateNames":[{"alternatenameId":2089549,"geonameid":5165418,"isoLanguage":"en","alternateName":"Ohio","isPreferredName":true,"isShortName":true,"isColloquial":false,"isHistoric":false}]},"__N_SSG":true}