{"pageProps":{"locale":"en","admin2":{"geonameid":5160740,"name":"Licking County","country":"US","admin1":"OH","admin2":"089","admin3":"","latitude":"40.0916100","longitude":"-82.4831500"},"admin1":{"geonameid":5165418,"name":"Ohio","admin1":"OH","localeAltName":"Ohio"},"locations":[{"geonameid":5146906,"name":"Beechwood Trails","admin3":"33894"},{"geonameid":4507378,"name":"Buckeye Lake","admin3":"78400"},{"geonameid":4511149,"name":"Etna","admin3":"25690"},{"geonameid":5156270,"name":"Granville","admin3":"31416"},{"geonameid":7259287,"name":"Granville South","admin3":"31416"},{"geonameid":5156792,"name":"Hanover","admin3":"33299"},{"geonameid":4513703,"name":"Harbor Hills","admin3":"43456"},{"geonameid":5157262,"name":"Heath","admin3":"34748"},{"geonameid":4514004,"name":"Hebron","admin3":"78400"},{"geonameid":5159309,"name":"Johnstown","admin3":"51450"},{"geonameid":5164466,"name":"Newark","admin3":"54040"},{"geonameid":4520905,"name":"Pataskala","admin3":"61112"},{"geonameid":5174913,"name":"Utica","admin3":"81410"}],"admin3":[{"geonameid":4506932,"name":"Township of Bowling Green","admin3":"07944"},{"geonameid":4511157,"name":"Township of Etna","admin3":"25690"},{"geonameid":4512259,"name":"Township of Franklin","admin3":"28336"},{"geonameid":4514642,"name":"Township of Hopewell","admin3":"36316"},{"geonameid":4516623,"name":"Township of Licking","admin3":"43456"},{"geonameid":4520911,"name":"City of Pataskala","admin3":"61112"},{"geonameid":4526895,"name":"Township of Union","admin3":"78400"},{"geonameid":4833356,"name":"Township of Newton","admin3":"55580"},{"geonameid":5147078,"name":"Township of Bennington","admin3":"05494"},{"geonameid":5148746,"name":"Township of Burlington","admin3":"10366"},{"geonameid":5152927,"name":"Township of Eden","admin3":"24332"},{"geonameid":5153776,"name":"Township of Fallsbury","admin3":"26530"},{"geonameid":5156279,"name":"Township of Granville","admin3":"31416"},{"geonameid":5156801,"name":"Township of Hanover","admin3":"33299"},{"geonameid":5156998,"name":"Township of Harrison","admin3":"33894"},{"geonameid":5157040,"name":"Township of Hartford","admin3":"34188"},{"geonameid":5157222,"name":"City of Heath","admin3":"34748"},{"geonameid":5159187,"name":"Township of Jersey","admin3":"39102"},{"geonameid":5160717,"name":"Township of Liberty","admin3":"43232"},{"geonameid":5161603,"name":"Township of Madison","admin3":"46508"},{"geonameid":5162058,"name":"Township of Mary Ann","admin3":"48132"},{"geonameid":5162361,"name":"Township of McKean","admin3":"46116"},{"geonameid":5163339,"name":"Township of Monroe","admin3":"51450"},{"geonameid":5164479,"name":"City of Newark","admin3":"54040"},{"geonameid":5164480,"name":"Township of Newark","admin3":"54054"},{"geonameid":5166503,"name":"Township of Perry","admin3":"61924"},{"geonameid":5168951,"name":"Township of Saint Albans","admin3":"69456"},{"geonameid":5175812,"name":"Township of Washington","admin3":"81410"}],"alternateNames":[{"alternatenameId":2089549,"geonameid":5165418,"isoLanguage":"en","alternateName":"Ohio","isPreferredName":true,"isShortName":true,"isColloquial":false,"isHistoric":false}]},"__N_SSG":true}