{"pageProps":{"locale":"en","admin2":{"geonameid":5161272,"name":"Lorain County","country":"US","admin1":"OH","admin2":"093","admin3":"","latitude":"41.4525200","longitude":"-82.1514700"},"admin1":{"geonameid":5165418,"name":"Ohio","admin1":"OH","localeAltName":"Ohio"},"locations":[{"geonameid":5145695,"name":"Amherst","admin3":"01798"},{"geonameid":5146277,"name":"Avon","admin3":"03352"},{"geonameid":5146282,"name":"Avon Center","admin3":"03352"},{"geonameid":5146286,"name":"Avon Lake","admin3":"03464"},{"geonameid":4833304,"name":"Camden","admin3":"11010"},{"geonameid":5152868,"name":"Eaton Estates","admin3":"24220"},{"geonameid":5153207,"name":"Elyria","admin3":"25256"},{"geonameid":5156170,"name":"Grafton","admin3":"31150"},{"geonameid":5160041,"name":"Lagrange","admin3":""},{"geonameid":5161262,"name":"Lorain","admin3":"44856"},{"geonameid":5164903,"name":"North Ridgeville","admin3":"56966"},{"geonameid":5165445,"name":"Oberlin","admin3":"57834"},{"geonameid":5171854,"name":"Sheffield","admin3":"72060"},{"geonameid":5171856,"name":"Sheffield Lake","admin3":"72088"},{"geonameid":5172425,"name":"South Amherst","admin3":"01812"},{"geonameid":5175072,"name":"Vermilion","admin3":""},{"geonameid":5175080,"name":"Vermilion-on-the-Lake","admin3":"09568"},{"geonameid":5176023,"name":"Wellington","admin3":"82656"}],"admin3":[{"geonameid":5145710,"name":"City of Amherst","admin3":"01798"},{"geonameid":5145711,"name":"Township of Amherst","admin3":"01812"},{"geonameid":5146294,"name":"City of Avon Lake","admin3":"03464"},{"geonameid":5146300,"name":"City of Avon","admin3":"03352"},{"geonameid":5148222,"name":"Township of Brighton","admin3":"08770"},{"geonameid":5148440,"name":"Township of Brownhelm","admin3":"09568"},{"geonameid":5149022,"name":"Township of Camden","admin3":"11010"},{"geonameid":5149272,"name":"Township of Carlisle","admin3":"12140"},{"geonameid":5150848,"name":"Township of Columbia","admin3":"16910"},{"geonameid":5152871,"name":"Township of Eaton","admin3":"24220"},{"geonameid":5153224,"name":"City of Elyria","admin3":"25256"},{"geonameid":5153225,"name":"Township of Elyria","admin3":"25270"},{"geonameid":5156181,"name":"Township of Grafton","admin3":"31164"},{"geonameid":5157333,"name":"Township of Henrietta","admin3":"34972"},{"geonameid":5158250,"name":"Township of Huntington","admin3":"36876"},{"geonameid":5160045,"name":"Township of Lagrange","admin3":"5160045"},{"geonameid":5161293,"name":"City of Lorain","admin3":"44856"},{"geonameid":5164418,"name":"Township of New Russia","admin3":"55446"},{"geonameid":5164911,"name":"City of North Ridgeville","admin3":"56966"},{"geonameid":5166387,"name":"Township of Penfield","admin3":"61532"},{"geonameid":5166859,"name":"Township of Pittsfield","admin3":"62960"},{"geonameid":5168412,"name":"Township of Rochester","admin3":"67776"},{"geonameid":5171859,"name":"City of Sheffield Lake","admin3":"72088"},{"geonameid":5171864,"name":"Township of Sheffield","admin3":"72067"},{"geonameid":5171865,"name":"Village of Sheffield","admin3":"72060"},{"geonameid":5176036,"name":"Township of Wellington","admin3":"82656"},{"geonameid":7165919,"name":"Village of Grafton","admin3":"31150"},{"geonameid":7317078,"name":"City of Oberlin","admin3":"57834"}],"alternateNames":[{"alternatenameId":2089549,"geonameid":5165418,"isoLanguage":"en","alternateName":"Ohio","isPreferredName":true,"isShortName":true,"isColloquial":false,"isHistoric":false}]},"__N_SSG":true}