{"pageProps":{"locale":"en","admin2":{"geonameid":5161413,"name":"Lucas County","country":"US","admin1":"OH","admin2":"095","admin3":"","latitude":"41.6841900","longitude":"-83.4682600"},"admin1":{"geonameid":5165418,"name":"Ohio","admin1":"OH","localeAltName":"Ohio"},"locations":[{"geonameid":5157759,"name":"Holland","admin3":"74123"},{"geonameid":5162137,"name":"Maumee","admin3":"48342"},{"geonameid":5165734,"name":"Oregon","admin3":"58730"},{"geonameid":5165812,"name":"Ottawa Hills","admin3":"59010"},{"geonameid":5173572,"name":"Sylvania","admin3":"76025"},{"geonameid":5174035,"name":"Toledo","admin3":"77000"},{"geonameid":5175847,"name":"Waterville","admin3":""},{"geonameid":5176713,"name":"Whitehouse","admin3":"81872"}],"admin3":[{"geonameid":5156828,"name":"Village of Harbor View","admin3":"33376"},{"geonameid":5156873,"name":"Township of Harding","admin3":"33418"},{"geonameid":5159198,"name":"Township of Jerusalem","admin3":"39116"},{"geonameid":5162159,"name":"City of Maumee","admin3":"48342"},{"geonameid":5163298,"name":"Township of Monclova","admin3":"51156"},{"geonameid":5165742,"name":"City of Oregon","admin3":"58730"},{"geonameid":5165815,"name":"Village of Ottawa Hills","admin3":"59010"},{"geonameid":5167520,"name":"Township of Providence","admin3":"64836"},{"geonameid":5168034,"name":"Township of Richfield","admin3":"66516"},{"geonameid":5172708,"name":"Township of Spencer","admin3":"73990"},{"geonameid":5172837,"name":"Township of Springfield","admin3":"74123"},{"geonameid":5173525,"name":"Township of Swanton","admin3":"75903"},{"geonameid":5173582,"name":"Township of Sylvania","admin3":"76025"},{"geonameid":5174070,"name":"City of Toledo","admin3":"77000"},{"geonameid":5175814,"name":"Township of Washington","admin3":"81438"},{"geonameid":5175852,"name":"Township of Waterville","admin3":"81872"}],"alternateNames":[{"alternatenameId":2089549,"geonameid":5165418,"isoLanguage":"en","alternateName":"Ohio","isPreferredName":true,"isShortName":true,"isColloquial":false,"isHistoric":false}]},"__N_SSG":true}