{"pageProps":{"locale":"en","admin2":{"geonameid":4518598,"name":"Montgomery County","country":"US","admin1":"OH","admin2":"113","admin3":"","latitude":"39.7545900","longitude":"-84.2906800"},"admin1":{"geonameid":5165418,"name":"Ohio","admin1":"OH","localeAltName":"Ohio"},"locations":[{"geonameid":4507188,"name":"Brookville","admin3":"15518"},{"geonameid":4508204,"name":"Centerville","admin3":"81494"},{"geonameid":4508885,"name":"Clayton","admin3":"15644"},{"geonameid":4509884,"name":"Dayton","admin3":"21000"},{"geonameid":4510303,"name":"Drexel","admin3":"38738"},{"geonameid":4511064,"name":"Englewood","admin3":"25396"},{"geonameid":4511500,"name":"Farmersville","admin3":"37912"},{"geonameid":4512145,"name":"Fort McKinley","admin3":"21000"},{"geonameid":4512620,"name":"Germantown","admin3":"29904"},{"geonameid":4514746,"name":"Huber Heights","admin3":"36610"},{"geonameid":4515843,"name":"Kettering","admin3":"40040"},{"geonameid":4518188,"name":"Miamisburg","admin3":"49392"},{"geonameid":4518661,"name":"Moraine","admin3":"52010"},{"geonameid":4519583,"name":"New Lebanon","admin3":"37912"},{"geonameid":4519951,"name":"Northridge","admin3":"33922"},{"geonameid":4520163,"name":"Oakwood","admin3":"57764"},{"geonameid":4522586,"name":"Riverside","admin3":"67468"},{"geonameid":4524642,"name":"Shiloh","admin3":"33922"},{"geonameid":4526576,"name":"Trotwood","admin3":"77504"},{"geonameid":4526790,"name":"Union","admin3":"78625"},{"geonameid":4527124,"name":"Vandalia","admin3":"79492"},{"geonameid":4527963,"name":"West Carrollton City","admin3":"83090"}],"admin3":[{"geonameid":4507572,"name":"Township of Butler","admin3":"10618"},{"geonameid":4508866,"name":"Township of Clay","admin3":"15518"},{"geonameid":4509920,"name":"City of Dayton","admin3":"21000"},{"geonameid":4512618,"name":"Township of German","admin3":"29904"},{"geonameid":4513834,"name":"Township of Harrison","admin3":"33922"},{"geonameid":4514749,"name":"City of Huber Heights","admin3":"36610"},{"geonameid":4515373,"name":"Township of Jackson","admin3":"37912"},{"geonameid":4515479,"name":"Township of Jefferson","admin3":"38738"},{"geonameid":4515852,"name":"City of Kettering","admin3":"40040"},{"geonameid":4518186,"name":"Township of Miami","admin3":"49392"},{"geonameid":4518668,"name":"City of Moraine","admin3":"52010"},{"geonameid":4520174,"name":"City of Oakwood","admin3":"57764"},{"geonameid":4521122,"name":"Township of Perry","admin3":"61966"},{"geonameid":4527131,"name":"City of Vandalia","admin3":"79492"},{"geonameid":4527706,"name":"Township of Washington","admin3":"81494"},{"geonameid":4527968,"name":"City of West Carrollton","admin3":"83090"},{"geonameid":7163539,"name":"City of Englewood","admin3":"25396"},{"geonameid":7165004,"name":"City of Trotwood","admin3":"77504"},{"geonameid":7165396,"name":"City of Clayton","admin3":"15644"},{"geonameid":7166769,"name":"City of Riverside","admin3":"67468"}],"alternateNames":[{"alternatenameId":2089549,"geonameid":5165418,"isoLanguage":"en","alternateName":"Ohio","isPreferredName":true,"isShortName":true,"isColloquial":false,"isHistoric":false}]},"__N_SSG":true}