{"pageProps":{"locale":"en","admin2":{"geonameid":5166256,"name":"Paulding County","country":"US","admin1":"OH","admin2":"125","admin3":"","latitude":"41.1166200","longitude":"-84.5802000"},"admin1":{"geonameid":5165418,"name":"Ohio","admin1":"OH","localeAltName":"Ohio"},"locations":[{"geonameid":5145848,"name":"Antwerp","admin3":"12308"},{"geonameid":5166253,"name":"Paulding","admin3":"61266"},{"geonameid":5166334,"name":"Payne","admin3":"33950"}],"admin3":[{"geonameid":5146212,"name":"Township of Auglaize","admin3":"03002"},{"geonameid":5147093,"name":"Township of Benton","admin3":"05634"},{"geonameid":5147728,"name":"Township of Blue Creek","admin3":"07370"},{"geonameid":5148428,"name":"Township of Brown","admin3":"09512"},{"geonameid":5149335,"name":"Township of Carryall","admin3":"12308"},{"geonameid":5151354,"name":"Township of Crane","admin3":"19176"},{"geonameid":5153246,"name":"Township of Emerald","admin3":"25298"},{"geonameid":5157000,"name":"Township of Harrison","admin3":"33950"},{"geonameid":5159010,"name":"Township of Jackson","admin3":"37954"},{"geonameid":5160431,"name":"Township of Latty","admin3":"42000"},{"geonameid":5166270,"name":"Township of Paulding","admin3":"61266"},{"geonameid":5175818,"name":"Township of Washington","admin3":"81536"}],"alternateNames":[{"alternatenameId":2089549,"geonameid":5165418,"isoLanguage":"en","alternateName":"Ohio","isPreferredName":true,"isShortName":true,"isColloquial":false,"isHistoric":false}]},"__N_SSG":true}