{"pageProps":{"locale":"en","admin2":{"geonameid":5168041,"name":"Richland County","country":"US","admin1":"OH","admin2":"139","admin3":"","latitude":"40.7746800","longitude":"-82.5364800"},"admin1":{"geonameid":5165418,"name":"Ohio","admin1":"OH","localeAltName":"Ohio"},"locations":[{"geonameid":5147057,"name":"Bellville","admin3":"38794"},{"geonameid":5160635,"name":"Lexington","admin3":"77616"},{"geonameid":5160854,"name":"Lincoln Heights","admin3":""},{"geonameid":5161723,"name":"Mansfield","admin3":""},{"geonameid":5165664,"name":"Ontario","admin3":"74128"},{"geonameid":5171868,"name":"Shelby","admin3":"71830"}],"admin3":[{"geonameid":5147709,"name":"Township of Bloominggrove","admin3":"07230"},{"geonameid":5148816,"name":"Township of Butler","admin3":"10646"},{"geonameid":5149382,"name":"Township of Cass","admin3":"12420"},{"geonameid":5155112,"name":"Township of Franklin","admin3":"28406"},{"geonameid":5159012,"name":"Township of Jackson","admin3":"38038"},{"geonameid":5159132,"name":"Township of Jefferson","admin3":"38794"},{"geonameid":5161605,"name":"Township of Madison","admin3":"46578"},{"geonameid":5162914,"name":"Township of Mifflin","admin3":"50092"},{"geonameid":5163344,"name":"Township of Monroe","admin3":"51576"},{"geonameid":5166507,"name":"Township of Perry","admin3":"62050"},{"geonameid":5167179,"name":"Township of Plymouth","admin3":"63814"},{"geonameid":5170724,"name":"Township of Sandusky","admin3":"70394"},{"geonameid":5171795,"name":"Township of Sharon","admin3":"71830"},{"geonameid":5172839,"name":"Township of Springfield","admin3":"74128"},{"geonameid":5174392,"name":"Township of Troy","admin3":"77616"},{"geonameid":5175819,"name":"Township of Washington","admin3":"81578"},{"geonameid":5176022,"name":"Township of Weller","admin3":"82628"},{"geonameid":5177420,"name":"Township of Worthington","admin3":"86618"}],"alternateNames":[{"alternatenameId":2089549,"geonameid":5165418,"isoLanguage":"en","alternateName":"Ohio","isPreferredName":true,"isShortName":true,"isColloquial":false,"isHistoric":false}]},"__N_SSG":true}