{"pageProps":{"locale":"en","admin2":{"geonameid":4524221,"name":"Scioto County","country":"US","admin1":"OH","admin2":"145","admin3":"","latitude":"38.8039600","longitude":"-82.9928300"},"admin1":{"geonameid":5165418,"name":"Ohio","admin1":"OH","localeAltName":"Ohio"},"locations":[{"geonameid":4512229,"name":"Franklin Furnace","admin3":"31836"},{"geonameid":4517204,"name":"Lucasville","admin3":"79170"},{"geonameid":4519478,"name":"New Boston","admin3":"54166"},{"geonameid":4521816,"name":"Portsmouth","admin3":"64304"},{"geonameid":4522873,"name":"Rosemount","admin3":"15560"},{"geonameid":4524253,"name":"Sciotodale","admin3":"64206"},{"geonameid":4528051,"name":"West Portsmouth","admin3":"81606"},{"geonameid":4528203,"name":"Wheelersburg","admin3":"64206"}],"admin3":[{"geonameid":4506729,"name":"Township of Bloom","admin3":"06992"},{"geonameid":4507283,"name":"Township of Brush Creek","admin3":"09764"},{"geonameid":4508868,"name":"Township of Clay","admin3":"15560"},{"geonameid":4513241,"name":"Township of Green","admin3":"31836"},{"geonameid":4513840,"name":"Township of Harrison","admin3":"34020"},{"geonameid":4515483,"name":"Township of Jefferson","admin3":"38815"},{"geonameid":4517411,"name":"Township of Madison","admin3":"46606"},{"geonameid":4518695,"name":"Township of Morgan","admin3":"52150"},{"geonameid":4519484,"name":"Village of New Boston","admin3":"54166"},{"geonameid":4519782,"name":"Township of Nile","admin3":"55902"},{"geonameid":4521804,"name":"Township of Porter","admin3":"64206"},{"geonameid":4521829,"name":"City of Portsmouth","admin3":"64304"},{"geonameid":4522194,"name":"Township of Rarden","admin3":"65522"},{"geonameid":4523044,"name":"Township of Rush","admin3":"69092"},{"geonameid":4526903,"name":"Township of Union","admin3":"78554"},{"geonameid":4527098,"name":"Township of Valley","admin3":"79170"},{"geonameid":4527174,"name":"Township of Vernon","admin3":"79828"},{"geonameid":4527710,"name":"Township of Washington","admin3":"81606"}],"alternateNames":[{"alternatenameId":2089549,"geonameid":5165418,"isoLanguage":"en","alternateName":"Ohio","isPreferredName":true,"isShortName":true,"isColloquial":false,"isHistoric":false}]},"__N_SSG":true}