{"pageProps":{"locale":"en","admin2":{"geonameid":5177229,"name":"Wood County","country":"US","admin1":"OH","admin2":"173","admin3":"","latitude":"41.3616900","longitude":"-83.6229900"},"admin1":{"geonameid":5165418,"name":"Ohio","admin1":"OH","localeAltName":"Ohio"},"locations":[{"geonameid":5147968,"name":"Bowling Green","admin3":"07972"},{"geonameid":5148046,"name":"Bradner","admin3":"51744"},{"geonameid":5157096,"name":"Haskins","admin3":"49812"},{"geonameid":5161429,"name":"Luckey","admin3":"77630"},{"geonameid":5163008,"name":"Millbury","admin3":"41328"},{"geonameid":5164653,"name":"North Baltimore","admin3":"34986"},{"geonameid":5165069,"name":"Northwood","admin3":"57190"},{"geonameid":5166372,"name":"Pemberville","admin3":"28756"},{"geonameid":5166516,"name":"Perrysburg","admin3":"62148"},{"geonameid":5168673,"name":"Rossford","admin3":"68686"},{"geonameid":5175538,"name":"Walbridge","admin3":"41328"},{"geonameid":5176550,"name":"Weston","admin3":"83986"}],"admin3":[{"geonameid":5147681,"name":"Township of Bloom","admin3":"07020"},{"geonameid":5147978,"name":"City of Bowling Green","admin3":"07972"},{"geonameid":5149594,"name":"Township of Center","admin3":"13015"},{"geonameid":5155189,"name":"Township of Freedom","admin3":"28756"},{"geonameid":5156217,"name":"Township of Grand Rapids","admin3":"31220"},{"geonameid":5157351,"name":"Township of Henry","admin3":"34986"},{"geonameid":5159019,"name":"Township of Jackson","admin3":"38164"},{"geonameid":5160240,"name":"Township of Lake","admin3":"41328"},{"geonameid":5160725,"name":"Township of Liberty","admin3":"43400"},{"geonameid":5162869,"name":"Township of Middleton","admin3":"49812"},{"geonameid":5163128,"name":"Township of Milton","admin3":"50680"},{"geonameid":5163370,"name":"Township of Montgomery","admin3":"51744"},{"geonameid":5165084,"name":"City of Northwood","admin3":"57190"},{"geonameid":5166511,"name":"Township of Perry","admin3":"62106"},{"geonameid":5166526,"name":"City of Perrysburg","admin3":"62148"},{"geonameid":5166527,"name":"Township of Perrysburg","admin3":"62162"},{"geonameid":5166880,"name":"Township of Plain","admin3":"63002"},{"geonameid":5167308,"name":"Township of Portage","admin3":"64122"},{"geonameid":5168681,"name":"City of Rossford","admin3":"68686"},{"geonameid":5174393,"name":"Township of Troy","admin3":"77630"},{"geonameid":5175826,"name":"Township of Washington","admin3":"81704"},{"geonameid":5175984,"name":"Township of Webster","admin3":"82544"},{"geonameid":5176560,"name":"Township of Weston","admin3":"83986"}],"alternateNames":[{"alternatenameId":2089549,"geonameid":5165418,"isoLanguage":"en","alternateName":"Ohio","isPreferredName":true,"isShortName":true,"isColloquial":false,"isHistoric":false}]},"__N_SSG":true}