{"pageProps":{"locale":"en","admin2":{"geonameid":5177434,"name":"Wyandot County","country":"US","admin1":"OH","admin2":"175","admin3":"","latitude":"40.8423700","longitude":"-83.3043700"},"admin1":{"geonameid":5165418,"name":"Ohio","admin1":"OH","localeAltName":"Ohio"},"locations":[{"geonameid":5149257,"name":"Carey","admin3":"19246"},{"geonameid":5174870,"name":"Upper Sandusky","admin3":"19190"}],"admin3":[{"geonameid":5145847,"name":"Township of Antrim","admin3":"02190"},{"geonameid":5151355,"name":"Township of Crane","admin3":"19190"},{"geonameid":5151391,"name":"Township of Crawford","admin3":"19246"},{"geonameid":5152929,"name":"Township of Eden","admin3":"24360"},{"geonameid":5159020,"name":"Township of Jackson","admin3":"38178"},{"geonameid":5161997,"name":"Township of Marseilles","admin3":"48006"},{"geonameid":5162915,"name":"Township of Mifflin","admin3":"50106"},{"geonameid":5166850,"name":"Township of Pitt","admin3":"62904"},{"geonameid":5168055,"name":"Township of Richland","admin3":"66782"},{"geonameid":5168124,"name":"Township of Ridge","admin3":"66992"},{"geonameid":5170604,"name":"Township of Salem","admin3":"70016"},{"geonameid":5173569,"name":"Township of Sycamore","admin3":"75987"},{"geonameid":5174573,"name":"Township of Tymochtee","admin3":"78141"}],"alternateNames":[{"alternatenameId":2089549,"geonameid":5165418,"isoLanguage":"en","alternateName":"Ohio","isPreferredName":true,"isShortName":true,"isColloquial":false,"isHistoric":false}]},"__N_SSG":true}