{"pageProps":{"locale":"ro","admin2":{"geonameid":686185,"name":"Comuna Argetoaia","country":"RO","admin1":"17","admin2":"70744","admin3":"","latitude":"44.5092000","longitude":"23.3759300"},"admin1":{"geonameid":679134,"name":"Dolj","admin1":"17"},"locations":[{"geonameid":686186,"name":"Argetoaia"},{"geonameid":686184,"name":"Argetoaia de Jos"},{"geonameid":686050,"name":"Atârnaţi"},{"geonameid":685726,"name":"Bălăceşti"},{"geonameid":685420,"name":"Băranu"},{"geonameid":685084,"name":"Berbeșu"},{"geonameid":681856,"name":"Câmpu Crucii"},{"geonameid":676833,"name":"Grădinăreşti"},{"geonameid":675527,"name":"Iordăchești"},{"geonameid":674886,"name":"Leordoasa"},{"geonameid":674245,"name":"Macea"},{"geonameid":673979,"name":"Malumnic"},{"geonameid":673014,"name":"Moara Câmpu Crucii"},{"geonameid":672150,"name":"Novac"},{"geonameid":670766,"name":"Piria"},{"geonameid":670085,"name":"Poiana Fântânii"},{"geonameid":668212,"name":"Salcia"},{"geonameid":665365,"name":"Teascu din Deal"},{"geonameid":664100,"name":"Ursoaia"}],"admin3":[],"alternateNames":[]},"__N_SSG":true}