{"pageProps":{"locale":"en","admin2":{"geonameid":2647716,"name":"Gwynedd","country":"GB","admin1":"WLS","admin2":"Y2","admin3":"","latitude":"52.8333300","longitude":"-3.9166700","localeAltName":null},"admin1":{"geonameid":2634895,"name":"Wales","admin1":"WLS","localeAltName":"Wales"},"locations":[{"geonameid":2657857,"name":"Aber","admin3":"00NC001","localeAltName":null},{"geonameid":2657838,"name":"Aber Cowarch","admin3":"00NC051","localeAltName":null},{"geonameid":2657834,"name":"Aberdaron","admin3":"00NC002","localeAltName":null},{"geonameid":2657825,"name":"Aberdyfi","admin3":"00NC003","localeAltName":null},{"geonameid":2657822,"name":"Abererch","admin3":"00NC044","localeAltName":null},{"geonameid":2657806,"name":"Abergynolwyn","admin3":"00NC038","localeAltName":null},{"geonameid":2657788,"name":"Abersoch","admin3":"00NC036","localeAltName":null},{"geonameid":2657010,"name":"Arthog","admin3":"00NC004","localeAltName":null},{"geonameid":2656615,"name":"Bala","admin3":"00NC005","localeAltName":null},{"geonameid":2656397,"name":"Bangor","admin3":"00NC006","localeAltName":null},{"geonameid":2656311,"name":"Barmouth","admin3":"00NC007","localeAltName":null},{"geonameid":10245170,"name":"Bathesda Bach","admin3":"00NC032","localeAltName":null},{"geonameid":2656049,"name":"Beddgelert","admin3":"00NC008","localeAltName":null},{"geonameid":2655804,"name":"Bethesda","admin3":"00NC009","localeAltName":null},{"geonameid":2655795,"name":"Betws Garmon","admin3":"00NC010","localeAltName":null},{"geonameid":2655414,"name":"Blaenau-Ffestiniog","admin3":"00NC023","localeAltName":null},{"geonameid":2655276,"name":"Bodfean","admin3":"00NC015","localeAltName":null},{"geonameid":9538962,"name":"Bontnewydd","admin3":"00NC013","localeAltName":null},{"geonameid":8224200,"name":"Bontnewydd","admin3":"00NC011","localeAltName":null},{"geonameid":2655120,"name":"Botwnnog","admin3":"00NC012","localeAltName":null},{"geonameid":9538961,"name":"Brithdir Village","admin3":"00NC013","localeAltName":null},{"geonameid":2654445,"name":"Bryn-crug","admin3":"00NC014","localeAltName":null},{"geonameid":2654438,"name":"Bryncir","admin3":"00NC020","localeAltName":null},{"geonameid":2654446,"name":"Bryncroes","admin3":"00NC012","localeAltName":null},{"geonameid":11237653,"name":"Caeathro","admin3":"00NC063","localeAltName":null},{"geonameid":7302206,"name":"Caerdeon","admin3":"00NC007","localeAltName":null},{"geonameid":2654092,"name":"Caernarfon","admin3":"00NC016","localeAltName":null},{"geonameid":10245174,"name":"Capeluchaf","admin3":"00NC017","localeAltName":null},{"geonameid":2653714,"name":"Carnguwch","admin3":"00NC056","localeAltName":null},{"geonameid":2653013,"name":"Chwilog","admin3":"00NC049","localeAltName":null},{"geonameid":10103962,"name":"Clwt - y - bont","admin3":"00NC030","localeAltName":null},{"geonameid":2652722,"name":"Clynnog-fawr","admin3":"00NC017","localeAltName":null},{"geonameid":11072006,"name":"Coed-y-glyn","admin3":"00NC003","localeAltName":null},{"geonameid":2652330,"name":"Corris","admin3":"00NC018","localeAltName":null},{"geonameid":2651994,"name":"Criccieth","admin3":"00NC019","localeAltName":null},{"geonameid":2651877,"name":"Cross Foxes","admin3":"00NC021","localeAltName":null},{"geonameid":2651643,"name":"Cwm-y-glo","admin3":"00NC046","localeAltName":null},{"geonameid":10103963,"name":"Deiniolen","admin3":"00NC030","localeAltName":null},{"geonameid":9409849,"name":"Dinas","admin3":"00NC061","localeAltName":null},{"geonameid":2651252,"name":"Dinas Dinlle","admin3":"00NC032","localeAltName":null},{"geonameid":2651249,"name":"Dinas Mawddwy","admin3":"00NC051","localeAltName":null},{"geonameid":2651238,"name":"Dinorwic","admin3":"00NC030","localeAltName":null},{"geonameid":2651158,"name":"Dolbenmaen","admin3":"00NC020","localeAltName":null},{"geonameid":2651154,"name":"Dolgellau","admin3":"00NC021","localeAltName":null},{"geonameid":9166459,"name":"Dolgoch","admin3":"00NC014","localeAltName":null},{"geonameid":2650594,"name":"Dyffryn","admin3":"00NC022","localeAltName":null},{"geonameid":8299864,"name":"Dyffryn Ardudwy","admin3":"00NC022","localeAltName":null},{"geonameid":2650237,"name":"Ederyn","admin3":"00NC052","localeAltName":null},{"geonameid":10103964,"name":"Fachwen","admin3":"00NC030","localeAltName":null},{"geonameid":6620357,"name":"Fairbourne","admin3":"00NC004","localeAltName":null},{"geonameid":2649493,"name":"Ffestiniog","admin3":"00NC023","localeAltName":null},{"geonameid":10245171,"name":"Ffridd Uchaf","admin3":"00NC010","localeAltName":null},{"geonameid":2649018,"name":"Frongoch","admin3":"00NC048","localeAltName":null},{"geonameid":10103961,"name":"Gallt - y - foel","admin3":"00NC030","localeAltName":null},{"geonameid":8299867,"name":"Garndolbenmaen","admin3":"00NC020","localeAltName":null},{"geonameid":2647846,"name":"Groeslon","admin3":"00NC032","localeAltName":null},{"geonameid":2647720,"name":"Gwydir","admin3":"00NC026","localeAltName":null},{"geonameid":2647710,"name":"Gyrngôch","admin3":"00NC026","localeAltName":null},{"geonameid":2647471,"name":"Harlech","admin3":"00NC025","localeAltName":null},{"geonameid":9612815,"name":"Islawr-Dref","admin3":"00NC004","localeAltName":null},{"geonameid":8063567,"name":"Llan Ffestiniog","admin3":"00NC023","localeAltName":null},{"geonameid":2644197,"name":"Llanaber","admin3":"00NC007","localeAltName":null},{"geonameid":2644196,"name":"Llanaelhaiarn","admin3":"00NC026","localeAltName":null},{"geonameid":2644191,"name":"Llanarmon","admin3":"00NC049","localeAltName":null},{"geonameid":2644176,"name":"Llanbedr","admin3":"00NC027","localeAltName":null},{"geonameid":2644175,"name":"Llanbedrog","admin3":"00NC028","localeAltName":null},{"geonameid":2644172,"name":"Llanberis","admin3":"00NC029","localeAltName":null},{"geonameid":2644156,"name":"Llandderfel","admin3":"00NC031","localeAltName":null},{"geonameid":2644146,"name":"Llanddwywe","admin3":"00NC022","localeAltName":null},{"geonameid":2644144,"name":"Llandecwyn","admin3":"00NC059","localeAltName":null},{"geonameid":2644140,"name":"Llandegai","admin3":"00NC033","localeAltName":null},{"geonameid":2644136,"name":"Llandegwning","admin3":"00NC012","localeAltName":null},{"geonameid":2644118,"name":"Llandudwen","admin3":"00NC015","localeAltName":null},{"geonameid":2644116,"name":"Llandwrog","admin3":"00NC032","localeAltName":null},{"geonameid":2644104,"name":"Llanegryn","admin3":"00NC034","localeAltName":null},{"geonameid":2644099,"name":"Llanelltyd","admin3":"00NC035","localeAltName":null},{"geonameid":2644098,"name":"Llanenddwyn","admin3":"00NC022","localeAltName":null},{"geonameid":2644097,"name":"Llanengan","admin3":"00NC036","localeAltName":null},{"geonameid":2644092,"name":"Llanfachreth","admin3":"00NC013","localeAltName":null},{"geonameid":2644090,"name":"Llanfaelrhys","admin3":"00NC002","localeAltName":null},{"geonameid":2644086,"name":"Llanfair","admin3":"00NC037","localeAltName":null},{"geonameid":2644070,"name":"Llanfihangel Bachellaeth","admin3":"00NC015","localeAltName":null},{"geonameid":2644058,"name":"Llanfihangel-y-pennant","admin3":"00NC020","localeAltName":null},{"geonameid":2644059,"name":"Llanfihangel-y-Pennant","admin3":"00NC038","localeAltName":null},{"geonameid":2644056,"name":"Llanfor","admin3":"00NC031","localeAltName":null},{"geonameid":2644055,"name":"Llanfrothen","admin3":"00NC039","localeAltName":null},{"geonameid":2644033,"name":"Llangelynin","admin3":"00NC040","localeAltName":null},{"geonameid":2644026,"name":"Llangian","admin3":"00NC036","localeAltName":null},{"geonameid":2644017,"name":"Llangower","admin3":"00NC041","localeAltName":null},{"geonameid":2644009,"name":"Llangwnadl","admin3":"00NC061","localeAltName":null},{"geonameid":2644005,"name":"Llangybi","admin3":"00NC049","localeAltName":null},{"geonameid":2643982,"name":"Llanllechid","admin3":"00NC042","localeAltName":null},{"geonameid":2643978,"name":"Llanllyfni","admin3":"00NC043","localeAltName":null},{"geonameid":2643972,"name":"Llannor","admin3":"00NC044","localeAltName":null},{"geonameid":2643958,"name":"Llanrug","admin3":"00NC046","localeAltName":null},{"geonameid":2643930,"name":"Llanuwchllyn","admin3":"00NC045","localeAltName":null},{"geonameid":2643913,"name":"Llanwnda","admin3":"00NC047","localeAltName":null},{"geonameid":2643898,"name":"Llanycil","admin3":"00NC048","localeAltName":null},{"geonameid":2643896,"name":"Llanymawddwy","admin3":"00NC051","localeAltName":null},{"geonameid":2643893,"name":"Llanystumdwy","admin3":"00NC049","localeAltName":null},{"geonameid":2643885,"name":"Llithfaen","admin3":"00NC056","localeAltName":null},{"geonameid":2643875,"name":"Llwyngwril","admin3":"00NC040","localeAltName":null},{"geonameid":2643224,"name":"Maentwrog","admin3":"00NC050","localeAltName":null},{"geonameid":2643147,"name":"Mallwyd","admin3":"00NC051","localeAltName":null},{"geonameid":2642680,"name":"Meyllteyrn","admin3":"00NC012","localeAltName":null},{"geonameid":2642447,"name":"Minffordd","admin3":"00NC054","localeAltName":null},{"geonameid":2642387,"name":"Moel-tryfan","admin3":"00NC047","localeAltName":null},{"geonameid":2642195,"name":"Morfa Nefyn","admin3":"00NC052","localeAltName":null},{"geonameid":8714331,"name":"Mynytho","admin3":"00NC036","localeAltName":null},{"geonameid":8181669,"name":"Nant Gwynant","admin3":"00NC008","localeAltName":null},{"geonameid":2641896,"name":"Nantlle","admin3":"00NC043","localeAltName":null},{"geonameid":10245176,"name":"Nasareth","admin3":"00NC043","localeAltName":null},{"geonameid":10245177,"name":"Nebo","admin3":"00NC043","localeAltName":null},{"geonameid":2641745,"name":"Nefyn","admin3":"00NC052","localeAltName":null},{"geonameid":2640671,"name":"Pale","admin3":"00NC031","localeAltName":null},{"geonameid":2640656,"name":"Pandy","admin3":"00NC045","localeAltName":null},{"geonameid":10103965,"name":"Penisa'r Waun","admin3":"00NC030","localeAltName":null},{"geonameid":2640457,"name":"Penllech","admin3":"00NC061","localeAltName":null},{"geonameid":2640447,"name":"Pennal","admin3":"00NC053","localeAltName":null},{"geonameid":2640423,"name":"Penrhos","admin3":"00NC028","localeAltName":null},{"geonameid":2640419,"name":"Penrhyndeudraeth","admin3":"00NC054","localeAltName":null},{"geonameid":2640379,"name":"Penygroes","admin3":"00NC043","localeAltName":null},{"geonameid":2640263,"name":"Pistyll","admin3":"00NC056","localeAltName":null},{"geonameid":10103953,"name":"Pont Pen - y - benglog","admin3":"00NC033","localeAltName":null},{"geonameid":11054511,"name":"Porthdinllaen","admin3":"00NC052","localeAltName":null},{"geonameid":2640045,"name":"Porthmadog","admin3":"00NC057","localeAltName":null},{"geonameid":6620365,"name":"Portmeirion","admin3":"00NC054","localeAltName":null},{"geonameid":2639828,"name":"Pwllheli","admin3":"00NC058","localeAltName":null},{"geonameid":2639451,"name":"Rhiw","admin3":"00NC002","localeAltName":null},{"geonameid":2639428,"name":"Rhôs-y-llan","admin3":"00NC061","localeAltName":null},{"geonameid":9410025,"name":"Rhydymain","admin3":"00NC013","localeAltName":null},{"geonameid":2638507,"name":"Sarn","admin3":"00NC012","localeAltName":null},{"geonameid":2637479,"name":"South Beach","admin3":"00NC058","localeAltName":null},{"geonameid":10245173,"name":"Tai'n Lon","admin3":"00NC017","localeAltName":null},{"geonameid":11550915,"name":"Tal-y-bont","admin3":"00NC022","localeAltName":null},{"geonameid":2636290,"name":"Talsarnau","admin3":"00NC059","localeAltName":null},{"geonameid":2636286,"name":"Talyllyn","admin3":"00NC038","localeAltName":null},{"geonameid":10245175,"name":"Talysarn","admin3":"00NC043","localeAltName":null},{"geonameid":2636252,"name":"Tan-y-Bwlch","admin3":"00NC050","localeAltName":null},{"geonameid":2636251,"name":"Tanygrisiau","admin3":"00NC023","localeAltName":null},{"geonameid":10245178,"name":"Tanyraltt","admin3":"00NC043","localeAltName":null},{"geonameid":2635699,"name":"Ton-fanau","admin3":"00NC040","localeAltName":null},{"geonameid":2635581,"name":"Towyn","admin3":"00NC062","localeAltName":null},{"geonameid":2635557,"name":"Trawsfynydd","admin3":"00NC060","localeAltName":null},{"geonameid":2635530,"name":"Tregarth","admin3":"00NC033","localeAltName":null},{"geonameid":2635514,"name":"Tremadoc","admin3":"00NC057","localeAltName":null},{"geonameid":8199186,"name":"Tremadog","admin3":"00NC057","localeAltName":null},{"geonameid":2635474,"name":"Trevor","admin3":"00NC026","localeAltName":null},{"geonameid":2635319,"name":"Tudweiliog","admin3":"00NC061","localeAltName":null},{"geonameid":6559494,"name":"Tywyn","admin3":"00NC062","localeAltName":null},{"geonameid":7522128,"name":"Upper Corris","admin3":"00NC018","localeAltName":null},{"geonameid":2634915,"name":"Waunfawr","admin3":"00NC063","localeAltName":null},{"geonameid":6951032,"name":"Y Felinheli","admin3":"00NC064","localeAltName":null}],"admin3":[{"geonameid":2654090,"name":"Caernarfon","admin3":"00NC016","localeAltName":"Caernarfonshire"},{"geonameid":7290795,"name":"Trawsfynydd","admin3":"00NC060","localeAltName":null},{"geonameid":7293618,"name":"Barmouth","admin3":"00NC007","localeAltName":null},{"geonameid":7293619,"name":"Beddgelert","admin3":"00NC008","localeAltName":null},{"geonameid":7293620,"name":"Bethesda","admin3":"00NC009","localeAltName":null},{"geonameid":7293621,"name":"Betws Garmon","admin3":"00NC010","localeAltName":null},{"geonameid":7293622,"name":"Bontnewydd","admin3":"00NC011","localeAltName":null},{"geonameid":7293623,"name":"Bryn-Crug","admin3":"00NC014","localeAltName":null},{"geonameid":7293624,"name":"Buan","admin3":"00NC015","localeAltName":null},{"geonameid":7293625,"name":"Llanbedrog","admin3":"00NC028","localeAltName":null},{"geonameid":7293626,"name":"Llanegryn","admin3":"00NC034","localeAltName":null},{"geonameid":7293627,"name":"Llanrug","admin3":"00NC046","localeAltName":null},{"geonameid":7293628,"name":"Llanystumdwy","admin3":"00NC049","localeAltName":null},{"geonameid":7293629,"name":"Pistyll","admin3":"00NC056","localeAltName":null},{"geonameid":7293630,"name":"Tudweiliog","admin3":"00NC061","localeAltName":null},{"geonameid":7295208,"name":"Aberdaron","admin3":"00NC002","localeAltName":null},{"geonameid":7295209,"name":"Bala","admin3":"00NC005","localeAltName":null},{"geonameid":7295210,"name":"Botwnnog","admin3":"00NC012","localeAltName":null},{"geonameid":7295211,"name":"Dyffryn Ardudwy","admin3":"00NC022","localeAltName":null},{"geonameid":7295212,"name":"Llandderfel","admin3":"00NC031","localeAltName":null},{"geonameid":7295213,"name":"Llandygai","admin3":"00NC033","localeAltName":null},{"geonameid":7295214,"name":"Llangelynin","admin3":"00NC040","localeAltName":null},{"geonameid":7295215,"name":"Llanuwchllyn","admin3":"00NC045","localeAltName":null},{"geonameid":7295216,"name":"Mawddwy","admin3":"00NC051","localeAltName":null},{"geonameid":7295218,"name":"Nefyn","admin3":"00NC052","localeAltName":null},{"geonameid":7295220,"name":"Penrhyndeudraeth","admin3":"00NC054","localeAltName":null},{"geonameid":7295221,"name":"Pentir","admin3":"00NC055"},{"geonameid":7296530,"name":"Criccieth","admin3":"00NC019","localeAltName":null},{"geonameid":7296532,"name":"Maentwrog","admin3":"00NC050","localeAltName":null},{"geonameid":7296533,"name":"Y Felinheli","admin3":"00NC064","localeAltName":null},{"geonameid":7298010,"name":"Clynnog","admin3":"00NC017","localeAltName":null},{"geonameid":7298011,"name":"Talsarnau","admin3":"00NC059","localeAltName":null},{"geonameid":7298620,"name":"Bangor","admin3":"00NC006","localeAltName":null},{"geonameid":7298621,"name":"Corris","admin3":"00NC018","localeAltName":null},{"geonameid":7298622,"name":"Dolbenmaen","admin3":"00NC020","localeAltName":null},{"geonameid":7298623,"name":"Llanbedr","admin3":"00NC027","localeAltName":null},{"geonameid":7298624,"name":"Llanberis","admin3":"00NC029","localeAltName":null},{"geonameid":7298625,"name":"Llanfair","admin3":"00NC037","localeAltName":null},{"geonameid":7298626,"name":"Llanfihangel-y-Pennant","admin3":"00NC038","localeAltName":null},{"geonameid":7298627,"name":"Llanllechid","admin3":"00NC042","localeAltName":null},{"geonameid":7298628,"name":"Llannor","admin3":"00NC044","localeAltName":null},{"geonameid":7298629,"name":"Pwllheli","admin3":"00NC058","localeAltName":null},{"geonameid":7298631,"name":"Waunfawr","admin3":"00NC063","localeAltName":null},{"geonameid":7298976,"name":"Porthmadog","admin3":"00NC057","localeAltName":null},{"geonameid":7300634,"name":"Aber","admin3":"00NC001","localeAltName":null},{"geonameid":7300635,"name":"Aberdyfi","admin3":"00NC003","localeAltName":null},{"geonameid":7300636,"name":"Arthog","admin3":"00NC004","localeAltName":null},{"geonameid":7300637,"name":"Brithdir and Llanfachreth","admin3":"00NC013","localeAltName":null},{"geonameid":7300638,"name":"Dolgellau","admin3":"00NC021","localeAltName":null},{"geonameid":7300639,"name":"Ffestiniog","admin3":"00NC023","localeAltName":null},{"geonameid":7300640,"name":"Ganllwyd","admin3":"00NC024"},{"geonameid":7300641,"name":"Harlech","admin3":"00NC025","localeAltName":null},{"geonameid":7300642,"name":"Llanaelhaearn","admin3":"00NC026","localeAltName":null},{"geonameid":7300643,"name":"Llanddeiniolen","admin3":"00NC030","localeAltName":null},{"geonameid":7300644,"name":"Llandwrog","admin3":"00NC032","localeAltName":null},{"geonameid":7300645,"name":"Llanelltyd","admin3":"00NC035","localeAltName":null},{"geonameid":7300646,"name":"Llanengan","admin3":"00NC036","localeAltName":null},{"geonameid":7300647,"name":"Llanfrothen","admin3":"00NC039","localeAltName":null},{"geonameid":7300648,"name":"Llangywer","admin3":"00NC041","localeAltName":null},{"geonameid":7300649,"name":"Llanllyfni","admin3":"00NC043","localeAltName":null},{"geonameid":7300650,"name":"Llanwnda","admin3":"00NC047","localeAltName":null},{"geonameid":7300651,"name":"Llanycil","admin3":"00NC048","localeAltName":null},{"geonameid":7300652,"name":"Pennal","admin3":"00NC053","localeAltName":null},{"geonameid":7300653,"name":"Tywyn","admin3":"00NC062","localeAltName":null}],"alternateNames":[{"alternatenameId":1626654,"geonameid":2634895,"isoLanguage":"en","alternateName":"Wales","isPreferredName":true,"isShortName":true,"isColloquial":false,"isHistoric":false},{"alternatenameId":3058758,"geonameid":2654090,"isoLanguage":"en","alternateName":"Caernarfonshire","isPreferredName":true,"isShortName":true,"isColloquial":false,"isHistoric":false}]},"__N_SSG":true}