{"pageProps":{"locale":"en","admin2":{"geonameid":4901622,"name":"McDonough County","country":"US","admin1":"IL","admin2":"109","admin3":"","latitude":"40.4562100","longitude":"-90.6779100","localeAltName":null},"admin1":{"geonameid":4896861,"name":"Illinois","admin1":"IL","localeAltName":"Illinois"},"locations":[{"geonameid":4885110,"name":"Blandinsville","admin3":"06483","localeAltName":null},{"geonameid":4886117,"name":"Bushnell","admin3":"10123","localeAltName":null},{"geonameid":4888331,"name":"Colchester","admin3":"15391","localeAltName":null},{"geonameid":4900817,"name":"Macomb","admin3":"45915","localeAltName":null}],"admin3":[{"geonameid":4884757,"name":"Township of Bethel","admin3":"05638"},{"geonameid":4885115,"name":"Township of Blandinsville","admin3":"06483","localeAltName":null},{"geonameid":4886124,"name":"Township of Bushnell","admin3":"10123","localeAltName":null},{"geonameid":4887150,"name":"Township of Chalmers","admin3":"12333"},{"geonameid":4888337,"name":"Township of Colchester","admin3":"15391","localeAltName":null},{"geonameid":4890850,"name":"Township of Eldorado","admin3":"22996"},{"geonameid":4891157,"name":"Township of Emmet","admin3":"24101"},{"geonameid":4896032,"name":"Township of Hire","admin3":"35333"},{"geonameid":4897100,"name":"Township of Industry","admin3":"37452"},{"geonameid":4899281,"name":"Township of Lamoine","admin3":"41820"},{"geonameid":4900823,"name":"Township of Macomb City","admin3":"45915","localeAltName":null},{"geonameid":4900831,"name":"Township of Macomb","admin3":"45902"},{"geonameid":4902839,"name":"Township of Mound","admin3":"50738"},{"geonameid":4903610,"name":"Township of New Salem","admin3":"52792"},{"geonameid":4906608,"name":"Township of Prairie City","admin3":"61561"},{"geonameid":4910893,"name":"Township of Sciota","admin3":"68211"},{"geonameid":4910903,"name":"Township of Scotland","admin3":"68250"},{"geonameid":4913347,"name":"Township of Tennessee","admin3":"74678"},{"geonameid":4915426,"name":"Township of Walnut Grove","admin3":"78591"}],"alternateNames":[{"alternatenameId":2089562,"geonameid":4896861,"isoLanguage":"en","alternateName":"Illinois","isPreferredName":true,"isShortName":true,"isColloquial":false,"isHistoric":false}]},"__N_SSG":true}