{"pageProps":{"locale":"en","admin2":{"geonameid":3333123,"name":"Bath and North East Somerset","country":"GB","admin1":"ENG","admin2":"A4","admin3":"","latitude":"51.3333300","longitude":"-2.5000000","localeAltName":null},"admin1":{"geonameid":6269131,"name":"England","admin1":"ENG","localeAltName":"England"},"locations":[{"geonameid":2656173,"name":"Bath","admin3":"","localeAltName":null},{"geonameid":2656172,"name":"Bathampton","admin3":"00HA001","localeAltName":null},{"geonameid":2656171,"name":"Batheaston","admin3":"00HA002","localeAltName":null},{"geonameid":2656170,"name":"Bathford","admin3":"00HA003","localeAltName":null},{"geonameid":9884028,"name":"Belluton","admin3":"00HA042","localeAltName":null},{"geonameid":3345404,"name":"Bishop Sutton","admin3":"00HA043","localeAltName":null},{"geonameid":2654275,"name":"Burnett","admin3":"00HA013","localeAltName":null},{"geonameid":6619695,"name":"Cameley","admin3":"00HA004","localeAltName":null},{"geonameid":2653924,"name":"Camerton","admin3":"00HA005","localeAltName":null},{"geonameid":9253745,"name":"Charlcombe","admin3":"00HA006","localeAltName":null},{"geonameid":2653258,"name":"Chelwood","admin3":"00HA007","localeAltName":null},{"geonameid":2653197,"name":"Chew Magna","admin3":"00HA008","localeAltName":null},{"geonameid":2653196,"name":"Chew Stoke","admin3":"00HA009","localeAltName":null},{"geonameid":11524159,"name":"Claverton","admin3":"00HA010","localeAltName":null},{"geonameid":2652739,"name":"Clutton","admin3":"00HA011","localeAltName":null},{"geonameid":2652483,"name":"Compton Dando","admin3":"00HA013","localeAltName":null},{"geonameid":2652481,"name":"Compton Martin","admin3":"00HA014","localeAltName":null},{"geonameid":2652313,"name":"Corston","admin3":"00HA015","localeAltName":null},{"geonameid":2650422,"name":"East Harptree","admin3":"00HA017","localeAltName":null},{"geonameid":2649674,"name":"Farmborough","admin3":"00HA019","localeAltName":null},{"geonameid":2649644,"name":"Farrington Gurney","admin3":"00HA020","localeAltName":null},{"geonameid":2649070,"name":"Freshford","admin3":"00HA021","localeAltName":null},{"geonameid":2647623,"name":"Hallatrow","admin3":"00HA022","localeAltName":null},{"geonameid":2646846,"name":"Hinton Charterhouse","admin3":"00HA024","localeAltName":null},{"geonameid":9884025,"name":"Huntstrete","admin3":"00HA013","localeAltName":null},{"geonameid":2645847,"name":"Kelston","admin3":"00HA025","localeAltName":null},{"geonameid":2645733,"name":"Keynsham","admin3":"00HA026","localeAltName":null},{"geonameid":11887255,"name":"Lansdown","admin3":"00HA006","localeAltName":null},{"geonameid":10103806,"name":"Larkhall","admin3":"","localeAltName":null},{"geonameid":2643015,"name":"Marksbury","admin3":"00HA027","localeAltName":null},{"geonameid":2642570,"name":"Midford","admin3":"00HA041","localeAltName":null},{"geonameid":2642557,"name":"Midsomer Norton","admin3":"00HA033","localeAltName":null},{"geonameid":8658769,"name":"Newton St Loe","admin3":"00HA030","localeAltName":null},{"geonameid":9884031,"name":"North Wick","admin3":"00HA008","localeAltName":null},{"geonameid":2641221,"name":"North Widcombe","admin3":"00HA048","localeAltName":null},{"geonameid":9884030,"name":"Norton Hawkfield","admin3":"00HA032","localeAltName":null},{"geonameid":9884029,"name":"Norton Malreward","admin3":"00HA032","localeAltName":null},{"geonameid":2640559,"name":"Paulton","admin3":"00HA034","localeAltName":null},{"geonameid":3345396,"name":"Peasedown Saint John","admin3":"00HA035","localeAltName":null},{"geonameid":2640410,"name":"Pensford","admin3":"00HA037","localeAltName":null},{"geonameid":2639883,"name":"Priston","admin3":"00HA036","localeAltName":null},{"geonameid":2639871,"name":"Publow","admin3":"00HA037","localeAltName":null},{"geonameid":9884023,"name":"Queen Charlton","admin3":"00HA013","localeAltName":null},{"geonameid":2639715,"name":"Radstock","admin3":"00HA033","localeAltName":null},{"geonameid":2638639,"name":"Saltford","admin3":"00HA039","localeAltName":null},{"geonameid":2637281,"name":"South Widcombe","admin3":"00HA023","localeAltName":null},{"geonameid":9884026,"name":"Stanton Drew","admin3":"00HA042","localeAltName":null},{"geonameid":8181793,"name":"Stanton Wick","admin3":"00HA042","localeAltName":null},{"geonameid":2636751,"name":"Stowey","admin3":"00HA043","localeAltName":null},{"geonameid":3345398,"name":"Temple Cloud","admin3":"00HA004","localeAltName":null},{"geonameid":2635801,"name":"Timsbury","admin3":"00HA045","localeAltName":null},{"geonameid":2635310,"name":"Twerton","admin3":"00HA018","localeAltName":null},{"geonameid":2635245,"name":"Ubley","admin3":"00HA046","localeAltName":null},{"geonameid":2636457,"name":"Upper Swainswick","admin3":"00HA044","localeAltName":null},{"geonameid":2634571,"name":"Wellow","admin3":"00HA047","localeAltName":null},{"geonameid":2634398,"name":"West Harptree","admin3":"00HA048","localeAltName":null},{"geonameid":2634129,"name":"Whitchurch","admin3":"00HA049","localeAltName":null},{"geonameid":9884024,"name":"Woollard","admin3":"00HA037","localeAltName":null},{"geonameid":6693663,"name":"Writhlington","admin3":"00HA033","localeAltName":null}],"admin3":[{"geonameid":7290724,"name":"Combe Hay","admin3":"00HA012"},{"geonameid":7290772,"name":"Chelwood","admin3":"00HA007","localeAltName":null},{"geonameid":7296075,"name":"Batheaston","admin3":"00HA002","localeAltName":null},{"geonameid":7296076,"name":"Keynsham","admin3":"00HA026","localeAltName":null},{"geonameid":7296077,"name":"Marksbury","admin3":"00HA027","localeAltName":null},{"geonameid":7296079,"name":"Monkton Combe","admin3":"00HA028"},{"geonameid":7296080,"name":"Newton St. Loe","admin3":"00HA030","localeAltName":null},{"geonameid":7296081,"name":"Norton Malreward","admin3":"00HA032","localeAltName":null},{"geonameid":7296082,"name":"Priston","admin3":"00HA036","localeAltName":null},{"geonameid":7296083,"name":"Stanton Drew","admin3":"00HA042","localeAltName":null},{"geonameid":7296084,"name":"Ubley","admin3":"00HA046","localeAltName":null},{"geonameid":7296086,"name":"Whitchurch","admin3":"00HA049","localeAltName":null},{"geonameid":7296159,"name":"Chew Magna","admin3":"00HA008","localeAltName":null},{"geonameid":7296160,"name":"Claverton","admin3":"00HA010","localeAltName":null},{"geonameid":7296161,"name":"Clutton","admin3":"00HA011","localeAltName":null},{"geonameid":7296162,"name":"Corston","admin3":"00HA015","localeAltName":null},{"geonameid":7296164,"name":"Farmborough","admin3":"00HA019","localeAltName":null},{"geonameid":7296165,"name":"Farrington Gurney","admin3":"00HA020","localeAltName":null},{"geonameid":7296166,"name":"Freshford","admin3":"00HA021","localeAltName":null},{"geonameid":7296167,"name":"Bathampton","admin3":"00HA001","localeAltName":null},{"geonameid":7296168,"name":"Hinton Charterhouse","admin3":"00HA024","localeAltName":null},{"geonameid":7296169,"name":"Norton-Radstock","admin3":"00HA033","localeAltName":null},{"geonameid":7296170,"name":"Paulton","admin3":"00HA034","localeAltName":null},{"geonameid":7296171,"name":"Shoscombe","admin3":"00HA040"},{"geonameid":7296172,"name":"Timsbury","admin3":"00HA045","localeAltName":null},{"geonameid":7296173,"name":"West Harptree","admin3":"00HA048","localeAltName":null},{"geonameid":7296348,"name":"Cameley","admin3":"00HA004","localeAltName":null},{"geonameid":7296349,"name":"Camerton","admin3":"00HA005","localeAltName":null},{"geonameid":7296350,"name":"Charlcombe","admin3":"00HA006","localeAltName":null},{"geonameid":7296351,"name":"Chew Stoke","admin3":"00HA009","localeAltName":null},{"geonameid":7296352,"name":"Compton Dando","admin3":"00HA013","localeAltName":null},{"geonameid":7296516,"name":"East Harptree","admin3":"00HA017","localeAltName":null},{"geonameid":7296517,"name":"High Littleton","admin3":"00HA022","localeAltName":null},{"geonameid":7296552,"name":"Dunkerton","admin3":"00HA016"},{"geonameid":7296553,"name":"Kelston","admin3":"00HA025","localeAltName":null},{"geonameid":7296554,"name":"North Stoke","admin3":"00HA031"},{"geonameid":7296555,"name":"Saltford","admin3":"00HA039","localeAltName":null},{"geonameid":7296556,"name":"Southstoke","admin3":"00HA041","localeAltName":null},{"geonameid":7296557,"name":"Stowey-Sutton","admin3":"00HA043","localeAltName":null},{"geonameid":7296558,"name":"Wellow","admin3":"00HA047","localeAltName":null},{"geonameid":7298312,"name":"Bathford","admin3":"00HA003","localeAltName":null},{"geonameid":7298313,"name":"Compton Martin","admin3":"00HA014","localeAltName":null},{"geonameid":7298314,"name":"Englishcombe","admin3":"00HA018","localeAltName":null},{"geonameid":7298315,"name":"Hinton Blewett","admin3":"00HA023","localeAltName":null},{"geonameid":7298316,"name":"Nempnett Thrubwell","admin3":"00HA029"},{"geonameid":7298317,"name":"Peasedown St. John","admin3":"00HA035","localeAltName":null},{"geonameid":7298318,"name":"Publow","admin3":"00HA037","localeAltName":null},{"geonameid":7298319,"name":"St. Catherine","admin3":"00HA038"},{"geonameid":7298320,"name":"Swainswick","admin3":"00HA044","localeAltName":null}],"alternateNames":[{"alternatenameId":1626647,"geonameid":6269131,"isoLanguage":"en","alternateName":"England","isPreferredName":true,"isShortName":true,"isColloquial":false,"isHistoric":false}]},"__N_SSG":true}