{"pageProps":{"locale":"en","admin2":{"geonameid":3333202,"name":"Borough of Stockport","country":"GB","admin1":"ENG","admin2":"N2","admin3":"","latitude":"53.4166700","longitude":"-2.1666700","localeAltName":"Stockport"},"admin1":{"geonameid":6269131,"name":"England","admin1":"ENG","localeAltName":"England"},"locations":[{"geonameid":2654927,"name":"Bramhall","admin3":"00EQ107","localeAltName":null},{"geonameid":2654814,"name":"Bredbury","admin3":"","localeAltName":null},{"geonameid":2653291,"name":"Cheadle","admin3":"","localeAltName":null},{"geonameid":6615590,"name":"Cheadle Heath","admin3":"00EQ107","localeAltName":null},{"geonameid":2653290,"name":"Cheadle Hulme","admin3":"","localeAltName":null},{"geonameid":2647246,"name":"Hazel Grove","admin3":"","localeAltName":null},{"geonameid":2647213,"name":"Heaton Chapel","admin3":"","localeAltName":null},{"geonameid":11551046,"name":"Heaton Moor","admin3":"","localeAltName":null},{"geonameid":2647212,"name":"Heaton Norris","admin3":"00BS001","localeAltName":null},{"geonameid":11551045,"name":"Heaviley","admin3":"","localeAltName":null},{"geonameid":2642999,"name":"Marple","admin3":"00EQ047","localeAltName":null},{"geonameid":2642778,"name":"Mellor","admin3":"","localeAltName":null},{"geonameid":11551044,"name":"Offerton","admin3":"00BS001","localeAltName":null},{"geonameid":6691254,"name":"Reddish","admin3":"","localeAltName":null},{"geonameid":2639191,"name":"Romiley","admin3":"00BS001","localeAltName":null},{"geonameid":2636882,"name":"Stockport","admin3":"","localeAltName":null},{"geonameid":2636653,"name":"Strines","admin3":"","localeAltName":null},{"geonameid":2633656,"name":"Woodford","admin3":"","localeAltName":null},{"geonameid":2633632,"name":"Woodley","admin3":"","localeAltName":null}],"admin3":[{"geonameid":7301310,"name":"Offerton Park","admin3":"00BS001","localeAltName":null}],"alternateNames":[{"alternatenameId":8666527,"geonameid":3333202,"isoLanguage":"en","alternateName":"Stockport","isPreferredName":true,"isShortName":true,"isColloquial":false,"isHistoric":false},{"alternatenameId":1626647,"geonameid":6269131,"isoLanguage":"en","alternateName":"England","isPreferredName":true,"isShortName":true,"isColloquial":false,"isHistoric":false}]},"__N_SSG":true}