{"pageProps":{"locale":"en","admin2":{"geonameid":2641238,"name":"Borough of North Tyneside","country":"GB","admin1":"ENG","admin2":"J5","admin3":"","latitude":"55.0333300","longitude":"-1.5000000","localeAltName":null},"admin1":{"geonameid":6269131,"name":"England","admin1":"ENG","localeAltName":"England"},"locations":[{"geonameid":11983853,"name":"Annitsford","admin3":"","localeAltName":null},{"geonameid":2651751,"name":"Cullercoats","admin3":"00EM167","localeAltName":null},{"geonameid":2650410,"name":"East Howdon","admin3":"00EM167","localeAltName":null},{"geonameid":2649218,"name":"Forest Hall","admin3":"","localeAltName":null},{"geonameid":8063589,"name":"Howdon","admin3":"","localeAltName":null},{"geonameid":2645626,"name":"Killingworth","admin3":"00EM167","localeAltName":null},{"geonameid":2643719,"name":"Longbenton","admin3":"00CJ004","localeAltName":null},{"geonameid":2642330,"name":"Monkseaton","admin3":"","localeAltName":null},{"geonameid":2641267,"name":"North Shields","admin3":"","localeAltName":null},{"geonameid":2638275,"name":"Seaton Burn","admin3":"","localeAltName":null},{"geonameid":3236250,"name":"Shiremoor","admin3":"","localeAltName":null},{"geonameid":2635269,"name":"Tynemouth","admin3":"00EM167","localeAltName":null},{"geonameid":2634864,"name":"Wallsend","admin3":"","localeAltName":null},{"geonameid":2634032,"name":"Whitley Bay","admin3":"00EM167","localeAltName":null},{"geonameid":2633895,"name":"Willington Quay","admin3":"00EM167","localeAltName":null}],"admin3":[],"alternateNames":[{"alternatenameId":1626647,"geonameid":6269131,"isoLanguage":"en","alternateName":"England","isPreferredName":true,"isShortName":true,"isColloquial":false,"isHistoric":false}]},"__N_SSG":true}