{"pageProps":{"locale":"en","admin2":{"geonameid":3333130,"name":"Bracknell Forest","country":"GB","admin1":"ENG","admin2":"B3","admin3":"","latitude":"51.4166700","longitude":"-0.7500000","localeAltName":"Bracknell Forest"},"admin1":{"geonameid":6269131,"name":"England","admin1":"ENG","localeAltName":"England"},"locations":[{"geonameid":2655644,"name":"Binfield","admin3":"00MA001","localeAltName":null},{"geonameid":2655009,"name":"Bracknell","admin3":"00MA002","localeAltName":null},{"geonameid":2651831,"name":"Crowthorne","admin3":"00MA003","localeAltName":null},{"geonameid":2650428,"name":"Easthampstead","admin3":"00MA002","localeAltName":null},{"geonameid":7116409,"name":"Great Hollands","admin3":"00MA002","localeAltName":null},{"geonameid":2638580,"name":"Sandhurst","admin3":"00MA004","localeAltName":null},{"geonameid":2634773,"name":"Warfield","admin3":"00MA005","localeAltName":null},{"geonameid":2633819,"name":"Winkfield","admin3":"00MA006","localeAltName":null}],"admin3":[{"geonameid":7292855,"name":"Crowthorne","admin3":"00MA003","localeAltName":null},{"geonameid":7292856,"name":"Sandhurst","admin3":"00MA004","localeAltName":null},{"geonameid":7294200,"name":"Binfield","admin3":"00MA001","localeAltName":null},{"geonameid":7296000,"name":"Bracknell","admin3":"00MA002","localeAltName":null},{"geonameid":7299763,"name":"Winkfield","admin3":"00MA006","localeAltName":null},{"geonameid":7300547,"name":"Warfield","admin3":"00MA005","localeAltName":null}],"alternateNames":[{"alternatenameId":8666544,"geonameid":3333130,"isoLanguage":"en","alternateName":"Bracknell Forest","isPreferredName":true,"isShortName":true,"isColloquial":false,"isHistoric":false},{"alternatenameId":1626647,"geonameid":6269131,"isoLanguage":"en","alternateName":"England","isPreferredName":true,"isShortName":true,"isColloquial":false,"isHistoric":false}]},"__N_SSG":true}