{"pageProps":{"locale":"en","admin2":{"geonameid":2653940,"name":"Cambridgeshire","country":"GB","admin1":"ENG","admin2":"C3","admin3":"","latitude":"52.3333300","longitude":"0.0833300","localeAltName":"Cambridgeshire"},"admin1":{"geonameid":6269131,"name":"England","admin1":"ENG","localeAltName":"England"},"locations":[{"geonameid":2657861,"name":"Abbots Ripton","admin3":"12UE","localeAltName":null},{"geonameid":2657862,"name":"Abbotsley","admin3":"12UE","localeAltName":null},{"geonameid":2657565,"name":"Alconbury","admin3":"12UE","localeAltName":null},{"geonameid":2657382,"name":"Alwalton","admin3":"12UE","localeAltName":null},{"geonameid":10103874,"name":"Arbury","admin3":"12UB","localeAltName":null},{"geonameid":2657020,"name":"Arrington","admin3":"12UG","localeAltName":null},{"geonameid":2656940,"name":"Ashley","admin3":"2650488","localeAltName":null},{"geonameid":2656686,"name":"Babraham","admin3":"12UG","localeAltName":null},{"geonameid":2656433,"name":"Balsham","admin3":"12UG","localeAltName":null},{"geonameid":6284555,"name":"Bar Hill","admin3":"12UG","localeAltName":null},{"geonameid":2656255,"name":"Barrington","admin3":"12UG","localeAltName":null},{"geonameid":2656222,"name":"Bartlow","admin3":"12UG","localeAltName":null},{"geonameid":10103876,"name":"Barton","admin3":"12UG","localeAltName":null},{"geonameid":2656199,"name":"Barway","admin3":"2650488","localeAltName":null},{"geonameid":2656184,"name":"Bassingbourn","admin3":"12UG","localeAltName":null},{"geonameid":11592759,"name":"Benwick","admin3":"12UD","localeAltName":null},{"geonameid":2655320,"name":"Bluntisham","admin3":"12UE","localeAltName":null},{"geonameid":2655123,"name":"Bottisham","admin3":"2650488","localeAltName":null},{"geonameid":2655101,"name":"Bourn","admin3":"12UG","localeAltName":null},{"geonameid":2655036,"name":"Boxworth","admin3":"12UG","localeAltName":null},{"geonameid":2654919,"name":"Brampton","admin3":"12UE","localeAltName":null},{"geonameid":2654684,"name":"Brinkley","admin3":"2650488","localeAltName":null},{"geonameid":2654419,"name":"Buckden","admin3":"12UE","localeAltName":null},{"geonameid":7670881,"name":"Burrough Green","admin3":"12UG","localeAltName":null},{"geonameid":2654195,"name":"Burwell","admin3":"2650488","localeAltName":null},{"geonameid":2654188,"name":"Bury","admin3":"12UE","localeAltName":null},{"geonameid":2654126,"name":"Bythorn","admin3":"12UE","localeAltName":null},{"geonameid":11592595,"name":"Caldecote","admin3":"12UG","localeAltName":null},{"geonameid":9409226,"name":"Cambourne","admin3":"12UG","localeAltName":null},{"geonameid":2653941,"name":"Cambridge","admin3":"12UB","localeAltName":null},{"geonameid":10103875,"name":"Castle","admin3":"12UB","localeAltName":null},{"geonameid":2653603,"name":"Castle Camps","admin3":"12UG","localeAltName":null},{"geonameid":2653489,"name":"Catworth","admin3":"12UE","localeAltName":null},{"geonameid":2653462,"name":"Caxton","admin3":"12UG","localeAltName":null},{"geonameid":2653298,"name":"Chatteris","admin3":"12UD","localeAltName":null},{"geonameid":2653242,"name":"Cherry Hinton","admin3":"12UB","localeAltName":null},{"geonameid":2653217,"name":"Chesterton","admin3":"12UE","localeAltName":null},{"geonameid":2653218,"name":"Chesterton","admin3":"12UB","localeAltName":null},{"geonameid":2653211,"name":"Chettisham","admin3":"2650488","localeAltName":null},{"geonameid":2653205,"name":"Cheveley","admin3":"2650488","localeAltName":null},{"geonameid":2653143,"name":"Chippenham","admin3":"2650488","localeAltName":null},{"geonameid":11593133,"name":"Christchurch","admin3":"12UD","localeAltName":null},{"geonameid":2652611,"name":"Coldham","admin3":"12UD","localeAltName":null},{"geonameid":2652545,"name":"Colne","admin3":"12UE","localeAltName":null},{"geonameid":2652502,"name":"Comberton","admin3":"12UG","localeAltName":null},{"geonameid":2652459,"name":"Conington","admin3":"12UE","localeAltName":null},{"geonameid":2652460,"name":"Conington","admin3":"12UG","localeAltName":null},{"geonameid":2652391,"name":"Coppingford","admin3":"12UE","localeAltName":null},{"geonameid":2652275,"name":"Coton","admin3":"12UG","localeAltName":null},{"geonameid":2652269,"name":"Cottenham","admin3":"12UG","localeAltName":null},{"geonameid":2652224,"name":"Coveney","admin3":"2650488","localeAltName":null},{"geonameid":2651825,"name":"Croxton","admin3":"12UG","localeAltName":null},{"geonameid":7287971,"name":"Croydon","admin3":"12UG","localeAltName":null},{"geonameid":2651268,"name":"Diddington","admin3":"12UE","localeAltName":null},{"geonameid":2651181,"name":"Doddington","admin3":"12UD","localeAltName":null},{"geonameid":2651031,"name":"Downham","admin3":"2650488","localeAltName":null},{"geonameid":2650898,"name":"Dry Drayton","admin3":"12UG","localeAltName":null},{"geonameid":2650808,"name":"Dullingham","admin3":"2650488","localeAltName":null},{"geonameid":2650605,"name":"Duxford","admin3":"12UG","localeAltName":null},{"geonameid":2650558,"name":"Earith","admin3":"12UE","localeAltName":null},{"geonameid":2650420,"name":"East Hatley","admin3":"12UG","localeAltName":null},{"geonameid":2650365,"name":"Easton","admin3":"12UE","localeAltName":null},{"geonameid":2650293,"name":"Eaton Socon","admin3":"12UE","localeAltName":null},{"geonameid":2650092,"name":"Ellington","admin3":"12UE","localeAltName":null},{"geonameid":2650081,"name":"Elm","admin3":"12UD","localeAltName":null},{"geonameid":2650044,"name":"Elsworth","admin3":"12UG","localeAltName":null},{"geonameid":2650041,"name":"Eltisley","admin3":"12UG","localeAltName":null},{"geonameid":2650039,"name":"Elton","admin3":"12UE","localeAltName":null},{"geonameid":2650023,"name":"Ely","admin3":"2650488","localeAltName":null},{"geonameid":2649839,"name":"Eversden","admin3":"12UG","localeAltName":null},{"geonameid":2649694,"name":"Farcet","admin3":"12UE","localeAltName":null},{"geonameid":11887938,"name":"Fen Ditton","admin3":"12UG","localeAltName":null},{"geonameid":11592809,"name":"Fen Drayton","admin3":"12UG","localeAltName":null},{"geonameid":2649549,"name":"Fenstanton","admin3":"12UE","localeAltName":null},{"geonameid":2649255,"name":"Folksworth","admin3":"12UE","localeAltName":null},{"geonameid":2649229,"name":"Fordham","admin3":"2650488","localeAltName":null},{"geonameid":2649122,"name":"Fowlmere","admin3":"12UG","localeAltName":null},{"geonameid":2649116,"name":"Foxton","admin3":"12UG","localeAltName":null},{"geonameid":2649000,"name":"Fulbourn","admin3":"12UG","localeAltName":null},{"geonameid":2648899,"name":"Gamlingay","admin3":"12UG","localeAltName":null},{"geonameid":2648627,"name":"Girton","admin3":"12UG","localeAltName":null},{"geonameid":2648556,"name":"Glatton","admin3":"12UE","localeAltName":null},{"geonameid":2648370,"name":"Godmanchester","admin3":"12UE","localeAltName":null},{"geonameid":2648303,"name":"Gorfield","admin3":"12UD","localeAltName":null},{"geonameid":2648242,"name":"Grafham","admin3":"12UE","localeAltName":null},{"geonameid":10103877,"name":"Grantchester","admin3":"12UG","localeAltName":null},{"geonameid":2648194,"name":"Graveley","admin3":"12UG","localeAltName":null},{"geonameid":2648135,"name":"Great Chishill","admin3":"12UG","localeAltName":null},{"geonameid":11593288,"name":"Great Eversden","admin3":"12UG","localeAltName":null},{"geonameid":2648100,"name":"Great Gidding","admin3":"12UE","localeAltName":null},{"geonameid":2648095,"name":"Great Gransden","admin3":"12UE","localeAltName":null},{"geonameid":2648038,"name":"Great Paxton","admin3":"12UE","localeAltName":null},{"geonameid":7287968,"name":"Great Shelford","admin3":"12UG","localeAltName":null},{"geonameid":2648014,"name":"Great Staughton","admin3":"12UE","localeAltName":null},{"geonameid":2648010,"name":"Great Stukeley","admin3":"12UE","localeAltName":null},{"geonameid":2647992,"name":"Great Wilbraham","admin3":"12UG","localeAltName":null},{"geonameid":2647794,"name":"Guilden Morden","admin3":"12UG","localeAltName":null},{"geonameid":2647742,"name":"Guyhirn","admin3":"12UD","localeAltName":null},{"geonameid":2647687,"name":"Haddenham","admin3":"2650488","localeAltName":null},{"geonameid":2647682,"name":"Haddon","admin3":"12UE","localeAltName":null},{"geonameid":2647654,"name":"Hail Weston","admin3":"12UE","localeAltName":null},{"geonameid":2647573,"name":"Hamerton","admin3":"12UE","localeAltName":null},{"geonameid":2647492,"name":"Hardwick","admin3":"12UG","localeAltName":null},{"geonameid":11592811,"name":"Harlton","admin3":"12UG","localeAltName":null},{"geonameid":2647419,"name":"Harston","admin3":"12UG","localeAltName":null},{"geonameid":2647410,"name":"Hartford","admin3":"12UE","localeAltName":null},{"geonameid":2647362,"name":"Haslingfield","admin3":"12UG","localeAltName":null},{"geonameid":2647337,"name":"Hatley Saint George","admin3":"12UG","localeAltName":null},{"geonameid":2647318,"name":"Hauxton","admin3":"12UG","localeAltName":null},{"geonameid":2647134,"name":"Hemingford Abbots","admin3":"12UE","localeAltName":null},{"geonameid":2647133,"name":"Hemingford Grey","admin3":"12UE","localeAltName":null},{"geonameid":2647004,"name":"Heydon","admin3":"12UG","localeAltName":null},{"geonameid":2646905,"name":"Hildersham","admin3":"12UG","localeAltName":null},{"geonameid":2646875,"name":"Hilton","admin3":"12UE","localeAltName":null},{"geonameid":2646840,"name":"Hinxton","admin3":"12UG","localeAltName":null},{"geonameid":2646828,"name":"Histon","admin3":"12UG","localeAltName":null},{"geonameid":2646731,"name":"Holme","admin3":"12UE","localeAltName":null},{"geonameid":2646674,"name":"Holywell","admin3":"12UE","localeAltName":null},{"geonameid":7670879,"name":"Horningsea","admin3":"12UG","localeAltName":null},{"geonameid":6690256,"name":"Horseheath","admin3":"12UG","localeAltName":null},{"geonameid":10109510,"name":"Horseway","admin3":"12UD","localeAltName":null},{"geonameid":11153730,"name":"Houghton","admin3":"12UE","localeAltName":null},{"geonameid":2646393,"name":"Huntingdon","admin3":"12UE","localeAltName":null},{"geonameid":2646303,"name":"Ickleton","admin3":"12UG","localeAltName":null},{"geonameid":2646012,"name":"Isleham","admin3":"2650488","localeAltName":null},{"geonameid":2645806,"name":"Kennett","admin3":"2650488","localeAltName":null},{"geonameid":2645731,"name":"Keyston","admin3":"12UE","localeAltName":null},{"geonameid":2645536,"name":"Kimbolton","admin3":"12UE","localeAltName":null},{"geonameid":2645434,"name":"Kingston","admin3":"12UG","localeAltName":null},{"geonameid":2645187,"name":"Kirtling","admin3":"2650488","localeAltName":null},{"geonameid":6284113,"name":"Landbeach","admin3":"12UG","localeAltName":null},{"geonameid":2644653,"name":"Leighton Bromswold","admin3":"12UE","localeAltName":null},{"geonameid":2644566,"name":"Leverington","admin3":"12UD","localeAltName":null},{"geonameid":2644434,"name":"Linton","admin3":"12UG","localeAltName":null},{"geonameid":2644382,"name":"Litlington","admin3":"12UG","localeAltName":null},{"geonameid":11592812,"name":"Little Eversden","admin3":"12UG","localeAltName":null},{"geonameid":2644271,"name":"Little Paxton","admin3":"12UE","localeAltName":null},{"geonameid":2644266,"name":"Little Raveley","admin3":"12UE","localeAltName":null},{"geonameid":10109506,"name":"Little Street","admin3":"2650488","localeAltName":null},{"geonameid":2644239,"name":"Little Stukeley","admin3":"12UE","localeAltName":null},{"geonameid":11594611,"name":"Little Thetford","admin3":"","localeAltName":null},{"geonameid":2644220,"name":"Little Wilbraham","admin3":"12UG","localeAltName":null},{"geonameid":2644268,"name":"Littleport","admin3":"2650488","localeAltName":null},{"geonameid":7670885,"name":"Lode","admin3":"2650488","localeAltName":null},{"geonameid":2643752,"name":"Lolworth","admin3":"12UG","localeAltName":null},{"geonameid":2643630,"name":"Long Stow","admin3":"12UE","localeAltName":null},{"geonameid":2643629,"name":"Long Stowe","admin3":"12UG","localeAltName":null},{"geonameid":2643634,"name":"Longstanton","admin3":"12UG","localeAltName":null},{"geonameid":2643231,"name":"Madingley","admin3":"12UG","localeAltName":null},{"geonameid":2643121,"name":"Manea","admin3":"12UD","localeAltName":null},{"geonameid":2643071,"name":"March","admin3":"12UD","localeAltName":null},{"geonameid":2642802,"name":"Melbourn","admin3":"12UG","localeAltName":null},{"geonameid":2642792,"name":"Meldreth","admin3":"12UG","localeAltName":null},{"geonameid":2642732,"name":"Mepal","admin3":"2650488","localeAltName":null},{"geonameid":2642476,"name":"Milton","admin3":"12UG","localeAltName":null},{"geonameid":2642368,"name":"Molesworth","admin3":"12UE","localeAltName":null},{"geonameid":2642238,"name":"Morborne","admin3":"12UE","localeAltName":null},{"geonameid":2641951,"name":"Murrow","admin3":"12UD","localeAltName":null},{"geonameid":2641827,"name":"Needingworth","admin3":"12UE","localeAltName":null},{"geonameid":11592740,"name":"Newton","admin3":"12UG","localeAltName":null},{"geonameid":2641564,"name":"Newton","admin3":"12UD","localeAltName":null},{"geonameid":6693667,"name":"Norman Cross","admin3":"12UE","localeAltName":null},{"geonameid":12041525,"name":"Northstowe","admin3":"12UG","localeAltName":null},{"geonameid":2641125,"name":"Oakington","admin3":"12UG","localeAltName":null},{"geonameid":2641068,"name":"Offord Cluny","admin3":"12UE","localeAltName":null},{"geonameid":2641067,"name":"Offord D’Arcy","admin3":"12UE","localeAltName":null},{"geonameid":2641017,"name":"Old Hurst","admin3":"12UE","localeAltName":null},{"geonameid":2640983,"name":"Old Weston","admin3":"12UE","localeAltName":null},{"geonameid":2640883,"name":"Orwell","admin3":"12UG","localeAltName":null},{"geonameid":2640778,"name":"Over","admin3":"12UG","localeAltName":null},{"geonameid":2640663,"name":"Pampisford","admin3":"12UG","localeAltName":null},{"geonameid":2640624,"name":"Papworth Everard","admin3":"12UG","localeAltName":null},{"geonameid":7670883,"name":"Parson Drove","admin3":"12UD","localeAltName":null},{"geonameid":2640584,"name":"Paston","admin3":"","localeAltName":null},{"geonameid":12022223,"name":"Perry","admin3":"12UE","localeAltName":null},{"geonameid":10103873,"name":"Petersfield","admin3":"12UB","localeAltName":null},{"geonameid":6355171,"name":"Pidley","admin3":"12UE","localeAltName":null},{"geonameid":2639895,"name":"Prickwillow","admin3":"2650488","localeAltName":null},{"geonameid":10109515,"name":"Purls Bridge","admin3":"12UD","localeAltName":null},{"geonameid":8629563,"name":"Queen Adelaide","admin3":"2650488","localeAltName":null},{"geonameid":11592594,"name":"Rampton","admin3":"12UG","localeAltName":null},{"geonameid":2639664,"name":"Ramsey","admin3":"12UE","localeAltName":null},{"geonameid":6545292,"name":"Ramsey Heights","admin3":"12UE","localeAltName":null},{"geonameid":2639662,"name":"Ramsey Saint Marys","admin3":"12UE","localeAltName":null},{"geonameid":11592813,"name":"Reach","admin3":"","localeAltName":null},{"geonameid":2638776,"name":"Saint Ives","admin3":"12UE","localeAltName":null},{"geonameid":2638717,"name":"Saint Neots","admin3":"12UE","localeAltName":null},{"geonameid":2638474,"name":"Sawston","admin3":"12UG","localeAltName":null},{"geonameid":2638473,"name":"Sawtry","admin3":"12UE","localeAltName":null},{"geonameid":2638069,"name":"Shelford","admin3":"12UG","localeAltName":null},{"geonameid":2638037,"name":"Shepreth","admin3":"12UG","localeAltName":null},{"geonameid":2637967,"name":"Shingay","admin3":"12UG","localeAltName":null},{"geonameid":2637886,"name":"Shudy Camps","admin3":"12UG","localeAltName":null},{"geonameid":2637800,"name":"Six Mile Bottom","admin3":"12UG","localeAltName":null},{"geonameid":2637601,"name":"Snailwell","admin3":"2650488","localeAltName":null},{"geonameid":2637554,"name":"Soham","admin3":"2650488","localeAltName":null},{"geonameid":10277694,"name":"Soham Cotes","admin3":"2650488","localeAltName":null},{"geonameid":2637528,"name":"Somersham","admin3":"12UE","localeAltName":null},{"geonameid":2637354,"name":"Southoe","admin3":"12UE","localeAltName":null},{"geonameid":2637262,"name":"Spaldwick","admin3":"12UE","localeAltName":null},{"geonameid":7287969,"name":"Stapleford","admin3":"12UG","localeAltName":null},{"geonameid":2636965,"name":"Steeple Morden","admin3":"12UG","localeAltName":null},{"geonameid":2636941,"name":"Stetchworth","admin3":"2650488","localeAltName":null},{"geonameid":11979581,"name":"Stibbington","admin3":"12UE","localeAltName":null},{"geonameid":2636914,"name":"Stilton","admin3":"12UE","localeAltName":null},{"geonameid":12023507,"name":"Stonely","admin3":"12UE","localeAltName":null},{"geonameid":2636756,"name":"Stow cum Quy","admin3":"12UG","localeAltName":null},{"geonameid":2636661,"name":"Stretham","admin3":"2650488","localeAltName":null},{"geonameid":2636587,"name":"Stuntney","admin3":"2650488","localeAltName":null},{"geonameid":2636497,"name":"Sutton","admin3":"12UE","localeAltName":null},{"geonameid":2636498,"name":"Sutton","admin3":"2650488","localeAltName":null},{"geonameid":2636463,"name":"Swaffham Bulbeck","admin3":"2650488","localeAltName":null},{"geonameid":2636462,"name":"Swaffham Prior","admin3":"2650488","localeAltName":null},{"geonameid":2636409,"name":"Swavesey","admin3":"12UG","localeAltName":null},{"geonameid":10171176,"name":"Tetworth","admin3":"12UE","localeAltName":null},{"geonameid":2636076,"name":"Teversham","admin3":"12UG","localeAltName":null},{"geonameid":2635917,"name":"Thriplow","admin3":"12UG","localeAltName":null},{"geonameid":2635837,"name":"Tilbrook","admin3":"12UE","localeAltName":null},{"geonameid":2635740,"name":"Toft","admin3":"12UG","localeAltName":null},{"geonameid":2635414,"name":"Trumpington","admin3":"12UB","localeAltName":null},{"geonameid":7870482,"name":"Turves","admin3":"12UD","localeAltName":null},{"geonameid":2635284,"name":"Tydd Saint Giles","admin3":"12UD","localeAltName":null},{"geonameid":2635096,"name":"Upton","admin3":"12UE","localeAltName":null},{"geonameid":2635076,"name":"Upwood","admin3":"12UE","localeAltName":null},{"geonameid":2634834,"name":"Walton","admin3":"","localeAltName":null},{"geonameid":2634796,"name":"Warboys","admin3":"12UE","localeAltName":null},{"geonameid":2634774,"name":"Waresley","admin3":"12UE","localeAltName":null},{"geonameid":2634683,"name":"Water Newton","admin3":"12UE","localeAltName":null},{"geonameid":2634701,"name":"Waterbeach","admin3":"12UG","localeAltName":null},{"geonameid":10109508,"name":"Welch's Dam","admin3":"12UD","localeAltName":null},{"geonameid":2634536,"name":"Wendy","admin3":"12UG","localeAltName":null},{"geonameid":11902774,"name":"Wentworth","admin3":"2650488","localeAltName":null},{"geonameid":2634520,"name":"Werrington","admin3":"","localeAltName":null},{"geonameid":2634233,"name":"West Wickham","admin3":"12UG","localeAltName":null},{"geonameid":2634221,"name":"West Wratting","admin3":"12UG","localeAltName":null},{"geonameid":2634362,"name":"Westley Waterless","admin3":"2650488","localeAltName":null},{"geonameid":2634199,"name":"Whaddon","admin3":"12UG","localeAltName":null},{"geonameid":2634010,"name":"Whittlesey","admin3":"12UD","localeAltName":null},{"geonameid":2634009,"name":"Whittlesford","admin3":"12UG","localeAltName":null},{"geonameid":2633980,"name":"Wicken","admin3":"2650488","localeAltName":null},{"geonameid":2633925,"name":"Wilburton","admin3":"2650488","localeAltName":null},{"geonameid":2633900,"name":"Willingham","admin3":"12UG","localeAltName":null},{"geonameid":2633864,"name":"Wimblington","admin3":"12UD","localeAltName":null},{"geonameid":10104024,"name":"Wimpole","admin3":"12UG","localeAltName":null},{"geonameid":2633776,"name":"Winwick","admin3":"12UE","localeAltName":null},{"geonameid":2633771,"name":"Wisbech","admin3":"12UD","localeAltName":null},{"geonameid":2633768,"name":"Wisbech Saint Mary","admin3":"12UD","localeAltName":null},{"geonameid":2633755,"name":"Wistow","admin3":"12UE","localeAltName":null},{"geonameid":2633753,"name":"Witcham","admin3":"2650488","localeAltName":null},{"geonameid":2633751,"name":"Witchford","admin3":"2650488","localeAltName":null},{"geonameid":2633614,"name":"Wood Walton","admin3":"12UE","localeAltName":null},{"geonameid":7670880,"name":"Woodditton","admin3":"2650488","localeAltName":null},{"geonameid":2633638,"name":"Woodhurst","admin3":"12UE","localeAltName":null},{"geonameid":2633431,"name":"Wyton","admin3":"12UE","localeAltName":null},{"geonameid":2633399,"name":"Yaxley","admin3":"12UE","localeAltName":null},{"geonameid":2633385,"name":"Yelling","admin3":"12UE","localeAltName":null}],"admin3":[{"geonameid":2646390,"name":"Huntingdonshire","admin3":"12UE","localeAltName":null},{"geonameid":2649556,"name":"Fenland District","admin3":"12UD","localeAltName":null},{"geonameid":2650488,"name":"East Cambridgeshire","admin3":"2650488","localeAltName":null},{"geonameid":7290660,"name":"Cambridge District","admin3":"12UB","localeAltName":null},{"geonameid":7290661,"name":"South Cambridgeshire District","admin3":"12UG","localeAltName":null}],"alternateNames":[{"alternatenameId":8666551,"geonameid":2653940,"isoLanguage":"en","alternateName":"Cambridgeshire","isPreferredName":true,"isShortName":true,"isColloquial":false,"isHistoric":false},{"alternatenameId":1626647,"geonameid":6269131,"isoLanguage":"en","alternateName":"England","isPreferredName":true,"isShortName":true,"isColloquial":false,"isHistoric":false}]},"__N_SSG":true}