{"pageProps":{"locale":"en","admin2":{"geonameid":3333190,"name":"City and Borough of Salford","country":"GB","admin1":"ENG","admin2":"L5","admin3":"","latitude":"53.5000000","longitude":"-2.3333300","localeAltName":"Salford"},"admin1":{"geonameid":6269131,"name":"England","admin1":"ENG","localeAltName":"England"},"locations":[{"geonameid":2656205,"name":"Barton upon Irwell","admin3":"","localeAltName":null},{"geonameid":6301954,"name":"Boothstown","admin3":"00BU001","localeAltName":null},{"geonameid":11550986,"name":"Broughton","admin3":"","localeAltName":null},{"geonameid":2650278,"name":"Eccles","admin3":"","localeAltName":null},{"geonameid":2650104,"name":"Ellenbrook","admin3":"","localeAltName":null},{"geonameid":2646042,"name":"Irlam","admin3":"00BU001","localeAltName":null},{"geonameid":2644305,"name":"Little Hulton","admin3":"","localeAltName":null},{"geonameid":9884110,"name":"Ordsall","admin3":"","localeAltName":null},{"geonameid":2640572,"name":"Patricroft","admin3":"","localeAltName":null},{"geonameid":2640476,"name":"Pendlebury","admin3":"","localeAltName":null},{"geonameid":2638671,"name":"Salford","admin3":"","localeAltName":null},{"geonameid":2634887,"name":"Walkden","admin3":"","localeAltName":null},{"geonameid":2634628,"name":"Weaste","admin3":"00BU001","localeAltName":null},{"geonameid":2633529,"name":"Worsley","admin3":"","localeAltName":null}],"admin3":[],"alternateNames":[{"alternatenameId":8666518,"geonameid":3333190,"isoLanguage":"en","alternateName":"Salford","isPreferredName":true,"isShortName":true,"isColloquial":false,"isHistoric":false},{"alternatenameId":1626647,"geonameid":6269131,"isoLanguage":"en","alternateName":"England","isPreferredName":true,"isShortName":true,"isColloquial":false,"isHistoric":false}]},"__N_SSG":true}