{"pageProps":{"locale":"en","admin2":{"geonameid":3333159,"name":"City of Kingston upon Hull","country":"GB","admin1":"ENG","admin2":"G6","admin3":"","latitude":"53.7500000","longitude":"-0.3333300","localeAltName":"Kingston upon Hull"},"admin1":{"geonameid":6269131,"name":"England","admin1":"ENG","localeAltName":"England"},"locations":[{"geonameid":2657302,"name":"Anlaby","admin3":"","localeAltName":null},{"geonameid":2645425,"name":"Kingston upon Hull","admin3":"","localeAltName":"Hull"},{"geonameid":2643049,"name":"Marfleet","admin3":"00FB112","localeAltName":null},{"geonameid":12104476,"name":"Saint Andrews Quay","admin3":"","localeAltName":null},{"geonameid":2636478,"name":"Sutton on Hull","admin3":"","localeAltName":null}],"admin3":[],"alternateNames":[{"alternatenameId":3059376,"geonameid":2645425,"isoLanguage":"en","alternateName":"Hull","isPreferredName":true,"isShortName":true,"isColloquial":false,"isHistoric":false},{"alternatenameId":8666497,"geonameid":3333159,"isoLanguage":"en","alternateName":"Kingston upon Hull","isPreferredName":true,"isShortName":true,"isColloquial":false,"isHistoric":false},{"alternatenameId":1626647,"geonameid":6269131,"isoLanguage":"en","alternateName":"England","isPreferredName":true,"isShortName":true,"isColloquial":false,"isHistoric":false}]},"__N_SSG":true}