{"pageProps":{"locale":"en","admin2":{"geonameid":2638384,"name":"Isles of Scilly","country":"GB","admin1":"ENG","admin2":"Z9","admin3":"","latitude":"49.9211700","longitude":"-6.2943100","localeAltName":null},"admin1":{"geonameid":6269131,"name":"England","admin1":"ENG","localeAltName":"England"},"locations":[{"geonameid":6943073,"name":"Bryher","admin3":"00HF001","localeAltName":null},{"geonameid":11551090,"name":"Higher Town","admin3":"00HF003","localeAltName":null},{"geonameid":2646452,"name":"Hugh Town","admin3":"00HF004","localeAltName":null},{"geonameid":8299858,"name":"Isles of Scilly","admin3":"00HF004","localeAltName":null},{"geonameid":6943071,"name":"St Agnes","admin3":"00HF002","localeAltName":"St Agnes"},{"geonameid":6943075,"name":"St Martin's","admin3":"00HF003","localeAltName":"St Martin's"},{"geonameid":6943072,"name":"St Mary's","admin3":"00HF004","localeAltName":"St Mary's"},{"geonameid":6943074,"name":"Tresco","admin3":"00HF005","localeAltName":null}],"admin3":[{"geonameid":7295841,"name":"St. Martin's","admin3":"00HF003","localeAltName":null},{"geonameid":7295842,"name":"Tresco","admin3":"00HF005","localeAltName":null},{"geonameid":7298790,"name":"Bryher","admin3":"00HF001","localeAltName":null},{"geonameid":7298791,"name":"St. Agnes","admin3":"00HF002","localeAltName":null},{"geonameid":7298792,"name":"St. Mary's","admin3":"00HF004","localeAltName":null}],"alternateNames":[{"alternatenameId":1626647,"geonameid":6269131,"isoLanguage":"en","alternateName":"England","isPreferredName":true,"isShortName":true,"isColloquial":false,"isHistoric":false},{"alternatenameId":7666633,"geonameid":6943071,"isoLanguage":"en","alternateName":"St Agnes","isPreferredName":true,"isShortName":true,"isColloquial":false,"isHistoric":false},{"alternatenameId":7666629,"geonameid":6943072,"isoLanguage":"en","alternateName":"St Mary's","isPreferredName":true,"isShortName":true,"isColloquial":false,"isHistoric":false},{"alternatenameId":7666641,"geonameid":6943075,"isoLanguage":"en","alternateName":"St Martin's","isPreferredName":true,"isShortName":true,"isColloquial":false,"isHistoric":false}]},"__N_SSG":true}