{"pageProps":{"locale":"en","admin2":{"geonameid":3333158,"name":"Kent","country":"GB","admin1":"ENG","admin2":"G5","admin3":"","latitude":"51.1666700","longitude":"0.6666700","localeAltName":"Kent"},"admin1":{"geonameid":6269131,"name":"England","admin1":"ENG","localeAltName":"England"},"locations":[{"geonameid":2657679,"name":"Addington","admin3":"29UP","localeAltName":null},{"geonameid":11592713,"name":"Adisham","admin3":"","localeAltName":null},{"geonameid":2657531,"name":"Aldington","admin3":"29UB","localeAltName":null},{"geonameid":2657500,"name":"Alkham","admin3":"29UE","localeAltName":null},{"geonameid":2657473,"name":"Allington","admin3":"29UH","localeAltName":null},{"geonameid":11593083,"name":"Appledore","admin3":"29UB","localeAltName":null},{"geonameid":11073402,"name":"Arpinge","admin3":"6945806","localeAltName":null},{"geonameid":6695249,"name":"Ash","admin3":"29UE","localeAltName":null},{"geonameid":2656986,"name":"Ash","admin3":"6945814","localeAltName":null},{"geonameid":2656955,"name":"Ashford","admin3":"29UB","localeAltName":null},{"geonameid":10109471,"name":"Ashurst","admin3":"29UQ","localeAltName":null},{"geonameid":2656716,"name":"Aylesford","admin3":"29UP","localeAltName":null},{"geonameid":7115300,"name":"Aylesham","admin3":"29UE","localeAltName":null},{"geonameid":2656646,"name":"Badlesmere","admin3":"29UM","localeAltName":null},{"geonameid":2656375,"name":"Bapchild","admin3":"29UM","localeAltName":null},{"geonameid":2656344,"name":"Barfreston","admin3":"29UE","localeAltName":null},{"geonameid":6620354,"name":"Barham","admin3":"6945807","localeAltName":null},{"geonameid":11073401,"name":"Beachborough","admin3":"6945806","localeAltName":null},{"geonameid":11592819,"name":"Bean","admin3":"29UD","localeAltName":null},{"geonameid":2656085,"name":"Bearsted","admin3":"29UH","localeAltName":null},{"geonameid":2655993,"name":"Bekesbourne","admin3":"6945807","localeAltName":null},{"geonameid":3209902,"name":"Beltinge","admin3":"29UE","localeAltName":null},{"geonameid":2655904,"name":"Benenden","admin3":"29UQ","localeAltName":null},{"geonameid":2655805,"name":"Bethersden","admin3":"29UB","localeAltName":null},{"geonameid":2655716,"name":"Bicknor","admin3":"29UH","localeAltName":null},{"geonameid":2655714,"name":"Bidborough","admin3":"29UQ","localeAltName":null},{"geonameid":2655713,"name":"Biddenden","admin3":"29UB","localeAltName":null},{"geonameid":2655656,"name":"Bilsington","admin3":"29UB","localeAltName":null},{"geonameid":2655627,"name":"Birchington-on-Sea","admin3":"2636057","localeAltName":null},{"geonameid":2655607,"name":"Birling","admin3":"29UP","localeAltName":null},{"geonameid":7284170,"name":"Bishopsbourne","admin3":"6945807","localeAltName":null},{"geonameid":3209901,"name":"Bishopstone","admin3":"6945807","localeAltName":null},{"geonameid":2655365,"name":"Blean","admin3":"6945807","localeAltName":null},{"geonameid":2655297,"name":"Bobbing","admin3":"29UM","localeAltName":null},{"geonameid":2655193,"name":"Borden","admin3":"29UM","localeAltName":null},{"geonameid":2655172,"name":"Borough Green","admin3":"29UP","localeAltName":null},{"geonameid":2655116,"name":"Boughton Aluph","admin3":"29UB","localeAltName":null},{"geonameid":2655115,"name":"Boughton Malherbe","admin3":"29UH","localeAltName":null},{"geonameid":2655114,"name":"Boughton Monchelsea","admin3":"29UH","localeAltName":null},{"geonameid":2655111,"name":"Boughton Street","admin3":"29UM","localeAltName":null},{"geonameid":2655040,"name":"Boxley","admin3":"29UH","localeAltName":null},{"geonameid":2655021,"name":"Brabourne","admin3":"29UB","localeAltName":null},{"geonameid":2654871,"name":"Brasted","admin3":"6945814","localeAltName":null},{"geonameid":2654809,"name":"Bredgar","admin3":"29UM","localeAltName":null},{"geonameid":2654808,"name":"Bredhurst","admin3":"29UH","localeAltName":null},{"geonameid":2654794,"name":"Brenchley","admin3":"29UQ","localeAltName":null},{"geonameid":2654781,"name":"Brenzett","admin3":"6945806","localeAltName":null},{"geonameid":2654760,"name":"Bridge","admin3":"6945807","localeAltName":null},{"geonameid":2654635,"name":"Broadstairs","admin3":"2636057","localeAltName":null},{"geonameid":2654585,"name":"Brompton","admin3":"","localeAltName":null},{"geonameid":2654569,"name":"Brook","admin3":"29UB","localeAltName":null},{"geonameid":2654564,"name":"Brookland","admin3":"6945806","localeAltName":null},{"geonameid":2654592,"name":"Broomfield","admin3":"29UH","localeAltName":null},{"geonameid":3209904,"name":"Broomfield","admin3":"6945807","localeAltName":null},{"geonameid":2654293,"name":"Burham","admin3":"29UP","localeAltName":null},{"geonameid":2654283,"name":"Burmarsh","admin3":"6945806","localeAltName":null},{"geonameid":2653877,"name":"Canterbury","admin3":"6945807","localeAltName":null},{"geonameid":10376294,"name":"Capel le Ferne","admin3":"29UE","localeAltName":null},{"geonameid":11593129,"name":"Challock","admin3":"29UB","localeAltName":null},{"geonameid":2653342,"name":"Charing","admin3":"29UB","localeAltName":null},{"geonameid":11593130,"name":"Chart Sutton","admin3":"29UH","localeAltName":null},{"geonameid":2653310,"name":"Chartham","admin3":"6945807","localeAltName":null},{"geonameid":2653305,"name":"Chatham","admin3":"","localeAltName":null},{"geonameid":2653216,"name":"Chestfield","admin3":"6945807","localeAltName":null},{"geonameid":2653204,"name":"Chevening","admin3":"6945814","localeAltName":null},{"geonameid":2653181,"name":"Chiddingstone","admin3":"6945814","localeAltName":null},{"geonameid":2653167,"name":"Chilham","admin3":"29UB","localeAltName":null},{"geonameid":2653164,"name":"Chillenden","admin3":"29UE","localeAltName":null},{"geonameid":10246622,"name":"Chipstead, Kent","admin3":"6945814","localeAltName":null},{"geonameid":2653122,"name":"Chislet","admin3":"6945807","localeAltName":null},{"geonameid":10376303,"name":"Church Hougham","admin3":"29UE","localeAltName":null},{"geonameid":8224219,"name":"Cliffsend","admin3":"2636057","localeAltName":null},{"geonameid":3209887,"name":"Cliftonville","admin3":"2636057","localeAltName":null},{"geonameid":2652688,"name":"Cobham","admin3":"29UG","localeAltName":null},{"geonameid":2652604,"name":"Coldred","admin3":"29UE","localeAltName":null},{"geonameid":2652208,"name":"Cowden","admin3":"6945814","localeAltName":null},{"geonameid":11592732,"name":"Coxheath","admin3":"29UH","localeAltName":null},{"geonameid":2652088,"name":"Cranbrook","admin3":"29UQ","localeAltName":null},{"geonameid":2651959,"name":"Crockham Hill","admin3":"6945814","localeAltName":null},{"geonameid":10104873,"name":"Crockhurst Street","admin3":"29UQ","localeAltName":null},{"geonameid":2651799,"name":"Crundale","admin3":"29UB","localeAltName":null},{"geonameid":6690814,"name":"Culverstone Green","admin3":"29UG","localeAltName":null},{"geonameid":2651522,"name":"Darenth","admin3":"29UD","localeAltName":null},{"geonameid":2651500,"name":"Dartford","admin3":"29UD","localeAltName":null},{"geonameid":2651468,"name":"Deal","admin3":"29UE","localeAltName":null},{"geonameid":6619433,"name":"Densole","admin3":"6945806","localeAltName":null},{"geonameid":2651360,"name":"Denton","admin3":"29UE","localeAltName":null},{"geonameid":2651303,"name":"Detling","admin3":"29UH","localeAltName":null},{"geonameid":2651182,"name":"Doddington","admin3":"29UM","localeAltName":null},{"geonameid":2651048,"name":"Dover","admin3":"29UE","localeAltName":null},{"geonameid":9612894,"name":"Dungeness","admin3":"6945806","localeAltName":null},{"geonameid":2650712,"name":"Dunkirk","admin3":"29UM","localeAltName":null},{"geonameid":10246627,"name":"Dunton Green","admin3":"6945814","localeAltName":null},{"geonameid":2650589,"name":"Dymchurch","admin3":"6945806","localeAltName":null},{"geonameid":2650503,"name":"East Barming","admin3":"29UH","localeAltName":null},{"geonameid":2650447,"name":"East Farleigh","admin3":"29UH","localeAltName":null},{"geonameid":2650381,"name":"East Malling","admin3":"29UP","localeAltName":null},{"geonameid":2650357,"name":"East Peckham","admin3":"29UP","localeAltName":null},{"geonameid":2650331,"name":"East Stourmouth","admin3":"29UE","localeAltName":null},{"geonameid":2650482,"name":"Eastchurch","admin3":"29UM","localeAltName":null},{"geonameid":2650394,"name":"Eastling","admin3":"29UM","localeAltName":null},{"geonameid":2650341,"name":"Eastry","admin3":"29UE","localeAltName":null},{"geonameid":6640312,"name":"Ebbsfleet","admin3":"2636057","localeAltName":null},{"geonameid":11748127,"name":"Eddington","admin3":"6945807","localeAltName":null},{"geonameid":2650246,"name":"Edenbridge","admin3":"6945814","localeAltName":null},{"geonameid":2650194,"name":"Egerton","admin3":"29UB","localeAltName":null},{"geonameid":2650120,"name":"Elham","admin3":"6945806","localeAltName":null},{"geonameid":2650075,"name":"Elmley","admin3":"29UM","localeAltName":null},{"geonameid":2650070,"name":"Elmsted","admin3":"6945806","localeAltName":null},{"geonameid":2650069,"name":"Elmstone","admin3":"29UE","localeAltName":null},{"geonameid":2650030,"name":"Elvington","admin3":"29UE","localeAltName":null},{"geonameid":2649775,"name":"Eynsford","admin3":"6945814","localeAltName":null},{"geonameid":2649770,"name":"Eythorne","admin3":"29UE","localeAltName":null},{"geonameid":2649656,"name":"Farningham","admin3":"6945814","localeAltName":null},{"geonameid":2649622,"name":"Faversham","admin3":"29UM","localeAltName":null},{"geonameid":6693233,"name":"Fawkham","admin3":"6945814","localeAltName":null},{"geonameid":6693234,"name":"Fawkham Green","admin3":"6945814","localeAltName":null},{"geonameid":10104871,"name":"Five Oak Green","admin3":"29UQ","localeAltName":null},{"geonameid":2649258,"name":"Folkestone","admin3":"6945806","localeAltName":null},{"geonameid":2649238,"name":"Ford","admin3":"6945807","localeAltName":null},{"geonameid":2649225,"name":"Fordwich","admin3":"6945807","localeAltName":null},{"geonameid":6690819,"name":"Four Elms","admin3":"6945814","localeAltName":null},{"geonameid":7302139,"name":"Fremlin Walk","admin3":"29UH","localeAltName":null},{"geonameid":2649037,"name":"Frittenden","admin3":"29UQ","localeAltName":null},{"geonameid":11073400,"name":"Frogholt","admin3":"6945806","localeAltName":null},{"geonameid":10376012,"name":"Gads Hill Farm","admin3":"29UG","localeAltName":null},{"geonameid":2648870,"name":"Garlinge","admin3":"2636057","localeAltName":null},{"geonameid":2648657,"name":"Gillingham","admin3":"","localeAltName":null},{"geonameid":2648368,"name":"Godmersham","admin3":"29UB","localeAltName":null},{"geonameid":10345362,"name":"Gold Street","admin3":"29UG","localeAltName":null},{"geonameid":2648328,"name":"Goodnestone","admin3":"29UM","localeAltName":null},{"geonameid":2648329,"name":"Goodnestone","admin3":"29UE","localeAltName":null},{"geonameid":2648263,"name":"Goudhurst","admin3":"29UQ","localeAltName":null},{"geonameid":2648193,"name":"Graveney","admin3":"29UM","localeAltName":null},{"geonameid":2648187,"name":"Gravesend","admin3":"29UG","localeAltName":null},{"geonameid":2648138,"name":"Great Chart","admin3":"29UB","localeAltName":null},{"geonameid":2648054,"name":"Great Mongeham","admin3":"29UE","localeAltName":null},{"geonameid":8063679,"name":"Great Stonar","admin3":"29UE","localeAltName":null},{"geonameid":11071709,"name":"Greatstone","admin3":"6945806","localeAltName":null},{"geonameid":3209928,"name":"Greenhill","admin3":"6945807","localeAltName":null},{"geonameid":2647962,"name":"Greenhithe","admin3":"29UD","localeAltName":null},{"geonameid":2647835,"name":"Grove Ferry","admin3":"6945807","localeAltName":null},{"geonameid":2647699,"name":"Hackington","admin3":"6945807","localeAltName":null},{"geonameid":2647675,"name":"Hadlow","admin3":"29UP","localeAltName":null},{"geonameid":2647605,"name":"Halstead","admin3":"6945814","localeAltName":null},{"geonameid":2647541,"name":"Hamstreet","admin3":"29UB","localeAltName":null},{"geonameid":2647509,"name":"Harbledown","admin3":"6945807","localeAltName":null},{"geonameid":2647504,"name":"Harbrough","admin3":"6945814","localeAltName":null},{"geonameid":2647437,"name":"Harrietsham","admin3":"29UH","localeAltName":null},{"geonameid":2647398,"name":"Hartley","admin3":"6945814","localeAltName":null},{"geonameid":11592725,"name":"Hartlip","admin3":"29UM","localeAltName":null},{"geonameid":2647357,"name":"Hastingleigh","admin3":"29UB","localeAltName":null},{"geonameid":2647291,"name":"Hawkhurst","admin3":"29UQ","localeAltName":null},{"geonameid":2647289,"name":"Hawkinge","admin3":"6945806","localeAltName":null},{"geonameid":11593294,"name":"Hawley","admin3":"29UD","localeAltName":null},{"geonameid":10377851,"name":"Hazel Street","admin3":"29UQ","localeAltName":null},{"geonameid":2647240,"name":"Headcorn","admin3":"29UH","localeAltName":null},{"geonameid":2647058,"name":"Herne","admin3":"6945807","localeAltName":null},{"geonameid":2647057,"name":"Herne Bay","admin3":"6945807","localeAltName":null},{"geonameid":2647056,"name":"Hernhill","admin3":"29UM","localeAltName":null},{"geonameid":8604497,"name":"Hersden","admin3":"6945807","localeAltName":null},{"geonameid":2647015,"name":"Hever","admin3":"6945814","localeAltName":null},{"geonameid":2646954,"name":"High Halden","admin3":"29UB","localeAltName":null},{"geonameid":2646988,"name":"Higham","admin3":"29UG","localeAltName":null},{"geonameid":11551084,"name":"Higham Wood","admin3":"29UP","localeAltName":null},{"geonameid":2646959,"name":"Highgate","admin3":"29UQ","localeAltName":null},{"geonameid":11593303,"name":"Highsted","admin3":"29UM","localeAltName":null},{"geonameid":2646906,"name":"Hildenborough","admin3":"29UP","localeAltName":null},{"geonameid":2646841,"name":"Hinxhill","admin3":"29UB","localeAltName":null},{"geonameid":2646822,"name":"Hoath","admin3":"6945807","localeAltName":null},{"geonameid":2646779,"name":"Holborough","admin3":"29UP","localeAltName":null},{"geonameid":2646748,"name":"Hollingbourne","admin3":"29UH","localeAltName":null},{"geonameid":10375993,"name":"Hook Green","admin3":"29UQ","localeAltName":null},{"geonameid":10377313,"name":"Hook Green","admin3":"29UD","localeAltName":null},{"geonameid":2646552,"name":"Horsmonden","admin3":"29UQ","localeAltName":null},{"geonameid":2646543,"name":"Horton Kirby","admin3":"6945814","localeAltName":null},{"geonameid":2646536,"name":"Hothfield","admin3":"29UB","localeAltName":null},{"geonameid":2646534,"name":"Hougham","admin3":"29UE","localeAltName":null},{"geonameid":2646381,"name":"Hunton","admin3":"29UH","localeAltName":null},{"geonameid":2646316,"name":"Hythe","admin3":"6945806","localeAltName":null},{"geonameid":2646295,"name":"Ide Hill","admin3":"6945814","localeAltName":null},{"geonameid":11593312,"name":"Ightham","admin3":"29UP","localeAltName":null},{"geonameid":2645987,"name":"Ivychurch","admin3":"6945806","localeAltName":null},{"geonameid":2645986,"name":"Iwade","admin3":"29UM","localeAltName":null},{"geonameid":2645910,"name":"Kearsney","admin3":"29UE","localeAltName":null},{"geonameid":2645830,"name":"Kemsing","admin3":"6945814","localeAltName":null},{"geonameid":2645804,"name":"Kennington","admin3":"29UB","localeAltName":null},{"geonameid":2645730,"name":"Key Street","admin3":"29UM","localeAltName":null},{"geonameid":10104068,"name":"Kilndown","admin3":"29UQ","localeAltName":null},{"geonameid":6690167,"name":"Kings Hill","admin3":"29UP","localeAltName":null},{"geonameid":2645470,"name":"Kingsdown","admin3":"29UM","localeAltName":null},{"geonameid":2645471,"name":"Kingsdown","admin3":"29UE","localeAltName":null},{"geonameid":2645467,"name":"Kingsgate","admin3":"2636057","localeAltName":null},{"geonameid":2645452,"name":"Kingsnorth","admin3":"29UB","localeAltName":null},{"geonameid":2645435,"name":"Kingston","admin3":"6945807","localeAltName":null},{"geonameid":2645344,"name":"Kippings Cross","admin3":"29UQ","localeAltName":null},{"geonameid":2645118,"name":"Knockholt","admin3":"6945814","localeAltName":null},{"geonameid":2645106,"name":"Knole","admin3":"6945814","localeAltName":null},{"geonameid":2645098,"name":"Knowlton","admin3":"29UE","localeAltName":null},{"geonameid":2645005,"name":"Lamberhurst","admin3":"29UQ","localeAltName":null},{"geonameid":10103858,"name":"Lamberhurst Quarter","admin3":"29UQ","localeAltName":null},{"geonameid":2644924,"name":"Langley","admin3":"29UH","localeAltName":null},{"geonameid":10109472,"name":"Langton Green","admin3":"29UQ","localeAltName":null},{"geonameid":6693668,"name":"Larkfield","admin3":"29UP","localeAltName":null},{"geonameid":2644722,"name":"Leaveland","admin3":"29UM","localeAltName":null},{"geonameid":2644689,"name":"Leeds","admin3":"29UH","localeAltName":null},{"geonameid":2644665,"name":"Leigh","admin3":"6945814","localeAltName":null},{"geonameid":2644624,"name":"Lenham","admin3":"29UH","localeAltName":null},{"geonameid":2644544,"name":"Leysdown-on-Sea","admin3":"29UM","localeAltName":null},{"geonameid":2644436,"name":"Linton","admin3":"29UH","localeAltName":null},{"geonameid":2644352,"name":"Little Chart","admin3":"29UB","localeAltName":null},{"geonameid":2644366,"name":"Littlebourne","admin3":"6945807","localeAltName":null},{"geonameid":2644244,"name":"Littlestone","admin3":"6945806","localeAltName":null},{"geonameid":2643696,"name":"Longfield","admin3":"29UD","localeAltName":null},{"geonameid":2643604,"name":"Loose","admin3":"29UH","localeAltName":null},{"geonameid":2643519,"name":"Lower Halstow","admin3":"29UM","localeAltName":null},{"geonameid":2643518,"name":"Lower Hardres","admin3":"6945807","localeAltName":null},{"geonameid":2643436,"name":"Luddenham","admin3":"29UM","localeAltName":null},{"geonameid":2643435,"name":"Luddesdown","admin3":"29UG","localeAltName":null},{"geonameid":2643327,"name":"Lydd","admin3":"6945806","localeAltName":null},{"geonameid":10375979,"name":"Lydd-on-Sea","admin3":"6945806","localeAltName":null},{"geonameid":2643326,"name":"Lydden","admin3":"29UE","localeAltName":null},{"geonameid":2643313,"name":"Lyminge","admin3":"6945806","localeAltName":null},{"geonameid":2643308,"name":"Lympne","admin3":"6945806","localeAltName":null},{"geonameid":2643286,"name":"Lynsted","admin3":"29UM","localeAltName":null},{"geonameid":2643179,"name":"Maidstone","admin3":"29UH","localeAltName":null},{"geonameid":2643094,"name":"Manston","admin3":"2636057","localeAltName":null},{"geonameid":10246610,"name":"Maplescombe","admin3":"6945814","localeAltName":null},{"geonameid":2643060,"name":"Marden","admin3":"29UH","localeAltName":null},{"geonameid":2643044,"name":"Margate","admin3":"2636057","localeAltName":null},{"geonameid":2642957,"name":"Martin","admin3":"29UE","localeAltName":null},{"geonameid":2642915,"name":"Matfield","admin3":"29UQ","localeAltName":null},{"geonameid":11550761,"name":"Maxton","admin3":"29UE","localeAltName":null},{"geonameid":2642733,"name":"Meopham","admin3":"29UG","localeAltName":null},{"geonameid":2642728,"name":"Mereworth","admin3":"29UP","localeAltName":null},{"geonameid":2642712,"name":"Mersham","admin3":"29UB","localeAltName":null},{"geonameid":10104875,"name":"Mile Oak","admin3":"29UQ","localeAltName":null},{"geonameid":2642458,"name":"Milton Regis","admin3":"29UM","localeAltName":null},{"geonameid":2642434,"name":"Minster","admin3":"29UM","localeAltName":null},{"geonameid":2642435,"name":"Minster","admin3":"2636057","localeAltName":null},{"geonameid":2642373,"name":"Molash","admin3":"29UB","localeAltName":null},{"geonameid":2642319,"name":"Monkton","admin3":"2636057","localeAltName":null},{"geonameid":2641949,"name":"Murston","admin3":"29UM","localeAltName":null},{"geonameid":2641582,"name":"New Romney","admin3":"6945806","localeAltName":null},{"geonameid":2641668,"name":"Newchurch","admin3":"6945806","localeAltName":null},{"geonameid":2641652,"name":"Newenden","admin3":"29UB","localeAltName":null},{"geonameid":11073399,"name":"Newington","admin3":"6945806","localeAltName":null},{"geonameid":2641629,"name":"Newington","admin3":"29UM","localeAltName":null},{"geonameid":2641606,"name":"Newnham","admin3":"29UM","localeAltName":null},{"geonameid":11593347,"name":"Nonington","admin3":"29UE","localeAltName":null},{"geonameid":2641415,"name":"Northbourne","admin3":"29UE","localeAltName":null},{"geonameid":2641354,"name":"Northfleet","admin3":"29UG","localeAltName":null},{"geonameid":2641208,"name":"Norton","admin3":"29UM","localeAltName":null},{"geonameid":2641114,"name":"Oare","admin3":"29UM","localeAltName":null},{"geonameid":2641069,"name":"Offham","admin3":"29UP","localeAltName":null},{"geonameid":2640996,"name":"Old Romney","admin3":"6945806","localeAltName":null},{"geonameid":2640921,"name":"Orlestone","admin3":"29UB","localeAltName":null},{"geonameid":2640871,"name":"Ospringe","admin3":"29UM","localeAltName":null},{"geonameid":2640860,"name":"Otford","admin3":"6945814","localeAltName":null},{"geonameid":2640849,"name":"Otterden","admin3":"29UH","localeAltName":null},{"geonameid":2640691,"name":"Paddlesworth","admin3":"6945806","localeAltName":null},{"geonameid":2640690,"name":"Paddock Wood","admin3":"29UQ","localeAltName":null},{"geonameid":10376296,"name":"Park Farm Industrial Estate","admin3":"6945806","localeAltName":null},{"geonameid":10104877,"name":"Pearson's Green","admin3":"29UQ","localeAltName":null},{"geonameid":10377809,"name":"Pedlinge","admin3":"6945806","localeAltName":null},{"geonameid":11073398,"name":"Peene","admin3":"6945806","localeAltName":null},{"geonameid":2640498,"name":"Pembury","admin3":"29UQ","localeAltName":null},{"geonameid":2640409,"name":"Penshurst","admin3":"6945814","localeAltName":null},{"geonameid":2640340,"name":"Petham","admin3":"6945807","localeAltName":null},{"geonameid":2640223,"name":"Plaxtol","admin3":"29UP","localeAltName":null},{"geonameid":2640211,"name":"Pluckley","admin3":"29UB","localeAltName":null},{"geonameid":2639980,"name":"Postling","admin3":"6945806","localeAltName":null},{"geonameid":2639920,"name":"Preston","admin3":"29UE","localeAltName":null},{"geonameid":10104870,"name":"Queen Street","admin3":"29UQ","localeAltName":null},{"geonameid":2639796,"name":"Queenborough","admin3":"29UM","localeAltName":null},{"geonameid":10377781,"name":"Questor","admin3":"29UD","localeAltName":null},{"geonameid":2639691,"name":"Rainham","admin3":"","localeAltName":null},{"geonameid":2639660,"name":"Ramsgate","admin3":"2636057","localeAltName":null},{"geonameid":2639570,"name":"Reculver","admin3":"6945807","localeAltName":null},{"geonameid":2639391,"name":"Richborough","admin3":"29UE","localeAltName":null},{"geonameid":2639368,"name":"Ridley","admin3":"6945814","localeAltName":null},{"geonameid":2639332,"name":"Ringwould","admin3":"29UE","localeAltName":null},{"geonameid":10104069,"name":"Riseden","admin3":"29UQ","localeAltName":null},{"geonameid":2639301,"name":"River","admin3":"29UE","localeAltName":null},{"geonameid":10246620,"name":"Riverhead","admin3":"6945814","localeAltName":null},{"geonameid":2639201,"name":"Rolvenden","admin3":"29UB","localeAltName":null},{"geonameid":8299618,"name":"Romney Marsh","admin3":"6945806","localeAltName":null},{"geonameid":2639022,"name":"Royal Tunbridge Wells","admin3":"29UQ","localeAltName":null},{"geonameid":2638999,"name":"Ruckinge","admin3":"29UB","localeAltName":null},{"geonameid":10278190,"name":"Rusthall","admin3":"29UQ","localeAltName":null},{"geonameid":2638914,"name":"Ryarsh","admin3":"29UP","localeAltName":null},{"geonameid":2638748,"name":"Saint Margaretâ€™s at Cliffe","admin3":"29UE","localeAltName":null},{"geonameid":2638723,"name":"Saint Michaels","admin3":"29UB","localeAltName":null},{"geonameid":2638714,"name":"Saint Nicholas at Wade","admin3":"2636057","localeAltName":null},{"geonameid":2638703,"name":"Saint Peters","admin3":"2636057","localeAltName":null},{"geonameid":2638588,"name":"Sandgate","admin3":"6945806","localeAltName":null},{"geonameid":2638581,"name":"Sandhurst","admin3":"29UQ","localeAltName":null},{"geonameid":2638542,"name":"Sandwich","admin3":"29UE","localeAltName":null},{"geonameid":2638500,"name":"Sarre","admin3":"2636057","localeAltName":null},{"geonameid":2638316,"name":"Seabrook","admin3":"6945806","localeAltName":null},{"geonameid":2638300,"name":"Seal","admin3":"6945814","localeAltName":null},{"geonameid":2638283,"name":"Seasalter","admin3":"6945807","localeAltName":null},{"geonameid":2638223,"name":"Sellindge","admin3":"6945806","localeAltName":null},{"geonameid":2638222,"name":"Selling","admin3":"29UM","localeAltName":null},{"geonameid":2638216,"name":"Selstead","admin3":"6945806","localeAltName":null},{"geonameid":2638187,"name":"Sevenoaks","admin3":"6945814","localeAltName":null},{"geonameid":11592599,"name":"Sevenoaks Weald","admin3":"","localeAltName":null},{"geonameid":2638158,"name":"Shadoxhurst","admin3":"29UB","localeAltName":null},{"geonameid":11593387,"name":"Shalmsford Street","admin3":"","localeAltName":null},{"geonameid":2638081,"name":"Sheerness","admin3":"29UM","localeAltName":null},{"geonameid":2638041,"name":"Shepherdswell","admin3":"29UE","localeAltName":null},{"geonameid":2637963,"name":"Shipbourne","admin3":"29UP","localeAltName":null},{"geonameid":2637924,"name":"Sholden","admin3":"29UE","localeAltName":null},{"geonameid":2637917,"name":"Shoreham","admin3":"6945814","localeAltName":null},{"geonameid":2637914,"name":"Shorncliffe Camp","admin3":"6945806","localeAltName":null},{"geonameid":2637913,"name":"Shorne","admin3":"29UG","localeAltName":null},{"geonameid":6690813,"name":"Singlewell","admin3":"29UG","localeAltName":"Singlewell"},{"geonameid":2637806,"name":"Sissinghurst","admin3":"29UQ","localeAltName":null},{"geonameid":2637802,"name":"Sittingbourne","admin3":"29UM","localeAltName":null},{"geonameid":2637613,"name":"Smarden","admin3":"29UB","localeAltName":null},{"geonameid":2637610,"name":"Smeeth","admin3":"29UB","localeAltName":null},{"geonameid":2637593,"name":"Snargate","admin3":"6945806","localeAltName":null},{"geonameid":2637589,"name":"Snave","admin3":"6945806","localeAltName":null},{"geonameid":2637571,"name":"Snodland","admin3":"29UP","localeAltName":null},{"geonameid":2637547,"name":"Sole Street","admin3":"29UG","localeAltName":null},{"geonameid":11593396,"name":"South Darenth","admin3":"","localeAltName":null},{"geonameid":2637474,"name":"Southborough","admin3":"29UQ","localeAltName":null},{"geonameid":2637421,"name":"Southfleet","admin3":"29UD","localeAltName":null},{"geonameid":2637240,"name":"Speldhurst","admin3":"29UQ","localeAltName":null},{"geonameid":7290316,"name":"St Margaret's Bay","admin3":"29UE","localeAltName":null},{"geonameid":11071710,"name":"St Mary in the Marsh","admin3":"6945806","localeAltName":null},{"geonameid":6955232,"name":"St Mary's Bay","admin3":"6945806","localeAltName":null},{"geonameid":2637109,"name":"Stalisfield","admin3":"29UM","localeAltName":null},{"geonameid":2637092,"name":"Stanford","admin3":"6945806","localeAltName":null},{"geonameid":2637053,"name":"Stansted","admin3":"29UP","localeAltName":null},{"geonameid":2637029,"name":"Staple","admin3":"29UE","localeAltName":null},{"geonameid":2637016,"name":"Staplehurst","admin3":"29UH","localeAltName":null},{"geonameid":2636958,"name":"Stelling","admin3":"6945806","localeAltName":null},{"geonameid":11592794,"name":"Stelling Minnis","admin3":"","localeAltName":null},{"geonameid":2636893,"name":"Stockbury","admin3":"29UH","localeAltName":null},{"geonameid":2636804,"name":"Stone","admin3":"29UD","localeAltName":null},{"geonameid":2636826,"name":"Stone","admin3":"29UB","localeAltName":null},{"geonameid":2636746,"name":"Stowting","admin3":"6945806","localeAltName":null},{"geonameid":2636619,"name":"Strood","admin3":"","localeAltName":null},{"geonameid":2636582,"name":"Sturry","admin3":"6945807","localeAltName":null},{"geonameid":2636525,"name":"Sundridge","admin3":"6945814","localeAltName":null},{"geonameid":2636491,"name":"Sutton at Hone","admin3":"29UD","localeAltName":null},{"geonameid":2636467,"name":"Sutton Valence","admin3":"29UH","localeAltName":null},{"geonameid":2636453,"name":"Swalecliffe","admin3":"6945807","localeAltName":null},{"geonameid":2636439,"name":"Swanley","admin3":"6945814","localeAltName":null},{"geonameid":2636433,"name":"Swanscombe","admin3":"29UD","localeAltName":null},{"geonameid":6693625,"name":"Swingate","admin3":"29UE","localeAltName":null},{"geonameid":2636381,"name":"Swingfield","admin3":"6945806","localeAltName":null},{"geonameid":6615508,"name":"Tankerton","admin3":"29UM","localeAltName":null},{"geonameid":2636119,"name":"Temple Ewell","admin3":"29UE","localeAltName":null},{"geonameid":2636101,"name":"Tenterden","admin3":"29UB","localeAltName":null},{"geonameid":11592634,"name":"Teston","admin3":"29UH","localeAltName":null},{"geonameid":2636069,"name":"Teynham","admin3":"29UM","localeAltName":null},{"geonameid":8063682,"name":"Thanington","admin3":"6945807","localeAltName":null},{"geonameid":2636054,"name":"Thannington","admin3":"6945807","localeAltName":null},{"geonameid":10104876,"name":"The Knowle","admin3":"29UQ","localeAltName":null},{"geonameid":2635818,"name":"Tilmanstone","admin3":"29UE","localeAltName":null},{"geonameid":2635703,"name":"Tonbridge","admin3":"29UP","localeAltName":null},{"geonameid":2635433,"name":"Trottiscliffe","admin3":"29UP","localeAltName":null},{"geonameid":2635396,"name":"Tudeley","admin3":"29UQ","localeAltName":null},{"geonameid":10104874,"name":"Tudeley Hale","admin3":"29UQ","localeAltName":null},{"geonameid":2635356,"name":"Tunstall","admin3":"29UM","localeAltName":null},{"geonameid":2635204,"name":"Ulcombe","admin3":"29UH","localeAltName":null},{"geonameid":2635161,"name":"Upchurch","admin3":"29UM","localeAltName":null},{"geonameid":2635126,"name":"Upper Hardres","admin3":"6945807","localeAltName":null},{"geonameid":8063681,"name":"Upstreet","admin3":"6945807","localeAltName":null},{"geonameid":11468538,"name":"Vigo Village","admin3":"29UG","localeAltName":null},{"geonameid":2634899,"name":"Waldershare","admin3":"29UE","localeAltName":null},{"geonameid":6692987,"name":"Walderslade","admin3":"29UP","localeAltName":null},{"geonameid":2634863,"name":"Walmer","admin3":"29UE","localeAltName":null},{"geonameid":2634845,"name":"Waltham","admin3":"6945807","localeAltName":null},{"geonameid":2634791,"name":"Warden","admin3":"29UM","localeAltName":null},{"geonameid":2634654,"name":"Warehorne","admin3":"29UB","localeAltName":null},{"geonameid":7648437,"name":"Warren Street","admin3":"29UH","localeAltName":null},{"geonameid":2634690,"name":"Wateringbury","admin3":"29UP","localeAltName":null},{"geonameid":2634639,"name":"Weald","admin3":"6945814","localeAltName":null},{"geonameid":6697556,"name":"Weavering","admin3":"29UH","localeAltName":null},{"geonameid":10376304,"name":"West Hougham","admin3":"29UE","localeAltName":null},{"geonameid":2634384,"name":"West Hythe","admin3":"6945806","localeAltName":null},{"geonameid":10246613,"name":"West Kingsdown","admin3":"6945814","localeAltName":null},{"geonameid":2634371,"name":"West Langdon","admin3":"29UE","localeAltName":null},{"geonameid":2634349,"name":"West Malling","admin3":"29UP","localeAltName":null},{"geonameid":2634295,"name":"West Peckham","admin3":"29UP","localeAltName":null},{"geonameid":2634262,"name":"West Stourmouth","admin3":"29UE","localeAltName":null},{"geonameid":6693250,"name":"Westcliffe","admin3":"29UE","localeAltName":null},{"geonameid":2634445,"name":"Westenhanger","admin3":"6945806","localeAltName":null},{"geonameid":2634434,"name":"Westerham","admin3":"6945814","localeAltName":null},{"geonameid":2634413,"name":"Westgate on Sea","admin3":"29UE","localeAltName":null},{"geonameid":10104872,"name":"Whetsted","admin3":"29UQ","localeAltName":null},{"geonameid":2634049,"name":"Whitfield","admin3":"29UE","localeAltName":null},{"geonameid":2634021,"name":"Whitstable","admin3":"6945807","localeAltName":null},{"geonameid":2633988,"name":"Wichling","admin3":"29UH","localeAltName":null},{"geonameid":2633908,"name":"Willesborough","admin3":"29UB","localeAltName":null},{"geonameid":9409562,"name":"Willesborough Lees","admin3":"29UB","localeAltName":null},{"geonameid":2633885,"name":"Wilmington","admin3":"29UD","localeAltName":null},{"geonameid":2633821,"name":"Wingham","admin3":"29UE","localeAltName":null},{"geonameid":2633726,"name":"Wittersham","admin3":"29UB","localeAltName":null},{"geonameid":2633680,"name":"Womenswold","admin3":"6945807","localeAltName":null},{"geonameid":2633666,"name":"Woodchurch","admin3":"29UB","localeAltName":null},{"geonameid":2633577,"name":"Wootton","admin3":"29UE","localeAltName":null},{"geonameid":2633533,"name":"Wormshill","admin3":"29UH","localeAltName":null},{"geonameid":2633525,"name":"Worth","admin3":"29UE","localeAltName":null},{"geonameid":2633508,"name":"Wouldham","admin3":"29UP","localeAltName":null},{"geonameid":2633478,"name":"Wrotham","admin3":"29UP","localeAltName":null},{"geonameid":2633460,"name":"Wye","admin3":"29UB","localeAltName":null},{"geonameid":2633424,"name":"Yalding","admin3":"29UH","localeAltName":null}],"admin3":[{"geonameid":2636057,"name":"Thanet District","admin3":"2636057","localeAltName":null},{"geonameid":2643149,"name":"Borough of Tonbridge and Malling","admin3":"2643149"},{"geonameid":2648186,"name":"Borough of Gravesham","admin3":"29UG","localeAltName":null},{"geonameid":2651049,"name":"Dover District","admin3":"29UE","localeAltName":null},{"geonameid":6945806,"name":"Shepway District","admin3":"6945806","localeAltName":null},{"geonameid":6945807,"name":"City of Canterbury","admin3":"6945807","localeAltName":null},{"geonameid":6945809,"name":"Borough of Ashford","admin3":"6945809"},{"geonameid":6945810,"name":"Borough of Swale","admin3":"6945810"},{"geonameid":6945811,"name":"Borough of Tunbridge Wells","admin3":"6945811"},{"geonameid":6945812,"name":"Borough of Maidstone","admin3":"6945812"},{"geonameid":6945813,"name":"Borough of Dartford","admin3":"6945813"},{"geonameid":6945814,"name":"Sevenoaks District","admin3":"6945814","localeAltName":null},{"geonameid":7290570,"name":"Ashford District","admin3":"29UB","localeAltName":null},{"geonameid":7290571,"name":"Dartford District","admin3":"29UD","localeAltName":null},{"geonameid":7290572,"name":"Maidstone District","admin3":"29UH","localeAltName":null},{"geonameid":7290573,"name":"Swale District","admin3":"29UM","localeAltName":null},{"geonameid":7290574,"name":"Tonbridge and Malling District","admin3":"29UP","localeAltName":null},{"geonameid":7290575,"name":"Tunbridge Wells District","admin3":"29UQ","localeAltName":null}],"alternateNames":[{"alternatenameId":8666496,"geonameid":3333158,"isoLanguage":"en","alternateName":"Kent","isPreferredName":true,"isShortName":true,"isColloquial":false,"isHistoric":false},{"alternatenameId":1626647,"geonameid":6269131,"isoLanguage":"en","alternateName":"England","isPreferredName":true,"isShortName":true,"isColloquial":false,"isHistoric":false},{"alternatenameId":8666611,"geonameid":6690813,"isoLanguage":"en","alternateName":"Singlewell","isPreferredName":true,"isShortName":true,"isColloquial":false,"isHistoric":false}]},"__N_SSG":true}