{"pageProps":{"locale":"en","admin2":{"geonameid":2644974,"name":"Lancashire","country":"GB","admin1":"ENG","admin2":"H2","admin3":"","latitude":"53.8333300","longitude":"-2.5000000","localeAltName":null},"admin1":{"geonameid":6269131,"name":"England","admin1":"ENG","localeAltName":"England"},"locations":[{"geonameid":9409841,"name":"Abbeystead","admin3":"30UH","localeAltName":null},{"geonameid":2657770,"name":"Accrington","admin3":"30UG","localeAltName":null},{"geonameid":2657668,"name":"Adlington","admin3":"30UE","localeAltName":null},{"geonameid":2657418,"name":"Altham","admin3":"30UG","localeAltName":null},{"geonameid":2657224,"name":"Appley Bridge","admin3":"30UP","localeAltName":null},{"geonameid":2657078,"name":"Arkholme","admin3":"30UH","localeAltName":null},{"geonameid":6691241,"name":"Ashworth","admin3":"","localeAltName":null},{"geonameid":2656786,"name":"Aughton","admin3":"30UP","localeAltName":null},{"geonameid":2656666,"name":"Bacup","admin3":"30UM","localeAltName":null},{"geonameid":2656596,"name":"Balderstone","admin3":"30UL","localeAltName":null},{"geonameid":2656426,"name":"Bamber Bridge","admin3":"30UN","localeAltName":null},{"geonameid":2656388,"name":"Banks","admin3":"30UP","localeAltName":null},{"geonameid":2656350,"name":"Bare","admin3":"30UH","localeAltName":null},{"geonameid":2656287,"name":"Barnoldswick","admin3":"30UJ","localeAltName":null},{"geonameid":2656243,"name":"Barrowford","admin3":"30UJ","localeAltName":null},{"geonameid":2656217,"name":"Barton","admin3":"30UK","localeAltName":null},{"geonameid":2656218,"name":"Barton","admin3":"30UP","localeAltName":null},{"geonameid":7289683,"name":"Bashall Eaves","admin3":"30UL","localeAltName":null},{"geonameid":2656143,"name":"Baxenden","admin3":"30UG","localeAltName":null},{"geonameid":6693100,"name":"Bay Horse","admin3":"30UH","localeAltName":null},{"geonameid":10109424,"name":"Bescar","admin3":"30UP","localeAltName":null},{"geonameid":2655725,"name":"Bickerstaffe","admin3":"30UP","localeAltName":null},{"geonameid":6692336,"name":"Billington","admin3":"30UL","localeAltName":null},{"geonameid":2655234,"name":"Bolton by Bowland","admin3":"30UL","localeAltName":null},{"geonameid":2655232,"name":"Bolton le Sands","admin3":"30UH","localeAltName":null},{"geonameid":2655150,"name":"Borwick","admin3":"30UH","localeAltName":null},{"geonameid":2655017,"name":"Bracewell","admin3":"30UJ","localeAltName":null},{"geonameid":2654774,"name":"Bretherton","admin3":"30UE","localeAltName":null},{"geonameid":2654725,"name":"Brierfield","admin3":"30UJ","localeAltName":null},{"geonameid":2654681,"name":"Brinscall","admin3":"30UE","localeAltName":null},{"geonameid":6693632,"name":"Brockhall","admin3":"30UL","localeAltName":null},{"geonameid":2654505,"name":"Broughton","admin3":"30UK","localeAltName":null},{"geonameid":10109415,"name":"Brown Edge","admin3":"30UP","localeAltName":null},{"geonameid":2654489,"name":"Brown Moss Side","admin3":"30UF","localeAltName":null},{"geonameid":2654264,"name":"Burnley","admin3":"30UD","localeAltName":null},{"geonameid":2654228,"name":"Burscough","admin3":"30UP","localeAltName":null},{"geonameid":10109436,"name":"Burscough Industrial Estate","admin3":"30UP","localeAltName":null},{"geonameid":2653715,"name":"Carnforth","admin3":"30UH","localeAltName":null},{"geonameid":10109414,"name":"Carr Cross","admin3":"30UP","localeAltName":null},{"geonameid":2653505,"name":"Caton","admin3":"30UH","localeAltName":null},{"geonameid":2653500,"name":"Catterall","admin3":"30UQ","localeAltName":null},{"geonameid":2653306,"name":"Chatburn","admin3":"30UL","localeAltName":null},{"geonameid":2653240,"name":"Cherry Tree","admin3":"","localeAltName":null},{"geonameid":2653141,"name":"Chipping","admin3":"30UL","localeAltName":null},{"geonameid":2653086,"name":"Chorley","admin3":"30UE","localeAltName":null},{"geonameid":2653049,"name":"Church","admin3":"30UG","localeAltName":null},{"geonameid":2652921,"name":"Claughton","admin3":"30UH","localeAltName":null},{"geonameid":2652899,"name":"Clayton le Moors","admin3":"30UG","localeAltName":null},{"geonameid":6691951,"name":"Clayton-le-Woods","admin3":"30UE","localeAltName":null},{"geonameid":2652857,"name":"Cleveleys","admin3":"30UQ","localeAltName":null},{"geonameid":2652819,"name":"Clitheroe","admin3":"30UL","localeAltName":null},{"geonameid":2652677,"name":"Cockerham","admin3":"30UH","localeAltName":null},{"geonameid":2652544,"name":"Colne","admin3":"30UJ","localeAltName":null},{"geonameid":2652389,"name":"Coppull","admin3":"30UE","localeAltName":null},{"geonameid":2652212,"name":"Cowan Bridge","admin3":"30UH","localeAltName":null},{"geonameid":2652051,"name":"Crawshaw Booth","admin3":"30UM","localeAltName":null},{"geonameid":2651857,"name":"Croston","admin3":"30UE","localeAltName":null},{"geonameid":2650563,"name":"Earby","admin3":"30UJ","localeAltName":null},{"geonameid":2650271,"name":"Eccleston","admin3":"30UE","localeAltName":null},{"geonameid":2650244,"name":"Edenfield","admin3":"30UM","localeAltName":null},{"geonameid":2650046,"name":"Elswick","admin3":"30UF","localeAltName":null},{"geonameid":2649894,"name":"Esprick","admin3":"30UF","localeAltName":null},{"geonameid":2649852,"name":"Euxton","admin3":"30UE","localeAltName":null},{"geonameid":2649816,"name":"Ewood Bridge","admin3":"30UM","localeAltName":null},{"geonameid":2649765,"name":"Facit","admin3":"30UM","localeAltName":null},{"geonameid":2649685,"name":"Farington","admin3":"30UN","localeAltName":null},{"geonameid":2649312,"name":"Fleetwood","admin3":"30UQ","localeAltName":null},{"geonameid":2649172,"name":"Forton","admin3":"30UQ","localeAltName":null},{"geonameid":2649140,"name":"Foulridge","admin3":"30UJ","localeAltName":null},{"geonameid":2649083,"name":"Freckleton","admin3":"30UF","localeAltName":null},{"geonameid":2648970,"name":"Fylde","admin3":"30UF","localeAltName":null},{"geonameid":2648924,"name":"Galgate","admin3":"30UH","localeAltName":null},{"geonameid":2648829,"name":"Garstang","admin3":"30UQ","localeAltName":null},{"geonameid":2648623,"name":"Gisburn","admin3":"30UL","localeAltName":null},{"geonameid":2648562,"name":"Glasson","admin3":"30UH","localeAltName":null},{"geonameid":2648315,"name":"Goosnargh","admin3":"30UK","localeAltName":null},{"geonameid":2648176,"name":"Great Altcar","admin3":"30UP","localeAltName":null},{"geonameid":2648113,"name":"Great Eccleston","admin3":"30UQ","localeAltName":null},{"geonameid":2648084,"name":"Great Harwood","admin3":"30UG","localeAltName":null},{"geonameid":6694342,"name":"Great Marton","admin3":"","localeAltName":null},{"geonameid":2648055,"name":"Great Mitton","admin3":"30UL","localeAltName":null},{"geonameid":2648022,"name":"Great Singleton","admin3":"30UF","localeAltName":null},{"geonameid":2647915,"name":"Gressingham","admin3":"30UH","localeAltName":null},{"geonameid":2647881,"name":"Grimsargh","admin3":"30UK","localeAltName":null},{"geonameid":2647868,"name":"Grindleton","admin3":"30UL","localeAltName":null},{"geonameid":2647608,"name":"Halsall","admin3":"30UP","localeAltName":null},{"geonameid":2647598,"name":"Halton","admin3":"30UH","localeAltName":null},{"geonameid":2647579,"name":"Hambleton","admin3":"30UQ","localeAltName":null},{"geonameid":6947750,"name":"Hameldon Hill","admin3":"30UD","localeAltName":null},{"geonameid":2647511,"name":"Hapton","admin3":"30UD","localeAltName":null},{"geonameid":2647426,"name":"Harrop Fold","admin3":"30UL","localeAltName":null},{"geonameid":2647363,"name":"Haslingden","admin3":"30UM","localeAltName":null},{"geonameid":2647226,"name":"Heapey","admin3":"30UE","localeAltName":null},{"geonameid":2647215,"name":"Heaton","admin3":"30UH","localeAltName":null},{"geonameid":2647150,"name":"Helmshore","admin3":"30UM","localeAltName":null},{"geonameid":2647040,"name":"Hesketh Bank","admin3":"30UP","localeAltName":null},{"geonameid":2647029,"name":"Hest Bank","admin3":"30UH","localeAltName":null},{"geonameid":2647001,"name":"Heysham","admin3":"30UH","localeAltName":null},{"geonameid":2646965,"name":"Higher Thrushgill","admin3":"30UH","localeAltName":null},{"geonameid":2646792,"name":"Hoghton","admin3":"30UE","localeAltName":null},{"geonameid":2646727,"name":"Holme Chapel","admin3":"30UD","localeAltName":null},{"geonameid":2646598,"name":"Hornby","admin3":"30UH","localeAltName":null},{"geonameid":2646421,"name":"Huncoat","admin3":"30UG","localeAltName":null},{"geonameid":10109432,"name":"Hurlston","admin3":"30UP","localeAltName":null},{"geonameid":2646356,"name":"Hurst Green","admin3":"30UL","localeAltName":null},{"geonameid":2646340,"name":"Hutton","admin3":"30UN","localeAltName":null},{"geonameid":2646206,"name":"Inglewhite","admin3":"30UK","localeAltName":null},{"geonameid":2646152,"name":"Inskip","admin3":"30UQ","localeAltName":null},{"geonameid":2645877,"name":"Kelbrook","admin3":"30UJ","localeAltName":null},{"geonameid":2645280,"name":"Kirkham","admin3":"30UF","localeAltName":null},{"geonameid":2644972,"name":"Lancaster","admin3":"30UH","localeAltName":null},{"geonameid":2644958,"name":"Laneshaw Bridge","admin3":"30UJ","localeAltName":null},{"geonameid":2644929,"name":"Langho","admin3":"30UL","localeAltName":null},{"geonameid":2644723,"name":"Lea Town","admin3":"30UK","localeAltName":null},{"geonameid":2644718,"name":"Leck","admin3":"30UH","localeAltName":null},{"geonameid":2644547,"name":"Leyland","admin3":"30UN","localeAltName":null},{"geonameid":8199260,"name":"Little Eccleston","admin3":"30UF","localeAltName":null},{"geonameid":11669853,"name":"Little Plumpton","admin3":"30UF","localeAltName":null},{"geonameid":2644255,"name":"Little Singleton","admin3":"30UF","localeAltName":null},{"geonameid":2643646,"name":"Longridge","admin3":"30UL","localeAltName":null},{"geonameid":2643619,"name":"Longton","admin3":"30UN","localeAltName":null},{"geonameid":12195844,"name":"Loveclough","admin3":"30UM","localeAltName":null},{"geonameid":2643273,"name":"Lytham","admin3":"30UF","localeAltName":null},{"geonameid":6693470,"name":"Lytham St Annes","admin3":"30UF","localeAltName":null},{"geonameid":2642985,"name":"Marshaw","admin3":"30UH","localeAltName":null},{"geonameid":2642943,"name":"Marton","admin3":"30UF","localeAltName":null},{"geonameid":2642894,"name":"Mawdesley","admin3":"30UE","localeAltName":null},{"geonameid":2642781,"name":"Melling","admin3":"30UH","localeAltName":null},{"geonameid":2642777,"name":"Mellor","admin3":"30UL","localeAltName":null},{"geonameid":2642591,"name":"Middleton","admin3":"30UH","localeAltName":null},{"geonameid":2642214,"name":"Morecambe","admin3":"30UH","localeAltName":null},{"geonameid":2642056,"name":"Much Hoole","admin3":"30UN","localeAltName":null},{"geonameid":2641810,"name":"Nelson","admin3":"30UJ","localeAltName":null},{"geonameid":2641781,"name":"Nether Kellet","admin3":"30UH","localeAltName":null},{"geonameid":11669843,"name":"New Longton","admin3":"30UN","localeAltName":null},{"geonameid":2641664,"name":"Newchurch","admin3":"30UM","localeAltName":null},{"geonameid":8556221,"name":"Newsholme","admin3":"30UL","localeAltName":null},{"geonameid":2641562,"name":"Newton","admin3":"30UL","localeAltName":null},{"geonameid":6693121,"name":"Oakenclough","admin3":"30UQ","localeAltName":null},{"geonameid":2640908,"name":"Ormskirk","admin3":"30UP","localeAltName":null},{"geonameid":2640862,"name":"Oswaldtwistle","admin3":"30UG","localeAltName":null},{"geonameid":2640772,"name":"Over Kellet","admin3":"30UH","localeAltName":null},{"geonameid":2640763,"name":"Overton","admin3":"30UH","localeAltName":null},{"geonameid":6947748,"name":"Oxcliffe","admin3":"30UH","localeAltName":null},{"geonameid":2640687,"name":"Padiham","admin3":"30UD","localeAltName":null},{"geonameid":2640621,"name":"Parbold","admin3":"30UP","localeAltName":null},{"geonameid":2640550,"name":"Paythorne","admin3":"30UL","localeAltName":null},{"geonameid":2640474,"name":"Pendleton","admin3":"30UL","localeAltName":null},{"geonameid":2640391,"name":"Penwortham","admin3":"30UN","localeAltName":null},{"geonameid":2640290,"name":"Pilling","admin3":"30UQ","localeAltName":null},{"geonameid":10109428,"name":"Pinfold","admin3":"30UP","localeAltName":null},{"geonameid":2640205,"name":"Plumpton","admin3":"30UF","localeAltName":null},{"geonameid":10109416,"name":"Pool Hey","admin3":"30UP","localeAltName":null},{"geonameid":2639958,"name":"Poulton-le-Fylde","admin3":"30UQ","localeAltName":null},{"geonameid":2639934,"name":"Preesall","admin3":"30UQ","localeAltName":null},{"geonameid":2639912,"name":"Preston","admin3":"30UK","localeAltName":null},{"geonameid":9883866,"name":"Quernmore Park","admin3":"30UH","localeAltName":null},{"geonameid":2639586,"name":"Rawtenstall","admin3":"30UM","localeAltName":null},{"geonameid":11592620,"name":"Read","admin3":"30UL","localeAltName":null},{"geonameid":8063605,"name":"Reedsholme","admin3":"30UM","localeAltName":null},{"geonameid":2639397,"name":"Ribchester","admin3":"30UL","localeAltName":null},{"geonameid":9430983,"name":"Riley Green","admin3":"30UE","localeAltName":null},{"geonameid":2639353,"name":"Rimington","admin3":"30UL","localeAltName":null},{"geonameid":2639310,"name":"Rishton","admin3":"30UG","localeAltName":null},{"geonameid":2639298,"name":"Rivington","admin3":"30UE","localeAltName":null},{"geonameid":2639241,"name":"Roddlesworth","admin3":"30UE","localeAltName":null},{"geonameid":8299614,"name":"Rossendale","admin3":"30UM","localeAltName":null},{"geonameid":2638981,"name":"Rufford","admin3":"30UP","localeAltName":null},{"geonameid":2638891,"name":"Sabden","admin3":"30UL","localeAltName":null},{"geonameid":2638861,"name":"Saint Annes on the Sea","admin3":"30UF","localeAltName":null},{"geonameid":2638721,"name":"Saint Michaels on Wyre","admin3":"30UQ","localeAltName":null},{"geonameid":2638647,"name":"Salterforth","admin3":"30UJ","localeAltName":null},{"geonameid":2638620,"name":"Samlesbury","admin3":"30UN","localeAltName":null},{"geonameid":2638475,"name":"Sawley","admin3":"30UL","localeAltName":null},{"geonameid":2638408,"name":"Scarisbrick","admin3":"30UP","localeAltName":null},{"geonameid":2638367,"name":"Scorton","admin3":"30UQ","localeAltName":null},{"geonameid":2638362,"name":"Scotforth","admin3":"30UH","localeAltName":null},{"geonameid":2638109,"name":"Shawforth","admin3":"30UM","localeAltName":null},{"geonameid":2637937,"name":"Shireshead","admin3":"30UQ","localeAltName":null},{"geonameid":2637829,"name":"Silverdale","admin3":"30UH","localeAltName":null},{"geonameid":2637752,"name":"Skelmersdale","admin3":"30UP","localeAltName":null},{"geonameid":2637675,"name":"Slaidburn","admin3":"30UL","localeAltName":null},{"geonameid":10109440,"name":"Smithy Lane Ends","admin3":"30UP","localeAltName":null},{"geonameid":10109413,"name":"Snape Green","admin3":"30UP","localeAltName":null},{"geonameid":2637544,"name":"Sollom","admin3":"30UP","localeAltName":null},{"geonameid":2637196,"name":"Springfield","admin3":"30UE","localeAltName":null},{"geonameid":11593817,"name":"Stalmine","admin3":"30UQ","localeAltName":null},{"geonameid":2636215,"name":"Tarleton","admin3":"30UP","localeAltName":null},{"geonameid":2636213,"name":"Tarnbrook","admin3":"30UH","localeAltName":null},{"geonameid":6693652,"name":"Tewitfield","admin3":"30UH","localeAltName":null},{"geonameid":2635972,"name":"Thornton","admin3":"30UQ","localeAltName":null},{"geonameid":8299615,"name":"Thornton-Cleveleys","admin3":"30UQ","localeAltName":null},{"geonameid":2635633,"name":"Torrisholme","admin3":"30UH","localeAltName":null},{"geonameid":2635588,"name":"Town Green","admin3":"30UP","localeAltName":null},{"geonameid":2635353,"name":"Tunstall","admin3":"30UH","localeAltName":null},{"geonameid":11593550,"name":"Ulnes Walton","admin3":"30UE","localeAltName":null},{"geonameid":2635156,"name":"Up Holland","admin3":"30UP","localeAltName":null},{"geonameid":2634922,"name":"Waddington","admin3":"30UL","localeAltName":null},{"geonameid":2634830,"name":"Walton le Dale","admin3":"30UN","localeAltName":null},{"geonameid":2634726,"name":"Warton","admin3":"30UH","localeAltName":null},{"geonameid":2634727,"name":"Warton","admin3":"30UF","localeAltName":null},{"geonameid":2634602,"name":"Weeton","admin3":"30UF","localeAltName":null},{"geonameid":2634532,"name":"Wennington","admin3":"30UH","localeAltName":null},{"geonameid":9034853,"name":"Wesham","admin3":"30UF","localeAltName":null},{"geonameid":2634392,"name":"Westhead","admin3":"30UP","localeAltName":null},{"geonameid":2634192,"name":"Whalley","admin3":"30UL","localeAltName":null},{"geonameid":2634050,"name":"Whitewell","admin3":"30UL","localeAltName":null},{"geonameid":2634012,"name":"Whittington","admin3":"30UH","localeAltName":null},{"geonameid":2633997,"name":"Whitworth","admin3":"30UM","localeAltName":null},{"geonameid":2633881,"name":"Wilpshire","admin3":"30UL","localeAltName":null},{"geonameid":10794265,"name":"Winewall","admin3":"30UJ","localeAltName":null},{"geonameid":2633815,"name":"Winmarleigh","admin3":"30UQ","localeAltName":null},{"geonameid":6947747,"name":"Winter Hill","admin3":"30UE","localeAltName":null},{"geonameid":2633736,"name":"Withnell","admin3":"30UE","localeAltName":null},{"geonameid":2633627,"name":"Woodplumpton","admin3":"30UK","localeAltName":null},{"geonameid":2633527,"name":"Worsthorne","admin3":"30UD","localeAltName":null},{"geonameid":2633497,"name":"Wray","admin3":"30UH","localeAltName":null},{"geonameid":2633495,"name":"Wrea Green","admin3":"30UF","localeAltName":null}],"admin3":[{"geonameid":2633439,"name":"Wyre District","admin3":"30UQ","localeAltName":null},{"geonameid":2634372,"name":"West Lancashire District","admin3":"30UP","localeAltName":null},{"geonameid":2637338,"name":"South Ribble","admin3":"30UN","localeAltName":null},{"geonameid":2644973,"name":"Lancaster","admin3":"30UH","localeAltName":null},{"geonameid":7290576,"name":"Burnley District","admin3":"30UD","localeAltName":null},{"geonameid":7290577,"name":"Chorley District","admin3":"30UE","localeAltName":null},{"geonameid":7290578,"name":"Fylde District","admin3":"30UF","localeAltName":null},{"geonameid":7290579,"name":"Hyndburn District","admin3":"30UG","localeAltName":null},{"geonameid":7290580,"name":"Pendle District","admin3":"30UJ","localeAltName":null},{"geonameid":7290581,"name":"Preston District","admin3":"30UK","localeAltName":null},{"geonameid":7290582,"name":"Ribble Valley District","admin3":"30UL","localeAltName":null},{"geonameid":7290583,"name":"Rossendale District","admin3":"30UM","localeAltName":null}],"alternateNames":[{"alternatenameId":1626647,"geonameid":6269131,"isoLanguage":"en","alternateName":"England","isPreferredName":true,"isShortName":true,"isColloquial":false,"isHistoric":false}]},"__N_SSG":true}