{"pageProps":{"locale":"en","admin2":{"geonameid":3333168,"name":"Luton","country":"GB","admin1":"ENG","admin2":"I1","admin3":"","latitude":"51.8911000","longitude":"-0.4279300","localeAltName":"Luton"},"admin1":{"geonameid":6269131,"name":"England","admin1":"ENG","localeAltName":"England"},"locations":[{"geonameid":2644745,"name":"Leagrave","admin3":"00KC011","localeAltName":null},{"geonameid":2644551,"name":"Lewsey","admin3":"00KC011","localeAltName":null},{"geonameid":2643339,"name":"Luton","admin3":"00KC039","localeAltName":null},{"geonameid":2636792,"name":"Stopsley","admin3":"","localeAltName":null},{"geonameid":2636527,"name":"Sundon Park","admin3":"00KC068","localeAltName":null}],"admin3":[],"alternateNames":[{"alternatenameId":8666502,"geonameid":3333168,"isoLanguage":"en","alternateName":"Luton","isPreferredName":true,"isShortName":true,"isColloquial":false,"isHistoric":false},{"alternatenameId":1626647,"geonameid":6269131,"isoLanguage":"en","alternateName":"England","isPreferredName":true,"isShortName":true,"isColloquial":false,"isHistoric":false}]},"__N_SSG":true}