{"pageProps":{"locale":"en","admin2":{"geonameid":3333192,"name":"Sefton","country":"GB","admin1":"ENG","admin2":"L8","admin3":"","latitude":"53.5000000","longitude":"-3.0000000","localeAltName":"Sefton"},"admin1":{"geonameid":6269131,"name":"England","admin1":"ENG","localeAltName":"England"},"locations":[{"geonameid":2657623,"name":"Ainsdale","admin3":"30UP","localeAltName":null},{"geonameid":2657621,"name":"Aintree","admin3":"00CA001","localeAltName":null},{"geonameid":10109417,"name":"Blowick","admin3":"","localeAltName":null},{"geonameid":2655323,"name":"Blundellsands","admin3":"00CA009","localeAltName":null},{"geonameid":2655198,"name":"Bootle","admin3":"","localeAltName":null},{"geonameid":6693123,"name":"Churchtown","admin3":"","localeAltName":null},{"geonameid":3209584,"name":"Crosby","admin3":"","localeAltName":null},{"geonameid":2651881,"name":"Crossens","admin3":"30UP","localeAltName":null},{"geonameid":2649198,"name":"Formby","admin3":"00CA010","localeAltName":null},{"geonameid":10108178,"name":"Freshfield","admin3":"00CA010","localeAltName":null},{"geonameid":2648127,"name":"Great Crosby","admin3":"00CA008","localeAltName":null},{"geonameid":2646922,"name":"Hightown","admin3":"00CA009","localeAltName":null},{"geonameid":2646254,"name":"Ince Blundell","admin3":"00CA002","localeAltName":null},{"geonameid":2644386,"name":"Litherland","admin3":"00CA007","localeAltName":null},{"geonameid":10108186,"name":"Little Altcar","admin3":"00CA010","localeAltName":null},{"geonameid":2643320,"name":"Lydiate","admin3":"00CA004","localeAltName":null},{"geonameid":2643198,"name":"Maghull","admin3":"00CA005","localeAltName":null},{"geonameid":2642782,"name":"Melling","admin3":"00CA006","localeAltName":null},{"geonameid":6694824,"name":"Netherton","admin3":"","localeAltName":null},{"geonameid":2634685,"name":"Seaforth","admin3":"","localeAltName":null},{"geonameid":2638250,"name":"Sefton","admin3":"00CA007","localeAltName":null},{"geonameid":2637343,"name":"Southport","admin3":"","localeAltName":null},{"geonameid":2635974,"name":"Thornton","admin3":"00CA008","localeAltName":null},{"geonameid":8224785,"name":"Waterloo","admin3":"","localeAltName":null}],"admin3":[{"geonameid":2635966,"name":"Thornton","admin3":"00CA008","localeAltName":null},{"geonameid":7292243,"name":"Ince Blundell","admin3":"00CA002","localeAltName":null},{"geonameid":7292244,"name":"Little Altcar","admin3":"00CA003"},{"geonameid":7292245,"name":"Lydiate","admin3":"00CA004","localeAltName":null},{"geonameid":7292246,"name":"Formby","admin3":"00CA010","localeAltName":null},{"geonameid":7295996,"name":"Sefton","admin3":"00CA007","localeAltName":null},{"geonameid":7297082,"name":"Melling","admin3":"00CA006","localeAltName":null},{"geonameid":7301053,"name":"Maghull","admin3":"00CA005","localeAltName":null},{"geonameid":7301405,"name":"Aintree Village","admin3":"00CA001","localeAltName":null},{"geonameid":7301406,"name":"Hightown","admin3":"00CA009","localeAltName":null}],"alternateNames":[{"alternatenameId":8666520,"geonameid":3333192,"isoLanguage":"en","alternateName":"Sefton","isPreferredName":true,"isShortName":true,"isColloquial":false,"isHistoric":false},{"alternatenameId":1626647,"geonameid":6269131,"isoLanguage":"en","alternateName":"England","isPreferredName":true,"isShortName":true,"isColloquial":false,"isHistoric":false}]},"__N_SSG":true}