{"pageProps":{"locale":"en","admin2":{"geonameid":3333194,"name":"Slough","country":"GB","admin1":"ENG","admin2":"M1","admin3":"","latitude":"51.5000000","longitude":"-0.5666700","localeAltName":null},"admin1":{"geonameid":6269131,"name":"England","admin1":"ENG","localeAltName":"England"},"locations":[{"geonameid":9072591,"name":"Cippenham","admin3":"","localeAltName":null},{"geonameid":2652546,"name":"Colnbrook","admin3":"00MD002","localeAltName":null},{"geonameid":2644919,"name":"Langley Marish","admin3":"","localeAltName":null},{"geonameid":6693055,"name":"Poyle","admin3":"00MD002","localeAltName":null},{"geonameid":2637627,"name":"Slough","admin3":"","localeAltName":null}],"admin3":[{"geonameid":7294006,"name":"Britwell","admin3":"00MD001"},{"geonameid":7297183,"name":"Colnbrook with Poyle","admin3":"00MD002","localeAltName":null},{"geonameid":7301175,"name":"Wexham Court","admin3":"00MD003"}],"alternateNames":[{"alternatenameId":1626647,"geonameid":6269131,"isoLanguage":"en","alternateName":"England","isPreferredName":true,"isShortName":true,"isColloquial":false,"isHistoric":false}]},"__N_SSG":true}