{"pageProps":{"locale":"en","admin2":{"geonameid":3333217,"name":"West Berkshire","country":"GB","admin1":"ENG","admin2":"P4","admin3":"","latitude":"51.4166700","longitude":"-1.2500000","localeAltName":null},"admin1":{"geonameid":6269131,"name":"England","admin1":"ENG","localeAltName":"England"},"locations":[{"geonameid":2657544,"name":"Aldermaston","admin3":"00MB001","localeAltName":null},{"geonameid":2657522,"name":"Aldworth","admin3":"00MB002","localeAltName":null},{"geonameid":2656751,"name":"Avington","admin3":"00MB034","localeAltName":null},{"geonameid":7576811,"name":"Bagnor","admin3":"00MB043","localeAltName":null},{"geonameid":2656025,"name":"Beedon","admin3":"00MB006","localeAltName":null},{"geonameid":2656024,"name":"Beedon Hill","admin3":"00MB006","localeAltName":null},{"geonameid":2656020,"name":"Beenham","admin3":"00MB007","localeAltName":null},{"geonameid":2655045,"name":"Boxford","admin3":"00MB008","localeAltName":null},{"geonameid":2654998,"name":"Bradfield","admin3":"00MB009","localeAltName":null},{"geonameid":2654708,"name":"Brightwalton","admin3":"00MB010","localeAltName":null},{"geonameid":2654696,"name":"Brimpton","admin3":"00MB011","localeAltName":null},{"geonameid":2654397,"name":"Bucklebury","admin3":"00MB012","localeAltName":null},{"geonameid":2654301,"name":"Burghfield","admin3":"00MB013","localeAltName":null},{"geonameid":6692920,"name":"Calcot","admin3":"00MB063","localeAltName":null},{"geonameid":11874053,"name":"Chaddleworth","admin3":"00MB015","localeAltName":null},{"geonameid":2653179,"name":"Chieveley","admin3":"00MB016","localeAltName":null},{"geonameid":2652617,"name":"Cold Ash","admin3":"00MB017","localeAltName":null},{"geonameid":2652510,"name":"Combe","admin3":"00MB018","localeAltName":null},{"geonameid":2652488,"name":"Compton","admin3":"00MB019","localeAltName":null},{"geonameid":11551032,"name":"Crookham","admin3":"00MB049","localeAltName":null},{"geonameid":7839205,"name":"Donnington","admin3":"00MB042","localeAltName":null},{"geonameid":2650440,"name":"East Garston","admin3":"00MB020","localeAltName":null},{"geonameid":2650408,"name":"East Ilsley","admin3":"00MB021","localeAltName":null},{"geonameid":2650339,"name":"East Shefford","admin3":"00MB027","localeAltName":null},{"geonameid":2650491,"name":"Eastbury","admin3":"00MB035","localeAltName":null},{"geonameid":6620432,"name":"Elcot","admin3":"00MB034","localeAltName":null},{"geonameid":2650002,"name":"Enborne","admin3":"00MB022","localeAltName":null},{"geonameid":2649993,"name":"Englefield","admin3":"00MB023","localeAltName":null},{"geonameid":2649670,"name":"Farnborough","admin3":"00MB024","localeAltName":null},{"geonameid":2649617,"name":"Fawley","admin3":"00MB025","localeAltName":null},{"geonameid":2649053,"name":"Frilsham","admin3":"00MB026","localeAltName":null},{"geonameid":2648024,"name":"Great Shefford","admin3":"00MB027","localeAltName":null},{"geonameid":9884536,"name":"Greenham","admin3":"00MB062","localeAltName":null},{"geonameid":2647552,"name":"Hampstead Norreys","admin3":"00MB029","localeAltName":null},{"geonameid":6693633,"name":"Hamstead Marshall","admin3":"00MB030","localeAltName":null},{"geonameid":9884538,"name":"Heads Hill","admin3":"00MB049","localeAltName":null},{"geonameid":2647062,"name":"Hermitage","admin3":"00MB031","localeAltName":null},{"geonameid":2646411,"name":"Hungerford","admin3":"00MB032","localeAltName":null},{"geonameid":2646410,"name":"Hungerford Newton","admin3":"00MB032","localeAltName":null},{"geonameid":2646188,"name":"Inkpen","admin3":"00MB033","localeAltName":null},{"geonameid":2645361,"name":"Kintbury","admin3":"00MB034","localeAltName":null},{"geonameid":2644993,"name":"Lambourn","admin3":"00MB035","localeAltName":null},{"geonameid":10278212,"name":"Lower Basildon","admin3":"00MB004","localeAltName":null},{"geonameid":2642569,"name":"Midgham","admin3":"00MB037","localeAltName":null},{"geonameid":2641689,"name":"Newbury","admin3":"00MB062","localeAltName":null},{"geonameid":6639624,"name":"Padworth","admin3":"00MB038","localeAltName":null},{"geonameid":2640654,"name":"Pangbourne","admin3":"00MB039","localeAltName":null},{"geonameid":2640538,"name":"Peasemore","admin3":"00MB040","localeAltName":null},{"geonameid":9353158,"name":"Sandleford","admin3":"00MB028","localeAltName":null},{"geonameid":2638114,"name":"Shaw","admin3":"00MB062","localeAltName":null},{"geonameid":2637423,"name":"South Fawley","admin3":"00MB025","localeAltName":null},{"geonameid":2637245,"name":"Speen","admin3":"00MB043","localeAltName":null},{"geonameid":11593435,"name":"Stanford Dingley","admin3":"00MB044","localeAltName":null},{"geonameid":2636892,"name":"Stockcross","admin3":"00MB043","localeAltName":null},{"geonameid":2636716,"name":"Stratfield Mortimer","admin3":"00MB045","localeAltName":null},{"geonameid":2636673,"name":"Streatley","admin3":"00MB046","localeAltName":null},{"geonameid":2636549,"name":"Sulhamstead","admin3":"00MB048","localeAltName":null},{"geonameid":2636548,"name":"Sulhamstead Abbots","admin3":"00MB013","localeAltName":null},{"geonameid":2636049,"name":"Thatcham","admin3":"00MB049","localeAltName":null},{"geonameid":2636045,"name":"Theale","admin3":"00MB050","localeAltName":null},{"geonameid":2635849,"name":"Tidmarsh","admin3":"00MB051","localeAltName":null},{"geonameid":2635833,"name":"Tilehurst","admin3":"00MB052","localeAltName":null},{"geonameid":2656195,"name":"Upper Basildon","admin3":"00MB004","localeAltName":null},{"geonameid":2634712,"name":"Wasing","admin3":"00MB054","localeAltName":null},{"geonameid":2634590,"name":"Welford","admin3":"00MB055","localeAltName":null},{"geonameid":11747336,"name":"West Ilsley","admin3":"00MB056","localeAltName":null},{"geonameid":2634226,"name":"West Woodhay","admin3":"00MB057","localeAltName":null},{"geonameid":2633974,"name":"Wickham","admin3":"00MB055","localeAltName":null},{"geonameid":2633797,"name":"Winterbourne","admin3":"00MB058","localeAltName":null},{"geonameid":11592758,"name":"Woolhampton","admin3":"00MB060","localeAltName":null}],"admin3":[{"geonameid":7291997,"name":"Newbury","admin3":"00MB062","localeAltName":null},{"geonameid":7292712,"name":"Basildon","admin3":"00MB004","localeAltName":null},{"geonameid":7292713,"name":"Beech Hill","admin3":"00MB005"},{"geonameid":7292714,"name":"Beedon","admin3":"00MB006","localeAltName":null},{"geonameid":7292715,"name":"Frilsham","admin3":"00MB026","localeAltName":null},{"geonameid":7292716,"name":"Hampstead Norreys","admin3":"00MB029","localeAltName":null},{"geonameid":7292717,"name":"Hampstead Marshall","admin3":"00MB030","localeAltName":null},{"geonameid":7292718,"name":"Inkpen","admin3":"00MB033","localeAltName":null},{"geonameid":7292719,"name":"Padworth","admin3":"00MB038","localeAltName":null},{"geonameid":7292720,"name":"Shaw cum Donnington","admin3":"00MB042","localeAltName":null},{"geonameid":7292721,"name":"Stanford Dingley","admin3":"00MB044","localeAltName":null},{"geonameid":7292722,"name":"Tidmarsh","admin3":"00MB051","localeAltName":null},{"geonameid":7292723,"name":"Tilehurst","admin3":"00MB052","localeAltName":null},{"geonameid":7292724,"name":"West Woodhay","admin3":"00MB057","localeAltName":null},{"geonameid":7292725,"name":"Holybrook","admin3":"00MB063","localeAltName":null},{"geonameid":7293968,"name":"Woolhampton","admin3":"00MB060","localeAltName":null},{"geonameid":7294177,"name":"Aldermaston","admin3":"00MB001","localeAltName":null},{"geonameid":7294178,"name":"Aldworth","admin3":"00MB002","localeAltName":null},{"geonameid":7294179,"name":"Ashampstead","admin3":"00MB003"},{"geonameid":7294180,"name":"Beenham","admin3":"00MB007","localeAltName":null},{"geonameid":7294181,"name":"Brightwalton","admin3":"00MB010","localeAltName":null},{"geonameid":7294182,"name":"Bucklebury","admin3":"00MB012","localeAltName":null},{"geonameid":7294183,"name":"Combe","admin3":"00MB018","localeAltName":null},{"geonameid":7294184,"name":"Compton","admin3":"00MB019","localeAltName":null},{"geonameid":7294185,"name":"East Ilsley","admin3":"00MB021","localeAltName":null},{"geonameid":7294186,"name":"Speen","admin3":"00MB043","localeAltName":null},{"geonameid":7294187,"name":"Stratfield Mortimer","admin3":"00MB045","localeAltName":null},{"geonameid":7294188,"name":"Streatley","admin3":"00MB046","localeAltName":null},{"geonameid":7294189,"name":"Sulham","admin3":"00MB047"},{"geonameid":7294190,"name":"Thatcham","admin3":"00MB049","localeAltName":null},{"geonameid":7294191,"name":"Ufton Nervet","admin3":"00MB053"},{"geonameid":7294192,"name":"Winterbourne","admin3":"00MB058","localeAltName":null},{"geonameid":7297443,"name":"Boxford","admin3":"00MB008","localeAltName":null},{"geonameid":7297444,"name":"Burghfield","admin3":"00MB013","localeAltName":null},{"geonameid":7297445,"name":"Chaddleworth","admin3":"00MB015","localeAltName":null},{"geonameid":7297446,"name":"Cold Ash","admin3":"00MB017","localeAltName":null},{"geonameid":7297447,"name":"East Garston","admin3":"00MB020","localeAltName":null},{"geonameid":7297448,"name":"Englefield","admin3":"00MB023","localeAltName":null},{"geonameid":7297449,"name":"Fawley","admin3":"00MB025","localeAltName":null},{"geonameid":7297450,"name":"Great Shefford","admin3":"00MB027","localeAltName":null},{"geonameid":7297451,"name":"Hungerford","admin3":"00MB032","localeAltName":null},{"geonameid":7297452,"name":"Kintbury","admin3":"00MB034","localeAltName":null},{"geonameid":7297453,"name":"Leckhampstead","admin3":"00MB036"},{"geonameid":7297454,"name":"Wasing","admin3":"00MB054","localeAltName":null},{"geonameid":7297455,"name":"Welford","admin3":"00MB055","localeAltName":null},{"geonameid":7297456,"name":"Yattendon","admin3":"00MB061"},{"geonameid":7297778,"name":"Pangbourne","admin3":"00MB039","localeAltName":null},{"geonameid":7298375,"name":"Lambourn","admin3":"00MB035","localeAltName":null},{"geonameid":7301514,"name":"Bradfield","admin3":"00MB009","localeAltName":null},{"geonameid":7301515,"name":"Brimpton","admin3":"00MB011","localeAltName":null},{"geonameid":7301516,"name":"Catmore","admin3":"00MB014"},{"geonameid":7301517,"name":"Chieveley","admin3":"00MB016","localeAltName":null},{"geonameid":7301518,"name":"Enborne","admin3":"00MB022","localeAltName":null},{"geonameid":7301519,"name":"Farnborough","admin3":"00MB024","localeAltName":null},{"geonameid":7301520,"name":"Greenham","admin3":"00MB028","localeAltName":null},{"geonameid":7301521,"name":"Hermitage","admin3":"00MB031","localeAltName":null},{"geonameid":7301522,"name":"Midgham","admin3":"00MB037","localeAltName":null},{"geonameid":7301523,"name":"Peasemore","admin3":"00MB040","localeAltName":null},{"geonameid":7301524,"name":"Purley on Thames","admin3":"00MB041"},{"geonameid":7301525,"name":"Sulhamstead","admin3":"00MB048","localeAltName":null},{"geonameid":7301526,"name":"Theale","admin3":"00MB050","localeAltName":null},{"geonameid":7301527,"name":"West Ilsley","admin3":"00MB056","localeAltName":null},{"geonameid":7301528,"name":"Wokefield","admin3":"00MB059"}],"alternateNames":[{"alternatenameId":1626647,"geonameid":6269131,"isoLanguage":"en","alternateName":"England","isPreferredName":true,"isShortName":true,"isColloquial":false,"isHistoric":false}]},"__N_SSG":true}