{"pageProps":{"locale":"en","admin2":{"geonameid":2657311,"name":"Anglesey","country":"GB","admin1":"WLS","admin2":"X1","admin3":"","latitude":"53.2500000","longitude":"-4.3333300","localeAltName":"Anglesey"},"admin1":{"geonameid":2634895,"name":"Wales","admin1":"WLS","localeAltName":"Wales"},"locations":[{"geonameid":2657819,"name":"Aberffraw","admin3":"00NA001","localeAltName":null},{"geonameid":2657347,"name":"Amlwch","admin3":"00NA002","localeAltName":null},{"geonameid":2656073,"name":"Beaumaris","admin3":"00NA003","localeAltName":null},{"geonameid":3209552,"name":"Benllech","admin3":"00NA020","localeAltName":null},{"geonameid":10377699,"name":"Bethel","admin3":"00NA006","localeAltName":null},{"geonameid":2655284,"name":"Bodedern","admin3":"00NA004","localeAltName":null},{"geonameid":2655278,"name":"Bodewryd","admin3":"00NA029","localeAltName":null},{"geonameid":2655269,"name":"Bodorgan","admin3":"00NA006","localeAltName":null},{"geonameid":2654442,"name":"Bryngwran","admin3":"00NA007","localeAltName":null},{"geonameid":8299872,"name":"Brynteg","admin3":"00NA020","localeAltName":null},{"geonameid":2654096,"name":"Cae’r-geiliog","admin3":"00NA022","localeAltName":null},{"geonameid":10377712,"name":"Capel Mawr","admin3":"00NA026","localeAltName":null},{"geonameid":2653438,"name":"Cemaes Bay","admin3":"00NA011","localeAltName":null},{"geonameid":2652650,"name":"Coedana","admin3":"00NA028","localeAltName":null},{"geonameid":8299873,"name":"Dulas","admin3":"00NA015","localeAltName":null},{"geonameid":8335472,"name":"Dwyran","admin3":"00NA036","localeAltName":null},{"geonameid":12149387,"name":"Elim","admin3":"00NA038","localeAltName":null},{"geonameid":2648954,"name":"Gaerwen","admin3":"00NA023","localeAltName":null},{"geonameid":2647738,"name":"Gwalchmai","admin3":"00NA039","localeAltName":null},{"geonameid":2647724,"name":"Gwredog","admin3":"00NA028","localeAltName":null},{"geonameid":10377705,"name":"Hermon","admin3":"00NA006","localeAltName":null},{"geonameid":2646686,"name":"Holyhead","admin3":"00NA010","localeAltName":null},{"geonameid":2644193,"name":"Llanallgo","admin3":"00NA031","localeAltName":null},{"geonameid":2644184,"name":"Llanbabo","admin3":"00NA038","localeAltName":null},{"geonameid":2644179,"name":"Llanbadrig","admin3":"00NA011","localeAltName":null},{"geonameid":8316385,"name":"Llanbedrgoch","admin3":"00NA020","localeAltName":null},{"geonameid":12149388,"name":"Llanddeusant","admin3":"00NA038","localeAltName":null},{"geonameid":2644154,"name":"Llanddeusant","admin3":"00NA011","localeAltName":null},{"geonameid":2644149,"name":"Llanddona","admin3":"00NA013","localeAltName":null},{"geonameid":2644145,"name":"Llanddyfnan","admin3":"00NA014","localeAltName":null},{"geonameid":2644139,"name":"Llandegfan","admin3":"00NA008","localeAltName":null},{"geonameid":2644114,"name":"Llandyfrydog","admin3":"00NA035","localeAltName":null},{"geonameid":2644106,"name":"Llanedwen","admin3":"00NA012","localeAltName":null},{"geonameid":2644095,"name":"Llanerchymedd","admin3":"00NA028","localeAltName":null},{"geonameid":2644093,"name":"Llanfachraeth","admin3":"00NA017","localeAltName":null},{"geonameid":2644091,"name":"Llanfaelog","admin3":"00NA018","localeAltName":null},{"geonameid":2644088,"name":"Llanfaes","admin3":"00NA003","localeAltName":null},{"geonameid":2644087,"name":"Llanfaethlu","admin3":"00NA019","localeAltName":null},{"geonameid":2644080,"name":"Llanfairpwllgwyngyll","admin3":"00NA021","localeAltName":null},{"geonameid":2644074,"name":"Llanfechell","admin3":"00NA029","localeAltName":null},{"geonameid":2644072,"name":"Llanfflewyn","admin3":"00NA029","localeAltName":null},{"geonameid":2644062,"name":"Llanfihangel-ty’n-Sylwy","admin3":"00NA013","localeAltName":null},{"geonameid":12149386,"name":"Llanfugail","admin3":"00NA017","localeAltName":null},{"geonameid":8714315,"name":"Llanfwrog","admin3":"00NA019","localeAltName":null},{"geonameid":2644047,"name":"Llangadwaladr","admin3":"00NA006","localeAltName":null},{"geonameid":2644037,"name":"Llangefni","admin3":"00NA024","localeAltName":null},{"geonameid":2644022,"name":"Llangoed","admin3":"00NA025","localeAltName":null},{"geonameid":2644015,"name":"Llangristiolus","admin3":"00NA026","localeAltName":null},{"geonameid":2644008,"name":"Llangwyllog","admin3":"00NA014","localeAltName":null},{"geonameid":12149389,"name":"Llanrhuddlad","admin3":"00NA009","localeAltName":null},{"geonameid":2643964,"name":"Llanrhwydrys","admin3":"00NA009","localeAltName":null},{"geonameid":2643963,"name":"Llanrhyddlad","admin3":"00NA009","localeAltName":null},{"geonameid":2643936,"name":"Llantrisant","admin3":"00NA004","localeAltName":null},{"geonameid":10377703,"name":"Malltraeth","admin3":"00NA006","localeAltName":null},{"geonameid":8314967,"name":"Marianglas","admin3":"00NA016","localeAltName":null},{"geonameid":2642755,"name":"Menai Bridge","admin3":"00NA030","localeAltName":null},{"geonameid":2642391,"name":"Moelfre","admin3":"00NA031","localeAltName":null},{"geonameid":2641706,"name":"Newborough","admin3":"00NA036","localeAltName":null},{"geonameid":10377710,"name":"Paradwys","admin3":"00NA026","localeAltName":null},{"geonameid":12149384,"name":"Pen-Llyn","admin3":"00NA004","localeAltName":null},{"geonameid":2640449,"name":"Penmon","admin3":"00NA025","localeAltName":null},{"geonameid":2640421,"name":"Penrhos-Lligwy","admin3":"00NA031","localeAltName":null},{"geonameid":2640399,"name":"Pentraeth","admin3":"00NA033","localeAltName":null},{"geonameid":6640234,"name":"Pentre Berw","admin3":"00NA023","localeAltName":null},{"geonameid":8299870,"name":"Penysarn","admin3":"00NA015","localeAltName":null},{"geonameid":2639442,"name":"Rhoscolyn","admin3":"00NA034","localeAltName":null},{"geonameid":8299871,"name":"Rhosgoch","admin3":"00NA035","localeAltName":null},{"geonameid":2639435,"name":"Rhosneigr","admin3":"00NA018","localeAltName":null},{"geonameid":10377694,"name":"Soar","admin3":"00NA001","localeAltName":null},{"geonameid":12149385,"name":"Stryd-y-Facsen","admin3":"00NA017","localeAltName":null},{"geonameid":8521524,"name":"Trearddur Bay","admin3":"00NA037","localeAltName":null},{"geonameid":10377701,"name":"Trefdraeth","admin3":"00NA006","localeAltName":null},{"geonameid":8299844,"name":"Ty Croes","admin3":"00NA001","localeAltName":null},{"geonameid":8299854,"name":"Tyn-y-Gongl","admin3":"00NA020","localeAltName":null},{"geonameid":2635022,"name":"Valley","admin3":"00NA040","localeAltName":null}],"admin3":[{"geonameid":7292365,"name":"Bodedern","admin3":"00NA004","localeAltName":null},{"geonameid":7292366,"name":"Llanfair-Mathafarn-Eithaf","admin3":"00NA020","localeAltName":null},{"geonameid":7292367,"name":"Llanidan","admin3":"00NA027"},{"geonameid":7293941,"name":"Llaneugrad","admin3":"00NA016","localeAltName":null},{"geonameid":7294074,"name":"Bodorgan","admin3":"00NA006","localeAltName":null},{"geonameid":7294075,"name":"Llanddyfnan","admin3":"00NA014","localeAltName":null},{"geonameid":7294076,"name":"Llaneilian","admin3":"00NA015","localeAltName":null},{"geonameid":7294077,"name":"Llanfaelog","admin3":"00NA018","localeAltName":null},{"geonameid":7294078,"name":"Llanfair Pwllgwyngyll","admin3":"00NA021","localeAltName":null},{"geonameid":7294079,"name":"Llangefni","admin3":"00NA024","localeAltName":null},{"geonameid":7294080,"name":"Llangristiolus","admin3":"00NA026","localeAltName":null},{"geonameid":7294081,"name":"Menai Bridge","admin3":"00NA030","localeAltName":null},{"geonameid":7294082,"name":"Moelfre","admin3":"00NA031","localeAltName":null},{"geonameid":7294083,"name":"Rhoscolyn","admin3":"00NA034","localeAltName":null},{"geonameid":7294084,"name":"Trearddur","admin3":"00NA037","localeAltName":null},{"geonameid":7294085,"name":"Trewalchmai","admin3":"00NA039","localeAltName":null},{"geonameid":7297160,"name":"Bodffordd","admin3":"00NA005"},{"geonameid":7297161,"name":"Cwm Cadnant","admin3":"00NA008","localeAltName":null},{"geonameid":7297162,"name":"Llanddaniel Fab","admin3":"00NA012","localeAltName":null},{"geonameid":7297163,"name":"Llanddona","admin3":"00NA013","localeAltName":null},{"geonameid":7297164,"name":"Llanfair-yn-Neubwll","admin3":"00NA022","localeAltName":null},{"geonameid":7297165,"name":"Llannerch-y-Medd","admin3":"00NA028","localeAltName":null},{"geonameid":7297166,"name":"Mechell","admin3":"00NA029","localeAltName":null},{"geonameid":7297167,"name":"Penmynydd","admin3":"00NA032"},{"geonameid":7297168,"name":"Rhosybol","admin3":"00NA035","localeAltName":null},{"geonameid":7297169,"name":"Rhosyr","admin3":"00NA036","localeAltName":null},{"geonameid":7297170,"name":"Tref Alaw","admin3":"00NA038","localeAltName":null},{"geonameid":7297745,"name":"Llanfihangel Ysgeifiog","admin3":"00NA023","localeAltName":null},{"geonameid":7297868,"name":"Llanfachraeth","admin3":"00NA017","localeAltName":null},{"geonameid":7297869,"name":"Llanfaethlu","admin3":"00NA019","localeAltName":null},{"geonameid":7301157,"name":"Aberffraw","admin3":"00NA001","localeAltName":null},{"geonameid":7301158,"name":"Amlwch","admin3":"00NA002","localeAltName":null},{"geonameid":7301159,"name":"Beaumaris","admin3":"00NA003","localeAltName":null},{"geonameid":7301160,"name":"Bryngwran","admin3":"00NA007","localeAltName":null},{"geonameid":7301161,"name":"Cylch-y-Garn","admin3":"00NA009","localeAltName":null},{"geonameid":7301162,"name":"Holyhead","admin3":"00NA010","localeAltName":null},{"geonameid":7301163,"name":"Llanbadrig","admin3":"00NA011","localeAltName":null},{"geonameid":7301164,"name":"Llangoed","admin3":"00NA025","localeAltName":null},{"geonameid":7301165,"name":"Pentraeth","admin3":"00NA033","localeAltName":null},{"geonameid":7301166,"name":"Valley","admin3":"00NA040","localeAltName":null}],"alternateNames":[{"alternatenameId":1626654,"geonameid":2634895,"isoLanguage":"en","alternateName":"Wales","isPreferredName":true,"isShortName":true,"isColloquial":false,"isHistoric":false},{"alternatenameId":1226079,"geonameid":2657311,"isoLanguage":"en","alternateName":"Anglesey","isPreferredName":true,"isShortName":true,"isColloquial":false,"isHistoric":false}]},"__N_SSG":true}