{"pageProps":{"locale":"en","admin2":{"geonameid":3333241,"name":"Cardiff","country":"GB","admin1":"WLS","admin2":"X5","admin3":"","latitude":"51.5000000","longitude":"-3.1666700","localeAltName":"Cardiff"},"admin1":{"geonameid":2634895,"name":"Wales","admin1":"WLS","localeAltName":"Wales"},"locations":[{"geonameid":2655628,"name":"Birchgrove","admin3":"00PT031","localeAltName":null},{"geonameid":2654164,"name":"Butetown","admin3":"00PT002","localeAltName":null},{"geonameid":11551753,"name":"Butetown Community","admin3":"00PT002","localeAltName":null},{"geonameid":2653822,"name":"Cardiff","admin3":"00PT005","localeAltName":null},{"geonameid":11551743,"name":"Castle Community","admin3":"00PT002","localeAltName":null},{"geonameid":2653515,"name":"Cathays","admin3":"00PT010","localeAltName":null},{"geonameid":2653514,"name":"Cathays Park","admin3":"00PT005","localeAltName":null},{"geonameid":2650024,"name":"Ely","admin3":"00PT009","localeAltName":null},{"geonameid":11551667,"name":"Grangetown Community","admin3":"00PT004","localeAltName":null},{"geonameid":8504444,"name":"Heath","admin3":"00PT012","localeAltName":null},{"geonameid":2644391,"name":"Lisvane","admin3":"00PT013","localeAltName":null},{"geonameid":2644160,"name":"Llandaff","admin3":"00PT014","localeAltName":null},{"geonameid":2643986,"name":"Llanishen","admin3":"00PT016","localeAltName":null},{"geonameid":11550753,"name":"Llanrumney Community","admin3":"00PT017","localeAltName":null},{"geonameid":2643226,"name":"Maendy","admin3":"00PT010","localeAltName":null},{"geonameid":2640378,"name":"Pen-y-lan","admin3":"00PT024","localeAltName":null},{"geonameid":2640469,"name":"Pengam","admin3":"00PT028","localeAltName":null},{"geonameid":2640393,"name":"Pentyrch","admin3":"00PT019","localeAltName":null},{"geonameid":2640228,"name":"Plasnewyd","admin3":"00PT006","localeAltName":null},{"geonameid":8581453,"name":"Pontcanna","admin3":"00PT023","localeAltName":null},{"geonameid":2639710,"name":"Radyr","admin3":"00PT021","localeAltName":null},{"geonameid":8604543,"name":"Rhiwbina","admin3":"00PT022","localeAltName":null},{"geonameid":2639286,"name":"Roath","admin3":"00PT020","localeAltName":null},{"geonameid":2638965,"name":"Rumney","admin3":"00PT025","localeAltName":null},{"geonameid":2638802,"name":"Saint Fagans","admin3":"00PT026","localeAltName":null},{"geonameid":2638725,"name":"Saint Mellons","admin3":"00PT025","localeAltName":null},{"geonameid":2637213,"name":"Splot","admin3":"00PT028","localeAltName":null},{"geonameid":2634127,"name":"Whitchurch","admin3":"00PT031","localeAltName":null}],"admin3":[{"geonameid":7292887,"name":"Lisvane","admin3":"00PT013","localeAltName":null},{"geonameid":7292888,"name":"Llandaff North","admin3":"00PT015"},{"geonameid":7292889,"name":"Llanishen","admin3":"00PT016","localeAltName":null},{"geonameid":7292890,"name":"Llanrumney","admin3":"00PT017","localeAltName":null},{"geonameid":7292891,"name":"Tongwynlais","admin3":"00PT029"},{"geonameid":7294028,"name":"Butetown","admin3":"00PT002","localeAltName":null},{"geonameid":7294204,"name":"Caerau","admin3":"00PT003"},{"geonameid":7294211,"name":"Cathays","admin3":"00PT006","localeAltName":null},{"geonameid":7294248,"name":"Adamsdown","admin3":"00PT001"},{"geonameid":7294252,"name":"Llandaff","admin3":"00PT014","localeAltName":null},{"geonameid":7294253,"name":"Pentwyn","admin3":"00PT018"},{"geonameid":7294254,"name":"Riverside","admin3":"00PT023","localeAltName":null},{"geonameid":7294255,"name":"Penylan","admin3":"00PT024","localeAltName":null},{"geonameid":7294256,"name":"Whitchurch","admin3":"00PT031","localeAltName":null},{"geonameid":7296185,"name":"Canton","admin3":"00PT004","localeAltName":null},{"geonameid":7296186,"name":"Fairwater","admin3":"00PT009","localeAltName":null},{"geonameid":7297922,"name":"Radyr and Morganstown","admin3":"00PT021","localeAltName":null},{"geonameid":7297923,"name":"Rhiwbina","admin3":"00PT022","localeAltName":null},{"geonameid":7297937,"name":"Gabalfa","admin3":"00PT010","localeAltName":null},{"geonameid":7297938,"name":"Roath","admin3":"00PT020","localeAltName":null},{"geonameid":7298041,"name":"Heath","admin3":"00PT012","localeAltName":null},{"geonameid":7298330,"name":"Grangetown","admin3":"00PT011"},{"geonameid":7298742,"name":"Cyncoed","admin3":"00PT007"},{"geonameid":7298748,"name":"St. Fagans","admin3":"00PT026","localeAltName":null},{"geonameid":7298749,"name":"Splott","admin3":"00PT028","localeAltName":null},{"geonameid":7298750,"name":"Old St. Mellons","admin3":"00PT032"},{"geonameid":7298751,"name":"Pontprennau","admin3":"00PT033"},{"geonameid":7299806,"name":"Castle","admin3":"00PT005","localeAltName":null},{"geonameid":7299810,"name":"Pentyrch","admin3":"00PT019","localeAltName":null},{"geonameid":7299811,"name":"Rumney","admin3":"00PT025","localeAltName":null},{"geonameid":7299812,"name":"Trowbridge","admin3":"00PT030"},{"geonameid":7300706,"name":"Ely","admin3":"00PT008"}],"alternateNames":[{"alternatenameId":1626654,"geonameid":2634895,"isoLanguage":"en","alternateName":"Wales","isPreferredName":true,"isShortName":true,"isColloquial":false,"isHistoric":false},{"alternatenameId":8666553,"geonameid":3333241,"isoLanguage":"en","alternateName":"Cardiff","isPreferredName":true,"isShortName":true,"isColloquial":false,"isHistoric":false}]},"__N_SSG":true}