{"pageProps":{"locale":"en","admin2":{"geonameid":3333234,"name":"Perth and Kinross","country":"GB","admin1":"SCT","admin2":"W1","admin3":"","latitude":"56.5000000","longitude":"-3.7500000"},"admin1":{"geonameid":2638360,"name":"Scotland","admin1":"SCT"},"locations":[{"geonameid":2657852,"name":"Aberargie","admin3":""},{"geonameid":2657836,"name":"Aberdalgie","admin3":""},{"geonameid":2657820,"name":"Aberfeldy","admin3":""},{"geonameid":2657792,"name":"Abernethy","admin3":""},{"geonameid":2657748,"name":"Acharn","admin3":""},{"geonameid":2657452,"name":"Almondbank","admin3":""},{"geonameid":2657374,"name":"Alyth","admin3":""},{"geonameid":2657335,"name":"Amulree","admin3":""},{"geonameid":2657167,"name":"Ardler","admin3":""},{"geonameid":2657113,"name":"Ardtalnaig","admin3":""},{"geonameid":2657104,"name":"Ardvorlich","admin3":""},{"geonameid":2657042,"name":"Arngask","admin3":""},{"geonameid":2656808,"name":"Auchnafree","admin3":""},{"geonameid":2656803,"name":"Auchterarder","admin3":""},{"geonameid":2656606,"name":"Balbeggie","admin3":""},{"geonameid":2656549,"name":"Ballinluig","admin3":""},{"geonameid":2656546,"name":"Ballintuim","admin3":""},{"geonameid":2656438,"name":"Balnald","admin3":""},{"geonameid":2656391,"name":"Bankfoot","admin3":""},{"geonameid":2655601,"name":"Birnam","admin3":""},{"geonameid":2655496,"name":"Blackford","admin3":""},{"geonameid":2655397,"name":"Blair Atholl","admin3":""},{"geonameid":2655398,"name":"Blair Atholl","admin3":""},{"geonameid":2655394,"name":"Blairgowrie","admin3":""},{"geonameid":11071804,"name":"Bolfracks","admin3":""},{"geonameid":2655007,"name":"Braco","admin3":""},{"geonameid":2654746,"name":"Bridge of Balgie","admin3":""},{"geonameid":2654745,"name":"Bridge of Cally","admin3":""},{"geonameid":2654742,"name":"Bridge of Earn","admin3":""},{"geonameid":2654740,"name":"Bridge of Gaur","admin3":""},{"geonameid":2654737,"name":"Bridge of Tilt","admin3":""},{"geonameid":2654424,"name":"Buchanty","admin3":""},{"geonameid":8063581,"name":"Burrelton","admin3":""},{"geonameid":6619986,"name":"Calvine","admin3":""},{"geonameid":2653955,"name":"Camasericht","admin3":""},{"geonameid":2653921,"name":"Camghouran","admin3":""},{"geonameid":2653837,"name":"Caputh","admin3":""},{"geonameid":2653795,"name":"Cargill","admin3":""},{"geonameid":11049104,"name":"Carroglen","admin3":""},{"geonameid":2653651,"name":"Carsebreck","admin3":""},{"geonameid":2653623,"name":"Cashlie","admin3":""},{"geonameid":2653215,"name":"Chesthill","admin3":""},{"geonameid":9973073,"name":"Clackavoid","admin3":""},{"geonameid":2652747,"name":"Clunie","admin3":""},{"geonameid":2652572,"name":"Collace","admin3":""},{"geonameid":2652478,"name":"Comrie","admin3":""},{"geonameid":2652236,"name":"Coupar Angus","admin3":""},{"geonameid":2652159,"name":"Craig","admin3":""},{"geonameid":2652141,"name":"Craighall","admin3":""},{"geonameid":2652047,"name":"Cray","admin3":""},{"geonameid":2651983,"name":"Crieff","admin3":""},{"geonameid":2651903,"name":"Crook of Devon","admin3":""},{"geonameid":2651602,"name":"Dalclathick","admin3":""},{"geonameid":6696137,"name":"Dalginross","admin3":""},{"geonameid":2651585,"name":"Dall","admin3":""},{"geonameid":2651460,"name":"Deanshaugh","admin3":""},{"geonameid":2651389,"name":"Delvine","admin3":""},{"geonameid":2651042,"name":"Dowally","admin3":""},{"geonameid":2650970,"name":"Dron","admin3":""},{"geonameid":2650812,"name":"Dull","admin3":""},{"geonameid":2650782,"name":"Dunalastair","admin3":""},{"geonameid":2650781,"name":"Dunan","admin3":""},{"geonameid":2650717,"name":"Dunira","admin3":""},{"geonameid":2650716,"name":"Dunkeld","admin3":""},{"geonameid":2650688,"name":"Dunning","admin3":""},{"geonameid":2650466,"name":"Easter Bohespie","admin3":""},{"geonameid":11903566,"name":"Enochdhu","admin3":""},{"geonameid":2649921,"name":"Errol","admin3":""},{"geonameid":9973072,"name":"Finegand","admin3":""},{"geonameid":2649409,"name":"Finnart","admin3":""},{"geonameid":2649205,"name":"Forgandenny","admin3":""},{"geonameid":2649181,"name":"Forteviot","admin3":""},{"geonameid":2649175,"name":"Fortingall","admin3":""},{"geonameid":2649162,"name":"Foss","admin3":""},{"geonameid":2649147,"name":"Foulford","admin3":""},{"geonameid":2648652,"name":"Gilmerton","admin3":""},{"geonameid":2648511,"name":"Glencarse","admin3":""},{"geonameid":2648501,"name":"Glendevon","admin3":""},{"geonameid":2648491,"name":"Glenfarg","admin3":""},{"geonameid":2648433,"name":"Glenshee","admin3":""},{"geonameid":9973071,"name":"Glenshee Village","admin3":""},{"geonameid":2648222,"name":"Grandtully","admin3":""},{"geonameid":2647951,"name":"Greenloaning","admin3":""},{"geonameid":2647792,"name":"Guildtown","admin3":""},{"geonameid":2646228,"name":"Inchture","admin3":""},{"geonameid":2646162,"name":"Innerwick","admin3":""},{"geonameid":2646117,"name":"Invergeldie","admin3":""},{"geonameid":2646114,"name":"Invergowrie","admin3":""},{"geonameid":2646111,"name":"Inverhadden","admin3":""},{"geonameid":2646092,"name":"Invermearan","admin3":""},{"geonameid":2645887,"name":"Keilour","admin3":""},{"geonameid":2645818,"name":"Kenmore","admin3":""},{"geonameid":2645638,"name":"Killichonan","admin3":""},{"geonameid":8199434,"name":"Killiecrankie","admin3":""},{"geonameid":2645549,"name":"Kilspindie","admin3":""},{"geonameid":2645519,"name":"Kinclaven","admin3":""},{"geonameid":2645509,"name":"Kinfauns","admin3":""},{"geonameid":6620447,"name":"Kinloch","admin3":""},{"geonameid":2645405,"name":"Kinloch","admin3":""},{"geonameid":2645391,"name":"Kinloch Rannoch","admin3":""},{"geonameid":2645383,"name":"Kinnaird","admin3":""},{"geonameid":11592023,"name":"Kinnesswood","admin3":""},{"geonameid":2645365,"name":"Kinross","admin3":""},{"geonameid":2645244,"name":"Kirkmichael","admin3":""},{"geonameid":9973074,"name":"Lair","admin3":""},{"geonameid":2644794,"name":"Lawers","admin3":""},{"geonameid":10103884,"name":"Little Glenshee","admin3":""},{"geonameid":2643760,"name":"Logierait","admin3":""},{"geonameid":2643691,"name":"Longforgan","admin3":""},{"geonameid":2643391,"name":"Luncarty","admin3":""},{"geonameid":2643239,"name":"Madderty","admin3":""},{"geonameid":2642816,"name":"Meigle","admin3":""},{"geonameid":2642810,"name":"Meikleour","admin3":""},{"geonameid":2642691,"name":"Methven","admin3":""},{"geonameid":2642587,"name":"Middleton Fossoway","admin3":""},{"geonameid":2642506,"name":"Mill of Fortune","admin3":""},{"geonameid":2642486,"name":"Milnathort","admin3":""},{"geonameid":2642462,"name":"Milton of Abercairny","admin3":""},{"geonameid":7303904,"name":"Milton of Edradour","admin3":""},{"geonameid":2642294,"name":"Monzie","admin3":""},{"geonameid":2642208,"name":"Morenish","admin3":""},{"geonameid":2642129,"name":"Moulin","admin3":""},{"geonameid":11592121,"name":"Murthly","admin3":""},{"geonameid":2641939,"name":"Muthill","admin3":""},{"geonameid":8063582,"name":"Old Scone","admin3":""},{"geonameid":2640358,"name":"Perth","admin3":""},{"geonameid":2640255,"name":"Pitlochry","admin3":""},{"geonameid":6619989,"name":"Powmill","admin3":""},{"geonameid":6694225,"name":"Pubil","admin3":""},{"geonameid":2639686,"name":"Rait","admin3":""},{"geonameid":2639606,"name":"Rattray","admin3":""},{"geonameid":2639499,"name":"Remony","admin3":""},{"geonameid":2639364,"name":"Riechip","admin3":""},{"geonameid":2639157,"name":"Roromore","admin3":""},{"geonameid":2639141,"name":"Rosemount","admin3":""},{"geonameid":2638970,"name":"Rumblingbridge","admin3":""},{"geonameid":2638798,"name":"Saint Fillans","admin3":""},{"geonameid":2638742,"name":"Saint Martins","admin3":""},{"geonameid":2641577,"name":"Scone","admin3":""},{"geonameid":2637215,"name":"Spittal of Glenshee","admin3":""},{"geonameid":2637071,"name":"Stanley","admin3":""},{"geonameid":2636933,"name":"Stewartfield","admin3":""},{"geonameid":2636728,"name":"Straloch","admin3":""},{"geonameid":2636625,"name":"Stron-fearnan","admin3":""},{"geonameid":2636614,"name":"Struan","admin3":""},{"geonameid":2635839,"name":"Tigh na Cruaiche","admin3":""},{"geonameid":2635460,"name":"Trinafour","admin3":""},{"geonameid":2635380,"name":"Tulliemet","admin3":""},{"geonameid":11049106,"name":"Tullybannocher","admin3":""},{"geonameid":2635372,"name":"Tullybelton","admin3":""},{"geonameid":2635361,"name":"Tummel Bridge","admin3":""},{"geonameid":2635333,"name":"Turrerich","admin3":""},{"geonameid":2634606,"name":"Weem","admin3":""},{"geonameid":2634115,"name":"White Bridge","admin3":""},{"geonameid":2633621,"name":"Woodside","admin3":""}],"admin3":[{"geonameid":2645364,"name":"Kinross-shire","admin3":"2645364"}],"alternateNames":[]},"__N_SSG":true}