{"pageProps":{"locale":"en","admin2":{"geonameid":6944116,"name":"Restigouche","country":"CA","admin1":"04","admin2":"1314","admin3":"","latitude":"47.7413700","longitude":"-67.0407300"},"admin1":{"geonameid":6087430,"name":"New Brunswick/Nouveau-Brunswick","admin1":"04"},"locations":[{"geonameid":12096690,"name":"Adams Gulch","admin3":""},{"geonameid":12096823,"name":"Archibald Settlement","admin3":""},{"geonameid":11838440,"name":"Atholville","admin3":""},{"geonameid":12096348,"name":"Balmoral","admin3":""},{"geonameid":12096834,"name":"Becketville","admin3":""},{"geonameid":12069868,"name":"Belledune","admin3":""},{"geonameid":12096821,"name":"Benjamin River","admin3":""},{"geonameid":12096696,"name":"Camp Harmony","admin3":""},{"geonameid":12096855,"name":"Caribou Depot","admin3":""},{"geonameid":11126288,"name":"Charlo","admin3":""},{"geonameid":12096697,"name":"Colebrooke Settlement","admin3":""},{"geonameid":6943599,"name":"Dalhousie","admin3":""},{"geonameid":12096587,"name":"Dalhousie Junction","admin3":""},{"geonameid":12096682,"name":"Darlington","admin3":""},{"geonameid":12096698,"name":"Dawsonville","admin3":""},{"geonameid":12096825,"name":"Doyleville","admin3":""},{"geonameid":12096591,"name":"Dundee","admin3":""},{"geonameid":12096826,"name":"Durham Centre","admin3":""},{"geonameid":12096684,"name":"Eel River Cove","admin3":""},{"geonameid":11838445,"name":"Eel River Crossing","admin3":""},{"geonameid":12096836,"name":"Five Fingers","admin3":""},{"geonameid":12096803,"name":"Flatlands","admin3":""},{"geonameid":12096804,"name":"Glen Levit","admin3":""},{"geonameid":12096805,"name":"Glencoe","admin3":""},{"geonameid":12096820,"name":"Gravel Hill","admin3":""},{"geonameid":12096848,"name":"Hazen","admin3":""},{"geonameid":12096827,"name":"Heron Island","admin3":""},{"geonameid":12096819,"name":"Hickey Settlement","admin3":""},{"geonameid":12096828,"name":"Jacquet River","admin3":""},{"geonameid":12096351,"name":"Kedgwick Ouest","admin3":""},{"geonameid":12096837,"name":"Kedgwick River","admin3":""},{"geonameid":12096354,"name":"Kedgwick Sud","admin3":""},{"geonameid":12096806,"name":"Lac-des-Lys","admin3":""},{"geonameid":12096818,"name":"Lapointe Settlement","admin3":""},{"geonameid":12096838,"name":"Limerick","admin3":""},{"geonameid":12076673,"name":"Lorne","admin3":""},{"geonameid":12096807,"name":"Malauze","admin3":""},{"geonameid":12096808,"name":"Maltais","admin3":""},{"geonameid":12077045,"name":"Mann Mountain Settlement","admin3":""},{"geonameid":12096839,"name":"Mann Siding","admin3":""},{"geonameid":12096588,"name":"Maple Green","admin3":""},{"geonameid":12096809,"name":"McKendrick","admin3":""},{"geonameid":12096589,"name":"McLeods","admin3":""},{"geonameid":12096685,"name":"McNeish","admin3":""},{"geonameid":12096691,"name":"Menneval","admin3":""},{"geonameid":12096692,"name":"Millerville","admin3":""},{"geonameid":12096829,"name":"Mitchell Settlement","admin3":""},{"geonameid":12096817,"name":"Nash Creek","admin3":""},{"geonameid":12096822,"name":"New Mills","admin3":""},{"geonameid":12096840,"name":"Petit-Ouest","admin3":""},{"geonameid":12096353,"name":"Petite-RÃ©serve","admin3":""},{"geonameid":12096687,"name":"Point la Nim","admin3":""},{"geonameid":12096841,"name":"Quatre-Milles","admin3":""},{"geonameid":12096835,"name":"Rang-Cinq-et-Six","admin3":""},{"geonameid":12096842,"name":"Rang-Dix","admin3":""},{"geonameid":12096843,"name":"Rang-Dix-huit","admin3":""},{"geonameid":12096352,"name":"Rang-Double-Nord","admin3":""},{"geonameid":12096357,"name":"Rang-Double-Sud","admin3":""},{"geonameid":12096844,"name":"Rang-Douze-Nord","admin3":""},{"geonameid":12096849,"name":"Rang-Douze-Sud","admin3":""},{"geonameid":12096850,"name":"Rang-Quatorze","admin3":""},{"geonameid":12096845,"name":"Rang-Seize","admin3":""},{"geonameid":12096846,"name":"Rang-Sept","admin3":""},{"geonameid":12096847,"name":"Rang-Sept-et-Huit","admin3":""},{"geonameid":12096693,"name":"Rapids Depot","admin3":""},{"geonameid":12096590,"name":"Richardsville","admin3":""},{"geonameid":12096830,"name":"River Charlo","admin3":""},{"geonameid":12096811,"name":"Robinsonville","admin3":""},{"geonameid":12096695,"name":"Saint-Jean-Baptiste-de-Restigouche","admin3":""},{"geonameid":12096851,"name":"Saint-Martin-de-Restigouche","admin3":""},{"geonameid":12096831,"name":"Saint-Maure","admin3":""},{"geonameid":12096832,"name":"Sea Side","admin3":""},{"geonameid":12096810,"name":"Selwood","admin3":""},{"geonameid":12096686,"name":"Shannonvale","admin3":""},{"geonameid":12096854,"name":"Simpsons Field","admin3":""},{"geonameid":12096852,"name":"Six-Milles","admin3":""},{"geonameid":12096812,"name":"St-Arthur","admin3":""},{"geonameid":12096688,"name":"Summit Depot","admin3":""},{"geonameid":12096833,"name":"Sunnyside","admin3":""},{"geonameid":12096355,"name":"Thibault","admin3":""},{"geonameid":12096813,"name":"Tide Head","admin3":""},{"geonameid":12096689,"name":"Tracy Depot","admin3":""},{"geonameid":12096680,"name":"Upper Dundee","admin3":""},{"geonameid":12096814,"name":"Upsalquitch","admin3":""},{"geonameid":12077046,"name":"Val-d'Amour","admin3":""},{"geonameid":12096815,"name":"Val-Melanson","admin3":""},{"geonameid":12096853,"name":"Whites Brook","admin3":""},{"geonameid":12096816,"name":"Wyers Brook","admin3":""}],"admin3":[],"alternateNames":[]},"__N_SSG":true}