{"pageProps":{"locale":"en","admin2":{"geonameid":3333179,"name":"Borough of Oldham","country":"GB","admin1":"ENG","admin2":"K1","admin3":"","latitude":"53.5500000","longitude":"-2.0833300","localeAltName":"Oldham"},"admin1":{"geonameid":6269131,"name":"England","admin1":"ENG","localeAltName":"England"},"locations":[{"geonameid":11551008,"name":"Bardsley","admin3":""},{"geonameid":11551009,"name":"Chadderton","admin3":""},{"geonameid":2651390,"name":"Delph","admin3":"00BP001"},{"geonameid":2651263,"name":"Diggle","admin3":"00BP001"},{"geonameid":2647974,"name":"Greenfield","admin3":"00BP001"},{"geonameid":2646742,"name":"Hollinwood","admin3":""},{"geonameid":2644679,"name":"Lees","admin3":""},{"geonameid":2642275,"name":"Moorside","admin3":""},{"geonameid":2641655,"name":"New Delph","admin3":"00BP001"},{"geonameid":2641022,"name":"Oldham","admin3":""},{"geonameid":2639015,"name":"Royton","admin3":"00BP002"},{"geonameid":2638879,"name":"Saddleworth","admin3":"00BP001"},{"geonameid":2638113,"name":"Shaw","admin3":""},{"geonameid":11983727,"name":"Springhead","admin3":"00BP001"}],"admin3":[{"geonameid":7290944,"name":"Shaw and Crompton","admin3":"00BP002"},{"geonameid":7300909,"name":"Saddleworth","admin3":"00BP001"}],"alternateNames":[{"alternatenameId":8666509,"geonameid":3333179,"isoLanguage":"en","alternateName":"Oldham","isPreferredName":true,"isShortName":true,"isColloquial":false,"isHistoric":false},{"alternatenameId":1626647,"geonameid":6269131,"isoLanguage":"en","alternateName":"England","isPreferredName":true,"isShortName":true,"isColloquial":false,"isHistoric":false}]},"__N_SSG":true}