{"pageProps":{"locale":"en","admin2":{"geonameid":2635885,"name":"Borough of Thurrock","country":"GB","admin1":"ENG","admin2":"O3","admin3":"","latitude":"51.5000000","longitude":"0.4166700"},"admin1":{"geonameid":6269131,"name":"England","admin1":"ENG","localeAltName":"England"},"locations":[{"geonameid":2656759,"name":"Aveley","admin3":""},{"geonameid":2655977,"name":"Belhus","admin3":""},{"geonameid":11184861,"name":"Bulphan","admin3":""},{"geonameid":6690812,"name":"Chadwell St Mary","admin3":"29UG"},{"geonameid":6690808,"name":"Chafford Hundred","admin3":"29UD"},{"geonameid":11184860,"name":"Corringham","admin3":""},{"geonameid":2652300,"name":"Coryton","admin3":""},{"geonameid":2650325,"name":"East Tilbury","admin3":""},{"geonameid":2649270,"name":"Fobbing","admin3":""},{"geonameid":2648182,"name":"Grays","admin3":"29UG"},{"geonameid":2646590,"name":"Horndon on the Hill","admin3":""},{"geonameid":6690811,"name":"Little Thurrock","admin3":"29UG"},{"geonameid":2643476,"name":"Low Street","admin3":""},{"geonameid":6690807,"name":"North Stifford","admin3":"","localeAltName":"North Stifford"},{"geonameid":2640890,"name":"Orsett","admin3":""},{"geonameid":2639845,"name":"Purfleet","admin3":""},{"geonameid":2638062,"name":"Shell Haven","admin3":""},{"geonameid":2637355,"name":"South Ockendon","admin3":""},{"geonameid":6690809,"name":"South Stifford","admin3":"","localeAltName":"South Stifford"},{"geonameid":2637087,"name":"Stanford-le-Hope","admin3":""},{"geonameid":2636918,"name":"Stifford","admin3":""},{"geonameid":2636059,"name":"Thames Haven","admin3":""},{"geonameid":2635836,"name":"Tilbury","admin3":""},{"geonameid":2634251,"name":"West Thurrock","admin3":""},{"geonameid":2634250,"name":"West Tilbury","admin3":""}],"admin3":[],"alternateNames":[{"alternatenameId":1626647,"geonameid":6269131,"isoLanguage":"en","alternateName":"England","isPreferredName":true,"isShortName":true,"isColloquial":false,"isHistoric":false},{"alternatenameId":8666609,"geonameid":6690807,"isoLanguage":"en","alternateName":"North Stifford","isPreferredName":true,"isShortName":true,"isColloquial":false,"isHistoric":false},{"alternatenameId":8666610,"geonameid":6690809,"isoLanguage":"en","alternateName":"South Stifford","isPreferredName":true,"isShortName":true,"isColloquial":false,"isHistoric":false}]},"__N_SSG":true}