{"pageProps":{"locale":"en","admin2":{"geonameid":2633868,"name":"Wiltshire","country":"GB","admin1":"ENG","admin2":"P8","admin3":"","latitude":"51.2500000","longitude":"-1.9166700","localeAltName":"Wiltshire"},"admin1":{"geonameid":6269131,"name":"England","admin1":"ENG","localeAltName":"England"},"locations":[{"geonameid":2657562,"name":"Aldbourne","admin3":"00HY001"},{"geonameid":2657551,"name":"Alderbury","admin3":"00HY002"},{"geonameid":11592774,"name":"All Cannings","admin3":"00HY003"},{"geonameid":2657474,"name":"Allington","admin3":"00HY004"},{"geonameid":2657405,"name":"Alton Barnes","admin3":"00HY005"},{"geonameid":2657404,"name":"Alton Priors","admin3":"00HY005"},{"geonameid":2657394,"name":"Alvediston","admin3":"00HY006"},{"geonameid":2657355,"name":"Amesbury","admin3":"00HY007"},{"geonameid":2657270,"name":"Ansty","admin3":"00HY008"},{"geonameid":2656917,"name":"Ashton Keynes","admin3":"00HY009"},{"geonameid":2656833,"name":"Atworth","admin3":"00HY010"},{"geonameid":2656760,"name":"Avebury","admin3":"00HY011"},{"geonameid":2656346,"name":"Barford St Martin","admin3":"00HY012"},{"geonameid":2656151,"name":"Baverstock","admin3":"00HY081"},{"geonameid":2656138,"name":"Baydon","admin3":"00HY013"},{"geonameid":3345434,"name":"Beanacre","admin3":"00HY157"},{"geonameid":2656059,"name":"Beckhampton","admin3":"00HY011"},{"geonameid":2656027,"name":"Beechingstoke","admin3":"00HY014"},{"geonameid":9257713,"name":"Bemerton","admin3":"00HY261"},{"geonameid":2655826,"name":"Berwick Bassett","admin3":"00HY015"},{"geonameid":2655822,"name":"Berwick Saint James","admin3":"00HY016"},{"geonameid":2655821,"name":"Berwick St John","admin3":"00HY017"},{"geonameid":11072872,"name":"Berwick St. Leonard","admin3":"00HY018"},{"geonameid":2655710,"name":"Biddestone","admin3":"00HY019"},{"geonameid":2655573,"name":"Bishops Cannings","admin3":"00HY020"},{"geonameid":2655554,"name":"Bishopstone","admin3":"00HY021"},{"geonameid":2655552,"name":"Bishopstrow","admin3":"00HY022"},{"geonameid":2655188,"name":"Boreham","admin3":"00HY231"},{"geonameid":2655146,"name":"Boscombe","admin3":"00HY004"},{"geonameid":2655067,"name":"Bower Chalke","admin3":"00HY023"},{"geonameid":11593103,"name":"Bowerchalke","admin3":"00HY023"},{"geonameid":2655046,"name":"Box","admin3":"00HY024"},{"geonameid":3345425,"name":"Boyton","admin3":"00HY025"},{"geonameid":2654991,"name":"Bradford-on-Avon","admin3":"00HY026"},{"geonameid":2654866,"name":"Bratton","admin3":"00HY027"},{"geonameid":2654795,"name":"Bremhill","admin3":"00HY029"},{"geonameid":2654682,"name":"Brinkworth","admin3":"00HY030"},{"geonameid":2654671,"name":"Britford","admin3":"00HY031"},{"geonameid":3345418,"name":"Brixton Deverill","admin3":"00HY032"},{"geonameid":2654655,"name":"Broad Chalke","admin3":"00HY033"},{"geonameid":2654647,"name":"Broad Hinton","admin3":"00HY034"},{"geonameid":2654632,"name":"Broad Town","admin3":"00HY035"},{"geonameid":2654598,"name":"Brokenborough","admin3":"00HY036"},{"geonameid":2654501,"name":"Broughton Gifford","admin3":"00HY038"},{"geonameid":2654357,"name":"Bulford","admin3":"00HY039"},{"geonameid":11593116,"name":"Bulford Camp","admin3":"00HY039"},{"geonameid":2654356,"name":"Bulkington","admin3":"00HY040"},{"geonameid":2654320,"name":"Burbage","admin3":"00HY041"},{"geonameid":2653974,"name":"Calne","admin3":"00HY044"},{"geonameid":2653970,"name":"Calstone Wellington","admin3":"00HY045"},{"geonameid":2653597,"name":"Castle Combe","admin3":"00HY046"},{"geonameid":3345420,"name":"Chapmanslade","admin3":"00HY047"},{"geonameid":2653327,"name":"Charlton","admin3":"00HY048"},{"geonameid":2653331,"name":"Charlton","admin3":"00HY083"},{"geonameid":2653330,"name":"Charlton-All-Saints","admin3":"00HY084"},{"geonameid":2653253,"name":"Cherhill","admin3":"00HY050"},{"geonameid":2653187,"name":"Chicklade","admin3":"00HY053"},{"geonameid":2653160,"name":"Chilmark","admin3":"00HY054"},{"geonameid":2653152,"name":"Chilton Foliat","admin3":"00HY055"},{"geonameid":2653144,"name":"Chippenham","admin3":"00HY056"},{"geonameid":11593132,"name":"Chirton","admin3":"00HY058"},{"geonameid":2653119,"name":"Chitterne","admin3":"00HY059"},{"geonameid":2653116,"name":"Chittoe","admin3":"00HY037"},{"geonameid":2653100,"name":"Cholderton","admin3":"00HY060"},{"geonameid":2653070,"name":"Christian Malford","admin3":"00HY061"},{"geonameid":2653014,"name":"Chute","admin3":"00HY062"},{"geonameid":2652977,"name":"Clack","admin3":"00HY147"},{"geonameid":2652847,"name":"Clyffe Pypard","admin3":"00HY065"},{"geonameid":2652659,"name":"Codford","admin3":"00HY066"},{"geonameid":2652658,"name":"Codford Saint Mary","admin3":"00HY066"},{"geonameid":2652657,"name":"Codford Saint Peter","admin3":"00HY066"},{"geonameid":2652585,"name":"Colerne","admin3":"00HY067"},{"geonameid":2652560,"name":"Collingbourne Ducis","admin3":"00HY068"},{"geonameid":2652559,"name":"Collingbourne Kingston","admin3":"00HY069"},{"geonameid":2652485,"name":"Compton Bassett","admin3":"00HY070"},{"geonameid":2652484,"name":"Compton Chamberlain","admin3":"00HY033"},{"geonameid":2652412,"name":"Coombe Bissett","admin3":"00HY072"},{"geonameid":2652318,"name":"Corsham","admin3":"00HY073"},{"geonameid":2652316,"name":"Corsley","admin3":"00HY074"},{"geonameid":3345419,"name":"Corsley Heath","admin3":"00HY074"},{"geonameid":2652312,"name":"Corston","admin3":"00HY204"},{"geonameid":3345426,"name":"Corton","admin3":"00HY025"},{"geonameid":2652247,"name":"Coulston","admin3":"00HY075"},{"geonameid":9199894,"name":"Countess","admin3":"00HY007"},{"geonameid":2651985,"name":"Cricklade","admin3":"00HY076"},{"geonameid":8659181,"name":"Crofton","admin3":"00HY107"},{"geonameid":2651867,"name":"Cross Keys","admin3":"00HY073"},{"geonameid":11592005,"name":"Croucheston","admin3":"00HY021"},{"geonameid":2651810,"name":"Crudwell","admin3":"00HY077"},{"geonameid":11593166,"name":"Dauntsey","admin3":"00HY078"},{"geonameid":2651350,"name":"Deptford","admin3":"00HY257"},{"geonameid":2651294,"name":"Devizes","admin3":"00HY079"},{"geonameid":2651257,"name":"Dilton Marsh","admin3":"00HY080"},{"geonameid":2651236,"name":"Dinton","admin3":"00HY081"},{"geonameid":2651122,"name":"Donhead St Andrew","admin3":"00HY082"},{"geonameid":3345421,"name":"Donhead St Mary","admin3":"00HY083"},{"geonameid":2651020,"name":"Downton","admin3":"00HY084"},{"geonameid":2650619,"name":"Durnford","admin3":"00HY085"},{"geonameid":2650615,"name":"Durrington","admin3":"00HY086"},{"geonameid":2650436,"name":"East Grimstead","admin3":"00HY111"},{"geonameid":2650406,"name":"East Kennet","admin3":"00HY087"},{"geonameid":2650403,"name":"East Knoyle","admin3":"00HY088"},{"geonameid":2650363,"name":"Easton Grey","admin3":"00HY091"},{"geonameid":2650218,"name":"Edington","admin3":"00HY093"},{"geonameid":2649995,"name":"Enford","admin3":"00HY094"},{"geonameid":2649936,"name":"Erlestoke","admin3":"00HY095"},{"geonameid":2649840,"name":"Everleigh","admin3":"00HY097"},{"geonameid":11524160,"name":"Farleigh Wick","admin3":"00HY163"},{"geonameid":2649677,"name":"Farley","admin3":"00HY111"},{"geonameid":2649466,"name":"Figheldean","admin3":"00HY098"},{"geonameid":2649373,"name":"Fisherton de la Mere","admin3":"00HY257"},{"geonameid":2649354,"name":"Fittleton","admin3":"00HY100"},{"geonameid":11593052,"name":"Ford","admin3":"00HY170"},{"geonameid":2649166,"name":"Fosbury","admin3":"00HY220"},{"geonameid":2649129,"name":"Fovant","admin3":"00HY103"},{"geonameid":2649119,"name":"Foxham","admin3":"00HY029"},{"geonameid":2649117,"name":"Foxley","admin3":"00HY171"},{"geonameid":2649013,"name":"Froxfield","admin3":"00HY104"},{"geonameid":2648972,"name":"Fyfield","admin3":"00HY105"},{"geonameid":2648832,"name":"Garsdon","admin3":"00HY137"},{"geonameid":3345433,"name":"Gastard","admin3":"00HY073"},{"geonameid":2648241,"name":"Grafton","admin3":"00HY106"},{"geonameid":2648163,"name":"Great Bedwyn","admin3":"00HY107"},{"geonameid":2653203,"name":"Great Cheverell","admin3":"00HY051"},{"geonameid":2648017,"name":"Great Somerford","admin3":"00HY109"},{"geonameid":2647991,"name":"Great Wishford","admin3":"00HY110"},{"geonameid":2647853,"name":"Grittleton","admin3":"00HY112"},{"geonameid":2647589,"name":"Ham","admin3":"00HY113"},{"geonameid":2647528,"name":"Hanging Langford","admin3":"00HY210"},{"geonameid":2647526,"name":"Hankerton","admin3":"00HY114"},{"geonameid":2647500,"name":"Hardenhuish","admin3":"00HY056"},{"geonameid":2647353,"name":"Hatch","admin3":"00HY237"},{"geonameid":2647275,"name":"Hawthorn","admin3":"00HY024"},{"geonameid":11593296,"name":"Heddington","admin3":"00HY115"},{"geonameid":2646998,"name":"Heytesbury","admin3":"00HY116"},{"geonameid":11593300,"name":"Heywood","admin3":"00HY117"},{"geonameid":2646920,"name":"Highway","admin3":"00HY118"},{"geonameid":2646908,"name":"Hilcott","admin3":"00HY169"},{"geonameid":2646881,"name":"Hilmarton","admin3":"00HY118"},{"geonameid":2646880,"name":"Hilperton","admin3":"00HY119"},{"geonameid":2646858,"name":"Hindon","admin3":"00HY120"},{"geonameid":2646703,"name":"Holt","admin3":"00HY121"},{"geonameid":2646585,"name":"Horningsham","admin3":"00HY122"},{"geonameid":2646448,"name":"Huish","admin3":"00HY123"},{"geonameid":2646444,"name":"Hullavington","admin3":"00HY124"},{"geonameid":2646291,"name":"Idmiston","admin3":"00HY125"},{"geonameid":2646260,"name":"Imber","admin3":"00HY116"},{"geonameid":2645892,"name":"Keevil","admin3":"00HY126"},{"geonameid":2645591,"name":"Kilmington","admin3":"00HY127"},{"geonameid":3345417,"name":"Kingston Deverill","admin3":"00HY128"},{"geonameid":3345436,"name":"Kington Langley","admin3":"00HY129"},{"geonameid":3345435,"name":"Kington Saint Michael","admin3":"00HY130"},{"geonameid":2645105,"name":"Knook","admin3":"00HY131"},{"geonameid":2645072,"name":"Lacock","admin3":"00HY132"},{"geonameid":2644966,"name":"Landford","admin3":"00HY133"},{"geonameid":11071935,"name":"Lane End","admin3":"00HY074"},{"geonameid":2644852,"name":"Lark Hill","admin3":"00HY086"},{"geonameid":6940297,"name":"Latton","admin3":"00HY135"},{"geonameid":2644767,"name":"Lea","admin3":"00HY137"},{"geonameid":2644663,"name":"Leigh","admin3":"00HY138"},{"geonameid":2644492,"name":"Limpley Stoke","admin3":"00HY139"},{"geonameid":2644374,"name":"Little Bedwyn","admin3":"00HY140"},{"geonameid":3345430,"name":"Little Cheverell","admin3":"00HY052"},{"geonameid":2644301,"name":"Little Langford","admin3":"00HY210"},{"geonameid":11592718,"name":"Little Somerford","admin3":"00HY141"},{"geonameid":2643715,"name":"Longbridge Deverill","admin3":"00HY142"},{"geonameid":11071944,"name":"Longleat","admin3":"00HY122"},{"geonameid":2643627,"name":"Longstreet","admin3":"00HY094"},{"geonameid":11073438,"name":"Lower Westwood","admin3":"00HY239"},{"geonameid":2643443,"name":"Luckington","admin3":"00HY143"},{"geonameid":2643429,"name":"Ludgershall","admin3":""},{"geonameid":2643424,"name":"Ludwell","admin3":"00HY083"},{"geonameid":2643322,"name":"Lydiard Millicent","admin3":"00HY145"},{"geonameid":2643321,"name":"Lydiard Tregoze","admin3":"00HY146"},{"geonameid":11071934,"name":"Lye's Green","admin3":"00HY074"},{"geonameid":2643298,"name":"Lyneham","admin3":"00HY147"},{"geonameid":2643238,"name":"Maddington","admin3":"00HY199"},{"geonameid":2643188,"name":"Maiden Bradley","admin3":"00HY148"},{"geonameid":2643146,"name":"Malmesbury","admin3":"00HY149"},{"geonameid":2643110,"name":"Manningford Abbots","admin3":"00HY150"},{"geonameid":2643109,"name":"Manningford Bohune","admin3":"00HY150"},{"geonameid":2643108,"name":"Manningford Bruce","admin3":"00HY150"},{"geonameid":2643091,"name":"Manton","admin3":"00HY153"},{"geonameid":2643025,"name":"Market Lavington","admin3":"00HY152"},{"geonameid":2643010,"name":"Marlborough","admin3":"00HY153"},{"geonameid":3345429,"name":"Marston","admin3":"00HY154"},{"geonameid":2642966,"name":"Marston Meysey","admin3":"00HY155"},{"geonameid":2642786,"name":"Melksham","admin3":"00HY156"},{"geonameid":2642730,"name":"Mere","admin3":"00HY158"},{"geonameid":2642572,"name":"Middle Winterslow","admin3":"00HY251"},{"geonameid":2642544,"name":"Mildenhall","admin3":"00HY159"},{"geonameid":2642480,"name":"Milston","admin3":"00HY160"},{"geonameid":11593340,"name":"Milton Lilbourne","admin3":"00HY161"},{"geonameid":2642448,"name":"Minety","admin3":"00HY162"},{"geonameid":2642317,"name":"Monkton Deverill","admin3":"00HY128"},{"geonameid":11524161,"name":"Monkton Farleigh","admin3":"00HY163"},{"geonameid":3345432,"name":"Neston","admin3":"00HY073"},{"geonameid":2641792,"name":"Netheravon","admin3":"00HY164"},{"geonameid":2641758,"name":"Nettleton","admin3":"00HY166"},{"geonameid":11071939,"name":"Newbury","admin3":"00HY122"},{"geonameid":2641527,"name":"Newton Tony","admin3":"00HY167"},{"geonameid":2641413,"name":"North Bradley","admin3":"00HY168"},{"geonameid":2641212,"name":"North Wraxall","admin3":"00HY170"},{"geonameid":2641207,"name":"Norton","admin3":"00HY171"},{"geonameid":2641195,"name":"Norton Bavant","admin3":"00HY172"},{"geonameid":2641117,"name":"Oaksey","admin3":"00HY173"},{"geonameid":2641113,"name":"Oare","admin3":"00HY241"},{"geonameid":2641074,"name":"Odstock","admin3":"00HY174"},{"geonameid":2641064,"name":"Ogbourne Saint Andrew","admin3":"00HY175"},{"geonameid":2641063,"name":"Ogbourne Saint George","admin3":"00HY176"},{"geonameid":2640995,"name":"Old Sarum","admin3":"00HY261"},{"geonameid":2640947,"name":"Orcheston","admin3":"00HY177"},{"geonameid":2640730,"name":"Oxenwood","admin3":"00HY196"},{"geonameid":2640573,"name":"Patney","admin3":"00HY178"},{"geonameid":2640327,"name":"Pewsey","admin3":"00HY179"},{"geonameid":2640238,"name":"Pitton","admin3":"00HY180"},{"geonameid":2640011,"name":"Porton","admin3":"00HY125"},{"geonameid":2639971,"name":"Potterne","admin3":"00HY181"},{"geonameid":11071940,"name":"Pottle Street","admin3":"00HY122"},{"geonameid":3345431,"name":"Poulshot","admin3":"00HY182"},{"geonameid":2639840,"name":"Purton","admin3":"00HY184"},{"geonameid":2639838,"name":"Purton Stoke","admin3":"00HY184"},{"geonameid":2639667,"name":"Ramsbury","admin3":"00HY186"},{"geonameid":9199893,"name":"Ratfyn","admin3":"00HY007"},{"geonameid":2639537,"name":"Redlynch","admin3":"00HY187"},{"geonameid":12059945,"name":"Rodbourne","admin3":"00HY204"},{"geonameid":2639203,"name":"Rollestone","admin3":"00HY199"},{"geonameid":2639059,"name":"Roundway","admin3":"00HY188"},{"geonameid":2639048,"name":"Rowde","admin3":"00HY189"},{"geonameid":2633571,"name":"Royal Wootton Bassett","admin3":"00HY254","localeAltName":"Royal Wootton Bassett"},{"geonameid":2638990,"name":"Rudloe","admin3":"00HY024"},{"geonameid":2638951,"name":"Rushall","admin3":"00HY190"},{"geonameid":2638664,"name":"Salisbury","admin3":"00HY261"},{"geonameid":2638256,"name":"Sedgehill","admin3":"00HY193"},{"geonameid":2638252,"name":"Seend","admin3":"00HY194"},{"geonameid":2638209,"name":"Semington","admin3":"00HY195"},{"geonameid":2638208,"name":"Semley","admin3":"00HY193"},{"geonameid":2638153,"name":"Shalbourne","admin3":"00HY196"},{"geonameid":3345424,"name":"Sherrington","admin3":"00HY197"},{"geonameid":2638013,"name":"Sherston","admin3":"00HY198"},{"geonameid":2637921,"name":"Shootend","admin3":"00HY064"},{"geonameid":2637890,"name":"Shrewton","admin3":"00HY199"},{"geonameid":2637662,"name":"Slaughterford","admin3":"00HY019"},{"geonameid":2637519,"name":"Sopworth","admin3":"00HY200"},{"geonameid":2637359,"name":"South Newton","admin3":"00HY201"},{"geonameid":2637274,"name":"South Wraxall","admin3":"00HY202"},{"geonameid":9538972,"name":"Southend","admin3":"00HY176"},{"geonameid":2637287,"name":"Southwick","admin3":"00HY203"},{"geonameid":2637038,"name":"Stanton St Quintin","admin3":"00HY206"},{"geonameid":2637025,"name":"Stapleford","admin3":"00HY207"},{"geonameid":2636970,"name":"Steeple Ashton","admin3":"00HY209"},{"geonameid":2636966,"name":"Steeple Langford","admin3":"00HY210"},{"geonameid":3345423,"name":"Stockton","admin3":"00HY212"},{"geonameid":2636765,"name":"Stourton","admin3":"00HY213"},{"geonameid":2636596,"name":"Studley","admin3":"00HY045"},{"geonameid":2636490,"name":"Sutton Benger","admin3":"00HY215"},{"geonameid":3345428,"name":"Sutton Veny","admin3":"00HY217"},{"geonameid":3345422,"name":"Swallowcliffe","admin3":"00HY218"},{"geonameid":8199187,"name":"Teffont Evias","admin3":"00HY219"},{"geonameid":2636137,"name":"Teffont Magna","admin3":"00HY219"},{"geonameid":8063662,"name":"The Winterbournes","admin3":"00HY247"},{"geonameid":2635855,"name":"Tidcombe","admin3":"00HY220"},{"geonameid":2637310,"name":"Tidworth","admin3":"00HY221"},{"geonameid":2635815,"name":"Tilshead","admin3":"00HY222"},{"geonameid":2635774,"name":"Tisbury","admin3":"00HY223"},{"geonameid":2635751,"name":"Tockenham","admin3":"00HY224"},{"geonameid":2635726,"name":"Tollard Royal","admin3":"00HY225"},{"geonameid":2635427,"name":"Trowbridge","admin3":"00HY226"},{"geonameid":9353166,"name":"Turleigh","admin3":"00HY246"},{"geonameid":3345427,"name":"Tytherington","admin3":"00HY217"},{"geonameid":2635255,"name":"Tytherton Lucas","admin3":"00HY029"},{"geonameid":2635162,"name":"Upavon","admin3":"00HY227"},{"geonameid":2638304,"name":"Upper Seagry","admin3":"00HY192"},{"geonameid":11073439,"name":"Upper Westwood","admin3":"00HY239"},{"geonameid":2635082,"name":"Upton Scudamore","admin3":"00HY229"},{"geonameid":2635072,"name":"Urchfont","admin3":"00HY230"},{"geonameid":2634755,"name":"Warminster","admin3":"00HY231"},{"geonameid":2634512,"name":"West Ashton","admin3":"00HY232"},{"geonameid":2634456,"name":"West Dean","admin3":"00HY233"},{"geonameid":2634409,"name":"West Grimstead","admin3":"00HY111"},{"geonameid":2634377,"name":"West Kington","admin3":"00HY166"},{"geonameid":2634374,"name":"West Knoyle","admin3":"00HY234"},{"geonameid":2634232,"name":"West Winterslow","admin3":"00HY251"},{"geonameid":2634483,"name":"Westbury","admin3":"00HY238"},{"geonameid":2634228,"name":"Westwood","admin3":"00HY239"},{"geonameid":6940295,"name":"Wexcombe","admin3":"00HY106"},{"geonameid":2634065,"name":"Whiteparish","admin3":"00HY240"},{"geonameid":3345347,"name":"Whitley","admin3":"00HY157"},{"geonameid":2633921,"name":"Wilcot","admin3":"00HY241"},{"geonameid":2633879,"name":"Wilsford","admin3":"00HY242"},{"geonameid":2633874,"name":"Wilton","admin3":"00HY244"},{"geonameid":2633823,"name":"Wingfield","admin3":"00HY245"},{"geonameid":11592590,"name":"Winsley","admin3":"00HY246"},{"geonameid":2633796,"name":"Winterbourne Bassett","admin3":"00HY248"},{"geonameid":2633795,"name":"Winterbourne Dauntsey","admin3":"00HY247"},{"geonameid":2633794,"name":"Winterbourne Earls","admin3":"00HY247"},{"geonameid":2633793,"name":"Winterbourne Gunner","admin3":"00HY247"},{"geonameid":2633792,"name":"Winterbourne Monkton","admin3":"00HY249"},{"geonameid":2633791,"name":"Winterbourne Stoke","admin3":"00HY250"},{"geonameid":2633788,"name":"Winterslow","admin3":"00HY251"},{"geonameid":2633673,"name":"Woodborough","admin3":"00HY252"},{"geonameid":2633659,"name":"Woodford","admin3":"00HY253"},{"geonameid":2633566,"name":"Wootton Rivers","admin3":"00HY255"},{"geonameid":2633513,"name":"Worton","admin3":"00HY256"},{"geonameid":2633450,"name":"Wylye","admin3":"00HY257"},{"geonameid":2633405,"name":"Yatesbury","admin3":"00HY050"},{"geonameid":2633402,"name":"Yatton Keynell","admin3":"00HY258"},{"geonameid":2633326,"name":"Zeals","admin3":"00HY259"}],"admin3":[{"geonameid":2638663,"name":"Salisbury","admin3":"00HY261"},{"geonameid":7291055,"name":"Box","admin3":"00HY024"},{"geonameid":7291056,"name":"East Kennett","admin3":"00HY087"},{"geonameid":7291057,"name":"Enford","admin3":"00HY094"},{"geonameid":7291058,"name":"Everleigh","admin3":"00HY097"},{"geonameid":7291059,"name":"Sutton Benger","admin3":"00HY215"},{"geonameid":7291060,"name":"Swallowcliffe","admin3":"00HY218"},{"geonameid":7291061,"name":"West Dean","admin3":"00HY233"},{"geonameid":7291062,"name":"West Lavington","admin3":"00HY235"},{"geonameid":7291063,"name":"Whiteparish","admin3":"00HY240"},{"geonameid":7291064,"name":"Winterbourne Bassett","admin3":"00HY248"},{"geonameid":7291065,"name":"Winterslow","admin3":"00HY251"},{"geonameid":7291066,"name":"Woodborough","admin3":"00HY252"},{"geonameid":7291067,"name":"Wootton Rivers","admin3":"00HY255"},{"geonameid":7293569,"name":"Chitterne","admin3":"00HY059"},{"geonameid":7293570,"name":"Ebbesborne Wake","admin3":"00HY092"},{"geonameid":7293571,"name":"Marston Maisey","admin3":"00HY155"},{"geonameid":7293572,"name":"Norton Bavant","admin3":"00HY172"},{"geonameid":7293762,"name":"Dauntsey","admin3":"00HY078"},{"geonameid":7293763,"name":"Kington Langley","admin3":"00HY129"},{"geonameid":7293764,"name":"Stratford Toney","admin3":"00HY214"},{"geonameid":7293765,"name":"Tidcombe and Fosbury","admin3":"00HY220"},{"geonameid":7293770,"name":"Avebury","admin3":"00HY011"},{"geonameid":7294868,"name":"Ham","admin3":"00HY113"},{"geonameid":7296251,"name":"Amesbury","admin3":"00HY007"},{"geonameid":7296252,"name":"Barford St. Martin","admin3":"00HY012"},{"geonameid":7296253,"name":"Berwick St. James","admin3":"00HY016"},{"geonameid":7296254,"name":"Berwick St. John","admin3":"00HY017"},{"geonameid":7296255,"name":"Biddestone","admin3":"00HY019"},{"geonameid":7296256,"name":"Boyton","admin3":"00HY025"},{"geonameid":7296257,"name":"Bratton","admin3":"00HY027"},{"geonameid":7296258,"name":"Chilton Foliat","admin3":"00HY055"},{"geonameid":7296259,"name":"Chippenham","admin3":"00HY056"},{"geonameid":7296260,"name":"Chirton","admin3":"00HY058"},{"geonameid":7296261,"name":"Cholderton","admin3":"00HY060"},{"geonameid":7296262,"name":"Codford","admin3":"00HY066"},{"geonameid":7296263,"name":"Colerne","admin3":"00HY067"},{"geonameid":7296264,"name":"Coulston","admin3":"00HY075"},{"geonameid":7296265,"name":"Dilton Marsh","admin3":"00HY080"},{"geonameid":7296266,"name":"Dinton","admin3":"00HY081"},{"geonameid":7296267,"name":"Durnford","admin3":"00HY085"},{"geonameid":7296268,"name":"Mildenhall","admin3":"00HY159"},{"geonameid":7296269,"name":"Easterton","admin3":"00HY089"},{"geonameid":7296270,"name":"Easton","admin3":"00HY090"},{"geonameid":7296271,"name":"Easton Grey","admin3":"00HY091"},{"geonameid":7296272,"name":"Erlestoke","admin3":"00HY095"},{"geonameid":7296273,"name":"Figheldean","admin3":"00HY098"},{"geonameid":7296274,"name":"Froxfield","admin3":"00HY104"},{"geonameid":7296275,"name":"Great Hinton","admin3":"00HY108"},{"geonameid":7296276,"name":"Grimstead","admin3":"00HY111"},{"geonameid":7296277,"name":"Hankerton","admin3":"00HY114"},{"geonameid":7296278,"name":"Hullavington","admin3":"00HY124"},{"geonameid":7296279,"name":"Keevil","admin3":"00HY126"},{"geonameid":7296280,"name":"Kington St. Michael","admin3":"00HY130"},{"geonameid":7296281,"name":"Langley Burrell Without","admin3":"00HY134"},{"geonameid":7296282,"name":"Laverstock","admin3":"00HY136"},{"geonameid":7296283,"name":"Lydiard Millicent","admin3":"00HY145"},{"geonameid":7296284,"name":"Lydiard Tregoze","admin3":"00HY146"},{"geonameid":7296285,"name":"Lyneham and Bradenstoke","admin3":"00HY147"},{"geonameid":7296286,"name":"Marden","admin3":"00HY151"},{"geonameid":7296287,"name":"Market Lavington","admin3":"00HY152"},{"geonameid":7296288,"name":"Monkton Farleigh","admin3":"00HY163"},{"geonameid":7296289,"name":"North Wraxall","admin3":"00HY170"},{"geonameid":7296290,"name":"Ogbourne St. Andrew","admin3":"00HY175"},{"geonameid":7296291,"name":"Patney","admin3":"00HY178"},{"geonameid":7296292,"name":"Poulshot","admin3":"00HY182"},{"geonameid":7296293,"name":"Seend","admin3":"00HY194"},{"geonameid":7296294,"name":"Shalbourne","admin3":"00HY196"},{"geonameid":7296295,"name":"Southwick","admin3":"00HY203"},{"geonameid":7296296,"name":"Steeple Ashton","admin3":"00HY209"},{"geonameid":7296297,"name":"Sutton Mandeville","admin3":"00HY216"},{"geonameid":7296298,"name":"Tisbury","admin3":"00HY223"},{"geonameid":7296299,"name":"Tockenham","admin3":"00HY224"},{"geonameid":7296300,"name":"Urchfont","admin3":"00HY230"},{"geonameid":7296301,"name":"Woodford","admin3":"00HY253"},{"geonameid":7297629,"name":"Alderbury","admin3":"00HY002"},{"geonameid":7297630,"name":"Allington","admin3":"00HY004"},{"geonameid":7297631,"name":"Atworth","admin3":"00HY010"},{"geonameid":7297632,"name":"Beechingstoke","admin3":"00HY014"},{"geonameid":7297633,"name":"Bishopstone","admin3":"00HY021"},{"geonameid":7297634,"name":"Bishopstrow","admin3":"00HY022"},{"geonameid":7297635,"name":"Bradford-on-Avon","admin3":"00HY026"},{"geonameid":7297636,"name":"Braydon","admin3":"00HY028"},{"geonameid":7297637,"name":"Brinkworth","admin3":"00HY030"},{"geonameid":7297638,"name":"Britford","admin3":"00HY031"},{"geonameid":7297639,"name":"Calne","admin3":"00HY044"},{"geonameid":7297640,"name":"Chilmark","admin3":"00HY054"},{"geonameid":7297641,"name":"Chippenham Without","admin3":"00HY057"},{"geonameid":7297642,"name":"Chute Forest","admin3":"00HY063"},{"geonameid":7297643,"name":"Clarendon Park","admin3":"00HY064"},{"geonameid":7297644,"name":"Coombe Bissett","admin3":"00HY072"},{"geonameid":7297645,"name":"Cricklade","admin3":"00HY076"},{"geonameid":7297646,"name":"Crudwell","admin3":"00HY077"},{"geonameid":7297647,"name":"Hindon","admin3":"00HY120"},{"geonameid":7297648,"name":"Holt","admin3":"00HY121"},{"geonameid":7297649,"name":"Horningsham","admin3":"00HY122"},{"geonameid":7297650,"name":"Melksham Without","admin3":"00HY157"},{"geonameid":7297651,"name":"Milston","admin3":"00HY160"},{"geonameid":7297652,"name":"Firsdown","admin3":"00HY099"},{"geonameid":7297653,"name":"Grafton","admin3":"00HY106"},{"geonameid":7297654,"name":"Great Somerford","admin3":"00HY109"},{"geonameid":7297655,"name":"Hilmarton","admin3":"00HY118"},{"geonameid":7297656,"name":"Landford","admin3":"00HY133"},{"geonameid":7297657,"name":"Latton","admin3":"00HY135"},{"geonameid":7297658,"name":"Longbridge Deverill","admin3":"00HY142"},{"geonameid":7297659,"name":"Luckington","admin3":"00HY143"},{"geonameid":7297660,"name":"Maiden Bradley with Yarnfield","admin3":"00HY148"},{"geonameid":7297661,"name":"Netherhampton","admin3":"00HY165"},{"geonameid":7297662,"name":"Nettleton","admin3":"00HY166"},{"geonameid":7297663,"name":"Newton Tony","admin3":"00HY167"},{"geonameid":7297664,"name":"Odstock","admin3":"00HY174"},{"geonameid":7297665,"name":"Orcheston","admin3":"00HY177"},{"geonameid":7297666,"name":"Stockton","admin3":"00HY212"},{"geonameid":7297677,"name":"Redlynch","admin3":"00HY187"},{"geonameid":7297684,"name":"Savernake","admin3":"00HY191"},{"geonameid":7297685,"name":"Seagry","admin3":"00HY192"},{"geonameid":7297686,"name":"Sedgehill and Semley","admin3":"00HY193"},{"geonameid":7297687,"name":"Sherrington","admin3":"00HY197"},{"geonameid":7297688,"name":"South Newton","admin3":"00HY201"},{"geonameid":7297689,"name":"St. Paul Malmesbury Without","admin3":"00HY204"},{"geonameid":7297690,"name":"Staverton","admin3":"00HY208"},{"geonameid":7297691,"name":"Steeple Langford","admin3":"00HY210"},{"geonameid":7297692,"name":"Stourton with Gasper","admin3":"00HY213"},{"geonameid":7299305,"name":"Alton","admin3":"00HY005"},{"geonameid":7299306,"name":"Baydon","admin3":"00HY013"},{"geonameid":7299307,"name":"Berwick St. Leonard","admin3":"00HY018"},{"geonameid":7299308,"name":"Bower Chalke","admin3":"00HY023"},{"geonameid":7299309,"name":"Brixton Deverill","admin3":"00HY032"},{"geonameid":7299310,"name":"Broad Chalke","admin3":"00HY033"},{"geonameid":7299311,"name":"Broad Hinton","admin3":"00HY034"},{"geonameid":7299312,"name":"Bulkington","admin3":"00HY040"},{"geonameid":7299313,"name":"Burcombe Without","admin3":"00HY042"},{"geonameid":7299314,"name":"Castle Combe","admin3":"00HY046"},{"geonameid":7299315,"name":"Cheverell Parva","admin3":"00HY052"},{"geonameid":7299332,"name":"Christian Malford","admin3":"00HY061"},{"geonameid":7299333,"name":"Chute","admin3":"00HY062"},{"geonameid":7299334,"name":"Clyffe Pypard","admin3":"00HY065"},{"geonameid":7299335,"name":"Collingbourne Ducis","admin3":"00HY068"},{"geonameid":7299336,"name":"Collingbourne Kingston","admin3":"00HY069"},{"geonameid":7299337,"name":"Compton Chamberlayne","admin3":"00HY071"},{"geonameid":7299338,"name":"Donhead St. Mary","admin3":"00HY083"},{"geonameid":7299339,"name":"Mere","admin3":"00HY158"},{"geonameid":7299340,"name":"Edington","admin3":"00HY093"},{"geonameid":7299341,"name":"Fittleton","admin3":"00HY100"},{"geonameid":7299342,"name":"Fovant","admin3":"00HY103"},{"geonameid":7299343,"name":"Fyfield","admin3":"00HY105"},{"geonameid":7299344,"name":"Great Bedwyn","admin3":"00HY107"},{"geonameid":7299345,"name":"Grittleton","admin3":"00HY112"},{"geonameid":7299346,"name":"Heywood","admin3":"00HY117"},{"geonameid":7299347,"name":"Kilmington","admin3":"00HY127"},{"geonameid":7299348,"name":"Lacock","admin3":"00HY132"},{"geonameid":7299349,"name":"Leigh","admin3":"00HY138"},{"geonameid":7299350,"name":"Limpley Stoke","admin3":"00HY139"},{"geonameid":7299351,"name":"Little Somerford","admin3":"00HY141"},{"geonameid":7299352,"name":"Ludgershall","admin3":"00HY144"},{"geonameid":7299353,"name":"Malmesbury","admin3":"00HY149"},{"geonameid":7299354,"name":"Marston","admin3":"00HY154"},{"geonameid":7299355,"name":"Melksham","admin3":"00HY156"},{"geonameid":7299356,"name":"Minety","admin3":"00HY162"},{"geonameid":7299357,"name":"Netheravon","admin3":"00HY164"},{"geonameid":7299358,"name":"North Bradley","admin3":"00HY168"},{"geonameid":7299359,"name":"North Newnton","admin3":"00HY169"},{"geonameid":7299360,"name":"Ogbourne St. George","admin3":"00HY176"},{"geonameid":7299361,"name":"Pitton and Farley","admin3":"00HY180"},{"geonameid":7299362,"name":"Preshute","admin3":"00HY183"},{"geonameid":7299363,"name":"Quidhampton","admin3":"00HY185"},{"geonameid":7299364,"name":"Roundway","admin3":"00HY188"},{"geonameid":7299365,"name":"Semington","admin3":"00HY195"},{"geonameid":7299366,"name":"Sherston","admin3":"00HY198"},{"geonameid":7299367,"name":"South Wraxall","admin3":"00HY202"},{"geonameid":7299368,"name":"Stert","admin3":"00HY211"},{"geonameid":7299369,"name":"West Overton","admin3":"00HY236"},{"geonameid":7299370,"name":"Westbury","admin3":"00HY238"},{"geonameid":7299371,"name":"Westwood","admin3":"00HY239"},{"geonameid":7299372,"name":"Wilcot","admin3":"00HY241"},{"geonameid":7299373,"name":"Wilsford","admin3":"00HY242"},{"geonameid":7299374,"name":"Wingfield","admin3":"00HY245"},{"geonameid":7299375,"name":"Winsley","admin3":"00HY246"},{"geonameid":7299376,"name":"Winterbourne Stoke","admin3":"00HY250"},{"geonameid":7299377,"name":"Worton","admin3":"00HY256"},{"geonameid":7299378,"name":"LCPs of Broughton Gifford and Melksham Without","admin3":"00HY260"},{"geonameid":7299480,"name":"Broughton Gifford","admin3":"00HY038"},{"geonameid":7299481,"name":"Bulford","admin3":"00HY039"},{"geonameid":7299482,"name":"Buttermere","admin3":"00HY043"},{"geonameid":7299483,"name":"Chapmanslade","admin3":"00HY047"},{"geonameid":7299484,"name":"Charlton","admin3":"00HY049"},{"geonameid":7300305,"name":"Alvediston","admin3":"00HY006"},{"geonameid":7300306,"name":"Ansty","admin3":"00HY008"},{"geonameid":7300307,"name":"Ashton Keynes","admin3":"00HY009"},{"geonameid":7300308,"name":"Berwick Bassett","admin3":"00HY015"},{"geonameid":7300309,"name":"Bishops Cannings","admin3":"00HY020"},{"geonameid":7300310,"name":"Broad Town","admin3":"00HY035"},{"geonameid":7300311,"name":"Brokenborough","admin3":"00HY036"},{"geonameid":7300312,"name":"Bromham","admin3":"00HY037"},{"geonameid":7300315,"name":"Burbage","admin3":"00HY041"},{"geonameid":7300327,"name":"Calne Without","admin3":"00HY045"},{"geonameid":7300328,"name":"Cherhill","admin3":"00HY050"},{"geonameid":7300329,"name":"Cheverell Magna","admin3":"00HY051"},{"geonameid":7300330,"name":"Chicklade","admin3":"00HY053"},{"geonameid":7300331,"name":"Compton Bassett","admin3":"00HY070"},{"geonameid":7300332,"name":"Corsley","admin3":"00HY074"},{"geonameid":7300333,"name":"Devizes","admin3":"00HY079"},{"geonameid":7300339,"name":"Donhead St. Andrew","admin3":"00HY082"},{"geonameid":7300340,"name":"Downton","admin3":"00HY084"},{"geonameid":7300341,"name":"Durrington","admin3":"00HY086"},{"geonameid":7300342,"name":"East Knoyle","admin3":"00HY088"},{"geonameid":7300343,"name":"Etchilhampton","admin3":"00HY096"},{"geonameid":7300344,"name":"Fonthill Gifford","admin3":"00HY102"},{"geonameid":7300345,"name":"Great Wishford","admin3":"00HY110"},{"geonameid":7300346,"name":"Heddington","admin3":"00HY115"},{"geonameid":7300347,"name":"Heytesbury","admin3":"00HY116"},{"geonameid":7300348,"name":"Hilperton","admin3":"00HY119"},{"geonameid":7300349,"name":"Idmiston","admin3":"00HY125"},{"geonameid":7300350,"name":"Kingston Deverill","admin3":"00HY128"},{"geonameid":7300351,"name":"Knook","admin3":"00HY131"},{"geonameid":7300352,"name":"Lea and Cleverton","admin3":"00HY137"},{"geonameid":7300353,"name":"Little Bedwyn","admin3":"00HY140"},{"geonameid":7300354,"name":"Manningford","admin3":"00HY150"},{"geonameid":7300355,"name":"Marlborough","admin3":"00HY153"},{"geonameid":7300356,"name":"Norton","admin3":"00HY171"},{"geonameid":7300357,"name":"Oaksey","admin3":"00HY173"},{"geonameid":7300358,"name":"Potterne","admin3":"00HY181"},{"geonameid":7300359,"name":"Purton","admin3":"00HY184"},{"geonameid":7300360,"name":"Ramsbury","admin3":"00HY186"},{"geonameid":7300361,"name":"Rowde","admin3":"00HY189"},{"geonameid":7300362,"name":"Shrewton","admin3":"00HY199"},{"geonameid":7300363,"name":"Sopworth","admin3":"00HY200"},{"geonameid":7300364,"name":"Stanton St. Quintin","admin3":"00HY206"},{"geonameid":7300365,"name":"Stapleford","admin3":"00HY207"},{"geonameid":7300366,"name":"Sutton Veny","admin3":"00HY217"},{"geonameid":7300367,"name":"Teffont","admin3":"00HY219"},{"geonameid":7300368,"name":"Tidworth","admin3":"00HY221"},{"geonameid":7300369,"name":"Tilshead","admin3":"00HY222"},{"geonameid":7300370,"name":"Tollard Royal","admin3":"00HY225"},{"geonameid":7300371,"name":"Trowbridge","admin3":"00HY226"},{"geonameid":7300372,"name":"Upavon","admin3":"00HY227"},{"geonameid":7300373,"name":"West Ashton","admin3":"00HY232"},{"geonameid":7300374,"name":"West Tisbury","admin3":"00HY237"},{"geonameid":7300375,"name":"Wilsford cum Lake","admin3":"00HY243"},{"geonameid":7300376,"name":"Wootton Bassett","admin3":"00HY254"},{"geonameid":7300377,"name":"Wylye","admin3":"00HY257"},{"geonameid":7300378,"name":"Yatton Keynell","admin3":"00HY258"},{"geonameid":7300379,"name":"Zeals","admin3":"00HY259"},{"geonameid":7300539,"name":"Wilton","admin3":"00HY244"},{"geonameid":7301023,"name":"Bremhill","admin3":"00HY029"},{"geonameid":7301024,"name":"Charlton","admin3":"00HY048"},{"geonameid":7301025,"name":"Fonthill Bishop","admin3":"00HY101"},{"geonameid":7301026,"name":"Milton Lilbourne","admin3":"00HY161"},{"geonameid":7301027,"name":"Upton Lovell","admin3":"00HY228"},{"geonameid":7301028,"name":"Upton Scudamore","admin3":"00HY229"},{"geonameid":7301029,"name":"Warminster","admin3":"00HY231"},{"geonameid":7301030,"name":"West Knoyle","admin3":"00HY234"},{"geonameid":7301031,"name":"Winterbourne","admin3":"00HY247"},{"geonameid":7301032,"name":"Winterbourne Monkton","admin3":"00HY249"},{"geonameid":7301082,"name":"Allcannings","admin3":"00HY003"},{"geonameid":7301091,"name":"Rushall","admin3":"00HY190"},{"geonameid":7301248,"name":"Aldbourne","admin3":"00HY001"},{"geonameid":7301249,"name":"Corsham","admin3":"00HY073"},{"geonameid":7301250,"name":"Huish","admin3":"00HY123"},{"geonameid":7301251,"name":"Pewsey","admin3":"00HY179"},{"geonameid":7301252,"name":"Stanton St. Bernard","admin3":"00HY205"}],"alternateNames":[{"alternatenameId":8666576,"geonameid":2633571,"isoLanguage":"en","alternateName":"Royal Wootton Bassett","isPreferredName":true,"isShortName":true,"isColloquial":false,"isHistoric":false},{"alternatenameId":2254232,"geonameid":2633868,"isoLanguage":"en","alternateName":"Wiltshire","isPreferredName":true,"isShortName":true,"isColloquial":false,"isHistoric":false},{"alternatenameId":1626647,"geonameid":6269131,"isoLanguage":"en","alternateName":"England","isPreferredName":true,"isShortName":true,"isColloquial":false,"isHistoric":false}]},"__N_SSG":true}