{"pageProps":{"locale":"en","admin2":{"geonameid":5781004,"name":"Salt Lake County","country":"US","admin1":"UT","admin2":"035","admin3":"","latitude":"40.6675800","longitude":"-111.9240300","localeAltName":null},"admin1":{"geonameid":5549030,"name":"Utah","admin1":"UT","localeAltName":"Utah"},"locations":[{"geonameid":8604824,"name":"Bingham Canyon","admin3":"","localeAltName":null},{"geonameid":5771716,"name":"Bluffdale","admin3":"","localeAltName":null},{"geonameid":5772418,"name":"Canyon Rim","admin3":"","localeAltName":null},{"geonameid":5772653,"name":"Centerfield","admin3":"","localeAltName":null},{"geonameid":5773219,"name":"Copperton","admin3":"","localeAltName":null},{"geonameid":5773304,"name":"Cottonwood Heights","admin3":"","localeAltName":null},{"geonameid":5774001,"name":"Draper","admin3":"","localeAltName":null},{"geonameid":5774301,"name":"East Millcreek","admin3":"","localeAltName":null},{"geonameid":5775320,"name":"Granite","admin3":"","localeAltName":null},{"geonameid":5775782,"name":"Herriman","admin3":"","localeAltName":null},{"geonameid":5776008,"name":"Holladay","admin3":"","localeAltName":null},{"geonameid":5776727,"name":"Kearns","admin3":"","localeAltName":null},{"geonameid":5555083,"name":"Little Cottonwood Creek Valley","admin3":"","localeAltName":null},{"geonameid":5777793,"name":"Magna","admin3":"","localeAltName":null},{"geonameid":5778244,"name":"Midvale","admin3":"","localeAltName":null},{"geonameid":5778352,"name":"Millcreek","admin3":"","localeAltName":null},{"geonameid":5778601,"name":"Mount Olympus","admin3":"","localeAltName":null},{"geonameid":5778755,"name":"Murray","admin3":"","localeAltName":null},{"geonameid":5779333,"name":"Oquirrh","admin3":"","localeAltName":null},{"geonameid":5780557,"name":"Riverton","admin3":"","localeAltName":null},{"geonameid":5780993,"name":"Salt Lake City","admin3":"","localeAltName":null},{"geonameid":5781061,"name":"Sandy","admin3":"","localeAltName":null},{"geonameid":5781070,"name":"Sandy Hills","admin3":"","localeAltName":null},{"geonameid":5781770,"name":"South Jordan","admin3":"","localeAltName":null},{"geonameid":5781765,"name":"South Jordan Heights","admin3":"","localeAltName":null},{"geonameid":5781794,"name":"South Salt Lake","admin3":"","localeAltName":null},{"geonameid":5782476,"name":"Taylorsville","admin3":"","localeAltName":null},{"geonameid":5784549,"name":"West Jordan","admin3":"","localeAltName":null},{"geonameid":5784607,"name":"West Valley City","admin3":"","localeAltName":null},{"geonameid":5784731,"name":"White City","admin3":"","localeAltName":null},{"geonameid":5784853,"name":"Willard","admin3":"","localeAltName":null}],"admin3":[{"geonameid":11788479,"name":"City of Murray","admin3":"11788479"},{"geonameid":11788485,"name":"City of Midvale","admin3":"11788485"},{"geonameid":11788570,"name":"City of Riverton","admin3":"11788570"},{"geonameid":11788585,"name":"City of South Salt Lake","admin3":"11788585"},{"geonameid":11788791,"name":"City of Bluffdale","admin3":"11788791"},{"geonameid":11788837,"name":"City of Draper","admin3":"11788837"},{"geonameid":11788878,"name":"City of West Valley City","admin3":"11788878"},{"geonameid":11788893,"name":"City of Salt Lake City","admin3":"11788893"},{"geonameid":11788973,"name":"City of West Jordan","admin3":"11788973"},{"geonameid":11789053,"name":"City of Sandy","admin3":"11789053"}],"alternateNames":[{"alternatenameId":2089567,"geonameid":5549030,"isoLanguage":"en","alternateName":"Utah","isPreferredName":true,"isShortName":true,"isColloquial":false,"isHistoric":false}]},"__N_SSG":true}