{"pageProps":{"locale":"en","admin2":{"geonameid":5546669,"name":"Sevier County","country":"US","admin1":"UT","admin2":"041","admin3":"","latitude":"38.7476400","longitude":"-111.8046400","localeAltName":null},"admin1":{"geonameid":5549030,"name":"Utah","admin1":"UT","localeAltName":"Utah"},"locations":[{"geonameid":5534455,"name":"Annabella","admin3":"","localeAltName":null},{"geonameid":5534620,"name":"Aurora","admin3":"","localeAltName":null},{"geonameid":5536749,"name":"Central Valley","admin3":"","localeAltName":null},{"geonameid":5538882,"name":"Elsinore","admin3":"","localeAltName":null},{"geonameid":5543360,"name":"Monroe","admin3":"","localeAltName":null},{"geonameid":5545640,"name":"Redmond","admin3":"","localeAltName":null},{"geonameid":5545710,"name":"Richfield","admin3":"","localeAltName":null},{"geonameid":5546253,"name":"Salina","admin3":"","localeAltName":null}],"admin3":[{"geonameid":11788753,"name":"City of Monroe","admin3":"11788753"},{"geonameid":11788822,"name":"City of Richfield","admin3":"11788822"},{"geonameid":11788862,"name":"City of Salina","admin3":"11788862"}],"alternateNames":[{"alternatenameId":2089567,"geonameid":5549030,"isoLanguage":"en","alternateName":"Utah","isPreferredName":true,"isShortName":true,"isColloquial":false,"isHistoric":false}]},"__N_SSG":true}