{"pageProps":{"locale":"en","admin2":{"geonameid":3333210,"name":"Borough of Torbay","country":"GB","admin1":"ENG","admin2":"O4","admin3":"","latitude":"50.4516000","longitude":"-3.5578500","localeAltName":"Torbay"},"admin1":{"geonameid":6269131,"name":"England","admin1":"ENG","localeAltName":"England"},"locations":[{"geonameid":8223968,"name":"Babbacombe","admin3":""},{"geonameid":2654663,"name":"Brixham","admin3":"00HH001"},{"geonameid":2653016,"name":"Churston Ferrers","admin3":"00HH001"},{"geonameid":11239661,"name":"Cockington","admin3":""},{"geonameid":7290256,"name":"Collaton St Mary","admin3":"18UG"},{"geonameid":11551086,"name":"Goodrington","admin3":""},{"geonameid":2640681,"name":"Paignton","admin3":"18UG"},{"geonameid":2635650,"name":"Torquay","admin3":""}],"admin3":[{"geonameid":7296060,"name":"Brixham","admin3":"00HH001"}],"alternateNames":[{"alternatenameId":2184508,"geonameid":3333210,"isoLanguage":"en","alternateName":"Torbay","isPreferredName":true,"isShortName":true,"isColloquial":false,"isHistoric":false},{"alternatenameId":1626647,"geonameid":6269131,"isoLanguage":"en","alternateName":"England","isPreferredName":true,"isShortName":true,"isColloquial":false,"isHistoric":false}]},"__N_SSG":true}