{"pageProps":{"locale":"en","admin2":{"geonameid":3333208,"name":"Borough of Tameside","country":"GB","admin1":"ENG","admin2":"O1","admin3":"","latitude":"53.5000000","longitude":"-2.0833300","localeAltName":"Tameside"},"admin1":{"geonameid":6269131,"name":"England","admin1":"ENG","localeAltName":"England"},"locations":[{"geonameid":2656915,"name":"Ashton-under-Lyne","admin3":""},{"geonameid":11593057,"name":"Broadbottom","admin3":""},{"geonameid":2651357,"name":"Denton","admin3":""},{"geonameid":2650962,"name":"Droylsden","admin3":"00BS001"},{"geonameid":2650815,"name":"Dukinfield","admin3":""},{"geonameid":2647795,"name":"Guide Bridge","admin3":"00BT001"},{"geonameid":7281593,"name":"Hattersley","admin3":""},{"geonameid":6691255,"name":"Haughton Green","admin3":"00BS001"},{"geonameid":6691237,"name":"Hollingworth","admin3":""},{"geonameid":11551007,"name":"Hurst","admin3":""},{"geonameid":2646327,"name":"Hyde","admin3":""},{"geonameid":2643704,"name":"Longdendale","admin3":""},{"geonameid":2642641,"name":"Micklehurst","admin3":"00BT001"},{"geonameid":2642524,"name":"Millbrook","admin3":""},{"geonameid":2642143,"name":"Mossley","admin3":"00BT001"},{"geonameid":2642131,"name":"Mottram in Longdendale","admin3":""},{"geonameid":6691256,"name":"Newton Moor Industrial Estate","admin3":""},{"geonameid":2637106,"name":"Stalybridge","admin3":"00BT001"}],"admin3":[{"geonameid":7291795,"name":"Mossley","admin3":"00BT001"}],"alternateNames":[{"alternatenameId":8666531,"geonameid":3333208,"isoLanguage":"en","alternateName":"Tameside","isPreferredName":true,"isShortName":true,"isColloquial":false,"isHistoric":false},{"alternatenameId":1626647,"geonameid":6269131,"isoLanguage":"en","alternateName":"England","isPreferredName":true,"isShortName":true,"isColloquial":false,"isHistoric":false}]},"__N_SSG":true}