{"pageProps":{"locale":"en","admin2":{"geonameid":3333137,"name":"Calderdale","country":"GB","admin1":"ENG","admin2":"C2","admin3":"","latitude":"53.7000000","longitude":"-2.0000000","localeAltName":"Calderdale"},"admin1":{"geonameid":6269131,"name":"England","admin1":"ENG","localeAltName":"England"},"locations":[{"geonameid":2656329,"name":"Barkisland","admin3":"00CY005"},{"geonameid":2654715,"name":"Brighouse","admin3":"00CZ003"},{"geonameid":2652360,"name":"Cornholme","admin3":"00CY006"},{"geonameid":11611428,"name":"Cragg vale","admin3":"00CY003"},{"geonameid":2650308,"name":"Eastwood","admin3":"00CY006"},{"geonameid":2650110,"name":"Elland","admin3":"00CY005"},{"geonameid":2649804,"name":"Exley","admin3":"00CY005"},{"geonameid":2647933,"name":"Greetland","admin3":"00CY005"},{"geonameid":2647632,"name":"Halifax","admin3":""},{"geonameid":2647207,"name":"Hebden Bridge","admin3":"00CY003"},{"geonameid":2647078,"name":"Heptonstall","admin3":"00CY004"},{"geonameid":2646837,"name":"Hipperholme","admin3":"00CX010"},{"geonameid":11203943,"name":"Holywell Green","admin3":""},{"geonameid":2643437,"name":"Luddenden Foot","admin3":""},{"geonameid":2643324,"name":"Lydgate","admin3":"00CY006"},{"geonameid":12089028,"name":"Midgley","admin3":"00CY003"},{"geonameid":2641923,"name":"Mytholm","admin3":"00CY002"},{"geonameid":2641922,"name":"Mytholmroyd","admin3":"00CY003"},{"geonameid":2640779,"name":"Ovenden","admin3":"00CX003"},{"geonameid":2639995,"name":"Portsmouth","admin3":"00CY006"},{"geonameid":12060359,"name":"Rastrick","admin3":""},{"geonameid":2639320,"name":"Ripponden","admin3":"00CY005"},{"geonameid":2639309,"name":"Rishworth","admin3":"00CY005"},{"geonameid":11549259,"name":"Shelf","admin3":""},{"geonameid":2637350,"name":"Southowram","admin3":"00CY005"},{"geonameid":2637268,"name":"Sowerby Bridge","admin3":"00CY005"},{"geonameid":2637122,"name":"Stainland","admin3":"00CY005"},{"geonameid":2635744,"name":"Todmorden","admin3":"00CY006"},{"geonameid":2634851,"name":"Walsden","admin3":"00CY006"}],"admin3":[{"geonameid":7296187,"name":"Hebden Royd","admin3":"00CY003"},{"geonameid":7298332,"name":"Blackshaw","admin3":"00CY001"},{"geonameid":7298333,"name":"Ripponden","admin3":"00CY005"},{"geonameid":7298743,"name":"Erringden","admin3":"00CY002"},{"geonameid":7298744,"name":"Heptonstall","admin3":"00CY004"},{"geonameid":7298745,"name":"Wadsworth","admin3":"00CY007"},{"geonameid":7299809,"name":"Todmorden","admin3":"00CY006"}],"alternateNames":[{"alternatenameId":8666489,"geonameid":3333137,"isoLanguage":"en","alternateName":"Calderdale","isPreferredName":true,"isShortName":true,"isColloquial":false,"isHistoric":false},{"alternatenameId":1626647,"geonameid":6269131,"isoLanguage":"en","alternateName":"England","isPreferredName":true,"isShortName":true,"isColloquial":false,"isHistoric":false}]},"__N_SSG":true}