{"pageProps":{"locale":"en","admin2":{"geonameid":3333141,"name":"Darlington","country":"GB","admin1":"ENG","admin2":"D1","admin3":"","latitude":"54.5333300","longitude":"-1.5333300","localeAltName":"Darlington"},"admin1":{"geonameid":6269131,"name":"England","admin1":"ENG","localeAltName":"England"},"locations":[{"geonameid":2655549,"name":"Bishopton","admin3":"00EH003"},{"geonameid":6692308,"name":"Coatham Mundeville","admin3":"00EH005"},{"geonameid":2651513,"name":"Darlington","admin3":"00EH013"},{"geonameid":2651355,"name":"Denton","admin3":"00EH006"},{"geonameid":2648016,"name":"Great Stainton","admin3":"00EH009"},{"geonameid":8063598,"name":"Harrogate Hill","admin3":""},{"geonameid":2647422,"name":"Harrowgate Hill","admin3":"00EH026"},{"geonameid":2647323,"name":"Haughton le Skerne","admin3":"00EH008"},{"geonameid":2647186,"name":"Heighington","admin3":"00EH010"},{"geonameid":8063597,"name":"High Beaumont Hill","admin3":"00EH026"},{"geonameid":2646970,"name":"High Coniscliffe","admin3":"00EH011"},{"geonameid":2646352,"name":"Hurworth","admin3":"00EH013"},{"geonameid":7521854,"name":"Low Coniscliffe","admin3":"00EH016"},{"geonameid":2642584,"name":"Middleton One Row","admin3":"00EH018"},{"geonameid":11593338,"name":"Middleton St George","admin3":"00EH018"},{"geonameid":11593346,"name":"Neasham","admin3":"00EH020"},{"geonameid":6620338,"name":"Redworth","admin3":"00EH010"},{"geonameid":11592618,"name":"Sadberge","admin3":"00EH022"},{"geonameid":7521855,"name":"Summerhouse","admin3":"00EH024"},{"geonameid":2634822,"name":"Walworth","admin3":"00EH025"}],"admin3":[{"geonameid":7290982,"name":"Denton","admin3":"00EH006"},{"geonameid":7293223,"name":"Archdeacon Newton","admin3":"00EH001"},{"geonameid":7293224,"name":"Great Stainton","admin3":"00EH009"},{"geonameid":7293225,"name":"Sockburn","admin3":"00EH023"},{"geonameid":7293226,"name":"Whessoe","admin3":"00EH026"},{"geonameid":7294804,"name":"Brafferton","admin3":"00EH004"},{"geonameid":7294805,"name":"Heighington","admin3":"00EH010"},{"geonameid":7294806,"name":"Hurworth","admin3":"00EH013"},{"geonameid":7294807,"name":"Neasham","admin3":"00EH020"},{"geonameid":7294808,"name":"Sadberge","admin3":"00EH022"},{"geonameid":7297965,"name":"Summerhouse","admin3":"00EH024"},{"geonameid":7298118,"name":"Bishopton","admin3":"00EH003"},{"geonameid":7298119,"name":"Coatham Mundeville","admin3":"00EH005"},{"geonameid":7298120,"name":"Great Burdon","admin3":"00EH008"},{"geonameid":7298121,"name":"Little Stainton","admin3":"00EH015"},{"geonameid":7298122,"name":"Middleton St. George","admin3":"00EH018"},{"geonameid":7298123,"name":"Piercebridge","admin3":"00EH021"},{"geonameid":7300174,"name":"Barmpton","admin3":"00EH002"},{"geonameid":7300175,"name":"East and West Newbiggin","admin3":"00EH007"},{"geonameid":7300176,"name":"High Coniscliffe","admin3":"00EH011"},{"geonameid":7300177,"name":"Houghton Le Side","admin3":"00EH012"},{"geonameid":7300178,"name":"Killerby","admin3":"00EH014"},{"geonameid":7300179,"name":"Low Coniscliffe and Merrybent","admin3":"00EH016"},{"geonameid":7300180,"name":"Low Dinsdale","admin3":"00EH017"},{"geonameid":7300181,"name":"Morton Palms","admin3":"00EH019"},{"geonameid":7300182,"name":"Walworth","admin3":"00EH025"}],"alternateNames":[{"alternatenameId":8666491,"geonameid":3333141,"isoLanguage":"en","alternateName":"Darlington","isPreferredName":true,"isShortName":true,"isColloquial":false,"isHistoric":false},{"alternatenameId":1626647,"geonameid":6269131,"isoLanguage":"en","alternateName":"England","isPreferredName":true,"isShortName":true,"isColloquial":false,"isHistoric":false}]},"__N_SSG":true}