{"pageProps":{"locale":"en","admin2":{"geonameid":3333144,"name":"Dudley","country":"GB","admin1":"ENG","admin2":"D7","admin3":"","latitude":"52.5000000","longitude":"-2.1166700","localeAltName":"Dudley"},"admin1":{"geonameid":6269131,"name":"England","admin1":"ENG","localeAltName":"England"},"locations":[{"geonameid":2657361,"name":"Amblecote","admin3":"41UF"},{"geonameid":2654771,"name":"Brettell Lane","admin3":""},{"geonameid":2654724,"name":"Brierley Hill","admin3":""},{"geonameid":2652297,"name":"Coseley","admin3":"41UF"},{"geonameid":2652170,"name":"Cradley","admin3":""},{"geonameid":2651391,"name":"Delph","admin3":""},{"geonameid":2650839,"name":"Dudley","admin3":""},{"geonameid":2648292,"name":"Gornalwood","admin3":""},{"geonameid":2647639,"name":"Halesowen","admin3":"47UB"},{"geonameid":2647376,"name":"Hasbury","admin3":"47UB"},{"geonameid":2646270,"name":"Illey","admin3":"47UB"},{"geonameid":2645420,"name":"Kingswinford","admin3":"41UF"},{"geonameid":2643520,"name":"Lower Gornal","admin3":"41UF"},{"geonameid":2643316,"name":"Lye","admin3":"47UB"},{"geonameid":2641773,"name":"Netherton","admin3":""},{"geonameid":2640528,"name":"Pedmore","admin3":"47UB"},{"geonameid":2638255,"name":"Sedgley","admin3":"41UF"},{"geonameid":2636769,"name":"Stourbridge","admin3":"47UB"},{"geonameid":2633696,"name":"Wollaston","admin3":""},{"geonameid":2633622,"name":"Woodside","admin3":""},{"geonameid":2633558,"name":"Wordsley","admin3":"41UF"}],"admin3":[],"alternateNames":[{"alternatenameId":8666494,"geonameid":3333144,"isoLanguage":"en","alternateName":"Dudley","isPreferredName":true,"isShortName":true,"isColloquial":false,"isHistoric":false},{"alternatenameId":1626647,"geonameid":6269131,"isoLanguage":"en","alternateName":"England","isPreferredName":true,"isShortName":true,"isColloquial":false,"isHistoric":false}]},"__N_SSG":true}