{"pageProps":{"locale":"en","admin2":{"geonameid":2648402,"name":"Gloucestershire","country":"GB","admin1":"ENG","admin2":"E6","admin3":"","latitude":"51.8333300","longitude":"-2.1666700","localeAltName":"Gloucestershire"},"admin1":{"geonameid":6269131,"name":"England","admin1":"ENG","localeAltName":"England"},"locations":[{"geonameid":10377822,"name":"Abbeymead","admin3":"23UE"},{"geonameid":2657670,"name":"Adlestrop","admin3":"23UC"},{"geonameid":2657547,"name":"Alderley","admin3":"23UF"},{"geonameid":2657539,"name":"Alderton","admin3":"23UG"},{"geonameid":2657526,"name":"Aldsworth","admin3":"23UC"},{"geonameid":9884676,"name":"Alstone","admin3":"23UB"},{"geonameid":2657383,"name":"Alvington","admin3":"23UD"},{"geonameid":2657340,"name":"Ampney Crucis","admin3":"23UC"},{"geonameid":2657339,"name":"Ampney Saint Mary","admin3":"23UC"},{"geonameid":2657338,"name":"Ampney St Peter","admin3":"23UC"},{"geonameid":2657322,"name":"Andoversford","admin3":"23UC"},{"geonameid":9258769,"name":"Apperley","admin3":"23UG"},{"geonameid":2657070,"name":"Arlingham","admin3":"23UF"},{"geonameid":2657068,"name":"Arlington","admin3":"23UC"},{"geonameid":2656943,"name":"Ashleworth","admin3":"23UG"},{"geonameid":2656941,"name":"Ashley","admin3":"23UC"},{"geonameid":2656756,"name":"Avening","admin3":"23UC"},{"geonameid":2656732,"name":"Awre","admin3":"23UD"},{"geonameid":11524011,"name":"Aylburton","admin3":"23UD"},{"geonameid":10377012,"name":"Bagendon Village","admin3":"23UC"},{"geonameid":2656285,"name":"Barnsley","admin3":"23UC"},{"geonameid":6695204,"name":"Barnwood","admin3":"23UE"},{"geonameid":2656220,"name":"Barton","admin3":"23UC"},{"geonameid":10377010,"name":"Baunton","admin3":"23UC"},{"geonameid":2655861,"name":"Berkeley","admin3":"23UF"},{"geonameid":2655784,"name":"Beverston","admin3":"23UC"},{"geonameid":2655730,"name":"Bibury","admin3":"23UC"},{"geonameid":2655620,"name":"Birdlip","admin3":"23UC"},{"geonameid":10377356,"name":"Birdwood","admin3":"23UD"},{"geonameid":2655570,"name":"Bishops Cleeve","admin3":"23UG"},{"geonameid":2655544,"name":"Bisley","admin3":"23UF"},{"geonameid":2655385,"name":"Blakeney","admin3":"23UD"},{"geonameid":2655361,"name":"Bledington","admin3":"23UC"},{"geonameid":2655336,"name":"Blockley","admin3":"23UC"},{"geonameid":11593101,"name":"Botloe's Green","admin3":"23UD"},{"geonameid":2655088,"name":"Bourton on the Hill","admin3":"23UC"},{"geonameid":2655087,"name":"Bourton on the Water","admin3":"23UC"},{"geonameid":2654832,"name":"Bream","admin3":"23UD"},{"geonameid":2654697,"name":"Brimpsfield","admin3":"23UC"},{"geonameid":2654695,"name":"Brimscombe","admin3":"23UF"},{"geonameid":8181682,"name":"Broad Campden","admin3":"23UC"},{"geonameid":2654626,"name":"Broadwell","admin3":"23UC"},{"geonameid":2654605,"name":"Brockworth","admin3":"23UG"},{"geonameid":2654580,"name":"Bromsberrow","admin3":"23UD"},{"geonameid":2654559,"name":"Brookthorpe","admin3":"23UF"},{"geonameid":2654403,"name":"Buckland","admin3":"23UG"},{"geonameid":2654349,"name":"Bulley","admin3":"23UD"},{"geonameid":12104209,"name":"Burleigh","admin3":"23UF"},{"geonameid":2653958,"name":"Cam","admin3":"23UF"},{"geonameid":2653942,"name":"Cambridge","admin3":"23UF"},{"geonameid":2653418,"name":"Chaceley","admin3":"23UG"},{"geonameid":2653392,"name":"Chalford","admin3":"23UF"},{"geonameid":2653325,"name":"Charlton Abbots","admin3":"23UG"},{"geonameid":2653324,"name":"Charlton Kings","admin3":"23UB"},{"geonameid":2653276,"name":"Chedworth","admin3":"23UC"},{"geonameid":2653261,"name":"Cheltenham","admin3":"23UB"},{"geonameid":2653252,"name":"Cherington","admin3":"23UC"},{"geonameid":2653140,"name":"Chipping Campden","admin3":"23UC"},{"geonameid":8714247,"name":"Christchurch","admin3":"23UD"},{"geonameid":2653043,"name":"Churchdown","admin3":"23UG"},{"geonameid":2653041,"name":"Churchend","admin3":"23UG"},{"geonameid":2652997,"name":"Cinderford","admin3":"23UD"},{"geonameid":2652995,"name":"Cirencester","admin3":"23UC"},{"geonameid":2652948,"name":"Clapton","admin3":"23UC"},{"geonameid":2652905,"name":"Claypits","admin3":"23UF"},{"geonameid":6951034,"name":"Clearwell","admin3":"23UD"},{"geonameid":9409295,"name":"Cleeve Hill","admin3":"23UG"},{"geonameid":2652705,"name":"Coaley","admin3":"23UF"},{"geonameid":2652695,"name":"Coates","admin3":"23UC"},{"geonameid":2652690,"name":"Coberley","admin3":"23UC"},{"geonameid":6697376,"name":"Cold Aston","admin3":"23UC"},{"geonameid":2652591,"name":"Coleford","admin3":"23UD"},{"geonameid":2652584,"name":"Colesbourne","admin3":"23UC"},{"geonameid":2652538,"name":"Coln Rogers","admin3":"23UC"},{"geonameid":2652537,"name":"Coln Saint Aldwyn","admin3":"23UC"},{"geonameid":2652536,"name":"Coln Saint Denis","admin3":"23UC"},{"geonameid":2652471,"name":"Condicote","admin3":"23UC"},{"geonameid":2652411,"name":"Coombe Hill","admin3":"23UG"},{"geonameid":2652323,"name":"Corse","admin3":"23UD"},{"geonameid":8063562,"name":"Corse and Staunton","admin3":"23UD"},{"geonameid":2652190,"name":"Cowley","admin3":"23UC"},{"geonameid":2651664,"name":"Cutsdean","admin3":"23UC"},{"geonameid":2651617,"name":"Daglingworth","admin3":"23UC"},{"geonameid":2651412,"name":"Deerhurst","admin3":"23UG"},{"geonameid":9884720,"name":"Deerhurst Walton","admin3":"23UG"},{"geonameid":8658949,"name":"Didbrook","admin3":"23UG"},{"geonameid":2651265,"name":"Didmarton","admin3":"23UC"},{"geonameid":6697375,"name":"Donnington","admin3":"23UC"},{"geonameid":2651040,"name":"Dowdeswell","admin3":"23UC"},{"geonameid":2651036,"name":"Down Ampney","admin3":"23UC"},{"geonameid":2651029,"name":"Down Hatherley","admin3":"23UG"},{"geonameid":2650901,"name":"Drybrook","admin3":"23UD"},{"geonameid":2650847,"name":"Dudbridge","admin3":"23UF"},{"geonameid":2650800,"name":"Dumbleton","admin3":"23UG"},{"geonameid":10377008,"name":"Duntisbourne Abbots","admin3":"23UC"},{"geonameid":10377007,"name":"Duntisbourne Leer","admin3":"23UC"},{"geonameid":10377005,"name":"Duntisbourne Rouse","admin3":"23UC"},{"geonameid":2650613,"name":"Dursley","admin3":"23UF"},{"geonameid":10377352,"name":"Dursley Cross","admin3":"23UD"},{"geonameid":2650588,"name":"Dymock","admin3":"23UD"},{"geonameid":3345342,"name":"Eastington","admin3":"23UF"},{"geonameid":2650400,"name":"Eastleach","admin3":"23UC"},{"geonameid":2650399,"name":"Eastleach Martin","admin3":"23UC"},{"geonameid":2650398,"name":"Eastleach Turville","admin3":"23UC"},{"geonameid":2650282,"name":"Ebrington","admin3":"23UC"},{"geonameid":6615461,"name":"Edge","admin3":"23UF"},{"geonameid":2650231,"name":"Edgeworth","admin3":"23UC"},{"geonameid":2650112,"name":"Elkstone","admin3":"23UC"},{"geonameid":2650072,"name":"Elmore","admin3":"23UF"},{"geonameid":9884679,"name":"Elmstone Hardwicke","admin3":"23UG"},{"geonameid":2649845,"name":"Evenlode","admin3":"23UC"},{"geonameid":2649822,"name":"Ewen","admin3":"23UC"},{"geonameid":2649741,"name":"Fairford","admin3":"23UC"},{"geonameid":2649673,"name":"Farmington","admin3":"23UC"},{"geonameid":9258771,"name":"Fiddington","admin3":"23UG"},{"geonameid":2649325,"name":"Flaxley","admin3":"23UD"},{"geonameid":9884686,"name":"Foxcote","admin3":"23UC"},{"geonameid":2649105,"name":"Framilode","admin3":"23UF"},{"geonameid":2649100,"name":"Frampton on Severn","admin3":"23UF"},{"geonameid":2649032,"name":"Frocester","admin3":"23UF"},{"geonameid":8051162,"name":"Gatcombe","admin3":"23UD"},{"geonameid":10377354,"name":"Glasshouse","admin3":"23UD"},{"geonameid":2648404,"name":"Gloucester","admin3":"23UE"},{"geonameid":2648350,"name":"Golden Valley","admin3":"23UG"},{"geonameid":6940294,"name":"Gotherington","admin3":"23UG"},{"geonameid":10377359,"name":"Grange Court","admin3":"23UD"},{"geonameid":2648166,"name":"Great Barrington","admin3":"23UC"},{"geonameid":2648034,"name":"Great Rissington","admin3":"23UC"},{"geonameid":2647996,"name":"Great Washbourne","admin3":"23UG"},{"geonameid":2647990,"name":"Great Witcombe","admin3":"23UG"},{"geonameid":2647908,"name":"Gretton","admin3":"23UG"},{"geonameid":2647782,"name":"Guiting Power","admin3":"23UC"},{"geonameid":2647557,"name":"Hampnett","admin3":"23UC"},{"geonameid":2647489,"name":"Hardwicke","admin3":"23UF"},{"geonameid":2647484,"name":"Harescombe","admin3":"23UF"},{"geonameid":2647483,"name":"Haresfield","admin3":"23UF"},{"geonameid":2647393,"name":"Hartpury","admin3":"23UD"},{"geonameid":2647367,"name":"Hasfield","admin3":"23UG"},{"geonameid":2647339,"name":"Hatherop","admin3":"23UC"},{"geonameid":2647280,"name":"Hawling","admin3":"23UG"},{"geonameid":9884680,"name":"Hayden","admin3":"23UG"},{"geonameid":9409296,"name":"Haymes","admin3":"23UG"},{"geonameid":2647126,"name":"Hempsted","admin3":"23UE"},{"geonameid":2647011,"name":"Hewelsfield","admin3":"23UD"},{"geonameid":9204068,"name":"Hidcote","admin3":"23UC"},{"geonameid":12047671,"name":"Hidcote Bartrim","admin3":"23UC"},{"geonameid":11592625,"name":"Highnam","admin3":"23UG"},{"geonameid":2646886,"name":"Hillesley","admin3":"23UF"},{"geonameid":2646554,"name":"Horsley","admin3":"23UF"},{"geonameid":2646463,"name":"Hucclecote","admin3":"23UE"},{"geonameid":2646385,"name":"Huntley","admin3":"23UD"},{"geonameid":2646160,"name":"Innsworth","admin3":"23UG"},{"geonameid":2645838,"name":"Kemble","admin3":"23UC"},{"geonameid":2645834,"name":"Kempley","admin3":"23UD"},{"geonameid":2645832,"name":"Kempsford","admin3":"23UC"},{"geonameid":9884685,"name":"Kilkenney","admin3":"23UC"},{"geonameid":2645511,"name":"Kineton","admin3":"23UC"},{"geonameid":3345343,"name":"King’s Stanley","admin3":"23UF"},{"geonameid":9884677,"name":"Kings Trading Village","admin3":"23UB"},{"geonameid":2645476,"name":"Kingscote","admin3":"23UC"},{"geonameid":10377068,"name":"Kingsholm","admin3":"23UE"},{"geonameid":2645417,"name":"Kingswood","admin3":"23UF"},{"geonameid":2644840,"name":"Lasborough","admin3":"23UC"},{"geonameid":2644834,"name":"Lassington","admin3":"23UG"},{"geonameid":2644719,"name":"Lechlade","admin3":"23UC"},{"geonameid":2644714,"name":"Leckhampton","admin3":"23UB"},{"geonameid":2644662,"name":"Leigh","admin3":"23UG"},{"geonameid":2644657,"name":"Leighterton","admin3":"23UC"},{"geonameid":2644376,"name":"Little Barrington","admin3":"23UC"},{"geonameid":2644340,"name":"Little Dean","admin3":"23UD"},{"geonameid":6615460,"name":"Little Haresfield","admin3":"23UF"},{"geonameid":2644264,"name":"Little Rissington","admin3":"23UC"},{"geonameid":2644227,"name":"Little Washbourne","admin3":"23UG"},{"geonameid":2644219,"name":"Little Witcombe","admin3":"23UG"},{"geonameid":2643656,"name":"Long Newnton","admin3":"23UC"},{"geonameid":2643718,"name":"Longborough","admin3":"23UC"},{"geonameid":10377069,"name":"Longford","admin3":"23UG"},{"geonameid":2643678,"name":"Longhope","admin3":"23UD"},{"geonameid":2643653,"name":"Longney","admin3":"23UD"},{"geonameid":9258770,"name":"Lower Apperley","admin3":"23UG"},{"geonameid":2643532,"name":"Lower Cam","admin3":"23UF"},{"geonameid":2643510,"name":"Lower Lemington","admin3":"23UC"},{"geonameid":2643501,"name":"Lower Slaughter","admin3":"23UC"},{"geonameid":2643500,"name":"Lower Soudley","admin3":"23UD"},{"geonameid":2643498,"name":"Lower Swell","admin3":"23UC"},{"geonameid":2643329,"name":"Lydbrook","admin3":"23UD"},{"geonameid":2643318,"name":"Lydney","admin3":"23UD"},{"geonameid":2643169,"name":"Maisemore","admin3":"23UG"},{"geonameid":2642908,"name":"Matson","admin3":"23UE"},{"geonameid":10377353,"name":"May Hill","admin3":"23UD"},{"geonameid":2642679,"name":"Meysey Hampton","admin3":"23UC"},{"geonameid":2642639,"name":"Mickleton","admin3":"23UC"},{"geonameid":10377006,"name":"Middle Duntisbourne","admin3":"23UC"},{"geonameid":2642452,"name":"Minchinhampton","admin3":"23UF"},{"geonameid":11593342,"name":"Minsterworth","admin3":"23UG"},{"geonameid":2642421,"name":"Miserden","admin3":"23UF"},{"geonameid":2642412,"name":"Mitcheldean","admin3":"23UD"},{"geonameid":9258766,"name":"Mitton","admin3":"23UG"},{"geonameid":8199401,"name":"Montpellier","admin3":"23UB"},{"geonameid":2642200,"name":"Moreton in Marsh","admin3":"23UC"},{"geonameid":2641912,"name":"Nailsworth","admin3":"23UF"},{"geonameid":2641865,"name":"Naunton","admin3":"23UC"},{"geonameid":7535460,"name":"Nether Westcote","admin3":"23UC"},{"geonameid":2641651,"name":"Newent","admin3":"23UD"},{"geonameid":2641627,"name":"Newland","admin3":"23UD"},{"geonameid":2641605,"name":"Newnham","admin3":"23UD"},{"geonameid":2641403,"name":"North Cerney","admin3":"23UC"},{"geonameid":2641292,"name":"North Nibley","admin3":"23UF"},{"geonameid":2641318,"name":"Northleach","admin3":"23UC"},{"geonameid":10377360,"name":"Northwood Green","admin3":"23UD"},{"geonameid":2641206,"name":"Norton","admin3":"23UG"},{"geonameid":2641173,"name":"Notgrove","admin3":"23UC"},{"geonameid":2641139,"name":"Nympsfield","admin3":"23UF"},{"geonameid":2641124,"name":"Oakle Street","admin3":"23UD"},{"geonameid":2641034,"name":"Oldbury on the Hill","admin3":"23UC"},{"geonameid":2640678,"name":"Painswick","admin3":"23UF"},{"geonameid":2640613,"name":"Parkend","admin3":"23UD"},{"geonameid":2640557,"name":"Pauntley","admin3":"23UD"},{"geonameid":10377011,"name":"Perrott's Brook","admin3":"23UC"},{"geonameid":11592770,"name":"Pitchcombe","admin3":"23UF"},{"geonameid":2639959,"name":"Poulton","admin3":"23UC"},{"geonameid":2639916,"name":"Preston","admin3":"23UD"},{"geonameid":2639918,"name":"Preston","admin3":"23UC"},{"geonameid":9258768,"name":"Priors Park","admin3":"23UG"},{"geonameid":11127583,"name":"Purton","admin3":"23UD"},{"geonameid":2639839,"name":"Purton","admin3":"23UF"},{"geonameid":2639797,"name":"Quedgeley","admin3":"23UE"},{"geonameid":2639778,"name":"Quenington","admin3":"23UC"},{"geonameid":2639652,"name":"Randwick","admin3":"23UF"},{"geonameid":2639535,"name":"Redmarley D’Abitot","admin3":"23UD"},{"geonameid":2639232,"name":"Rodmarton","admin3":"23UC"},{"geonameid":6940298,"name":"Ruardean","admin3":"23UD"},{"geonameid":6940300,"name":"Ruardean Hill","admin3":"23UD"},{"geonameid":6940299,"name":"Ruardean Woodside","admin3":"23UD"},{"geonameid":6693512,"name":"Rudford","admin3":"23UD"},{"geonameid":2638906,"name":"Ryeford","admin3":"23UF"},{"geonameid":2638844,"name":"Saint Briavels","admin3":"23UD"},{"geonameid":2638654,"name":"Salperton","admin3":"23UC"},{"geonameid":2638579,"name":"Sandhurst","admin3":"23UG"},{"geonameid":2638513,"name":"Sapperton","admin3":"23UC"},{"geonameid":2638117,"name":"Sharpness","admin3":"23UF"},{"geonameid":2638031,"name":"Sherborne","admin3":"23UC"},{"geonameid":9884689,"name":"Shipton","admin3":"23UC"},{"geonameid":2637949,"name":"Shipton Moyne","admin3":"23UC"},{"geonameid":9884688,"name":"Shipton Oliffe","admin3":"23UC"},{"geonameid":2637878,"name":"Shurdington","admin3":"23UG"},{"geonameid":9258765,"name":"Shuthonger","admin3":"23UG"},{"geonameid":2637859,"name":"Siddington","admin3":"23UC"},{"geonameid":2637637,"name":"Slimbridge","admin3":"23UF"},{"geonameid":2637565,"name":"Snowshill","admin3":"23UG"},{"geonameid":10377355,"name":"Solomon Tump","admin3":"23UD"},{"geonameid":2637536,"name":"Somerford Keynes","admin3":"23UC"},{"geonameid":2637460,"name":"South Cerney","admin3":"23UC"},{"geonameid":2637489,"name":"Southam","admin3":"23UG"},{"geonameid":2637335,"name":"Southrop","admin3":"23UC"},{"geonameid":2637097,"name":"Standish","admin3":"23UF"},{"geonameid":2637050,"name":"Stanton","admin3":"23UG"},{"geonameid":2637036,"name":"Stanway","admin3":"23UG"},{"geonameid":2637000,"name":"Staunton","admin3":"23UD"},{"geonameid":2637001,"name":"Staunton","admin3":"23UD"},{"geonameid":2636990,"name":"Staverton","admin3":"23UG"},{"geonameid":9884681,"name":"Staverton Bridge","admin3":"23UG"},{"geonameid":11592748,"name":"Stoke Orchard","admin3":"23UG"},{"geonameid":2636825,"name":"Stone","admin3":"23UF"},{"geonameid":2636811,"name":"Stonehouse","admin3":"23UF"},{"geonameid":2636748,"name":"Stow on the Wold","admin3":"23UC"},{"geonameid":10377009,"name":"Stratton","admin3":"23UC"},{"geonameid":2636616,"name":"Stroud","admin3":"23UF"},{"geonameid":2636388,"name":"Swindon","admin3":"23UB"},{"geonameid":2636360,"name":"Syde","admin3":"23UC"},{"geonameid":3345351,"name":"Tarlton","admin3":"23UC"},{"geonameid":10377361,"name":"Taynton Village","admin3":"23UD"},{"geonameid":2636146,"name":"Teddington","admin3":"23UG"},{"geonameid":2636117,"name":"Temple Guiting","admin3":"23UC"},{"geonameid":2636083,"name":"Tetbury","admin3":"23UC"},{"geonameid":2636071,"name":"Tewkesbury","admin3":"23UG"},{"geonameid":9884722,"name":"The Leigh","admin3":"23UG"},{"geonameid":9258764,"name":"The Mythe","admin3":"23UG"},{"geonameid":2635868,"name":"Tibberton","admin3":"23UD"},{"geonameid":2635852,"name":"Tidenham","admin3":"23UD"},{"geonameid":2635779,"name":"Tirley","admin3":"23UG"},{"geonameid":2635747,"name":"Toddington","admin3":"23UG"},{"geonameid":2635745,"name":"Todenham","admin3":"23UC"},{"geonameid":2635545,"name":"Tredington","admin3":"23UG"},{"geonameid":2635346,"name":"Turkdean","admin3":"23UC"},{"geonameid":3345338,"name":"Tutshill","admin3":"23UD"},{"geonameid":10377070,"name":"Twigworth","admin3":"23UG"},{"geonameid":9884678,"name":"Uckington","admin3":"23UG"},{"geonameid":2635202,"name":"Uley","admin3":"23UF"},{"geonameid":2635154,"name":"Upleadon","admin3":"23UD"},{"geonameid":10377357,"name":"Upper Ley","admin3":"23UD"},{"geonameid":2635108,"name":"Upper Slaughter","admin3":"23UC"},{"geonameid":2635103,"name":"Upper Swell","admin3":"23UC"},{"geonameid":6692227,"name":"Upton St Leonards","admin3":"23UF"},{"geonameid":2634480,"name":"Westbury on Severn","admin3":"23UD"},{"geonameid":2634418,"name":"Westfield","admin3":"23UC"},{"geonameid":2634309,"name":"Weston Subedge","admin3":"23UC"},{"geonameid":2634164,"name":"Whelford","admin3":"23UC"},{"geonameid":2634108,"name":"Whitecroft","admin3":"23UD"},{"geonameid":11592615,"name":"Whitminster","admin3":"23UF"},{"geonameid":2634016,"name":"Whittington","admin3":"23UC"},{"geonameid":11592742,"name":"Willersey","admin3":"23UC"},{"geonameid":2633860,"name":"Winchcombe","admin3":"23UG","localeAltName":"Winchcombe"},{"geonameid":2633844,"name":"Windrush","admin3":"23UC"},{"geonameid":2633807,"name":"Winson","admin3":"23UC"},{"geonameid":11789220,"name":"Winstone","admin3":"23UC"},{"geonameid":2633740,"name":"Withington","admin3":"23UC"},{"geonameid":2633667,"name":"Woodchester","admin3":"23UF"},{"geonameid":7522052,"name":"Woodmancote","admin3":"23UG"},{"geonameid":10377013,"name":"Woodmancote","admin3":"23UC"},{"geonameid":2633607,"name":"Woolaston","admin3":"23UD"},{"geonameid":2633589,"name":"Woolstone","admin3":"23UG"},{"geonameid":2633539,"name":"Wormington","admin3":"23UG"},{"geonameid":2633511,"name":"Wotton-under-Edge","admin3":"23UF"},{"geonameid":2633464,"name":"Wyck Rissington","admin3":"23UC"},{"geonameid":2633423,"name":"Yanworth","admin3":"23UC"}],"admin3":[{"geonameid":2636617,"name":"Stroud","admin3":"23UF"},{"geonameid":7290548,"name":"Cheltenham","admin3":"23UB"},{"geonameid":7290549,"name":"Cotswold District","admin3":"23UC"},{"geonameid":7290550,"name":"Forest of Dean District","admin3":"23UD"},{"geonameid":7290551,"name":"Gloucester District","admin3":"23UE"},{"geonameid":7290552,"name":"Tewkesbury District","admin3":"23UG"}],"alternateNames":[{"alternatenameId":8666579,"geonameid":2633860,"isoLanguage":"en","alternateName":"Winchcombe","isPreferredName":true,"isShortName":true,"isColloquial":false,"isHistoric":false},{"alternatenameId":2254274,"geonameid":2648402,"isoLanguage":"en","alternateName":"Gloucestershire","isPreferredName":true,"isShortName":true,"isColloquial":false,"isHistoric":false},{"alternatenameId":1626647,"geonameid":6269131,"isoLanguage":"en","alternateName":"England","isPreferredName":true,"isShortName":true,"isColloquial":false,"isHistoric":false}]},"__N_SSG":true}