{"pageProps":{"locale":"en","admin2":{"geonameid":3333170,"name":"Medway","country":"GB","admin1":"ENG","admin2":"I3","admin3":"","latitude":"51.4166700","longitude":"0.5000000","localeAltName":"Medway"},"admin1":{"geonameid":6269131,"name":"England","admin1":"ENG","localeAltName":"England"},"locations":[{"geonameid":2657476,"name":"Allhallows","admin3":"00LC001"},{"geonameid":6691899,"name":"Borstal","admin3":"00LC004"},{"geonameid":2653299,"name":"Chattenden","admin3":"00LC008"},{"geonameid":2652849,"name":"Cliffe","admin3":"00LC002"},{"geonameid":2652414,"name":"Cooling","admin3":"00LC003"},{"geonameid":2651662,"name":"Cuxton","admin3":"00LC004"},{"geonameid":2648236,"name":"Grain","admin3":"00LC009"},{"geonameid":2647616,"name":"Halling","admin3":"00LC006"},{"geonameid":2646953,"name":"High Halstow","admin3":"00LC007"},{"geonameid":2646656,"name":"Hoo","admin3":"00LC008"},{"geonameid":2645451,"name":"Kingsnorth","admin3":"00LC008"},{"geonameid":10247756,"name":"Lower Stoke","admin3":"00LC011"},{"geonameid":7648207,"name":"Luton","admin3":"00LC005"},{"geonameid":2639987,"name":"Port Victoria","admin3":"00LC009"},{"geonameid":2639268,"name":"Rochester","admin3":""},{"geonameid":2638734,"name":"Saint Mary Hoo","admin3":"00LC010"},{"geonameid":2638123,"name":"Sharnal Street","admin3":"00LC007"},{"geonameid":2636869,"name":"Upper Stoke","admin3":"00LC011"},{"geonameid":2634911,"name":"Wainscott","admin3":"00LC005"}],"admin3":[{"geonameid":7290862,"name":"Cooling","admin3":"00LC003"},{"geonameid":7290863,"name":"Cuxton","admin3":"00LC004"},{"geonameid":7295553,"name":"Cliffe and Cliffe Woods","admin3":"00LC002"},{"geonameid":7295559,"name":"Frindsbury Extra","admin3":"00LC005"},{"geonameid":7295560,"name":"Halling","admin3":"00LC006"},{"geonameid":7296568,"name":"Allhallows","admin3":"00LC001"},{"geonameid":7296575,"name":"High Halstow","admin3":"00LC007"},{"geonameid":7296576,"name":"St. Mary Hoo","admin3":"00LC010"},{"geonameid":7299192,"name":"Isle of Grain","admin3":"00LC009"},{"geonameid":7301571,"name":"Stoke","admin3":"00LC011"},{"geonameid":7301801,"name":"Hoo St. Werburgh","admin3":"00LC008"}],"alternateNames":[{"alternatenameId":8666504,"geonameid":3333170,"isoLanguage":"en","alternateName":"Medway","isPreferredName":true,"isShortName":true,"isColloquial":false,"isHistoric":false},{"alternatenameId":1626647,"geonameid":6269131,"isoLanguage":"en","alternateName":"England","isPreferredName":true,"isShortName":true,"isColloquial":false,"isHistoric":false}]},"__N_SSG":true}