{"pageProps":{"locale":"en","admin2":{"geonameid":3333174,"name":"Newcastle upon Tyne","country":"GB","admin1":"ENG","admin2":"I7","admin3":"","latitude":"55.0000000","longitude":"-1.6666700","localeAltName":"Newcastle upon Tyne"},"admin1":{"geonameid":6269131,"name":"England","admin1":"ENG","localeAltName":"England"},"locations":[{"geonameid":6693001,"name":"Benwell","admin3":"00CJ006"},{"geonameid":11550990,"name":"Black Callerton","admin3":"00CJ005"},{"geonameid":11550989,"name":"Blakelaw","admin3":"00CJ006"},{"geonameid":6269322,"name":"Brunswick Village","admin3":"00CJ001"},{"geonameid":11550991,"name":"Callerton Lane End","admin3":"00CJ005"},{"geonameid":2651240,"name":"Dinnington","admin3":"00CJ002"},{"geonameid":2650045,"name":"Elswick","admin3":""},{"geonameid":11951424,"name":"Fenham","admin3":""},{"geonameid":2648273,"name":"Gosforth","admin3":""},{"geonameid":6269323,"name":"Hazlerigg","admin3":"00CJ003"},{"geonameid":2647214,"name":"Heaton","admin3":""},{"geonameid":2646950,"name":"High Heaton","admin3":"00CJ004"},{"geonameid":2645960,"name":"Jesmond","admin3":""},{"geonameid":2645786,"name":"Kenton","admin3":""},{"geonameid":2644627,"name":"Lemington","admin3":"00CJ005"},{"geonameid":2641690,"name":"Newburn","admin3":"00EM073"},{"geonameid":2641673,"name":"Newcastle upon Tyne","admin3":""},{"geonameid":2640986,"name":"Old Walker","admin3":""},{"geonameid":12122567,"name":"Ouseburn","admin3":""},{"geonameid":2638702,"name":"Saint Peters","admin3":""},{"geonameid":2638350,"name":"Scotswood","admin3":"00CJ006"},{"geonameid":2635916,"name":"Throckley","admin3":""},{"geonameid":2635586,"name":"Town Moor","admin3":""},{"geonameid":2634886,"name":"Walker","admin3":""},{"geonameid":2634884,"name":"Walker Gate","admin3":""},{"geonameid":11550993,"name":"Wallbottle","admin3":""}],"admin3":[{"geonameid":7295606,"name":"Dinnington","admin3":"00CJ002"},{"geonameid":7296100,"name":"Brunswick","admin3":"00CJ001"},{"geonameid":7296101,"name":"Woolsington","admin3":"00CJ005"},{"geonameid":7296610,"name":"Hazlerigg","admin3":"00CJ003"},{"geonameid":7296611,"name":"North Gosforth","admin3":"00CJ004"},{"geonameid":7297693,"name":"Blakelaw and North Fenham","admin3":"00CJ006"}],"alternateNames":[{"alternatenameId":8666507,"geonameid":3333174,"isoLanguage":"en","alternateName":"Newcastle upon Tyne","isPreferredName":true,"isShortName":true,"isColloquial":false,"isHistoric":false},{"alternatenameId":1626647,"geonameid":6269131,"isoLanguage":"en","alternateName":"England","isPreferredName":true,"isShortName":true,"isColloquial":false,"isHistoric":false}]},"__N_SSG":true}