{"pageProps":{"locale":"en","admin2":{"geonameid":3333176,"name":"North Lincolnshire","country":"GB","admin1":"ENG","admin2":"J3","admin3":"","latitude":"53.5833300","longitude":"-0.5000000","localeAltName":"North Lincolnshire"},"admin1":{"geonameid":6269131,"name":"England","admin1":"ENG","localeAltName":"England"},"locations":[{"geonameid":2657501,"name":"Alkborough","admin3":"00FD001"},{"geonameid":2657416,"name":"Althorpe","admin3":"00FD031"},{"geonameid":2657357,"name":"Amcotts","admin3":"00FD002"},{"geonameid":2657240,"name":"Appleby","admin3":"00FD003"},{"geonameid":2656294,"name":"Barnetby le Wold","admin3":"00FD004"},{"geonameid":2656240,"name":"Barrow upon Humber","admin3":"00FD005"},{"geonameid":2656206,"name":"Barton upon Humber","admin3":"00FD006"},{"geonameid":2655932,"name":"Belton","admin3":"00FD007"},{"geonameid":2655221,"name":"Bonby","admin3":"00FD008"},{"geonameid":2655124,"name":"Bottesford","admin3":"00FD009"},{"geonameid":2654721,"name":"Brigg","admin3":"00FD010"},{"geonameid":2654506,"name":"Broughton","admin3":"00FD011"},{"geonameid":2654462,"name":"Brumby","admin3":""},{"geonameid":2654236,"name":"Burringham","admin3":"00FD012"},{"geonameid":2654201,"name":"Burton upon Stather","admin3":"00FD013"},{"geonameid":2654106,"name":"Cadney","admin3":"00FD014"},{"geonameid":2651894,"name":"Crosby","admin3":""},{"geonameid":2651841,"name":"Crowle","admin3":"00FD015"},{"geonameid":2651821,"name":"Croxton","admin3":"00FD016"},{"geonameid":11000550,"name":"Dragonby","admin3":"00FD042"},{"geonameid":2650490,"name":"East Butterwick","admin3":"00FD017"},{"geonameid":2650431,"name":"East Halton","admin3":"00FD018"},{"geonameid":2650369,"name":"Eastoft","admin3":"00FD019"},{"geonameid":2650057,"name":"Elsham","admin3":"00FD020"},{"geonameid":2649955,"name":"Epworth","admin3":"00FD021"},{"geonameid":2649294,"name":"Flixborough","admin3":"00FD022"},{"geonameid":2649266,"name":"Fockerby","admin3":"00FD023"},{"geonameid":2649030,"name":"Frodingham","admin3":"00FD022"},{"geonameid":11593068,"name":"Garthorpe","admin3":"00FD023"},{"geonameid":2648253,"name":"Goxhill","admin3":"00FD024"},{"geonameid":2647761,"name":"Gunness","admin3":"00FD025"},{"geonameid":2647268,"name":"Haxey","admin3":"00FD027"},{"geonameid":2646994,"name":"Hibaldstow","admin3":"00FD028"},{"geonameid":11000571,"name":"High Risby","admin3":"00FD042"},{"geonameid":11000569,"name":"Holme","admin3":"00FD029"},{"geonameid":2646607,"name":"Horkstow","admin3":"00FD030"},{"geonameid":2646484,"name":"Howsham","admin3":"00FD014"},{"geonameid":2645918,"name":"Keadby","admin3":"00FD031"},{"geonameid":2645194,"name":"Kirmington","admin3":"00FD032"},{"geonameid":2645180,"name":"Kirton in Lindsey","admin3":"00FD033"},{"geonameid":11000570,"name":"Low Risby","admin3":"00FD042"},{"geonameid":11000572,"name":"Low Santon","admin3":"00FD003"},{"geonameid":2643434,"name":"Luddington","admin3":"00FD034"},{"geonameid":2643089,"name":"Manton","admin3":"00FD035"},{"geonameid":2642762,"name":"Melton Ross","admin3":"00FD036"},{"geonameid":2642697,"name":"Messingham","admin3":"00FD037"},{"geonameid":2641633,"name":"New Holland","admin3":"00FD038"},{"geonameid":11000549,"name":"Normanby","admin3":"00FD013"},{"geonameid":2640740,"name":"Owston Ferry","admin3":"00FD040"},{"geonameid":2639566,"name":"Redbourne","admin3":"00FD041"},{"geonameid":2639032,"name":"Roxby","admin3":"00FD042"},{"geonameid":2638546,"name":"Sandtoft","admin3":"00FD021"},{"geonameid":2638469,"name":"Saxby All Saints","admin3":"00FD043"},{"geonameid":2638391,"name":"Scawby","admin3":"00FD044"},{"geonameid":2638324,"name":"Scunthorpe","admin3":""},{"geonameid":2637422,"name":"South Ferriby","admin3":"00FD045"},{"geonameid":11000548,"name":"Thealby","admin3":"00FD013"},{"geonameid":2635965,"name":"Thornton Curtis","admin3":"00FD047"},{"geonameid":2635205,"name":"Ulceby","admin3":"00FD048"},{"geonameid":2634479,"name":"West Butterwick","admin3":"00FD049"},{"geonameid":2634404,"name":"West Halton","admin3":"00FD050"},{"geonameid":2634006,"name":"Whitton","admin3":"00FD051"},{"geonameid":2633789,"name":"Winteringham","admin3":"00FD052"},{"geonameid":2633786,"name":"Winterton","admin3":"00FD053"},{"geonameid":2633572,"name":"Wootton","admin3":"00FD054"},{"geonameid":2633549,"name":"Worlaby","admin3":"00FD055"},{"geonameid":2633499,"name":"Wrawby","admin3":"00FD056"},{"geonameid":11000573,"name":"Wressle","admin3":"00FD011"},{"geonameid":2633479,"name":"Wroot","admin3":"00FD057"}],"admin3":[{"geonameid":7290728,"name":"Belton","admin3":"00FD007"},{"geonameid":7290729,"name":"Bottesford","admin3":"00FD009"},{"geonameid":7290730,"name":"Broughton","admin3":"00FD011"},{"geonameid":7290731,"name":"Crowle","admin3":"00FD015"},{"geonameid":7290732,"name":"Eastoft","admin3":"00FD019"},{"geonameid":7290733,"name":"Holme","admin3":"00FD029"},{"geonameid":7290734,"name":"Keadby with Althorpe","admin3":"00FD031"},{"geonameid":7290735,"name":"Kirton in Lindsey","admin3":"00FD033"},{"geonameid":7290736,"name":"Manton","admin3":"00FD035"},{"geonameid":7290737,"name":"North Killingholme","admin3":"00FD039"},{"geonameid":7290738,"name":"Redbourne","admin3":"00FD041"},{"geonameid":7290739,"name":"Saxby All Saints","admin3":"00FD043"},{"geonameid":7290740,"name":"Scawby","admin3":"00FD044"},{"geonameid":7290741,"name":"Winteringham","admin3":"00FD052"},{"geonameid":7290742,"name":"Winterton","admin3":"00FD053"},{"geonameid":7290743,"name":"Wootton","admin3":"00FD054"},{"geonameid":7290840,"name":"West Halton","admin3":"00FD050"},{"geonameid":7290841,"name":"Gunness","admin3":"00FD025"},{"geonameid":7295025,"name":"Wrawby","admin3":"00FD056"},{"geonameid":7295810,"name":"Worlaby","admin3":"00FD055"},{"geonameid":7296116,"name":"Alkborough","admin3":"00FD001"},{"geonameid":7296117,"name":"Barrow upon Humber","admin3":"00FD005"},{"geonameid":7296118,"name":"Burton upon Stather","admin3":"00FD013"},{"geonameid":7296119,"name":"Goxhill","admin3":"00FD024"},{"geonameid":7296120,"name":"Haxey","admin3":"00FD027"},{"geonameid":7296121,"name":"Horkstow","admin3":"00FD030"},{"geonameid":7296122,"name":"Luddington and Haldenby","admin3":"00FD034"},{"geonameid":7296123,"name":"Messingham","admin3":"00FD037"},{"geonameid":7296124,"name":"South Killingholme","admin3":"00FD046"},{"geonameid":7296125,"name":"Thornton Curtis","admin3":"00FD047"},{"geonameid":7296506,"name":"New Holland","admin3":"00FD038"},{"geonameid":7296511,"name":"Ashby Parkland","admin3":"00FD058"},{"geonameid":7296515,"name":"Barton-upon-Humber","admin3":"00FD006"},{"geonameid":7296929,"name":"South Ferriby","admin3":"00FD045"},{"geonameid":7296930,"name":"Whitton","admin3":"00FD051"},{"geonameid":7298235,"name":"Bonby","admin3":"00FD008"},{"geonameid":7298236,"name":"Brigg","admin3":"00FD010"},{"geonameid":7298237,"name":"Cadney","admin3":"00FD014"},{"geonameid":7298238,"name":"East Butterwick","admin3":"00FD017"},{"geonameid":7298239,"name":"Elsham","admin3":"00FD020"},{"geonameid":7298240,"name":"Epworth","admin3":"00FD021"},{"geonameid":7298241,"name":"Garthorpe and Fockerby","admin3":"00FD023"},{"geonameid":7298242,"name":"West Butterwick","admin3":"00FD049"},{"geonameid":7298243,"name":"Hibaldstow","admin3":"00FD028"},{"geonameid":7298244,"name":"Kirmington","admin3":"00FD032"},{"geonameid":7298245,"name":"Melton Ross","admin3":"00FD036"},{"geonameid":7298246,"name":"Owston Ferry","admin3":"00FD040"},{"geonameid":7298247,"name":"Roxby cum Risby","admin3":"00FD042"},{"geonameid":7298806,"name":"Amcotts","admin3":"00FD002"},{"geonameid":7298807,"name":"Appleby","admin3":"00FD003"},{"geonameid":7298808,"name":"Barnetby Le Wold","admin3":"00FD004"},{"geonameid":7298809,"name":"Burringham","admin3":"00FD012"},{"geonameid":7298810,"name":"Croxton","admin3":"00FD016"},{"geonameid":7298811,"name":"East Halton","admin3":"00FD018"},{"geonameid":7298812,"name":"Flixborough","admin3":"00FD022"},{"geonameid":7298813,"name":"Ulceby","admin3":"00FD048"},{"geonameid":7298814,"name":"Wroot","admin3":"00FD057"}],"alternateNames":[{"alternatenameId":7636461,"geonameid":3333176,"isoLanguage":"en","alternateName":"North Lincolnshire","isPreferredName":true,"isShortName":true,"isColloquial":false,"isHistoric":false},{"alternatenameId":1626647,"geonameid":6269131,"isoLanguage":"en","alternateName":"England","isPreferredName":true,"isShortName":true,"isColloquial":false,"isHistoric":false}]},"__N_SSG":true}