{"pageProps":{"locale":"en","admin2":{"geonameid":2641169,"name":"Nottinghamshire","country":"GB","admin1":"ENG","admin2":"J9","admin3":"","latitude":"53.1666700","longitude":"-1.0000000"},"admin1":{"geonameid":6269131,"name":"England","admin1":"ENG","localeAltName":"England"},"locations":[{"geonameid":2657285,"name":"Annesley","admin3":"37UB"},{"geonameid":11549425,"name":"Annesley Woodhouse","admin3":"37UB"},{"geonameid":2657030,"name":"Arnold","admin3":"37UE"},{"geonameid":2656904,"name":"Askham","admin3":"37UC"},{"geonameid":2656893,"name":"Aslockton","admin3":"37UJ"},{"geonameid":2656840,"name":"Attenborough","admin3":"37UD"},{"geonameid":2656731,"name":"Awsworth","admin3":"37UD"},{"geonameid":6697497,"name":"Babworth","admin3":"37UC"},{"geonameid":2656595,"name":"Balderton","admin3":"37UG"},{"geonameid":2656298,"name":"Barnby in the Willows","admin3":"37UG"},{"geonameid":2656297,"name":"Barnby Moor","admin3":"37UC"},{"geonameid":2656278,"name":"Barnstone","admin3":"37UJ"},{"geonameid":2656213,"name":"Barton in Fabis","admin3":"37UJ"},{"geonameid":2656196,"name":"Basford","admin3":""},{"geonameid":2656056,"name":"Beckingham","admin3":"37UC"},{"geonameid":2656014,"name":"Beeston","admin3":"37UD"},{"geonameid":2655809,"name":"Besthorpe","admin3":"37UG"},{"geonameid":11669838,"name":"Bestwood Village","admin3":"37UE"},{"geonameid":2655655,"name":"Bilsthorpe","admin3":"37UG"},{"geonameid":2655643,"name":"Bingham","admin3":"37UJ"},{"geonameid":2655624,"name":"Bircotes","admin3":"37UC"},{"geonameid":2655364,"name":"Bleasby","admin3":"37UG"},{"geonameid":2655346,"name":"Blidworth","admin3":"37UG"},{"geonameid":2655316,"name":"Blyth","admin3":"37UC"},{"geonameid":2655132,"name":"Bothamsall","admin3":"37UC"},{"geonameid":2655117,"name":"Boughton","admin3":"37UG"},{"geonameid":2654980,"name":"Bradmore","admin3":"37UJ"},{"geonameid":2654933,"name":"Bramcote","admin3":"37UD"},{"geonameid":2654680,"name":"Brinsley","admin3":"37UD"},{"geonameid":2654384,"name":"Budby","admin3":"37UG"},{"geonameid":2654324,"name":"Bunny","admin3":"37UJ"},{"geonameid":2654209,"name":"Burton Joyce","admin3":"37UE"},{"geonameid":2653960,"name":"Calverton","admin3":"37UE"},{"geonameid":2653827,"name":"Carburton","admin3":"37UC"},{"geonameid":2653768,"name":"Carlton","admin3":"37UE"},{"geonameid":11592600,"name":"Carlton in Lindrick","admin3":"37UC"},{"geonameid":2653758,"name":"Carlton on Trent","admin3":"37UG"},{"geonameid":2653484,"name":"Caunton","admin3":"37UG"},{"geonameid":2653151,"name":"Chilwell","admin3":"37UD"},{"geonameid":11776859,"name":"Church Warsop","admin3":"37UF"},{"geonameid":2652942,"name":"Clarborough","admin3":"37UC"},{"geonameid":2652897,"name":"Clayworth","admin3":"37UC"},{"geonameid":2652841,"name":"Clifton","admin3":""},{"geonameid":2652821,"name":"Clipstone","admin3":"37UG"},{"geonameid":2652661,"name":"Coddington","admin3":"37UG"},{"geonameid":2652527,"name":"Colston Bassett","admin3":"37UJ"},{"geonameid":2652515,"name":"Colwick","admin3":"37UE"},{"geonameid":2652292,"name":"Cossall","admin3":"37UD"},{"geonameid":2652288,"name":"Costock","admin3":"37UJ"},{"geonameid":2652282,"name":"Cotgrave","admin3":"37UJ"},{"geonameid":2652281,"name":"Cotham","admin3":"37UG"},{"geonameid":2652270,"name":"Cottam","admin3":"37UC"},{"geonameid":2651922,"name":"Cromwell","admin3":"37UG"},{"geonameid":2651896,"name":"Cropwell Bishop","admin3":"37UJ"},{"geonameid":2651895,"name":"Cropwell Butler","admin3":"37UJ"},{"geonameid":2651784,"name":"Cuckney","admin3":"37UC"},{"geonameid":2651512,"name":"Darlton","admin3":"37UC"},{"geonameid":2650571,"name":"Eakring","admin3":"37UG"},{"geonameid":2650495,"name":"East Bridgford","admin3":"37UJ"},{"geonameid":2650404,"name":"East Kirkby","admin3":"37UB"},{"geonameid":2650397,"name":"East Leake","admin3":"37UJ"},{"geonameid":2650379,"name":"East Markham","admin3":"37UC"},{"geonameid":2650333,"name":"East Stoke","admin3":"37UG"},{"geonameid":2650309,"name":"Eastwood","admin3":"37UD"},{"geonameid":2650221,"name":"Edingley","admin3":"37UG"},{"geonameid":2650203,"name":"Edwalton","admin3":"37UJ"},{"geonameid":2650200,"name":"Edwinstowe","admin3":"37UG"},{"geonameid":2650175,"name":"Egmanton","admin3":"37UG"},{"geonameid":2650113,"name":"Elkesley","admin3":"37UC"},{"geonameid":2650049,"name":"Elston","admin3":"37UG"},{"geonameid":2650038,"name":"Elton","admin3":"37UJ"},{"geonameid":11592729,"name":"Epperstone","admin3":"37UG"},{"geonameid":2649835,"name":"Everton","admin3":"37UC"},{"geonameid":2649666,"name":"Farndon","admin3":"37UG"},{"geonameid":2649652,"name":"Farnsfield","admin3":"37UG"},{"geonameid":2649361,"name":"Fiskerton","admin3":"37UG"},{"geonameid":2649323,"name":"Fledborough","admin3":"37UC"},{"geonameid":2649300,"name":"Flintham","admin3":"37UJ"},{"geonameid":2648895,"name":"Gamston","admin3":"37UC"},{"geonameid":2648738,"name":"Gedling","admin3":"37UE"},{"geonameid":11902894,"name":"Giltbrook","admin3":"37UD"},{"geonameid":2648265,"name":"Gotham","admin3":"37UJ"},{"geonameid":2648225,"name":"Granby","admin3":"37UJ"},{"geonameid":2648180,"name":"Greasley","admin3":"37UD"},{"geonameid":2647862,"name":"Gringley on the Hill","admin3":"37UC"},{"geonameid":2647836,"name":"Grove","admin3":"37UC"},{"geonameid":11592728,"name":"Gunthorpe","admin3":"37UG"},{"geonameid":11593290,"name":"Halam","admin3":"37UG"},{"geonameid":2647613,"name":"Halloughton","admin3":"37UG"},{"geonameid":8604586,"name":"Harby","admin3":"37UG"},{"geonameid":11863041,"name":"Hardwick Village","admin3":"37UC"},{"geonameid":2647384,"name":"Harwell","admin3":"37UC"},{"geonameid":2647377,"name":"Harworth","admin3":"37UC"},{"geonameid":2647283,"name":"Hawksworth","admin3":"37UJ"},{"geonameid":2647270,"name":"Hawton","admin3":"37UG"},{"geonameid":2647251,"name":"Hayton","admin3":"37UC"},{"geonameid":2647236,"name":"Headon","admin3":"37UC"},{"geonameid":2646817,"name":"Hockerton","admin3":"37UG"},{"geonameid":2646784,"name":"Holbeck","admin3":"37UC"},{"geonameid":2646730,"name":"Holme","admin3":"37UG"},{"geonameid":2646721,"name":"Holme Pierrepont","admin3":"37UJ"},{"geonameid":2646503,"name":"Hoveringham","admin3":"37UG"},{"geonameid":2646460,"name":"Hucknall","admin3":"37UB"},{"geonameid":2646459,"name":"Hucknall under Huthwaite","admin3":"37UB"},{"geonameid":2645870,"name":"Kelham","admin3":"37UG"},{"geonameid":2645767,"name":"Kersall","admin3":"37UG"},{"geonameid":11238357,"name":"Keyworth","admin3":"37UJ"},{"geonameid":2645543,"name":"Kilvington","admin3":"37UG"},{"geonameid":2645539,"name":"Kimberley","admin3":"37UD"},{"geonameid":11789071,"name":"King's Clipstone","admin3":"37UG"},{"geonameid":2645428,"name":"Kingston on Soar","admin3":"37UJ"},{"geonameid":2645368,"name":"Kinoulton","admin3":"37UJ"},{"geonameid":2645309,"name":"Kirkby in Ashfield","admin3":"37UB"},{"geonameid":2645252,"name":"Kirklington","admin3":"37UG"},{"geonameid":11592592,"name":"Kirton","admin3":"37UG"},{"geonameid":2645159,"name":"Kneesall","admin3":"37UG"},{"geonameid":2645158,"name":"Kneeton","admin3":"37UJ"},{"geonameid":2644996,"name":"Lambley","admin3":"37UE"},{"geonameid":2644959,"name":"Laneham","admin3":"37UC"},{"geonameid":2644955,"name":"Langar","admin3":"37UJ"},{"geonameid":2644774,"name":"Laxton","admin3":"37UG"},{"geonameid":2644490,"name":"Linby","admin3":"37UE"},{"geonameid":2644368,"name":"Littleborough","admin3":"37UC"},{"geonameid":2643554,"name":"Lound","admin3":"37UC"},{"geonameid":2643543,"name":"Lowdham","admin3":"37UG"},{"geonameid":2643097,"name":"Mansfield","admin3":"37UF"},{"geonameid":2643096,"name":"Mansfield Woodhouse","admin3":"37UF"},{"geonameid":2643022,"name":"Market Warsop","admin3":"37UF"},{"geonameid":6620450,"name":"Markham Moor","admin3":"37UC"},{"geonameid":2642906,"name":"Mattersey","admin3":"37UC"},{"geonameid":11776858,"name":"Meden Vale","admin3":"37UF"},{"geonameid":2642419,"name":"Misson","admin3":"37UC"},{"geonameid":2642417,"name":"Misterton","admin3":"37UC"},{"geonameid":2642164,"name":"Morton","admin3":"37UC"},{"geonameid":2641731,"name":"Newark on Trent","admin3":"37UG"},{"geonameid":2641568,"name":"Newstead","admin3":"37UE"},{"geonameid":11593554,"name":"Newton","admin3":"37UJ"},{"geonameid":11593349,"name":"Normanton on Soar","admin3":"37UJ"},{"geonameid":2641441,"name":"Normanton on the Wolds","admin3":"37UJ"},{"geonameid":2641440,"name":"Normanton on Trent","admin3":"37UC"},{"geonameid":2641438,"name":"Normanton upon Soar","admin3":"37UJ"},{"geonameid":2641392,"name":"North Clifton","admin3":"37UG"},{"geonameid":2641389,"name":"North Collingham","admin3":"37UG"},{"geonameid":2641314,"name":"North Leverton","admin3":"37UC"},{"geonameid":2641298,"name":"North Muskham","admin3":"37UG"},{"geonameid":2641225,"name":"North Wheatley","admin3":"37UC"},{"geonameid":2641200,"name":"Norton","admin3":"37UC"},{"geonameid":2641182,"name":"Norwell","admin3":"37UG"},{"geonameid":11902865,"name":"Nuthall","admin3":"37UD"},{"geonameid":2640976,"name":"Ollerton","admin3":"37UG"},{"geonameid":2640965,"name":"Ompton","admin3":"37UG"},{"geonameid":6697496,"name":"Ordsall","admin3":"37UC"},{"geonameid":2640889,"name":"Orston","admin3":"37UJ"},{"geonameid":2640866,"name":"Ossington","admin3":"37UG"},{"geonameid":2640716,"name":"Oxton","admin3":"37UG"},{"geonameid":2640625,"name":"Papplewick","admin3":"37UE"},{"geonameid":2640197,"name":"Plumtree","admin3":"37UJ"},{"geonameid":2639727,"name":"Radcliffe on Trent","admin3":"37UJ"},{"geonameid":2639687,"name":"Rainworth","admin3":"37UG"},{"geonameid":2639670,"name":"Rampton","admin3":"37UC"},{"geonameid":2639654,"name":"Ranby","admin3":"37UC"},{"geonameid":2639638,"name":"Ranskill","admin3":"37UC"},{"geonameid":2639626,"name":"Ratcliffe on Soar","admin3":"37UJ"},{"geonameid":11153048,"name":"Ravenshead","admin3":"37UE"},{"geonameid":6695041,"name":"Redhill","admin3":"37UE"},{"geonameid":2639498,"name":"Rempstone","admin3":"37UJ"},{"geonameid":2650346,"name":"Retford","admin3":"37UC"},{"geonameid":2639204,"name":"Rolleston","admin3":"37UG"},{"geonameid":2638995,"name":"Ruddington","admin3":"37UJ"},{"geonameid":2638491,"name":"Saundby","admin3":"37UC"},{"geonameid":2638463,"name":"Saxondale","admin3":"37UJ"},{"geonameid":2638453,"name":"Scaftworth","admin3":"37UC"},{"geonameid":2638403,"name":"Scarrington","admin3":"37UJ"},{"geonameid":2638381,"name":"Scofton","admin3":"37UC"},{"geonameid":2638329,"name":"Scrooby","admin3":"37UC"},{"geonameid":2638215,"name":"Selston","admin3":"37UB"},{"geonameid":2638068,"name":"Shelford","admin3":"37UJ"},{"geonameid":2638055,"name":"Shelton","admin3":"37UJ"},{"geonameid":2637938,"name":"Shireoaks","admin3":"37UC"},{"geonameid":2637765,"name":"Skegby","admin3":"37UB"},{"geonameid":2637521,"name":"Sookholme","admin3":"37UF"},{"geonameid":2637453,"name":"South Clifton","admin3":"37UG"},{"geonameid":2637450,"name":"South Collingham","admin3":"37UG"},{"geonameid":2637383,"name":"South Leverton","admin3":"37UC"},{"geonameid":2637368,"name":"South Muskham","admin3":"37UG"},{"geonameid":2637333,"name":"South Scarle","admin3":"37UG"},{"geonameid":2637292,"name":"South Wheatley","admin3":"37UC"},{"geonameid":2637296,"name":"Southwell","admin3":"37UG"},{"geonameid":2637085,"name":"Stanford on Soar","admin3":"37UJ"},{"geonameid":2637022,"name":"Stapleford","admin3":"37UD"},{"geonameid":2636998,"name":"Staunton in the Vale","admin3":"37UG"},{"geonameid":2636984,"name":"Staythorpe","admin3":"37UG"},{"geonameid":2636851,"name":"Stokeham","admin3":"37UC"},{"geonameid":2636580,"name":"Sturton le Steeple","admin3":"37UC"},{"geonameid":2636576,"name":"Styrrup","admin3":"37UC"},{"geonameid":2636488,"name":"Sutton Bonington","admin3":"37UJ"},{"geonameid":2636484,"name":"Sutton in Ashfield","admin3":"37UB"},{"geonameid":2636474,"name":"Sutton on Trent","admin3":"37UG"},{"geonameid":2636494,"name":"Sutton-cum-Lound","admin3":"37UC"},{"geonameid":2636077,"name":"Teversal","admin3":"37UB"},{"geonameid":2635993,"name":"Thorney","admin3":"37UG"},{"geonameid":11776856,"name":"Thorneywood","admin3":"37UE"},{"geonameid":2635956,"name":"Thoroton","admin3":"37UJ"},{"geonameid":2635898,"name":"Thurgarton","admin3":"37UG"},{"geonameid":2635768,"name":"Tithby","admin3":"37UJ"},{"geonameid":2635722,"name":"Tollerton","admin3":"37UJ"},{"geonameid":2635620,"name":"Torworth","admin3":"37UC"},{"geonameid":2635609,"name":"Toton","admin3":"37UD"},{"geonameid":2635484,"name":"Treswell","admin3":"37UC"},{"geonameid":2635426,"name":"Trowell","admin3":"37UD"},{"geonameid":2635321,"name":"Tuxford","admin3":"37UC"},{"geonameid":2635141,"name":"Upper Broughton","admin3":"37UJ"},{"geonameid":2635093,"name":"Upton","admin3":"37UG"},{"geonameid":2634893,"name":"Walesby","admin3":"37UG"},{"geonameid":2634883,"name":"Walkeringham","admin3":"37UC"},{"geonameid":2634736,"name":"Warsop","admin3":"37UF"},{"geonameid":11902831,"name":"Watnall","admin3":"37UD"},{"geonameid":2634570,"name":"Wellow","admin3":"37UG"},{"geonameid":2634493,"name":"West Bridgford","admin3":"37UJ"},{"geonameid":2634450,"name":"West Drayton","admin3":"37UC"},{"geonameid":2634367,"name":"West Leake","admin3":"37UJ"},{"geonameid":2634265,"name":"West Stockwith","admin3":"37UC"},{"geonameid":2634321,"name":"Weston","admin3":"37UG"},{"geonameid":2634175,"name":"Whatton","admin3":"37UJ"},{"geonameid":2633955,"name":"Widmerpool","admin3":"37UJ"},{"geonameid":2633891,"name":"Willoughby on the Wolds","admin3":"37UJ"},{"geonameid":2633781,"name":"Winthorpe","admin3":"37UG"},{"geonameid":2633672,"name":"Woodborough","admin3":"37UE"},{"geonameid":7910261,"name":"Woodthorpe","admin3":"37UE"},{"geonameid":2633551,"name":"Worksop","admin3":"37UC"},{"geonameid":2633435,"name":"Wysall","admin3":"37UJ"}],"admin3":[{"geonameid":7290613,"name":"Ashfield District","admin3":"37UB"},{"geonameid":7290614,"name":"Bassetlaw District","admin3":"37UC"},{"geonameid":7290615,"name":"Broxtowe District","admin3":"37UD"},{"geonameid":7290616,"name":"Gedling District","admin3":"37UE"},{"geonameid":7290617,"name":"Mansfield District","admin3":"37UF"},{"geonameid":7290618,"name":"Newark and Sherwood District","admin3":"37UG"},{"geonameid":7290619,"name":"Rushcliffe District","admin3":"37UJ"}],"alternateNames":[{"alternatenameId":1626647,"geonameid":6269131,"isoLanguage":"en","alternateName":"England","isPreferredName":true,"isShortName":true,"isColloquial":false,"isHistoric":false}]},"__N_SSG":true}