{"pageProps":{"locale":"en","admin2":{"geonameid":3333183,"name":"Portsmouth","country":"GB","admin1":"ENG","admin2":"K6","admin3":"","latitude":"50.8000000","longitude":"-1.0666700","localeAltName":"Portsmouth"},"admin1":{"geonameid":6269131,"name":"England","admin1":"ENG","localeAltName":"England"},"locations":[{"geonameid":6458599,"name":"Baffins","admin3":"00MR001"},{"geonameid":6458600,"name":"Buckland","admin3":""},{"geonameid":6458601,"name":"Copnor","admin3":"00MR001"},{"geonameid":2652294,"name":"Cosham","admin3":""},{"geonameid":6458610,"name":"Drayton","admin3":""},{"geonameid":2650372,"name":"Eastney","admin3":""},{"geonameid":6458611,"name":"Farlington","admin3":""},{"geonameid":6458602,"name":"Fratton","admin3":"00MR001"},{"geonameid":2646878,"name":"Hilsea","admin3":""},{"geonameid":6458603,"name":"Kingston","admin3":""},{"geonameid":6458604,"name":"Landport","admin3":""},{"geonameid":6458598,"name":"Milton","admin3":""},{"geonameid":6458605,"name":"North End","admin3":""},{"geonameid":6458606,"name":"Old Portsmouth","admin3":"00MR001"},{"geonameid":6458612,"name":"Paulsgrove","admin3":""},{"geonameid":6458607,"name":"Portsea","admin3":"00MR001"},{"geonameid":2639996,"name":"Portsmouth","admin3":""},{"geonameid":2637330,"name":"Southsea","admin3":"00MR001"},{"geonameid":6458608,"name":"Stamshaw","admin3":""},{"geonameid":6458609,"name":"Tipner","admin3":"24UE"},{"geonameid":6458613,"name":"Wymering","admin3":"24UP"}],"admin3":[{"geonameid":7294421,"name":"Southsea","admin3":"00MR001"}],"alternateNames":[{"alternatenameId":8666513,"geonameid":3333183,"isoLanguage":"en","alternateName":"Portsmouth","isPreferredName":true,"isShortName":true,"isColloquial":false,"isHistoric":false},{"alternatenameId":1626647,"geonameid":6269131,"isoLanguage":"en","alternateName":"England","isPreferredName":true,"isShortName":true,"isColloquial":false,"isHistoric":false}]},"__N_SSG":true}