{"pageProps":{"locale":"en","admin2":{"geonameid":3333197,"name":"Southend-on-Sea","country":"GB","admin1":"ENG","admin2":"M5","admin3":"","latitude":"51.5333300","longitude":"0.7000000","localeAltName":"Southend-on-Sea"},"admin1":{"geonameid":6269131,"name":"England","admin1":"ENG","localeAltName":"England"},"locations":[{"geonameid":7116547,"name":"Chalkwell","admin3":""},{"geonameid":2644658,"name":"Leigh-on-Sea","admin3":"00KF001"},{"geonameid":7116544,"name":"Prittlewell","admin3":"22UL"},{"geonameid":2637926,"name":"Shoeburyness","admin3":""},{"geonameid":6696635,"name":"Southchurch Village","admin3":""},{"geonameid":2637433,"name":"Southend-on-Sea","admin3":""},{"geonameid":7116545,"name":"Thorpe Bay","admin3":""},{"geonameid":6620308,"name":"Westcliff-on-Sea","admin3":"22UE"}],"admin3":[{"geonameid":7292447,"name":"Leigh-on-Sea","admin3":"00KF001"}],"alternateNames":[{"alternatenameId":8666524,"geonameid":3333197,"isoLanguage":"en","alternateName":"Southend-on-Sea","isPreferredName":true,"isShortName":true,"isColloquial":false,"isHistoric":false},{"alternatenameId":1626647,"geonameid":6269131,"isoLanguage":"en","alternateName":"England","isPreferredName":true,"isShortName":true,"isColloquial":false,"isHistoric":false}]},"__N_SSG":true}