{"pageProps":{"locale":"en","admin2":{"geonameid":3333204,"name":"Stoke-on-Trent","country":"GB","admin1":"ENG","admin2":"N4","admin3":"","latitude":"53.0000000","longitude":"-2.1666700","localeAltName":"Stoke-on-Trent"},"admin1":{"geonameid":6269131,"name":"England","admin1":"ENG","localeAltName":"England"},"locations":[{"geonameid":2654225,"name":"Burslem","admin3":"41UE"},{"geonameid":8063571,"name":"Cobridge","admin3":""},{"geonameid":2649872,"name":"Etruria","admin3":"41UE"},{"geonameid":2649548,"name":"Fenton","admin3":""},{"geonameid":2647525,"name":"Hanley","admin3":"41UE"},{"geonameid":2643648,"name":"Longport","admin3":"41UE"},{"geonameid":2643620,"name":"Longton","admin3":""},{"geonameid":8063572,"name":"Middleport","admin3":""},{"geonameid":6947742,"name":"Sideway","admin3":"41UE"},{"geonameid":2636841,"name":"Stoke-on-Trent","admin3":""},{"geonameid":2635497,"name":"Trent Vale","admin3":"41UE"},{"geonameid":2635500,"name":"Trentham","admin3":"41UG"}],"admin3":[],"alternateNames":[{"alternatenameId":8666529,"geonameid":3333204,"isoLanguage":"en","alternateName":"Stoke-on-Trent","isPreferredName":true,"isShortName":true,"isColloquial":false,"isHistoric":false},{"alternatenameId":1626647,"geonameid":6269131,"isoLanguage":"en","alternateName":"England","isPreferredName":true,"isShortName":true,"isColloquial":false,"isHistoric":false}]},"__N_SSG":true}