{"pageProps":{"locale":"en","admin2":{"geonameid":3333213,"name":"Walsall","country":"GB","admin1":"ENG","admin2":"O8","admin3":"","latitude":"52.5833300","longitude":"-2.0000000","localeAltName":"Walsall"},"admin1":{"geonameid":6269131,"name":"England","admin1":"ENG","localeAltName":"England"},"locations":[{"geonameid":2657528,"name":"Aldridge","admin3":"41UD"},{"geonameid":2655815,"name":"Bescot","admin3":"41UF"},{"geonameid":8063656,"name":"Birchills","admin3":""},{"geonameid":2655329,"name":"Bloxwich","admin3":"41UF"},{"geonameid":2654490,"name":"Brownhills","admin3":""},{"geonameid":2651518,"name":"Darlaston","admin3":""},{"geonameid":8063655,"name":"Leamore","admin3":""},{"geonameid":11551131,"name":"New Invention","admin3":""},{"geonameid":2640512,"name":"Pelsall","admin3":"41UB"},{"geonameid":2638950,"name":"Rushall","admin3":""},{"geonameid":2636670,"name":"Streetly","admin3":""},{"geonameid":2635106,"name":"Upper Stonnall","admin3":""},{"geonameid":2634853,"name":"Walsall","admin3":"41UF"},{"geonameid":2634852,"name":"Walsall Wood","admin3":"41UD"},{"geonameid":2633912,"name":"Willenhall","admin3":""}],"admin3":[],"alternateNames":[{"alternatenameId":8666536,"geonameid":3333213,"isoLanguage":"en","alternateName":"Walsall","isPreferredName":true,"isShortName":true,"isColloquial":false,"isHistoric":false},{"alternatenameId":1626647,"geonameid":6269131,"isoLanguage":"en","alternateName":"England","isPreferredName":true,"isShortName":true,"isColloquial":false,"isHistoric":false}]},"__N_SSG":true}