{"pageProps":{"locale":"en","admin2":{"geonameid":3333222,"name":"Wolverhampton","country":"GB","admin1":"ENG","admin2":"Q3","admin3":"","latitude":"52.5833300","longitude":"-2.1166700","localeAltName":"Wolverhampton"},"admin1":{"geonameid":6269131,"name":"England","admin1":"ENG","localeAltName":"England"},"locations":[{"geonameid":2655654,"name":"Bilston","admin3":""},{"geonameid":11551132,"name":"Blakenhall","admin3":""},{"geonameid":11551140,"name":"Bradmore","admin3":""},{"geonameid":2654181,"name":"Bushbury","admin3":"41UF"},{"geonameid":2649720,"name":"Fallings Park","admin3":"41UF"},{"geonameid":7281600,"name":"Merry Hill","admin3":""},{"geonameid":2642314,"name":"Monmore Green","admin3":"41UF"},{"geonameid":10104127,"name":"Moseley","admin3":""},{"geonameid":10104132,"name":"New Cross","admin3":""},{"geonameid":10104129,"name":"Portobello","admin3":""},{"geonameid":2636078,"name":"Tettenhall","admin3":""},{"geonameid":2634616,"name":"Wednesfield","admin3":""},{"geonameid":2633691,"name":"Wolverhampton","admin3":"41UF"}],"admin3":[],"alternateNames":[{"alternatenameId":8666541,"geonameid":3333222,"isoLanguage":"en","alternateName":"Wolverhampton","isPreferredName":true,"isShortName":true,"isColloquial":false,"isHistoric":false},{"alternatenameId":1626647,"geonameid":6269131,"isoLanguage":"en","alternateName":"England","isPreferredName":true,"isShortName":true,"isColloquial":false,"isHistoric":false}]},"__N_SSG":true}