{"pageProps":{"locale":"ro","admin2":{"geonameid":665016,"name":"Oraş Târgu Cãrbuneşti","country":"RO","admin1":"19","admin2":"78329","admin3":"","latitude":"44.9655000","longitude":"23.4956700"},"admin1":{"geonameid":676898,"name":"Gorj","admin1":"19"},"locations":[{"geonameid":684614,"name":"Blahnița de Jos"},{"geonameid":682693,"name":"Cărbunești-Sat"},{"geonameid":682395,"name":"Cerătu"},{"geonameid":681680,"name":"Cionteşti"},{"geonameid":681154,"name":"Cojani"},{"geonameid":681020,"name":"Comăneşti"},{"geonameid":680275,"name":"Crețești"},{"geonameid":679906,"name":"Curteana"},{"geonameid":678599,"name":"Duţeşti"},{"geonameid":678068,"name":"Floreșteni"},{"geonameid":674239,"name":"Măceșu"},{"geonameid":669973,"name":"Pojogeni"},{"geonameid":668758,"name":"Rogojeni"},{"geonameid":668500,"name":"Rugi"},{"geonameid":666234,"name":"Ștefănești"},{"geonameid":665017,"name":"Târgu Cărbuneşti"},{"geonameid":664485,"name":"Tupşani"},{"geonameid":664251,"name":"Ungurelu"}],"admin3":[],"alternateNames":[]},"__N_SSG":true}