{"pageProps":{"locale":"en","admin2":{"geonameid":11353073,"name":"Derry City and Strabane","country":"GB","admin1":"NIR","admin2":"N09000005","admin3":"","latitude":"54.8204500","longitude":"-7.3595800","localeAltName":null},"admin1":{"geonameid":2641364,"name":"Northern Ireland","admin1":"NIR","localeAltName":null},"locations":[{"geonameid":2657424,"name":"Altamullan","admin3":"","localeAltName":null},{"geonameid":2657115,"name":"Ardstraw","admin3":"","localeAltName":null},{"geonameid":2657004,"name":"Artigarvan","admin3":"","localeAltName":null},{"geonameid":2656516,"name":"Ballyetragh","admin3":"","localeAltName":null},{"geonameid":2656493,"name":"Ballymagorry","admin3":"","localeAltName":null},{"geonameid":2656484,"name":"Ballynagard","admin3":"","localeAltName":null},{"geonameid":2656481,"name":"Ballynamallaght","admin3":"","localeAltName":null},{"geonameid":2656477,"name":"Ballyneaner","admin3":"","localeAltName":null},{"geonameid":2656088,"name":"Bearney","admin3":"","localeAltName":null},{"geonameid":2655951,"name":"Bellway","admin3":"","localeAltName":null},{"geonameid":11836784,"name":"Bogside","admin3":"","localeAltName":null},{"geonameid":2655204,"name":"Boom Hall","admin3":"","localeAltName":null},{"geonameid":8063579,"name":"Bready","admin3":"","localeAltName":null},{"geonameid":2654157,"name":"Butterlope","admin3":"","localeAltName":null},{"geonameid":2653992,"name":"Callaghanstown","admin3":"","localeAltName":null},{"geonameid":2653594,"name":"Castlederg","admin3":"","localeAltName":null},{"geonameid":2652970,"name":"Clady","admin3":"","localeAltName":null},{"geonameid":2652924,"name":"Claudy","admin3":"","localeAltName":null},{"geonameid":2652791,"name":"Clooney Park","admin3":"","localeAltName":null},{"geonameid":2652091,"name":"Cranagh","admin3":"","localeAltName":null},{"geonameid":2652019,"name":"Creggan","admin3":"","localeAltName":null},{"geonameid":2652003,"name":"Crew","admin3":"","localeAltName":null},{"geonameid":2651999,"name":"Crew Lower","admin3":"","localeAltName":null},{"geonameid":2651998,"name":"Crew Upper","admin3":"","localeAltName":null},{"geonameid":2651747,"name":"Cullion","admin3":"","localeAltName":null},{"geonameid":2651732,"name":"Culmore","admin3":"","localeAltName":null},{"geonameid":2643736,"name":"Derry","admin3":"","localeAltName":"Londonderry"},{"geonameid":2651071,"name":"Douglas Bridge","admin3":"","localeAltName":null},{"geonameid":2650997,"name":"Dreen","admin3":"","localeAltName":null},{"geonameid":2650957,"name":"Drumahoe","admin3":"","localeAltName":null},{"geonameid":2650694,"name":"Dunnamanagh","admin3":"","localeAltName":null},{"geonameid":2650198,"name":"Edymore","admin3":"","localeAltName":null},{"geonameid":2650184,"name":"Eglinton","admin3":"","localeAltName":null},{"geonameid":2649614,"name":"Fawney","admin3":"","localeAltName":null},{"geonameid":2649109,"name":"Foyle Hill","admin3":"","localeAltName":null},{"geonameid":2648441,"name":"Glenroan","admin3":"","localeAltName":null},{"geonameid":2648281,"name":"Gortnessy","admin3":"","localeAltName":null},{"geonameid":2645654,"name":"Killaloo","admin3":"","localeAltName":null},{"geonameid":2645642,"name":"Killen","admin3":"","localeAltName":null},{"geonameid":2645640,"name":"Killeter","admin3":"","localeAltName":null},{"geonameid":2643734,"name":"Londonderry County Borough","admin3":"","localeAltName":null},{"geonameid":2643210,"name":"Magheracreggan","admin3":"","localeAltName":null},{"geonameid":8063578,"name":"Magheramason","admin3":"","localeAltName":null},{"geonameid":2642106,"name":"Mount Hamilton","admin3":"","localeAltName":null},{"geonameid":2642091,"name":"Mourne Beg","admin3":"","localeAltName":null},{"geonameid":2642067,"name":"Moyle","admin3":"","localeAltName":null},{"geonameid":2641973,"name":"Mulvin","admin3":"","localeAltName":null},{"geonameid":2641693,"name":"New Buildings","admin3":"","localeAltName":null},{"geonameid":2641511,"name":"Newtownstewart","admin3":"","localeAltName":null},{"geonameid":2640209,"name":"Plumb Bridge","admin3":"","localeAltName":null},{"geonameid":2639855,"name":"Pullyernan","admin3":"","localeAltName":null},{"geonameid":2637809,"name":"Sion Mills","admin3":"","localeAltName":null},{"geonameid":2636744,"name":"Strabane","admin3":"","localeAltName":null},{"geonameid":2636726,"name":"Stranagalwilly","admin3":"","localeAltName":null},{"geonameid":2636115,"name":"Templemoyle","admin3":"","localeAltName":null},{"geonameid":2639261,"name":"The Rock","admin3":"","localeAltName":null},{"geonameid":2635374,"name":"Tullyardan","admin3":"","localeAltName":null},{"geonameid":6954256,"name":"Victoria Bridge","admin3":"","localeAltName":null}],"admin3":[],"alternateNames":[{"alternatenameId":2426166,"geonameid":2643736,"isoLanguage":"en","alternateName":"Londonderry","isPreferredName":true,"isShortName":true,"isColloquial":false,"isHistoric":false}]},"__N_SSG":true}