{"pageProps":{"locale":"en","admin2":{"geonameid":4917487,"name":"Adams County","country":"US","admin1":"IN","admin2":"001","admin3":"","latitude":"40.7456600","longitude":"-84.9366500"},"admin1":{"geonameid":4921868,"name":"Indiana","admin1":"IN","localeAltName":"Indiana"},"locations":[{"geonameid":4918006,"name":"Berne","admin3":"50220"},{"geonameid":4919564,"name":"Decatur","admin3":"80324"},{"geonameid":4920664,"name":"Geneva","admin3":"79262"}],"admin3":[{"geonameid":4918219,"name":"Township of Blue Creek","admin3":"05914"},{"geonameid":4920519,"name":"Township of French","admin3":"25900"},{"geonameid":4921230,"name":"Township of Hartford","admin3":"32206"},{"geonameid":4922039,"name":"Township of Jefferson","admin3":"37818"},{"geonameid":4922344,"name":"Township of Kirkland","admin3":"39924"},{"geonameid":4923725,"name":"Township of Monroe","admin3":"50220"},{"geonameid":4925112,"name":"Township of Preble","admin3":"61884"},{"geonameid":4925578,"name":"Township of Root","admin3":"65862"},{"geonameid":4925949,"name":"Township of Saint Marys","admin3":"67068"},{"geonameid":4927464,"name":"Township of Union","admin3":"77120"},{"geonameid":4927756,"name":"Township of Wabash","admin3":"79262"},{"geonameid":4927898,"name":"Township of Washington","admin3":"80324"}],"alternateNames":[{"alternatenameId":2124819,"geonameid":4921868,"isoLanguage":"en","alternateName":"Indiana","isPreferredName":true,"isShortName":true,"isColloquial":false,"isHistoric":false}]},"__N_SSG":true}