{"pageProps":{"locale":"en","admin2":{"geonameid":4923517,"name":"Miami County","country":"US","admin1":"IN","admin2":"103","admin3":"","latitude":"40.7695000","longitude":"-86.0450200"},"admin1":{"geonameid":4921868,"name":"Indiana","admin1":"IN","localeAltName":"Indiana"},"locations":[{"geonameid":4919272,"name":"Converse","admin3":"37206"},{"geonameid":7259295,"name":"Grissom Air Force Base","admin3":"60174"},{"geonameid":4924733,"name":"Peru","admin3":""}],"admin3":[{"geonameid":4917561,"name":"Township of Allen","admin3":"01018"},{"geonameid":4918600,"name":"Township of Butler","admin3":"09586"},{"geonameid":4919075,"name":"Township of Clay","admin3":"13150"},{"geonameid":4919596,"name":"Township of Deer Creek","admin3":"17272"},{"geonameid":4920099,"name":"Township of Erie","admin3":"21412"},{"geonameid":4921211,"name":"Township of Harrison","admin3":"31918"},{"geonameid":4921961,"name":"Township of Jackson","admin3":"37206"},{"geonameid":4922049,"name":"Township of Jefferson","admin3":"38070"},{"geonameid":4924724,"name":"Township of Perry","admin3":"59094"},{"geonameid":4924736,"name":"Township of Peru","admin3":"59346"},{"geonameid":4924845,"name":"Township of Pipe Creek","admin3":"60174"},{"geonameid":4925374,"name":"Township of Richland","admin3":"64134"},{"geonameid":4927478,"name":"Township of Union","admin3":"77462"},{"geonameid":4927911,"name":"Township of Washington","admin3":"80810"}],"alternateNames":[{"alternatenameId":2124819,"geonameid":4921868,"isoLanguage":"en","alternateName":"Indiana","isPreferredName":true,"isShortName":true,"isColloquial":false,"isHistoric":false}]},"__N_SSG":true}