{"pageProps":{"locale":"en","admin2":{"geonameid":4263732,"name":"Ripley County","country":"US","admin1":"IN","admin2":"137","admin3":"","latitude":"39.1034500","longitude":"-85.2623900"},"admin1":{"geonameid":4921868,"name":"Indiana","admin1":"IN","localeAltName":"Indiana"},"locations":[{"geonameid":4254185,"name":"Batesville","admin3":"42336"},{"geonameid":4261361,"name":"Milan","admin3":"25612"},{"geonameid":4262640,"name":"Osgood","admin3":"11602"},{"geonameid":4265554,"name":"Sunman","admin3":"00478"},{"geonameid":4266266,"name":"Versailles","admin3":"38754"}],"admin3":[{"geonameid":4253747,"name":"Township of Adams","admin3":"00478"},{"geonameid":4255048,"name":"Township of Brown","admin3":"08362"},{"geonameid":4255618,"name":"Township of Center","admin3":"11602"},{"geonameid":4256563,"name":"Township of Delaware","admin3":"17524"},{"geonameid":4257721,"name":"Township of Franklin","admin3":"25612"},{"geonameid":4259605,"name":"Township of Jackson","admin3":"37368"},{"geonameid":4259742,"name":"Township of Johnson","admin3":"38754"},{"geonameid":4260195,"name":"Township of Laughery","admin3":"42336"},{"geonameid":4262657,"name":"Township of Otter Creek","admin3":"57276"},{"geonameid":4264686,"name":"Township of Shelby","admin3":"69264"},{"geonameid":4266628,"name":"Township of Washington","admin3":"81008"}],"alternateNames":[{"alternatenameId":2124819,"geonameid":4921868,"isoLanguage":"en","alternateName":"Indiana","isPreferredName":true,"isShortName":true,"isColloquial":false,"isHistoric":false}]},"__N_SSG":true}