{"pageProps":{"locale":"en","admin2":{"geonameid":4266295,"name":"Vigo County","country":"US","admin1":"IN","admin2":"167","admin3":"","latitude":"39.4306400","longitude":"-87.3899600"},"admin1":{"geonameid":4921868,"name":"Indiana","admin1":"IN","localeAltName":"Indiana"},"locations":[{"geonameid":4262311,"name":"North Terre Haute","admin3":"57294"},{"geonameid":4264592,"name":"Seelyville","admin3":"45018"},{"geonameid":4265737,"name":"Terre Haute","admin3":"32026"},{"geonameid":4266844,"name":"West Terre Haute","admin3":"73970"}],"admin3":[{"geonameid":4257391,"name":"Township of Fayette","admin3":"22882"},{"geonameid":4258618,"name":"Township of Harrison","admin3":"32026"},{"geonameid":4259088,"name":"Township of Honey Creek","admin3":"34546"},{"geonameid":4260454,"name":"Township of Linton","admin3":"44208"},{"geonameid":4260731,"name":"Township of Lost Creek","admin3":"45018"},{"geonameid":4262044,"name":"Township of Nevins","admin3":"52308"},{"geonameid":4262658,"name":"Township of Otter Creek","admin3":"57294"},{"geonameid":4263012,"name":"Township of Pierson","admin3":"59652"},{"geonameid":4263364,"name":"Township of Prairie Creek","admin3":"61704"},{"geonameid":4263366,"name":"Township of Prairieton","admin3":"61776"},{"geonameid":4263723,"name":"Township of Riley","admin3":"64530"},{"geonameid":4265481,"name":"Township of Sugar Creek","admin3":"73970"}],"alternateNames":[{"alternatenameId":2124819,"geonameid":4921868,"isoLanguage":"en","alternateName":"Indiana","isPreferredName":true,"isShortName":true,"isColloquial":false,"isHistoric":false}]},"__N_SSG":true}