{"pageProps":{"locale":"en","admin2":{"geonameid":3333128,"name":"Borough of Bolton","country":"GB","admin1":"ENG","admin2":"B1","admin3":"","latitude":"53.5833300","longitude":"-2.5000000","localeAltName":"Bolton"},"admin1":{"geonameid":6269131,"name":"England","admin1":"ENG","localeAltName":"England"},"locations":[{"geonameid":2655454,"name":"Blackrod"},{"geonameid":2655237,"name":"Bolton"},{"geonameid":2654977,"name":"Bradshaw"},{"geonameid":2654587,"name":"Bromley Cross"},{"geonameid":2653255,"name":"Chequerbent"},{"geonameid":2651524,"name":"Darcy Lever"},{"geonameid":2649650,"name":"Farnworth"},{"geonameid":2647380,"name":"Harwood"},{"geonameid":2646542,"name":"Horwich"},{"geonameid":2645911,"name":"Kearsley"},{"geonameid":2644299,"name":"Little Lever"},{"geonameid":6693027,"name":"Lostock"},{"geonameid":2639344,"name":"Ringley"},{"geonameid":2634387,"name":"Westhoughton"}],"admin3":[{"geonameid":7292854,"name":"Blackrod","admin3":"00BL001"},{"geonameid":7299757,"name":"Horwich","admin3":"00BL002"},{"geonameid":7300546,"name":"Westhoughton","admin3":"00BL003"}],"alternateNames":[{"alternatenameId":8666546,"geonameid":3333128,"isoLanguage":"en","alternateName":"Bolton","isPreferredName":true,"isShortName":true,"isColloquial":false,"isHistoric":false},{"alternatenameId":1626647,"geonameid":6269131,"isoLanguage":"en","alternateName":"England","isPreferredName":true,"isShortName":true,"isColloquial":false,"isHistoric":false}]},"__N_SSG":true}