{"pageProps":{"locale":"en","admin2":{"geonameid":4938741,"name":"Hampden County","country":"US","admin1":"MA","admin2":"013","admin3":"","latitude":"42.1351100","longitude":"-72.6316200","localeAltName":null},"admin1":{"geonameid":6254926,"name":"Massachusetts","admin1":"MA","localeAltName":"Massachusetts"},"locations":[{"geonameid":4928788,"name":"Agawam","admin3":"00840","localeAltName":null},{"geonameid":4930921,"name":"Bondsville","admin3":"52144","localeAltName":null},{"geonameid":4931363,"name":"Brimfield","admin3":"08470","localeAltName":null},{"geonameid":4932929,"name":"Chester","admin3":"13485","localeAltName":null},{"geonameid":4933002,"name":"Chicopee","admin3":"13660","localeAltName":null},{"geonameid":4935434,"name":"East Longmeadow","admin3":"19645","localeAltName":null},{"geonameid":4938092,"name":"Granville","admin3":"26675","localeAltName":null},{"geonameid":4938738,"name":"Hampden","admin3":"28075","localeAltName":null},{"geonameid":4939671,"name":"Holland","admin3":"30665","localeAltName":null},{"geonameid":4939783,"name":"Holyoke","admin3":"30840","localeAltName":null},{"geonameid":4942508,"name":"Longmeadow","admin3":"36300","localeAltName":null},{"geonameid":4942744,"name":"Ludlow","admin3":"37175","localeAltName":null},{"geonameid":4944350,"name":"Monson","admin3":"42145","localeAltName":null},{"geonameid":7257719,"name":"Monson Center","admin3":"42145","localeAltName":null},{"geonameid":4944392,"name":"Montgomery","admin3":"42530","localeAltName":null},{"geonameid":4945588,"name":"North Chicopee","admin3":"13660","localeAltName":null},{"geonameid":4946620,"name":"Palmer","admin3":"52144","localeAltName":null},{"geonameid":4949204,"name":"Russell","admin3":"58650","localeAltName":null},{"geonameid":4951640,"name":"Southwick","admin3":"65825","localeAltName":null},{"geonameid":4951788,"name":"Springfield","admin3":"67000","localeAltName":null},{"geonameid":5280975,"name":"Three Rivers","admin3":"52144","localeAltName":null},{"geonameid":4954292,"name":"Wales","admin3":"72390","localeAltName":null},{"geonameid":4955089,"name":"West Springfield","admin3":"77890","localeAltName":null},{"geonameid":4955190,"name":"Westfield","admin3":"76030","localeAltName":null},{"geonameid":4955635,"name":"Wilbraham","admin3":"79740","localeAltName":null}],"admin3":[{"geonameid":4928804,"name":"City of Agawam Town","admin3":"00840","localeAltName":null},{"geonameid":4930784,"name":"Town of Blandford","admin3":"06085"},{"geonameid":4931368,"name":"Town of Brimfield","admin3":"08470","localeAltName":null},{"geonameid":4932940,"name":"Town of Chester","admin3":"13485","localeAltName":null},{"geonameid":4933028,"name":"City of Chicopee","admin3":"13660","localeAltName":null},{"geonameid":4935440,"name":"Town of East Longmeadow","admin3":"19645","localeAltName":null},{"geonameid":4938100,"name":"Town of Granville","admin3":"26675","localeAltName":null},{"geonameid":4938754,"name":"Town of Hampden","admin3":"28075","localeAltName":null},{"geonameid":4939677,"name":"Town of Holland","admin3":"30665","localeAltName":null},{"geonameid":4939805,"name":"City of Holyoke","admin3":"30840","localeAltName":null},{"geonameid":4942522,"name":"Town of Longmeadow","admin3":"36300","localeAltName":null},{"geonameid":4942759,"name":"Town of Ludlow","admin3":"37175","localeAltName":null},{"geonameid":4944358,"name":"Town of Monson","admin3":"42145","localeAltName":null},{"geonameid":4944396,"name":"Town of Montgomery","admin3":"42530","localeAltName":null},{"geonameid":4946652,"name":"City of Palmer Town","admin3":"52144","localeAltName":null},{"geonameid":4949232,"name":"Town of Russell","admin3":"58650","localeAltName":null},{"geonameid":4951652,"name":"Town of Southwick","admin3":"65825","localeAltName":null},{"geonameid":4951829,"name":"City of Springfield","admin3":"67000","localeAltName":null},{"geonameid":4953096,"name":"Town of Tolland","admin3":"70045"},{"geonameid":4954297,"name":"Town of Wales","admin3":"72390","localeAltName":null},{"geonameid":4955096,"name":"City of West Springfield Town","admin3":"77890","localeAltName":null},{"geonameid":4955218,"name":"City of Westfield","admin3":"76030","localeAltName":null},{"geonameid":4955645,"name":"Town of Wilbraham","admin3":"79740","localeAltName":null}],"alternateNames":[{"alternatenameId":6755490,"geonameid":6254926,"isoLanguage":"en","alternateName":"Massachusetts","isPreferredName":true,"isShortName":true,"isColloquial":false,"isHistoric":false}]},"__N_SSG":true}