{"pageProps":{"locale":"en","admin2":{"geonameid":4945455,"name":"Norfolk County","country":"US","admin1":"MA","admin2":"021","admin3":"","latitude":"42.1709700","longitude":"-71.1838100","localeAltName":null},"admin1":{"geonameid":6254926,"name":"Massachusetts","admin1":"MA","localeAltName":"Massachusetts"},"locations":[{"geonameid":4929476,"name":"Avon","admin3":"02935","localeAltName":null},{"geonameid":4930266,"name":"Bellingham","admin3":"04930","localeAltName":null},{"geonameid":7257540,"name":"Braintree","admin3":"07740","localeAltName":null},{"geonameid":4931482,"name":"Brookline","admin3":"09175","localeAltName":null},{"geonameid":4932214,"name":"Canton","admin3":"11315","localeAltName":null},{"geonameid":4933533,"name":"Cohasset","admin3":"14640","localeAltName":null},{"geonameid":4934664,"name":"Dedham","admin3":"16495","localeAltName":null},{"geonameid":4935010,"name":"Dover","admin3":"17405","localeAltName":null},{"geonameid":4937222,"name":"Foxborough","admin3":"24820","localeAltName":null},{"geonameid":4937276,"name":"Franklin","admin3":"25172","localeAltName":null},{"geonameid":4939637,"name":"Holbrook","admin3":"30455","localeAltName":null},{"geonameid":4943616,"name":"Medfield","admin3":"39765","localeAltName":null},{"geonameid":4943648,"name":"Medway","admin3":"39975","localeAltName":null},{"geonameid":4944173,"name":"Millis","admin3":"41515","localeAltName":null},{"geonameid":7257716,"name":"Millis-Clicquot","admin3":"41515","localeAltName":null},{"geonameid":4944193,"name":"Milton","admin3":"41690","localeAltName":null},{"geonameid":4945055,"name":"Needham","admin3":"44105","localeAltName":null},{"geonameid":4945453,"name":"Norfolk","admin3":"46050","localeAltName":null},{"geonameid":4945952,"name":"Norwood","admin3":"50250","localeAltName":null},{"geonameid":4947490,"name":"Plainville","admin3":"54100","localeAltName":null},{"geonameid":4948247,"name":"Quincy","admin3":"55745","localeAltName":null},{"geonameid":4948403,"name":"Randolph","admin3":"55955","localeAltName":null},{"geonameid":4950654,"name":"Sharon","admin3":"60785","localeAltName":null},{"geonameid":4952206,"name":"Stoughton","admin3":"67945","localeAltName":null},{"geonameid":4954364,"name":"Walpole","admin3":"72495","localeAltName":null},{"geonameid":4954738,"name":"Wellesley","admin3":"74175","localeAltName":null},{"geonameid":4955317,"name":"Westwood","admin3":"78690","localeAltName":null},{"geonameid":4955336,"name":"Weymouth","admin3":"78972","localeAltName":null},{"geonameid":4956266,"name":"Wrentham","admin3":"82315","localeAltName":null}],"admin3":[{"geonameid":4929484,"name":"Town of Avon","admin3":"02935","localeAltName":null},{"geonameid":4930275,"name":"Town of Bellingham","admin3":"04930","localeAltName":null},{"geonameid":4931193,"name":"City of Braintree Town","admin3":"07740","localeAltName":null},{"geonameid":4931504,"name":"Town of Brookline","admin3":"09175","localeAltName":null},{"geonameid":4932225,"name":"Town of Canton","admin3":"11315","localeAltName":null},{"geonameid":4933543,"name":"Town of Cohasset","admin3":"14640","localeAltName":null},{"geonameid":4934680,"name":"Town of Dedham","admin3":"16495","localeAltName":null},{"geonameid":4935015,"name":"Town of Dover","admin3":"17405","localeAltName":null},{"geonameid":4937226,"name":"Town of Foxborough","admin3":"24820","localeAltName":null},{"geonameid":4937318,"name":"City of Franklin Town","admin3":"25172","localeAltName":null},{"geonameid":4939644,"name":"Town of Holbrook","admin3":"30455","localeAltName":null},{"geonameid":4943628,"name":"Town of Medfield","admin3":"39765","localeAltName":null},{"geonameid":4943654,"name":"Town of Medway","admin3":"39975","localeAltName":null},{"geonameid":4944178,"name":"Town of Millis","admin3":"41515","localeAltName":null},{"geonameid":4944205,"name":"Town of Milton","admin3":"41690","localeAltName":null},{"geonameid":4945072,"name":"Town of Needham","admin3":"44105","localeAltName":null},{"geonameid":4945466,"name":"Town of Norfolk","admin3":"46050","localeAltName":null},{"geonameid":4945966,"name":"Town of Norwood","admin3":"50250","localeAltName":null},{"geonameid":4947498,"name":"Town of Plainville","admin3":"54100","localeAltName":null},{"geonameid":4948276,"name":"City of Quincy","admin3":"55745","localeAltName":null},{"geonameid":4948410,"name":"Town of Randolph","admin3":"55955","localeAltName":null},{"geonameid":4950665,"name":"Town of Sharon","admin3":"60785","localeAltName":null},{"geonameid":4952216,"name":"Town of Stoughton","admin3":"67945","localeAltName":null},{"geonameid":4954372,"name":"Town of Walpole","admin3":"72495","localeAltName":null},{"geonameid":4954762,"name":"Town of Wellesley","admin3":"74175","localeAltName":null},{"geonameid":4955324,"name":"Town of Westwood","admin3":"78690","localeAltName":null},{"geonameid":4955356,"name":"City of Weymouth Town","admin3":"78972","localeAltName":null},{"geonameid":4956269,"name":"Town of Wrentham","admin3":"82315","localeAltName":null}],"alternateNames":[{"alternatenameId":6755490,"geonameid":6254926,"isoLanguage":"en","alternateName":"Massachusetts","isPreferredName":true,"isShortName":true,"isColloquial":false,"isHistoric":false}]},"__N_SSG":true}