{"pageProps":{"locale":"de","admin2":{"geonameid":6458894,"name":"Mendrisio District","country":"CH","admin1":"TI","admin2":"2106","admin3":"","latitude":"45.8659200","longitude":"8.9993100"},"admin1":{"geonameid":2658370,"name":"Ticino","admin1":"TI"},"locations":[{"geonameid":2661701,"name":"Arzo","admin3":"5254"},{"geonameid":2661637,"name":"Balerna","admin3":"5242"},{"geonameid":2661267,"name":"Capolago","admin3":"5254"},{"geonameid":2661261,"name":"Casima","admin3":"5249"},{"geonameid":2661253,"name":"Castel San Pietro","admin3":"5249"},{"geonameid":2661176,"name":"Chiasso","admin3":"5250"},{"geonameid":2660648,"name":"Genestrerio","admin3":"5254"},{"geonameid":2659888,"name":"Ligornetto","admin3":"5254"},{"geonameid":2659689,"name":"Mendrisio","admin3":"5254"},{"geonameid":2659681,"name":"Meride","admin3":"5254"},{"geonameid":2659597,"name":"Morbio Inferiore","admin3":"5257"},{"geonameid":2659596,"name":"Morbio Superiore","admin3":"5269"},{"geonameid":2659565,"name":"Muggio","admin3":"5269"},{"geonameid":2659433,"name":"Novazzano","admin3":"5260"},{"geonameid":2659008,"name":"Riva San Vitale","admin3":"5263"},{"geonameid":2658521,"name":"Stabio","admin3":"5266"}],"admin3":[{"geonameid":7285140,"name":"Balerna","admin3":"5242"},{"geonameid":7285441,"name":"Castel San Pietro","admin3":"5249"},{"geonameid":7285510,"name":"Chiasso","admin3":"5250"},{"geonameid":7285526,"name":"Coldrerio","admin3":"5251"},{"geonameid":7286483,"name":"Mendrisio","admin3":"5254"},{"geonameid":7286549,"name":"Morbio Inferiore","admin3":"5257"},{"geonameid":7286663,"name":"Novazzano","admin3":"5260"},{"geonameid":7286918,"name":"Riva San Vitale","admin3":"5263"},{"geonameid":7287209,"name":"Stabio","admin3":"5266"},{"geonameid":7287403,"name":"Vacallo","admin3":"5268"},{"geonameid":8260342,"name":"Breggia","admin3":"5269"}],"alternateNames":[]},"__N_SSG":true}