{"pageProps":{"locale":"it","admin2":{"geonameid":3169069,"name":"Citt√† metropolitana di Roma Capitale","country":"IT","admin1":"07","admin2":"RM","admin3":"","latitude":"41.9666700","longitude":"12.6666700","localeAltName":"Roma"},"admin1":{"geonameid":3174976,"name":"Lazio","admin1":"07","localeAltName":"Lazio"},"locations":[{"geonameid":3183539,"name":"Acilia-Castel Fusano-Ostia Antica","admin3":"058091","localeAltName":null},{"geonameid":8949739,"name":"Acquaviva","admin3":"058071","localeAltName":null},{"geonameid":3183457,"name":"Affile","admin3":"058001","localeAltName":null},{"geonameid":3183419,"name":"Agosta","admin3":"058002","localeAltName":null},{"geonameid":3183356,"name":"Albano Laziale","admin3":"058003","localeAltName":null},{"geonameid":8948901,"name":"Albuccione","admin3":"058047","localeAltName":null},{"geonameid":3183265,"name":"Allumiere","admin3":"058004","localeAltName":null},{"geonameid":8949526,"name":"Andreuzza","admin3":"058098","localeAltName":null},{"geonameid":3183061,"name":"Anguillara Sabazia","admin3":"058005","localeAltName":null},{"geonameid":3183025,"name":"Anticoli Corrado","admin3":"058006","localeAltName":null},{"geonameid":3183005,"name":"Anzio","admin3":"058007","localeAltName":null},{"geonameid":6694861,"name":"Ara Nova","admin3":"058120","localeAltName":null},{"geonameid":8949412,"name":"Arci-Empolitana","admin3":"058104","localeAltName":null},{"geonameid":6535043,"name":"Arcinazzo Romano","admin3":"058008","localeAltName":null},{"geonameid":3182897,"name":"Ardea","admin3":"058117","localeAltName":null},{"geonameid":8948951,"name":"Area Produttiva","admin3":"058079","localeAltName":null},{"geonameid":3182851,"name":"Ariccia","admin3":"058009","localeAltName":null},{"geonameid":8949303,"name":"Armetta","admin3":"058064","localeAltName":null},{"geonameid":3182787,"name":"Arsoli","admin3":"058010","localeAltName":null},{"geonameid":3182778,"name":"Artena","admin3":"058011","localeAltName":null},{"geonameid":3182681,"name":"Aurelia","admin3":"058032","localeAltName":null},{"geonameid":3182533,"name":"Bagni di Tivoli","admin3":"058104","localeAltName":null},{"geonameid":8950180,"name":"Bellavista","admin3":"058050","localeAltName":null},{"geonameid":3182224,"name":"Bellegra","admin3":"058012","localeAltName":null},{"geonameid":8949052,"name":"Bivio di Capanelle","admin3":"058018","localeAltName":null},{"geonameid":8949293,"name":"Bivio San Polo","admin3":"058104","localeAltName":null},{"geonameid":8949398,"name":"Borgo Lotti","admin3":"058091","localeAltName":null},{"geonameid":8950067,"name":"Borgo Santa Maria","admin3":"058063","localeAltName":null},{"geonameid":3181628,"name":"Bracciano","admin3":"058013","localeAltName":null},{"geonameid":3181061,"name":"Campagnano di Roma","admin3":"058015","localeAltName":null},{"geonameid":3180968,"name":"Campo Jemini","admin3":"058079","localeAltName":null},{"geonameid":8948839,"name":"Campo Limpido-Favale","admin3":"058104","localeAltName":null},{"geonameid":3180894,"name":"Canale Monterano","admin3":"058016","localeAltName":null},{"geonameid":8949494,"name":"Cancelliera-Massimetta-Pantanelle","admin3":"058003","localeAltName":null},{"geonameid":3180725,"name":"Capena","admin3":"058018","localeAltName":null},{"geonameid":8948949,"name":"Carchitti","admin3":"058074","localeAltName":null},{"geonameid":8950019,"name":"Caronti","admin3":"058117","localeAltName":null},{"geonameid":3180431,"name":"Carpineto Romano","admin3":"058020","localeAltName":null},{"geonameid":12188859,"name":"Casal Bertone","admin3":"058091","localeAltName":null},{"geonameid":12188855,"name":"Casal de' Pazzi","admin3":"058091","localeAltName":null},{"geonameid":6698333,"name":"Casal Palocco","admin3":"058091","localeAltName":null},{"geonameid":3180092,"name":"Casape","admin3":"058021","localeAltName":null},{"geonameid":3179730,"name":"Castel Chiodato","admin3":"058059","localeAltName":null},{"geonameid":3179705,"name":"Castel di Leva","admin3":"058091","localeAltName":null},{"geonameid":3179682,"name":"Castel Fusano","admin3":"058091","localeAltName":null},{"geonameid":3179680,"name":"Castel Gandolfo","admin3":"058022","localeAltName":null},{"geonameid":3179561,"name":"Castel Madama","admin3":"058023","localeAltName":null},{"geonameid":3179521,"name":"Castelnuovo di Porto","admin3":"058024","localeAltName":null},{"geonameid":3179288,"name":"Cave","admin3":"058026","localeAltName":null},{"geonameid":3179241,"name":"Cecchina","admin3":"058003","localeAltName":null},{"geonameid":8949460,"name":"Centro Tre Denari","admin3":"058120","localeAltName":null},{"geonameid":3179034,"name":"Cerreto Laziale","admin3":"058027","localeAltName":null},{"geonameid":3178999,"name":"Cerveteri","admin3":"058029","localeAltName":null},{"geonameid":3178974,"name":"Cesano","admin3":"058091","localeAltName":null},{"geonameid":3178738,"name":"Ciampino","admin3":"058118","localeAltName":null},{"geonameid":3178720,"name":"Ciciliano","admin3":"058030","localeAltName":null},{"geonameid":3178676,"name":"Cineto Romano","admin3":"058031","localeAltName":null},{"geonameid":3178587,"name":"Civitavecchia","admin3":"058032","localeAltName":null},{"geonameid":3178565,"name":"Civitella San Paolo","admin3":"058033","localeAltName":null},{"geonameid":8949858,"name":"Colle del Fagiano","admin3":"058018","localeAltName":null},{"geonameid":8949414,"name":"Colle del Pino","admin3":"058091","localeAltName":null},{"geonameid":3178406,"name":"Colle di Fuori","admin3":"058088","localeAltName":null},{"geonameid":8949266,"name":"Colle Mainello","admin3":"058040","localeAltName":null},{"geonameid":8949485,"name":"Colle Monfortani","admin3":"058091","localeAltName":null},{"geonameid":8949416,"name":"Colle Spina","admin3":"058049","localeAltName":null},{"geonameid":8948790,"name":"Colle Verde","admin3":"058047","localeAltName":null},{"geonameid":3178398,"name":"Colleferro","admin3":"058034","localeAltName":null},{"geonameid":8949703,"name":"Collenocello","admin3":"058104","localeAltName":null},{"geonameid":9036390,"name":"Colleverde II","admin3":"058047","localeAltName":null},{"geonameid":8949676,"name":"Colli di Cicerone","admin3":"058043","localeAltName":null},{"geonameid":8949007,"name":"Colli di Enea","admin3":"058079","localeAltName":null},{"geonameid":3178269,"name":"Colonna","admin3":"058035","localeAltName":null},{"geonameid":8949286,"name":"Colubro","admin3":"058011","localeAltName":null},{"geonameid":3178116,"name":"Corcolle","admin3":"058091","localeAltName":null},{"geonameid":8949172,"name":"Costaroni","admin3":"058081","localeAltName":null},{"geonameid":3177816,"name":"Cretone","admin3":"058075","localeAltName":null},{"geonameid":8949892,"name":"Cruci","admin3":"058110","localeAltName":null},{"geonameid":3177046,"name":"Fiano Romano","admin3":"058036","localeAltName":null},{"geonameid":3176923,"name":"Fiumicino","admin3":"058120","localeAltName":null},{"geonameid":6693932,"name":"Focene","admin3":"058120","localeAltName":null},{"geonameid":3176739,"name":"Formello","admin3":"058038","localeAltName":null},{"geonameid":8949845,"name":"Forno Casale","admin3":"058091","localeAltName":null},{"geonameid":8949459,"name":"Fosso di San Giuliano","admin3":"058091","localeAltName":null},{"geonameid":3176589,"name":"Frascati","admin3":"058039","localeAltName":null},{"geonameid":3176544,"name":"Fregene","admin3":"058120","localeAltName":null},{"geonameid":3176377,"name":"Gallicano nel Lazio","admin3":"058040","localeAltName":null},{"geonameid":3176266,"name":"Gavignano","admin3":"058041","localeAltName":null},{"geonameid":3176230,"name":"Genazzano","admin3":"058042","localeAltName":null},{"geonameid":3176203,"name":"Genzano di Roma","admin3":"058043","localeAltName":null},{"geonameid":3176198,"name":"Gerano","admin3":"058044","localeAltName":null},{"geonameid":12188858,"name":"Giardinetti-Tor Vergata","admin3":"058091","localeAltName":null},{"geonameid":8949101,"name":"Girardi-Bellavista-Terrazze","admin3":"058024","localeAltName":null},{"geonameid":3175775,"name":"Grottaferrata","admin3":"058046","localeAltName":null},{"geonameid":3175678,"name":"Guidonia","admin3":"058047","localeAltName":null},{"geonameid":6534228,"name":"Guidonia Montecelio","admin3":"058047","localeAltName":null},{"geonameid":8949125,"name":"La Botte","admin3":"058047","localeAltName":null},{"geonameid":8948733,"name":"La Massimina-Casal Lumbroso","admin3":"058091","localeAltName":null},{"geonameid":3175367,"name":"Labico","admin3":"058049","localeAltName":null},{"geonameid":3175298,"name":"Ladispoli","admin3":"058116","localeAltName":null},{"geonameid":8948817,"name":"Laghetto","admin3":"058047","localeAltName":null},{"geonameid":8948883,"name":"Laghetto","admin3":"058060","localeAltName":null},{"geonameid":8950122,"name":"Landi-Pedica","admin3":"058043","localeAltName":null},{"geonameid":3175156,"name":"Lanuvio","admin3":"058050","localeAltName":null},{"geonameid":3175106,"name":"Lariano","admin3":"058115","localeAltName":null},{"geonameid":7302105,"name":"Lavinio","admin3":"058007","localeAltName":null},{"geonameid":8948879,"name":"Le Rughe","admin3":"058038","localeAltName":null},{"geonameid":3174758,"name":"Licenza","admin3":"058051","localeAltName":null},{"geonameid":8581482,"name":"Lido dei Pini","admin3":"058007","localeAltName":null},{"geonameid":3174741,"name":"Lido di Ostia","admin3":"058091","localeAltName":null},{"geonameid":3174410,"name":"Maccarese","admin3":"058091","localeAltName":null},{"geonameid":9036188,"name":"Maccarese-Stazione","admin3":"058091","localeAltName":null},{"geonameid":3174376,"name":"Macere","admin3":"058011","localeAltName":null},{"geonameid":3174257,"name":"Magliano Romano","admin3":"058052","localeAltName":null},{"geonameid":3174109,"name":"Mandela","admin3":"058053","localeAltName":null},{"geonameid":8949326,"name":"Mantiglia di Ardea","admin3":"058117","localeAltName":null},{"geonameid":3174043,"name":"Manziana","admin3":"058054","localeAltName":null},{"geonameid":3174019,"name":"Marano Equo","admin3":"058055","localeAltName":null},{"geonameid":3174006,"name":"Marcellina","admin3":"058056","localeAltName":null},{"geonameid":8410825,"name":"Marco Simone","admin3":"058047","localeAltName":null},{"geonameid":8394392,"name":"Marina di Ardea-Tor San Lorenzo","admin3":"058117","localeAltName":null},{"geonameid":6693938,"name":"Marina di Cerveteri","admin3":"058029","localeAltName":null},{"geonameid":6693936,"name":"Marina San Nicola","admin3":"058116","localeAltName":null},{"geonameid":3173914,"name":"Marino","admin3":"058057","localeAltName":null},{"geonameid":3173684,"name":"Mazzano Romano","admin3":"058058","localeAltName":null},{"geonameid":3173582,"name":"Mentana","admin3":"058059","localeAltName":null},{"geonameid":8949170,"name":"Monte Caminetto","admin3":"058093","localeAltName":null},{"geonameid":8948930,"name":"Monte Migliore La Selvotta","admin3":"058091","localeAltName":null},{"geonameid":3172797,"name":"Monte Porzio Catone","admin3":"058064","localeAltName":null},{"geonameid":3172978,"name":"Montecelio","admin3":"058047","localeAltName":null},{"geonameid":3172969,"name":"Montecompatri","admin3":"058060","localeAltName":null},{"geonameid":3172925,"name":"Monteflavio","admin3":"058061","localeAltName":null},{"geonameid":3172880,"name":"Montelanico","admin3":"058062","localeAltName":null},{"geonameid":8949235,"name":"Montelarco","admin3":"058082","localeAltName":null},{"geonameid":6535046,"name":"Montelibretti","admin3":"058063","localeAltName":null},{"geonameid":3172768,"name":"Monterotondo","admin3":"058065","localeAltName":null},{"geonameid":3172706,"name":"Montevirginio","admin3":"058016","localeAltName":null},{"geonameid":3172643,"name":"Montorio Romano","admin3":"058066","localeAltName":null},{"geonameid":3172593,"name":"Moricone","admin3":"058067","localeAltName":null},{"geonameid":3172586,"name":"Morlupo","admin3":"058068","localeAltName":null},{"geonameid":3172352,"name":"Nazzano","admin3":"058069","localeAltName":null},{"geonameid":3172328,"name":"Nemi","admin3":"058070","localeAltName":null},{"geonameid":3172303,"name":"Nerola","admin3":"058071","localeAltName":null},{"geonameid":3172287,"name":"Nettuno","admin3":"058072","localeAltName":null},{"geonameid":3172074,"name":"Olevano Romano","admin3":"058073","localeAltName":null},{"geonameid":8468671,"name":"Osteria Nuova","admin3":"058091","localeAltName":null},{"geonameid":3171606,"name":"Palestrina","admin3":"058074","localeAltName":null},{"geonameid":3171601,"name":"Palidoro","admin3":"058120","localeAltName":null},{"geonameid":3171558,"name":"Palombara Sabina","admin3":"058075","localeAltName":null},{"geonameid":8948810,"name":"Parco Leonardo","admin3":"058091","localeAltName":null},{"geonameid":6693935,"name":"Passoscuro","admin3":"058120","localeAltName":null},{"geonameid":3171361,"name":"Pavona","admin3":"058022","localeAltName":null},{"geonameid":8949694,"name":"Pichini","admin3":"058047","localeAltName":null},{"geonameid":3170626,"name":"Pisoniano","admin3":"058077","localeAltName":null},{"geonameid":8949380,"name":"Poggio Ellera","admin3":"058015","localeAltName":null},{"geonameid":3170387,"name":"Poli","admin3":"058078","localeAltName":null},{"geonameid":3170342,"name":"Pomezia","admin3":"058079","localeAltName":null},{"geonameid":3170262,"name":"Ponte Galeria-La Pisana","admin3":"058091","localeAltName":null},{"geonameid":8949059,"name":"Ponton dell'Elce","admin3":"058005","localeAltName":null},{"geonameid":6535047,"name":"Ponzano Romano","admin3":"058080","localeAltName":null},{"geonameid":8950139,"name":"Prato del Mare","admin3":"058097","localeAltName":null},{"geonameid":8950387,"name":"Prato Lauro","admin3":"058091","localeAltName":null},{"geonameid":8950392,"name":"Pratolungo","admin3":"058091","localeAltName":null},{"geonameid":3169443,"name":"Riano","admin3":"058081","localeAltName":null},{"geonameid":3169395,"name":"Rignano Flaminio","admin3":"058082","localeAltName":null},{"geonameid":3169342,"name":"Riofreddo","admin3":"058083","localeAltName":null},{"geonameid":3169181,"name":"Rocca di Papa","admin3":"058086","localeAltName":null},{"geonameid":3169149,"name":"Rocca Priora","admin3":"058088","localeAltName":null},{"geonameid":6535049,"name":"Rocca Santo Stefano","admin3":"058089","localeAltName":null},{"geonameid":3169079,"name":"Roiate","admin3":"058090","localeAltName":null},{"geonameid":3169070,"name":"Rome","admin3":"058091","localeAltName":null},{"geonameid":3168847,"name":"Roviano","admin3":"058092","localeAltName":null},{"geonameid":3168725,"name":"Sacrofano","admin3":"058093","localeAltName":null},{"geonameid":3168589,"name":"Sambuci","admin3":"058094","localeAltName":null},{"geonameid":8949150,"name":"San Bartolomeo","admin3":"058026","localeAltName":null},{"geonameid":3168485,"name":"San Cesareo","admin3":"058119","localeAltName":null},{"geonameid":3168190,"name":"San Gregorio da Sassola","admin3":"058095","localeAltName":null},{"geonameid":8949516,"name":"San Martino-Sant'Anzino","admin3":"058065","localeAltName":null},{"geonameid":3167801,"name":"San Polo dei Cavalieri","admin3":"058096","localeAltName":null},{"geonameid":3167179,"name":"San Vito Romano","admin3":"058100","localeAltName":null},{"geonameid":3167436,"name":"Sant'Angelo Romano","admin3":"058098","localeAltName":null},{"geonameid":3167269,"name":"Sant'Oreste","admin3":"058099","localeAltName":null},{"geonameid":8616976,"name":"Santa Lucia","admin3":"058122","localeAltName":null},{"geonameid":3167520,"name":"Santa Marinella","admin3":"058097","localeAltName":null},{"geonameid":9036179,"name":"Santa Palomba-Roma II","admin3":"058079","localeAltName":null},{"geonameid":3167364,"name":"Santa Severa","admin3":"058097","localeAltName":null},{"geonameid":9036193,"name":"Santa Severa Nord","admin3":"058105","localeAltName":null},{"geonameid":8949785,"name":"Sedici Pini-La Macchiozza","admin3":"058079","localeAltName":null},{"geonameid":3166813,"name":"Segni","admin3":"058102","localeAltName":null},{"geonameid":8948759,"name":"Selcetta","admin3":"058091","localeAltName":null},{"geonameid":8948785,"name":"Setteville","admin3":"058047","localeAltName":null},{"geonameid":8949580,"name":"Spadellata","admin3":"058007","localeAltName":null},{"geonameid":8949853,"name":"Spregamore","admin3":"058091","localeAltName":null},{"geonameid":9036131,"name":"Stazione di Pavona-Palazzo Margana","admin3":"058091","localeAltName":null},{"geonameid":3166052,"name":"Subiaco","admin3":"058103","localeAltName":null},{"geonameid":3165624,"name":"Tivoli","admin3":"058104","localeAltName":null},{"geonameid":3165593,"name":"Tolfa","admin3":"058105","localeAltName":null},{"geonameid":6534284,"name":"Tor Lupara","admin3":"058122","localeAltName":null},{"geonameid":12188856,"name":"Tor Tre Teste","admin3":"058091","localeAltName":null},{"geonameid":12188857,"name":"Tor Vergata","admin3":"058091","localeAltName":null},{"geonameid":3165380,"name":"Torrita Tiberina","admin3":"058106","localeAltName":null},{"geonameid":6620312,"name":"Torvaianica","admin3":"058079","localeAltName":null},{"geonameid":9036401,"name":"Torvaianica Alta","admin3":"058079","localeAltName":null},{"geonameid":3165332,"name":"Tragliatella Campitello","admin3":"058091","localeAltName":null},{"geonameid":8949702,"name":"Tre Pontoni","admin3":"058024","localeAltName":null},{"geonameid":3165205,"name":"Trevignano Romano","admin3":"058107","localeAltName":null},{"geonameid":8948827,"name":"Valcanneto","admin3":"058029","localeAltName":null},{"geonameid":8948795,"name":"Valle Martella","admin3":"058114","localeAltName":null},{"geonameid":7577048,"name":"Valle Santa","admin3":"058091","localeAltName":null},{"geonameid":3164778,"name":"Valmontone","admin3":"058110","localeAltName":null},{"geonameid":3164630,"name":"Velletri","admin3":"058111","localeAltName":null},{"geonameid":8949745,"name":"Via Latina Iv Km","admin3":"058034","localeAltName":null},{"geonameid":3164394,"name":"Vicovaro","admin3":"058112","localeAltName":null},{"geonameid":7506720,"name":"Villa Adriana","admin3":"058104","localeAltName":null},{"geonameid":8394394,"name":"Villalba","admin3":"058047","localeAltName":null},{"geonameid":8378910,"name":"Villanova","admin3":"058047","localeAltName":null},{"geonameid":6698334,"name":"Vitinia","admin3":"058091","localeAltName":null},{"geonameid":3163932,"name":"Zagarolo","admin3":"058114","localeAltName":null}],"admin3":[{"geonameid":3164631,"name":"Velletri","admin3":"058111","localeAltName":null},{"geonameid":3169071,"name":"Roma","admin3":"058091","localeAltName":"Roma"},{"geonameid":3175677,"name":"Guidonia Montecelio","admin3":"058047","localeAltName":null},{"geonameid":6536938,"name":"Agosta","admin3":"058002","localeAltName":null},{"geonameid":6536939,"name":"Arsoli","admin3":"058010","localeAltName":null},{"geonameid":6536940,"name":"Bellegra","admin3":"058012","localeAltName":null},{"geonameid":6536941,"name":"Casape","admin3":"058021","localeAltName":null},{"geonameid":6536942,"name":"Castel Gandolfo","admin3":"058022","localeAltName":null},{"geonameid":6536943,"name":"Castel Madama","admin3":"058023","localeAltName":null},{"geonameid":6536944,"name":"Cineto Romano","admin3":"058031","localeAltName":null},{"geonameid":6536945,"name":"Civitavecchia","admin3":"058032","localeAltName":null},{"geonameid":6536946,"name":"Civitella San Paolo","admin3":"058033","localeAltName":null},{"geonameid":6536947,"name":"Filacciano","admin3":"058037"},{"geonameid":6536948,"name":"Formello","admin3":"058038","localeAltName":null},{"geonameid":6536949,"name":"Genazzano","admin3":"058042","localeAltName":null},{"geonameid":6536950,"name":"Gerano","admin3":"058044","localeAltName":null},{"geonameid":6536951,"name":"Grottaferrata","admin3":"058046","localeAltName":null},{"geonameid":6536952,"name":"Labico","admin3":"058049","localeAltName":null},{"geonameid":6536953,"name":"Marano Equo","admin3":"058055","localeAltName":null},{"geonameid":6536954,"name":"Monte Porzio Catone","admin3":"058064","localeAltName":null},{"geonameid":6536955,"name":"Moricone","admin3":"058067","localeAltName":null},{"geonameid":6536956,"name":"Olevano Romano","admin3":"058073","localeAltName":null},{"geonameid":6536957,"name":"Palestrina","admin3":"058074","localeAltName":null},{"geonameid":6536958,"name":"Palombara Sabina","admin3":"058075","localeAltName":null},{"geonameid":6536959,"name":"Pisoniano","admin3":"058077","localeAltName":null},{"geonameid":6536960,"name":"Pomezia","admin3":"058079","localeAltName":null},{"geonameid":6536961,"name":"Rignano Flaminio","admin3":"058082","localeAltName":null},{"geonameid":6536962,"name":"Rocca di Papa","admin3":"058086","localeAltName":null},{"geonameid":6536963,"name":"Roccagiovine","admin3":"058087"},{"geonameid":6536964,"name":"Sacrofano","admin3":"058093","localeAltName":null},{"geonameid":6536965,"name":"Sambuci","admin3":"058094","localeAltName":null},{"geonameid":6536966,"name":"Sant'Angelo Romano","admin3":"058098","localeAltName":null},{"geonameid":6536967,"name":"San Vito Romano","admin3":"058100","localeAltName":null},{"geonameid":6536968,"name":"Tolfa","admin3":"058105","localeAltName":null},{"geonameid":6536969,"name":"Torrita Tiberina","admin3":"058106","localeAltName":null},{"geonameid":6538665,"name":"Affile","admin3":"058001","localeAltName":null},{"geonameid":6538666,"name":"Anguillara Sabazia","admin3":"058005","localeAltName":null},{"geonameid":6538667,"name":"Anticoli Corrado","admin3":"058006","localeAltName":null},{"geonameid":6538668,"name":"Ariccia","admin3":"058009","localeAltName":null},{"geonameid":6538669,"name":"Camerata Nuova","admin3":"058014"},{"geonameid":6538670,"name":"Capranica Prenestina","admin3":"058019"},{"geonameid":6538671,"name":"Carpineto Romano","admin3":"058020","localeAltName":null},{"geonameid":6538672,"name":"Cervara di Roma","admin3":"058028"},{"geonameid":6538673,"name":"Gallicano nel Lazio","admin3":"058040","localeAltName":null},{"geonameid":6538674,"name":"Genzano di Roma","admin3":"058043","localeAltName":null},{"geonameid":6538675,"name":"Lanuvio","admin3":"058050","localeAltName":null},{"geonameid":6538676,"name":"Licenza","admin3":"058051","localeAltName":null},{"geonameid":6538677,"name":"Magliano Romano","admin3":"058052","localeAltName":null},{"geonameid":6538678,"name":"Mandela","admin3":"058053","localeAltName":null},{"geonameid":6538679,"name":"Manziana","admin3":"058054","localeAltName":null},{"geonameid":6538680,"name":"Mentana","admin3":"058059","localeAltName":null},{"geonameid":6538681,"name":"Montelanico","admin3":"058062","localeAltName":null},{"geonameid":6538682,"name":"Montorio Romano","admin3":"058066","localeAltName":null},{"geonameid":6538683,"name":"Nemi","admin3":"058070","localeAltName":null},{"geonameid":6538684,"name":"Nerola","admin3":"058071","localeAltName":null},{"geonameid":6538685,"name":"Poli","admin3":"058078","localeAltName":null},{"geonameid":6538686,"name":"Rocca di Cave","admin3":"058085"},{"geonameid":6538687,"name":"Roiate","admin3":"058090","localeAltName":null},{"geonameid":6538688,"name":"San Gregorio da Sassola","admin3":"058095","localeAltName":null},{"geonameid":6538689,"name":"San Polo dei Cavalieri","admin3":"058096","localeAltName":null},{"geonameid":6538690,"name":"Vicovaro","admin3":"058112","localeAltName":null},{"geonameid":6538691,"name":"Ciampino","admin3":"058118","localeAltName":null},{"geonameid":6539594,"name":"Vallinfreda","admin3":"058109"},{"geonameid":6539757,"name":"Bracciano","admin3":"058013","localeAltName":null},{"geonameid":6539758,"name":"Cave","admin3":"058026","localeAltName":null},{"geonameid":6539759,"name":"Colonna","admin3":"058035","localeAltName":null},{"geonameid":6539760,"name":"Gorga","admin3":"058045"},{"geonameid":6539761,"name":"Marino","admin3":"058057","localeAltName":null},{"geonameid":6539762,"name":"Monterotondo","admin3":"058065","localeAltName":null},{"geonameid":6539763,"name":"Saracinesco","admin3":"058101"},{"geonameid":6539764,"name":"Tivoli","admin3":"058104","localeAltName":null},{"geonameid":6539976,"name":"Allumiere","admin3":"058004","localeAltName":null},{"geonameid":6539977,"name":"Gavignano","admin3":"058041","localeAltName":null},{"geonameid":6539978,"name":"Nazzano","admin3":"058069","localeAltName":null},{"geonameid":6539979,"name":"Segni","admin3":"058102","localeAltName":null},{"geonameid":6540278,"name":"Monte Compatri","admin3":"058060","localeAltName":null},{"geonameid":6540287,"name":"Fiumicino","admin3":"058120","localeAltName":null},{"geonameid":6540515,"name":"Artena","admin3":"058011","localeAltName":null},{"geonameid":6540516,"name":"Campagnano di Roma","admin3":"058015","localeAltName":null},{"geonameid":6540517,"name":"Castelnuovo di Porto","admin3":"058024","localeAltName":null},{"geonameid":6540518,"name":"Castel San Pietro Romano","admin3":"058025"},{"geonameid":6540519,"name":"Cerveteri","admin3":"058029","localeAltName":null},{"geonameid":6540520,"name":"Ciciliano","admin3":"058030","localeAltName":null},{"geonameid":6540521,"name":"Fiano Romano","admin3":"058036","localeAltName":null},{"geonameid":6540522,"name":"Marcellina","admin3":"058056","localeAltName":null},{"geonameid":6540523,"name":"Morlupo","admin3":"058068","localeAltName":null},{"geonameid":6540524,"name":"Percile","admin3":"058076"},{"geonameid":6540525,"name":"Roviano","admin3":"058092","localeAltName":null},{"geonameid":6540526,"name":"Subiaco","admin3":"058103","localeAltName":null},{"geonameid":6540527,"name":"Trevignano Romano","admin3":"058107","localeAltName":null},{"geonameid":6540528,"name":"Vallepietra","admin3":"058108"},{"geonameid":6540529,"name":"Lariano","admin3":"058115","localeAltName":null},{"geonameid":6541129,"name":"Capena","admin3":"058018","localeAltName":null},{"geonameid":6541130,"name":"Cerreto Laziale","admin3":"058027","localeAltName":null},{"geonameid":6541131,"name":"Mazzano Romano","admin3":"058058","localeAltName":null},{"geonameid":6541132,"name":"Riofreddo","admin3":"058083","localeAltName":null},{"geonameid":6541133,"name":"Sant'Oreste","admin3":"058099","localeAltName":null},{"geonameid":6541134,"name":"San Cesareo","admin3":"058119","localeAltName":null},{"geonameid":6541614,"name":"Canale Monterano","admin3":"058016","localeAltName":null},{"geonameid":6541615,"name":"Frascati","admin3":"058039","localeAltName":null},{"geonameid":6541616,"name":"Ladispoli","admin3":"058116","localeAltName":null},{"geonameid":6541651,"name":"Albano Laziale","admin3":"058003","localeAltName":null},{"geonameid":6541652,"name":"Colleferro","admin3":"058034","localeAltName":null},{"geonameid":6541653,"name":"Zagarolo","admin3":"058114","localeAltName":null},{"geonameid":6541889,"name":"Rocca Priora","admin3":"058088","localeAltName":null},{"geonameid":6541890,"name":"Santa Marinella","admin3":"058097","localeAltName":null},{"geonameid":6541891,"name":"Vivaro Romano","admin3":"058113"},{"geonameid":6542044,"name":"Nettuno","admin3":"058072","localeAltName":null},{"geonameid":6542045,"name":"Riano","admin3":"058081","localeAltName":null},{"geonameid":6542046,"name":"Valmontone","admin3":"058110","localeAltName":null},{"geonameid":6542092,"name":"Anzio","admin3":"058007","localeAltName":null},{"geonameid":6542093,"name":"Ardea","admin3":"058117","localeAltName":null},{"geonameid":6542258,"name":"Monteflavio","admin3":"058061","localeAltName":null},{"geonameid":6542355,"name":"Fonte Nuova","admin3":"058122","localeAltName":null},{"geonameid":6543029,"name":"Arcinazzo Romano","admin3":"058008","localeAltName":null},{"geonameid":6543030,"name":"Canterano","admin3":"058017"},{"geonameid":6543031,"name":"Jenne","admin3":"058048"},{"geonameid":6543032,"name":"Montelibretti","admin3":"058063","localeAltName":null},{"geonameid":6543033,"name":"Ponzano Romano","admin3":"058080","localeAltName":null},{"geonameid":6543034,"name":"Rocca Canterano","admin3":"058084"},{"geonameid":6543035,"name":"Rocca Santo Stefano","admin3":"058089","localeAltName":null}],"alternateNames":[{"alternatenameId":1348638,"geonameid":3169069,"isoLanguage":"it","alternateName":"Roma","isPreferredName":true,"isShortName":true,"isColloquial":false,"isHistoric":false},{"alternatenameId":1348639,"geonameid":3169069,"isoLanguage":"de","alternateName":"Rom","isPreferredName":true,"isShortName":true,"isColloquial":false,"isHistoric":false},{"alternatenameId":2430813,"geonameid":3169071,"isoLanguage":"it","alternateName":"Roma","isPreferredName":true,"isShortName":true,"isColloquial":false,"isHistoric":false},{"alternatenameId":1350464,"geonameid":3174976,"isoLanguage":"it","alternateName":"Lazio","isPreferredName":true,"isShortName":true,"isColloquial":false,"isHistoric":false}]},"__N_SSG":true}