{"pageProps":{"locale":"en","admin2":{"geonameid":6050541,"name":"Laurentides","country":"CA","admin1":"10","admin2":"15","admin3":"","latitude":"46.4334000","longitude":"-74.9825700"},"admin1":{"geonameid":6115047,"name":"Québec","admin1":"10"},"locations":[{"geonameid":5890434,"name":"Baie-du-Lac","admin3":"72015"},{"geonameid":5893094,"name":"Barkmere","admin3":"78050"},{"geonameid":5895255,"name":"Bayard","admin3":"79037"},{"geonameid":5896584,"name":"Beaux-Rivages--Lac-des-Écorces--Val-Barrette","admin3":"79078"},{"geonameid":5897914,"name":"Bell Falls","admin3":"76052"},{"geonameid":5897818,"name":"Bellefeuille","admin3":"75017"},{"geonameid":5897867,"name":"Bellerive-sur-le-Lac","admin3":"79030"},{"geonameid":5903510,"name":"Blainville","admin3":"73015"},{"geonameid":5904322,"name":"Blue Hills","admin3":"77050"},{"geonameid":5905132,"name":"Boisbriand","admin3":"73005"},{"geonameid":5909969,"name":"Brownsburg-Chatham","admin3":"76043"},{"geonameid":5910248,"name":"Brunet","admin3":"79088"},{"geonameid":8556304,"name":"Camp-Michaud","admin3":""},{"geonameid":5917175,"name":"Carlin","admin3":"76052"},{"geonameid":5920427,"name":"Chatboro","admin3":"76043"},{"geonameid":5921221,"name":"Chicot","admin3":"72005"},{"geonameid":5922491,"name":"Chute-Saint-Philippe","admin3":"79065"},{"geonameid":5922579,"name":"Chute-Victoria","admin3":"79065"},{"geonameid":5928336,"name":"Coteau-des-Hêtres","admin3":"76008"},{"geonameid":5933648,"name":"Crystal Falls","admin3":"78060"},{"geonameid":5934230,"name":"Cushing","admin3":"76043"},{"geonameid":5934646,"name":"Dalesville","admin3":"76043"},{"geonameid":5934798,"name":"Dame-Neuve","admin3":"76020"},{"geonameid":5937513,"name":"De Lesseps","admin3":"78102"},{"geonameid":5938513,"name":"Deux-Montagnes","admin3":"72010"},{"geonameid":5941037,"name":"Domaine-Air-Pur","admin3":"78010"},{"geonameid":5941050,"name":"Domaine-Bastien","admin3":"77065"},{"geonameid":5941056,"name":"Domaine-Beaumont","admin3":"72032"},{"geonameid":5941091,"name":"Domaine-Cloutier","admin3":"74005"},{"geonameid":5941151,"name":"Domaine-des-Patriarches","admin3":"75040"},{"geonameid":5941157,"name":"Domaine-des-Pyramides","admin3":"78095"},{"geonameid":5941169,"name":"Domaine-des-Sources","admin3":"75005"},{"geonameid":5941163,"name":"Domaine-Desrosiers","admin3":"78020"},{"geonameid":5941186,"name":"Domaine-du-Lac-des-Pins","admin3":"74005"},{"geonameid":5941205,"name":"Domaine-Filion","admin3":"77043"},{"geonameid":5941210,"name":"Domaine-Fortier","admin3":"75005"},{"geonameid":5941229,"name":"Domaine-Grenon","admin3":"76025"},{"geonameid":5941232,"name":"Domaine-Guindon","admin3":"78032"},{"geonameid":5941235,"name":"Domaine-Hatin","admin3":"75017"},{"geonameid":5941256,"name":"Domaine-Laurentien","admin3":"75040"},{"geonameid":5941257,"name":"Domaine-Lauzon","admin3":"78047"},{"geonameid":5941289,"name":"Domaine-Mont-Blanc","admin3":"78055"},{"geonameid":5941295,"name":"Domaine-Namur","admin3":"75045"},{"geonameid":5941297,"name":"Domaine-Nominingue","admin3":"79030"},{"geonameid":5941307,"name":"Domaine-Parent","admin3":"77035"},{"geonameid":5941331,"name":"Domaine-Roger","admin3":"78095"},{"geonameid":5941336,"name":"Domaine-Royal","admin3":"72020"},{"geonameid":5941357,"name":"Domaine-Tisserand","admin3":"79065"},{"geonameid":5941358,"name":"Domaine-Trudeau","admin3":"78005"},{"geonameid":5943820,"name":"Dunany","admin3":"76035"},{"geonameid":5949076,"name":"Entremonts","admin3":"77022"},{"geonameid":5952330,"name":"Ferme-Neuve","admin3":"79097"},{"geonameid":5952331,"name":"Ferme-Rouge","admin3":"79025"},{"geonameid":12076645,"name":"Filion","admin3":"75040"},{"geonameid":5959725,"name":"Garnier","admin3":"79097"},{"geonameid":5960263,"name":"Geneva","admin3":"76008"},{"geonameid":5965725,"name":"Gray Valley","admin3":"78065"},{"geonameid":5965924,"name":"Greece's Point","admin3":"76043"},{"geonameid":5966843,"name":"Grenville","admin3":"76055"},{"geonameid":5966848,"name":"Grenville Bay","admin3":"76052"},{"geonameid":5966858,"name":"Grenville-sur-la-Rouge","admin3":"76052"},{"geonameid":5975194,"name":"Hill Head","admin3":"76020"},{"geonameid":5978052,"name":"Huberdeau","admin3":"78060"},{"geonameid":5991635,"name":"Kiamika","admin3":"79025"},{"geonameid":5991638,"name":"Kiamika","admin3":"79025"},{"geonameid":5991985,"name":"Kilmar","admin3":"76052"},{"geonameid":6049524,"name":"L'Annonciation","admin3":"79037"},{"geonameid":6050214,"name":"L'Ascension","admin3":"79050"},{"geonameid":6023899,"name":"La Chapelle","admin3":"74005"},{"geonameid":6035664,"name":"La Conception","admin3":"78115"},{"geonameid":6035666,"name":"La Conception-Station","admin3":"78115"},{"geonameid":6047875,"name":"La Fontaine","admin3":"75017"},{"geonameid":6048888,"name":"La Macaza","admin3":"79047"},{"geonameid":6049035,"name":"La Minerve","admin3":"78130"},{"geonameid":6049738,"name":"La Petite-Minerve","admin3":"78120"},{"geonameid":6050386,"name":"La Trappe","admin3":"72032"},{"geonameid":5994763,"name":"Labelle","admin3":"78120"},{"geonameid":5998953,"name":"Lac-aux-Ours","admin3":"78095"},{"geonameid":5999980,"name":"Lac-Beaven","admin3":"78060"},{"geonameid":6000508,"name":"Lac-Bertrand","admin3":"75045"},{"geonameid":6000891,"name":"Lac-Blanc","admin3":"79030"},{"geonameid":6001545,"name":"Lac-Bouchette","admin3":"77050"},{"geonameid":6001966,"name":"Lac-Breton","admin3":"77043"},{"geonameid":6002850,"name":"Lac-Cameron","admin3":"78070"},{"geonameid":6002905,"name":"Lac-Campion","admin3":"79005"},{"geonameid":6003176,"name":"Lac-Caribou","admin3":"78047"},{"geonameid":6003177,"name":"Lac-Caribou","admin3":"78120"},{"geonameid":6003270,"name":"Lac-Caroline","admin3":"76025"},{"geonameid":6003387,"name":"Lac-Carroll","admin3":"75005"},{"geonameid":6003565,"name":"Lac-Castor","admin3":"79037"},{"geonameid":6003955,"name":"Lac-Chantal","admin3":"77065"},{"geonameid":6003989,"name":"Lac-Chapleau","admin3":"78130"},{"geonameid":6004050,"name":"Lac-Charlebois","admin3":"77012"},{"geonameid":6004229,"name":"Lac-Chaud","admin3":"79047"},{"geonameid":6004371,"name":"Lac-Chevreuils","admin3":"77065"},{"geonameid":6005466,"name":"Lac-Cornu","admin3":"77065"},{"geonameid":6006615,"name":"Lac-David","admin3":"79065"},{"geonameid":6010651,"name":"Lac-de-l'Orignal","admin3":"78100"},{"geonameid":6011222,"name":"Lac-des-Becs-Scie","admin3":"77043"},{"geonameid":6011486,"name":"Lac-des-Chats","admin3":"77043"},{"geonameid":6012694,"name":"Lac-des-Perdrix","admin3":"75028"},{"geonameid":6012772,"name":"Lac-des-Pins","admin3":"78055"},{"geonameid":6013105,"name":"Lac-des-Seize-Îles","admin3":"77055"},{"geonameid":6013184,"name":"Lac-des-Sources","admin3":"75045"},{"geonameid":6012394,"name":"Lac-Desmarais","admin3":"78102"},{"geonameid":6013565,"name":"Lac-Diane","admin3":"76043"},{"geonameid":6014779,"name":"Lac-du-Camp","admin3":"79010"},{"geonameid":6015123,"name":"Lac-du-Cerf","admin3":"79015"},{"geonameid":6017693,"name":"Lac-du-Pin-Rouge","admin3":"75045"},{"geonameid":6016106,"name":"Lac-Dufresne","admin3":"78020"},{"geonameid":6019738,"name":"Lac-en-Coeur","admin3":"75045"},{"geonameid":6020861,"name":"Lac-Filion","admin3":"75017"},{"geonameid":6021385,"name":"Lac-Fournelle","admin3":"75045"},{"geonameid":6022194,"name":"Lac-Gatineau","admin3":"79088"},{"geonameid":6022270,"name":"Lac-Gauthier","admin3":"78095"},{"geonameid":6022596,"name":"Lac-Gervais","admin3":"78120"},{"geonameid":6024749,"name":"Lac-Huguette","admin3":"77065"},{"geonameid":6026014,"name":"Lac-Johanne","admin3":"77035"},{"geonameid":6026081,"name":"Lac-Jolicoeur","admin3":"78102"},{"geonameid":6027570,"name":"Lac-Keatley","admin3":"76065"},{"geonameid":6028036,"name":"Lac-Labelle","admin3":"78120"},{"geonameid":6028605,"name":"Lac-Lamoureux","admin3":"78102"},{"geonameid":6028698,"name":"Lac-Laniel","admin3":"75005"},{"geonameid":6029107,"name":"Lac-Laurel","admin3":"77055"},{"geonameid":6030629,"name":"Lac-Louisa","admin3":"76035"},{"geonameid":6031032,"name":"Lac-MacDonald","admin3":"76065"},{"geonameid":6031515,"name":"Lac-Manitou-Sud","admin3":"78042"},{"geonameid":6032016,"name":"Lac-Marsan","admin3":"79037"},{"geonameid":6033361,"name":"Lac-Miroir","admin3":"77060"},{"geonameid":6033843,"name":"Lac-Moore","admin3":"78102"},{"geonameid":6035269,"name":"Lac-Notre-Dame","admin3":"77060"},{"geonameid":6036471,"name":"Lac-Paradis","admin3":"79088"},{"geonameid":6037733,"name":"Lac-Pilon","admin3":"77022"},{"geonameid":6039613,"name":"Lac-Renaud","admin3":"77022"},{"geonameid":6040108,"name":"Lac-Robert","admin3":"76030"},{"geonameid":6040672,"name":"Lac-Rossignol","admin3":"78095"},{"geonameid":6041074,"name":"Lac-Saguay","admin3":"79060"},{"geonameid":6041111,"name":"Lac-Saint-Amour","admin3":"77035"},{"geonameid":6041298,"name":"Lac-Saint-Paul","admin3":"79105"},{"geonameid":6041692,"name":"Lac-Sarrazin","admin3":"78020"},{"geonameid":6042350,"name":"Lac-Serpent","admin3":"79005"},{"geonameid":6042689,"name":"Lac-Simon","admin3":"78115"},{"geonameid":6043293,"name":"Lac-Spectacles","admin3":"76065"},{"geonameid":6043718,"name":"Lac-Supérieur","admin3":"78095"},{"geonameid":6046403,"name":"Lac-Vert","admin3":"77065"},{"geonameid":6046666,"name":"Lac-Vingt-Sous","admin3":"77065"},{"geonameid":6047154,"name":"Lac-Wentworth","admin3":"77060"},{"geonameid":6024829,"name":"Lachute","admin3":"76020"},{"geonameid":6035927,"name":"Lacoste","admin3":"79037"},{"geonameid":6048368,"name":"Lakefield","admin3":"76025"},{"geonameid":6048770,"name":"Lakeview","admin3":"76065"},{"geonameid":6049632,"name":"Lantier","admin3":"78015"},{"geonameid":6050505,"name":"Laurel","admin3":"77060"},{"geonameid":6050519,"name":"Laurel-Station","admin3":"77060"},{"geonameid":6051462,"name":"Le Coin-des-Anglais","admin3":"77012"},{"geonameid":6052591,"name":"Le Plateau","admin3":"77065"},{"geonameid":6053289,"name":"Le Village","admin3":"78102"},{"geonameid":6052443,"name":"Lepage","admin3":"73035"},{"geonameid":6052726,"name":"Lesage","admin3":"75040"},{"geonameid":6060253,"name":"Loranger","admin3":"79030"},{"geonameid":6060610,"name":"Lost River","admin3":"76065"},{"geonameid":6060775,"name":"Louisa","admin3":"76035"},{"geonameid":6062508,"name":"Mabel","admin3":"76043"},{"geonameid":6065953,"name":"Marchand","admin3":"79037"},{"geonameid":6066110,"name":"Marelan","admin3":"76052"},{"geonameid":6073907,"name":"Mille-Isles","admin3":"76030"},{"geonameid":6075061,"name":"Mirabel","admin3":"74005"},{"geonameid":6076986,"name":"Mont-Gabriel","admin3":"77022"},{"geonameid":6077059,"name":"Mont-Howard","admin3":"77065"},{"geonameid":6077128,"name":"Mont-Laurier","admin3":"79088"},{"geonameid":6077288,"name":"Mont-Rolland","admin3":"77022"},{"geonameid":6077347,"name":"Mont-Saint-Michel","admin3":"79110"},{"geonameid":6077354,"name":"Mont-Saint-Pierre","admin3":"72032"},{"geonameid":6077328,"name":"Mont-Sainte-Anne","admin3":"77035"},{"geonameid":6077445,"name":"Mont-Tremblant","admin3":"78102"},{"geonameid":6076805,"name":"Montcalm","admin3":"78055"},{"geonameid":6076978,"name":"Montfort","admin3":"77060"},{"geonameid":6077068,"name":"Montigny","admin3":"79030"},{"geonameid":6078607,"name":"Morin-Heights","admin3":"77050"},{"geonameid":6078791,"name":"Morrison","admin3":"78047"},{"geonameid":6078792,"name":"Morrison","admin3":"78060"},{"geonameid":6079656,"name":"Mountain View","admin3":"76020"},{"geonameid":6085880,"name":"Nantel","admin3":"78047"},{"geonameid":6086369,"name":"Navarre","admin3":"79088"},{"geonameid":6087581,"name":"New Glasgow","admin3":"75028"},{"geonameid":6087398,"name":"Newaygo","admin3":"77060"},{"geonameid":6088957,"name":"Nominingue","admin3":"79030"},{"geonameid":6091391,"name":"Notre-Dame-de-Pontmain","admin3":"79010"},{"geonameid":6091446,"name":"Notre-Dame-du-Laus","admin3":"79005"},{"geonameid":6092729,"name":"Ogdensburg","admin3":"76043"},{"geonameid":6092873,"name":"Oka","admin3":"72032"},{"geonameid":6092931,"name":"Oka-sur-la-Montagne","admin3":"72032"},{"geonameid":6096892,"name":"Parc-Belvoir","admin3":"78032"},{"geonameid":6097748,"name":"Parc-Jeanne-Mance","admin3":"75017"},{"geonameid":6099453,"name":"Patelin-Leroux","admin3":"78115"},{"geonameid":6103003,"name":"Petit-Lac-Long","admin3":"78032"},{"geonameid":6101915,"name":"Petite-Allemagne","admin3":"78130"},{"geonameid":6104260,"name":"Piedmont","admin3":"77030"},{"geonameid":6104898,"name":"Pine Beach","admin3":"72015"},{"geonameid":6104992,"name":"Pine Hill","admin3":"76043"},{"geonameid":6105873,"name":"Place-Citation","admin3":"75017"},{"geonameid":6105887,"name":"Place-Laurier","admin3":"75017"},{"geonameid":6106062,"name":"Plage-Roger","admin3":"72015"},{"geonameid":6107056,"name":"Pointe-au-Sable","admin3":"76008"},{"geonameid":6107069,"name":"Pointe-aux-Anglais","admin3":"72032"},{"geonameid":6107272,"name":"Pointe-Calumet","admin3":"72020"},{"geonameid":6108872,"name":"Poissant","admin3":"79105"},{"geonameid":6113198,"name":"Prévost","admin3":"75040"},{"geonameid":6116656,"name":"Rapide-des-Chiens","admin3":"79097"},{"geonameid":6116659,"name":"Rapide-des-Pins","admin3":"79097"},{"geonameid":6116670,"name":"Rapide-du-Fort","admin3":"79005"},{"geonameid":6117608,"name":"Rawcliffe","admin3":"76052"},{"geonameid":6124931,"name":"Rivière-Rouge","admin3":"79037"},{"geonameid":6125314,"name":"Rivington","admin3":"76052"},{"geonameid":6126532,"name":"Rockway Valley","admin3":"78070"},{"geonameid":6127681,"name":"Rosemère","admin3":"73020"},{"geonameid":6137327,"name":"Saint-Adolphe-d'Howard","admin3":"77065"},{"geonameid":6137405,"name":"Saint-André-d'Argenteuil","admin3":"76008"},{"geonameid":6137427,"name":"Saint-Antoine","admin3":"75017"},{"geonameid":6137439,"name":"Saint-Antoine-des-Laurentides","admin3":"74005"},{"geonameid":6137453,"name":"Saint-Augustin","admin3":"74005"},{"geonameid":6137557,"name":"Saint-Canut","admin3":"74005"},{"geonameid":6137626,"name":"Saint-Colomban","admin3":"75005"},{"geonameid":6138175,"name":"Saint-Eustache","admin3":"72005"},{"geonameid":6138198,"name":"Saint-Faustin--Lac-Carré","admin3":"78047"},{"geonameid":6138338,"name":"Saint-Hermas","admin3":"74005"},{"geonameid":6138352,"name":"Saint-Hippolyte","admin3":"75045"},{"geonameid":6138425,"name":"Saint-Janvier","admin3":"74005"},{"geonameid":6138501,"name":"Saint-Jérôme","admin3":"75017"},{"geonameid":6138573,"name":"Saint-Joseph-du-Lac","admin3":"72025"},{"geonameid":6138575,"name":"Saint-Jovite","admin3":"78102"},{"geonameid":6138577,"name":"Saint-Jovite-Station","admin3":"78102"},{"geonameid":6138805,"name":"Saint-Michel-de-Wentworth","admin3":"77060"},{"geonameid":6138898,"name":"Saint-Philippe","admin3":"76043"},{"geonameid":6138913,"name":"Saint-Philippe-Est","admin3":"76043"},{"geonameid":6138963,"name":"Saint-Placide","admin3":"72043"},{"geonameid":6139045,"name":"Saint-Sauveur","admin3":"77043"},{"geonameid":6139047,"name":"Saint-Sauveur-des-Monts","admin3":"77043"},{"geonameid":6137696,"name":"Sainte-Adèle","admin3":"77022"},{"geonameid":6137700,"name":"Sainte-Agathe","admin3":"78032"},{"geonameid":6137702,"name":"Sainte-Agathe-des-Monts","admin3":"78032"},{"geonameid":6137753,"name":"Sainte-Anne-des-Plaines","admin3":"73035"},{"geonameid":6137754,"name":"Sainte-Anne-du-Lac","admin3":"79115"},{"geonameid":6137969,"name":"Sainte-Lucie-des-Laurentides","admin3":"78020"},{"geonameid":6137994,"name":"Sainte-Marguerite--Estérel","admin3":"77012"},{"geonameid":6137982,"name":"Sainte-Marguerite-du-Lac-Masson","admin3":"77012"},{"geonameid":6137998,"name":"Sainte-Marguerite-Station","admin3":"77022"},{"geonameid":6138032,"name":"Sainte-Marthe-sur-le-Lac","admin3":"72015"},{"geonameid":6138049,"name":"Sainte-Monique","admin3":"74005"},{"geonameid":6138098,"name":"Sainte-Scholastique","admin3":"74005"},{"geonameid":6138103,"name":"Sainte-Sophie","admin3":"75028"},{"geonameid":6138121,"name":"Sainte-Thérèse","admin3":"73010"},{"geonameid":6144238,"name":"Sentiers-du-Sommet","admin3":"77012"},{"geonameid":6145464,"name":"Shawbridge","admin3":"75040"},{"geonameid":6147464,"name":"Sienna","admin3":"79050"},{"geonameid":6151232,"name":"Sommet-Bleu","admin3":"77022"},{"geonameid":6151236,"name":"Sommet-Vert","admin3":"77012"},{"geonameid":6154291,"name":"Spring Valley","admin3":"77043"},{"geonameid":6155694,"name":"Staynerville","admin3":"76043"},{"geonameid":6162993,"name":"Terrasse-Bigras","admin3":"72032"},{"geonameid":6162994,"name":"Terrasse-Campbell","admin3":"76052"},{"geonameid":6162997,"name":"Terrasse-des-Pins","admin3":"75040"},{"geonameid":6163001,"name":"Terrasse-Legault","admin3":"76052"},{"geonameid":6163006,"name":"Terrasse-Raymond","admin3":""},{"geonameid":6173001,"name":"Val-David","admin3":"78010"},{"geonameid":6173010,"name":"Val-des-Lacs","admin3":"78100"},{"geonameid":6173230,"name":"Val-Limoges","admin3":"79088"},{"geonameid":6173241,"name":"Val-Morin","admin3":"78005"},{"geonameid":6173249,"name":"Val-Ombreuse","admin3":"79005"},{"geonameid":6173264,"name":"Val-Royal","admin3":"78005"},{"geonameid":6173276,"name":"Val-Viger","admin3":"79065"},{"geonameid":6174749,"name":"Wabassee","admin3":"79022"},{"geonameid":6177712,"name":"Weir","admin3":"78055"},{"geonameid":6177744,"name":"Weisbord Acres","admin3":"75045"},{"geonameid":6178117,"name":"Wentworth-Nord","admin3":"77060"}],"admin3":[{"geonameid":5884469,"name":"Amherst","admin3":"78070"},{"geonameid":5887440,"name":"Arundel","admin3":"78060"},{"geonameid":5908309,"name":"Brébeuf","admin3":"78075"},{"geonameid":5963552,"name":"Gore","admin3":"76025"},{"geonameid":5971252,"name":"Harrington","admin3":"76065"},{"geonameid":6137624,"name":"Saint-Colomban","admin3":"75005"},{"geonameid":6137745,"name":"Sainte-Anne-des-Lacs","admin3":"77035"},{"geonameid":6178103,"name":"Wentworth","admin3":"76035"},{"geonameid":8672555,"name":"Saint-Eustache","admin3":"72005"},{"geonameid":8672590,"name":"Sainte-Thérèse","admin3":"73010"},{"geonameid":8672626,"name":"Labelle","admin3":"78120"},{"geonameid":8672657,"name":"Saint-Aimé-du-Lac-des-Îles","admin3":"79022"},{"geonameid":8672702,"name":"Sainte-Marguerite-du-Lac-Masson","admin3":"77012"},{"geonameid":8672754,"name":"Barkmere","admin3":"78050"},{"geonameid":8672765,"name":"Lac-des-Écorces","admin3":"79078"},{"geonameid":8672769,"name":"Lorraine","admin3":"73025"},{"geonameid":8672812,"name":"Saint-Faustin-Lac-Carre","admin3":"78047"},{"geonameid":8672888,"name":"Lac-Tremblant-Nord","admin3":"78127"},{"geonameid":8672966,"name":"Huberdeau","admin3":"78065"},{"geonameid":8673066,"name":"Lantier","admin3":"78015"},{"geonameid":8673070,"name":"Notre-Dame-du-Laus","admin3":"79005"},{"geonameid":8673080,"name":"Lac-Supérieur","admin3":"78095"},{"geonameid":8673125,"name":"Saint-Hippolyte","admin3":"75045"},{"geonameid":8673190,"name":"Bois-des-Filion","admin3":"73030"},{"geonameid":8673195,"name":"Pointe-Calumet","admin3":"72020"},{"geonameid":8673199,"name":"Kiamika","admin3":"79025"},{"geonameid":8673205,"name":"Val-des-Lacs","admin3":"78100"},{"geonameid":8673234,"name":"Ivry-sur-le-Lac","admin3":"78042"},{"geonameid":8673238,"name":"Val-Morin","admin3":"78005"},{"geonameid":8673275,"name":"La Conception","admin3":"78115"},{"geonameid":8673290,"name":"Sainte-Lucie-des-Laurentides","admin3":"78020"},{"geonameid":8673365,"name":"Chute-Saint-Philippe","admin3":"79065"},{"geonameid":8673369,"name":"Wentworth-Nord","admin3":"77060"},{"geonameid":8673422,"name":"Mille-Isles","admin3":"76030"},{"geonameid":8673488,"name":"Saint-Placide","admin3":"72043"},{"geonameid":8673489,"name":"Montcalm","admin3":"78055"},{"geonameid":8673492,"name":"Lac-des-Seize-Îles","admin3":"77055"},{"geonameid":8673511,"name":"La Macaza","admin3":"79047"},{"geonameid":8673515,"name":"Estérel","admin3":"77011"},{"geonameid":8673533,"name":"Saint-André-d'Argenteuil","admin3":"76008"},{"geonameid":8673542,"name":"Mont-Saint-Michel","admin3":"79110"},{"geonameid":8673587,"name":"Saint-Joseph-du-Lac","admin3":"72025"},{"geonameid":8673601,"name":"Sainte-Sophie","admin3":"75028"},{"geonameid":8673675,"name":"L'Ascension","admin3":"79050"},{"geonameid":8673685,"name":"Nominingue","admin3":"79030"},{"geonameid":8673704,"name":"Saint-Adolphe-d'Howard","admin3":"77065"},{"geonameid":8673719,"name":"Mont-Laurier","admin3":"79088"},{"geonameid":8673777,"name":"Sainte-Anne-des-Plaines","admin3":"73035"},{"geonameid":8673779,"name":"Brownsburg-Chatham","admin3":"76043"},{"geonameid":8673789,"name":"Prévost","admin3":"75040"},{"geonameid":8673790,"name":"Notre-Dame-de-Pontmain","admin3":"79010"},{"geonameid":8673815,"name":"Piedmont","admin3":"77030"},{"geonameid":8673816,"name":"Sainte-Marthe-sur-le-Lac","admin3":"72015"},{"geonameid":8673923,"name":"Boisbriand","admin3":"73005"},{"geonameid":8673941,"name":"Deux-Montagnes","admin3":"72010"},{"geonameid":8674042,"name":"Mont-Tremblant","admin3":"78102"},{"geonameid":8674047,"name":"Blainville","admin3":"73015"},{"geonameid":8674049,"name":"Sainte-Agathe-des-Monts","admin3":"78032"},{"geonameid":8674054,"name":"Lachute","admin3":"76020"},{"geonameid":8674062,"name":"Sainte-Anne-du-Lac","admin3":"79115"},{"geonameid":8674070,"name":"La Minerve","admin3":"78130"},{"geonameid":8674074,"name":"Morin-Heights","admin3":"77050"},{"geonameid":8674079,"name":"Rosemère","admin3":"73020"},{"geonameid":8674099,"name":"Saint-Jérôme","admin3":"75017"},{"geonameid":8674127,"name":"Grenville","admin3":"76055"},{"geonameid":8674158,"name":"Sainte-Adèle","admin3":"77022"},{"geonameid":8674163,"name":"Ferme-Neuve","admin3":"79097"},{"geonameid":8674175,"name":"Lac-Saguay","admin3":"79060"},{"geonameid":8674195,"name":"Rivière-Rouge","admin3":"79037"},{"geonameid":8674225,"name":"Val-David","admin3":"78010"},{"geonameid":8674232,"name":"Saint-Sauveur","admin3":"77043"},{"geonameid":8674233,"name":"Grenville-sur-la-Rouge","admin3":"76052"},{"geonameid":8674240,"name":"Oka","admin3":"72032"},{"geonameid":8674248,"name":"Lac-du-Cerf","admin3":"79015"},{"geonameid":8674250,"name":"Lac-Saint-Paul","admin3":"79105"}],"alternateNames":[]},"__N_SSG":true}