{"pageProps":{"locale":"en","admin2":{"geonameid":5178515,"name":"Armstrong County","country":"US","admin1":"PA","admin2":"005","admin3":"","latitude":"40.8122900","longitude":"-79.4645400","localeAltName":null},"admin1":{"geonameid":6254927,"name":"Pennsylvania","admin1":"PA","localeAltName":"Pennsylvania"},"locations":[{"geonameid":5178393,"name":"Apollo","admin3":"02720","localeAltName":null},{"geonameid":5186474,"name":"Dayton","admin3":"18400","localeAltName":null},{"geonameid":5189947,"name":"Ford City","admin3":"26512","localeAltName":null},{"geonameid":5190486,"name":"Freeport","admin3":"27784","localeAltName":null},{"geonameid":5196357,"name":"Kittanning","admin3":"40040","localeAltName":null},{"geonameid":5197568,"name":"Leechburg","admin3":"42280","localeAltName":null},{"geonameid":5197732,"name":"Lenape Heights","admin3":"46976","localeAltName":null},{"geonameid":5203254,"name":"New Salem","admin3":"63712","localeAltName":null},{"geonameid":5203519,"name":"North Apollo","admin3":"54728","localeAltName":null},{"geonameid":5204552,"name":"Orchard Hills","admin3":"39968","localeAltName":null},{"geonameid":5205119,"name":"Parker","admin3":"57976","localeAltName":null},{"geonameid":5206569,"name":"Pleasant View","admin3":"58160","localeAltName":null},{"geonameid":5209304,"name":"Rural Valley","admin3":"66720","localeAltName":null},{"geonameid":5218745,"name":"West Hills","admin3":"21160","localeAltName":null},{"geonameid":5218758,"name":"West Kittanning","admin3":"83248","localeAltName":null},{"geonameid":5220144,"name":"Worthington","admin3":"86560","localeAltName":null}],"admin3":[{"geonameid":5178397,"name":"Borough of Apollo","admin3":"02720","localeAltName":null},{"geonameid":5178418,"name":"Borough of Applewold","admin3":"02752"},{"geonameid":5178670,"name":"Borough of Atwood","admin3":"03480"},{"geonameid":5180210,"name":"Township of Bethel","admin3":"05992"},{"geonameid":5181108,"name":"Township of Boggs","admin3":"07416"},{"geonameid":5181459,"name":"Township of Bradys Bend","admin3":"08152"},{"geonameid":5182476,"name":"Township of Burrell","admin3":"10344"},{"geonameid":5182694,"name":"Township of Cadogan","admin3":"10680"},{"geonameid":5185667,"name":"Township of Cowanshannock","admin3":"16728"},{"geonameid":5186471,"name":"Borough of Dayton","admin3":"18400","localeAltName":null},{"geonameid":5187919,"name":"Township of East Franklin","admin3":"21160","localeAltName":null},{"geonameid":5188420,"name":"Borough of Elderton","admin3":"22832"},{"geonameid":5189941,"name":"Borough of Ford City","admin3":"26512","localeAltName":null},{"geonameid":5189943,"name":"Borough of Ford Cliff","admin3":"26520"},{"geonameid":5190494,"name":"Borough of Freeport","admin3":"27784","localeAltName":null},{"geonameid":5191137,"name":"Township of Gilpin","admin3":"29184"},{"geonameid":5194379,"name":"Township of Hovey","admin3":"35936"},{"geonameid":5196332,"name":"Township of Kiskiminetas","admin3":"39968","localeAltName":null},{"geonameid":5196367,"name":"Borough of Kittanning","admin3":"40040","localeAltName":null},{"geonameid":5196368,"name":"Township of Kittanning","admin3":"40056"},{"geonameid":5197572,"name":"Borough of Leechburg","admin3":"42280","localeAltName":null},{"geonameid":5199458,"name":"Township of Madison","admin3":"46456"},{"geonameid":5199546,"name":"Township of Mahoning","admin3":"46632"},{"geonameid":5199704,"name":"Township of Manor","admin3":"46976","localeAltName":null},{"geonameid":5199707,"name":"Borough of Manorville","admin3":"47064"},{"geonameid":5203521,"name":"Borough of North Apollo","admin3":"54728","localeAltName":null},{"geonameid":5203599,"name":"Township of North Buffalo","admin3":"54856"},{"geonameid":5205136,"name":"City of Parker","admin3":"57976","localeAltName":null},{"geonameid":5205173,"name":"Township of Parks","admin3":"58160","localeAltName":null},{"geonameid":5205713,"name":"Township of Perry","admin3":"59440"},{"geonameid":5206265,"name":"Township of Pine","admin3":"60280"},{"geonameid":5206634,"name":"Township of Plumcreek","admin3":"61576"},{"geonameid":5207702,"name":"Township of Rayburn","admin3":"63560"},{"geonameid":5207848,"name":"Township of Redbank","admin3":"63712","localeAltName":null},{"geonameid":5209306,"name":"Borough of Rural Valley","admin3":"66720","localeAltName":null},{"geonameid":5212915,"name":"Township of South Bend","admin3":"71968"},{"geonameid":5212918,"name":"Borough of South Bethlehem","admin3":"71976"},{"geonameid":5212974,"name":"Township of South Buffalo","admin3":"72000"},{"geonameid":5214698,"name":"Township of Sugarcreek","admin3":"74992"},{"geonameid":5217057,"name":"Township of Valley","admin3":"79528"},{"geonameid":5218139,"name":"Township of Washington","admin3":"81176"},{"geonameid":5218284,"name":"Township of Wayne","admin3":"81720"},{"geonameid":5218733,"name":"Township of West Franklin","admin3":"83024"},{"geonameid":5218759,"name":"Borough of West Kittanning","admin3":"83248","localeAltName":null},{"geonameid":5220147,"name":"Borough of Worthington","admin3":"86560","localeAltName":null}],"alternateNames":[{"alternatenameId":2186547,"geonameid":6254927,"isoLanguage":"en","alternateName":"Pennsylvania","isPreferredName":true,"isShortName":true,"isColloquial":false,"isHistoric":false}]},"__N_SSG":true}