{"pageProps":{"locale":"en","admin2":{"geonameid":5186106,"name":"Cumberland County","country":"US","admin1":"PA","admin2":"041","admin3":"","latitude":"40.1636300","longitude":"-77.2655500","localeAltName":null},"admin1":{"geonameid":6254927,"name":"Pennsylvania","admin1":"PA","localeAltName":"Pennsylvania"},"locations":[{"geonameid":5181134,"name":"Boiling Springs","admin3":"72336","localeAltName":null},{"geonameid":5182928,"name":"Camp Hill","admin3":"11000","localeAltName":null},{"geonameid":5183234,"name":"Carlisle","admin3":"11272","localeAltName":null},{"geonameid":5188793,"name":"Enola","admin3":"21680","localeAltName":null},{"geonameid":5197725,"name":"Lemoyne","admin3":"42648","localeAltName":null},{"geonameid":5199075,"name":"Lower Allen","admin3":"44832","localeAltName":null},{"geonameid":5200657,"name":"Mechanicsburg","admin3":"48376","localeAltName":null},{"geonameid":5202164,"name":"Mount Holly Springs","admin3":"51592","localeAltName":null},{"geonameid":5203164,"name":"New Cumberland","admin3":"53464","localeAltName":null},{"geonameid":5203377,"name":"Newville","admin3":"54320","localeAltName":null},{"geonameid":5211113,"name":"Schlusser","admin3":"55216","localeAltName":null},{"geonameid":5212038,"name":"Shippensburg","admin3":"70352","localeAltName":null},{"geonameid":5212033,"name":"Shiremanstown","admin3":"70384","localeAltName":null},{"geonameid":5218702,"name":"West Fairview","admin3":"21680","localeAltName":null},{"geonameid":5220137,"name":"Wormleysburg","admin3":"86528","localeAltName":null}],"admin3":[{"geonameid":5182937,"name":"Borough of Camp Hill","admin3":"11000","localeAltName":null},{"geonameid":5183251,"name":"Borough of Carlisle","admin3":"11272","localeAltName":null},{"geonameid":5185305,"name":"Township of Cooke","admin3":"15920"},{"geonameid":5186920,"name":"Township of Dickinson","admin3":"19144"},{"geonameid":5188020,"name":"Township of East Pennsboro","admin3":"21680","localeAltName":null},{"geonameid":5192520,"name":"Township of Hampden","admin3":"32296"},{"geonameid":5194209,"name":"Township of Hopewell","admin3":"35672"},{"geonameid":5197727,"name":"Borough of Lemoyne","admin3":"42648","localeAltName":null},{"geonameid":5199078,"name":"Township of Lower Allen","admin3":"44832","localeAltName":null},{"geonameid":5199102,"name":"Township of Lower Frankford","admin3":"44904"},{"geonameid":5199134,"name":"Township of Lower Mifflin","admin3":"44984"},{"geonameid":5200661,"name":"Borough of Mechanicsburg","admin3":"48376","localeAltName":null},{"geonameid":5201022,"name":"Township of Middlesex","admin3":"49072"},{"geonameid":5201729,"name":"Township of Monroe","admin3":"50472"},{"geonameid":5202168,"name":"Borough of Mount Holly Springs","admin3":"51592","localeAltName":null},{"geonameid":5203150,"name":"Borough of New Cumberland","admin3":"53464","localeAltName":null},{"geonameid":5203294,"name":"Borough of Newburg","admin3":"53344"},{"geonameid":5203381,"name":"Borough of Newville","admin3":"54320","localeAltName":null},{"geonameid":5203714,"name":"Township of North Middleton","admin3":"55216","localeAltName":null},{"geonameid":5203719,"name":"Township of North Newton","admin3":"55248"},{"geonameid":5205438,"name":"Township of Penn","admin3":"58824"},{"geonameid":5212025,"name":"Borough of Shippensburg","admin3":"70352","localeAltName":null},{"geonameid":5212026,"name":"Township of Shippensburg","admin3":"70360"},{"geonameid":5212035,"name":"Borough of Shiremanstown","admin3":"70384","localeAltName":null},{"geonameid":5212283,"name":"Township of Silver Spring","admin3":"70792"},{"geonameid":5213056,"name":"Township of South Middleton","admin3":"72336","localeAltName":null},{"geonameid":5213070,"name":"Township of South Newton","admin3":"72384"},{"geonameid":5213143,"name":"Township of Southampton","admin3":"71904"},{"geonameid":5216789,"name":"Township of Upper Allen","admin3":"78736"},{"geonameid":5216823,"name":"Township of Upper Frankford","admin3":"79032"},{"geonameid":5216851,"name":"Township of Upper Mifflin","admin3":"79152"},{"geonameid":5218843,"name":"Township of West Pennsboro","admin3":"83800"},{"geonameid":5220138,"name":"Borough of Wormleysburg","admin3":"86528","localeAltName":null}],"alternateNames":[{"alternatenameId":2186547,"geonameid":6254927,"isoLanguage":"en","alternateName":"Pennsylvania","isPreferredName":true,"isShortName":true,"isColloquial":false,"isHistoric":false}]},"__N_SSG":true}