{"pageProps":{"locale":"en","admin2":{"geonameid":5186677,"name":"Delaware County","country":"US","admin1":"PA","admin2":"045","admin3":"","latitude":"39.9168100","longitude":"-75.3989000","localeAltName":null},"admin1":{"geonameid":6254927,"name":"Pennsylvania","admin1":"PA","localeAltName":"Pennsylvania"},"locations":[{"geonameid":4556248,"name":"Aldan","admin3":"00676","localeAltName":null},{"geonameid":4556702,"name":"Boothwyn","admin3":"78776","localeAltName":null},{"geonameid":4556793,"name":"Brookhaven","admin3":"09080","localeAltName":null},{"geonameid":4556802,"name":"Broomall","admin3":"47616","localeAltName":null},{"geonameid":4557137,"name":"Chester","admin3":"13208","localeAltName":null},{"geonameid":4557148,"name":"Chester Heights","admin3":"13232","localeAltName":null},{"geonameid":4557228,"name":"Clifton Heights","admin3":"14264","localeAltName":null},{"geonameid":4557287,"name":"Collingdale","admin3":"15232","localeAltName":null},{"geonameid":4557296,"name":"Colwyn","admin3":"15432","localeAltName":null},{"geonameid":4557485,"name":"Darby","admin3":"18152","localeAltName":null},{"geonameid":4557606,"name":"Drexel Hill","admin3":"79000","localeAltName":null},{"geonameid":4557699,"name":"East Lansdowne","admin3":"21384","localeAltName":null},{"geonameid":4557760,"name":"Eddystone","admin3":"22296","localeAltName":null},{"geonameid":4558004,"name":"Folcroft","admin3":"26408","localeAltName":null},{"geonameid":4558002,"name":"Folsom","admin3":"64800","localeAltName":null},{"geonameid":4558247,"name":"Glenolden","admin3":"29720","localeAltName":null},{"geonameid":4559077,"name":"Lansdowne","admin3":"41440","localeAltName":null},{"geonameid":4559210,"name":"Lima","admin3":"49136","localeAltName":null},{"geonameid":4559225,"name":"Linwood","admin3":"44888","localeAltName":null},{"geonameid":4559431,"name":"Marcus Hook","admin3":"47344","localeAltName":null},{"geonameid":4559575,"name":"Media","admin3":"48480","localeAltName":null},{"geonameid":4559666,"name":"Millbourne","admin3":"49504","localeAltName":null},{"geonameid":4559762,"name":"Morton","admin3":"51176","localeAltName":null},{"geonameid":4560057,"name":"Norwood","admin3":"55664","localeAltName":null},{"geonameid":4560233,"name":"Parkside","admin3":"58176","localeAltName":null},{"geonameid":4560549,"name":"Prospect Park","admin3":"62792","localeAltName":null},{"geonameid":5207490,"name":"Radnor","admin3":"63264","localeAltName":null},{"geonameid":4560709,"name":"Ridley Park","admin3":"64832","localeAltName":null},{"geonameid":4560819,"name":"Rose Valley","admin3":"66192","localeAltName":null},{"geonameid":4560865,"name":"Rutledge","admin3":"66928","localeAltName":null},{"geonameid":4561188,"name":"Sharon Hill","admin3":"69752","localeAltName":null},{"geonameid":4561407,"name":"Springfield","admin3":"73032","localeAltName":null},{"geonameid":4561628,"name":"Swarthmore","admin3":"75648","localeAltName":null},{"geonameid":4561768,"name":"Trainer","admin3":"77288","localeAltName":null},{"geonameid":4561874,"name":"Upland","admin3":"78712","localeAltName":null},{"geonameid":7259124,"name":"Village Green-Green Ridge","admin3":"03336","localeAltName":null},{"geonameid":5218270,"name":"Wayne","admin3":"63264","localeAltName":null},{"geonameid":4562366,"name":"Woodlyn","admin3":"64800","localeAltName":null},{"geonameid":4562430,"name":"Yeadon","admin3":"86968","localeAltName":null}],"admin3":[{"geonameid":4556250,"name":"Borough of Aldan","admin3":"00676","localeAltName":null},{"geonameid":4556339,"name":"Township of Aston","admin3":"03336","localeAltName":null},{"geonameid":4556543,"name":"Township of Bethel","admin3":"06024"},{"geonameid":4556795,"name":"Borough of Brookhaven","admin3":"09080","localeAltName":null},{"geonameid":4557089,"name":"Township of Chadds Ford","admin3":"12442"},{"geonameid":4557139,"name":"Borough of Chester Heights","admin3":"13232","localeAltName":null},{"geonameid":4557144,"name":"City of Chester","admin3":"13208","localeAltName":null},{"geonameid":4557145,"name":"Township of Chester","admin3":"13212"},{"geonameid":4557229,"name":"Borough of Clifton Heights","admin3":"14264","localeAltName":null},{"geonameid":4557288,"name":"Borough of Collingdale","admin3":"15232","localeAltName":null},{"geonameid":4557297,"name":"Borough of Colwyn","admin3":"15432","localeAltName":null},{"geonameid":4557309,"name":"Township of Concord","admin3":"15488"},{"geonameid":4557490,"name":"Borough of Darby","admin3":"18152","localeAltName":null},{"geonameid":4557491,"name":"Township of Darby","admin3":"18160"},{"geonameid":4557701,"name":"Borough of East Lansdowne","admin3":"21384","localeAltName":null},{"geonameid":4557736,"name":"Borough of Eddystone","admin3":"22296","localeAltName":null},{"geonameid":4557754,"name":"Township of Edgmont","admin3":"22584"},{"geonameid":4557998,"name":"Borough of Folcroft","admin3":"26408","localeAltName":null},{"geonameid":4558248,"name":"Borough of Glenolden","admin3":"29720","localeAltName":null},{"geonameid":4558522,"name":"Township of Haverford","admin3":"33144"},{"geonameid":4559347,"name":"Township of Lower Chichester","admin3":"44888","localeAltName":null},{"geonameid":4559435,"name":"Borough of Marcus Hook","admin3":"47344","localeAltName":null},{"geonameid":4559453,"name":"Township of Marple","admin3":"47616","localeAltName":null},{"geonameid":4559581,"name":"Borough of Media","admin3":"48480","localeAltName":null},{"geonameid":4559637,"name":"Township of Middletown","admin3":"49136","localeAltName":null},{"geonameid":4559668,"name":"Borough of Millbourne","admin3":"49504","localeAltName":null},{"geonameid":4559766,"name":"Borough of Morton","admin3":"51176","localeAltName":null},{"geonameid":4559949,"name":"Township of Nether Providence","admin3":"53104"},{"geonameid":4560007,"name":"Township of Newtown","admin3":"54224"},{"geonameid":4560060,"name":"Borough of Norwood","admin3":"55664","localeAltName":null},{"geonameid":4560236,"name":"Borough of Parkside","admin3":"58176","localeAltName":null},{"geonameid":4560551,"name":"Borough of Prospect Park","admin3":"62792","localeAltName":null},{"geonameid":4560614,"name":"Township of Radnor","admin3":"63264","localeAltName":null},{"geonameid":4560711,"name":"Borough of Ridley Park","admin3":"64832","localeAltName":null},{"geonameid":4560715,"name":"Township of Ridley","admin3":"64800","localeAltName":null},{"geonameid":4560821,"name":"Borough of Rose Valley","admin3":"66192","localeAltName":null},{"geonameid":4560866,"name":"Borough of Rutledge","admin3":"66928","localeAltName":null},{"geonameid":4561186,"name":"Borough of Sharon Hill","admin3":"69752","localeAltName":null},{"geonameid":4561413,"name":"Township of Springfield","admin3":"73032","localeAltName":null},{"geonameid":4561629,"name":"Borough of Swarthmore","admin3":"75648","localeAltName":null},{"geonameid":4561715,"name":"Township of Thornbury","admin3":"76576"},{"geonameid":4561734,"name":"Township of Tinicum","admin3":"76792"},{"geonameid":4561770,"name":"Borough of Trainer","admin3":"77288","localeAltName":null},{"geonameid":4561876,"name":"Borough of Upland","admin3":"78712","localeAltName":null},{"geonameid":4561878,"name":"Township of Upper Chichester","admin3":"78776","localeAltName":null},{"geonameid":4561881,"name":"Township of Upper Darby","admin3":"79000","localeAltName":null},{"geonameid":4561889,"name":"Township of Upper Providence","admin3":"79248"},{"geonameid":4562399,"name":"Borough of Yeadon","admin3":"86968","localeAltName":null},{"geonameid":4828999,"name":"Borough of Lansdowne","admin3":"41440","localeAltName":null}],"alternateNames":[{"alternatenameId":2186547,"geonameid":6254927,"isoLanguage":"en","alternateName":"Pennsylvania","isPreferredName":true,"isShortName":true,"isColloquial":false,"isHistoric":false}]},"__N_SSG":true}