{"pageProps":{"locale":"en","admin2":{"geonameid":5190337,"name":"Franklin County","country":"US","admin1":"PA","admin2":"055","admin3":"","latitude":"39.9274200","longitude":"-77.7212700","localeAltName":null},"admin1":{"geonameid":6254927,"name":"Pennsylvania","admin1":"PA","localeAltName":"Pennsylvania"},"locations":[{"geonameid":4556668,"name":"Blue Ridge Summit","admin3":"81240","localeAltName":null},{"geonameid":4557109,"name":"Chambersburg","admin3":"12536","localeAltName":null},{"geonameid":4557920,"name":"Fayetteville","admin3":"30944","localeAltName":null},{"geonameid":4558020,"name":"Fort Loudon","admin3":"59600","localeAltName":null},{"geonameid":4558369,"name":"Greencastle","admin3":"30896","localeAltName":null},{"geonameid":7258686,"name":"Guilford","admin3":"31720","localeAltName":null},{"geonameid":4558439,"name":"Guilford Siding","admin3":"31720","localeAltName":null},{"geonameid":4559439,"name":"Marion","admin3":"31720","localeAltName":null},{"geonameid":4559600,"name":"Mercersburg","admin3":"48704","localeAltName":null},{"geonameid":4559730,"name":"Mont Alto","admin3":"50544","localeAltName":null},{"geonameid":4560271,"name":"Pen Mar","admin3":"81240","localeAltName":null},{"geonameid":4560843,"name":"Rouzerville","admin3":"81240","localeAltName":null},{"geonameid":4561120,"name":"Scotland","admin3":"30944","localeAltName":null},{"geonameid":4561477,"name":"State Line","admin3":"02696","localeAltName":null},{"geonameid":4562065,"name":"Wayne Heights","admin3":"81240","localeAltName":null},{"geonameid":4562070,"name":"Waynesboro","admin3":"81824","localeAltName":null}],"admin3":[{"geonameid":4556301,"name":"Township of Antrim","admin3":"02696","localeAltName":null},{"geonameid":4557102,"name":"Borough of Chambersburg","admin3":"12536","localeAltName":null},{"geonameid":4558374,"name":"Borough of Greencastle","admin3":"30896","localeAltName":null},{"geonameid":4558429,"name":"Township of Guilford","admin3":"31720","localeAltName":null},{"geonameid":4558462,"name":"Township of Hamilton","admin3":"32152"},{"geonameid":4559605,"name":"Borough of Mercersburg","admin3":"48704","localeAltName":null},{"geonameid":4559615,"name":"Township of Metal","admin3":"48888"},{"geonameid":4559733,"name":"Borough of Mont Alto","admin3":"50544","localeAltName":null},{"geonameid":4559739,"name":"Township of Montgomery","admin3":"50616"},{"geonameid":4560332,"name":"Township of Peters","admin3":"59600","localeAltName":null},{"geonameid":4560591,"name":"Township of Quincy","admin3":"63200"},{"geonameid":4561045,"name":"Township of Saint Thomas","admin3":"67400"},{"geonameid":4562036,"name":"Township of Warren","admin3":"80992"},{"geonameid":4562052,"name":"Township of Washington","admin3":"81240","localeAltName":null},{"geonameid":4562077,"name":"Borough of Waynesboro","admin3":"81824","localeAltName":null},{"geonameid":5189336,"name":"Township of Fannett","admin3":"25176"},{"geonameid":5191967,"name":"Township of Greene","admin3":"30944","localeAltName":null},{"geonameid":5197786,"name":"Township of Letterkenny","admin3":"42888"},{"geonameid":5199287,"name":"Township of Lurgan","admin3":"45496"},{"geonameid":5204595,"name":"Borough of Orrstown","admin3":"57112"},{"geonameid":5213144,"name":"Township of Southampton","admin3":"71912"}],"alternateNames":[{"alternatenameId":2186547,"geonameid":6254927,"isoLanguage":"en","alternateName":"Pennsylvania","isPreferredName":true,"isShortName":true,"isColloquial":false,"isHistoric":false}]},"__N_SSG":true}