{"pageProps":{"locale":"en","admin2":{"geonameid":5190669,"name":"Fulton County","country":"US","admin1":"PA","admin2":"057","admin3":"","latitude":"39.9253400","longitude":"-78.1126800","localeAltName":null},"admin1":{"geonameid":6254927,"name":"Pennsylvania","admin1":"PA","localeAltName":"Pennsylvania"},"locations":[{"geonameid":4559516,"name":"McConnellsburg","admin3":"46000","localeAltName":null}],"admin3":[{"geonameid":4556352,"name":"Township of Ayr","admin3":"03704"},{"geonameid":4556485,"name":"Township of Belfast","admin3":"05144"},{"geonameid":4556544,"name":"Township of Bethel","admin3":"06032"},{"geonameid":4556837,"name":"Township of Brush Creek","admin3":"09568"},{"geonameid":4559201,"name":"Township of Licking Creek","admin3":"43200"},{"geonameid":4559517,"name":"Borough of McConnellsburg","admin3":"46000","localeAltName":null},{"geonameid":4561712,"name":"Township of Thompson","admin3":"76488"},{"geonameid":4561741,"name":"Township of Todd","admin3":"76984"},{"geonameid":4561858,"name":"Township of Union","admin3":"78320"},{"geonameid":5187451,"name":"Township of Dublin","admin3":"20112"},{"geonameid":5215285,"name":"Township of Taylor","admin3":"76176"},{"geonameid":5218449,"name":"Township of Wells","admin3":"82152"},{"geonameid":6326718,"name":"Borough of Valley-Hi","admin3":"79644"}],"alternateNames":[{"alternatenameId":2186547,"geonameid":6254927,"isoLanguage":"en","alternateName":"Pennsylvania","isPreferredName":true,"isShortName":true,"isColloquial":false,"isHistoric":false}]},"__N_SSG":true}