{"pageProps":{"locale":"en","admin2":{"geonameid":5191994,"name":"Greene County","country":"US","admin1":"PA","admin2":"059","admin3":"","latitude":"39.8538000","longitude":"-80.2228700","localeAltName":null},"admin1":{"geonameid":6254927,"name":"Pennsylvania","admin1":"PA","localeAltName":"Pennsylvania"},"locations":[{"geonameid":4556681,"name":"Bobtown","admin3":"20296","localeAltName":null},{"geonameid":4557436,"name":"Crucible","admin3":"17648","localeAltName":null},{"geonameid":4557636,"name":"Dry Tavern","admin3":"37888","localeAltName":null},{"geonameid":4557857,"name":"Fairdale","admin3":"17648","localeAltName":null},{"geonameid":4559495,"name":"Mather","admin3":"50992","localeAltName":null},{"geonameid":4559761,"name":"Morrisville","admin3":"27408","localeAltName":null},{"geonameid":4559812,"name":"Mount Morris","admin3":"59472","localeAltName":null},{"geonameid":4559943,"name":"Nemacolin","admin3":"17648","localeAltName":null},{"geonameid":4562078,"name":"Waynesburg","admin3":"81832","localeAltName":null}],"admin3":[{"geonameid":4556252,"name":"Township of Aleppo","admin3":"00740"},{"geonameid":4557006,"name":"Borough of Carmichaels","admin3":"11328"},{"geonameid":4557069,"name":"Township of Center","admin3":"12032"},{"geonameid":4557203,"name":"Borough of Clarksville","admin3":"13896"},{"geonameid":4557468,"name":"Township of Cumberland","admin3":"17648","localeAltName":null},{"geonameid":4557639,"name":"Township of Dunkard","admin3":"20296","localeAltName":null},{"geonameid":4558072,"name":"Township of Franklin","admin3":"27408","localeAltName":null},{"geonameid":4558078,"name":"Township of Freeport","admin3":"27800"},{"geonameid":4558196,"name":"Township of Gilmore","admin3":"29152"},{"geonameid":4558324,"name":"Township of Gray","admin3":"30640"},{"geonameid":4558385,"name":"Township of Greene","admin3":"30952"},{"geonameid":4558391,"name":"Borough of Greensboro","admin3":"31192"},{"geonameid":4558821,"name":"Township of Jackson","admin3":"37376"},{"geonameid":4558847,"name":"Borough of Jefferson","admin3":"37880"},{"geonameid":4558849,"name":"Township of Jefferson","admin3":"37888","localeAltName":null},{"geonameid":4559727,"name":"Township of Monongahela","admin3":"50400"},{"geonameid":4559769,"name":"Township of Morris","admin3":"51064"},{"geonameid":4560327,"name":"Township of Perry","admin3":"59472","localeAltName":null},{"geonameid":4560687,"name":"Borough of Rices Landing","admin3":"64432"},{"geonameid":4560689,"name":"Township of Richhill","admin3":"64512"},{"geonameid":4561418,"name":"Township of Springhill","admin3":"73248"},{"geonameid":4562053,"name":"Township of Washington","admin3":"81248"},{"geonameid":4562068,"name":"Township of Wayne","admin3":"81768"},{"geonameid":4562082,"name":"Borough of Waynesburg","admin3":"81832","localeAltName":null},{"geonameid":4562235,"name":"Township of Whiteley","admin3":"84608"},{"geonameid":5201958,"name":"Township of Morgan","admin3":"50992","localeAltName":null}],"alternateNames":[{"alternatenameId":2186547,"geonameid":6254927,"isoLanguage":"en","alternateName":"Pennsylvania","isPreferredName":true,"isShortName":true,"isColloquial":false,"isHistoric":false}]},"__N_SSG":true}