{"pageProps":{"locale":"en","admin2":{"geonameid":5195677,"name":"Juniata County","country":"US","admin1":"PA","admin2":"067","admin3":"","latitude":"40.5310600","longitude":"-77.4021600","localeAltName":null},"admin1":{"geonameid":6254927,"name":"Pennsylvania","admin1":"PA","localeAltName":"Pennsylvania"},"locations":[{"geonameid":5200228,"name":"McAlisterville","admin3":"25440","localeAltName":null},{"geonameid":5201067,"name":"Mifflin","admin3":"49272","localeAltName":null},{"geonameid":5201085,"name":"Mifflintown","admin3":"49304","localeAltName":null},{"geonameid":5206950,"name":"Port Royal","admin3":"62304","localeAltName":null},{"geonameid":5208175,"name":"Richfield","admin3":"50480","localeAltName":null},{"geonameid":5215538,"name":"Thompsontown","admin3":"76536","localeAltName":null}],"admin3":[{"geonameid":5179228,"name":"Township of Beale","admin3":"04560"},{"geonameid":5186702,"name":"Township of Delaware","admin3":"18680"},{"geonameid":5189416,"name":"Township of Fayette","admin3":"25440","localeAltName":null},{"geonameid":5189470,"name":"Township of Fermanagh","admin3":"25648"},{"geonameid":5192081,"name":"Township of Greenwood","admin3":"31424"},{"geonameid":5196672,"name":"Township of Lack","admin3":"40752"},{"geonameid":5201076,"name":"Borough of Mifflin","admin3":"49272","localeAltName":null},{"geonameid":5201087,"name":"Borough of Mifflintown","admin3":"49304","localeAltName":null},{"geonameid":5201129,"name":"Township of Milford","admin3":"49392"},{"geonameid":5201730,"name":"Township of Monroe","admin3":"50480","localeAltName":null},{"geonameid":5206952,"name":"Borough of Port Royal","admin3":"62304","localeAltName":null},{"geonameid":5213531,"name":"Township of Spruce Hill","admin3":"73504"},{"geonameid":5214931,"name":"Township of Susquehanna","admin3":"75536"},{"geonameid":5215540,"name":"Borough of Thompsontown","admin3":"76536","localeAltName":null},{"geonameid":5216302,"name":"Township of Turbett","admin3":"77824"},{"geonameid":5216372,"name":"Township of Tuscarora","admin3":"77952"},{"geonameid":5217794,"name":"Township of Walker","admin3":"80568"}],"alternateNames":[{"alternatenameId":2186547,"geonameid":6254927,"isoLanguage":"en","alternateName":"Pennsylvania","isPreferredName":true,"isShortName":true,"isColloquial":false,"isHistoric":false}]},"__N_SSG":true}