{"pageProps":{"locale":"en","admin2":{"geonameid":5199318,"name":"Lycoming County","country":"US","admin1":"PA","admin2":"081","admin3":"","latitude":"41.3433800","longitude":"-77.0645100","localeAltName":null},"admin1":{"geonameid":6254927,"name":"Pennsylvania","admin1":"PA","localeAltName":"Pennsylvania"},"locations":[{"geonameid":5187453,"name":"Duboistown","admin3":"20144","localeAltName":null},{"geonameid":5189408,"name":"Faxon","admin3":"45224","localeAltName":null},{"geonameid":5190808,"name":"Garden View","admin3":"56608","localeAltName":null},{"geonameid":5194481,"name":"Hughesville","admin3":"36160","localeAltName":null},{"geonameid":5195416,"name":"Jersey Shore","admin3":"38128","localeAltName":null},{"geonameid":5195982,"name":"Kenmar","admin3":"45224","localeAltName":null},{"geonameid":5201752,"name":"Montgomery","admin3":"50632","localeAltName":null},{"geonameid":5201801,"name":"Montoursville","admin3":"50720","localeAltName":null},{"geonameid":5202715,"name":"Muncy","admin3":"52264","localeAltName":null},{"geonameid":5205883,"name":"Picture Rocks","admin3":"60136","localeAltName":null},{"geonameid":5213130,"name":"South Williamsport","admin3":"72648","localeAltName":null},{"geonameid":5219585,"name":"Williamsport","admin3":"85312","localeAltName":null}],"admin3":[{"geonameid":5178374,"name":"Township of Anthony","admin3":"02656"},{"geonameid":5178522,"name":"Township of Armstrong","admin3":"03072"},{"geonameid":5179178,"name":"Township of Bastress","admin3":"04424"},{"geonameid":5181454,"name":"Township of Brady","admin3":"08136"},{"geonameid":5181891,"name":"Township of Brown","admin3":"09280"},{"geonameid":5183389,"name":"Township of Cascade","admin3":"11560"},{"geonameid":5184635,"name":"Township of Clinton","admin3":"14336"},{"geonameid":5184841,"name":"Township of Cogan House","admin3":"14872"},{"geonameid":5186123,"name":"Township of Cummings","admin3":"17696"},{"geonameid":5187454,"name":"Borough of Duboistown","admin3":"20144","localeAltName":null},{"geonameid":5188429,"name":"Township of Eldred","admin3":"22880"},{"geonameid":5189081,"name":"Township of Fairfield","admin3":"24592"},{"geonameid":5190394,"name":"Township of Franklin","admin3":"27432"},{"geonameid":5190780,"name":"Township of Gamble","admin3":"28352"},{"geonameid":5193283,"name":"Township of Hepburn","admin3":"33944"},{"geonameid":5194482,"name":"Borough of Hughesville","admin3":"36160","localeAltName":null},{"geonameid":5195167,"name":"Township of Jackson","admin3":"37408"},{"geonameid":5195424,"name":"Borough of Jersey Shore","admin3":"38128","localeAltName":null},{"geonameid":5195633,"name":"Township of Jordan","admin3":"38448"},{"geonameid":5197837,"name":"Township of Lewis","admin3":"42944"},{"geonameid":5198155,"name":"Township of Limestone","admin3":"43352"},{"geonameid":5199227,"name":"Township of Loyalsock","admin3":"45224","localeAltName":null},{"geonameid":5199322,"name":"Township of Lycoming","admin3":"45584"},{"geonameid":5200434,"name":"Township of McHenry","admin3":"46184"},{"geonameid":5200443,"name":"Township of McIntyre","admin3":"46208"},{"geonameid":5200560,"name":"Township of McNett","admin3":"46352"},{"geonameid":5201079,"name":"Township of Mifflin","admin3":"49280"},{"geonameid":5201224,"name":"Township of Mill Creek","admin3":"49568"},{"geonameid":5201773,"name":"Borough of Montgomery","admin3":"50632","localeAltName":null},{"geonameid":5201803,"name":"Borough of Montoursville","admin3":"50720","localeAltName":null},{"geonameid":5201915,"name":"Township of Moreland","admin3":"50936"},{"geonameid":5202726,"name":"Borough of Muncy","admin3":"52264","localeAltName":null},{"geonameid":5202732,"name":"Township of Muncy Creek","admin3":"52288"},{"geonameid":5203444,"name":"Township of Nippenose","admin3":"54504"},{"geonameid":5204354,"name":"Township of Old Lycoming","admin3":"56608","localeAltName":null},{"geonameid":5205441,"name":"Township of Penn","admin3":"58848"},{"geonameid":5205868,"name":"Township of Piatt","admin3":"60128"},{"geonameid":5205884,"name":"Borough of Picture Rocks","admin3":"60136","localeAltName":null},{"geonameid":5206270,"name":"Township of Pine","admin3":"60328"},{"geonameid":5206662,"name":"Township of Plunketts Creek","admin3":"61640"},{"geonameid":5206986,"name":"Township of Porter","admin3":"62184"},{"geonameid":5210702,"name":"Borough of Salladasburg","admin3":"67616"},{"geonameid":5212154,"name":"Township of Shrewsbury","admin3":"70552"},{"geonameid":5213131,"name":"Borough of South Williamsport","admin3":"72648","localeAltName":null},{"geonameid":5214932,"name":"Township of Susquehanna","admin3":"75544"},{"geonameid":5216822,"name":"Township of Upper Fairfield","admin3":"79024"},{"geonameid":5218151,"name":"Township of Washington","admin3":"81288"},{"geonameid":5218244,"name":"Township of Watson","admin3":"81576"},{"geonameid":5219590,"name":"City of Williamsport","admin3":"85312","localeAltName":null},{"geonameid":5219948,"name":"Township of Wolf","admin3":"85984"},{"geonameid":5220117,"name":"Township of Woodward","admin3":"86456"}],"alternateNames":[{"alternatenameId":2186547,"geonameid":6254927,"isoLanguage":"en","alternateName":"Pennsylvania","isPreferredName":true,"isShortName":true,"isColloquial":false,"isHistoric":false}]},"__N_SSG":true}