{"pageProps":{"locale":"en","admin2":{"geonameid":5200448,"name":"McKean County","country":"US","admin1":"PA","admin2":"083","admin3":"","latitude":"41.8077500","longitude":"-78.5690300","localeAltName":null},"admin1":{"geonameid":6254927,"name":"Pennsylvania","admin1":"PA","localeAltName":"Pennsylvania"},"locations":[{"geonameid":5181407,"name":"Bradford","admin3":"08040","localeAltName":null},{"geonameid":5188424,"name":"Eldred","admin3":"22888","localeAltName":null},{"geonameid":5190117,"name":"Foster Brook","admin3":"26936","localeAltName":null},{"geonameid":5195728,"name":"Kane","admin3":"38688","localeAltName":null},{"geonameid":5197827,"name":"Lewis Run","admin3":"42984","localeAltName":null},{"geonameid":5202198,"name":"Mount Jewett","admin3":"51632","localeAltName":null},{"geonameid":5206956,"name":"Port Allegany","admin3":"62088","localeAltName":null},{"geonameid":5212582,"name":"Smethport","admin3":"71248","localeAltName":null}],"admin3":[{"geonameid":5178346,"name":"Township of Annin","admin3":"02576"},{"geonameid":5181430,"name":"City of Bradford","admin3":"08040","localeAltName":null},{"geonameid":5181432,"name":"Township of Bradford","admin3":"08048"},{"geonameid":5183785,"name":"Township of Ceres","admin3":"12408"},{"geonameid":5185504,"name":"Township of Corydon","admin3":"16352"},{"geonameid":5188427,"name":"Borough of Eldred","admin3":"22888","localeAltName":null},{"geonameid":5188430,"name":"Township of Eldred","admin3":"22896"},{"geonameid":5190134,"name":"Township of Foster","admin3":"26936","localeAltName":null},{"geonameid":5192482,"name":"Township of Hamilton","admin3":"32168"},{"geonameid":5192493,"name":"Township of Hamlin","admin3":"32232"},{"geonameid":5195738,"name":"Borough of Kane","admin3":"38688","localeAltName":null},{"geonameid":5195821,"name":"Township of Keating","admin3":"38912"},{"geonameid":5196709,"name":"Township of Lafayette","admin3":"40808"},{"geonameid":5197833,"name":"Borough of Lewis Run","admin3":"42984","localeAltName":null},{"geonameid":5197898,"name":"Township of Liberty","admin3":"43096"},{"geonameid":5202200,"name":"Borough of Mount Jewett","admin3":"51632","localeAltName":null},{"geonameid":5203895,"name":"Township of Norwich","admin3":"55632"},{"geonameid":5204674,"name":"Township of Otto","admin3":"57312"},{"geonameid":5206926,"name":"Borough of Port Allegany","admin3":"62088","localeAltName":null},{"geonameid":5211453,"name":"Township of Sergeant","admin3":"69304"},{"geonameid":5212585,"name":"Borough of Smethport","admin3":"71248","localeAltName":null},{"geonameid":5219056,"name":"Township of Wetmore","admin3":"84312"}],"alternateNames":[{"alternatenameId":2186547,"geonameid":6254927,"isoLanguage":"en","alternateName":"Pennsylvania","isPreferredName":true,"isShortName":true,"isColloquial":false,"isHistoric":false}]},"__N_SSG":true}