{"pageProps":{"locale":"en","admin2":{"geonameid":5201068,"name":"Mifflin County","country":"US","admin1":"PA","admin2":"087","admin3":"","latitude":"40.6104100","longitude":"-77.6170400","localeAltName":null},"admin1":{"geonameid":6254927,"name":"Pennsylvania","admin1":"PA","localeAltName":"Pennsylvania"},"locations":[{"geonameid":5178137,"name":"Allensville","admin3":"48664","localeAltName":null},{"geonameid":5179809,"name":"Belleville","admin3":"78392","localeAltName":null},{"geonameid":5182434,"name":"Burnham","admin3":"10256","localeAltName":null},{"geonameid":5184309,"name":"Church Hill","admin3":"09288","localeAltName":null},{"geonameid":5193599,"name":"Highland Park","admin3":"18944","localeAltName":null},{"geonameid":5195701,"name":"Juniata Terrace","admin3":"38640","localeAltName":null},{"geonameid":5197850,"name":"Lewistown","admin3":"43000","localeAltName":null},{"geonameid":5201468,"name":"Milroy","admin3":"03040","localeAltName":null},{"geonameid":5207916,"name":"Reedsville","admin3":"09288","localeAltName":null},{"geonameid":5214526,"name":"Strodes Mills","admin3":"30480","localeAltName":null},{"geonameid":5220310,"name":"Yeagertown","admin3":"18944","localeAltName":null}],"admin3":[{"geonameid":5178500,"name":"Township of Armagh","admin3":"03040","localeAltName":null},{"geonameid":5181519,"name":"Township of Bratton","admin3":"08304"},{"geonameid":5182436,"name":"Borough of Burnham","admin3":"10256","localeAltName":null},{"geonameid":5186531,"name":"Township of Decatur","admin3":"18464"},{"geonameid":5186788,"name":"Township of Derry","admin3":"18944","localeAltName":null},{"geonameid":5191688,"name":"Township of Granville","admin3":"30480","localeAltName":null},{"geonameid":5195689,"name":"Borough of Juniata Terrace","admin3":"38640","localeAltName":null},{"geonameid":5196352,"name":"Borough of Kistler","admin3":"40016"},{"geonameid":5197863,"name":"Borough of Lewistown","admin3":"43000","localeAltName":null},{"geonameid":5200574,"name":"Borough of McVeytown","admin3":"46400"},{"geonameid":5200788,"name":"Township of Menno","admin3":"48664","localeAltName":null},{"geonameid":5203339,"name":"Borough of Newton Hamilton","admin3":"54160"},{"geonameid":5204456,"name":"Township of Oliver","admin3":"56720"},{"geonameid":5216712,"name":"Township of Union","admin3":"78392","localeAltName":null},{"geonameid":5218290,"name":"Township of Wayne","admin3":"81784"},{"geonameid":6326723,"name":"Township of Brown","admin3":"09288","localeAltName":null}],"alternateNames":[{"alternatenameId":2186547,"geonameid":6254927,"isoLanguage":"en","alternateName":"Pennsylvania","isPreferredName":true,"isShortName":true,"isColloquial":false,"isHistoric":false}]},"__N_SSG":true}