{"pageProps":{"locale":"en","admin2":{"geonameid":5201707,"name":"Monroe County","country":"US","admin1":"PA","admin2":"089","admin3":"","latitude":"41.0580700","longitude":"-75.3394800","localeAltName":null},"admin1":{"geonameid":6254927,"name":"Pennsylvania","admin1":"PA","localeAltName":"Pennsylvania"},"locations":[{"geonameid":5178489,"name":"Arlington Heights","admin3":"74880","localeAltName":null},{"geonameid":5181761,"name":"Brodheadsville","admin3":"13328","localeAltName":null},{"geonameid":5183109,"name":"Canadensis","admin3":"04320","localeAltName":null},{"geonameid":5185853,"name":"Cresco","admin3":"04320","localeAltName":null},{"geonameid":5186696,"name":"Delaware Water Gap","admin3":"18736","localeAltName":null},{"geonameid":5188075,"name":"East Stroudsburg","admin3":"21872","localeAltName":null},{"geonameid":5188339,"name":"Effort","admin3":"13328","localeAltName":null},{"geonameid":5188682,"name":"Emerald Lakes","admin3":"76960","localeAltName":null},{"geonameid":5194821,"name":"Indian Mountain Lake","admin3":"77776","localeAltName":null},{"geonameid":5202340,"name":"Mount Pocono","admin3":"51912","localeAltName":null},{"geonameid":5202551,"name":"Mountainhome","admin3":"04320","localeAltName":null},{"geonameid":5205152,"name":"Parkside","admin3":"57856","localeAltName":null},{"geonameid":8086030,"name":"Penn Estates","admin3":"74880","localeAltName":null},{"geonameid":5206718,"name":"Pocono Pines","admin3":"76960","localeAltName":null},{"geonameid":5211033,"name":"Saylorsburg","admin3":"66280","localeAltName":null},{"geonameid":8086031,"name":"Sierra View","admin3":"77776","localeAltName":null},{"geonameid":5214543,"name":"Stroudsburg","admin3":"74888","localeAltName":null},{"geonameid":5214809,"name":"Sun Valley","admin3":"13328","localeAltName":null},{"geonameid":5214810,"name":"Sun Valley","admin3":"77776","localeAltName":null},{"geonameid":5215193,"name":"Tannersville","admin3":"61728","localeAltName":null}],"admin3":[{"geonameid":5179134,"name":"Township of Barrett","admin3":"04320","localeAltName":null},{"geonameid":5184176,"name":"Township of Chestnuthill","admin3":"13328","localeAltName":null},{"geonameid":5185333,"name":"Township of Coolbaugh","admin3":"15960"},{"geonameid":5186700,"name":"Borough of Delaware Water Gap","admin3":"18736","localeAltName":null},{"geonameid":5188081,"name":"Borough of East Stroudsburg","admin3":"21872","localeAltName":null},{"geonameid":5188431,"name":"Township of Eldred","admin3":"22904"},{"geonameid":5192483,"name":"Township of Hamilton","admin3":"32176"},{"geonameid":5195169,"name":"Township of Jackson","admin3":"37424"},{"geonameid":5201000,"name":"Township of Middle Smithfield","admin3":"49080"},{"geonameid":5202343,"name":"Borough of Mount Pocono","admin3":"51912","localeAltName":null},{"geonameid":5205073,"name":"Township of Paradise","admin3":"57856","localeAltName":null},{"geonameid":5206732,"name":"Township of Pocono","admin3":"61728","localeAltName":null},{"geonameid":5206818,"name":"Township of Polk","admin3":"61928"},{"geonameid":5207177,"name":"Township of Price","admin3":"62632"},{"geonameid":5209083,"name":"Township of Ross","admin3":"66280","localeAltName":null},{"geonameid":5212665,"name":"Township of Smithfield","admin3":"71344"},{"geonameid":5214542,"name":"Township of Stroud","admin3":"74880","localeAltName":null},{"geonameid":5214546,"name":"Borough of Stroudsburg","admin3":"74888","localeAltName":null},{"geonameid":5215755,"name":"Township of Tobyhanna","admin3":"76960","localeAltName":null},{"geonameid":5216266,"name":"Township of Tunkhannock","admin3":"77776","localeAltName":null}],"alternateNames":[{"alternatenameId":2186547,"geonameid":6254927,"isoLanguage":"en","alternateName":"Pennsylvania","isPreferredName":true,"isShortName":true,"isColloquial":false,"isHistoric":false}]},"__N_SSG":true}