{"pageProps":{"locale":"en","admin2":{"geonameid":5201786,"name":"Montour County","country":"US","admin1":"PA","admin2":"093","admin3":"","latitude":"41.0279200","longitude":"-76.6585600","localeAltName":null},"admin1":{"geonameid":6254927,"name":"Pennsylvania","admin1":"PA","localeAltName":"Pennsylvania"},"locations":[{"geonameid":5186327,"name":"Danville","admin3":"18136","localeAltName":null},{"geonameid":5200669,"name":"Mechanicsville","admin3":"46656","localeAltName":null}],"admin3":[{"geonameid":5178375,"name":"Township of Anthony","admin3":"02664"},{"geonameid":5185377,"name":"Township of Cooper","admin3":"16048"},{"geonameid":5186323,"name":"Borough of Danville","admin3":"18136","localeAltName":null},{"geonameid":5186789,"name":"Township of Derry","admin3":"18952"},{"geonameid":5197900,"name":"Township of Liberty","admin3":"43112"},{"geonameid":5198057,"name":"Township of Limestone","admin3":"43360"},{"geonameid":5199543,"name":"Township of Mahoning","admin3":"46656","localeAltName":null},{"geonameid":5200203,"name":"Township of Mayberry","admin3":"48152"},{"geonameid":5217058,"name":"Township of Valley","admin3":"79552"},{"geonameid":5218159,"name":"Borough of Washingtonville","admin3":"81424"},{"geonameid":5218738,"name":"Township of West Hemlock","admin3":"83144"}],"alternateNames":[{"alternatenameId":2186547,"geonameid":6254927,"isoLanguage":"en","alternateName":"Pennsylvania","isPreferredName":true,"isShortName":true,"isColloquial":false,"isHistoric":false}]},"__N_SSG":true}