{"pageProps":{"locale":"en","admin2":{"geonameid":5211208,"name":"Schuylkill County","country":"US","admin1":"PA","admin2":"107","admin3":"","latitude":"40.7058000","longitude":"-76.2159500","localeAltName":null},"admin1":{"geonameid":6254927,"name":"Pennsylvania","admin1":"PA","localeAltName":"Pennsylvania"},"locations":[{"geonameid":5178183,"name":"Altamont","admin3":"83408","localeAltName":null},{"geonameid":5178597,"name":"Ashland","admin3":"03264","localeAltName":null},{"geonameid":5178673,"name":"Auburn","admin3":"03488","localeAltName":null},{"geonameid":5184748,"name":"Coaldale","admin3":"14600","localeAltName":null},{"geonameid":5185866,"name":"Cressona","admin3":"17152","localeAltName":null},{"geonameid":5186609,"name":"Deer Lake","admin3":"18576","localeAltName":null},{"geonameid":5188772,"name":"Englewood","admin3":"10488","localeAltName":null},{"geonameid":5190282,"name":"Frackville","admin3":"27232","localeAltName":null},{"geonameid":5190554,"name":"Friedensburg","admin3":"81792","localeAltName":null},{"geonameid":5191101,"name":"Gilberton","admin3":"29088","localeAltName":null},{"geonameid":5191169,"name":"Girardville","admin3":"29264","localeAltName":null},{"geonameid":5191469,"name":"Gordon","admin3":"30128","localeAltName":null},{"geonameid":5193095,"name":"Hegins","admin3":"33584","localeAltName":null},{"geonameid":5194076,"name":"Hometown","admin3":"66760","localeAltName":null},{"geonameid":5195889,"name":"Kelayres","admin3":"40096","localeAltName":null},{"geonameid":5196977,"name":"Lake Wynonah","admin3":"72312","localeAltName":null},{"geonameid":5197419,"name":"Lavelle","admin3":"10488","localeAltName":null},{"geonameid":5199494,"name":"Mahanoy City","admin3":"46592","localeAltName":null},{"geonameid":5199927,"name":"Marlin","admin3":"55624","localeAltName":null},{"geonameid":5200220,"name":"McAdoo","admin3":"45824","localeAltName":null},{"geonameid":5201518,"name":"Minersville","admin3":"50088","localeAltName":null},{"geonameid":5203246,"name":"New Philadelphia","admin3":"53944","localeAltName":null},{"geonameid":5204608,"name":"Orwigsburg","admin3":"57184","localeAltName":null},{"geonameid":5204971,"name":"Palo Alto","admin3":"57752","localeAltName":null},{"geonameid":5205088,"name":"Park Crest","admin3":"66760","localeAltName":null},{"geonameid":5206038,"name":"Pine Grove","admin3":"60456","localeAltName":null},{"geonameid":5206933,"name":"Port Carbon","admin3":"62128","localeAltName":null},{"geonameid":5207080,"name":"Pottsville","admin3":"62432","localeAltName":null},{"geonameid":5207698,"name":"Ravine","admin3":"60464","localeAltName":null},{"geonameid":5208018,"name":"Renningers","admin3":"55192","localeAltName":null},{"geonameid":5208381,"name":"Ringtown","admin3":"65000","localeAltName":null},{"geonameid":5209621,"name":"Saint Clair","admin3":"","localeAltName":null},{"geonameid":5211212,"name":"Schuylkill Haven","admin3":"68312","localeAltName":null},{"geonameid":5211846,"name":"Shenandoah","admin3":"70056","localeAltName":null},{"geonameid":5211850,"name":"Shenandoah Heights","admin3":"83408","localeAltName":null},{"geonameid":5215142,"name":"Tamaqua","admin3":"76032","localeAltName":null},{"geonameid":5215886,"name":"Tower City","admin3":"77184","localeAltName":null},{"geonameid":5215983,"name":"Tremont","admin3":"77392","localeAltName":null},{"geonameid":5216354,"name":"Tuscarora","admin3":"68304","localeAltName":null},{"geonameid":5217039,"name":"Valley View","admin3":"33584","localeAltName":null},{"geonameid":5220298,"name":"Yatesville","admin3":"46584","localeAltName":null}],"admin3":[{"geonameid":5178609,"name":"Borough of Ashland","admin3":"03264","localeAltName":null},{"geonameid":5178678,"name":"Borough of Auburn","admin3":"03488","localeAltName":null},{"geonameid":5179143,"name":"Township of Barry","admin3":"04352"},{"geonameid":5181060,"name":"Township of Blythe","admin3":"07336"},{"geonameid":5181499,"name":"Township of Branch","admin3":"08200"},{"geonameid":5182569,"name":"Township of Butler","admin3":"10488","localeAltName":null},{"geonameid":5183408,"name":"Township of Cass","admin3":"11608"},{"geonameid":5184750,"name":"Borough of Coaldale","admin3":"14600","localeAltName":null},{"geonameid":5185868,"name":"Borough of Cressona","admin3":"17152","localeAltName":null},{"geonameid":5186616,"name":"Borough of Deer Lake","admin3":"18576","localeAltName":null},{"geonameid":5186671,"name":"Township of Delano","admin3":"18672"},{"geonameid":5187855,"name":"Township of East Brunswick","admin3":"20880"},{"geonameid":5188007,"name":"Township of East Norwegian","admin3":"21616"},{"geonameid":5188095,"name":"Township of East Union","admin3":"21952"},{"geonameid":5188432,"name":"Township of Eldred","admin3":"22912"},{"geonameid":5190135,"name":"Township of Foster","admin3":"26944"},{"geonameid":5190285,"name":"Borough of Frackville","admin3":"27232","localeAltName":null},{"geonameid":5190286,"name":"Township of Frailey","admin3":"27248"},{"geonameid":5191092,"name":"Borough of Gilberton","admin3":"29088","localeAltName":null},{"geonameid":5191171,"name":"Borough of Girardville","admin3":"29264","localeAltName":null},{"geonameid":5191475,"name":"Borough of Gordon","admin3":"30128","localeAltName":null},{"geonameid":5193096,"name":"Township of Hegins","admin3":"33584","localeAltName":null},{"geonameid":5194434,"name":"Township of Hubley","admin3":"36072"},{"geonameid":5196398,"name":"Township of Kline","admin3":"40096","localeAltName":null},{"geonameid":5197107,"name":"Borough of Landingville","admin3":"41264"},{"geonameid":5199495,"name":"Borough of Mahanoy City","admin3":"46592","localeAltName":null},{"geonameid":5199508,"name":"Township of Mahanoy","admin3":"46584","localeAltName":null},{"geonameid":5200222,"name":"Borough of McAdoo","admin3":"45824","localeAltName":null},{"geonameid":5200674,"name":"Borough of Mechanicsville","admin3":"48448"},{"geonameid":5201014,"name":"Borough of Middleport","admin3":"49048"},{"geonameid":5201521,"name":"Borough of Minersville","admin3":"50088","localeAltName":null},{"geonameid":5202113,"name":"Borough of Mount Carbon","admin3":"51488"},{"geonameid":5203137,"name":"Township of New Castle","admin3":"53376"},{"geonameid":5203247,"name":"Borough of New Philadelphia","admin3":"53944","localeAltName":null},{"geonameid":5203251,"name":"Borough of New Ringgold","admin3":"54016"},{"geonameid":5203710,"name":"Township of North Manheim","admin3":"55192","localeAltName":null},{"geonameid":5203781,"name":"Township of North Union","admin3":"55472"},{"geonameid":5203902,"name":"Township of Norwegian","admin3":"55624","localeAltName":null},{"geonameid":5204610,"name":"Borough of Orwigsburg","admin3":"57184","localeAltName":null},{"geonameid":5204972,"name":"Borough of Palo Alto","admin3":"57752","localeAltName":null},{"geonameid":5206091,"name":"Borough of Pine Grove","admin3":"60456","localeAltName":null},{"geonameid":5206092,"name":"Township of Pine Grove","admin3":"60464","localeAltName":null},{"geonameid":5206934,"name":"Borough of Port Carbon","admin3":"62128","localeAltName":null},{"geonameid":5206936,"name":"Borough of Port Clinton","admin3":"62136"},{"geonameid":5206988,"name":"Township of Porter","admin3":"62200"},{"geonameid":5207082,"name":"City of Pottsville","admin3":"62432","localeAltName":null},{"geonameid":5207986,"name":"Township of Reilly","admin3":"64088"},{"geonameid":5208392,"name":"Borough of Ringtown","admin3":"65000","localeAltName":null},{"geonameid":5209321,"name":"Township of Rush","admin3":"66760","localeAltName":null},{"geonameid":5209372,"name":"Township of Ryan","admin3":"66944"},{"geonameid":5211214,"name":"Borough of Schuylkill Haven","admin3":"68312","localeAltName":null},{"geonameid":5211218,"name":"Township of Schuylkill","admin3":"68304","localeAltName":null},{"geonameid":5211853,"name":"Borough of Shenandoah","admin3":"70056","localeAltName":null},{"geonameid":5213055,"name":"Township of South Manheim","admin3":"72312","localeAltName":null},{"geonameid":5215147,"name":"Borough of Tamaqua","admin3":"76032","localeAltName":null},{"geonameid":5215872,"name":"Borough of Tower City","admin3":"77184","localeAltName":null},{"geonameid":5215985,"name":"Borough of Tremont","admin3":"77392","localeAltName":null},{"geonameid":5215986,"name":"Township of Tremont","admin3":"77400"},{"geonameid":5216713,"name":"Township of Union","admin3":"78400"},{"geonameid":5216846,"name":"Township of Upper Mahantongo","admin3":"79120"},{"geonameid":5217795,"name":"Township of Walker","admin3":"80576"},{"geonameid":5218154,"name":"Township of Washington","admin3":"81312"},{"geonameid":5218291,"name":"Township of Wayne","admin3":"81792","localeAltName":null},{"geonameid":5218635,"name":"Township of West Brunswick","admin3":"82632"},{"geonameid":5218790,"name":"Township of West Mahanoy","admin3":"83408","localeAltName":null},{"geonameid":5218841,"name":"Township of West Penn","admin3":"83792"}],"alternateNames":[{"alternatenameId":2186547,"geonameid":6254927,"isoLanguage":"en","alternateName":"Pennsylvania","isPreferredName":true,"isShortName":true,"isColloquial":false,"isHistoric":false}]},"__N_SSG":true}