{"pageProps":{"locale":"en","admin2":{"geonameid":5219013,"name":"Westmoreland County","country":"US","admin1":"PA","admin2":"129","admin3":"","latitude":"40.3107300","longitude":"-79.4669600","localeAltName":null},"admin1":{"geonameid":6254927,"name":"Pennsylvania","admin1":"PA","localeAltName":"Pennsylvania"},"locations":[{"geonameid":5177826,"name":"Acme","admin3":"51888","localeAltName":null},{"geonameid":5178527,"name":"Arnold","admin3":"03088","localeAltName":null},{"geonameid":5178749,"name":"Avonmore","admin3":"03688","localeAltName":null},{"geonameid":5181405,"name":"Bradenville","admin3":"18968","localeAltName":null},{"geonameid":5182768,"name":"Calumet","admin3":"51888","localeAltName":null},{"geonameid":5184984,"name":"Collinsburg","admin3":"66376","localeAltName":null},{"geonameid":5186717,"name":"Delmont","admin3":"18768","localeAltName":null},{"geonameid":5186775,"name":"Derry","admin3":"18960","localeAltName":null},{"geonameid":5188097,"name":"East Vandergrift","admin3":"21976","localeAltName":null},{"geonameid":5189019,"name":"Export","admin3":"24432","localeAltName":null},{"geonameid":5189445,"name":"Fellsburg","admin3":"66376","localeAltName":null},{"geonameid":5191693,"name":"Grapeville","admin3":"33792","localeAltName":null},{"geonameid":5192029,"name":"Greensburg","admin3":"31200","localeAltName":null},{"geonameid":5193305,"name":"Herminie","admin3":"69392","localeAltName":null},{"geonameid":5194343,"name":"Hostetter","admin3":"78656","localeAltName":null},{"geonameid":5195024,"name":"Irwin","admin3":"37208","localeAltName":null},{"geonameid":5195283,"name":"Jeannette","admin3":"37784","localeAltName":null},{"geonameid":5197227,"name":"Latrobe","admin3":"41680","localeAltName":null},{"geonameid":5197463,"name":"Lawson Heights","admin3":"78656","localeAltName":null},{"geonameid":5197791,"name":"Level Green","admin3":"58880","localeAltName":null},{"geonameid":5197989,"name":"Ligonier","admin3":"43232","localeAltName":null},{"geonameid":5199087,"name":"Lower Burrell","admin3":"53736","localeAltName":null},{"geonameid":5199209,"name":"Loyalhanna","admin3":"18968","localeAltName":null},{"geonameid":7258901,"name":"Lynnwood-Pricedale","admin3":"66376","localeAltName":null},{"geonameid":5199604,"name":"Mammoth","admin3":"51888","localeAltName":null},{"geonameid":5199677,"name":"Manor","admin3":"47000","localeAltName":null},{"geonameid":5200195,"name":"Mayfield","admin3":"21304","localeAltName":null},{"geonameid":5201464,"name":"Millwood","admin3":"18968","localeAltName":null},{"geonameid":5201665,"name":"Monessen","admin3":"50344","localeAltName":null},{"geonameid":5202286,"name":"Mount Pleasant","admin3":"51880","localeAltName":null},{"geonameid":5202765,"name":"Murrysville","admin3":"","localeAltName":null},{"geonameid":5203094,"name":"New Alexandria","admin3":"18968","localeAltName":null},{"geonameid":5203168,"name":"New Florence","admin3":"53544","localeAltName":null},{"geonameid":5203211,"name":"New Kensington","admin3":"53736","localeAltName":null},{"geonameid":5203263,"name":"New Stanton","admin3":"54104","localeAltName":null},{"geonameid":5203529,"name":"North Belle Vernon","admin3":"54776","localeAltName":null},{"geonameid":5203694,"name":"North Irwin","admin3":"55136","localeAltName":null},{"geonameid":5203886,"name":"Norvelt","admin3":"51888","localeAltName":null},{"geonameid":5204294,"name":"Oklahoma","admin3":"56496","localeAltName":null},{"geonameid":5211279,"name":"Scottdale","admin3":"68432","localeAltName":null},{"geonameid":5213024,"name":"South Greensburg","admin3":"72192","localeAltName":null},{"geonameid":5213167,"name":"Southwest Greensburg","admin3":"72616","localeAltName":null},{"geonameid":5214937,"name":"Sutersville","admin3":"75584","localeAltName":null},{"geonameid":5215921,"name":"Trafford","admin3":"77272","localeAltName":null},{"geonameid":5217103,"name":"Vandergrift","admin3":"79776","localeAltName":null},{"geonameid":5218199,"name":"Waterford","admin3":"43240","localeAltName":null},{"geonameid":5218773,"name":"West Leechburg","admin3":"00892","localeAltName":null},{"geonameid":5218822,"name":"West Newton","admin3":"83680","localeAltName":null},{"geonameid":5220405,"name":"Youngwood","admin3":"87232","localeAltName":null},{"geonameid":5220412,"name":"Yukon","admin3":"72256","localeAltName":null}],"admin3":[{"geonameid":5177872,"name":"Borough of Adamsburg","admin3":"00332"},{"geonameid":5178087,"name":"Township of Allegheny","admin3":"00892","localeAltName":null},{"geonameid":5178539,"name":"City of Arnold","admin3":"03088","localeAltName":null},{"geonameid":5178544,"name":"Borough of Arona","admin3":"03120"},{"geonameid":5178751,"name":"Borough of Avonmore","admin3":"03688","localeAltName":null},{"geonameid":5179782,"name":"Township of Bell","admin3":"05208"},{"geonameid":5181166,"name":"Borough of Bolivar","admin3":"07480"},{"geonameid":5185303,"name":"Township of Cook","admin3":"15912"},{"geonameid":5186722,"name":"Borough of Delmont","admin3":"18768","localeAltName":null},{"geonameid":5186786,"name":"Borough of Derry","admin3":"18960","localeAltName":null},{"geonameid":5186790,"name":"Township of Derry","admin3":"18968","localeAltName":null},{"geonameid":5187117,"name":"Borough of Donegal","admin3":"19472"},{"geonameid":5187120,"name":"Township of Donegal","admin3":"19480"},{"geonameid":5187953,"name":"Township of East Huntingdon","admin3":"21304","localeAltName":null},{"geonameid":5188098,"name":"Borough of East Vandergrift","admin3":"21976","localeAltName":null},{"geonameid":5189020,"name":"Borough of Export","admin3":"24432","localeAltName":null},{"geonameid":5189082,"name":"Township of Fairfield","admin3":"24608"},{"geonameid":5192014,"name":"City of Greensburg","admin3":"31200","localeAltName":null},{"geonameid":5193211,"name":"Township of Hempfield","admin3":"33792","localeAltName":null},{"geonameid":5194535,"name":"Borough of Hunker","admin3":"36288"},{"geonameid":5194662,"name":"Borough of Hyde Park","admin3":"36592"},{"geonameid":5195039,"name":"Borough of Irwin","admin3":"37208","localeAltName":null},{"geonameid":5195286,"name":"City of Jeannette","admin3":"37784","localeAltName":null},{"geonameid":5197222,"name":"Borough of Latrobe","admin3":"41680","localeAltName":null},{"geonameid":5197301,"name":"Borough of Laurel Mountain","admin3":"41834"},{"geonameid":5197995,"name":"Borough of Ligonier","admin3":"43232","localeAltName":null},{"geonameid":5197996,"name":"Township of Ligonier","admin3":"43240","localeAltName":null},{"geonameid":5199220,"name":"Township of Loyalhanna","admin3":"45200"},{"geonameid":5199457,"name":"Borough of Madison","admin3":"46488"},{"geonameid":5199703,"name":"Borough of Manor","admin3":"47000","localeAltName":null},{"geonameid":5201667,"name":"City of Monessen","admin3":"50344","localeAltName":null},{"geonameid":5202334,"name":"Borough of Mount Pleasant","admin3":"51880","localeAltName":null},{"geonameid":5202338,"name":"Township of Mount Pleasant","admin3":"51888","localeAltName":null},{"geonameid":5203096,"name":"Borough of New Alexandria","admin3":"53160"},{"geonameid":5203170,"name":"Borough of New Florence","admin3":"53544","localeAltName":null},{"geonameid":5203213,"name":"City of New Kensington","admin3":"53736","localeAltName":null},{"geonameid":5203265,"name":"Borough of New Stanton","admin3":"54104","localeAltName":null},{"geonameid":5203530,"name":"Borough of North Belle Vernon","admin3":"54776","localeAltName":null},{"geonameid":5203693,"name":"Township of North Huntingdon","admin3":"55128"},{"geonameid":5203695,"name":"Borough of North Irwin","admin3":"55136","localeAltName":null},{"geonameid":5204296,"name":"Borough of Oklahoma","admin3":"56496","localeAltName":null},{"geonameid":5205432,"name":"Borough of Penn","admin3":"58872"},{"geonameid":5205444,"name":"Township of Penn","admin3":"58880","localeAltName":null},{"geonameid":5209103,"name":"Township of Rostraver","admin3":"66376","localeAltName":null},{"geonameid":5209633,"name":"Township of Saint Clair","admin3":"67240"},{"geonameid":5210681,"name":"Township of Salem","admin3":"67496"},{"geonameid":5211281,"name":"Borough of Scottdale","admin3":"68432","localeAltName":null},{"geonameid":5211505,"name":"Borough of Seward","admin3":"69368"},{"geonameid":5211521,"name":"Township of Sewickley","admin3":"69392","localeAltName":null},{"geonameid":5212681,"name":"Borough of Smithton","admin3":"71424"},{"geonameid":5213025,"name":"Borough of South Greensburg","admin3":"72192","localeAltName":null},{"geonameid":5213076,"name":"Township of South Huntingdon","admin3":"72256","localeAltName":null},{"geonameid":5213168,"name":"Borough of Southwest Greensburg","admin3":"72616","localeAltName":null},{"geonameid":5214938,"name":"Borough of Sutersville","admin3":"75584","localeAltName":null},{"geonameid":5215925,"name":"Borough of Trafford","admin3":"77272","localeAltName":null},{"geonameid":5216765,"name":"Township of Unity","admin3":"78656","localeAltName":null},{"geonameid":5216802,"name":"Township of Upper Burrell","admin3":"78768"},{"geonameid":5217109,"name":"Borough of Vandergrift","admin3":"79776","localeAltName":null},{"geonameid":5218156,"name":"Township of Washington","admin3":"81336"},{"geonameid":5218775,"name":"Borough of West Leechburg","admin3":"83328"},{"geonameid":5218825,"name":"Borough of West Newton","admin3":"83680","localeAltName":null},{"geonameid":5220399,"name":"Borough of Youngstown","admin3":"87208"},{"geonameid":5220409,"name":"Borough of Youngwood","admin3":"87232","localeAltName":null},{"geonameid":6326722,"name":"City of Lower Burrell","admin3":"44864"}],"alternateNames":[{"alternatenameId":2186547,"geonameid":6254927,"isoLanguage":"en","alternateName":"Pennsylvania","isPreferredName":true,"isShortName":true,"isColloquial":false,"isHistoric":false}]},"__N_SSG":true}