{"pageProps":{"locale":"en","admin2":{"geonameid":6095306,"name":"Outaouais","country":"CA","admin1":"10","admin2":"07","admin3":"","latitude":"46.2668100","longitude":"-76.3160600"},"admin1":{"geonameid":6115047,"name":"Québec","admin1":"10"},"locations":[{"geonameid":5883249,"name":"Alcove","admin3":"82035"},{"geonameid":5883981,"name":"Alleyn-et-Cawood","admin3":"84050"},{"geonameid":5885187,"name":"Angers","admin3":"81017"},{"geonameid":6354934,"name":"Aylmer","admin3":"81017"},{"geonameid":5888714,"name":"Aylmer, Gatineau","admin3":"81017"},{"geonameid":5888732,"name":"Aylwin","admin3":"83015"},{"geonameid":5888734,"name":"Aylwin Station","admin3":"83015"},{"geonameid":5890023,"name":"Baie-de-l'Ours","admin3":"80090"},{"geonameid":5891174,"name":"Baie-Noire","admin3":"80055"},{"geonameid":5893895,"name":"Barrage-McLaren","admin3":"80140"},{"geonameid":5896451,"name":"Beauchampville","admin3":"81017"},{"geonameid":5897414,"name":"Beech Grove","admin3":"82030"},{"geonameid":5901584,"name":"Birch Manor","admin3":"81017"},{"geonameid":5903629,"name":"Blanche","admin3":"80085"},{"geonameid":5903641,"name":"Blanche-Mills","admin3":"80055"},{"geonameid":5904470,"name":"Blue Sea","admin3":"83045"},{"geonameid":5905106,"name":"Boileau","admin3":"80115"},{"geonameid":5905173,"name":"Bois-Franc","admin3":"83085"},{"geonameid":5906269,"name":"Bouchette","admin3":"83050"},{"geonameid":5906808,"name":"Bowman","admin3":"80145"},{"geonameid":5908327,"name":"Breckenridge","admin3":"82030"},{"geonameid":5908437,"name":"Brennan's Hill","admin3":"83010"},{"geonameid":5909008,"name":"Bristol Mines","admin3":"84005"},{"geonameid":5909009,"name":"Bristol Ridge","admin3":"84005"},{"geonameid":5909311,"name":"Brodeur","admin3":"83088"},{"geonameid":5909446,"name":"Brookdale","admin3":"80115"},{"geonameid":5910429,"name":"Bryson","admin3":"84040"},{"geonameid":6942645,"name":"Buckingham","admin3":"81017"},{"geonameid":5911444,"name":"Burgerville","admin3":"83050"},{"geonameid":5911568,"name":"Burks Corners","admin3":"80070"},{"geonameid":5911638,"name":"Burnet","admin3":"82025"},{"geonameid":5913386,"name":"Caldwell","admin3":"84005"},{"geonameid":5914139,"name":"Campbell's Bay","admin3":"84030"},{"geonameid":5915148,"name":"Cantley","admin3":"82020"},{"geonameid":5917564,"name":"Carroll","admin3":"84070"},{"geonameid":5917894,"name":"Cascades","admin3":"82025"},{"geonameid":5918627,"name":"Cawood","admin3":"84050"},{"geonameid":5918636,"name":"Cayamant","admin3":"83040"},{"geonameid":5919471,"name":"Chalifoux","admin3":"83050"},{"geonameid":5919858,"name":"Chapeau","admin3":"84082"},{"geonameid":5920338,"name":"Charteris","admin3":"84015"},{"geonameid":5920652,"name":"Chelsea","admin3":"82025"},{"geonameid":5920689,"name":"Chemin-des-Pins","admin3":"82025"},{"geonameid":5920860,"name":"Chénéville","admin3":"80103"},{"geonameid":5921959,"name":"Christ-Roi","admin3":"83065"},{"geonameid":5922486,"name":"Chute-Rouge","admin3":"83088"},{"geonameid":5923115,"name":"Clarendon Front","admin3":"84015"},{"geonameid":5924932,"name":"Coin-chez-Leblanc","admin3":"84082"},{"geonameid":5926311,"name":"Comeauville","admin3":"83065"},{"geonameid":5932302,"name":"Cresthill","admin3":"83070"},{"geonameid":5934904,"name":"Danford Lake","admin3":"84050"},{"geonameid":5935483,"name":"Davidson","admin3":"84065"},{"geonameid":5935501,"name":"Davidson Corner","admin3":"81017"},{"geonameid":5937510,"name":"Déléage","admin3":"83070"},{"geonameid":5937680,"name":"Demers","admin3":"84082"},{"geonameid":5937681,"name":"Demers-Centre","admin3":"84082"},{"geonameid":5938176,"name":"Deschênes","admin3":"81017"},{"geonameid":5938231,"name":"Desjardinsville","admin3":"84082"},{"geonameid":11101579,"name":"Doherty","admin3":"84005"},{"geonameid":5941224,"name":"Domaine-Glenwood","admin3":"81017"},{"geonameid":5943478,"name":"Duclos","admin3":"82035"},{"geonameid":5943617,"name":"Duffyville","admin3":"84035"},{"geonameid":5943673,"name":"Duhamel","admin3":"80135"},{"geonameid":5944243,"name":"Dunraven","admin3":"84035"},{"geonameid":5944931,"name":"Eardley","admin3":"82030"},{"geonameid":5945007,"name":"East Aldfield","admin3":"82035"},{"geonameid":5947034,"name":"Egan-Sud","admin3":"83075"},{"geonameid":5948076,"name":"Elmside","admin3":"84005"},{"geonameid":5951570,"name":"Farley","admin3":"83060"},{"geonameid":5951634,"name":"Farm Point","admin3":"82025"},{"geonameid":5951704,"name":"Farrellton","admin3":"82035"},{"geonameid":5951747,"name":"Fassett","admin3":"80005"},{"geonameid":5952326,"name":"Ferme-Joseph","admin3":"83070"},{"geonameid":5952327,"name":"Ferme-Lefebvre","admin3":"83050"},{"geonameid":5952328,"name":"Ferme-Limbour","admin3":"81017"},{"geonameid":5952584,"name":"Fieldville","admin3":"83010"},{"geonameid":5956017,"name":"Fort William","admin3":"84095"},{"geonameid":5955797,"name":"Fort-Coulonge","admin3":"84065"},{"geonameid":5958173,"name":"Freshwater","admin3":"84035"},{"geonameid":5958887,"name":"Gabriel-Langevin","admin3":"83065"},{"geonameid":5959974,"name":"Gatineau","admin3":"81017"},{"geonameid":5961822,"name":"Glen Almond","admin3":"82005"},{"geonameid":5961918,"name":"Gleneagle","admin3":"82025"},{"geonameid":5962786,"name":"Goldwin","admin3":"84040"},{"geonameid":5964199,"name":"Gramont","admin3":"80115"},{"geonameid":5964258,"name":"Grand-Calumet","admin3":"84035"},{"geonameid":11103138,"name":"Grand-Remous","admin3":"83095"},{"geonameid":5965502,"name":"Gravelle","admin3":"83045"},{"geonameid":5966738,"name":"Greer Mount","admin3":"84045"},{"geonameid":5967515,"name":"Grove Creek","admin3":"84050"},{"geonameid":5969724,"name":"Halverson","admin3":"82035"},{"geonameid":5971105,"name":"Harney's Corner","admin3":"84082"},{"geonameid":5974510,"name":"Heyworth","admin3":"82030"},{"geonameid":5974830,"name":"High Falls","admin3":"80145"},{"geonameid":5975780,"name":"Hodgins","admin3":"84045"},{"geonameid":5976149,"name":"Holland Mills","admin3":"82015"},{"geonameid":5976234,"name":"Hollow Glen","admin3":"82025"},{"geonameid":6942644,"name":"Hull","admin3":"81017"},{"geonameid":5978353,"name":"Hull","admin3":"81017"},{"geonameid":5983315,"name":"Inlet","admin3":"80085"},{"geonameid":5983969,"name":"Ironside","admin3":"81017"},{"geonameid":5985851,"name":"Jardins-Mackenzie-King","admin3":"81017"},{"geonameid":5985857,"name":"Jarnac","admin3":"80085"},{"geonameid":5986616,"name":"Jim Lake","admin3":"84065"},{"geonameid":5988100,"name":"Joynt","admin3":"82035"},{"geonameid":5988216,"name":"Jules","admin3":"83020"},{"geonameid":5989931,"name":"Kazabazua","admin3":"83015"},{"geonameid":5989933,"name":"Kazabazua Station","admin3":"83015"},{"geonameid":5990508,"name":"Kelly-Newton","admin3":"83020"},{"geonameid":5991033,"name":"Kennyville","admin3":"83032"},{"geonameid":5992020,"name":"Kilroy Crescent","admin3":"81017"},{"geonameid":5992861,"name":"Kirk's Ferry","admin3":"82025"},{"geonameid":5993506,"name":"Klukeville","admin3":"84055"},{"geonameid":6049369,"name":"L'Ange-Gardien","admin3":"82005"},{"geonameid":6054648,"name":"L'Isle-aux-Allumettes","admin3":"84090"},{"geonameid":6049054,"name":"La Montagne","admin3":"84035"},{"geonameid":6049134,"name":"La Nation","admin3":"80027"},{"geonameid":6049669,"name":"La Pêche","admin3":"82035"},{"geonameid":6050220,"name":"La Seigneurie","admin3":"81017"},{"geonameid":6000790,"name":"Lac-Bitobig","admin3":"83055"},{"geonameid":6003670,"name":"Lac-Cayamant","admin3":"83040"},{"geonameid":6004051,"name":"Lac-Charlebois","admin3":"80027"},{"geonameid":6006383,"name":"Lac-Danford","admin3":"83015"},{"geonameid":6012357,"name":"Lac-des-Loups","admin3":"82035"},{"geonameid":6012802,"name":"Lac-des-Plages","admin3":"80130"},{"geonameid":6014611,"name":"Lac-du-Brochet","admin3":"83020"},{"geonameid":6022088,"name":"Lac-Gareau","admin3":"83032"},{"geonameid":6023495,"name":"Lac-Grosleau","admin3":"80078"},{"geonameid":6030418,"name":"Lac-Long","admin3":"83045"},{"geonameid":6032543,"name":"Lac-McGregor","admin3":"82015"},{"geonameid":6037015,"name":"Lac-Pemichangan","admin3":"83032"},{"geonameid":6041177,"name":"Lac-Sainte-Marie","admin3":"83020"},{"geonameid":6042690,"name":"Lac-Simon","admin3":"80095"},{"geonameid":6046402,"name":"Lac-Vert","admin3":"83020"},{"geonameid":6040353,"name":"Lacroixville","admin3":"83032"},{"geonameid":6047812,"name":"Ladysmith","admin3":"84045"},{"geonameid":6048797,"name":"Lakeview-Terrasse","admin3":"81017"},{"geonameid":6049217,"name":"Landing","admin3":"81017"},{"geonameid":6050080,"name":"Larrimac","admin3":"82025"},{"geonameid":6050206,"name":"Lascelles","admin3":"82035"},{"geonameid":11232164,"name":"Lauréat","admin3":"84055"},{"geonameid":6051227,"name":"Le Baron","admin3":"81017"},{"geonameid":6051375,"name":"Le Carrefour","admin3":"81017"},{"geonameid":6051480,"name":"Le Coteau","admin3":"81017"},{"geonameid":6051538,"name":"Le Domaine","admin3":""},{"geonameid":6052230,"name":"Le Mont-Luc","admin3":"81017"},{"geonameid":10627796,"name":"le Plateau","admin3":"81017"},{"geonameid":6052673,"name":"Le Rocher-Fendu","admin3":"84035"},{"geonameid":6051011,"name":"Leach Lake","admin3":"84045"},{"geonameid":6051439,"name":"Leclair","admin3":"84065"},{"geonameid":6052147,"name":"Lemay","admin3":"83020"},{"geonameid":6052892,"name":"Leslie-Clapham-et-Huddersfield","admin3":"84055"},{"geonameid":6054094,"name":"Limbour","admin3":"81017"},{"geonameid":6058142,"name":"Lochaber","admin3":"80060"},{"geonameid":6060299,"name":"Lordsvale","admin3":"82035"},{"geonameid":11350713,"name":"Low","admin3":"83010"},{"geonameid":6061777,"name":"Lucerne","admin3":"81017"},{"geonameid":6062141,"name":"Luskville","admin3":"82030"},{"geonameid":6065262,"name":"Maniwaki","admin3":"83065"},{"geonameid":6065445,"name":"Mansfield-et-Pontefract","admin3":"84065"},{"geonameid":6065678,"name":"Maple Ridge","admin3":"84005"},{"geonameid":6066460,"name":"Marion's Corner","admin3":"84082"},{"geonameid":6066503,"name":"Mark Crossing","admin3":"83032"},{"geonameid":6067089,"name":"Martindale","admin3":"83010"},{"geonameid":6067419,"name":"Maryland","admin3":"84005"},{"geonameid":6067710,"name":"Masson-Angers","admin3":"81017"},{"geonameid":6068414,"name":"Mayo","admin3":"80065"},{"geonameid":6068601,"name":"McBean","admin3":"83032"},{"geonameid":6070108,"name":"McKee","admin3":"84005"},{"geonameid":6071915,"name":"Mellon","admin3":"84065"},{"geonameid":6072435,"name":"Messines","admin3":"83060"},{"geonameid":6074519,"name":"Mine-de-Mica","admin3":"82010"},{"geonameid":6076784,"name":"Mont-Bleu","admin3":"81017"},{"geonameid":6076817,"name":"Mont-Cascades","admin3":"82020"},{"geonameid":6076823,"name":"Montcerf-Lytton","admin3":"83088"},{"geonameid":6076939,"name":"Montebello","admin3":"80010"},{"geonameid":6077211,"name":"Montpellier","admin3":"80090"},{"geonameid":6079657,"name":"Mountain View","admin3":"81017"},{"geonameid":6084038,"name":"Mulgrave-et-Derry","admin3":"80085"},{"geonameid":6084077,"name":"Mulligan Ferry","admin3":"83020"},{"geonameid":6084747,"name":"Murrell","admin3":"84015"},{"geonameid":6085763,"name":"Namur","admin3":"80110"},{"geonameid":6087950,"name":"Nichabau","admin3":"84090"},{"geonameid":6089635,"name":"North Clarendon","admin3":"84015"},{"geonameid":6090272,"name":"North Low","admin3":"83010"},{"geonameid":6090349,"name":"North Nation Mills","admin3":"80045"},{"geonameid":6090366,"name":"North Onslow","admin3":"82030"},{"geonameid":6091139,"name":"Norway Bay","admin3":"84005"},{"geonameid":6091304,"name":"Notre-Dame-de-Bon-Secours-Partie-Nord","admin3":"80015"},{"geonameid":6091351,"name":"Notre-Dame-de-la-Salette","admin3":"82010"},{"geonameid":6091354,"name":"Notre-Dame-de-la-Salette","admin3":"82010"},{"geonameid":6093100,"name":"Old Chelsea","admin3":"82025"},{"geonameid":6093938,"name":"Onslow Corners","admin3":"82030"},{"geonameid":6094367,"name":"Orlo","admin3":"83045"},{"geonameid":6096672,"name":"Papineauville","admin3":"80037"},{"geonameid":6096875,"name":"Parc-Aylmer","admin3":"81017"},{"geonameid":6096936,"name":"Parc-Champlain","admin3":"81017"},{"geonameid":6096968,"name":"Parc-Connaught","admin3":"81017"},{"geonameid":6097069,"name":"Parc-de-la-Montagne","admin3":"81017"},{"geonameid":6097611,"name":"Parc-Glenwood","admin3":"81017"},{"geonameid":6099651,"name":"Patterson","admin3":"82025"},{"geonameid":6099773,"name":"Paugan Falls","admin3":"83010"},{"geonameid":6101345,"name":"Perkins","admin3":"82015"},{"geonameid":6103466,"name":"Petit-Poisson-Blanc","admin3":"83020"},{"geonameid":6105135,"name":"Pine Lodge","admin3":"84005"},{"geonameid":6106143,"name":"Plaisance","admin3":"80045"},{"geonameid":6106659,"name":"Point Comfort","admin3":"83032"},{"geonameid":6107831,"name":"Pointe-Gatineau","admin3":"81017"},{"geonameid":6109078,"name":"Poltimore","admin3":"82015"},{"geonameid":6110181,"name":"Pontiac","admin3":"82030"},{"geonameid":6110189,"name":"Pontiac Station","admin3":"84005"},{"geonameid":6111331,"name":"Portage-de-la-Nation","admin3":"80037"},{"geonameid":6111348,"name":"Portage-du-Fort","admin3":"84020"},{"geonameid":6115131,"name":"Queens Park","admin3":"81017"},{"geonameid":6115341,"name":"Quinnville","admin3":"82020"},{"geonameid":6115438,"name":"Quyon","admin3":"82030"},{"geonameid":6115683,"name":"Radford","admin3":"84015"},{"geonameid":6116881,"name":"Rapides-des-Joachims","admin3":"84100"},{"geonameid":6121805,"name":"Ribot","admin3":"82005"},{"geonameid":6122472,"name":"Ripon","admin3":"80078"},{"geonameid":6122775,"name":"Riviera","admin3":"81017"},{"geonameid":6126323,"name":"Rockhurst","admin3":"82035"},{"geonameid":6136416,"name":"Rupert","admin3":"82035"},{"geonameid":6136850,"name":"Ryan's Corner","admin3":"84082"},{"geonameid":6136868,"name":"Ryanville","admin3":"83020"},{"geonameid":6137404,"name":"Saint-André-Avellin","admin3":"80027"},{"geonameid":6137541,"name":"Saint-Cajetan","admin3":"83090"},{"geonameid":6138047,"name":"Saint-Émile-de-Suffolk","admin3":"80125"},{"geonameid":6138530,"name":"Saint-Joseph","admin3":"84082"},{"geonameid":6138669,"name":"Saint-Louis-de-Masham","admin3":"82035"},{"geonameid":6138948,"name":"Saint-Pierre-de-Wakefield","admin3":"82015"},{"geonameid":6139073,"name":"Saint-Sixte","admin3":"80070"},{"geonameid":6137799,"name":"Sainte-Cécile-de-Masham","admin3":"82035"},{"geonameid":6138087,"name":"Sainte-Rose","admin3":"81017"},{"geonameid":6138129,"name":"Sainte-Thérèse-de-la-Gatineau","admin3":"83055"},{"geonameid":6140161,"name":"Sand Bay","admin3":"84015"},{"geonameid":6140718,"name":"Sandy Creek","admin3":"84055"},{"geonameid":6142316,"name":"Schwartz","admin3":"84045"},{"geonameid":6142338,"name":"Schyan Point","admin3":"84095"},{"geonameid":6145563,"name":"Shawville","admin3":"84010"},{"geonameid":6145701,"name":"Sheen-Esher-Aberdeen-et-Malakoff","admin3":"84095"},{"geonameid":7289868,"name":"Sheenboro","admin3":"84095"},{"geonameid":6147692,"name":"Silver Creek","admin3":"80060"},{"geonameid":6148281,"name":"Singer","admin3":"80090"},{"geonameid":6154984,"name":"Stagsburn","admin3":"83010"},{"geonameid":6155446,"name":"Starks Corners","admin3":"84015"},{"geonameid":6161466,"name":"Tancredia","admin3":"84035"},{"geonameid":6162698,"name":"Templeton","admin3":"81017"},{"geonameid":6162703,"name":"Templeton-Est","admin3":"81017"},{"geonameid":6162706,"name":"Templeton-Ouest","admin3":"81017"},{"geonameid":6162710,"name":"Tenaga","admin3":"82025"},{"geonameid":6165641,"name":"Thornby","admin3":"84045"},{"geonameid":6165659,"name":"Thorne Centre","admin3":"84045"},{"geonameid":6165664,"name":"Thorne Lake","admin3":"84015"},{"geonameid":6166224,"name":"Thurso","admin3":"80050"},{"geonameid":6168019,"name":"Touraine","admin3":"81017"},{"geonameid":6173007,"name":"Val-des-Bois","admin3":"80145"},{"geonameid":6173012,"name":"Val-des-Monts","admin3":"82015"},{"geonameid":6173074,"name":"Val-Guertin","admin3":"83060"},{"geonameid":6173032,"name":"Valencay","admin3":"80078"},{"geonameid":6173715,"name":"Venosta","admin3":"83010"},{"geonameid":6173854,"name":"Vernet","admin3":"80115"},{"geonameid":6174422,"name":"Vinoy","admin3":"80103"},{"geonameid":6174429,"name":"Vinton","admin3":"84040"},{"geonameid":6174741,"name":"Wabash","admin3":"84082"},{"geonameid":6175108,"name":"Wakefield","admin3":"82035"},{"geonameid":6175109,"name":"Wakefield","admin3":"82035"},{"geonameid":6175738,"name":"Waltham","admin3":"84070"},{"geonameid":6180312,"name":"White Deer","admin3":"80145"},{"geonameid":6182758,"name":"Wilson's Corner","admin3":"82015"},{"geonameid":6184755,"name":"Wright-Gracefield-Northfield","admin3":"83032"},{"geonameid":6184821,"name":"Wrightville","admin3":"81017"},{"geonameid":6184937,"name":"Wychwood","admin3":"81017"},{"geonameid":6184990,"name":"Wyman","admin3":"84005"},{"geonameid":6185216,"name":"Yarm","admin3":"84015"}],"admin3":[{"geonameid":5888340,"name":"Aumond","admin3":"83090"},{"geonameid":5908999,"name":"Bristol","admin3":"84005"},{"geonameid":5923112,"name":"Clarendon","admin3":"84015"},{"geonameid":5937785,"name":"Denholm","admin3":"83005"},{"geonameid":5964679,"name":"Grand-Remous","admin3":"83095"},{"geonameid":6054681,"name":"Litchfield","admin3":"84040"},{"geonameid":6058143,"name":"Lochaber","admin3":"80055"},{"geonameid":6058146,"name":"Lochaber-Partie-Ouest","admin3":"80060"},{"geonameid":6061013,"name":"Low","admin3":"83010"},{"geonameid":6091341,"name":"Notre-Dame-de-la-Paix","admin3":"80020"},{"geonameid":6165656,"name":"Thorne","admin3":"84045"},{"geonameid":8672644,"name":"Boileau","admin3":"80115"},{"geonameid":8672682,"name":"Bryson","admin3":"84025"},{"geonameid":8672696,"name":"Gracefield","admin3":"83032"},{"geonameid":8672704,"name":"L'Île-du-Grand-Calumet","admin3":"84035"},{"geonameid":8672815,"name":"Otter Lake","admin3":"84055"},{"geonameid":8672868,"name":"L'Isle-aux-Allumettes","admin3":"84082"},{"geonameid":8672874,"name":"Notre-Dame-de-Bonsecours","admin3":"80015"},{"geonameid":8672908,"name":"Fort-Coulonge","admin3":"84060"},{"geonameid":8672957,"name":"Val-des-Bois","admin3":"80140"},{"geonameid":8673000,"name":"Bouchette","admin3":"83050"},{"geonameid":8673001,"name":"Mulgrave-et-Derry","admin3":"80085"},{"geonameid":8673037,"name":"Kazabazua","admin3":"83015"},{"geonameid":8673041,"name":"Waltham","admin3":"84070"},{"geonameid":8673048,"name":"Mansfield-et-Pontefract","admin3":"84065"},{"geonameid":8673075,"name":"Egan-Sud","admin3":"83075"},{"geonameid":8673112,"name":"Lac-Simon","admin3":"80095"},{"geonameid":8673145,"name":"Alleyn-et-Cawood","admin3":"84050"},{"geonameid":8673154,"name":"Rapides-des-Joachims","admin3":"84100"},{"geonameid":8673184,"name":"Campbell's Bay","admin3":"84030"},{"geonameid":8673203,"name":"Saint-André-Avellin","admin3":"80027"},{"geonameid":8673218,"name":"Saint-Émile-de-Suffolk","admin3":"80125"},{"geonameid":8673220,"name":"Montpellier","admin3":"80090"},{"geonameid":8673322,"name":"Duhamel","admin3":"80135"},{"geonameid":8673335,"name":"Cayamant","admin3":"83040"},{"geonameid":8673352,"name":"Déléage","admin3":"83070"},{"geonameid":8673358,"name":"Fassett","admin3":"80005"},{"geonameid":8673370,"name":"Chénéville","admin3":"80103"},{"geonameid":8673394,"name":"Saint-Sixte","admin3":"80070"},{"geonameid":8673397,"name":"Lac-des-Plages","admin3":"80130"},{"geonameid":8673400,"name":"Sheenboro","admin3":"84095"},{"geonameid":8673429,"name":"Notre-Dame-de-la-Salette","admin3":"82010"},{"geonameid":8673498,"name":"Mayo","admin3":"80065"},{"geonameid":8673532,"name":"Lac-Sainte-Marie","admin3":"83020"},{"geonameid":8673595,"name":"Shawville","admin3":"84010"},{"geonameid":8673626,"name":"Messines","admin3":"83060"},{"geonameid":8673661,"name":"La Pêche","admin3":"82035"},{"geonameid":8673708,"name":"Blue Sea","admin3":"83045"},{"geonameid":8673797,"name":"Ripon","admin3":"80078"},{"geonameid":8673830,"name":"Montcerf-Lytton","admin3":"83088"},{"geonameid":8673860,"name":"Bowman","admin3":"80145"},{"geonameid":8673890,"name":"Val-des-Monts","admin3":"82015"},{"geonameid":8673893,"name":"L'Ange-Gardien","admin3":"82005"},{"geonameid":8673938,"name":"Chelsea","admin3":"82025"},{"geonameid":8674016,"name":"Sainte-Thérèse-de-la-Gatineau","admin3":"83055"},{"geonameid":8674022,"name":"Bois-Franc","admin3":"83085"},{"geonameid":8674083,"name":"Portage-du-Fort","admin3":"84020"},{"geonameid":8674089,"name":"Namur","admin3":"80110"},{"geonameid":8674095,"name":"Thurso","admin3":"80050"},{"geonameid":8674129,"name":"Pontiac","admin3":"82030"},{"geonameid":8674150,"name":"Montebello","admin3":"80010"},{"geonameid":8674170,"name":"Maniwaki","admin3":"83065"},{"geonameid":8674208,"name":"Cantley","admin3":"82020"},{"geonameid":8674227,"name":"Papineauville","admin3":"80037"},{"geonameid":8674241,"name":"Plaisance","admin3":"80045"}],"alternateNames":[]},"__N_SSG":true}