{"pageProps":{"locale":"en","admin2":{"geonameid":8426240,"name":"Gemeente Hollands Kroon","country":"NL","admin1":"07","admin2":"1911","admin3":"","latitude":"52.8488200","longitude":"4.9071100"},"admin1":{"geonameid":2749879,"name":"Provincie Noord-Holland","admin1":"07"},"locations":[{"geonameid":2759737,"name":"Anna Paulowna","admin3":""},{"geonameid":2759397,"name":"Barsingerhorn","admin3":""},{"geonameid":2759243,"name":"Belt","admin3":""},{"geonameid":2758788,"name":"Blokhuizen","admin3":""},{"geonameid":2758360,"name":"Breezand","admin3":""},{"geonameid":2757842,"name":"Dam","admin3":""},{"geonameid":2757631,"name":"De Gest","admin3":""},{"geonameid":2757576,"name":"De Haukes","admin3":""},{"geonameid":2757565,"name":"De Heid","admin3":""},{"geonameid":2757532,"name":"De Hoelm","admin3":""},{"geonameid":2757465,"name":"De Kampen","admin3":""},{"geonameid":2757358,"name":"De Leijen","admin3":""},{"geonameid":2757032,"name":"De Strook","admin3":""},{"geonameid":2756953,"name":"De Weel","admin3":""},{"geonameid":2756949,"name":"De Weere","admin3":""},{"geonameid":2757194,"name":"Den Oever","admin3":""},{"geonameid":2756585,"name":"Driemolens","admin3":""},{"geonameid":2756213,"name":"Elft","admin3":""},{"geonameid":2755624,"name":"Gelderse Buurt","admin3":""},{"geonameid":2754829,"name":"Haringhuizen","admin3":""},{"geonameid":2754050,"name":"Hippolytushoef","admin3":""},{"geonameid":2753952,"name":"Hogebieren","admin3":""},{"geonameid":2753899,"name":"Hollebalg","admin3":""},{"geonameid":6544929,"name":"Kleine Sluis","admin3":""},{"geonameid":2752531,"name":"Kolhorn","admin3":""},{"geonameid":2752282,"name":"Kreil","admin3":""},{"geonameid":2752281,"name":"Kreileroord","admin3":""},{"geonameid":2751918,"name":"Langereis","admin3":""},{"geonameid":2751369,"name":"Lutjewinkel","admin3":""},{"geonameid":2750850,"name":"Middenmeer","admin3":""},{"geonameid":2750773,"name":"Moerbeek","admin3":""},{"geonameid":2750278,"name":"Nieuwe-Niedorp","admin3":""},{"geonameid":2750243,"name":"Nieuwesluis","admin3":""},{"geonameid":2749986,"name":"Noordburen","admin3":""},{"geonameid":2749954,"name":"Noorderbuurt","admin3":""},{"geonameid":2749823,"name":"Noordstroe","admin3":""},{"geonameid":2749442,"name":"Oosterklief","admin3":""},{"geonameid":2749439,"name":"Oosterland","admin3":""},{"geonameid":2749042,"name":"Oude-Niedorp","admin3":""},{"geonameid":2748504,"name":"Poolland","admin3":""},{"geonameid":2747136,"name":"Slootdorp","admin3":""},{"geonameid":2747083,"name":"Smerp","admin3":""},{"geonameid":2746908,"name":"Spoorbuurt","admin3":""},{"geonameid":2746595,"name":"Stroe","admin3":""},{"geonameid":2746093,"name":"t Veld","admin3":""},{"geonameid":2746462,"name":"Terdiek","admin3":""},{"geonameid":2746290,"name":"Tin","admin3":""},{"geonameid":2745830,"name":"Van Ewijcksluis","admin3":""},{"geonameid":2745797,"name":"Vatrop","admin3":""},{"geonameid":2750393,"name":"Verlaat","admin3":""},{"geonameid":2744971,"name":"Wateringskant","admin3":""},{"geonameid":2744725,"name":"Westerklief","admin3":""},{"geonameid":2744720,"name":"Westerland","admin3":""},{"geonameid":2744534,"name":"Wieringerwaard","admin3":""},{"geonameid":2744532,"name":"Wieringerwerf","admin3":""},{"geonameid":2744530,"name":"Wieringerwerf-Zuid","admin3":""},{"geonameid":2744354,"name":"Winkel","admin3":""},{"geonameid":2744085,"name":"Zandburen","admin3":""},{"geonameid":2743904,"name":"Zijdewind","admin3":""}],"admin3":[],"alternateNames":[]},"__N_SSG":true}