{"pageProps":{"locale":"en","admin2":{"geonameid":2747719,"name":"Gemeente Schagen","country":"NL","admin1":"07","admin2":"0441","admin3":"","latitude":"52.7882300","longitude":"4.7996500"},"admin1":{"geonameid":2749879,"name":"Provincie Noord-Holland","admin1":"07"},"locations":[{"geonameid":2746031,"name":"'t Zand","admin3":""},{"geonameid":2760071,"name":"Abbestede","admin3":""},{"geonameid":2758089,"name":"Burgerbrug","admin3":""},{"geonameid":2758084,"name":"Burgervlotbrug","admin3":""},{"geonameid":2758027,"name":"Callantsoog","admin3":""},{"geonameid":2756788,"name":"Dirkshorn","admin3":""},{"geonameid":2756359,"name":"Eenigenburg","admin3":""},{"geonameid":2755273,"name":"Groenveld","admin3":""},{"geonameid":2755183,"name":"Groote Keeten","admin3":""},{"geonameid":2755056,"name":"Grotewal","admin3":""},{"geonameid":2754837,"name":"Harenkarspel","admin3":""},{"geonameid":2754253,"name":"Het Korfwater","admin3":""},{"geonameid":2753119,"name":"Kalverdijk","admin3":""},{"geonameid":2752983,"name":"Keinse","admin3":""},{"geonameid":2752982,"name":"Keinsmerbrug","admin3":""},{"geonameid":2752949,"name":"Kerkbuurt","admin3":""},{"geonameid":2752332,"name":"Krabbendam","admin3":""},{"geonameid":2752050,"name":"Lagedijk","admin3":""},{"geonameid":2751758,"name":"Leihoek","admin3":""},{"geonameid":2750955,"name":"Mennonietenbuurt","admin3":""},{"geonameid":2750421,"name":"Nes","admin3":""},{"geonameid":2749003,"name":"Oudesluis","admin3":""},{"geonameid":2748631,"name":"Petten","admin3":""},{"geonameid":2748101,"name":"Rijp","admin3":""},{"geonameid":2747720,"name":"Schagen","admin3":""},{"geonameid":2747715,"name":"Schagerbrug","admin3":""},{"geonameid":2747488,"name":"Schoorldam","admin3":""},{"geonameid":2747244,"name":"Sint Maarten","admin3":""},{"geonameid":2747242,"name":"Sint Maartensbrug","admin3":""},{"geonameid":2747239,"name":"Sint Maartensvlotbrug","admin3":""},{"geonameid":2747238,"name":"Sint Maartenszee","admin3":""},{"geonameid":2746668,"name":"Stolpen","admin3":""},{"geonameid":2746666,"name":"Stolpervlotbrug","admin3":""},{"geonameid":2746592,"name":"Stroet","admin3":""},{"geonameid":2746514,"name":"t Buurtje","admin3":""},{"geonameid":2746082,"name":"t Wad","admin3":""},{"geonameid":2746273,"name":"Tjallewal","admin3":""},{"geonameid":2746227,"name":"Tolke","admin3":""},{"geonameid":2746121,"name":"Tuitjenhorn","admin3":""},{"geonameid":2745857,"name":"Valkkoog","admin3":""},{"geonameid":2745105,"name":"Waarland","admin3":""},{"geonameid":2745014,"name":"Warmenhuizen","admin3":""},{"geonameid":2743878,"name":"Zijpersluis","admin3":""}],"admin3":[],"alternateNames":[]},"__N_SSG":true}