{"pageProps":{"locale":"ro","admin1":{"geonameid":676309,"name":"Harghita","country":"RO","admin1":"20","latitude":"46.5833300","longitude":"25.4166700"},"admin2":[{"geonameid":686058,"name":"Comuna Atid","admin2":"83785"},{"geonameid":686019,"name":"Comuna Avrămeşti","admin2":"83847"},{"geonameid":684869,"name":"Comuna Bilbor","admin2":"83936"},{"geonameid":683957,"name":"Comuna Brădeşti","admin2":"83151"},{"geonameid":682804,"name":"Comuna Căpâlniţa","admin2":"83963"},{"geonameid":681521,"name":"Comuna Cârţa","admin2":"84102"},{"geonameid":8334691,"name":"Comuna Ciceu","admin2":"86461"},{"geonameid":681479,"name":"Comuna Ciucsângeorgiu","admin2":"83981"},{"geonameid":681435,"name":"Comuna Ciumani","admin2":"84086"},{"geonameid":680854,"name":"Comuna Corbu","admin2":"84148"},{"geonameid":680670,"name":"Comuna Corund","admin2":"84175"},{"geonameid":680394,"name":"Comuna Cozmeni","admin2":"86446"},{"geonameid":679752,"name":"Comuna Dăneşti","admin2":"84237"},{"geonameid":679327,"name":"Comuna Dârjiu","admin2":"84380"},{"geonameid":679683,"name":"Comuna Dealu","admin2":"84264"},{"geonameid":679308,"name":"Comuna Ditrău","admin2":"84344"},{"geonameid":678351,"name":"Comuna Feliceni","admin2":"83197"},{"geonameid":677885,"name":"Comuna Frumoasa","admin2":"84415"},{"geonameid":677685,"name":"Comuna Gălăuţaş","admin2":"84460"},{"geonameid":675169,"name":"Comuna Joseni","admin2":"84558"},{"geonameid":674973,"name":"Comuna Lăzarea","admin2":"84594"},{"geonameid":674899,"name":"Comuna Leliceni","admin2":"86479"},{"geonameid":674535,"name":"Comuna Lueta","admin2":"84629"},{"geonameid":674416,"name":"Comuna Lunca de Jos","admin2":"84656"},{"geonameid":674412,"name":"Comuna Lunca de Sus","admin2":"84754"},{"geonameid":674293,"name":"Comuna Lupeni","admin2":"84825"},{"geonameid":674212,"name":"Comuna Mădăraş","admin2":"86438"},{"geonameid":673730,"name":"Comuna Mărtiniş","admin2":"84923"},{"geonameid":673569,"name":"Comuna Mereşti","admin2":"85056"},{"geonameid":673389,"name":"Comuna Mihăileni","admin2":"85074"},{"geonameid":672699,"name":"Comuna Mugeni","admin2":"85127"},{"geonameid":672030,"name":"Comuna Ocland","admin2":"85243"},{"geonameid":8334952,"name":"Comuna Pãuleni-Ciuc","admin2":"83375"},{"geonameid":8334988,"name":"Comuna Plãieşii De Jos","admin2":"85289"},{"geonameid":669813,"name":"Comuna Porumbeni","admin2":"86487"},{"geonameid":669734,"name":"Comuna Praid","admin2":"85341"},{"geonameid":669300,"name":"Comuna Racu","admin2":"86495"},{"geonameid":668984,"name":"Comuna Remetea","admin2":"85412"},{"geonameid":668318,"name":"Comuna Săcel","admin2":"85467"},{"geonameid":667068,"name":"Comuna Sâncrăieni","admin2":"85680"},{"geonameid":667054,"name":"Comuna Sândominic","admin2":"85760"},{"geonameid":667003,"name":"Comuna Sânmartin","admin2":"85788"},{"geonameid":666944,"name":"Comuna Sânsimion","admin2":"85840"},{"geonameid":666905,"name":"Comuna Sântimbru","admin2":"86519"},{"geonameid":667971,"name":"Comuna Sărmaş","admin2":"85528"},{"geonameid":667871,"name":"Comuna Satu Mare","admin2":"86501"},{"geonameid":8334682,"name":"Comuna Secuieni","admin2":"85582"},{"geonameid":8334845,"name":"Comuna Siculeni","admin2":"85626"},{"geonameid":667093,"name":"Comuna Simoneşti","admin2":"85984"},{"geonameid":665872,"name":"Comuna Subcetate","admin2":"85877"},{"geonameid":665684,"name":"Comuna Suseni","admin2":"85920"},{"geonameid":664816,"name":"Comuna Tomeşti","admin2":"86453"},{"geonameid":664510,"name":"Comuna Tulgheş","admin2":"86133"},{"geonameid":664418,"name":"Comuna Tuşnad","admin2":"86188"},{"geonameid":664330,"name":"Comuna Ulieş","admin2":"86222"},{"geonameid":663157,"name":"Comuna Vărşag","admin2":"86311"},{"geonameid":662454,"name":"Comuna Voşlãbeni","admin2":"86339"},{"geonameid":662216,"name":"Comuna Zetea","admin2":"86366"},{"geonameid":8334992,"name":"Municipiul  Topliţa","admin2":"83632"},{"geonameid":8334611,"name":"Municipiul Gheorgheni","admin2":"83561"},{"geonameid":8334612,"name":"Municipiul Miercurea Ciuc","admin2":"83320"},{"geonameid":8334721,"name":"Municipiul Odorheiu Secuiesc","admin2":"83133"},{"geonameid":8334705,"name":"Oraş Bãile Tuşnad","admin2":"83428"},{"geonameid":8334910,"name":"Oraş Bãlan","admin2":"83464"},{"geonameid":8334764,"name":"Oraş Borsec","admin2":"83491"},{"geonameid":8334922,"name":"Oraş Cristuru Secuiesc","admin2":"83525"},{"geonameid":662569,"name":"Oraş Vlãhiţa","admin2":"83749"}],"country":{"geonameid":798549,"country":"RO","localeAltName":"România"},"alternateNames":[{"alternatenameId":490801,"geonameid":798549,"isoLanguage":"ro","alternateName":"România","isPreferredName":true,"isShortName":true,"isColloquial":false,"isHistoric":false}]},"__N_SSG":true}