{"pageProps":{"locale":"en","admin2":{"geonameid":4929772,"name":"Barnstable County","country":"US","admin1":"MA","admin2":"001","admin3":"","latitude":"41.6841900","longitude":"-70.2740500","localeAltName":null},"admin1":{"geonameid":6254926,"name":"Massachusetts","admin1":"MA","localeAltName":"Massachusetts"},"locations":[{"geonameid":4929771,"name":"Barnstable","admin3":"03690","localeAltName":null},{"geonameid":4931050,"name":"Bourne","admin3":"07175","localeAltName":null},{"geonameid":4931273,"name":"Brewster","admin3":"07980","localeAltName":null},{"geonameid":4931875,"name":"Buzzards Bay","admin3":"07175","localeAltName":null},{"geonameid":4932587,"name":"Centerville","admin3":"03690","localeAltName":null},{"geonameid":4932844,"name":"Chatham","admin3":"12995","localeAltName":null},{"geonameid":4933989,"name":"Cotuit","admin3":"03690","localeAltName":null},{"geonameid":4934749,"name":"Dennis","admin3":"16775","localeAltName":null},{"geonameid":4934753,"name":"Dennis Port","admin3":"16775","localeAltName":null},{"geonameid":4935370,"name":"East Dennis","admin3":"16775","localeAltName":null},{"geonameid":4832176,"name":"East Falmouth","admin3":"23105","localeAltName":null},{"geonameid":4935398,"name":"East Harwich","admin3":"29020","localeAltName":null},{"geonameid":4935495,"name":"East Sandwich","admin3":"59735","localeAltName":null},{"geonameid":4935578,"name":"Eastham","admin3":"19295","localeAltName":null},{"geonameid":4936174,"name":"Falmouth","admin3":"23105","localeAltName":null},{"geonameid":4937033,"name":"Forestdale","admin3":"59735","localeAltName":null},{"geonameid":4939004,"name":"Harwich","admin3":"29020","localeAltName":null},{"geonameid":7257575,"name":"Harwich Center","admin3":"29020","localeAltName":null},{"geonameid":4939008,"name":"Harwich Port","admin3":"29020","localeAltName":null},{"geonameid":4940190,"name":"Hyannis","admin3":"03690","localeAltName":null},{"geonameid":4943227,"name":"Marstons Mills","admin3":"03690","localeAltName":null},{"geonameid":4943297,"name":"Mashpee","admin3":"39100","localeAltName":null},{"geonameid":4943298,"name":"Mashpee Neck","admin3":"39100","localeAltName":null},{"geonameid":4944405,"name":"Monument Beach","admin3":"07175","localeAltName":null},{"geonameid":4945234,"name":"New Seabury","admin3":"39100","localeAltName":null},{"geonameid":4945608,"name":"North Eastham","admin3":"19295","localeAltName":null},{"geonameid":4945622,"name":"North Falmouth","admin3":"23105","localeAltName":null},{"geonameid":7257737,"name":"Northwest Harwich","admin3":"29020","localeAltName":null},{"geonameid":4946410,"name":"Orleans","admin3":"51440","localeAltName":null},{"geonameid":4946441,"name":"Osterville","admin3":"03690","localeAltName":null},{"geonameid":4947655,"name":"Pocasset","admin3":"07175","localeAltName":null},{"geonameid":4948087,"name":"Provincetown","admin3":"55500","localeAltName":null},{"geonameid":4949344,"name":"Sagamore","admin3":"07175","localeAltName":null},{"geonameid":4950191,"name":"Sandwich","admin3":"59735","localeAltName":null},{"geonameid":4951359,"name":"South Dennis","admin3":"16775","localeAltName":null},{"geonameid":4951579,"name":"South Yarmouth","admin3":"82525","localeAltName":null},{"geonameid":4952663,"name":"Teaticket","admin3":"23105","localeAltName":null},{"geonameid":4953382,"name":"Truro","admin3":"70605","localeAltName":null},{"geonameid":4954763,"name":"Wellfleet","admin3":"74385","localeAltName":null},{"geonameid":4832322,"name":"West Barnstable","admin3":"03690","localeAltName":null},{"geonameid":4954912,"name":"West Chatham","admin3":"12995","localeAltName":null},{"geonameid":4954931,"name":"West Dennis","admin3":"16775","localeAltName":null},{"geonameid":4954944,"name":"West Falmouth","admin3":"23105","localeAltName":null},{"geonameid":4955143,"name":"West Yarmouth","admin3":"82525","localeAltName":null},{"geonameid":4956152,"name":"Woods Hole","admin3":"23105","localeAltName":null},{"geonameid":4956335,"name":"Yarmouth","admin3":"82525","localeAltName":null},{"geonameid":4956338,"name":"Yarmouth Port","admin3":"82525","localeAltName":null}],"admin3":[{"geonameid":4929780,"name":"City of Barnstable Town","admin3":"03690","localeAltName":null},{"geonameid":4931065,"name":"Town of Bourne","admin3":"07175","localeAltName":null},{"geonameid":4931279,"name":"Town of Brewster","admin3":"07980","localeAltName":null},{"geonameid":4932859,"name":"Town of Chatham","admin3":"12995","localeAltName":null},{"geonameid":4934754,"name":"Town of Dennis","admin3":"16775","localeAltName":null},{"geonameid":4935581,"name":"Town of Eastham","admin3":"19295","localeAltName":null},{"geonameid":4936190,"name":"Town of Falmouth","admin3":"23105","localeAltName":null},{"geonameid":4939012,"name":"Town of Harwich","admin3":"29020","localeAltName":null},{"geonameid":4943303,"name":"Town of Mashpee","admin3":"39100","localeAltName":null},{"geonameid":4946416,"name":"Town of Orleans","admin3":"51440","localeAltName":null},{"geonameid":4948099,"name":"Town of Provincetown","admin3":"55500","localeAltName":null},{"geonameid":4950196,"name":"Town of Sandwich","admin3":"59735","localeAltName":null},{"geonameid":4953376,"name":"Town of Truro","admin3":"70605","localeAltName":null},{"geonameid":4954770,"name":"Town of Wellfleet","admin3":"74385","localeAltName":null},{"geonameid":4956340,"name":"Town of Yarmouth","admin3":"82525","localeAltName":null}],"alternateNames":[{"alternatenameId":6755490,"geonameid":6254926,"isoLanguage":"en","alternateName":"Massachusetts","isPreferredName":true,"isShortName":true,"isColloquial":false,"isHistoric":false}]},"__N_SSG":true}