{"pageProps":{"locale":"en","admin2":{"geonameid":4851249,"name":"Cherokee County","country":"US","admin1":"IA","admin2":"035","admin3":"","latitude":"42.7356200","longitude":"-95.6238100","localeAltName":null},"admin1":{"geonameid":4862182,"name":"Iowa","admin1":"IA","localeAltName":"Iowa"},"locations":[{"geonameid":4847460,"name":"Aurelia","admin3":"93336","localeAltName":null},{"geonameid":4851247,"name":"Cherokee","admin3":"90654","localeAltName":null},{"geonameid":4866215,"name":"Marcus","admin3":"92829","localeAltName":null}],"admin3":[{"geonameid":4846457,"name":"Township of Afton","admin3":"90021"},{"geonameid":4846860,"name":"Township of Amherst","admin3":"90063"},{"geonameid":4850818,"name":"Township of Cedar","admin3":"90531"},{"geonameid":4851261,"name":"Township of Cherokee","admin3":"90654","localeAltName":null},{"geonameid":4853941,"name":"Township of Diamond","admin3":"90996"},{"geonameid":4858886,"name":"Township of Grand Meadow","admin3":"91602"},{"geonameid":4864636,"name":"Township of Liberty","admin3":"92442"},{"geonameid":4866225,"name":"Township of Marcus","admin3":"92829","localeAltName":null},{"geonameid":4871266,"name":"Township of Pilot","admin3":"93321"},{"geonameid":4871371,"name":"Township of Pitcher","admin3":"93336","localeAltName":null},{"geonameid":4873388,"name":"Township of Rock","admin3":"93657"},{"geonameid":4876222,"name":"Township of Sheridan","admin3":"93843"},{"geonameid":4876469,"name":"Township of Silver","admin3":"93891"},{"geonameid":4877322,"name":"Township of Spring","admin3":"93963"},{"geonameid":4878591,"name":"Township of Tilden","admin3":"94113"},{"geonameid":4882104,"name":"Township of Willow","admin3":"94740"}],"alternateNames":[{"alternatenameId":1980290,"geonameid":4862182,"isoLanguage":"en","alternateName":"Iowa","isPreferredName":true,"isShortName":true,"isColloquial":false,"isHistoric":false}]},"__N_SSG":true}