{"pageProps":{"locale":"en","admin2":{"geonameid":4859771,"name":"Hardin County","country":"US","admin1":"IA","admin2":"083","admin3":"","latitude":"42.3838800","longitude":"-93.2404000","localeAltName":null},"admin1":{"geonameid":4862182,"name":"Iowa","admin1":"IA","localeAltName":"Iowa"},"locations":[{"geonameid":4846317,"name":"Ackley","admin3":"91245","localeAltName":null},{"geonameid":4846565,"name":"Alden","admin3":"90036","localeAltName":null},{"geonameid":4855218,"name":"Eldora","admin3":"91157","localeAltName":null},{"geonameid":4861279,"name":"Hubbard","admin3":"94125","localeAltName":null},{"geonameid":4862069,"name":"Iowa Falls","admin3":"91833","localeAltName":null},{"geonameid":4872397,"name":"Radcliffe","admin3":"93858","localeAltName":null}],"admin3":[{"geonameid":4846574,"name":"Township of Alden","admin3":"90036","localeAltName":null},{"geonameid":4849668,"name":"Township of Buckeye","admin3":"90372"},{"geonameid":4851880,"name":"Township of Clay","admin3":"90678"},{"geonameid":4852442,"name":"Township of Concord","admin3":"90804"},{"geonameid":4855235,"name":"City of Eldora","admin3":"91157","localeAltName":null},{"geonameid":4855236,"name":"Township of Eldora","admin3":"91158"},{"geonameid":4855414,"name":"Township of Ellis","admin3":"91206"},{"geonameid":4855728,"name":"Township of Etna","admin3":"91245","localeAltName":null},{"geonameid":4859027,"name":"Township of Grant","admin3":"91662"},{"geonameid":4859784,"name":"Township of Hardin","admin3":"91833","localeAltName":null},{"geonameid":4862370,"name":"Township of Jackson","admin3":"92121"},{"geonameid":4871632,"name":"Township of Pleasant","admin3":"93363"},{"geonameid":4872263,"name":"Township of Providence","admin3":"93516"},{"geonameid":4876244,"name":"Township of Sherman","admin3":"93858","localeAltName":null},{"geonameid":4878660,"name":"Township of Tipton","admin3":"94125","localeAltName":null},{"geonameid":4879422,"name":"Township of Union","admin3":"94215"}],"alternateNames":[{"alternatenameId":1980290,"geonameid":4862182,"isoLanguage":"en","alternateName":"Iowa","isPreferredName":true,"isShortName":true,"isColloquial":false,"isHistoric":false}]},"__N_SSG":true}