{"pageProps":{"locale":"en","admin2":{"geonameid":4867704,"name":"Monona County","country":"US","admin1":"IA","admin2":"133","admin3":"","latitude":"42.0516700","longitude":"-95.9599200","localeAltName":null},"admin1":{"geonameid":4862182,"name":"Iowa","admin1":"IA","localeAltName":"Iowa"},"locations":[{"geonameid":4866151,"name":"Mapleton","admin3":"92817","localeAltName":null},{"geonameid":4870003,"name":"Onawa","admin3":"93175","localeAltName":null},{"geonameid":4881869,"name":"Whiting","admin3":"94671","localeAltName":null}],"admin3":[{"geonameid":4847286,"name":"Township of Ashton","admin3":"90084"},{"geonameid":4848171,"name":"Township of Belvidere","admin3":"90192"},{"geonameid":4850949,"name":"Township of Center","admin3":"90615"},{"geonameid":4852612,"name":"Township of Cooper","admin3":"90828"},{"geonameid":4856102,"name":"Township of Fairview","admin3":"91299"},{"geonameid":4857701,"name":"Township of Franklin","admin3":"91416"},{"geonameid":4859032,"name":"Township of Grant","admin3":"91677"},{"geonameid":4862839,"name":"Township of Jordan","admin3":"92283"},{"geonameid":4863314,"name":"Township of Kennebec","admin3":"92307"},{"geonameid":4864035,"name":"Township of Lake","admin3":"92355"},{"geonameid":4864860,"name":"Township of Lincoln","admin3":"92577"},{"geonameid":4866146,"name":"Township of Maple","admin3":"92817","localeAltName":null},{"geonameid":4870017,"name":"City of Onawa","admin3":"93175","localeAltName":null},{"geonameid":4874170,"name":"Township of Saint Clair","admin3":"93735"},{"geonameid":4876247,"name":"Township of Sherman","admin3":"93867"},{"geonameid":4876574,"name":"Township of Sioux","admin3":"93918"},{"geonameid":4876852,"name":"Township of Soldier","admin3":"93939"},{"geonameid":4877321,"name":"Township of Spring Valley","admin3":"93996"},{"geonameid":4881389,"name":"Township of West Fork","admin3":"94671","localeAltName":null},{"geonameid":4882107,"name":"Township of Willow","admin3":"94749"}],"alternateNames":[{"alternatenameId":1980290,"geonameid":4862182,"isoLanguage":"en","alternateName":"Iowa","isPreferredName":true,"isShortName":true,"isColloquial":false,"isHistoric":false}]},"__N_SSG":true}