{"pageProps":{"locale":"en","admin2":{"geonameid":5305206,"name":"Mohave County","country":"US","admin1":"AZ","admin2":"015","admin3":"","latitude":"35.7040400","longitude":"-113.7579100","localeAltName":null},"admin1":{"geonameid":5551752,"name":"Arizona","admin1":"AZ","localeAltName":"Arizona"},"locations":[{"geonameid":5551748,"name":"Arizona Village","admin3":"","localeAltName":null},{"geonameid":5552905,"name":"Beaver Dam","admin3":"","localeAltName":null},{"geonameid":5287565,"name":"Bullhead City","admin3":"","localeAltName":null},{"geonameid":7315166,"name":"Centennial Park","admin3":"","localeAltName":null},{"geonameid":5290463,"name":"Colorado City","admin3":"","localeAltName":null},{"geonameid":5292505,"name":"Desert Hills","admin3":"","localeAltName":null},{"geonameid":5292912,"name":"Dolan Springs","admin3":"","localeAltName":null},{"geonameid":7315173,"name":"Golden Shores","admin3":"","localeAltName":null},{"geonameid":5296189,"name":"Golden Valley","admin3":"","localeAltName":null},{"geonameid":5301067,"name":"Kingman","admin3":"","localeAltName":null},{"geonameid":5301388,"name":"Lake Havasu City","admin3":"","localeAltName":null},{"geonameid":5304306,"name":"Meadview","admin3":"","localeAltName":null},{"geonameid":5305230,"name":"Mohave Valley","admin3":"","localeAltName":null},{"geonameid":7261968,"name":"New Kingman-Butler","admin3":"","localeAltName":null},{"geonameid":5308335,"name":"Peach Springs","admin3":"","localeAltName":null},{"geonameid":7315184,"name":"Scenic","admin3":"","localeAltName":null},{"geonameid":7315189,"name":"Valle Vista","admin3":"","localeAltName":null},{"geonameid":7315191,"name":"Walnut Creek","admin3":"","localeAltName":null},{"geonameid":5321321,"name":"Willow Valley","admin3":"","localeAltName":null}],"admin3":[{"geonameid":11788514,"name":"City of Bullhead City","admin3":"11788514"},{"geonameid":11788823,"name":"City of Lake Havasu City","admin3":"11788823"},{"geonameid":11788880,"name":"City of Kingman","admin3":"11788880"}],"alternateNames":[{"alternatenameId":1979309,"geonameid":5551752,"isoLanguage":"en","alternateName":"Arizona","isPreferredName":true,"isShortName":true,"isColloquial":false,"isHistoric":false}]},"__N_SSG":true}