{"pageProps":{"locale":"en","admin2":{"geonameid":4392394,"name":"Jefferson County","country":"US","admin1":"MO","admin2":"099","admin3":"","latitude":"38.2610700","longitude":"-90.5376900","localeAltName":null},"admin1":{"geonameid":4398678,"name":"Missouri","admin1":"MO","localeAltName":"Missouri"},"locations":[{"geonameid":4375087,"name":"Arnold","admin3":"01975","localeAltName":null},{"geonameid":4375832,"name":"Barnhart","admin3":"34358","localeAltName":null},{"geonameid":4379436,"name":"Byrnes Mill","admin3":"32144","localeAltName":null},{"geonameid":4380570,"name":"Cedar Hill","admin3":"47414","localeAltName":null},{"geonameid":4383041,"name":"Crystal City","admin3":"62179","localeAltName":null},{"geonameid":4383513,"name":"De Soto","admin3":"75400","localeAltName":null},{"geonameid":4386419,"name":"Festus","admin3":"62179","localeAltName":null},{"geonameid":4390204,"name":"Herculaneum","admin3":"37340","localeAltName":null},{"geonameid":4390555,"name":"High Ridge","admin3":"32144","localeAltName":null},{"geonameid":4390705,"name":"Hillsboro","admin3":"12790","localeAltName":null},{"geonameid":4391211,"name":"Horine","admin3":"37340","localeAltName":null},{"geonameid":4391808,"name":"Imperial","admin3":"80370","localeAltName":null},{"geonameid":7315273,"name":"LaBarque Creek","admin3":"47414","localeAltName":null},{"geonameid":4399914,"name":"Murphy","admin3":"62552","localeAltName":null},{"geonameid":4401943,"name":"Olympian Village","admin3":"58232","localeAltName":null},{"geonameid":4403102,"name":"Pevely","admin3":"37340","localeAltName":null},{"geonameid":4405794,"name":"Riverside","admin3":"37340","localeAltName":null}],"admin3":[{"geonameid":4377070,"name":"Township of Big River","admin3":"05554"},{"geonameid":4380845,"name":"Township of Central","admin3":"12790","localeAltName":null},{"geonameid":4392509,"name":"Township of Joachim","admin3":"37340","localeAltName":null},{"geonameid":4398042,"name":"Township of Meramec","admin3":"47414","localeAltName":null},{"geonameid":4403872,"name":"Township of Plattin","admin3":"58232","localeAltName":null},{"geonameid":4406108,"name":"Township of Rock","admin3":"62552","localeAltName":null},{"geonameid":4412802,"name":"Township of Valle","admin3":"75400","localeAltName":null},{"geonameid":7165521,"name":"Township of Arnold","admin3":"01975","localeAltName":null},{"geonameid":7165566,"name":"Township of High Ridge","admin3":"32144","localeAltName":null},{"geonameid":7165568,"name":"Township of Imperial","admin3":"34358","localeAltName":null},{"geonameid":7165613,"name":"Township of River View","admin3":"62179","localeAltName":null},{"geonameid":7165652,"name":"Township of Windsor","admin3":"80370","localeAltName":null}],"alternateNames":[{"alternatenameId":2089572,"geonameid":4398678,"isoLanguage":"en","alternateName":"Missouri","isPreferredName":true,"isShortName":true,"isColloquial":false,"isHistoric":false}]},"__N_SSG":true}