{"pageProps":{"locale":"en","admin2":{"geonameid":4405720,"name":"Ripley County","country":"US","admin1":"MO","admin2":"181","admin3":"","latitude":"36.6528200","longitude":"-90.8638800","localeAltName":null},"admin1":{"geonameid":4398678,"name":"Missouri","admin1":"MO","localeAltName":"Missouri"},"locations":[{"geonameid":4384264,"name":"Doniphan","admin3":"19810","localeAltName":null},{"geonameid":4386034,"name":"Fairdealing","admin3":"77668","localeAltName":null},{"geonameid":4400073,"name":"Naylor","admin3":"72970","localeAltName":null}],"admin3":[{"geonameid":4383136,"name":"Township of Current River","admin3":"17866"},{"geonameid":4384269,"name":"Township of Doniphan","admin3":"19810","localeAltName":null},{"geonameid":4386727,"name":"Township of Flatwoods","admin3":"24544"},{"geonameid":4387725,"name":"Township of Gatewood","admin3":"26704"},{"geonameid":4389628,"name":"Township of Harris","admin3":"30448"},{"geonameid":4392680,"name":"Township of Johnson","admin3":"37448"},{"geonameid":4392795,"name":"Township of Jordan","admin3":"37664"},{"geonameid":4393370,"name":"Township of Kelley","admin3":"38144"},{"geonameid":4403426,"name":"Township of Pine","admin3":"57728"},{"geonameid":4404431,"name":"Township of Poynor","admin3":"59456"},{"geonameid":4408432,"name":"Township of Shirley","admin3":"67570"},{"geonameid":4411565,"name":"Township of Thomas","admin3":"72970","localeAltName":null},{"geonameid":4412661,"name":"Township of Union","admin3":"74950"},{"geonameid":4412938,"name":"Township of Varner","admin3":"75778"},{"geonameid":4413698,"name":"Township of Washington","admin3":"77668","localeAltName":null},{"geonameid":4414078,"name":"Township of West Doniphan","admin3":"78712"}],"alternateNames":[{"alternatenameId":2089572,"geonameid":4398678,"isoLanguage":"en","alternateName":"Missouri","isPreferredName":true,"isShortName":true,"isColloquial":false,"isHistoric":false}]},"__N_SSG":true}