{"pageProps":{"locale":"it","admin2":{"geonameid":3165184,"name":"Trieste","country":"IT","admin1":"06","admin2":"TS","admin3":"","latitude":"45.7130000","longitude":"13.7611600","localeAltName":"Trieste"},"admin1":{"geonameid":3176525,"name":"Friuli Venezia Giulia","admin1":"06","localeAltName":"Friuli Venezia Giulia"},"locations":[{"geonameid":3182674,"name":"Aurisina","admin3":"032001","localeAltName":null},{"geonameid":3182304,"name":"Basovizza","admin3":"032006","localeAltName":null},{"geonameid":3168408,"name":"Dolina","admin3":"032004","localeAltName":null},{"geonameid":8949031,"name":"Domio","admin3":"032004","localeAltName":null},{"geonameid":3177451,"name":"Duino","admin3":"032001","localeAltName":null},{"geonameid":3172483,"name":"Muggia","admin3":"032003","localeAltName":null},{"geonameid":3171724,"name":"Padriciano","admin3":"032006","localeAltName":null},{"geonameid":3169796,"name":"Prosecco-Contovello","admin3":"032006","localeAltName":null},{"geonameid":3168790,"name":"Repen","admin3":"032002","localeAltName":null},{"geonameid":3167659,"name":"Santa Croce","admin3":"032006","localeAltName":null},{"geonameid":3166488,"name":"Sistiana-Visogliano","admin3":"032001","localeAltName":null},{"geonameid":3165278,"name":"Trebiciano","admin3":"032006","localeAltName":"Trebiciano"},{"geonameid":3165185,"name":"Trieste","admin3":"032006","localeAltName":null},{"geonameid":3170443,"name":"Villa Opicina","admin3":"032006","localeAltName":null}],"admin3":[{"geonameid":3165186,"name":"Trieste","admin3":"032006","localeAltName":null},{"geonameid":3166565,"name":"Sgonico-Zgonik","admin3":"032005"},{"geonameid":3168409,"name":"San Dorligo della Valle-Dolina","admin3":"032004","localeAltName":null},{"geonameid":3172484,"name":"Muggia","admin3":"032003","localeAltName":null},{"geonameid":3173130,"name":"Monrupino-Repentabor","admin3":"032002","localeAltName":null},{"geonameid":3177450,"name":"Duino Aurisina-Devin NabreÂžina","admin3":"032001","localeAltName":null}],"alternateNames":[{"alternatenameId":2431288,"geonameid":3165184,"isoLanguage":"de","alternateName":"Triest","isPreferredName":true,"isShortName":true,"isColloquial":false,"isHistoric":false},{"alternatenameId":2431289,"geonameid":3165184,"isoLanguage":"it","alternateName":"Trieste","isPreferredName":true,"isShortName":true,"isColloquial":false,"isHistoric":false},{"alternatenameId":4662495,"geonameid":3165278,"isoLanguage":"it","alternateName":"Trebiciano","isPreferredName":true,"isShortName":true,"isColloquial":false,"isHistoric":false},{"alternatenameId":1351012,"geonameid":3176525,"isoLanguage":"it","alternateName":"Friuli Venezia Giulia","isPreferredName":true,"isShortName":true,"isColloquial":false,"isHistoric":false}]},"__N_SSG":true}