{"pageProps":{"locale":"en","admin2":{"geonameid":5053485,"name":"Wright County","country":"US","admin1":"MN","admin2":"171","admin3":"","latitude":"45.1739300","longitude":"-93.9630500","localeAltName":null},"admin1":{"geonameid":5037779,"name":"Minnesota","admin1":"MN","localeAltName":"Minnesota"},"locations":[{"geonameid":5016051,"name":"Albertville","admin3":"00730","localeAltName":null},{"geonameid":5016490,"name":"Annandale","admin3":"01684","localeAltName":null},{"geonameid":5019588,"name":"Buffalo","admin3":"08452","localeAltName":null},{"geonameid":5021527,"name":"Clearwater","admin3":"11800","localeAltName":null},{"geonameid":5021726,"name":"Cokato","admin3":"12430","localeAltName":null},{"geonameid":5024138,"name":"Delano","admin3":"15454","localeAltName":null},{"geonameid":5029276,"name":"Hanover","admin3":"26990","localeAltName":null},{"geonameid":5030832,"name":"Howard Lake","admin3":"30284","localeAltName":null},{"geonameid":5036534,"name":"Maple Lake","admin3":"40220","localeAltName":null},{"geonameid":5038045,"name":"Monticello","admin3":"43774","localeAltName":null},{"geonameid":5038062,"name":"Montrose","admin3":"43810","localeAltName":null},{"geonameid":5040477,"name":"Otsego","admin3":"49138","localeAltName":null},{"geonameid":5043556,"name":"Rockford","admin3":"","localeAltName":null},{"geonameid":5045258,"name":"Saint Michael","admin3":"57346","localeAltName":null},{"geonameid":5052104,"name":"Waverly","admin3":"68764","localeAltName":null}],"admin3":[{"geonameid":5016056,"name":"City of Albertville","admin3":"00730","localeAltName":null},{"geonameid":5016068,"name":"Township of Albion","admin3":"00766"},{"geonameid":5016440,"name":"City of Annandale","admin3":"01684","localeAltName":null},{"geonameid":5019650,"name":"City of Buffalo","admin3":"08452","localeAltName":null},{"geonameid":5019651,"name":"Township of Buffalo","admin3":"08470"},{"geonameid":5020958,"name":"Township of Chatham","admin3":"11062"},{"geonameid":5021559,"name":"City of Clearwater","admin3":"11800","localeAltName":null},{"geonameid":5021560,"name":"Township of Clearwater","admin3":"11818"},{"geonameid":5021737,"name":"City of Cokato","admin3":"12430","localeAltName":null},{"geonameid":5021738,"name":"Township of Cokato","admin3":"12448"},{"geonameid":5022063,"name":"Township of Corinna","admin3":"13222"},{"geonameid":5024149,"name":"City of Delano","admin3":"15454","localeAltName":null},{"geonameid":5027354,"name":"Township of Franklin","admin3":"22400"},{"geonameid":5027465,"name":"Township of French Lake","admin3":"22760"},{"geonameid":5029281,"name":"City of Hanover","admin3":"26990","localeAltName":null},{"geonameid":5030845,"name":"City of Howard Lake","admin3":"30284","localeAltName":null},{"geonameid":5036547,"name":"City of Maple Lake","admin3":"40220","localeAltName":null},{"geonameid":5036548,"name":"Township of Maple Lake","admin3":"40238"},{"geonameid":5036831,"name":"Township of Marysville","admin3":"40940"},{"geonameid":5037420,"name":"Township of Middleville","admin3":"41966"},{"geonameid":5038058,"name":"City of Monticello","admin3":"43774","localeAltName":null},{"geonameid":5038059,"name":"Township of Monticello","admin3":"43792"},{"geonameid":5038070,"name":"City of Montrose","admin3":"43810","localeAltName":null},{"geonameid":5043567,"name":"Township of Rockford","admin3":"55024"},{"geonameid":5045289,"name":"City of Saint Michael","admin3":"57346","localeAltName":null},{"geonameid":5047340,"name":"Township of Silver Creek","admin3":"60340"},{"geonameid":5047975,"name":"City of South Haven","admin3":"61402"},{"geonameid":5048098,"name":"Township of Southside","admin3":"61510"},{"geonameid":5048833,"name":"Township of Stockholm","admin3":"62878"},{"geonameid":5051386,"name":"Township of Victor","admin3":"67018"},{"geonameid":5052113,"name":"City of Waverly","admin3":"68764","localeAltName":null},{"geonameid":5053399,"name":"Township of Woodland","admin3":"71554"},{"geonameid":7164287,"name":"City of Otsego","admin3":"49138","localeAltName":null}],"alternateNames":[{"alternatenameId":2089541,"geonameid":5037779,"isoLanguage":"en","alternateName":"Minnesota","isPreferredName":true,"isShortName":true,"isColloquial":false,"isHistoric":false}]},"__N_SSG":true}