{"pageProps":{"locale":"ro","admin2":{"geonameid":685772,"name":"Comuna Băişoara","country":"RO","admin1":"13","admin2":"55918","admin3":"","latitude":"46.5833100","longitude":"23.3934900"},"admin1":{"geonameid":681291,"name":"Cluj","admin1":"13"},"locations":[{"geonameid":685773,"name":"Băişoara","admin3":""},{"geonameid":684505,"name":"Boc","admin3":""},{"geonameid":682612,"name":"Casele Băicălata","admin3":""},{"geonameid":677952,"name":"Frăsinet","admin3":""},{"geonameid":677499,"name":"Gera","admin3":""},{"geonameid":675114,"name":"La Cruce","admin3":""},{"geonameid":673011,"name":"Moara de Pădure","admin3":""},{"geonameid":672674,"name":"Muntele Agrişului","admin3":""},{"geonameid":672673,"name":"Muntele Băișorii","admin3":""},{"geonameid":672672,"name":"Muntele Bocului","admin3":""},{"geonameid":672671,"name":"Muntele Cacovei","admin3":""},{"geonameid":672670,"name":"Muntele Filii","admin3":""},{"geonameid":672667,"name":"Muntele Săcelului","admin3":""},{"geonameid":668321,"name":"Săcel","admin3":""},{"geonameid":667746,"name":"Săvuleşti","admin3":""},{"geonameid":664037,"name":"Văcăşti","admin3":""},{"geonameid":663898,"name":"Valea Bocului","admin3":""},{"geonameid":663186,"name":"Văratic","admin3":""},{"geonameid":662543,"name":"Voica","admin3":""}],"admin3":[],"alternateNames":[]},"__N_SSG":true}