{"pageProps":{"locale":"ro","admin2":{"geonameid":664453,"name":"Municipiul Turda","country":"RO","admin1":"13","admin2":"55259","admin3":"","latitude":"46.5745600","longitude":"23.7857400"},"admin1":{"geonameid":681291,"name":"Cluj","admin1":"13"},"locations":[{"geonameid":686685,"name":"Adămeşti","admin3":""},{"geonameid":684927,"name":"Bicaş","admin3":""},{"geonameid":684360,"name":"Bogomirea","admin3":""},{"geonameid":681795,"name":"Cânepeşti","admin3":""},{"geonameid":682834,"name":"Cantonu-Gării","admin3":""},{"geonameid":680570,"name":"Costeşti","admin3":""},{"geonameid":680364,"name":"Crăciuneşti","admin3":""},{"geonameid":679017,"name":"Drăculeşti","admin3":""},{"geonameid":675965,"name":"Hotar Mărăcineni","admin3":""},{"geonameid":671783,"name":"Oprişani","admin3":""},{"geonameid":670893,"name":"Piatra Harcană","admin3":""},{"geonameid":670402,"name":"Ploscoş Mic","admin3":""},{"geonameid":670137,"name":"Poiana","admin3":""},{"geonameid":667333,"name":"Şerpeşti","admin3":""},{"geonameid":664460,"name":"Turda","admin3":""},{"geonameid":663864,"name":"Valea Caldă","admin3":""},{"geonameid":663726,"name":"Valea Întunecoasă","admin3":""},{"geonameid":663664,"name":"Valea Lungă Maghiară","admin3":""},{"geonameid":663663,"name":"Valea Lungă Mică","admin3":""},{"geonameid":663540,"name":"Valea Oprişeni","admin3":""},{"geonameid":663308,"name":"Valea Vânţului","admin3":""}],"admin3":[],"alternateNames":[]},"__N_SSG":true}