{"pageProps":{"locale":"en","admin2":{"geonameid":2636909,"name":"Stirling","country":"GB","admin1":"SCT","admin2":"W6","admin3":"","latitude":"56.1153200","longitude":"-4.2338600","localeAltName":"Stirling"},"admin1":{"geonameid":2638360,"name":"Scotland","admin1":"SCT"},"locations":[{"geonameid":2657816,"name":"Aberfoyle"},{"geonameid":2657726,"name":"Achmore"},{"geonameid":2657189,"name":"Ardeonaig"},{"geonameid":11072873,"name":"Arngibbon"},{"geonameid":2656796,"name":"Auchtoo"},{"geonameid":2656584,"name":"Balfron"},{"geonameid":2656456,"name":"Balmaha"},{"geonameid":2656435,"name":"Balquhidder"},{"geonameid":2656382,"name":"Bannockburn"},{"geonameid":7303696,"name":"Blairdrummond"},{"geonameid":2655377,"name":"Blanefield"},{"geonameid":2654747,"name":"Bridge of Allan"},{"geonameid":11256864,"name":"Brig o' Turk"},{"geonameid":2654423,"name":"Buchany"},{"geonameid":2654421,"name":"Buchlyvie"},{"geonameid":2653989,"name":"Callander"},{"geonameid":2653938,"name":"Cambusbarron"},{"geonameid":2653479,"name":"Causewayhead"},{"geonameid":10104137,"name":"Clifton"},{"geonameid":2652198,"name":"Cowie"},{"geonameid":2651997,"name":"Crianlarich"},{"geonameid":2651060,"name":"Doune"},{"geonameid":2650894,"name":"Drymen"},{"geonameid":2650769,"name":"Dunblane"},{"geonameid":10104121,"name":"Duncroisk"},{"geonameid":11592149,"name":"Fallin"},{"geonameid":2649396,"name":"Fintry"},{"geonameid":2649123,"name":"Fowlis Wester"},{"geonameid":2648872,"name":"Gargunnock"},{"geonameid":2648812,"name":"Gartmore"},{"geonameid":2648809,"name":"Gartness"},{"geonameid":2648472,"name":"Glengyle"},{"geonameid":10098969,"name":"Inverardran"},{"geonameid":2646138,"name":"Inverarnan"},{"geonameid":2646077,"name":"Inversnaid"},{"geonameid":2645780,"name":"Kepculloch"},{"geonameid":2645645,"name":"Killearn"},{"geonameid":2645632,"name":"Killin"},{"geonameid":11256865,"name":"Kilmahog"},{"geonameid":2645526,"name":"Kinbuck"},{"geonameid":2645466,"name":"Kingshouse"},{"geonameid":6620362,"name":"Kinlochard"},{"geonameid":2645346,"name":"Kippen"},{"geonameid":2643837,"name":"Lochearnhead"},{"geonameid":2642020,"name":"Mugdock"},{"geonameid":2640219,"name":"Plean"},{"geonameid":2640015,"name":"Port of Menteith"},{"geonameid":2639050,"name":"Rowardennan"},{"geonameid":2638713,"name":"Saint Ninians"},{"geonameid":2636910,"name":"Stirling"},{"geonameid":2636707,"name":"Strathblane"},{"geonameid":2636683,"name":"Strathyre"},{"geonameid":2636633,"name":"Stronachlachar"},{"geonameid":2636557,"name":"Suie"},{"geonameid":2635980,"name":"Thornhill"},{"geonameid":10104120,"name":"Tullich"},{"geonameid":2635277,"name":"Tyndrum"}],"admin3":[],"alternateNames":[{"alternatenameId":2254241,"geonameid":2636909,"isoLanguage":"en","alternateName":"Stirling","isPreferredName":true,"isShortName":true,"isColloquial":false,"isHistoric":false}]},"__N_SSG":true}