{"pageProps":{"locale":"en","admin2":{"geonameid":2755994,"name":"Gemeente Etten-Leur","country":"NL","admin1":"06","admin2":"0777","admin3":"","latitude":"51.5771100","longitude":"4.6425300"},"admin1":{"geonameid":2749990,"name":"Provincie Noord-Brabant","admin1":"06"},"locations":[{"geonameid":2759617,"name":"Attelaken","admin3":""},{"geonameid":2759584,"name":"Baai","admin3":""},{"geonameid":2758421,"name":"Brakkenstraat","admin3":""},{"geonameid":2758349,"name":"Bremberg","admin3":""},{"geonameid":2755996,"name":"Etten-Leur","admin3":""},{"geonameid":2755440,"name":"Goorstraat","admin3":""},{"geonameid":2755359,"name":"Grauwe Polder","admin3":""},{"geonameid":2755020,"name":"Haansberg","admin3":""},{"geonameid":2754211,"name":"Het Slikgat","admin3":""},{"geonameid":2754082,"name":"Hil","admin3":""},{"geonameid":2753947,"name":"Hoge Donk","admin3":""},{"geonameid":2752810,"name":"Klappenberg","admin3":""},{"geonameid":2752049,"name":"Lage Donk","admin3":""},{"geonameid":2751693,"name":"Leur","admin3":""},{"geonameid":2750712,"name":"Moleneind","admin3":""},{"geonameid":2750438,"name":"Neerstraat","admin3":""},{"geonameid":2749529,"name":"Oosteind","admin3":""},{"geonameid":2747763,"name":"Sander","admin3":""},{"geonameid":2747190,"name":"Slagveld","admin3":""},{"geonameid":2745895,"name":"Vaartkant","admin3":""},{"geonameid":2745243,"name":"Vosdonk","admin3":""},{"geonameid":2745224,"name":"Vossendaal","admin3":""},{"geonameid":2744052,"name":"Zandspui","admin3":""},{"geonameid":2743542,"name":"Zwartenberg","admin3":""}],"admin3":[],"alternateNames":[{"alternatenameId":11907788,"geonameid":2749990,"isoLanguage":"de","alternateName":"Nordbrabant","isPreferredName":true,"isShortName":true,"isColloquial":false,"isHistoric":false}]},"__N_SSG":true}