{"pageProps":{"locale":"en","admin2":{"geonameid":2759874,"name":"Gemeente Alphen aan den Rijn","country":"NL","admin1":"11","admin2":"0484","admin3":"","latitude":"52.1297400","longitude":"4.6889200"},"admin1":{"geonameid":2743698,"name":"Provincie Zuid-Holland","admin1":"11"},"locations":[{"geonameid":2760092,"name":"Aarlanderveen","admin3":""},{"geonameid":2759875,"name":"Alphen aan den Rijn","admin3":""},{"geonameid":2759182,"name":"Bent","admin3":""},{"geonameid":2759178,"name":"Benthuizen","admin3":""},{"geonameid":2758547,"name":"Boskoop","admin3":""},{"geonameid":2757091,"name":"De Roemer","admin3":""},{"geonameid":2755491,"name":"Gnephoek","admin3":""},{"geonameid":2755391,"name":"Gouwsluis","admin3":""},{"geonameid":2755294,"name":"Groenendijk","admin3":""},{"geonameid":2754724,"name":"Hazerswoude-Dorp","admin3":""},{"geonameid":2754723,"name":"Hazerswoude-Rijndijk","admin3":""},{"geonameid":2753932,"name":"Hogeveen","admin3":""},{"geonameid":2753640,"name":"Hoorn","admin3":""},{"geonameid":2752377,"name":"Koudekerk aan den Rijn","admin3":""},{"geonameid":2751510,"name":"Loete","admin3":""},{"geonameid":2748901,"name":"Oudshoorn","admin3":""},{"geonameid":2748173,"name":"Ridderbuurt","admin3":""},{"geonameid":2748140,"name":"Rietveld","admin3":""},{"geonameid":2747066,"name":"s-Molenaarsbuurt","admin3":""},{"geonameid":2746912,"name":"Spoelwijk","admin3":""},{"geonameid":2745263,"name":"Voorweg","admin3":""},{"geonameid":2745175,"name":"Vrijhoeven","admin3":""},{"geonameid":2744790,"name":"Westeinde","admin3":""},{"geonameid":2743578,"name":"Zwammerdam","admin3":""}],"admin3":[],"alternateNames":[{"alternatenameId":11907789,"geonameid":2743698,"isoLanguage":"de","alternateName":"SÃ¼dholland","isPreferredName":true,"isShortName":true,"isColloquial":false,"isHistoric":false}]},"__N_SSG":true}