{"pageProps":{"locale":"en","admin2":{"geonameid":7535501,"name":"Gemeente Zuidplas","country":"NL","admin1":"11","admin2":"1892","admin3":"","latitude":"52.0157400","longitude":"4.6104800"},"admin1":{"geonameid":2743698,"name":"Provincie Zuid-Holland","admin1":"11"},"locations":[{"geonameid":2755126,"name":"Groot Hitland","admin3":""},{"geonameid":2753888,"name":"Hollevoeterbrug","admin3":""},{"geonameid":2752687,"name":"Klein Hitland","admin3":""},{"geonameid":2752407,"name":"Kortenoord","admin3":""},{"geonameid":2750764,"name":"Moerkapelle","admin3":""},{"geonameid":2750613,"name":"Moordrecht","admin3":""},{"geonameid":2750263,"name":"Nieuwerkerk aan den IJssel","admin3":""},{"geonameid":2747365,"name":"s-Gravenweg","admin3":""},{"geonameid":2743930,"name":"Zevenhuizen","admin3":""}],"admin3":[],"alternateNames":[{"alternatenameId":11907789,"geonameid":2743698,"isoLanguage":"de","alternateName":"SÃ¼dholland","isPreferredName":true,"isShortName":true,"isColloquial":false,"isHistoric":false}]},"__N_SSG":true}