{"pageProps":{"locale":"de","admin2":{"geonameid":6458747,"name":"Glarus","country":"CH","admin1":"GL","admin2":"800","admin3":"","latitude":"47.0167000","longitude":"9.0588900"},"admin1":{"geonameid":2660593,"name":"Kanton Glarus","admin1":"GL"},"locations":[{"geonameid":2661537,"name":"Betschwanden","admin3":"1631"},{"geonameid":2661503,"name":"Bilten","admin3":"1630"},{"geonameid":2661419,"name":"Braunwald","admin3":"1631"},{"geonameid":2661020,"name":"Diesbach","admin3":"1631"},{"geonameid":2660917,"name":"Elm","admin3":"1631"},{"geonameid":2660898,"name":"Engi","admin3":"1631"},{"geonameid":2660893,"name":"Ennenda","admin3":"1632"},{"geonameid":2660775,"name":"Filzbach","admin3":"1630"},{"geonameid":2660594,"name":"Glarus","admin3":"1632"},{"geonameid":2660405,"name":"Hätzingen","admin3":"1631"},{"geonameid":2659909,"name":"Leuggelbach","admin3":"1631"},{"geonameid":2659878,"name":"Linthal","admin3":"1631"},{"geonameid":2659839,"name":"Luchsingen","admin3":"1631"},{"geonameid":2659735,"name":"Matt","admin3":"1631"},{"geonameid":2659636,"name":"Mollis","admin3":"1630"},{"geonameid":2659560,"name":"Mühlehorn","admin3":"1630"},{"geonameid":2659516,"name":"Näfels","admin3":"1630"},{"geonameid":2659497,"name":"Netstal","admin3":"1632"},{"geonameid":2659472,"name":"Nidfurn","admin3":"1631"},{"geonameid":2659451,"name":"Niederurnen","admin3":"1630"},{"geonameid":7302536,"name":"Oberurnen","admin3":"1630"},{"geonameid":2659316,"name":"Obstalden","admin3":"1630"},{"geonameid":2658911,"name":"Rüti","admin3":"1631"},{"geonameid":2658684,"name":"Schwanden","admin3":"1631"},{"geonameid":2658552,"name":"Sool","admin3":"1631"}],"admin3":[{"geonameid":7285926,"name":"Glarus","admin3":"1632"},{"geonameid":8260333,"name":"Glarus Süd","admin3":"1631"},{"geonameid":8260335,"name":"Glarus Nord","admin3":"1630"}],"alternateNames":[]},"__N_SSG":true}