{"pageProps":{"locale":"en","admin2":{"geonameid":5111868,"name":"Cayuga County","country":"US","admin1":"NY","admin2":"011","admin3":"","latitude":"43.0103300","longitude":"-76.5743600"},"admin1":{"geonameid":5128638,"name":"New York","admin1":"NY","localeAltName":"New York"},"locations":[{"geonameid":5107505,"name":"Auburn","admin3":"03078"},{"geonameid":5112037,"name":"Centerport","admin3":"46602"},{"geonameid":5126554,"name":"Melrose Park","admin3":"55871"},{"geonameid":5127474,"name":"Moravia","admin3":"48307"},{"geonameid":5132001,"name":"Port Byron","admin3":"46602"},{"geonameid":5141912,"name":"Union Springs","admin3":"70376"},{"geonameid":5143527,"name":"Weedsport","admin3":"10297"}],"admin3":[{"geonameid":5107511,"name":"City of Auburn","admin3":"03078"},{"geonameid":5107524,"name":"Town of Aurelius","admin3":"03166"},{"geonameid":5110483,"name":"Town of Brutus","admin3":"10297"},{"geonameid":5111825,"name":"Town of Cato","admin3":"12969"},{"geonameid":5113552,"name":"Town of Conquest","admin3":"17849"},{"geonameid":5117409,"name":"Town of Fleming","admin3":"26231"},{"geonameid":5118405,"name":"Town of Genoa","admin3":"28673"},{"geonameid":5122294,"name":"Town of Ira","admin3":"37660"},{"geonameid":5124179,"name":"Town of Ledyard","admin3":"41740"},{"geonameid":5125006,"name":"Town of Locke","admin3":"43071"},{"geonameid":5126601,"name":"Town of Mentz","admin3":"46602"},{"geonameid":5127350,"name":"Town of Montezuma","admin3":"48131"},{"geonameid":5127475,"name":"Town of Moravia","admin3":"48307"},{"geonameid":5128792,"name":"Town of Niles","admin3":"51198"},{"geonameid":5130271,"name":"Town of Owasco","admin3":"55871"},{"geonameid":5137398,"name":"Town of Scipio","admin3":"65816"},{"geonameid":5137613,"name":"Town of Sempronius","admin3":"66278"},{"geonameid":5137652,"name":"Town of Sennett","admin3":"66443"},{"geonameid":5139293,"name":"Town of Springport","admin3":"70376"},{"geonameid":5139658,"name":"Town of Sterling","admin3":"71146"},{"geonameid":5140158,"name":"Town of Summerhill","admin3":"72037"},{"geonameid":5140951,"name":"Town of Throop","admin3":"73770"},{"geonameid":5142253,"name":"Town of Venice","admin3":"77024"},{"geonameid":5142329,"name":"Town of Victory","admin3":"77420"}],"alternateNames":[{"alternatenameId":1980362,"geonameid":5128638,"isoLanguage":"en","alternateName":"New York","isPreferredName":true,"isShortName":true,"isColloquial":false,"isHistoric":false}]},"__N_SSG":true}