{"pageProps":{"locale":"en","admin2":{"geonameid":5112358,"name":"Chautauqua County","country":"US","admin1":"NY","admin2":"013","admin3":"","latitude":"42.3029400","longitude":"-79.4057600"},"admin1":{"geonameid":5128638,"name":"New York","admin1":"NY","localeAltName":"New York"},"locations":[{"geonameid":5110239,"name":"Brocton","admin3":"59421"},{"geonameid":5111990,"name":"Celoron","admin3":"23998"},{"geonameid":5113059,"name":"Clymer","admin3":"16595"},{"geonameid":5115495,"name":"Dunkirk","admin3":"21105"},{"geonameid":5116864,"name":"Falconer","admin3":"23998"},{"geonameid":5117926,"name":"Fredonia","admin3":"58981"},{"geonameid":5118018,"name":"Frewsburg","admin3":"12639"},{"geonameid":5122534,"name":"Jamestown","admin3":"38264"},{"geonameid":7258777,"name":"Jamestown West","admin3":"23998"},{"geonameid":5123356,"name":"Kiantone","admin3":"39507"},{"geonameid":5123929,"name":"Lakewood","admin3":"11451"},{"geonameid":5126287,"name":"Mayville","admin3":"14069"},{"geonameid":5132058,"name":"Portland","admin3":"59421"},{"geonameid":5138151,"name":"Silver Creek","admin3":"32050"},{"geonameid":5144083,"name":"Westfield","admin3":"79950"}],"admin3":[{"geonameid":5107336,"name":"Town of Arkwright","admin3":"02605"},{"geonameid":5110929,"name":"Town of Busti","admin3":"11451"},{"geonameid":5111628,"name":"Town of Carroll","admin3":"12639"},{"geonameid":5112296,"name":"Town of Charlotte","admin3":"13860"},{"geonameid":5112367,"name":"Town of Chautauqua","admin3":"14069"},{"geonameid":5112432,"name":"Town of Cherry Creek","admin3":"15198"},{"geonameid":5113048,"name":"Town of Clymer","admin3":"16595"},{"geonameid":5115500,"name":"City of Dunkirk","admin3":"21105"},{"geonameid":5115501,"name":"Town of Dunkirk","admin3":"21116"},{"geonameid":5116413,"name":"Town of Ellery","admin3":"23976"},{"geonameid":5116417,"name":"Town of Ellicott","admin3":"23998"},{"geonameid":5116421,"name":"Town of Ellington","admin3":"24053"},{"geonameid":5117977,"name":"Town of French Creek","admin3":"27606"},{"geonameid":5118469,"name":"Town of Gerry","admin3":"28838"},{"geonameid":5119955,"name":"Town of Hanover","admin3":"32050"},{"geonameid":5120048,"name":"Town of Harmony","admin3":"32248"},{"geonameid":5122539,"name":"City of Jamestown","admin3":"38264"},{"geonameid":5123358,"name":"Town of Kiantone","admin3":"39507"},{"geonameid":5127113,"name":"Town of Mina","admin3":"47592"},{"geonameid":5129074,"name":"Town of North Harmony","admin3":"52155"},{"geonameid":5131863,"name":"Town of Poland","admin3":"58926"},{"geonameid":5131893,"name":"Town of Pomfret","admin3":"58981"},{"geonameid":5132061,"name":"Town of Portland","admin3":"59421"},{"geonameid":5133897,"name":"Town of Ripley","admin3":"61885"},{"geonameid":5137934,"name":"Town of Sheridan","admin3":"66916"},{"geonameid":5137954,"name":"Town of Sherman","admin3":"66960"},{"geonameid":5139785,"name":"Town of Stockton","admin3":"71476"},{"geonameid":5142353,"name":"Town of Villenova","admin3":"77530"},{"geonameid":5144086,"name":"Town of Westfield","admin3":"79950"},{"geonameid":7274861,"name":"Unorganized Territory of Chautauqua Lake","admin3":"14072"}],"alternateNames":[{"alternatenameId":1980362,"geonameid":5128638,"isoLanguage":"en","alternateName":"New York","isPreferredName":true,"isShortName":true,"isColloquial":false,"isHistoric":false}]},"__N_SSG":true}