{"pageProps":{"locale":"en","admin2":{"geonameid":5112977,"name":"Clinton County","country":"US","admin1":"NY","admin2":"019","admin3":"","latitude":"44.7462300","longitude":"-73.6781700"},"admin1":{"geonameid":5128638,"name":"New York","admin1":"NY","localeAltName":"New York"},"locations":[{"geonameid":5112215,"name":"Champlain","admin3":"13750"},{"geonameid":5114357,"name":"Cumberland Head","admin3":"58585"},{"geonameid":5114487,"name":"Dannemora","admin3":"19653"},{"geonameid":5127555,"name":"Morrisonville","admin3":"65717"},{"geonameid":5131009,"name":"Peru","admin3":"57375"},{"geonameid":5131692,"name":"Plattsburgh","admin3":"58574"},{"geonameid":7258482,"name":"Plattsburgh West","admin3":"58585"},{"geonameid":5134565,"name":"Rouses Point","admin3":"13750"}],"admin3":[{"geonameid":5107084,"name":"Town of Altona","admin3":"01583"},{"geonameid":5107504,"name":"Town of Au Sable","admin3":"03221"},{"geonameid":5108624,"name":"Town of Beekmantown","admin3":"05485"},{"geonameid":5109304,"name":"Town of Black Brook","admin3":"06761"},{"geonameid":5112223,"name":"Town of Champlain","admin3":"13750"},{"geonameid":5112372,"name":"Town of Chazy","admin3":"14113"},{"geonameid":5112993,"name":"Town of Clinton","admin3":"16397"},{"geonameid":5114490,"name":"Town of Dannemora","admin3":"19653"},{"geonameid":5116407,"name":"Town of Ellenburg","admin3":"23921"},{"geonameid":5127390,"name":"Town of Mooers","admin3":"48252"},{"geonameid":5131011,"name":"Town of Peru","admin3":"57375"},{"geonameid":5131682,"name":"City of Plattsburgh","admin3":"58574"},{"geonameid":5131683,"name":"Town of Plattsburgh","admin3":"58585"},{"geonameid":5136348,"name":"Town of Saranac","admin3":"65211"},{"geonameid":5137373,"name":"Town of Schuyler Falls","admin3":"65717"}],"alternateNames":[{"alternatenameId":1980362,"geonameid":5128638,"isoLanguage":"en","alternateName":"New York","isPreferredName":true,"isShortName":true,"isColloquial":false,"isHistoric":false}]},"__N_SSG":true}