{"pageProps":{"locale":"en","admin2":{"geonameid":5113792,"name":"Cortland County","country":"US","admin1":"NY","admin2":"023","admin3":"","latitude":"42.5950100","longitude":"-76.0702700"},"admin1":{"geonameid":5128638,"name":"New York","admin1":"NY","localeAltName":"New York"},"locations":[{"geonameid":5112729,"name":"Cincinnatus","admin3":"15748"},{"geonameid":5113790,"name":"Cortland","admin3":"18388"},{"geonameid":7258161,"name":"Cortland West","admin3":"18421"},{"geonameid":5121169,"name":"Homer","admin3":"35287"},{"geonameid":5126360,"name":"McGraw","admin3":"18421"},{"geonameid":5128163,"name":"Munsons Corners","admin3":"18421"}],"admin3":[{"geonameid":5112720,"name":"Town of Cincinnatus","admin3":"15748"},{"geonameid":5113795,"name":"City of Cortland","admin3":"18388"},{"geonameid":5113801,"name":"Town of Cortlandville","admin3":"18421"},{"geonameid":5114415,"name":"Town of Cuyler","admin3":"19499"},{"geonameid":5117960,"name":"Town of Freetown","admin3":"27496"},{"geonameid":5120028,"name":"Town of Harford","admin3":"32160"},{"geonameid":5121174,"name":"Town of Homer","admin3":"35287"},{"geonameid":5124011,"name":"Town of Lapeer","admin3":"41300"},{"geonameid":5125956,"name":"Town of Marathon","admin3":"45403"},{"geonameid":5132214,"name":"Town of Preble","admin3":"59773"},{"geonameid":5137441,"name":"Town of Scott","admin3":"65915"},{"geonameid":5138670,"name":"Town of Solon","admin3":"68264"},{"geonameid":5140592,"name":"Town of Taylor","admin3":"73220"},{"geonameid":5141518,"name":"Town of Truxton","admin3":"75550"},{"geonameid":5142368,"name":"Town of Virgil","admin3":"77596"},{"geonameid":5144554,"name":"Town of Willet","admin3":"81963"}],"alternateNames":[{"alternatenameId":1980362,"geonameid":5128638,"isoLanguage":"en","alternateName":"New York","isPreferredName":true,"isShortName":true,"isColloquial":false,"isHistoric":false}]},"__N_SSG":true}