{"pageProps":{"locale":"en","admin2":{"geonameid":5133166,"name":"Putnam County","country":"US","admin1":"NY","admin2":"079","admin3":"","latitude":"41.4266600","longitude":"-73.7495100"},"admin1":{"geonameid":5128638,"name":"New York","admin1":"NY","localeAltName":"New York"},"locations":[{"geonameid":5110092,"name":"Brewster","admin3":"68924"},{"geonameid":5110096,"name":"Brewster Hill","admin3":"68924"},{"geonameid":5111576,"name":"Carmel","admin3":"12529"},{"geonameid":7258078,"name":"Carmel Hamlet","admin3":"12529"},{"geonameid":5113196,"name":"Cold Spring","admin3":"57584"},{"geonameid":5123777,"name":"Lake Carmel","admin3":"39331"},{"geonameid":5125657,"name":"Mahopac","admin3":"12529"},{"geonameid":5130748,"name":"Peach Lake","admin3":"68924"},{"geonameid":5133171,"name":"Putnam Lake","admin3":"56748"}],"admin3":[{"geonameid":5111565,"name":"Town of Carmel","admin3":"12529"},{"geonameid":5123294,"name":"Town of Kent","admin3":"39331"},{"geonameid":5130699,"name":"Town of Patterson","admin3":"56748"},{"geonameid":5131103,"name":"Town of Philipstown","admin3":"57584"},{"geonameid":5133178,"name":"Town of Putnam Valley","admin3":"60147"},{"geonameid":5139045,"name":"Town of Southeast","admin3":"68924"}],"alternateNames":[{"alternatenameId":1980362,"geonameid":5128638,"isoLanguage":"en","alternateName":"New York","isPreferredName":true,"isShortName":true,"isColloquial":false,"isHistoric":false}]},"__N_SSG":true}