{"pageProps":{"locale":"en","admin2":{"geonameid":5141153,"name":"Tompkins County","country":"US","admin1":"NY","admin2":"109","admin3":"","latitude":"42.4520200","longitude":"-76.4736600"},"admin1":{"geonameid":5128638,"name":"New York","admin1":"NY","localeAltName":"New York"},"locations":[{"geonameid":5111874,"name":"Cayuga Heights","admin3":"38088"},{"geonameid":5115374,"name":"Dryden","admin3":"20962"},{"geonameid":5115926,"name":"East Ithaca","admin3":"38077"},{"geonameid":5119513,"name":"Groton","admin3":"30972"},{"geonameid":5122432,"name":"Ithaca","admin3":"38077"},{"geonameid":5123993,"name":"Lansing","admin3":"41234"},{"geonameid":7258390,"name":"Northeast Ithaca","admin3":"38088"},{"geonameid":7258394,"name":"Northwest Ithaca","admin3":"38088"},{"geonameid":5138884,"name":"South Hill","admin3":"38077"},{"geonameid":5141508,"name":"Trumansburg","admin3":"75990"}],"admin3":[{"geonameid":5111589,"name":"Town of Caroline","admin3":"12606"},{"geonameid":5114472,"name":"Town of Danby","admin3":"19620"},{"geonameid":5115381,"name":"Town of Dryden","admin3":"20962"},{"geonameid":5116611,"name":"Town of Enfield","admin3":"24548"},{"geonameid":5119515,"name":"Town of Groton","admin3":"30972"},{"geonameid":5122440,"name":"City of Ithaca","admin3":"38077"},{"geonameid":5122441,"name":"Town of Ithaca","admin3":"38088"},{"geonameid":5124002,"name":"Town of Lansing","admin3":"41234"},{"geonameid":5128677,"name":"Town of Newfield","admin3":"50254"},{"geonameid":5141793,"name":"Town of Ulysses","admin3":"75990"}],"alternateNames":[{"alternatenameId":1980362,"geonameid":5128638,"isoLanguage":"en","alternateName":"New York","isPreferredName":true,"isShortName":true,"isColloquial":false,"isHistoric":false}]},"__N_SSG":true}