{"pageProps":{"locale":"en","admin2":{"geonameid":5141784,"name":"Ulster County","country":"US","admin1":"NY","admin2":"111","admin3":"","latitude":"41.8881500","longitude":"-74.2585700"},"admin1":{"geonameid":5128638,"name":"New York","admin1":"NY","localeAltName":"New York"},"locations":[{"geonameid":5110450,"name":"Brownville","admin3":"78828"},{"geonameid":5112995,"name":"Clintondale","admin3":"58552"},{"geonameid":5116408,"name":"Ellenville","admin3":"78828"},{"geonameid":5118606,"name":"Glasco","admin3":"65299"},{"geonameid":5120741,"name":"Highland","admin3":"42994"},{"geonameid":5121679,"name":"Hurley","admin3":"37143"},{"geonameid":5123309,"name":"Kerhonkson","admin3":"78828"},{"geonameid":5123477,"name":"Kingston","admin3":"39727"},{"geonameid":5123809,"name":"Lake Katrine","admin3":"75935"},{"geonameid":5124463,"name":"Lincoln Park","admin3":"75935"},{"geonameid":5125973,"name":"Marbletown","admin3":"45458"},{"geonameid":5126055,"name":"Marlboro","admin3":"45722"},{"geonameid":5127099,"name":"Milton","admin3":"45722"},{"geonameid":5128267,"name":"Napanoch","admin3":"78828"},{"geonameid":5128539,"name":"New Paltz","admin3":"50562"},{"geonameid":5131671,"name":"Plattekill","admin3":"58552"},{"geonameid":5132008,"name":"Port Ewen","admin3":"24691"},{"geonameid":7258576,"name":"Rosendale Village","admin3":"63737"},{"geonameid":5136353,"name":"Saugerties","admin3":"65299"},{"geonameid":7258945,"name":"Saugerties South","admin3":"65299"},{"geonameid":5138029,"name":"Shokan","admin3":"54749"},{"geonameid":5139832,"name":"Stone Ridge","admin3":"45458"},{"geonameid":5141025,"name":"Tillson","admin3":"63737"},{"geonameid":5143116,"name":"Wallkill","admin3":"66674"},{"geonameid":8480045,"name":"Watchtower","admin3":"66674"},{"geonameid":5143443,"name":"Wawarsing","admin3":"78828"},{"geonameid":5143862,"name":"West Hurley","admin3":"37143"},{"geonameid":5145072,"name":"Woodstock","admin3":"83052"},{"geonameid":5145295,"name":"Zena","admin3":"83052"}],"admin3":[{"geonameid":5114871,"name":"Town of Denning","admin3":"20247"},{"geonameid":5116673,"name":"Town of Esopus","admin3":"24691"},{"geonameid":5118238,"name":"Town of Gardiner","admin3":"28255"},{"geonameid":5119990,"name":"Town of Hardenburgh","admin3":"32116"},{"geonameid":5121680,"name":"Town of Hurley","admin3":"37143"},{"geonameid":5123485,"name":"City of Kingston","admin3":"39727"},{"geonameid":5123486,"name":"Town of Kingston","admin3":"39738"},{"geonameid":5124954,"name":"Town of Lloyd","admin3":"42994"},{"geonameid":5125965,"name":"Town of Marbletown","admin3":"45458"},{"geonameid":5126047,"name":"Town of Marlborough","admin3":"45722"},{"geonameid":5128541,"name":"Town of New Paltz","admin3":"50562"},{"geonameid":5129790,"name":"Town of Olive","admin3":"54749"},{"geonameid":5131677,"name":"Town of Plattekill","admin3":"58552"},{"geonameid":5134099,"name":"Town of Rochester","admin3":"63011"},{"geonameid":5134409,"name":"Town of Rosendale","admin3":"63737"},{"geonameid":5136355,"name":"Town of Saugerties","admin3":"65299"},{"geonameid":5137766,"name":"Town of Shandaken","admin3":"66597"},{"geonameid":5137828,"name":"Town of Shawangunk","admin3":"66674"},{"geonameid":5141789,"name":"Town of Ulster","admin3":"75935"},{"geonameid":5143444,"name":"Town of Wawarsing","admin3":"78828"},{"geonameid":5145073,"name":"Town of Woodstock","admin3":"83052"}],"alternateNames":[{"alternatenameId":1980362,"geonameid":5128638,"isoLanguage":"en","alternateName":"New York","isPreferredName":true,"isShortName":true,"isColloquial":false,"isHistoric":false}]},"__N_SSG":true}