{"pageProps":{"locale":"en","admin2":{"geonameid":2652355,"name":"Cornwall","country":"GB","admin1":"ENG","admin2":"C6","admin3":"","latitude":"50.4166700","longitude":"-4.7500000"},"admin1":{"geonameid":6269131,"name":"England","admin1":"ENG","localeAltName":"England"},"locations":[{"geonameid":2657420,"name":"Altarnun"},{"geonameid":10104001,"name":"Angarrick"},{"geonameid":2657258,"name":"Antony"},{"geonameid":2655342,"name":"Blisland"},{"geonameid":2655273,"name":"Bodmin"},{"geonameid":6621657,"name":"Boleigh"},{"geonameid":2655148,"name":"Boscastle"},{"geonameid":11496867,"name":"Boswinger"},{"geonameid":2655135,"name":"Botallack"},{"geonameid":2655028,"name":"Boyton"},{"geonameid":2655000,"name":"Braddock"},{"geonameid":6621655,"name":"Brane"},{"geonameid":2654835,"name":"Breage"},{"geonameid":9538921,"name":"Bridge"},{"geonameid":2654380,"name":"Bude"},{"geonameid":2654375,"name":"Budock Water"},{"geonameid":2654371,"name":"Bugle"},{"geonameid":2654110,"name":"Cadgwith"},{"geonameid":2653981,"name":"Callington"},{"geonameid":2653971,"name":"Calstock"},{"geonameid":2653945,"name":"Camborne"},{"geonameid":9538915,"name":"Cambrose"},{"geonameid":2653927,"name":"Camelford"},{"geonameid":2653833,"name":"Carbis Bay"},{"geonameid":10104000,"name":"Carclew"},{"geonameid":2653811,"name":"Cardinham"},{"geonameid":10376369,"name":"Carines"},{"geonameid":8129295,"name":"Carland Cross"},{"geonameid":2653782,"name":"Carleen"},{"geonameid":6950970,"name":"Carlyon Bay"},{"geonameid":2653725,"name":"Carnbrea"},{"geonameid":9538939,"name":"Carne"},{"geonameid":11593127,"name":"Carnon Downs"},{"geonameid":11072620,"name":"Carthew"},{"geonameid":6621660,"name":"Castallack"},{"geonameid":2653467,"name":"Cawsand"},{"geonameid":10103993,"name":"Central Treviscoe"},{"geonameid":2653417,"name":"Chacewater"},{"geonameid":2653335,"name":"Charlestown"},{"geonameid":2652434,"name":"Constantine"},{"geonameid":10103972,"name":"Coombe"},{"geonameid":10103987,"name":"Coombe"},{"geonameid":2652218,"name":"Coverack"},{"geonameid":7909853,"name":"Crackington Haven"},{"geonameid":10794242,"name":"Crafthole"},{"geonameid":2652076,"name":"Crantock"},{"geonameid":2652029,"name":"Creed"},{"geonameid":2651853,"name":"Crowan"},{"geonameid":11593164,"name":"Crowlas"},{"geonameid":6621654,"name":"Crows-an-Wra"},{"geonameid":2651791,"name":"Cubert"},{"geonameid":2651678,"name":"Cury"},{"geonameid":2651483,"name":"Davidstow"},{"geonameid":2651404,"name":"Delabole"},{"geonameid":6697688,"name":"Devoran"},{"geonameid":2651196,"name":"Dobwalls"},{"geonameid":2651075,"name":"Doublebois"},{"geonameid":11593054,"name":"Downderry"},{"geonameid":11593171,"name":"Downgate"},{"geonameid":7289302,"name":"Drakewalls"},{"geonameid":2650806,"name":"Duloe"},{"geonameid":9538914,"name":"East Cliff"},{"geonameid":2650387,"name":"East Looe"},{"geonameid":9166524,"name":"Edgcumbe"},{"geonameid":2650181,"name":"Egloshayle"},{"geonameid":2650180,"name":"Egloskerry"},{"geonameid":2649715,"name":"Falmouth"},{"geonameid":2649537,"name":"Feock"},{"geonameid":3345096,"name":"Flexbury"},{"geonameid":2649271,"name":"Flushing"},{"geonameid":2649193,"name":"Forrabury"},{"geonameid":8714312,"name":"Four Lanes"},{"geonameid":2649126,"name":"Fowey"},{"geonameid":11704110,"name":"Foxhole"},{"geonameid":9409473,"name":"Frogpool"},{"geonameid":8714347,"name":"Garras"},{"geonameid":2648715,"name":"Germoe"},{"geonameid":2648714,"name":"Gerrans"},{"geonameid":2638699,"name":"Golant"},{"geonameid":9538913,"name":"Goonbell"},{"geonameid":9166460,"name":"Gorran Haven"},{"geonameid":10103997,"name":"Goss Moor"},{"geonameid":2648245,"name":"Grade"},{"geonameid":2648227,"name":"Grampound"},{"geonameid":10630386,"name":"Greenbottom"},{"geonameid":2647768,"name":"Gulval"},{"geonameid":2647759,"name":"Gunnislake"},{"geonameid":2647753,"name":"Gunwalloe"},{"geonameid":2647736,"name":"Gweek"},{"geonameid":2647731,"name":"Gwennap"},{"geonameid":2647728,"name":"Gwinear"},{"geonameid":2647725,"name":"Gwithian"},{"geonameid":2647258,"name":"Hayle"},{"geonameid":2647176,"name":"Helford"},{"geonameid":2647171,"name":"Helland"},{"geonameid":2647143,"name":"Helston"},{"geonameid":2647085,"name":"Henwood"},{"geonameid":8199142,"name":"Herodsfoot"},{"geonameid":10103988,"name":"High Street"},{"geonameid":10103995,"name":"Higher Fraddon"},{"geonameid":10376367,"name":"Holywell Bay"},{"geonameid":2646268,"name":"Illogan"},{"geonameid":2645979,"name":"Jacobstow"},{"geonameid":2645919,"name":"Kea"},{"geonameid":2645783,"name":"Kenwyn"},{"geonameid":2645655,"name":"Kilkhampton"},{"geonameid":10377870,"name":"Killigarth"},{"geonameid":11593316,"name":"Kingsand"},{"geonameid":2645066,"name":"Ladock"},{"geonameid":10377871,"name":"Lamellion"},{"geonameid":6621658,"name":"Lamorna"},{"geonameid":10103971,"name":"Lamorran"},{"geonameid":2644967,"name":"Landewednack"},{"geonameid":2644962,"name":"Landrake"},{"geonameid":10376345,"name":"Lanescot"},{"geonameid":2644889,"name":"Lanivet"},{"geonameid":2644888,"name":"Lanlivery"},{"geonameid":2644884,"name":"Lanreath"},{"geonameid":2644882,"name":"Lansallos"},{"geonameid":2644880,"name":"Lanteglos"},{"geonameid":2644881,"name":"Lanteglos"},{"geonameid":2644811,"name":"Launceston"},{"geonameid":2644790,"name":"Lawhitton"},{"geonameid":2644686,"name":"Leedstown"},{"geonameid":2644606,"name":"Lerryn"},{"geonameid":2644560,"name":"Lewannick"},{"geonameid":2644541,"name":"Lezant"},{"geonameid":2644448,"name":"Linkinhorne"},{"geonameid":2644409,"name":"Liskeard"},{"geonameid":2644270,"name":"Little Petherick"},{"geonameid":9538916,"name":"Little Sinns"},{"geonameid":10103991,"name":"Little Treviscoe"},{"geonameid":2644202,"name":"Lizard"},{"geonameid":11593333,"name":"Longrock"},{"geonameid":3345093,"name":"Looe"},{"geonameid":2643583,"name":"Lostwithiel"},{"geonameid":2643536,"name":"Lower Boscaswell"},{"geonameid":2643427,"name":"Ludgvan"},{"geonameid":2643333,"name":"Luxulian"},{"geonameid":2643228,"name":"Madron"},{"geonameid":10103974,"name":"Malpas"},{"geonameid":2643131,"name":"Manaccan"},{"geonameid":2643076,"name":"Marazion"},{"geonameid":2643040,"name":"Marhamchurch"},{"geonameid":9538919,"name":"Marys Well"},{"geonameid":2642893,"name":"Mawgan"},{"geonameid":2642892,"name":"Mawgan Porth"},{"geonameid":2642891,"name":"Mawnan"},{"geonameid":10103990,"name":"Meledor"},{"geonameid":2642749,"name":"Menheniot"},{"geonameid":2642718,"name":"Merrymeet"},{"geonameid":2642687,"name":"Mevagissey"},{"geonameid":2642651,"name":"Michaelstow"},{"geonameid":2642614,"name":"Middlehill"},{"geonameid":2642526,"name":"Millbrook"},{"geonameid":2642411,"name":"Mitchell"},{"geonameid":2642161,"name":"Morvah"},{"geonameid":2642160,"name":"Morval"},{"geonameid":2642152,"name":"Morwenstow"},{"geonameid":9538911,"name":"Mount Hawke"},{"geonameid":2642084,"name":"Mousehole"},{"geonameid":2641976,"name":"Mullion"},{"geonameid":2641931,"name":"Mylor Bridge"},{"geonameid":2641906,"name":"Nancekuke"},{"geonameid":7732702,"name":"Nanpean"},{"geonameid":6324517,"name":"New Polzeath"},{"geonameid":2641621,"name":"Newlyn"},{"geonameid":2641620,"name":"Newlyn East"},{"geonameid":2641589,"name":"Newquay"},{"geonameid":10630496,"name":"No Mans Land Looe"},{"geonameid":9538917,"name":"North Country"},{"geonameid":2641337,"name":"North Hill"},{"geonameid":2641283,"name":"North Petherwin"},{"geonameid":2641246,"name":"North Tamerton"},{"geonameid":10103973,"name":"Old Kea"},{"geonameid":2640845,"name":"Otterham"},{"geonameid":2640685,"name":"Padstow"},{"geonameid":2640623,"name":"Par"},{"geonameid":9538920,"name":"Park Bottom"},{"geonameid":2640563,"name":"Paul"},{"geonameid":9538918,"name":"Paynters Lane End"},{"geonameid":2640508,"name":"Pelynt"},{"geonameid":12104695,"name":"Penare"},{"geonameid":9883559,"name":"Pendeen"},{"geonameid":10376347,"name":"Penpillick"},{"geonameid":10103977,"name":"Penpool"},{"geonameid":2640413,"name":"Penryn"},{"geonameid":3345095,"name":"Pensilva"},{"geonameid":2640408,"name":"Pentewan"},{"geonameid":10376365,"name":"Pentire"},{"geonameid":2640377,"name":"Penzance"},{"geonameid":9409472,"name":"Perranarworthal"},{"geonameid":2640367,"name":"Perranporth"},{"geonameid":2640366,"name":"Perranuthnoe"},{"geonameid":2640365,"name":"Perranwell"},{"geonameid":2640364,"name":"Perranzabuloe"},{"geonameid":2640321,"name":"Phillack"},{"geonameid":2640320,"name":"Philleigh"},{"geonameid":2640291,"name":"Pillaton"},{"geonameid":10103976,"name":"Point"},{"geonameid":2640152,"name":"Polperro"},{"geonameid":2640151,"name":"Polruan"},{"geonameid":7289333,"name":"Polyphant"},{"geonameid":6324514,"name":"Polzeath"},{"geonameid":9409475,"name":"Ponsanooth"},{"geonameid":2640103,"name":"Pool"},{"geonameid":2640089,"name":"Porkellis"},{"geonameid":11592792,"name":"Port Gaverne"},{"geonameid":2640040,"name":"Port Isaac"},{"geonameid":7290168,"name":"Porth"},{"geonameid":2640055,"name":"Porthallow"},{"geonameid":2640052,"name":"Porthcurno"},{"geonameid":2640046,"name":"Porthleven"},{"geonameid":11821205,"name":"Porthpean"},{"geonameid":8714310,"name":"Porthtowan"},{"geonameid":2640029,"name":"Portloe"},{"geonameid":2640026,"name":"Portmellon"},{"geonameid":2640007,"name":"Portreath"},{"geonameid":2640044,"name":"Portscatho"},{"geonameid":11496487,"name":"Portwrinkle"},{"geonameid":2639961,"name":"Poughill"},{"geonameid":2639954,"name":"Poundstock"},{"geonameid":2639937,"name":"Praze an Beeble"},{"geonameid":2639880,"name":"Probus"},{"geonameid":2639777,"name":"Quethiock"},{"geonameid":11593371,"name":"Quintrell Downs"},{"geonameid":2639524,"name":"Redruth"},{"geonameid":2639270,"name":"Roche"},{"geonameid":6324516,"name":"Rock"},{"geonameid":6621635,"name":"Rosudgeon"},{"geonameid":10103970,"name":"Ruan Laniforne"},{"geonameid":2639007,"name":"Ruan Lanihorne"},{"geonameid":2639006,"name":"Ruan Major"},{"geonameid":2639005,"name":"Ruan Minor"},{"geonameid":2638870,"name":"Saint Agnes"},{"geonameid":2638865,"name":"Saint Allen"},{"geonameid":2638859,"name":"Saint Anthony"},{"geonameid":2638849,"name":"Saint Blazey"},{"geonameid":2638845,"name":"Saint Breward"},{"geonameid":2638838,"name":"Saint Buryan"},{"geonameid":2638832,"name":"Saint Cleer"},{"geonameid":2638831,"name":"Saint Clement"},{"geonameid":2638829,"name":"Saint Clether"},{"geonameid":2638828,"name":"Saint Columb Major"},{"geonameid":2638827,"name":"Saint Columb Minor"},{"geonameid":2638817,"name":"Saint Dennis"},{"geonameid":2638812,"name":"Saint Dominick"},{"geonameid":2638810,"name":"Saint Endellion"},{"geonameid":2638808,"name":"Saint Enoder"},{"geonameid":2638807,"name":"Saint Erme"},{"geonameid":2638806,"name":"Saint Erth"},{"geonameid":2638805,"name":"Saint Ervan"},{"geonameid":2638804,"name":"Saint Eval"},{"geonameid":2638803,"name":"Saint Ewe"},{"geonameid":2638795,"name":"Saint Gennys"},{"geonameid":2638792,"name":"Saint Germans"},{"geonameid":2638790,"name":"Saint Goran"},{"geonameid":2638783,"name":"Saint Hilary"},{"geonameid":2638780,"name":"Saint Issey"},{"geonameid":2638779,"name":"Saint Ive"},{"geonameid":2638766,"name":"Saint Just in Roseland"},{"geonameid":2638765,"name":"Saint Keverne"},{"geonameid":2638764,"name":"Saint Kew"},{"geonameid":2638763,"name":"Saint Keyne"},{"geonameid":2638754,"name":"Saint Levan"},{"geonameid":2638752,"name":"Saint Mabyn"},{"geonameid":2638744,"name":"Saint Martin"},{"geonameid":2638741,"name":"Saint Martins Green"},{"geonameid":2638728,"name":"Saint Mawes"},{"geonameid":2638727,"name":"Saint Mawgan"},{"geonameid":2638726,"name":"Saint Mellion"},{"geonameid":2638724,"name":"Saint Merryn"},{"geonameid":2638720,"name":"Saint Minver"},{"geonameid":2638718,"name":"Saint Neot"},{"geonameid":2638698,"name":"Saint Stephen"},{"geonameid":2638697,"name":"Saint Teath"},{"geonameid":2638691,"name":"Saint Tudy"},{"geonameid":2638689,"name":"Saint Veep"},{"geonameid":2638686,"name":"Saint Winnow"},{"geonameid":2638651,"name":"Saltash"},{"geonameid":2638613,"name":"Sancreed"},{"geonameid":2638565,"name":"Sandplace"},{"geonameid":10103989,"name":"Scarecewater"},{"geonameid":2638368,"name":"Scorrier"},{"geonameid":11593053,"name":"Seaton"},{"geonameid":2638204,"name":"Sennen"},{"geonameid":9538912,"name":"Sevenmilestone"},{"geonameid":2638008,"name":"Sheviock"},{"geonameid":7281149,"name":"Sladesbridge"},{"geonameid":2637404,"name":"South Hill"},{"geonameid":2637346,"name":"South Petherwin"},{"geonameid":2638853,"name":"St Austell"},{"geonameid":2638778,"name":"St Ives"},{"geonameid":11001762,"name":"St Just"},{"geonameid":6691952,"name":"St Mewan"},{"geonameid":6621656,"name":"St. Buryan"},{"geonameid":2638819,"name":"St. Day"},{"geonameid":10103975,"name":"St. Michael Penkivel"},{"geonameid":8224196,"name":"Stenalees"},{"geonameid":2636907,"name":"Stithians"},{"geonameid":10103999,"name":"Stockdale"},{"geonameid":2636861,"name":"Stoke Climsland"},{"geonameid":2636681,"name":"Stratton"},{"geonameid":2636302,"name":"Talland"},{"geonameid":2636125,"name":"Temple"},{"geonameid":10377869,"name":"The Coombes"},{"geonameid":8299848,"name":"Tintagel"},{"geonameid":10103996,"name":"Toldish"},{"geonameid":6269408,"name":"Tolgullow"},{"geonameid":2635651,"name":"Torpoint"},{"geonameid":9538910,"name":"Towan Cross"},{"geonameid":2635596,"name":"Towednack"},{"geonameid":6324518,"name":"Trebetherick"},{"geonameid":2635542,"name":"Treen"},{"geonameid":10376346,"name":"Treesmill"},{"geonameid":2635529,"name":"Tregoney"},{"geonameid":11054653,"name":"Tregorrick"},{"geonameid":10794248,"name":"Trelash"},{"geonameid":2635511,"name":"Tremaine"},{"geonameid":10376362,"name":"Trencreek"},{"geonameid":2635506,"name":"Treneglos"},{"geonameid":10376368,"name":"Tresean"},{"geonameid":2635491,"name":"Tresmeer"},{"geonameid":10376363,"name":"Tretherras"},{"geonameid":7289334,"name":"Trevadlock"},{"geonameid":10103992,"name":"Treveiscoe"},{"geonameid":2635478,"name":"Trevilley"},{"geonameid":10103985,"name":"Trewarthenick"},{"geonameid":2635470,"name":"Trewen"},{"geonameid":9538942,"name":"Trewithian"},{"geonameid":9538940,"name":"Treworlas"},{"geonameid":2635412,"name":"Truro"},{"geonameid":2635398,"name":"Tuckingmill"},{"geonameid":2635254,"name":"Tywardreath"},{"geonameid":2635163,"name":"Uny Lelant"},{"geonameid":2635099,"name":"Upton"},{"geonameid":2634974,"name":"Veryan"},{"geonameid":9538938,"name":"Veryan Green"},{"geonameid":6693240,"name":"Victoria"},{"geonameid":2634920,"name":"Wadebridge"},{"geonameid":2634795,"name":"Warbstow"},{"geonameid":2634760,"name":"Warleggan"},{"geonameid":6951035,"name":"Washaway"},{"geonameid":2634609,"name":"Week Saint Mary"},{"geonameid":2634537,"name":"Wendron"},{"geonameid":2634521,"name":"Werrington"},{"geonameid":2634355,"name":"West Looe"},{"geonameid":10376366,"name":"West Pentire"},{"geonameid":7910552,"name":"Whitecross"},{"geonameid":2633741,"name":"Withiel"},{"geonameid":7521852,"name":"Woolley"},{"geonameid":2633325,"name":"Zelah"},{"geonameid":2633324,"name":"Zennor"}],"admin3":[{"geonameid":7291044,"name":"Tresmeer","admin3":"00HE198"},{"geonameid":7291111,"name":"Breage","admin3":"00HE009"},{"geonameid":7291119,"name":"Deviock","admin3":"00HE030"},{"geonameid":7291120,"name":"Falmouth","admin3":"00HE035"},{"geonameid":7291121,"name":"Millbrook","admin3":"00HE091"},{"geonameid":7291401,"name":"Torpoint","admin3":"00HE193"},{"geonameid":7291868,"name":"St. Winnow","admin3":"00HE189"},{"geonameid":7292026,"name":"Tremaine","admin3":"00HE196"},{"geonameid":7293052,"name":"Camelford","admin3":"00HE016"},{"geonameid":7293053,"name":"Cardinham","admin3":"00HE017"},{"geonameid":7293056,"name":"Altarnun","admin3":"00HE002"},{"geonameid":7293057,"name":"Blisland","admin3":"00HE004"},{"geonameid":7293066,"name":"Carn Brea","admin3":"00HE020"},{"geonameid":7293067,"name":"Chacewater","admin3":"00HE021"},{"geonameid":7293068,"name":"Cury","admin3":"00HE028"},{"geonameid":7293069,"name":"Davidstow","admin3":"00HE029"},{"geonameid":7293070,"name":"Gerrans","admin3":"00HE040"},{"geonameid":7293071,"name":"Gwinear-Gwithian","admin3":"00HE046"},{"geonameid":7293072,"name":"Kea","admin3":"00HE052"},{"geonameid":7293073,"name":"Ladock","admin3":"00HE055"},{"geonameid":7293074,"name":"Laneast","admin3":"00HE059"},{"geonameid":7293075,"name":"Lanhydrock","admin3":"00HE060"},{"geonameid":7293076,"name":"Lanivet","admin3":"00HE061"},{"geonameid":7293077,"name":"Lanner","admin3":"00HE063"},{"geonameid":7293078,"name":"Lanteglos","admin3":"00HE066"},{"geonameid":7293079,"name":"Lewannick","admin3":"00HE071"},{"geonameid":7293080,"name":"Lezant","admin3":"00HE072"},{"geonameid":7293081,"name":"Linkinhorne","admin3":"00HE073"},{"geonameid":7293082,"name":"Ludgvan","admin3":"00HE077"},{"geonameid":7293083,"name":"Luxulyan","admin3":"00HE078"},{"geonameid":7293084,"name":"Marazion","admin3":"00HE083"},{"geonameid":7293085,"name":"Mawgan-in-Meneage","admin3":"00HE085"},{"geonameid":7293086,"name":"Mawnan","admin3":"00HE087"},{"geonameid":7293087,"name":"St. Austell Bay","admin3":"00HE132"},{"geonameid":7293088,"name":"Mylor","admin3":"00HE096"},{"geonameid":7293089,"name":"North Hill","admin3":"00HE098"},{"geonameid":7293090,"name":"North Tamerton","admin3":"00HE100"},{"geonameid":7293091,"name":"Padstow","admin3":"00HE102"},{"geonameid":7293092,"name":"Pentewan Valley","admin3":"00HE106"},{"geonameid":7293093,"name":"Perranzabuloe","admin3":"00HE110"},{"geonameid":7293094,"name":"Pillaton","admin3":"00HE112"},{"geonameid":7293095,"name":"Sheviock","admin3":"00HE124"},{"geonameid":7293096,"name":"St. Allen","admin3":"00HE129"},{"geonameid":7293097,"name":"St. Breward","admin3":"00HE135"},{"geonameid":7293098,"name":"St. Endellion","admin3":"00HE144"},{"geonameid":7293099,"name":"St. Ewe","admin3":"00HE150"},{"geonameid":7293100,"name":"St. Goran","admin3":"00HE154"},{"geonameid":7293101,"name":"St. Hilary","admin3":"00HE155"},{"geonameid":7293102,"name":"St. Ive","admin3":"00HE157"},{"geonameid":7293103,"name":"St. Just-in-Roseland","admin3":"00HE162"},{"geonameid":7293104,"name":"St. Kew","admin3":"00HE164"},{"geonameid":7293105,"name":"St. Neot","admin3":"00HE178"},{"geonameid":7293106,"name":"St. Wenn","admin3":"00HE188"},{"geonameid":7293107,"name":"Tintagel","admin3":"00HE192"},{"geonameid":7293108,"name":"Treneglos","admin3":"00HE197"},{"geonameid":7293109,"name":"Wadebridge","admin3":"00HE205"},{"geonameid":7293110,"name":"Week St. Mary","admin3":"00HE208"},{"geonameid":7294218,"name":"Carlyon","admin3":"00HE019"},{"geonameid":7294219,"name":"Crowan","admin3":"00HE025"},{"geonameid":7294220,"name":"Liskeard","admin3":"00HE074"},{"geonameid":7294221,"name":"St. Enoder","admin3":"00HE145"},{"geonameid":7294222,"name":"St. Michael's Mount","admin3":"00HE175"},{"geonameid":7294223,"name":"Trevalga","admin3":"00HE199"},{"geonameid":7294369,"name":"Boyton","admin3":"00HE008"},{"geonameid":7294373,"name":"Budock","admin3":"00HE012"},{"geonameid":7294376,"name":"Callington","admin3":"00HE013"},{"geonameid":7294400,"name":"Calstock","admin3":"00HE014"},{"geonameid":7294416,"name":"Antony","admin3":"00HE003"},{"geonameid":7294417,"name":"Boconnoc","admin3":"00HE005"},{"geonameid":7294420,"name":"Botusfleming","admin3":"00HE007"},{"geonameid":7294427,"name":"Constantine","admin3":"00HE023"},{"geonameid":7294428,"name":"Cubert","admin3":"00HE026"},{"geonameid":7294430,"name":"Gweek","admin3":"00HE044"},{"geonameid":7294431,"name":"Illogan","admin3":"00HE050"},{"geonameid":7294432,"name":"Kenwyn","admin3":"00HE053"},{"geonameid":7294433,"name":"Landrake with St. Erney","admin3":"00HE057"},{"geonameid":7294434,"name":"Lanreath","admin3":"00HE064"},{"geonameid":7294435,"name":"Mabe","admin3":"00HE079"},{"geonameid":7294436,"name":"Manaccan","admin3":"00HE082"},{"geonameid":7294437,"name":"St. Austell","admin3":"00HE131"},{"geonameid":7294438,"name":"Otterham","admin3":"00HE101"},{"geonameid":7294440,"name":"Paul","admin3":"00HE103"},{"geonameid":7294441,"name":"Poundstock","admin3":"00HE115"},{"geonameid":7294442,"name":"Redruth","admin3":"00HE118"},{"geonameid":7294443,"name":"Roche","admin3":"00HE119"},{"geonameid":7294444,"name":"St. Breock","admin3":"00HE134"},{"geonameid":7294445,"name":"St. Ervan","admin3":"00HE148"},{"geonameid":7294446,"name":"St. Eval","admin3":"00HE149"},{"geonameid":7294447,"name":"St Keyne","admin3":"00HE165"},{"geonameid":7294448,"name":"St. Martin-in-Meneage","admin3":"00HE169"},{"geonameid":7294449,"name":"St. Merryn","admin3":"00HE171"},{"geonameid":7294450,"name":"St. Newlyn East","admin3":"00HE179"},{"geonameid":7294451,"name":"St. Pinnock","admin3":"00HE180"},{"geonameid":7294452,"name":"St. Stephens By Launceston Rural","admin3":"00HE183"},{"geonameid":7294453,"name":"St. Veep","admin3":"00HE187"},{"geonameid":7294454,"name":"Towednack","admin3":"00HE194"},{"geonameid":7294455,"name":"Treverbyn","admin3":"00HE200"},{"geonameid":7294456,"name":"Whitstone","admin3":"00HE211"},{"geonameid":7294457,"name":"Zennor","admin3":"00HE213"},{"geonameid":7294584,"name":"Bude-Stratton","admin3":"00HE011"},{"geonameid":7294619,"name":"Colan","admin3":"00HE022"},{"geonameid":7294620,"name":"Feock","admin3":"00HE036"},{"geonameid":7294621,"name":"Fowey","admin3":"00HE038"},{"geonameid":7294622,"name":"Germoe","admin3":"00HE039"},{"geonameid":7294623,"name":"Grampound with Creed","admin3":"00HE042"},{"geonameid":7294624,"name":"Gwennap","admin3":"00HE045"},{"geonameid":7294625,"name":"Hayle","admin3":"00HE047"},{"geonameid":7294626,"name":"Helston","admin3":"00HE049"},{"geonameid":7294627,"name":"Lanlivery","admin3":"00HE062"},{"geonameid":7294628,"name":"Launcells","admin3":"00HE067"},{"geonameid":7294629,"name":"Lostwithiel","admin3":"00HE076"},{"geonameid":7294630,"name":"Maker-with-Rame","admin3":"00HE081"},{"geonameid":7294631,"name":"Marhamchurch","admin3":"00HE084"},{"geonameid":7294632,"name":"Menheniot","admin3":"00HE088"},{"geonameid":7294633,"name":"Michaelstow","admin3":"00HE090"},{"geonameid":7294634,"name":"Morvah","admin3":"00HE092"},{"geonameid":7294635,"name":"Morwenstow","admin3":"00HE094"},{"geonameid":7294636,"name":"Pelynt","admin3":"00HE104"},{"geonameid":7294637,"name":"Penryn","admin3":"00HE105"},{"geonameid":7294638,"name":"Penzance","admin3":"00HE107"},{"geonameid":7294639,"name":"Perranarworthal","admin3":"00HE108"},{"geonameid":7294640,"name":"Philleigh","admin3":"00HE111"},{"geonameid":7294641,"name":"Probus","admin3":"00HE116"},{"geonameid":7294642,"name":"Saltash","admin3":"00HE121"},{"geonameid":7294643,"name":"South Petherwin","admin3":"00HE127"},{"geonameid":7294644,"name":"St. Agnes","admin3":"00HE128"},{"geonameid":7294645,"name":"St. Anthony-in-Meneage","admin3":"00HE130"},{"geonameid":7294646,"name":"St. Clement","admin3":"00HE138"},{"geonameid":7294647,"name":"St. Clether","admin3":"00HE139"},{"geonameid":7294648,"name":"St. Dominick","admin3":"00HE143"},{"geonameid":7294649,"name":"St. Germans","admin3":"00HE152"},{"geonameid":7294650,"name":"St. Issey","admin3":"00HE156"},{"geonameid":7294651,"name":"St. Just","admin3":"00HE161"},{"geonameid":7294652,"name":"St. Keverne","admin3":"00HE163"},{"geonameid":7294653,"name":"St. Minver Lowlands","admin3":"00HE177"},{"geonameid":7294654,"name":"St. Sampson","admin3":"00HE181"},{"geonameid":7294655,"name":"St. Teath","admin3":"00HE184"},{"geonameid":7294656,"name":"St. Tudy","admin3":"00HE186"},{"geonameid":7294657,"name":"Trewen","admin3":"00HE201"},{"geonameid":7294658,"name":"Veryan","admin3":"00HE204"},{"geonameid":7294659,"name":"Warleggan","admin3":"00HE207"},{"geonameid":7294660,"name":"Werrington","admin3":"00HE210"},{"geonameid":7295217,"name":"Tregoney","admin3":"00HE195"},{"geonameid":7296213,"name":"Withiel","admin3":"00HE212"},{"geonameid":7296380,"name":"Forrabury and Minster","admin3":"00HE037"},{"geonameid":7296381,"name":"Gunwalloe","admin3":"00HE043"},{"geonameid":7296737,"name":"Wendron","admin3":"00HE209"},{"geonameid":7297571,"name":"Kilkhampton","admin3":"00HE054"},{"geonameid":7297572,"name":"Ruanlanihorne","admin3":"00HE120"},{"geonameid":7297573,"name":"St. Stephen-in-Brannel","admin3":"00HE182"},{"geonameid":7297574,"name":"Stithians","admin3":"00HE190"},{"geonameid":7298048,"name":"Dobwalls and Trewidland","admin3":"00HE031"},{"geonameid":7298049,"name":"Porthleven","admin3":"00HE113"},{"geonameid":7298050,"name":"St. Buryan","admin3":"00HE136"},{"geonameid":7298051,"name":"St. Dennis","admin3":"00HE142"},{"geonameid":7298367,"name":"Broadoak","admin3":"00HE010"},{"geonameid":7298372,"name":"Truro","admin3":"00HE202"},{"geonameid":7298373,"name":"Tywardreath and Par","admin3":"00HE203"},{"geonameid":7299022,"name":"St. Mabyn","admin3":"00HE167"},{"geonameid":7299942,"name":"Camborne","admin3":"00HE015"},{"geonameid":7299975,"name":"Advent","admin3":"00HE001"},{"geonameid":7299979,"name":"Bodmin","admin3":"00HE006"},{"geonameid":7299989,"name":"Carharrack","admin3":"00HE018"},{"geonameid":7300005,"name":"Crantock","admin3":"00HE024"},{"geonameid":7300006,"name":"Cuby","admin3":"00HE027"},{"geonameid":7300007,"name":"Duloe","admin3":"00HE032"},{"geonameid":7300008,"name":"Egloshayle","admin3":"00HE033"},{"geonameid":7300009,"name":"Egloskerry","admin3":"00HE034"},{"geonameid":7300010,"name":"Grade-Ruan","admin3":"00HE041"},{"geonameid":7300011,"name":"Helland","admin3":"00HE048"},{"geonameid":7300012,"name":"Jacobstow","admin3":"00HE051"},{"geonameid":7300013,"name":"Landewednack","admin3":"00HE056"},{"geonameid":7300014,"name":"Landulph","admin3":"00HE058"},{"geonameid":7300015,"name":"Lansallos","admin3":"00HE065"},{"geonameid":7300016,"name":"Launceston","admin3":"00HE068"},{"geonameid":7300017,"name":"Lawhitton Rural","admin3":"00HE069"},{"geonameid":7300018,"name":"Lesnewth","admin3":"00HE070"},{"geonameid":7300019,"name":"Looe","admin3":"00HE075"},{"geonameid":7300020,"name":"Madron","admin3":"00HE080"},{"geonameid":7300021,"name":"Mawgan-in-Pydar","admin3":"00HE086"},{"geonameid":7300022,"name":"Mevagissey","admin3":"00HE089"},{"geonameid":7300023,"name":"Morval","admin3":"00HE093"},{"geonameid":7300024,"name":"Mullion","admin3":"00HE095"},{"geonameid":7300025,"name":"Newquay","admin3":"00HE097"},{"geonameid":7300026,"name":"North Petherwin","admin3":"00HE099"},{"geonameid":7300027,"name":"Perranuthnoe","admin3":"00HE109"},{"geonameid":7300028,"name":"Portreath","admin3":"00HE114"},{"geonameid":7300029,"name":"Quethiock","admin3":"00HE117"},{"geonameid":7300030,"name":"Sancreed","admin3":"00HE122"},{"geonameid":7300031,"name":"Sennen","admin3":"00HE123"},{"geonameid":7300032,"name":"Sithney","admin3":"00HE125"},{"geonameid":7300033,"name":"South Hill","admin3":"00HE126"},{"geonameid":7300034,"name":"St. Blaise","admin3":"00HE133"},{"geonameid":7300035,"name":"St. Cleer","admin3":"00HE137"},{"geonameid":7300036,"name":"St. Columb Major","admin3":"00HE140"},{"geonameid":7300037,"name":"St. Day","admin3":"00HE141"},{"geonameid":7300038,"name":"St. Erme","admin3":"00HE146"},{"geonameid":7300039,"name":"St. Erth","admin3":"00HE147"},{"geonameid":7300040,"name":"St. Gennys","admin3":"00HE151"},{"geonameid":7300041,"name":"St. Gluvias","admin3":"00HE153"},{"geonameid":7300042,"name":"St. Ives","admin3":"00HE158"},{"geonameid":7300043,"name":"St. John","admin3":"00HE159"},{"geonameid":7300044,"name":"St Juliot","admin3":"00HE160"},{"geonameid":7300045,"name":"St. Levan","admin3":"00HE166"},{"geonameid":7300046,"name":"St. Martin-by-Looe","admin3":"00HE168"},{"geonameid":7300047,"name":"St. Mellion","admin3":"00HE170"},{"geonameid":7300048,"name":"St. Mewan","admin3":"00HE172"},{"geonameid":7300049,"name":"St. Michael Caerhays","admin3":"00HE173"},{"geonameid":7300050,"name":"St. Michael Penkevil","admin3":"00HE174"},{"geonameid":7300051,"name":"St. Minver Highlands","admin3":"00HE176"},{"geonameid":7300067,"name":"St. Thomas the Apostle Rural","admin3":"00HE185"},{"geonameid":7300068,"name":"Stokeclimsland","admin3":"00HE191"},{"geonameid":7300069,"name":"Warbstow","admin3":"00HE206"}],"alternateNames":[{"alternatenameId":1626647,"geonameid":6269131,"isoLanguage":"en","alternateName":"England","isPreferredName":true,"isShortName":true,"isColloquial":false,"isHistoric":false}]},"__N_SSG":true}