{"pageProps":{"locale":"en","admin2":{"geonameid":2650629,"name":"County Durham","country":"GB","admin1":"ENG","admin2":"D8","admin3":"","latitude":"54.7768000","longitude":"-1.5757500"},"admin1":{"geonameid":6269131,"name":"England","admin1":"ENG","localeAltName":"England"},"locations":[{"geonameid":6620422,"name":"Allensford"},{"geonameid":2657282,"name":"Annfield Plain"},{"geonameid":2656723,"name":"Aycliffe"},{"geonameid":2656305,"name":"Barnard Castle"},{"geonameid":2656289,"name":"Barningham"},{"geonameid":11072870,"name":"Beamish"},{"geonameid":2656050,"name":"Bedburn"},{"geonameid":11550767,"name":"Belmont"},{"geonameid":6640341,"name":"Binchester"},{"geonameid":2655589,"name":"Birtley"},{"geonameid":2655583,"name":"Bishop Auckland"},{"geonameid":2655578,"name":"Bishop Middleham"},{"geonameid":2655481,"name":"Black Hill"},{"geonameid":8063596,"name":"Blackhall Colliery"},{"geonameid":7521856,"name":"Bolam"},{"geonameid":11548423,"name":"Bowburn"},{"geonameid":2655062,"name":"Bowes"},{"geonameid":2655001,"name":"Bradbury"},{"geonameid":2654901,"name":"Brancepeth"},{"geonameid":2654895,"name":"Brandon"},{"geonameid":2654705,"name":"Brignall"},{"geonameid":2654622,"name":"Broadwood"},{"geonameid":11593119,"name":"Burnhope"},{"geonameid":2654260,"name":"Burnopfield"},{"geonameid":2654198,"name":"Burtree Ford"},{"geonameid":7521857,"name":"Butterknowle"},{"geonameid":2654138,"name":"Byers Green"},{"geonameid":2653588,"name":"Castle Eden"},{"geonameid":2653550,"name":"Castleside"},{"geonameid":2653224,"name":"Chester-le-Street"},{"geonameid":2652673,"name":"Cockfield"},{"geonameid":2652609,"name":"Cold Hesledon"},{"geonameid":2652437,"name":"Consett"},{"geonameid":2652397,"name":"Copley"},{"geonameid":2652356,"name":"Cornsay"},{"geonameid":2652279,"name":"Cotherstone"},{"geonameid":2652242,"name":"Coundon"},{"geonameid":2652181,"name":"Coxhoe"},{"geonameid":2652162,"name":"Craghead"},{"geonameid":2651915,"name":"Crook"},{"geonameid":2651828,"name":"Croxdale"},{"geonameid":2651550,"name":"Dalton le Dale"},{"geonameid":2651224,"name":"Dipton"},{"geonameid":2650628,"name":"Durham"},{"geonameid":2650518,"name":"Easington"},{"geonameid":7287966,"name":"Easington Colliery"},{"geonameid":2650439,"name":"Eastgate"},{"geonameid":2650283,"name":"Ebchester"},{"geonameid":2650213,"name":"Edmondbyers"},{"geonameid":2650211,"name":"Edmondsley"},{"geonameid":2650190,"name":"Eggleston"},{"geonameid":2649914,"name":"Esh"},{"geonameid":11593177,"name":"Esh Winning"},{"geonameid":2649843,"name":"Evenwood"},{"geonameid":2649516,"name":"Ferryhill"},{"geonameid":2649379,"name":"Fir Tree"},{"geonameid":2649376,"name":"Fishburn"},{"geonameid":2638087,"name":"Framwellgate Moor"},{"geonameid":2649016,"name":"Frosterley"},{"geonameid":2648946,"name":"Gainford"},{"geonameid":10377368,"name":"Grasholme"},{"geonameid":11592586,"name":"Great Lumley"},{"geonameid":8714242,"name":"Hamsterley"},{"geonameid":2647542,"name":"Hamsterley"},{"geonameid":2647354,"name":"Haswell"},{"geonameid":8063593,"name":"Haswell Plough"},{"geonameid":2647274,"name":"Hawthorn"},{"geonameid":2647038,"name":"Hesleden"},{"geonameid":2646963,"name":"High Etherley"},{"geonameid":2646872,"name":"Hilton"},{"geonameid":2646688,"name":"Holwick"},{"geonameid":2646612,"name":"Horden"},{"geonameid":2646525,"name":"Houghton-Le-Spring"},{"geonameid":11593308,"name":"Howden-le-Wear"},{"geonameid":2646401,"name":"Hunstanworth"},{"geonameid":2646376,"name":"Hunwick"},{"geonameid":2646351,"name":"Hury"},{"geonameid":2646335,"name":"Hutton Henry"},{"geonameid":2646333,"name":"Hutton Magna"},{"geonameid":2646207,"name":"Ingleton"},{"geonameid":7280524,"name":"Kelloe"},{"geonameid":8714264,"name":"Kinninvie"},{"geonameid":2645247,"name":"Kirk Merrington"},{"geonameid":2645151,"name":"Knitsley"},{"geonameid":2644968,"name":"Lanchester"},{"geonameid":9429490,"name":"Lanehead"},{"geonameid":2644917,"name":"Langley Park"},{"geonameid":2644841,"name":"Lartington"},{"geonameid":2644749,"name":"Leadgate"},{"geonameid":2644736,"name":"Leamside"},{"geonameid":2644425,"name":"Lintz Green"},{"geonameid":2643488,"name":"Low Etherley"},{"geonameid":2643423,"name":"Ludworth"},{"geonameid":2642638,"name":"Mickleton"},{"geonameid":2642586,"name":"Middleton in Teesdale"},{"geonameid":8224202,"name":"Middridge"},{"geonameid":2642015,"name":"Muggleswick"},{"geonameid":2641945,"name":"Murton"},{"geonameid":11552733,"name":"Neville's Cross ED"},{"geonameid":2641702,"name":"New Brancepeth"},{"geonameid":2641572,"name":"New Shildon"},{"geonameid":2641722,"name":"Newbiggin"},{"geonameid":2641555,"name":"Newton Aycliffe"},{"geonameid":7302937,"name":"Ovington"},{"geonameid":2640511,"name":"Pelton"},{"geonameid":2640510,"name":"Pelton Fell"},{"geonameid":2640349,"name":"Peterlee"},{"geonameid":2640241,"name":"Pittington"},{"geonameid":2640224,"name":"Plawsworth"},{"geonameid":2640120,"name":"Pontop"},{"geonameid":2639803,"name":"Quarrington Hill"},{"geonameid":6941087,"name":"Quebec"},{"geonameid":2639207,"name":"Rokeby"},{"geonameid":2639199,"name":"Romaldkirk"},{"geonameid":2639171,"name":"Rookhope"},{"geonameid":6620452,"name":"Rushyford"},{"geonameid":2638888,"name":"Sacriston"},{"geonameid":2638772,"name":"Saint Johns Chapel"},{"geonameid":2638498,"name":"Satley"},{"geonameid":2638302,"name":"Seaham"},{"geonameid":2638276,"name":"Seaton"},{"geonameid":2638259,"name":"Sedgefield"},{"geonameid":2638029,"name":"Sherburn"},{"geonameid":2638028,"name":"Sherburn Hill"},{"geonameid":2637987,"name":"Shield Row"},{"geonameid":2637983,"name":"Shildon"},{"geonameid":2637969,"name":"Shincliffe"},{"geonameid":2637907,"name":"Shotley Bridge"},{"geonameid":2637901,"name":"Shotton"},{"geonameid":2637653,"name":"Sleightholme"},{"geonameid":2637405,"name":"South Hetton"},{"geonameid":2637371,"name":"South Moor"},{"geonameid":2637235,"name":"Spennymoor"},{"geonameid":2637127,"name":"Staindrop"},{"geonameid":2637078,"name":"Stanhope"},{"geonameid":8224783,"name":"Stanley"},{"geonameid":2637005,"name":"Startforth"},{"geonameid":2636530,"name":"Sunderland Bridge"},{"geonameid":2636267,"name":"Tanfield"},{"geonameid":2635978,"name":"Thornley"},{"geonameid":11876499,"name":"Toft Hill"},{"geonameid":2635590,"name":"Tow Law"},{"geonameid":2635465,"name":"Trimdon"},{"geonameid":2635463,"name":"Trimdon Grange"},{"geonameid":8299835,"name":"Trimdon Station"},{"geonameid":2635054,"name":"Ushaw Moor"},{"geonameid":2634711,"name":"Waskerley"},{"geonameid":2634691,"name":"Waterhouses"},{"geonameid":2634631,"name":"Wear Head"},{"geonameid":2634511,"name":"West Auckland"},{"geonameid":2634467,"name":"West Cornforth"},{"geonameid":2634373,"name":"West Kyo"},{"geonameid":2634288,"name":"West Rainton"},{"geonameid":2634414,"name":"Westgate"},{"geonameid":11592626,"name":"Wheatley Hill"},{"geonameid":7302943,"name":"Whorlton"},{"geonameid":2633896,"name":"Willington"},{"geonameid":2633827,"name":"Wingate"},{"geonameid":2633803,"name":"Winston"},{"geonameid":2633723,"name":"Witton Gilbert"},{"geonameid":2633721,"name":"Witton le Wear"},{"geonameid":2633694,"name":"Wolsingham"},{"geonameid":2633650,"name":"Woodham"},{"geonameid":2633636,"name":"Woodland"},{"geonameid":2633463,"name":"Wycliffe"}],"admin3":[{"geonameid":2654894,"name":"Brandon and Byshottles","admin3":"00EJ014"},{"geonameid":7291045,"name":"Lartington","admin3":"00EJ069"},{"geonameid":7291046,"name":"Mickleton","admin3":"00EJ074"},{"geonameid":7291047,"name":"Tow Law","admin3":"00EJ114"},{"geonameid":7291124,"name":"Great Lumley","admin3":"00EJ046"},{"geonameid":7291125,"name":"Shincliffe","admin3":"00EJ103"},{"geonameid":7291402,"name":"Stanhope","admin3":"00EJ109"},{"geonameid":7291403,"name":"Thornley","admin3":"00EJ113"},{"geonameid":7291404,"name":"Wackerfield","admin3":"00EJ118"},{"geonameid":7291405,"name":"Windlestone","admin3":"00EJ125"},{"geonameid":7291406,"name":"Wingate","admin3":"00EJ126"},{"geonameid":7291407,"name":"Witton Gilbert","admin3":"00EJ128"},{"geonameid":7291408,"name":"Wolsingham","admin3":"00EJ130"},{"geonameid":7291409,"name":"LCPs of Hamsterley, Lynesack and Softley, and South Bedburn","admin3":"00EJ135"},{"geonameid":7293111,"name":"Belmont","admin3":"00EJ005"},{"geonameid":7293115,"name":"Bolam","admin3":"00EJ008"},{"geonameid":7293116,"name":"Boldron","admin3":"00EJ009"},{"geonameid":7293117,"name":"Bowes","admin3":"00EJ011"},{"geonameid":7293118,"name":"Cassop-cum-Quarrington","admin3":"00EJ017"},{"geonameid":7293119,"name":"Chilton","admin3":"00EJ019"},{"geonameid":7293120,"name":"Cleatlam","admin3":"00EJ020"},{"geonameid":7293121,"name":"Egglestone Abbey","admin3":"00EJ034"},{"geonameid":7293122,"name":"Esh","admin3":"00EJ036"},{"geonameid":7293123,"name":"Evenwood and Barony","admin3":"00EJ038"},{"geonameid":7293124,"name":"Ferryhill","admin3":"00EJ039"},{"geonameid":7293125,"name":"Fishburn","admin3":"00EJ040"},{"geonameid":7293126,"name":"Great Aycliffe","admin3":"00EJ045"},{"geonameid":7293127,"name":"Haswell","admin3":"00EJ050"},{"geonameid":7293128,"name":"Headlam","admin3":"00EJ052"},{"geonameid":7293129,"name":"Hutton Magna","admin3":"00EJ062"},{"geonameid":7293130,"name":"Langleydale and Shotton","admin3":"00EJ067"},{"geonameid":7293131,"name":"Middridge","admin3":"00EJ076"},{"geonameid":7293132,"name":"Murton","admin3":"00EJ081"},{"geonameid":7293133,"name":"Newbiggin","admin3":"00EJ083"},{"geonameid":7293134,"name":"North Lodge","admin3":"00EJ084"},{"geonameid":7293136,"name":"Ovington","admin3":"00EJ086"},{"geonameid":7293137,"name":"Pelton","admin3":"00EJ087"},{"geonameid":7293138,"name":"Rokeby","admin3":"00EJ091"},{"geonameid":7293139,"name":"Scargill","admin3":"00EJ095"},{"geonameid":7293140,"name":"Sedgefield","admin3":"00EJ098"},{"geonameid":7293141,"name":"Shildon","admin3":"00EJ102"},{"geonameid":7293142,"name":"South Bedburn","admin3":"00EJ105"},{"geonameid":7293143,"name":"Spennymoor","admin3":"00EJ107"},{"geonameid":7293144,"name":"Staindrop","admin3":"00EJ108"},{"geonameid":7293145,"name":"Startforth","admin3":"00EJ111"},{"geonameid":7293146,"name":"West Auckland","admin3":"00EJ120"},{"geonameid":7293147,"name":"Westwick","admin3":"00EJ122"},{"geonameid":7293148,"name":"Witton-le-Wear","admin3":"00EJ129"},{"geonameid":7293149,"name":"Woodland","admin3":"00EJ132"},{"geonameid":7293150,"name":"Wycliffe with Thorpe","admin3":"00EJ133"},{"geonameid":7294224,"name":"Seaton with Slingley","admin3":"00EJ097"},{"geonameid":7294225,"name":"LCPs of Brancepeth and Brandon and Byshottles","admin3":"00EJ134"},{"geonameid":7294458,"name":"Barnard Castle","admin3":"00EJ002"},{"geonameid":7294459,"name":"Bournmoor","admin3":"00EJ010"},{"geonameid":7294460,"name":"Cornforth","admin3":"00EJ022"},{"geonameid":7294461,"name":"Cornsay","admin3":"00EJ023"},{"geonameid":7294462,"name":"Cotherstone","admin3":"00EJ024"},{"geonameid":7294463,"name":"Dalton-le-Dale","admin3":"00EJ027"},{"geonameid":7294464,"name":"Dene Valley","admin3":"00EJ028"},{"geonameid":7294465,"name":"Edmondsley","admin3":"00EJ032"},{"geonameid":7294466,"name":"Eldon","admin3":"00EJ035"},{"geonameid":7294467,"name":"Etherley","admin3":"00EJ037"},{"geonameid":7294468,"name":"Gainford","admin3":"00EJ043"},{"geonameid":7294469,"name":"Greater Willington","admin3":"00EJ047"},{"geonameid":7294470,"name":"Greencroft","admin3":"00EJ048"},{"geonameid":7294471,"name":"Hamsterley","admin3":"00EJ049"},{"geonameid":7294472,"name":"Hilton","admin3":"00EJ055"},{"geonameid":7294473,"name":"Hunderthwaite","admin3":"00EJ059"},{"geonameid":7294474,"name":"Hutton Henry","admin3":"00EJ061"},{"geonameid":7294475,"name":"Kelloe","admin3":"00EJ064"},{"geonameid":7294476,"name":"Marwood","admin3":"00EJ073"},{"geonameid":7294477,"name":"Middleton-in-Teesdale","admin3":"00EJ075"},{"geonameid":7294478,"name":"Monk Hesleden","admin3":"00EJ077"},{"geonameid":7294479,"name":"Morton Tinmouth","admin3":"00EJ079"},{"geonameid":7294480,"name":"Nesbitt","admin3":"00EJ082"},{"geonameid":7294482,"name":"Romaldkirk","admin3":"00EJ092"},{"geonameid":7294483,"name":"Seaham","admin3":"00EJ096"},{"geonameid":7294484,"name":"Sheraton with Hulam","admin3":"00EJ100"},{"geonameid":7294485,"name":"Sherburn Village","admin3":"00EJ101"},{"geonameid":7294486,"name":"Shotton","admin3":"00EJ104"},{"geonameid":7294487,"name":"South Hetton","admin3":"00EJ106"},{"geonameid":7294488,"name":"Streatlam and Stainton","admin3":"00EJ112"},{"geonameid":7294489,"name":"Winston","admin3":"00EJ127"},{"geonameid":7294661,"name":"Barforth","admin3":"00EJ001"},{"geonameid":7294662,"name":"Barningham","admin3":"00EJ003"},{"geonameid":7294663,"name":"Brignall","admin3":"00EJ015"},{"geonameid":7294664,"name":"Burnhope","admin3":"00EJ016"},{"geonameid":7294665,"name":"Castle Eden","admin3":"00EJ018"},{"geonameid":7294666,"name":"Coxhoe","admin3":"00EJ025"},{"geonameid":7294667,"name":"Edmondbyers","admin3":"00EJ031"},{"geonameid":7294668,"name":"Gilmonby","admin3":"00EJ044"},{"geonameid":7294669,"name":"Hedleyhope","admin3":"00EJ054"},{"geonameid":7294670,"name":"Holwick","admin3":"00EJ056"},{"geonameid":7294671,"name":"Horden","admin3":"00EJ058"},{"geonameid":7294672,"name":"Kimblesworth and Plawsworth","admin3":"00EJ065"},{"geonameid":7294673,"name":"Langton","admin3":"00EJ068"},{"geonameid":7294688,"name":"Lunedale","admin3":"00EJ071"},{"geonameid":7294689,"name":"Ouston","admin3":"00EJ085"},{"geonameid":7294693,"name":"Peterlee","admin3":"00EJ088"},{"geonameid":7294694,"name":"Raby with Keverstone","admin3":"00EJ090"},{"geonameid":7294695,"name":"Sacriston","admin3":"00EJ093"},{"geonameid":7294696,"name":"Shadforth","admin3":"00EJ099"},{"geonameid":7294697,"name":"Stanley","admin3":"00EJ110"},{"geonameid":7294698,"name":"Trimdon","admin3":"00EJ115"},{"geonameid":7294699,"name":"Trimdon Foundry","admin3":"00EJ116"},{"geonameid":7294700,"name":"Urpeth","admin3":"00EJ117"},{"geonameid":7294701,"name":"West Rainton","admin3":"00EJ121"},{"geonameid":7294702,"name":"Wheatley Hill","admin3":"00EJ123"},{"geonameid":7294703,"name":"LCPs of Stanhope, Wolsingham and Tow Law","admin3":"00EJ131"},{"geonameid":7298052,"name":"Pittington","admin3":"00EJ089"},{"geonameid":7298053,"name":"Waldridge","admin3":"00EJ119"},{"geonameid":7298054,"name":"Whorlton","admin3":"00EJ124"},{"geonameid":7298374,"name":"Bearpark","admin3":"00EJ004"},{"geonameid":7299014,"name":"Little Lumley","admin3":"00EJ070"},{"geonameid":7300070,"name":"Bishop Auckland","admin3":"00EJ006"},{"geonameid":7300071,"name":"Bishop Middleham","admin3":"00EJ007"},{"geonameid":7300072,"name":"Bradbury and the Isle","admin3":"00EJ012"},{"geonameid":7300073,"name":"Brancepeth","admin3":"00EJ013"},{"geonameid":7300074,"name":"Cockfield","admin3":"00EJ021"},{"geonameid":7300075,"name":"Croxdale and Hett","admin3":"00EJ026"},{"geonameid":7300076,"name":"Easington Colliery","admin3":"00EJ029"},{"geonameid":7300077,"name":"Easington Village","admin3":"00EJ030"},{"geonameid":7300078,"name":"Eggleston","admin3":"00EJ033"},{"geonameid":7300079,"name":"Forest and Frith","admin3":"00EJ041"},{"geonameid":7300080,"name":"Framwellgate Moor","admin3":"00EJ042"},{"geonameid":7300081,"name":"Hawthorn","admin3":"00EJ051"},{"geonameid":7300082,"name":"Healeyfield","admin3":"00EJ053"},{"geonameid":7300083,"name":"Hope","admin3":"00EJ057"},{"geonameid":7300084,"name":"Hunstanworth","admin3":"00EJ060"},{"geonameid":7300085,"name":"Ingleton","admin3":"00EJ063"},{"geonameid":7300086,"name":"Lanchester","admin3":"00EJ066"},{"geonameid":7300087,"name":"Lynesack and Softley","admin3":"00EJ072"},{"geonameid":7300088,"name":"Mordon","admin3":"00EJ078"},{"geonameid":7300089,"name":"Muggleswick","admin3":"00EJ080"},{"geonameid":7300091,"name":"Satley","admin3":"00EJ094"}],"alternateNames":[{"alternatenameId":1626647,"geonameid":6269131,"isoLanguage":"en","alternateName":"England","isPreferredName":true,"isShortName":true,"isColloquial":false,"isHistoric":false}]},"__N_SSG":true}