{"pageProps":{"locale":"en","admin2":{"geonameid":2651346,"name":"Derbyshire","country":"GB","admin1":"ENG","admin2":"D3","admin3":"","latitude":"53.1666700","longitude":"-1.5833300","localeAltName":"Derbyshire"},"admin1":{"geonameid":6269131,"name":"England","admin1":"ENG","localeAltName":"England"},"locations":[{"geonameid":9884016,"name":"Airfield Industrial Estate"},{"geonameid":2657537,"name":"Alderwasley"},{"geonameid":2657508,"name":"Alfreton"},{"geonameid":2657428,"name":"Alsop en le Dale"},{"geonameid":2656981,"name":"Ashbourne"},{"geonameid":2656953,"name":"Ashford"},{"geonameid":2656930,"name":"Ashover"},{"geonameid":11072646,"name":"Aston-on-Trent"},{"geonameid":2656843,"name":"Atlow"},{"geonameid":2656775,"name":"Ault Hucknall"},{"geonameid":2656617,"name":"Bakewell"},{"geonameid":2656423,"name":"Bamford"},{"geonameid":2656324,"name":"Barlborough"},{"geonameid":2656318,"name":"Barlow"},{"geonameid":11593090,"name":"Barrow upon Trent"},{"geonameid":2656191,"name":"Baslow"},{"geonameid":2656022,"name":"Beeley"},{"geonameid":2655942,"name":"Belper"},{"geonameid":2655625,"name":"Birch Vale"},{"geonameid":2655420,"name":"Blackwell"},{"geonameid":2655242,"name":"Bolsover"},{"geonameid":2655209,"name":"Bonsall"},{"geonameid":2655168,"name":"Borrowash"},{"geonameid":2655033,"name":"Boyleston"},{"geonameid":2655002,"name":"Bradbourne"},{"geonameid":9884012,"name":"Bradley"},{"geonameid":2654973,"name":"Bradwell"},{"geonameid":2654939,"name":"Brailsford"},{"geonameid":2654882,"name":"Branston"},{"geonameid":2654872,"name":"Brassington"},{"geonameid":2654836,"name":"Breadsall"},{"geonameid":2654698,"name":"Brimington"},{"geonameid":2654280,"name":"Burnaston"},{"geonameid":8478284,"name":"Butterley"},{"geonameid":2654141,"name":"Buxton"},{"geonameid":7576538,"name":"Buxworth"},{"geonameid":2653993,"name":"Calke"},{"geonameid":8224211,"name":"Calow"},{"geonameid":2653645,"name":"Carsington"},{"geonameid":2653543,"name":"Castleton"},{"geonameid":2653368,"name":"Chapel en le Frith"},{"geonameid":2653332,"name":"Charlesworth"},{"geonameid":7287963,"name":"Chatsworth"},{"geonameid":2653272,"name":"Chellaston"},{"geonameid":2653267,"name":"Chelmorton"},{"geonameid":2653225,"name":"Chesterfield"},{"geonameid":2653147,"name":"Chinley"},{"geonameid":2653045,"name":"Church Broughton"},{"geonameid":2653039,"name":"Church Gresley"},{"geonameid":2652911,"name":"Clay Cross"},{"geonameid":2652840,"name":"Clifton"},{"geonameid":2652771,"name":"Clowne"},{"geonameid":2652655,"name":"Codnor"},{"geonameid":2652273,"name":"Coton in the Elms"},{"geonameid":2652184,"name":"Coxbench"},{"geonameid":2652007,"name":"Creswell"},{"geonameid":2651993,"name":"Crich"},{"geonameid":2651927,"name":"Cromford"},{"geonameid":2651850,"name":"Crowden"},{"geonameid":2651695,"name":"Curbar"},{"geonameid":8468655,"name":"Dalbury Lees"},{"geonameid":2651597,"name":"Dale Abbey"},{"geonameid":2651383,"name":"Denby"},{"geonameid":2651320,"name":"Derwent"},{"geonameid":2651050,"name":"Dove Holes"},{"geonameid":2651045,"name":"Doveridge"},{"geonameid":2651014,"name":"Drakelow"},{"geonameid":2651006,"name":"Draycott"},{"geonameid":2650967,"name":"Dronfield"},{"geonameid":2650836,"name":"Duffield"},{"geonameid":2650542,"name":"Earl Sterndale"},{"geonameid":2650264,"name":"Eckington"},{"geonameid":2650262,"name":"Edale"},{"geonameid":2650241,"name":"Edensor"},{"geonameid":2650191,"name":"Egginton"},{"geonameid":2650067,"name":"Elmton"},{"geonameid":2650037,"name":"Elton"},{"geonameid":11887941,"name":"Elvaston"},{"geonameid":2649863,"name":"Etwall"},{"geonameid":2649794,"name":"Eyam"},{"geonameid":2649743,"name":"Fairfield"},{"geonameid":2649439,"name":"Findern"},{"geonameid":2649338,"name":"Flagg"},{"geonameid":2649027,"name":"Froggatt"},{"geonameid":2648977,"name":"Furness Vale"},{"geonameid":8224210,"name":"Glapwell"},{"geonameid":2648405,"name":"Glossop"},{"geonameid":11839508,"name":"Grangemill"},{"geonameid":2648126,"name":"Great Cubley"},{"geonameid":2648064,"name":"Great Longstone"},{"geonameid":2648031,"name":"Great Rowsley"},{"geonameid":2647869,"name":"Grindleford"},{"geonameid":2647680,"name":"Hadfield"},{"geonameid":2647494,"name":"Hardstoft"},{"geonameid":2647404,"name":"Hartington"},{"geonameid":2647390,"name":"Hartshorne"},{"geonameid":2647358,"name":"Hassop"},{"geonameid":2647338,"name":"Hathersage"},{"geonameid":11593059,"name":"Hatton"},{"geonameid":2647260,"name":"Hayfield"},{"geonameid":2647243,"name":"Hazelwood"},{"geonameid":2647232,"name":"Heage"},{"geonameid":2647227,"name":"Heanor"},{"geonameid":2647221,"name":"Heath"},{"geonameid":8299617,"name":"High Peak"},{"geonameid":2646934,"name":"High Peak Junction"},{"geonameid":11591733,"name":"Highlane"},{"geonameid":11592593,"name":"Hilton"},{"geonameid":2646790,"name":"Hognaston"},{"geonameid":2646777,"name":"Holbrook"},{"geonameid":2646746,"name":"Hollington"},{"geonameid":2646745,"name":"Hollingwood"},{"geonameid":2646719,"name":"Holmesfield"},{"geonameid":2646717,"name":"Holmewood"},{"geonameid":11549263,"name":"Holymoorside"},{"geonameid":2646640,"name":"Hope"},{"geonameid":8299833,"name":"Hope Valley"},{"geonameid":11593306,"name":"Horsley"},{"geonameid":2646462,"name":"Hucklow"},{"geonameid":2646445,"name":"Hulland"},{"geonameid":2646290,"name":"Idridgehay"},{"geonameid":2646274,"name":"Ilkeston"},{"geonameid":2646048,"name":"Ireton Wood"},{"geonameid":2645899,"name":"Kedleston"},{"geonameid":2645703,"name":"Kilburn"},{"geonameid":2645653,"name":"Killamarsh"},{"geonameid":2645453,"name":"Kingâ€™s Newton"},{"geonameid":2645260,"name":"Kirk Ireton"},{"geonameid":2645256,"name":"Kirk Langley"},{"geonameid":2645149,"name":"Kniveton"},{"geonameid":2644918,"name":"Langley Mill"},{"geonameid":2644433,"name":"Linton"},{"geonameid":2644333,"name":"Little Eaton"},{"geonameid":2644306,"name":"Little Hucklow"},{"geonameid":2643697,"name":"Long Eaton"},{"geonameid":2643692,"name":"Longford"},{"geonameid":2643401,"name":"Lullington"},{"geonameid":2643249,"name":"Mackworth"},{"geonameid":2643081,"name":"Mapleton"},{"geonameid":2643002,"name":"Marlpool"},{"geonameid":2642965,"name":"Marston Montgomery"},{"geonameid":2642910,"name":"Matlock"},{"geonameid":2642909,"name":"Matlock Bank"},{"geonameid":6691878,"name":"Matlock Bath"},{"geonameid":2642801,"name":"Melbourne"},{"geonameid":2642595,"name":"Middleton-by-Wirksworth"},{"geonameid":2642594,"name":"Middleton-by-Youlgreave"},{"geonameid":12021995,"name":"Milford"},{"geonameid":2642518,"name":"Millers Dale"},{"geonameid":2642298,"name":"Monyash"},{"geonameid":6619991,"name":"Morley"},{"geonameid":2642165,"name":"Morton"},{"geonameid":2642016,"name":"Mugginton"},{"geonameid":7732704,"name":"Netherseal"},{"geonameid":2641612,"name":"New Mills"},{"geonameid":2641713,"name":"Newbold"},{"geonameid":2641642,"name":"Newhall"},{"geonameid":11863037,"name":"Newhaven"},{"geonameid":2641529,"name":"Newton Solney"},{"geonameid":2641463,"name":"Norbury"},{"geonameid":2641445,"name":"Normanton"},{"geonameid":11887944,"name":"North Wingfield"},{"geonameid":7302438,"name":"Oakerthorpe"},{"geonameid":11887917,"name":"Ockbrook"},{"geonameid":2641039,"name":"Old Brampton"},{"geonameid":6693495,"name":"Old Tupton"},{"geonameid":2640874,"name":"Osmaston"},{"geonameid":2640769,"name":"Overseal"},{"geonameid":8133993,"name":"Padfield"},{"geonameid":9429851,"name":"Palterton"},{"geonameid":2640587,"name":"Parwich"},{"geonameid":2640547,"name":"Peak Forest"},{"geonameid":2640395,"name":"Pentrich"},{"geonameid":2640285,"name":"Pilsley"},{"geonameid":2640273,"name":"Pinxton"},{"geonameid":2640217,"name":"Pleasley"},{"geonameid":2639805,"name":"Quarndon"},{"geonameid":2639729,"name":"Radbourne"},{"geonameid":2639489,"name":"Repton"},{"geonameid":11863040,"name":"Riber"},{"geonameid":11103458,"name":"Riddings"},{"geonameid":11591734,"name":"Ridgeway"},{"geonameid":2639325,"name":"Ripley"},{"geonameid":2639308,"name":"Risley"},{"geonameid":9884524,"name":"Rodsley"},{"geonameid":2639135,"name":"Rosliston"},{"geonameid":2638576,"name":"Sandiacre"},{"geonameid":2638476,"name":"Sawley"},{"geonameid":11593386,"name":"Scarcliffe"},{"geonameid":2638328,"name":"Scropton"},{"geonameid":2638127,"name":"Shardlow"},{"geonameid":2637941,"name":"Shirebrook"},{"geonameid":2637936,"name":"Shirland"},{"geonameid":2637934,"name":"Shirley"},{"geonameid":6950994,"name":"Shottle"},{"geonameid":2637620,"name":"Smalley"},{"geonameid":2637606,"name":"Smisby"},{"geonameid":2637583,"name":"Snelston"},{"geonameid":11887942,"name":"Somercotes"},{"geonameid":2637534,"name":"Somersal Herbert"},{"geonameid":2637358,"name":"South Normanton"},{"geonameid":2637279,"name":"South Wingfield"},{"geonameid":2637211,"name":"Spondon"},{"geonameid":2637073,"name":"Stanley"},{"geonameid":2637046,"name":"Stanton by Dale"},{"geonameid":2637044,"name":"Stanton Gate"},{"geonameid":2637042,"name":"Stanton in Peak"},{"geonameid":2636995,"name":"Staveley"},{"geonameid":11593455,"name":"Stonebroom"},{"geonameid":2636796,"name":"Stoney Middleton"},{"geonameid":2636659,"name":"Stretton"},{"geonameid":9884014,"name":"Sturston"},{"geonameid":2636563,"name":"Sudbury"},{"geonameid":2636475,"name":"Sutton on the Hill"},{"geonameid":2636465,"name":"Swadlincote"},{"geonameid":2636428,"name":"Swanwick"},{"geonameid":2636422,"name":"Swarkestone"},{"geonameid":2636334,"name":"Taddington"},{"geonameid":2636256,"name":"Tansley"},{"geonameid":8476118,"name":"Tapton"},{"geonameid":2636168,"name":"Taxal"},{"geonameid":2635953,"name":"Thorpe"},{"geonameid":2635864,"name":"Tibshelf"},{"geonameid":2635857,"name":"Ticknall"},{"geonameid":2635851,"name":"Tideswell"},{"geonameid":2635789,"name":"Tintwistle"},{"geonameid":2635773,"name":"Tissington"},{"geonameid":2635410,"name":"Trusley"},{"geonameid":2635339,"name":"Turnditch"},{"geonameid":2635165,"name":"Unstone"},{"geonameid":2635118,"name":"Upper Langwith"},{"geonameid":11549264,"name":"Walton"},{"geonameid":2634824,"name":"Walton upon Trent"},{"geonameid":2634405,"name":"West Hallam"},{"geonameid":2634386,"name":"Westhouses"},{"geonameid":2634303,"name":"Weston Underwood"},{"geonameid":2634302,"name":"Weston upon Trent"},{"geonameid":2634194,"name":"Whaley Bridge"},{"geonameid":2634176,"name":"Whatstandwell"},{"geonameid":2634013,"name":"Whittington"},{"geonameid":2633999,"name":"Whitwell"},{"geonameid":2633897,"name":"Willington"},{"geonameid":2633847,"name":"Windley"},{"geonameid":2633824,"name":"Wingerworth"},{"geonameid":2633806,"name":"Winster"},{"geonameid":2633774,"name":"Wirksworth"},{"geonameid":2633615,"name":"Woodville"},{"geonameid":10171169,"name":"Woolley Bridge"},{"geonameid":2633392,"name":"Yeaveley"},{"geonameid":9884526,"name":"Yeldersley"},{"geonameid":2633346,"name":"Youlgreave"}],"admin3":[{"geonameid":2641373,"name":"North East Derbyshire","admin3":"17UJ"},{"geonameid":2655241,"name":"Bolsover District","admin3":"17UC"},{"geonameid":7290668,"name":"Amber Valley District","admin3":"17UB"},{"geonameid":7290669,"name":"Chesterfield District","admin3":"17UD"},{"geonameid":7290670,"name":"Derbyshire Dales District","admin3":"17UF"},{"geonameid":7290671,"name":"Erewash District","admin3":"17UG"},{"geonameid":7290672,"name":"High Peak District","admin3":"17UH"},{"geonameid":7290673,"name":"South Derbyshire District","admin3":"17UK"}],"alternateNames":[{"alternatenameId":2254288,"geonameid":2651346,"isoLanguage":"en","alternateName":"Derbyshire","isPreferredName":true,"isShortName":true,"isColloquial":false,"isHistoric":false},{"alternatenameId":1626647,"geonameid":6269131,"isoLanguage":"en","alternateName":"England","isPreferredName":true,"isShortName":true,"isColloquial":false,"isHistoric":false}]},"__N_SSG":true}