{"pageProps":{"locale":"en","admin2":{"geonameid":3333189,"name":"Rotherham","country":"GB","admin1":"ENG","admin2":"L3","admin3":"","latitude":"53.4166700","longitude":"-1.2500000","localeAltName":"Rotherham"},"admin1":{"geonameid":6269131,"name":"England","admin1":"ENG","localeAltName":"England"},"locations":[{"geonameid":2657524,"name":"Aldwarke"},{"geonameid":2656868,"name":"Aston"},{"geonameid":2655525,"name":"Blackburn"},{"geonameid":2654922,"name":"Bramley"},{"geonameid":2654912,"name":"Brampton en le Morthen"},{"geonameid":2653891,"name":"Canklow"},{"geonameid":6693717,"name":"Catcliffe"},{"geonameid":2651241,"name":"Dinnington"},{"geonameid":2649386,"name":"Firbeck"},{"geonameid":2648672,"name":"Gildingwells"},{"geonameid":2648181,"name":"Greasbrough"},{"geonameid":2647407,"name":"Harthill"},{"geonameid":6620337,"name":"Hellaby"},{"geonameid":2646644,"name":"Hooton Roberts"},{"geonameid":2645569,"name":"Kilnhurst"},{"geonameid":2645538,"name":"Kimberworth"},{"geonameid":2645174,"name":"Kiveton Park"},{"geonameid":2644812,"name":"Laughton en le Morthen"},{"geonameid":2643144,"name":"Maltby"},{"geonameid":2640928,"name":"Orgreave"},{"geonameid":2640610,"name":"Park Gate"},{"geonameid":2639588,"name":"Rawmarsh"},{"geonameid":2639093,"name":"Rotherham"},{"geonameid":2636447,"name":"Swallownest"},{"geonameid":2636374,"name":"Swinton"},{"geonameid":2636121,"name":"Templeborough"},{"geonameid":2635944,"name":"Thorpe Salvin"},{"geonameid":2635906,"name":"Thrybergh"},{"geonameid":11592633,"name":"Thurcroft"},{"geonameid":2635742,"name":"Todwick"},{"geonameid":2635540,"name":"Treeton"},{"geonameid":2635194,"name":"Ulley"},{"geonameid":2634894,"name":"Wales"},{"geonameid":2634672,"name":"Wath upon Dearne"},{"geonameid":2634527,"name":"Wentworth"},{"geonameid":2634347,"name":"West Melton"},{"geonameid":2634143,"name":"Whiston"},{"geonameid":2633977,"name":"Wickersley"},{"geonameid":2633639,"name":"Woodhouse Mill"},{"geonameid":2633624,"name":"Woodsetts"}],"admin3":[{"geonameid":7290893,"name":"Orgreave","admin3":"00CF015"},{"geonameid":7290894,"name":"Ravenfield","admin3":"00CF016"},{"geonameid":7290895,"name":"Treeton","admin3":"00CF021"},{"geonameid":7290896,"name":"Whiston","admin3":"00CF025"},{"geonameid":7290897,"name":"Woodsetts","admin3":"00CF027"},{"geonameid":7291257,"name":"Bramley","admin3":"00CF002"},{"geonameid":7291548,"name":"Letwell","admin3":"00CF013"},{"geonameid":7292216,"name":"Catcliffe","admin3":"00CF005"},{"geonameid":7292217,"name":"Dalton","admin3":"00CF006"},{"geonameid":7292221,"name":"Harthill with Woodall","admin3":"00CF010"},{"geonameid":7292222,"name":"North and South Anston","admin3":"00CF014"},{"geonameid":7292223,"name":"Thrybergh","admin3":"00CF018"},{"geonameid":7292224,"name":"Maltby","admin3":"00CF029"},{"geonameid":7292341,"name":"Brampton Bierlow","admin3":"00CF003"},{"geonameid":7296410,"name":"Wales","admin3":"00CF023"},{"geonameid":7297067,"name":"Dinnington St. John's","admin3":"00CF007"},{"geonameid":7297068,"name":"Firbeck","admin3":"00CF008"},{"geonameid":7297069,"name":"Gildingwells","admin3":"00CF009"},{"geonameid":7297070,"name":"Wickersley","admin3":"00CF026"},{"geonameid":7297856,"name":"Todwick","admin3":"00CF020"},{"geonameid":7297857,"name":"Ulley","admin3":"00CF022"},{"geonameid":7299050,"name":"Laughton-en-le-Morthen","admin3":"00CF028"},{"geonameid":7300745,"name":"Aston cum Aughton","admin3":"00CF001"},{"geonameid":7300746,"name":"Hooton Levitt","admin3":"00CF011"},{"geonameid":7300747,"name":"Hooton Roberts","admin3":"00CF012"},{"geonameid":7300748,"name":"Thorpe Salvin","admin3":"00CF017"},{"geonameid":7300749,"name":"Thurcroft","admin3":"00CF019"},{"geonameid":7300750,"name":"Wentworth","admin3":"00CF024"},{"geonameid":7301041,"name":"Brinsworth","admin3":"00CF004"}],"alternateNames":[{"alternatenameId":8666517,"geonameid":3333189,"isoLanguage":"en","alternateName":"Rotherham","isPreferredName":true,"isShortName":true,"isColloquial":false,"isHistoric":false},{"alternatenameId":1626647,"geonameid":6269131,"isoLanguage":"en","alternateName":"England","isPreferredName":true,"isShortName":true,"isColloquial":false,"isHistoric":false}]},"__N_SSG":true}