{"pageProps":{"locale":"en","admin2":{"geonameid":3333195,"name":"Solihull","country":"GB","admin1":"ENG","admin2":"M2","admin3":"","latitude":"52.4166700","longitude":"-1.7500000","localeAltName":"Solihull"},"admin1":{"geonameid":6269131,"name":"England","admin1":"ENG","localeAltName":"England"},"locations":[{"geonameid":6941086,"name":"Balsall Common"},{"geonameid":2656227,"name":"Barston"},{"geonameid":2655854,"name":"Berkswell"},{"geonameid":2655728,"name":"Bickenhill"},{"geonameid":2653608,"name":"Castle Bromwich"},{"geonameid":6698373,"name":"Chelmsley Wood"},{"geonameid":10104840,"name":"Cheswick Green"},{"geonameid":10104834,"name":"Dickens Heath"},{"geonameid":2651082,"name":"Dorridge"},{"geonameid":2647546,"name":"Hampton in Arden"},{"geonameid":11001688,"name":"Hockley Heath"},{"geonameid":2645099,"name":"Knowle"},{"geonameid":2642968,"name":"Marston Green"},{"geonameid":2642727,"name":"Meriden"},{"geonameid":2640970,"name":"Olton"},{"geonameid":8224782,"name":"Shirley"},{"geonameid":2637546,"name":"Solihull"},{"geonameid":2636123,"name":"Temple Balsall"},{"geonameid":10104833,"name":"Tidbury Green"}],"admin3":[{"geonameid":7292373,"name":"Bickenhill","admin3":"00CT004"},{"geonameid":7292376,"name":"Chelmsley Wood","admin3":"00CT006"},{"geonameid":7292377,"name":"Hockley Heath","admin3":"00CT015"},{"geonameid":7294094,"name":"Barston","admin3":"00CT002"},{"geonameid":7294095,"name":"Castle Bromwich","admin3":"00CT005"},{"geonameid":7294097,"name":"Fordbridge","admin3":"00CT007"},{"geonameid":7294098,"name":"Kingshurst","admin3":"00CT010"},{"geonameid":7294099,"name":"Meriden","admin3":"00CT011"},{"geonameid":7294100,"name":"Dickens Heath","admin3":"00CT014"},{"geonameid":7297184,"name":"Berkswell","admin3":"00CT003"},{"geonameid":7297186,"name":"Smith's Wood","admin3":"00CT012"},{"geonameid":7297187,"name":"Tidbury Green","admin3":"00CT016"},{"geonameid":7301176,"name":"Balsall","admin3":"00CT001"},{"geonameid":7301178,"name":"Hampton in Arden","admin3":"00CT008"},{"geonameid":7301179,"name":"Cheswick Green","admin3":"00CT013"}],"alternateNames":[{"alternatenameId":8666522,"geonameid":3333195,"isoLanguage":"en","alternateName":"Solihull","isPreferredName":true,"isShortName":true,"isColloquial":false,"isHistoric":false},{"alternatenameId":1626647,"geonameid":6269131,"isoLanguage":"en","alternateName":"England","isPreferredName":true,"isShortName":true,"isColloquial":false,"isHistoric":false}]},"__N_SSG":true}