{"pageProps":{"locale":"en","admin2":{"geonameid":2634258,"name":"West Sussex","country":"GB","admin1":"ENG","admin2":"P6","admin3":"","latitude":"51.0000000","longitude":"-0.4166700","localeAltName":"West Sussex"},"admin1":{"geonameid":6269131,"name":"England","admin1":"ENG","localeAltName":"England"},"locations":[{"geonameid":2655274,"name":"Adversane"},{"geonameid":7287909,"name":"Albourne"},{"geonameid":9613130,"name":"Aldwick"},{"geonameid":2657364,"name":"Amberley"},{"geonameid":2657308,"name":"Angmering"},{"geonameid":6941082,"name":"Ansty"},{"geonameid":2657232,"name":"Appledram"},{"geonameid":2657177,"name":"Ardingly"},{"geonameid":7281601,"name":"Arun"},{"geonameid":2656997,"name":"Arundel"},{"geonameid":6545303,"name":"Asdean"},{"geonameid":2656947,"name":"Ashington"},{"geonameid":2656914,"name":"Ashurst"},{"geonameid":7910863,"name":"Atherington"},{"geonameid":2656600,"name":"Balcombe"},{"geonameid":2656293,"name":"Barnham"},{"geonameid":10244169,"name":"Barns Green"},{"geonameid":10377327,"name":"Bedham"},{"geonameid":2655868,"name":"Bepton"},{"geonameid":2655831,"name":"Bersted"},{"geonameid":6621546,"name":"Bewbush"},{"geonameid":2655682,"name":"Bignor"},{"geonameid":2655662,"name":"Billingshurst"},{"geonameid":2655637,"name":"Binsted"},{"geonameid":2655622,"name":"Birdham"},{"geonameid":2655262,"name":"Bognor Regis"},{"geonameid":2655244,"name":"Bolney"},{"geonameid":10100023,"name":"Borden"},{"geonameid":2655143,"name":"Bosham"},{"geonameid":2655126,"name":"Botolphs"},{"geonameid":2655043,"name":"Boxgrove"},{"geonameid":2654934,"name":"Bramber"},{"geonameid":10377724,"name":"Broadbridge Heath"},{"geonameid":6621545,"name":"Broadfield"},{"geonameid":2654630,"name":"Broadwater"},{"geonameid":10244170,"name":"Brooks Green"},{"geonameid":9884022,"name":"Buckman Corner"},{"geonameid":2654308,"name":"Burgess Hill"},{"geonameid":2654251,"name":"Burpham"},{"geonameid":2654189,"name":"Bury"},{"geonameid":10376349,"name":"Bury Common"},{"geonameid":10377326,"name":"Byworth"},{"geonameid":6693716,"name":"Charlton"},{"geonameid":2653192,"name":"Chichester"},{"geonameid":2653168,"name":"Chilgrove"},{"geonameid":2653120,"name":"Chithurst"},{"geonameid":6945704,"name":"Christs Hospital"},{"geonameid":2652952,"name":"Clapham"},{"geonameid":2652902,"name":"Clayton"},{"geonameid":10377751,"name":"Clemsfold"},{"geonameid":10377324,"name":"Coates"},{"geonameid":2652671,"name":"Cocking"},{"geonameid":10377307,"name":"Codmore Hill"},{"geonameid":2652598,"name":"Coldwaltham"},{"geonameid":11593143,"name":"Colgate"},{"geonameid":2652493,"name":"Compton"},{"geonameid":2652415,"name":"Coolham"},{"geonameid":2652410,"name":"Coombes"},{"geonameid":9072590,"name":"Copsale"},{"geonameid":6619985,"name":"Copthorne"},{"geonameid":2652202,"name":"Cowfold"},{"geonameid":2652053,"name":"Crawley"},{"geonameid":6930866,"name":"Crawley Down"},{"geonameid":2651788,"name":"Cuckfield"},{"geonameid":2651114,"name":"Donnington"},{"geonameid":2650733,"name":"Duncton"},{"geonameid":6951418,"name":"Durrington"},{"geonameid":2650535,"name":"Earnley"},{"geonameid":2650527,"name":"Eartham"},{"geonameid":8224218,"name":"Easebourne"},{"geonameid":2650472,"name":"East Dean"},{"geonameid":2650435,"name":"East Grinstead"},{"geonameid":2650421,"name":"East Harting"},{"geonameid":2650380,"name":"East Marden"},{"geonameid":2650352,"name":"East Preston"},{"geonameid":2650311,"name":"East Wittering"},{"geonameid":2650460,"name":"Eastergate"},{"geonameid":10377371,"name":"Edburton"},{"geonameid":10377325,"name":"Egdean"},{"geonameid":2650050,"name":"Elsted"},{"geonameid":2649611,"name":"Faygate"},{"geonameid":2649576,"name":"Felpham"},{"geonameid":2649527,"name":"Fernhurst"},{"geonameid":2649519,"name":"Ferring"},{"geonameid":2649432,"name":"Findon"},{"geonameid":2649377,"name":"Fishbourne"},{"geonameid":2649353,"name":"Fittleworth"},{"geonameid":2649346,"name":"Five Oaks"},{"geonameid":6457269,"name":"Fontwell"},{"geonameid":2649239,"name":"Ford"},{"geonameid":9409253,"name":"Fulking"},{"geonameid":2648986,"name":"Funtington"},{"geonameid":6621542,"name":"Furnace Green"},{"geonameid":9409559,"name":"Furnace Wood"},{"geonameid":2648300,"name":"Goring-by-Sea"},{"geonameid":6621547,"name":"Gossops Green"},{"geonameid":2648243,"name":"Graffham"},{"geonameid":2647534,"name":"Handcross"},{"geonameid":2647499,"name":"Hardham"},{"geonameid":2647359,"name":"Hassocks"},{"geonameid":2647248,"name":"Haywards Heath"},{"geonameid":2647111,"name":"Henfield"},{"geonameid":2647104,"name":"Henley"},{"geonameid":2647000,"name":"Heyshott"},{"geonameid":6693624,"name":"Hickstead"},{"geonameid":2646557,"name":"Horsham"},{"geonameid":2646550,"name":"Horsted Keynes"},{"geonameid":2646528,"name":"Houghton"},{"geonameid":11593310,"name":"Hunston"},{"geonameid":2646355,"name":"Hurstpierpoint"},{"geonameid":2646286,"name":"Ifield"},{"geonameid":2646063,"name":"Iping"},{"geonameid":2634383,"name":"Itchenor"},{"geonameid":2645997,"name":"Itchingfield"},{"geonameid":2645437,"name":"Kingston"},{"geonameid":2645328,"name":"Kirdford"},{"geonameid":6621552,"name":"Lambs Green"},{"geonameid":2641319,"name":"Lancing"},{"geonameid":10102228,"name":"Langley"},{"geonameid":6621548,"name":"Langley Green"},{"geonameid":2644805,"name":"Lavant"},{"geonameid":2644489,"name":"Linchmere"},{"geonameid":2644480,"name":"Lindfield"},{"geonameid":2644319,"name":"Littlehampton"},{"geonameid":2643777,"name":"Lodsworth"},{"geonameid":6545304,"name":"Lordington"},{"geonameid":2643538,"name":"Lower Beeding"},{"geonameid":10377322,"name":"Lower Fittleworth"},{"geonameid":10377323,"name":"Lower Florncroft"},{"geonameid":2643461,"name":"Loxwood"},{"geonameid":2643359,"name":"Lurgashall"},{"geonameid":2643310,"name":"Lyminster"},{"geonameid":2643236,"name":"Madehurst"},{"geonameid":6621541,"name":"Maidenbower"},{"geonameid":2642710,"name":"Merston"},{"geonameid":2642583,"name":"Middleton-on-Sea"},{"geonameid":2642567,"name":"Midhurst"},{"geonameid":10099992,"name":"Milland"},{"geonameid":8063666,"name":"North Bersted"},{"geonameid":2641397,"name":"North Chapel"},{"geonameid":10377308,"name":"North Heath"},{"geonameid":2641309,"name":"North Marden"},{"geonameid":2641299,"name":"North Mundham"},{"geonameid":6621549,"name":"Northgate"},{"geonameid":2641143,"name":"Nuthurst"},{"geonameid":9613129,"name":"Nyetimber"},{"geonameid":2640758,"name":"Oving"},{"geonameid":2640683,"name":"Pagham"},{"geonameid":9884018,"name":"Parbrook"},{"geonameid":2640589,"name":"Partridge Green"},{"geonameid":2640581,"name":"Patching"},{"geonameid":11886965,"name":"Pease Pottage"},{"geonameid":2640332,"name":"Petworth"},{"geonameid":2640232,"name":"Plaistow"},{"geonameid":2640170,"name":"Poling"},{"geonameid":6621551,"name":"Pound Hill"},{"geonameid":2639942,"name":"Poynings"},{"geonameid":2639864,"name":"Pulborough"},{"geonameid":6545305,"name":"Racton"},{"geonameid":2639219,"name":"Roffey"},{"geonameid":2639216,"name":"Rogate"},{"geonameid":10377752,"name":"Rowhook"},{"geonameid":2638992,"name":"Rudgwick"},{"geonameid":2638934,"name":"Rusper"},{"geonameid":2638930,"name":"Rustington"},{"geonameid":12089023,"name":"Salvington"},{"geonameid":2638233,"name":"Selham"},{"geonameid":2638219,"name":"Selsey"},{"geonameid":6955261,"name":"Sharpthorne"},{"geonameid":2638016,"name":"Shermanbury"},{"geonameid":2637959,"name":"Shipley"},{"geonameid":2637916,"name":"Shoreham-by-Sea"},{"geonameid":11593389,"name":"Shripney"},{"geonameid":2637855,"name":"Sidlesham"},{"geonameid":2637814,"name":"Singleton"},{"geonameid":2637663,"name":"Slaugham"},{"geonameid":2637636,"name":"Slindon"},{"geonameid":2637634,"name":"Slinfold"},{"geonameid":6457267,"name":"Small Dole"},{"geonameid":2637524,"name":"Sompting"},{"geonameid":8063667,"name":"South Bersted"},{"geonameid":2637410,"name":"South Harting"},{"geonameid":2637387,"name":"South Lancing"},{"geonameid":2637369,"name":"South Mundham"},{"geonameid":2637356,"name":"South Nutfield"},{"geonameid":2637472,"name":"Southbourne"},{"geonameid":6621544,"name":"Southgate"},{"geonameid":2637298,"name":"Southwater"},{"geonameid":2637289,"name":"Southwick"},{"geonameid":2637027,"name":"Staplefield"},{"geonameid":2636978,"name":"Stedham"},{"geonameid":2636928,"name":"Steyning"},{"geonameid":2636793,"name":"Stopham"},{"geonameid":2636786,"name":"Storrington"},{"geonameid":2636780,"name":"Stoughton"},{"geonameid":10377733,"name":"Strood Green"},{"geonameid":10377328,"name":"Strood Green"},{"geonameid":2636262,"name":"Tangmere"},{"geonameid":6457268,"name":"Tarring"},{"geonameid":2636067,"name":"Thakeham"},{"geonameid":2635933,"name":"Three Bridges"},{"geonameid":6621543,"name":"Tilgate"},{"geonameid":2635825,"name":"Tillington"},{"geonameid":2635432,"name":"Trotton"},{"geonameid":2635337,"name":"Turners Hill"},{"geonameid":2635307,"name":"Twineham"},{"geonameid":2635282,"name":"Tyes Cross"},{"geonameid":2635146,"name":"Upper Beeding"},{"geonameid":2635114,"name":"Upper Marden"},{"geonameid":2634906,"name":"Walberton"},{"geonameid":6545307,"name":"Walderton"},{"geonameid":2634846,"name":"Waltham"},{"geonameid":2634749,"name":"Warnham"},{"geonameid":2634716,"name":"Washington"},{"geonameid":10376351,"name":"Watersfield"},{"geonameid":10376350,"name":"West Burton"},{"geonameid":2634472,"name":"West Chiltington"},{"geonameid":2634457,"name":"West Dean"},{"geonameid":6621550,"name":"West Green"},{"geonameid":2634408,"name":"West Grinstead"},{"geonameid":2634397,"name":"West Harting"},{"geonameid":2634389,"name":"West Hoathly"},{"geonameid":2634264,"name":"West Stoke"},{"geonameid":2634252,"name":"West Thorney"},{"geonameid":2634231,"name":"West Wittering"},{"geonameid":2634222,"name":"West Worthing"},{"geonameid":2634497,"name":"Westbourne"},{"geonameid":8063669,"name":"Westergate"},{"geonameid":2634402,"name":"Westhampnett"},{"geonameid":2633986,"name":"Wick"},{"geonameid":2633767,"name":"Wisborough Green"},{"geonameid":8063668,"name":"Woodgate"},{"geonameid":2633631,"name":"Woodmancote"},{"geonameid":2633526,"name":"Worth"},{"geonameid":2633521,"name":"Worthing"},{"geonameid":2633422,"name":"Yapton"}],"admin3":[{"geonameid":2653191,"name":"Chichester District","admin3":"45UD"},{"geonameid":2657660,"name":"Adur District","admin3":"45UB"},{"geonameid":7290650,"name":"Crawley District","admin3":"45UE"},{"geonameid":7290651,"name":"Horsham District","admin3":"45UF"},{"geonameid":7290652,"name":"Mid Sussex District","admin3":"45UG"},{"geonameid":7290653,"name":"Worthing District","admin3":"45UH"},{"geonameid":7290693,"name":"Arun District","admin3":"45UC"}],"alternateNames":[{"alternatenameId":2254233,"geonameid":2634258,"isoLanguage":"en","alternateName":"West Sussex","isPreferredName":true,"isShortName":true,"isColloquial":false,"isHistoric":false},{"alternatenameId":1626647,"geonameid":6269131,"isoLanguage":"en","alternateName":"England","isPreferredName":true,"isShortName":true,"isColloquial":false,"isHistoric":false}]},"__N_SSG":true}