{"pageProps":{"locale":"ro","admin2":{"geonameid":680840,"name":"Comuna Corcova","country":"RO","admin1":"26","admin2":"111275","admin3":"","latitude":"44.6779400","longitude":"23.0784300"},"admin1":{"geonameid":673612,"name":"Mehedinţi","admin1":"26"},"locations":[{"geonameid":683714,"name":"Breța","admin3":""},{"geonameid":682334,"name":"Cernaia","admin3":""},{"geonameid":682141,"name":"Chiciura","admin3":""},{"geonameid":680841,"name":"Corcova","admin3":""},{"geonameid":680832,"name":"Cordun","admin3":""},{"geonameid":680107,"name":"Croica","admin3":""},{"geonameid":677222,"name":"Gârbovăţu de Jos","admin3":""},{"geonameid":675625,"name":"Imoasa","admin3":""},{"geonameid":675212,"name":"Jirov","admin3":""},{"geonameid":673715,"name":"Măru Roșu","admin3":""},{"geonameid":670672,"name":"Pârvulești","admin3":""},{"geonameid":669461,"name":"Pușcașu","admin3":""},{"geonameid":666189,"name":"Stejaru","admin3":""},{"geonameid":663350,"name":"Valea Udriştii","admin3":""},{"geonameid":662642,"name":"Vlădășești","admin3":""}],"admin3":[],"alternateNames":[]},"__N_SSG":true}