{"pageProps":{"locale":"en","admin2":{"geonameid":5185801,"name":"Crawford County","country":"US","admin1":"PA","admin2":"039","admin3":"","latitude":"41.6847000","longitude":"-80.1062800","localeAltName":null},"admin1":{"geonameid":6254927,"name":"Pennsylvania","admin1":"PA","localeAltName":"Pennsylvania"},"locations":[{"geonameid":5182842,"name":"Cambridge Springs","admin3":"10912","localeAltName":null},{"geonameid":5183110,"name":"Canadohta Lake","admin3":"07032","localeAltName":null},{"geonameid":5184806,"name":"Cochranton","admin3":"14800","localeAltName":null},{"geonameid":5185210,"name":"Conneaut Lake","admin3":"15744","localeAltName":null},{"geonameid":7258153,"name":"Conneaut Lakeshore","admin3":"67088","localeAltName":null},{"geonameid":5185231,"name":"Conneautville","admin3":"15760","localeAltName":null},{"geonameid":5190437,"name":"Fredericksburg","admin3":"80000","localeAltName":null},{"geonameid":5194663,"name":"Hydetown","admin3":"36616","localeAltName":null},{"geonameid":5198166,"name":"Linesville","admin3":"43656","localeAltName":null},{"geonameid":5200644,"name":"Meadville","admin3":"48360","localeAltName":null},{"geonameid":7258514,"name":"Pymatuning Central","admin3":"55408","localeAltName":null},{"geonameid":5209445,"name":"Saegertown","admin3":"67120","localeAltName":null},{"geonameid":5215726,"name":"Titusville","admin3":"76904","localeAltName":null}],"admin3":[{"geonameid":5178654,"name":"Township of Athens","admin3":"03408"},{"geonameid":5179573,"name":"Township of Beaver","admin3":"04720"},{"geonameid":5180914,"name":"Township of Bloomfield","admin3":"07032","localeAltName":null},{"geonameid":5180925,"name":"Borough of Blooming Valley","admin3":"07120"},{"geonameid":5182846,"name":"Borough of Cambridge Springs","admin3":"10912","localeAltName":null},{"geonameid":5182847,"name":"Township of Cambridge","admin3":"10904"},{"geonameid":5183693,"name":"Borough of Centerville","admin3":"12184"},{"geonameid":5184809,"name":"Borough of Cochranton","admin3":"14800","localeAltName":null},{"geonameid":5185216,"name":"Borough of Conneaut Lake","admin3":"15744","localeAltName":null},{"geonameid":5185223,"name":"Township of Conneaut","admin3":"15728"},{"geonameid":5185228,"name":"Borough of Conneautville","admin3":"15760","localeAltName":null},{"geonameid":5186193,"name":"Township of Cussewago","admin3":"17848"},{"geonameid":5187902,"name":"Township of East Fairfield","admin3":"21096"},{"geonameid":5187904,"name":"Township of East Fallowfield","admin3":"21112"},{"geonameid":5187989,"name":"Township of East Mead","admin3":"21504"},{"geonameid":5189080,"name":"Township of Fairfield","admin3":"24568"},{"geonameid":5192080,"name":"Township of Greenwood","admin3":"31400"},{"geonameid":5192961,"name":"Township of Hayfield","admin3":"33256"},{"geonameid":5194664,"name":"Borough of Hydetown","admin3":"36616","localeAltName":null},{"geonameid":5198171,"name":"Borough of Linesville","admin3":"43656","localeAltName":null},{"geonameid":5200652,"name":"City of Meadville","admin3":"48360","localeAltName":null},{"geonameid":5203759,"name":"Township of North Shenango","admin3":"55408","localeAltName":null},{"geonameid":5204287,"name":"Township of Oil Creek","admin3":"56464"},{"geonameid":5206268,"name":"Township of Pine","admin3":"60312"},{"geonameid":5207574,"name":"Township of Randolph","admin3":"63400"},{"geonameid":5208211,"name":"Township of Richmond","admin3":"64600"},{"geonameid":5208748,"name":"Township of Rockdale","admin3":"65440"},{"geonameid":5208928,"name":"Township of Rome","admin3":"65960"},{"geonameid":5209442,"name":"Township of Sadsbury","admin3":"67088","localeAltName":null},{"geonameid":5209447,"name":"Borough of Saegertown","admin3":"67120","localeAltName":null},{"geonameid":5213099,"name":"Township of South Shenango","admin3":"72472"},{"geonameid":5213201,"name":"Township of Sparta","admin3":"72688"},{"geonameid":5213203,"name":"Borough of Spartansburg","admin3":"72704"},{"geonameid":5213438,"name":"Township of Spring","admin3":"72840"},{"geonameid":5213445,"name":"Borough of Springboro","admin3":"72872"},{"geonameid":5214108,"name":"Township of Steuben","admin3":"74016"},{"geonameid":5214749,"name":"Township of Summerhill","admin3":"75160"},{"geonameid":5214800,"name":"Township of Summit","admin3":"75200"},{"geonameid":5215731,"name":"City of Titusville","admin3":"76904","localeAltName":null},{"geonameid":5215909,"name":"Borough of Townville","admin3":"77232"},{"geonameid":5216193,"name":"Township of Troy","admin3":"77616"},{"geonameid":5216705,"name":"Township of Union","admin3":"78304"},{"geonameid":5217146,"name":"Borough of Venango","admin3":"79912"},{"geonameid":5217148,"name":"Township of Venango","admin3":"79920"},{"geonameid":5217175,"name":"Township of Vernon","admin3":"80000","localeAltName":null},{"geonameid":5218286,"name":"Township of Wayne","admin3":"81736"},{"geonameid":5218705,"name":"Township of West Fallowfield","admin3":"82944"},{"geonameid":5218795,"name":"Township of West Mead","admin3":"83480"},{"geonameid":5218883,"name":"Township of West Shenango","admin3":"84008"},{"geonameid":5220019,"name":"Township of Woodcock","admin3":"86168"},{"geonameid":5220022,"name":"Borough of Woodcock","admin3":"86160"}],"alternateNames":[{"alternatenameId":2186547,"geonameid":6254927,"isoLanguage":"en","alternateName":"Pennsylvania","isPreferredName":true,"isShortName":true,"isColloquial":false,"isHistoric":false}]},"__N_SSG":true}