{"pageProps":{"locale":"en","admin2":{"geonameid":2639944,"name":"Sir Powys","country":"GB","admin1":"WLS","admin2":"Y8","admin3":"","latitude":"52.3333300","longitude":"-3.4166700"},"admin1":{"geonameid":2634895,"name":"Wales","admin1":"WLS"},"locations":[{"geonameid":2657877,"name":"Abbey-Cwmhir"},{"geonameid":2657847,"name":"Aber-Brân"},{"geonameid":2657854,"name":"Aberangell"},{"geonameid":6692733,"name":"Abercraf"},{"geonameid":2657824,"name":"Aberedw"},{"geonameid":2657809,"name":"Abergwesyn"},{"geonameid":2657805,"name":"Aberhafesp"},{"geonameid":6930930,"name":"Aberhosan"},{"geonameid":2657799,"name":"Aberllefenni"},{"geonameid":2657795,"name":"Abermule"},{"geonameid":2657463,"name":"Alltmawr"},{"geonameid":2657197,"name":"Arddleen"},{"geonameid":2656002,"name":"Beguildy"},{"geonameid":2655841,"name":"Berriew"},{"geonameid":2655798,"name":"Bettws Cedewain"},{"geonameid":2655797,"name":"Bettws Disserth"},{"geonameid":2655789,"name":"Beulah"},{"geonameid":2655362,"name":"Bleddfa"},{"geonameid":2655119,"name":"Boughrood"},{"geonameid":2654817,"name":"Brecon"},{"geonameid":2654573,"name":"Bronllys"},{"geonameid":2654360,"name":"Builth Road"},{"geonameid":2654359,"name":"Builth Wells"},{"geonameid":2654145,"name":"Buttington"},{"geonameid":2654139,"name":"Bwlch"},{"geonameid":2654088,"name":"Caersws"},{"geonameid":10245228,"name":"Cantref"},{"geonameid":2653843,"name":"Capel-y-ffin"},{"geonameid":2653707,"name":"Carno"},{"geonameid":2653626,"name":"Cascob"},{"geonameid":2653606,"name":"Castle Caereinion"},{"geonameid":2653512,"name":"Cathedine"},{"geonameid":2653436,"name":"Cemmaes"},{"geonameid":2653434,"name":"Cemmaes Road"},{"geonameid":2653024,"name":"Church Stoke"},{"geonameid":2652721,"name":"Clyro"},{"geonameid":2652646,"name":"Coelbren"},{"geonameid":2652521,"name":"Colva"},{"geonameid":10243770,"name":"Commins Coch"},{"geonameid":2652048,"name":"Cray"},{"geonameid":2652017,"name":"Cregrina"},{"geonameid":2651988,"name":"Crickadarn"},{"geonameid":2651986,"name":"Crickhowell"},{"geonameid":2651981,"name":"Criggion"},{"geonameid":11593161,"name":"Crossgates"},{"geonameid":2651649,"name":"Cwm-du"},{"geonameid":2651506,"name":"Darowen"},{"geonameid":2651288,"name":"Devynock"},{"geonameid":2651219,"name":"Discoed"},{"geonameid":2651161,"name":"Dolanog"},{"geonameid":2651159,"name":"Dolau"},{"geonameid":2651160,"name":"Dolau"},{"geonameid":2650590,"name":"Dylife"},{"geonameid":2649918,"name":"Erwood"},{"geonameid":2649915,"name":"Esgair-geiliog"},{"geonameid":2649846,"name":"Evenjobb"},{"geonameid":2649581,"name":"Felin Fach"},{"geonameid":2649582,"name":"Felindre"},{"geonameid":2649232,"name":"Forden"},{"geonameid":2649133,"name":"Four Crosses"},{"geonameid":2648823,"name":"Garth"},{"geonameid":2648822,"name":"Garthbeibio"},{"geonameid":8449482,"name":"Garthmyl"},{"geonameid":2648616,"name":"Gladestry"},{"geonameid":2648592,"name":"Glasbury"},{"geonameid":2648585,"name":"Glascwm"},{"geonameid":2647788,"name":"Guilsfield"},{"geonameid":2647735,"name":"Gwenddwr"},{"geonameid":2647633,"name":"Halfway"},{"geonameid":2647267,"name":"Hay"},{"geonameid":11593295,"name":"Hay-on-Wye"},{"geonameid":2646957,"name":"Highgate"},{"geonameid":2646834,"name":"Hirnant"},{"geonameid":2646413,"name":"Hundred House"},{"geonameid":2646388,"name":"Huntington"},{"geonameid":2646318,"name":"Hyssington"},{"geonameid":2645771,"name":"Kerry"},{"geonameid":2645372,"name":"Kinnerton"},{"geonameid":2645155,"name":"Knighton"},{"geonameid":2645094,"name":"Knucklas"},{"geonameid":2644654,"name":"Leighton"},{"geonameid":2644194,"name":"Llanafan-fawr"},{"geonameid":2644192,"name":"Llananno"},{"geonameid":2644189,"name":"Llanarmon-Mynydd-mawr"},{"geonameid":2644183,"name":"Llanbadarn-fawr"},{"geonameid":2644181,"name":"Llanbadarn-fynydd"},{"geonameid":2644177,"name":"Llanbedr"},{"geonameid":2644178,"name":"Llanbedr"},{"geonameid":2644170,"name":"Llanbister"},{"geonameid":2644166,"name":"Llanbrynmair"},{"geonameid":2644151,"name":"Llanddewi Ystradenny"},{"geonameid":2644143,"name":"Llandefaelogfâch"},{"geonameid":2644142,"name":"Llandefalle"},{"geonameid":2644137,"name":"Llandegley"},{"geonameid":2644134,"name":"Llandeilor-Fan"},{"geonameid":2644131,"name":"Llandinam"},{"geonameid":2644122,"name":"Llandrindod Wells"},{"geonameid":2644121,"name":"Llandrinio"},{"geonameid":2644110,"name":"Llandysilio"},{"geonameid":2644109,"name":"Llandyssil"},{"geonameid":2644094,"name":"Llanerfyl"},{"geonameid":2644084,"name":"Llanfair Caereinion"},{"geonameid":2644076,"name":"Llanfaredd"},{"geonameid":2644075,"name":"Llanfechain"},{"geonameid":2644063,"name":"Llanfihangel Rhydithon"},{"geonameid":2644069,"name":"Llanfihangel-Bryn-Pabuan"},{"geonameid":2644066,"name":"Llanfihangel-Nant-Brân"},{"geonameid":2644065,"name":"Llanfihangel-nant-Melan"},{"geonameid":2644060,"name":"Llanfihangel-yng-Ngwynfa"},{"geonameid":2644054,"name":"Llanfrynach"},{"geonameid":2644053,"name":"Llanfyllin"},{"geonameid":2644050,"name":"Llangadfan"},{"geonameid":2644048,"name":"Llangadwaladr"},{"geonameid":2644045,"name":"Llangammarch Wells"},{"geonameid":2644041,"name":"Llangattock"},{"geonameid":2644038,"name":"Llangedwyn"},{"geonameid":2644028,"name":"Llangenny"},{"geonameid":2644019,"name":"Llangorse"},{"geonameid":2644014,"name":"Llangunllo"},{"geonameid":2644012,"name":"Llangurig"},{"geonameid":2644003,"name":"Llangynidr"},{"geonameid":2644001,"name":"Llangyniew"},{"geonameid":2643997,"name":"Llangynog"},{"geonameid":2643998,"name":"Llangynog"},{"geonameid":2643995,"name":"Llanhamlach"},{"geonameid":2643990,"name":"Llanidloes"},{"geonameid":2643989,"name":"Llanigon"},{"geonameid":2643980,"name":"Llanllugan"},{"geonameid":7289682,"name":"Llanrhaeadr-ym-Mochnant"},{"geonameid":2643966,"name":"Llanrhaiadr-ym-Mochnant"},{"geonameid":2643954,"name":"Llansaintfraed in Elvel"},{"geonameid":2643949,"name":"Llansantffraid-ym-Mechain"},{"geonameid":2643948,"name":"Llansantffread"},{"geonameid":2643946,"name":"Llansilin"},{"geonameid":2643944,"name":"Llanspyddid"},{"geonameid":2643941,"name":"Llanstephan"},{"geonameid":2643919,"name":"Llanwddyn"},{"geonameid":2643911,"name":"Llanwnog"},{"geonameid":2643908,"name":"Llanwrin"},{"geonameid":2643907,"name":"Llanwrthwl"},{"geonameid":2643906,"name":"Llanwrtyd"},{"geonameid":2643905,"name":"Llanwrtyd Wells"},{"geonameid":2643895,"name":"Llanymynech"},{"geonameid":2643894,"name":"Llanyre"},{"geonameid":2643881,"name":"Llowes"},{"geonameid":2643866,"name":"Llyswen"},{"geonameid":2643864,"name":"Llywel"},{"geonameid":2643531,"name":"Lower Chapel"},{"geonameid":2643251,"name":"Machynlleth"},{"geonameid":2643219,"name":"Maesmynis"},{"geonameid":2643127,"name":"Manafon"},{"geonameid":2642819,"name":"Meifod"},{"geonameid":2642706,"name":"Merthyr Cynog"},{"geonameid":9794253,"name":"Middletown"},{"geonameid":2642402,"name":"Mochdre"},{"geonameid":2642304,"name":"Montgomery"},{"geonameid":2641894,"name":"Nantmel"},{"geonameid":2641699,"name":"New Bridge"},{"geonameid":2641584,"name":"New Radnor"},{"geonameid":2641697,"name":"Newbridge on Wye"},{"geonameid":2641666,"name":"Newchurch"},{"geonameid":2641523,"name":"Newtown"},{"geonameid":2641202,"name":"Norton"},{"geonameid":2640999,"name":"Old Radnor"},{"geonameid":2640679,"name":"Painscastle"},{"geonameid":2640641,"name":"Pant-y-dwr"},{"geonameid":2640588,"name":"Partrishow"},{"geonameid":2640425,"name":"Pen-rhôs"},{"geonameid":2640388,"name":"Pen-y-bont-fawr"},{"geonameid":2640387,"name":"Pen-y-cae"},{"geonameid":2640472,"name":"Penegoes"},{"geonameid":2640441,"name":"Pennant"},{"geonameid":2640440,"name":"Pennant-Melangell"},{"geonameid":2640398,"name":"Pentre-bâch"},{"geonameid":2640389,"name":"Penybont"},{"geonameid":2640115,"name":"Pont-Robert"},{"geonameid":2640124,"name":"Pontneddfechan"},{"geonameid":2640094,"name":"Pool Quay"},{"geonameid":2639924,"name":"Presteigne"},{"geonameid":2639470,"name":"Rhayader"},{"geonameid":2639439,"name":"Rhos-gôch"},{"geonameid":2638787,"name":"Saint Harmon"},{"geonameid":2638508,"name":"Sarn"},{"geonameid":2638202,"name":"Sennybridge"},{"geonameid":2637588,"name":"Snead"},{"geonameid":2636985,"name":"Staylittle"},{"geonameid":2636309,"name":"Talerddig"},{"geonameid":2636307,"name":"Talgarth"},{"geonameid":2636289,"name":"Talybont"},{"geonameid":2644117,"name":"Tirabad"},{"geonameid":2635549,"name":"Trecastle"},{"geonameid":2635539,"name":"Trefeglwys"},{"geonameid":2635526,"name":"Tregynon"},{"geonameid":2635515,"name":"Trelystan"},{"geonameid":2635481,"name":"Tretower"},{"geonameid":2635139,"name":"Upper Chapel"},{"geonameid":2635017,"name":"Van"},{"geonameid":2634996,"name":"Velindre"},{"geonameid":2634560,"name":"Welshpool"},{"geonameid":2634007,"name":"Whitton"},{"geonameid":2633336,"name":"Ystradfellte"},{"geonameid":2633334,"name":"Ystradgynlais"}],"admin3":[{"geonameid":2642303,"name":"Montgomery","admin3":"00NN086"},{"geonameid":2654818,"name":"Brecon","admin3":"00NN009"},{"geonameid":7290749,"name":"Forden with Leighton and Trelystan","admin3":"00NN027"},{"geonameid":7290901,"name":"Banwy","admin3":"00NN004"},{"geonameid":7290953,"name":"Bausley with Criggion","admin3":"00NN005"},{"geonameid":7290958,"name":"Clyro","admin3":"00NN019"},{"geonameid":7291175,"name":"Beguildy","admin3":"00NN006"},{"geonameid":7291184,"name":"Cray","admin3":"00NN020"},{"geonameid":7291185,"name":"Disserth and Trecoed","admin3":"00NN022"},{"geonameid":7291211,"name":"Berriew","admin3":"00NN007"},{"geonameid":7291212,"name":"Builth","admin3":"00NN011"},{"geonameid":7291602,"name":"Cilmery","admin3":"00NN018"},{"geonameid":7292168,"name":"Carreghofa","admin3":"00NN015"},{"geonameid":7292183,"name":"Crickhowell","admin3":"00NN021"},{"geonameid":7292184,"name":"Dwyriw","admin3":"00NN024"},{"geonameid":7292185,"name":"Felin Fach","admin3":"00NN026"},{"geonameid":7292186,"name":"Glascwm","admin3":"00NN031"},{"geonameid":7292187,"name":"Kerry","admin3":"00NN037"},{"geonameid":7292188,"name":"Knighton","admin3":"00NN038"},{"geonameid":7292189,"name":"Llanafanfawr","admin3":"00NN039"},{"geonameid":7292190,"name":"Llanddewi Ystradenny","admin3":"00NN045"},{"geonameid":7292191,"name":"Llanfihangel Rhydithon","admin3":"00NN057"},{"geonameid":7292192,"name":"Llanfrynach","admin3":"00NN058"},{"geonameid":7292193,"name":"Llangunllo","admin3":"00NN064"},{"geonameid":7292194,"name":"Llangynidr","admin3":"00NN066"},{"geonameid":7292195,"name":"Llanigon","admin3":"00NN071"},{"geonameid":7292196,"name":"Llanwrtyd Wells","admin3":"00NN077"},{"geonameid":7292197,"name":"Llanyre","admin3":"00NN078"},{"geonameid":7292198,"name":"Meifod","admin3":"00NN083"},{"geonameid":7292199,"name":"Mochdre","admin3":"00NN085"},{"geonameid":7292200,"name":"Nantmel","admin3":"00NN087"},{"geonameid":7292201,"name":"Talgarth","admin3":"00NN097"},{"geonameid":7292202,"name":"Ystradgynlais","admin3":"00NN110"},{"geonameid":7292203,"name":"Llanrhaeadr-ym-Mochnant","admin3":"00NN111"},{"geonameid":7293929,"name":"Abbey Cwmhir","admin3":"00NN001"},{"geonameid":7293999,"name":"Carno","admin3":"00NN014"},{"geonameid":7294000,"name":"Trewern","admin3":"00NN105"},{"geonameid":7295336,"name":"Duhonw","admin3":"00NN023"},{"geonameid":7295456,"name":"Llanerfyl","admin3":"00NN052"},{"geonameid":7295457,"name":"Llanfihangel Cwmdu with Bwlch and Cathedine","admin3":"00NN056"},{"geonameid":7295458,"name":"Llangors","admin3":"00NN063"},{"geonameid":7295459,"name":"Llangynog","admin3":"00NN068"},{"geonameid":7295460,"name":"Maescar","admin3":"00NN081"},{"geonameid":7295461,"name":"Newtown and Llanllwchaiarn","admin3":"00NN089"},{"geonameid":7295462,"name":"Pen-y-bont-Fawr","admin3":"00NN093"},{"geonameid":7295463,"name":"Rhayader","admin3":"00NN095"},{"geonameid":7295464,"name":"St. Harmon","admin3":"00NN096"},{"geonameid":7295465,"name":"Yscir","admin3":"00NN108"},{"geonameid":7297031,"name":"Castle Caereinion","admin3":"00NN016"},{"geonameid":7297032,"name":"Churchstoke","admin3":"00NN017"},{"geonameid":7297038,"name":"Aberedw","admin3":"00NN002"},{"geonameid":7297039,"name":"Glasbury","admin3":"00NN030"},{"geonameid":7297040,"name":"Gwernyfed","admin3":"00NN034"},{"geonameid":7297041,"name":"Honddu Isaf","admin3":"00NN036"},{"geonameid":7297042,"name":"Llanbadarn Fawr","admin3":"00NN040"},{"geonameid":7297043,"name":"Llanbrynmair","admin3":"00NN043"},{"geonameid":7297044,"name":"Llandinam","admin3":"00NN046"},{"geonameid":7297045,"name":"Llandrindod Wells","admin3":"00NN047"},{"geonameid":7297046,"name":"Llangamarch","admin3":"00NN060"},{"geonameid":7297047,"name":"Llangattock","admin3":"00NN061"},{"geonameid":7297048,"name":"Llangurig","admin3":"00NN065"},{"geonameid":7297049,"name":"Llansantffraid","admin3":"00NN073"},{"geonameid":7297050,"name":"Llansilin","admin3":"00NN074"},{"geonameid":7297051,"name":"Llanwddyn","admin3":"00NN075"},{"geonameid":7297052,"name":"Llanwrthwl","admin3":"00NN076"},{"geonameid":7297053,"name":"Llywel","admin3":"00NN079"},{"geonameid":7297054,"name":"Manafon","admin3":"00NN082"},{"geonameid":7297055,"name":"New Radnor","admin3":"00NN088"},{"geonameid":7297056,"name":"Old Radnor","admin3":"00NN090"},{"geonameid":7297057,"name":"Presteigne","admin3":"00NN094"},{"geonameid":7297058,"name":"The Vale of Grwyney","admin3":"00NN100"},{"geonameid":7297059,"name":"Treflys","admin3":"00NN103"},{"geonameid":7297733,"name":"Llandyssil","admin3":"00NN050"},{"geonameid":7297852,"name":"Llanbister","admin3":"00NN042"},{"geonameid":7297853,"name":"Trallong","admin3":"00NN101"},{"geonameid":7297854,"name":"Whitton","admin3":"00NN107"},{"geonameid":7298396,"name":"Llanidloes","admin3":"00NN069"},{"geonameid":7298556,"name":"Glantwymyn","admin3":"00NN029"},{"geonameid":7298613,"name":"Glyn Tarell","admin3":"00NN032"},{"geonameid":7298614,"name":"Llanddew","admin3":"00NN044"},{"geonameid":7298670,"name":"Ystradfellte","admin3":"00NN109"},{"geonameid":7298774,"name":"Trefeglwys","admin3":"00NN102"},{"geonameid":7298909,"name":"Tawe-Uchaf","admin3":"00NN099"},{"geonameid":7298986,"name":"Llanelwedd","admin3":"00NN051"},{"geonameid":7301000,"name":"Aberhafesp","admin3":"00NN003"},{"geonameid":7301001,"name":"Bettws","admin3":"00NN008"},{"geonameid":7301002,"name":"Bronllys","admin3":"00NN010"},{"geonameid":7301003,"name":"Cadfarch","admin3":"00NN012"},{"geonameid":7301004,"name":"Caersws","admin3":"00NN013"},{"geonameid":7301005,"name":"Erwood","admin3":"00NN025"},{"geonameid":7301006,"name":"Gladestry","admin3":"00NN028"},{"geonameid":7301007,"name":"Guilsfield","admin3":"00NN033"},{"geonameid":7301008,"name":"Hay","admin3":"00NN035"},{"geonameid":7301009,"name":"Llanbadarn Fynydd","admin3":"00NN041"},{"geonameid":7301010,"name":"Llandrinio","admin3":"00NN048"},{"geonameid":7301011,"name":"Llandysilio","admin3":"00NN049"},{"geonameid":7301012,"name":"Llanfechain","admin3":"00NN054"},{"geonameid":7301013,"name":"Llanfihangel","admin3":"00NN055"},{"geonameid":7301014,"name":"Llanfyllin","admin3":"00NN059"},{"geonameid":7301015,"name":"Llangedwyn","admin3":"00NN062"},{"geonameid":7301016,"name":"Llangyniew","admin3":"00NN067"},{"geonameid":7301017,"name":"Llanidloes Without","admin3":"00NN070"},{"geonameid":7301018,"name":"Machynlleth","admin3":"00NN080"},{"geonameid":7301019,"name":"Merthyr Cynog","admin3":"00NN084"},{"geonameid":7301020,"name":"Painscastle","admin3":"00NN091"},{"geonameid":7301021,"name":"Penybont","admin3":"00NN092"},{"geonameid":7301022,"name":"Talybont-on-Usk","admin3":"00NN098"},{"geonameid":7301033,"name":"Tregynon","admin3":"00NN104"},{"geonameid":7301034,"name":"Welshpool","admin3":"00NN106"},{"geonameid":7301585,"name":"Llanfair Caereinion","admin3":"00NN053"}],"alternateNames":[]},"__N_SSG":true}