{"pageProps":{"locale":"en","admin2":{"geonameid":5278054,"name":"Waukesha County","country":"US","admin1":"WI","admin2":"133","admin3":"","latitude":"43.0181900","longitude":"-88.3045300","localeAltName":null},"admin1":{"geonameid":5279468,"name":"Wisconsin","admin1":"WI","localeAltName":"Wisconsin"},"locations":[{"geonameid":5245729,"name":"Big Bend","admin3":"07200","localeAltName":null},{"geonameid":5246835,"name":"Brookfield","admin3":"10025","localeAltName":null},{"geonameid":5247307,"name":"Butler","admin3":"11475","localeAltName":null},{"geonameid":5248405,"name":"Chenequa","admin3":"14225","localeAltName":null},{"geonameid":5250393,"name":"Delafield","admin3":"19400","localeAltName":null},{"geonameid":5250847,"name":"Dousman","admin3":"20550","localeAltName":null},{"geonameid":5251122,"name":"Eagle","admin3":"21425","localeAltName":null},{"geonameid":5251784,"name":"Elm Grove","admin3":"23575","localeAltName":null},{"geonameid":5255640,"name":"Hartland","admin3":"33100","localeAltName":null},{"geonameid":5259502,"name":"Lannon","admin3":"42450","localeAltName":null},{"geonameid":5262630,"name":"Menomonee Falls","admin3":"51000","localeAltName":null},{"geonameid":5262708,"name":"Merton","admin3":"51375","localeAltName":null},{"geonameid":5263965,"name":"Mukwonago","admin3":"55050","localeAltName":null},{"geonameid":5264049,"name":"Muskego","admin3":"55275","localeAltName":null},{"geonameid":5264158,"name":"Nashotah","admin3":"55550","localeAltName":null},{"geonameid":5264381,"name":"New Berlin","admin3":"56375","localeAltName":null},{"geonameid":5264924,"name":"North Prairie","admin3":"58400","localeAltName":null},{"geonameid":5265499,"name":"Oconomowoc","admin3":"59250","localeAltName":null},{"geonameid":5265504,"name":"Oconomowoc Lake","admin3":"59300","localeAltName":null},{"geonameid":5265585,"name":"Okauchee Lake","admin3":"59275","localeAltName":null},{"geonameid":5266731,"name":"Pewaukee","admin3":"62250","localeAltName":null},{"geonameid":5275222,"name":"Sussex","admin3":"78750","localeAltName":null},{"geonameid":5277716,"name":"Wales","admin3":"83175","localeAltName":null},{"geonameid":5278052,"name":"Waukesha","admin3":"84250","localeAltName":null}],"admin3":[{"geonameid":5245733,"name":"Village of Big Bend","admin3":"07200","localeAltName":null},{"geonameid":5246846,"name":"City of Brookfield","admin3":"10025","localeAltName":null},{"geonameid":5246847,"name":"Town of Brookfield","admin3":"10050"},{"geonameid":5247319,"name":"Village of Butler","admin3":"11475","localeAltName":null},{"geonameid":5248383,"name":"Village of Chenequa","admin3":"14225","localeAltName":null},{"geonameid":5250395,"name":"City of Delafield","admin3":"19400","localeAltName":null},{"geonameid":5250396,"name":"Town of Delafield","admin3":"19425"},{"geonameid":5250849,"name":"Village of Dousman","admin3":"20550","localeAltName":null},{"geonameid":5251189,"name":"Town of Eagle","admin3":"21450"},{"geonameid":5251190,"name":"Village of Eagle","admin3":"21425","localeAltName":null},{"geonameid":5251802,"name":"Village of Elm Grove","admin3":"23575","localeAltName":null},{"geonameid":5254144,"name":"Town of Genesee","admin3":"28487"},{"geonameid":5255648,"name":"Village of Hartland","admin3":"33100","localeAltName":null},{"geonameid":5259030,"name":"Village of Lac La Belle","admin3":"40750"},{"geonameid":5259504,"name":"Village of Lannon","admin3":"42450","localeAltName":null},{"geonameid":5260177,"name":"Town of Lisbon","admin3":"44850"},{"geonameid":5262631,"name":"Village of Menomonee Falls","admin3":"51000","localeAltName":null},{"geonameid":5262711,"name":"Town of Merton","admin3":"51400"},{"geonameid":5262712,"name":"Village of Merton","admin3":"51375","localeAltName":null},{"geonameid":5263972,"name":"Village of Mukwonago","admin3":"55050","localeAltName":null},{"geonameid":5263975,"name":"Town of Mukwonago","admin3":"55075"},{"geonameid":5264057,"name":"City of Muskego","admin3":"55275","localeAltName":null},{"geonameid":5264160,"name":"Village of Nashotah","admin3":"55550","localeAltName":null},{"geonameid":5264390,"name":"City of New Berlin","admin3":"56375","localeAltName":null},{"geonameid":5264926,"name":"Village of North Prairie","admin3":"58400","localeAltName":null},{"geonameid":5265508,"name":"Village of Oconomowoc Lake","admin3":"59300","localeAltName":null},{"geonameid":5265514,"name":"Town of Oconomowoc","admin3":"59275","localeAltName":null},{"geonameid":5265537,"name":"City of Oconomowoc","admin3":"59250","localeAltName":null},{"geonameid":5265878,"name":"Town of Ottawa","admin3":"60700"},{"geonameid":5266738,"name":"City of Pewaukee","admin3":"62240"},{"geonameid":5266739,"name":"Village of Pewaukee","admin3":"62250","localeAltName":null},{"geonameid":5275011,"name":"Village of Summit","admin3":"78375"},{"geonameid":5275223,"name":"Village of Sussex","admin3":"78750","localeAltName":null},{"geonameid":5277141,"name":"Town of Vernon","admin3":"82575"},{"geonameid":5277724,"name":"Village of Wales","admin3":"83175","localeAltName":null},{"geonameid":5278065,"name":"City of Waukesha","admin3":"84250","localeAltName":null},{"geonameid":5278066,"name":"Town of Waukesha","admin3":"84275"}],"alternateNames":[{"alternatenameId":2089565,"geonameid":5279468,"isoLanguage":"en","alternateName":"Wisconsin","isPreferredName":true,"isShortName":true,"isColloquial":false,"isHistoric":false}]},"__N_SSG":true}