{"pageProps":{"locale":"en","admin2":{"geonameid":4514358,"name":"Hocking County","country":"US","admin1":"OH","admin2":"073","admin3":"","latitude":"39.4970200","longitude":"-82.4792500","localeAltName":null},"admin1":{"geonameid":5165418,"name":"Ohio","admin1":"OH","localeAltName":"Ohio"},"locations":[{"geonameid":4514155,"name":"Hide-A-Way Hills","admin3":"47740","localeAltName":null},{"geonameid":4516336,"name":"Laurelville","admin3":"61868","localeAltName":null},{"geonameid":4516989,"name":"Logan","admin3":"26488","localeAltName":null}],"admin3":[{"geonameid":4506226,"name":"Township of Benton","admin3":"05578"},{"geonameid":4511484,"name":"Township of Falls","admin3":"26488","localeAltName":null},{"geonameid":4512877,"name":"Township of Good Hope","admin3":"30842"},{"geonameid":4513238,"name":"Township of Green","admin3":"31780"},{"geonameid":4516344,"name":"Township of Laurel","admin3":"42056"},{"geonameid":4517611,"name":"Township of Marion","admin3":"47740","localeAltName":null},{"geonameid":4521119,"name":"Township of Perry","admin3":"61868","localeAltName":null},{"geonameid":4523818,"name":"Township of Salt Creek","admin3":"70142"},{"geonameid":4525418,"name":"Township of Starr","admin3":"74405"},{"geonameid":4527596,"name":"Township of Ward","admin3":"80780"},{"geonameid":4527703,"name":"Township of Washington","admin3":"81354"}],"alternateNames":[{"alternatenameId":2089549,"geonameid":5165418,"isoLanguage":"en","alternateName":"Ohio","isPreferredName":true,"isShortName":true,"isColloquial":false,"isHistoric":false}]},"__N_SSG":true}