{"pageProps":{"locale":"ro","admin2":{"geonameid":662325,"name":"Comuna Zam","country":"RO","admin1":"21","admin2":"92177","admin3":"","latitude":"46.0458000","longitude":"22.4878600"},"admin1":{"geonameid":675917,"name":"Hunedoara","admin1":"21"},"locations":[{"geonameid":686451,"name":"Almaș-Săliște","admin3":""},{"geonameid":686452,"name":"Almăşel","admin3":""},{"geonameid":683845,"name":"Brășeu","admin3":""},{"geonameid":682385,"name":"Cerbia","admin3":""},{"geonameid":679529,"name":"Deleni","admin3":""},{"geonameid":677002,"name":"Godinești","admin3":""},{"geonameid":673486,"name":"Micăneşti","admin3":""},{"geonameid":672574,"name":"Muşuroiu","admin3":""},{"geonameid":671326,"name":"Păroasa","admin3":""},{"geonameid":670175,"name":"Pogănești","admin3":""},{"geonameid":669975,"name":"Pojoga","admin3":""},{"geonameid":668171,"name":"Sălciva","admin3":""},{"geonameid":665563,"name":"Tămășești","admin3":""},{"geonameid":663938,"name":"Valea","admin3":""},{"geonameid":662327,"name":"Zam","admin3":""}],"admin3":[],"alternateNames":[]},"__N_SSG":true}