{"pageProps":{"locale":"ro","admin2":{"geonameid":679262,"name":"Comuna Dobra","country":"RO","admin1":"21","admin2":"89428","admin3":"","latitude":"45.8865400","longitude":"22.5881700"},"admin1":{"geonameid":675917,"name":"Hunedoara","admin1":"21"},"locations":[{"geonameid":686709,"name":"Abucea","admin3":""},{"geonameid":683340,"name":"Bujoru","admin3":""},{"geonameid":679267,"name":"Dobra","admin3":""},{"geonameid":678485,"name":"Făgețel","admin3":""},{"geonameid":675037,"name":"Lăpușnic","admin3":""},{"geonameid":673415,"name":"Mihăiești","admin3":""},{"geonameid":671925,"name":"Ohaba","admin3":""},{"geonameid":671404,"name":"Panc","admin3":""},{"geonameid":671396,"name":"Panc-Săliște","admin3":""},{"geonameid":669234,"name":"Rădulești","admin3":""},{"geonameid":668674,"name":"Roșcani","admin3":""},{"geonameid":666124,"name":"Stâncești","admin3":""},{"geonameid":666118,"name":"Stânceşti-Ohaba","admin3":""},{"geonameid":665978,"name":"Stretea","admin3":""}],"admin3":[],"alternateNames":[]},"__N_SSG":true}