{"pageProps":{"locale":"ro","admin2":{"geonameid":684605,"name":"Comuna Blăjeni","country":"RO","admin1":"21","admin2":"88350","admin3":"","latitude":"46.2549100","longitude":"22.9033500"},"admin1":{"geonameid":675917,"name":"Hunedoara","admin1":"21"},"locations":[{"geonameid":685916,"name":"Bădăi","admin3":""},{"geonameid":684606,"name":"Blăjeni","admin3":""},{"geonameid":684601,"name":"Blăjeni-Vulcan","admin3":""},{"geonameid":681370,"name":"Ciurila","admin3":""},{"geonameid":680207,"name":"Criș","admin3":""},{"geonameid":678892,"name":"Dragu-Brad","admin3":""},{"geonameid":676638,"name":"Groșuri","admin3":""},{"geonameid":676622,"name":"Gruilung","admin3":""},{"geonameid":670568,"name":"Plai","admin3":""},{"geonameid":668947,"name":"Reț","admin3":""},{"geonameid":668396,"name":"Ruşeşti","admin3":""},{"geonameid":668233,"name":"Sălătruc","admin3":""},{"geonameid":666725,"name":"Slinu","admin3":""},{"geonameid":666112,"name":"Stângoi","admin3":""},{"geonameid":664790,"name":"Tomuşeşti","admin3":""}],"admin3":[],"alternateNames":[]},"__N_SSG":true}