{"pageProps":{"locale":"ro","admin2":{"geonameid":677518,"name":"Oraş Geoagiu","country":"RO","admin1":"21","admin2":"89561","admin3":"","latitude":"45.9483500","longitude":"23.2002200"},"admin1":{"geonameid":675917,"name":"Hunedoara","admin1":"21"},"locations":[{"geonameid":686041,"name":"Aurel Vlaicu","admin3":""},{"geonameid":685930,"name":"Băcâia","admin3":""},{"geonameid":684007,"name":"Bozeș","admin3":""},{"geonameid":681932,"name":"Cigmău","admin3":""},{"geonameid":679689,"name":"Deal","admin3":""},{"geonameid":677539,"name":"Gelmar","admin3":""},{"geonameid":677520,"name":"Geoagiu","admin3":""},{"geonameid":677515,"name":"Geoagiu de Jos","admin3":""},{"geonameid":677513,"name":"Geoagiu de Sus","admin3":""},{"geonameid":677517,"name":"Geoagiu-Băi","admin3":""},{"geonameid":676057,"name":"Homorod","admin3":""},{"geonameid":673538,"name":"Mermezeu-Văleni","admin3":""},{"geonameid":670238,"name":"Poenari","admin3":""},{"geonameid":668965,"name":"Renghet","admin3":""},{"geonameid":665695,"name":"Suseni","admin3":""},{"geonameid":663289,"name":"Văleni","admin3":""},{"geonameid":662791,"name":"Vântuleşti","admin3":""}],"admin3":[],"alternateNames":[]},"__N_SSG":true}