{"pageProps":{"locale":"en","admin2":{"geonameid":5811704,"name":"Spokane County","country":"US","admin1":"WA","admin2":"063","admin3":"","latitude":"47.6206400","longitude":"-117.4040100"},"admin1":{"geonameid":5815135,"name":"Washington","admin1":"WA","localeAltName":"Washington"},"locations":[{"geonameid":5785378,"name":"Airway Heights","admin3":""},{"geonameid":5789856,"name":"Cheney","admin3":""},{"geonameid":5791127,"name":"Country Homes","admin3":""},{"geonameid":5792143,"name":"Deer Park","admin3":""},{"geonameid":5792474,"name":"Dishman","admin3":""},{"geonameid":7261152,"name":"Fairchild Air Force Base","admin3":""},{"geonameid":5794098,"name":"Fairwood","admin3":""},{"geonameid":5800870,"name":"Liberty Lake","admin3":""},{"geonameid":5802984,"name":"Mead","admin3":""},{"geonameid":5803066,"name":"Medical Lake","admin3":""},{"geonameid":5803545,"name":"Millwood","admin3":""},{"geonameid":5805782,"name":"Opportunity","admin3":""},{"geonameid":7262053,"name":"Otis Orchards-East Farms","admin3":""},{"geonameid":5811696,"name":"Spokane","admin3":""},{"geonameid":5811729,"name":"Spokane Valley","admin3":""},{"geonameid":5813814,"name":"Town and Country","admin3":""},{"geonameid":5813889,"name":"Trentwood","admin3":""},{"geonameid":5814686,"name":"Veradale","admin3":""}],"admin3":[{"geonameid":7172842,"name":"City of Cheney","admin3":"7172842"},{"geonameid":7172899,"name":"City of Airway Heights","admin3":"7172899"},{"geonameid":7173295,"name":"City of Deer Park","admin3":"7173295"},{"geonameid":7173672,"name":"City of Liberty Lake","admin3":"7173672"},{"geonameid":7173837,"name":"City of Medical Lake","admin3":"7173837"},{"geonameid":7174485,"name":"City of Spokane Valley","admin3":"7174485"},{"geonameid":7174980,"name":"Town of Rockford","admin3":"7174980"},{"geonameid":7175028,"name":"Town of Fairfield","admin3":"7175028"},{"geonameid":7175290,"name":"Town of Latah","admin3":"7175290"},{"geonameid":7175411,"name":"City of Millwood","admin3":"7175411"},{"geonameid":7175712,"name":"City of Spangle","admin3":"7175712"},{"geonameid":7175857,"name":"Town of Waverly","admin3":"7175857"}],"alternateNames":[{"alternatenameId":2089568,"geonameid":5815135,"isoLanguage":"en","alternateName":"Washington","isPreferredName":true,"isShortName":true,"isColloquial":false,"isHistoric":false}]},"__N_SSG":true}