{"pageProps":{"locale":"en","admin2":{"geonameid":5815891,"name":"Whitman County","country":"US","admin1":"WA","admin2":"075","admin3":"","latitude":"46.9011700","longitude":"-117.5229900"},"admin1":{"geonameid":5815135,"name":"Washington","admin1":"WA","localeAltName":"Washington"},"locations":[{"geonameid":5790554,"name":"Colfax","admin3":""},{"geonameid":5844156,"name":"Palouse","admin3":""},{"geonameid":5807540,"name":"Pullman","admin3":""}],"admin3":[{"geonameid":7173206,"name":"City of Colfax","admin3":"7173206"},{"geonameid":7174046,"name":"City of Palouse","admin3":"7174046"},{"geonameid":7174147,"name":"City of Pullman","admin3":"7174147"},{"geonameid":7174550,"name":"City of Tekoa","admin3":"7174550"},{"geonameid":7174769,"name":"Town of Albion","admin3":"7174769"},{"geonameid":7174909,"name":"Town of Endicott","admin3":"7174909"},{"geonameid":7174994,"name":"Town of Rosalia","admin3":"7174994"},{"geonameid":7175011,"name":"Town of Saint John","admin3":"7175011"},{"geonameid":7175038,"name":"Town of Farmington","admin3":"7175038"},{"geonameid":7175084,"name":"Town of Garfield","admin3":"7175084"},{"geonameid":7175265,"name":"Town of LaCrosse","admin3":"7175265"},{"geonameid":7175286,"name":"Town of Lamont","admin3":"7175286"},{"geonameid":7175343,"name":"Town of Malden","admin3":"7175343"},{"geonameid":7175475,"name":"Town of Oakesdale","admin3":"7175475"},{"geonameid":7175634,"name":"Town of Colton","admin3":"7175634"},{"geonameid":7175812,"name":"Town of Uniontown","admin3":"7175812"}],"alternateNames":[{"alternatenameId":2089568,"geonameid":5815135,"isoLanguage":"en","alternateName":"Washington","isPreferredName":true,"isShortName":true,"isColloquial":false,"isHistoric":false}]},"__N_SSG":true}