{"pageProps":{"locale":"en","admin2":{"geonameid":2753104,"name":"Gemeente Kampen","country":"NL","admin1":"15","admin2":"0166","admin3":"","latitude":"52.5618100","longitude":"5.9153500"},"admin1":{"geonameid":2748838,"name":"Provincie Overijssel","admin1":"15"},"locations":[{"geonameid":2758888,"name":"Bisschopswetering","admin3":""},{"geonameid":2758175,"name":"Brunnepe","admin3":""},{"geonameid":2757544,"name":"De Heuvels","admin3":""},{"geonameid":2757144,"name":"De Plas","admin3":""},{"geonameid":2756918,"name":"De Zande","admin3":""},{"geonameid":2755893,"name":"Flevowijk","admin3":""},{"geonameid":2755376,"name":"Grafhorst","admin3":""},{"geonameid":2753930,"name":"Hogeweg","admin3":""},{"geonameid":2753358,"name":"IJsselmuiden","admin3":""},{"geonameid":2753106,"name":"Kampen","admin3":""},{"geonameid":2753092,"name":"Kamperveen","admin3":""},{"geonameid":2750129,"name":"Nieuwstad","admin3":""},{"geonameid":2749453,"name":"Oosterholt","admin3":""},{"geonameid":2748967,"name":"Oude Wetering","admin3":""},{"geonameid":2747356,"name":"s-Heerenbroek","admin3":""},{"geonameid":2745790,"name":"Veecaten","admin3":""},{"geonameid":2744369,"name":"Wilsum","admin3":""},{"geonameid":2744107,"name":"Zalk","admin3":""},{"geonameid":2744092,"name":"Zandberg","admin3":""},{"geonameid":2743789,"name":"Zuideinde","admin3":""},{"geonameid":2743540,"name":"Zwartendijk","admin3":""}],"admin3":[],"alternateNames":[{"alternatenameId":11907794,"geonameid":2748838,"isoLanguage":"de","alternateName":"Overijssel","isPreferredName":true,"isShortName":true,"isColloquial":false,"isHistoric":false}]},"__N_SSG":true}