{"pageProps":{"locale":"it","admin2":{"geonameid":3164418,"name":"Provincia di Vicenza","country":"IT","admin1":"20","admin2":"VI","admin3":"","latitude":"45.6666700","longitude":"11.4500000","localeAltName":"Vicenza"},"admin1":{"geonameid":3164604,"name":"Veneto","admin1":"20","localeAltName":null},"locations":[{"geonameid":3183410,"name":"Agugliaro","admin3":"024001","localeAltName":null},{"geonameid":3183325,"name":"Albettone","admin3":"024002","localeAltName":null},{"geonameid":6535001,"name":"Alonte","admin3":"024003","localeAltName":null},{"geonameid":3183169,"name":"Altavilla Vicentina","admin3":"024004","localeAltName":null},{"geonameid":8950300,"name":"Ancignano","admin3":"024091","localeAltName":null},{"geonameid":3182903,"name":"Arcugnano-Torri","admin3":"024006","localeAltName":null},{"geonameid":3182789,"name":"Arsiero","admin3":"024007","localeAltName":null},{"geonameid":3182757,"name":"Arzignano","admin3":"024008","localeAltName":null},{"geonameid":3182744,"name":"Asiago","admin3":"024009","localeAltName":null},{"geonameid":8950092,"name":"Bagnolo","admin3":"024052","localeAltName":null},{"geonameid":3182399,"name":"Barbarano Vicentino","admin3":"024124","localeAltName":null},{"geonameid":3182297,"name":"Bassano del Grappa","admin3":"024012","localeAltName":null},{"geonameid":8948758,"name":"Belvedere","admin3":"024104","localeAltName":null},{"geonameid":3182097,"name":"Bevadoro","admin3":"024021","localeAltName":null},{"geonameid":3181910,"name":"Bolzano Vicentino","admin3":"024013","localeAltName":null},{"geonameid":3181583,"name":"Breganze","admin3":"024014","localeAltName":null},{"geonameid":3181572,"name":"Brendola","admin3":"024015","localeAltName":null},{"geonameid":3181549,"name":"Bressanvido","admin3":"024016","localeAltName":null},{"geonameid":6535004,"name":"Brogliano","admin3":"024017","localeAltName":null},{"geonameid":8435855,"name":"Cagnano","admin3":"024079","localeAltName":null},{"geonameid":3181209,"name":"Caldogno-Rettorgole-Cresole","admin3":"024018","localeAltName":null},{"geonameid":3181166,"name":"Caltrano","admin3":"024019","localeAltName":null},{"geonameid":3181151,"name":"Calvene","admin3":"024020","localeAltName":null},{"geonameid":3181075,"name":"Camisano Vicentino","admin3":"024021","localeAltName":null},{"geonameid":8949320,"name":"Campese","admin3":"024012","localeAltName":null},{"geonameid":3181014,"name":"Campiglia dei Berici","admin3":"024022","localeAltName":null},{"geonameid":6535005,"name":"Campolongo sul Brenta","admin3":"024125","localeAltName":null},{"geonameid":9036120,"name":"Canove di Roana","admin3":"024085","localeAltName":null},{"geonameid":6535006,"name":"Carrè","admin3":"024024","localeAltName":null},{"geonameid":6535580,"name":"Cartigliano","admin3":"024025","localeAltName":null},{"geonameid":3179814,"name":"Casoni","admin3":"024070","localeAltName":null},{"geonameid":6534241,"name":"Cassola","admin3":"024026","localeAltName":null},{"geonameid":6534695,"name":"Castegnero","admin3":"024027","localeAltName":null},{"geonameid":3179674,"name":"Castelgomberto","admin3":"024028","localeAltName":null},{"geonameid":8948857,"name":"Castelnovo","admin3":"024048","localeAltName":null},{"geonameid":3179155,"name":"Centrale","admin3":"024122","localeAltName":null},{"geonameid":8949161,"name":"Cereda-Cozza Cornedo","admin3":"024034","localeAltName":null},{"geonameid":3178938,"name":"Cesuna","admin3":"024085","localeAltName":null},{"geonameid":3178884,"name":"Chiampo","admin3":"024029","localeAltName":null},{"geonameid":3178767,"name":"Chiuppano","admin3":"024030","localeAltName":null},{"geonameid":3178637,"name":"Cismon del Grappa","admin3":"024125","localeAltName":null},{"geonameid":3178476,"name":"Cogollo del Cengio","admin3":"024032","localeAltName":null},{"geonameid":3178205,"name":"Conco","admin3":"024127","localeAltName":null},{"geonameid":3178072,"name":"Cornedo Vicentino","admin3":"024034","localeAltName":null},{"geonameid":3177912,"name":"Costabissara","admin3":"024035","localeAltName":null},{"geonameid":3177845,"name":"Creazzo","admin3":"024036","localeAltName":null},{"geonameid":8949330,"name":"Crispi Cavour","admin3":"024035","localeAltName":null},{"geonameid":3177456,"name":"Dueville","admin3":"024038","localeAltName":null},{"geonameid":6535007,"name":"Enego","admin3":"024039","localeAltName":null},{"geonameid":3177201,"name":"Fara Vicentino","admin3":"024040","localeAltName":null},{"geonameid":3176528,"name":"Friola","admin3":"024082","localeAltName":null},{"geonameid":3176367,"name":"Gallio","admin3":"024042","localeAltName":null},{"geonameid":6535581,"name":"Gambellara","admin3":"024043","localeAltName":null},{"geonameid":8949418,"name":"Giavenale","admin3":"024100","localeAltName":null},{"geonameid":3175808,"name":"Grisignano di Zocco","admin3":"024046","localeAltName":null},{"geonameid":3175745,"name":"Grumolo delle Abbadesse","admin3":"024047","localeAltName":null},{"geonameid":3175744,"name":"Grumolo Pedemonte","admin3":"024122","localeAltName":null},{"geonameid":3175414,"name":"Isola Vicentina","admin3":"024048","localeAltName":null},{"geonameid":7302321,"name":"Lanzè","admin3":"024083","localeAltName":null},{"geonameid":3174808,"name":"Levà","admin3":"024062","localeAltName":null},{"geonameid":7302322,"name":"Lisiera","admin3":"024013","localeAltName":null},{"geonameid":3174603,"name":"Longa","admin3":"024099","localeAltName":null},{"geonameid":3174599,"name":"Longare","admin3":"024051","localeAltName":null},{"geonameid":3174587,"name":"Lonigo","admin3":"024052","localeAltName":null},{"geonameid":6534661,"name":"Lugo di Vicenza","admin3":"024053","localeAltName":null},{"geonameid":3174476,"name":"Lumignano","admin3":"024051","localeAltName":null},{"geonameid":3174426,"name":"Lusiana","admin3":"024127","localeAltName":null},{"geonameid":3174139,"name":"Malo","admin3":"024055","localeAltName":null},{"geonameid":8950100,"name":"Maragnole","admin3":"024014","localeAltName":null},{"geonameid":3174014,"name":"Marano Vicentino","admin3":"024056","localeAltName":null},{"geonameid":3173883,"name":"Marola","admin3":"024108","localeAltName":null},{"geonameid":3173878,"name":"Marostica","admin3":"024057","localeAltName":null},{"geonameid":6535008,"name":"Mason Vicentino","admin3":"024126","localeAltName":null},{"geonameid":8948921,"name":"Meledo","admin3":"024098","localeAltName":null},{"geonameid":3173384,"name":"Mirabella","admin3":"024014","localeAltName":null},{"geonameid":8949359,"name":"Molino-Mozzi-Bittarelli","admin3":"024005","localeAltName":null},{"geonameid":3172948,"name":"Monte di Malo","admin3":"024063","localeAltName":null},{"geonameid":3173030,"name":"Montebello Vicentino","admin3":"024060","localeAltName":null},{"geonameid":3172979,"name":"Montecchio Maggiore-Alte Ceccato","admin3":"024061","localeAltName":null},{"geonameid":6535009,"name":"Montecchio Precalcino","admin3":"024062","localeAltName":null},{"geonameid":6535010,"name":"Montegalda","admin3":"024064","localeAltName":null},{"geonameid":3172910,"name":"Montegaldella","admin3":"024065","localeAltName":null},{"geonameid":3172712,"name":"Monteviale","admin3":"024066","localeAltName":null},{"geonameid":3172682,"name":"Monticello Conte Otto","admin3":"024067","localeAltName":null},{"geonameid":8949185,"name":"Monticello di Fara","admin3":"024098","localeAltName":null},{"geonameid":3172638,"name":"Montorso Vicentino","admin3":"024068","localeAltName":null},{"geonameid":3172514,"name":"Motta","admin3":"024035","localeAltName":null},{"geonameid":8950187,"name":"Mure","admin3":"024126","localeAltName":null},{"geonameid":6535012,"name":"Mussolente","admin3":"024070","localeAltName":null},{"geonameid":8949843,"name":"Nogarazza","admin3":"024006","localeAltName":null},{"geonameid":3172183,"name":"Nove","admin3":"024073","localeAltName":null},{"geonameid":3172173,"name":"Noventa Vicentina","admin3":"024074","localeAltName":null},{"geonameid":8949324,"name":"Novoledo","admin3":"024118","localeAltName":null},{"geonameid":3171965,"name":"Orgiano","admin3":"024075","localeAltName":null},{"geonameid":6534608,"name":"Pedemonte","admin3":"024076","localeAltName":null},{"geonameid":8949713,"name":"Pederiva","admin3":"024123","localeAltName":null},{"geonameid":3170977,"name":"Pianezze","admin3":"024077","localeAltName":null},{"geonameid":8950274,"name":"Pianezze del Lago","admin3":"024006","localeAltName":null},{"geonameid":3170655,"name":"Piovene Rocchette","admin3":"024078","localeAltName":null},{"geonameid":8950034,"name":"Poiana di Granfion","admin3":"024046","localeAltName":null},{"geonameid":3170414,"name":"Poiana Maggiore","admin3":"024079","localeAltName":null},{"geonameid":8949201,"name":"Poianella","admin3":"024016","localeAltName":null},{"geonameid":3170271,"name":"Ponte di Barbarano","admin3":"024124","localeAltName":null},{"geonameid":9036184,"name":"Ponte di Castegnero","admin3":"024027","localeAltName":null},{"geonameid":9036115,"name":"Ponte di Nanto","admin3":"024071","localeAltName":null},{"geonameid":6535013,"name":"Pove del Grappa","admin3":"024081","localeAltName":null},{"geonameid":3169993,"name":"Pozzoleone","admin3":"024082","localeAltName":null},{"geonameid":9036364,"name":"Preara-Moraro-Levà Nord","admin3":"024062","localeAltName":null},{"geonameid":8949502,"name":"Provinciale Gasparona","admin3":"024077","localeAltName":null},{"geonameid":3169661,"name":"Quinto Vicentino","admin3":"024083","localeAltName":null},{"geonameid":3169619,"name":"Rampazzo","admin3":"024021","localeAltName":null},{"geonameid":3169536,"name":"Recoaro Terme","admin3":"024084","localeAltName":null},{"geonameid":3169218,"name":"Roana","admin3":"024085","localeAltName":null},{"geonameid":8949670,"name":"Rodeghieri-Rigoni-Podestà-Costa","admin3":"024009","localeAltName":null},{"geonameid":6534222,"name":"Romano d'Ezzelino","admin3":"024086","localeAltName":null},{"geonameid":3168970,"name":"Rosà","admin3":"024087","localeAltName":null},{"geonameid":3168913,"name":"Rossano Veneto","admin3":"024088","localeAltName":null},{"geonameid":6535585,"name":"Rotzo","admin3":"024089","localeAltName":null},{"geonameid":3168838,"name":"Rozzampia","admin3":"024105","localeAltName":null},{"geonameid":8950056,"name":"Sacro Cuore","admin3":"024086","localeAltName":null},{"geonameid":8950287,"name":"San Michele","admin3":"024012","localeAltName":null},{"geonameid":3167949,"name":"San Nazario","admin3":"024125","localeAltName":null},{"geonameid":3172413,"name":"San Pietro Mussolino","admin3":"024094","localeAltName":null},{"geonameid":3167785,"name":"San Quirico","admin3":"024111","localeAltName":null},{"geonameid":3167180,"name":"San Vito di Leguzzano","admin3":"024096","localeAltName":null},{"geonameid":8948750,"name":"San Zeno-San Giuseppe","admin3":"024026","localeAltName":null},{"geonameid":3168407,"name":"Sandrigo","admin3":"024091","localeAltName":null},{"geonameid":8950166,"name":"Santo","admin3":"024105","localeAltName":null},{"geonameid":3167268,"name":"Santorso","admin3":"024095","localeAltName":null},{"geonameid":3167138,"name":"Sarcedo","admin3":"024097","localeAltName":null},{"geonameid":6535014,"name":"Sarego","admin3":"024098","localeAltName":null},{"geonameid":8950378,"name":"Sarmego","admin3":"024047","localeAltName":null},{"geonameid":3166929,"name":"Schiavon","admin3":"024099","localeAltName":null},{"geonameid":3166917,"name":"Schio","admin3":"024100","localeAltName":null},{"geonameid":8950029,"name":"Secula","admin3":"024051","localeAltName":null},{"geonameid":8950112,"name":"Seghe","admin3":"024115","localeAltName":null},{"geonameid":3166453,"name":"Solagna","admin3":"024101","localeAltName":null},{"geonameid":3166341,"name":"Sossano","admin3":"024102","localeAltName":null},{"geonameid":6535587,"name":"Sovizzo","admin3":"024103","localeAltName":null},{"geonameid":8949199,"name":"Tavernelle","admin3":"024103","localeAltName":null},{"geonameid":3165699,"name":"Tezze","admin3":"024104","localeAltName":null},{"geonameid":3165702,"name":"Tezze","admin3":"024008","localeAltName":null},{"geonameid":3165698,"name":"Thiene","admin3":"024105","localeAltName":null},{"geonameid":3165511,"name":"Tormeno","admin3":"024006","localeAltName":null},{"geonameid":3165473,"name":"Torrebelvicino","admin3":"024107","localeAltName":null},{"geonameid":3165394,"name":"Torri di Quartesolo","admin3":"024108","localeAltName":null},{"geonameid":8950370,"name":"Treschè Conca","admin3":"024085","localeAltName":null},{"geonameid":3165157,"name":"Trissino","admin3":"024110","localeAltName":null},{"geonameid":3164954,"name":"Valdagno","admin3":"024111","localeAltName":null},{"geonameid":3164886,"name":"Valle","admin3":"024028","localeAltName":null},{"geonameid":3164804,"name":"Valli del Pasubio","admin3":"024113","localeAltName":null},{"geonameid":8949821,"name":"Valproto","admin3":"024083","localeAltName":null},{"geonameid":3164762,"name":"Valrovina","admin3":"024012","localeAltName":null},{"geonameid":3164754,"name":"Valstagna","admin3":"024125","localeAltName":null},{"geonameid":8950294,"name":"Velo","admin3":"024127","localeAltName":null},{"geonameid":9036162,"name":"Velo","admin3":"024115","localeAltName":null},{"geonameid":6534613,"name":"Velo d'Astico","admin3":"024115","localeAltName":null},{"geonameid":3164419,"name":"Vicenza","admin3":"024116","localeAltName":null},{"geonameid":8949211,"name":"Vigardolo","admin3":"024067","localeAltName":null},{"geonameid":9036187,"name":"Villa di Molvena","admin3":"024126","localeAltName":null},{"geonameid":3164237,"name":"Villaganzerla","admin3":"024027","localeAltName":null},{"geonameid":8949394,"name":"Villaggio Montegrappa","admin3":"024083","localeAltName":null},{"geonameid":8950358,"name":"Villaraspa","admin3":"024126","localeAltName":null},{"geonameid":3164116,"name":"Villaverla","admin3":"024118","localeAltName":null},{"geonameid":3164003,"name":"Vo","admin3":"024015","localeAltName":null},{"geonameid":3163916,"name":"Zanè","admin3":"024119","localeAltName":null},{"geonameid":3163881,"name":"Zermeghedo","admin3":"024120","localeAltName":null},{"geonameid":8949978,"name":"Zona Industriale","admin3":"024100","localeAltName":null},{"geonameid":6535588,"name":"Zugliano","admin3":"024122","localeAltName":null}],"admin3":[{"geonameid":3172949,"name":"Monte di Malo","admin3":"024063","localeAltName":null},{"geonameid":6536211,"name":"Caldogno","admin3":"024018","localeAltName":null},{"geonameid":6536268,"name":"Lonigo","admin3":"024052","localeAltName":null},{"geonameid":6536609,"name":"Agugliaro","admin3":"024001","localeAltName":null},{"geonameid":6536611,"name":"Arsiero","admin3":"024007","localeAltName":null},{"geonameid":6536612,"name":"Arzignano","admin3":"024008","localeAltName":null},{"geonameid":6536613,"name":"Bolzano Vicentino","admin3":"024013","localeAltName":null},{"geonameid":6536614,"name":"Bressanvido","admin3":"024016","localeAltName":null},{"geonameid":6536615,"name":"Caltrano","admin3":"024019","localeAltName":null},{"geonameid":6536616,"name":"Calvene","admin3":"024020","localeAltName":null},{"geonameid":6536617,"name":"Castelgomberto","admin3":"024028","localeAltName":null},{"geonameid":6536618,"name":"Cornedo Vicentino","admin3":"024034","localeAltName":null},{"geonameid":6536619,"name":"Costabissara","admin3":"024035","localeAltName":null},{"geonameid":6536620,"name":"Grumolo delle Abbadesse","admin3":"024047","localeAltName":null},{"geonameid":6536621,"name":"Marostica","admin3":"024057","localeAltName":null},{"geonameid":6536622,"name":"Monteviale","admin3":"024066","localeAltName":null},{"geonameid":6536623,"name":"Orgiano","admin3":"024075","localeAltName":null},{"geonameid":6536624,"name":"Pojana Maggiore","admin3":"024079","localeAltName":null},{"geonameid":6536625,"name":"Pozzoleone","admin3":"024082","localeAltName":null},{"geonameid":6536626,"name":"Recoaro Terme","admin3":"024084","localeAltName":null},{"geonameid":6536627,"name":"Salcedo","admin3":"024090"},{"geonameid":6536628,"name":"Santorso","admin3":"024095","localeAltName":null},{"geonameid":6536629,"name":"Schiavon","admin3":"024099","localeAltName":null},{"geonameid":6536630,"name":"Torri di Quartesolo","admin3":"024108","localeAltName":null},{"geonameid":6536631,"name":"Villaverla","admin3":"024118","localeAltName":null},{"geonameid":6536632,"name":"Zermeghedo","admin3":"024120","localeAltName":null},{"geonameid":6538250,"name":"Albettone","admin3":"024002","localeAltName":null},{"geonameid":6538251,"name":"Altavilla Vicentina","admin3":"024004","localeAltName":null},{"geonameid":6538252,"name":"Bassano del Grappa","admin3":"024012","localeAltName":null},{"geonameid":6538253,"name":"Breganze","admin3":"024014","localeAltName":null},{"geonameid":6538254,"name":"Camisano Vicentino","admin3":"024021","localeAltName":null},{"geonameid":6538255,"name":"Campiglia dei Berici","admin3":"024022","localeAltName":null},{"geonameid":6538256,"name":"Chiampo","admin3":"024029","localeAltName":null},{"geonameid":6538257,"name":"Chiuppano","admin3":"024030","localeAltName":null},{"geonameid":6538259,"name":"Cogollo del Cengio","admin3":"024032","localeAltName":null},{"geonameid":6538261,"name":"Crespadoro","admin3":"024037"},{"geonameid":6538262,"name":"Foza","admin3":"024041"},{"geonameid":6538263,"name":"Grisignano di Zocco","admin3":"024046","localeAltName":null},{"geonameid":6538264,"name":"Lastebasse","admin3":"024050"},{"geonameid":6538266,"name":"Montebello Vicentino","admin3":"024060","localeAltName":null},{"geonameid":6538267,"name":"Rossano Veneto","admin3":"024088","localeAltName":null},{"geonameid":6538268,"name":"Sandrigo","admin3":"024091","localeAltName":null},{"geonameid":6538269,"name":"San Vito di Leguzzano","admin3":"024096","localeAltName":null},{"geonameid":6538270,"name":"Schio","admin3":"024100","localeAltName":null},{"geonameid":6538271,"name":"Solagna","admin3":"024101","localeAltName":null},{"geonameid":6538272,"name":"Villaga","admin3":"024117"},{"geonameid":6538273,"name":"Zanè","admin3":"024119","localeAltName":null},{"geonameid":6539591,"name":"Nanto","admin3":"024071","localeAltName":null},{"geonameid":6539686,"name":"Valdagno","admin3":"024111","localeAltName":null},{"geonameid":6540211,"name":"Arcugnano","admin3":"024006","localeAltName":null},{"geonameid":6540214,"name":"Montecchio Maggiore","admin3":"024061","localeAltName":null},{"geonameid":6540249,"name":"Longare","admin3":"024051","localeAltName":null},{"geonameid":6540250,"name":"Malo","admin3":"024055","localeAltName":null},{"geonameid":6540380,"name":"Dueville","admin3":"024038","localeAltName":null},{"geonameid":6540381,"name":"Marano Vicentino","admin3":"024056","localeAltName":null},{"geonameid":6540382,"name":"Montorso Vicentino","admin3":"024068","localeAltName":null},{"geonameid":6540383,"name":"Nove","admin3":"024073","localeAltName":null},{"geonameid":6540384,"name":"Posina","admin3":"024080"},{"geonameid":6540385,"name":"Rosà","admin3":"024087","localeAltName":null},{"geonameid":6540386,"name":"Thiene","admin3":"024105","localeAltName":null},{"geonameid":6540387,"name":"Tonezza del Cimone","admin3":"024106"},{"geonameid":6540388,"name":"Trissino","admin3":"024110","localeAltName":null},{"geonameid":6540982,"name":"Asiago","admin3":"024009","localeAltName":null},{"geonameid":6540983,"name":"Brendola","admin3":"024015","localeAltName":null},{"geonameid":6540984,"name":"Gallio","admin3":"024042","localeAltName":null},{"geonameid":6540985,"name":"Pianezze","admin3":"024077","localeAltName":null},{"geonameid":6540986,"name":"Sarcedo","admin3":"024097","localeAltName":null},{"geonameid":6540987,"name":"Sossano","admin3":"024102","localeAltName":null},{"geonameid":6540988,"name":"Valli del Pasubio","admin3":"024113","localeAltName":null},{"geonameid":6540990,"name":"Zovencedo","admin3":"024121"},{"geonameid":6541465,"name":"Vicenza","admin3":"024116","localeAltName":null},{"geonameid":6541530,"name":"Tezze sul Brenta","admin3":"024104","localeAltName":null},{"geonameid":6541537,"name":"Roana","admin3":"024085","localeAltName":null},{"geonameid":6541569,"name":"Fara Vicentino","admin3":"024040","localeAltName":null},{"geonameid":6541596,"name":"Montegaldella","admin3":"024065","localeAltName":null},{"geonameid":6541597,"name":"Noventa Vicentina","admin3":"024074","localeAltName":null},{"geonameid":6541598,"name":"Piovene Rocchette","admin3":"024078","localeAltName":null},{"geonameid":6541814,"name":"Isola Vicentina","admin3":"024048","localeAltName":null},{"geonameid":6541815,"name":"Monticello Conte Otto","admin3":"024067","localeAltName":null},{"geonameid":6541816,"name":"Quinto Vicentino","admin3":"024083","localeAltName":null},{"geonameid":6541817,"name":"Torrebelvicino","admin3":"024107","localeAltName":null},{"geonameid":6542248,"name":"San Pietro Mussolino","admin3":"024094","localeAltName":null},{"geonameid":6542289,"name":"Creazzo","admin3":"024036","localeAltName":null},{"geonameid":6542300,"name":"Romano d'Ezzelino","admin3":"024086","localeAltName":null},{"geonameid":6542316,"name":"Cassola","admin3":"024026","localeAltName":null},{"geonameid":6542656,"name":"Pedemonte","admin3":"024076","localeAltName":null},{"geonameid":6542660,"name":"Valdastico","admin3":"024112"},{"geonameid":6542661,"name":"Velo d'Astico","admin3":"024115","localeAltName":null},{"geonameid":6542708,"name":"Lugo di Vicenza","admin3":"024053","localeAltName":null},{"geonameid":6542734,"name":"Castegnero","admin3":"024027","localeAltName":null},{"geonameid":6542987,"name":"Alonte","admin3":"024003","localeAltName":null},{"geonameid":6542988,"name":"Altissimo","admin3":"024005","localeAltName":null},{"geonameid":6542989,"name":"Asigliano Veneto","admin3":"024010"},{"geonameid":6542990,"name":"Brogliano","admin3":"024017","localeAltName":null},{"geonameid":6542992,"name":"Carrè","admin3":"024024","localeAltName":null},{"geonameid":6542993,"name":"Enego","admin3":"024039","localeAltName":null},{"geonameid":6542995,"name":"Montecchio Precalcino","admin3":"024062","localeAltName":null},{"geonameid":6542996,"name":"Montegalda","admin3":"024064","localeAltName":null},{"geonameid":6542998,"name":"Mussolente","admin3":"024070","localeAltName":null},{"geonameid":6542999,"name":"Pove del Grappa","admin3":"024081","localeAltName":null},{"geonameid":6543000,"name":"Sarego","admin3":"024098","localeAltName":null},{"geonameid":6543561,"name":"Cartigliano","admin3":"024025","localeAltName":null},{"geonameid":6543562,"name":"Gambellara","admin3":"024043","localeAltName":null},{"geonameid":6543563,"name":"Gambugliano","admin3":"024044"},{"geonameid":6543564,"name":"Laghi","admin3":"024049"},{"geonameid":6543565,"name":"Nogarole Vicentino","admin3":"024072"},{"geonameid":6543566,"name":"Rotzo","admin3":"024089","localeAltName":null},{"geonameid":6543568,"name":"Sovizzo","admin3":"024103","localeAltName":null},{"geonameid":6543569,"name":"Zugliano","admin3":"024122","localeAltName":null},{"geonameid":11550076,"name":"Val Liona","admin3":"024123","localeAltName":null},{"geonameid":12032186,"name":"Colceresa","admin3":"024126","localeAltName":null},{"geonameid":12032189,"name":"Lusiana Conco","admin3":"024127","localeAltName":null},{"geonameid":12032197,"name":"Barbarano Mossano","admin3":"024124","localeAltName":null},{"geonameid":12032201,"name":"Valbrenta","admin3":"024125","localeAltName":null}],"alternateNames":[{"alternatenameId":1347184,"geonameid":3164418,"isoLanguage":"it","alternateName":"Vicenza","isPreferredName":true,"isShortName":true,"isColloquial":false,"isHistoric":false}]},"__N_SSG":true}