{"pageProps":{"locale":"en","admin2":{"geonameid":2653814,"name":"County of Ceredigion","country":"GB","admin1":"WLS","admin2":"X6","admin3":"","latitude":"52.2500000","longitude":"-4.0000000","localeAltName":"Ceredigion"},"admin1":{"geonameid":2634895,"name":"Wales","admin1":"WLS","localeAltName":"Wales"},"locations":[{"geonameid":2657851,"name":"Aber-Arth"},{"geonameid":2657850,"name":"Aberaeron"},{"geonameid":8379197,"name":"Abermagwr"},{"geonameid":2657789,"name":"Aberporth"},{"geonameid":2657782,"name":"Aberystwyth"},{"geonameid":2657664,"name":"Adpar"},{"geonameid":2656398,"name":"Bangor Teifi"},{"geonameid":2655796,"name":"Bettws-Evan"},{"geonameid":2655411,"name":"Blaenpenal"},{"geonameid":2655410,"name":"Blaenporth"},{"geonameid":2655162,"name":"Borth"},{"geonameid":2655047,"name":"Bow Street"},{"geonameid":2654577,"name":"Bronant"},{"geonameid":2654574,"name":"Brongwyn"},{"geonameid":8063566,"name":"Brynhoffnant"},{"geonameid":2653854,"name":"Capel Bangor"},{"geonameid":6946763,"name":"Capel Seion"},{"geonameid":2653853,"name":"Capel-Bettws Lleucu"},{"geonameid":2653849,"name":"Capel-Cynon"},{"geonameid":2653818,"name":"Cardigan"},{"geonameid":2653442,"name":"Cellan"},{"geonameid":2653433,"name":"Cenarth"},{"geonameid":2653004,"name":"Cilcennin"},{"geonameid":2653001,"name":"Ciliau-Aeron"},{"geonameid":2651995,"name":"Cribyn"},{"geonameid":11593163,"name":"Cross Inn"},{"geonameid":2651868,"name":"Cross Inn"},{"geonameid":2651650,"name":"Cwm-coy"},{"geonameid":2651641,"name":"Cwrt-newydd"},{"geonameid":2651298,"name":"Devils Bridge"},{"geonameid":2651260,"name":"Dihewid"},{"geonameid":2650593,"name":"Dyffryn-castell"},{"geonameid":2650178,"name":"Eglwys-fach"},{"geonameid":2650124,"name":"Elerch"},{"geonameid":2634976,"name":"Ferwig"},{"geonameid":2648819,"name":"Gartheli"},{"geonameid":2635582,"name":"Gwbert"},{"geonameid":2647302,"name":"Hawen"},{"geonameid":2647110,"name":"Henfynyw Upper"},{"geonameid":11593329,"name":"Henry E Robbins Jr"},{"geonameid":2644981,"name":"Lampeter"},{"geonameid":2643971,"name":"Llan-non"},{"geonameid":2644195,"name":"Llanafan"},{"geonameid":2644187,"name":"Llanarth"},{"geonameid":2644182,"name":"Llanbadarn-fawr"},{"geonameid":2644161,"name":"Llancynfelyn"},{"geonameid":2644157,"name":"Llanddeiniol"},{"geonameid":2644153,"name":"Llanddewi-Brefi"},{"geonameid":2644113,"name":"Llandygwydd"},{"geonameid":2644108,"name":"Llandyssiliogogo"},{"geonameid":2644107,"name":"Llandysul"},{"geonameid":2644096,"name":"Llanerch-Aeron"},{"geonameid":2644083,"name":"Llanfair Clydogau"},{"geonameid":2644068,"name":"Llanfihangel-geneuâ€™r-glyn"},{"geonameid":2644061,"name":"Llanfihangel-y-creuddyn"},{"geonameid":2644057,"name":"Llanfihangel-Ystrad"},{"geonameid":2644035,"name":"Llangeitho"},{"geonameid":9884565,"name":"Llangoedmor"},{"geonameid":2644016,"name":"Llangranog"},{"geonameid":2644007,"name":"Llangwyryfon"},{"geonameid":2644006,"name":"Llangybi"},{"geonameid":2643999,"name":"Llangynllo"},{"geonameid":2643988,"name":"Llanilar"},{"geonameid":2643987,"name":"Llanina"},{"geonameid":2643979,"name":"Llanllwchaiarn"},{"geonameid":2643962,"name":"Llanrhystud","localeAltName":"Llanrhystud"},{"geonameid":2643952,"name":"Llansantffraid"},{"geonameid":2643917,"name":"Llanwenog"},{"geonameid":2643912,"name":"Llanwnen"},{"geonameid":2643899,"name":"Llanychaiarn"},{"geonameid":2643889,"name":"Lledrod"},{"geonameid":2643876,"name":"Llwyn-Dafydd"},{"geonameid":2641932,"name":"Mydroilin"},{"geonameid":2641900,"name":"Nantcwnlle"},{"geonameid":2641588,"name":"New Quay"},{"geonameid":9884562,"name":"New Town"},{"geonameid":2641676,"name":"Newcastle Emlyn"},{"geonameid":9884563,"name":"North Park Estate"},{"geonameid":2640492,"name":"Penbryn"},{"geonameid":2640442,"name":"Pennant"},{"geonameid":8714343,"name":"Penparc"},{"geonameid":6946746,"name":"Penparcau"},{"geonameid":2640397,"name":"Pentre-briwnant"},{"geonameid":2640392,"name":"Penuwch"},{"geonameid":2640126,"name":"Pont Hirwaun"},{"geonameid":2640117,"name":"Pont-rhyd-y-groes"},{"geonameid":2640112,"name":"Pont-Tyweli"},{"geonameid":2640130,"name":"Ponterwyd"},{"geonameid":2640119,"name":"Pontrhydfendigaid"},{"geonameid":9884561,"name":"Pontyclefton"},{"geonameid":2639930,"name":"Pren-gwyn"},{"geonameid":2639429,"name":"Rhostie"},{"geonameid":2639415,"name":"Rhyd Lewis"},{"geonameid":2639414,"name":"Rhyd Owen"},{"geonameid":2639412,"name":"Rhyd-y-felin"},{"geonameid":2638506,"name":"Sarnau"},{"geonameid":2637842,"name":"Silian"},{"geonameid":2636718,"name":"Strata Florida"},{"geonameid":2636347,"name":"Synod"},{"geonameid":2636308,"name":"Tal-gareg"},{"geonameid":2636291,"name":"Talsarn"},{"geonameid":2636288,"name":"Talybont"},{"geonameid":2636122,"name":"Temple Bar"},{"geonameid":2635527,"name":"Tre-groes"},{"geonameid":2635483,"name":"Tre-Taliesin"},{"geonameid":2635536,"name":"Trefilan"},{"geonameid":2635531,"name":"Tregaron"},{"geonameid":2635512,"name":"Tremain"},{"geonameid":2635453,"name":"Troedyraur"},{"geonameid":2635144,"name":"Upper Borth"},{"geonameid":9538971,"name":"Wallog"},{"geonameid":11072005,"name":"Ynyslas"},{"geonameid":2633340,"name":"Yspytty Cynfyn"},{"geonameid":2633338,"name":"Yspytty-Ystwyth"},{"geonameid":2633333,"name":"Ystrad-Meurig"}],"admin3":[{"geonameid":7291013,"name":"Faenor","admin3":"00NQ011"},{"geonameid":7291014,"name":"Henfynyw","admin3":"00NQ013"},{"geonameid":7291015,"name":"Lampeter","admin3":"00NQ014"},{"geonameid":7291016,"name":"Llanarth","admin3":"00NQ015"},{"geonameid":7291017,"name":"Llandysiliogogo","admin3":"00NQ019"},{"geonameid":7291018,"name":"Llanfair Clydogau","admin3":"00NQ021"},{"geonameid":7291019,"name":"Llanfihangel Ystrad","admin3":"00NQ023"},{"geonameid":7291020,"name":"Llangrannog","admin3":"00NQ026"},{"geonameid":7291021,"name":"Llangwyryfon","admin3":"00NQ027"},{"geonameid":7291022,"name":"Llanllwchaiarn","admin3":"00NQ031"},{"geonameid":7291023,"name":"Llanrhystyd","admin3":"00NQ032"},{"geonameid":7292320,"name":"Aberporth","admin3":"00NQ002"},{"geonameid":7292321,"name":"Aberystwyth","admin3":"00NQ003"},{"geonameid":7292322,"name":"Blaenrheidol","admin3":"00NQ005"},{"geonameid":7292323,"name":"Ceulanamaesmawr","admin3":"00NQ008"},{"geonameid":7292324,"name":"Llanfarian","admin3":"00NQ022"},{"geonameid":7292325,"name":"Llangynfelyn","admin3":"00NQ029"},{"geonameid":7292326,"name":"Llanilar","admin3":"00NQ030"},{"geonameid":7292327,"name":"Llanwnnen","admin3":"00NQ035"},{"geonameid":7292328,"name":"Melindwr","admin3":"00NQ037"},{"geonameid":7292329,"name":"Penbryn","admin3":"00NQ040"},{"geonameid":7292330,"name":"Pontarfynach","admin3":"00NQ041"},{"geonameid":7292331,"name":"Tirymynach","admin3":"00NQ042"},{"geonameid":7292332,"name":"Trefeurig","admin3":"00NQ044"},{"geonameid":7292333,"name":"Tregaron","admin3":"00NQ045"},{"geonameid":7292334,"name":"Y Ferwig","admin3":"00NQ047"},{"geonameid":7293938,"name":"Nantcwnlle","admin3":"00NQ038"},{"geonameid":7294005,"name":"New Quay","admin3":"00NQ039"},{"geonameid":7294032,"name":"Aberaeron","admin3":"00NQ001"},{"geonameid":7294033,"name":"Borth","admin3":"00NQ006"},{"geonameid":7294034,"name":"Llanbadarn Fawr","admin3":"00NQ016"},{"geonameid":7294035,"name":"Llanddewi Brefi","admin3":"00NQ017"},{"geonameid":7294036,"name":"Llangeitho","admin3":"00NQ024"},{"geonameid":7294037,"name":"Llangoedmor","admin3":"00NQ025"},{"geonameid":7294038,"name":"Llansantffraed","admin3":"00NQ033"},{"geonameid":7294039,"name":"Llanwenog","admin3":"00NQ034"},{"geonameid":7294040,"name":"Troedyraur","admin3":"00NQ046"},{"geonameid":7294041,"name":"Ysgubor-y-Coed","admin3":"00NQ049"},{"geonameid":7294042,"name":"Ystrad Fflur","admin3":"00NQ050"},{"geonameid":7294043,"name":"Ystrad Meurig","admin3":"00NQ051"},{"geonameid":7296014,"name":"Cardigan","admin3":"00NQ007"},{"geonameid":7297131,"name":"Lledrod","admin3":"00NQ036"},{"geonameid":7297132,"name":"Ysbyty Ystwyth","admin3":"00NQ048"},{"geonameid":7297864,"name":"Geneu'r Glyn","admin3":"00NQ012"},{"geonameid":7301111,"name":"Beulah","admin3":"00NQ004"},{"geonameid":7301112,"name":"Ciliau Aeron","admin3":"00NQ009"},{"geonameid":7301113,"name":"Dyffryn Arth","admin3":"00NQ010"},{"geonameid":7301114,"name":"Llandyfriog","admin3":"00NQ018"},{"geonameid":7301115,"name":"Llandysul","admin3":"00NQ020"},{"geonameid":7301116,"name":"Llangybi","admin3":"00NQ028"},{"geonameid":7301117,"name":"Trawsgoed","admin3":"00NQ043"}],"alternateNames":[{"alternatenameId":1626654,"geonameid":2634895,"isoLanguage":"en","alternateName":"Wales","isPreferredName":true,"isShortName":true,"isColloquial":false,"isHistoric":false},{"alternatenameId":8666581,"geonameid":2643962,"isoLanguage":"en","alternateName":"Llanrhystud","isPreferredName":true,"isShortName":true,"isColloquial":false,"isHistoric":false},{"alternatenameId":3059132,"geonameid":2653814,"isoLanguage":"en","alternateName":"Ceredigion","isPreferredName":true,"isShortName":true,"isColloquial":false,"isHistoric":false}]},"__N_SSG":true}