{"pageProps":{"locale":"en","admin2":{"geonameid":5111846,"name":"Cattaraugus County","country":"US","admin1":"NY","admin2":"009","admin3":"","latitude":"42.2486300","longitude":"-78.6788500"},"admin1":{"geonameid":5128638,"name":"New York","admin1":"NY","localeAltName":"New York"},"locations":[{"geonameid":5106994,"name":"Allegany","admin3":"01297"},{"geonameid":5114821,"name":"Delevan","admin3":"84055"},{"geonameid":5117902,"name":"Franklinville","admin3":"27342"},{"geonameid":5118990,"name":"Gowanda","admin3":"57331"},{"geonameid":5124889,"name":"Little Valley","admin3":"42840"},{"geonameid":5129780,"name":"Olean","admin3":"54716"},{"geonameid":5133416,"name":"Randolph","admin3":"60587"},{"geonameid":5139399,"name":"Saint Bonaventure","admin3":"01297"},{"geonameid":5136088,"name":"Salamanca","admin3":"64749"},{"geonameid":5144110,"name":"Weston Mills","admin3":"59509"},{"geonameid":5144114,"name":"Westons Mills","admin3":"59509"},{"geonameid":5145250,"name":"Yorkshire","admin3":"84055"}],"admin3":[{"geonameid":4833140,"name":"Town of Freedom","admin3":"27441"},{"geonameid":5107001,"name":"Town of Allegany","admin3":"01297"},{"geonameid":5107430,"name":"Town of Ashford","admin3":"02759"},{"geonameid":5111636,"name":"Town of Carrollton","admin3":"12661"},{"geonameid":5113245,"name":"Town of Coldspring","admin3":"16903"},{"geonameid":5113480,"name":"Town of Conewango","admin3":"17684"},{"geonameid":5114589,"name":"Town of Dayton","admin3":"19840"},{"geonameid":5116017,"name":"Town of East Otto","admin3":"22678"},{"geonameid":5116419,"name":"Town of Ellicottville","admin3":"24031"},{"geonameid":5116930,"name":"Town of Farmersville","admin3":"25340"},{"geonameid":5117903,"name":"Town of Franklinville","admin3":"27342"},{"geonameid":5119247,"name":"Town of Great Valley","admin3":"30257"},{"geonameid":5120890,"name":"Town of Hinsdale","admin3":"34946"},{"geonameid":5121576,"name":"Town of Humphrey","admin3":"36123"},{"geonameid":5122384,"name":"Town of Ischua","admin3":"37825"},{"geonameid":5124249,"name":"Town of Leon","admin3":"41982"},{"geonameid":5124892,"name":"Town of Little Valley","admin3":"42840"},{"geonameid":5125533,"name":"Town of Lyndon","admin3":"43896"},{"geonameid":5125600,"name":"Town of Machias","admin3":"44237"},{"geonameid":5125825,"name":"Town of Mansfield","admin3":"45161"},{"geonameid":5128281,"name":"Town of Napoli","admin3":"49462"},{"geonameid":5128461,"name":"Town of New Albion","admin3":"49880"},{"geonameid":5129784,"name":"City of Olean","admin3":"54716"},{"geonameid":5129785,"name":"Town of Olean","admin3":"54727"},{"geonameid":5130154,"name":"Town of Otto","admin3":"55783"},{"geonameid":5130999,"name":"Town of Perrysburg","admin3":"57298"},{"geonameid":5131004,"name":"Town of Persia","admin3":"57331"},{"geonameid":5132068,"name":"Town of Portville","admin3":"59509"},{"geonameid":5133409,"name":"Town of Randolph","admin3":"60587"},{"geonameid":5133562,"name":"Town of Red House","admin3":"60950"},{"geonameid":5136089,"name":"City of Salamanca","admin3":"64749"},{"geonameid":5136090,"name":"Town of Salamanca","admin3":"64760"},{"geonameid":5139016,"name":"Town of South Valley","admin3":"69870"},{"geonameid":5145251,"name":"Town of Yorkshire","admin3":"84055"}],"alternateNames":[{"alternatenameId":1980362,"geonameid":5128638,"isoLanguage":"en","alternateName":"New York","isPreferredName":true,"isShortName":true,"isColloquial":false,"isHistoric":false}]},"__N_SSG":true}