{"pageProps":{"locale":"en","admin2":{"geonameid":5114810,"name":"Delaware County","country":"US","admin1":"NY","admin2":"025","admin3":"","latitude":"42.1980900","longitude":"-74.9664700"},"admin1":{"geonameid":5128638,"name":"New York","admin1":"NY","localeAltName":"New York"},"locations":[{"geonameid":5114824,"name":"Delhi","admin3":"20137"},{"geonameid":5138113,"name":"Sidney","admin3":"67345"},{"geonameid":5139428,"name":"Stamford","admin3":"70629"},{"geonameid":5143156,"name":"Walton","admin3":"78047"}],"admin3":[{"geonameid":5107175,"name":"Town of Andes","admin3":"02132"},{"geonameid":5109844,"name":"Town of Bovina","admin3":"07597"},{"geonameid":5113154,"name":"Town of Colchester","admin3":"16793"},{"geonameid":5114531,"name":"Town of Davenport","admin3":"19763"},{"geonameid":5114826,"name":"Town of Delhi","admin3":"20137"},{"geonameid":5114905,"name":"Town of Deposit","admin3":"20357"},{"geonameid":5117899,"name":"Town of Franklin","admin3":"27232"},{"geonameid":5119840,"name":"Town of Hamden","admin3":"31698"},{"geonameid":5119918,"name":"Town of Hancock","admin3":"31951"},{"geonameid":5120054,"name":"Town of Harpersfield","admin3":"32281"},{"geonameid":5123646,"name":"Town of Kortright","admin3":"40068"},{"geonameid":5126185,"name":"Town of Masonville","admin3":"45964"},{"geonameid":5126621,"name":"Town of Meredith","admin3":"46624"},{"geonameid":5126847,"name":"Town of Middletown","admin3":"47031"},{"geonameid":5134577,"name":"Town of Roxbury","admin3":"64001"},{"geonameid":5138119,"name":"Town of Sidney","admin3":"67345"},{"geonameid":5139431,"name":"Town of Stamford","admin3":"70629"},{"geonameid":5141164,"name":"Town of Tompkins","admin3":"74111"},{"geonameid":5143171,"name":"Town of Walton","admin3":"78047"}],"alternateNames":[{"alternatenameId":1980362,"geonameid":5128638,"isoLanguage":"en","alternateName":"New York","isPreferredName":true,"isShortName":true,"isColloquial":false,"isHistoric":false}]},"__N_SSG":true}