{"pageProps":{"locale":"en","admin2":{"geonameid":5115580,"name":"Dutchess County","country":"US","admin1":"NY","admin2":"027","admin3":"","latitude":"41.7651500","longitude":"-73.7428600"},"admin1":{"geonameid":5128638,"name":"New York","admin1":"NY","localeAltName":"New York"},"locations":[{"geonameid":5107337,"name":"Arlington","admin3":"59652"},{"geonameid":5108219,"name":"Beacon","admin3":"05100"},{"geonameid":5110176,"name":"Brinckerhoff","admin3":"25978"},{"geonameid":5112976,"name":"Clinton Corners","admin3":"16408"},{"geonameid":5114252,"name":"Crown Heights","admin3":"59652"},{"geonameid":5115261,"name":"Dover Plains","admin3":"20819"},{"geonameid":5116819,"name":"Fairview","admin3":"59652"},{"geonameid":5117274,"name":"Fishkill","admin3":"25978"},{"geonameid":5120241,"name":"Haviland","admin3":"37209"},{"geonameid":5120851,"name":"Hillside Lake","admin3":"21996"},{"geonameid":5121727,"name":"Hyde Park","admin3":"37209"},{"geonameid":7315331,"name":"Merritt Park","admin3":"25978"},{"geonameid":5127007,"name":"Millbrook","admin3":"78388"},{"geonameid":5128238,"name":"Myers Corner","admin3":"78157"},{"geonameid":5130719,"name":"Pawling","admin3":"56825"},{"geonameid":5131457,"name":"Pine Plains","admin3":"58156"},{"geonameid":5131725,"name":"Pleasant Valley","admin3":"58695"},{"geonameid":5132143,"name":"Poughkeepsie","admin3":"59641"},{"geonameid":5133545,"name":"Red Hook","admin3":"60905"},{"geonameid":5133576,"name":"Red Oaks Mill","admin3":"59652"},{"geonameid":5133742,"name":"Rhinebeck","admin3":"61357"},{"geonameid":5139084,"name":"Spackenkill","admin3":"59652"},{"geonameid":5141073,"name":"Tivoli","admin3":"60905"},{"geonameid":5143211,"name":"Wappingers Falls","admin3":"78157"}],"admin3":[{"geonameid":5107117,"name":"Town of Amenia","admin3":"01693"},{"geonameid":5108227,"name":"City of Beacon","admin3":"05100"},{"geonameid":5108622,"name":"Town of Beekman","admin3":"05452"},{"geonameid":5112994,"name":"Town of Clinton","admin3":"16408"},{"geonameid":5115262,"name":"Town of Dover","admin3":"20819"},{"geonameid":5115842,"name":"Town of East Fishkill","admin3":"21996"},{"geonameid":5117281,"name":"Town of Fishkill","admin3":"25978"},{"geonameid":5121724,"name":"Town of Hyde Park","admin3":"37209"},{"geonameid":5123697,"name":"Town of La Grange","admin3":"40299"},{"geonameid":5126872,"name":"Town of Milan","admin3":"47207"},{"geonameid":5129026,"name":"Town of North East","admin3":"51891"},{"geonameid":5130723,"name":"Town of Pawling","admin3":"56825"},{"geonameid":5131462,"name":"Town of Pine Plains","admin3":"58156"},{"geonameid":5131745,"name":"Town of Pleasant Valley","admin3":"58695"},{"geonameid":5132146,"name":"City of Poughkeepsie","admin3":"59641"},{"geonameid":5132147,"name":"Town of Poughkeepsie","admin3":"59652"},{"geonameid":5133553,"name":"Town of Red Hook","admin3":"60905"},{"geonameid":5133745,"name":"Town of Rhinebeck","admin3":"61357"},{"geonameid":5139441,"name":"Town of Stanford","admin3":"70662"},{"geonameid":5141918,"name":"Town of Union Vale","admin3":"76166"},{"geonameid":5143210,"name":"Town of Wappinger","admin3":"78157"},{"geonameid":5143342,"name":"Town of Washington","admin3":"78388"}],"alternateNames":[{"alternatenameId":1980362,"geonameid":5128638,"isoLanguage":"en","alternateName":"New York","isPreferredName":true,"isShortName":true,"isColloquial":false,"isHistoric":false}]},"__N_SSG":true}