{"pageProps":{"locale":"en","admin2":{"geonameid":5116642,"name":"Erie County","country":"US","admin1":"NY","admin2":"029","admin3":"","latitude":"42.7582400","longitude":"-78.7796600"},"admin1":{"geonameid":5128638,"name":"New York","admin1":"NY","localeAltName":"New York"},"locations":[{"geonameid":5106825,"name":"Akron","admin3":"50716"},{"geonameid":5106877,"name":"Alden","admin3":"01099"},{"geonameid":5107129,"name":"Amherst","admin3":"02000"},{"geonameid":5107227,"name":"Angola","admin3":"24801"},{"geonameid":5107212,"name":"Angola on the Lake","admin3":"24801"},{"geonameid":5109168,"name":"Billington Heights","admin3":"24130"},{"geonameid":5109477,"name":"Blasdell","admin3":"31654"},{"geonameid":5109797,"name":"Boston","admin3":"07454"},{"geonameid":5110629,"name":"Buffalo","admin3":"11000"},{"geonameid":5112375,"name":"Cheektowaga","admin3":"15011"},{"geonameid":5112769,"name":"Clarence","admin3":"15825"},{"geonameid":5112771,"name":"Clarence Center","admin3":"15825"},{"geonameid":5114900,"name":"Depew","admin3":"41146"},{"geonameid":5115699,"name":"East Amherst","admin3":"15825"},{"geonameid":5115704,"name":"East Aurora","admin3":"03199"},{"geonameid":5116215,"name":"Eden","admin3":"23415"},{"geonameid":5116303,"name":"Eggertsville","admin3":"02000"},{"geonameid":5116480,"name":"Elma Center","admin3":"24130"},{"geonameid":5119019,"name":"Grand Island","admin3":"29828"},{"geonameid":5119034,"name":"Grandyle Village","admin3":"29828"},{"geonameid":5119833,"name":"Hamburg","admin3":"31654"},{"geonameid":5120074,"name":"Harris Hill","admin3":"15825"},{"geonameid":5121004,"name":"Holland","admin3":"35122"},{"geonameid":5123247,"name":"Kenmore","admin3":"75000"},{"geonameid":5123718,"name":"Lackawanna","admin3":"40189"},{"geonameid":5123788,"name":"Lake Erie Beach","admin3":"24801"},{"geonameid":5123954,"name":"Lancaster","admin3":"41146"},{"geonameid":5128914,"name":"North Boston","admin3":"07454"},{"geonameid":5128996,"name":"North Collins","admin3":"51803"},{"geonameid":5129951,"name":"Orchard Park","admin3":"55277"},{"geonameid":5138409,"name":"Sloan","admin3":"15011"},{"geonameid":5139298,"name":"Springville","admin3":"17585"},{"geonameid":5141175,"name":"Tonawanda","admin3":"74166"},{"geonameid":5141246,"name":"Town Line","admin3":"01099"},{"geonameid":5143208,"name":"Wanakah","admin3":"31654"},{"geonameid":5143992,"name":"West Seneca","admin3":"80918"},{"geonameid":5144588,"name":"Williamsville","admin3":"02000"}],"admin3":[{"geonameid":5106885,"name":"Town of Alden","admin3":"01099"},{"geonameid":5107133,"name":"Town of Amherst","admin3":"02000"},{"geonameid":5107529,"name":"Town of Aurora","admin3":"03199"},{"geonameid":5109801,"name":"Town of Boston","admin3":"07454"},{"geonameid":5110024,"name":"Town of Brant","admin3":"07894"},{"geonameid":5110651,"name":"City of Buffalo","admin3":"11000"},{"geonameid":5112377,"name":"Town of Cheektowaga","admin3":"15011"},{"geonameid":5112777,"name":"Town of Clarence","admin3":"15825"},{"geonameid":5113242,"name":"Town of Colden","admin3":"16870"},{"geonameid":5113329,"name":"Town of Collins","admin3":"17200"},{"geonameid":5113463,"name":"Town of Concord","admin3":"17585"},{"geonameid":5116220,"name":"Town of Eden","admin3":"23415"},{"geonameid":5116482,"name":"Town of Elma","admin3":"24130"},{"geonameid":5116712,"name":"Town of Evans","admin3":"24801"},{"geonameid":5119022,"name":"Town of Grand Island","admin3":"29828"},{"geonameid":5119838,"name":"Town of Hamburg","admin3":"31654"},{"geonameid":5121011,"name":"Town of Holland","admin3":"35122"},{"geonameid":5123721,"name":"City of Lackawanna","admin3":"40189"},{"geonameid":5123959,"name":"Town of Lancaster","admin3":"41146"},{"geonameid":5126007,"name":"Town of Marilla","admin3":"45601"},{"geonameid":5128693,"name":"Town of Newstead","admin3":"50716"},{"geonameid":5128997,"name":"Town of North Collins","admin3":"51803"},{"geonameid":5129940,"name":"Town of Orchard Park","admin3":"55277"},{"geonameid":5136341,"name":"Town of Sardinia","admin3":"65277"},{"geonameid":5141181,"name":"City of Tonawanda","admin3":"74166"},{"geonameid":5141182,"name":"Town of Tonawanda","admin3":"75000"},{"geonameid":5143080,"name":"Town of Wales","admin3":"77871"},{"geonameid":5143994,"name":"Town of West Seneca","admin3":"80918"}],"alternateNames":[{"alternatenameId":1980362,"geonameid":5128638,"isoLanguage":"en","alternateName":"New York","isPreferredName":true,"isShortName":true,"isColloquial":false,"isHistoric":false}]},"__N_SSG":true}