{"pageProps":{"locale":"en","admin2":{"geonameid":5118116,"name":"Fulton County","country":"US","admin1":"NY","admin2":"035","admin3":"","latitude":"43.1138500","longitude":"-74.4221700"},"admin1":{"geonameid":5128638,"name":"New York","admin1":"NY","localeAltName":"New York"},"locations":[{"geonameid":5110211,"name":"Broadalbin","admin3":"08433"},{"geonameid":5118743,"name":"Gloversville","admin3":"29443"},{"geonameid":5122833,"name":"Johnstown","admin3":"38781"},{"geonameid":5129313,"name":"Northville","admin3":"51407"},{"geonameid":5131007,"name":"Perth","admin3":"57353"}],"admin3":[{"geonameid":5109486,"name":"Town of Bleecker","admin3":"06882"},{"geonameid":5110213,"name":"Town of Broadalbin","admin3":"08433"},{"geonameid":5111586,"name":"Town of Caroga","admin3":"12573"},{"geonameid":5116631,"name":"Town of Ephratah","admin3":"24603"},{"geonameid":5118744,"name":"City of Gloversville","admin3":"29443"},{"geonameid":5122834,"name":"City of Johnstown","admin3":"38781"},{"geonameid":5122835,"name":"Town of Johnstown","admin3":"38792"},{"geonameid":5126279,"name":"Town of Mayfield","admin3":"46217"},{"geonameid":5129275,"name":"Town of Northampton","admin3":"51407"},{"geonameid":5129909,"name":"Town of Oppenheim","admin3":"55101"},{"geonameid":5131008,"name":"Town of Perth","admin3":"57353"},{"geonameid":5139973,"name":"Town of Stratford","admin3":"71784"}],"alternateNames":[{"alternatenameId":1980362,"geonameid":5128638,"isoLanguage":"en","alternateName":"New York","isPreferredName":true,"isShortName":true,"isColloquial":false,"isHistoric":false}]},"__N_SSG":true}