{"pageProps":{"locale":"en","admin2":{"geonameid":5122581,"name":"Jefferson County","country":"US","admin1":"NY","admin2":"045","admin3":"","latitude":"43.9988500","longitude":"-76.0521100"},"admin1":{"geonameid":5128638,"name":"New York","admin1":"NY","localeAltName":"New York"},"locations":[{"geonameid":5106734,"name":"Adams","admin3":"00210"},{"geonameid":5106738,"name":"Adams Center","admin3":"00210"},{"geonameid":5106950,"name":"Alexandria Bay","admin3":"01176"},{"geonameid":5109410,"name":"Black River","admin3":"42015"},{"geonameid":5110449,"name":"Brownville","admin3":"10242"},{"geonameid":5111065,"name":"Calcium","admin3":"42015"},{"geonameid":5111656,"name":"Carthage","admin3":"82348"},{"geonameid":5112870,"name":"Clayton","admin3":"16100"},{"geonameid":5114982,"name":"Dexter","admin3":"10242"},{"geonameid":7257905,"name":"Fort Drum","admin3":"42015"},{"geonameid":5131095,"name":"Philadelphia","admin3":"57562"},{"geonameid":5134736,"name":"Sackets Harbor","admin3":"35782"},{"geonameid":5143396,"name":"Watertown","admin3":"78608"},{"geonameid":5143737,"name":"West Carthage","admin3":"13717"}],"admin3":[{"geonameid":5106750,"name":"Town of Adams","admin3":"00210"},{"geonameid":5106952,"name":"Town of Alexandria","admin3":"01176"},{"geonameid":5107254,"name":"Town of Antwerp","admin3":"02297"},{"geonameid":5110452,"name":"Town of Brownville","admin3":"10242"},{"geonameid":5111491,"name":"Town of Cape Vincent","admin3":"12364"},{"geonameid":5112214,"name":"Town of Champion","admin3":"13717"},{"geonameid":5112873,"name":"Town of Clayton","admin3":"16100"},{"geonameid":5116444,"name":"Town of Ellisburg","admin3":"24086"},{"geonameid":5120505,"name":"Town of Henderson","admin3":"34055"},{"geonameid":5121389,"name":"Town of Hounsfield","admin3":"35782"},{"geonameid":5124127,"name":"Town of Le Ray","admin3":"42015"},{"geonameid":5125304,"name":"Town of Lorraine","admin3":"43544"},{"geonameid":5125522,"name":"Town of Lyme","admin3":"43863"},{"geonameid":5129998,"name":"Town of Orleans","admin3":"55398"},{"geonameid":5130446,"name":"Town of Pamelia","admin3":"56209"},{"geonameid":5131097,"name":"Town of Philadelphia","admin3":"57562"},{"geonameid":5134247,"name":"Town of Rodman","admin3":"63341"},{"geonameid":5134677,"name":"Town of Rutland","admin3":"64265"},{"geonameid":5140785,"name":"Town of Theresa","admin3":"73528"},{"geonameid":5143400,"name":"City of Watertown","admin3":"78608"},{"geonameid":5143401,"name":"Town of Watertown","admin3":"78619"},{"geonameid":5144694,"name":"Town of Wilna","admin3":"82348"},{"geonameid":5145107,"name":"Town of Worth","admin3":"83162"}],"alternateNames":[{"alternatenameId":1980362,"geonameid":5128638,"isoLanguage":"en","alternateName":"New York","isPreferredName":true,"isShortName":true,"isColloquial":false,"isHistoric":false}]},"__N_SSG":true}