{"pageProps":{"locale":"en","admin2":{"geonameid":5127354,"name":"Montgomery County","country":"US","admin1":"NY","admin2":"057","admin3":"","latitude":"42.9022800","longitude":"-74.4396800"},"admin1":{"geonameid":5128638,"name":"New York","admin1":"NY","localeAltName":"New York"},"locations":[{"geonameid":5107152,"name":"Amsterdam","admin3":"02066"},{"geonameid":5111398,"name":"Canajoharie","admin3":"12122"},{"geonameid":5117694,"name":"Fort Plain","admin3":"47614"},{"geonameid":5119709,"name":"Hagaman","admin3":"02077"},{"geonameid":5135356,"name":"Saint Johnsville","admin3":""},{"geonameid":5141366,"name":"Tribes Hill","admin3":"47834"},{"geonameid":5143587,"name":"Wellsville","admin3":"26308"}],"admin3":[{"geonameid":5107155,"name":"City of Amsterdam","admin3":"02066"},{"geonameid":5107156,"name":"Town of Amsterdam","admin3":"02077"},{"geonameid":5111404,"name":"Town of Canajoharie","admin3":"12122"},{"geonameid":5112280,"name":"Town of Charleston","admin3":"13816"},{"geonameid":5117454,"name":"Town of Florida","admin3":"26308"},{"geonameid":5118664,"name":"Town of Glen","admin3":"29047"},{"geonameid":5127117,"name":"Town of Minden","admin3":"47614"},{"geonameid":5127245,"name":"Town of Mohawk","admin3":"47834"},{"geonameid":5130398,"name":"Town of Palatine","admin3":"56099"},{"geonameid":5134355,"name":"Town of Root","admin3":"63561"}],"alternateNames":[{"alternatenameId":1980362,"geonameid":5128638,"isoLanguage":"en","alternateName":"New York","isPreferredName":true,"isShortName":true,"isColloquial":false,"isHistoric":false}]},"__N_SSG":true}