{"pageProps":{"locale":"en","admin2":{"geonameid":5130076,"name":"Oswego County","country":"US","admin1":"NY","admin2":"075","admin3":"","latitude":"43.4638900","longitude":"-76.2086800"},"admin1":{"geonameid":5128638,"name":"New York","admin1":"NY","localeAltName":"New York"},"locations":[{"geonameid":5108875,"name":"Bernhards Bay","admin3":"17904"},{"geonameid":5112160,"name":"Central Square","admin3":"32688"},{"geonameid":5113565,"name":"Constantia","admin3":"17904"},{"geonameid":5118136,"name":"Fulton","admin3":"27815"},{"geonameid":5126705,"name":"Mexico","admin3":"46822"},{"geonameid":5127147,"name":"Minetto","admin3":"47691"},{"geonameid":5130081,"name":"Oswego","admin3":"55574"},{"geonameid":5131135,"name":"Phoenix","admin3":"65618"},{"geonameid":5133084,"name":"Pulaski","admin3":"61533"},{"geonameid":5133799,"name":"Richland","admin3":"61533"},{"geonameid":5142408,"name":"Volney","admin3":"77662"}],"admin3":[{"geonameid":5106868,"name":"Town of Albion","admin3":"01055"},{"geonameid":5107111,"name":"Town of Amboy","admin3":"01649"},{"geonameid":5109901,"name":"Town of Boylston","admin3":"07674"},{"geonameid":5113567,"name":"Town of Constantia","admin3":"17904"},{"geonameid":5118128,"name":"City of Fulton","admin3":"27815"},{"geonameid":5119009,"name":"Town of Granby","admin3":"29729"},{"geonameid":5119948,"name":"Town of Hannibal","admin3":"32028"},{"geonameid":5120196,"name":"Town of Hastings","admin3":"32688"},{"geonameid":5126710,"name":"Town of Mexico","admin3":"46822"},{"geonameid":5127149,"name":"Town of Minetto","admin3":"47691"},{"geonameid":5128507,"name":"Town of New Haven","admin3":"50342"},{"geonameid":5130014,"name":"Town of Orwell","admin3":"55453"},{"geonameid":5130082,"name":"City of Oswego","admin3":"55574"},{"geonameid":5130083,"name":"Town of Oswego","admin3":"55585"},{"geonameid":5130404,"name":"Town of Palermo","admin3":"56154"},{"geonameid":5130531,"name":"Town of Parish","admin3":"56352"},{"geonameid":5133597,"name":"Town of Redfield","admin3":"60873"},{"geonameid":5133801,"name":"Town of Richland","admin3":"61533"},{"geonameid":5136264,"name":"Town of Sandy Creek","admin3":"65079"},{"geonameid":5137350,"name":"Town of Schroeppel","admin3":"65618"},{"geonameid":5137468,"name":"Town of Scriba","admin3":"65992"},{"geonameid":5142410,"name":"Town of Volney","admin3":"77662"},{"geonameid":5143917,"name":"Town of West Monroe","admin3":"80500"},{"geonameid":5144587,"name":"Town of Williamstown","admin3":"82073"}],"alternateNames":[{"alternatenameId":1980362,"geonameid":5128638,"isoLanguage":"en","alternateName":"New York","isPreferredName":true,"isShortName":true,"isColloquial":false,"isHistoric":false}]},"__N_SSG":true}