{"pageProps":{"locale":"en","admin2":{"geonameid":5130111,"name":"Otsego County","country":"US","admin1":"NY","admin2":"077","admin3":"","latitude":"42.6337600","longitude":"-75.0326100"},"admin1":{"geonameid":5128638,"name":"New York","admin1":"NY","localeAltName":"New York"},"locations":[{"geonameid":5113664,"name":"Cooperstown","admin3":"55695"},{"geonameid":5129852,"name":"Oneonta","admin3":"54881"},{"geonameid":5133795,"name":"Richfield Springs","admin3":"61467"},{"geonameid":5139283,"name":"Springfield","admin3":"70310"},{"geonameid":5141796,"name":"Unadilla","admin3":"76012"},{"geonameid":5143789,"name":"West End","admin3":"54892"},{"geonameid":5145094,"name":"Worcester","admin3":"83129"}],"admin3":[{"geonameid":5110792,"name":"Town of Burlington","admin3":"11209"},{"geonameid":5110994,"name":"Town of Butternuts","admin3":"11528"},{"geonameid":5112469,"name":"Town of Cherry Valley","admin3":"15253"},{"geonameid":5114680,"name":"Town of Decatur","admin3":"19895"},{"geonameid":5116263,"name":"Town of Edmeston","admin3":"23613"},{"geonameid":5116770,"name":"Town of Exeter","admin3":"24845"},{"geonameid":5120158,"name":"Town of Hartwick","admin3":"32589"},{"geonameid":5124080,"name":"Town of Laurens","admin3":"41531"},{"geonameid":5126154,"name":"Town of Maryland","admin3":"45920"},{"geonameid":5126835,"name":"Town of Middlefield","admin3":"46910"},{"geonameid":5126893,"name":"Town of Milford","admin3":"47240"},{"geonameid":5127549,"name":"Town of Morris","admin3":"48494"},{"geonameid":5128528,"name":"Town of New Lisbon","admin3":"50485"},{"geonameid":5129853,"name":"City of Oneonta","admin3":"54881"},{"geonameid":5129854,"name":"Town of Oneonta","admin3":"54892"},{"geonameid":5130087,"name":"Town of Otego","admin3":"55629"},{"geonameid":5130107,"name":"Town of Otsego","admin3":"55695"},{"geonameid":5131613,"name":"Town of Pittsfield","admin3":"58343"},{"geonameid":5131631,"name":"Town of Plainfield","admin3":"58420"},{"geonameid":5133796,"name":"Town of Richfield","admin3":"61467"},{"geonameid":5134393,"name":"Town of Roseboom","admin3":"63638"},{"geonameid":5139290,"name":"Town of Springfield","admin3":"70310"},{"geonameid":5141805,"name":"Town of Unadilla","admin3":"76012"},{"geonameid":5144088,"name":"Town of Westford","admin3":"79972"},{"geonameid":5145096,"name":"Town of Worcester","admin3":"83129"}],"alternateNames":[{"alternatenameId":1980362,"geonameid":5128638,"isoLanguage":"en","alternateName":"New York","isPreferredName":true,"isShortName":true,"isColloquial":false,"isHistoric":false}]},"__N_SSG":true}