{"pageProps":{"locale":"en","admin2":{"geonameid":5133268,"name":"Queens County","country":"US","admin1":"NY","admin2":"081","admin3":"","latitude":"40.6574900","longitude":"-73.8387500"},"admin1":{"geonameid":5128638,"name":"New York","admin1":"NY","localeAltName":"New York"},"locations":[{"geonameid":5107394,"name":"Arverne","admin3":""},{"geonameid":5107464,"name":"Astoria","admin3":""},{"geonameid":5108193,"name":"Bayside","admin3":""},{"geonameid":5108677,"name":"Bellaire","admin3":""},{"geonameid":5108683,"name":"Belle Harbor","admin3":""},{"geonameid":6640032,"name":"Briarwood","admin3":""},{"geonameid":5110201,"name":"Broad Channel","admin3":""},{"geonameid":5111141,"name":"Cambria Heights","admin3":""},{"geonameid":5113302,"name":"College Point","admin3":""},{"geonameid":5113779,"name":"Corona","admin3":""},{"geonameid":5115258,"name":"Douglaston","admin3":""},{"geonameid":5115835,"name":"East Elmhurst","admin3":""},{"geonameid":5116225,"name":"Edgemere","admin3":""},{"geonameid":5116495,"name":"Elmhurst","admin3":""},{"geonameid":5116917,"name":"Far Rockaway","admin3":""},{"geonameid":5117575,"name":"Forest Hills","admin3":""},{"geonameid":5118005,"name":"Fresh Meadows","admin3":""},{"geonameid":5118650,"name":"Glen Oaks","admin3":""},{"geonameid":5118670,"name":"Glendale","admin3":""},{"geonameid":5120824,"name":"Hillside","admin3":""},{"geonameid":5121026,"name":"Hollis","admin3":""},{"geonameid":5121407,"name":"Howard Beach","admin3":""},{"geonameid":5122477,"name":"Jackson Heights","admin3":""},{"geonameid":5122520,"name":"Jamaica","admin3":""},{"geonameid":5123344,"name":"Kew Gardens","admin3":""},{"geonameid":7250691,"name":"Kew Gardens Hills","admin3":""},{"geonameid":5124078,"name":"Laurelton","admin3":""},{"geonameid":5124753,"name":"Little Neck","admin3":""},{"geonameid":5125125,"name":"Long Island City","admin3":""},{"geonameid":5126180,"name":"Maspeth","admin3":""},{"geonameid":5126827,"name":"Middle Village","admin3":""},{"geonameid":5128428,"name":"Neponsit","admin3":""},{"geonameid":5130334,"name":"Ozone Park","admin3":""},{"geonameid":5133273,"name":"Queens","admin3":""},{"geonameid":5133271,"name":"Queens Village","admin3":""},{"geonameid":5133640,"name":"Rego Park","admin3":""},{"geonameid":5133825,"name":"Richmond Hill","admin3":""},{"geonameid":5133858,"name":"Ridgewood","admin3":""},{"geonameid":5134172,"name":"Rockaway Point","admin3":""},{"geonameid":5134395,"name":"Rosedale","admin3":""},{"geonameid":5137529,"name":"Seaside","admin3":""},{"geonameid":5138950,"name":"South Ozone Park","admin3":""},{"geonameid":5139287,"name":"Springfield Gardens","admin3":""},{"geonameid":5139614,"name":"Steinway","admin3":""},{"geonameid":5140221,"name":"Sunnyside","admin3":""},{"geonameid":5140675,"name":"Terrace Heights","admin3":""},{"geonameid":5144400,"name":"Whitestone","admin3":""},{"geonameid":5144975,"name":"Woodhaven","admin3":""},{"geonameid":5145067,"name":"Woodside","admin3":""}],"admin3":[],"alternateNames":[{"alternatenameId":1980362,"geonameid":5128638,"isoLanguage":"en","alternateName":"New York","isPreferredName":true,"isShortName":true,"isColloquial":false,"isHistoric":false}]},"__N_SSG":true}