{"pageProps":{"locale":"en","admin2":{"geonameid":5140076,"name":"Suffolk County","country":"US","admin1":"NY","admin2":"103","admin3":"","latitude":"40.9404600","longitude":"-72.6852400"},"admin1":{"geonameid":5128638,"name":"New York","admin1":"NY","localeAltName":"New York"},"locations":[{"geonameid":5107091,"name":"Amagansett","admin3":"22194"},{"geonameid":5107140,"name":"Amityville","admin3":"04000"},{"geonameid":5107273,"name":"Aquebogue","admin3":"61984"},{"geonameid":5107612,"name":"Babylon","admin3":"04000"},{"geonameid":5107670,"name":"Baiting Hollow","admin3":"61984"},{"geonameid":5108169,"name":"Bay Shore","admin3":"38000"},{"geonameid":5108179,"name":"Bay Wood","admin3":"38000"},{"geonameid":5108191,"name":"Bayport","admin3":"38000"},{"geonameid":5108714,"name":"Bellport","admin3":"10000"},{"geonameid":5109603,"name":"Blue Point","admin3":"10000"},{"geonameid":5109694,"name":"Bohemia","admin3":"38000"},{"geonameid":5110077,"name":"Brentwood","admin3":"38000"},{"geonameid":5110130,"name":"Bridgehampton","admin3":"68473"},{"geonameid":5110168,"name":"Brightwaters","admin3":"38000"},{"geonameid":5110292,"name":"Brookhaven","admin3":"10000"},{"geonameid":5111137,"name":"Calverton","admin3":"61984"},{"geonameid":5112020,"name":"Center Moriches","admin3":"10000"},{"geonameid":5112035,"name":"Centereach","admin3":"10000"},{"geonameid":5112038,"name":"Centerport","admin3":"37000"},{"geonameid":5112078,"name":"Central Islip","admin3":"38000"},{"geonameid":5113223,"name":"Cold Spring Harbor","admin3":"37000"},{"geonameid":5113412,"name":"Commack","admin3":"37000"},{"geonameid":5113683,"name":"Copiague","admin3":"04000"},{"geonameid":5113694,"name":"Coram","admin3":"10000"},{"geonameid":5114401,"name":"Cutchogue","admin3":"69463"},{"geonameid":5114731,"name":"Deer Park","admin3":"04000"},{"geonameid":5115107,"name":"Dix Hills","admin3":"37000"},{"geonameid":5115838,"name":"East Farmingdale","admin3":"04000"},{"geonameid":5115871,"name":"East Hampton","admin3":"22194"},{"geonameid":7258233,"name":"East Hampton North","admin3":"22194"},{"geonameid":5115923,"name":"East Islip","admin3":"38000"},{"geonameid":5115974,"name":"East Moriches","admin3":"10000"},{"geonameid":5115989,"name":"East Northport","admin3":"37000"},{"geonameid":5116004,"name":"East Patchogue","admin3":"10000"},{"geonameid":5116035,"name":"East Quogue","admin3":"68473"},{"geonameid":5116060,"name":"East Setauket","admin3":"10000"},{"geonameid":5116063,"name":"East Shoreham","admin3":"10000"},{"geonameid":5116149,"name":"Eastport","admin3":"10000"},{"geonameid":5116169,"name":"Eatons Neck","admin3":"37000"},{"geonameid":5116550,"name":"Elwood","admin3":"37000"},{"geonameid":5116937,"name":"Farmingville","admin3":"10000"},{"geonameid":5117347,"name":"Flanders","admin3":"68473"},{"geonameid":5117703,"name":"Fort Salonga","admin3":"68000"},{"geonameid":5118889,"name":"Gordon Heights","admin3":"10000"},{"geonameid":5119232,"name":"Great River","admin3":"38000"},{"geonameid":5119377,"name":"Greenlawn","admin3":"37000"},{"geonameid":5119385,"name":"Greenport","admin3":"69463"},{"geonameid":7258676,"name":"Greenport West","admin3":"69463"},{"geonameid":5119742,"name":"Halesite","admin3":"37000"},{"geonameid":5119899,"name":"Hampton Bays","admin3":"68473"},{"geonameid":5120228,"name":"Hauppauge","admin3":"68000"},{"geonameid":5120348,"name":"Head of the Harbor","admin3":"68000"},{"geonameid":5120987,"name":"Holbrook","admin3":"10000"},{"geonameid":5121163,"name":"Holtsville","admin3":"10000"},{"geonameid":5121636,"name":"Huntington","admin3":"37000"},{"geonameid":5121638,"name":"Huntington Bay","admin3":"37000"},{"geonameid":5121650,"name":"Huntington Station","admin3":"37000"},{"geonameid":5122409,"name":"Islandia","admin3":"38000"},{"geonameid":5122413,"name":"Islip","admin3":"38000"},{"geonameid":5122417,"name":"Islip Terrace","admin3":"38000"},{"geonameid":5122533,"name":"Jamesport","admin3":"61984"},{"geonameid":5123456,"name":"Kings Park","admin3":"68000"},{"geonameid":5123796,"name":"Lake Grove","admin3":"10000"},{"geonameid":5123840,"name":"Lake Ronkonkoma","admin3":"68000"},{"geonameid":5124059,"name":"Laurel","admin3":"69463"},{"geonameid":5124497,"name":"Lindenhurst","admin3":"04000"},{"geonameid":5124946,"name":"Lloyd Harbor","admin3":"37000"},{"geonameid":5125817,"name":"Manorville","admin3":"10000"},{"geonameid":5126208,"name":"Mastic","admin3":"10000"},{"geonameid":5126209,"name":"Mastic Beach","admin3":"10000"},{"geonameid":5126239,"name":"Mattituck","admin3":"69463"},{"geonameid":5126518,"name":"Medford","admin3":"10000"},{"geonameid":5126555,"name":"Melville","admin3":"37000"},{"geonameid":5126787,"name":"Middle Island","admin3":"10000"},{"geonameid":5127043,"name":"Miller Place","admin3":"10000"},{"geonameid":5127321,"name":"Montauk","admin3":"22194"},{"geonameid":5127519,"name":"Moriches","admin3":"10000"},{"geonameid":5127824,"name":"Mount Sinai","admin3":"10000"},{"geonameid":5128433,"name":"Nesconset","admin3":"68000"},{"geonameid":5128827,"name":"Nissequogue","admin3":"68000"},{"geonameid":5128884,"name":"North Amityville","admin3":"04000"},{"geonameid":5128886,"name":"North Babylon","admin3":"04000"},{"geonameid":5128898,"name":"North Bay Shore","admin3":"38000"},{"geonameid":5128905,"name":"North Bellport","admin3":"10000"},{"geonameid":5129057,"name":"North Great River","admin3":"38000"},{"geonameid":5129125,"name":"North Lindenhurst","admin3":"04000"},{"geonameid":5129157,"name":"North Patchogue","admin3":"10000"},{"geonameid":5129210,"name":"North Sea","admin3":"68473"},{"geonameid":5129290,"name":"Northport","admin3":"37000"},{"geonameid":5129314,"name":"Northville","admin3":"61984"},{"geonameid":5129325,"name":"Northwest Harbor","admin3":"22194"},{"geonameid":5129395,"name":"Noyack","admin3":"68473"},{"geonameid":5129541,"name":"Oakdale","admin3":"38000"},{"geonameid":5130672,"name":"Patchogue","admin3":"10000"},{"geonameid":5132013,"name":"Port Jefferson","admin3":"10000"},{"geonameid":5132015,"name":"Port Jefferson Station","admin3":"10000"},{"geonameid":7258540,"name":"Remsenburg-Speonk","admin3":"68473"},{"geonameid":5133832,"name":"Ridge","admin3":"10000"},{"geonameid":5133926,"name":"Riverhead","admin3":"61984"},{"geonameid":5133934,"name":"Riverside","admin3":"68473"},{"geonameid":5134235,"name":"Rocky Point","admin3":"10000"},{"geonameid":5134316,"name":"Ronkonkoma","admin3":"10000"},{"geonameid":5134800,"name":"Sag Harbor","admin3":"68473"},{"geonameid":5135192,"name":"Saint James","admin3":"68000"},{"geonameid":5136421,"name":"Sayville","admin3":"38000"},{"geonameid":5137600,"name":"Selden","admin3":"10000"},{"geonameid":7258965,"name":"Setauket-East Setauket","admin3":"10000"},{"geonameid":5137894,"name":"Shelter Island","admin3":"66839"},{"geonameid":5137895,"name":"Shelter Island Heights","admin3":"66839"},{"geonameid":5138007,"name":"Shinnecock Hills","admin3":"68473"},{"geonameid":5138022,"name":"Shirley","admin3":"10000"},{"geonameid":5138539,"name":"Smithtown","admin3":"68000"},{"geonameid":5138704,"name":"Sound Beach","admin3":"10000"},{"geonameid":5138892,"name":"South Huntington","admin3":"37000"},{"geonameid":5139030,"name":"Southampton","admin3":"68473"},{"geonameid":5139054,"name":"Southold","admin3":"69463"},{"geonameid":5139294,"name":"Springs","admin3":"22194"},{"geonameid":5139865,"name":"Stony Brook","admin3":"10000"},{"geonameid":5140694,"name":"Terryville","admin3":"10000"},{"geonameid":5141527,"name":"Tuckahoe","admin3":"68473"},{"geonameid":5142351,"name":"Village of the Branch","admin3":"68000"},{"geonameid":5143022,"name":"Wading River","admin3":"61984"},{"geonameid":5143386,"name":"Water Mill","admin3":"68473"},{"geonameid":5143630,"name":"West Babylon","admin3":"04000"},{"geonameid":5143644,"name":"West Bay Shore","admin3":"38000"},{"geonameid":5143857,"name":"West Hills","admin3":"37000"},{"geonameid":5143866,"name":"West Islip","admin3":"38000"},{"geonameid":5143988,"name":"West Sayville","admin3":"38000"},{"geonameid":5144089,"name":"Westhampton","admin3":"68473"},{"geonameid":5144090,"name":"Westhampton Beach","admin3":"68473"},{"geonameid":5144182,"name":"Wheatley Heights","admin3":"04000"},{"geonameid":5145135,"name":"Wyandanch","admin3":"04000"},{"geonameid":5145197,"name":"Yaphank","admin3":"10000"}],"admin3":[{"geonameid":5107603,"name":"Town of Babylon","admin3":"04000"},{"geonameid":5110297,"name":"Town of Brookhaven","admin3":"10000"},{"geonameid":5115874,"name":"Town of East Hampton","admin3":"22194"},{"geonameid":5121654,"name":"Town of Huntington","admin3":"37000"},{"geonameid":5122419,"name":"Town of Islip","admin3":"38000"},{"geonameid":5133929,"name":"Town of Riverhead","admin3":"61984"},{"geonameid":5137897,"name":"Town of Shelter Island","admin3":"66839"},{"geonameid":5138544,"name":"Town of Smithtown","admin3":"68000"},{"geonameid":5139036,"name":"Town of Southampton","admin3":"68473"},{"geonameid":5139057,"name":"Town of Southold","admin3":"69463"}],"alternateNames":[{"alternatenameId":1980362,"geonameid":5128638,"isoLanguage":"en","alternateName":"New York","isPreferredName":true,"isShortName":true,"isColloquial":false,"isHistoric":false}]},"__N_SSG":true}