{"pageProps":{"locale":"en","admin2":{"geonameid":5145190,"name":"Yates County","country":"US","admin1":"NY","admin2":"123","admin3":"","latitude":"42.6334400","longitude":"-77.1054600"},"admin1":{"geonameid":5128638,"name":"New York","admin1":"NY","localeAltName":"New York"},"locations":[{"geonameid":5109986,"name":"Branchport","admin3":"38583"},{"geonameid":5115475,"name":"Dundee","admin3":"70816"},{"geonameid":5123347,"name":"Keuka Park","admin3":"38583"},{"geonameid":5130915,"name":"Penn Yan","admin3":"47504"}],"admin3":[{"geonameid":5108011,"name":"Town of Barrington","admin3":"04594"},{"geonameid":5108831,"name":"Town of Benton","admin3":"06002"},{"geonameid":5122429,"name":"Town of Italy","admin3":"38044"},{"geonameid":5122668,"name":"Town of Jerusalem","admin3":"38583"},{"geonameid":5126841,"name":"Town of Middlesex","admin3":"47020"},{"geonameid":5127096,"name":"Town of Milo","admin3":"47504"},{"geonameid":5132134,"name":"Town of Potter","admin3":"59597"},{"geonameid":5139498,"name":"Town of Starkey","admin3":"70816"},{"geonameid":5141215,"name":"Town of Torrey","admin3":"75055"}],"alternateNames":[{"alternatenameId":1980362,"geonameid":5128638,"isoLanguage":"en","alternateName":"New York","isPreferredName":true,"isShortName":true,"isColloquial":false,"isHistoric":false}]},"__N_SSG":true}