{"pageProps":{"locale":"de","admin2":{"geonameid":11611649,"name":"Region Viamala","country":"CH","admin1":"GR","admin2":"1851","admin3":"","latitude":"46.5876200","longitude":"9.4003500"},"admin1":{"geonameid":2660522,"name":"Kanton Graubünden","admin1":"GR"},"locations":[{"geonameid":2661752,"name":"Andeer","admin3":"3701"},{"geonameid":2661670,"name":"Ausserferrera","admin3":"3713"},{"geonameid":2661242,"name":"Cazis","admin3":"3661"},{"geonameid":2661155,"name":"Clugin","admin3":"3701"},{"geonameid":2660806,"name":"Feldis","admin3":"3673"},{"geonameid":2660760,"name":"Flerden","admin3":"3662"},{"geonameid":2660341,"name":"Hinterrhein","admin3":"3714"},{"geonameid":2660259,"name":"Innerferrera","admin3":"3713"},{"geonameid":2659862,"name":"Lohn","admin3":"3715"},{"geonameid":2659736,"name":"Mathon","admin3":"3715"},{"geonameid":2659710,"name":"Medels im Rheinwald","admin3":"3714"},{"geonameid":2659523,"name":"Mutten","admin3":"3668"},{"geonameid":2659430,"name":"Nufenen","admin3":"3714"},{"geonameid":6691871,"name":"Obertschappina","admin3":"3669"},{"geonameid":2659248,"name":"Paspels","admin3":"3673"},{"geonameid":2659202,"name":"Pignieu","admin3":"3701"},{"geonameid":2658999,"name":"Rodels","admin3":"3673"},{"geonameid":2658977,"name":"Rongellen","admin3":"3711"},{"geonameid":2658955,"name":"Rothenbrunnen","admin3":"3637"},{"geonameid":2658787,"name":"Sarn","admin3":"3661"},{"geonameid":2658753,"name":"Scharans","admin3":"3638"},{"geonameid":2658746,"name":"Scheid","admin3":"3673"},{"geonameid":2658590,"name":"Sils im Domleschg","admin3":"3640"},{"geonameid":2658528,"name":"Splügen","admin3":"3714"},{"geonameid":2658459,"name":"Sufers","admin3":"3695"},{"geonameid":2658420,"name":"Tartar","admin3":"3661"},{"geonameid":2658371,"name":"Thusis","admin3":"3668"},{"geonameid":2658330,"name":"Trans","admin3":"3673"}],"admin3":[{"geonameid":7285075,"name":"Andeer","admin3":"3701"},{"geonameid":7285127,"name":"Avers","admin3":"3681"},{"geonameid":7285449,"name":"Cazis","admin3":"3661"},{"geonameid":7285811,"name":"Ferrera","admin3":"3713"},{"geonameid":7285838,"name":"Flerden","admin3":"3662"},{"geonameid":7285880,"name":"Fürstenau","admin3":"3633"},{"geonameid":7286449,"name":"Masein","admin3":"3663"},{"geonameid":7286946,"name":"Rongellen","admin3":"3711"},{"geonameid":7286958,"name":"Rothenbrunnen","admin3":"3637"},{"geonameid":7287076,"name":"Scharans","admin3":"3638"},{"geonameid":7287172,"name":"Sils im Domleschg","admin3":"3640"},{"geonameid":7287256,"name":"Sufers","admin3":"3695"},{"geonameid":7287310,"name":"Thusis","admin3":"3668"},{"geonameid":7287344,"name":"Tschappina","admin3":"3669"},{"geonameid":7287391,"name":"Urmein","admin3":"3670"},{"geonameid":7287637,"name":"Zillis-Reischen","admin3":"3712"},{"geonameid":11611713,"name":"Domleschg","admin3":"3673"},{"geonameid":12021850,"name":"Rheinwald","admin3":"3714"},{"geonameid":12206815,"name":"Muntogna da Schons","admin3":"3715"}],"alternateNames":[]},"__N_SSG":true}