{"pageProps":{"locale":"en","admin2":{"geonameid":4383238,"name":"Dallas County","country":"US","admin1":"MO","admin2":"059","admin3":"","latitude":"37.6804100","longitude":"-93.0236600","localeAltName":null},"admin1":{"geonameid":4398678,"name":"Missouri","admin1":"MO","localeAltName":"Missouri"},"locations":[{"geonameid":4379025,"name":"Buffalo","admin3":"52886","localeAltName":null}],"admin3":[{"geonameid":4388499,"name":"Township of Grant","admin3":"28450"},{"geonameid":4392225,"name":"Township of Jackson","admin3":"35720"},{"geonameid":4392361,"name":"Township of Jasper","admin3":"36494"},{"geonameid":4395355,"name":"Township of Lincoln","admin3":"42680"},{"geonameid":4398424,"name":"Township of Miller","admin3":"48188"},{"geonameid":4400759,"name":"Township of North Benton","admin3":"52886","localeAltName":null},{"geonameid":4408412,"name":"Township of Sheridan","admin3":"67304"},{"geonameid":4408425,"name":"Township of Sherman","admin3":"67412"},{"geonameid":4409337,"name":"Township of South Benton","admin3":"68636"},{"geonameid":4413686,"name":"Township of Washington","admin3":"77344"},{"geonameid":4415051,"name":"Township of Wilson","admin3":"80170"}],"alternateNames":[{"alternatenameId":2089572,"geonameid":4398678,"isoLanguage":"en","alternateName":"Missouri","isPreferredName":true,"isShortName":true,"isColloquial":false,"isHistoric":false}]},"__N_SSG":true}