{"pageProps":{"locale":"en","admin2":{"geonameid":5015979,"name":"Aitkin County","country":"US","admin1":"MN","admin2":"001","admin3":"","latitude":"46.6082600","longitude":"-93.4154300"},"admin1":{"geonameid":5037779,"name":"Minnesota","admin1":"MN","localeAltName":"Minnesota"},"locations":[{"geonameid":5015978,"name":"Aitkin","admin3":"00460"}],"admin3":[{"geonameid":5015982,"name":"City of Aitkin","admin3":"00460"},{"geonameid":5015983,"name":"Township of Aitkin","admin3":"00478"},{"geonameid":5017078,"name":"Township of Ball Bluff","admin3":"03358"},{"geonameid":5017108,"name":"Township of Balsam","admin3":"03412"},{"geonameid":5017649,"name":"Township of Beaver","admin3":"04384"},{"geonameid":5021442,"name":"Township of Clark","admin3":"11620"},{"geonameid":5022092,"name":"Township of Cornish","admin3":"13330"},{"geonameid":5023918,"name":"Unorganized Territory of Davidson","admin3":"14903"},{"geonameid":5026312,"name":"Township of Farm Island","admin3":"20654"},{"geonameid":5026931,"name":"Township of Fleming","admin3":"21230"},{"geonameid":5028041,"name":"Township of Glen","admin3":"23930"},{"geonameid":5029529,"name":"Township of Haugen","admin3":"27602"},{"geonameid":5029705,"name":"Township of Hazelton","admin3":"28052"},{"geonameid":5030121,"name":"City of Hill City","admin3":"29096"},{"geonameid":5030134,"name":"Township of Hill Lake","admin3":"29114"},{"geonameid":5031045,"name":"Township of Idun","admin3":"30788"},{"geonameid":5031913,"name":"Township of Jevne","admin3":"31958"},{"geonameid":5031920,"name":"Unorganized Territory of Jewett","admin3":"31966"},{"geonameid":5033232,"name":"Township of Kimberly","admin3":"33218"},{"geonameid":5034015,"name":"Township of Lakeside","admin3":"34982"},{"geonameid":5034398,"name":"Township of Lee","admin3":"36152"},{"geonameid":5034573,"name":"Township of Libby","admin3":"36908"},{"geonameid":5035422,"name":"Township of Logan","admin3":"37844"},{"geonameid":5036186,"name":"Township of Macville","admin3":"39212"},{"geonameid":5036362,"name":"Township of Malmo","admin3":"39590"},{"geonameid":5037037,"name":"City of McGrath","admin3":"38996"},{"geonameid":5037040,"name":"City of McGregor","admin3":"39014"},{"geonameid":5037041,"name":"Township of McGregor","admin3":"39032"},{"geonameid":5037581,"name":"Township of Millward","admin3":"42300"},{"geonameid":5038281,"name":"Township of Morrison","admin3":"44278"},{"geonameid":5039374,"name":"Township of Nordland","admin3":"46546"},{"geonameid":5039656,"name":"Unorganized Territory of Northeast Aitkin","admin3":"46890"},{"geonameid":5039722,"name":"Unorganized Territory of Northwest Aitkin","admin3":"47342"},{"geonameid":5040752,"name":"City of Palisade","admin3":"49498"},{"geonameid":5041902,"name":"Township of Pliny","admin3":"51694"},{"geonameid":5043157,"name":"Township of Rice River","admin3":"54106"},{"geonameid":5045783,"name":"Township of Salo","admin3":"58270"},{"geonameid":5046798,"name":"Township of Seavey","admin3":"59134"},{"geonameid":5047022,"name":"Township of Shamrock","admin3":"59368"},{"geonameid":5048120,"name":"Township of Spalding","admin3":"61546"},{"geonameid":5048154,"name":"Township of Spencer","admin3":"61654"},{"geonameid":5049700,"name":"City of Tamarack","admin3":"64156"},{"geonameid":5050641,"name":"Township of Turner","admin3":"65722"},{"geonameid":5051298,"name":"Township of Verdon","admin3":"66748"},{"geonameid":5051680,"name":"Township of Wagner","admin3":"67540"},{"geonameid":5052098,"name":"Township of Waukenabo","admin3":"68692"},{"geonameid":5052144,"name":"Township of Wealthwood","admin3":"68872"},{"geonameid":5052702,"name":"Township of White Pine","admin3":"70132"},{"geonameid":5052907,"name":"Township of Williams","admin3":"70384"},{"geonameid":5053455,"name":"Township of Workman","admin3":"71716"}],"alternateNames":[{"alternatenameId":2089541,"geonameid":5037779,"isoLanguage":"en","alternateName":"Minnesota","isPreferredName":true,"isShortName":true,"isColloquial":false,"isHistoric":false}]},"__N_SSG":true}