{"pageProps":{"locale":"en","admin2":{"geonameid":5016452,"name":"Anoka County","country":"US","admin1":"MN","admin2":"003","admin3":"","latitude":"45.2732400","longitude":"-93.2464500"},"admin1":{"geonameid":5037779,"name":"Minnesota","admin1":"MN","localeAltName":"Minnesota"},"locations":[{"geonameid":5016374,"name":"Andover","admin3":"01486"},{"geonameid":5016450,"name":"Anoka","admin3":"01720"},{"geonameid":5018651,"name":"Blaine","admin3":"06382"},{"geonameid":5020751,"name":"Centerville","admin3":"10648"},{"geonameid":5021323,"name":"Circle Pines","admin3":"11494"},{"geonameid":5021828,"name":"Columbia Heights","admin3":"12700"},{"geonameid":6332120,"name":"Columbus","admin3":"12718"},{"geonameid":5022025,"name":"Coon Rapids","admin3":"13114"},{"geonameid":5024937,"name":"East Bethel","admin3":"17486"},{"geonameid":5027482,"name":"Fridley","admin3":"22814"},{"geonameid":5029181,"name":"Ham Lake","admin3":"26738"},{"geonameid":5034562,"name":"Lexington","admin3":"11494"},{"geonameid":5034767,"name":"Lino Lakes","admin3":"37322"},{"geonameid":5281144,"name":"Nowthen","admin3":"47536"},{"geonameid":5039857,"name":"Oak Grove","admin3":"47690"},{"geonameid":5042561,"name":"Ramsey","admin3":"53026"},{"geonameid":5044485,"name":"Saint Francis","admin3":"56950"},{"geonameid":5048361,"name":"Spring Lake Park","admin3":""}],"admin3":[{"geonameid":5016376,"name":"City of Andover","admin3":"01486"},{"geonameid":5016454,"name":"City of Anoka","admin3":"01720"},{"geonameid":5018131,"name":"City of Bethel","admin3":"05554"},{"geonameid":5018655,"name":"City of Blaine","admin3":"06382"},{"geonameid":5020755,"name":"City of Centerville","admin3":"10648"},{"geonameid":5021324,"name":"City of Circle Pines","admin3":"11494"},{"geonameid":5021817,"name":"City of Columbia Heights","admin3":"12700"},{"geonameid":5022029,"name":"City of Coon Rapids","admin3":"13114"},{"geonameid":5024939,"name":"City of East Bethel","admin3":"17486"},{"geonameid":5027485,"name":"City of Fridley","admin3":"22814"},{"geonameid":5029186,"name":"City of Ham Lake","admin3":"26738"},{"geonameid":5030236,"name":"City of Hilltop","admin3":"29258"},{"geonameid":5034566,"name":"City of Lexington","admin3":"36836"},{"geonameid":5034768,"name":"City of Lino Lakes","admin3":"37322"},{"geonameid":5034778,"name":"Township of Linwood","admin3":"37376"},{"geonameid":5042581,"name":"City of Ramsey","admin3":"53026"},{"geonameid":5044518,"name":"City of Saint Francis","admin3":"56950"},{"geonameid":7163006,"name":"City of Columbus","admin3":"12718"},{"geonameid":7163858,"name":"City of Oak Grove","admin3":"47690"},{"geonameid":7187992,"name":"City of Nowthen","admin3":"47536"}],"alternateNames":[{"alternatenameId":2089541,"geonameid":5037779,"isoLanguage":"en","alternateName":"Minnesota","isPreferredName":true,"isShortName":true,"isColloquial":false,"isHistoric":false}]},"__N_SSG":true}