{"pageProps":{"locale":"en","admin2":{"geonameid":5017916,"name":"Benton County","country":"US","admin1":"MN","admin2":"009","admin3":"","latitude":"45.6991300","longitude":"-93.9988400"},"admin1":{"geonameid":5037779,"name":"Minnesota","admin1":"MN","localeAltName":"Minnesota"},"locations":[{"geonameid":5027025,"name":"Foley","admin3":"21536"},{"geonameid":5042998,"name":"Rice","admin3":"53998"},{"geonameid":5046038,"name":"Sauk Rapids","admin3":"58684"}],"admin3":[{"geonameid":5016047,"name":"Township of Alberta","admin3":"00668"},{"geonameid":5027043,"name":"City of Foley","admin3":"21536"},{"geonameid":5027982,"name":"City of Gilman","admin3":"23804"},{"geonameid":5027983,"name":"Township of Gilmanton","admin3":"23822"},{"geonameid":5028068,"name":"Township of Glendorado","admin3":"24020"},{"geonameid":5028479,"name":"Township of Graham","admin3":"24812"},{"geonameid":5028602,"name":"Township of Granite Ledge","admin3":"25298"},{"geonameid":5034179,"name":"Township of Langola","admin3":"35522"},{"geonameid":5036909,"name":"Township of Mayhew Lake","admin3":"41192"},{"geonameid":5036949,"name":"Township of Maywood","admin3":"41264"},{"geonameid":5037616,"name":"Township of Minden","admin3":"42434"},{"geonameid":5043159,"name":"City of Rice","admin3":"53998"},{"geonameid":5044531,"name":"Township of Saint George","admin3":"56986"},{"geonameid":5046044,"name":"City of Sauk Rapids","admin3":"58684"},{"geonameid":5046045,"name":"Township of Sauk Rapids","admin3":"58702"},{"geonameid":5052004,"name":"Township of Watab","admin3":"68476"}],"alternateNames":[{"alternatenameId":2089541,"geonameid":5037779,"isoLanguage":"en","alternateName":"Minnesota","isPreferredName":true,"isShortName":true,"isColloquial":false,"isHistoric":false}]},"__N_SSG":true}