{"pageProps":{"locale":"en","admin2":{"geonameid":5020499,"name":"Carver County","country":"US","admin1":"MN","admin2":"019","admin3":"","latitude":"44.8207600","longitude":"-93.8025800"},"admin1":{"geonameid":5037779,"name":"Minnesota","admin1":"MN","localeAltName":"Minnesota"},"locations":[{"geonameid":5020496,"name":"Carver","admin3":"10144"},{"geonameid":5020881,"name":"Chanhassen","admin3":"10918"},{"geonameid":5020938,"name":"Chaska","admin3":"10972"},{"geonameid":5021807,"name":"Cologne","admin3":"12664"},{"geonameid":5036896,"name":"Mayer","admin3":"41138"},{"geonameid":5039798,"name":"Norwood Young America","admin3":"47520"},{"geonameid":5051387,"name":"Victoria","admin3":"67036"},{"geonameid":5051640,"name":"Waconia","admin3":"67432"},{"geonameid":5052016,"name":"Watertown","admin3":"68548"}],"admin3":[{"geonameid":5017925,"name":"Township of Benton","admin3":"05266"},{"geonameid":5020089,"name":"Township of Camden","admin3":"09406"},{"geonameid":5020507,"name":"City of Carver","admin3":"10144"},{"geonameid":5020882,"name":"City of Chanhassen","admin3":"10918"},{"geonameid":5020941,"name":"City of Chaska","admin3":"10972"},{"geonameid":5021808,"name":"City of Cologne","admin3":"12664"},{"geonameid":5023736,"name":"Township of Dahlgren","admin3":"14482"},{"geonameid":5029190,"name":"City of Hamburg","admin3":"26666"},{"geonameid":5029244,"name":"Township of Hancock","admin3":"26918"},{"geonameid":5030454,"name":"Township of Hollywood","admin3":"29726"},{"geonameid":5034017,"name":"Township of Laketown","admin3":"35108"},{"geonameid":5036897,"name":"City of Mayer","admin3":"41138"},{"geonameid":5039087,"name":"City of New Germany","admin3":"45556"},{"geonameid":5045808,"name":"Township of San Francisco","admin3":"58486"},{"geonameid":5051391,"name":"City of Victoria","admin3":"67036"},{"geonameid":5051644,"name":"City of Waconia","admin3":"67432"},{"geonameid":5051646,"name":"Township of Waconia","admin3":"67450"},{"geonameid":5052017,"name":"City of Watertown","admin3":"68548"},{"geonameid":5052018,"name":"Township of Watertown","admin3":"68566"},{"geonameid":5053596,"name":"Township of Young America","admin3":"72130"},{"geonameid":7163854,"name":"City of Norwood Young America","admin3":"47520"}],"alternateNames":[{"alternatenameId":2089541,"geonameid":5037779,"isoLanguage":"en","alternateName":"Minnesota","isPreferredName":true,"isShortName":true,"isColloquial":false,"isHistoric":false}]},"__N_SSG":true}