{"pageProps":{"locale":"en","admin2":{"geonameid":5021444,"name":"Clay County","country":"US","admin1":"MN","admin2":"027","admin3":"","latitude":"46.8923400","longitude":"-96.4906500"},"admin1":{"geonameid":5037779,"name":"Minnesota","admin1":"MN","localeAltName":"Minnesota"},"locations":[{"geonameid":5017185,"name":"Barnesville","admin3":"03574"},{"geonameid":5024324,"name":"Dilworth","admin3":"15976"},{"geonameid":5028126,"name":"Glyndon","admin3":"24182"},{"geonameid":5029570,"name":"Hawley","admin3":"27746"},{"geonameid":5038108,"name":"Moorhead","admin3":"43864"},{"geonameid":5040007,"name":"Oakport","admin3":"43864"}],"admin3":[{"geonameid":5016173,"name":"Township of Alliance","admin3":"01054"},{"geonameid":5017188,"name":"City of Barnesville","admin3":"03574"},{"geonameid":5017189,"name":"Township of Barnesville","admin3":"03592"},{"geonameid":5021895,"name":"City of Comstock","admin3":"12862"},{"geonameid":5023416,"name":"Township of Cromwell","admin3":"13798"},{"geonameid":5024325,"name":"City of Dilworth","admin3":"15976"},{"geonameid":5025317,"name":"Township of Eglon","admin3":"18314"},{"geonameid":5025502,"name":"Township of Elkton","admin3":"18710"},{"geonameid":5025613,"name":"Township of Elmwood","admin3":"19052"},{"geonameid":5026402,"name":"City of Felton","admin3":"20834"},{"geonameid":5026403,"name":"Township of Felton","admin3":"20852"},{"geonameid":5027003,"name":"Township of Flowing","admin3":"21482"},{"geonameid":5027845,"name":"City of Georgetown","admin3":"23498"},{"geonameid":5027846,"name":"Township of Georgetown","admin3":"23516"},{"geonameid":5028127,"name":"City of Glyndon","admin3":"24182"},{"geonameid":5028128,"name":"Township of Glyndon","admin3":"24200"},{"geonameid":5028322,"name":"Township of Goose Prairie","admin3":"24542"},{"geonameid":5029122,"name":"Township of Hagen","admin3":"26504"},{"geonameid":5029574,"name":"City of Hawley","admin3":"27746"},{"geonameid":5029575,"name":"Township of Hawley","admin3":"27764"},{"geonameid":5030077,"name":"Township of Highland Grove","admin3":"28988"},{"geonameid":5030283,"name":"City of Hitterdal","admin3":"29402"},{"geonameid":5030504,"name":"Township of Holy Cross","admin3":"29906"},{"geonameid":5030897,"name":"Township of Humboldt","admin3":"30428"},{"geonameid":5033003,"name":"Township of Keene","admin3":"32552"},{"geonameid":5033492,"name":"Township of Kragnes","admin3":"33704"},{"geonameid":5033559,"name":"Township of Kurtz","admin3":"33812"},{"geonameid":5037962,"name":"Township of Moland","admin3":"43576"},{"geonameid":5038111,"name":"City of Moorhead","admin3":"43864"},{"geonameid":5038112,"name":"Township of Moorhead","admin3":"43882"},{"geonameid":5038240,"name":"Township of Morken","admin3":"44170"},{"geonameid":5040008,"name":"Township of Oakport","admin3":"47932"},{"geonameid":5040837,"name":"Township of Parke","admin3":"49678"},{"geonameid":5043404,"name":"Township of Riverton","admin3":"54718"},{"geonameid":5044138,"name":"City of Sabin","admin3":"56554"},{"geonameid":5047528,"name":"Township of Skree","admin3":"60718"},{"geonameid":5048376,"name":"Township of Spring Prairie","admin3":"62032"},{"geonameid":5049720,"name":"Township of Tansem","admin3":"64192"},{"geonameid":5050877,"name":"City of Ulen","admin3":"66136"},{"geonameid":5050878,"name":"Township of Ulen","admin3":"66154"},{"geonameid":5051406,"name":"Township of Viding","admin3":"67054"}],"alternateNames":[{"alternatenameId":2089541,"geonameid":5037779,"isoLanguage":"en","alternateName":"Minnesota","isPreferredName":true,"isShortName":true,"isColloquial":false,"isHistoric":false}]},"__N_SSG":true}