{"pageProps":{"locale":"en","admin2":{"geonameid":5030862,"name":"Hubbard County","country":"US","admin1":"MN","admin2":"057","admin3":"","latitude":"47.1086500","longitude":"-94.9166400"},"admin1":{"geonameid":5037779,"name":"Minnesota","admin1":"MN","localeAltName":"Minnesota"},"locations":[{"geonameid":5040822,"name":"Park Rapids","admin3":"49768"}],"admin3":[{"geonameid":5015987,"name":"City of Akeley","admin3":"00496"},{"geonameid":5015988,"name":"Township of Akeley","admin3":"00514"},{"geonameid":5016526,"name":"Township of Arago","admin3":"01918"},{"geonameid":5016986,"name":"Township of Badoura","admin3":"03178"},{"geonameid":5021446,"name":"Township of Clay","admin3":"11682"},{"geonameid":5021667,"name":"Township of Clover","admin3":"12232"},{"geonameid":5023548,"name":"Township of Crow Wing Lake","admin3":"14140"},{"geonameid":5026290,"name":"Township of Farden","admin3":"20528"},{"geonameid":5026433,"name":"Township of Fern","admin3":"20942"},{"geonameid":5029071,"name":"Township of Guthrie","admin3":"26360"},{"geonameid":5029453,"name":"Township of Hart Lake","admin3":"27386"},{"geonameid":5029820,"name":"Township of Helga","admin3":"28340"},{"geonameid":5029872,"name":"Township of Hendrickson","admin3":"28466"},{"geonameid":5029889,"name":"Township of Henrietta","admin3":"28556"},{"geonameid":5030865,"name":"Township of Hubbard","admin3":"30338"},{"geonameid":5033691,"name":"Township of Lake Alice","admin3":"34046"},{"geonameid":5033770,"name":"Township of Lake Emma","admin3":"34262"},{"geonameid":5033791,"name":"Township of Lake George","admin3":"34388"},{"geonameid":5033809,"name":"Township of Lake Hattie","admin3":"34460"},{"geonameid":5033975,"name":"Township of Lakeport","admin3":"34838"},{"geonameid":5034177,"name":"City of Laporte","admin3":"35612"},{"geonameid":5036472,"name":"Township of Mantrap","admin3":"40022"},{"geonameid":5039070,"name":"City of Nevis","admin3":"45340"},{"geonameid":5039071,"name":"Township of Nevis","admin3":"45358"},{"geonameid":5040824,"name":"City of Park Rapids","admin3":"49768"},{"geonameid":5043584,"name":"Township of Rockwood","admin3":"55132"},{"geonameid":5046694,"name":"Township of Schoolcraft","admin3":"58972"},{"geonameid":5048719,"name":"Township of Steamboat River","admin3":"62618"},{"geonameid":5048971,"name":"Township of Straight River","admin3":"63076"},{"geonameid":5050038,"name":"Township of Thorpe","admin3":"64804"},{"geonameid":5050171,"name":"Township of Todd","admin3":"65038"},{"geonameid":5052697,"name":"Township of White Oak","admin3":"70114"}],"alternateNames":[{"alternatenameId":2089541,"geonameid":5037779,"isoLanguage":"en","alternateName":"Minnesota","isPreferredName":true,"isShortName":true,"isColloquial":false,"isHistoric":false}]},"__N_SSG":true}