{"pageProps":{"locale":"en","admin2":{"geonameid":5031616,"name":"Itasca County","country":"US","admin1":"MN","admin2":"061","admin3":"","latitude":"47.5095300","longitude":"-93.6320000"},"admin1":{"geonameid":5037779,"name":"Minnesota","admin1":"MN","localeAltName":"Minnesota"},"locations":[{"geonameid":5021723,"name":"Cohasset","admin3":"12412"},{"geonameid":5021769,"name":"Coleraine","admin3":"12502"},{"geonameid":5028537,"name":"Grand Rapids","admin3":"25118"},{"geonameid":5032963,"name":"Keewatin","admin3":"32570"}],"admin3":[{"geonameid":4832714,"name":"Township of Marcell","admin3":"40472"},{"geonameid":5016242,"name":"Township of Alvwood","admin3":"01288"},{"geonameid":5016528,"name":"Township of Arbo","admin3":"01936"},{"geonameid":5016558,"name":"Township of Ardenhurst","admin3":"02044"},{"geonameid":5017109,"name":"Township of Balsam","admin3":"03430"},{"geonameid":5017536,"name":"Township of Bearville","admin3":"04276"},{"geonameid":5018413,"name":"City of Bigfork","admin3":"05698"},{"geonameid":5018414,"name":"Township of Bigfork","admin3":"05716"},{"geonameid":5018614,"name":"Township of Blackberry","admin3":"06220"},{"geonameid":5019026,"name":"City of Bovey","admin3":"07048"},{"geonameid":5019049,"name":"Unorganized Territory of Bowstring Lake","admin3":"07105"},{"geonameid":5019053,"name":"Township of Bowstring","admin3":"07102"},{"geonameid":5020466,"name":"Township of Carpenter","admin3":"10072"},{"geonameid":5021771,"name":"City of Coleraine","admin3":"12502"},{"geonameid":5024090,"name":"Unorganized Territory of Deer Lake","admin3":"15277"},{"geonameid":5024105,"name":"City of Deer River","admin3":"15310"},{"geonameid":5024106,"name":"Township of Deer River","admin3":"15328"},{"geonameid":5025298,"name":"City of Effie","admin3":"18260"},{"geonameid":5025299,"name":"Unorganized Territory of Effie","admin3":"18265"},{"geonameid":5026388,"name":"Township of Feeley","admin3":"20816"},{"geonameid":5028182,"name":"Township of Good Hope","admin3":"24362"},{"geonameid":5028246,"name":"Township of Goodland","admin3":"24452"},{"geonameid":5028686,"name":"Township of Grattan","admin3":"25460"},{"geonameid":5028837,"name":"Township of Greenway","admin3":"25892"},{"geonameid":5029422,"name":"Township of Harris","admin3":"27296"},{"geonameid":5032964,"name":"City of Keewatin","admin3":"32570"},{"geonameid":5033289,"name":"Township of Kinghurst","admin3":"33272"},{"geonameid":5033827,"name":"Township of Lake Jessie","admin3":"34568"},{"geonameid":5034289,"name":"Township of Lawrence","admin3":"35900"},{"geonameid":5035233,"name":"Unorganized Territory of Little Sand Lake","admin3":"37691"},{"geonameid":5035455,"name":"Township of Lone Pine","admin3":"37934"},{"geonameid":5036884,"name":"Township of Max","admin3":"41066"},{"geonameid":5038172,"name":"Township of Moose Park","admin3":"44008"},{"geonameid":5038288,"name":"Township of Morse","admin3":"44332"},{"geonameid":5038919,"name":"Township of Nashwauk","admin3":"44998"},{"geonameid":5039376,"name":"Township of Nore","admin3":"46582"},{"geonameid":5039658,"name":"Unorganized Territory of Northeast Itasca","admin3":"46894"},{"geonameid":5040465,"name":"Township of Oteneagen","admin3":"49048"},{"geonameid":5042001,"name":"Township of Pomroy","admin3":"51856"},{"geonameid":5044214,"name":"Township of Sago","admin3":"56644"},{"geonameid":5045882,"name":"Township of Sand Lake","admin3":"58360"},{"geonameid":5048122,"name":"Township of Spang","admin3":"61564"},{"geonameid":5048225,"name":"Township of Splithand","admin3":"61700"},{"geonameid":5048482,"name":"City of Squaw Lake","admin3":"62284"},{"geonameid":5048849,"name":"Township of Stokes","admin3":"62914"},{"geonameid":5049950,"name":"Township of Third River","admin3":"64606"},{"geonameid":5050585,"name":"Township of Trout Lake","admin3":"65596"},{"geonameid":5051590,"name":"Township of Wabana","admin3":"67360"},{"geonameid":5051853,"name":"City of Warba","admin3":"68080"},{"geonameid":5052120,"name":"Township of Wawina","admin3":"68800"},{"geonameid":5052859,"name":"Township of Wildwood","admin3":"70306"},{"geonameid":5053226,"name":"Township of Wirt","admin3":"71194"},{"geonameid":5053624,"name":"City of Zemple","admin3":"72184"},{"geonameid":7162994,"name":"City of Cohasset","admin3":"12412"},{"geonameid":7163668,"name":"City of Grand Rapids","admin3":"25118"},{"geonameid":7164008,"name":"City of La Prairie","admin3":"35648"},{"geonameid":7164242,"name":"City of Taconite","admin3":"64048"}],"alternateNames":[{"alternatenameId":2089541,"geonameid":5037779,"isoLanguage":"en","alternateName":"Minnesota","isPreferredName":true,"isShortName":true,"isColloquial":false,"isHistoric":false}]},"__N_SSG":true}