{"pageProps":{"locale":"en","admin2":{"geonameid":5036279,"name":"Mahnomen County","country":"US","admin1":"MN","admin2":"087","admin3":"","latitude":"47.3252400","longitude":"-95.8090500"},"admin1":{"geonameid":5037779,"name":"Minnesota","admin1":"MN","localeAltName":"Minnesota"},"locations":[{"geonameid":5036278,"name":"Mahnomen","admin3":"39392"}],"admin3":[{"geonameid":5017557,"name":"Township of Beaulieu","admin3":"04366"},{"geonameid":5017717,"name":"City of Bejou","admin3":"04672"},{"geonameid":5017718,"name":"Township of Bejou","admin3":"04690"},{"geonameid":5021016,"name":"Township of Chief","admin3":"11314"},{"geonameid":5021668,"name":"Township of Clover","admin3":"12250"},{"geonameid":5028881,"name":"Township of Gregory","admin3":"25946"},{"geonameid":5029788,"name":"Township of Heier","admin3":"28232"},{"geonameid":5031572,"name":"Township of Island Lake","admin3":"31418"},{"geonameid":5033597,"name":"Township of La Garde","admin3":"33956"},{"geonameid":5033797,"name":"Township of Lake Grove","admin3":"34424"},{"geonameid":5034962,"name":"Township of Little Elbow","admin3":"37530"},{"geonameid":5036286,"name":"City of Mahnomen","admin3":"39392"},{"geonameid":5036765,"name":"Township of Marsh Creek","admin3":"40742"},{"geonameid":5040003,"name":"Township of Oakland","admin3":"47806"},{"geonameid":5041101,"name":"Township of Pembina","admin3":"50218"},{"geonameid":5042099,"name":"Township of Popple Grove","admin3":"52054"},{"geonameid":5043810,"name":"Township of Rosedale","admin3":"55618"},{"geonameid":5050803,"name":"Township of Twin Lakes","admin3":"65929"},{"geonameid":5052092,"name":"City of Waubun","admin3":"68674"}],"alternateNames":[{"alternatenameId":2089541,"geonameid":5037779,"isoLanguage":"en","alternateName":"Minnesota","isPreferredName":true,"isShortName":true,"isColloquial":false,"isHistoric":false}]},"__N_SSG":true}