{"pageProps":{"locale":"en","admin2":{"geonameid":5037083,"name":"McLeod County","country":"US","admin1":"MN","admin2":"085","admin3":"","latitude":"44.8235400","longitude":"-94.2724200"},"admin1":{"geonameid":5037779,"name":"Minnesota","admin1":"MN","localeAltName":"Minnesota"},"locations":[{"geonameid":5028042,"name":"Glencoe","admin3":"23948"},{"geonameid":5030977,"name":"Hutchinson","admin3":"30644"},{"geonameid":5034516,"name":"Lester Prairie","admin3":"36728"},{"geonameid":5053185,"name":"Winsted","admin3":"71086"}],"admin3":[{"geonameid":5015825,"name":"Township of Acoma","admin3":"00136"},{"geonameid":5017960,"name":"Township of Bergen","admin3":"05338"},{"geonameid":5018533,"name":"City of Biscay","admin3":"06112"},{"geonameid":5019465,"name":"City of Brownton","admin3":"08254"},{"geonameid":5021793,"name":"Township of Collins","admin3":"12610"},{"geonameid":5028057,"name":"City of Glencoe","admin3":"23948"},{"geonameid":5028058,"name":"Township of Glencoe","admin3":"23966"},{"geonameid":5029137,"name":"Township of Hale","admin3":"26540"},{"geonameid":5029493,"name":"Township of Hassan Valley","admin3":"27494"},{"geonameid":5029814,"name":"Township of Helen","admin3":"28304"},{"geonameid":5030999,"name":"City of Hutchinson","admin3":"30644"},{"geonameid":5031000,"name":"Township of Hutchinson","admin3":"30662"},{"geonameid":5034524,"name":"City of Lester Prairie","admin3":"36728"},{"geonameid":5036127,"name":"Township of Lynn","admin3":"38798"},{"geonameid":5041118,"name":"Township of Penn","admin3":"50308"},{"geonameid":5041817,"name":"City of Plato","admin3":"51460"},{"geonameid":5043173,"name":"Township of Rich Valley","admin3":"54322"},{"geonameid":5043852,"name":"Township of Round Grove","admin3":"56032"},{"geonameid":5047381,"name":"City of Silver Lake","admin3":"60376"},{"geonameid":5048795,"name":"City of Stewart","admin3":"62788"},{"geonameid":5049185,"name":"Township of Sumter","admin3":"63436"},{"geonameid":5053195,"name":"City of Winsted","admin3":"71086"},{"geonameid":5053196,"name":"Township of Winsted","admin3":"71104"}],"alternateNames":[{"alternatenameId":2089541,"geonameid":5037779,"isoLanguage":"en","alternateName":"Minnesota","isPreferredName":true,"isShortName":true,"isColloquial":false,"isHistoric":false}]},"__N_SSG":true}