{"pageProps":{"locale":"en","admin2":{"geonameid":5041542,"name":"Pine County","country":"US","admin1":"MN","admin2":"115","admin3":"","latitude":"46.1207700","longitude":"-92.7412700"},"admin1":{"geonameid":5037779,"name":"Minnesota","admin1":"MN","localeAltName":"Minnesota"},"locations":[{"geonameid":5030242,"name":"Hinckley","admin3":"29294"},{"geonameid":5041525,"name":"Pine City","admin3":"51064"},{"geonameid":5043510,"name":"Rock Creek","admin3":"54934"},{"geonameid":5045908,"name":"Sandstone","admin3":"58396"}],"admin3":[{"geonameid":5016593,"name":"Township of Arlone","admin3":"02188"},{"geonameid":5016613,"name":"Township of Arna","admin3":"02224"},{"geonameid":5016727,"name":"City of Askov","admin3":"02548"},{"geonameid":5017223,"name":"Township of Barry","admin3":"03736"},{"geonameid":5018447,"name":"Township of Birch Creek","admin3":"05986"},{"geonameid":5019202,"name":"Township of Bremen","admin3":"07552"},{"geonameid":5019322,"name":"City of Brook Park","admin3":"07984"},{"geonameid":5019323,"name":"Township of Brook Park","admin3":"08002"},{"geonameid":5019489,"name":"City of Bruno","admin3":"08290"},{"geonameid":5019490,"name":"Township of Bruno","admin3":"08308"},{"geonameid":5020967,"name":"Township of Chengwatana","admin3":"11098"},{"geonameid":5021669,"name":"Township of Clover","admin3":"12268"},{"geonameid":5023476,"name":"Township of Crosby","admin3":"13942"},{"geonameid":5023816,"name":"Township of Danforth","admin3":"14680"},{"geonameid":5024177,"name":"Township of Dell Grove","admin3":"15598"},{"geonameid":5024199,"name":"City of Denham","admin3":"15670"},{"geonameid":5026519,"name":"City of Finlayson","admin3":"21122"},{"geonameid":5026520,"name":"Township of Finlayson","admin3":"21140"},{"geonameid":5026932,"name":"Township of Fleming","admin3":"21248"},{"geonameid":5029893,"name":"City of Henriette","admin3":"28574"},{"geonameid":5030257,"name":"City of Hinckley","admin3":"29294"},{"geonameid":5030258,"name":"Township of Hinckley","admin3":"29312"},{"geonameid":5033137,"name":"City of Kerrick","admin3":"32912"},{"geonameid":5033138,"name":"Township of Kerrick","admin3":"32930"},{"geonameid":5033166,"name":"Township of Kettle River","admin3":"32984"},{"geonameid":5037884,"name":"Township of Mission Creek","admin3":"43486"},{"geonameid":5038749,"name":"Township of Munch","admin3":"44764"},{"geonameid":5039083,"name":"Township of New Dosey","admin3":"45484"},{"geonameid":5039236,"name":"Township of Nickerson","admin3":"46132"},{"geonameid":5039385,"name":"Township of Norman","admin3":"46618"},{"geonameid":5040073,"name":"Township of Ogema","admin3":"48148"},{"geonameid":5040834,"name":"Township of Park","admin3":"49660"},{"geonameid":5040919,"name":"Township of Partridge","admin3":"49876"},{"geonameid":5041527,"name":"City of Pine City","admin3":"51064"},{"geonameid":5041541,"name":"Township of Pine City","admin3":"51082"},{"geonameid":5041636,"name":"Township of Pine Lake","admin3":"51226"},{"geonameid":5041961,"name":"Township of Pokegama","admin3":"51784"},{"geonameid":5043516,"name":"City of Rock Creek","admin3":"54934"},{"geonameid":5043964,"name":"Township of Royalton","admin3":"56194"},{"geonameid":5044114,"name":"City of Rutledge","admin3":"56518"},{"geonameid":5045920,"name":"City of Sandstone","admin3":"58396"},{"geonameid":5045921,"name":"Township of Sandstone","admin3":"58414"},{"geonameid":5049069,"name":"City of Sturgeon Lake","admin3":"63220"},{"geonameid":5049070,"name":"Township of Sturgeon Lake","admin3":"63238"},{"geonameid":5052988,"name":"City of Willow River","admin3":"70492"},{"geonameid":5052996,"name":"Township of Wilma","admin3":"70528"},{"geonameid":5053080,"name":"Township of Windemere","admin3":"70780"}],"alternateNames":[{"alternatenameId":2089541,"geonameid":5037779,"isoLanguage":"en","alternateName":"Minnesota","isPreferredName":true,"isShortName":true,"isColloquial":false,"isHistoric":false}]},"__N_SSG":true}