{"pageProps":{"locale":"en","admin2":{"geonameid":5041756,"name":"Pipestone County","country":"US","admin1":"MN","admin2":"117","admin3":"","latitude":"44.0230000","longitude":"-96.2586400"},"admin1":{"geonameid":5037779,"name":"Minnesota","admin1":"MN","localeAltName":"Minnesota"},"locations":[{"geonameid":5025249,"name":"Edgerton","admin3":"18152"},{"geonameid":5041752,"name":"Pipestone","admin3":"51388"}],"admin3":[{"geonameid":5015910,"name":"Township of Aetna","admin3":"00298"},{"geonameid":5016225,"name":"Township of Altona","admin3":"01216"},{"geonameid":5019741,"name":"Township of Burke","admin3":"08650"},{"geonameid":5025246,"name":"Township of Eden","admin3":"18062"},{"geonameid":5025256,"name":"City of Edgerton","admin3":"18152"},{"geonameid":5025590,"name":"Township of Elmer","admin3":"18908"},{"geonameid":5027220,"name":"Township of Fountain Prairie","admin3":"22130"},{"geonameid":5028566,"name":"Township of Grange","admin3":"25208"},{"geonameid":5028699,"name":"Township of Gray","admin3":"25478"},{"geonameid":5029516,"name":"City of Hatfield","admin3":"27566"},{"geonameid":5030417,"name":"City of Holland","admin3":"29618"},{"geonameid":5031052,"name":"City of Ihlen","admin3":"30806"},{"geonameid":5031788,"name":"City of Jasper","admin3":"31760"},{"geonameid":5040403,"name":"Township of Osborne","admin3":"48832"},{"geonameid":5041773,"name":"City of Pipestone","admin3":"51388"},{"geonameid":5043554,"name":"Township of Rock","admin3":"54916"},{"geonameid":5044110,"name":"City of Ruthton","admin3":"56482"},{"geonameid":5049507,"name":"Township of Sweet","admin3":"63886"},{"geonameid":5050560,"name":"City of Trosky","admin3":"65542"},{"geonameid":5050597,"name":"Township of Troy","admin3":"65614"},{"geonameid":5053438,"name":"City of Woodstock","admin3":"71680"}],"alternateNames":[{"alternatenameId":2089541,"geonameid":5037779,"isoLanguage":"en","alternateName":"Minnesota","isPreferredName":true,"isShortName":true,"isColloquial":false,"isHistoric":false}]},"__N_SSG":true}