{"pageProps":{"locale":"en","admin2":{"geonameid":5042928,"name":"Renville County","country":"US","admin1":"MN","admin2":"129","admin3":"","latitude":"44.7268100","longitude":"-94.9471400"},"admin1":{"geonameid":5037779,"name":"Minnesota","admin1":"MN","localeAltName":"Minnesota"},"locations":[{"geonameid":5026094,"name":"Fairfax","admin3":"20222"},{"geonameid":5029756,"name":"Hector","admin3":"28124"},{"geonameid":5040195,"name":"Olivia","admin3":"48256"},{"geonameid":5042924,"name":"Renville","admin3":"53890"}],"admin3":[{"geonameid":5017129,"name":"Township of Bandon","admin3":"03484"},{"geonameid":5017603,"name":"Township of Beaver Falls","admin3":"04546"},{"geonameid":5018441,"name":"Township of Birch Cooley","admin3":"05968"},{"geonameid":5018522,"name":"City of Bird Island","admin3":"06076"},{"geonameid":5018523,"name":"Township of Bird Island","admin3":"06094"},{"geonameid":5018953,"name":"Township of Boon Lake","admin3":"06976"},{"geonameid":5019327,"name":"Township of Brookfield","admin3":"07912"},{"geonameid":5019633,"name":"City of Buffalo Lake","admin3":"08488"},{"geonameid":5019929,"name":"Township of Cairo","admin3":"09208"},{"geonameid":5020209,"name":"Township of Camp","admin3":"09478"},{"geonameid":5023464,"name":"Township of Crooks","admin3":"13852"},{"geonameid":5023841,"name":"City of Danube","admin3":"14716"},{"geonameid":5025732,"name":"Township of Emmet","admin3":"19322"},{"geonameid":5025830,"name":"Township of Ericson","admin3":"19628"},{"geonameid":5026099,"name":"City of Fairfax","admin3":"20222"},{"geonameid":5026971,"name":"Township of Flora","admin3":"21374"},{"geonameid":5027351,"name":"City of Franklin","admin3":"22364"},{"geonameid":5029561,"name":"Township of Hawk Creek","admin3":"27728"},{"geonameid":5029762,"name":"City of Hector","admin3":"28124"},{"geonameid":5029763,"name":"Township of Hector","admin3":"28142"},{"geonameid":5029915,"name":"Township of Henryville","admin3":"28610"},{"geonameid":5033290,"name":"Township of Kingman","admin3":"33290"},{"geonameid":5036789,"name":"Township of Martinsburg","admin3":"40832"},{"geonameid":5037255,"name":"Township of Melville","admin3":"41624"},{"geonameid":5038300,"name":"City of Morton","admin3":"44368"},{"geonameid":5039378,"name":"Township of Norfolk","admin3":"46600"},{"geonameid":5040208,"name":"City of Olivia","admin3":"48256"},{"geonameid":5040412,"name":"Township of Osceola","admin3":"48868"},{"geonameid":5040769,"name":"Township of Palmyra","admin3":"49606"},{"geonameid":5042336,"name":"Township of Preston Lake","admin3":"52486"},{"geonameid":5042941,"name":"City of Renville","admin3":"53890"},{"geonameid":5044197,"name":"Township of Sacred Heart","admin3":"56590"},{"geonameid":5044506,"name":"City of Sacred Heart","admin3":"56572"},{"geonameid":5050598,"name":"Township of Troy","admin3":"65632"},{"geonameid":5051827,"name":"Township of Wang","admin3":"68026"},{"geonameid":5052237,"name":"Township of Wellington","admin3":"69088"},{"geonameid":5053117,"name":"Township of Winfield","admin3":"70852"}],"alternateNames":[{"alternatenameId":2089541,"geonameid":5037779,"isoLanguage":"en","alternateName":"Minnesota","isPreferredName":true,"isShortName":true,"isColloquial":false,"isHistoric":false}]},"__N_SSG":true}