{"pageProps":{"locale":"en","admin2":{"geonameid":5043007,"name":"Rice County","country":"US","admin1":"MN","admin2":"131","admin3":"","latitude":"44.3542600","longitude":"-93.2966800"},"admin1":{"geonameid":5037779,"name":"Minnesota","admin1":"MN","localeAltName":"Minnesota"},"locations":[{"geonameid":5024756,"name":"Dundas","admin3":"17126"},{"geonameid":5026291,"name":"Faribault","admin3":"20546"},{"geonameid":5035679,"name":"Lonsdale","admin3":"38150"},{"geonameid":5039675,"name":"Northfield","admin3":"46924"}],"admin3":[{"geonameid":5019256,"name":"Township of Bridgewater","admin3":"07714"},{"geonameid":5020278,"name":"Township of Cannon City","admin3":"09712"},{"geonameid":5024757,"name":"City of Dundas","admin3":"17126"},{"geonameid":5025846,"name":"Township of Erin","admin3":"19682"},{"geonameid":5026300,"name":"City of Faribault","admin3":"20546"},{"geonameid":5027133,"name":"Township of Forest","admin3":"21680"},{"geonameid":5035680,"name":"City of Lonsdale","admin3":"38150"},{"geonameid":5038285,"name":"City of Morristown","admin3":"44296"},{"geonameid":5038286,"name":"Township of Morristown","admin3":"44314"},{"geonameid":5039019,"name":"City of Nerstrand","admin3":"45196"},{"geonameid":5039676,"name":"City of Northfield","admin3":"46924"},{"geonameid":5039677,"name":"Township of Northfield","admin3":"46942"},{"geonameid":5043203,"name":"Township of Richland","admin3":"54250"},{"geonameid":5047184,"name":"Township of Shieldsville","admin3":"59854"},{"geonameid":5051718,"name":"Township of Walcott","admin3":"67666"},{"geonameid":5051899,"name":"Township of Warsaw","admin3":"68278"},{"geonameid":5052178,"name":"Township of Webster","admin3":"68962"},{"geonameid":5052255,"name":"Township of Wells","admin3":"69124"},{"geonameid":5052599,"name":"Township of Wheatland","admin3":"69826"},{"geonameid":5052625,"name":"Township of Wheeling","admin3":"69862"}],"alternateNames":[{"alternatenameId":2089541,"geonameid":5037779,"isoLanguage":"en","alternateName":"Minnesota","isPreferredName":true,"isShortName":true,"isColloquial":false,"isHistoric":false}]},"__N_SSG":true}