{"pageProps":{"locale":"en","admin2":{"geonameid":5043502,"name":"Rock County","country":"US","admin1":"MN","admin2":"133","admin3":"","latitude":"43.6746300","longitude":"-96.2532100"},"admin1":{"geonameid":5037779,"name":"Minnesota","admin1":"MN","localeAltName":"Minnesota"},"locations":[{"geonameid":5036062,"name":"Luverne","admin3":"38564"}],"admin3":[{"geonameid":5017370,"name":"Township of Battle Plain","admin3":"03988"},{"geonameid":5017595,"name":"Township of Beaver Creek","admin3":"04510"},{"geonameid":5017643,"name":"City of Beaver Creek","admin3":"04492"},{"geonameid":5021618,"name":"Township of Clinton","admin3":"11998"},{"geonameid":5024216,"name":"Township of Denver","admin3":"15742"},{"geonameid":5029352,"name":"City of Hardwick","admin3":"27116"},{"geonameid":5030184,"name":"City of Hills","admin3":"29204"},{"geonameid":5032862,"name":"Township of Kanaranzi","admin3":"32336"},{"geonameid":5033060,"name":"City of Kenneth","admin3":"32750"},{"geonameid":5036072,"name":"City of Luverne","admin3":"38564"},{"geonameid":5036073,"name":"Township of Luverne","admin3":"38582"},{"geonameid":5036267,"name":"City of Magnolia","admin3":"39338"},{"geonameid":5036268,"name":"Township of Magnolia","admin3":"39356"},{"geonameid":5036787,"name":"Township of Martin","admin3":"40796"},{"geonameid":5038369,"name":"Township of Mound","admin3":"44494"},{"geonameid":5043723,"name":"Township of Rose Dell","admin3":"55654"},{"geonameid":5048427,"name":"Township of Springwater","admin3":"62140"},{"geonameid":5048709,"name":"City of Steen","admin3":"62662"},{"geonameid":5051408,"name":"Township of Vienna","admin3":"67072"}],"alternateNames":[{"alternatenameId":2089541,"geonameid":5037779,"isoLanguage":"en","alternateName":"Minnesota","isPreferredName":true,"isShortName":true,"isColloquial":false,"isHistoric":false}]},"__N_SSG":true}