{"pageProps":{"locale":"en","admin2":{"geonameid":5045020,"name":"Saint Louis County","country":"US","admin1":"MN","admin2":"137","admin3":"","latitude":"47.5898600","longitude":"-92.4614700"},"admin1":{"geonameid":5037779,"name":"Minnesota","admin1":"MN","localeAltName":"Minnesota"},"locations":[{"geonameid":5016617,"name":"Arnold","admin3":"54060"},{"geonameid":5016877,"name":"Aurora","admin3":"69898"},{"geonameid":5016937,"name":"Babbitt","admin3":"03106"},{"geonameid":5021088,"name":"Chisholm","admin3":"11386"},{"geonameid":5024719,"name":"Duluth","admin3":"17000"},{"geonameid":5025627,"name":"Ely","admin3":"19142"},{"geonameid":5025971,"name":"Eveleth","admin3":"19934"},{"geonameid":5027943,"name":"Gilbert","admin3":"23714"},{"geonameid":5029952,"name":"Hermantown","admin3":"28682"},{"geonameid":5030005,"name":"Hibbing","admin3":"28790"},{"geonameid":5030856,"name":"Hoyt Lakes","admin3":"30302"},{"geonameid":5038433,"name":"Mountain Iron","admin3":"44548"},{"geonameid":5040863,"name":"Parkville","admin3":"44548"},{"geonameid":5042412,"name":"Proctor","admin3":"52630"},{"geonameid":5051468,"name":"Virginia","admin3":"67288"}],"admin3":[{"geonameid":5016070,"name":"Township of Alborn","admin3":"00820"},{"geonameid":5016072,"name":"Township of Alango","admin3":"00568"},{"geonameid":5016090,"name":"Township of Alden","admin3":"00874"},{"geonameid":5016402,"name":"Township of Angora","admin3":"01612"},{"geonameid":5016645,"name":"Township of Arrowhead","admin3":"02278"},{"geonameid":5016868,"name":"Township of Ault","admin3":"02818"},{"geonameid":5016939,"name":"City of Babbitt","admin3":"03106"},{"geonameid":5017072,"name":"Township of Balkan","admin3":"03322"},{"geonameid":5017339,"name":"Township of Bassett","admin3":"03880"},{"geonameid":5017545,"name":"Township of Beatty","admin3":"04294"},{"geonameid":5018485,"name":"Unorganized Territory of Birch Lake","admin3":"06042"},{"geonameid":5018542,"name":"City of Biwabik","admin3":"06148"},{"geonameid":5018543,"name":"Township of Biwabik","admin3":"06166"},{"geonameid":5019196,"name":"Township of Breitung","admin3":"07534"},{"geonameid":5019217,"name":"Township of Brevator","admin3":"07606"},{"geonameid":5019354,"name":"City of Brookston","admin3":"08056"},{"geonameid":5019668,"name":"City of Buhl","admin3":"08524"},{"geonameid":5020331,"name":"Township of Canosia","admin3":"09784"},{"geonameid":5020704,"name":"Township of Cedar Valley","admin3":"10540"},{"geonameid":5020984,"name":"Township of Cherry","admin3":"11134"},{"geonameid":5021206,"name":"City of Chisholm","admin3":"11386"},{"geonameid":5021619,"name":"Township of Clinton","admin3":"12016"},{"geonameid":5021835,"name":"Township of Colvin","admin3":"12736"},{"geonameid":5021990,"name":"City of Cook","admin3":"13006"},{"geonameid":5022146,"name":"Township of Cotton","admin3":"13528"},{"geonameid":5023361,"name":"Township of Crane Lake","admin3":"13656"},{"geonameid":5023627,"name":"Township of Culver","admin3":"14284"},{"geonameid":5024729,"name":"City of Duluth","admin3":"17000"},{"geonameid":5024730,"name":"Township of Duluth","admin3":"17018"},{"geonameid":5024914,"name":"Township of Eagles Nest","admin3":"17440"},{"geonameid":5025542,"name":"Township of Ellsburg","admin3":"18800"},{"geonameid":5025591,"name":"Township of Elmer","admin3":"18944"},{"geonameid":5025637,"name":"City of Ely","admin3":"19142"},{"geonameid":5025683,"name":"Township of Embarrass","admin3":"19232"},{"geonameid":5025977,"name":"City of Eveleth","admin3":"19934"},{"geonameid":5026093,"name":"Township of Fairbanks","admin3":"20186"},{"geonameid":5026371,"name":"Township of Fayal","admin3":"20762"},{"geonameid":5026457,"name":"Township of Field","admin3":"20996"},{"geonameid":5026499,"name":"Township of Fine Lakes","admin3":"21086"},{"geonameid":5026967,"name":"Township of Floodwood","admin3":"21356"},{"geonameid":5026989,"name":"City of Floodwood","admin3":"21338"},{"geonameid":5027376,"name":"Township of Fredenberg","admin3":"22508"},{"geonameid":5027469,"name":"Township of French","admin3":"22724"},{"geonameid":5027913,"name":"Unorganized Territory of Gheen","admin3":"23632"},{"geonameid":5027952,"name":"City of Gilbert","admin3":"23714"},{"geonameid":5028133,"name":"Township of Gnesen","admin3":"24218"},{"geonameid":5028499,"name":"Township of Grand Lake","admin3":"24956"},{"geonameid":5028717,"name":"Township of Great Scott","admin3":"25550"},{"geonameid":5028872,"name":"Township of Greenwood","admin3":"25928"},{"geonameid":5029131,"name":"Township of Halden","admin3":"26522"},{"geonameid":5029637,"name":"Unorganized Territory of Hay Lake","admin3":"27899"},{"geonameid":5029955,"name":"City of Hermantown","admin3":"28682"},{"geonameid":5030015,"name":"City of Hibbing","admin3":"28790"},{"geonameid":5030857,"name":"City of Hoyt Lakes","admin3":"30302"},{"geonameid":5031260,"name":"Township of Industrial","admin3":"30932"},{"geonameid":5031446,"name":"City of Iron Junction","admin3":"31238"},{"geonameid":5031763,"name":"Unorganized Territory of Janette Lake","admin3":"31733"},{"geonameid":5033026,"name":"Township of Kelsey","admin3":"32696"},{"geonameid":5033545,"name":"Township of Kugler","admin3":"33794"},{"geonameid":5034073,"name":"Township of Lakewood","admin3":"35234"},{"geonameid":5034257,"name":"Township of Lavell","admin3":"35774"},{"geonameid":5034437,"name":"Township of Leiding","admin3":"36332"},{"geonameid":5034491,"name":"City of Leonidas","admin3":"36530"},{"geonameid":5034726,"name":"Township of Linden Grove","admin3":"37250"},{"geonameid":5036995,"name":"Unorganized Territory of McCormack","admin3":"38938"},{"geonameid":5037007,"name":"Township of McDavitt","admin3":"38960"},{"geonameid":5037076,"name":"City of McKinley","admin3":"39140"},{"geonameid":5037146,"name":"City of Meadowlands","admin3":"41372"},{"geonameid":5037147,"name":"Township of Meadowlands","admin3":"41390"},{"geonameid":5037440,"name":"Township of Midway","admin3":"42056"},{"geonameid":5038215,"name":"Township of Morcom","admin3":"44098"},{"geonameid":5038289,"name":"Township of Morse","admin3":"44350"},{"geonameid":5038435,"name":"City of Mountain Iron","admin3":"44548"},{"geonameid":5039043,"name":"Township of Ness","admin3":"45232"},{"geonameid":5039054,"name":"Unorganized Territory of Nett Lake","admin3":"45281"},{"geonameid":5039104,"name":"Township of New Independence","admin3":"45664"},{"geonameid":5039392,"name":"Township of Normanna","admin3":"46708"},{"geonameid":5039621,"name":"Township of North Star","admin3":"47255"},{"geonameid":5039685,"name":"Township of Northland","admin3":"47050"},{"geonameid":5040352,"name":"City of Orr","admin3":"48634"},{"geonameid":5040668,"name":"Township of Owens","admin3":"49336"},{"geonameid":5041145,"name":"Township of Pequaywan","admin3":"50389"},{"geonameid":5041477,"name":"Township of Pike","admin3":"50830"},{"geonameid":5042148,"name":"Township of Portage","admin3":"52090"},{"geonameid":5042202,"name":"Unorganized Territory of Potshot Lake","admin3":"52224"},{"geonameid":5042258,"name":"Township of Prairie Lake","admin3":"52306"},{"geonameid":5042379,"name":"City of Proctor","admin3":"52630"},{"geonameid":5043137,"name":"City of Rice Lake","admin3":"54060"},{"geonameid":5045883,"name":"Unorganized Territory of Sand Lake","admin3":"58369"},{"geonameid":5045952,"name":"Township of Sandy","admin3":"58450"},{"geonameid":5047831,"name":"Township of Solway","admin3":"61132"},{"geonameid":5048886,"name":"Township of Stoney Brook","admin3":"62968"},{"geonameid":5049076,"name":"Township of Sturgeon","admin3":"63202"},{"geonameid":5050189,"name":"Township of Toivola","admin3":"65146"},{"geonameid":5050265,"name":"City of Tower","admin3":"65272"},{"geonameid":5051236,"name":"Township of Van Buren","admin3":"66586"},{"geonameid":5051309,"name":"Township of Vermilion Lake","admin3":"66784"},{"geonameid":5051472,"name":"City of Virginia","admin3":"67288"},{"geonameid":5051584,"name":"Township of Waasa","admin3":"67342"},{"geonameid":5052720,"name":"Township of White","admin3":"69898"},{"geonameid":5052730,"name":"Unorganized Territory of Whiteface Reservoir","admin3":"70069"},{"geonameid":5052991,"name":"Township of Willow Valley","admin3":"70510"},{"geonameid":5053216,"name":"City of Winton","admin3":"71140"},{"geonameid":5053498,"name":"Township of Wuori","admin3":"71869"},{"geonameid":7163984,"name":"City of Kinney","admin3":"33416"},{"geonameid":7165532,"name":"Township of Camp 5","admin3":"09482"},{"geonameid":7165570,"name":"Township of Kabetogama","admin3":"32252"}],"alternateNames":[{"alternatenameId":2089541,"geonameid":5037779,"isoLanguage":"en","alternateName":"Minnesota","isPreferredName":true,"isShortName":true,"isColloquial":false,"isHistoric":false}]},"__N_SSG":true}