{"pageProps":{"locale":"en","admin2":{"geonameid":5047121,"name":"Sherburne County","country":"US","admin1":"MN","admin2":"141","admin3":"","latitude":"45.4439500","longitude":"-93.7745900"},"admin1":{"geonameid":5037779,"name":"Minnesota","admin1":"MN","localeAltName":"Minnesota"},"locations":[{"geonameid":5017660,"name":"Becker","admin3":"04618"},{"geonameid":5018285,"name":"Big Lake","admin3":"05752"},{"geonameid":5025471,"name":"Elk River","admin3":"18674"},{"geonameid":5033783,"name":"Zimmerman","admin3":"72238"}],"admin3":[{"geonameid":5017067,"name":"Township of Baldwin","admin3":"03286"},{"geonameid":5017681,"name":"City of Becker","admin3":"04618"},{"geonameid":5017683,"name":"Township of Becker","admin3":"04636"},{"geonameid":5018300,"name":"City of Big Lake","admin3":"05752"},{"geonameid":5018301,"name":"Township of Big Lake","admin3":"05770"},{"geonameid":5018776,"name":"Township of Blue Hill","admin3":"06742"},{"geonameid":5021516,"name":"City of Clear Lake","admin3":"11764"},{"geonameid":5021517,"name":"Township of Clear Lake","admin3":"11782"},{"geonameid":5025488,"name":"City of Elk River","admin3":"18674"},{"geonameid":5029550,"name":"Township of Haven","admin3":"27674"},{"geonameid":5035364,"name":"Township of Livonia","admin3":"37754"},{"geonameid":5040357,"name":"Township of Orrock","admin3":"48670"},{"geonameid":5040760,"name":"Township of Palmer","admin3":"49534"},{"geonameid":5045963,"name":"Township of Santiago","admin3":"58522"},{"geonameid":5053646,"name":"City of Zimmerman","admin3":"72238"}],"alternateNames":[{"alternatenameId":2089541,"geonameid":5037779,"isoLanguage":"en","alternateName":"Minnesota","isPreferredName":true,"isShortName":true,"isColloquial":false,"isHistoric":false}]},"__N_SSG":true}