{"pageProps":{"locale":"en","admin2":{"geonameid":5050162,"name":"Todd County","country":"US","admin1":"MN","admin2":"153","admin3":"","latitude":"46.0706200","longitude":"-94.8976000"},"admin1":{"geonameid":5037779,"name":"Minnesota","admin1":"MN","localeAltName":"Minnesota"},"locations":[{"geonameid":5035635,"name":"Long Prairie","admin3":""},{"geonameid":5048555,"name":"Staples","admin3":"62446"}],"admin3":[{"geonameid":5017237,"name":"Township of Bartlett","admin3":"03790"},{"geonameid":5018013,"name":"City of Bertha","admin3":"05482"},{"geonameid":5018014,"name":"Township of Bertha","admin3":"05500"},{"geonameid":5018504,"name":"Township of Birchdale","admin3":"06022"},{"geonameid":5019381,"name":"City of Browerville","admin3":"08110"},{"geonameid":5019471,"name":"Township of Bruce","admin3":"08272"},{"geonameid":5019743,"name":"Township of Burleene","admin3":"08668"},{"geonameid":5019762,"name":"Township of Burnhamville","admin3":"08722"},{"geonameid":5019814,"name":"City of Burtrum","admin3":"08902"},{"geonameid":5021388,"name":"City of Clarissa","admin3":"11602"},{"geonameid":5024835,"name":"City of Eagle Bend","admin3":"17342"},{"geonameid":5024904,"name":"Township of Eagle Valley","admin3":"17450"},{"geonameid":5026362,"name":"Township of Fawn Lake","admin3":"20708"},{"geonameid":5027881,"name":"Township of Germania","admin3":"23552"},{"geonameid":5028336,"name":"Township of Gordon","admin3":"24578"},{"geonameid":5028896,"name":"City of Grey Eagle","admin3":"26000"},{"geonameid":5028897,"name":"Township of Grey Eagle","admin3":"26018"},{"geonameid":5029457,"name":"Township of Hartford","admin3":"27368"},{"geonameid":5029992,"name":"City of Hewitt","admin3":"28754"},{"geonameid":5031421,"name":"Township of Iona","admin3":"31130"},{"geonameid":5032879,"name":"Township of Kandota","admin3":"32408"},{"geonameid":5034506,"name":"Township of Leslie","admin3":"36674"},{"geonameid":5034966,"name":"Township of Little Elk","admin3":"37538"},{"geonameid":5035241,"name":"Township of Little Sauk","admin3":"37718"},{"geonameid":5035651,"name":"Township of Long Prairie","admin3":"38078"},{"geonameid":5038207,"name":"Township of Moran","admin3":"44062"},{"geonameid":5042987,"name":"Township of Reynolds","admin3":"53926"},{"geonameid":5043939,"name":"Township of Round Prairie","admin3":"56122"},{"geonameid":5048568,"name":"City of Staples","admin3":"62446"},{"geonameid":5048569,"name":"Township of Staples","admin3":"62464"},{"geonameid":5048960,"name":"Township of Stowe Prairie","admin3":"63058"},{"geonameid":5050649,"name":"Township of Turtle Creek","admin3":"65740"},{"geonameid":5051438,"name":"Township of Villard","admin3":"67162"},{"geonameid":5051866,"name":"Township of Ward","admin3":"68098"},{"geonameid":5052508,"name":"City of West Union","admin3":"69736"},{"geonameid":5052509,"name":"Township of West Union","admin3":"69754"},{"geonameid":5053510,"name":"Township of Wykeham","admin3":"71932"}],"alternateNames":[{"alternatenameId":2089541,"geonameid":5037779,"isoLanguage":"en","alternateName":"Minnesota","isPreferredName":true,"isShortName":true,"isColloquial":false,"isHistoric":false}]},"__N_SSG":true}