{"pageProps":{"locale":"en","admin2":{"geonameid":5050331,"name":"Traverse County","country":"US","admin1":"MN","admin2":"155","admin3":"","latitude":"45.7721800","longitude":"-96.4716400"},"admin1":{"geonameid":5037779,"name":"Minnesota","admin1":"MN","localeAltName":"Minnesota"},"locations":[{"geonameid":5052600,"name":"Wheaton","admin3":"69844"}],"admin3":[{"geonameid":5016655,"name":"Township of Arthur","admin3":"02314"},{"geonameid":5019443,"name":"City of Browns Valley","admin3":"08200"},{"geonameid":5021599,"name":"Township of Clifton","admin3":"11944"},{"geonameid":5023411,"name":"Township of Croke","admin3":"13762"},{"geonameid":5024476,"name":"Township of Dollymount","admin3":"16012"},{"geonameid":5024744,"name":"City of Dumont","admin3":"17090"},{"geonameid":5027052,"name":"Township of Folsom","admin3":"21554"},{"geonameid":5033934,"name":"Township of Lake Valley","admin3":"35126"},{"geonameid":5034488,"name":"Township of Leonardsville","admin3":"36512"},{"geonameid":5038015,"name":"Township of Monson","admin3":"43684"},{"geonameid":5040870,"name":"Township of Parnell","admin3":"49858"},{"geonameid":5042816,"name":"Township of Redpath","admin3":"53548"},{"geonameid":5049728,"name":"Township of Tara","admin3":"64246"},{"geonameid":5049765,"name":"Township of Taylor","admin3":"64300"},{"geonameid":5050142,"name":"City of Tintah","admin3":"64948"},{"geonameid":5050143,"name":"Township of Tintah","admin3":"64966"},{"geonameid":5051779,"name":"Township of Walls","admin3":"67828"},{"geonameid":5052612,"name":"City of Wheaton","admin3":"69844"},{"geonameid":5053104,"name":"Township of Windsor","admin3":"70834"}],"alternateNames":[{"alternatenameId":2089541,"geonameid":5037779,"isoLanguage":"en","alternateName":"Minnesota","isPreferredName":true,"isShortName":true,"isColloquial":false,"isHistoric":false}]},"__N_SSG":true}