{"pageProps":{"locale":"ro","admin2":{"geonameid":683709,"name":"Comuna Bretea Română","country":"RO","admin1":"21","admin2":"88644","admin3":"","latitude":"45.6602100","longitude":"23.0166500"},"admin1":{"geonameid":675917,"name":"Hunedoara","admin1":"21"},"locations":[{"geonameid":685284,"name":"Bățălar","admin3":""},{"geonameid":685080,"name":"Bercu","admin3":""},{"geonameid":684197,"name":"Borea","admin3":""},{"geonameid":683710,"name":"Bretea Română","admin3":""},{"geonameid":683708,"name":"Bretea Streiului","admin3":""},{"geonameid":680421,"name":"Covragiu","admin3":""},{"geonameid":677250,"name":"Gânţaga","admin3":""},{"geonameid":674233,"name":"Măceu","admin3":""},{"geonameid":672010,"name":"Ocolișu Mare","admin3":""},{"geonameid":670455,"name":"Plopi","admin3":""},{"geonameid":668392,"name":"Ruși","admin3":""},{"geonameid":662886,"name":"Vâlcele","admin3":""},{"geonameid":662863,"name":"Vâlcelele Bune","admin3":""},{"geonameid":662861,"name":"Vâlceluţa","admin3":""}],"admin3":[],"alternateNames":[]},"__N_SSG":true}