{"pageProps":{"locale":"en","admin2":{"geonameid":2749754,"name":"Gemeente Nunspeet","country":"NL","admin1":"03","admin2":"0302","admin3":"","latitude":"52.3352400","longitude":"5.7877100"},"admin1":{"geonameid":2755634,"name":"Provincie Gelderland","admin1":"03"},"locations":[{"geonameid":2756904,"name":"De Zoom","admin3":""},{"geonameid":2756165,"name":"Elspeet","admin3":""},{"geonameid":2755074,"name":"Grote Kolonie","admin3":""},{"geonameid":2753770,"name":"Hooge Bijssel","admin3":""},{"geonameid":2753642,"name":"Hoophuizen","admin3":""},{"geonameid":2753441,"name":"Hulshorst","admin3":""},{"geonameid":2752738,"name":"Kleine Kolonie","admin3":""},{"geonameid":2749756,"name":"Nunspeet","admin3":""},{"geonameid":2749520,"name":"Oosteinde","admin3":""},{"geonameid":2745558,"name":"Vierhouten","admin3":""},{"geonameid":2743554,"name":"Zwarte Goor","admin3":""}],"admin3":[],"alternateNames":[{"alternatenameId":11907787,"geonameid":2755634,"isoLanguage":"de","alternateName":"Gelderland","isPreferredName":true,"isShortName":true,"isColloquial":false,"isHistoric":false}]},"__N_SSG":true}