{"pageProps":{"locale":"en","admin2":{"geonameid":2759705,"name":"Gemeente Apeldoorn","country":"NL","admin1":"03","admin2":"0200","admin3":"","latitude":"52.1872200","longitude":"5.9196900"},"admin1":{"geonameid":2755634,"name":"Provincie Gelderland","admin1":"03"},"locations":[{"geonameid":2759748,"name":"Anklaar","admin3":""},{"geonameid":2759706,"name":"Apeldoorn","admin3":""},{"geonameid":2759638,"name":"Assel","admin3":""},{"geonameid":2759342,"name":"Beekbergen","admin3":""},{"geonameid":2759317,"name":"Beemte","admin3":""},{"geonameid":8593867,"name":"Beemte-Broekland","admin3":""},{"geonameid":2759148,"name":"Berg en Bos","admin3":""},{"geonameid":6621526,"name":"Binnenstad","admin3":""},{"geonameid":2758311,"name":"Brinkhorst","admin3":""},{"geonameid":2758251,"name":"Broekland","admin3":""},{"geonameid":6621517,"name":"Brummelhof","admin3":""},{"geonameid":6621519,"name":"Componistenkwartier","admin3":""},{"geonameid":6621535,"name":"De Bouwhof","admin3":""},{"geonameid":6544779,"name":"De Haere","admin3":""},{"geonameid":6621525,"name":"De Haven","admin3":""},{"geonameid":6621532,"name":"De Heeze","admin3":""},{"geonameid":2757397,"name":"De Krim","admin3":""},{"geonameid":2757302,"name":"De Maten","admin3":""},{"geonameid":2757290,"name":"De Mheen","admin3":""},{"geonameid":2756974,"name":"De Vlijt","admin3":""},{"geonameid":2756968,"name":"De Voorwaarts","admin3":""},{"geonameid":2756592,"name":"Driehuizen","admin3":""},{"geonameid":2756104,"name":"Engeland","admin3":""},{"geonameid":6950838,"name":"Gerritsflesch","admin3":""},{"geonameid":2755298,"name":"Groenendaal","admin3":""},{"geonameid":2754241,"name":"Het Loo","admin3":""},{"geonameid":2754004,"name":"Hoenderloo","admin3":""},{"geonameid":6621531,"name":"Hommelbrink","admin3":""},{"geonameid":2753785,"name":"Hoog Buurlo","admin3":""},{"geonameid":2753674,"name":"Hoog Soeren","admin3":""},{"geonameid":2752910,"name":"Kerschoten","admin3":""},{"geonameid":2752807,"name":"Klarenbeek","admin3":""},{"geonameid":2751636,"name":"Lieren","admin3":""},{"geonameid":2751524,"name":"Loenen","admin3":""},{"geonameid":6621578,"name":"Loolaan Noord","admin3":""},{"geonameid":6621509,"name":"Matendonk","admin3":""},{"geonameid":6621511,"name":"Matendreef","admin3":""},{"geonameid":6621512,"name":"Matengaarde","admin3":""},{"geonameid":6621446,"name":"Matenhoek","admin3":""},{"geonameid":6621508,"name":"Matenhoeve","admin3":""},{"geonameid":6621510,"name":"Matenhorst","admin3":""},{"geonameid":6621507,"name":"Matenveld","admin3":""},{"geonameid":2751032,"name":"Meerveld","admin3":""},{"geonameid":2750156,"name":"Nieuw-Milligen","admin3":""},{"geonameid":2749446,"name":"Oosterhuizen","admin3":""},{"geonameid":2749250,"name":"Orden","admin3":""},{"geonameid":6621521,"name":"Osseveld","admin3":""},{"geonameid":6621530,"name":"Parken","admin3":""},{"geonameid":6544778,"name":"Radio Kootwijk","admin3":""},{"geonameid":6621515,"name":"Rivierenkwartier","admin3":""},{"geonameid":6621522,"name":"Sluisoord","admin3":""},{"geonameid":6621529,"name":"Spainkbos","admin3":""},{"geonameid":6621528,"name":"Sprengenbos","admin3":""},{"geonameid":6621527,"name":"Sprengenweg-Noord","admin3":""},{"geonameid":6621523,"name":"Sprenkelaar","admin3":""},{"geonameid":6621516,"name":"Staatsliedenkwartier","admin3":""},{"geonameid":2746009,"name":"Uddel","admin3":""},{"geonameid":2745997,"name":"Ugchelen","admin3":""},{"geonameid":2745699,"name":"Veldhuizen","admin3":""},{"geonameid":6621518,"name":"Vogelkwartier","admin3":""},{"geonameid":2745232,"name":"Vossen","admin3":""},{"geonameid":6621454,"name":"Welgelegen","admin3":""},{"geonameid":2744833,"name":"Wenum","admin3":""},{"geonameid":6621533,"name":"Westenenk","admin3":""},{"geonameid":2744520,"name":"Wiesel","admin3":""},{"geonameid":6621534,"name":"Winkewijert","admin3":""},{"geonameid":2744243,"name":"Woeste Hoeve","admin3":""},{"geonameid":2744170,"name":"Wormingen","admin3":""},{"geonameid":6621520,"name":"Woudhuis","admin3":""},{"geonameid":2743923,"name":"Zevenhuizen","admin3":""},{"geonameid":2743874,"name":"Zilven","admin3":""},{"geonameid":6621524,"name":"Zonnehoeve","admin3":""},{"geonameid":2743739,"name":"Zuiderpark","admin3":""}],"admin3":[],"alternateNames":[{"alternatenameId":11907787,"geonameid":2755634,"isoLanguage":"de","alternateName":"Gelderland","isPreferredName":true,"isShortName":true,"isColloquial":false,"isHistoric":false}]},"__N_SSG":true}