{"pageProps":{"locale":"de","admin2":{"geonameid":2819564,"name":"Regierungsbezirk Unterfranken","country":"DE","admin1":"02","admin2":"096","admin3":"","latitude":"50.0000000","longitude":"10.0000000","localeAltName":null},"admin1":{"geonameid":2951839,"name":"Bavaria","admin1":"02","localeAltName":"Bayern"},"locations":[{"geonameid":2959749,"name":"Abtswind","admin3":"09675","localeAltName":null},{"geonameid":2958906,"name":"Aidhausen","admin3":"09674","localeAltName":null},{"geonameid":2958653,"name":"Albertshofen","admin3":"09675","localeAltName":null},{"geonameid":3274987,"name":"Altenbuch","admin3":"09676","localeAltName":null},{"geonameid":2956715,"name":"Alzenau in Unterfranken","admin3":"09671","localeAltName":null},{"geonameid":2955431,"name":"Arnstein","admin3":"09677","localeAltName":null},{"geonameid":2955272,"name":"Aschaffenburg","admin3":"09661","localeAltName":null},{"geonameid":2954774,"name":"Aub","admin3":"09679","localeAltName":null},{"geonameid":2954723,"name":"Aubstadt","admin3":"09673","localeAltName":null},{"geonameid":2954024,"name":"Aura an der Saale","admin3":"09672","localeAltName":null},{"geonameid":2954012,"name":"Aura im Sinngrund","admin3":"09677","localeAltName":null},{"geonameid":2953540,"name":"Bad Bocklet","admin3":"09672","localeAltName":null},{"geonameid":2953535,"name":"Bad Brückenau","admin3":"09672","localeAltName":null},{"geonameid":2953424,"name":"Bad Kissingen","admin3":"09672","localeAltName":null},{"geonameid":2885829,"name":"Bad Königshofen im Grabfeld","admin3":"09673","localeAltName":null},{"geonameid":2953389,"name":"Bad Neustadt an der Saale","admin3":"09673","localeAltName":null},{"geonameid":2952238,"name":"Bastheim","admin3":"09673","localeAltName":null},{"geonameid":2950287,"name":"Bergrheinfeld","admin3":"09678","localeAltName":null},{"geonameid":2950249,"name":"Bergtheim","admin3":"09679","localeAltName":null},{"geonameid":2949276,"name":"Biebelried","admin3":"09675","localeAltName":null},{"geonameid":2949255,"name":"Bieberehren","admin3":"09679","localeAltName":null},{"geonameid":2948594,"name":"Birkenfeld","admin3":"09677","localeAltName":null},{"geonameid":2948337,"name":"Bischbrunn","admin3":"09677","localeAltName":null},{"geonameid":2948287,"name":"Bischofsheim an der Rhön","admin3":"09673","localeAltName":null},{"geonameid":3207992,"name":"Blankenbach","admin3":"09671","localeAltName":null},{"geonameid":2944781,"name":"Breitbrunn","admin3":"09674","localeAltName":null},{"geonameid":2942706,"name":"Buchbrunn","admin3":"09675","localeAltName":null},{"geonameid":2941676,"name":"Bundorf","admin3":"09674","localeAltName":null},{"geonameid":2941204,"name":"Burglauer","admin3":"09673","localeAltName":null},{"geonameid":2941178,"name":"Burgpreppach","admin3":"09674","localeAltName":null},{"geonameid":2941159,"name":"Burgsinn","admin3":"09677","localeAltName":null},{"geonameid":2941151,"name":"Bürgstadt","admin3":"09676","localeAltName":null},{"geonameid":2941034,"name":"Burkardroth","admin3":"09672","localeAltName":null},{"geonameid":2940534,"name":"Bütthard","admin3":"09679","localeAltName":null},{"geonameid":2940235,"name":"Castell","admin3":"09675","localeAltName":null},{"geonameid":2937932,"name":"Dettelbach","admin3":"09675","localeAltName":null},{"geonameid":2936908,"name":"Dingolshausen","admin3":"09678","localeAltName":null},{"geonameid":2936759,"name":"Dittelbrunn","admin3":"09678","localeAltName":null},{"geonameid":2936210,"name":"Donnersdorf","admin3":"09678","localeAltName":null},{"geonameid":2936040,"name":"Dorfprozelten","admin3":"09676","localeAltName":null},{"geonameid":2934094,"name":"Ebelsbach","admin3":"09674","localeAltName":null},{"geonameid":2932748,"name":"Eibelstadt","admin3":"09679","localeAltName":null},{"geonameid":2932329,"name":"Eichenbühl","admin3":"09676","localeAltName":null},{"geonameid":2931423,"name":"Eisingen","admin3":"09679","localeAltName":null},{"geonameid":2931182,"name":"Elfershausen","admin3":"09672","localeAltName":null},{"geonameid":2930747,"name":"Elsenfeld","admin3":"09676","localeAltName":null},{"geonameid":2930650,"name":"Eltmann","admin3":"09674","localeAltName":null},{"geonameid":2929594,"name":"Erlabrunn","admin3":"09679","localeAltName":null},{"geonameid":2929499,"name":"Erlenbach","admin3":"09677","localeAltName":null},{"geonameid":2929484,"name":"Erlenbach am Main","admin3":"09676","localeAltName":null},{"geonameid":2929393,"name":"Ermershausen","admin3":"09674","localeAltName":null},{"geonameid":2929165,"name":"Eschau","admin3":"09676","localeAltName":null},{"geonameid":2928819,"name":"Esselbach","admin3":"09677","localeAltName":null},{"geonameid":2928738,"name":"Estenfeld","admin3":"09679","localeAltName":null},{"geonameid":2928520,"name":"Euerbach","admin3":"09678","localeAltName":null},{"geonameid":2928518,"name":"Euerdorf","admin3":"09672","localeAltName":null},{"geonameid":2928394,"name":"Eußenheim","admin3":"09677","localeAltName":null},{"geonameid":2927726,"name":"Faulbach","admin3":"09676","localeAltName":null},{"geonameid":2927264,"name":"Fellen","admin3":"09677","localeAltName":null},{"geonameid":2926402,"name":"Fladungen","admin3":"09673","localeAltName":null},{"geonameid":2925665,"name":"Frammersbach","admin3":"09677","localeAltName":null},{"geonameid":2925542,"name":"Frankenwinheim","admin3":"09678","localeAltName":null},{"geonameid":2924836,"name":"Frickenhausen","admin3":"09679","localeAltName":null},{"geonameid":2923900,"name":"Fuchsstadt","admin3":"09672","localeAltName":null},{"geonameid":2923387,"name":"Gadheim","admin3":"09679","localeAltName":null},{"geonameid":2922271,"name":"Gaukönigshofen","admin3":"09679","localeAltName":null},{"geonameid":2921755,"name":"Geiselbach","admin3":"09671","localeAltName":null},{"geonameid":2921724,"name":"Geiselwind","admin3":"09675","localeAltName":null},{"geonameid":2921532,"name":"Gelchsheim","admin3":"09679","localeAltName":null},{"geonameid":2921525,"name":"Geldersheim","admin3":"09678","localeAltName":null},{"geonameid":2921379,"name":"Gemünden am Main","admin3":"09677","localeAltName":null},{"geonameid":2921165,"name":"Gerbrunn","admin3":"09679","localeAltName":null},{"geonameid":2920989,"name":"Geroda","admin3":"09672","localeAltName":null},{"geonameid":2920977,"name":"Geroldshausen","admin3":"09679","localeAltName":null},{"geonameid":2920959,"name":"Gerolzhofen","admin3":"09678","localeAltName":null},{"geonameid":2920652,"name":"Giebelstadt","admin3":"09679","localeAltName":null},{"geonameid":2920043,"name":"Glattbach","admin3":"09671","localeAltName":null},{"geonameid":2919620,"name":"Gochsheim","admin3":"09678","localeAltName":null},{"geonameid":2919438,"name":"Goldbach","admin3":"09671","localeAltName":null},{"geonameid":2918804,"name":"Gössenheim","admin3":"09677","localeAltName":null},{"geonameid":2918338,"name":"Gräfendorf","admin3":"09677","localeAltName":null},{"geonameid":2918288,"name":"Grafenrheinfeld","admin3":"09678","localeAltName":null},{"geonameid":2917586,"name":"Grettstadt","admin3":"09678","localeAltName":null},{"geonameid":2917578,"name":"Greußenheim","admin3":"09679","localeAltName":null},{"geonameid":2917013,"name":"Großbardorf","admin3":"09673","localeAltName":null},{"geonameid":2916731,"name":"Großeibstadt","admin3":"09673","localeAltName":null},{"geonameid":2915511,"name":"Großheubach","admin3":"09676","localeAltName":null},{"geonameid":2915349,"name":"Großlangheim","admin3":"09675","localeAltName":null},{"geonameid":2915196,"name":"Großostheim","admin3":"09671","localeAltName":null},{"geonameid":2914890,"name":"Großwallstadt","admin3":"09676","localeAltName":null},{"geonameid":2913587,"name":"Güntersleben","admin3":"09679","localeAltName":null},{"geonameid":2912753,"name":"Hafenlohr","admin3":"09677","localeAltName":null},{"geonameid":2912159,"name":"Haibach","admin3":"09671","localeAltName":null},{"geonameid":2911214,"name":"Hammelburg","admin3":"09672","localeAltName":null},{"geonameid":2909491,"name":"Hasloch","admin3":"09677","localeAltName":null},{"geonameid":2909335,"name":"Haßfurt","admin3":"09674","localeAltName":null},{"geonameid":2908883,"name":"Hausen","admin3":"09678","localeAltName":null},{"geonameid":2908886,"name":"Hausen","admin3":"09676","localeAltName":null},{"geonameid":2907697,"name":"Heigenbrücken","admin3":"09671","localeAltName":null},{"geonameid":2907416,"name":"Heimbuchenthal","admin3":"09671","localeAltName":null},{"geonameid":2907211,"name":"Heinrichsthal","admin3":"09671","localeAltName":null},{"geonameid":2906680,"name":"Helmstadt","admin3":"09679","localeAltName":null},{"geonameid":2906490,"name":"Hendungen","admin3":"09673","localeAltName":null},{"geonameid":2906184,"name":"Herbstadt","admin3":"09673","localeAltName":null},{"geonameid":2905208,"name":"Hettstadt","admin3":"09679","localeAltName":null},{"geonameid":2904986,"name":"Heustreu","admin3":"09673","localeAltName":null},{"geonameid":2904499,"name":"Himmelstadt","admin3":"09677","localeAltName":null},{"geonameid":2903327,"name":"Höchberg","admin3":"09679","localeAltName":null},{"geonameid":2903180,"name":"Höchheim","admin3":"09673","localeAltName":null},{"geonameid":2902531,"name":"Hofheim in Unterfranken","admin3":"09674","localeAltName":null},{"geonameid":2900375,"name":"Hollstadt","admin3":"09673","localeAltName":null},{"geonameid":2899671,"name":"Holzkirchen","admin3":"09679","localeAltName":null},{"geonameid":2898494,"name":"Hösbach","admin3":"09671","localeAltName":null},{"geonameid":2895882,"name":"Iphofen","admin3":"09675","localeAltName":null},{"geonameid":2894833,"name":"Johannesberg","admin3":"09671","localeAltName":null},{"geonameid":2894245,"name":"Kahl am Main","admin3":"09671","localeAltName":null},{"geonameid":2892988,"name":"Karbach","admin3":"09677","localeAltName":null},{"geonameid":2892786,"name":"Karlstadt","admin3":"09677","localeAltName":null},{"geonameid":2892658,"name":"Karsbach","admin3":"09677","localeAltName":null},{"geonameid":2890487,"name":"Kirchheim","admin3":"09679","localeAltName":null},{"geonameid":2890429,"name":"Kirchlauter","admin3":"09674","localeAltName":null},{"geonameid":2890327,"name":"Kirchzell","admin3":"09676","localeAltName":null},{"geonameid":2890197,"name":"Kist","admin3":"09679","localeAltName":null},{"geonameid":2890158,"name":"Kitzingen","admin3":"09675","localeAltName":null},{"geonameid":2888751,"name":"Kleinheubach","admin3":"09676","localeAltName":null},{"geonameid":2888684,"name":"Kleinkahl","admin3":"09671","localeAltName":null},{"geonameid":2888584,"name":"Kleinlangheim","admin3":"09675","localeAltName":null},{"geonameid":2888411,"name":"Kleinostheim","admin3":"09671","localeAltName":null},{"geonameid":2888323,"name":"Kleinrinderfeld","admin3":"09679","localeAltName":null},{"geonameid":2888053,"name":"Kleinwallstadt","admin3":"09676","localeAltName":null},{"geonameid":2887736,"name":"Klingenberg am Main","admin3":"09676","localeAltName":null},{"geonameid":2887194,"name":"Knetzgau","admin3":"09674","localeAltName":null},{"geonameid":2886404,"name":"Kolitzheim","admin3":"09678","localeAltName":null},{"geonameid":2884026,"name":"Kreuzwertheim","admin3":"09677","localeAltName":null},{"geonameid":2883793,"name":"Krombach","admin3":"09671","localeAltName":null},{"geonameid":2882347,"name":"Kürnach","admin3":"09679","localeAltName":null},{"geonameid":2880203,"name":"Laudenbach","admin3":"09676","localeAltName":null},{"geonameid":2880146,"name":"Laufach","admin3":"09671","localeAltName":null},{"geonameid":2879299,"name":"Leidersbach","admin3":"09676","localeAltName":null},{"geonameid":2876147,"name":"Lohr am Main","admin3":"09677","localeAltName":null},{"geonameid":2875154,"name":"Lülsfeld","admin3":"09678","localeAltName":null},{"geonameid":2874263,"name":"Mainaschaff","admin3":"09671","localeAltName":null},{"geonameid":2874254,"name":"Mainbernheim","admin3":"09675","localeAltName":null},{"geonameid":2874231,"name":"Mainstockheim","admin3":"09675","localeAltName":null},{"geonameid":2873701,"name":"Margetshöchheim","admin3":"09679","localeAltName":null},{"geonameid":2931784,"name":"Markt Einersheim","admin3":"09675","localeAltName":null},{"geonameid":2873307,"name":"Marktbreit","admin3":"09675","localeAltName":null},{"geonameid":2873301,"name":"Marktheidenfeld","admin3":"09677","localeAltName":null},{"geonameid":2873283,"name":"Marktsteft","admin3":"09675","localeAltName":null},{"geonameid":2873228,"name":"Maroldsweisach","admin3":"09674","localeAltName":null},{"geonameid":2873126,"name":"Martinsheim","admin3":"09675","localeAltName":null},{"geonameid":2873011,"name":"Maßbach","admin3":"09672","localeAltName":null},{"geonameid":2872047,"name":"Mellrichstadt","admin3":"09673","localeAltName":null},{"geonameid":3274989,"name":"Mespelbrunn","admin3":"09671","localeAltName":null},{"geonameid":2871368,"name":"Michelau","admin3":"09678","localeAltName":null},{"geonameid":2871079,"name":"Miltenberg","admin3":"09676","localeAltName":null},{"geonameid":2870567,"name":"Mittelsinn","admin3":"09677","localeAltName":null},{"geonameid":2869936,"name":"Mömbris","admin3":"09671","localeAltName":null},{"geonameid":2869934,"name":"Mömlingen","admin3":"09676","localeAltName":null},{"geonameid":2869908,"name":"Mönchberg","admin3":"09676","localeAltName":null},{"geonameid":2868992,"name":"Motten","admin3":"09672","localeAltName":null},{"geonameid":2867571,"name":"Münnerstadt","admin3":"09672","localeAltName":null},{"geonameid":2866102,"name":"Neubrunn","admin3":"09679","localeAltName":null},{"geonameid":2865795,"name":"Neuendorf","admin3":"09677","localeAltName":null},{"geonameid":2864826,"name":"Neuhütten","admin3":"09677","localeAltName":null},{"geonameid":2864060,"name":"Neustadt am Main","admin3":"09677","localeAltName":null},{"geonameid":2863178,"name":"Niederlauer","admin3":"09673","localeAltName":null},{"geonameid":2863088,"name":"Niedernberg","admin3":"09676","localeAltName":null},{"geonameid":2862733,"name":"Niederwerrn","admin3":"09678","localeAltName":null},{"geonameid":2861971,"name":"Nordheim","admin3":"09675","localeAltName":null},{"geonameid":2861695,"name":"Nüdlingen","admin3":"09672","localeAltName":null},{"geonameid":2860932,"name":"Oberelsbach","admin3":"09673","localeAltName":null},{"geonameid":2859938,"name":"Oberleichtersbach","admin3":"09672","localeAltName":null},{"geonameid":2859678,"name":"Obernbreit","admin3":"09675","localeAltName":null},{"geonameid":2859675,"name":"Obernburg am Main","admin3":"09676","localeAltName":null},{"geonameid":2859423,"name":"Oberpleichfeld","admin3":"09679","localeAltName":null},{"geonameid":2859077,"name":"Oberschwarzach","admin3":"09678","localeAltName":null},{"geonameid":2859010,"name":"Obersinn","admin3":"09677","localeAltName":null},{"geonameid":2858874,"name":"Oberstreu","admin3":"09673","localeAltName":null},{"geonameid":2858787,"name":"Oberthulba","admin3":"09672","localeAltName":null},{"geonameid":2858333,"name":"Ochsenfurt","admin3":"09679","localeAltName":null},{"geonameid":2857075,"name":"Oerlenbach","admin3":"09672","localeAltName":null},{"geonameid":2856284,"name":"Ostheim vor der Rhön","admin3":"09673","localeAltName":null},{"geonameid":2855370,"name":"Partenstein","admin3":"09677","localeAltName":null},{"geonameid":2854167,"name":"Pfarrweisach","admin3":"09674","localeAltName":null},{"geonameid":2852658,"name":"Poppenhausen","admin3":"09678","localeAltName":null},{"geonameid":2852129,"name":"Prichsenstadt","admin3":"09675","localeAltName":null},{"geonameid":2851863,"name":"Prosselsheim","admin3":"09679","localeAltName":null},{"geonameid":2850535,"name":"Ramsthal","admin3":"09672","localeAltName":null},{"geonameid":2850523,"name":"Randersacker","admin3":"09679","localeAltName":null},{"geonameid":2850446,"name":"Rannungen","admin3":"09672","localeAltName":null},{"geonameid":2849710,"name":"Rechtenbach","admin3":"09677","localeAltName":null},{"geonameid":2849093,"name":"Reichenberg","admin3":"09679","localeAltName":null},{"geonameid":2848309,"name":"Remlingen","admin3":"09679","localeAltName":null},{"geonameid":2848143,"name":"Rentweinsdorf","admin3":"09674","localeAltName":null},{"geonameid":2847938,"name":"Retzstadt","admin3":"09677","localeAltName":null},{"geonameid":3208006,"name":"Riedenberg","admin3":"09672","localeAltName":null},{"geonameid":2847227,"name":"Riedenheim","admin3":"09679","localeAltName":null},{"geonameid":2846979,"name":"Rieneck","admin3":"09677","localeAltName":null},{"geonameid":2846722,"name":"Rimpar","admin3":"09679","localeAltName":null},{"geonameid":2846089,"name":"Rödelmaier","admin3":"09673","localeAltName":null},{"geonameid":2846084,"name":"Rödelsee","admin3":"09675","localeAltName":null},{"geonameid":2846072,"name":"Roden","admin3":"09677","localeAltName":null},{"geonameid":2845433,"name":"Röllbach","admin3":"09676","localeAltName":null},{"geonameid":2844072,"name":"Rothenbuch","admin3":"09671","localeAltName":null},{"geonameid":2844042,"name":"Rothenfels","admin3":"09677","localeAltName":null},{"geonameid":2843897,"name":"Röthlein","admin3":"09678","localeAltName":null},{"geonameid":2843724,"name":"Rottendorf","admin3":"09679","localeAltName":null},{"geonameid":2843673,"name":"Röttingen","admin3":"09679","localeAltName":null},{"geonameid":2843441,"name":"Rüdenau","admin3":"09676","localeAltName":null},{"geonameid":2843436,"name":"Rüdenhausen","admin3":"09675","localeAltName":null},{"geonameid":2842789,"name":"Rütschenhausen","admin3":"09678","localeAltName":null},{"geonameid":2842720,"name":"Saal an der Saale","admin3":"09673","localeAltName":null},{"geonameid":3208010,"name":"Sailauf","admin3":"09671","localeAltName":null},{"geonameid":2842203,"name":"Salz","admin3":"09673","localeAltName":null},{"geonameid":2842047,"name":"Sand","admin3":"09674","localeAltName":null},{"geonameid":2841935,"name":"Sandberg","admin3":"09673","localeAltName":null},{"geonameid":2837159,"name":"Schollbrunn","admin3":"09677","localeAltName":null},{"geonameid":2837136,"name":"Schöllkrippen","admin3":"09671","localeAltName":null},{"geonameid":2837062,"name":"Schönau","admin3":"09677","localeAltName":null},{"geonameid":2836817,"name":"Schondra","admin3":"09672","localeAltName":null},{"geonameid":2836455,"name":"Schonungen","admin3":"09678","localeAltName":null},{"geonameid":2835256,"name":"Schwanfeld","admin3":"09678","localeAltName":null},{"geonameid":2834651,"name":"Schwebheim","admin3":"09678","localeAltName":null},{"geonameid":2834498,"name":"Schweinfurt","admin3":"09662","localeAltName":null},{"geonameid":2833511,"name":"Segnitz","admin3":"09675","localeAltName":null},{"geonameid":2833330,"name":"Seinsheim","admin3":"09675","localeAltName":null},{"geonameid":2833010,"name":"Sennfeld","admin3":"09678","localeAltName":null},{"geonameid":2831455,"name":"Sommerach","admin3":"09675","localeAltName":null},{"geonameid":2831389,"name":"Sommerhausen","admin3":"09679","localeAltName":null},{"geonameid":2831377,"name":"Sommerkahl","admin3":"09671","localeAltName":null},{"geonameid":2831294,"name":"Sonderhofen","admin3":"09679","localeAltName":null},{"geonameid":2831269,"name":"Sondheim vor der Rhön","admin3":"09673","localeAltName":null},{"geonameid":2829760,"name":"Stadtlauringen","admin3":"09678","localeAltName":null},{"geonameid":2829751,"name":"Stadtprozelten","admin3":"09676","localeAltName":null},{"geonameid":2828140,"name":"Steinfeld","admin3":"09677","localeAltName":null},{"geonameid":2827197,"name":"Stettfeld","admin3":"09674","localeAltName":null},{"geonameid":2826741,"name":"Stockheim","admin3":"09673","localeAltName":null},{"geonameid":2826670,"name":"Stockstadt am Main","admin3":"09671","localeAltName":null},{"geonameid":2826294,"name":"Strahlungen","admin3":"09673","localeAltName":null},{"geonameid":2824806,"name":"Sulzbach am Main","admin3":"09676","localeAltName":null},{"geonameid":2824770,"name":"Sulzdorf","admin3":"09679","localeAltName":null},{"geonameid":2824741,"name":"Sulzfeld","admin3":"09673","localeAltName":null},{"geonameid":2824738,"name":"Sulzfeld am Main","admin3":"09675","localeAltName":null},{"geonameid":2824729,"name":"Sulzheim","admin3":"09678","localeAltName":null},{"geonameid":2824710,"name":"Sulzthal","admin3":"09672","localeAltName":null},{"geonameid":2823851,"name":"Tauberrettersheim","admin3":"09679","localeAltName":null},{"geonameid":2822903,"name":"Theilheim","admin3":"09679","localeAltName":null},{"geonameid":2822571,"name":"Thundorf in Unterfranken","admin3":"09672","localeAltName":"Thundorf i. Unterfranken"},{"geonameid":2822564,"name":"Thüngen","admin3":"09677","localeAltName":null},{"geonameid":2822563,"name":"Thüngersheim","admin3":"09679","localeAltName":null},{"geonameid":2821555,"name":"Trappstadt","admin3":"09673","localeAltName":null},{"geonameid":2820533,"name":"Üchtelhausen","admin3":"09678","localeAltName":null},{"geonameid":2820439,"name":"Uettingen","admin3":"09679","localeAltName":null},{"geonameid":2820065,"name":"Unsleben","admin3":"09673","localeAltName":null},{"geonameid":2819075,"name":"Untermerzbach","admin3":"09674","localeAltName":null},{"geonameid":2818929,"name":"Unterpleichfeld","admin3":"09679","localeAltName":null},{"geonameid":2818142,"name":"Urspringen","admin3":"09677","localeAltName":null},{"geonameid":2817733,"name":"Veitshöchheim","admin3":"09679","localeAltName":null},{"geonameid":2816702,"name":"Volkach","admin3":"09675","localeAltName":null},{"geonameid":2815303,"name":"Waigolshausen","admin3":"09678","localeAltName":null},{"geonameid":2815180,"name":"Waldaschaff","admin3":"09671","localeAltName":null},{"geonameid":2815132,"name":"Waldbrunn","admin3":"09679","localeAltName":null},{"geonameid":2815127,"name":"Waldbüttelbrunn","admin3":"09679","localeAltName":null},{"geonameid":2813888,"name":"Wartmannsroth","admin3":"09672","localeAltName":null},{"geonameid":2813723,"name":"Wasserlosen","admin3":"09678","localeAltName":null},{"geonameid":2813176,"name":"Weibersbrunn","admin3":"09671","localeAltName":null},{"geonameid":2812633,"name":"Weilbach","admin3":"09676","localeAltName":null},{"geonameid":2810832,"name":"Werneck","admin3":"09678","localeAltName":null},{"geonameid":2809291,"name":"Wiesen","admin3":"09671","localeAltName":null},{"geonameid":2809264,"name":"Wiesenbronn","admin3":"09675","localeAltName":null},{"geonameid":2809191,"name":"Wiesentheid","admin3":"09675","localeAltName":null},{"geonameid":2809123,"name":"Wiesthal","admin3":"09677","localeAltName":null},{"geonameid":2808871,"name":"Wildflecken","admin3":"09672","localeAltName":null},{"geonameid":2808624,"name":"Willanzheim","admin3":"09675","localeAltName":null},{"geonameid":2808521,"name":"Willmars","admin3":"09673","localeAltName":null},{"geonameid":2807757,"name":"Winterhausen","admin3":"09679","localeAltName":null},{"geonameid":2807625,"name":"Wipfeld","admin3":"09678","localeAltName":null},{"geonameid":2806442,"name":"Wollbach","admin3":"09673","localeAltName":null},{"geonameid":2806239,"name":"Wonfurt","admin3":"09674","localeAltName":null},{"geonameid":2806082,"name":"Wörth am Main","admin3":"09676","localeAltName":null},{"geonameid":2805928,"name":"Wülfershausen","admin3":"09673","localeAltName":null},{"geonameid":2805929,"name":"Wülfershausen","admin3":"09678","localeAltName":null},{"geonameid":2805615,"name":"Würzburg","admin3":"09663","localeAltName":null},{"geonameid":2805008,"name":"Zeil","admin3":"09674","localeAltName":null},{"geonameid":2804925,"name":"Zeitlofs","admin3":"09672","localeAltName":null},{"geonameid":2804865,"name":"Zell am Main","admin3":"09679","localeAltName":null},{"geonameid":2804808,"name":"Zellingen","admin3":"09677","localeAltName":null}],"admin3":[{"geonameid":2847553,"name":"Landkreis Rhön-Grabfeld","admin3":"09673","localeAltName":null},{"geonameid":2909461,"name":"Landkreis Haßberge","admin3":"09674","localeAltName":null},{"geonameid":2953423,"name":"Landkreis Bad Kissingen","admin3":"09672","localeAltName":null},{"geonameid":2955273,"name":"Landkreis Aschaffenburg","admin3":"09671","localeAltName":null},{"geonameid":3220890,"name":"Kreisfreie Stadt Aschaffenburg","admin3":"09661","localeAltName":null},{"geonameid":3220892,"name":"Landkreis Kitzingen","admin3":"09675","localeAltName":null},{"geonameid":3220893,"name":"Landkreis Main-Spessart","admin3":"09677","localeAltName":null},{"geonameid":3220894,"name":"Landkreis Miltenberg","admin3":"09676","localeAltName":null},{"geonameid":3220895,"name":"Kreisfreie Stadt Schweinfurt","admin3":"09662","localeAltName":null},{"geonameid":3220896,"name":"Landkreis Schweinfurt","admin3":"09678","localeAltName":null},{"geonameid":3220897,"name":"Kreisfreie Stadt Würzburg","admin3":"09663","localeAltName":null},{"geonameid":3220898,"name":"Landkreis Würzburg","admin3":"09679","localeAltName":null}],"alternateNames":[{"alternatenameId":5645185,"geonameid":2822571,"isoLanguage":"de","alternateName":"Thundorf i. Unterfranken","isPreferredName":true,"isShortName":true,"isColloquial":false,"isHistoric":false},{"alternatenameId":1894550,"geonameid":2951839,"isoLanguage":"de","alternateName":"Bayern","isPreferredName":true,"isShortName":true,"isColloquial":false,"isHistoric":false},{"alternatenameId":1894551,"geonameid":2951839,"isoLanguage":"en","alternateName":"Bavaria","isPreferredName":true,"isShortName":true,"isColloquial":false,"isHistoric":false}]},"__N_SSG":true}