{"pageProps":{"locale":"ro","admin2":{"geonameid":682078,"name":"Comuna Chiojdeni","country":"RO","admin1":"40","admin2":"175509","admin3":"","latitude":"45.5611300","longitude":"26.8438900"},"admin1":{"geonameid":662447,"name":"Vrancea","admin1":"40","localeAltName":"Vrancea"},"locations":[{"geonameid":682561,"name":"Cătăuți","admin3":""},{"geonameid":682079,"name":"Chiojdeni","admin3":""},{"geonameid":682077,"name":"Chiojdenii Mari","admin3":""},{"geonameid":677820,"name":"Fundătura","admin3":""},{"geonameid":674623,"name":"Lojnița","admin3":""},{"geonameid":674343,"name":"Luncile","admin3":""},{"geonameid":673889,"name":"Mărăcineşti","admin3":""},{"geonameid":672934,"name":"Mărăcini","admin3":""},{"geonameid":670314,"name":"Podu","admin3":""},{"geonameid":670266,"name":"Podurile","admin3":""},{"geonameid":668852,"name":"Râpa Lungă","admin3":""},{"geonameid":668578,"name":"Rotăria","admin3":""},{"geonameid":667486,"name":"Seciu","admin3":""},{"geonameid":664524,"name":"Tulburea","admin3":""}],"admin3":[],"alternateNames":[{"alternatenameId":391637,"geonameid":662447,"isoLanguage":"ro","alternateName":"Vrancea","isPreferredName":true,"isShortName":true,"isColloquial":false,"isHistoric":false}]},"__N_SSG":true}