{"pageProps":{"locale":"ro","admin2":{"geonameid":672189,"name":"Comuna Nistoreşti","country":"RO","admin1":"40","admin2":"177003","admin3":"","latitude":"45.8157800","longitude":"26.6772800"},"admin1":{"geonameid":662447,"name":"Vrancea","admin1":"40","localeAltName":"Vrancea"},"locations":[{"geonameid":684643,"name":"Bâtcari","admin3":""},{"geonameid":683943,"name":"Brădetu","admin3":""},{"geonameid":682056,"name":"Chiriac","admin3":""},{"geonameid":679728,"name":"Dărieşti","admin3":""},{"geonameid":678475,"name":"Făgetu","admin3":""},{"geonameid":673711,"name":"Masa Bâra","admin3":""},{"geonameid":672192,"name":"Nistoreşti","admin3":""},{"geonameid":671950,"name":"Ogoarele","admin3":""},{"geonameid":671879,"name":"Olăreşti","admin3":""},{"geonameid":670261,"name":"Podu Șchiopului","admin3":""},{"geonameid":670258,"name":"Podu Ţârdei","admin3":""},{"geonameid":668712,"name":"Românești","admin3":""},{"geonameid":664232,"name":"Ungureni","admin3":""},{"geonameid":663556,"name":"Valea Neagră","admin3":""},{"geonameid":663011,"name":"Vetreşti","admin3":""},{"geonameid":663010,"name":"Vetrești-Herăstrău","admin3":""}],"admin3":[],"alternateNames":[{"alternatenameId":391637,"geonameid":662447,"isoLanguage":"ro","alternateName":"Vrancea","isPreferredName":true,"isShortName":true,"isColloquial":false,"isHistoric":false}]},"__N_SSG":true}