{"pageProps":{"locale":"ro","admin1":{"geonameid":686581,"name":"Alba","country":"RO","admin1":"01"},"admin2":[{"geonameid":662160,"name":"Oraş Zlatna"},{"geonameid":662794,"name":"Comuna Vinţu de Jos"},{"geonameid":662965,"name":"Comuna Vidra"},{"geonameid":663670,"name":"Comuna Valea Lungă"},{"geonameid":664195,"name":"Comuna Unirea"},{"geonameid":665316,"name":"Oraş Teiuş"},{"geonameid":665819,"name":"Comuna Şugag"},{"geonameid":665980,"name":"Comuna Stremţ"},{"geonameid":666333,"name":"Comuna Şpring"},{"geonameid":666442,"name":"Comuna Şona"},{"geonameid":666549,"name":"Comuna Sohodol"},{"geonameid":666906,"name":"Comuna Sântimbru"},{"geonameid":667072,"name":"Comuna Sâncel"},{"geonameid":667264,"name":"Comuna Şibot"},{"geonameid":667719,"name":"Comuna Scărişoara"},{"geonameid":667918,"name":"Comuna Săsciori"},{"geonameid":668148,"name":"Comuna Sãliştea"},{"geonameid":668176,"name":"Comuna Sălciua"},{"geonameid":668325,"name":"Comuna Vadu Moţilor"},{"geonameid":668638,"name":"Comuna Roşia Montană"},{"geonameid":668642,"name":"Comuna Roşia de Secaş"},{"geonameid":668897,"name":"Comuna Râmeţ"},{"geonameid":668899,"name":"Comuna Râmetea"},{"geonameid":669267,"name":"Comuna Rădeşti"},{"geonameid":669805,"name":"Comuna Poşaga"},{"geonameid":669933,"name":"Comuna Ponor"},{"geonameid":670927,"name":"Comuna Pianu"},{"geonameid":671922,"name":"Comuna Ohaba"},{"geonameid":672006,"name":"Comuna Ocoliş"},{"geonameid":672166,"name":"Comuna Noşlac"},{"geonameid":672472,"name":"Comuna Poiana Vadului"},{"geonameid":672956,"name":"Comuna Mogoş"},{"geonameid":673159,"name":"Comuna Mirăslău"},{"geonameid":673353,"name":"Comuna Mihalţ"},{"geonameid":673505,"name":"Comuna Meteş"},{"geonameid":674270,"name":"Comuna Lupşa"},{"geonameid":674382,"name":"Comuna Lunca Mureşului"},{"geonameid":674611,"name":"Comuna Lopadea Nouă"},{"geonameid":674638,"name":"Comuna Livezile"},{"geonameid":675250,"name":"Comuna Jidvei"},{"geonameid":675580,"name":"Comuna Întregalde"},{"geonameid":675701,"name":"Comuna Ighiu"},{"geonameid":676036,"name":"Comuna Hopârta"},{"geonameid":677200,"name":"Comuna Gârda de Sus"},{"geonameid":677233,"name":"Comuna Gârbova"},{"geonameid":677666,"name":"Comuna Galda de Jos"},{"geonameid":678446,"name":"Comuna Fărău"},{"geonameid":679049,"name":"Comuna Doştat"},{"geonameid":679811,"name":"Comuna Daia Română"},{"geonameid":679874,"name":"Comuna Cut"},{"geonameid":679993,"name":"Oraş Cugir"},{"geonameid":680247,"name":"Comuna Cricău"},{"geonameid":680372,"name":"Comuna Crăciunelu de Jos"},{"geonameid":681367,"name":"Comuna Ciuruleasa"},{"geonameid":681465,"name":"Comuna Ciugud"},{"geonameid":681870,"name":"Oraş Câmpeni"},{"geonameid":681897,"name":"Comuna Câlnic"},{"geonameid":682257,"name":"Comuna Cetatea de Baltă"},{"geonameid":682279,"name":"Comuna Ceru-Băcăinţi"},{"geonameid":682362,"name":"Comuna Cergău"},{"geonameid":682425,"name":"Comuna Cenade"},{"geonameid":683571,"name":"Comuna Bucium"},{"geonameid":683596,"name":"Comuna Bucerdea-Grânoasă"},{"geonameid":684563,"name":"Comuna Blândiana"},{"geonameid":684673,"name":"Comuna Bistra"},{"geonameid":685013,"name":"Comuna Berghin"},{"geonameid":685833,"name":"Oraş Baia de Arieş"},{"geonameid":686012,"name":"Comuna Avram Iancu"},{"geonameid":686166,"name":"Comuna Arieşeni"},{"geonameid":686441,"name":"Comuna Almaşu Mare"},{"geonameid":686579,"name":"Comuna Albac"},{"geonameid":686711,"name":"Oraş abrud"},{"geonameid":8299636,"name":"Municipiul Alba Iulia"},{"geonameid":8299637,"name":"Municipiul Aiud"},{"geonameid":8299638,"name":"Municipiul Blaj"},{"geonameid":8299639,"name":"Municipiul Sebeş"},{"geonameid":8299640,"name":"Oraş Ocna Mureş"},{"geonameid":8305907,"name":"Comuna Horea"}],"alternateNames":[{"alternatenameId":490801,"geonameid":798549,"isoLanguage":"ro","alternateName":"România","isPreferredName":true,"isShortName":true,"isColloquial":false,"isHistoric":false}]},"__N_SSG":true}