{"pageProps":{"locale":"ro","admin1":{"geonameid":686192,"name":"Argeş","country":"RO","admin1":"03"},"admin2":[{"geonameid":662392,"name":"Comuna Vultureşti"},{"geonameid":662615,"name":"Comuna Vlădeşti"},{"geonameid":663082,"name":"Comuna Vedea"},{"geonameid":663595,"name":"Comuna Valea Mare-Pravăţ"},{"geonameid":663732,"name":"Comuna Valea Iaşului"},{"geonameid":663797,"name":"Comuna Valea Danului"},{"geonameid":664269,"name":"Comuna Ungheni"},{"geonameid":664383,"name":"Comuna Uda"},{"geonameid":664728,"name":"Oraș Topoloveni"},{"geonameid":664900,"name":"Comuna Țițești"},{"geonameid":665112,"name":"Comuna Tigveni"},{"geonameid":665324,"name":"Comuna Teiu"},{"geonameid":665686,"name":"Comuna Suseni"},{"geonameid":665798,"name":"Comuna Şuici"},{"geonameid":666034,"name":"Comuna Stolnici"},{"geonameid":666062,"name":"Comuna Stoeneşti"},{"geonameid":666148,"name":"Comuna Stâlpeni"},{"geonameid":666226,"name":"Oraș Ştefăneşti"},{"geonameid":666245,"name":"Comuna Ştefan cel Mare"},{"geonameid":666683,"name":"Comuna Slobozia"},{"geonameid":667645,"name":"Comuna Schitu-Goleşti"},{"geonameid":668079,"name":"Comuna Săpata"},{"geonameid":668225,"name":"Comuna Sălătrucu"},{"geonameid":668540,"name":"Comuna Rucăr"},{"geonameid":668780,"name":"Comuna Rociu"},{"geonameid":668925,"name":"Comuna Râca"},{"geonameid":669041,"name":"Comuna Recea"},{"geonameid":669113,"name":"Comuna Răteşti"},{"geonameid":669653,"name":"Comuna Priboieni"},{"geonameid":669867,"name":"Comuna Popeşti"},{"geonameid":670074,"name":"Comuna Poiana Lacului"},{"geonameid":670234,"name":"Comuna Poienarii de Muscel"},{"geonameid":670235,"name":"Comuna Poienarii de Argeş"},{"geonameid":670816,"name":"Comuna Pietroşani"},{"geonameid":672107,"name":"Comuna Oarja"},{"geonameid":672132,"name":"Comuna Nucşoara"},{"geonameid":672404,"name":"Comuna Negraşi"},{"geonameid":672579,"name":"Comuna Mușătești"},{"geonameid":672712,"name":"Comuna Mozăceni"},{"geonameid":672807,"name":"Comuna Moşoaia"},{"geonameid":673101,"name":"Comuna Miroşi"},{"geonameid":673161,"name":"Oraș Mioveni"},{"geonameid":673166,"name":"Comuna Mioarele"},{"geonameid":673409,"name":"Comuna Mihăeşti"},{"geonameid":673479,"name":"Comuna Miceşti"},{"geonameid":673892,"name":"Comuna Mărăcineni"},{"geonameid":673975,"name":"Comuna Mălureni"},{"geonameid":674863,"name":"Comuna Lereşti"},{"geonameid":674882,"name":"Comuna Leordeni"},{"geonameid":675341,"name":"Comuna Izvoru"},{"geonameid":676153,"name":"Comuna Hârtieşti"},{"geonameid":676165,"name":"Comuna Hârseşti"},{"geonameid":677004,"name":"Comuna Godeni"},{"geonameid":678910,"name":"Comuna Dragoslavele"},{"geonameid":678982,"name":"Comuna Drăganu"},{"geonameid":679115,"name":"Comuna Domneşti"},{"geonameid":679245,"name":"Comuna Dobreşti"},{"geonameid":679388,"name":"Comuna Dâmbovicioara"},{"geonameid":679698,"name":"Comuna Davideşti"},{"geonameid":679720,"name":"Comuna Dărmăneşti"},{"geonameid":680053,"name":"Comuna Cuca"},{"geonameid":680494,"name":"Comuna Cotmeana"},{"geonameid":680567,"name":"Oraș Costeşti"},{"geonameid":680641,"name":"Comuna Coşeşti"},{"geonameid":680878,"name":"Comuna Corbi"},{"geonameid":680885,"name":"Comuna Corbeni"},{"geonameid":681184,"name":"Comuna Cocu"},{"geonameid":681685,"name":"Comuna Ciomăgeşti"},{"geonameid":681700,"name":"Comuna Ciofrângeni"},{"geonameid":682251,"name":"Comuna Cetăţeni"},{"geonameid":682414,"name":"Comuna Cepari"},{"geonameid":682559,"name":"Comuna Căteasca"},{"geonameid":682944,"name":"Comuna Călineşti"},{"geonameid":682996,"name":"Comuna Căldăraru"},{"geonameid":683099,"name":"Comuna Buzoeşti"},{"geonameid":683382,"name":"Comuna Bughea de Sus"},{"geonameid":683385,"name":"Comuna Bughea de Jos"},{"geonameid":683458,"name":"Comuna Budeasa"},{"geonameid":683925,"name":"Comuna Brăduleţ"},{"geonameid":683929,"name":"Comuna Bradu"},{"geonameid":684065,"name":"Comuna Boţeşti"},{"geonameid":684079,"name":"Comuna Boteni"},{"geonameid":684422,"name":"Comuna Bogaţi"},{"geonameid":685020,"name":"Comuna Berevoeşti"},{"geonameid":685141,"name":"Comuna Beleţi-Negreşti"},{"geonameid":685304,"name":"Comuna Başcov"},{"geonameid":685618,"name":"Comuna Bălileşti"},{"geonameid":685809,"name":"Comuna Băiculeşti"},{"geonameid":685990,"name":"Comuna Băbana"},{"geonameid":686199,"name":"Comuna Arefu"},{"geonameid":686307,"name":"Comuna Aninoasa"},{"geonameid":686526,"name":"Comuna Albota"},{"geonameid":686549,"name":"Comuna Albeștii de Muscel"},{"geonameid":686550,"name":"Comuna Albeștii de Argeș"},{"geonameid":8299650,"name":"Municipiul Piteşti"},{"geonameid":8299651,"name":"Municipiul Câmpulung"},{"geonameid":8299652,"name":"Municipiul Curtea de Argeș"},{"geonameid":8299667,"name":"Comuna Bârla"},{"geonameid":8299668,"name":"Comuna Cicănești"},{"geonameid":8299669,"name":"Comuna Lunca Corbului"},{"geonameid":8299670,"name":"Comuna Merișani"},{"geonameid":8299673,"name":"Comuna Morărești"}],"alternateNames":[{"alternatenameId":490801,"geonameid":798549,"isoLanguage":"ro","alternateName":"România","isPreferredName":true,"isShortName":true,"isColloquial":false,"isHistoric":false}]},"__N_SSG":true}