{"pageProps":{"locale":"ro","admin1":{"geonameid":675848,"name":"Ialomiţa","country":"RO","admin1":"22"},"admin2":[{"geonameid":662631,"name":"Comuna Vlădeni"},{"geonameid":663648,"name":"Comuna Valea Măcrişului"},{"geonameid":663833,"name":"Comuna Valea Ciorii"},{"geonameid":664670,"name":"Comuna Traian"},{"geonameid":665634,"name":"Oraş Ţãndãrei"},{"geonameid":665829,"name":"Comuna Sudiţi"},{"geonameid":666715,"name":"Comuna Slobozia"},{"geonameid":666910,"name":"Comuna Sinteşti"},{"geonameid":667300,"name":"Comuna Sfântu Gheorghe"},{"geonameid":667619,"name":"Comuna Scânteia"},{"geonameid":667756,"name":"Comuna Săveni"},{"geonameid":668024,"name":"Comuna Sărăţeni"},{"geonameid":668180,"name":"Comuna Sălcioara"},{"geonameid":668611,"name":"Comuna Roşiori"},{"geonameid":668932,"name":"Comuna Reviga"},{"geonameid":669232,"name":"Comuna Răduleşti"},{"geonameid":670548,"name":"Comuna Platoneşti"},{"geonameid":671126,"name":"Comuna Perieţi"},{"geonameid":671945,"name":"Comuna Ograda"},{"geonameid":672653,"name":"Comuna Munteni Buzău"},{"geonameid":672718,"name":"Comuna Moviliţa"},{"geonameid":672748,"name":"Comuna Movila"},{"geonameid":672900,"name":"Comuna Moldoveni"},{"geonameid":673298,"name":"Comuna Miloşeşti"},{"geonameid":673372,"name":"Comuna Mihail Kogălniceanu"},{"geonameid":673854,"name":"Comuna Mărculeşti"},{"geonameid":673946,"name":"Comuna Manasia"},{"geonameid":674071,"name":"Comuna Maia"},{"geonameid":675226,"name":"Comuna Jilavele"},{"geonameid":675529,"name":"Comuna Ion Roată"},{"geonameid":676525,"name":"Comuna Gura Ialomiţei"},{"geonameid":676703,"name":"Comuna Griviţa"},{"geonameid":676718,"name":"Comuna Grindu"},{"geonameid":677117,"name":"Comuna Giurgeni"},{"geonameid":677218,"name":"Comuna Gârbovi"},{"geonameid":677460,"name":"Comuna Gheorghe Lazăr"},{"geonameid":678282,"name":"Oraş Fierbinţi-Târg"},{"geonameid":678511,"name":"Comuna Făcăeni"},{"geonameid":678830,"name":"Comuna Dridu"},{"geonameid":678941,"name":"Comuna Drăgoeşti"},{"geonameid":680635,"name":"Comuna Cosâmbeşti"},{"geonameid":680648,"name":"Comuna Coşereni"},{"geonameid":681118,"name":"Comuna Colelia"},{"geonameid":681205,"name":"Comuna Cocora"},{"geonameid":681441,"name":"Comuna Ciulniţa"},{"geonameid":681716,"name":"Comuna Ciocârlia"},{"geonameid":681727,"name":"Comuna Ciochina"},{"geonameid":682492,"name":"Oraş Cãzãneşti"},{"geonameid":683395,"name":"Comuna Bueşti"},{"geonameid":683516,"name":"Comuna Bucu"},{"geonameid":684201,"name":"Comuna Borduşani"},{"geonameid":684233,"name":"Comuna Borăneşti"},{"geonameid":685352,"name":"Comuna Bărcăneşti"},{"geonameid":685717,"name":"Comuna Balaciu"},{"geonameid":686005,"name":"Comuna Axintele"},{"geonameid":686143,"name":"Comuna Armăşeşti"},{"geonameid":686357,"name":"Comuna Andrăşeşti"},{"geonameid":686483,"name":"Comuna Alexeni"},{"geonameid":686552,"name":"Comuna Albeşti"},{"geonameid":686671,"name":"Comuna Adâncata"},{"geonameid":8334715,"name":"Oraş Amara"},{"geonameid":8334731,"name":"Comuna Bărbuleşti"},{"geonameid":8334732,"name":"Comuna Gheorghe Doja"},{"geonameid":8334847,"name":"Municipiul Urziceni"},{"geonameid":8334883,"name":"Comuna Stelnica"},{"geonameid":8334944,"name":"Municipiul Feteşti"}],"alternateNames":[{"alternatenameId":490801,"geonameid":798549,"isoLanguage":"ro","alternateName":"România","isPreferredName":true,"isShortName":true,"isColloquial":false,"isHistoric":false}]},"__N_SSG":true}