{"pageProps":{"locale":"ro","admin1":{"geonameid":675809,"name":"Iaşi","country":"RO","admin1":"23"},"admin2":[{"geonameid":662514,"name":"Comuna Voineşti"},{"geonameid":662628,"name":"Comuna Vlădeni"},{"geonameid":662828,"name":"Comuna Vânãtori"},{"geonameid":663410,"name":"Comuna Valea Seacă"},{"geonameid":664405,"name":"Comuna Ţuţora"},{"geonameid":664607,"name":"Comuna Trifeşti"},{"geonameid":664815,"name":"Comuna Tomeşti"},{"geonameid":665012,"name":"Oraş Târgu Frumos"},{"geonameid":665144,"name":"Comuna Ţigănaşi"},{"geonameid":665191,"name":"Comuna Ţibăneşti"},{"geonameid":665195,"name":"Comuna Ţibana"},{"geonameid":665424,"name":"Comuna Tătăruşi"},{"geonameid":665534,"name":"Comuna Tansa"},{"geonameid":665913,"name":"Comuna Strunga"},{"geonameid":666036,"name":"Comuna Stolniceni-Prăjescu"},{"geonameid":666827,"name":"Comuna Sireţel"},{"geonameid":666875,"name":"Comuna Şipote"},{"geonameid":667041,"name":"Comuna Sineşti"},{"geonameid":667605,"name":"Comuna Scobinţi"},{"geonameid":667618,"name":"Comuna Scânteia"},{"geonameid":667652,"name":"Comuna Schitu-Duca"},{"geonameid":667704,"name":"Comuna Scheia"},{"geonameid":668486,"name":"Comuna Ruginoasa"},{"geonameid":668668,"name":"Comuna Roşcani"},{"geonameid":668700,"name":"Comuna Româneşti"},{"geonameid":669001,"name":"Comuna Rediu-Tătar"},{"geonameid":669240,"name":"Comuna Răducăneni"},{"geonameid":669372,"name":"Comuna Răchiţeni"},{"geonameid":669585,"name":"Comuna Probota"},{"geonameid":669616,"name":"Comuna Prisăcani"},{"geonameid":669846,"name":"Comuna Popricani"},{"geonameid":669876,"name":"Comuna Popeşti"},{"geonameid":670296,"name":"Oraş Podu Iloaiei"},{"geonameid":670389,"name":"Comuna Plugari"},{"geonameid":671606,"name":"Comuna Oţeleni"},{"geonameid":672725,"name":"Comuna Movileni"},{"geonameid":672780,"name":"Comuna Moţca"},{"geonameid":672821,"name":"Comuna Moşna"},{"geonameid":672940,"name":"Comuna Mogoşeşti"},{"geonameid":673095,"name":"Comuna Mirosloveşti"},{"geonameid":673105,"name":"Comuna Mironeasa"},{"geonameid":673137,"name":"Comuna Mirceşti"},{"geonameid":674204,"name":"Comuna Mădârjac"},{"geonameid":674322,"name":"Comuna Lungani"},{"geonameid":674833,"name":"Comuna Leţcani"},{"geonameid":674843,"name":"Comuna Lespezi"},{"geonameid":675511,"name":"Comuna Ipatele"},{"geonameid":675996,"name":"Comuna Horleşti"},{"geonameid":676077,"name":"Comuna Holboca"},{"geonameid":676175,"name":"Oraş Hârlãu"},{"geonameid":676255,"name":"Comuna Heleşteni"},{"geonameid":676301,"name":"Comuna Hărmăneşti"},{"geonameid":676370,"name":"Comuna Hălăuceşti"},{"geonameid":676631,"name":"Comuna Grozeşti"},{"geonameid":676672,"name":"Comuna Gropniţa"},{"geonameid":676797,"name":"Comuna Grajduri"},{"geonameid":676919,"name":"Comuna Gorban"},{"geonameid":676959,"name":"Comuna Golãieşti"},{"geonameid":678012,"name":"Comuna Focuri"},{"geonameid":678142,"name":"Comuna Fântânele"},{"geonameid":678551,"name":"Comuna Erbiceni"},{"geonameid":678663,"name":"Comuna Dumeşti"},{"geonameid":678878,"name":"Comuna Drăguşeni"},{"geonameid":679140,"name":"Comuna Dolheşti"},{"geonameid":679196,"name":"Comuna Dobrovăţ"},{"geonameid":679511,"name":"Comuna Deleni"},{"geonameid":679823,"name":"Comuna Dagâţa"},{"geonameid":680173,"name":"Comuna Cristeşti"},{"geonameid":680387,"name":"Comuna Cozmeşti"},{"geonameid":680490,"name":"Comuna Cotnari"},{"geonameid":680530,"name":"Comuna Costuleni"},{"geonameid":680563,"name":"Comuna Costeşti"},{"geonameid":681279,"name":"Comuna Coarnele Caprei"},{"geonameid":681383,"name":"Comuna Ciurea"},{"geonameid":681633,"name":"Comuna Ciorteşti"},{"geonameid":682406,"name":"Comuna Cepleniţa"},{"geonameid":683165,"name":"Comuna Butea"},{"geonameid":683917,"name":"Comuna Brăeşti"},{"geonameid":684633,"name":"Comuna Bivolari"},{"geonameid":684776,"name":"Comuna Bârnova"},{"geonameid":685162,"name":"Comuna Belceşti"},{"geonameid":685543,"name":"Comuna Bălţaţi"},{"geonameid":685584,"name":"Comuna Balş"},{"geonameid":686130,"name":"Comuna Aroneanu"},{"geonameid":686340,"name":"Comuna Andrieşeni"},{"geonameid":8334710,"name":"Comuna Mogoşeşti-Siret"},{"geonameid":8334730,"name":"Comuna Cucuteni"},{"geonameid":8334753,"name":"Comuna Alexandru I. Cuza"},{"geonameid":8334762,"name":"Comuna Valea Lupului"},{"geonameid":8334798,"name":"Comuna Ungheni"},{"geonameid":8334835,"name":"Municipiul Iaşi"},{"geonameid":8334893,"name":"Comuna Ion Neculce"},{"geonameid":8334904,"name":"Comuna Ciohorãni"},{"geonameid":8334907,"name":"Comuna Victoria"},{"geonameid":8334919,"name":"Comuna Comarna"},{"geonameid":8334945,"name":"Comuna Todireşti"},{"geonameid":8334963,"name":"Comuna Miroslava"},{"geonameid":8335000,"name":"Municipiul Paşcani"}],"alternateNames":[{"alternatenameId":490801,"geonameid":798549,"isoLanguage":"ro","alternateName":"România","isPreferredName":true,"isShortName":true,"isColloquial":false,"isHistoric":false}]},"__N_SSG":true}