{"pageProps":{"locale":"ro","admin1":{"geonameid":673887,"name":"Maramureş","country":"RO","admin1":"25"},"admin2":[{"geonameid":662701,"name":"Comuna Vişeu de Jos"},{"geonameid":663839,"name":"Comuna Valea Chioarului"},{"geonameid":664026,"name":"Comuna Vadu Izei"},{"geonameid":664307,"name":"Oraş Ulmeni"},{"geonameid":665008,"name":"Oraș Târgu Lăpuş"},{"geonameid":665381,"name":"Oraș Tăuţii-Măgherăuş"},{"geonameid":665841,"name":"Comuna Suciu de Sus"},{"geonameid":665944,"name":"Comuna Strâmtura"},{"geonameid":666474,"name":"Oraș Şomcuta Mare"},{"geonameid":666798,"name":"Comuna Şişeşti"},{"geonameid":667436,"name":"Oraș Seini"},{"geonameid":667880,"name":"Comuna Satulung"},{"geonameid":668055,"name":"Comuna Sărăsău"},{"geonameid":668074,"name":"Comuna Sãpânţa"},{"geonameid":668127,"name":"Comuna Sălsig"},{"geonameid":668141,"name":"Oraș Săliştea de Sus"},{"geonameid":668317,"name":"Comuna Săcel"},{"geonameid":668343,"name":"Comuna Săcălăşeni"},{"geonameid":668409,"name":"Comuna Ruşcova"},{"geonameid":668547,"name":"Comuna Rozavlea"},{"geonameid":668680,"name":"Comuna Rona de Sus"},{"geonameid":668682,"name":"Comuna Rona de Jos"},{"geonameid":668961,"name":"Comuna Repedea"},{"geonameid":668970,"name":"Comuna Remeţi"},{"geonameid":668982,"name":"Comuna Remetea Chioarului"},{"geonameid":669039,"name":"Comuna Recea"},{"geonameid":669994,"name":"Comuna Poienile de sub Munte"},{"geonameid":670933,"name":"Comuna Petrova"},{"geonameid":671809,"name":"Comuna Onceşti"},{"geonameid":672020,"name":"Comuna Ocna Şugatag"},{"geonameid":672106,"name":"Comuna Oarţa De Jos"},{"geonameid":672921,"name":"Comuna Moisei"},{"geonameid":673122,"name":"Comuna Mireşu Mare"},{"geonameid":674879,"name":"Comuna Leordina"},{"geonameid":675044,"name":"Comuna Lăpuş"},{"geonameid":675720,"name":"Comuna Ieud"},{"geonameid":676649,"name":"Comuna Groşi"},{"geonameid":676650,"name":"Comuna Groşii Ţibleşului"},{"geonameid":677140,"name":"Comuna Giuleşti"},{"geonameid":678435,"name":"Comuna Fărcaşa"},{"geonameid":678675,"name":"Comuna Dumbrăviţa"},{"geonameid":678917,"name":"Oraș Dragomireşti"},{"geonameid":679460,"name":"Comuna Deseşti"},{"geonameid":679950,"name":"Comuna Cupşeni"},{"geonameid":679992,"name":"Comuna Bogdan Vodă"},{"geonameid":680700,"name":"Comuna Coroieni"},{"geonameid":680906,"name":"Comuna Copalnic Mănăştur"},{"geonameid":681277,"name":"Comuna Coaş"},{"geonameid":681846,"name":"Comuna Câmpulung la Tisa"},{"geonameid":681941,"name":"Comuna Cicârlău"},{"geonameid":682310,"name":"Comuna Cerneşti"},{"geonameid":682507,"name":"Oraș Cavnic"},{"geonameid":682942,"name":"Comuna Călineşti"},{"geonameid":683428,"name":"Comuna Budeşti"},{"geonameid":684053,"name":"Comuna Botiza"},{"geonameid":684152,"name":"Oraş Borşa"},{"geonameid":684307,"name":"Comuna Boiu Mare"},{"geonameid":684495,"name":"Comuna Bocicoiu Mare"},{"geonameid":684672,"name":"Comuna Bistra"},{"geonameid":684768,"name":"Comuna Bârsana"},{"geonameid":684920,"name":"Comuna Bicaz"},{"geonameid":685295,"name":"Comuna Băseşti"},{"geonameid":685758,"name":"Comuna Băiuţ"},{"geonameid":685763,"name":"Comuna Băiţa de sub Codru"},{"geonameid":686073,"name":"Comuna Asuaju de Sus"},{"geonameid":686156,"name":"Comuna Ariniş"},{"geonameid":686202,"name":"Comuna Ardusat"},{"geonameid":8334661,"name":"Comuna Şieu"},{"geonameid":8334737,"name":"Comuna Vima Micã"},{"geonameid":8334748,"name":"Oraş Baia Sprie"},{"geonameid":8334765,"name":"Oraş Vişeu De Sus"},{"geonameid":8334809,"name":"Comuna Gârdani"},{"geonameid":8334813,"name":"Comuna Coltãu"},{"geonameid":8334962,"name":"Municipiul Sighetu Marmaţiei"},{"geonameid":8334980,"name":"Municipiul Baia Mare"},{"geonameid":8334998,"name":"Comuna Poienile Izei"}],"alternateNames":[{"alternatenameId":490801,"geonameid":798549,"isoLanguage":"ro","alternateName":"România","isPreferredName":true,"isShortName":true,"isColloquial":false,"isHistoric":false}]},"__N_SSG":true}