{"pageProps":{"locale":"ro","admin1":{"geonameid":669737,"name":"Prahova","country":"RO","admin1":"30"},"admin2":[{"geonameid":662897,"name":"Comuna Vâlcăneşti"},{"geonameid":663176,"name":"Comuna Vărbilău"},{"geonameid":663862,"name":"Comuna Valea Călugărească"},{"geonameid":663985,"name":"Comuna Vadu Săpat"},{"geonameid":664795,"name":"Comuna Tomşani"},{"geonameid":665018,"name":"Comuna Târgşoru Vechi"},{"geonameid":665060,"name":"Comuna Tinosu"},{"geonameid":665289,"name":"Comuna Telega"},{"geonameid":665336,"name":"Comuna Teişani"},{"geonameid":665430,"name":"Comuna Tătaru"},{"geonameid":665610,"name":"Comuna Talea"},{"geonameid":665746,"name":"Comuna Surani"},{"geonameid":666210,"name":"Comuna Ştefeşti"},{"geonameid":666270,"name":"Comuna Starchiojd"},{"geonameid":666403,"name":"Comuna Şotrile"},{"geonameid":666532,"name":"Comuna Şoimari"},{"geonameid":666808,"name":"Comuna Şirna"},{"geonameid":667022,"name":"Comuna Sângeru"},{"geonameid":667506,"name":"Comuna Secăria"},{"geonameid":668192,"name":"Comuna Sălciile"},{"geonameid":668202,"name":"Comuna Salcia"},{"geonameid":668910,"name":"Comuna Râfov"},{"geonameid":669521,"name":"Comuna Puchenii Mari"},{"geonameid":669553,"name":"Comuna Proviţa de Sus"},{"geonameid":669555,"name":"Comuna Proviţa de Jos"},{"geonameid":669701,"name":"Comuna Predeal-Sărari"},{"geonameid":669802,"name":"Comuna Poseşti"},{"geonameid":670097,"name":"Comuna Poiana Câmpina"},{"geonameid":670228,"name":"Comuna Poienarii Burchii"},{"geonameid":670335,"name":"Comuna Podenii Noi"},{"geonameid":670418,"name":"Comuna Plopu"},{"geonameid":670464,"name":"Oraş Plopeni"},{"geonameid":671223,"name":"Comuna Păuleşti"},{"geonameid":671567,"name":"Comuna Păcureţi"},{"geonameid":673197,"name":"Comuna Măneciu"},{"geonameid":673926,"name":"Comuna Măneşti"},{"geonameid":674101,"name":"Comuna Măgureni"},{"geonameid":674110,"name":"Comuna Măgurele"},{"geonameid":674744,"name":"Comuna Lipăneşti"},{"geonameid":675050,"name":"Comuna Lapoş"},{"geonameid":675148,"name":"Comuna Jugureni"},{"geonameid":675368,"name":"Comuna Izvoarele"},{"geonameid":675525,"name":"Comuna Iordãcheanu"},{"geonameid":676454,"name":"Comuna Gura Vitioarei"},{"geonameid":676473,"name":"Comuna Gura Vadului"},{"geonameid":676887,"name":"Comuna Gornet-Cricov"},{"geonameid":676889,"name":"Comuna Gornet"},{"geonameid":676905,"name":"Comuna Gorgota"},{"geonameid":677431,"name":"Comuna Gherghiţa"},{"geonameid":677847,"name":"Comuna Fulga"},{"geonameid":678043,"name":"Comuna Floreşti"},{"geonameid":678145,"name":"Comuna Fântânele"},{"geonameid":678242,"name":"Comuna Filipeştii de Târg"},{"geonameid":678244,"name":"Comuna Filipeştii de Pădure"},{"geonameid":678727,"name":"Comuna Dumbrava"},{"geonameid":678865,"name":"Comuna Drajna de Sus"},{"geonameid":678993,"name":"Comuna Drăgăneşti"},{"geonameid":680619,"name":"Comuna Cosminele"},{"geonameid":680725,"name":"Comuna Cornu"},{"geonameid":681004,"name":"Oraş Comarnic"},{"geonameid":681124,"name":"Comuna Colceag"},{"geonameid":681197,"name":"Comuna Cocorãştii Mislii"},{"geonameid":681199,"name":"Comuna Cocorăştii-Colţ"},{"geonameid":681671,"name":"Comuna Ciorani"},{"geonameid":682080,"name":"Comuna Chiojdeanca"},{"geonameid":682398,"name":"Comuna Ceraşu"},{"geonameid":682405,"name":"Comuna Ceptura"},{"geonameid":682694,"name":"Comuna Cărbuneşti"},{"geonameid":682896,"name":"Comuna Călugăreni"},{"geonameid":683546,"name":"Comuna Bucov"},{"geonameid":683729,"name":"Comuna Brebu"},{"geonameid":683772,"name":"Comuna Brazi"},{"geonameid":684582,"name":"Comuna Blejoi"},{"geonameid":684984,"name":"Comuna Bertea"},{"geonameid":685073,"name":"Comuna Berceni"},{"geonameid":685248,"name":"Comuna Bătrâni"},{"geonameid":685351,"name":"Comuna Bărcăneşti"},{"geonameid":685459,"name":"Comuna Băneşti"},{"geonameid":685513,"name":"Comuna Bălţeşti"},{"geonameid":685569,"name":"Comuna Balta Doamnei"},{"geonameid":685999,"name":"Comuna Baba Ana"},{"geonameid":686172,"name":"Comuna Ariceştii Zeletin"},{"geonameid":686174,"name":"Comuna Ariceştii-Rahtivani"},{"geonameid":686262,"name":"Comuna Apostolache"},{"geonameid":686417,"name":"Comuna Aluniş"},{"geonameid":686541,"name":"Comuna Albeşti-Paleologu"},{"geonameid":686655,"name":"Comuna Adunaţi"},{"geonameid":8334641,"name":"Oraş Boldeşti-Scãeni"},{"geonameid":8334698,"name":"Oraş Slãnic"},{"geonameid":8334702,"name":"Oraş Bãicoi"},{"geonameid":8334724,"name":"Oraş Sinaia"},{"geonameid":8334736,"name":"Oraş Buşteni"},{"geonameid":8334742,"name":"Comuna Dumbrãveşti"},{"geonameid":8334790,"name":"Oraş Azuga"},{"geonameid":8334810,"name":"Municipiul Ploieşti"},{"geonameid":8334815,"name":"Municipiul Câmpina"},{"geonameid":8334852,"name":"Oraş Urlaţi"},{"geonameid":8334864,"name":"Comuna Scorţeni"},{"geonameid":8334879,"name":"Oraş Vãlenii De Munte"},{"geonameid":8334890,"name":"Comuna Olari"},{"geonameid":8334896,"name":"Oraş Mizil"},{"geonameid":8334948,"name":"Oraş Breaza"},{"geonameid":8334982,"name":"Comuna Valea Doftanei"},{"geonameid":8335002,"name":"Comuna Boldeşti-Gradiştea"}],"alternateNames":[{"alternatenameId":8326236,"geonameid":669737,"isoLanguage":"en","alternateName":"Prahova","isPreferredName":true,"isShortName":true,"isColloquial":false,"isHistoric":false},{"alternatenameId":490801,"geonameid":798549,"isoLanguage":"ro","alternateName":"România","isPreferredName":true,"isShortName":true,"isColloquial":false,"isHistoric":false}]},"__N_SSG":true}