{"pageProps":{"locale":"ro","admin1":{"geonameid":667869,"name":"Satu Mare","country":"RO","admin1":"32"},"admin2":[{"geonameid":662935,"name":"Comuna Viile Satu Mare"},{"geonameid":663013,"name":"Comuna Vetiş"},{"geonameid":663223,"name":"Comuna Vama"},{"geonameid":663304,"name":"Comuna Valea Vinului"},{"geonameid":664072,"name":"Comuna Urziceni"},{"geonameid":664424,"name":"Comuna Turulung"},{"geonameid":664431,"name":"Comuna Turţ"},{"geonameid":664939,"name":"Comuna Târşolţ"},{"geonameid":665026,"name":"Comuna Tiream"},{"geonameid":665236,"name":"Comuna Terebeşti"},{"geonameid":665468,"name":"Oraș Tăşnad"},{"geonameid":666575,"name":"Comuna Socond"},{"geonameid":667782,"name":"Comuna Săuca"},{"geonameid":668088,"name":"Comuna Santău"},{"geonameid":668095,"name":"Comuna Sanislău"},{"geonameid":668329,"name":"Comuna Săcăşeni"},{"geonameid":669808,"name":"Comuna Porumbeşti"},{"geonameid":669949,"name":"Comuna Pomi"},{"geonameid":670651,"name":"Comuna Pişcolt"},{"geonameid":670774,"name":"Comuna Pir"},{"geonameid":670986,"name":"Comuna Petreşti"},{"geonameid":671750,"name":"Comuna Oraşu Nou"},{"geonameid":671965,"name":"Comuna Odoreu"},{"geonameid":672366,"name":"Oraş Negreşti-Oaş"},{"geonameid":672961,"name":"Comuna Moftinu"},{"geonameid":673452,"name":"Comuna Micula"},{"geonameid":673631,"name":"Comuna Medieşu Aurit"},{"geonameid":674675,"name":"Oraș Livada"},{"geonameid":674946,"name":"Comuna Lazuri"},{"geonameid":676105,"name":"Comuna Hodod"},{"geonameid":676350,"name":"Comuna Halmeu"},{"geonameid":677418,"name":"Comuna Gherţa Mică"},{"geonameid":678003,"name":"Comuna Foieni"},{"geonameid":679060,"name":"Comuna Dorolţ"},{"geonameid":679291,"name":"Comuna Doba"},{"geonameid":679974,"name":"Comuna Culciu"},{"geonameid":680072,"name":"Comuna Crucişor"},{"geonameid":680341,"name":"Comuna Craidorolţ"},{"geonameid":681426,"name":"Comuna Ciumeşti"},{"geonameid":682281,"name":"Comuna Certeze"},{"geonameid":682446,"name":"Comuna Cehal"},{"geonameid":682521,"name":"Comuna Căuaş"},{"geonameid":682799,"name":"Comuna Căpleni"},{"geonameid":682862,"name":"Comuna Cămărzana"},{"geonameid":684055,"name":"Comuna Botiz"},{"geonameid":684405,"name":"Comuna Bogdand"},{"geonameid":684629,"name":"Comuna Bixad"},{"geonameid":684761,"name":"Comuna Bârsău"},{"geonameid":684979,"name":"Comuna Berveni"},{"geonameid":685120,"name":"Comuna Beltiug"},{"geonameid":685276,"name":"Comuna Bătarci"},{"geonameid":686205,"name":"Oraș Ardud"},{"geonameid":686292,"name":"Comuna Apa"},{"geonameid":686342,"name":"Comuna Andrid"},{"geonameid":686699,"name":"Comuna Acâş"},{"geonameid":8299647,"name":"Municipiul Carei"},{"geonameid":8334741,"name":"Comuna Pãuleşti"},{"geonameid":8334766,"name":"Comuna Racşa"},{"geonameid":8334767,"name":"Municipiul Satu Mare"},{"geonameid":8334768,"name":"Comuna Cãlineşti-Oaş"},{"geonameid":8334770,"name":"Comuna Supur"},{"geonameid":8334771,"name":"Comuna Agriş"},{"geonameid":8334774,"name":"Comuna Tarna Mare"},{"geonameid":8334793,"name":"Comuna Homoroade"},{"geonameid":8334868,"name":"Comuna Cãmin"}],"alternateNames":[{"alternatenameId":490801,"geonameid":798549,"isoLanguage":"ro","alternateName":"România","isPreferredName":true,"isShortName":true,"isColloquial":false,"isHistoric":false}]},"__N_SSG":true}