{"pageProps":{"locale":"it","admin2":{"geonameid":3182178,"name":"Provincia di Benevento","country":"IT","admin1":"04","admin2":"BN","admin3":"","latitude":"41.2179200","longitude":"14.7464000","localeAltName":"Benevento"},"admin1":{"geonameid":3181042,"name":"Campania","admin1":"04","localeAltName":"Campania"},"locations":[{"geonameid":3183378,"name":"Airola","admin3":"062001","localeAltName":null},{"geonameid":3183106,"name":"Amorosi","admin3":"062002","localeAltName":null},{"geonameid":3182985,"name":"Apollosa","admin3":"062004","localeAltName":null},{"geonameid":3182810,"name":"Arpaia","admin3":"062005","localeAltName":null},{"geonameid":3182517,"name":"Bagnoli","admin3":"062070","localeAltName":null},{"geonameid":3182311,"name":"Baselice","admin3":"062007","localeAltName":null},{"geonameid":3182201,"name":"Beltiglio-San Giovanni","admin3":"062022","localeAltName":null},{"geonameid":3182179,"name":"Benevento","admin3":"062008","localeAltName":null},{"geonameid":3181889,"name":"Bonea","admin3":"062009","localeAltName":null},{"geonameid":3181460,"name":"Bucciano","admin3":"062010","localeAltName":null},{"geonameid":3181410,"name":"Buonalbergo","admin3":"062011","localeAltName":null},{"geonameid":6535633,"name":"Calvi","admin3":"062012","localeAltName":null},{"geonameid":3180964,"name":"Campolattaro","admin3":"062013","localeAltName":null},{"geonameid":3180959,"name":"Campoli del Monte Taburno","admin3":"062014","localeAltName":null},{"geonameid":3180239,"name":"Casalduni","admin3":"062015","localeAltName":null},{"geonameid":3179685,"name":"Castelfranco in Miscano","admin3":"062016","localeAltName":null},{"geonameid":3179504,"name":"Castelpoto","admin3":"062018","localeAltName":null},{"geonameid":3179454,"name":"Castelvenere","admin3":"062019","localeAltName":null},{"geonameid":3179449,"name":"Castelvetere in Val Fortore","admin3":"062020","localeAltName":null},{"geonameid":3179341,"name":"Cautano","admin3":"062021","localeAltName":null},{"geonameid":3179033,"name":"Cerreto Sannita","admin3":"062023","localeAltName":null},{"geonameid":8950253,"name":"Cesine","admin3":"062058","localeAltName":null},{"geonameid":3178656,"name":"Circello","admin3":"062024","localeAltName":null},{"geonameid":8950133,"name":"Cirignano","admin3":"062043","localeAltName":null},{"geonameid":3178346,"name":"Colle Sannita","admin3":"062025","localeAltName":null},{"geonameid":3177663,"name":"Cusano Mutri","admin3":"062026","localeAltName":null},{"geonameid":3177453,"name":"Dugenta","admin3":"062027","localeAltName":null},{"geonameid":3177444,"name":"Durazzano","admin3":"062028","localeAltName":null},{"geonameid":3177276,"name":"Faicchio","admin3":"062029","localeAltName":null},{"geonameid":3176879,"name":"Foglianise","admin3":"062030","localeAltName":null},{"geonameid":3176859,"name":"Foiano di Val Fortore","admin3":"062031","localeAltName":null},{"geonameid":3176761,"name":"Forchia","admin3":"062032","localeAltName":null},{"geonameid":3176615,"name":"Fragneto L'Abate","admin3":"062033","localeAltName":null},{"geonameid":3176614,"name":"Fragneto Monforte","admin3":"062034","localeAltName":null},{"geonameid":3176571,"name":"Frasso Telesino","admin3":"062035","localeAltName":null},{"geonameid":8949783,"name":"Giardoni","admin3":"062038","localeAltName":null},{"geonameid":3175703,"name":"Guardia Sanframondi","admin3":"062037","localeAltName":null},{"geonameid":8949520,"name":"Iannassi-Bosco Perrotta","admin3":"062067","localeAltName":null},{"geonameid":3174721,"name":"Limatola","admin3":"062038","localeAltName":null},{"geonameid":3174417,"name":"Luzzano","admin3":"062040","localeAltName":null},{"geonameid":8949429,"name":"Maccoli-Perrillo","admin3":"062071","localeAltName":null},{"geonameid":3173612,"name":"Melizzano","admin3":"062039","localeAltName":null},{"geonameid":3173311,"name":"Moiano","admin3":"062040","localeAltName":null},{"geonameid":3173279,"name":"Molinara","admin3":"062041","localeAltName":null},{"geonameid":3172936,"name":"Montefalcone di Val Fortore","admin3":"062042","localeAltName":null},{"geonameid":3172740,"name":"Montesarchio","admin3":"062043","localeAltName":null},{"geonameid":3172612,"name":"Morcone","admin3":"062044","localeAltName":null},{"geonameid":3171715,"name":"Paduli","admin3":"062045","localeAltName":null},{"geonameid":3171673,"name":"Pago Veiano","admin3":"062046","localeAltName":null},{"geonameid":3171519,"name":"Pannarano","admin3":"062047","localeAltName":null},{"geonameid":3171495,"name":"Paolisi","admin3":"062048","localeAltName":null},{"geonameid":8949964,"name":"Pastene","admin3":"062071","localeAltName":null},{"geonameid":3171369,"name":"Paupisi","admin3":"062049","localeAltName":null},{"geonameid":3171124,"name":"Pesco Sannita","admin3":"062050","localeAltName":null},{"geonameid":3170771,"name":"Pietrelcina","admin3":"062052","localeAltName":null},{"geonameid":3170315,"name":"Ponte","admin3":"062053","localeAltName":null},{"geonameid":3170252,"name":"Pontelandolfo","admin3":"062054","localeAltName":null},{"geonameid":3169776,"name":"Puglianello","admin3":"062055","localeAltName":null},{"geonameid":3169505,"name":"Reino","admin3":"062056","localeAltName":null},{"geonameid":3168560,"name":"San Bartolomeo in Galdo","admin3":"062057","localeAltName":null},{"geonameid":8950001,"name":"San Giacomo","admin3":"062065","localeAltName":null},{"geonameid":3168305,"name":"San Giorgio del Sannio","admin3":"062058","localeAltName":null},{"geonameid":3168294,"name":"San Giorgio la Molara","admin3":"062059","localeAltName":null},{"geonameid":3168157,"name":"San Leucio del Sannio-Cavuoti","admin3":"062060","localeAltName":null},{"geonameid":3168152,"name":"San Lorenzello","admin3":"062061","localeAltName":null},{"geonameid":3168110,"name":"San Lorenzo Maggiore","admin3":"062062","localeAltName":null},{"geonameid":3168102,"name":"San Lupo","admin3":"062063","localeAltName":null},{"geonameid":3168077,"name":"San Marco dei Cavoti","admin3":"062064","localeAltName":null},{"geonameid":6535634,"name":"San Nazzaro","admin3":"062066","localeAltName":null},{"geonameid":6535635,"name":"San Nicola Manfredi","admin3":"062067","localeAltName":null},{"geonameid":3167752,"name":"San Salvatore Telesino","admin3":"062068","localeAltName":null},{"geonameid":3167647,"name":"Sant'Agata de'Goti","admin3":"062070","localeAltName":null},{"geonameid":6535294,"name":"Sant'Angelo A Cupolo","admin3":"062071","localeAltName":null},{"geonameid":8950178,"name":"Santa Colomba II","admin3":"062008","localeAltName":null},{"geonameid":3168446,"name":"Santa Croce del Sannio","admin3":"062069","localeAltName":null},{"geonameid":3166414,"name":"Solopaca","admin3":"062073","localeAltName":null},{"geonameid":3165842,"name":"Telese","admin3":"062074","localeAltName":"Telese"},{"geonameid":3165616,"name":"Tocco Caudio","admin3":"062075","localeAltName":null},{"geonameid":3165462,"name":"Torrecuso","admin3":"062076","localeAltName":null},{"geonameid":8950008,"name":"Via Fausto Coppi","admin3":"062074","localeAltName":null},{"geonameid":8950225,"name":"Via S. Giovanni","admin3":"062074","localeAltName":null},{"geonameid":3164025,"name":"Vitulano","admin3":"062077","localeAltName":null}],"admin3":[{"geonameid":6536380,"name":"Apice","admin3":"062003"},{"geonameid":6537314,"name":"Airola","admin3":"062001","localeAltName":null},{"geonameid":6537315,"name":"Arpaia","admin3":"062005","localeAltName":null},{"geonameid":6537316,"name":"Arpaise","admin3":"062006"},{"geonameid":6537317,"name":"Bonea","admin3":"062009","localeAltName":null},{"geonameid":6537318,"name":"Buonalbergo","admin3":"062011","localeAltName":null},{"geonameid":6537319,"name":"Campoli del Monte Taburno","admin3":"062014","localeAltName":null},{"geonameid":6537320,"name":"Castelfranco in Miscano","admin3":"062016","localeAltName":null},{"geonameid":6537321,"name":"Castelpoto","admin3":"062018","localeAltName":null},{"geonameid":6537322,"name":"Colle Sannita","admin3":"062025","localeAltName":null},{"geonameid":6537323,"name":"Cusano Mutri","admin3":"062026","localeAltName":null},{"geonameid":6537324,"name":"Foglianise","admin3":"062030","localeAltName":null},{"geonameid":6537325,"name":"Foiano di Val Fortore","admin3":"062031","localeAltName":null},{"geonameid":6537326,"name":"Guardia Sanframondi","admin3":"062037","localeAltName":null},{"geonameid":6537327,"name":"Paduli","admin3":"062045","localeAltName":null},{"geonameid":6537328,"name":"Pago Veiano","admin3":"062046","localeAltName":null},{"geonameid":6537329,"name":"Pannarano","admin3":"062047","localeAltName":null},{"geonameid":6537330,"name":"Paolisi","admin3":"062048","localeAltName":null},{"geonameid":6537331,"name":"Paupisi","admin3":"062049","localeAltName":null},{"geonameid":6537332,"name":"Pesco Sannita","admin3":"062050","localeAltName":null},{"geonameid":6537333,"name":"Puglianello","admin3":"062055","localeAltName":null},{"geonameid":6537334,"name":"San Giorgio del Sannio","admin3":"062058","localeAltName":null},{"geonameid":6537335,"name":"San Lupo","admin3":"062063","localeAltName":null},{"geonameid":6537336,"name":"Sant'Arcangelo Trimonte","admin3":"062078"},{"geonameid":6538734,"name":"Amorosi","admin3":"062002","localeAltName":null},{"geonameid":6538735,"name":"Baselice","admin3":"062007","localeAltName":null},{"geonameid":6538736,"name":"Campolattaro","admin3":"062013","localeAltName":null},{"geonameid":6538737,"name":"Castelpagano","admin3":"062017"},{"geonameid":6538738,"name":"Castelvenere","admin3":"062019","localeAltName":null},{"geonameid":6538739,"name":"Cautano","admin3":"062021","localeAltName":null},{"geonameid":6538740,"name":"Cerreto Sannita","admin3":"062023","localeAltName":null},{"geonameid":6538741,"name":"Circello","admin3":"062024","localeAltName":null},{"geonameid":6538742,"name":"Dugenta","admin3":"062027","localeAltName":null},{"geonameid":6538743,"name":"Faicchio","admin3":"062029","localeAltName":null},{"geonameid":6538744,"name":"Forchia","admin3":"062032","localeAltName":null},{"geonameid":6538745,"name":"Fragneto Monforte","admin3":"062034","localeAltName":null},{"geonameid":6538746,"name":"Molinara","admin3":"062041","localeAltName":null},{"geonameid":6538747,"name":"Montesarchio","admin3":"062043","localeAltName":null},{"geonameid":6538748,"name":"Pietrelcina","admin3":"062052","localeAltName":null},{"geonameid":6538749,"name":"San Lorenzo Maggiore","admin3":"062062","localeAltName":null},{"geonameid":6538750,"name":"San Martino Sannita","admin3":"062065","localeAltName":null},{"geonameid":6538751,"name":"San Salvatore Telesino","admin3":"062068","localeAltName":null},{"geonameid":6538752,"name":"Sant'Agata de' Goti","admin3":"062070","localeAltName":null},{"geonameid":6538753,"name":"Sassinoro","admin3":"062072"},{"geonameid":6538754,"name":"Torrecuso","admin3":"062076","localeAltName":null},{"geonameid":6539808,"name":"Ceppaloni","admin3":"062022","localeAltName":null},{"geonameid":6539809,"name":"Durazzano","admin3":"062028","localeAltName":null},{"geonameid":6539988,"name":"Bucciano","admin3":"062010","localeAltName":null},{"geonameid":6539989,"name":"Moiano","admin3":"062040","localeAltName":null},{"geonameid":6540284,"name":"San Leucio del Sannio","admin3":"062060","localeAltName":null},{"geonameid":6540674,"name":"Apollosa","admin3":"062004","localeAltName":null},{"geonameid":6540675,"name":"Limatola","admin3":"062038","localeAltName":null},{"geonameid":6540676,"name":"Ponte","admin3":"062053","localeAltName":null},{"geonameid":6540677,"name":"San Lorenzello","admin3":"062061","localeAltName":null},{"geonameid":6540678,"name":"San Marco dei Cavoti","admin3":"062064","localeAltName":null},{"geonameid":6540679,"name":"Solopaca","admin3":"062073","localeAltName":null},{"geonameid":6541152,"name":"Castelvetere in Val Fortore","admin3":"062020","localeAltName":null},{"geonameid":6541153,"name":"Fragneto l'Abate","admin3":"062033","localeAltName":null},{"geonameid":6541154,"name":"Frasso Telesino","admin3":"062035","localeAltName":null},{"geonameid":6541155,"name":"Melizzano","admin3":"062039","localeAltName":null},{"geonameid":6541156,"name":"Montefalcone di Val Fortore","admin3":"062042","localeAltName":null},{"geonameid":6541157,"name":"Morcone","admin3":"062044","localeAltName":null},{"geonameid":6541158,"name":"Pontelandolfo","admin3":"062054","localeAltName":null},{"geonameid":6541159,"name":"Reino","admin3":"062056","localeAltName":null},{"geonameid":6541160,"name":"San Giorgio La Molara","admin3":"062059","localeAltName":null},{"geonameid":6541161,"name":"Vitulano","admin3":"062077","localeAltName":null},{"geonameid":6541678,"name":"Ginestra degli Schiavoni","admin3":"062036"},{"geonameid":6541901,"name":"San Bartolomeo in Galdo","admin3":"062057","localeAltName":null},{"geonameid":6541902,"name":"Tocco Caudio","admin3":"062075","localeAltName":null},{"geonameid":6542058,"name":"Casalduni","admin3":"062015","localeAltName":null},{"geonameid":6542123,"name":"Benevento","admin3":"062008","localeAltName":null},{"geonameid":6542190,"name":"Telese Terme","admin3":"062074","localeAltName":null},{"geonameid":6542224,"name":"Santa Croce del Sannio","admin3":"062069","localeAltName":null},{"geonameid":6543278,"name":"Pietraroja","admin3":"062051"},{"geonameid":6543279,"name":"Sant'Angelo a Cupolo","admin3":"062071","localeAltName":null},{"geonameid":6543613,"name":"Calvi","admin3":"062012","localeAltName":null},{"geonameid":6543614,"name":"San Nazzaro","admin3":"062066","localeAltName":null},{"geonameid":6543615,"name":"San Nicola Manfredi","admin3":"062067","localeAltName":null}],"alternateNames":[{"alternatenameId":7411732,"geonameid":3165842,"isoLanguage":"it","alternateName":"Telese","isPreferredName":true,"isShortName":true,"isColloquial":false,"isHistoric":false},{"alternatenameId":1352304,"geonameid":3181042,"isoLanguage":"it","alternateName":"Campania","isPreferredName":true,"isShortName":true,"isColloquial":false,"isHistoric":false},{"alternatenameId":1352596,"geonameid":3182178,"isoLanguage":"it","alternateName":"Benevento","isPreferredName":true,"isShortName":true,"isColloquial":false,"isHistoric":false},{"alternatenameId":2431262,"geonameid":3182178,"isoLanguage":"de","alternateName":"Benevent","isPreferredName":true,"isShortName":true,"isColloquial":false,"isHistoric":false}]},"__N_SSG":true}