{"pageProps":{"locale":"de","admin2":{"geonameid":8260133,"name":"Emmental District","country":"CH","admin1":"BE","admin2":"245","admin3":"","latitude":"47.0442500","longitude":"7.6617600"},"admin1":{"geonameid":2661551,"name":"Canton de Berne","admin1":"BE"},"locations":[{"geonameid":2661820,"name":"Alchenstorf","admin3":"402"},{"geonameid":2661596,"name":"Bätterkinden","admin3":"533"},{"geonameid":2661321,"name":"Burgdorf","admin3":"404"},{"geonameid":2660960,"name":"Dürrenroth","admin3":"952"},{"geonameid":2660935,"name":"Eggiwil","admin3":"901"},{"geonameid":2660864,"name":"Ersigen","admin3":"405"},{"geonameid":2660388,"name":"Heimiswil","admin3":"407"},{"geonameid":2660349,"name":"Hindelbank","admin3":"409"},{"geonameid":2660172,"name":"Kernenried","admin3":"411"},{"geonameid":2660156,"name":"Kirchberg","admin3":"412"},{"geonameid":2660115,"name":"Koppigen","admin3":"413"},{"geonameid":2660112,"name":"Krauchthal","admin3":"414"},{"geonameid":2660032,"name":"Langnau","admin3":"902"},{"geonameid":2659996,"name":"Lauperswil","admin3":"903"},{"geonameid":2659814,"name":"Lützelflüh","admin3":"955"},{"geonameid":2659807,"name":"Lyssach","admin3":"415"},{"geonameid":2659404,"name":"Oberburg","admin3":"418"},{"geonameid":2658939,"name":"Rüderswil","admin3":"905"},{"geonameid":2658755,"name":"Schangnau","admin3":"906"},{"geonameid":2658600,"name":"Signau","admin3":"907"},{"geonameid":2658449,"name":"Sumiswald","admin3":"957"},{"geonameid":2658332,"name":"Trachselwald","admin3":"955"},{"geonameid":2658305,"name":"Trub","admin3":"908"},{"geonameid":2658303,"name":"Trubschachen","admin3":"909"},{"geonameid":2658211,"name":"Utzenstorf","admin3":"552"},{"geonameid":2657944,"name":"Wynigen","admin3":"424"}],"admin3":[{"geonameid":7285025,"name":"Aefligen","admin3":"401"},{"geonameid":7285038,"name":"Affoltern im Emmental","admin3":"951"},{"geonameid":7285048,"name":"Alchenstorf","admin3":"402"},{"geonameid":7285167,"name":"Bätterkinden","admin3":"533"},{"geonameid":7285391,"name":"Burgdorf","admin3":"404"},{"geonameid":7285683,"name":"Dürrenroth","admin3":"952"},{"geonameid":7285706,"name":"Eggiwil","admin3":"901"},{"geonameid":7285763,"name":"Ersigen","admin3":"405"},{"geonameid":7286031,"name":"Hasle bei Burgdorf","admin3":"406"},{"geonameid":7286051,"name":"Heimiswil","admin3":"407"},{"geonameid":7286055,"name":"Hellsau","admin3":"408"},{"geonameid":7286085,"name":"Hindelbank","admin3":"409"},{"geonameid":7286093,"name":"Höchstetten","admin3":"410"},{"geonameid":7286186,"name":"Kernenried","admin3":"411"},{"geonameid":7286198,"name":"Kirchberg (BE)","admin3":"412"},{"geonameid":7286218,"name":"Koppigen","admin3":"413"},{"geonameid":7286221,"name":"Krauchthal","admin3":"414"},{"geonameid":7286261,"name":"Langnau im Emmental","admin3":"902"},{"geonameid":7286282,"name":"Lauperswil","admin3":"903"},{"geonameid":7286405,"name":"Lützelflüh","admin3":"955"},{"geonameid":7286411,"name":"Lyssach","admin3":"415"},{"geonameid":7286678,"name":"Oberburg","admin3":"418"},{"geonameid":7286957,"name":"Röthenbach im Emmental","admin3":"904"},{"geonameid":7286969,"name":"Rüderswil","admin3":"905"},{"geonameid":7286972,"name":"Rüdtligen-Alchenflüh","admin3":"420"},{"geonameid":7286975,"name":"Rüegsau","admin3":"956"},{"geonameid":7286980,"name":"Rumendingen","admin3":"421"},{"geonameid":7286999,"name":"Rüti bei Lyssach","admin3":"422"},{"geonameid":7287074,"name":"Schangnau","admin3":"906"},{"geonameid":7287168,"name":"Signau","admin3":"907"},{"geonameid":7287262,"name":"Sumiswald","admin3":"957"},{"geonameid":7287321,"name":"Trachselwald","admin3":"958"},{"geonameid":7287340,"name":"Trub","admin3":"908"},{"geonameid":7287341,"name":"Trubschachen","admin3":"909"},{"geonameid":7287400,"name":"Utzenstorf","admin3":"552"},{"geonameid":7287580,"name":"Wiler bei Utzenstorf","admin3":"554"},{"geonameid":7287584,"name":"Willadingen","admin3":"423"},{"geonameid":7287617,"name":"Wynigen","admin3":"424"},{"geonameid":7287635,"name":"Zielebach","admin3":"556"}],"alternateNames":[]},"__N_SSG":true}