{"pageProps":{"locale":"ro","admin2":{"geonameid":680567,"name":"Oraș Costeşti","country":"RO","admin1":"03","admin2":"13668","admin3":"","latitude":"44.6666700","longitude":"24.8833300"},"admin1":{"geonameid":686192,"name":"Argeş","admin1":"03"},"locations":[{"geonameid":683648,"name":"Broșteni","admin3":""},{"geonameid":680581,"name":"Costeşti","admin3":""},{"geonameid":679705,"name":"Datcu","admin3":""},{"geonameid":675119,"name":"Lăceni","admin3":""},{"geonameid":670713,"name":"Pârvu Roșu","admin3":""},{"geonameid":670313,"name":"Podu Broșteni","admin3":""},{"geonameid":666638,"name":"Smei","admin3":""},{"geonameid":666099,"name":"Stârci","admin3":""},{"geonameid":666098,"name":"Stârcii de Sus","admin3":""},{"geonameid":666097,"name":"Stârciu","admin3":""},{"geonameid":664978,"name":"Ţârleşti","admin3":""},{"geonameid":665296,"name":"Teleasca","admin3":""},{"geonameid":665279,"name":"Teleşti","admin3":""},{"geonameid":662133,"name":"Zorile","admin3":""}],"admin3":[],"alternateNames":[]},"__N_SSG":true}