{"pageProps":{"locale":"ro","admin2":{"geonameid":672759,"name":"Comuna Motoşeni","country":"RO","admin1":"04","admin2":"23494","admin3":"","latitude":"46.3277900","longitude":"27.4172100"},"admin1":{"geonameid":685947,"name":"Bacău","admin1":"04"},"locations":[{"geonameid":686646,"name":"Afumaţi"},{"geonameid":684901,"name":"Bâcleşti"},{"geonameid":685817,"name":"Băicani-Deal"},{"geonameid":685816,"name":"Băicani-Vale"},{"geonameid":683216,"name":"Burlug"},{"geonameid":682168,"name":"Chetreni"},{"geonameid":682153,"name":"Chicerea"},{"geonameid":681218,"name":"Cociu"},{"geonameid":680792,"name":"Cornățelu"},{"geonameid":678160,"name":"Fântânele"},{"geonameid":677827,"name":"Fundătura"},{"geonameid":676547,"name":"Gura Crăiești"},{"geonameid":673131,"name":"Mirenaşi"},{"geonameid":672760,"name":"Motoşeni"},{"geonameid":670420,"name":"Plopu"},{"geonameid":670143,"name":"Poiana"},{"geonameid":670070,"name":"Poiana lui Stan"},{"geonameid":669733,"name":"Praja"},{"geonameid":668580,"name":"Rotăria"},{"geonameid":667398,"name":"Șendrești"},{"geonameid":667397,"name":"Şendreşti-Răzeşi"},{"geonameid":667396,"name":"Şendreşti-Sat"},{"geonameid":665243,"name":"Țepoaia"},{"geonameid":663921,"name":"Valea Babei"},{"geonameid":663857,"name":"Valea Casei"},{"geonameid":663280,"name":"Văleni"},{"geonameid":663187,"name":"Văratic"}],"admin3":[],"alternateNames":[]},"__N_SSG":true}