{"pageProps":{"locale":"en","admin2":{"geonameid":5029877,"name":"Hennepin County","country":"US","admin1":"MN","admin2":"053","admin3":"","latitude":"45.0045800","longitude":"-93.4768800","localeAltName":null},"admin1":{"geonameid":5037779,"name":"Minnesota","admin1":"MN","localeAltName":"Minnesota"},"locations":[{"geonameid":5018739,"name":"Bloomington","admin3":"06616","localeAltName":null},{"geonameid":5019330,"name":"Brooklyn Center","admin3":"07948","localeAltName":null},{"geonameid":5019335,"name":"Brooklyn Park","admin3":"07966","localeAltName":null},{"geonameid":5020859,"name":"Champlin","admin3":"10846","localeAltName":null},{"geonameid":5022050,"name":"Corcoran","admin3":"13168","localeAltName":null},{"geonameid":5023571,"name":"Crystal","admin3":"14158","localeAltName":null},{"geonameid":5023970,"name":"Dayton","admin3":"15022","localeAltName":null},{"geonameid":5024044,"name":"Deephaven","admin3":"15148","localeAltName":null},{"geonameid":5025219,"name":"Eden Prairie","admin3":"18116","localeAltName":null},{"geonameid":5025264,"name":"Edina","admin3":"18188","localeAltName":null},{"geonameid":5026042,"name":"Excelsior","admin3":"20078","localeAltName":null},{"geonameid":5028163,"name":"Golden Valley","admin3":"24308","localeAltName":null},{"geonameid":5028795,"name":"Greenfield","admin3":"25622","localeAltName":null},{"geonameid":5028838,"name":"Greenwood","admin3":"","localeAltName":null},{"geonameid":5030670,"name":"Hopkins","admin3":"43252","localeAltName":null},{"geonameid":5031190,"name":"Independence","admin3":"30842","localeAltName":null},{"geonameid":5035522,"name":"Long Lake","admin3":"38006","localeAltName":null},{"geonameid":5035747,"name":"Loretto","admin3":"38222","localeAltName":null},{"geonameid":5036493,"name":"Maple Grove","admin3":"40166","localeAltName":null},{"geonameid":5036557,"name":"Maple Plain","admin3":"40256","localeAltName":null},{"geonameid":5037186,"name":"Medina","admin3":"41480","localeAltName":null},{"geonameid":5037649,"name":"Minneapolis","admin3":"43000","localeAltName":null},{"geonameid":5037784,"name":"Minnetonka","admin3":"43252","localeAltName":null},{"geonameid":5037785,"name":"Minnetonka Beach","admin3":"43270","localeAltName":null},{"geonameid":5037790,"name":"Minnetonka Mills","admin3":"43252","localeAltName":null},{"geonameid":5037793,"name":"Minnetrista","admin3":"43306","localeAltName":null},{"geonameid":5038348,"name":"Mound","admin3":"44476","localeAltName":null},{"geonameid":5039094,"name":"New Hope","admin3":"45628","localeAltName":null},{"geonameid":5040332,"name":"Orono","admin3":"48580","localeAltName":null},{"geonameid":5040439,"name":"Osseo","admin3":"49012","localeAltName":null},{"geonameid":5041926,"name":"Plymouth","admin3":"51730","localeAltName":null},{"geonameid":5043193,"name":"Richfield","admin3":"54214","localeAltName":null},{"geonameid":5043439,"name":"Robbinsdale","admin3":"54808","localeAltName":null},{"geonameid":5043608,"name":"Rogers","admin3":"55186","localeAltName":null},{"geonameid":5044290,"name":"Saint Anthony","admin3":"56680","localeAltName":null},{"geonameid":5044347,"name":"Saint Bonifacius","admin3":"56770","localeAltName":null},{"geonameid":5045021,"name":"Saint Louis Park","admin3":"57220","localeAltName":null},{"geonameid":5047236,"name":"Shorewood","admin3":"60016","localeAltName":null},{"geonameid":5048371,"name":"Spring Park","admin3":"62014","localeAltName":null},{"geonameid":5050214,"name":"Tonka Bay","admin3":"65164","localeAltName":null},{"geonameid":5052132,"name":"Wayzata","admin3":"68818","localeAltName":null},{"geonameid":5052361,"name":"West Coon Rapids","admin3":"10846","localeAltName":null}],"admin3":[{"geonameid":5018743,"name":"City of Bloomington","admin3":"06616","localeAltName":null},{"geonameid":5019332,"name":"City of Brooklyn Center","admin3":"07948","localeAltName":null},{"geonameid":5019337,"name":"City of Brooklyn Park","admin3":"07966","localeAltName":null},{"geonameid":5020860,"name":"City of Champlin","admin3":"10846","localeAltName":null},{"geonameid":5022053,"name":"City of Corcoran","admin3":"13168","localeAltName":null},{"geonameid":5023601,"name":"City of Crystal","admin3":"14158","localeAltName":null},{"geonameid":5023973,"name":"City of Dayton","admin3":"15022","localeAltName":null},{"geonameid":5024045,"name":"City of Deephaven","admin3":"15148","localeAltName":null},{"geonameid":5025222,"name":"City of Eden Prairie","admin3":"18116","localeAltName":null},{"geonameid":5025269,"name":"City of Edina","admin3":"18188","localeAltName":null},{"geonameid":5026048,"name":"City of Excelsior","admin3":"20078","localeAltName":null},{"geonameid":5027178,"name":"Unorganized Territory of Fort Snelling","admin3":"21965"},{"geonameid":5028168,"name":"City of Golden Valley","admin3":"24308","localeAltName":null},{"geonameid":5028802,"name":"City of Greenfield","admin3":"25622","localeAltName":null},{"geonameid":5030679,"name":"City of Hopkins","admin3":"30140"},{"geonameid":5031193,"name":"City of Independence","admin3":"30842","localeAltName":null},{"geonameid":5035624,"name":"City of Long Lake","admin3":"38006","localeAltName":null},{"geonameid":5035749,"name":"City of Loretto","admin3":"38222","localeAltName":null},{"geonameid":5036502,"name":"City of Maple Grove","admin3":"40166","localeAltName":null},{"geonameid":5036559,"name":"City of Maple Plain","admin3":"40256","localeAltName":null},{"geonameid":5037183,"name":"City of Medicine Lake","admin3":"41462"},{"geonameid":5037187,"name":"City of Medina","admin3":"41480","localeAltName":null},{"geonameid":5037657,"name":"City of Minneapolis","admin3":"43000","localeAltName":null},{"geonameid":5037786,"name":"City of Minnetonka Beach","admin3":"43270","localeAltName":null},{"geonameid":5037791,"name":"City of Minnetonka","admin3":"43252","localeAltName":null},{"geonameid":5037795,"name":"City of Minnetrista","admin3":"43306","localeAltName":null},{"geonameid":5038366,"name":"City of Mound","admin3":"44476","localeAltName":null},{"geonameid":5039099,"name":"City of New Hope","admin3":"45628","localeAltName":null},{"geonameid":5040338,"name":"City of Orono","admin3":"48580","localeAltName":null},{"geonameid":5040440,"name":"City of Osseo","admin3":"49012","localeAltName":null},{"geonameid":5041930,"name":"City of Plymouth","admin3":"51730","localeAltName":null},{"geonameid":5043197,"name":"City of Richfield","admin3":"54214","localeAltName":null},{"geonameid":5043440,"name":"City of Robbinsdale","admin3":"54808","localeAltName":null},{"geonameid":5043566,"name":"City of Rockford","admin3":"55006"},{"geonameid":5043616,"name":"City of Rogers","admin3":"55186","localeAltName":null},{"geonameid":5044311,"name":"City of Saint Anthony","admin3":"56680","localeAltName":null},{"geonameid":5044348,"name":"City of Saint Bonifacius","admin3":"56770","localeAltName":null},{"geonameid":5045023,"name":"City of Saint Louis Park","admin3":"57220","localeAltName":null},{"geonameid":5047237,"name":"City of Shorewood","admin3":"60016","localeAltName":null},{"geonameid":5048374,"name":"City of Spring Park","admin3":"62014","localeAltName":null},{"geonameid":5050215,"name":"City of Tonka Bay","admin3":"65164","localeAltName":null},{"geonameid":5052140,"name":"City of Wayzata","admin3":"68818","localeAltName":null},{"geonameid":5053398,"name":"City of Woodland","admin3":"71500"}],"alternateNames":[{"alternatenameId":2089541,"geonameid":5037779,"isoLanguage":"en","alternateName":"Minnesota","isPreferredName":true,"isShortName":true,"isColloquial":false,"isHistoric":false}]},"__N_SSG":true}