{"pageProps":{"locale":"it","admin2":{"geonameid":6457397,"name":"Provincia di Biella","country":"IT","admin1":"12","admin2":"BI","admin3":"","latitude":"45.5871300","longitude":"8.0859400","localeAltName":"Biella"},"admin1":{"geonameid":3170831,"name":"Piemonte","admin1":"12","localeAltName":null},"locations":[{"geonameid":3183078,"name":"Andorno Cacciorna","admin3":"096002","localeAltName":null},{"geonameid":3182177,"name":"Benna","admin3":"096003","localeAltName":null},{"geonameid":3182043,"name":"Biella","admin3":"096004","localeAltName":null},{"geonameid":3182022,"name":"Bioglio-Portula-Andrè","admin3":"096005","localeAltName":null},{"geonameid":3181720,"name":"Borriana","admin3":"096006","localeAltName":null},{"geonameid":3181468,"name":"Brusnengo","admin3":"096007","localeAltName":null},{"geonameid":3180871,"name":"Candelo","admin3":"096012","localeAltName":null},{"geonameid":8949753,"name":"Capovilla-Castello","admin3":"096085","localeAltName":null},{"geonameid":3179336,"name":"Cavaglià","admin3":"096016","localeAltName":null},{"geonameid":8948871,"name":"Ceresane-Curanuova","admin3":"096035","localeAltName":null},{"geonameid":6534819,"name":"Cerreto Castello","admin3":"096087","localeAltName":null},{"geonameid":3178489,"name":"Coggiola","admin3":"096019","localeAltName":null},{"geonameid":3177924,"name":"Cossato","admin3":"096020","localeAltName":null},{"geonameid":3177815,"name":"Crevacuore","admin3":"096021","localeAltName":null},{"geonameid":8949539,"name":"Crocemosso","admin3":"096088","localeAltName":null},{"geonameid":3176432,"name":"Gaglianico","admin3":"096026","localeAltName":null},{"geonameid":8950078,"name":"Giardino-Botto","admin3":"096088","localeAltName":null},{"geonameid":3175955,"name":"Graglia","admin3":"096028","localeAltName":null},{"geonameid":3174826,"name":"Lessona","admin3":"096085","localeAltName":null},{"geonameid":8949505,"name":"Livera","admin3":"096042","localeAltName":null},{"geonameid":3173746,"name":"Masserano","admin3":"096032","localeAltName":null},{"geonameid":6534821,"name":"Mezzana Mortigliengo","admin3":"096033","localeAltName":null},{"geonameid":6535680,"name":"Miagliano","admin3":"096034","localeAltName":null},{"geonameid":3173141,"name":"Mongrando","admin3":"096035","localeAltName":null},{"geonameid":6535865,"name":"Mosso","admin3":"096088","localeAltName":null},{"geonameid":3172522,"name":"Mosso Santa Maria","admin3":"096088","localeAltName":null},{"geonameid":3172507,"name":"Mottalciata","admin3":"096037","localeAltName":null},{"geonameid":3172288,"name":"Netro","admin3":"096039","localeAltName":null},{"geonameid":3172131,"name":"Occhieppo Inferiore","admin3":"096040","localeAltName":null},{"geonameid":3172130,"name":"Occhieppo Superiore","admin3":"096041","localeAltName":null},{"geonameid":3171081,"name":"Pettinengo","admin3":"096042","localeAltName":null},{"geonameid":3170370,"name":"Pollone","admin3":"096046","localeAltName":null},{"geonameid":6535682,"name":"Ponderano","admin3":"096047","localeAltName":null},{"geonameid":3170062,"name":"Portula","admin3":"096048","localeAltName":null},{"geonameid":3169950,"name":"Pralungo","admin3":"096049","localeAltName":null},{"geonameid":3169892,"name":"Pray","admin3":"096050","localeAltName":null},{"geonameid":6535683,"name":"Quaregna","admin3":"096087","localeAltName":null},{"geonameid":6535337,"name":"Ronco Biellese","admin3":"096053","localeAltName":null},{"geonameid":6535684,"name":"Roppolo","admin3":"096054","localeAltName":null},{"geonameid":6535338,"name":"Sagliano Micca","admin3":"096056","localeAltName":null},{"geonameid":3168614,"name":"Salussola","admin3":"096058","localeAltName":null},{"geonameid":3168435,"name":"Sandigliano","admin3":"096059","localeAltName":null},{"geonameid":6534823,"name":"Soprana","admin3":"096088","localeAltName":null},{"geonameid":3166368,"name":"Sordevolo","admin3":"096063","localeAltName":null},{"geonameid":6535340,"name":"Sostegno","admin3":"096064","localeAltName":null},{"geonameid":6535341,"name":"Tavigliano","admin3":"096066","localeAltName":null},{"geonameid":3165587,"name":"Tollegno","admin3":"096068","localeAltName":null},{"geonameid":3165152,"name":"Trivero-Prativero-Ponzone","admin3":"096088","localeAltName":null},{"geonameid":6535342,"name":"Valdengo","admin3":"096071","localeAltName":null},{"geonameid":3164842,"name":"Valle Mosso","admin3":"096088","localeAltName":null},{"geonameid":6534825,"name":"Veglio","admin3":"096075","localeAltName":null},{"geonameid":8949105,"name":"Vergnasco","admin3":"096018","localeAltName":null},{"geonameid":3164515,"name":"Verrone","admin3":"096076","localeAltName":null},{"geonameid":8950316,"name":"Vigellio","admin3":"096058","localeAltName":null},{"geonameid":3164368,"name":"Vigliano Biellese","admin3":"096077","localeAltName":null},{"geonameid":6535687,"name":"Viverone","admin3":"096080","localeAltName":null},{"geonameid":6535689,"name":"Zumaglia","admin3":"096083","localeAltName":null}],"admin3":[{"geonameid":3173476,"name":"Miagliano","admin3":"096034","localeAltName":null},{"geonameid":6536408,"name":"Andorno Micca","admin3":"096002","localeAltName":null},{"geonameid":6536409,"name":"Bioglio","admin3":"096005","localeAltName":null},{"geonameid":6536410,"name":"Pettinengo","admin3":"096042","localeAltName":null},{"geonameid":6537985,"name":"Benna","admin3":"096003","localeAltName":null},{"geonameid":6537986,"name":"Campiglia Cervo","admin3":"096086"},{"geonameid":6537987,"name":"Crevacuore","admin3":"096021","localeAltName":null},{"geonameid":6537988,"name":"Massazza","admin3":"096031"},{"geonameid":6537989,"name":"Mottalciata","admin3":"096037","localeAltName":null},{"geonameid":6537990,"name":"Netro","admin3":"096039","localeAltName":null},{"geonameid":6537991,"name":"Occhieppo Inferiore","admin3":"096040","localeAltName":null},{"geonameid":6537993,"name":"Occhieppo Superiore","admin3":"096041","localeAltName":null},{"geonameid":6537994,"name":"Pollone","admin3":"096046","localeAltName":null},{"geonameid":6537996,"name":"Sandigliano","admin3":"096059","localeAltName":null},{"geonameid":6537997,"name":"Valle San Nicolao","admin3":"096074"},{"geonameid":6537998,"name":"Vigliano Biellese","admin3":"096077","localeAltName":null},{"geonameid":6537999,"name":"Zimone","admin3":"096081"},{"geonameid":6539385,"name":"Ailoche","admin3":"096001"},{"geonameid":6539386,"name":"Borriana","admin3":"096006","localeAltName":null},{"geonameid":6539387,"name":"Brusnengo","admin3":"096007","localeAltName":null},{"geonameid":6539388,"name":"Candelo","admin3":"096012","localeAltName":null},{"geonameid":6539389,"name":"Coggiola","admin3":"096019","localeAltName":null},{"geonameid":6539390,"name":"Gaglianico","admin3":"096026","localeAltName":null},{"geonameid":6539391,"name":"Lessona","admin3":"096085","localeAltName":null},{"geonameid":6539392,"name":"Pralungo","admin3":"096049","localeAltName":null},{"geonameid":6539393,"name":"Salussola","admin3":"096058","localeAltName":null},{"geonameid":6539394,"name":"Tollegno","admin3":"096068","localeAltName":null},{"geonameid":6539395,"name":"Torrazzo","admin3":"096069"},{"geonameid":6539397,"name":"Verrone","admin3":"096076","localeAltName":null},{"geonameid":6539582,"name":"Biella","admin3":"096004","localeAltName":null},{"geonameid":6539664,"name":"Strona","admin3":"096065"},{"geonameid":6540080,"name":"Villa del Bosco","admin3":"096078"},{"geonameid":6540300,"name":"Mongrando","admin3":"096035","localeAltName":null},{"geonameid":6540881,"name":"Cavaglià","admin3":"096016","localeAltName":null},{"geonameid":6540882,"name":"Cerrione","admin3":"096018","localeAltName":null},{"geonameid":6540883,"name":"Cossato","admin3":"096020","localeAltName":null},{"geonameid":6540884,"name":"Graglia","admin3":"096028","localeAltName":null},{"geonameid":6540885,"name":"Portula","admin3":"096048","localeAltName":null},{"geonameid":6540886,"name":"Sala Biellese","admin3":"096057"},{"geonameid":6541378,"name":"Camburzano","admin3":"096010"},{"geonameid":6541379,"name":"Piedicavallo","admin3":"096044"},{"geonameid":6541380,"name":"Pray","admin3":"096050","localeAltName":null},{"geonameid":6541381,"name":"Sordevolo","admin3":"096063","localeAltName":null},{"geonameid":6541780,"name":"Masserano","admin3":"096032","localeAltName":null},{"geonameid":6542726,"name":"Caprile","admin3":"096013"},{"geonameid":6542727,"name":"Callabiana","admin3":"096008"},{"geonameid":6542810,"name":"Camandona","admin3":"096009"},{"geonameid":6542812,"name":"Curino","admin3":"096023"},{"geonameid":6542813,"name":"Mezzana Mortigliengo","admin3":"096033","localeAltName":null},{"geonameid":6542816,"name":"Vallanzengo","admin3":"096072"},{"geonameid":6542817,"name":"Veglio","admin3":"096075","localeAltName":null},{"geonameid":6543317,"name":"Donato","admin3":"096024"},{"geonameid":6543318,"name":"Magnano","admin3":"096030"},{"geonameid":6543319,"name":"Piatto","admin3":"096043"},{"geonameid":6543320,"name":"Ronco Biellese","admin3":"096053","localeAltName":null},{"geonameid":6543321,"name":"Sagliano Micca","admin3":"096056","localeAltName":null},{"geonameid":6543323,"name":"Sostegno","admin3":"096064","localeAltName":null},{"geonameid":6543324,"name":"Tavigliano","admin3":"096066","localeAltName":null},{"geonameid":6543325,"name":"Valdengo","admin3":"096071","localeAltName":null},{"geonameid":6543326,"name":"Villanova Biellese","admin3":"096079"},{"geonameid":6543653,"name":"Casapinta","admin3":"096014"},{"geonameid":6543654,"name":"Castelletto Cervo","admin3":"096015"},{"geonameid":6543655,"name":"Dorzano","admin3":"096025"},{"geonameid":6543656,"name":"Gifflenga","admin3":"096027"},{"geonameid":6543657,"name":"Muzzano","admin3":"096038"},{"geonameid":6543658,"name":"Ponderano","admin3":"096047","localeAltName":null},{"geonameid":6543660,"name":"Roppolo","admin3":"096054","localeAltName":null},{"geonameid":6543661,"name":"Rosazza","admin3":"096055"},{"geonameid":6543662,"name":"Ternengo","admin3":"096067"},{"geonameid":6543663,"name":"Viverone","admin3":"096080","localeAltName":null},{"geonameid":6543664,"name":"Zubiena","admin3":"096082"},{"geonameid":6543665,"name":"Zumaglia","admin3":"096083","localeAltName":null},{"geonameid":12032176,"name":"Valdilana","admin3":"096088","localeAltName":null},{"geonameid":12032179,"name":"Quaregna Cerreto","admin3":"096087","localeAltName":null}],"alternateNames":[{"alternatenameId":2431319,"geonameid":6457397,"isoLanguage":"it","alternateName":"Biella","isPreferredName":true,"isShortName":true,"isColloquial":false,"isHistoric":false}]},"__N_SSG":true}