{"pageProps":{"locale":"en","admin2":{"geonameid":4143221,"name":"Kent County","country":"US","admin1":"DE","admin2":"001","admin3":"","latitude":"39.0959500","longitude":"-75.5046100"},"admin1":{"geonameid":4142224,"name":"Delaware","admin1":"DE","localeAltName":"Delaware"},"locations":[{"geonameid":4141748,"name":"Camden","admin3":""},{"geonameid":4141903,"name":"Cheswold","admin3":""},{"geonameid":4141982,"name":"Clayton","admin3":""},{"geonameid":4142290,"name":"Dover","admin3":""},{"geonameid":7258211,"name":"Dover Base Housing","admin3":""},{"geonameid":4142485,"name":"Felton","admin3":""},{"geonameid":4142841,"name":"Harrington","admin3":""},{"geonameid":4142942,"name":"Highland Acres","admin3":""},{"geonameid":4143218,"name":"Kent Acres","admin3":""},{"geonameid":7258553,"name":"Rising Sun-Lebanon","admin3":""},{"geonameid":4144338,"name":"Riverview","admin3":""},{"geonameid":4144366,"name":"Rodney Village","admin3":""},{"geonameid":4144764,"name":"Smyrna","admin3":""},{"geonameid":7259226,"name":"Woodside East","admin3":""},{"geonameid":4145483,"name":"Wyoming","admin3":""}],"admin3":[{"geonameid":7161344,"name":"Town of Farmington","admin3":"7161344"},{"geonameid":7161348,"name":"Town of Felton","admin3":"7161348"},{"geonameid":7161358,"name":"Town of Frederica","admin3":"7161358"},{"geonameid":7161395,"name":"Town of Hartly","admin3":"7161395"},{"geonameid":7161410,"name":"Town of Houston","admin3":"7161410"},{"geonameid":7161424,"name":"City of Dover","admin3":"7161424"},{"geonameid":7161432,"name":"City of Harrington","admin3":"7161432"},{"geonameid":7161529,"name":"Town of Bowers","admin3":"7161529"},{"geonameid":7161552,"name":"Town of Camden","admin3":"7161552"},{"geonameid":7161567,"name":"Town of Cheswold","admin3":"7161567"},{"geonameid":7161580,"name":"Town of Clayton","admin3":"7161580"},{"geonameid":7161984,"name":"Town of Kenton","admin3":"7161984"},{"geonameid":7161996,"name":"Town of Leipsic","admin3":"7161996"},{"geonameid":7161999,"name":"Town of Little Creek","admin3":"7161999"},{"geonameid":7162010,"name":"Town of Magnolia","admin3":"7162010"},{"geonameid":7162130,"name":"Town of Smyrna","admin3":"7162130"},{"geonameid":7162170,"name":"Town of Viola","admin3":"7162170"},{"geonameid":7162195,"name":"Town of Woodside","admin3":"7162195"},{"geonameid":7162198,"name":"Town of Wyoming","admin3":"7162198"}],"alternateNames":[{"alternatenameId":1979725,"geonameid":4142224,"isoLanguage":"en","alternateName":"Delaware","isPreferredName":true,"isShortName":true,"isColloquial":false,"isHistoric":false}]},"__N_SSG":true}