{"pageProps":{"locale":"ro","admin2":{"geonameid":671982,"name":"Comuna Odăile","country":"RO","admin1":"11","admin2":"48021","admin3":"","latitude":"45.3845800","longitude":"26.5396600"},"admin1":{"geonameid":683121,"name":"Buzău","admin1":"11"},"locations":[{"geonameid":686645,"name":"Afumaţi","admin3":""},{"geonameid":682756,"name":"Capu Satului","admin3":""},{"geonameid":680788,"name":"Corneanu","admin3":""},{"geonameid":678767,"name":"Dulceşti","admin3":""},{"geonameid":676899,"name":"Gorâni","admin3":""},{"geonameid":675112,"name":"Lacu","admin3":""},{"geonameid":671983,"name":"Odăile","admin3":""},{"geonameid":671361,"name":"Papuci","admin3":""},{"geonameid":670905,"name":"Piatra Albă","admin3":""},{"geonameid":669798,"name":"Posobești","admin3":""},{"geonameid":667591,"name":"Scoroșești","admin3":""},{"geonameid":663768,"name":"Valea Fântânei","admin3":""},{"geonameid":663446,"name":"Valea Sării","admin3":""},{"geonameid":663384,"name":"Valea Ștefanului","admin3":""},{"geonameid":662779,"name":"Vârfu","admin3":""}],"admin3":[],"alternateNames":[]},"__N_SSG":true}