{"pageProps":{"locale":"en","admin2":{"geonameid":4553440,"name":"Tulsa County","country":"US","admin1":"OK","admin2":"143","admin3":"","latitude":"36.1210800","longitude":"-95.9414800"},"admin1":{"geonameid":4544379,"name":"Oklahoma","admin1":"OK","localeAltName":"Oklahoma"},"locations":[{"geonameid":4530801,"name":"Bixby","admin3":""},{"geonameid":4531405,"name":"Broken Arrow","admin3":""},{"geonameid":4533909,"name":"Collinsville","admin3":""},{"geonameid":4537641,"name":"Glenpool","admin3":""},{"geonameid":4539615,"name":"Jenks","admin3":""},{"geonameid":4544174,"name":"Oakhurst","admin3":""},{"geonameid":4547407,"name":"Owasso","admin3":""},{"geonameid":4550659,"name":"Sand Springs","admin3":""},{"geonameid":4551928,"name":"Sperry","admin3":""},{"geonameid":4553433,"name":"Tulsa","admin3":""},{"geonameid":4553549,"name":"Turley","admin3":""}],"admin3":[],"alternateNames":[{"alternatenameId":2089556,"geonameid":4544379,"isoLanguage":"en","alternateName":"Oklahoma","isPreferredName":true,"isShortName":true,"isColloquial":false,"isHistoric":false}]},"__N_SSG":true}