{"pageProps":{"locale":"it","admin1":{"geonameid":3170831,"name":"Piemonte","country":"IT","admin1":"12","latitude":"45.0000000","longitude":"8.0000000","localeAltName":null},"admin2":[{"geonameid":3183298,"name":"Provincia di Alessandria","admin2":"AL","localeAltName":"Alessandria"},{"geonameid":3182712,"name":"Provincia di Asti","admin2":"AT","localeAltName":"Asti"},{"geonameid":6457397,"name":"Provincia di Biella","admin2":"BI","localeAltName":"Biella"},{"geonameid":3177699,"name":"Provincia di Cuneo","admin2":"CN","localeAltName":"Cuneo"},{"geonameid":3172188,"name":"Provincia di Novara","admin2":"NO","localeAltName":"Novara"},{"geonameid":3164564,"name":"Provincia di Vercelli","admin2":"VC","localeAltName":"Vercelli"},{"geonameid":3164567,"name":"Provincia Verbano-Cusio-Ossola","admin2":"VB","localeAltName":"Verbano-Cusio-Ossola"},{"geonameid":3165523,"name":"Torino","admin2":"TO","localeAltName":"Torino"}],"admin3":[],"country":{"geonameid":3175395,"country":"IT","name":"Italian Republic","localeAltName":"Italia"},"alternateNames":[{"alternatenameId":1347215,"geonameid":3164564,"isoLanguage":"it","alternateName":"Vercelli","isPreferredName":true,"isShortName":true,"isColloquial":false,"isHistoric":false},{"alternatenameId":2431326,"geonameid":3164567,"isoLanguage":"it","alternateName":"Verbano-Cusio-Ossola","isPreferredName":true,"isShortName":true,"isColloquial":false,"isHistoric":false},{"alternatenameId":1347539,"geonameid":3165523,"isoLanguage":"it","alternateName":"Torino","isPreferredName":true,"isShortName":true,"isColloquial":false,"isHistoric":false},{"alternatenameId":2431323,"geonameid":3165523,"isoLanguage":"de","alternateName":"Turin","isPreferredName":true,"isShortName":true,"isColloquial":false,"isHistoric":false},{"alternatenameId":1349554,"geonameid":3172188,"isoLanguage":"it","alternateName":"Novara","isPreferredName":true,"isShortName":true,"isColloquial":false,"isHistoric":false},{"alternatenameId":1563662,"geonameid":3175395,"isoLanguage":"it","alternateName":"Italia","isPreferredName":true,"isShortName":true,"isColloquial":false,"isHistoric":false},{"alternatenameId":1351374,"geonameid":3177699,"isoLanguage":"it","alternateName":"Cuneo","isPreferredName":true,"isShortName":true,"isColloquial":false,"isHistoric":false},{"alternatenameId":1888,"geonameid":3182712,"isoLanguage":"it","alternateName":"Asti","isPreferredName":true,"isShortName":true,"isColloquial":false,"isHistoric":false},{"alternatenameId":1352975,"geonameid":3183298,"isoLanguage":"it","alternateName":"Alessandria","isPreferredName":true,"isShortName":true,"isColloquial":false,"isHistoric":false},{"alternatenameId":2431319,"geonameid":6457397,"isoLanguage":"it","alternateName":"Biella","isPreferredName":true,"isShortName":true,"isColloquial":false,"isHistoric":false}]},"__N_SSG":true}