{"pageProps":{"locale":"ro","admin2":{"geonameid":682472,"name":"Comuna Ceanu Mare","country":"RO","admin1":"13","admin2":"56844","admin3":"","latitude":"46.6532400","longitude":"23.9458600"},"admin1":{"geonameid":681291,"name":"Cluj","admin1":"13"},"locations":[{"geonameid":686361,"name":"Andici"},{"geonameid":684337,"name":"Boian"},{"geonameid":684273,"name":"Bolduț"},{"geonameid":682473,"name":"Ceanu Mare"},{"geonameid":682372,"name":"Cerceleşti"},{"geonameid":681374,"name":"Ciurgău"},{"geonameid":679044,"name":"Dosu Glodului"},{"geonameid":679041,"name":"Dosu Napului"},{"geonameid":678228,"name":"Fânațe"},{"geonameid":678107,"name":"Fâscăraiu"},{"geonameid":677444,"name":"Gherea"},{"geonameid":676119,"name":"Hodăi Boian"},{"geonameid":675942,"name":"Huda"},{"geonameid":675866,"name":"Iacobeni"},{"geonameid":673072,"name":"Mischieni"},{"geonameid":672840,"name":"Morțești"},{"geonameid":672498,"name":"Năsăloaia"},{"geonameid":666096,"name":"Stârcu"},{"geonameid":665922,"name":"Strucut"},{"geonameid":663712,"name":"Valea Lată"},{"geonameid":663703,"name":"Valea lui Cati"},{"geonameid":663358,"name":"Valea Tânoasă"}],"admin3":[],"alternateNames":[]},"__N_SSG":true}