{"pageProps":{"locale":"it","admin2":{"geonameid":2523649,"name":"Ragusa","country":"IT","admin1":"15","admin2":"RG","admin3":"","latitude":"36.9166700","longitude":"14.6000000","localeAltName":"Ragusa"},"admin1":{"geonameid":2523119,"name":"Sicilia","admin1":"15","localeAltName":null},"locations":[{"geonameid":2525796,"name":"Acate","admin3":"088001","localeAltName":null},{"geonameid":8950012,"name":"Borgo Europa","admin3":"088012","localeAltName":null},{"geonameid":8949057,"name":"Campanella-Gianforma","admin3":"088006","localeAltName":null},{"geonameid":7303779,"name":"Caucana-Finaiti-Casuzze-Finaiti N.","admin3":"088010","localeAltName":null},{"geonameid":2525051,"name":"Cava d'Aliga","admin3":"088011","localeAltName":null},{"geonameid":2525010,"name":"Chiaramonte Gulfi","admin3":"088002","localeAltName":null},{"geonameid":2524955,"name":"Comiso","admin3":"088003","localeAltName":null},{"geonameid":2524835,"name":"Donnalucata","admin3":"088011","localeAltName":null},{"geonameid":2524619,"name":"Giarratana","admin3":"088004","localeAltName":null},{"geonameid":2524493,"name":"Ispica","admin3":"088005","localeAltName":null},{"geonameid":6559432,"name":"Marina di Modica","admin3":"088006","localeAltName":null},{"geonameid":2524263,"name":"Marina di Ragusa","admin3":"088009","localeAltName":null},{"geonameid":2524119,"name":"Modica","admin3":"088006","localeAltName":null},{"geonameid":2524064,"name":"Monterosso Almo","admin3":"088007","localeAltName":null},{"geonameid":8948963,"name":"Pedalino","admin3":"088003","localeAltName":null},{"geonameid":2523693,"name":"Pozzallo","admin3":"088008","localeAltName":null},{"geonameid":2523650,"name":"Ragusa","admin3":"088009","localeAltName":null},{"geonameid":8949994,"name":"Roccazzo","admin3":"088002","localeAltName":null},{"geonameid":2523531,"name":"Sampieri","admin3":"088011","localeAltName":null},{"geonameid":2523362,"name":"Santa Croce Camerina","admin3":"088010","localeAltName":null},{"geonameid":8468782,"name":"Santa Maria del Focallo","admin3":"088005","localeAltName":null},{"geonameid":2523192,"name":"Scicli","admin3":"088011","localeAltName":null},{"geonameid":2523184,"name":"Scoglitti","admin3":"088012","localeAltName":null},{"geonameid":8949877,"name":"Villaggio Gulfi","admin3":"088002","localeAltName":null},{"geonameid":2522713,"name":"Vittoria","admin3":"088012","localeAltName":null}],"admin3":[{"geonameid":6537813,"name":"Chiaramonte Gulfi","admin3":"088002","localeAltName":null},{"geonameid":6537814,"name":"Giarratana","admin3":"088004","localeAltName":null},{"geonameid":6537815,"name":"Monterosso Almo","admin3":"088007","localeAltName":null},{"geonameid":6537816,"name":"Scicli","admin3":"088011","localeAltName":null},{"geonameid":6539206,"name":"Ispica","admin3":"088005","localeAltName":null},{"geonameid":6540063,"name":"Vittoria","admin3":"088012","localeAltName":null},{"geonameid":6540853,"name":"Santa Croce Camerina","admin3":"088010","localeAltName":null},{"geonameid":6541771,"name":"Comiso","admin3":"088003","localeAltName":null},{"geonameid":6541972,"name":"Modica","admin3":"088006","localeAltName":null},{"geonameid":6541973,"name":"Pozzallo","admin3":"088008","localeAltName":null},{"geonameid":6541996,"name":"Ragusa","admin3":"088009","localeAltName":null},{"geonameid":6542105,"name":"Acate","admin3":"088001","localeAltName":null}],"alternateNames":[{"alternatenameId":1980456,"geonameid":2523119,"isoLanguage":"en","alternateName":"Sicily","isPreferredName":true,"isShortName":true,"isColloquial":false,"isHistoric":false},{"alternatenameId":1182955,"geonameid":2523649,"isoLanguage":"it","alternateName":"Ragusa","isPreferredName":true,"isShortName":true,"isColloquial":false,"isHistoric":false}]},"__N_SSG":true}