{"pageProps":{"locale":"en","admin2":{"geonameid":2749851,"name":"Gemeente Noordoostpolder","country":"NL","admin1":"16","admin2":"0171","admin3":"","latitude":"52.7170300","longitude":"5.7724800","localeAltName":null},"admin1":{"geonameid":3319179,"name":"Provincie Flevoland","admin1":"16","localeAltName":"Flevoland"},"locations":[{"geonameid":2759434,"name":"Bant","admin3":"","localeAltName":null},{"geonameid":2757886,"name":"Creil","admin3":"","localeAltName":null},{"geonameid":2756139,"name":"Emmeloord","admin3":"","localeAltName":null},{"geonameid":2756072,"name":"Ens","admin3":"","localeAltName":null},{"geonameid":2756019,"name":"Espel","admin3":"","localeAltName":null},{"geonameid":2752320,"name":"Kraggenburg","admin3":"","localeAltName":null},{"geonameid":2751361,"name":"Luttelgeest","admin3":"","localeAltName":null},{"geonameid":2751147,"name":"Marknesse","admin3":"","localeAltName":null},{"geonameid":2750889,"name":"Middelbuurt","admin3":"","localeAltName":null},{"geonameid":2750510,"name":"Nagele","admin3":"","localeAltName":null},{"geonameid":2747796,"name":"Rutten","admin3":"","localeAltName":null},{"geonameid":2746226,"name":"Tollebeek","admin3":"","localeAltName":null}],"admin3":[],"alternateNames":[{"alternatenameId":11907795,"geonameid":3319179,"isoLanguage":"de","alternateName":"Flevoland","isPreferredName":true,"isShortName":true,"isColloquial":false,"isHistoric":false},{"alternatenameId":16755539,"geonameid":3319179,"isoLanguage":"en","alternateName":"Flevoland","isPreferredName":true,"isShortName":true,"isColloquial":false,"isHistoric":false}]},"__N_SSG":true}