{"pageProps":{"locale":"en","admin2":{"geonameid":5947587,"name":"Elgin County","country":"CA","admin1":"08","admin2":"3534","admin3":"","latitude":"42.5000900","longitude":"-81.6664700"},"admin1":{"geonameid":6093943,"name":"Ontario","admin1":"08"},"locations":[{"geonameid":5913625,"name":"Calton","admin3":"3534010"},{"geonameid":5914205,"name":"Campbellton","admin3":"3534030"},{"geonameid":5914849,"name":"Candyville","admin3":"3534010"},{"geonameid":5922203,"name":"Churchville","admin3":"3534042"},{"geonameid":5927508,"name":"Copenhagen","admin3":"3534010"},{"geonameid":5927851,"name":"Corinth","admin3":"3534005"},{"geonameid":5932411,"name":"Crinan","admin3":"3534042"},{"geonameid":5933149,"name":"Crossley Hunter","admin3":"3534010"},{"geonameid":5938908,"name":"Dexter","admin3":"3534020"},{"geonameid":5943857,"name":"Dunboyne","admin3":"3534010"},{"geonameid":5944508,"name":"Duttona Beach","admin3":"3534030"},{"geonameid":5944670,"name":"Eagle","admin3":"3534042"},{"geonameid":5946575,"name":"Eden","admin3":"3534005"},{"geonameid":5949235,"name":"Erie Rest","admin3":"3534020"},{"geonameid":5951032,"name":"Fairview","admin3":"3534010"},{"geonameid":5952363,"name":"Ferndell","admin3":"3534042"},{"geonameid":5952770,"name":"Fingal","admin3":"3534024"},{"geonameid":5958413,"name":"Froggetts Corners","admin3":"3534005"},{"geonameid":5958494,"name":"Frome","admin3":"3534024"},{"geonameid":5961883,"name":"Glencolin","admin3":"3534010"},{"geonameid":5967141,"name":"Grimmonds Beach","admin3":"3534020"},{"geonameid":5967545,"name":"Grovesend","admin3":"3534010"},{"geonameid":5983613,"name":"Invererie Heights","admin3":"3534020"},{"geonameid":5983668,"name":"Iona","admin3":"3534030"},{"geonameid":5983674,"name":"Iona Station","admin3":"3534030"},{"geonameid":5985475,"name":"Jaffa","admin3":"3534010"},{"geonameid":5992469,"name":"Kingsmill","admin3":"3534020"},{"geonameid":5992685,"name":"Kintyre","admin3":"3534042"},{"geonameid":6048773,"name":"Lakeview","admin3":"3534010"},{"geonameid":6049970,"name":"Largie","admin3":"3534030"},{"geonameid":6050873,"name":"Lawrence Station","admin3":"3534024"},{"geonameid":6050935,"name":"Lawton's Corners","admin3":"3534020"},{"geonameid":6054753,"name":"Little Aylmer","admin3":"3534010"},{"geonameid":6062173,"name":"Luton","admin3":"3534010"},{"geonameid":6062324,"name":"Lynhurst","admin3":"3534020"},{"geonameid":6062424,"name":"Lyons","admin3":"3534010"},{"geonameid":6064694,"name":"Malahide","admin3":"3534010"},{"geonameid":6065697,"name":"Mapleton","admin3":"3534020"},{"geonameid":6073118,"name":"Middlemarch","admin3":"3534024"},{"geonameid":6073586,"name":"Mile Corner","admin3":"3534010"},{"geonameid":6075594,"name":"Mitchell Heights","admin3":"3534020"},{"geonameid":6082573,"name":"Mount Salem","admin3":"3534010"},{"geonameid":6083089,"name":"Mount Vernon","admin3":"3534010"},{"geonameid":6087582,"name":"New Glasgow","admin3":"3534042"},{"geonameid":6087764,"name":"New Sarum","admin3":"3534020"},{"geonameid":6090080,"name":"North Hall","admin3":"3534005"},{"geonameid":6090803,"name":"North Ward","admin3":"3534020"},{"geonameid":6094218,"name":"Orchard Beach","admin3":"3534020"},{"geonameid":6094380,"name":"Ormond Beach","admin3":"3534010"},{"geonameid":6099998,"name":"Paynes Mills","admin3":"3534024"},{"geonameid":6111687,"name":"Port Burwell","admin3":"3534005"},{"geonameid":6111854,"name":"Port Glasgow","admin3":"3534042"},{"geonameid":6112027,"name":"Port Stanley","admin3":"3534020"},{"geonameid":6112031,"name":"Port Talbot","admin3":"3534030"},{"geonameid":6127029,"name":"Rodney","admin3":"3534042"},{"geonameid":6144581,"name":"Seville","admin3":"3534010"},{"geonameid":6145660,"name":"Shedden","admin3":"3534024"},{"geonameid":6153005,"name":"Southwold","admin3":"3534024"},{"geonameid":6153246,"name":"Sparta","admin3":"3534020"},{"geonameid":6154184,"name":"Springfield","admin3":"3534010"},{"geonameid":6159238,"name":"Summers Corners","admin3":"3534010"},{"geonameid":6161305,"name":"Talbotville Royal","admin3":"3534024"},{"geonameid":6171548,"name":"Tyrconnell","admin3":"3534030"},{"geonameid":8604484,"name":"Vienna","admin3":"3534005"},{"geonameid":6175828,"name":"Waneeta Beach","admin3":"3534010"},{"geonameid":6179147,"name":"West Lorne","admin3":"3534042"},{"geonameid":6180999,"name":"Whites","admin3":"3534020"},{"geonameid":6185225,"name":"Yarmouth Centre","admin3":"3534020"}],"admin3":[{"geonameid":5895330,"name":"Bayham","admin3":"3534005"},{"geonameid":5919096,"name":"Central Elgin","admin3":"3534020"},{"geonameid":5944510,"name":"Dutton/Dunwich","admin3":"3534030"},{"geonameid":6064695,"name":"Malahide","admin3":"3534010"},{"geonameid":6153007,"name":"Southwold","admin3":"3534024"},{"geonameid":6178573,"name":"West Elgin","admin3":"3534042"}],"alternateNames":[]},"__N_SSG":true}