{"pageProps":{"locale":"en","admin2":{"geonameid":5991054,"name":"Kenora District","country":"CA","admin1":"08","admin2":"3560","admin3":"","latitude":"54.0001500","longitude":"-87.9999200"},"admin1":{"geonameid":6093943,"name":"Ontario","admin1":"08"},"locations":[{"geonameid":5913515,"name":"Caliper Lake","admin3":"3560008"},{"geonameid":5919134,"name":"Central Patricia","admin3":"3560049"},{"geonameid":5944872,"name":"Eagle River","admin3":"3560021"},{"geonameid":5944935,"name":"Ear Falls","admin3":"3560032"},{"geonameid":12070763,"name":"Golden","admin3":""},{"geonameid":5962725,"name":"Goldpines","admin3":"3560032"},{"geonameid":5979367,"name":"Ignace","admin3":"3560001"},{"geonameid":11748799,"name":"Keewaywin","admin3":""},{"geonameid":5991055,"name":"Kenora","admin3":""},{"geonameid":6074440,"name":"Minaki","admin3":""},{"geonameid":6074931,"name":"Minnitaki","admin3":"3560021"},{"geonameid":6104154,"name":"Pickle Crow","admin3":"3560049"},{"geonameid":6104159,"name":"Pickle Lake","admin3":"3560049"},{"geonameid":6118417,"name":"Red Lake","admin3":""},{"geonameid":6148373,"name":"Sioux Lookout","admin3":""},{"geonameid":6148378,"name":"Sioux Narrows","admin3":"3560008"},{"geonameid":11152652,"name":"Summer Beaver","admin3":""},{"geonameid":6173803,"name":"Vermilion Bay","admin3":"3560021"},{"geonameid":6177295,"name":"Weagamow Lake","admin3":""},{"geonameid":11152653,"name":"Webequie","admin3":""}],"admin3":[{"geonameid":5944934,"name":"Ear Falls","admin3":"3560032"},{"geonameid":5979369,"name":"Ignace","admin3":"3560001"},{"geonameid":6063003,"name":"Machin","admin3":"3560021"},{"geonameid":6104162,"name":"Pickle Lake","admin3":"3560049"},{"geonameid":6148379,"name":"Sioux Narrows-Nestor Falls","admin3":"3560008"}],"alternateNames":[]},"__N_SSG":true}