{"pageProps":{"locale":"en","admin2":{"geonameid":6065217,"name":"Manitoulin District","country":"CA","admin1":"08","admin2":"3551","admin3":"","latitude":"45.7500700","longitude":"-82.4998500"},"admin1":{"geonameid":6093943,"name":"Ontario","admin1":"08"},"locations":[{"geonameid":5894660,"name":"Bass Creek","admin3":"3551011"},{"geonameid":5899446,"name":"Bidwell","admin3":"3551011"},{"geonameid":5900411,"name":"Big Lake","admin3":"3551006"},{"geonameid":5901113,"name":"Billings","admin3":"3551021"},{"geonameid":5906860,"name":"Bowser's Corner","admin3":"3551021"},{"geonameid":5909020,"name":"Britainville","admin3":"3551006"},{"geonameid":5912137,"name":"Burpee","admin3":"3551028"},{"geonameid":5924223,"name":"Clover Valley","admin3":"3551011"},{"geonameid":5942919,"name":"Dryden's Corner","admin3":"3551006"},{"geonameid":5944899,"name":"Eagles Nest","admin3":"3551011"},{"geonameid":5947636,"name":"Elizabeth Bay","admin3":"3551028"},{"geonameid":5950506,"name":"Evansville","admin3":"3551028"},{"geonameid":5960879,"name":"Gibraltar","admin3":"3551006"},{"geonameid":5963553,"name":"Gore Bay","admin3":""},{"geonameid":5967160,"name":"Grimsthorpe","admin3":"3551006"},{"geonameid":5975390,"name":"Hilly Grove","admin3":"3551011"},{"geonameid":5988608,"name":"Kagawong","admin3":"3551021"},{"geonameid":6058762,"name":"Long Bay","admin3":"3551006"},{"geonameid":6065256,"name":"Manitowaning","admin3":"3551011"},{"geonameid":6072660,"name":"Michael's Bay","admin3":"3551001"},{"geonameid":6074485,"name":"Mindemoya","admin3":"3551006"},{"geonameid":6077498,"name":"Monument Corner","admin3":"3551006"},{"geonameid":6093370,"name":"Old Spring Bay","admin3":"3551006"},{"geonameid":6101340,"name":"Perivale","admin3":"3551006"},{"geonameid":6106359,"name":"Pleasant Valley","admin3":"3551021"},{"geonameid":6110929,"name":"Poplar","admin3":"3551028"},{"geonameid":8593835,"name":"Providence Bay","admin3":"3551006"},{"geonameid":6142404,"name":"Scotch Block","admin3":"3551034"},{"geonameid":6150874,"name":"Snowville","admin3":"3551001"},{"geonameid":6154856,"name":"Squirrel Town","admin3":"3551011"},{"geonameid":6162545,"name":"Tehkummah","admin3":"3551001"},{"geonameid":6164789,"name":"The Slash","admin3":"3551011"},{"geonameid":6173497,"name":"Vanzant's Landing","admin3":"3551011"},{"geonameid":6181652,"name":"Wikwemikong","admin3":""}],"admin3":[{"geonameid":5887787,"name":"Assiginack","admin3":"3551011"},{"geonameid":5901115,"name":"Billings","admin3":"3551021"},{"geonameid":5912139,"name":"Burpee and Mills","admin3":"3551028"},{"geonameid":5919126,"name":"Central Manitoulin","admin3":"3551006"},{"geonameid":5924683,"name":"Cockburn Island","admin3":"3551034"},{"geonameid":6162546,"name":"Tehkummah","admin3":"3551001"}],"alternateNames":[]},"__N_SSG":true}