{"pageProps":{"locale":"en","admin2":{"geonameid":6087883,"name":"Regional Municipality of Niagara","country":"CA","admin1":"08","admin2":"3526","admin3":"","latitude":"43.0001200","longitude":"-79.2495800"},"admin1":{"geonameid":6093943,"name":"Ontario","admin1":"08"},"locations":[{"geonameid":5881918,"name":"Abingdon","admin3":"3526021"},{"geonameid":5883951,"name":"Allen's Corners","admin3":"3526021"},{"geonameid":5884733,"name":"Ancaster","admin3":""},{"geonameid":5888124,"name":"Attercliffe","admin3":"3526021"},{"geonameid":5894599,"name":"Basingstoke","admin3":"3526021"},{"geonameid":5897254,"name":"Becketts Bridge","admin3":"3526014"},{"geonameid":5897880,"name":"Belleview Beach","admin3":"3526014"},{"geonameid":5902016,"name":"Bismarck","admin3":"3526021"},{"geonameid":5907018,"name":"Boyle","admin3":"3526021"},{"geonameid":5907990,"name":"Brantford","admin3":""},{"geonameid":5911604,"name":"Burnaby","admin3":"3526014"},{"geonameid":5913301,"name":"Caistor Centre","admin3":"3526021"},{"geonameid":5913302,"name":"Caistorville","admin3":"3526021"},{"geonameid":5913739,"name":"Camelot Beach","admin3":"3526014"},{"geonameid":5919537,"name":"Chambers Corners","admin3":"3526014"},{"geonameid":5921556,"name":"Chippawa","admin3":""},{"geonameid":5937522,"name":"Delhi","admin3":""},{"geonameid":5943977,"name":"Dundas","admin3":""},{"geonameid":5944222,"name":"Dunnville","admin3":""},{"geonameid":5947421,"name":"Elcho","admin3":"3526021"},{"geonameid":5955691,"name":"Forks Road","admin3":"3526014"},{"geonameid":5955815,"name":"Fort Erie","admin3":""},{"geonameid":5958724,"name":"Fulton","admin3":"3526021"},{"geonameid":5965100,"name":"Grassie","admin3":"3526021"},{"geonameid":5967149,"name":"Grimsby","admin3":""},{"geonameid":5967152,"name":"Grimsby Centre","admin3":"3526021"},{"geonameid":5992073,"name":"Kimbo","admin3":"3526021"},{"geonameid":6054260,"name":"Lincoln","admin3":""},{"geonameid":6058815,"name":"Long Beach","admin3":"3526014"},{"geonameid":6075359,"name":"Mississauga Beach","admin3":""},{"geonameid":6078574,"name":"Morgans Point","admin3":"3526014"},{"geonameid":6087905,"name":"Niagara-on-the-Lake","admin3":""},{"geonameid":6094282,"name":"O'Reilly's Bridge","admin3":"3526014"},{"geonameid":6094725,"name":"Ostryhon Corners","admin3":"3526014"},{"geonameid":6100629,"name":"Pelham","admin3":""},{"geonameid":6100630,"name":"Pelham","admin3":""},{"geonameid":6101450,"name":"Perry","admin3":"3526014"},{"geonameid":6127599,"name":"Rosedene","admin3":"3526021"},{"geonameid":6147730,"name":"Silverdale","admin3":"3526021"},{"geonameid":6150220,"name":"Smithville","admin3":"3526021"},{"geonameid":6155286,"name":"St. Anns","admin3":"3526021"},{"geonameid":6155721,"name":"St. Catharines","admin3":""},{"geonameid":8593819,"name":"Stevensville","admin3":""},{"geonameid":6173576,"name":"Vaughan","admin3":"3526021"},{"geonameid":6174406,"name":"Vineland","admin3":""},{"geonameid":7302448,"name":"Wainfleet","admin3":"3526014"},{"geonameid":6176249,"name":"Warner","admin3":"3526021"},{"geonameid":6181682,"name":"Wilcox Corners","admin3":"3526021"},{"geonameid":6183263,"name":"Winslow","admin3":"3526021"}],"admin3":[{"geonameid":6175053,"name":"Wainfleet","admin3":"3526014"},{"geonameid":6179126,"name":"West Lincoln","admin3":"3526021"}],"alternateNames":[]},"__N_SSG":true}