{"pageProps":{"locale":"en","admin2":{"geonameid":6177913,"name":"Wellington County","country":"CA","admin1":"08","admin2":"3523","admin3":"","latitude":"43.8334000","longitude":"-80.4996900"},"admin1":{"geonameid":6093943,"name":"Ontario","admin1":"08"},"locations":[{"geonameid":5881888,"name":"Aberfoyle","admin3":"3523001"},{"geonameid":5882752,"name":"Aikensville","admin3":"3523001"},{"geonameid":5884086,"name":"Alma","admin3":"3523033"},{"geonameid":5886912,"name":"Ariss","admin3":"3523009"},{"geonameid":5886919,"name":"Arkell","admin3":"3523001"},{"geonameid":5887093,"name":"Armstrong Mills","admin3":"3523009"},{"geonameid":5887355,"name":"Arthur","admin3":"3523050"},{"geonameid":5889173,"name":"Badenoch","admin3":"3523001"},{"geonameid":5898213,"name":"Belwood","admin3":"3523025"},{"geonameid":5901839,"name":"Birge Mills","admin3":"3523009"},{"geonameid":5904488,"name":"Blue Springs","admin3":"3523009"},{"geonameid":5906099,"name":"Bosworth","admin3":"3523033"},{"geonameid":5910090,"name":"Brucedale","admin3":"3523009"},{"geonameid":5919184,"name":"Centre Inn","admin3":"3523009"},{"geonameid":5923064,"name":"Clare","admin3":"3523050"},{"geonameid":5928206,"name":"Corwhin","admin3":"3523001"},{"geonameid":5932119,"name":"Creek Bank","admin3":"3523025"},{"geonameid":5932403,"name":"Crieff","admin3":"3523001"},{"geonameid":5933958,"name":"Cumnock","admin3":"3523025"},{"geonameid":5934777,"name":"Damascus","admin3":"3523050"},{"geonameid":5938112,"name":"Derrynane","admin3":"3523050"},{"geonameid":5942324,"name":"Downeys","admin3":"3523001"},{"geonameid":5942441,"name":"Dracon","admin3":"3523025"},{"geonameid":5942545,"name":"Drayton","admin3":"3523033"},{"geonameid":5946604,"name":"Eden Mills","admin3":"3523009"},{"geonameid":5947046,"name":"Egerton","admin3":"3523050"},{"geonameid":5948111,"name":"Elora","admin3":"3523025"},{"geonameid":5948983,"name":"Ennotville","admin3":"3523025"},{"geonameid":5949151,"name":"Eramosa","admin3":"3523009"},{"geonameid":5951528,"name":"Farewell","admin3":"3523050"},{"geonameid":7871320,"name":"Fergus","admin3":"3523025"},{"geonameid":5962768,"name":"Goldstone","admin3":"3523033"},{"geonameid":5963546,"name":"Gordonville","admin3":"3523050"},{"geonameid":5966458,"name":"Green Park","admin3":"3523050"},{"geonameid":5967629,"name":"Guelph","admin3":""},{"geonameid":5971448,"name":"Harriston","admin3":""},{"geonameid":5983616,"name":"Inverhaugh","admin3":"3523025"},{"geonameid":5991949,"name":"Killean","admin3":"3523001"},{"geonameid":5994420,"name":"Kumpfville","admin3":"3523033"},{"geonameid":6051220,"name":"Lebanon","admin3":"3523033"},{"geonameid":6056341,"name":"Little Lake","admin3":"3523001"},{"geonameid":6057868,"name":"Living Springs","admin3":"3523025"},{"geonameid":6063849,"name":"Macton","admin3":"3523033"},{"geonameid":6066059,"name":"Marden","admin3":"3523009"},{"geonameid":6072548,"name":"Metz","admin3":"3523050"},{"geonameid":6076197,"name":"Monck","admin3":"3523050"},{"geonameid":6080782,"name":"Mount Forest","admin3":"3523050"},{"geonameid":6083102,"name":"Mount View","admin3":"3523050"},{"geonameid":6093570,"name":"Olivet","admin3":"3523050"},{"geonameid":6095303,"name":"Oustic","admin3":"3523025"},{"geonameid":6098415,"name":"Parker","admin3":"3523033"},{"geonameid":6101883,"name":"Petherton","admin3":"3523050"},{"geonameid":6109282,"name":"Ponsonby","admin3":"3523025"},{"geonameid":6114428,"name":"Puslinch","admin3":"3523001"},{"geonameid":6114898,"name":"Quarindale","admin3":"3523033"},{"geonameid":6122597,"name":"Riverbank","admin3":"3523033"},{"geonameid":6122743,"name":"Riverstown","admin3":"3523050"},{"geonameid":6126540,"name":"Rockwood","admin3":"3523009"},{"geonameid":6145119,"name":"Shands","admin3":"3523025"},{"geonameid":6146395,"name":"Shiloh","admin3":"3523025"},{"geonameid":6147523,"name":"Signet","admin3":"3523050"},{"geonameid":6148113,"name":"Simpson Corners","admin3":"3523025"},{"geonameid":6153423,"name":"Speedside","admin3":"3523009"},{"geonameid":6153653,"name":"Spier","admin3":"3523025"},{"geonameid":6154382,"name":"Spruce Green","admin3":"3523033"},{"geonameid":6156844,"name":"Stirton","admin3":"3523033"},{"geonameid":6157591,"name":"Stonywood","admin3":"3523050"},{"geonameid":6163171,"name":"Teviotdale","admin3":"3523033"},{"geonameid":6168384,"name":"Tralee","admin3":"3523033"},{"geonameid":6168648,"name":"Trecastle","admin3":"3523033"},{"geonameid":6175004,"name":"Wagram","admin3":"3523050"},{"geonameid":6175508,"name":"Wallenstein","admin3":"3523033"},{"geonameid":6183115,"name":"Winfield","admin3":"3523033"},{"geonameid":6184928,"name":"Wyandot","admin3":"3523033"},{"geonameid":6185263,"name":"Yatton","admin3":"3523033"}],"admin3":[{"geonameid":5919274,"name":"Centre Wellington","admin3":"3523025"},{"geonameid":5967631,"name":"Guelph/Eramosa","admin3":"3523009"},{"geonameid":6065698,"name":"Mapleton","admin3":"3523033"},{"geonameid":6114430,"name":"Puslinch","admin3":"3523001"},{"geonameid":6177929,"name":"Wellington North","admin3":"3523050"}],"alternateNames":[]},"__N_SSG":true}