{"pageProps":{"locale":"en","admin2":{"geonameid":5574999,"name":"Boulder County","country":"US","admin1":"CO","admin2":"013","admin3":"","latitude":"40.0924600","longitude":"-105.3577000"},"admin1":{"geonameid":5417618,"name":"Colorado","admin1":"CO","localeAltName":"Colorado"},"locations":[{"geonameid":5574991,"name":"Boulder","admin3":""},{"geonameid":5417342,"name":"Coal Creek","admin3":""},{"geonameid":5576859,"name":"Erie","admin3":""},{"geonameid":7261393,"name":"Gunbarrel","admin3":""},{"geonameid":5427771,"name":"Lafayette","admin3":""},{"geonameid":5579276,"name":"Longmont","admin3":""},{"geonameid":5429522,"name":"Louisville","admin3":""},{"geonameid":5579453,"name":"Lyons","admin3":""},{"geonameid":5432410,"name":"Nederland","admin3":""},{"geonameid":5580305,"name":"Niwot","admin3":""},{"geonameid":5440838,"name":"Superior","admin3":""}],"admin3":[{"geonameid":11788536,"name":"City of Boulder","admin3":"11788536"},{"geonameid":11788815,"name":"City of Lafayette","admin3":"11788815"},{"geonameid":11789033,"name":"City of Louisville","admin3":"11789033"}],"alternateNames":[{"alternatenameId":2089564,"geonameid":5417618,"isoLanguage":"en","alternateName":"Colorado","isPreferredName":true,"isShortName":true,"isColloquial":false,"isHistoric":false}]},"__N_SSG":true}