{"pageProps":{"locale":"en","admin2":{"geonameid":2757936,"name":"Gemeente Coevorden","country":"NL","admin1":"01","admin2":"0109","admin3":"","latitude":"52.7434400","longitude":"6.7248700"},"admin1":{"geonameid":2756631,"name":"Provincie Drenthe","admin1":"01"},"locations":[{"geonameid":2760142,"name":"Aalden","admin3":""},{"geonameid":2760010,"name":"Achterste Erm","admin3":""},{"geonameid":2759467,"name":"Ballast","admin3":""},{"geonameid":2759193,"name":"Benneveld","admin3":""},{"geonameid":2757937,"name":"Coevorden","admin3":""},{"geonameid":2757857,"name":"Dalen","admin3":""},{"geonameid":2757853,"name":"Dalerpeel","admin3":""},{"geonameid":2757852,"name":"Dalerveen","admin3":""},{"geonameid":2757796,"name":"De Bente","admin3":""},{"geonameid":2757593,"name":"De Haar","admin3":""},{"geonameid":2757533,"name":"De Hoek","admin3":""},{"geonameid":2757451,"name":"De Kiel","admin3":""},{"geonameid":2757325,"name":"De Loo","admin3":""},{"geonameid":6544762,"name":"De Mars","admin3":""},{"geonameid":2757216,"name":"Den Hool","admin3":""},{"geonameid":2756789,"name":"Diphoorn","admin3":""},{"geonameid":2756222,"name":"Eldijk","admin3":""},{"geonameid":2756040,"name":"Erm","admin3":""},{"geonameid":2755664,"name":"Gees","admin3":""},{"geonameid":2755662,"name":"Geesbrug","admin3":""},{"geonameid":2755659,"name":"Geeserveld","admin3":""},{"geonameid":2755338,"name":"Grevenberg","admin3":""},{"geonameid":2753881,"name":"Holsloot","admin3":""},{"geonameid":2753764,"name":"Hoogehaar","admin3":""},{"geonameid":2752868,"name":"Kibbelveen","admin3":""},{"geonameid":2752632,"name":"Klooster","admin3":""},{"geonameid":2751922,"name":"Langerak","admin3":""},{"geonameid":2750944,"name":"Meppen","admin3":""},{"geonameid":2750111,"name":"Nieuw-Zwinderen","admin3":""},{"geonameid":2750302,"name":"Nieuwe Krim","admin3":""},{"geonameid":11746819,"name":"Nieuwlande Coevorden","admin3":""},{"geonameid":2749830,"name":"Noord-Sleen","admin3":""},{"geonameid":2749461,"name":"Oosterhesselen","admin3":""},{"geonameid":2748771,"name":"Padhuis","admin3":""},{"geonameid":2748584,"name":"Pikveld","admin3":""},{"geonameid":2748492,"name":"Poppenhaar","admin3":""},{"geonameid":2747563,"name":"Schimmelarij","admin3":""},{"geonameid":2747501,"name":"Schoonoord","admin3":""},{"geonameid":2747182,"name":"Sleen","admin3":""},{"geonameid":2746759,"name":"Steenwijksmoer","admin3":""},{"geonameid":2746707,"name":"Stieltjeskanaal","admin3":""},{"geonameid":2746373,"name":"t Haantje","admin3":""},{"geonameid":2745847,"name":"Valsteeg","admin3":""},{"geonameid":2745767,"name":"Veenhuizen","admin3":""},{"geonameid":2745423,"name":"Vlieghuis","admin3":""},{"geonameid":2745238,"name":"Vossebelt","admin3":""},{"geonameid":2745100,"name":"Wachtum","admin3":""},{"geonameid":2744888,"name":"Weijerswold","admin3":""},{"geonameid":2744577,"name":"Wezup","admin3":""},{"geonameid":2744576,"name":"Wezuperbrug","admin3":""},{"geonameid":2743510,"name":"Zweeloo","admin3":""},{"geonameid":2743482,"name":"Zwinderen","admin3":""}],"admin3":[],"alternateNames":[{"alternatenameId":11907792,"geonameid":2756631,"isoLanguage":"de","alternateName":"Drenthe","isPreferredName":true,"isShortName":true,"isColloquial":false,"isHistoric":false}]},"__N_SSG":true}