{"pageProps":{"locale":"en","admin2":{"geonameid":11353069,"name":"Antrim and Newtownabbey","country":"GB","admin1":"NIR","admin2":"N09000001","admin3":"","latitude":"54.7017700","longitude":"-6.1977000"},"admin1":{"geonameid":2641364,"name":"Northern Ireland","admin1":"NIR"},"locations":[{"geonameid":6693623,"name":"Aldergrove"},{"geonameid":2657255,"name":"Antrim"},{"geonameid":2656528,"name":"Ballyclare"},{"geonameid":2656518,"name":"Ballyeaston"},{"geonameid":2656474,"name":"Ballynure"},{"geonameid":2653752,"name":"Carmavy"},{"geonameid":2653710,"name":"Carnmoney"},{"geonameid":2653351,"name":"Chapeltown"},{"geonameid":2651804,"name":"Crumlin"},{"geonameid":2651198,"name":"Doagh"},{"geonameid":2650786,"name":"Dunadry"},{"geonameid":6697378,"name":"Glengormley"},{"geonameid":2646326,"name":"Hyde Park"},{"geonameid":2645943,"name":"Jordanstown"},{"geonameid":2645648,"name":"Killead"},{"geonameid":2643206,"name":"Magheralane"},{"geonameid":2642490,"name":"Milltown"},{"geonameid":2642491,"name":"Milltown"},{"geonameid":8531878,"name":"Mossley"},{"geonameid":2642051,"name":"Muckamore"},{"geonameid":2641520,"name":"Newtownabbey"},{"geonameid":2641140,"name":"Nutts Corner"},{"geonameid":2640609,"name":"Parkgate"},{"geonameid":2639653,"name":"Randalstown"},{"geonameid":2638380,"name":"Scolboa"},{"geonameid":2637138,"name":"Staffordstown"},{"geonameid":2636732,"name":"Straid"},{"geonameid":2636113,"name":"Templepatrick"},{"geonameid":2635507,"name":"The Trench"},{"geonameid":2635687,"name":"Toome"},{"geonameid":2634121,"name":"Whiteabbey"},{"geonameid":2634086,"name":"Whitehouse"}],"admin3":[],"alternateNames":[]},"__N_SSG":true}