{"pageProps":{"locale":"en","admin2":{"geonameid":4279904,"name":"Stafford County","country":"US","admin1":"KS","admin2":"185","admin3":"","latitude":"38.0310000","longitude":"-98.7174400","localeAltName":null},"admin1":{"geonameid":4273857,"name":"Kansas","admin1":"KS","localeAltName":"Kansas"},"locations":[{"geonameid":4274948,"name":"Macksville","admin3":"23250","localeAltName":null},{"geonameid":4278621,"name":"Saint John","admin3":"62300","localeAltName":null},{"geonameid":4279901,"name":"Stafford","admin3":"67800","localeAltName":null}],"admin3":[{"geonameid":4267431,"name":"Township of Albano","admin3":"00800"},{"geonameid":4268921,"name":"Township of Byron","admin3":"09825"},{"geonameid":4269681,"name":"Township of Clear Creek","admin3":"13825"},{"geonameid":4269715,"name":"Township of Cleveland","admin3":"14125"},{"geonameid":4270459,"name":"Township of Douglas","admin3":"18375"},{"geonameid":4270689,"name":"Township of East Cooper","admin3":"19350"},{"geonameid":4271357,"name":"Township of Fairview","admin3":"22675"},{"geonameid":4271432,"name":"Township of Farmington","admin3":"23250","localeAltName":null},{"geonameid":4272779,"name":"Township of Hayes","admin3":"31025"},{"geonameid":4274515,"name":"Township of Lincoln","admin3":"41225"},{"geonameid":4276401,"name":"Township of North Seward","admin3":"51375"},{"geonameid":4276604,"name":"Township of Ohio","admin3":"52475"},{"geonameid":4277810,"name":"Township of Putnam","admin3":"58050"},{"geonameid":4278033,"name":"Township of Richland","admin3":"59650"},{"geonameid":4278365,"name":"Township of Rose Valley","admin3":"61300"},{"geonameid":4278638,"name":"Township of St. John","admin3":"62300","localeAltName":null},{"geonameid":4279671,"name":"Township of South Seward","admin3":"66975"},{"geonameid":4279907,"name":"Township of Stafford","admin3":"67800","localeAltName":null},{"geonameid":4280852,"name":"Township of Union","admin3":"72450"},{"geonameid":4281490,"name":"Township of West Cooper","admin3":"76875"},{"geonameid":4282083,"name":"Township of York","admin3":"80800"}],"alternateNames":[{"alternatenameId":2080124,"geonameid":4273857,"isoLanguage":"en","alternateName":"Kansas","isPreferredName":true,"isShortName":true,"isColloquial":false,"isHistoric":false}]},"__N_SSG":true}