{"pageProps":{"locale":"en","admin2":{"geonameid":5411363,"name":"Adams County","country":"US","admin1":"CO","admin2":"001","admin3":"","latitude":"39.8736300","longitude":"-104.3379100","localeAltName":null},"admin1":{"geonameid":5417618,"name":"Colorado","admin1":"CO","localeAltName":"Colorado"},"locations":[{"geonameid":5412347,"name":"Aurora","admin3":"","localeAltName":null},{"geonameid":5413465,"name":"Bennett","admin3":"","localeAltName":null},{"geonameid":5413519,"name":"Berkley","admin3":"","localeAltName":null},{"geonameid":5414941,"name":"Brighton","admin3":"","localeAltName":null},{"geonameid":5417737,"name":"Commerce City","admin3":"","localeAltName":null},{"geonameid":5419431,"name":"Derby","admin3":"","localeAltName":null},{"geonameid":5421709,"name":"Federal Heights","admin3":"","localeAltName":null},{"geonameid":5429208,"name":"Lone Tree","admin3":"","localeAltName":null},{"geonameid":5433124,"name":"Northglenn","admin3":"","localeAltName":null},{"geonameid":8479308,"name":"Shaw Heights","admin3":"","localeAltName":null},{"geonameid":5438567,"name":"Sherrelwood","admin3":"","localeAltName":null},{"geonameid":5440516,"name":"Strasburg","admin3":"","localeAltName":null},{"geonameid":5441492,"name":"Thornton","admin3":"","localeAltName":null},{"geonameid":5441653,"name":"Todd Creek","admin3":"","localeAltName":null},{"geonameid":5442271,"name":"Twin Lakes","admin3":"","localeAltName":null},{"geonameid":5443482,"name":"Welby","admin3":"","localeAltName":null},{"geonameid":5443910,"name":"Westminster","admin3":"","localeAltName":null}],"admin3":[{"geonameid":7173068,"name":"City of Brighton","admin3":"7173068"},{"geonameid":7173222,"name":"City of Commerce City","admin3":"7173222"},{"geonameid":7173421,"name":"City of Federal Heights","admin3":"7173421"},{"geonameid":7173986,"name":"City of Northglenn","admin3":"7173986"},{"geonameid":7174565,"name":"City of Thornton","admin3":"7174565"}],"alternateNames":[{"alternatenameId":2089564,"geonameid":5417618,"isoLanguage":"en","alternateName":"Colorado","isPreferredName":true,"isShortName":true,"isColloquial":false,"isHistoric":false}]},"__N_SSG":true}