{"pageProps":{"locale":"en","admin2":{"geonameid":5412056,"name":"Arapahoe County","country":"US","admin1":"CO","admin2":"005","admin3":"","latitude":"39.6497700","longitude":"-104.3392400","localeAltName":null},"admin1":{"geonameid":5417618,"name":"Colorado","admin1":"CO","localeAltName":"Colorado"},"locations":[{"geonameid":7315213,"name":"Aetna Estates","admin3":"","localeAltName":null},{"geonameid":5414701,"name":"Bow Mar","admin3":"","localeAltName":null},{"geonameid":5415685,"name":"Byers","admin3":"","localeAltName":null},{"geonameid":5416357,"name":"Castlewood","admin3":"","localeAltName":null},{"geonameid":5416541,"name":"Centennial","admin3":"","localeAltName":null},{"geonameid":8480048,"name":"Cherry Creek","admin3":"","localeAltName":null},{"geonameid":5416824,"name":"Cherry Hills Village","admin3":"","localeAltName":null},{"geonameid":5417702,"name":"Columbine Valley","admin3":"","localeAltName":null},{"geonameid":5419289,"name":"Deer Trail","admin3":"","localeAltName":null},{"geonameid":7729501,"name":"Dove Valley","admin3":"","localeAltName":null},{"geonameid":5421250,"name":"Englewood","admin3":"","localeAltName":null},{"geonameid":5422280,"name":"Foxfield","admin3":"","localeAltName":null},{"geonameid":5423075,"name":"Glendale","admin3":"","localeAltName":null},{"geonameid":5423908,"name":"Greenwood Village","admin3":"","localeAltName":null},{"geonameid":8480049,"name":"Holly Hills","admin3":"","localeAltName":null},{"geonameid":8480050,"name":"Inverness","admin3":"","localeAltName":null},{"geonameid":5429032,"name":"Littleton","admin3":"","localeAltName":null},{"geonameid":5438542,"name":"Sheridan","admin3":"","localeAltName":null},{"geonameid":5439752,"name":"Southglenn","admin3":"","localeAltName":null}],"admin3":[{"geonameid":7172964,"name":"City of Aurora","admin3":"7172964"},{"geonameid":7173496,"name":"City of Glendale","admin3":"7173496"},{"geonameid":11788303,"name":"City of Cherry Hills Village","admin3":"11788303"},{"geonameid":11788621,"name":"City of Englewood","admin3":"11788621"},{"geonameid":11788781,"name":"City of Littleton","admin3":"11788781"}],"alternateNames":[{"alternatenameId":2089564,"geonameid":5417618,"isoLanguage":"en","alternateName":"Colorado","isPreferredName":true,"isShortName":true,"isColloquial":false,"isHistoric":false}]},"__N_SSG":true}