{"pageProps":{"locale":"en","admin2":{"geonameid":5420332,"name":"Eagle County","country":"US","admin1":"CO","admin2":"037","admin3":"","latitude":"39.6278300","longitude":"-106.6953000","localeAltName":null},"admin1":{"geonameid":5417618,"name":"Colorado","admin1":"CO","localeAltName":"Colorado"},"locations":[{"geonameid":5412396,"name":"Avon","admin3":"","localeAltName":null},{"geonameid":5412822,"name":"Basalt","admin3":"","localeAltName":null},{"geonameid":5419881,"name":"Dotsero","admin3":"","localeAltName":null},{"geonameid":5420328,"name":"Eagle","admin3":"","localeAltName":null},{"geonameid":5420885,"name":"Edwards","admin3":"","localeAltName":null},{"geonameid":5420923,"name":"El Jebel","admin3":"","localeAltName":null},{"geonameid":5424152,"name":"Gypsum","admin3":"","localeAltName":null},{"geonameid":5431423,"name":"Minturn","admin3":"","localeAltName":null},{"geonameid":5442727,"name":"Vail","admin3":"","localeAltName":null}],"admin3":[],"alternateNames":[{"alternatenameId":2089564,"geonameid":5417618,"isoLanguage":"en","alternateName":"Colorado","isPreferredName":true,"isShortName":true,"isColloquial":false,"isHistoric":false}]},"__N_SSG":true}