{"pageProps":{"locale":"en","admin2":{"geonameid":5420926,"name":"El Paso County","country":"US","admin1":"CO","admin2":"041","admin3":"","latitude":"38.8320900","longitude":"-104.5255800","localeAltName":null},"admin1":{"geonameid":5417618,"name":"Colorado","admin1":"CO","localeAltName":"Colorado"},"locations":[{"geonameid":7260752,"name":"Air Force Academy","admin3":"","localeAltName":null},{"geonameid":5414069,"name":"Black Forest","admin3":"","localeAltName":null},{"geonameid":5415826,"name":"Calhan","admin3":"","localeAltName":null},{"geonameid":7261032,"name":"Cascade-Chipita Park","admin3":"","localeAltName":null},{"geonameid":5417041,"name":"Cimarron Hills","admin3":"","localeAltName":null},{"geonameid":5417598,"name":"Colorado Springs","admin3":"","localeAltName":null},{"geonameid":5421126,"name":"Ellicott","admin3":"","localeAltName":null},{"geonameid":5422140,"name":"Fort Carson","admin3":"","localeAltName":null},{"geonameid":5422191,"name":"Fountain","admin3":"","localeAltName":null},{"geonameid":5423078,"name":"Gleneagle","admin3":"","localeAltName":null},{"geonameid":5430023,"name":"Manitou Springs","admin3":"","localeAltName":null},{"geonameid":5431740,"name":"Monument","admin3":"","localeAltName":null},{"geonameid":5433828,"name":"Palmer Lake","admin3":"","localeAltName":null},{"geonameid":7262349,"name":"Security-Widefield","admin3":"","localeAltName":null},{"geonameid":5440520,"name":"Stratmoor","admin3":"","localeAltName":null},{"geonameid":5444707,"name":"Woodmoor","admin3":"","localeAltName":null}],"admin3":[{"geonameid":11788739,"name":"City of Colorado Springs","admin3":"11788739"}],"alternateNames":[{"alternatenameId":2089564,"geonameid":5417618,"isoLanguage":"en","alternateName":"Colorado","isPreferredName":true,"isShortName":true,"isColloquial":false,"isHistoric":false}]},"__N_SSG":true}