{"pageProps":{"locale":"en","admin2":{"geonameid":5422448,"name":"Fremont County","country":"US","admin1":"CO","admin2":"043","admin3":"","latitude":"38.4729700","longitude":"-105.4396600","localeAltName":null},"admin1":{"geonameid":5417618,"name":"Colorado","admin1":"CO","localeAltName":"Colorado"},"locations":[{"geonameid":5416005,"name":"Cañon City","admin3":"","localeAltName":null},{"geonameid":5422018,"name":"Florence","admin3":"","localeAltName":null},{"geonameid":5425680,"name":"Howard","admin3":"","localeAltName":null},{"geonameid":5428534,"name":"Lincoln Park","admin3":"","localeAltName":null},{"geonameid":5434318,"name":"Penrose","admin3":"","localeAltName":null},{"geonameid":5444324,"name":"Williamsburg","admin3":"","localeAltName":null}],"admin3":[{"geonameid":11788385,"name":"City of Cañon City","admin3":"11788385"},{"geonameid":11788839,"name":"City of Florence","admin3":"11788839"}],"alternateNames":[{"alternatenameId":2089564,"geonameid":5417618,"isoLanguage":"en","alternateName":"Colorado","isPreferredName":true,"isShortName":true,"isColloquial":false,"isHistoric":false}]},"__N_SSG":true}