{"pageProps":{"locale":"en","admin2":{"geonameid":5022154,"name":"Cottonwood County","country":"US","admin1":"MN","admin2":"033","admin3":"","latitude":"44.0071100","longitude":"-95.1811500","localeAltName":null},"admin1":{"geonameid":5037779,"name":"Minnesota","admin1":"MN","localeAltName":"Minnesota"},"locations":[{"geonameid":5038438,"name":"Mountain Lake","admin3":"44566","localeAltName":null},{"geonameid":5052524,"name":"Westbrook","admin3":"69250","localeAltName":null},{"geonameid":5053084,"name":"Windom","admin3":"70798","localeAltName":null}],"admin3":[{"geonameid":5016254,"name":"Township of Amboy","admin3":"01342"},{"geonameid":5016309,"name":"Township of Amo","admin3":"01441"},{"geonameid":5016423,"name":"Township of Ann","admin3":"01666"},{"geonameid":5018432,"name":"City of Bingham Lake","admin3":"05896"},{"geonameid":5020486,"name":"Township of Carson","admin3":"10108"},{"geonameid":5023781,"name":"Township of Dale","admin3":"14608"},{"geonameid":5024189,"name":"Township of Delton","admin3":"15652"},{"geonameid":5027885,"name":"Township of Germantown","admin3":"23570"},{"geonameid":5028707,"name":"Township of Great Bend","admin3":"25514"},{"geonameid":5030106,"name":"Township of Highwater","admin3":"29060"},{"geonameid":5031826,"name":"City of Jeffers","admin3":"31796"},{"geonameid":5034016,"name":"Township of Lakeside","admin3":"35000"},{"geonameid":5037439,"name":"Township of Midway","admin3":"42002"},{"geonameid":5038451,"name":"City of Mountain Lake","admin3":"44566","localeAltName":null},{"geonameid":5038452,"name":"Township of Mountain Lake","admin3":"44584"},{"geonameid":5043730,"name":"Township of Rose Hill","admin3":"55672"},{"geonameid":5046882,"name":"Township of Selma","admin3":"59224"},{"geonameid":5048079,"name":"Township of Southbrook","admin3":"61294"},{"geonameid":5048407,"name":"Township of Springfield","admin3":"61834"},{"geonameid":5048946,"name":"City of Storden","admin3":"63022"},{"geonameid":5048947,"name":"Township of Storden","admin3":"63040"},{"geonameid":5052533,"name":"City of Westbrook","admin3":"69250","localeAltName":null},{"geonameid":5052534,"name":"Township of Westbrook","admin3":"69268"},{"geonameid":5053100,"name":"City of Windom","admin3":"70798","localeAltName":null}],"alternateNames":[{"alternatenameId":2089541,"geonameid":5037779,"isoLanguage":"en","alternateName":"Minnesota","isPreferredName":true,"isShortName":true,"isColloquial":false,"isHistoric":false}]},"__N_SSG":true}