{"pageProps":{"locale":"en","admin2":{"geonameid":5031493,"name":"Isanti County","country":"US","admin1":"MN","admin2":"059","admin3":"","latitude":"45.5614900","longitude":"-93.2951800","localeAltName":null},"admin1":{"geonameid":5037779,"name":"Minnesota","admin1":"MN","localeAltName":"Minnesota"},"locations":[{"geonameid":5019105,"name":"Braham","admin3":"07282","localeAltName":null},{"geonameid":5020068,"name":"Cambridge","admin3":"09370","localeAltName":null},{"geonameid":5031489,"name":"Isanti","admin3":"31328","localeAltName":null}],"admin3":[{"geonameid":5016799,"name":"Township of Athens","admin3":"02602"},{"geonameid":5019094,"name":"Township of Bradford","admin3":"07246"},{"geonameid":5019114,"name":"City of Braham","admin3":"07282","localeAltName":null},{"geonameid":5020086,"name":"City of Cambridge","admin3":"09370","localeAltName":null},{"geonameid":5020087,"name":"Township of Cambridge","admin3":"09388"},{"geonameid":5023768,"name":"Township of Dalbo","admin3":"14572"},{"geonameid":5031505,"name":"City of Isanti","admin3":"31328","localeAltName":null},{"geonameid":5031506,"name":"Township of Isanti","admin3":"31346"},{"geonameid":5036563,"name":"Township of Maple Ridge","admin3":"40292"},{"geonameid":5039456,"name":"Township of North Branch","admin3":"46816"},{"geonameid":5040687,"name":"Township of Oxford","admin3":"49354"},{"geonameid":5048151,"name":"Township of Spencer Brook","admin3":"61672"},{"geonameid":5048414,"name":"Township of Springvale","admin3":"62086"},{"geonameid":5048533,"name":"Township of Stanchfield","admin3":"62347"},{"geonameid":5048537,"name":"Township of Stanford","admin3":"62374"},{"geonameid":5053504,"name":"Township of Wyanett","admin3":"71896"}],"alternateNames":[{"alternatenameId":2089541,"geonameid":5037779,"isoLanguage":"en","alternateName":"Minnesota","isPreferredName":true,"isShortName":true,"isColloquial":false,"isHistoric":false}]},"__N_SSG":true}