{"pageProps":{"locale":"en","admin2":{"geonameid":5036734,"name":"Marshall County","country":"US","admin1":"MN","admin2":"089","admin3":"","latitude":"48.3581300","longitude":"-96.3684700","localeAltName":null},"admin1":{"geonameid":5037779,"name":"Minnesota","admin1":"MN","localeAltName":"Minnesota"},"locations":[{"geonameid":5016573,"name":"Argyle","admin3":"02134","localeAltName":null},{"geonameid":5048735,"name":"Stephen","admin3":"62698","localeAltName":null},{"geonameid":5051875,"name":"Warren","admin3":"68170","localeAltName":null}],"admin3":[{"geonameid":5015944,"name":"Township of Agder","admin3":"00388"},{"geonameid":5016191,"name":"Township of Alma","admin3":"01072"},{"geonameid":5016234,"name":"City of Alvarado","admin3":"01252"},{"geonameid":5016574,"name":"City of Argyle","admin3":"02134","localeAltName":null},{"geonameid":5016838,"name":"Township of Augsburg","admin3":"02764"},{"geonameid":5018403,"name":"Township of Big Woods","admin3":"05842"},{"geonameid":5018719,"name":"Township of Bloomer","admin3":"06535"},{"geonameid":5019055,"name":"Township of Boxville","admin3":"07120"},{"geonameid":5020705,"name":"Township of Cedar","admin3":"10360"},{"geonameid":5021886,"name":"Township of Como","admin3":"12808"},{"geonameid":5021896,"name":"Township of Comstock","admin3":"12880"},{"geonameid":5024503,"name":"Township of Donnelly","admin3":"16066"},{"geonameid":5024899,"name":"Township of Eagle Point","admin3":"17414"},{"geonameid":5025049,"name":"Township of East Park","admin3":"17756"},{"geonameid":5025097,"name":"Township of East Valley","admin3":"17864"},{"geonameid":5025200,"name":"Township of Eckvoll","admin3":"17972"},{"geonameid":5025866,"name":"Township of Espelie","admin3":"19736"},{"geonameid":5026041,"name":"Township of Excel","admin3":"20060"},{"geonameid":5027020,"name":"Township of Foldahl","admin3":"21500"},{"geonameid":5027147,"name":"Township of Fork","admin3":"21878"},{"geonameid":5028524,"name":"Township of Grand Plain","admin3":"25046"},{"geonameid":5028987,"name":"City of Grygla","admin3":"26216"},{"geonameid":5030480,"name":"City of Holt","admin3":"29870"},{"geonameid":5030482,"name":"Township of Holt","admin3":"29888"},{"geonameid":5030951,"name":"Township of Huntly","admin3":"30572"},{"geonameid":5034706,"name":"Township of Lincoln","admin3":"37142"},{"geonameid":5034769,"name":"Township of Linsell","admin3":"37340"},{"geonameid":5036715,"name":"Township of Marsh Grove","admin3":"40778"},{"geonameid":5037005,"name":"Township of McCrea","admin3":"38942"},{"geonameid":5037411,"name":"City of Middle River","admin3":"41912"},{"geonameid":5037412,"name":"Township of Middle River","admin3":"41930"},{"geonameid":5038185,"name":"Township of Moose River","admin3":"44026"},{"geonameid":5038466,"name":"Township of Moylan","admin3":"44692"},{"geonameid":5038697,"name":"Unorganized Territory of Mud Lake","admin3":"44718"},{"geonameid":5038999,"name":"Township of Nelson Park","admin3":"45142"},{"geonameid":5039085,"name":"Township of New Folden","admin3":"45538"},{"geonameid":5039121,"name":"Township of New Maine","admin3":"45718"},{"geonameid":5039162,"name":"Township of New Solum","admin3":"45970"},{"geonameid":5039203,"name":"City of Newfolden","admin3":"45520"},{"geonameid":5039954,"name":"Township of Oak Park","admin3":"47878"},{"geonameid":5040433,"name":"City of Oslo","admin3":"48976"},{"geonameid":5040842,"name":"Township of Parker","admin3":"49696"},{"geonameid":5043661,"name":"Township of Rollis","admin3":"55330"},{"geonameid":5047427,"name":"Township of Sinnott","admin3":"60520"},{"geonameid":5048455,"name":"Township of Spruce Valley","admin3":"62266"},{"geonameid":5048738,"name":"City of Stephen","admin3":"62698","localeAltName":null},{"geonameid":5048981,"name":"City of Strandquist","admin3":"63112"},{"geonameid":5049653,"name":"Township of Tamarac","admin3":"64138"},{"geonameid":5049926,"name":"Township of Thief Lake","admin3":"64552"},{"geonameid":5051228,"name":"Township of Valley","admin3":"66514"},{"geonameid":5051281,"name":"Township of Vega","admin3":"66676"},{"geonameid":5051283,"name":"Township of Veldt","admin3":"66694"},{"geonameid":5051420,"name":"City of Viking","admin3":"67090"},{"geonameid":5051421,"name":"Township of Viking","admin3":"67108"},{"geonameid":5051831,"name":"Township of Wanger","admin3":"68044"},{"geonameid":5051889,"name":"City of Warren","admin3":"68170","localeAltName":null},{"geonameid":5051892,"name":"Township of Warrenton","admin3":"68206"},{"geonameid":5052511,"name":"Township of West Valley","admin3":"69772"},{"geonameid":5052743,"name":"Township of Whiteford","admin3":"70096"},{"geonameid":5053493,"name":"Township of Wright","admin3":"71842"}],"alternateNames":[{"alternatenameId":2089541,"geonameid":5037779,"isoLanguage":"en","alternateName":"Minnesota","isPreferredName":true,"isShortName":true,"isColloquial":false,"isHistoric":false}]},"__N_SSG":true}