{"pageProps":{"locale":"en","admin2":{"geonameid":2746412,"name":"Gemeente Terschelling","country":"NL","admin1":"02","admin2":"0093","admin3":"","latitude":"53.4000000","longitude":"5.3500000"},"admin1":{"geonameid":2755812,"name":"Provincie Friesland","admin1":"02"},"locations":[{"geonameid":2759583,"name":"Baaiduinen","admin3":""},{"geonameid":2755863,"name":"Formerum","admin3":""},{"geonameid":2754714,"name":"Hee","admin3":""},{"geonameid":2753636,"name":"Hoorn","admin3":""},{"geonameid":2753159,"name":"Kaard","admin3":""},{"geonameid":2752824,"name":"Kinnum","admin3":""},{"geonameid":2751989,"name":"Landerum","admin3":""},{"geonameid":2751631,"name":"Lies","admin3":""},{"geonameid":2750835,"name":"Midsland","admin3":""},{"geonameid":2750834,"name":"Midsland aan Zee","admin3":""},{"geonameid":2750833,"name":"Midsland Noord","admin3":""},{"geonameid":2749473,"name":"Oosterend","admin3":""},{"geonameid":2747407,"name":"Seerijp","admin3":""},{"geonameid":2744809,"name":"West aan Zee","admin3":""},{"geonameid":2744608,"name":"West-Terschelling","admin3":""}],"admin3":[],"alternateNames":[{"alternatenameId":5463435,"geonameid":2755812,"isoLanguage":"de","alternateName":"Friesland","isPreferredName":true,"isShortName":true,"isColloquial":false,"isHistoric":false}]},"__N_SSG":true}