{"pageProps":{"locale":"en","admin1":{"geonameid":2641364,"name":"Northern Ireland","country":"GB","admin1":"NIR","latitude":"54.5000000","longitude":"-6.5000000","localeAltName":null},"admin2":[{"geonameid":11353069,"name":"Antrim and Newtownabbey","admin2":"N09000001","localeAltName":null},{"geonameid":11353074,"name":"Ards and North Down","admin2":"N09000011","localeAltName":null},{"geonameid":11353076,"name":"Armagh City Banbridge and Craigavon","admin2":"N09000002","localeAltName":null},{"geonameid":11353070,"name":"Causeway Coast and Glens","admin2":"N09000004","localeAltName":null},{"geonameid":3333223,"name":"City of Belfast","admin2":"N09000003","localeAltName":"Belfast"},{"geonameid":11353073,"name":"Derry City and Strabane","admin2":"N09000005","localeAltName":null},{"geonameid":11353071,"name":"Fermanagh and Omagh","admin2":"N09000006","localeAltName":null},{"geonameid":11353072,"name":"Lisburn and Castlereagh","admin2":"N09000007","localeAltName":null},{"geonameid":11353078,"name":"Mid and East Antrim","admin2":"N09000008","localeAltName":null},{"geonameid":11353068,"name":"Mid Ulster","admin2":"N09000009","localeAltName":null},{"geonameid":11353077,"name":"Newry Mourne and Down","admin2":"N09000010","localeAltName":null}],"admin3":[],"country":{"geonameid":2635167,"country":"GB","name":"United Kingdom of Great Britain and Northern Ireland","localeAltName":"United Kingdom"},"alternateNames":[{"alternatenameId":1555690,"geonameid":2635167,"isoLanguage":"en","alternateName":"United Kingdom","isPreferredName":true,"isShortName":true,"isColloquial":false,"isHistoric":false},{"alternatenameId":8666542,"geonameid":3333223,"isoLanguage":"en","alternateName":"Belfast","isPreferredName":true,"isShortName":true,"isColloquial":false,"isHistoric":false}]},"__N_SSG":true}