{"pageProps":{"locale":"en","admin2":{"geonameid":5523630,"name":"Hutchinson County","country":"US","admin1":"TX","admin2":"233","admin3":"","latitude":"35.8400300","longitude":"-101.3547000","localeAltName":null},"admin1":{"geonameid":4736286,"name":"Texas","admin1":"TX","localeAltName":"Texas"},"locations":[{"geonameid":5517469,"name":"Borger","admin3":"","localeAltName":null},{"geonameid":5521912,"name":"Fritch","admin3":"","localeAltName":null},{"geonameid":5531793,"name":"Stinnett","admin3":"","localeAltName":null}],"admin3":[{"geonameid":7173045,"name":"City of Borger","admin3":"7173045"},{"geonameid":7173460,"name":"City of Fritch","admin3":"7173460"},{"geonameid":7174505,"name":"City of Stinnett","admin3":"7174505"},{"geonameid":7175658,"name":"Town of Sanford","admin3":"7175658"}],"alternateNames":[{"alternatenameId":1614423,"geonameid":4736286,"isoLanguage":"en","alternateName":"Texas","isPreferredName":true,"isShortName":true,"isColloquial":false,"isHistoric":false}]},"__N_SSG":true}