{"pageProps":{"locale":"en","admin2":{"geonameid":4740399,"name":"Webb County","country":"US","admin1":"TX","admin2":"479","admin3":"","latitude":"27.7610600","longitude":"-99.3315700","localeAltName":null},"admin1":{"geonameid":4736286,"name":"Texas","admin1":"TX","localeAltName":"Texas"},"locations":[{"geonameid":4677979,"name":"Cactus","admin3":"","localeAltName":null},{"geonameid":4688520,"name":"El Cenizo","admin3":"","localeAltName":null},{"geonameid":4705349,"name":"Laredo","admin3":"","localeAltName":null},{"geonameid":4705343,"name":"Larga Vista","admin3":"","localeAltName":null},{"geonameid":8478943,"name":"Pueblo Nuevo","admin3":"","localeAltName":null},{"geonameid":4720918,"name":"Pueblo Nuevo Colonia","admin3":"","localeAltName":null},{"geonameid":4721462,"name":"Ranchos Penitas West","admin3":"","localeAltName":null},{"geonameid":4721463,"name":"Ranchos Penitas West Colonia","admin3":"","localeAltName":null},{"geonameid":4722831,"name":"Rio Bravo","admin3":"","localeAltName":null}],"admin3":[{"geonameid":7173362,"name":"City of El Cenizo","admin3":"7173362"},{"geonameid":7173754,"name":"City of Rio Bravo","admin3":"7173754"},{"geonameid":7174239,"name":"City of Laredo","admin3":"7174239"}],"alternateNames":[{"alternatenameId":1614423,"geonameid":4736286,"isoLanguage":"en","alternateName":"Texas","isPreferredName":true,"isShortName":true,"isColloquial":false,"isHistoric":false}]},"__N_SSG":true}