{"pageProps":{"locale":"en","admin2":{"geonameid":5931136,"name":"Cowichan Valley Regional District","country":"CA","admin1":"02","admin2":"5919","admin3":"","latitude":"48.8329200","longitude":"-124.2194100"},"admin1":{"geonameid":5909050,"name":"British Columbia","admin1":"02"},"locations":[{"geonameid":5892435,"name":"Bamberton","admin3":""},{"geonameid":5920668,"name":"Chemainus","admin3":"5919008"},{"geonameid":12076679,"name":"Cherry Point","admin3":""},{"geonameid":5924102,"name":"Clo-oose","admin3":""},{"geonameid":5932743,"name":"Crofton","admin3":"5919008"},{"geonameid":5943865,"name":"Duncan","admin3":"5919008"},{"geonameid":5960289,"name":"Genoa Bay","admin3":"5919008"},{"geonameid":6047817,"name":"Ladysmith","admin3":"5919021"},{"geonameid":6048316,"name":"Lake Cowichan","admin3":"5919016"},{"geonameid":6065568,"name":"Maple Bay","admin3":"5919008"},{"geonameid":6089661,"name":"North Cowichan","admin3":"5919008"},{"geonameid":12076640,"name":"North Oyster/Yellow Point","admin3":""},{"geonameid":8593675,"name":"Shawnigan Lake","admin3":""},{"geonameid":6151188,"name":"Somenos","admin3":"5919008"},{"geonameid":6171609,"name":"Tzouhalem","admin3":"5919008"},{"geonameid":6179002,"name":"Westholme","admin3":"5919008"},{"geonameid":6181365,"name":"Whyac","admin3":""}],"admin3":[{"geonameid":12031880,"name":"North Cowichan","admin3":"5919008"},{"geonameid":12031953,"name":"Duncan","admin3":"5919012"},{"geonameid":12031964,"name":"Ladysmith","admin3":"5919021"},{"geonameid":12031965,"name":"Lake Cowichan","admin3":"5919016"}],"alternateNames":[]},"__N_SSG":true}