{"pageProps":{"locale":"en","admin2":{"geonameid":5957659,"name":"Fraser Valley Regional District","country":"CA","admin1":"02","admin2":"5909","admin3":"","latitude":"49.5829900","longitude":"-121.8358700"},"admin1":{"geonameid":5909050,"name":"British Columbia","admin1":"02"},"locations":[{"geonameid":5881791,"name":"Abbotsford","admin3":"5909052"},{"geonameid":5881869,"name":"Aberdeen","admin3":"5909052"},{"geonameid":5882534,"name":"Agassiz","admin3":"5909032"},{"geonameid":12070754,"name":"Aldergrove East","admin3":"5909052"},{"geonameid":5887160,"name":"Arnold","admin3":"5909052"},{"geonameid":5887906,"name":"Atchelitz","admin3":"5909020"},{"geonameid":5894305,"name":"Barrowtown","admin3":"5909052"},{"geonameid":5907237,"name":"Bradner","admin3":"5909052"},{"geonameid":5921356,"name":"Chilliwack","admin3":"5909020"},{"geonameid":5923436,"name":"Clayburn","admin3":"5909052"},{"geonameid":5923538,"name":"Clearbrook","admin3":"5909052"},{"geonameid":5950943,"name":"Fairfield","admin3":"5909020"},{"geonameid":5954823,"name":"Floods","admin3":"5909009"},{"geonameid":5961009,"name":"Gifford","admin3":"5909052"},{"geonameid":5966050,"name":"Greendale","admin3":"5909020"},{"geonameid":5971372,"name":"Harrison Hot Springs","admin3":"5909027"},{"geonameid":5972018,"name":"Hatzic","admin3":"5909056"},{"geonameid":12076674,"name":"Hatzic Island","admin3":""},{"geonameid":5976783,"name":"Hope","admin3":"5909009"},{"geonameid":7669011,"name":"Huntingdon","admin3":"5909052"},{"geonameid":5978686,"name":"Huntingdon","admin3":""},{"geonameid":5991854,"name":"Kilgard","admin3":"5909052"},{"geonameid":6067942,"name":"Matsqui","admin3":"5909052"},{"geonameid":6067943,"name":"Matsqui","admin3":"5909052"},{"geonameid":6075024,"name":"Minto Landing","admin3":"5909020"},{"geonameid":6075292,"name":"Mission","admin3":"5909056"},{"geonameid":6081543,"name":"Mount Lehman","admin3":"5909052"},{"geonameid":6090458,"name":"North Poplar","admin3":"5909052"},{"geonameid":7669009,"name":"Promonotory","admin3":"5909020"},{"geonameid":6113656,"name":"Promontory","admin3":"5909020"},{"geonameid":6122202,"name":"Ridgedale","admin3":"5909052"},{"geonameid":6127587,"name":"Rosedale","admin3":"5909020"},{"geonameid":6136887,"name":"Ryder Lake","admin3":"5909020"},{"geonameid":6141159,"name":"Sardis","admin3":"5909020"},{"geonameid":6147716,"name":"Silver Creek","admin3":"5909009"},{"geonameid":6147760,"name":"Silverhill","admin3":"5909056"},{"geonameid":12076672,"name":"Skowkale 10","admin3":""},{"geonameid":6152513,"name":"South Poplar","admin3":"5909052"},{"geonameid":6152669,"name":"South Sumas","admin3":"5909020"},{"geonameid":6155670,"name":"Stave Falls","admin3":"5909056"},{"geonameid":6155948,"name":"Steelhead","admin3":"5909056"},{"geonameid":6157920,"name":"Straiton","admin3":"5909052"},{"geonameid":6173614,"name":"Vedder Crossing","admin3":"5909020"},{"geonameid":6178995,"name":"West Heights","admin3":"5909056"},{"geonameid":6185230,"name":"Yarrow","admin3":"5909020"},{"geonameid":7669010,"name":"Yarrow","admin3":"5909020"}],"admin3":[{"geonameid":5991097,"name":"Kent","admin3":"5909032"},{"geonameid":12031861,"name":"Abbotsford","admin3":"5909052"},{"geonameid":12031862,"name":"Chilliwack","admin3":"5909020"},{"geonameid":12031948,"name":"Harrison Hot Springs","admin3":"5909027"},{"geonameid":12031949,"name":"Hope","admin3":"5909009"},{"geonameid":12031951,"name":"Mission","admin3":"5909056"}],"alternateNames":[]},"__N_SSG":true}