{"pageProps":{"locale":"en","admin2":{"geonameid":5965814,"name":"Metro Vancouver Regional District","country":"CA","admin1":"02","admin2":"5915","admin3":"","latitude":"49.3329600","longitude":"-123.0026400","localeAltName":null},"admin1":{"geonameid":5909050,"name":"British Columbia","admin1":"02","localeAltName":null},"locations":[{"geonameid":5883194,"name":"Albion","admin3":"5915075","localeAltName":null},{"geonameid":7669018,"name":"Aldergrove","admin3":"5915001","localeAltName":null},{"geonameid":5884235,"name":"Altamont","admin3":"5915055","localeAltName":null},{"geonameid":5885383,"name":"Anmore","admin3":"5915038","localeAltName":null},{"geonameid":5885464,"name":"Anniedale","admin3":"5915004","localeAltName":null},{"geonameid":5888414,"name":"Austin Heights","admin3":"5915034","localeAltName":null},{"geonameid":5893209,"name":"Barnet","admin3":"5915043","localeAltName":null},{"geonameid":5895519,"name":"Beach Grove","admin3":"5915011","localeAltName":null},{"geonameid":5897652,"name":"Belcarra","admin3":"5915036","localeAltName":null},{"geonameid":5901582,"name":"Birchland Manor","admin3":"5915039","localeAltName":null},{"geonameid":5904444,"name":"Blueridge","admin3":"5915046","localeAltName":null},{"geonameid":5906452,"name":"Boundary Bay","admin3":"5915011","localeAltName":null},{"geonameid":5906683,"name":"Bowen Bay","admin3":"5915062","localeAltName":null},{"geonameid":5906690,"name":"Bowen Island","admin3":"5915062","localeAltName":null},{"geonameid":5908474,"name":"Brentwood Park","admin3":"5915025","localeAltName":null},{"geonameid":5908720,"name":"Bridgeview","admin3":"5915004","localeAltName":null},{"geonameid":5908809,"name":"Brighouse","admin3":"5915015","localeAltName":null},{"geonameid":5909061,"name":"British Properties","admin3":"5915055","localeAltName":null},{"geonameid":5909204,"name":"Broadmoor","admin3":"5915015","localeAltName":null},{"geonameid":5909573,"name":"Brookswood","admin3":"5915001","localeAltName":null},{"geonameid":5910251,"name":"Brunette Creek","admin3":"5915029","localeAltName":null},{"geonameid":5910279,"name":"Brunswick Beach","admin3":"5915065","localeAltName":null},{"geonameid":5910584,"name":"Buckingham Heights","admin3":"5915025","localeAltName":null},{"geonameid":5911557,"name":"Burkeville","admin3":"5915015","localeAltName":null},{"geonameid":5911606,"name":"Burnaby","admin3":"5915025","localeAltName":null},{"geonameid":5911609,"name":"Burnaby Heights","admin3":"5915025","localeAltName":null},{"geonameid":5912150,"name":"Burquitlam","admin3":"5915034","localeAltName":null},{"geonameid":5916407,"name":"Capilano Highlands","admin3":"5915046","localeAltName":null},{"geonameid":5916424,"name":"Capitol Hill","admin3":"5915025","localeAltName":null},{"geonameid":5916896,"name":"Cariboo","admin3":"5915034","localeAltName":null},{"geonameid":5917868,"name":"Cascade Heights","admin3":"5915025","localeAltName":null},{"geonameid":5918058,"name":"Cassin","admin3":"5915034","localeAltName":null},{"geonameid":5918505,"name":"Caulfeild","admin3":"5915055","localeAltName":null},{"geonameid":5918807,"name":"Cedardale","admin3":"5915055","localeAltName":null},{"geonameid":12032531,"name":"Chinatown de Vancouver","admin3":"5915022","localeAltName":null},{"geonameid":5921470,"name":"Chineside","admin3":"5915034","localeAltName":null},{"geonameid":5923902,"name":"Cleveland Park","admin3":"5915046","localeAltName":null},{"geonameid":5924204,"name":"Cloverdale","admin3":"5915004","localeAltName":null},{"geonameid":12022703,"name":"Coal Harbour","admin3":"5915022","localeAltName":null},{"geonameid":5925107,"name":"Colebrook","admin3":"5915004","localeAltName":null},{"geonameid":5926760,"name":"Connaught Heights","admin3":"5915029","localeAltName":null},{"geonameid":5927690,"name":"Coquitlam","admin3":"5915034","localeAltName":null},{"geonameid":5930979,"name":"Cove Cliff","admin3":"5915046","localeAltName":null},{"geonameid":5931073,"name":"Cowans Point","admin3":"5915062","localeAltName":null},{"geonameid":5932197,"name":"Crescent","admin3":"5915004","localeAltName":null},{"geonameid":5932213,"name":"Crescent Beach","admin3":"5915004","localeAltName":null},{"geonameid":5934430,"name":"Cypress Park","admin3":"5915055","localeAltName":null},{"geonameid":5935276,"name":"Dartmoor","admin3":"5915034","localeAltName":null},{"geonameid":7646978,"name":"Deep Cove","admin3":"5915046","localeAltName":null},{"geonameid":5936956,"name":"Deep Cove","admin3":"5915046","localeAltName":null},{"geonameid":5937615,"name":"Delta","admin3":"5915011","localeAltName":null},{"geonameid":5940972,"name":"Dollarton","admin3":"5915046","localeAltName":null},{"geonameid":5942105,"name":"Douglas","admin3":"5915004","localeAltName":null},{"geonameid":12022702,"name":"Downtown","admin3":"5915022","localeAltName":null},{"geonameid":5943973,"name":"Dundarave","admin3":"5915055","localeAltName":null},{"geonameid":5944866,"name":"Eagle Ridge","admin3":"5915043","localeAltName":null},{"geonameid":5945267,"name":"Eastburn","admin3":"5915025","localeAltName":null},{"geonameid":5947589,"name":"Elgin","admin3":"5915004","localeAltName":null},{"geonameid":5949543,"name":"Essondale","admin3":"5915034","localeAltName":null},{"geonameid":5952394,"name":"Fern Ridge","admin3":"5915001","localeAltName":null},{"geonameid":5954556,"name":"Fleetwood","admin3":"5915004","localeAltName":null},{"geonameid":5955542,"name":"Forest Knolls","admin3":"5915001","localeAltName":null},{"geonameid":5955879,"name":"Fort Langley","admin3":"5915001","localeAltName":null},{"geonameid":5957564,"name":"Fraser Heights","admin3":"5915004","localeAltName":null},{"geonameid":5957613,"name":"Fraser Mills","admin3":"5915034","localeAltName":null},{"geonameid":5959538,"name":"Garden Village","admin3":"5915025","localeAltName":null},{"geonameid":5962105,"name":"Glen Valley","admin3":"5915001","localeAltName":null},{"geonameid":5962017,"name":"Glenmore","admin3":"5915055","localeAltName":null},{"geonameid":7669017,"name":"Gloucester","admin3":"5915001","localeAltName":null},{"geonameid":5964718,"name":"Grandview","admin3":"5915004","localeAltName":null},{"geonameid":5964731,"name":"Grandview-Woodlands","admin3":"5915022","localeAltName":null},{"geonameid":5967687,"name":"Guildford","admin3":"5915004","localeAltName":null},{"geonameid":5970149,"name":"Haney","admin3":"5915075","localeAltName":null},{"geonameid":5970482,"name":"Harbour Chines","admin3":"5915034","localeAltName":null},{"geonameid":5970642,"name":"Harbour Village","admin3":"5915034","localeAltName":null},{"geonameid":5971859,"name":"Hastings-Sunrise","admin3":"5915022","localeAltName":null},{"geonameid":5972890,"name":"Hazelmere","admin3":"5915004","localeAltName":null},{"geonameid":5976245,"name":"Hollyburn","admin3":"5915055","localeAltName":null},{"geonameid":5976876,"name":"Hopington","admin3":"5915001","localeAltName":null},{"geonameid":5983663,"name":"Ioco","admin3":"5915043","localeAltName":null},{"geonameid":5987346,"name":"Johnson Heights","admin3":"5915004","localeAltName":null},{"geonameid":5990326,"name":"Keith-Lynn","admin3":"5915051","localeAltName":null},{"geonameid":5990660,"name":"Kelvin","admin3":"5915025","localeAltName":null},{"geonameid":5991085,"name":"Kensington-Cedar Cottage","admin3":"5915022","localeAltName":null},{"geonameid":5991909,"name":"Killarney","admin3":"5915022","localeAltName":null},{"geonameid":5993123,"name":"Kitsilano","admin3":"5915022","localeAltName":null},{"geonameid":7602078,"name":"Ladner","admin3":"5915011","localeAltName":null},{"geonameid":6049429,"name":"Langley","admin3":"5915002","localeAltName":null},{"geonameid":6050532,"name":"Laurentian Belaire","admin3":"5915034","localeAltName":null},{"geonameid":6054278,"name":"Lincoln Park","admin3":"5915039","localeAltName":null},{"geonameid":6054578,"name":"Lions Bay","admin3":"5915065","localeAltName":null},{"geonameid":6061334,"name":"Lower Lonsdale","admin3":"5915051","localeAltName":null},{"geonameid":6062341,"name":"Lynnmour","admin3":"5915046","localeAltName":null},{"geonameid":6065686,"name":"Maple Ridge","admin3":"5915075","localeAltName":null},{"geonameid":6067362,"name":"Mary Hill","admin3":"5915039","localeAltName":null},{"geonameid":6068323,"name":"Mayfair","admin3":"5915034","localeAltName":null},{"geonameid":6071338,"name":"Meadowbrook","admin3":"5915039","localeAltName":null},{"geonameid":6072539,"name":"Metrotown","admin3":"5915025","localeAltName":null},{"geonameid":6072977,"name":"Middlegate","admin3":"5915025","localeAltName":null},{"geonameid":6074072,"name":"Millers Landing","admin3":"","localeAltName":null},{"geonameid":6074334,"name":"Milner","admin3":"5915001","localeAltName":null},{"geonameid":6080857,"name":"Mount Gardner","admin3":"5915062","localeAltName":null},{"geonameid":6082322,"name":"Mount Pleasant","admin3":"5915022","localeAltName":null},{"geonameid":6083485,"name":"Mud Bay","admin3":"5915004","localeAltName":null},{"geonameid":6084746,"name":"Murrayville","admin3":"5915001","localeAltName":null},{"geonameid":7798683,"name":"New Westminster","admin3":"5915029","localeAltName":null},{"geonameid":6087844,"name":"New Westminster","admin3":"5915029","localeAltName":null},{"geonameid":6087790,"name":"Newton","admin3":"5915004","localeAltName":null},{"geonameid":6089133,"name":"Norgate","admin3":"5915046","localeAltName":null},{"geonameid":6089692,"name":"North Delta","admin3":"5915011","localeAltName":null},{"geonameid":6090267,"name":"North Lonsdale","admin3":"5915051","localeAltName":null},{"geonameid":6090785,"name":"North Vancouver","admin3":"5915051","localeAltName":null},{"geonameid":6092097,"name":"Oakridge","admin3":"5915022","localeAltName":null},{"geonameid":6092364,"name":"Ocean Park","admin3":"5915004","localeAltName":null},{"geonameid":6095787,"name":"Oxford Heights","admin3":"5915039","localeAltName":null},{"geonameid":7602339,"name":"Panorama Park","admin3":"5915004","localeAltName":null},{"geonameid":6096590,"name":"Panorama Ridge","admin3":"5915004","localeAltName":null},{"geonameid":6100802,"name":"Pemberton Heights","admin3":"5915046","localeAltName":null},{"geonameid":6105815,"name":"Pitt Meadows","admin3":"5915070","localeAltName":null},{"geonameid":6105816,"name":"Pitt Meadows","admin3":"5915070","localeAltName":null},{"geonameid":6106345,"name":"Pleasantside","admin3":"5915043","localeAltName":null},{"geonameid":6111706,"name":"Port Coquitlam","admin3":"5915039","localeAltName":null},{"geonameid":6111861,"name":"Port Hammond","admin3":"5915001","localeAltName":null},{"geonameid":6111898,"name":"Port Kells","admin3":"5915004","localeAltName":null},{"geonameid":6111949,"name":"Port Mann","admin3":"5915004","localeAltName":null},{"geonameid":6111962,"name":"Port Moody","admin3":"5915043","localeAltName":null},{"geonameid":6115107,"name":"Queensborough","admin3":"5915011","localeAltName":null},{"geonameid":6116401,"name":"Ranch Park","admin3":"5915034","localeAltName":null},{"geonameid":6119451,"name":"Renfrew-Collingwood","admin3":"5915022","localeAltName":null},{"geonameid":6122085,"name":"Richmond","admin3":"5915015","localeAltName":null},{"geonameid":6122741,"name":"River Springs","admin3":"5915039","localeAltName":null},{"geonameid":6136556,"name":"Ruskin","admin3":"5915075","localeAltName":null},{"geonameid":6140697,"name":"Sandy Cove","admin3":"5915055","localeAltName":null},{"geonameid":6142912,"name":"Seafair","admin3":"5915015","localeAltName":null},{"geonameid":6144242,"name":"Sentinel Hill","admin3":"5915055","localeAltName":null},{"geonameid":6144627,"name":"Seymour Heights","admin3":"5915046","localeAltName":null},{"geonameid":6145421,"name":"Shaughnessy","admin3":"5915022","localeAltName":null},{"geonameid":6147936,"name":"Silver Valley","admin3":"5915075","localeAltName":null},{"geonameid":6151770,"name":"South Cambie","admin3":"5915022","localeAltName":null},{"geonameid":6152640,"name":"South Slope","admin3":"5915025","localeAltName":null},{"geonameid":6152674,"name":"South Surrey","admin3":"5915004","localeAltName":null},{"geonameid":7602285,"name":"Steveston","admin3":"5915015","localeAltName":null},{"geonameid":6157872,"name":"Strachan Creek","admin3":"","localeAltName":null},{"geonameid":6157995,"name":"Strathcona","admin3":"5915022","localeAltName":null},{"geonameid":6158070,"name":"Strawberry Hill","admin3":"5915004","localeAltName":null},{"geonameid":6159075,"name":"Sullivan","admin3":"5915004","localeAltName":null},{"geonameid":6159089,"name":"Sullivan Heights","admin3":"5915025","localeAltName":null},{"geonameid":6159773,"name":"Sun Valley","admin3":"5915034","localeAltName":null},{"geonameid":6159380,"name":"Suncrest","admin3":"5915025","localeAltName":null},{"geonameid":6159605,"name":"Sunnyside","admin3":"5915004","localeAltName":null},{"geonameid":6159683,"name":"Sunset Beach","admin3":"5915055","localeAltName":null},{"geonameid":6159756,"name":"Sunshine Hills","admin3":"5915011","localeAltName":null},{"geonameid":6159905,"name":"Surrey","admin3":"5915004","localeAltName":null},{"geonameid":6159907,"name":"Surrey Centre","admin3":"5915004","localeAltName":null},{"geonameid":6165407,"name":"Thompson","admin3":"5915015","localeAltName":null},{"geonameid":6169661,"name":"Tsawwassen","admin3":"5915011","localeAltName":null},{"geonameid":6171523,"name":"Tynehead","admin3":"5915004","localeAltName":null},{"geonameid":6172425,"name":"Upper Lynn","admin3":"5915046","localeAltName":null},{"geonameid":6173331,"name":"Vancouver","admin3":"","localeAltName":null},{"geonameid":6174068,"name":"Victoria-Fraserview","admin3":"5915022","localeAltName":null},{"geonameid":7669012,"name":"Walnut Grove","admin3":"5915001","localeAltName":null},{"geonameid":6177512,"name":"Websters Corners","admin3":"5915075","localeAltName":null},{"geonameid":6178582,"name":"West End","admin3":"5915022","localeAltName":null},{"geonameid":6178583,"name":"West End","admin3":"5915029","localeAltName":null},{"geonameid":6179343,"name":"West Point Grey","admin3":"5915022","localeAltName":null},{"geonameid":8533869,"name":"West Vancouver","admin3":"5915055","localeAltName":"West Vancouver"},{"geonameid":6179235,"name":"Westmount","admin3":"5915055","localeAltName":null},{"geonameid":6179394,"name":"Westridge","admin3":"5915025","localeAltName":null},{"geonameid":6179830,"name":"Whalley","admin3":"5915004","localeAltName":null},{"geonameid":6180961,"name":"White Rock","admin3":"5915007","localeAltName":null},{"geonameid":6181352,"name":"Whonnock","admin3":"5915075","localeAltName":null},{"geonameid":6182306,"name":"Willingdon Heights","admin3":"5915025","localeAltName":null},{"geonameid":7669020,"name":"Willoughby","admin3":"5915004","localeAltName":null},{"geonameid":6184117,"name":"Woodhaven","admin3":"5915036","localeAltName":null},{"geonameid":12022713,"name":"Yaletown","admin3":"5915022","localeAltName":null},{"geonameid":6185449,"name":"Yennadon","admin3":"5915075","localeAltName":null}],"admin3":[{"geonameid":6049430,"name":"Langley","admin3":"5915001","localeAltName":null},{"geonameid":6179554,"name":"West Vancouver","admin3":"5915055","localeAltName":null},{"geonameid":12031863,"name":"Bowen Island","admin3":"5915062","localeAltName":null},{"geonameid":12031864,"name":"Burnaby","admin3":"5915025","localeAltName":null},{"geonameid":12031865,"name":"Coquitlam","admin3":"5915034","localeAltName":null},{"geonameid":12031867,"name":"Langley City","admin3":"5915002","localeAltName":null},{"geonameid":12031868,"name":"Maple Ridge","admin3":"5915075","localeAltName":null},{"geonameid":12031869,"name":"North Vancouver","admin3":"5915046","localeAltName":null},{"geonameid":12031870,"name":"Port Moody","admin3":"5915043","localeAltName":null},{"geonameid":12031871,"name":"Richmond","admin3":"5915015","localeAltName":null},{"geonameid":12031872,"name":"Surrey","admin3":"5915004","localeAltName":null},{"geonameid":12031873,"name":"Vancouver","admin3":"5915022","localeAltName":null},{"geonameid":12031874,"name":"White Rock","admin3":"5915007","localeAltName":null},{"geonameid":12031917,"name":"Delta","admin3":"5915011","localeAltName":null},{"geonameid":12031918,"name":"Lions Bay","admin3":"5915065","localeAltName":null},{"geonameid":12031943,"name":"Belcarra","admin3":"5915036","localeAltName":null},{"geonameid":12031950,"name":"Anmore","admin3":"5915038","localeAltName":null},{"geonameid":12031952,"name":"New Westminster","admin3":"5915029","localeAltName":null},{"geonameid":12031954,"name":"North Vancouver","admin3":"5915051","localeAltName":null},{"geonameid":12031956,"name":"Pitt Meadows","admin3":"5915070","localeAltName":null},{"geonameid":12031958,"name":"Port Coquitlam","admin3":"5915039","localeAltName":null}],"alternateNames":[{"alternatenameId":8248952,"geonameid":8533869,"isoLanguage":"en","alternateName":"West Vancouver","isPreferredName":true,"isShortName":true,"isColloquial":false,"isHistoric":false}]},"__N_SSG":true}