{"pageProps":{"locale":"it","admin2":{"geonameid":2525471,"name":"Provincia di Cagliari","country":"IT","admin1":"14","admin2":"CA","admin3":"","latitude":"39.2450200","longitude":"9.0911900","localeAltName":"Cagliari"},"admin1":{"geonameid":2523228,"name":"Sardegna","admin1":"14","localeAltName":null},"locations":[{"geonameid":2525655,"name":"Assemini","admin3":"092003","localeAltName":null},{"geonameid":2525473,"name":"Cagliari","admin3":"092009","localeAltName":null},{"geonameid":2525379,"name":"Capoterra","admin3":"092011","localeAltName":null},{"geonameid":8950130,"name":"Coop. Cento","admin3":"092011","localeAltName":null},{"geonameid":8949894,"name":"Cortexandra","admin3":"092074","localeAltName":null},{"geonameid":2524865,"name":"Decimomannu","admin3":"092015","localeAltName":null},{"geonameid":2524820,"name":"Elmas","admin3":"092108","localeAltName":null},{"geonameid":2524463,"name":"La Maddalena","admin3":"092011","localeAltName":null},{"geonameid":2524208,"name":"Maracalagonis","admin3":"092037","localeAltName":null},{"geonameid":2524084,"name":"Monserrato","admin3":"092109","localeAltName":null},{"geonameid":8948925,"name":"Poggio dei Pini","admin3":"092011","localeAltName":null},{"geonameid":2523675,"name":"Pula","admin3":"092050","localeAltName":null},{"geonameid":2523665,"name":"Quartu Sant'Elena","admin3":"092051","localeAltName":null},{"geonameid":2523666,"name":"Quartucciu","admin3":"092105","localeAltName":null},{"geonameid":2523222,"name":"Sarroch","admin3":"092066","localeAltName":null},{"geonameid":2523166,"name":"Selargius","admin3":"092068","localeAltName":null},{"geonameid":2523136,"name":"Sestu","admin3":"092074","localeAltName":null},{"geonameid":2523135,"name":"Settimo San Pietro","admin3":"092075","localeAltName":null},{"geonameid":2523087,"name":"Sinnai","admin3":"092080","localeAltName":null},{"geonameid":8948804,"name":"Su Planu","admin3":"092068","localeAltName":null},{"geonameid":2522816,"name":"Uta","admin3":"092090","localeAltName":null},{"geonameid":2523385,"name":"Villa San Pietro","admin3":"092099","localeAltName":null}],"admin3":[{"geonameid":6537888,"name":"Assemini","admin3":"092003","localeAltName":null},{"geonameid":6537892,"name":"Capoterra","admin3":"092011","localeAltName":null},{"geonameid":6537894,"name":"Decimomannu","admin3":"092015","localeAltName":null},{"geonameid":6537901,"name":"Maracalagonis","admin3":"092037","localeAltName":null},{"geonameid":6537911,"name":"Sarroch","admin3":"092066","localeAltName":null},{"geonameid":6537912,"name":"Selargius","admin3":"092068","localeAltName":null},{"geonameid":6538065,"name":"Monserrato","admin3":"092109","localeAltName":null},{"geonameid":6539304,"name":"Sestu","admin3":"092074","localeAltName":null},{"geonameid":6539305,"name":"Settimo San Pietro","admin3":"092075","localeAltName":null},{"geonameid":6539309,"name":"Sinnai","admin3":"092080","localeAltName":null},{"geonameid":6539314,"name":"Uta","admin3":"092090","localeAltName":null},{"geonameid":6539319,"name":"Villa San Pietro","admin3":"092099","localeAltName":null},{"geonameid":6539321,"name":"Quartucciu","admin3":"092105","localeAltName":null},{"geonameid":6539581,"name":"Elmas","admin3":"092108","localeAltName":null},{"geonameid":6540069,"name":"Pula","admin3":"092050","localeAltName":null},{"geonameid":6540125,"name":"Cagliari","admin3":"092009","localeAltName":null},{"geonameid":6542141,"name":"Quartu Sant'Elena","admin3":"092051","localeAltName":null}],"alternateNames":[{"alternatenameId":1183740,"geonameid":2525471,"isoLanguage":"it","alternateName":"Cagliari","isPreferredName":true,"isShortName":true,"isColloquial":false,"isHistoric":false}]},"__N_SSG":true}