{"pageProps":{"locale":"en","admin1":{"geonameid":5332921,"name":"California","country":"US","admin1":"CA","latitude":"37.2502200","longitude":"-119.7512600","localeAltName":"California"},"admin2":[{"geonameid":5322745,"name":"Alameda County","admin2":"001"},{"geonameid":5323414,"name":"Alpine County","admin2":"003"},{"geonameid":5323622,"name":"Amador County","admin2":"005"},{"geonameid":5332191,"name":"Butte County","admin2":"007"},{"geonameid":5332628,"name":"Calaveras County","admin2":"009"},{"geonameid":5391997,"name":"City and County of San Francisco","admin2":"075","localeAltName":"San Francisco County"},{"geonameid":5338872,"name":"Colusa County","admin2":"011"},{"geonameid":5339268,"name":"Contra Costa County","admin2":"013"},{"geonameid":5562484,"name":"Del Norte County","admin2":"015"},{"geonameid":5345659,"name":"El Dorado County","admin2":"017"},{"geonameid":5350964,"name":"Fresno County","admin2":"019"},{"geonameid":5352462,"name":"Glenn County","admin2":"021"},{"geonameid":5565500,"name":"Humboldt County","admin2":"023"},{"geonameid":5359067,"name":"Imperial County","admin2":"025"},{"geonameid":5359604,"name":"Inyo County","admin2":"027"},{"geonameid":5362932,"name":"Kern County","admin2":"029"},{"geonameid":5363385,"name":"Kings County","admin2":"031"},{"geonameid":5364466,"name":"Lake County","admin2":"033"},{"geonameid":5566544,"name":"Lassen County","admin2":"035"},{"geonameid":5368381,"name":"Los Angeles County","admin2":"037"},{"geonameid":5369578,"name":"Madera County","admin2":"039"},{"geonameid":5370468,"name":"Marin County","admin2":"041"},{"geonameid":5370594,"name":"Mariposa County","admin2":"043"},{"geonameid":5372163,"name":"Mendocino County","admin2":"045"},{"geonameid":5372259,"name":"Merced County","admin2":"047"},{"geonameid":5568120,"name":"Modoc County","admin2":"049"},{"geonameid":5374091,"name":"Mono County","admin2":"051"},{"geonameid":5374376,"name":"Monterey County","admin2":"053"},{"geonameid":5376101,"name":"Napa County","admin2":"055"},{"geonameid":5376509,"name":"Nevada County","admin2":"057"},{"geonameid":5379524,"name":"Orange County","admin2":"059"},{"geonameid":5383537,"name":"Placer County","admin2":"061"},{"geonameid":5383832,"name":"Plumas County","admin2":"063"},{"geonameid":5387890,"name":"Riverside County","admin2":"065"},{"geonameid":5389519,"name":"Sacramento County","admin2":"067"},{"geonameid":5391692,"name":"San Benito County","admin2":"069"},{"geonameid":5391726,"name":"San Bernardino County","admin2":"071"},{"geonameid":5391832,"name":"San Diego County","admin2":"073"},{"geonameid":5392126,"name":"San Joaquin County","admin2":"077"},{"geonameid":5392329,"name":"San Luis Obispo County","admin2":"079"},{"geonameid":5392427,"name":"San Mateo County","admin2":"081"},{"geonameid":5392967,"name":"Santa Barbara County","admin2":"083"},{"geonameid":5393021,"name":"Santa Clara County","admin2":"085"},{"geonameid":5393068,"name":"Santa Cruz County","admin2":"087"},{"geonameid":5571096,"name":"Shasta County","admin2":"089"},{"geonameid":5395582,"name":"Sierra County","admin2":"091"},{"geonameid":5571369,"name":"Siskiyou County","admin2":"093"},{"geonameid":5396987,"name":"Solano County","admin2":"095"},{"geonameid":5397100,"name":"Sonoma County","admin2":"097"},{"geonameid":5398597,"name":"Stanislaus County","admin2":"099"},{"geonameid":5400390,"name":"Sutter County","admin2":"101"},{"geonameid":5572575,"name":"Tehama County","admin2":"103"},{"geonameid":5553701,"name":"Trinity County","admin2":"105"},{"geonameid":5403789,"name":"Tulare County","admin2":"107"},{"geonameid":5403973,"name":"Tuolumne County","admin2":"109"},{"geonameid":5405889,"name":"Ventura County","admin2":"111"},{"geonameid":5410882,"name":"Yolo County","admin2":"113"},{"geonameid":5411026,"name":"Yuba County","admin2":"115"}],"country":{"geonameid":6252001,"country":"US","name":"United States"},"alternateNames":[{"alternatenameId":1632217,"geonameid":5332921,"isoLanguage":"en","alternateName":"California","isPreferredName":true,"isShortName":true,"isColloquial":false,"isHistoric":false},{"alternatenameId":2727895,"geonameid":5391997,"isoLanguage":"en","alternateName":"San Francisco County","isPreferredName":true,"isShortName":true,"isColloquial":false,"isHistoric":false}]},"__N_SSG":true}