{"pageProps":{"locale":"en","admin1":{"geonameid":5596512,"name":"Idaho","country":"US","admin1":"ID","latitude":"44.5002000","longitude":"-114.2511800","localeAltName":"Idaho"},"admin2":[{"geonameid":5583739,"name":"Ada County","admin2":"001"},{"geonameid":5583743,"name":"Adams County","admin2":"003"},{"geonameid":5584639,"name":"Bannock County","admin2":"005"},{"geonameid":5585000,"name":"Bear Lake County","admin2":"007"},{"geonameid":5585304,"name":"Benewah County","admin2":"009"},{"geonameid":5585826,"name":"Bingham County","admin2":"011"},{"geonameid":5586170,"name":"Blaine County","admin2":"013"},{"geonameid":5586445,"name":"Boise County","admin2":"015"},{"geonameid":5586489,"name":"Bonner County","admin2":"017"},{"geonameid":5586500,"name":"Bonneville County","admin2":"019"},{"geonameid":5586641,"name":"Boundary County","admin2":"021"},{"geonameid":5587504,"name":"Butte County","admin2":"023"},{"geonameid":5587757,"name":"Camas County","admin2":"025"},{"geonameid":5587975,"name":"Canyon County","admin2":"027"},{"geonameid":5588082,"name":"Caribou County","admin2":"029"},{"geonameid":5588204,"name":"Cassia County","admin2":"031"},{"geonameid":5588908,"name":"Clark County","admin2":"033"},{"geonameid":5589005,"name":"Clearwater County","admin2":"035"},{"geonameid":5590383,"name":"Custer County","admin2":"037"},{"geonameid":5592510,"name":"Elmore County","admin2":"039"},{"geonameid":5593547,"name":"Franklin County","admin2":"041"},{"geonameid":5593620,"name":"Fremont County","admin2":"043"},{"geonameid":5593925,"name":"Gem County","admin2":"045"},{"geonameid":5594311,"name":"Gooding County","admin2":"047"},{"geonameid":5596467,"name":"Idaho County","admin2":"049"},{"geonameid":5596986,"name":"Jefferson County","admin2":"051"},{"geonameid":5597037,"name":"Jerome County","admin2":"053"},{"geonameid":5597922,"name":"Kootenai County","admin2":"055"},{"geonameid":5598264,"name":"Latah County","admin2":"057"},{"geonameid":5598464,"name":"Lemhi County","admin2":"059"},{"geonameid":5598527,"name":"Lewis County","admin2":"061"},{"geonameid":5598678,"name":"Lincoln County","admin2":"063"},{"geonameid":5599930,"name":"Madison County","admin2":"065"},{"geonameid":5601141,"name":"Minidoka County","admin2":"067"},{"geonameid":5602115,"name":"Nez Perce County","admin2":"069"},{"geonameid":5602844,"name":"Oneida County","admin2":"071"},{"geonameid":5603018,"name":"Owyhee County","admin2":"073"},{"geonameid":5603395,"name":"Payette County","admin2":"075"},{"geonameid":5604439,"name":"Power County","admin2":"077"},{"geonameid":5607202,"name":"Shoshone County","admin2":"079"},{"geonameid":5609855,"name":"Teton County","admin2":"081"},{"geonameid":5610815,"name":"Twin Falls County","admin2":"083"},{"geonameid":5611156,"name":"Valley County","admin2":"085"},{"geonameid":5611570,"name":"Washington County","admin2":"087"}],"country":{"geonameid":6252001,"country":"US","name":"United States"},"alternateNames":[{"alternatenameId":2089559,"geonameid":5596512,"isoLanguage":"en","alternateName":"Idaho","isPreferredName":true,"isShortName":true,"isColloquial":false,"isHistoric":false}]},"__N_SSG":true}