{"pageProps":{"locale":"en","admin1":{"geonameid":6254925,"name":"Kentucky","country":"US","admin1":"KY","latitude":"38.2004200","longitude":"-84.8776200","localeAltName":"Kentucky"},"admin2":[{"geonameid":4282211,"name":"Adair County","admin2":"001"},{"geonameid":4282393,"name":"Allen County","admin2":"003"},{"geonameid":4282511,"name":"Anderson County","admin2":"005"},{"geonameid":4283067,"name":"Ballard County","admin2":"007"},{"geonameid":4283268,"name":"Barren County","admin2":"009"},{"geonameid":4283333,"name":"Bath County","admin2":"011"},{"geonameid":4283814,"name":"Bell County","admin2":"013"},{"geonameid":4048522,"name":"Boone County","admin2":"015"},{"geonameid":4285233,"name":"Bourbon County","admin2":"017"},{"geonameid":4285302,"name":"Boyd County","admin2":"019"},{"geonameid":4285317,"name":"Boyle County","admin2":"021"},{"geonameid":4285325,"name":"Bracken County","admin2":"023"},{"geonameid":4285423,"name":"Breathitt County","admin2":"025"},{"geonameid":4285428,"name":"Breckinridge County","admin2":"027"},{"geonameid":4286176,"name":"Bullitt County","admin2":"029"},{"geonameid":4286382,"name":"Butler County","admin2":"031"},{"geonameid":4286500,"name":"Caldwell County","admin2":"033"},{"geonameid":4286549,"name":"Calloway County","admin2":"035"},{"geonameid":4286705,"name":"Campbell County","admin2":"037"},{"geonameid":4286990,"name":"Carlisle County","admin2":"039"},{"geonameid":4287048,"name":"Carroll County","admin2":"041"},{"geonameid":4287080,"name":"Carter County","admin2":"043"},{"geonameid":4287126,"name":"Casey County","admin2":"045"},{"geonameid":4287749,"name":"Christian County","admin2":"047"},{"geonameid":4287837,"name":"Clark County","admin2":"049"},{"geonameid":4287883,"name":"Clay County","admin2":"051"},{"geonameid":4288063,"name":"Clinton County","admin2":"053"},{"geonameid":4289074,"name":"Crittenden County","admin2":"055"},{"geonameid":4289242,"name":"Cumberland County","admin2":"057"},{"geonameid":4289518,"name":"Daviess County","admin2":"059"},{"geonameid":4290885,"name":"Edmonson County","admin2":"061"},{"geonameid":4291095,"name":"Elliott County","admin2":"063"},{"geonameid":4291280,"name":"Estill County","admin2":"065"},{"geonameid":4291564,"name":"Fayette County","admin2":"067"},{"geonameid":4291901,"name":"Fleming County","admin2":"069"},{"geonameid":4291960,"name":"Floyd County","admin2":"071"},{"geonameid":4292202,"name":"Franklin County","admin2":"073"},{"geonameid":4292427,"name":"Fulton County","admin2":"075"},{"geonameid":4292492,"name":"Gallatin County","admin2":"077"},{"geonameid":4292570,"name":"Garrard County","admin2":"079"},{"geonameid":4293148,"name":"Grant County","admin2":"081"},{"geonameid":4293245,"name":"Graves County","admin2":"083"},{"geonameid":4293301,"name":"Grayson County","admin2":"085"},{"geonameid":4293371,"name":"Green County","admin2":"087"},{"geonameid":4293471,"name":"Greenup County","admin2":"089"},{"geonameid":4293950,"name":"Hancock County","admin2":"091"},{"geonameid":4294031,"name":"Hardin County","admin2":"093"},{"geonameid":4294084,"name":"Harlan County","admin2":"095"},{"geonameid":4294160,"name":"Harrison County","admin2":"097"},{"geonameid":4294190,"name":"Hart County","admin2":"099"},{"geonameid":4294512,"name":"Henderson County","admin2":"101"},{"geonameid":4294546,"name":"Henry County","admin2":"103"},{"geonameid":4294628,"name":"Hickman County","admin2":"105"},{"geonameid":4295247,"name":"Hopkins County","admin2":"107"},{"geonameid":4296106,"name":"Jackson County","admin2":"109"},{"geonameid":4296212,"name":"Jefferson County","admin2":"111"},{"geonameid":4296292,"name":"Jessamine County","admin2":"113"},{"geonameid":4296508,"name":"Johnson County","admin2":"115"},{"geonameid":4296902,"name":"Kenton County","admin2":"117"},{"geonameid":4297180,"name":"Knott County","admin2":"119"},{"geonameid":4297187,"name":"Knox County","admin2":"121"},{"geonameid":4297424,"name":"Larue County","admin2":"123"},{"geonameid":4297480,"name":"Laurel County","admin2":"125"},{"geonameid":4297576,"name":"Lawrence County","admin2":"127"},{"geonameid":4297704,"name":"Lee County","admin2":"129"},{"geonameid":4297902,"name":"Leslie County","admin2":"131"},{"geonameid":4297909,"name":"Letcher County","admin2":"133"},{"geonameid":4297955,"name":"Lewis County","admin2":"135"},{"geonameid":4298293,"name":"Lincoln County","admin2":"137"},{"geonameid":4298811,"name":"Livingston County","admin2":"139"},{"geonameid":4298932,"name":"Logan County","admin2":"141"},{"geonameid":4299595,"name":"Lyon County","admin2":"143"},{"geonameid":4299665,"name":"Madison County","admin2":"151"},{"geonameid":4299695,"name":"Magoffin County","admin2":"153"},{"geonameid":4299849,"name":"Marion County","admin2":"155"},{"geonameid":4299896,"name":"Marshall County","admin2":"157"},{"geonameid":4299939,"name":"Martin County","admin2":"159"},{"geonameid":4300012,"name":"Mason County","admin2":"161"},{"geonameid":4300244,"name":"McCracken County","admin2":"145"},{"geonameid":4300249,"name":"McCreary County","admin2":"147"},{"geonameid":4300401,"name":"McLean County","admin2":"149"},{"geonameid":4300426,"name":"Meade County","admin2":"163"},{"geonameid":4300562,"name":"Menifee County","admin2":"165"},{"geonameid":4300572,"name":"Mercer County","admin2":"167"},{"geonameid":4300606,"name":"Metcalfe County","admin2":"169"},{"geonameid":4301192,"name":"Monroe County","admin2":"171"},{"geonameid":4301216,"name":"Montgomery County","admin2":"173"},{"geonameid":4301333,"name":"Morgan County","admin2":"175"},{"geonameid":4301955,"name":"Muhlenberg County","admin2":"177"},{"geonameid":4302277,"name":"Nelson County","admin2":"179"},{"geonameid":4302564,"name":"Nicholas County","admin2":"181"},{"geonameid":4302977,"name":"Ohio County","admin2":"183"},{"geonameid":4303164,"name":"Oldham County","admin2":"185"},{"geonameid":4303402,"name":"Owen County","admin2":"187"},{"geonameid":4303455,"name":"Owsley County","admin2":"189"},{"geonameid":4303870,"name":"Pendleton County","admin2":"191"},{"geonameid":4303951,"name":"Perry County","admin2":"193"},{"geonameid":4304226,"name":"Pike County","admin2":"195"},{"geonameid":4305121,"name":"Powell County","admin2":"197"},{"geonameid":4305364,"name":"Pulaski County","admin2":"199"},{"geonameid":4306340,"name":"Robertson County","admin2":"201"},{"geonameid":4306470,"name":"Rockcastle County","admin2":"203"},{"geonameid":4048572,"name":"Rowan County","admin2":"205"},{"geonameid":4306996,"name":"Russell County","admin2":"207"},{"geonameid":4307808,"name":"Scott County","admin2":"209"},{"geonameid":4308112,"name":"Shelby County","admin2":"211"},{"geonameid":4308447,"name":"Simpson County","admin2":"213"},{"geonameid":4309179,"name":"Spencer County","admin2":"215"},{"geonameid":4310601,"name":"Taylor County","admin2":"217"},{"geonameid":4310988,"name":"Todd County","admin2":"219"},{"geonameid":4311258,"name":"Trigg County","admin2":"221"},{"geonameid":4311266,"name":"Trimble County","admin2":"223"},{"geonameid":4311683,"name":"Union County","admin2":"225"},{"geonameid":4312732,"name":"Warren County","admin2":"227"},{"geonameid":4312745,"name":"Washington County","admin2":"229"},{"geonameid":4312835,"name":"Wayne County","admin2":"231"},{"geonameid":4312885,"name":"Webster County","admin2":"233"},{"geonameid":4313367,"name":"Whitley County","admin2":"235"},{"geonameid":4313865,"name":"Wolfe County","admin2":"237"},{"geonameid":4313946,"name":"Woodford County","admin2":"239"}],"country":{"geonameid":6252001,"country":"US","name":"United States"},"alternateNames":[{"alternatenameId":6755489,"geonameid":6254925,"isoLanguage":"en","alternateName":"Kentucky","isPreferredName":true,"isShortName":true,"isColloquial":false,"isHistoric":false}]},"__N_SSG":true}