{"pageProps":{"locale":"en","admin1":{"geonameid":4361885,"name":"Maryland","country":"US","admin1":"MD","latitude":"39.0003900","longitude":"-76.7499700","localeAltName":"Maryland"},"admin2":[{"geonameid":4347094,"name":"Allegany County","admin2":"001"},{"geonameid":4347283,"name":"Anne Arundel County","admin2":"003"},{"geonameid":4347790,"name":"Baltimore County","admin2":"005"},{"geonameid":4350123,"name":"Calvert County","admin2":"009"},{"geonameid":4350425,"name":"Caroline County","admin2":"011"},{"geonameid":4350461,"name":"Carroll County","admin2":"013"},{"geonameid":4350685,"name":"Cecil County","admin2":"015"},{"geonameid":4351021,"name":"Charles County","admin2":"017"},{"geonameid":4347820,"name":"City of Baltimore","admin2":"510","localeAltName":"Baltimore"},{"geonameid":4353543,"name":"Dorchester County","admin2":"019"},{"geonameid":4355594,"name":"Frederick County","admin2":"021"},{"geonameid":4355939,"name":"Garrett County","admin2":"023"},{"geonameid":4357407,"name":"Harford County","admin2":"025"},{"geonameid":4358598,"name":"Howard County","admin2":"027"},{"geonameid":4359780,"name":"Kent County","admin2":"029"},{"geonameid":4362716,"name":"Montgomery County","admin2":"031"},{"geonameid":4366164,"name":"Prince George's County","admin2":"033"},{"geonameid":4366351,"name":"Queen Anne's County","admin2":"035"},{"geonameid":4368320,"name":"Saint Mary's County","admin2":"037"},{"geonameid":4369894,"name":"Somerset County","admin2":"039"},{"geonameid":4370904,"name":"Talbot County","admin2":"041"},{"geonameid":4372777,"name":"Washington County","admin2":"043"},{"geonameid":4373554,"name":"Wicomico County","admin2":"045"},{"geonameid":4374180,"name":"Worcester County","admin2":"047"}],"country":{"geonameid":6252001,"country":"US","name":"United States"},"alternateNames":[{"alternatenameId":16782933,"geonameid":4347820,"isoLanguage":"en","alternateName":"Baltimore","isPreferredName":true,"isShortName":true,"isColloquial":false,"isHistoric":false},{"alternatenameId":1979906,"geonameid":4361885,"isoLanguage":"en","alternateName":"Maryland","isPreferredName":true,"isShortName":true,"isColloquial":false,"isHistoric":false}]},"__N_SSG":true}