{"pageProps":{"locale":"en","admin1":{"geonameid":5509151,"name":"Nevada","country":"US","admin1":"NV","latitude":"39.2502100","longitude":"-116.7511900","localeAltName":"Nevada"},"admin2":[{"geonameid":5501350,"name":"Carson City","admin2":"510"},{"geonameid":5501785,"name":"Churchill County","admin2":"001"},{"geonameid":5501879,"name":"Clark County","admin2":"003"},{"geonameid":5503178,"name":"Douglas County","admin2":"005"},{"geonameid":5703673,"name":"Elko County","admin2":"007"},{"geonameid":5503780,"name":"Esmeralda County","admin2":"009"},{"geonameid":5703766,"name":"Eureka County","admin2":"011"},{"geonameid":5704974,"name":"Humboldt County","admin2":"013"},{"geonameid":5506935,"name":"Lander County","admin2":"015"},{"geonameid":5507189,"name":"Lincoln County","admin2":"017"},{"geonameid":5507669,"name":"Lyon County","admin2":"019"},{"geonameid":5508393,"name":"Mineral County","admin2":"021"},{"geonameid":5509519,"name":"Nye County","admin2":"023"},{"geonameid":5707263,"name":"Pershing County","admin2":"027"},{"geonameid":5513171,"name":"Storey County","admin2":"029"},{"geonameid":5709906,"name":"Washoe County","admin2":"031"},{"geonameid":5514990,"name":"White Pine County","admin2":"033"}],"country":{"geonameid":6252001,"country":"US","name":"United States"},"alternateNames":[{"alternatenameId":2089566,"geonameid":5509151,"isoLanguage":"en","alternateName":"Nevada","isPreferredName":true,"isShortName":true,"isColloquial":false,"isHistoric":false}]},"__N_SSG":true}