{"pageProps":{"locale":"en","admin1":{"geonameid":5815135,"name":"Washington","country":"US","admin1":"WA","latitude":"47.5001200","longitude":"-120.5014700","localeAltName":"Washington"},"admin2":[{"geonameid":5785282,"name":"Adams County","admin2":"001"},{"geonameid":5785935,"name":"Asotin County","admin2":"003"},{"geonameid":5786991,"name":"Benton County","admin2":"005"},{"geonameid":5789829,"name":"Chelan County","admin2":"007"},{"geonameid":5790164,"name":"Clallam County","admin2":"009"},{"geonameid":5790179,"name":"Clark County","admin2":"011"},{"geonameid":5790614,"name":"Columbia County","admin2":"013"},{"geonameid":5791206,"name":"Cowlitz County","admin2":"015"},{"geonameid":5792681,"name":"Douglas County","admin2":"017"},{"geonameid":5794294,"name":"Ferry County","admin2":"019"},{"geonameid":5794976,"name":"Franklin County","admin2":"021"},{"geonameid":5795265,"name":"Garfield County","admin2":"023"},{"geonameid":5796034,"name":"Grant County","admin2":"025"},{"geonameid":5796126,"name":"Grays Harbor County","admin2":"027"},{"geonameid":5798453,"name":"Island County","admin2":"029"},{"geonameid":5798663,"name":"Jefferson County","admin2":"031"},{"geonameid":5799783,"name":"King County","admin2":"033"},{"geonameid":5799853,"name":"Kitsap County","admin2":"035"},{"geonameid":5799889,"name":"Kittitas County","admin2":"037"},{"geonameid":5799909,"name":"Klickitat County","admin2":"039"},{"geonameid":5800813,"name":"Lewis County","admin2":"041"},{"geonameid":5800965,"name":"Lincoln County","admin2":"043"},{"geonameid":5802584,"name":"Mason County","admin2":"045"},{"geonameid":5805553,"name":"Okanogan County","admin2":"047"},{"geonameid":5806002,"name":"Pacific County","admin2":"049"},{"geonameid":5806491,"name":"Pend Oreille County","admin2":"051"},{"geonameid":5806769,"name":"Pierce County","admin2":"053"},{"geonameid":5809422,"name":"San Juan County","admin2":"055"},{"geonameid":5810608,"name":"Skagit County","admin2":"057"},{"geonameid":5810628,"name":"Skamania County","admin2":"059"},{"geonameid":5810982,"name":"Snohomish County","admin2":"061"},{"geonameid":5811704,"name":"Spokane County","admin2":"063"},{"geonameid":5812148,"name":"Stevens County","admin2":"065"},{"geonameid":5813521,"name":"Thurston County","admin2":"067"},{"geonameid":5814851,"name":"Wahkiakum County","admin2":"069"},{"geonameid":5814921,"name":"Walla Walla County","admin2":"071"},{"geonameid":5815675,"name":"Whatcom County","admin2":"073"},{"geonameid":5815891,"name":"Whitman County","admin2":"075"},{"geonameid":5816597,"name":"Yakima County","admin2":"077"}],"country":{"geonameid":6252001,"country":"US","name":"United States"},"alternateNames":[{"alternatenameId":2089568,"geonameid":5815135,"isoLanguage":"en","alternateName":"Washington","isPreferredName":true,"isShortName":true,"isColloquial":false,"isHistoric":false}]},"__N_SSG":true}