{"pageProps":{"locale":"en","admin1":{"geonameid":5843591,"name":"Wyoming","country":"US","admin1":"WY","latitude":"43.0002400","longitude":"-107.5009000"},"admin2":[{"geonameid":5816904,"name":"Albany County","admin2":"001"},{"geonameid":5818658,"name":"Big Horn County","admin2":"003"},{"geonameid":5820441,"name":"Campbell County","admin2":"005"},{"geonameid":5820552,"name":"Carbon County","admin2":"007"},{"geonameid":5821791,"name":"Converse County","admin2":"009"},{"geonameid":5822351,"name":"Crook County","admin2":"011"},{"geonameid":5825643,"name":"Fremont County","admin2":"013"},{"geonameid":5826220,"name":"Goshen County","admin2":"015"},{"geonameid":5828054,"name":"Hot Springs County","admin2":"017"},{"geonameid":5828957,"name":"Johnson County","admin2":"019"},{"geonameid":5830051,"name":"Laramie County","admin2":"021"},{"geonameid":5830383,"name":"Lincoln County","admin2":"023"},{"geonameid":5833224,"name":"Natrona County","admin2":"025"},{"geonameid":5833446,"name":"Niobrara County","admin2":"027"},{"geonameid":5834587,"name":"Park County","admin2":"029"},{"geonameid":5835308,"name":"Platte County","admin2":"031"},{"geonameid":5838199,"name":"Sheridan County","admin2":"033"},{"geonameid":5840177,"name":"Sublette County","admin2":"035"},{"geonameid":5840426,"name":"Sweetwater County","admin2":"037"},{"geonameid":5840786,"name":"Teton County","admin2":"039"},{"geonameid":5841693,"name":"Uinta County","admin2":"041"},{"geonameid":5842257,"name":"Washakie County","admin2":"043"},{"geonameid":5842707,"name":"Weston County","admin2":"045"}],"country":{"geonameid":6252001,"country":"US","name":"United States"},"alternateNames":[]},"__N_SSG":true}