{"pageProps":{"locale":"de","admin2":{"geonameid":6458903,"name":"Leventina District","country":"CH","admin1":"TI","admin2":"2103","admin3":"","latitude":"46.4691200","longitude":"8.7553900"},"admin1":{"geonameid":2658370,"name":"Ticino","admin1":"TI"},"locations":[{"geonameid":2661830,"name":"Airolo","admin3":"5061"},{"geonameid":2661742,"name":"Anzonico","admin3":"5072"},{"geonameid":2661463,"name":"Bodio","admin3":"5064"},{"geonameid":2661284,"name":"Calpiogna","admin3":"5072"},{"geonameid":2661174,"name":"Chiggiogna","admin3":"5072"},{"geonameid":2661171,"name":"Chironico","admin3":"5072"},{"geonameid":2661052,"name":"Dalpe","admin3":"5071"},{"geonameid":2660830,"name":"Faido","admin3":"5072"},{"geonameid":2660609,"name":"Giornico","admin3":"5073"},{"geonameid":2659276,"name":"Osco","admin3":"5072"},{"geonameid":2659148,"name":"Prato","admin3":"5078"},{"geonameid":2658960,"name":"Rossura","admin3":"5072"},{"geonameid":2658568,"name":"Sobrio","admin3":"5072"}],"admin3":[{"geonameid":7285044,"name":"Airolo","admin3":"5061"},{"geonameid":7285178,"name":"Bedretto","admin3":"5063"},{"geonameid":7285276,"name":"Bodio","admin3":"5064"},{"geonameid":7285620,"name":"Dalpe","admin3":"5071"},{"geonameid":7285791,"name":"Faido","admin3":"5072"},{"geonameid":7285918,"name":"Giornico","admin3":"5073"},{"geonameid":7286783,"name":"Personico","admin3":"5076"},{"geonameid":7286809,"name":"Pollegio","admin3":"5077"},{"geonameid":7286827,"name":"Prato (Leventina)","admin3":"5078"},{"geonameid":7286846,"name":"Quinto","admin3":"5079"}],"alternateNames":[]},"__N_SSG":true}