{"pageProps":{"locale":"de","admin2":{"geonameid":2658196,"name":"Vallemaggia District","country":"CH","admin1":"TI","admin2":"2108","admin3":"","latitude":"46.3548300","longitude":"8.6054000"},"admin1":{"geonameid":2658370,"name":"Ticino","admin1":"TI"},"locations":[{"geonameid":2661674,"name":"Aurigeno","admin3":"5317"},{"geonameid":2661505,"name":"Bignasco","admin3":"5310"},{"geonameid":2661439,"name":"Bosco Gurin","admin3":"5304"},{"geonameid":2661381,"name":"Broglio","admin3":"5323"},{"geonameid":2661379,"name":"Brontallo","admin3":"5323"},{"geonameid":2661276,"name":"Campo","admin3":"5307"},{"geonameid":2661245,"name":"Cavergno","admin3":"5310"},{"geonameid":2661236,"name":"Cerentino","admin3":"5309"},{"geonameid":2661231,"name":"Cevio","admin3":"5310"},{"geonameid":2660691,"name":"Fusio","admin3":"5323"},{"geonameid":2660602,"name":"Giumaglio","admin3":"5317"},{"geonameid":2660560,"name":"Gordevio","admin3":"5324"},{"geonameid":2659865,"name":"Lodano","admin3":"5317"},{"geonameid":2659795,"name":"Maggia","admin3":"5317"},{"geonameid":2659647,"name":"Moghegno","admin3":"5317"},{"geonameid":2659241,"name":"Peccia","admin3":"5323"},{"geonameid":2658562,"name":"Someo","admin3":"5317"}],"admin3":[{"geonameid":7285125,"name":"Avegno Gordevio","admin3":"5324"},{"geonameid":7285298,"name":"Bosco/Gurin","admin3":"5304"},{"geonameid":7285427,"name":"Campo (Vallemaggia)","admin3":"5307"},{"geonameid":7285453,"name":"Cerentino","admin3":"5309"},{"geonameid":7285458,"name":"Cevio","admin3":"5310"},{"geonameid":7286292,"name":"Lavizzara","admin3":"5323"},{"geonameid":7286357,"name":"Linescio","admin3":"5315"},{"geonameid":7286417,"name":"Maggia","admin3":"5317"}],"alternateNames":[]},"__N_SSG":true}