{"pageProps":{"locale":"en","admin2":{"geonameid":5306233,"name":"Navajo County","country":"US","admin1":"AZ","admin2":"017","admin3":"","latitude":"35.3996300","longitude":"-110.3214000"},"admin1":{"geonameid":5551752,"name":"Arizona","admin1":"AZ","localeAltName":"Arizona"},"locations":[{"geonameid":5289812,"name":"Cibecue","admin3":""},{"geonameid":5292715,"name":"Dilkon","admin3":""},{"geonameid":5294698,"name":"First Mesa","admin3":""},{"geonameid":7261418,"name":"Heber-Overgaard","admin3":""},{"geonameid":5284580,"name":"Holbrook","admin3":""},{"geonameid":5300182,"name":"Joseph City","admin3":""},{"geonameid":5300830,"name":"Kayenta","admin3":""},{"geonameid":5301442,"name":"Lake of the Woods","admin3":""},{"geonameid":5301981,"name":"Linden","admin3":""},{"geonameid":7315177,"name":"North Fork","admin3":""},{"geonameid":5309135,"name":"Pinetop-Lakeside","admin3":""},{"geonameid":5314245,"name":"Show Low","admin3":""},{"geonameid":5314943,"name":"Snowflake","admin3":""},{"geonameid":5316960,"name":"Taylor","admin3":""},{"geonameid":5320655,"name":"White Mountain Lake","admin3":""},{"geonameid":5320800,"name":"Whiteriver","admin3":""},{"geonameid":5321473,"name":"Winslow","admin3":""}],"admin3":[{"geonameid":11788806,"name":"City of Winslow","admin3":"11788806"},{"geonameid":11789037,"name":"City of Show Low","admin3":"11789037"},{"geonameid":11789042,"name":"City of Holbrook","admin3":"11789042"}],"alternateNames":[{"alternatenameId":1979309,"geonameid":5551752,"isoLanguage":"en","alternateName":"Arizona","isPreferredName":true,"isShortName":true,"isColloquial":false,"isHistoric":false}]},"__N_SSG":true}