{"pageProps":{"locale":"en","admin2":{"geonameid":5308878,"name":"Pima County","country":"US","admin1":"AZ","admin2":"019","admin3":"","latitude":"32.0973800","longitude":"-111.7899500"},"admin1":{"geonameid":5551752,"name":"Arizona","admin1":"AZ","localeAltName":"Arizona"},"locations":[{"geonameid":5550996,"name":"Ajo","admin3":""},{"geonameid":5551650,"name":"Arivaca Junction","admin3":""},{"geonameid":5552323,"name":"Avra Valley","admin3":""},{"geonameid":5288661,"name":"Casas Adobes","admin3":""},{"geonameid":5288784,"name":"Catalina","admin3":""},{"geonameid":5288786,"name":"Catalina Foothills","admin3":""},{"geonameid":5290925,"name":"Corona de Tucson","admin3":""},{"geonameid":5293183,"name":"Drexel Heights","admin3":""},{"geonameid":5293796,"name":"East Sahuarita","admin3":""},{"geonameid":5294937,"name":"Flowing Wells","admin3":""},{"geonameid":5296802,"name":"Green Valley","admin3":""},{"geonameid":5303705,"name":"Marana","admin3":""},{"geonameid":5307540,"name":"Oro Valley","admin3":""},{"geonameid":5308778,"name":"Picture Rocks","admin3":""},{"geonameid":5312544,"name":"Sahuarita","admin3":""},{"geonameid":5313737,"name":"Sells","admin3":""},{"geonameid":5315313,"name":"South Tucson","admin3":""},{"geonameid":5316172,"name":"Summit","admin3":""},{"geonameid":5316890,"name":"Tanque Verde","admin3":""},{"geonameid":5317377,"name":"Three Points","admin3":""},{"geonameid":5317867,"name":"Tortolita","admin3":""},{"geonameid":5318313,"name":"Tucson","admin3":""},{"geonameid":5318320,"name":"Tucson Estates","admin3":""},{"geonameid":5319311,"name":"Vail","admin3":""},{"geonameid":7262440,"name":"Valencia West","admin3":""}],"admin3":[],"alternateNames":[{"alternatenameId":1979309,"geonameid":5551752,"isoLanguage":"en","alternateName":"Arizona","isPreferredName":true,"isShortName":true,"isColloquial":false,"isHistoric":false}]},"__N_SSG":true}