{"pageProps":{"locale":"en","admin2":{"geonameid":3333126,"name":"Blackburn with Darwen","country":"GB","admin1":"ENG","admin2":"A8","admin3":"","latitude":"53.6666700","longitude":"-2.4666700","localeAltName":"Blackburn with Darwen"},"admin1":{"geonameid":6269131,"name":"England","admin1":"ENG","localeAltName":"England"},"locations":[{"geonameid":2655948,"name":"Belmont"},{"geonameid":2655524,"name":"Blackburn"},{"geonameid":2651495,"name":"Darwen"},{"geonameid":2650227,"name":"Edgworth"},{"geonameid":2649558,"name":"Feniscowles"},{"geonameid":2643528,"name":"Lower Darwen"},{"geonameid":2642855,"name":"Meadowbank"},{"geonameid":2635328,"name":"Turton"}],"admin3":[{"geonameid":7294199,"name":"Yate and Pickup Bank","admin3":"00EX006"},{"geonameid":7296559,"name":"Livesey","admin3":"00EX002"},{"geonameid":7299745,"name":"North Turton","admin3":"00EX003"},{"geonameid":7299746,"name":"Pleasington","admin3":"00EX004"},{"geonameid":7300542,"name":"Eccleshill","admin3":"00EX001"},{"geonameid":7301700,"name":"Tockholes","admin3":"00EX005"}],"alternateNames":[{"alternatenameId":8666548,"geonameid":3333126,"isoLanguage":"en","alternateName":"Blackburn with Darwen","isPreferredName":true,"isShortName":true,"isColloquial":false,"isHistoric":false},{"alternatenameId":1626647,"geonameid":6269131,"isoLanguage":"en","alternateName":"England","isPreferredName":true,"isShortName":true,"isColloquial":false,"isHistoric":false}]},"__N_SSG":true}