{"pageProps":{"locale":"ro","admin2":{"geonameid":8334795,"name":"Municipiul Timişoara","country":"RO","admin1":"36","admin2":"155243","admin3":"","latitude":"45.7564100","longitude":"21.2297400"},"admin1":{"geonameid":665091,"name":"Timiş","admin1":"36"},"locations":[{"geonameid":684968,"name":"Besenic","admin3":""},{"geonameid":684419,"name":"Bogda","admin3":""},{"geonameid":681965,"name":"Ciarda Roșie","admin3":""},{"geonameid":681091,"name":"Colonia Banschi","admin3":""},{"geonameid":681076,"name":"Colonia Kende","admin3":""},{"geonameid":680199,"name":"Crişana","admin3":""},{"geonameid":10172995,"name":"Elisabetin","admin3":""},{"geonameid":677919,"name":"Fratelia","admin3":""},{"geonameid":677900,"name":"Freidorf","admin3":""},{"geonameid":10172980,"name":"Girocului","admin3":""},{"geonameid":676319,"name":"Hanu Roşu","admin3":""},{"geonameid":670451,"name":"Plopi","admin3":""},{"geonameid":668679,"name":"Ronaț","admin3":""},{"geonameid":665087,"name":"Timişoara","admin3":""}],"admin3":[],"alternateNames":[]},"__N_SSG":true}