{"pageProps":{"locale":"en","admin2":{"geonameid":2759151,"name":"Gemeente Bergen","country":"NL","admin1":"07","admin2":"0373","admin3":"","latitude":"52.6578300","longitude":"4.6761000","localeAltName":"Bergen"},"admin1":{"geonameid":2749879,"name":"Provincie Noord-Holland","admin1":"07","localeAltName":null},"locations":[{"geonameid":2760149,"name":"Aagtdorp","admin3":"","localeAltName":null},{"geonameid":2759154,"name":"Bergen","admin3":"","localeAltName":null},{"geonameid":2759150,"name":"Bergen aan Zee","admin3":"","localeAltName":null},{"geonameid":2758357,"name":"Bregtdorp","admin3":"","localeAltName":null},{"geonameid":2758020,"name":"Camperduin","admin3":"","localeAltName":null},{"geonameid":2757979,"name":"Catrijp","admin3":"","localeAltName":null},{"geonameid":2756302,"name":"Egmond aan den Hoef","admin3":"","localeAltName":null},{"geonameid":2756301,"name":"Egmond aan Zee","admin3":"","localeAltName":null},{"geonameid":2756299,"name":"Egmond-Binnen","admin3":"","localeAltName":null},{"geonameid":2755266,"name":"Groet","admin3":"","localeAltName":null},{"geonameid":2754833,"name":"Hargen","admin3":"","localeAltName":null},{"geonameid":2754173,"name":"Het Woud","admin3":"","localeAltName":null},{"geonameid":2749534,"name":"Oostdorp","admin3":"","localeAltName":null},{"geonameid":2748053,"name":"Rinnegom","admin3":"","localeAltName":null},{"geonameid":2747492,"name":"Schoorl","admin3":"","localeAltName":null},{"geonameid":2744365,"name":"Wimmenum","admin3":"","localeAltName":null},{"geonameid":2744032,"name":"Zanegeest","admin3":"","localeAltName":null}],"admin3":[],"alternateNames":[{"alternatenameId":2426343,"geonameid":2759151,"isoLanguage":"en","alternateName":"Bergen","isPreferredName":true,"isShortName":true,"isColloquial":false,"isHistoric":false}]},"__N_SSG":true}