{"pageProps":{"locale":"de","admin2":{"geonameid":2658792,"name":"Wahlkreis Sarganserland","country":"CH","admin1":"SG","admin2":"1725","admin3":"","latitude":"47.0500000","longitude":"9.4333300","localeAltName":"Sarganserland"},"admin1":{"geonameid":2658821,"name":"Kanton St. Gallen","admin1":"SG","localeAltName":null},"locations":[{"geonameid":2661644,"name":"Bad Ragaz","admin3":"3291","localeAltName":null},{"geonameid":2660747,"name":"Flums","admin3":"3292","localeAltName":null},{"geonameid":2659122,"name":"Quarten","admin3":"3295","localeAltName":null},{"geonameid":2658793,"name":"Sargans","admin3":"3296","localeAltName":null},{"geonameid":2658183,"name":"Vättis","admin3":"3294","localeAltName":null},{"geonameid":2658061,"name":"Walenstadt","admin3":"3298","localeAltName":null}],"admin3":[{"geonameid":7285136,"name":"Bad Ragaz","admin3":"3291","localeAltName":null},{"geonameid":7285844,"name":"Flums","admin3":"3292","localeAltName":null},{"geonameid":7286481,"name":"Mels","admin3":"3293"},{"geonameid":7286787,"name":"Pfäfers","admin3":"3294","localeAltName":null},{"geonameid":7286845,"name":"Quarten","admin3":"3295","localeAltName":null},{"geonameid":7287053,"name":"Sargans","admin3":"3296","localeAltName":null},{"geonameid":7287482,"name":"Vilters-Wangs","admin3":"3297"},{"geonameid":7287525,"name":"Walenstadt","admin3":"3298","localeAltName":null}],"alternateNames":[{"alternatenameId":8792548,"geonameid":2658792,"isoLanguage":"de","alternateName":"Sarganserland","isPreferredName":true,"isShortName":true,"isColloquial":false,"isHistoric":false}]},"__N_SSG":true}