{"pageProps":{"locale":"en","admin2":{"geonameid":5182201,"name":"Bucks County","country":"US","admin1":"PA","admin2":"017","admin3":"","latitude":"40.3369400","longitude":"-75.1068700","localeAltName":null},"admin1":{"geonameid":6254927,"name":"Pennsylvania","admin1":"PA","localeAltName":"Pennsylvania"},"locations":[{"geonameid":5179641,"name":"Bedminster","admin3":"04976","localeAltName":null},{"geonameid":5179995,"name":"Bensalem","admin3":"05616","localeAltName":null},{"geonameid":5181688,"name":"Bristol","admin3":"08760","localeAltName":null},{"geonameid":7258044,"name":"Brittany Farms-Highlands","admin3":"53304","localeAltName":null},{"geonameid":5183803,"name":"Chalfont","admin3":"12504","localeAltName":null},{"geonameid":5184359,"name":"Churchville","admin3":"54688","localeAltName":null},{"geonameid":5185480,"name":"Cornwells Heights","admin3":"05616","localeAltName":null},{"geonameid":5186053,"name":"Croydon","admin3":"08768","localeAltName":null},{"geonameid":5187247,"name":"Doylestown","admin3":"19784","localeAltName":null},{"geonameid":5187443,"name":"Dublin","admin3":"20104","localeAltName":null},{"geonameid":5188243,"name":"Eddington","admin3":"05616","localeAltName":null},{"geonameid":5189091,"name":"Fairless Hills","admin3":"25112","localeAltName":null},{"geonameid":5189420,"name":"Feasterville","admin3":"45112","localeAltName":null},{"geonameid":5194498,"name":"Hulmeville","admin3":"36192","localeAltName":null},{"geonameid":5195068,"name":"Ivyland","admin3":"37304","localeAltName":null},{"geonameid":5197140,"name":"Langhorne","admin3":"41392","localeAltName":null},{"geonameid":5197145,"name":"Langhorne Manor","admin3":"41416","localeAltName":null},{"geonameid":5197796,"name":"Levittown","admin3":"08768","localeAltName":null},{"geonameid":5201126,"name":"Milford Square","admin3":"49384","localeAltName":null},{"geonameid":5201996,"name":"Morrisville","admin3":"51144","localeAltName":null},{"geonameid":5203118,"name":"New Britain","admin3":"53296","localeAltName":null},{"geonameid":5203197,"name":"New Hope","admin3":"53712","localeAltName":null},{"geonameid":5203354,"name":"Newtown","admin3":"54184","localeAltName":null},{"geonameid":5203369,"name":"Newtown Grant","admin3":"54192","localeAltName":null},{"geonameid":5205451,"name":"Penndel","admin3":"58936","localeAltName":null},{"geonameid":5205638,"name":"Perkasie","admin3":"59384","localeAltName":null},{"geonameid":5206647,"name":"Plumsteadville","admin3":"61616","localeAltName":null},{"geonameid":5207381,"name":"Quakertown","admin3":"63048","localeAltName":null},{"geonameid":5208166,"name":"Richboro","admin3":"54688","localeAltName":null},{"geonameid":5208198,"name":"Richlandtown","admin3":"64584","localeAltName":null},{"geonameid":5208300,"name":"Riegelsville","admin3":"64856","localeAltName":null},{"geonameid":5211420,"name":"Sellersville","admin3":"69248","localeAltName":null},{"geonameid":5212286,"name":"Silverdale","admin3":"70744","localeAltName":null},{"geonameid":5213257,"name":"Spinnerstown","admin3":"49384","localeAltName":null},{"geonameid":5215317,"name":"Telford","admin3":"76304","localeAltName":null},{"geonameid":5215664,"name":"Tinicum","admin3":"76784","localeAltName":null},{"geonameid":5216000,"name":"Trevose","admin3":"05616","localeAltName":null},{"geonameid":5216206,"name":"Trumbauersville","admin3":"77704","localeAltName":null},{"geonameid":5216241,"name":"Tullytown","admin3":"77744","localeAltName":null},{"geonameid":5217238,"name":"Village Shires","admin3":"54688","localeAltName":null},{"geonameid":5217970,"name":"Warminster Heights","admin3":"80952","localeAltName":null},{"geonameid":5219994,"name":"Woodbourne","admin3":"49120","localeAltName":null},{"geonameid":5220093,"name":"Woodside","admin3":"44968","localeAltName":null},{"geonameid":5220281,"name":"Yardley","admin3":"86920","localeAltName":null}],"admin3":[{"geonameid":5179646,"name":"Township of Bedminster","admin3":"04976","localeAltName":null},{"geonameid":5179989,"name":"Township of Bensalem","admin3":"05616","localeAltName":null},{"geonameid":5181631,"name":"Township of Bridgeton","admin3":"08592"},{"geonameid":5181699,"name":"Borough of Bristol","admin3":"08760","localeAltName":null},{"geonameid":5181700,"name":"Township of Bristol","admin3":"08768","localeAltName":null},{"geonameid":5182189,"name":"Township of Buckingham","admin3":"09816"},{"geonameid":5183809,"name":"Borough of Chalfont","admin3":"12504","localeAltName":null},{"geonameid":5187259,"name":"Borough of Doylestown","admin3":"19784","localeAltName":null},{"geonameid":5187260,"name":"Township of Doylestown","admin3":"19792"},{"geonameid":5187450,"name":"Borough of Dublin","admin3":"20104","localeAltName":null},{"geonameid":5187603,"name":"Township of Durham","admin3":"20480"},{"geonameid":5188039,"name":"Township of East Rockhill","admin3":"21760"},{"geonameid":5189318,"name":"Township of Falls","admin3":"25112","localeAltName":null},{"geonameid":5192951,"name":"Township of Haycock","admin3":"33224"},{"geonameid":5193750,"name":"Township of Hilltown","admin3":"34952"},{"geonameid":5194501,"name":"Borough of Hulmeville","admin3":"36192","localeAltName":null},{"geonameid":5195070,"name":"Borough of Ivyland","admin3":"37304","localeAltName":null},{"geonameid":5197146,"name":"Borough of Langhorne Manor","admin3":"41416","localeAltName":null},{"geonameid":5197151,"name":"Borough of Langhorne","admin3":"41392","localeAltName":null},{"geonameid":5199131,"name":"Township of Lower Makefield","admin3":"44968","localeAltName":null},{"geonameid":5199177,"name":"Township of Lower Southampton","admin3":"45112","localeAltName":null},{"geonameid":5201043,"name":"Township of Middletown","admin3":"49120","localeAltName":null},{"geonameid":5201128,"name":"Township of Milford","admin3":"49384","localeAltName":null},{"geonameid":5201999,"name":"Borough of Morrisville","admin3":"51144","localeAltName":null},{"geonameid":5203119,"name":"Borough of New Britain","admin3":"53296","localeAltName":null},{"geonameid":5203120,"name":"Township of New Britain","admin3":"53304","localeAltName":null},{"geonameid":5203204,"name":"Borough of New Hope","admin3":"53712","localeAltName":null},{"geonameid":5203374,"name":"Borough of Newtown","admin3":"54184","localeAltName":null},{"geonameid":5203375,"name":"Township of Newtown","admin3":"54192","localeAltName":null},{"geonameid":5203480,"name":"Township of Nockamixon","admin3":"54576"},{"geonameid":5203818,"name":"Township of Northampton","admin3":"54688","localeAltName":null},{"geonameid":5205452,"name":"Borough of Penndel","admin3":"58936","localeAltName":null},{"geonameid":5205641,"name":"Borough of Perkasie","admin3":"59384","localeAltName":null},{"geonameid":5206646,"name":"Township of Plumstead","admin3":"61616","localeAltName":null},{"geonameid":5207389,"name":"Borough of Quakertown","admin3":"63048","localeAltName":null},{"geonameid":5208194,"name":"Township of Richland","admin3":"64536"},{"geonameid":5208201,"name":"Borough of Richlandtown","admin3":"64584","localeAltName":null},{"geonameid":5208302,"name":"Borough of Riegelsville","admin3":"64856","localeAltName":null},{"geonameid":5211423,"name":"Borough of Sellersville","admin3":"69248","localeAltName":null},{"geonameid":5212289,"name":"Borough of Silverdale","admin3":"70744","localeAltName":null},{"geonameid":5212841,"name":"Township of Solebury","admin3":"71752"},{"geonameid":5213476,"name":"Township of Springfield","admin3":"73016"},{"geonameid":5215320,"name":"Borough of Telford","admin3":"76304","localeAltName":null},{"geonameid":5215669,"name":"Township of Tinicum","admin3":"76784","localeAltName":null},{"geonameid":5216207,"name":"Borough of Trumbauersville","admin3":"77704","localeAltName":null},{"geonameid":5216242,"name":"Borough of Tullytown","admin3":"77744","localeAltName":null},{"geonameid":5216847,"name":"Township of Upper Makefield","admin3":"79128"},{"geonameid":5216904,"name":"Township of Upper Southampton","admin3":"79296"},{"geonameid":5217975,"name":"Township of Warminster","admin3":"80952","localeAltName":null},{"geonameid":5218020,"name":"Township of Warrington","admin3":"81048"},{"geonameid":5218057,"name":"Township of Warwick","admin3":"81144"},{"geonameid":5218872,"name":"Township of West Rockhill","admin3":"83960"},{"geonameid":5220178,"name":"Township of Wrightstown","admin3":"86624"},{"geonameid":5220291,"name":"Borough of Yardley","admin3":"86920","localeAltName":null}],"alternateNames":[{"alternatenameId":2186547,"geonameid":6254927,"isoLanguage":"en","alternateName":"Pennsylvania","isPreferredName":true,"isShortName":true,"isColloquial":false,"isHistoric":false}]},"__N_SSG":true}