{"pageProps":{"locale":"en","admin2":{"geonameid":4678364,"name":"Cameron County","country":"US","admin1":"TX","admin2":"061","admin3":"","latitude":"26.1515000","longitude":"-97.4528600"},"admin1":{"geonameid":4736286,"name":"Texas","admin1":"TX","localeAltName":"Texas"},"locations":[{"geonameid":4676740,"name":"Brownsville","admin3":""},{"geonameid":4678379,"name":"Cameron Park","admin3":""},{"geonameid":4678381,"name":"Cameron Park Colonia","admin3":""},{"geonameid":4682742,"name":"Combes","admin3":""},{"geonameid":4689240,"name":"Encantada-Ranchito-El Calaboz","admin3":""},{"geonameid":4694990,"name":"Green Valley Farms","admin3":""},{"geonameid":4696233,"name":"Harlingen","admin3":""},{"geonameid":4703938,"name":"La Feria","admin3":""},{"geonameid":4704067,"name":"La Paloma","admin3":""},{"geonameid":4704298,"name":"Laguna Heights","admin3":""},{"geonameid":4704307,"name":"Laguna Vista","admin3":""},{"geonameid":7315368,"name":"Las Palmas II","admin3":""},{"geonameid":4705564,"name":"Laureles","admin3":""},{"geonameid":4707932,"name":"Los Fresnos","admin3":""},{"geonameid":4707945,"name":"Los Indios","admin3":""},{"geonameid":4716655,"name":"Olmito","admin3":""},{"geonameid":4717275,"name":"Palm Valley","admin3":""},{"geonameid":4720060,"name":"Port Isabel","admin3":""},{"geonameid":4720672,"name":"Primera","admin3":""},{"geonameid":4721444,"name":"Rancho Viejo","admin3":""},{"geonameid":4722843,"name":"Rio Hondo","admin3":""},{"geonameid":4726290,"name":"San Benito","admin3":""},{"geonameid":4727076,"name":"Santa Rosa","admin3":""},{"geonameid":4733103,"name":"South Padre Island","admin3":""},{"geonameid":4733129,"name":"South Point","admin3":""}],"admin3":[{"geonameid":7173079,"name":"City of Brownsville","admin3":"7173079"},{"geonameid":7173701,"name":"City of Los Fresnos","admin3":"7173701"},{"geonameid":7173756,"name":"City of Rio Hondo","admin3":"7173756"},{"geonameid":7174043,"name":"City of Palm Valley","admin3":"7174043"},{"geonameid":7174193,"name":"City of La Feria","admin3":"7174193"},{"geonameid":7174274,"name":"Town of Bayview","admin3":"7174274"},{"geonameid":7174928,"name":"Town of Primera","admin3":"7174928"},{"geonameid":7174946,"name":"Town of Rancho Viejo","admin3":"7174946"},{"geonameid":7175206,"name":"Town of Indian Lake","admin3":"7175206"},{"geonameid":7175270,"name":"Town of Laguna Vista","admin3":"7175270"},{"geonameid":7175328,"name":"Town of Los Indios","admin3":"7175328"},{"geonameid":7175637,"name":"Town of Combes","admin3":"7175637"},{"geonameid":7175660,"name":"Town of Santa Rosa","admin3":"7175660"},{"geonameid":7175710,"name":"Town of South Padre Island","admin3":"7175710"},{"geonameid":7175976,"name":"Village of Rangerville","admin3":"7175976"},{"geonameid":11788342,"name":"City of Harlingen","admin3":"11788342"},{"geonameid":11788816,"name":"City of San Benito","admin3":"11788816"},{"geonameid":11789024,"name":"City of Port Isabel","admin3":"11789024"}],"alternateNames":[{"alternatenameId":1614423,"geonameid":4736286,"isoLanguage":"en","alternateName":"Texas","isPreferredName":true,"isShortName":true,"isColloquial":false,"isHistoric":false}]},"__N_SSG":true}