{"pageProps":{"locale":"en","admin2":{"geonameid":4682688,"name":"Comal County","country":"US","admin1":"TX","admin2":"091","admin3":"","latitude":"29.8081800","longitude":"-98.2782500"},"admin1":{"geonameid":4736286,"name":"Texas","admin1":"TX","localeAltName":"Texas"},"locations":[{"geonameid":4677392,"name":"Bulverde","admin3":""},{"geonameid":4678901,"name":"Canyon Lake","admin3":""},{"geonameid":4692962,"name":"Garden Ridge","admin3":""},{"geonameid":4714131,"name":"New Braunfels","admin3":""}],"admin3":[{"geonameid":7173089,"name":"City of Bulverde","admin3":"7173089"},{"geonameid":7173410,"name":"City of Fair Oaks Ranch","admin3":"7173410"},{"geonameid":7173474,"name":"City of Garden Ridge","admin3":"7173474"},{"geonameid":7173941,"name":"City of New Braunfels","admin3":"7173941"}],"alternateNames":[{"alternatenameId":1614423,"geonameid":4736286,"isoLanguage":"en","alternateName":"Texas","isPreferredName":true,"isShortName":true,"isColloquial":false,"isHistoric":false}]},"__N_SSG":true}