{"pageProps":{"locale":"en","admin2":{"geonameid":4697444,"name":"Hidalgo County","country":"US","admin1":"TX","admin2":"215","admin3":"","latitude":"26.3967200","longitude":"-98.1810700"},"admin1":{"geonameid":4736286,"name":"Texas","admin1":"TX","localeAltName":"Texas"},"locations":[{"geonameid":4669672,"name":"Abram","admin3":""},{"geonameid":4670074,"name":"Alamo","admin3":""},{"geonameid":4670555,"name":"Alton","admin3":""},{"geonameid":4670562,"name":"Alton North (historical)","admin3":""},{"geonameid":4680258,"name":"César Chávez","admin3":""},{"geonameid":4681542,"name":"Citrus City","admin3":""},{"geonameid":4686472,"name":"Doffing","admin3":""},{"geonameid":4686593,"name":"Donna","admin3":""},{"geonameid":4686621,"name":"Doolittle","admin3":""},{"geonameid":4688216,"name":"Edcouch","admin3":""},{"geonameid":4688275,"name":"Edinburg","admin3":""},{"geonameid":4689120,"name":"Elsa","admin3":""},{"geonameid":4696953,"name":"Heidelberg","admin3":""},{"geonameid":4697442,"name":"Hidalgo","admin3":""},{"geonameid":4699938,"name":"Indian Hills","admin3":""},{"geonameid":4703882,"name":"La Blanca","admin3":""},{"geonameid":4703972,"name":"La Homa","admin3":""},{"geonameid":4703997,"name":"La Joya","admin3":""},{"geonameid":4704188,"name":"La Villa","admin3":""},{"geonameid":4707203,"name":"Llano Grande","admin3":""},{"geonameid":4707859,"name":"Lopezville","admin3":""},{"geonameid":4709796,"name":"McAllen","admin3":""},{"geonameid":4710749,"name":"Mercedes","admin3":""},{"geonameid":4711212,"name":"Midway North","admin3":""},{"geonameid":4711221,"name":"Midway South","admin3":""},{"geonameid":4711253,"name":"Mila Doce","admin3":""},{"geonameid":4711725,"name":"Mission","admin3":""},{"geonameid":4711991,"name":"Monte Alto","admin3":""},{"geonameid":4713474,"name":"Muniz","admin3":""},{"geonameid":4713506,"name":"Murillo Colonia","admin3":""},{"geonameid":4714990,"name":"North Alamo","admin3":""},{"geonameid":4715696,"name":"Nurillo","admin3":""},{"geonameid":4716599,"name":"Olivarez","admin3":""},{"geonameid":4717326,"name":"Palmhurst","admin3":""},{"geonameid":4717339,"name":"Palmview","admin3":""},{"geonameid":4717341,"name":"Palmview South","admin3":""},{"geonameid":4718381,"name":"Penitas","admin3":""},{"geonameid":4718491,"name":"Perezville","admin3":""},{"geonameid":4718721,"name":"Pharr","admin3":""},{"geonameid":4720789,"name":"Progreso","admin3":""},{"geonameid":4726293,"name":"San Carlos","admin3":""},{"geonameid":4726440,"name":"San Juan","admin3":""},{"geonameid":4727466,"name":"Scissors","admin3":""},{"geonameid":4732870,"name":"South Alamo","admin3":""},{"geonameid":4734864,"name":"Sullivan City","admin3":""},{"geonameid":4740629,"name":"Weslaco","admin3":""},{"geonameid":4741057,"name":"West Sharyland","admin3":""}],"admin3":[{"geonameid":7172900,"name":"City of Alamo","admin3":"7172900"},{"geonameid":7172913,"name":"City of Alton","admin3":"7172913"},{"geonameid":7173315,"name":"City of Donna","admin3":"7173315"},{"geonameid":7173351,"name":"City of Edcouch","admin3":"7173351"},{"geonameid":7173356,"name":"City of Edinburg","admin3":"7173356"},{"geonameid":7173381,"name":"City of Elsa","admin3":"7173381"},{"geonameid":7173536,"name":"City of Granjeno","admin3":"7173536"},{"geonameid":7173826,"name":"City of McAllen","admin3":"7173826"},{"geonameid":7173843,"name":"City of Mercedes","admin3":"7173843"},{"geonameid":7173873,"name":"City of Mission","admin3":"7173873"},{"geonameid":7174044,"name":"City of Palmhurst","admin3":"7174044"},{"geonameid":7174045,"name":"City of Palmview","admin3":"7174045"},{"geonameid":7174073,"name":"City of Penitas","admin3":"7174073"},{"geonameid":7174083,"name":"City of Pharr","admin3":"7174083"},{"geonameid":7174140,"name":"City of Progreso","admin3":"7174140"},{"geonameid":7174141,"name":"City of Progreso Lakes","admin3":"7174141"},{"geonameid":7174198,"name":"City of La Joya","admin3":"7174198"},{"geonameid":7174208,"name":"City of La Villa","admin3":"7174208"},{"geonameid":11788628,"name":"City of San Juan","admin3":"11788628"},{"geonameid":11788743,"name":"City of Weslaco","admin3":"11788743"},{"geonameid":11788958,"name":"City of Sullivan City","admin3":"11788958"}],"alternateNames":[{"alternatenameId":1614423,"geonameid":4736286,"isoLanguage":"en","alternateName":"Texas","isPreferredName":true,"isShortName":true,"isColloquial":false,"isHistoric":false}]},"__N_SSG":true}