{"pageProps":{"locale":"en","admin2":{"geonameid":4706143,"name":"Liberty County","country":"US","admin1":"TX","admin2":"291","admin3":"","latitude":"30.1516100","longitude":"-94.8122100"},"admin1":{"geonameid":4736286,"name":"Texas","admin1":"TX","localeAltName":"Texas"},"locations":[{"geonameid":4670667,"name":"Ames","admin3":""},{"geonameid":4682032,"name":"Cleveland","admin3":""},{"geonameid":4685449,"name":"Dayton","admin3":""},{"geonameid":4706088,"name":"Liberty","admin3":""}],"admin3":[{"geonameid":7172872,"name":"City of Cleveland","admin3":"7172872"},{"geonameid":7172922,"name":"City of Ames","admin3":"7172922"},{"geonameid":7173273,"name":"City of Daisetta","admin3":"7173273"},{"geonameid":7173286,"name":"City of Dayton Lakes","admin3":"7173286"},{"geonameid":7173306,"name":"City of Devers","admin3":"7173306"},{"geonameid":7173573,"name":"City of Hardin","admin3":"7173573"},{"geonameid":7173982,"name":"City of North Cleveland","admin3":"7173982"},{"geonameid":7174102,"name":"City of Plum Grove","admin3":"7174102"},{"geonameid":7175239,"name":"Town of Kenefick","admin3":"7175239"}],"alternateNames":[{"alternatenameId":1614423,"geonameid":4736286,"isoLanguage":"en","alternateName":"Texas","isPreferredName":true,"isShortName":true,"isColloquial":false,"isHistoric":false}]},"__N_SSG":true}