{"pageProps":{"locale":"en","admin2":{"geonameid":4717644,"name":"Parker County","country":"US","admin1":"TX","admin2":"367","admin3":"","latitude":"32.7776500","longitude":"-97.8051000"},"admin1":{"geonameid":4736286,"name":"Texas","admin1":"TX","localeAltName":"Texas"},"locations":[{"geonameid":4670165,"name":"Aledo","admin3":""},{"geonameid":4670886,"name":"Annetta","admin3":""},{"geonameid":4699323,"name":"Hudson Oaks","admin3":""},{"geonameid":4722242,"name":"Reno","admin3":""},{"geonameid":4733940,"name":"Springtown","admin3":""},{"geonameid":4740364,"name":"Weatherford","admin3":""},{"geonameid":8478942,"name":"Western Lake","admin3":""},{"geonameid":4742296,"name":"Willow Park","admin3":""}],"admin3":[{"geonameid":7172906,"name":"City of Aledo","admin3":"7172906"},{"geonameid":7173225,"name":"City of Cool","admin3":"7173225"},{"geonameid":7173648,"name":"City of Hudson Oaks","admin3":"7173648"},{"geonameid":7173736,"name":"City of Reno","admin3":"7173736"},{"geonameid":7174488,"name":"City of Springtown","admin3":"7174488"},{"geonameid":7174663,"name":"City of Weatherford","admin3":"7174663"},{"geonameid":7174711,"name":"City of Willow Park","admin3":"7174711"},{"geonameid":7174788,"name":"Town of Annetta","admin3":"7174788"},{"geonameid":7174789,"name":"Town of Annetta North","admin3":"7174789"},{"geonameid":7174790,"name":"Town of Annetta South","admin3":"7174790"},{"geonameid":7175410,"name":"Town of Millsap","admin3":"7175410"},{"geonameid":7175656,"name":"Town of Sanctuary","admin3":"7175656"}],"alternateNames":[{"alternatenameId":1614423,"geonameid":4736286,"isoLanguage":"en","alternateName":"Texas","isPreferredName":true,"isShortName":true,"isColloquial":false,"isHistoric":false}]},"__N_SSG":true}