{"pageProps":{"locale":"en","admin2":{"geonameid":4729130,"name":"Smith County","country":"US","admin1":"TX","admin2":"423","admin3":"","latitude":"32.3750400","longitude":"-95.2691800"},"admin1":{"geonameid":4736286,"name":"Texas","admin1":"TX","localeAltName":"Texas"},"locations":[{"geonameid":4677344,"name":"Bullard","admin3":""},{"geonameid":4697485,"name":"Hideaway","admin3":""},{"geonameid":4706386,"name":"Lindale","admin3":""},{"geonameid":4737691,"name":"Troup","admin3":""},{"geonameid":4738214,"name":"Tyler","admin3":""},{"geonameid":4741641,"name":"Whitehouse","admin3":""}],"admin3":[{"geonameid":7172951,"name":"City of Arp","admin3":"7172951"},{"geonameid":7173615,"name":"City of Hideaway","admin3":"7173615"},{"geonameid":7173942,"name":"City of New Chapel Hill","admin3":"7173942"},{"geonameid":7173976,"name":"City of Noonday","admin3":"7173976"},{"geonameid":7174346,"name":"Town of Bullard","admin3":"7174346"},{"geonameid":7174590,"name":"City of Troup","admin3":"7174590"},{"geonameid":7174609,"name":"City of Tyler","admin3":"7174609"},{"geonameid":7174704,"name":"City of Whitehouse","admin3":"7174704"},{"geonameid":7175311,"name":"City of Lindale","admin3":"7175311"},{"geonameid":7175897,"name":"Town of Winona","admin3":"7175897"}],"alternateNames":[{"alternatenameId":1614423,"geonameid":4736286,"isoLanguage":"en","alternateName":"Texas","isPreferredName":true,"isShortName":true,"isColloquial":false,"isHistoric":false}]},"__N_SSG":true}