{"pageProps":{"locale":"en","admin2":{"geonameid":4734150,"name":"Starr County","country":"US","admin1":"TX","admin2":"427","admin3":"","latitude":"26.5621500","longitude":"-98.7384000"},"admin1":{"geonameid":4736286,"name":"Texas","admin1":"TX","localeAltName":"Texas"},"locations":[{"geonameid":4689429,"name":"Escobares","admin3":""},{"geonameid":4703965,"name":"La Grulla","admin3":""},{"geonameid":4705417,"name":"Las Lomas","admin3":""},{"geonameid":4722837,"name":"Rio Grande City","admin3":""},{"geonameid":8479429,"name":"Roma","admin3":""},{"geonameid":4723763,"name":"Roma-Los Saenz","admin3":""}],"admin3":[{"geonameid":7173397,"name":"City of Escobares","admin3":"7173397"},{"geonameid":7173782,"name":"City of Roma","admin3":"7173782"},{"geonameid":7174196,"name":"City of La Grulla","admin3":"7174196"},{"geonameid":11788909,"name":"City of Rio Grande City","admin3":"11788909"}],"alternateNames":[{"alternatenameId":1614423,"geonameid":4736286,"isoLanguage":"en","alternateName":"Texas","isPreferredName":true,"isShortName":true,"isColloquial":false,"isHistoric":false}]},"__N_SSG":true}