{"pageProps":{"locale":"en","admin2":{"geonameid":4735729,"name":"Taylor County","country":"US","admin1":"TX","admin2":"441","admin3":"","latitude":"32.3014700","longitude":"-99.8901200"},"admin1":{"geonameid":4736286,"name":"Texas","admin1":"TX","localeAltName":"Texas"},"locations":[{"geonameid":4669635,"name":"Abilene","admin3":""},{"geonameid":5526164,"name":"Merkel","admin3":""},{"geonameid":4720275,"name":"Potosi","admin3":""},{"geonameid":4738207,"name":"Tye","admin3":""}],"admin3":[{"geonameid":7172891,"name":"City of Abilene","admin3":"7172891"},{"geonameid":7174345,"name":"Town of Buffalo Gap","admin3":"7174345"},{"geonameid":7174604,"name":"City of Tuscola","admin3":"7174604"},{"geonameid":7174608,"name":"City of Tye","admin3":"7174608"},{"geonameid":7175203,"name":"Town of Impact","admin3":"7175203"},{"geonameid":7175293,"name":"Town of Lawn","admin3":"7175293"},{"geonameid":7175394,"name":"Town of Merkel","admin3":"7175394"},{"geonameid":7175797,"name":"Town of Trent","admin3":"7175797"}],"alternateNames":[{"alternatenameId":1614423,"geonameid":4736286,"isoLanguage":"en","alternateName":"Texas","isPreferredName":true,"isShortName":true,"isColloquial":false,"isHistoric":false}]},"__N_SSG":true}