{"pageProps":{"locale":"en","admin2":{"geonameid":4212736,"name":"Newton County","country":"US","admin1":"GA","admin2":"217","admin3":"","latitude":"33.5550500","longitude":"-83.8501900","localeAltName":null},"admin1":{"geonameid":4197000,"name":"Georgia","admin1":"GA","localeAltName":"Georgia"},"locations":[{"geonameid":4189785,"name":"Covington","admin3":"","localeAltName":null},{"geonameid":4212661,"name":"Newborn","admin3":"","localeAltName":null},{"geonameid":4213772,"name":"Oakwood","admin3":"","localeAltName":null},{"geonameid":4214538,"name":"Oxford","admin3":"","localeAltName":null},{"geonameid":4217100,"name":"Porterdale","admin3":"","localeAltName":null}],"admin3":[{"geonameid":7170090,"name":"City of Porterdale","admin3":"7170090"},{"geonameid":7170405,"name":"City of Mansfield","admin3":"7170405"},{"geonameid":7317821,"name":"City of Covington","admin3":"7317821"},{"geonameid":7317921,"name":"City of Oxford","admin3":"7317921"}],"alternateNames":[{"alternatenameId":2089570,"geonameid":4197000,"isoLanguage":"en","alternateName":"Georgia","isPreferredName":true,"isShortName":true,"isColloquial":false,"isHistoric":false}]},"__N_SSG":true}