{"pageProps":{"locale":"de","admin2":{"geonameid":6458788,"name":"Bezirk Zurzach","country":"CH","admin1":"AG","admin2":"1911","admin3":"","latitude":"47.5618200","longitude":"8.2802000"},"admin1":{"geonameid":2661876,"name":"Kanton Aargau","admin1":"AG"},"locations":[{"geonameid":2657891,"name":"Bad Zurzach","admin3":"4323"},{"geonameid":2659394,"name":"Endingen","admin3":"4305"},{"geonameid":2660201,"name":"Kaiserstuhl","admin3":"4308"},{"geonameid":2660135,"name":"Klingnau","admin3":"4309"},{"geonameid":2660123,"name":"Koblenz","admin3":"4310"},{"geonameid":2659967,"name":"Leibstadt","admin3":"4311"},{"geonameid":2659074,"name":"Rekingen","admin3":"4315"},{"geonameid":2658928,"name":"Rümikon","admin3":"4317"},{"geonameid":2658603,"name":"Siglistorf","admin3":"4319"},{"geonameid":2658410,"name":"Tegerfelden","admin3":"4320"}],"admin3":[{"geonameid":2660985,"name":"Döttingen","admin3":"4304"},{"geonameid":2661431,"name":"Böttstein","admin3":"4303"},{"geonameid":7285137,"name":"Bad Zurzach","admin3":"4323"},{"geonameid":7285139,"name":"Baldingen","admin3":"4301"},{"geonameid":7285274,"name":"Böbikon","admin3":"4302"},{"geonameid":7285727,"name":"Endingen","admin3":"4305"},{"geonameid":7285832,"name":"Fisibach","admin3":"4306"},{"geonameid":7285877,"name":"Full-Reuenthal","admin3":"4307"},{"geonameid":7286171,"name":"Kaiserstuhl","admin3":"4308"},{"geonameid":7286208,"name":"Klingnau","admin3":"4309"},{"geonameid":7286213,"name":"Koblenz","admin3":"4310"},{"geonameid":7286303,"name":"Leibstadt","admin3":"4311"},{"geonameid":7286312,"name":"Lengnau","admin3":"4312"},{"geonameid":7286337,"name":"Leuggern","admin3":"4313"},{"geonameid":7286479,"name":"Mellikon","admin3":"4314"},{"geonameid":7286880,"name":"Rekingen","admin3":"4315"},{"geonameid":7286910,"name":"Rietheim","admin3":"4316"},{"geonameid":7286981,"name":"Rümikon","admin3":"4317"},{"geonameid":7287103,"name":"Schneisingen","admin3":"4318"},{"geonameid":7287167,"name":"Siglistorf","admin3":"4319"},{"geonameid":7287286,"name":"Tegerfelden","admin3":"4320"},{"geonameid":7287595,"name":"Wislikofen","admin3":"4322"}],"alternateNames":[]},"__N_SSG":true}