{"pageProps":{"locale":"de","admin2":{"geonameid":6458860,"name":"Bezirk Laufenburg","country":"CH","admin1":"AG","admin2":"1906","admin3":"","latitude":"47.5184400","longitude":"8.0387800"},"admin1":{"geonameid":2661876,"name":"Kanton Aargau","admin1":"AG"},"locations":[{"geonameid":2661424,"name":"Bözen","admin3":"4183"},{"geonameid":2660927,"name":"Eiken","admin3":"4161"},{"geonameid":2660846,"name":"Etzgen","admin3":"4184"},{"geonameid":2660716,"name":"Frick","admin3":"4163"},{"geonameid":2660607,"name":"Gipf-Oberfrick","admin3":"4165"},{"geonameid":2660234,"name":"Ittenthal","admin3":"4169"},{"geonameid":2660200,"name":"Kaisten","admin3":"4169"},{"geonameid":2659999,"name":"Laufenburg","admin3":"4170"},{"geonameid":2659375,"name":"Oberhofen bei Etzgen","admin3":"4184"},{"geonameid":2658687,"name":"Schwaderloch","admin3":"4176"},{"geonameid":2658452,"name":"Sulz","admin3":"4170"},{"geonameid":2657967,"name":"Wittnau","admin3":"4181"},{"geonameid":2657959,"name":"Wölflinswil","admin3":"4182"},{"geonameid":2657933,"name":"Zeihen","admin3":"4183"}],"admin3":[{"geonameid":7285714,"name":"Eiken","admin3":"4161"},{"geonameid":7285871,"name":"Frick","admin3":"4163"},{"geonameid":7285893,"name":"Gansingen","admin3":"4164"},{"geonameid":7285919,"name":"Gipf-Oberfrick","admin3":"4165"},{"geonameid":7286077,"name":"Herznach","admin3":"4166"},{"geonameid":7286112,"name":"Hornussen","admin3":"4167"},{"geonameid":7286172,"name":"Kaisten","admin3":"4169"},{"geonameid":7286278,"name":"Laufenburg","admin3":"4170"},{"geonameid":7286586,"name":"Münchwilen","admin3":"4172"},{"geonameid":7286695,"name":"Oberhof","admin3":"4173"},{"geonameid":7286730,"name":"Oeschgen","admin3":"4175"},{"geonameid":7287118,"name":"Schwaderloch","admin3":"4176"},{"geonameid":7287181,"name":"Sisseln","admin3":"4177"},{"geonameid":7287360,"name":"Ueken","admin3":"4179"},{"geonameid":7287599,"name":"Wittnau","admin3":"4181"},{"geonameid":7287606,"name":"Wölflinswil","admin3":"4182"},{"geonameid":7287626,"name":"Zeihen","admin3":"4183"},{"geonameid":8260345,"name":"Mettauertal","admin3":"4184"}],"alternateNames":[]},"__N_SSG":true}