{"pageProps":{"locale":"en","admin2":{"geonameid":4993986,"name":"Gladwin County","country":"US","admin1":"MI","admin2":"051","admin3":"","latitude":"43.9906700","longitude":"-84.3882500","localeAltName":null},"admin1":{"geonameid":5001836,"name":"Michigan","admin1":"MI","localeAltName":"Michigan"},"locations":[{"geonameid":4985465,"name":"Beaverton","admin3":"06660","localeAltName":null},{"geonameid":4993985,"name":"Gladwin","admin3":"32320","localeAltName":null}],"admin3":[{"geonameid":4832548,"name":"Township of Grim","admin3":"35340"},{"geonameid":4985466,"name":"City of Beaverton","admin3":"06660","localeAltName":null},{"geonameid":4985467,"name":"Township of Beaverton","admin3":"06680"},{"geonameid":4985703,"name":"Township of Bentley","admin3":"07360"},{"geonameid":4986085,"name":"Township of Billings","admin3":"08360"},{"geonameid":4986693,"name":"Township of Bourret","admin3":"09720"},{"geonameid":4987273,"name":"Township of Buckeye","admin3":"11440"},{"geonameid":4987534,"name":"Township of Butman","admin3":"12180"},{"geonameid":4989090,"name":"Township of Clement","admin3":"16360"},{"geonameid":4993988,"name":"City of Gladwin","admin3":"32320","localeAltName":null},{"geonameid":4993989,"name":"Township of Gladwin","admin3":"32340"},{"geonameid":4994881,"name":"Township of Grout","admin3":"35620"},{"geonameid":4995602,"name":"Township of Hay","admin3":"37300"},{"geonameid":5007987,"name":"Township of Sage","admin3":"70500"},{"geonameid":5009348,"name":"Township of Secord","admin3":"72240"},{"geonameid":5009689,"name":"Township of Sherman","admin3":"73140"},{"geonameid":5012297,"name":"Township of Tobacco","admin3":"79860"}],"alternateNames":[{"alternatenameId":2124820,"geonameid":5001836,"isoLanguage":"en","alternateName":"Michigan","isPreferredName":true,"isShortName":true,"isColloquial":false,"isHistoric":false}]},"__N_SSG":true}