{"pageProps":{"locale":"en","admin2":{"geonameid":4999081,"name":"Lenawee County","country":"US","admin1":"MI","admin2":"091","admin3":"","latitude":"41.8950800","longitude":"-84.0663600","localeAltName":null},"admin1":{"geonameid":5001836,"name":"Michigan","admin1":"MI","localeAltName":"Michigan"},"locations":[{"geonameid":4983802,"name":"Addison","admin3":"69340","localeAltName":null},{"geonameid":4983811,"name":"Adrian","admin3":"00440","localeAltName":null},{"geonameid":4986398,"name":"Blissfield","admin3":"09020","localeAltName":null},{"geonameid":4987028,"name":"Britton","admin3":"68540","localeAltName":null},{"geonameid":4989132,"name":"Clinton","admin3":"16500","localeAltName":null},{"geonameid":4990598,"name":"Deerfield","admin3":"21200","localeAltName":null},{"geonameid":4996718,"name":"Hudson","admin3":"39720","localeAltName":null},{"geonameid":7259381,"name":"Manitou Beach-Devils Lake","admin3":"69340","localeAltName":null},{"geonameid":5002495,"name":"Morenci","admin3":"55500","localeAltName":null},{"geonameid":5004518,"name":"Onsted","admin3":"12720","localeAltName":null},{"geonameid":5011973,"name":"Tecumseh","admin3":"79120","localeAltName":null}],"admin3":[{"geonameid":4983816,"name":"City of Adrian","admin3":"00440","localeAltName":null},{"geonameid":4983817,"name":"Township of Adrian","admin3":"00460"},{"geonameid":4986399,"name":"Township of Blissfield","admin3":"09020","localeAltName":null},{"geonameid":4987730,"name":"Township of Cambridge","admin3":"12720","localeAltName":null},{"geonameid":4989147,"name":"Township of Clinton","admin3":"16500","localeAltName":null},{"geonameid":4990608,"name":"Township of Deerfield","admin3":"21200","localeAltName":null},{"geonameid":4991098,"name":"Township of Dover","admin3":"22820"},{"geonameid":4992408,"name":"Township of Fairfield","admin3":"27020"},{"geonameid":4993363,"name":"Township of Franklin","admin3":"30320"},{"geonameid":4996732,"name":"City of Hudson","admin3":"39720","localeAltName":null},{"geonameid":4996734,"name":"Township of Hudson","admin3":"39740"},{"geonameid":5000513,"name":"Charter Township of Madison","admin3":"50540"},{"geonameid":5000525,"name":"Township of Macon","admin3":"50520"},{"geonameid":5001605,"name":"Township of Medina","admin3":"52820"},{"geonameid":5002496,"name":"City of Morenci","admin3":"55500","localeAltName":null},{"geonameid":5004323,"name":"Township of Ogden","admin3":"60260"},{"geonameid":5004914,"name":"Township of Palmyra","admin3":"62240"},{"geonameid":5006750,"name":"Township of Raisin","admin3":"66840"},{"geonameid":5007165,"name":"Township of Ridgeway","admin3":"68540","localeAltName":null},{"geonameid":5007186,"name":"Township of Riga","admin3":"68580"},{"geonameid":5007508,"name":"Township of Rollin","admin3":"69340","localeAltName":null},{"geonameid":5007524,"name":"Township of Rome","admin3":"69360"},{"geonameid":5009404,"name":"Township of Seneca","admin3":"72440"},{"geonameid":5011969,"name":"City of Tecumseh","admin3":"79120","localeAltName":null},{"geonameid":5011970,"name":"Township of Tecumseh","admin3":"79140"},{"geonameid":5015544,"name":"Township of Woodstock","admin3":"88640"}],"alternateNames":[{"alternatenameId":2124820,"geonameid":5001836,"isoLanguage":"en","alternateName":"Michigan","isPreferredName":true,"isShortName":true,"isColloquial":false,"isHistoric":false}]},"__N_SSG":true}