{"pageProps":{"locale":"en","admin2":{"geonameid":3333180,"name":"Peterborough","country":"GB","admin1":"ENG","admin2":"K3","admin3":"","latitude":"52.5833300","longitude":"-0.2500000","localeAltName":"Peterborough"},"admin1":{"geonameid":6269131,"name":"England","admin1":"ENG","localeAltName":"England"},"locations":[{"geonameid":11282176,"name":"Ailsworth","admin3":"00JA001"},{"geonameid":11592806,"name":"Bainton","admin3":"00JA002"},{"geonameid":2656307,"name":"Barnack","admin3":"00JA003"},{"geonameid":2653530,"name":"Castor","admin3":"00JA006"},{"geonameid":2649788,"name":"Eye","admin3":"00JA009"},{"geonameid":2648409,"name":"Glinton","admin3":"00JA010"},{"geonameid":2647146,"name":"Helpston","admin3":"00JA011"},{"geonameid":8393974,"name":"Longthorpe","admin3":""},{"geonameid":2643039,"name":"Marholm","admin3":"00JA012"},{"geonameid":7670882,"name":"Maxey","admin3":"00JA013"},{"geonameid":2641708,"name":"Newborough","admin3":"00JA014"},{"geonameid":2641416,"name":"Northborough","admin3":"00JA015"},{"geonameid":2640885,"name":"Orton Waterville","admin3":"00JA017"},{"geonameid":2640545,"name":"Peakirk","admin3":"00JA018"},{"geonameid":2640354,"name":"Peterborough","admin3":"00JA016"},{"geonameid":2637353,"name":"Southorpe","admin3":"00JA020"},{"geonameid":2637080,"name":"Stanground","admin3":"12UE"},{"geonameid":2635994,"name":"Thorney","admin3":"00JA023"},{"geonameid":2635983,"name":"Thornhaugh","admin3":"00JA024"},{"geonameid":2635230,"name":"Ufford","admin3":"00JA025"},{"geonameid":2635095,"name":"Upton","admin3":"00JA026"},{"geonameid":2634805,"name":"Wansford","admin3":"00JA027"},{"geonameid":2633727,"name":"Wittering","admin3":"00JA028"}],"admin3":[{"geonameid":7291867,"name":"Etton","admin3":"00JA008"},{"geonameid":7293026,"name":"Newborough","admin3":"00JA014"},{"geonameid":7293058,"name":"Thornhaugh","admin3":"00JA024"},{"geonameid":7294385,"name":"Northborough","admin3":"00JA015"},{"geonameid":7294411,"name":"Bainton","admin3":"00JA002"},{"geonameid":7294412,"name":"Glinton","admin3":"00JA010"},{"geonameid":7294413,"name":"Marholm","admin3":"00JA012"},{"geonameid":7294414,"name":"Orton Waterville","admin3":"00JA017"},{"geonameid":7294418,"name":"St. Martin's Without","admin3":"00JA019"},{"geonameid":7294419,"name":"Thorney","admin3":"00JA023"},{"geonameid":7294596,"name":"Maxey","admin3":"00JA013"},{"geonameid":7294614,"name":"Upton","admin3":"00JA026"},{"geonameid":7294615,"name":"Wansford","admin3":"00JA027"},{"geonameid":7296040,"name":"Sutton","admin3":"00JA022"},{"geonameid":7296209,"name":"Borough Fen","admin3":"00JA004"},{"geonameid":7296210,"name":"Deeping Gate","admin3":"00JA007"},{"geonameid":7296479,"name":"Peakirk","admin3":"00JA018"},{"geonameid":7297570,"name":"Ufford","admin3":"00JA025"},{"geonameid":7298046,"name":"Orton Longueville","admin3":"00JA016"},{"geonameid":7299968,"name":"Ailsworth","admin3":"00JA001"},{"geonameid":7299969,"name":"Barnack","admin3":"00JA003"},{"geonameid":7299970,"name":"Bretton","admin3":"00JA005"},{"geonameid":7299971,"name":"Castor","admin3":"00JA006"},{"geonameid":7299972,"name":"Eye","admin3":"00JA009"},{"geonameid":7299973,"name":"Helpston","admin3":"00JA011"},{"geonameid":7299976,"name":"Southorpe","admin3":"00JA020"},{"geonameid":7299977,"name":"Wittering","admin3":"00JA028"},{"geonameid":7299978,"name":"Wothorpe","admin3":"00JA029"}],"alternateNames":[{"alternatenameId":8666510,"geonameid":3333180,"isoLanguage":"en","alternateName":"Peterborough","isPreferredName":true,"isShortName":true,"isColloquial":false,"isHistoric":false},{"alternatenameId":1626647,"geonameid":6269131,"isoLanguage":"en","alternateName":"England","isPreferredName":true,"isShortName":true,"isColloquial":false,"isHistoric":false}]},"__N_SSG":true}