{"pageProps":{"locale":"en","admin2":{"geonameid":3333247,"name":"Rhondda Cynon Taf","country":"GB","admin1":"WLS","admin2":"Y9","admin3":"","latitude":"51.6666700","longitude":"-3.5000000"},"admin1":{"geonameid":2634895,"name":"Wales","admin1":"WLS","localeAltName":"Wales"},"locations":[{"geonameid":2657794,"name":"Aber-nant"},{"geonameid":2657855,"name":"Aberaman"},{"geonameid":2657837,"name":"Abercynon"},{"geonameid":2657835,"name":"Aberdare"},{"geonameid":3345316,"name":"Beddau"},{"geonameid":10345351,"name":"Bryncae"},{"geonameid":3345314,"name":"Brynna"},{"geonameid":11593134,"name":"Church Village"},{"geonameid":3345284,"name":"Clydach Vale"},{"geonameid":2652649,"name":"Coedely"},{"geonameid":3345318,"name":"Cwmaman"},{"geonameid":3345319,"name":"Cwmbach"},{"geonameid":3345322,"name":"Cwmdare"},{"geonameid":3345324,"name":"Cwmparc"},{"geonameid":2649531,"name":"Ferndale"},{"geonameid":2648670,"name":"Gilfach Goch"},{"geonameid":2647113,"name":"Hendreforgan"},{"geonameid":2646830,"name":"Hirwaun"},{"geonameid":2643994,"name":"Llanharan"},{"geonameid":2643993,"name":"Llanharry"},{"geonameid":2643937,"name":"Llantrisant"},{"geonameid":2643934,"name":"Llantwit Fardre"},{"geonameid":2643910,"name":"Llanwonno"},{"geonameid":3345320,"name":"Llwydcoed"},{"geonameid":2643874,"name":"Llwynypia"},{"geonameid":2643222,"name":"Maerdy"},{"geonameid":9072607,"name":"Miskin"},{"geonameid":2642116,"name":"Mountain Ash"},{"geonameid":2641898,"name":"Nantgarw"},{"geonameid":2640478,"name":"Penderyn"},{"geonameid":8260056,"name":"Pentre"},{"geonameid":3345321,"name":"Penywaun"},{"geonameid":8260052,"name":"Pontyclun"},{"geonameid":9072606,"name":"Pontygwaith"},{"geonameid":2640104,"name":"Pontypridd"},{"geonameid":2640056,"name":"Porth"},{"geonameid":3345327,"name":"Rhigos"},{"geonameid":2639447,"name":"Rhondda"},{"geonameid":2636326,"name":"Taff's Well"},{"geonameid":3345283,"name":"Tonypandy"},{"geonameid":2635689,"name":"Tonyrefail"},{"geonameid":2635533,"name":"Treforest"},{"geonameid":2635525,"name":"Trehafod"},{"geonameid":2635523,"name":"Treherbert"},{"geonameid":2635496,"name":"Treorchy"},{"geonameid":8063565,"name":"Ynyswen"},{"geonameid":10171166,"name":"Ynysybwl"}],"admin3":[{"geonameid":7291220,"name":"Aberaman","admin3":"00PF001"},{"geonameid":7292206,"name":"Aberdare","admin3":"00PF003"},{"geonameid":7292207,"name":"Cwmbach","admin3":"00PF004"},{"geonameid":7292208,"name":"Cwm Clydach","admin3":"00PF005"},{"geonameid":7292209,"name":"Llantrisant","admin3":"00PF012"},{"geonameid":7292210,"name":"Maerdy","admin3":"00PF016"},{"geonameid":7292211,"name":"Pentre","admin3":"00PF019"},{"geonameid":7292212,"name":"Porth","admin3":"00PF024"},{"geonameid":7292213,"name":"Tonypandy","admin3":"00PF027"},{"geonameid":7292214,"name":"Tylorstown","admin3":"00PF033"},{"geonameid":7292215,"name":"Ynyshir","admin3":"00PF034"},{"geonameid":7293930,"name":"Llwydcoed","admin3":"00PF014"},{"geonameid":7297061,"name":"Ferndale","admin3":"00PF007"},{"geonameid":7297062,"name":"Hirwaun","admin3":"00PF009"},{"geonameid":7297063,"name":"Penrhiwceiber","admin3":"00PF018"},{"geonameid":7297064,"name":"Pen-y-Waun","admin3":"00PF021"},{"geonameid":7297065,"name":"Taffs Well","admin3":"00PF026"},{"geonameid":7297066,"name":"Ynysybwl and Coed-y-Cwm","admin3":"00PF035"},{"geonameid":7297734,"name":"Abercynon","admin3":"00PF002"},{"geonameid":7297735,"name":"Gilfach Goch","admin3":"00PF008"},{"geonameid":7298397,"name":"Pontypridd","admin3":"00PF023"},{"geonameid":7298815,"name":"Cymmer","admin3":"00PF006"},{"geonameid":7298816,"name":"Llanharry","admin3":"00PF011"},{"geonameid":7298840,"name":"Pen-y-Graig","admin3":"00PF020"},{"geonameid":7298841,"name":"Pont-y-Clun","admin3":"00PF022"},{"geonameid":7300739,"name":"Rhigos","admin3":"00PF025"},{"geonameid":7300740,"name":"Trehafod","admin3":"00PF029"},{"geonameid":7300741,"name":"Treherbert","admin3":"00PF030"},{"geonameid":7300742,"name":"Trealaw","admin3":"00PF031"},{"geonameid":7300743,"name":"Treorchy","admin3":"00PF032"},{"geonameid":7300744,"name":"Ystrad","admin3":"00PF036"},{"geonameid":7301036,"name":"Llanharan","admin3":"00PF010"},{"geonameid":7301037,"name":"Llantwit Fardre","admin3":"00PF013"},{"geonameid":7301038,"name":"Llwyn-y-Pia","admin3":"00PF015"},{"geonameid":7301039,"name":"Mountain Ash","admin3":"00PF017"},{"geonameid":7301040,"name":"Tonyrefail","admin3":"00PF028"}],"alternateNames":[{"alternatenameId":1626654,"geonameid":2634895,"isoLanguage":"en","alternateName":"Wales","isPreferredName":true,"isShortName":true,"isColloquial":false,"isHistoric":false}]},"__N_SSG":true}