{"pageProps":{"locale":"en","admin2":{"geonameid":8260050,"name":"Bodegraven-Reeuwijk","country":"NL","admin1":"11","admin2":"1901","admin3":"","latitude":"52.0654100","longitude":"4.7663400"},"admin1":{"geonameid":2743698,"name":"Provincie Zuid-Holland","admin1":"11"},"locations":[{"geonameid":2758765,"name":"Bodegraven","admin3":""},{"geonameid":2756614,"name":"Driebruggen","admin3":""},{"geonameid":2753949,"name":"Hogebrug","admin3":""},{"geonameid":2751901,"name":"Langeweide","admin3":""},{"geonameid":2750997,"name":"Meije","admin3":""},{"geonameid":2750895,"name":"Middelburg","admin3":""},{"geonameid":2750269,"name":"Nieuwerbrug aan den Rijn","admin3":""},{"geonameid":2749802,"name":"Noordzijde","admin3":""},{"geonameid":2749175,"name":"Oud-Bodegraven","admin3":""},{"geonameid":2748907,"name":"Oud-Reeuwijk","admin3":""},{"geonameid":2748972,"name":"Oudeweg","admin3":""},{"geonameid":2748882,"name":"Oukoop","admin3":""},{"geonameid":2748548,"name":"Platteweg","admin3":""},{"geonameid":2748330,"name":"Randenburg","admin3":""},{"geonameid":2748280,"name":"Reeuwijk","admin3":""},{"geonameid":2748277,"name":"Reeuwijk-Dorp","admin3":""},{"geonameid":2747118,"name":"Sluipwijk","admin3":""},{"geonameid":2746495,"name":"Tempel","admin3":""},{"geonameid":2746236,"name":"Tol","admin3":""},{"geonameid":2745113,"name":"Waarder","admin3":""},{"geonameid":2744887,"name":"Weijland","admin3":""},{"geonameid":2744885,"name":"Weijpoort","admin3":""},{"geonameid":2743630,"name":"Zuidzijde","admin3":""}],"admin3":[],"alternateNames":[{"alternatenameId":11907789,"geonameid":2743698,"isoLanguage":"de","alternateName":"SÃ¼dholland","isPreferredName":true,"isShortName":true,"isColloquial":false,"isHistoric":false}]},"__N_SSG":true}