{"pageProps":{"locale":"en","admin2":{"geonameid":2759820,"name":"Gemeente Amersfoort","country":"NL","admin1":"09","admin2":"0307","admin3":"","latitude":"52.1737500","longitude":"5.3895400"},"admin1":{"geonameid":2745909,"name":"Provincie Utrecht","admin1":"09"},"locations":[{"geonameid":2759821,"name":"Amersfoort","admin3":""},{"geonameid":2759123,"name":"Berghkwartier","admin3":""},{"geonameid":2758973,"name":"Bieshaar","admin3":""},{"geonameid":2758043,"name":"Buurtsdijk","admin3":""},{"geonameid":6888798,"name":"Calveen","admin3":""},{"geonameid":2757944,"name":"Coelhorst","admin3":""},{"geonameid":2757744,"name":"De Brand","admin3":""},{"geonameid":2757225,"name":"Den Ham","admin3":""},{"geonameid":2753686,"name":"Hoogland","admin3":""},{"geonameid":2753685,"name":"Hooglanderveen","admin3":""},{"geonameid":2751927,"name":"Langenoord","admin3":""},{"geonameid":2751685,"name":"Leusder-Kwartier","admin3":""},{"geonameid":2751639,"name":"Liendert","admin3":""},{"geonameid":2750175,"name":"Nieuwland","admin3":""},{"geonameid":2748757,"name":"Palestina","admin3":""},{"geonameid":6950811,"name":"Randenbroek","admin3":""},{"geonameid":2747475,"name":"Schothorst","admin3":""},{"geonameid":2747440,"name":"Schuilenburg","admin3":""},{"geonameid":2747029,"name":"Soesterkwartier","admin3":""},{"geonameid":11395832,"name":"Stoutenburg-Noord","admin3":""},{"geonameid":2743968,"name":"Zeldert","admin3":""},{"geonameid":6942520,"name":"Zielhorst","admin3":""}],"admin3":[],"alternateNames":[{"alternatenameId":11907793,"geonameid":2745909,"isoLanguage":"de","alternateName":"Utrecht","isPreferredName":true,"isShortName":true,"isColloquial":false,"isHistoric":false}]},"__N_SSG":true}