{"pageProps":{"locale":"en","admin2":{"geonameid":2748978,"name":"Gemeente Oudewater","country":"NL","admin1":"09","admin2":"0589","admin3":"","latitude":"52.0284000","longitude":"4.8624300"},"admin1":{"geonameid":2745909,"name":"Provincie Utrecht","admin1":"09"},"locations":[{"geonameid":2756885,"name":"Diemerbroek","admin3":""},{"geonameid":2755483,"name":"Goejanverwelle","admin3":""},{"geonameid":2754490,"name":"Hekendorp","admin3":""},{"geonameid":2753999,"name":"Hoenkoop","admin3":""},{"geonameid":2751946,"name":"Lange Linschoten","admin3":""},{"geonameid":2748979,"name":"Oudewater","admin3":""},{"geonameid":2748733,"name":"Papekop","admin3":""},{"geonameid":2747845,"name":"Ruigeweide","admin3":""},{"geonameid":2747054,"name":"Snelrewaard","admin3":""},{"geonameid":2746520,"name":"Tappersheul","admin3":""},{"geonameid":2745410,"name":"Vliet","admin3":""}],"admin3":[],"alternateNames":[{"alternatenameId":11907793,"geonameid":2745909,"isoLanguage":"de","alternateName":"Utrecht","isPreferredName":true,"isShortName":true,"isColloquial":false,"isHistoric":false}]},"__N_SSG":true}