{"pageProps":{"locale":"it","admin2":{"geonameid":3183087,"name":"Provincia di Ancona","country":"IT","admin1":"10","admin2":"AN","admin3":"","latitude":"43.5500000","longitude":"13.1666700","localeAltName":"Ancona"},"admin1":{"geonameid":3174004,"name":"Marche","admin1":"10","localeAltName":"Marche"},"locations":[{"geonameid":8950064,"name":"Abbadia","admin3":"042034","localeAltName":null},{"geonameid":3183411,"name":"Agugliano","admin3":"042001","localeAltName":null},{"geonameid":3183089,"name":"Ancona","admin3":"042002","localeAltName":null},{"geonameid":3176033,"name":"Angeli","admin3":"042040","localeAltName":null},{"geonameid":9036197,"name":"Angeli di Mergo","admin3":"042024","localeAltName":null},{"geonameid":8950295,"name":"Angeli Stazione","admin3":"042040","localeAltName":null},{"geonameid":3182916,"name":"Arcevia","admin3":"042003","localeAltName":null},{"geonameid":8950319,"name":"Aspio","admin3":"042002","localeAltName":null},{"geonameid":6535608,"name":"Barbara","admin3":"042004","localeAltName":null},{"geonameid":3182186,"name":"Belvedere Ostrense","admin3":"042005","localeAltName":null},{"geonameid":3181843,"name":"Borghetto","admin3":"042030","localeAltName":null},{"geonameid":3181102,"name":"Camerano","admin3":"042006","localeAltName":null},{"geonameid":3181098,"name":"Camerata Picena","admin3":"042007","localeAltName":null},{"geonameid":8949140,"name":"Campocavallo","admin3":"042034","localeAltName":null},{"geonameid":3180870,"name":"Candia","admin3":"042002","localeAltName":null},{"geonameid":3179842,"name":"Casine","admin3":"042035","localeAltName":null},{"geonameid":3179697,"name":"Castelfidardo","admin3":"042010","localeAltName":null},{"geonameid":6535609,"name":"Castelleone di Suasa","admin3":"042011","localeAltName":null},{"geonameid":3179037,"name":"Cerreto d'Esi","admin3":"042013","localeAltName":null},{"geonameid":3178855,"name":"Chiaravalle","admin3":"042014","localeAltName":null},{"geonameid":3178094,"name":"Corinaldo","admin3":"042015","localeAltName":null},{"geonameid":3177684,"name":"Cupramontana","admin3":"042016","localeAltName":null},{"geonameid":3177315,"name":"Fabriano","admin3":"042017","localeAltName":null},{"geonameid":3177250,"name":"Falconara Marittima","admin3":"042018","localeAltName":null},{"geonameid":3176988,"name":"Filottrano","admin3":"042019","localeAltName":null},{"geonameid":3175628,"name":"Jesi","admin3":"042021","localeAltName":null},{"geonameid":8949547,"name":"Le Cozze","admin3":"042030","localeAltName":null},{"geonameid":3174915,"name":"Le Grazie di Ancona","admin3":"042002","localeAltName":null},{"geonameid":3174567,"name":"Loreto","admin3":"042022","localeAltName":null},{"geonameid":9036118,"name":"Loreto Stazione","admin3":"042022","localeAltName":null},{"geonameid":8949014,"name":"Macine-Borgo Loreto","admin3":"042012","localeAltName":null},{"geonameid":6956139,"name":"Marcelli","admin3":"042032","localeAltName":null},{"geonameid":3173930,"name":"Marina di Montemarciano","admin3":"042027","localeAltName":null},{"geonameid":3173907,"name":"Marischio","admin3":"042017","localeAltName":null},{"geonameid":3173308,"name":"Moie","admin3":"042023","localeAltName":null},{"geonameid":3173125,"name":"Monsano","admin3":"042025","localeAltName":null},{"geonameid":3172741,"name":"Monte San Vito","admin3":"042030","localeAltName":null},{"geonameid":3173007,"name":"Montecarotto","admin3":"042026","localeAltName":null},{"geonameid":3172845,"name":"Montemarciano","admin3":"042027","localeAltName":null},{"geonameid":3172791,"name":"Monterado","admin3":"042050","localeAltName":null},{"geonameid":8687794,"name":"Montignano-Marzocca","admin3":"042045","localeAltName":null},{"geonameid":3172640,"name":"Montoro","admin3":"042019","localeAltName":null},{"geonameid":3172570,"name":"Morro d'Alba","admin3":"042031","localeAltName":null},{"geonameid":3172157,"name":"Numana","admin3":"042032","localeAltName":null},{"geonameid":3172109,"name":"Offagna","admin3":"042033","localeAltName":null},{"geonameid":3171848,"name":"Osimo","admin3":"042034","localeAltName":null},{"geonameid":8949315,"name":"Osteria","admin3":"042046","localeAltName":null},{"geonameid":3171788,"name":"Ostra","admin3":"042035","localeAltName":null},{"geonameid":3171787,"name":"Ostra Vetere","admin3":"042036","localeAltName":null},{"geonameid":8949345,"name":"Padiglione","admin3":"042034","localeAltName":null},{"geonameid":9036114,"name":"Passo Ripe","admin3":"042050","localeAltName":null},{"geonameid":8949805,"name":"Piane","admin3":"042007","localeAltName":null},{"geonameid":9036168,"name":"Pianello","admin3":"042008","localeAltName":null},{"geonameid":8949419,"name":"Pianello","admin3":"042035","localeAltName":null},{"geonameid":6951029,"name":"Pianello Vallesina","admin3":"042029","localeAltName":null},{"geonameid":8949696,"name":"Piano di Frassineta","admin3":"042044","localeAltName":null},{"geonameid":3170798,"name":"Pietra la Croce","admin3":"042002","localeAltName":null},{"geonameid":3170688,"name":"Pinocchio di Ancona","admin3":"042002","localeAltName":null},{"geonameid":3170357,"name":"Polverigi","admin3":"042038","localeAltName":null},{"geonameid":8950384,"name":"Ponte dell'Aspio","admin3":"042034","localeAltName":null},{"geonameid":3170058,"name":"Posatora","admin3":"042002","localeAltName":null},{"geonameid":3169297,"name":"Ripe","admin3":"042050","localeAltName":null},{"geonameid":8949089,"name":"San Biagio","admin3":"042034","localeAltName":null},{"geonameid":3168094,"name":"San Marcello","admin3":"042041","localeAltName":null},{"geonameid":8949850,"name":"San Rocchetto","admin3":"042010","localeAltName":null},{"geonameid":8949692,"name":"San Sabino","admin3":"042034","localeAltName":null},{"geonameid":3167467,"name":"Sant'Angelo","admin3":"042045","localeAltName":null},{"geonameid":3167526,"name":"Santa Maria Nuova","admin3":"042043","localeAltName":null},{"geonameid":3167068,"name":"Sassoferrato","admin3":"042044","localeAltName":null},{"geonameid":8950051,"name":"Scorcelletti","admin3":"042008","localeAltName":null},{"geonameid":3166740,"name":"Senigallia","admin3":"042045","localeAltName":null},{"geonameid":3166678,"name":"Serra de' Conti","admin3":"042046","localeAltName":null},{"geonameid":3166655,"name":"Serra San Quirico","admin3":"042047","localeAltName":null},{"geonameid":3166498,"name":"Sirolo","admin3":"042048","localeAltName":null},{"geonameid":3166216,"name":"Staffolo","admin3":"042049","localeAltName":null},{"geonameid":8948924,"name":"Stazione","admin3":"042008","localeAltName":null},{"geonameid":3164789,"name":"Vallone","admin3":"042045","localeAltName":null},{"geonameid":8950114,"name":"Varano","admin3":"042002","localeAltName":null},{"geonameid":8948959,"name":"Villa Musone","admin3":"042022","localeAltName":null},{"geonameid":8949811,"name":"Villaggio Taunus","admin3":"042032","localeAltName":null}],"admin3":[{"geonameid":6536775,"name":"Arcevia","admin3":"042003","localeAltName":null},{"geonameid":6536776,"name":"Corinaldo","admin3":"042015","localeAltName":null},{"geonameid":6536777,"name":"Cupramontana","admin3":"042016","localeAltName":null},{"geonameid":6536778,"name":"Filottrano","admin3":"042019","localeAltName":null},{"geonameid":6536779,"name":"Osimo","admin3":"042034","localeAltName":null},{"geonameid":6536780,"name":"Sassoferrato","admin3":"042044","localeAltName":null},{"geonameid":6536781,"name":"Senigallia","admin3":"042045","localeAltName":null},{"geonameid":6536782,"name":"Serra de' Conti","admin3":"042046","localeAltName":null},{"geonameid":6536783,"name":"Serra San Quirico","admin3":"042047","localeAltName":null},{"geonameid":6538507,"name":"Camerano","admin3":"042006","localeAltName":null},{"geonameid":6538508,"name":"Castelbellino","admin3":"042008","localeAltName":null},{"geonameid":6538510,"name":"Castelfidardo","admin3":"042010","localeAltName":null},{"geonameid":6538511,"name":"Cerreto d'Esi","admin3":"042013","localeAltName":null},{"geonameid":6538512,"name":"Mergo","admin3":"042024","localeAltName":null},{"geonameid":6538514,"name":"Numana","admin3":"042032","localeAltName":null},{"geonameid":6538515,"name":"Ostra Vetere","admin3":"042036","localeAltName":null},{"geonameid":6539723,"name":"Chiaravalle","admin3":"042014","localeAltName":null},{"geonameid":6539724,"name":"Falconara Marittima","admin3":"042018","localeAltName":null},{"geonameid":6539725,"name":"Genga","admin3":"042020"},{"geonameid":6539726,"name":"Loreto","admin3":"042022","localeAltName":null},{"geonameid":6539727,"name":"Monte San Vito","admin3":"042030","localeAltName":null},{"geonameid":6539728,"name":"Ostra","admin3":"042035","localeAltName":null},{"geonameid":6539952,"name":"Montemarciano","admin3":"042027","localeAltName":null},{"geonameid":6539954,"name":"Staffolo","admin3":"042049","localeAltName":null},{"geonameid":6540449,"name":"Fabriano","admin3":"042017","localeAltName":null},{"geonameid":6540450,"name":"Monsano","admin3":"042025","localeAltName":null},{"geonameid":6540451,"name":"Sirolo","admin3":"042048","localeAltName":null},{"geonameid":6541055,"name":"Agugliano","admin3":"042001","localeAltName":null},{"geonameid":6541056,"name":"Camerata Picena","admin3":"042007","localeAltName":null},{"geonameid":6541057,"name":"Castelplanio","admin3":"042012","localeAltName":null},{"geonameid":6541058,"name":"Montecarotto","admin3":"042026","localeAltName":null},{"geonameid":6541059,"name":"Morro d'Alba","admin3":"042031","localeAltName":null},{"geonameid":6541060,"name":"Offagna","admin3":"042033","localeAltName":null},{"geonameid":6541061,"name":"Polverigi","admin3":"042038","localeAltName":null},{"geonameid":6541062,"name":"San Marcello","admin3":"042041","localeAltName":null},{"geonameid":6541474,"name":"Jesi","admin3":"042021","localeAltName":null},{"geonameid":6541544,"name":"Rosora","admin3":"042040","localeAltName":null},{"geonameid":6541605,"name":"Belvedere Ostrense","admin3":"042005","localeAltName":null},{"geonameid":6541637,"name":"Santa Maria Nuova","admin3":"042043","localeAltName":null},{"geonameid":6541841,"name":"Maiolati Spontini","admin3":"042023","localeAltName":null},{"geonameid":6541842,"name":"Monte Roberto","admin3":"042029","localeAltName":null},{"geonameid":6542126,"name":"Ancona","admin3":"042002","localeAltName":null},{"geonameid":6542254,"name":"San Paolo di Jesi","admin3":"042042"},{"geonameid":6543588,"name":"Barbara","admin3":"042004","localeAltName":null},{"geonameid":6543589,"name":"Castelleone di Suasa","admin3":"042011","localeAltName":null},{"geonameid":6543590,"name":"Poggio San Marcello","admin3":"042037"},{"geonameid":8659021,"name":"Trecastelli","admin3":"042050","localeAltName":null}],"alternateNames":[{"alternatenameId":1350130,"geonameid":3174004,"isoLanguage":"it","alternateName":"Marche","isPreferredName":true,"isShortName":true,"isColloquial":false,"isHistoric":false},{"alternatenameId":1350131,"geonameid":3174004,"isoLanguage":"en","alternateName":"The Marches","isPreferredName":true,"isShortName":true,"isColloquial":false,"isHistoric":false},{"alternatenameId":1352906,"geonameid":3183087,"isoLanguage":"it","alternateName":"Ancona","isPreferredName":true,"isShortName":true,"isColloquial":false,"isHistoric":false}]},"__N_SSG":true}