{"pageProps":{"locale":"en","admin2":{"geonameid":4531901,"name":"Caddo County","country":"US","admin1":"OK","admin2":"015","admin3":"","latitude":"35.1743800","longitude":"-98.3751500","localeAltName":null},"admin1":{"geonameid":4544379,"name":"Oklahoma","admin1":"OK","localeAltName":"Oklahoma"},"locations":[{"geonameid":4529353,"name":"Anadarko","admin3":"","localeAltName":null},{"geonameid":4529424,"name":"Apache","admin3":"","localeAltName":null},{"geonameid":4530700,"name":"Binger","admin3":"","localeAltName":null},{"geonameid":4532357,"name":"Carnegie","admin3":"","localeAltName":null},{"geonameid":4534687,"name":"Cyril","admin3":"","localeAltName":null},{"geonameid":4537096,"name":"Fort Cobb","admin3":"","localeAltName":null},{"geonameid":4538801,"name":"Hinton","admin3":"","localeAltName":null}],"admin3":[],"alternateNames":[{"alternatenameId":2089556,"geonameid":4544379,"isoLanguage":"en","alternateName":"Oklahoma","isPreferredName":true,"isShortName":true,"isColloquial":false,"isHistoric":false}]},"__N_SSG":true}