{"pageProps":{"locale":"en","admin2":{"geonameid":4534444,"name":"Creek County","country":"US","admin1":"OK","admin2":"037","admin3":"","latitude":"35.9026800","longitude":"-96.3709400","localeAltName":null},"admin1":{"geonameid":4544379,"name":"Oklahoma","admin1":"OK","localeAltName":"Oklahoma"},"locations":[{"geonameid":4531370,"name":"Bristow","admin3":"","localeAltName":null},{"geonameid":4535287,"name":"Drumright","admin3":"","localeAltName":null},{"geonameid":4540109,"name":"Kellyville","admin3":"","localeAltName":null},{"geonameid":4540261,"name":"Kiefer","admin3":"","localeAltName":null},{"geonameid":4542113,"name":"Mannford","admin3":"","localeAltName":null},{"geonameid":4543082,"name":"Mounds","admin3":"","localeAltName":null},{"geonameid":4544252,"name":"Oilton","admin3":"","localeAltName":null},{"geonameid":4550881,"name":"Sapulpa","admin3":"","localeAltName":null}],"admin3":[],"alternateNames":[{"alternatenameId":2089556,"geonameid":4544379,"isoLanguage":"en","alternateName":"Oklahoma","isPreferredName":true,"isShortName":true,"isColloquial":false,"isHistoric":false}]},"__N_SSG":true}