{"pageProps":{"locale":"en","admin2":{"geonameid":4534948,"name":"Delaware County","country":"US","admin1":"OK","admin2":"041","admin3":"","latitude":"36.4082000","longitude":"-94.8026500","localeAltName":null},"admin1":{"geonameid":4544379,"name":"Oklahoma","admin1":"OK","localeAltName":"Oklahoma"},"locations":[{"geonameid":4530353,"name":"Bernice","admin3":"","localeAltName":null},{"geonameid":4533683,"name":"Cleora","admin3":"","localeAltName":null},{"geonameid":4533878,"name":"Colcord","admin3":"","localeAltName":null},{"geonameid":4534096,"name":"Copeland","admin3":"","localeAltName":null},{"geonameid":4537003,"name":"Flint Creek","admin3":"","localeAltName":null},{"geonameid":4538126,"name":"Grove","admin3":"","localeAltName":null},{"geonameid":4539557,"name":"Jay","admin3":"","localeAltName":null},{"geonameid":4540051,"name":"Kansas","admin3":"","localeAltName":null},{"geonameid":4540155,"name":"Kenwood","admin3":"","localeAltName":null},{"geonameid":4555100,"name":"West Siloam Springs","admin3":"","localeAltName":null}],"admin3":[],"alternateNames":[{"alternatenameId":2089556,"geonameid":4544379,"isoLanguage":"en","alternateName":"Oklahoma","isPreferredName":true,"isShortName":true,"isColloquial":false,"isHistoric":false}]},"__N_SSG":true}