{"pageProps":{"locale":"en","admin2":{"geonameid":4540759,"name":"Le Flore County","country":"US","admin1":"OK","admin2":"079","admin3":"","latitude":"34.9003000","longitude":"-94.7033900","localeAltName":null},"admin1":{"geonameid":4544379,"name":"Oklahoma","admin1":"OK","localeAltName":"Oklahoma"},"locations":[{"geonameid":4529480,"name":"Arkoma","admin3":"","localeAltName":null},{"geonameid":4538519,"name":"Heavener","admin3":"","localeAltName":null},{"geonameid":4539113,"name":"Howe","admin3":"","localeAltName":null},{"geonameid":4547504,"name":"Panama","admin3":"","localeAltName":null},{"geonameid":4548233,"name":"Pocola","admin3":"","localeAltName":null},{"geonameid":4548363,"name":"Poteau","admin3":"","localeAltName":null},{"geonameid":4549574,"name":"Rock Island","admin3":"","localeAltName":null},{"geonameid":4551141,"name":"Shady Point","admin3":"","localeAltName":null},{"geonameid":4551934,"name":"Spiro","admin3":"","localeAltName":null},{"geonameid":4552725,"name":"Talihina","admin3":"","localeAltName":null},{"geonameid":4555925,"name":"Wister","admin3":"","localeAltName":null}],"admin3":[],"alternateNames":[{"alternatenameId":2089556,"geonameid":4544379,"isoLanguage":"en","alternateName":"Oklahoma","isPreferredName":true,"isShortName":true,"isColloquial":false,"isHistoric":false}]},"__N_SSG":true}