{"pageProps":{"locale":"en","admin2":{"geonameid":6119125,"name":"Regional District of Alberni-Clayoquot","country":"CA","admin1":"02","admin2":"5923","admin3":"","latitude":"49.2496200","longitude":"-125.3361500"},"admin1":{"geonameid":5909050,"name":"British Columbia","admin1":"02"},"locations":[{"geonameid":5882709,"name":"Ahousat","admin3":""},{"geonameid":5883093,"name":"Alberni","admin3":"5923008"},{"geonameid":5892444,"name":"Bamfield","admin3":""},{"geonameid":5913818,"name":"Cameron Heights","admin3":"5923008"},{"geonameid":5923486,"name":"Clayoquot","admin3":""},{"geonameid":5946510,"name":"Ecoole","admin3":""},{"geonameid":5949575,"name":"Estevan Point","admin3":""},{"geonameid":5974411,"name":"Hesquiat","admin3":""},{"geonameid":5988763,"name":"Kakawis","admin3":""},{"geonameid":5991845,"name":"Kildonan","admin3":""},{"geonameid":6066596,"name":"Marktosis","admin3":""},{"geonameid":6111632,"name":"Port Alberni","admin3":"5923008"},{"geonameid":6111636,"name":"Port Albion","admin3":""},{"geonameid":6137278,"name":"Sahara Heights","admin3":"5923008"},{"geonameid":6156422,"name":"Stewardson Inlet","admin3":""},{"geonameid":6354950,"name":"Tofino","admin3":"5923025"},{"geonameid":6171633,"name":"Ucluelet","admin3":"5923019"},{"geonameid":6185214,"name":"Yarksis","admin3":""}],"admin3":[{"geonameid":6167255,"name":"Tofino","admin3":"5923025"},{"geonameid":12031882,"name":"Port Alberni","admin3":"5923008"},{"geonameid":12031919,"name":"Ucluelet","admin3":"5923019"}],"alternateNames":[]},"__N_SSG":true}