{"pageProps":{"locale":"en","admin2":{"geonameid":4377844,"name":"Bollinger County","country":"US","admin1":"MO","admin2":"017","admin3":"","latitude":"37.3221900","longitude":"-90.0259500","localeAltName":null},"admin1":{"geonameid":4398678,"name":"Missouri","admin1":"MO","localeAltName":"Missouri"},"locations":[{"geonameid":4397065,"name":"Marble Hill","admin3":"44084","localeAltName":null}],"admin3":[{"geonameid":4382907,"name":"Township of Crooked Creek","admin3":"17380"},{"geonameid":4386474,"name":"Township of Filmore","admin3":"24210"},{"geonameid":4395176,"name":"Township of Liberty","admin3":"41960"},{"geonameid":4396321,"name":"Township of Lorance","admin3":"44084","localeAltName":null},{"geonameid":4407882,"name":"Township of Scopus","admin3":"66314"},{"geonameid":4412645,"name":"Township of Union","admin3":"74518"},{"geonameid":4413800,"name":"Township of Wayne","admin3":"77956"},{"geonameid":4414629,"name":"Township of Whitewater","admin3":"79594"}],"alternateNames":[{"alternatenameId":2089572,"geonameid":4398678,"isoLanguage":"en","alternateName":"Missouri","isPreferredName":true,"isShortName":true,"isColloquial":false,"isHistoric":false}]},"__N_SSG":true}