{"pageProps":{"locale":"en","admin2":{"geonameid":4381866,"name":"Cole County","country":"US","admin1":"MO","admin2":"051","admin3":"","latitude":"38.5054100","longitude":"-92.2816000","localeAltName":null},"admin1":{"geonameid":4398678,"name":"Missouri","admin1":"MO","localeAltName":"Missouri"},"locations":[{"geonameid":4392388,"name":"Jefferson City","admin3":"36764","localeAltName":null},{"geonameid":4406675,"name":"Russellville","admin3":"49844","localeAltName":null},{"geonameid":4407106,"name":"Saint Martins","admin3":"45974","localeAltName":null},{"geonameid":4411228,"name":"Taos","admin3":"42068","localeAltName":null},{"geonameid":4413557,"name":"Wardsville","admin3":"55082","localeAltName":null}],"admin3":[{"geonameid":4381402,"name":"Township of Clark","admin3":"14032"},{"geonameid":4392412,"name":"Township of Jefferson","admin3":"36764","localeAltName":null},{"geonameid":4395180,"name":"Township of Liberty","admin3":"42068","localeAltName":null},{"geonameid":4397117,"name":"Township of Marion","admin3":"45974","localeAltName":null},{"geonameid":4399036,"name":"Township of Moreau","admin3":"49844","localeAltName":null},{"geonameid":4402069,"name":"Township of Osage","admin3":"55082","localeAltName":null}],"alternateNames":[{"alternatenameId":2089572,"geonameid":4398678,"isoLanguage":"en","alternateName":"Missouri","isPreferredName":true,"isShortName":true,"isColloquial":false,"isHistoric":false}]},"__N_SSG":true}