{"pageProps":{"locale":"en","admin2":{"geonameid":4383206,"name":"Dade County","country":"US","admin1":"MO","admin2":"057","admin3":"","latitude":"37.4320400","longitude":"-93.8502900","localeAltName":null},"admin1":{"geonameid":4398678,"name":"Missouri","admin1":"MO","localeAltName":"Missouri"},"locations":[{"geonameid":4388790,"name":"Greenfield","admin3":"12502","localeAltName":null},{"geonameid":4395934,"name":"Lockwood","admin3":"43508","localeAltName":null}],"admin3":[{"geonameid":4049260,"name":"Township of Marion","admin3":"45992"},{"geonameid":4380659,"name":"Township of Cedar","admin3":"12196"},{"geonameid":4380761,"name":"Township of Center","admin3":"12502","localeAltName":null},{"geonameid":4385770,"name":"Township of Ernest","admin3":"22564"},{"geonameid":4388498,"name":"Township of Grant","admin3":"28432"},{"geonameid":4395936,"name":"Township of Lockwood","admin3":"43508","localeAltName":null},{"geonameid":4400878,"name":"Township of North Morgan","admin3":"53192"},{"geonameid":4400926,"name":"Township of North","admin3":"52868"},{"geonameid":4403250,"name":"Township of Pilgrim","admin3":"57584"},{"geonameid":4404136,"name":"Township of Polk","admin3":"58754"},{"geonameid":4406077,"name":"Township of Rock Prairie","admin3":"62732"},{"geonameid":4406746,"name":"Township of Sac","admin3":"63812"},{"geonameid":4409188,"name":"Township of Smith","admin3":"68312"},{"geonameid":4409465,"name":"Township of South Morgan","admin3":"68996"},{"geonameid":4409530,"name":"Township of South","admin3":"68618"},{"geonameid":4413685,"name":"Township of Washington","admin3":"77326"}],"alternateNames":[{"alternatenameId":2089572,"geonameid":4398678,"isoLanguage":"en","alternateName":"Missouri","isPreferredName":true,"isShortName":true,"isColloquial":false,"isHistoric":false}]},"__N_SSG":true}