{"pageProps":{"locale":"en","admin2":{"geonameid":4383368,"name":"Daviess County","country":"US","admin1":"MO","admin2":"061","admin3":"","latitude":"39.9607500","longitude":"-93.9854700","localeAltName":null},"admin1":{"geonameid":4398678,"name":"Missouri","admin1":"MO","localeAltName":"Missouri"},"locations":[{"geonameid":4387569,"name":"Gallatin","admin3":"74590","localeAltName":null},{"geonameid":4392314,"name":"Jamesport","admin3":"36350","localeAltName":null}],"admin3":[{"geonameid":4381917,"name":"Township of Colfax","admin3":"15472"},{"geonameid":4389655,"name":"Township of Harrison","admin3":"30502"},{"geonameid":4392226,"name":"Township of Jackson","admin3":"35738"},{"geonameid":4392320,"name":"Township of Jamesport","admin3":"36350","localeAltName":null},{"geonameid":4392413,"name":"Township of Jefferson","admin3":"36782"},{"geonameid":4395182,"name":"Township of Liberty","admin3":"42104"},{"geonameid":4397118,"name":"Township of Marion","admin3":"46010"},{"geonameid":4398869,"name":"Township of Monroe","admin3":"49304"},{"geonameid":4408413,"name":"Township of Sheridan","admin3":"67322"},{"geonameid":4412648,"name":"Township of Union","admin3":"74590","localeAltName":null},{"geonameid":5054060,"name":"Township of Benton","admin3":"04636"},{"geonameid":5055191,"name":"Township of Grand River","admin3":"28270"},{"geonameid":5055953,"name":"Township of Lincoln","admin3":"42698"},{"geonameid":5057142,"name":"Township of Salem","admin3":"65198"},{"geonameid":5057736,"name":"Township of Washington","admin3":"77362"}],"alternateNames":[{"alternatenameId":2089572,"geonameid":4398678,"isoLanguage":"en","alternateName":"Missouri","isPreferredName":true,"isShortName":true,"isColloquial":false,"isHistoric":false}]},"__N_SSG":true}