{"pageProps":{"locale":"en","admin2":{"geonameid":4384778,"name":"Dunklin County","country":"US","admin1":"MO","admin2":"069","admin3":"","latitude":"36.1059700","longitude":"-90.1657600","localeAltName":null},"admin1":{"geonameid":4398678,"name":"Missouri","admin1":"MO","localeAltName":"Missouri"},"locations":[{"geonameid":4379785,"name":"Campbell","admin3":"74608","localeAltName":null},{"geonameid":4380027,"name":"Cardwell","admin3":"09532","localeAltName":null},{"geonameid":4381426,"name":"Clarkton","admin3":"25804","localeAltName":null},{"geonameid":4390911,"name":"Holcomb","admin3":"32554","localeAltName":null},{"geonameid":4391232,"name":"Hornersville","admin3":"14338","localeAltName":null},{"geonameid":4393451,"name":"Kennett","admin3":"34390","localeAltName":null},{"geonameid":4396871,"name":"Malden","admin3":"16696","localeAltName":null},{"geonameid":4408052,"name":"Senath","admin3":"65252","localeAltName":null}],"admin3":[{"geonameid":4379058,"name":"Township of Buffalo","admin3":"09532","localeAltName":null},{"geonameid":4381459,"name":"Township of Clay","admin3":"14338","localeAltName":null},{"geonameid":4382497,"name":"Township of Cotton Hill","admin3":"16696","localeAltName":null},{"geonameid":4387255,"name":"Township of Freeborn","admin3":"25804","localeAltName":null},{"geonameid":4390913,"name":"Township of Holcomb","admin3":"32554","localeAltName":null},{"geonameid":4391851,"name":"Township of Independence","admin3":"34390","localeAltName":null},{"geonameid":4407369,"name":"Township of Salem","admin3":"65252","localeAltName":null},{"geonameid":4412649,"name":"Township of Union","admin3":"74608","localeAltName":null}],"alternateNames":[{"alternatenameId":2089572,"geonameid":4398678,"isoLanguage":"en","alternateName":"Missouri","isPreferredName":true,"isShortName":true,"isColloquial":false,"isHistoric":false}]},"__N_SSG":true}