{"pageProps":{"locale":"en","admin2":{"geonameid":5055521,"name":"Holt County","country":"US","admin1":"MO","admin2":"087","admin3":"","latitude":"40.0944300","longitude":"-95.2155100","localeAltName":null},"admin1":{"geonameid":4398678,"name":"Missouri","admin1":"MO","localeAltName":"Missouri"},"locations":[{"geonameid":5056381,"name":"Mound City","admin3":"04672","localeAltName":null},{"geonameid":4402011,"name":"Oregon","admin3":"41798","localeAltName":null}],"admin3":[{"geonameid":4386880,"name":"Township of Forbes","admin3":"24976"},{"geonameid":4386966,"name":"Township of Forest","admin3":"25048"},{"geonameid":4395032,"name":"Township of Lewis","admin3":"41798","localeAltName":null},{"geonameid":5054061,"name":"Township of Benton","admin3":"04672","localeAltName":null},{"geonameid":5054122,"name":"Township of Bigelow","admin3":"05482"},{"geonameid":5054495,"name":"Township of Clay","admin3":"14410"},{"geonameid":5055456,"name":"Township of Hickory","admin3":"31852"},{"geonameid":5055926,"name":"Township of Liberty","admin3":"42140"},{"geonameid":5055956,"name":"Township of Lincoln","admin3":"42770"},{"geonameid":5056319,"name":"Township of Minton","admin3":"48836"},{"geonameid":5056556,"name":"Township of Nodaway","admin3":"52706"},{"geonameid":5057648,"name":"Township of Union","admin3":"74680"}],"alternateNames":[{"alternatenameId":2089572,"geonameid":4398678,"isoLanguage":"en","alternateName":"Missouri","isPreferredName":true,"isShortName":true,"isColloquial":false,"isHistoric":false}]},"__N_SSG":true}