{"pageProps":{"locale":"en","admin2":{"geonameid":4391383,"name":"Howard County","country":"US","admin1":"MO","admin2":"089","admin3":"","latitude":"39.1425000","longitude":"-92.6962700","localeAltName":null},"admin1":{"geonameid":4398678,"name":"Missouri","admin1":"MO","localeAltName":"Missouri"},"locations":[{"geonameid":4386332,"name":"Fayette","admin3":"61652","localeAltName":null},{"geonameid":4388009,"name":"Glasgow","admin3":"13222","localeAltName":null},{"geonameid":4400260,"name":"New Franklin","admin3":"25642","localeAltName":null}],"admin3":[{"geonameid":4377902,"name":"Township of Bonne Femme","admin3":"07084"},{"geonameid":4377951,"name":"Township of Boonslick","admin3":"07300"},{"geonameid":4379273,"name":"Township of Burton","admin3":"09964"},{"geonameid":4380967,"name":"Township of Chariton","admin3":"13222","localeAltName":null},{"geonameid":4387210,"name":"Township of Franklin","admin3":"25642","localeAltName":null},{"geonameid":4398791,"name":"Township of Moniteau","admin3":"49232"},{"geonameid":4404604,"name":"Township of Prairie","admin3":"59546"},{"geonameid":4405595,"name":"Township of Richmond","admin3":"61652","localeAltName":null}],"alternateNames":[{"alternatenameId":2089572,"geonameid":4398678,"isoLanguage":"en","alternateName":"Missouri","isPreferredName":true,"isShortName":true,"isColloquial":false,"isHistoric":false}]},"__N_SSG":true}