{"pageProps":{"locale":"en","admin2":{"geonameid":4396768,"name":"Macon County","country":"US","admin1":"MO","admin2":"121","admin3":"","latitude":"39.8308000","longitude":"-92.5646100","localeAltName":null},"admin1":{"geonameid":4398678,"name":"Missouri","admin1":"MO","localeAltName":"Missouri"},"locations":[{"geonameid":4376879,"name":"Bevier","admin3":"05284","localeAltName":null},{"geonameid":5055816,"name":"La Plata","admin3":"40700","localeAltName":null},{"geonameid":4396767,"name":"Macon","admin3":"33580","localeAltName":null}],"admin3":[{"geonameid":4376881,"name":"Township of Bevier","admin3":"05284","localeAltName":null},{"geonameid":4379561,"name":"Township of Callao","admin3":"10504"},{"geonameid":4380968,"name":"Township of Chariton","admin3":"13240"},{"geonameid":4384898,"name":"Township of Eagle","admin3":"20638"},{"geonameid":4391487,"name":"Township of Hudson","admin3":"33580","localeAltName":null},{"geonameid":4391852,"name":"Township of Independence","admin3":"35018"},{"geonameid":4392233,"name":"Township of Jackson","admin3":"35900"},{"geonameid":4392690,"name":"Township of Johnston","admin3":"37520"},{"geonameid":4395184,"name":"Township of Liberty","admin3":"42194"},{"geonameid":4395408,"name":"Township of Lingo","admin3":"43112"},{"geonameid":4396655,"name":"Township of Lyda","admin3":"44642"},{"geonameid":4398159,"name":"Township of Middle Fork","admin3":"47810"},{"geonameid":4399131,"name":"Township of Morrow","admin3":"50114"},{"geonameid":4400036,"name":"Township of Narrows","admin3":"51176"},{"geonameid":4405579,"name":"Township of Richland","admin3":"61508"},{"geonameid":4406478,"name":"Township of Round Grove","admin3":"63326"},{"geonameid":4406674,"name":"Township of Russell","admin3":"63686"},{"geonameid":4411413,"name":"Township of Ten Mile","admin3":"72718"},{"geonameid":4412844,"name":"Township of Valley","admin3":"75436"},{"geonameid":4413419,"name":"Township of Walnut Creek","admin3":"76822"},{"geonameid":4414562,"name":"Township of White","admin3":"79270"},{"geonameid":4828038,"name":"Township of Drake","admin3":"20062"},{"geonameid":5054804,"name":"Township of Easley","admin3":"20710"},{"geonameid":5055818,"name":"Township of La Plata","admin3":"40700","localeAltName":null}],"alternateNames":[{"alternatenameId":2089572,"geonameid":4398678,"isoLanguage":"en","alternateName":"Missouri","isPreferredName":true,"isShortName":true,"isColloquial":false,"isHistoric":false}]},"__N_SSG":true}