{"pageProps":{"locale":"en","admin2":{"geonameid":4396798,"name":"Madison County","country":"US","admin1":"MO","admin2":"123","admin3":"","latitude":"37.4781000","longitude":"-90.3450300","localeAltName":null},"admin1":{"geonameid":4398678,"name":"Missouri","admin1":"MO","localeAltName":"Missouri"},"locations":[{"geonameid":4387240,"name":"Fredericktown","admin3":"65072","localeAltName":null}],"admin3":[{"geonameid":4376979,"name":"Township of Big Creek","admin3":"05410"},{"geonameid":4380306,"name":"Township of Castor","admin3":"11962"},{"geonameid":4380846,"name":"Township of Central","admin3":"12808"},{"geonameid":4395185,"name":"Township of Liberty","admin3":"42212"},{"geonameid":4397188,"name":"Township of Marquand","admin3":"46262"},{"geonameid":4398517,"name":"Township of Mine La Motte","admin3":"48620"},{"geonameid":4404138,"name":"Township of Polk","admin3":"58790"},{"geonameid":4406890,"name":"Township of Saint Francois","admin3":"64280"},{"geonameid":4407167,"name":"Township of Saint Michael","admin3":"65072","localeAltName":null},{"geonameid":4412337,"name":"Township of Twelvemile","admin3":"74248"}],"alternateNames":[{"alternatenameId":2089572,"geonameid":4398678,"isoLanguage":"en","alternateName":"Missouri","isPreferredName":true,"isShortName":true,"isColloquial":false,"isHistoric":false}]},"__N_SSG":true}