{"pageProps":{"locale":"en","admin2":{"geonameid":4403095,"name":"Pettis County","country":"US","admin1":"MO","admin2":"159","admin3":"","latitude":"38.7282900","longitude":"-93.2851000","localeAltName":null},"admin1":{"geonameid":4398678,"name":"Missouri","admin1":"MO","localeAltName":"Missouri"},"locations":[{"geonameid":4393983,"name":"La Monte","admin3":"40538","localeAltName":null},{"geonameid":4408000,"name":"Sedalia","admin3":"66458","localeAltName":null},{"geonameid":4409195,"name":"Smithton","admin3":"68402","localeAltName":null}],"admin3":[{"geonameid":4377406,"name":"Township of Blackwater","admin3":"06184"},{"geonameid":4378076,"name":"Township of Bowling Green","admin3":"07642"},{"geonameid":4380660,"name":"Township of Cedar","admin3":"12214"},{"geonameid":4384453,"name":"Township of Dresden","admin3":"20098"},{"geonameid":4385400,"name":"Township of Elk Fork","admin3":"21646"},{"geonameid":4386675,"name":"Township of Flat Creek","admin3":"24454"},{"geonameid":4388739,"name":"Township of Green Ridge","admin3":"29350"},{"geonameid":4390006,"name":"Township of Heath Creek","admin3":"31362"},{"geonameid":4391367,"name":"Township of Houstonia","admin3":"33274"},{"geonameid":4391540,"name":"Township of Hughesville","admin3":"33670"},{"geonameid":4393985,"name":"Township of La Monte","admin3":"40538","localeAltName":null},{"geonameid":4394157,"name":"Township of Lake Creek","admin3":"39926"},{"geonameid":4396304,"name":"Township of Longwood","admin3":"44012"},{"geonameid":4404609,"name":"Township of Prairie","admin3":"59636"},{"geonameid":4407992,"name":"Township of Sedalia","admin3":"66458","localeAltName":null},{"geonameid":4409198,"name":"Township of Smithton","admin3":"68402","localeAltName":null},{"geonameid":4413697,"name":"Township of Washington","admin3":"77650"}],"alternateNames":[{"alternatenameId":2089572,"geonameid":4398678,"isoLanguage":"en","alternateName":"Missouri","isPreferredName":true,"isShortName":true,"isColloquial":false,"isHistoric":false}]},"__N_SSG":true}