{"pageProps":{"locale":"en","admin2":{"geonameid":4403600,"name":"Platte County","country":"US","admin1":"MO","admin2":"165","admin3":"","latitude":"39.3805000","longitude":"-94.7735900","localeAltName":null},"admin1":{"geonameid":4398678,"name":"Missouri","admin1":"MO","localeAltName":"Missouri"},"locations":[{"geonameid":4379641,"name":"Camden Point","admin3":"29026","localeAltName":null},{"geonameid":4383553,"name":"Dearborn","admin3":"29026","localeAltName":null},{"geonameid":4385221,"name":"Edgerton","admin3":"59924","localeAltName":null},{"geonameid":4394399,"name":"Lake Waukomis","admin3":"46874","localeAltName":null},{"geonameid":4402544,"name":"Parkville","admin3":"68073","localeAltName":null},{"geonameid":4403599,"name":"Platte City","admin3":"11512","localeAltName":null},{"geonameid":4405795,"name":"Riverside","admin3":"57242","localeAltName":null},{"geonameid":4413815,"name":"Weatherby Lake","admin3":"11512","localeAltName":null},{"geonameid":4414270,"name":"Weston","admin3":"78874","localeAltName":null}],"admin3":[{"geonameid":4380155,"name":"Township of Carroll","admin3":"11512","localeAltName":null},{"geonameid":4386025,"name":"Township of Fair","admin3":"23230"},{"geonameid":4387131,"name":"Township of Fox","admin3":"25450"},{"geonameid":4388770,"name":"Township of Green","admin3":"29026","localeAltName":null},{"geonameid":4393547,"name":"Township of Kickapoo","admin3":"38513"},{"geonameid":4394856,"name":"Township of Lee","admin3":"41240"},{"geonameid":4397235,"name":"Township of Marshall","admin3":"46298"},{"geonameid":4397500,"name":"Township of May","admin3":"46874","localeAltName":null},{"geonameid":4402686,"name":"Township of Pawnee","admin3":"56598"},{"geonameid":4403099,"name":"Township of Pettis","admin3":"57242","localeAltName":null},{"geonameid":4404650,"name":"Township of Preston","admin3":"59924","localeAltName":null},{"geonameid":4408846,"name":"Township of Sioux","admin3":"68073","localeAltName":null},{"geonameid":4413304,"name":"Township of Waldron","admin3":"76606"},{"geonameid":4414273,"name":"Township of Weston","admin3":"78874","localeAltName":null}],"alternateNames":[{"alternatenameId":2089572,"geonameid":4398678,"isoLanguage":"en","alternateName":"Missouri","isPreferredName":true,"isShortName":true,"isColloquial":false,"isHistoric":false}]},"__N_SSG":true}