{"pageProps":{"locale":"en","admin2":{"geonameid":4408228,"name":"Shannon County","country":"US","admin1":"MO","admin2":"203","admin3":"","latitude":"37.1573900","longitude":"-91.4005100","localeAltName":null},"admin1":{"geonameid":4398678,"name":"Missouri","admin1":"MO","localeAltName":"Missouri"},"locations":[{"geonameid":4377190,"name":"Birch Tree","admin3":"05752","localeAltName":null},{"geonameid":4385654,"name":"Eminence","admin3":"22294","localeAltName":null},{"geonameid":4415134,"name":"Winona","admin3":"80530","localeAltName":null}],"admin3":[{"geonameid":4375895,"name":"Township of Bartlett","admin3":"03484"},{"geonameid":4377191,"name":"Township of Birch Tree","admin3":"05752","localeAltName":null},{"geonameid":4383697,"name":"Township of Delaware","admin3":"19000"},{"geonameid":4385659,"name":"Township of Eminence","admin3":"22294","localeAltName":null},{"geonameid":4398913,"name":"Township of Montier","admin3":"49628"},{"geonameid":4399000,"name":"Township of Moore","admin3":"49772"},{"geonameid":4400570,"name":"Township of Newton","admin3":"52274"},{"geonameid":4409782,"name":"Township of Spring Creek","admin3":"69734"},{"geonameid":4409889,"name":"Township of Spring Valley","admin3":"70144"},{"geonameid":4415137,"name":"Township of Winona","admin3":"80530","localeAltName":null}],"alternateNames":[{"alternatenameId":2089572,"geonameid":4398678,"isoLanguage":"en","alternateName":"Missouri","isPreferredName":true,"isShortName":true,"isColloquial":false,"isHistoric":false}]},"__N_SSG":true}