{"pageProps":{"locale":"en","admin2":{"geonameid":4413583,"name":"Warren County","country":"US","admin1":"MO","admin2":"219","admin3":"","latitude":"38.7646200","longitude":"-91.1606900","localeAltName":null},"admin1":{"geonameid":4398678,"name":"Missouri","admin1":"MO","localeAltName":"Missouri"},"locations":[{"geonameid":4391980,"name":"Innsbrook","admin3":"31888","localeAltName":null},{"geonameid":4397248,"name":"Marthasville","admin3":"13402","localeAltName":null},{"geonameid":4412096,"name":"Truesdale","admin3":"68702","localeAltName":null},{"geonameid":4413598,"name":"Warrenton","admin3":"53024","localeAltName":null},{"geonameid":4415502,"name":"Wright City","admin3":"31888","localeAltName":null}],"admin3":[{"geonameid":4378379,"name":"Township of Bridgeport","admin3":"08362"},{"geonameid":4379684,"name":"Township of Camp Branch","admin3":"10954"},{"geonameid":4381015,"name":"Township of Charrette","admin3":"13402","localeAltName":null},{"geonameid":4390393,"name":"Township of Hickory Grove","admin3":"31888","localeAltName":null},{"geonameid":4400793,"name":"Township of North Elkhorn","admin3":"53024","localeAltName":null},{"geonameid":4403310,"name":"Township of Pinckney","admin3":"57692"},{"geonameid":4409370,"name":"Township of South Elkhorn","admin3":"68702","localeAltName":null}],"alternateNames":[{"alternatenameId":2089572,"geonameid":4398678,"isoLanguage":"en","alternateName":"Missouri","isPreferredName":true,"isShortName":true,"isColloquial":false,"isHistoric":false}]},"__N_SSG":true}