{"pageProps":{"locale":"de","admin2":{"geonameid":6458746,"name":"Bezirk Zofingen","country":"CH","admin1":"AG","admin2":"1910","admin3":"","latitude":"47.2886400","longitude":"7.9569700"},"admin1":{"geonameid":2661876,"name":"Kanton Aargau","admin1":"AG"},"locations":[{"geonameid":2661879,"name":"Aarburg","admin3":"4271"},{"geonameid":2661434,"name":"Bottenwil","admin3":"4273"},{"geonameid":2661384,"name":"Brittnau","admin3":"4274"},{"geonameid":2660120,"name":"Kölliken","admin3":"4276"},{"geonameid":2659533,"name":"Murgenthal","admin3":"4279"},{"geonameid":2659303,"name":"Oftringen","admin3":"4280"},{"geonameid":2658952,"name":"Rothrist","admin3":"4282"},{"geonameid":2658892,"name":"Safenwil","admin3":"4283"},{"geonameid":2658723,"name":"Schlossrued","admin3":"4275"},{"geonameid":2658513,"name":"Staffelbach","admin3":"4284"},{"geonameid":2658469,"name":"Strengelbach","admin3":"4285"},{"geonameid":2658279,"name":"Uerkheim","admin3":"4286"},{"geonameid":2658103,"name":"Vordemwald","admin3":"4287"},{"geonameid":6697616,"name":"Wiliberg","admin3":"4288"},{"geonameid":2657915,"name":"Zofingen","admin3":"4289"}],"admin3":[{"geonameid":7285015,"name":"Aarburg","admin3":"4271"},{"geonameid":7285303,"name":"Bottenwil","admin3":"4273"},{"geonameid":7285343,"name":"Brittnau","admin3":"4274"},{"geonameid":7286202,"name":"Kirchleerau","admin3":"4275"},{"geonameid":7286214,"name":"Kölliken","admin3":"4276"},{"geonameid":7286547,"name":"Moosleerau","admin3":"4277"},{"geonameid":7286598,"name":"Murgenthal","admin3":"4279"},{"geonameid":7286733,"name":"Oftringen","admin3":"4280"},{"geonameid":7286879,"name":"Reitnau","admin3":"4281"},{"geonameid":7286962,"name":"Rothrist","admin3":"4282"},{"geonameid":7287011,"name":"Safenwil","admin3":"4283"},{"geonameid":7287212,"name":"Staffelbach","admin3":"4284"},{"geonameid":7287248,"name":"Strengelbach","admin3":"4285"},{"geonameid":7287361,"name":"Uerkheim","admin3":"4286"},{"geonameid":7287494,"name":"Vordemwald","admin3":"4287"},{"geonameid":7287583,"name":"Wiliberg","admin3":"4288"},{"geonameid":7287639,"name":"Zofingen","admin3":"4289"}],"alternateNames":[]},"__N_SSG":true}