{"pageProps":{"locale":"de","admin2":{"geonameid":6458847,"name":"Bezirk Horgen","country":"CH","admin1":"ZH","admin2":"106","admin3":"","latitude":"47.2576700","longitude":"8.5970200"},"admin1":{"geonameid":2657895,"name":"Kanton Zürich","admin1":"ZH"},"locations":[{"geonameid":6293138,"name":"Aahalden","admin3":"293"},{"geonameid":2661861,"name":"Adliswil","admin3":"131"},{"geonameid":6292636,"name":"Adliswil / Adliswil (Stadtkern)","admin3":"131"},{"geonameid":6292647,"name":"Adliswil / Büchel","admin3":"131"},{"geonameid":6292649,"name":"Adliswil / Buttenau","admin3":"131"},{"geonameid":6292639,"name":"Adliswil / Hündli-Zopf","admin3":"131"},{"geonameid":6292640,"name":"Adliswil / Lebern","admin3":"131"},{"geonameid":6292637,"name":"Adliswil / Oberleimbach","admin3":"131"},{"geonameid":6292644,"name":"Adliswil / Rüti","admin3":"131"},{"geonameid":6292648,"name":"Adliswil / Sihlau","admin3":"131"},{"geonameid":6292668,"name":"Adliswil / Sihlhof","admin3":"131"},{"geonameid":6292641,"name":"Adliswil / Sonnenberg","admin3":"131"},{"geonameid":6292638,"name":"Adliswil / Sood","admin3":"131"},{"geonameid":6292642,"name":"Adliswil / Tal","admin3":"131"},{"geonameid":6292643,"name":"Adliswil / Wacht","admin3":"131"},{"geonameid":6292645,"name":"Adliswil / Wanneten","admin3":"131"},{"geonameid":6292646,"name":"Adliswil / Wil","admin3":"131"},{"geonameid":6293025,"name":"Aesch","admin3":"293"},{"geonameid":6293109,"name":"Allenwinden","admin3":"293"},{"geonameid":6292684,"name":"Alter Hirschen","admin3":"295"},{"geonameid":6292961,"name":"Am Bach","admin3":"138"},{"geonameid":6293064,"name":"Am Rain","admin3":"293"},{"geonameid":6292702,"name":"An der Strass","admin3":"295"},{"geonameid":6292814,"name":"Arn","admin3":"295"},{"geonameid":2661691,"name":"Au","admin3":"293"},{"geonameid":6295654,"name":"Au","admin3":"293"},{"geonameid":6295655,"name":"Au","admin3":"293"},{"geonameid":6293100,"name":"Au / Hinter-Rüti","admin3":"293"},{"geonameid":6293098,"name":"Au / Mittel-Dorf","admin3":"293"},{"geonameid":6293099,"name":"Au / Ober-Ort/Gwad","admin3":"293"},{"geonameid":6293097,"name":"Au / Unter-Dorf","admin3":"293"},{"geonameid":6292812,"name":"Äussere Rietwies","admin3":"295"},{"geonameid":6292749,"name":"Bächenmoos","admin3":"295"},{"geonameid":6293128,"name":"Bachgaden","admin3":"293"},{"geonameid":6292887,"name":"Bänklen","admin3":"135"},{"geonameid":6292798,"name":"Bätpur","admin3":"295"},{"geonameid":6293173,"name":"Beichlen","admin3":"293"},{"geonameid":6292973,"name":"Bellen","admin3":"138"},{"geonameid":6292847,"name":"Bergli","admin3":"293"},{"geonameid":6292794,"name":"Bocken","admin3":"295"},{"geonameid":6292742,"name":"Boden","admin3":"295"},{"geonameid":6293086,"name":"Boden","admin3":"141"},{"geonameid":6292861,"name":"Boden","admin3":"293"},{"geonameid":6292841,"name":"Böschen","admin3":"293"},{"geonameid":6292724,"name":"Brämenhalden","admin3":"295"},{"geonameid":6292719,"name":"Brestenegg","admin3":"295"},{"geonameid":6292885,"name":"Brölberg","admin3":"135"},{"geonameid":6292729,"name":"Bruederhus","admin3":"295"},{"geonameid":6293108,"name":"Brunnenacher","admin3":"293"},{"geonameid":6292785,"name":"Bruppacher","admin3":"295"},{"geonameid":6293183,"name":"Brüsch","admin3":"293"},{"geonameid":6293017,"name":"Bubenwies","admin3":"293"},{"geonameid":6293059,"name":"Buchen","admin3":"293"},{"geonameid":6293162,"name":"Buechhof","admin3":"293"},{"geonameid":6292774,"name":"Büel","admin3":"295"},{"geonameid":6293123,"name":"Burstel","admin3":"293"},{"geonameid":6292717,"name":"Chalbisau","admin3":"295"},{"geonameid":6293084,"name":"Chalchofen","admin3":"141"},{"geonameid":6292723,"name":"Chelen","admin3":"295"},{"geonameid":6292718,"name":"Chlus","admin3":"295"},{"geonameid":6292728,"name":"Cholgrueb","admin3":"295"},{"geonameid":6293129,"name":"Chotten","admin3":"293"},{"geonameid":6292741,"name":"Chronerain","admin3":"295"},{"geonameid":6292699,"name":"Dürenmoos","admin3":"295"},{"geonameid":6292959,"name":"Dürsenen","admin3":"138"},{"geonameid":6293036,"name":"Egg","admin3":"293"},{"geonameid":6293161,"name":"Eichmüli","admin3":"293"},{"geonameid":6293181,"name":"Erni","admin3":"293"},{"geonameid":6293022,"name":"Erniweg","admin3":"293"},{"geonameid":6292784,"name":"Eschtürli","admin3":"295"},{"geonameid":6292967,"name":"Fälmis","admin3":"138"},{"geonameid":6292711,"name":"Fänser","admin3":"295"},{"geonameid":6295643,"name":"Feld","admin3":"295"},{"geonameid":6295646,"name":"Feld","admin3":"293"},{"geonameid":6292736,"name":"Feldstrasse","admin3":"295"},{"geonameid":6293160,"name":"Felsen","admin3":"293"},{"geonameid":6293030,"name":"Fernegg","admin3":"293"},{"geonameid":6293073,"name":"Festig","admin3":"293"},{"geonameid":6292848,"name":"Finsterseehalden","admin3":"293"},{"geonameid":6292780,"name":"Fischenrüti","admin3":"295"},{"geonameid":6292764,"name":"Forsthaus Sihlwald","admin3":"295"},{"geonameid":6292853,"name":"Freihof","admin3":"293"},{"geonameid":6292939,"name":"Frohberg","admin3":"138"},{"geonameid":6292845,"name":"Frohe Aussicht","admin3":"293"},{"geonameid":6293133,"name":"Furthof","admin3":"293"},{"geonameid":6293088,"name":"Gattikon","admin3":"141"},{"geonameid":6292714,"name":"Geeristeg","admin3":"295"},{"geonameid":6293033,"name":"Gehrensteg","admin3":"293"},{"geonameid":6292942,"name":"Geisser","admin3":"138"},{"geonameid":6292950,"name":"Gerlisberg","admin3":"138"},{"geonameid":6292886,"name":"Ghei","admin3":"135"},{"geonameid":6293057,"name":"Gisihegi","admin3":"293"},{"geonameid":6292806,"name":"Gottshalden","admin3":"295"},{"geonameid":6293164,"name":"Grindel","admin3":"293"},{"geonameid":6292944,"name":"Grüenfeld","admin3":"138"},{"geonameid":6292653,"name":"Grüt","admin3":"131"},{"geonameid":6292731,"name":"Gschättli","admin3":"295"},{"geonameid":6293065,"name":"Gschwend","admin3":"293"},{"geonameid":6292870,"name":"Gschwendboden","admin3":"293"},{"geonameid":6292797,"name":"Gwandlen","admin3":"295"},{"geonameid":6293107,"name":"Halbinsel Au","admin3":"293"},{"geonameid":6293050,"name":"Haldenmattli","admin3":"293"},{"geonameid":6292679,"name":"Harüti","admin3":"295"},{"geonameid":6293077,"name":"Haslaub","admin3":"293"},{"geonameid":6292958,"name":"Haslen","admin3":"138"},{"geonameid":6292964,"name":"Haslenzopf","admin3":"138"},{"geonameid":6292720,"name":"Heerenrainli","admin3":"295"},{"geonameid":6293111,"name":"Hegimoos","admin3":"293"},{"geonameid":6292661,"name":"Hermen","admin3":"131"},{"geonameid":6293143,"name":"Herrlisberg","admin3":"293"},{"geonameid":6293188,"name":"Hinter Mugern","admin3":"293"},{"geonameid":6292905,"name":"Hinter-Albis","admin3":"136"},{"geonameid":6292790,"name":"Hinter-Klausen","admin3":"295"},{"geonameid":6292854,"name":"Hinter-Langmoos","admin3":"293"},{"geonameid":6292869,"name":"Hinter-Mistlibühl","admin3":"293"},{"geonameid":6292867,"name":"Hinter-Schönau","admin3":"293"},{"geonameid":6293035,"name":"Hintere Egg","admin3":"293"},{"geonameid":6292810,"name":"Hintere Rietwies","admin3":"295"},{"geonameid":6293016,"name":"Hintere Stollen","admin3":"293"},{"geonameid":6292671,"name":"Hirzel","admin3":"295"},{"geonameid":6292698,"name":"Höchi","admin3":"295"},{"geonameid":6292888,"name":"Hohenrain","admin3":"135"},{"geonameid":6293091,"name":"Hohlgass","admin3":"141"},{"geonameid":6292963,"name":"Holz","admin3":"138"},{"geonameid":2660305,"name":"Horgen","admin3":"295"},{"geonameid":6292759,"name":"Horgen / Allmend","admin3":"295"},{"geonameid":6292757,"name":"Horgen / Horgen (Dorfkern)","admin3":"295"},{"geonameid":6292758,"name":"Horgen / Käpfnach","admin3":"295"},{"geonameid":6292761,"name":"Horgen / Oberdorf","admin3":"295"},{"geonameid":6292760,"name":"Horgen / Scheller-Stockerstrasse","admin3":"295"},{"geonameid":6292955,"name":"Hügsam","admin3":"138"},{"geonameid":6293042,"name":"Humbel","admin3":"293"},{"geonameid":6292788,"name":"Hüsliweber","admin3":"295"},{"geonameid":6292832,"name":"Hütten","admin3":"293"},{"geonameid":6292802,"name":"Katzenholz","admin3":"295"},{"geonameid":2660161,"name":"Kilchberg","admin3":"135"},{"geonameid":6292878,"name":"Kilchberg / Bächler-Stocken","admin3":"135"},{"geonameid":6292880,"name":"Kilchberg / Bendlikon","admin3":"135"},{"geonameid":6292877,"name":"Kilchberg / Hornhalden","admin3":"135"},{"geonameid":6292881,"name":"Kilchberg / Kilchberg (Dorfkern)","admin3":"135"},{"geonameid":6292879,"name":"Kilchberg / Oberer Mönchhof","admin3":"135"},{"geonameid":6292875,"name":"Kilchberg / Schooren","admin3":"135"},{"geonameid":6292882,"name":"Kilchberg / Schwanden","admin3":"135"},{"geonameid":6292876,"name":"Kilchberg / Unterer Mönchhof","admin3":"135"},{"geonameid":6292712,"name":"Kirchrain","admin3":"295"},{"geonameid":6292851,"name":"Knäus","admin3":"293"},{"geonameid":6292796,"name":"Kniebreche","admin3":"295"},{"geonameid":6292903,"name":"Kniebreche","admin3":"136"},{"geonameid":6293046,"name":"Külpen","admin3":"293"},{"geonameid":6292658,"name":"Landolt","admin3":"131"},{"geonameid":6292808,"name":"Längeberg","admin3":"295"},{"geonameid":6292892,"name":"Langnau / Gontenbach (südl. Teil)","admin3":"136"},{"geonameid":6292897,"name":"Langnau / Hehl","admin3":"136"},{"geonameid":6292901,"name":"Langnau / Jeger","admin3":"136"},{"geonameid":2660030,"name":"Langnau / Langnau (Dorf)","admin3":"136"},{"geonameid":6292902,"name":"Langnau / Rebacher","admin3":"136"},{"geonameid":6292900,"name":"Langnau / Unter-Rengg","admin3":"136"},{"geonameid":6292893,"name":"Langnau / Vitaquartier","admin3":"136"},{"geonameid":6640317,"name":"Langnau am Albis","admin3":"136"},{"geonameid":6292965,"name":"Langrain","admin3":"138"},{"geonameid":6293153,"name":"Langrüti","admin3":"293"},{"geonameid":6292883,"name":"Lätten","admin3":"135"},{"geonameid":6295642,"name":"Letten","admin3":"131"},{"geonameid":6293120,"name":"Luggenbüel","admin3":"293"},{"geonameid":6293043,"name":"Matte","admin3":"293"},{"geonameid":6292914,"name":"Mittelalbis","admin3":"136"},{"geonameid":6293018,"name":"Mittelberg","admin3":"293"},{"geonameid":6293112,"name":"Mittler-Rüti","admin3":"293"},{"geonameid":6292933,"name":"Mittler-Schwanden","admin3":"138"},{"geonameid":6292968,"name":"Mittler-Weberrüti","admin3":"138"},{"geonameid":6293070,"name":"Mittler-Wolfbühl","admin3":"293"},{"geonameid":6293055,"name":"Mittlere Langwies","admin3":"293"},{"geonameid":6292811,"name":"Mittlere Rietwies","admin3":"295"},{"geonameid":6292773,"name":"Moorschwand","admin3":"295"},{"geonameid":6292842,"name":"Moos","admin3":"293"},{"geonameid":6292655,"name":"Moos","admin3":"131"},{"geonameid":6292941,"name":"Moos","admin3":"138"},{"geonameid":6292706,"name":"Moosacher","admin3":"295"},{"geonameid":6293170,"name":"Mosli","admin3":"293"},{"geonameid":6292896,"name":"Mühlehalde","admin3":"136"},{"geonameid":6293034,"name":"Mühlestalden","admin3":"293"},{"geonameid":6292928,"name":"Mülenen","admin3":"138"},{"geonameid":6292777,"name":"Mürg","admin3":"295"},{"geonameid":6292703,"name":"Müsegg","admin3":"295"},{"geonameid":6293015,"name":"Müsli","admin3":"293"},{"geonameid":6292789,"name":"Näf","admin3":"295"},{"geonameid":6292722,"name":"Nägelihus","admin3":"295"},{"geonameid":6293038,"name":"Neubad","admin3":"293"},{"geonameid":6293168,"name":"Neuguet","admin3":"293"},{"geonameid":6292805,"name":"Neuhof","admin3":"295"},{"geonameid":6293066,"name":"Neuhof","admin3":"293"},{"geonameid":6293132,"name":"Neuhof","admin3":"293"},{"geonameid":6292975,"name":"Neuhof","admin3":"138"},{"geonameid":6292934,"name":"Neuhus","admin3":"138"},{"geonameid":6292680,"name":"Neuhus","admin3":"295"},{"geonameid":6292940,"name":"Neuhusrain","admin3":"138"},{"geonameid":6292804,"name":"Neumatt","admin3":"295"},{"geonameid":6293178,"name":"Niedersaum","admin3":"293"},{"geonameid":6293014,"name":"Nussbäumen","admin3":"293"},{"geonameid":6292872,"name":"Ober Oerischwand","admin3":"293"},{"geonameid":6292907,"name":"Ober-Albis","admin3":"136"},{"geonameid":6293151,"name":"Ober-Gisenrüti","admin3":"293"},{"geonameid":6293172,"name":"Ober-Himmeri","admin3":"293"},{"geonameid":6293058,"name":"Ober-Neugut","admin3":"293"},{"geonameid":6293131,"name":"Ober-Oedischwänd","admin3":"293"},{"geonameid":6292908,"name":"Ober-Rengg","admin3":"136"},{"geonameid":6293061,"name":"Ober-Rotenblatt","admin3":"293"},{"geonameid":6293149,"name":"Ober-Schluchtal","admin3":"293"},{"geonameid":6292960,"name":"Ober-Schürli","admin3":"138"},{"geonameid":6292935,"name":"Ober-Schwanden","admin3":"138"},{"geonameid":6292823,"name":"Obere Hanegg","admin3":"295"},{"geonameid":6292835,"name":"Obere Hengerten","admin3":"293"},{"geonameid":6292817,"name":"Obere Hinterrüti","admin3":"295"},{"geonameid":6292840,"name":"Obere Laubegg","admin3":"293"},{"geonameid":6292697,"name":"Oberes Dürenmoos","admin3":"295"},{"geonameid":6292772,"name":"Oberhof","admin3":"295"},{"geonameid":6292687,"name":"Oberi Chaseren","admin3":"295"},{"geonameid":6292730,"name":"Oberi Chelen","admin3":"295"},{"geonameid":6292932,"name":"Obermatt","admin3":"138"},{"geonameid":2659358,"name":"Oberrieden","admin3":"137"},{"geonameid":6292918,"name":"Oberrieden / Berg","admin3":"137"},{"geonameid":6292917,"name":"Oberrieden / Mitte","admin3":"137"},{"geonameid":6295644,"name":"Oberrieden / See","admin3":"137"},{"geonameid":6292951,"name":"Obstgarten","admin3":"138"},{"geonameid":6293041,"name":"Palmisacker","admin3":"293"},{"geonameid":6292830,"name":"Pappelweg","admin3":"295"},{"geonameid":6293062,"name":"Rain","admin3":"293"},{"geonameid":6293008,"name":"Rechberg","admin3":"293"},{"geonameid":6292949,"name":"Rees","admin3":"138"},{"geonameid":6292721,"name":"Rennweg","admin3":"295"},{"geonameid":2659050,"name":"Richterswil","admin3":"138"},{"geonameid":6292926,"name":"Richterswil / Bachtel","admin3":"138"},{"geonameid":6292921,"name":"Richterswil / Burghalde","admin3":"138"},{"geonameid":6292925,"name":"Richterswil / Chrummbächli","admin3":"138"},{"geonameid":6292919,"name":"Richterswil / Dorfkern","admin3":"138"},{"geonameid":6292922,"name":"Richterswil / Langacher","admin3":"138"},{"geonameid":6292924,"name":"Richterswil / Leemann","admin3":"138"},{"geonameid":6292920,"name":"Richterswil / Richterswil (Dorfkern)","admin3":"138"},{"geonameid":6292923,"name":"Richterswil / Zweischürli","admin3":"138"},{"geonameid":6292894,"name":"Rinderweid","admin3":"136"},{"geonameid":6292800,"name":"Risi","admin3":"295"},{"geonameid":6292915,"name":"Risi","admin3":"137"},{"geonameid":6293049,"name":"Rotenblatt","admin3":"293"},{"geonameid":6292704,"name":"Rüebgarten","admin3":"295"},{"geonameid":2658919,"name":"Rüschlikon","admin3":"139"},{"geonameid":6292987,"name":"Rüschlikon / Alemannenweg","admin3":"139"},{"geonameid":6292997,"name":"Rüschlikon / Alte Landstrasse","admin3":"139"},{"geonameid":6292996,"name":"Rüschlikon / Belvoir","admin3":"139"},{"geonameid":6292982,"name":"Rüschlikon / Böndler","admin3":"139"},{"geonameid":6292989,"name":"Rüschlikon / Burain","admin3":"139"},{"geonameid":6292988,"name":"Rüschlikon / Feldimoos","admin3":"139"},{"geonameid":6292985,"name":"Rüschlikon / Gerimoos","admin3":"139"},{"geonameid":6292980,"name":"Rüschlikon / Lindengut","admin3":"139"},{"geonameid":6292992,"name":"Rüschlikon / Loo","admin3":"139"},{"geonameid":6292994,"name":"Rüschlikon / Loorain","admin3":"139"},{"geonameid":6293003,"name":"Rüschlikon / Merisbrunnen","admin3":"139"},{"geonameid":6292999,"name":"Rüschlikon / Moos","admin3":"139"},{"geonameid":6292995,"name":"Rüschlikon / Nidelbad","admin3":"139"},{"geonameid":6292986,"name":"Rüschlikon / Oberdorf","admin3":"139"},{"geonameid":6293001,"name":"Rüschlikon / Oberer Marbach","admin3":"139"},{"geonameid":6292983,"name":"Rüschlikon / Reithalle-Pilgerweg","admin3":"139"},{"geonameid":6292998,"name":"Rüschlikon / Rörli","admin3":"139"},{"geonameid":6293004,"name":"Rüschlikon / Rührets","admin3":"139"},{"geonameid":6292979,"name":"Rüschlikon / Schönen","admin3":"139"},{"geonameid":6293002,"name":"Rüschlikon / Seewadel","admin3":"139"},{"geonameid":6292991,"name":"Rüschlikon / Suntenau","admin3":"139"},{"geonameid":6292990,"name":"Rüschlikon / Suntenwiese","admin3":"139"},{"geonameid":6292984,"name":"Rüschlikon / Tracht","admin3":"139"},{"geonameid":6292978,"name":"Rüschlikon / Unterdorf","admin3":"139"},{"geonameid":6293000,"name":"Rüschlikon / Unterer Marbach","admin3":"139"},{"geonameid":6292993,"name":"Rüschlikon / Weingarten","admin3":"139"},{"geonameid":6293052,"name":"Säge","admin3":"293"},{"geonameid":6292860,"name":"Säge","admin3":"293"},{"geonameid":6292952,"name":"Sagen","admin3":"138"},{"geonameid":2658841,"name":"Samstagern","admin3":"138"},{"geonameid":6292884,"name":"Sanitas","admin3":"135"},{"geonameid":6293071,"name":"Schanz","admin3":"293"},{"geonameid":6292733,"name":"Schiffli","admin3":"295"},{"geonameid":6292795,"name":"Schlitten","admin3":"295"},{"geonameid":6292865,"name":"Schmitten","admin3":"293"},{"geonameid":6292927,"name":"Schönau","admin3":"138"},{"geonameid":2658710,"name":"Schönenberg","admin3":"293"},{"geonameid":6292936,"name":"Schönrain","admin3":"138"},{"geonameid":6292966,"name":"Seeben","admin3":"138"},{"geonameid":6292972,"name":"Seeli","admin3":"138"},{"geonameid":6292834,"name":"Segel","admin3":"293"},{"geonameid":6293135,"name":"Sennhus","admin3":"293"},{"geonameid":6292864,"name":"Sihlau","admin3":"293"},{"geonameid":6292765,"name":"Sihlboden","admin3":"295"},{"geonameid":6292715,"name":"Sihlbrugg (nordöstl. Teil)","admin3":"295"},{"geonameid":6292782,"name":"Sihlbrugg (Station)","admin3":"295"},{"geonameid":6293085,"name":"Sihlhalde","admin3":"141"},{"geonameid":6292750,"name":"Sihlmatt","admin3":"295"},{"geonameid":6292763,"name":"Sihlwald","admin3":"295"},{"geonameid":6292674,"name":"Simismoos","admin3":"295"},{"geonameid":6292807,"name":"Sonnau","admin3":"295"},{"geonameid":6293040,"name":"Sonnenblick","admin3":"293"},{"geonameid":6293039,"name":"Sonnenrain","admin3":"293"},{"geonameid":6292738,"name":"Spitzenmatte","admin3":"295"},{"geonameid":6292747,"name":"Spitzenrain","admin3":"295"},{"geonameid":6292974,"name":"Spitzrain","admin3":"138"},{"geonameid":6292745,"name":"Sprümüli","admin3":"295"},{"geonameid":6293169,"name":"Steinweid","admin3":"293"},{"geonameid":6292953,"name":"Sternen","admin3":"138"},{"geonameid":6292778,"name":"Stockacker","admin3":"295"},{"geonameid":6293125,"name":"Stocken","admin3":"293"},{"geonameid":6293027,"name":"Stollen","admin3":"293"},{"geonameid":6293117,"name":"Strasshus","admin3":"293"},{"geonameid":6292685,"name":"Strickler","admin3":"295"},{"geonameid":6292899,"name":"Striempel","admin3":"136"},{"geonameid":6293037,"name":"Suhner","admin3":"293"},{"geonameid":6293182,"name":"Sunft","admin3":"293"},{"geonameid":6292654,"name":"Sunnau","admin3":"131"},{"geonameid":6292775,"name":"Tableten","admin3":"295"},{"geonameid":6293031,"name":"Täglischür","admin3":"293"},{"geonameid":6293020,"name":"Tanne","admin3":"293"},{"geonameid":6293019,"name":"Tannenhof","admin3":"293"},{"geonameid":2658388,"name":"Thalwil","admin3":"141"},{"geonameid":6293081,"name":"Thalwil / Berg","admin3":"141"},{"geonameid":6293080,"name":"Thalwil / Dorfkern","admin3":"141"},{"geonameid":6293082,"name":"Thalwil / Nord","admin3":"141"},{"geonameid":6295645,"name":"Thalwil / See","admin3":"141"},{"geonameid":6293083,"name":"Thalwil / Süd","admin3":"141"},{"geonameid":6292910,"name":"Tobel","admin3":"136"},{"geonameid":6292705,"name":"Tobelmüli","admin3":"295"},{"geonameid":6292652,"name":"Tüfi","admin3":"131"},{"geonameid":6292866,"name":"Unter Oerischwand","admin3":"293"},{"geonameid":6292895,"name":"Unter-Albis","admin3":"136"},{"geonameid":6293121,"name":"Unter-Chalchtaren","admin3":"293"},{"geonameid":6293156,"name":"Unter-Feld","admin3":"293"},{"geonameid":6293163,"name":"Unter-Gisenrüti","admin3":"293"},{"geonameid":6293171,"name":"Unter-Himmeri","admin3":"293"},{"geonameid":6293012,"name":"Unter-Mittelberg","admin3":"293"},{"geonameid":6293127,"name":"Unter-Oedischwänd","admin3":"293"},{"geonameid":6292931,"name":"Unter-Schwanden","admin3":"138"},{"geonameid":6293060,"name":"Unter-Wolfbühl","admin3":"293"},{"geonameid":6292821,"name":"Untere Hanegg","admin3":"295"},{"geonameid":6292839,"name":"Untere Laubegg","admin3":"293"},{"geonameid":6293021,"name":"Untere Tanne","admin3":"293"},{"geonameid":6292815,"name":"Unterer Widenbach","admin3":"295"},{"geonameid":6292783,"name":"Unterhaus","admin3":"295"},{"geonameid":6292707,"name":"Unteri Siten","admin3":"295"},{"geonameid":6292930,"name":"Untermatt","admin3":"138"},{"geonameid":6293090,"name":"Unterwerk","admin3":"141"},{"geonameid":6292663,"name":"Vögeli","admin3":"131"},{"geonameid":6292756,"name":"Vorder Bächenmoos","admin3":"295"},{"geonameid":6293007,"name":"Vorder Längimoos","admin3":"139"},{"geonameid":6293189,"name":"Vorder Mugern","admin3":"293"},{"geonameid":6292947,"name":"Vorder-Egg","admin3":"138"},{"geonameid":6292791,"name":"Vorder-Klausen","admin3":"295"},{"geonameid":6292856,"name":"Vorder-Langmoos","admin3":"293"},{"geonameid":6292911,"name":"Vorder-Risleten","admin3":"136"},{"geonameid":6293114,"name":"Vorder-Rüti","admin3":"293"},{"geonameid":6292657,"name":"Vorder-Stieg","admin3":"131"},{"geonameid":6293184,"name":"Vordere Au","admin3":"293"},{"geonameid":6292769,"name":"Vorderes Maurenmoos","admin3":"295"},{"geonameid":6292690,"name":"Vorderi Chaseren","admin3":"295"},{"geonameid":6292716,"name":"Vorderi Höchi","admin3":"295"},{"geonameid":6292713,"name":"Vorderi Siten","admin3":"295"},{"geonameid":2658082,"name":"Wädenswil","admin3":"293"},{"geonameid":6293106,"name":"Wädenswil / Boller-Giessen","admin3":"293"},{"geonameid":6293102,"name":"Wädenswil / Büelen","admin3":"293"},{"geonameid":6293096,"name":"Wädenswil / Dorf (Wädenswil)","admin3":"293"},{"geonameid":6293105,"name":"Wädenswil / Eichweid","admin3":"293"},{"geonameid":6293101,"name":"Wädenswil / Hangenmoos","admin3":"293"},{"geonameid":6293104,"name":"Wädenswil / Leihof-Mühlebach","admin3":"293"},{"geonameid":6293103,"name":"Wädenswil / Untermosen-Fuhr","admin3":"293"},{"geonameid":6293139,"name":"Waggital","admin3":"293"},{"geonameid":6292809,"name":"Waid","admin3":"295"},{"geonameid":6293075,"name":"Wald","admin3":"293"},{"geonameid":6292829,"name":"Waldegg","admin3":"295"},{"geonameid":6292825,"name":"Waldhof","admin3":"295"},{"geonameid":6292889,"name":"Waldi","admin3":"136"},{"geonameid":6293154,"name":"Wändel","admin3":"293"},{"geonameid":6292906,"name":"Weid","admin3":"136"},{"geonameid":6292943,"name":"Weid","admin3":"138"},{"geonameid":6293165,"name":"Weienschür","admin3":"293"},{"geonameid":6292670,"name":"Weier","admin3":"131"},{"geonameid":6292762,"name":"Werkplatz Sihlwald","admin3":"295"},{"geonameid":6293140,"name":"Widen","admin3":"293"},{"geonameid":6292677,"name":"Widenbach","admin3":"295"},{"geonameid":6292681,"name":"Widenhüsli","admin3":"295"},{"geonameid":6292696,"name":"Wolfisbüel","admin3":"295"},{"geonameid":6292779,"name":"Wührenbach","admin3":"295"},{"geonameid":6292676,"name":"Zimmerberg","admin3":"295"},{"geonameid":6293159,"name":"Zollingerhüser","admin3":"293"},{"geonameid":6293032,"name":"Zweierhof","admin3":"293"}],"admin3":[{"geonameid":7285023,"name":"Adliswil","admin3":"131"},{"geonameid":7286109,"name":"Horgen","admin3":"295"},{"geonameid":7286195,"name":"Kilchberg (ZH)","admin3":"135"},{"geonameid":7286260,"name":"Langnau am Albis","admin3":"136"},{"geonameid":7286708,"name":"Oberrieden","admin3":"137"},{"geonameid":7286894,"name":"Richterswil","admin3":"138"},{"geonameid":7286991,"name":"Rüschlikon","admin3":"139"},{"geonameid":7287299,"name":"Thalwil","admin3":"141"},{"geonameid":7287513,"name":"Wädenswil","admin3":"293"}],"alternateNames":[]},"__N_SSG":true}