{"pageProps":{"locale":"de","admin2":{"geonameid":2659702,"name":"Bezirk Meilen","country":"CH","admin1":"ZH","admin2":"107","admin3":"","latitude":"47.2792000","longitude":"8.6625900","localeAltName":"Meilen"},"admin1":{"geonameid":2657895,"name":"Kanton Zürich","admin1":"ZH","localeAltName":null},"locations":[{"geonameid":6293629,"name":"Aberen","admin3":"158","localeAltName":null},{"geonameid":6293302,"name":"Aegerten","admin3":"153","localeAltName":null},{"geonameid":6293589,"name":"Aegertenwis","admin3":"157","localeAltName":null},{"geonameid":6293680,"name":"Älpli","admin3":"159","localeAltName":null},{"geonameid":6293365,"name":"Appisberg","admin3":"155","localeAltName":null},{"geonameid":6293569,"name":"Auee","admin3":"157","localeAltName":null},{"geonameid":6293517,"name":"Banacher","admin3":"156","localeAltName":null},{"geonameid":6293447,"name":"Bannholz","admin3":"156","localeAltName":null},{"geonameid":6293560,"name":"Bäpur","admin3":"157","localeAltName":null},{"geonameid":6293618,"name":"Bauertacher","admin3":"158","localeAltName":null},{"geonameid":6293375,"name":"Berg","admin3":"155","localeAltName":null},{"geonameid":6293684,"name":"Bergheim","admin3":"159","localeAltName":null},{"geonameid":6293522,"name":"Bezibüel","admin3":"156","localeAltName":null},{"geonameid":6293628,"name":"Binz","admin3":"158","localeAltName":null},{"geonameid":6293692,"name":"Binzhalden","admin3":"159","localeAltName":null},{"geonameid":6293693,"name":"Binziger","admin3":"159","localeAltName":null},{"geonameid":6293199,"name":"Biswind","admin3":"152","localeAltName":null},{"geonameid":6293266,"name":"Blumenberg","admin3":"153","localeAltName":null},{"geonameid":6293579,"name":"Bodenacher","admin3":"157","localeAltName":null},{"geonameid":6293679,"name":"Bolteracher","admin3":"159","localeAltName":null},{"geonameid":6293702,"name":"Brand","admin3":"159","localeAltName":null},{"geonameid":6293687,"name":"Brandrain","admin3":"159","localeAltName":null},{"geonameid":6293258,"name":"Breitacher","admin3":"153","localeAltName":null},{"geonameid":6293509,"name":"Breiti","admin3":"156","localeAltName":null},{"geonameid":6293304,"name":"Brunegg","admin3":"153","localeAltName":null},{"geonameid":6293245,"name":"Brunisberg","admin3":"153","localeAltName":null},{"geonameid":6293297,"name":"Büel","admin3":"153","localeAltName":null},{"geonameid":6293700,"name":"Büel","admin3":"159","localeAltName":null},{"geonameid":6293409,"name":"Büelen","admin3":"156","localeAltName":null},{"geonameid":6293259,"name":"Buen","admin3":"153","localeAltName":null},{"geonameid":6293527,"name":"Bundi","admin3":"156","localeAltName":null},{"geonameid":6293349,"name":"Bunzenhalden","admin3":"154","localeAltName":null},{"geonameid":6293206,"name":"Busenharder","admin3":"152","localeAltName":null},{"geonameid":6293378,"name":"Chäsrain","admin3":"155","localeAltName":null},{"geonameid":6293529,"name":"Chilchbüel","admin3":"156","localeAltName":null},{"geonameid":6293672,"name":"Chnolli","admin3":"159","localeAltName":null},{"geonameid":6293699,"name":"Chrüzstein","admin3":"159","localeAltName":null},{"geonameid":6293249,"name":"Chüeweid","admin3":"153","localeAltName":null},{"geonameid":6293614,"name":"Dachsleren","admin3":"158","localeAltName":null},{"geonameid":6293235,"name":"Dändlikon","admin3":"153","localeAltName":null},{"geonameid":6293608,"name":"Dorf","admin3":"158","localeAltName":null},{"geonameid":6293636,"name":"Dorfhalden","admin3":"158","localeAltName":null},{"geonameid":6293625,"name":"Echtlen","admin3":"158","localeAltName":null},{"geonameid":6293626,"name":"Echtlenweg","admin3":"158","localeAltName":null},{"geonameid":6293310,"name":"Eggrüti","admin3":"153","localeAltName":null},{"geonameid":6293645,"name":"Eich","admin3":"158","localeAltName":null},{"geonameid":6293281,"name":"Eichhöchi","admin3":"153","localeAltName":null},{"geonameid":6293591,"name":"Eichholz","admin3":"157","localeAltName":null},{"geonameid":6293284,"name":"Eichwis","admin3":"153","localeAltName":null},{"geonameid":6293519,"name":"Engelbirg","admin3":"156","localeAltName":null},{"geonameid":6293518,"name":"Erlen","admin3":"156","localeAltName":null},{"geonameid":2660872,"name":"Erlenbach","admin3":"151","localeAltName":null},{"geonameid":6293194,"name":"Erlenbach / links des Dorfbachs oberhalb Bahnlinie","admin3":"151","localeAltName":null},{"geonameid":6293193,"name":"Erlenbach / links des Dorfbachs unterhalb Bahnlinie","admin3":"151","localeAltName":null},{"geonameid":6293192,"name":"Erlenbach / rechts des Dorfbachs oberhalb Bahnlinie","admin3":"151","localeAltName":null},{"geonameid":6293191,"name":"Erlenbach / rechts des Dorfbachs unterhalb Bahnlinie","admin3":"151","localeAltName":null},{"geonameid":6293675,"name":"Esslinger","admin3":"159","localeAltName":null},{"geonameid":6293565,"name":"Etzikon","admin3":"157","localeAltName":null},{"geonameid":6293646,"name":"Fangen","admin3":"158","localeAltName":null},{"geonameid":2660809,"name":"Feldbach","admin3":"153","localeAltName":null},{"geonameid":6293318,"name":"Feldbach / Beim Bahnhof","admin3":"153","localeAltName":null},{"geonameid":6293321,"name":"Feldbach / Beim Schulhaus","admin3":"153","localeAltName":null},{"geonameid":6293316,"name":"Feldbach / Feldbach (Dorfkern)","admin3":"153","localeAltName":null},{"geonameid":6293319,"name":"Feldbach / Haldenreben","admin3":"153","localeAltName":null},{"geonameid":6293317,"name":"Feldbach / Rosenberg","admin3":"153","localeAltName":null},{"geonameid":6293320,"name":"Feldbach / Uf dr Rüti","admin3":"153","localeAltName":null},{"geonameid":2660805,"name":"Feldmeilen","admin3":"156","localeAltName":null},{"geonameid":6293398,"name":"Feldmeilen / Bettenen","admin3":"156","localeAltName":null},{"geonameid":6293404,"name":"Feldmeilen / Bodenacher","admin3":"156","localeAltName":null},{"geonameid":6293384,"name":"Feldmeilen / Bünishofen","admin3":"156","localeAltName":null},{"geonameid":6293396,"name":"Feldmeilen / Christoffel","admin3":"156","localeAltName":null},{"geonameid":6295647,"name":"Feldmeilen / Feld","admin3":"156","localeAltName":null},{"geonameid":6293390,"name":"Feldmeilen / Feldhof","admin3":"156","localeAltName":null},{"geonameid":6293401,"name":"Feldmeilen / Frauenchammer","admin3":"156","localeAltName":null},{"geonameid":6293385,"name":"Feldmeilen / Gubel","admin3":"156","localeAltName":null},{"geonameid":6293392,"name":"Feldmeilen / Hasenhalden","admin3":"156","localeAltName":null},{"geonameid":6293391,"name":"Feldmeilen / Heeren","admin3":"156","localeAltName":null},{"geonameid":6293387,"name":"Feldmeilen / Hinterfeld","admin3":"156","localeAltName":null},{"geonameid":6293418,"name":"Feldmeilen / Horn","admin3":"156","localeAltName":null},{"geonameid":6293394,"name":"Feldmeilen / Hösch","admin3":"156","localeAltName":null},{"geonameid":6293393,"name":"Feldmeilen / Huderst","admin3":"156","localeAltName":null},{"geonameid":6293389,"name":"Feldmeilen / Im Koller","admin3":"156","localeAltName":null},{"geonameid":6293416,"name":"Feldmeilen / Ländisch","admin3":"156","localeAltName":null},{"geonameid":6293395,"name":"Feldmeilen / Mariafeld","admin3":"156","localeAltName":null},{"geonameid":6293406,"name":"Feldmeilen / Plätzli","admin3":"156","localeAltName":null},{"geonameid":6293403,"name":"Feldmeilen / Rain","admin3":"156","localeAltName":null},{"geonameid":6293386,"name":"Feldmeilen / Rossbach","admin3":"156","localeAltName":null},{"geonameid":6293417,"name":"Feldmeilen / Schilt","admin3":"156","localeAltName":null},{"geonameid":6293400,"name":"Feldmeilen / Schönacher","admin3":"156","localeAltName":null},{"geonameid":6293402,"name":"Feldmeilen / Schwabach","admin3":"156","localeAltName":null},{"geonameid":6293388,"name":"Feldmeilen / Teien","admin3":"156","localeAltName":null},{"geonameid":6293382,"name":"Feldmeilen / Tobel","admin3":"156","localeAltName":null},{"geonameid":6293397,"name":"Feldmeilen / Trünggeler","admin3":"156","localeAltName":null},{"geonameid":6293405,"name":"Feldmeilen / Vorderfeld","admin3":"156","localeAltName":null},{"geonameid":6293383,"name":"Feldmeilen / Zil","admin3":"156","localeAltName":null},{"geonameid":6293326,"name":"Felsbach","admin3":"153","localeAltName":null},{"geonameid":6293291,"name":"Felsengrund","admin3":"153","localeAltName":null},{"geonameid":6293564,"name":"Felsengrund","admin3":"157","localeAltName":null},{"geonameid":6293218,"name":"Felsengrund","admin3":"152","localeAltName":null},{"geonameid":6293688,"name":"Forbüel","admin3":"159","localeAltName":null},{"geonameid":6293342,"name":"Forch (südl. Teil)","admin3":"154","localeAltName":null},{"geonameid":6293234,"name":"Frauwis","admin3":"153","localeAltName":null},{"geonameid":6293210,"name":"Fröschgüllen","admin3":"152","localeAltName":null},{"geonameid":6293545,"name":"Fuchsloch","admin3":"156","localeAltName":null},{"geonameid":6293690,"name":"Furen","admin3":"159","localeAltName":null},{"geonameid":6293283,"name":"Garstlig","admin3":"153","localeAltName":null},{"geonameid":6293568,"name":"Gartenacker","admin3":"157","localeAltName":null},{"geonameid":6293606,"name":"Geerenstöck","admin3":"157","localeAltName":null},{"geonameid":6293263,"name":"Ghei","admin3":"153","localeAltName":null},{"geonameid":6293676,"name":"Gibisnüd","admin3":"159","localeAltName":null},{"geonameid":6293303,"name":"Gibisnüt","admin3":"153","localeAltName":null},{"geonameid":6293574,"name":"Glärnischstrasse","admin3":"157","localeAltName":null},{"geonameid":6293311,"name":"Goldenberg","admin3":"153","localeAltName":null},{"geonameid":6293599,"name":"Goldrain","admin3":"157","localeAltName":null},{"geonameid":6293605,"name":"Grossweid","admin3":"157","localeAltName":null},{"geonameid":6293301,"name":"Grüt","admin3":"153","localeAltName":null},{"geonameid":6293678,"name":"Grüt","admin3":"159","localeAltName":null},{"geonameid":6293276,"name":"Grütrain","admin3":"153","localeAltName":null},{"geonameid":6293212,"name":"Gugen","admin3":"152","localeAltName":null},{"geonameid":6293379,"name":"Gugger","admin3":"155","localeAltName":null},{"geonameid":6293246,"name":"Gunten","admin3":"153","localeAltName":null},{"geonameid":6293571,"name":"Gusch","admin3":"157","localeAltName":null},{"geonameid":6293524,"name":"Haltenacher","admin3":"156","localeAltName":null},{"geonameid":6293241,"name":"Hasel","admin3":"153","localeAltName":null},{"geonameid":6293217,"name":"Hasenacher","admin3":"152","localeAltName":null},{"geonameid":6293683,"name":"Haslibach","admin3":"159","localeAltName":null},{"geonameid":6293703,"name":"Haslihalde","admin3":"159","localeAltName":null},{"geonameid":6293239,"name":"Herrgass","admin3":"153","localeAltName":null},{"geonameid":2660359,"name":"Herrliberg","admin3":"152","localeAltName":null},{"geonameid":6293279,"name":"Hinderholz","admin3":"153","localeAltName":null},{"geonameid":6293288,"name":"Hinderschlatt","admin3":"153","localeAltName":null},{"geonameid":6293250,"name":"Hinderwald","admin3":"153","localeAltName":null},{"geonameid":6293424,"name":"Hinterburg","admin3":"156","localeAltName":null},{"geonameid":6293525,"name":"Hinterer Pfannenstiel","admin3":"156","localeAltName":null},{"geonameid":6293616,"name":"Hinterer Püntacher","admin3":"158","localeAltName":null},{"geonameid":6293570,"name":"Hinteres Chloster","admin3":"157","localeAltName":null},{"geonameid":6293252,"name":"Hochgass","admin3":"153","localeAltName":null},{"geonameid":6293580,"name":"Hochstrass","admin3":"157","localeAltName":null},{"geonameid":6293294,"name":"Hochwacht","admin3":"153","localeAltName":null},{"geonameid":6293202,"name":"Hof","admin3":"152","localeAltName":null},{"geonameid":6293351,"name":"Hohrüti","admin3":"154","localeAltName":null},{"geonameid":6293280,"name":"Holgass","admin3":"153","localeAltName":null},{"geonameid":6293593,"name":"Holzhusen","admin3":"157","localeAltName":null},{"geonameid":6293286,"name":"Holzschlag","admin3":"153","localeAltName":null},{"geonameid":2660309,"name":"Hombrechtikon","admin3":"153","localeAltName":null},{"geonameid":6293225,"name":"Hombrechtikon / Bei der Kirche","admin3":"153","localeAltName":null},{"geonameid":6293269,"name":"Hombrechtikon / Blatten","admin3":"153","localeAltName":null},{"geonameid":6293228,"name":"Hombrechtikon / Bochslen","admin3":"153","localeAltName":null},{"geonameid":6293224,"name":"Hombrechtikon / Breitlen","admin3":"153","localeAltName":null},{"geonameid":6293229,"name":"Hombrechtikon / Chramen","admin3":"153","localeAltName":null},{"geonameid":6293223,"name":"Hombrechtikon / Dörfli","admin3":"153","localeAltName":null},{"geonameid":6293230,"name":"Hombrechtikon / Eichberg","admin3":"153","localeAltName":null},{"geonameid":6293270,"name":"Hombrechtikon / Grossacher","admin3":"153","localeAltName":null},{"geonameid":6293231,"name":"Hombrechtikon / Tobel","admin3":"153","localeAltName":null},{"geonameid":6293226,"name":"Hombrechtikon / Zelgli","admin3":"153","localeAltName":null},{"geonameid":6293227,"name":"Hombrechtikon / Zentrum","admin3":"153","localeAltName":null},{"geonameid":6293600,"name":"Horüti","admin3":"157","localeAltName":null},{"geonameid":6293299,"name":"Hotwiel","admin3":"153","localeAltName":null},{"geonameid":6293240,"name":"Hueb","admin3":"153","localeAltName":null},{"geonameid":6293612,"name":"Hunert","admin3":"158","localeAltName":null},{"geonameid":6293282,"name":"Inner-Langenriet","admin3":"153","localeAltName":null},{"geonameid":6293346,"name":"Kaltenstein","admin3":"154","localeAltName":null},{"geonameid":6293609,"name":"Kehlhof","admin3":"158","localeAltName":null},{"geonameid":6293196,"name":"Kittenmühle","admin3":"152","localeAltName":null},{"geonameid":2660089,"name":"Küsnacht","admin3":"154","localeAltName":null},{"geonameid":6293335,"name":"Küsnacht / Allmend","admin3":"154","localeAltName":null},{"geonameid":6293330,"name":"Küsnacht / Dorf","admin3":"154","localeAltName":null},{"geonameid":6293331,"name":"Küsnacht / Goldbach","admin3":"154","localeAltName":null},{"geonameid":6293334,"name":"Küsnacht / Heslibach","admin3":"154","localeAltName":null},{"geonameid":6293332,"name":"Küsnacht / Itschnach","admin3":"154","localeAltName":null},{"geonameid":6293333,"name":"Küsnacht / Schiedhalden","admin3":"154","localeAltName":null},{"geonameid":6293256,"name":"Langacher","admin3":"153","localeAltName":null},{"geonameid":6293516,"name":"Langjoch","admin3":"156","localeAltName":null},{"geonameid":6293633,"name":"Lattenberg","admin3":"158","localeAltName":null},{"geonameid":6293644,"name":"Laubisrüti","admin3":"158","localeAltName":null},{"geonameid":6293272,"name":"Laufenbach","admin3":"153","localeAltName":null},{"geonameid":6293339,"name":"Limberg","admin3":"154","localeAltName":null},{"geonameid":6293275,"name":"Lüeholz","admin3":"153","localeAltName":null},{"geonameid":6293419,"name":"Luft","admin3":"156","localeAltName":null},{"geonameid":6293260,"name":"Lutikon","admin3":"153","localeAltName":null},{"geonameid":6293261,"name":"Lützelsee","admin3":"153","localeAltName":null},{"geonameid":2659772,"name":"Männedorf","admin3":"155","localeAltName":null},{"geonameid":6293362,"name":"Männedorf / Allenberg","admin3":"155","localeAltName":null},{"geonameid":6293358,"name":"Männedorf / Allmend","admin3":"155","localeAltName":null},{"geonameid":6293361,"name":"Männedorf / Auf Dorf","admin3":"155","localeAltName":null},{"geonameid":6293364,"name":"Männedorf / Ausserfeld","admin3":"155","localeAltName":null},{"geonameid":6293360,"name":"Männedorf / Boldern","admin3":"155","localeAltName":null},{"geonameid":6293363,"name":"Männedorf / Brüsch","admin3":"155","localeAltName":null},{"geonameid":6293357,"name":"Männedorf / Bühlen","admin3":"155","localeAltName":null},{"geonameid":6293356,"name":"Männedorf / Dorfkern","admin3":"155","localeAltName":null},{"geonameid":6293359,"name":"Männedorf / Schellen","admin3":"155","localeAltName":null},{"geonameid":2659703,"name":"Meilen","admin3":"156","localeAltName":null},{"geonameid":6293445,"name":"Meilen / Allmend","admin3":"156","localeAltName":null},{"geonameid":6293451,"name":"Meilen / Bäpfert","admin3":"156","localeAltName":null},{"geonameid":6293457,"name":"Meilen / Beugen","admin3":"156","localeAltName":null},{"geonameid":6293455,"name":"Meilen / Bruech","admin3":"156","localeAltName":null},{"geonameid":6293436,"name":"Meilen / Burg","admin3":"156","localeAltName":null},{"geonameid":6293431,"name":"Meilen / Dorfmeilen","admin3":"156","localeAltName":null},{"geonameid":6293420,"name":"Meilen / Durst","admin3":"156","localeAltName":null},{"geonameid":6293449,"name":"Meilen / Geisshalden","admin3":"156","localeAltName":null},{"geonameid":6293466,"name":"Meilen / Giessen","admin3":"156","localeAltName":null},{"geonameid":6293428,"name":"Meilen / Grund","admin3":"156","localeAltName":null},{"geonameid":6293433,"name":"Meilen / Halten","admin3":"156","localeAltName":null},{"geonameid":6293453,"name":"Meilen / Halten","admin3":"156","localeAltName":null},{"geonameid":6293426,"name":"Meilen / Hof","admin3":"156","localeAltName":null},{"geonameid":6293434,"name":"Meilen / Hofstetten","admin3":"156","localeAltName":null},{"geonameid":6293421,"name":"Meilen / Holengass","admin3":"156","localeAltName":null},{"geonameid":6293432,"name":"Meilen / Hürnen","admin3":"156","localeAltName":null},{"geonameid":6293454,"name":"Meilen / Just","admin3":"156","localeAltName":null},{"geonameid":6293430,"name":"Meilen / Kirchgass","admin3":"156","localeAltName":null},{"geonameid":6293439,"name":"Meilen / Kullenacher","admin3":"156","localeAltName":null},{"geonameid":6293427,"name":"Meilen / Obermüli","admin3":"156","localeAltName":null},{"geonameid":6293446,"name":"Meilen / Ormis","admin3":"156","localeAltName":null},{"geonameid":6293425,"name":"Meilen / Platten","admin3":"156","localeAltName":null},{"geonameid":6293438,"name":"Meilen / Rain","admin3":"156","localeAltName":null},{"geonameid":6293443,"name":"Meilen / Risi","admin3":"156","localeAltName":null},{"geonameid":6293444,"name":"Meilen / Ruebstein","admin3":"156","localeAltName":null},{"geonameid":6293456,"name":"Meilen / Schällen","admin3":"156","localeAltName":null},{"geonameid":6293423,"name":"Meilen / Seehalden","admin3":"156","localeAltName":null},{"geonameid":6293448,"name":"Meilen / Unot","admin3":"156","localeAltName":null},{"geonameid":6293437,"name":"Meilen / Veltlin","admin3":"156","localeAltName":null},{"geonameid":6293452,"name":"Meilen / Vorrain","admin3":"156","localeAltName":null},{"geonameid":6293440,"name":"Meilen / Wampflen","admin3":"156","localeAltName":null},{"geonameid":6293429,"name":"Meilen / Winkel","admin3":"156","localeAltName":null},{"geonameid":6293450,"name":"Meilen / Zumpernaul","admin3":"156","localeAltName":null},{"geonameid":6293442,"name":"Meilen / Zweienbach","admin3":"156","localeAltName":null},{"geonameid":6293648,"name":"Mockenwis","admin3":"158","localeAltName":null},{"geonameid":6293307,"name":"Morgensunn","admin3":"153","localeAltName":null},{"geonameid":6293211,"name":"Mühlacher","admin3":"152","localeAltName":null},{"geonameid":6293697,"name":"Müli","admin3":"159","localeAltName":null},{"geonameid":6293696,"name":"Müliweid","admin3":"159","localeAltName":null},{"geonameid":6293623,"name":"Mutzmalen","admin3":"158","localeAltName":null},{"geonameid":6293513,"name":"Neuacher","admin3":"156","localeAltName":null},{"geonameid":6293585,"name":"Neuegg","admin3":"157","localeAltName":null},{"geonameid":6293578,"name":"Neuguet","admin3":"157","localeAltName":null},{"geonameid":6293237,"name":"Neuguet","admin3":"153","localeAltName":null},{"geonameid":6293267,"name":"Neuhus","admin3":"153","localeAltName":null},{"geonameid":6293594,"name":"Neuhus","admin3":"157","localeAltName":null},{"geonameid":6293348,"name":"Neuhus","admin3":"154","localeAltName":null},{"geonameid":6293575,"name":"Nidertal","admin3":"157","localeAltName":null},{"geonameid":6293201,"name":"Ob dem Hof","admin3":"152","localeAltName":null},{"geonameid":6293327,"name":"Ober Rain","admin3":"153","localeAltName":null},{"geonameid":6293377,"name":"Ober-Allenberg","admin3":"155","localeAltName":null},{"geonameid":6293588,"name":"Ober-Chrüzlen","admin3":"157","localeAltName":null},{"geonameid":6293577,"name":"Ober-Frobüel","admin3":"157","localeAltName":null},{"geonameid":6293637,"name":"Ober-Hüttenacher","admin3":"158","localeAltName":null},{"geonameid":6293314,"name":"Ober-Schirmensee","admin3":"153","localeAltName":null},{"geonameid":6293367,"name":"Obere Bühlen","admin3":"155","localeAltName":null},{"geonameid":6295549,"name":"Obermeilen","admin3":"156","localeAltName":null},{"geonameid":6293462,"name":"Obermeilen / Aebleten","admin3":"156","localeAltName":null},{"geonameid":6293465,"name":"Obermeilen / Appenhalten","admin3":"156","localeAltName":null},{"geonameid":6295656,"name":"Obermeilen / Au","admin3":"156","localeAltName":null},{"geonameid":6293475,"name":"Obermeilen / Büel","admin3":"156","localeAltName":null},{"geonameid":6293476,"name":"Obermeilen / Chrummacher","admin3":"156","localeAltName":null},{"geonameid":6293473,"name":"Obermeilen / Dollikerrain","admin3":"156","localeAltName":null},{"geonameid":6293474,"name":"Obermeilen / Dollikon","admin3":"156","localeAltName":null},{"geonameid":6293477,"name":"Obermeilen / Grueb","admin3":"156","localeAltName":null},{"geonameid":6293461,"name":"Obermeilen / Grüt","admin3":"156","localeAltName":null},{"geonameid":6293468,"name":"Obermeilen / Hinterdorf","admin3":"156","localeAltName":null},{"geonameid":6293459,"name":"Obermeilen / Holländer","admin3":"156","localeAltName":null},{"geonameid":6293478,"name":"Obermeilen / Lütisämet","admin3":"156","localeAltName":null},{"geonameid":6293467,"name":"Obermeilen / Oberdorf","admin3":"156","localeAltName":null},{"geonameid":6293460,"name":"Obermeilen / Rain","admin3":"156","localeAltName":null},{"geonameid":6293470,"name":"Obermeilen / Roren","admin3":"156","localeAltName":null},{"geonameid":6293463,"name":"Obermeilen / Rossbrunnen","admin3":"156","localeAltName":null},{"geonameid":6293472,"name":"Obermeilen / Rotholz","admin3":"156","localeAltName":null},{"geonameid":6293471,"name":"Obermeilen / Schinhuet","admin3":"156","localeAltName":null},{"geonameid":6293458,"name":"Obermeilen / Schlehstud","admin3":"156","localeAltName":null},{"geonameid":6293464,"name":"Obermeilen / Stocklen","admin3":"156","localeAltName":null},{"geonameid":6293469,"name":"Obermeilen / Unterdorf","admin3":"156","localeAltName":null},{"geonameid":6293479,"name":"Obermeilen / Weid","admin3":"156","localeAltName":null},{"geonameid":6293561,"name":"Oberror","admin3":"157","localeAltName":null},{"geonameid":2659307,"name":"Oetwil","admin3":"157","localeAltName":null},{"geonameid":6293549,"name":"Oetwil / Breiti","admin3":"157","localeAltName":null},{"geonameid":6293548,"name":"Oetwil / Eichbüel","admin3":"157","localeAltName":null},{"geonameid":6293558,"name":"Oetwil / Frohe Aussicht","admin3":"157","localeAltName":null},{"geonameid":6293554,"name":"Oetwil / Im Jöndler","admin3":"157","localeAltName":null},{"geonameid":6293553,"name":"Oetwil / In der Beichlen","admin3":"157","localeAltName":null},{"geonameid":6293557,"name":"Oetwil / In der Farb","admin3":"157","localeAltName":null},{"geonameid":6293581,"name":"Oetwil / Industriestrasse","admin3":"157","localeAltName":null},{"geonameid":6293559,"name":"Oetwil / Langholz","admin3":"157","localeAltName":null},{"geonameid":6293551,"name":"Oetwil / Oberzelg","admin3":"157","localeAltName":null},{"geonameid":6293546,"name":"Oetwil / Oetwil (Dorfkern)","admin3":"157","localeAltName":null},{"geonameid":6293552,"name":"Oetwil / Schlössli","admin3":"157","localeAltName":null},{"geonameid":6293550,"name":"Oetwil / Schützenhauswiese","admin3":"157","localeAltName":null},{"geonameid":6293556,"name":"Oetwil / Schwerze","admin3":"157","localeAltName":null},{"geonameid":6293555,"name":"Oetwil / Vogelsang","admin3":"157","localeAltName":null},{"geonameid":6293547,"name":"Oetwil / Zelgliacker","admin3":"157","localeAltName":null},{"geonameid":6293572,"name":"Paradis","admin3":"157","localeAltName":null},{"geonameid":6293251,"name":"Rain","admin3":"153","localeAltName":null},{"geonameid":6293642,"name":"Ranghusen","admin3":"158","localeAltName":null},{"geonameid":6293592,"name":"Reben","admin3":"157","localeAltName":null},{"geonameid":6293262,"name":"Rebrain","admin3":"153","localeAltName":null},{"geonameid":6293730,"name":"Rebwies","admin3":"161","localeAltName":null},{"geonameid":6293630,"name":"Redlikon","admin3":"158","localeAltName":null},{"geonameid":6293734,"name":"Resirain","admin3":"161","localeAltName":null},{"geonameid":6293631,"name":"Rhyner","admin3":"158","localeAltName":null},{"geonameid":6293582,"name":"Riet","admin3":"157","localeAltName":null},{"geonameid":6293643,"name":"Riet","admin3":"158","localeAltName":null},{"geonameid":6293726,"name":"Rietacher","admin3":"160","localeAltName":null},{"geonameid":6293306,"name":"Rietwis","admin3":"153","localeAltName":null},{"geonameid":6293566,"name":"Rinderweid","admin3":"157","localeAltName":null},{"geonameid":6293526,"name":"Roren","admin3":"156","localeAltName":null},{"geonameid":6293698,"name":"Rotholz","admin3":"159","localeAltName":null},{"geonameid":6293682,"name":"Rundi","admin3":"159","localeAltName":null},{"geonameid":6293685,"name":"Rundihalde","admin3":"159","localeAltName":null},{"geonameid":6293205,"name":"Rütibühl","admin3":"152","localeAltName":null},{"geonameid":6293639,"name":"Rütihof","admin3":"158","localeAltName":null},{"geonameid":6293209,"name":"Rütihof","admin3":"152","localeAltName":null},{"geonameid":6293586,"name":"Schachen","admin3":"157","localeAltName":null},{"geonameid":6293590,"name":"Schachenweid","admin3":"157","localeAltName":null},{"geonameid":6293649,"name":"Schirmensee","admin3":"153","localeAltName":null},{"geonameid":6293293,"name":"Schlatt","admin3":"153","localeAltName":null},{"geonameid":6293285,"name":"Schleipfi","admin3":"153","localeAltName":null},{"geonameid":6293337,"name":"Schmalzgrueb","admin3":"154","localeAltName":null},{"geonameid":6293213,"name":"Schmitteneich","admin3":"152","localeAltName":null},{"geonameid":6293343,"name":"Schulhaus Limberg","admin3":"154","localeAltName":null},{"geonameid":6293298,"name":"Schwösterrain","admin3":"153","localeAltName":null},{"geonameid":6293254,"name":"Seeweid","admin3":"153","localeAltName":null},{"geonameid":6293197,"name":"Sennhof","admin3":"152","localeAltName":null},{"geonameid":6293736,"name":"Sennhof-Oberhub","admin3":"161","localeAltName":null},{"geonameid":6293670,"name":"Speckli","admin3":"159","localeAltName":null},{"geonameid":6293355,"name":"Spitzacher","admin3":"154","localeAltName":null},{"geonameid":2658518,"name":"Stäfa","admin3":"158","localeAltName":null},{"geonameid":6293268,"name":"Stämpfi","admin3":"153","localeAltName":null},{"geonameid":6293689,"name":"Stötzli","admin3":"159","localeAltName":null},{"geonameid":6293686,"name":"Strick","admin3":"159","localeAltName":null},{"geonameid":6293576,"name":"Stubenloo","admin3":"157","localeAltName":null},{"geonameid":6293567,"name":"Summerau","admin3":"157","localeAltName":null},{"geonameid":6293312,"name":"Sunnenberg","admin3":"153","localeAltName":null},{"geonameid":6293309,"name":"Tal","admin3":"153","localeAltName":null},{"geonameid":6293740,"name":"Tal","admin3":"161","localeAltName":null},{"geonameid":6293691,"name":"Talweg","admin3":"159","localeAltName":null},{"geonameid":6293414,"name":"Tannacher","admin3":"156","localeAltName":null},{"geonameid":6293647,"name":"Töbeli","admin3":"158","localeAltName":null},{"geonameid":6293338,"name":"Tobelmüli","admin3":"154","localeAltName":null},{"geonameid":6293490,"name":"Toggwil","admin3":"156","localeAltName":null},{"geonameid":6293640,"name":"Torlen","admin3":"158","localeAltName":null},{"geonameid":6293733,"name":"Trichtenhausen","admin3":"161","localeAltName":null},{"geonameid":6293677,"name":"Tüfleten","admin3":"159","localeAltName":null},{"geonameid":6293627,"name":"Uelikon","admin3":"158","localeAltName":null},{"geonameid":2658280,"name":"Uerikon","admin3":"158","localeAltName":null},{"geonameid":2658276,"name":"Uetikon","admin3":"159","localeAltName":null},{"geonameid":6293663,"name":"Uetikon / Birchweid","admin3":"159","localeAltName":null},{"geonameid":6293659,"name":"Uetikon / Bluemental","admin3":"159","localeAltName":null},{"geonameid":6293657,"name":"Uetikon / Chirchbüel","admin3":"159","localeAltName":null},{"geonameid":6293660,"name":"Uetikon / Chlidorf","admin3":"159","localeAltName":null},{"geonameid":6293652,"name":"Uetikon / Grossdorf","admin3":"159","localeAltName":null},{"geonameid":6293662,"name":"Uetikon / Gseck","admin3":"159","localeAltName":null},{"geonameid":6293665,"name":"Uetikon / Höbeli","admin3":"159","localeAltName":null},{"geonameid":6293664,"name":"Uetikon / Langenbaum","admin3":"159","localeAltName":null},{"geonameid":6293655,"name":"Uetikon / Lindenacker","admin3":"159","localeAltName":null},{"geonameid":6293654,"name":"Uetikon / Oergelacher","admin3":"159","localeAltName":null},{"geonameid":6293658,"name":"Uetikon / Rinderweid","admin3":"159","localeAltName":null},{"geonameid":6293656,"name":"Uetikon / Scheug","admin3":"159","localeAltName":null},{"geonameid":6293653,"name":"Uetikon / Tuntelen","admin3":"159","localeAltName":null},{"geonameid":6293661,"name":"Uetikon / Wissenrain","admin3":"159","localeAltName":null},{"geonameid":6293248,"name":"Uetzikon","admin3":"153","localeAltName":null},{"geonameid":6293296,"name":"Uf Dorf","admin3":"153","localeAltName":null},{"geonameid":6293573,"name":"Under-Frobüel","admin3":"157","localeAltName":null},{"geonameid":6293583,"name":"Unter-Chrüzlen","admin3":"157","localeAltName":null},{"geonameid":6293315,"name":"Unter-Schirmensee","admin3":"153","localeAltName":null},{"geonameid":6293694,"name":"Untere Tuntelen","admin3":"159","localeAltName":null},{"geonameid":6293305,"name":"Usser-Langenriet","admin3":"153","localeAltName":null},{"geonameid":6293621,"name":"Usserfeld","admin3":"158","localeAltName":null},{"geonameid":6293531,"name":"Vorder Pfannenstiel","admin3":"156","localeAltName":null},{"geonameid":6293617,"name":"Vorderer Püntacher","admin3":"158","localeAltName":null},{"geonameid":6293257,"name":"Vorderwald","admin3":"153","localeAltName":null},{"geonameid":6293341,"name":"Waidhof","admin3":"154","localeAltName":null},{"geonameid":6293584,"name":"Waldheim","admin3":"157","localeAltName":null},{"geonameid":6293345,"name":"Wangen","admin3":"154","localeAltName":null},{"geonameid":6293613,"name":"Wanne","admin3":"158","localeAltName":null},{"geonameid":6293487,"name":"Warzhalden","admin3":"156","localeAltName":null},{"geonameid":6293300,"name":"Wellenberg","admin3":"153","localeAltName":null},{"geonameid":6293207,"name":"Wetzwil","admin3":"152","localeAltName":null},{"geonameid":6293204,"name":"Wetzwil (Kirche)","admin3":"152","localeAltName":null},{"geonameid":6293372,"name":"Widenbad","admin3":"155","localeAltName":null},{"geonameid":6293373,"name":"Widenrain","admin3":"155","localeAltName":null},{"geonameid":6293274,"name":"Widmen","admin3":"153","localeAltName":null},{"geonameid":6293624,"name":"Wiesengrund","admin3":"158","localeAltName":null},{"geonameid":6293273,"name":"Wigarten","admin3":"153","localeAltName":null},{"geonameid":6293597,"name":"Willikon","admin3":"157","localeAltName":null},{"geonameid":6293265,"name":"Wisental","admin3":"153","localeAltName":null},{"geonameid":6293347,"name":"Wiserholz","admin3":"154","localeAltName":null},{"geonameid":6293615,"name":"Zaniken","admin3":"158","localeAltName":null},{"geonameid":6293208,"name":"Zelg","admin3":"152","localeAltName":null},{"geonameid":6293485,"name":"Zelg","admin3":"156","localeAltName":null},{"geonameid":6293732,"name":"Zelgli","admin3":"161","localeAltName":null},{"geonameid":6293731,"name":"Zollikerberg","admin3":"161","localeAltName":null},{"geonameid":2657912,"name":"Zollikon","admin3":"161","localeAltName":null},{"geonameid":6293295,"name":"Zopf","admin3":"153","localeAltName":null},{"geonameid":2657900,"name":"Zumikon","admin3":"160","localeAltName":null},{"geonameid":6293722,"name":"Zumikon / Birchenacher","admin3":"160","localeAltName":null},{"geonameid":6293714,"name":"Zumikon / Chapf","admin3":"160","localeAltName":null},{"geonameid":6293707,"name":"Zumikon / Fadacher","admin3":"160","localeAltName":null},{"geonameid":6293715,"name":"Zumikon / Fallacher","admin3":"160","localeAltName":null},{"geonameid":6293712,"name":"Zumikon / Farlifang","admin3":"160","localeAltName":null},{"geonameid":6293706,"name":"Zumikon / Fröschgüllen","admin3":"160","localeAltName":null},{"geonameid":6293717,"name":"Zumikon / Grund","admin3":"160","localeAltName":null},{"geonameid":6293709,"name":"Zumikon / Hinter Farlifang","admin3":"160","localeAltName":null},{"geonameid":6293713,"name":"Zumikon / Ibruch","admin3":"160","localeAltName":null},{"geonameid":6293705,"name":"Zumikon / Isleren","admin3":"160","localeAltName":null},{"geonameid":6293711,"name":"Zumikon / Leugrueb","admin3":"160","localeAltName":null},{"geonameid":6293719,"name":"Zumikon / Maiacher","admin3":"160","localeAltName":null},{"geonameid":6293720,"name":"Zumikon / Misleren-Ruchenacher","admin3":"160","localeAltName":null},{"geonameid":6293710,"name":"Zumikon / Nesselbrunnen","admin3":"160","localeAltName":null},{"geonameid":6293708,"name":"Zumikon / Oberdorf","admin3":"160","localeAltName":null},{"geonameid":6293716,"name":"Zumikon / Rebhus","admin3":"160","localeAltName":null},{"geonameid":6293723,"name":"Zumikon / Thesenacher","admin3":"160","localeAltName":null},{"geonameid":6293721,"name":"Zumikon / Tobelhus","admin3":"160","localeAltName":null},{"geonameid":6293718,"name":"Zumikon / Unterdorf","admin3":"160","localeAltName":null},{"geonameid":6293704,"name":"Zumikon / Zumikon (Dorfkern)","admin3":"160","localeAltName":null}],"admin3":[{"geonameid":7285753,"name":"Erlenbach (ZH)","admin3":"151","localeAltName":null},{"geonameid":7286074,"name":"Herrliberg","admin3":"152","localeAltName":null},{"geonameid":7286106,"name":"Hombrechtikon","admin3":"153","localeAltName":null},{"geonameid":7286229,"name":"Küsnacht (ZH)","admin3":"154","localeAltName":null},{"geonameid":7286430,"name":"Männedorf","admin3":"155","localeAltName":null},{"geonameid":7286472,"name":"Meilen","admin3":"156","localeAltName":null},{"geonameid":7286731,"name":"Oetwil am See","admin3":"157","localeAltName":null},{"geonameid":7287211,"name":"Stäfa","admin3":"158","localeAltName":null},{"geonameid":7287364,"name":"Uetikon am See","admin3":"159","localeAltName":null},{"geonameid":7287641,"name":"Zollikon","admin3":"161","localeAltName":null},{"geonameid":7287647,"name":"Zumikon","admin3":"160","localeAltName":null}],"alternateNames":[{"alternatenameId":8661160,"geonameid":2659702,"isoLanguage":"de","alternateName":"Meilen","isPreferredName":true,"isShortName":true,"isColloquial":false,"isHistoric":false}]},"__N_SSG":true}