{"pageProps":{"locale":"de","admin2":{"geonameid":6458852,"name":"Bezirk Pfäffikon","country":"CH","admin1":"ZH","admin2":"108","admin3":"","latitude":"47.4090500","longitude":"8.7720800"},"admin1":{"geonameid":2657895,"name":"Kanton Zürich","admin1":"ZH"},"locations":[{"geonameid":6294113,"name":"Aeberliswald","admin3":"297"},{"geonameid":6294176,"name":"Aegetswil","admin3":"181"},{"geonameid":6294084,"name":"Aespen","admin3":"297"},{"geonameid":6293930,"name":"Agasul","admin3":"296"},{"geonameid":6293811,"name":"Allenwil","admin3":"297"},{"geonameid":6293964,"name":"Altes Sekundarschulhaus","admin3":"176"},{"geonameid":6293774,"name":"Altlandenberg","admin3":"297"},{"geonameid":2661690,"name":"Au","admin3":"181"},{"geonameid":6294026,"name":"Auslikon","admin3":"177"},{"geonameid":6293746,"name":"Auwis","admin3":"297"},{"geonameid":6293763,"name":"Bächi","admin3":"297"},{"geonameid":6293838,"name":"Bad","admin3":"172"},{"geonameid":6293872,"name":"Balchenstal","admin3":"173"},{"geonameid":6294039,"name":"Balmwies","admin3":"178"},{"geonameid":6294097,"name":"Bauegg","admin3":"297"},{"geonameid":2661593,"name":"Bauma","admin3":"297"},{"geonameid":6293893,"name":"Beierschen","admin3":"173"},{"geonameid":6294000,"name":"Berg","admin3":"177"},{"geonameid":6294041,"name":"Berg Madetswil","admin3":"178"},{"geonameid":6293910,"name":"Bietenholz","admin3":"296"},{"geonameid":6293918,"name":"Billikon","admin3":"296"},{"geonameid":6293946,"name":"Billikon","admin3":"296"},{"geonameid":6293911,"name":"Bisikon","admin3":"296"},{"geonameid":6293955,"name":"Bläsihof","admin3":"176"},{"geonameid":6294044,"name":"Bläsimühle","admin3":"178"},{"geonameid":6293793,"name":"Bliggenswil","admin3":"297"},{"geonameid":6293748,"name":"Blitterswil","admin3":"297"},{"geonameid":6293799,"name":"Boden","admin3":"297"},{"geonameid":6294007,"name":"Boden","admin3":"177"},{"geonameid":6294074,"name":"Bogen","admin3":"297"},{"geonameid":6294192,"name":"Bogenhaus","admin3":"181"},{"geonameid":6293884,"name":"Bollacher","admin3":"173"},{"geonameid":6293784,"name":"Böndler","admin3":"297"},{"geonameid":6294016,"name":"Brand","admin3":"177"},{"geonameid":6293834,"name":"Brand","admin3":"172"},{"geonameid":6294224,"name":"Breite","admin3":"182"},{"geonameid":6294185,"name":"Brenggau","admin3":"181"},{"geonameid":6293950,"name":"Brünggen","admin3":"296"},{"geonameid":6294055,"name":"Buchweid","admin3":"178"},{"geonameid":6294078,"name":"Buech","admin3":"297"},{"geonameid":6294059,"name":"Buechlen","admin3":"178"},{"geonameid":6293894,"name":"Buen","admin3":"173"},{"geonameid":6293846,"name":"Burenbühl","admin3":"172"},{"geonameid":6294060,"name":"Bürgli","admin3":"178"},{"geonameid":6293852,"name":"Chriesbaumweid","admin3":"172"},{"geonameid":6294137,"name":"Dettenried","admin3":"180"},{"geonameid":6293755,"name":"Dillhaus","admin3":"297"},{"geonameid":6294062,"name":"Dunkelbach","admin3":"178"},{"geonameid":6293877,"name":"Dürstelen","admin3":"173"},{"geonameid":6294110,"name":"Ebni","admin3":"297"},{"geonameid":2660944,"name":"Effretikon","admin3":"296"},{"geonameid":6293904,"name":"Effretikon / Brandenriet / Vogelsang","admin3":"296"},{"geonameid":6293905,"name":"Effretikon / Moosburg","admin3":"296"},{"geonameid":6293906,"name":"Effretikon / Rappenhalde-Bannhalde","admin3":"296"},{"geonameid":6293903,"name":"Effretikon / Watt","admin3":"296"},{"geonameid":6294208,"name":"Ehrikon","admin3":"182"},{"geonameid":6293803,"name":"Erlen","admin3":"297"},{"geonameid":6294066,"name":"Erlen","admin3":"178"},{"geonameid":6293953,"name":"Eschikon","admin3":"176"},{"geonameid":6293749,"name":"Esterli","admin3":"297"},{"geonameid":6293947,"name":"Ettenhausen","admin3":"296"},{"geonameid":6294008,"name":"Faichrüti","admin3":"177"},{"geonameid":6293764,"name":"Fälmis","admin3":"297"},{"geonameid":6294151,"name":"Farzel","admin3":"180"},{"geonameid":2660812,"name":"Fehraltorf","admin3":"172"},{"geonameid":6294147,"name":"Feld (bei Neschwil)","admin3":"180"},{"geonameid":6293924,"name":"First","admin3":"296"},{"geonameid":6293861,"name":"Fischbach","admin3":"173"},{"geonameid":6293766,"name":"Fluh","admin3":"297"},{"geonameid":6294033,"name":"Freudenberg","admin3":"177"},{"geonameid":6294212,"name":"Freudenberg","admin3":"182"},{"geonameid":6293840,"name":"Friedliweid","admin3":"172"},{"geonameid":6294006,"name":"Frohmatt","admin3":"177"},{"geonameid":6294225,"name":"Frohwies","admin3":"182"},{"geonameid":6294064,"name":"Gentenwies","admin3":"178"},{"geonameid":6294091,"name":"Gerster","admin3":"297"},{"geonameid":6294115,"name":"Gfell","admin3":"297"},{"geonameid":6294167,"name":"Ghöngg","admin3":"181"},{"geonameid":6293965,"name":"Grafstal","admin3":"176"},{"geonameid":6294017,"name":"Grund","admin3":"177"},{"geonameid":6293933,"name":"Guggenbühl","admin3":"296"},{"geonameid":6294054,"name":"Gündisau","admin3":"178"},{"geonameid":6294160,"name":"Hagenacher","admin3":"180"},{"geonameid":6293901,"name":"Halden","admin3":"173"},{"geonameid":6294144,"name":"Hänkirain","admin3":"180"},{"geonameid":6294149,"name":"Hard","admin3":"180"},{"geonameid":6293865,"name":"Hasel","admin3":"173"},{"geonameid":6293756,"name":"Haselhalden","admin3":"297"},{"geonameid":6293841,"name":"Heiget","admin3":"172"},{"geonameid":6293768,"name":"Heiletsegg","admin3":"297"},{"geonameid":6293978,"name":"Hermatswil","admin3":"177"},{"geonameid":6294189,"name":"Hinter-Auli","admin3":"181"},{"geonameid":6293797,"name":"Hinter-Lüwis","admin3":"297"},{"geonameid":6293783,"name":"Hinter-Tiefenbach","admin3":"297"},{"geonameid":6294100,"name":"Hinterberg","admin3":"297"},{"geonameid":6294107,"name":"Hintere Rossweid","admin3":"297"},{"geonameid":6294122,"name":"Hintertobel","admin3":"297"},{"geonameid":6293795,"name":"Hinterwis","admin3":"297"},{"geonameid":6294186,"name":"Hinzenberg","admin3":"181"},{"geonameid":2660335,"name":"Hittnau / Hittnau (Dorf)","admin3":"173"},{"geonameid":6293860,"name":"Hittnau / Luppmen","admin3":"173"},{"geonameid":6294114,"name":"Höchstock","admin3":"297"},{"geonameid":6293794,"name":"Höckler","admin3":"297"},{"geonameid":6293898,"name":"Hofhalden","admin3":"173"},{"geonameid":6295649,"name":"Hofstetten","admin3":"181"},{"geonameid":6293786,"name":"Höhle","admin3":"297"},{"geonameid":6294010,"name":"Holzweid","admin3":"177"},{"geonameid":6293743,"name":"Homberg","admin3":"297"},{"geonameid":6293938,"name":"Horben","admin3":"296"},{"geonameid":6293935,"name":"Horben / Hagenbuech","admin3":"296"},{"geonameid":6293780,"name":"Hörnen","admin3":"297"},{"geonameid":6293988,"name":"Humbel","admin3":"177"},{"geonameid":2660269,"name":"Illnau","admin3":"296"},{"geonameid":2659373,"name":"Illnau / Ober-Illnau","admin3":"296"},{"geonameid":2658249,"name":"Illnau / Unter-Illnau","admin3":"296"},{"geonameid":6293942,"name":"Im Langhag","admin3":"296"},{"geonameid":6293867,"name":"Isikon","admin3":"173"},{"geonameid":6294174,"name":"Jakobsbrunnen","admin3":"181"},{"geonameid":6293747,"name":"Juckeren","admin3":"297"},{"geonameid":6293914,"name":"Kemleten","admin3":"296"},{"geonameid":2660174,"name":"Kempttal","admin3":"176"},{"geonameid":6293954,"name":"Kleinikon","admin3":"176"},{"geonameid":6293873,"name":"Knup","admin3":"173"},{"geonameid":6294092,"name":"Kohlboden","admin3":"297"},{"geonameid":6294083,"name":"Kohlwies","admin3":"297"},{"geonameid":2660084,"name":"Kyburg","admin3":"296"},{"geonameid":6294141,"name":"Langächer","admin3":"180"},{"geonameid":6294108,"name":"Langfurri","admin3":"297"},{"geonameid":6293966,"name":"Lättenhof","admin3":"176"},{"geonameid":6293744,"name":"Laubberg","admin3":"297"},{"geonameid":6294156,"name":"Leisibüel","admin3":"180"},{"geonameid":6294155,"name":"Lendikon","admin3":"180"},{"geonameid":2659885,"name":"Lindau","admin3":"176"},{"geonameid":6294145,"name":"Lindenberg","admin3":"180"},{"geonameid":6293815,"name":"Lipperschwendi","admin3":"297"},{"geonameid":6294036,"name":"Lirenagel","admin3":"177"},{"geonameid":6293886,"name":"Loch","admin3":"173"},{"geonameid":6294163,"name":"Loch","admin3":"181"},{"geonameid":6293931,"name":"Luckhausen","admin3":"296"},{"geonameid":6294043,"name":"Ludetswil","admin3":"178"},{"geonameid":6294042,"name":"Madetswil","admin3":"178"},{"geonameid":6294142,"name":"Maienbüel","admin3":"180"},{"geonameid":6294199,"name":"Manzenhub","admin3":"181"},{"geonameid":6294072,"name":"Matt","admin3":"297"},{"geonameid":6294075,"name":"Mattschür","admin3":"297"},{"geonameid":6293831,"name":"Mesikon","admin3":"172"},{"geonameid":6293939,"name":"Mesikon","admin3":"296"},{"geonameid":6293880,"name":"Mitsal","admin3":"173"},{"geonameid":6293992,"name":"Mittelried","admin3":"177"},{"geonameid":6293943,"name":"Mühlau","admin3":"296"},{"geonameid":6293875,"name":"Nauen","admin3":"173"},{"geonameid":6294148,"name":"Neschwil","admin3":"180"},{"geonameid":6293951,"name":"Neu-Brünggen","admin3":"296"},{"geonameid":6294220,"name":"Neuhof","admin3":"182"},{"geonameid":6294015,"name":"Neuhof","admin3":"177"},{"geonameid":6293908,"name":"Neumühle-Kempttal","admin3":"296"},{"geonameid":6293769,"name":"Nideltobel","admin3":"297"},{"geonameid":6293812,"name":"Niderau","admin3":"297"},{"geonameid":6293770,"name":"Niderdürstelen","admin3":"297"},{"geonameid":6294031,"name":"Ober-Balm","admin3":"177"},{"geonameid":6293909,"name":"Ober-Kempttal","admin3":"296"},{"geonameid":6293987,"name":"Ober-Rick","admin3":"177"},{"geonameid":6293985,"name":"Ober-Sulzberg","admin3":"177"},{"geonameid":6293809,"name":"Ober-Wolfensberg","admin3":"297"},{"geonameid":6295526,"name":"Obere Höfe","admin3":"296"},{"geonameid":6294120,"name":"Obere Langfurri","admin3":"297"},{"geonameid":6294216,"name":"Obere Luegeten","admin3":"182"},{"geonameid":6294117,"name":"Obergfell","admin3":"297"},{"geonameid":6293885,"name":"Oberhittnau","admin3":"173"},{"geonameid":6294050,"name":"Obermoos","admin3":"178"},{"geonameid":6294098,"name":"Oberwald","admin3":"297"},{"geonameid":6294187,"name":"Ottenhub","admin3":"181"},{"geonameid":6293925,"name":"Ottikon","admin3":"296"},{"geonameid":6293921,"name":"Ottikon / Alpenblick","admin3":"296"},{"geonameid":6293928,"name":"Ottikon / Brunnacher","admin3":"296"},{"geonameid":6293919,"name":"Ottikon / Grubental","admin3":"296"},{"geonameid":6293896,"name":"Owachs","admin3":"173"},{"geonameid":6294183,"name":"Pfaffenberg","admin3":"181"},{"geonameid":2659219,"name":"Pfäffikon","admin3":"177"},{"geonameid":2660247,"name":"Pfäffikon / Irgenhausen","admin3":"177"},{"geonameid":6294004,"name":"Pfäffikon / Oberwil","admin3":"177"},{"geonameid":6293977,"name":"Pfäffikon / Pfäffikon (Dorfkern)","admin3":"177"},{"geonameid":6293897,"name":"Platten","admin3":"173"},{"geonameid":6293830,"name":"Pünt","admin3":"297"},{"geonameid":6293757,"name":"Ramsel","admin3":"297"},{"geonameid":6294032,"name":"Rappenholz","admin3":"177"},{"geonameid":6293979,"name":"Ravensbühl","admin3":"177"},{"geonameid":6293833,"name":"Reitenbach","admin3":"172"},{"geonameid":6294048,"name":"Rennweg","admin3":"178"},{"geonameid":6294105,"name":"Rietli","admin3":"297"},{"geonameid":6294121,"name":"Rietrüti","admin3":"297"},{"geonameid":6293973,"name":"Rigacher","admin3":"176"},{"geonameid":6293761,"name":"Riset","admin3":"297"},{"geonameid":6293758,"name":"Rittweg","admin3":"297"},{"geonameid":6294166,"name":"Rosenberg","admin3":"181"},{"geonameid":6294179,"name":"Rosengarten","admin3":"181"},{"geonameid":6293800,"name":"Rösli","admin3":"297"},{"geonameid":6294103,"name":"Rossweid","admin3":"297"},{"geonameid":6294095,"name":"Ruchwies","admin3":"297"},{"geonameid":6294045,"name":"Rumlikon","admin3":"178"},{"geonameid":6293854,"name":"Rumpis","admin3":"172"},{"geonameid":2658917,"name":"Russikon","admin3":"178"},{"geonameid":6293839,"name":"Rüti","admin3":"172"},{"geonameid":6294011,"name":"Rutschberg","admin3":"177"},{"geonameid":6294172,"name":"Säge","admin3":"181"},{"geonameid":6294157,"name":"Sägel","admin3":"180"},{"geonameid":2658856,"name":"Saland","admin3":"297"},{"geonameid":6294219,"name":"Schalchen","admin3":"182"},{"geonameid":6294005,"name":"Schanz","admin3":"177"},{"geonameid":6294024,"name":"Schibler","admin3":"177"},{"geonameid":6293767,"name":"Schindlet","admin3":"297"},{"geonameid":6293957,"name":"Schintenächer","admin3":"176"},{"geonameid":6293932,"name":"Schömlet","admin3":"296"},{"geonameid":6293863,"name":"Schönau","admin3":"173"},{"geonameid":6294207,"name":"Schöngut","admin3":"182"},{"geonameid":6294221,"name":"Schöntal","admin3":"182"},{"geonameid":6294028,"name":"Schöpli","admin3":"177"},{"geonameid":6293776,"name":"Schulhaus Altlandenberg","admin3":"297"},{"geonameid":6294196,"name":"Schuppis","admin3":"181"},{"geonameid":6293989,"name":"Schür","admin3":"177"},{"geonameid":6294038,"name":"Schürhof","admin3":"178"},{"geonameid":6294082,"name":"Schürli","admin3":"297"},{"geonameid":6293960,"name":"Schürliacher","admin3":"176"},{"geonameid":6294052,"name":"Schützenhof","admin3":"178"},{"geonameid":6293798,"name":"Schwandelbach","admin3":"297"},{"geonameid":6294134,"name":"Schwändi","admin3":"180"},{"geonameid":6293787,"name":"Schwendi","admin3":"297"},{"geonameid":6293820,"name":"Schwendibach","admin3":"297"},{"geonameid":6293945,"name":"Seemerrüti","admin3":"296"},{"geonameid":6293791,"name":"Seewadel","admin3":"297"},{"geonameid":6293982,"name":"Seiler","admin3":"177"},{"geonameid":6294180,"name":"Sengi","admin3":"181"},{"geonameid":6295648,"name":"Sennhof","admin3":"178"},{"geonameid":6293801,"name":"Silisegg","admin3":"297"},{"geonameid":6294022,"name":"Sitzbühl","admin3":"177"},{"geonameid":6293778,"name":"Sommerau","admin3":"297"},{"geonameid":6294063,"name":"Sommerau","admin3":"178"},{"geonameid":6294223,"name":"Sonnenberg","admin3":"182"},{"geonameid":6293775,"name":"Sonnenrain","admin3":"297"},{"geonameid":6294077,"name":"Spältrüti","admin3":"297"},{"geonameid":6293849,"name":"Speck","admin3":"172"},{"geonameid":6293848,"name":"Speckhof","admin3":"172"},{"geonameid":6293948,"name":"Stampfental","admin3":"296"},{"geonameid":6294106,"name":"Steig","admin3":"297"},{"geonameid":6294193,"name":"Steinen","admin3":"181"},{"geonameid":6294214,"name":"Steinland","admin3":"182"},{"geonameid":6294099,"name":"Steinshof","admin3":"297"},{"geonameid":6294069,"name":"Sternen","admin3":"297"},{"geonameid":6294173,"name":"Strick","admin3":"181"},{"geonameid":6293751,"name":"Sülch","admin3":"297"},{"geonameid":6294101,"name":"Sunnebad","admin3":"297"},{"geonameid":6293788,"name":"Sunnehalde","admin3":"297"},{"geonameid":6294051,"name":"Surebaum","admin3":"178"},{"geonameid":6293970,"name":"Tagelswangen","admin3":"176"},{"geonameid":6294162,"name":"Tarain","admin3":"180"},{"geonameid":6293974,"name":"Tennenberg","admin3":"176"},{"geonameid":6294153,"name":"Theilingen","admin3":"180"},{"geonameid":6294111,"name":"Tiefmoos","admin3":"297"},{"geonameid":2658340,"name":"Tössegg","admin3":"182"},{"geonameid":6293750,"name":"Uerschen","admin3":"297"},{"geonameid":6293754,"name":"Undalen","admin3":"297"},{"geonameid":6294025,"name":"Unter-Balm","admin3":"177"},{"geonameid":6293986,"name":"Unter-Rick","admin3":"177"},{"geonameid":6293984,"name":"Unter-Sulzberg","admin3":"177"},{"geonameid":6294123,"name":"Untere Bruechegg","admin3":"297"},{"geonameid":6295544,"name":"Untere Höfe","admin3":"296"},{"geonameid":6293907,"name":"Untere Höfe / Loorenhof","admin3":"296"},{"geonameid":6294215,"name":"Untere Luegeten","admin3":"182"},{"geonameid":6294080,"name":"Unterer Steinshof","admin3":"297"},{"geonameid":6294175,"name":"Vorder-Aegetswil","admin3":"181"},{"geonameid":6294188,"name":"Vorder-Auli","admin3":"181"},{"geonameid":6293796,"name":"Vorder-Lüwis","admin3":"297"},{"geonameid":6293790,"name":"Vorder-Tiefenbach","admin3":"297"},{"geonameid":6294096,"name":"Vordertobel","admin3":"297"},{"geonameid":6293741,"name":"Wald","admin3":"297"},{"geonameid":6294046,"name":"Waldegg","admin3":"178"},{"geonameid":6293995,"name":"Wallikon","admin3":"177"},{"geonameid":6293999,"name":"Weid","admin3":"177"},{"geonameid":6293952,"name":"Weissental","admin3":"296"},{"geonameid":2658024,"name":"Weisslingen","admin3":"180"},{"geonameid":6293792,"name":"Wellenau","admin3":"297"},{"geonameid":6293772,"name":"Widen","admin3":"297"},{"geonameid":6294109,"name":"Wies","admin3":"297"},{"geonameid":6294168,"name":"Wiesental","admin3":"181"},{"geonameid":2657993,"name":"Wila","admin3":"181"},{"geonameid":2657991,"name":"Wildberg","admin3":"182"},{"geonameid":6293883,"name":"Wildenwis","admin3":"173"},{"geonameid":6293773,"name":"Wilen","admin3":"297"},{"geonameid":6293895,"name":"Wilen","admin3":"173"},{"geonameid":6294057,"name":"Wilhof","admin3":"178"},{"geonameid":6293956,"name":"Winterberg","admin3":"176"},{"geonameid":6293996,"name":"Witzberg","admin3":"177"},{"geonameid":6294090,"name":"Wolfen","admin3":"297"},{"geonameid":6294119,"name":"Wolfenzädel","admin3":"297"},{"geonameid":6294087,"name":"Zapfen","admin3":"297"},{"geonameid":6294035,"name":"Zelg","admin3":"177"},{"geonameid":6294085,"name":"Ziegelhus","admin3":"297"},{"geonameid":6293832,"name":"Ziegelhütte","admin3":"172"}],"admin3":[{"geonameid":7285800,"name":"Fehraltorf","admin3":"172"},{"geonameid":7286089,"name":"Hittnau","admin3":"173"},{"geonameid":7286355,"name":"Lindau","admin3":"176"},{"geonameid":7286788,"name":"Pfäffikon","admin3":"177"},{"geonameid":7286992,"name":"Russikon","admin3":"178"},{"geonameid":7287557,"name":"Weisslingen","admin3":"180"},{"geonameid":7287573,"name":"Wila","admin3":"181"},{"geonameid":7287576,"name":"Wildberg","admin3":"182"},{"geonameid":11611720,"name":"Illnau-Effretikon","admin3":"296"},{"geonameid":11611721,"name":"Bauma","admin3":"297"}],"alternateNames":[]},"__N_SSG":true}