{"pageProps":{"locale":"de","admin2":{"geonameid":6458865,"name":"Bezirk Dielsdorf","country":"CH","admin1":"ZH","admin2":"104","admin3":"","latitude":"47.4718100","longitude":"8.4563100"},"admin1":{"geonameid":2657895,"name":"Kanton Zürich","admin1":"ZH"},"locations":[{"geonameid":6291674,"name":"Adlikon","admin3":"96"},{"geonameid":6291781,"name":"Aemperg","admin3":"100"},{"geonameid":6291442,"name":"Alt-Bachs","admin3":"81"},{"geonameid":6291687,"name":"Altburg","admin3":"96"},{"geonameid":6291743,"name":"Altwi","admin3":"97"},{"geonameid":6291684,"name":"am Katzensee","admin3":"96"},{"geonameid":6291812,"name":"Ankenland","admin3":"101"},{"geonameid":6291555,"name":"Auf dem Bühl","admin3":"89"},{"geonameid":6291695,"name":"Bachtobelstrasse","admin3":"96"},{"geonameid":6291830,"name":"Bahnhof","admin3":"101"},{"geonameid":6291739,"name":"Bärenbohl","admin3":"97"},{"geonameid":6291769,"name":"Blitzger","admin3":"99"},{"geonameid":6291464,"name":"Boppelsen","admin3":"82"},{"geonameid":6291448,"name":"Brämhof","admin3":"81"},{"geonameid":6291500,"name":"Brüederhof","admin3":"84"},{"geonameid":6291474,"name":"Buchs / Bachtel","admin3":"83"},{"geonameid":2661347,"name":"Buchs / Buchs (Dorf)","admin3":"83"},{"geonameid":6291470,"name":"Buchs / Buchs (Nord)","admin3":"83"},{"geonameid":6291473,"name":"Buchs / Dielsdorfer-/Krähstelstr.","admin3":"83"},{"geonameid":6291496,"name":"Buchs / In der Buh","admin3":"83"},{"geonameid":6291487,"name":"Buchs / Ringstrasse","admin3":"83"},{"geonameid":6291489,"name":"Buchs / Rosengarten","admin3":"83"},{"geonameid":6291488,"name":"Buchs / Tüfi","admin3":"83"},{"geonameid":6291472,"name":"Buchs / Zürcherstrasse","admin3":"83"},{"geonameid":6291634,"name":"Buck","admin3":"93"},{"geonameid":6291526,"name":"Burghof","admin3":"86"},{"geonameid":6291732,"name":"Chilisbäum","admin3":"97"},{"geonameid":6291513,"name":"Chrummwis / Längg","admin3":"84"},{"geonameid":6291584,"name":"Chutzenmoos","admin3":"90"},{"geonameid":6291756,"name":"Dachslern","admin3":"98"},{"geonameid":6291499,"name":"Dällikon / Dällikon (Dorf)","admin3":"84"},{"geonameid":6291506,"name":"Dällikon / Industriestrasse","admin3":"84"},{"geonameid":6291509,"name":"Dällikon / Sytenacher","admin3":"84"},{"geonameid":6295522,"name":"Dänikon","admin3":"85"},{"geonameid":6291517,"name":"Dänikon / Bifang","admin3":"85"},{"geonameid":6291514,"name":"Dänikon / Dänikon (Dorfkern)","admin3":"85"},{"geonameid":6291516,"name":"Dänikon / Feld 1","admin3":"85"},{"geonameid":6291515,"name":"Dänikon / Feld 2","admin3":"85"},{"geonameid":2661024,"name":"Dielsdorf","admin3":"86"},{"geonameid":6291527,"name":"Ditikerhof","admin3":"86"},{"geonameid":6291485,"name":"Drisgler","admin3":"83"},{"geonameid":6291705,"name":"Ehrenhau","admin3":"96"},{"geonameid":6291694,"name":"Eichelackerstrasse","admin3":"96"},{"geonameid":6291734,"name":"Eichhof","admin3":"97"},{"geonameid":6291628,"name":"Elektrohof","admin3":"92"},{"geonameid":6291471,"name":"Fabrikstrasse / Unterdorf","admin3":"83"},{"geonameid":6291508,"name":"Feldhof","admin3":"84"},{"geonameid":6291554,"name":"Feldhof","admin3":"89"},{"geonameid":6291688,"name":"Folenmoos","admin3":"96"},{"geonameid":6291725,"name":"Frohbühl","admin3":"97"},{"geonameid":6291492,"name":"Furthof","admin3":"83"},{"geonameid":6291693,"name":"Geissberg","admin3":"96"},{"geonameid":6291795,"name":"Gibisnüt","admin3":"100"},{"geonameid":6291635,"name":"Grund","admin3":"93"},{"geonameid":6291626,"name":"Grundbuck-Gässli","admin3":"92"},{"geonameid":6291827,"name":"Güggel","admin3":"101"},{"geonameid":6291835,"name":"Hasli","admin3":"102"},{"geonameid":6291627,"name":"Hasliberg","admin3":"90"},{"geonameid":6291624,"name":"Hell","admin3":"92"},{"geonameid":6291728,"name":"Heuel","admin3":"97"},{"geonameid":6291813,"name":"Hinter-Egg","admin3":"101"},{"geonameid":6291607,"name":"Hintereichen","admin3":"91"},{"geonameid":6291657,"name":"Hirsmühle","admin3":"95"},{"geonameid":6291458,"name":"Hochrüti","admin3":"81"},{"geonameid":6291460,"name":"Hodleten","admin3":"81"},{"geonameid":6291655,"name":"Höfli / Halde","admin3":"95"},{"geonameid":6291625,"name":"Hofstetten","admin3":"92"},{"geonameid":6291446,"name":"Hueb","admin3":"81"},{"geonameid":6291482,"name":"Huebacher","admin3":"83"},{"geonameid":6291504,"name":"Hüttenwiesenstrasse","admin3":"84"},{"geonameid":6291530,"name":"Hüttikerberg","admin3":"87"},{"geonameid":6291529,"name":"Hüttikon","admin3":"87"},{"geonameid":6291479,"name":"Im Badweg","admin3":"83"},{"geonameid":6291537,"name":"Im Juch","admin3":"88"},{"geonameid":6291666,"name":"Im Lätten","admin3":"96"},{"geonameid":6291491,"name":"Im Riet","admin3":"83"},{"geonameid":6291730,"name":"Industriestrasse","admin3":"97"},{"geonameid":6291742,"name":"Käshalden","admin3":"97"},{"geonameid":6291572,"name":"Kastelhof","admin3":"90"},{"geonameid":6291741,"name":"Kätsch","admin3":"97"},{"geonameid":6291736,"name":"Katzenrüti","admin3":"97"},{"geonameid":6291629,"name":"Kirchweg","admin3":"93"},{"geonameid":6291484,"name":"Krähstel","admin3":"83"},{"geonameid":6291543,"name":"Langgraben","admin3":"88"},{"geonameid":6291505,"name":"Langwiesen","admin3":"84"},{"geonameid":6291668,"name":"Laubisser","admin3":"96"},{"geonameid":6295641,"name":"Letten","admin3":"97"},{"geonameid":6291802,"name":"Letten","admin3":"100"},{"geonameid":6291667,"name":"Lleitstrasse","admin3":"96"},{"geonameid":6291692,"name":"Lochäcker","admin3":"96"},{"geonameid":6291573,"name":"Mettmenhasli / Mettmenhasli (Dorf)","admin3":"90"},{"geonameid":6291814,"name":"Mittler-Egg","admin3":"101"},{"geonameid":6291453,"name":"Mulflen","admin3":"81"},{"geonameid":6291726,"name":"Mülirain","admin3":"97"},{"geonameid":6291577,"name":"Nassenwil / Nassenwil (Dorf)","admin3":"90"},{"geonameid":6291578,"name":"Nassenwil / Steinacker","admin3":"90"},{"geonameid":6291750,"name":"Nebetsaglen","admin3":"97"},{"geonameid":6291532,"name":"Neerach","admin3":"88"},{"geonameid":6291443,"name":"Neu-Bachs","admin3":"81"},{"geonameid":6291468,"name":"Neuwies","admin3":"82"},{"geonameid":6295528,"name":"Niederglatt","admin3":"89"},{"geonameid":6291548,"name":"Niederglatt / Gärtli","admin3":"89"},{"geonameid":6291549,"name":"Niederglatt / Grafschaft","admin3":"89"},{"geonameid":6291550,"name":"Niederglatt / Kirchrain","admin3":"89"},{"geonameid":6291546,"name":"Niederglatt / Niederglatt (Dorfkern)","admin3":"89"},{"geonameid":6291547,"name":"Niederglatt / Nöschikon","admin3":"89"},{"geonameid":6291551,"name":"Niederglatt / Sonnenberg","admin3":"89"},{"geonameid":6291553,"name":"Niederglatt / Südstrasse","admin3":"89"},{"geonameid":6291558,"name":"Niederhasli","admin3":"90"},{"geonameid":6291561,"name":"Niederhasli / Eschenberg","admin3":"90"},{"geonameid":6291606,"name":"Niederweningen / Bi de Chile","admin3":"91"},{"geonameid":6291609,"name":"Niederweningen / Guggach","admin3":"91"},{"geonameid":6291600,"name":"Niederweningen / Gumpenwisen","admin3":"91"},{"geonameid":6291608,"name":"Niederweningen / Gupfen","admin3":"91"},{"geonameid":6291597,"name":"Niederweningen / Hüsliweg","admin3":"91"},{"geonameid":6291594,"name":"Niederweningen / Hütten","admin3":"91"},{"geonameid":2659448,"name":"Niederweningen / Niederweningen (Dorf)","admin3":"91"},{"geonameid":6291593,"name":"Niederweningen / Rebhalde","admin3":"91"},{"geonameid":6291596,"name":"Niederweningen / Urblig","admin3":"91"},{"geonameid":6291602,"name":"Ob der Müli","admin3":"91"},{"geonameid":6291671,"name":"Oberdorf (Watt)","admin3":"96"},{"geonameid":2659385,"name":"Oberglatt","admin3":"92"},{"geonameid":6291621,"name":"Oberglatt / Bahnhofquartier","admin3":"92"},{"geonameid":6291620,"name":"Oberglatt / Bellen-Grafschaft","admin3":"92"},{"geonameid":6291619,"name":"Oberglatt / Oberglatt (Dorfkern)","admin3":"92"},{"geonameid":6291575,"name":"Oberhasli / Birch","admin3":"90"},{"geonameid":6291576,"name":"Oberhasli / Hasliberg","admin3":"90"},{"geonameid":6291559,"name":"Oberhasli / Oberhasli (Dorf)","admin3":"90"},{"geonameid":6291587,"name":"Oberhasli / Sandrain","admin3":"90"},{"geonameid":2659326,"name":"Oberweningen","admin3":"93"},{"geonameid":6291837,"name":"Ofen","admin3":"102"},{"geonameid":2659269,"name":"Otelfingen","admin3":"94"},{"geonameid":6291643,"name":"Otelfingen / Bächlen","admin3":"94"},{"geonameid":6291648,"name":"Otelfingen / Bodenacker","admin3":"94"},{"geonameid":6291651,"name":"Otelfingen / Breitlen","admin3":"94"},{"geonameid":6291645,"name":"Otelfingen / Brühl","admin3":"94"},{"geonameid":6291644,"name":"Otelfingen / Dorf","admin3":"94"},{"geonameid":6291646,"name":"Otelfingen / Geeren","admin3":"94"},{"geonameid":6291652,"name":"Otelfingen / Golfpark","admin3":"94"},{"geonameid":6291650,"name":"Otelfingen / Industrie","admin3":"94"},{"geonameid":6291649,"name":"Otelfingen / Lärenbühl","admin3":"94"},{"geonameid":6291642,"name":"Otelfingen / Oberdorf","admin3":"94"},{"geonameid":6291647,"name":"Otelfingen / Sandacker","admin3":"94"},{"geonameid":6291523,"name":"Otelfinger-Str.","admin3":"85"},{"geonameid":6291676,"name":"Pächterriet","admin3":"96"},{"geonameid":6291785,"name":"Raat","admin3":"100"},{"geonameid":6291662,"name":"Rächenbühl","admin3":"96"},{"geonameid":6291665,"name":"Rebrain","admin3":"96"},{"geonameid":2659084,"name":"Regensberg","admin3":"95"},{"geonameid":2659083,"name":"Regensdorf","admin3":"96"},{"geonameid":6291700,"name":"Regensdorf / Allmend","admin3":"96"},{"geonameid":6291712,"name":"Regensdorf / Altburgstrasse","admin3":"96"},{"geonameid":6291685,"name":"Regensdorf / Dorf","admin3":"96"},{"geonameid":6291683,"name":"Regensdorf / Feldblumen-Riedthofstrasse","admin3":"96"},{"geonameid":6291701,"name":"Regensdorf / Hard","admin3":"96"},{"geonameid":6291707,"name":"Regensdorf / Hardrain","admin3":"96"},{"geonameid":6291682,"name":"Regensdorf / Hofacher-Geeren","admin3":"96"},{"geonameid":6291686,"name":"Regensdorf / Hofwiesen","admin3":"96"},{"geonameid":6291713,"name":"Regensdorf / Hubacher","admin3":"96"},{"geonameid":6291711,"name":"Regensdorf / Langfurren","admin3":"96"},{"geonameid":6291698,"name":"Regensdorf / Moos","admin3":"96"},{"geonameid":6291714,"name":"Regensdorf / Obstgarten","admin3":"96"},{"geonameid":6291709,"name":"Regensdorf / Ruggenacher","admin3":"96"},{"geonameid":6291708,"name":"Regensdorf / Watterstrasse","admin3":"96"},{"geonameid":6291715,"name":"Regensdorf / Weintgerstrasse","admin3":"96"},{"geonameid":6291660,"name":"Regensdorf / Zentrum","admin3":"96"},{"geonameid":6291826,"name":"Ried","admin3":"90"},{"geonameid":6291541,"name":"Riedt","admin3":"88"},{"geonameid":6291673,"name":"Riedthof","admin3":"96"},{"geonameid":6291503,"name":"Riet","admin3":"84"},{"geonameid":6291582,"name":"Rietrain","admin3":"90"},{"geonameid":6291801,"name":"Rotenbrunnen","admin3":"100"},{"geonameid":6291447,"name":"Rüebisberg","admin3":"81"},{"geonameid":2658927,"name":"Rümlang","admin3":"97"},{"geonameid":6295640,"name":"Rümlang / Breite","admin3":"97"},{"geonameid":6291718,"name":"Rümlang / Huebacher","admin3":"97"},{"geonameid":6291716,"name":"Rümlang / Rümlang (Dorfkern)","admin3":"97"},{"geonameid":6291717,"name":"Rümlang / Säntisstrasse-Aegler","admin3":"97"},{"geonameid":6291806,"name":"Rütenen","admin3":"100"},{"geonameid":6291469,"name":"Rüti","admin3":"82"},{"geonameid":6291752,"name":"Rüti","admin3":"98"},{"geonameid":6291588,"name":"Rütihof","admin3":"90"},{"geonameid":6291585,"name":"Rütisberg","admin3":"90"},{"geonameid":6291590,"name":"Säget","admin3":"90"},{"geonameid":6291825,"name":"Salen","admin3":"101"},{"geonameid":6291704,"name":"Sand","admin3":"96"},{"geonameid":6291670,"name":"Sandrain","admin3":"90"},{"geonameid":6291832,"name":"Schibler","admin3":"101"},{"geonameid":6291461,"name":"Schlatt","admin3":"81"},{"geonameid":6291782,"name":"Schlatti","admin3":"100"},{"geonameid":6291751,"name":"Schleinikon","admin3":"98"},{"geonameid":6291776,"name":"Schöfflisdorf / Bahnhof","admin3":"99"},{"geonameid":6291771,"name":"Schöfflisdorf / Berg","admin3":"99"},{"geonameid":6291770,"name":"Schöfflisdorf / Kaltbrunn","admin3":"99"},{"geonameid":6291774,"name":"Schöfflisdorf / Rietli","admin3":"99"},{"geonameid":6291772,"name":"Schöfflisdorf / Rüti","admin3":"99"},{"geonameid":6291767,"name":"Schöfflisdorf / Schöfflisdorf (Dorf)","admin3":"99"},{"geonameid":6291773,"name":"Schöfflisdorf / Sonnenberg","admin3":"99"},{"geonameid":6291796,"name":"Schüpfheim","admin3":"100"},{"geonameid":6291664,"name":"Sonnhalde","admin3":"96"},{"geonameid":6291672,"name":"Spannrain","admin3":"96"},{"geonameid":2658519,"name":"Stadel","admin3":"100"},{"geonameid":6291797,"name":"Stägli","admin3":"100"},{"geonameid":6291654,"name":"Staldern / Pünt","admin3":"95"},{"geonameid":6291831,"name":"Steinbruch","admin3":"101"},{"geonameid":6291842,"name":"Steinbruch","admin3":"102"},{"geonameid":6295515,"name":"Steinmaur","admin3":"101"},{"geonameid":6291817,"name":"Steinmaur / Breite","admin3":"101"},{"geonameid":6291822,"name":"Steinmaur / Buck","admin3":"101"},{"geonameid":6291810,"name":"Steinmaur / Nieder-Steinmaur","admin3":"101"},{"geonameid":6291809,"name":"Steinmaur / Ober-Steinmaur","admin3":"101"},{"geonameid":6291824,"name":"Steinmaur / Tollacher","admin3":"101"},{"geonameid":6291811,"name":"Sünikon","admin3":"101"},{"geonameid":6291601,"name":"Surbwiesen","admin3":"91"},{"geonameid":6291444,"name":"Tal","admin3":"81"},{"geonameid":6291744,"name":"Tempelhof","admin3":"97"},{"geonameid":6291445,"name":"Thalmühle","admin3":"81"},{"geonameid":6291821,"name":"Totenweg","admin3":"101"},{"geonameid":6291677,"name":"Trockenloo","admin3":"96"},{"geonameid":6291495,"name":"Trübenbach","admin3":"83"},{"geonameid":6291630,"name":"Tüfwis","admin3":"93"},{"geonameid":6291702,"name":"Unterdorf","admin3":"96"},{"geonameid":6291703,"name":"Usserdorf","admin3":"96"},{"geonameid":6291815,"name":"Vorder-Egg","admin3":"101"},{"geonameid":6291604,"name":"Vorderegg","admin3":"91"},{"geonameid":6291745,"name":"Waldegg","admin3":"97"},{"geonameid":6291755,"name":"Wasen (östl. Teil)","admin3":"98"},{"geonameid":6291754,"name":"Wasen (westl. Teil)","admin3":"98"},{"geonameid":6291631,"name":"Wattenwilerhof","admin3":"93"},{"geonameid":6295519,"name":"Weiach","admin3":"102"},{"geonameid":6291834,"name":"Weiach / Bedmen / See-Winkel","admin3":"102"},{"geonameid":6291833,"name":"Weiach / Weiach (Dorfkern)","admin3":"102"},{"geonameid":6291466,"name":"Weid","admin3":"82"},{"geonameid":6291502,"name":"Weid","admin3":"84"},{"geonameid":6291457,"name":"Weiherbach","admin3":"81"},{"geonameid":6291678,"name":"Wiesacher Ort","admin3":"96"},{"geonameid":6291493,"name":"Wiesenhof","admin3":"83"},{"geonameid":2657975,"name":"Windlach","admin3":"100"},{"geonameid":6291706,"name":"Wisacher Weid","admin3":"96"},{"geonameid":6291476,"name":"Wolfacker","admin3":"83"}],"admin3":[{"geonameid":2661649,"name":"Bachs","admin3":"81"},{"geonameid":7285295,"name":"Boppelsen","admin3":"82"},{"geonameid":7285375,"name":"Buchs (ZH)","admin3":"83"},{"geonameid":7285619,"name":"Dällikon","admin3":"84"},{"geonameid":7285623,"name":"Dänikon","admin3":"85"},{"geonameid":7285643,"name":"Dielsdorf","admin3":"86"},{"geonameid":7286126,"name":"Hüttikon","admin3":"87"},{"geonameid":7286615,"name":"Neerach","admin3":"88"},{"geonameid":7286639,"name":"Niederglatt","admin3":"89"},{"geonameid":7286641,"name":"Niederhasli","admin3":"90"},{"geonameid":7286654,"name":"Niederweningen","admin3":"91"},{"geonameid":7286690,"name":"Oberglatt","admin3":"92"},{"geonameid":7286719,"name":"Oberweningen","admin3":"93"},{"geonameid":7286762,"name":"Otelfingen","admin3":"94"},{"geonameid":7286869,"name":"Regensberg","admin3":"95"},{"geonameid":7286870,"name":"Regensdorf","admin3":"96"},{"geonameid":7286983,"name":"Rümlang","admin3":"97"},{"geonameid":7287091,"name":"Schleinikon","admin3":"98"},{"geonameid":7287105,"name":"Schöfflisdorf","admin3":"99"},{"geonameid":7287210,"name":"Stadel","admin3":"100"},{"geonameid":7287234,"name":"Steinmaur","admin3":"101"},{"geonameid":7287554,"name":"Weiach","admin3":"102"}],"alternateNames":[]},"__N_SSG":true}