{"pageProps":{"locale":"de","admin2":{"geonameid":6458751,"name":"Bezirk Uster","country":"CH","admin1":"ZH","admin2":"109","admin3":"","latitude":"47.3495200","longitude":"8.7135300"},"admin1":{"geonameid":2657895,"name":"Kanton Zürich","admin1":"ZH"},"locations":[{"geonameid":6294446,"name":"Aesch","admin3":"195"},{"geonameid":6294631,"name":"Altwiesenstrasse","admin3":"200"},{"geonameid":6294361,"name":"Ämet","admin3":"192"},{"geonameid":6294453,"name":"Aschbach","admin3":"195"},{"geonameid":6294362,"name":"Asp","admin3":"192"},{"geonameid":6294334,"name":"Bächelacher","admin3":"192"},{"geonameid":6294473,"name":"Bachlen","admin3":"195"},{"geonameid":6294402,"name":"Benglen","admin3":"193"},{"geonameid":6294462,"name":"Berg","admin3":"195"},{"geonameid":6294395,"name":"Bergstrasse","admin3":"193"},{"geonameid":6294449,"name":"Binz","admin3":"195"},{"geonameid":6294634,"name":"Birch","admin3":"200"},{"geonameid":6294387,"name":"Bollenrüti","admin3":"193"},{"geonameid":6294333,"name":"Bollerrain","admin3":"192"},{"geonameid":6294321,"name":"Bonacher","admin3":"192"},{"geonameid":6294558,"name":"Bösch","admin3":"198"},{"geonameid":6294499,"name":"Breitacher","admin3":"196"},{"geonameid":6294390,"name":"Bruggacher","admin3":"193"},{"geonameid":6294461,"name":"Brügglen","admin3":"195"},{"geonameid":2661361,"name":"Brüttisellen","admin3":"200"},{"geonameid":6294516,"name":"Buchholz","admin3":"196"},{"geonameid":6294590,"name":"Buechholz","admin3":"198"},{"geonameid":6294445,"name":"Bunt","admin3":"195"},{"geonameid":6294523,"name":"Burg","admin3":"196"},{"geonameid":6294233,"name":"Chämmeten","admin3":"191"},{"geonameid":6294509,"name":"Chilchli","admin3":"196"},{"geonameid":6294310,"name":"Dübelstein","admin3":"191"},{"geonameid":2660971,"name":"Dübendorf","admin3":"191"},{"geonameid":6294302,"name":"Dübendorf / Adlerstrasse","admin3":"191"},{"geonameid":6294275,"name":"Dübendorf / Aesch","admin3":"191"},{"geonameid":6294263,"name":"Dübendorf / Alterszentrum","admin3":"191"},{"geonameid":6294237,"name":"Dübendorf / Am Stadtrand","admin3":"191"},{"geonameid":6294296,"name":"Dübendorf / Bahnhof-Süd","admin3":"191"},{"geonameid":6294303,"name":"Dübendorf / Bahnhofstrasse","admin3":"191"},{"geonameid":6294249,"name":"Dübendorf / Birchlen","admin3":"191"},{"geonameid":6294297,"name":"Dübendorf / Casinostrasse","admin3":"191"},{"geonameid":6294254,"name":"Dübendorf / Chilbiplatz","admin3":"191"},{"geonameid":6294299,"name":"Dübendorf / Churfirstenstrasse","admin3":"191"},{"geonameid":6294262,"name":"Dübendorf / Chürzi","admin3":"191"},{"geonameid":6294288,"name":"Dübendorf / Eglishölzli","admin3":"191"},{"geonameid":6294243,"name":"Dübendorf / EMPA-EAWAG","admin3":"191"},{"geonameid":6294294,"name":"Dübendorf / Föhrlibuck","admin3":"191"},{"geonameid":6294274,"name":"Dübendorf / Frickenbuck","admin3":"191"},{"geonameid":6294280,"name":"Dübendorf / Gfenn","admin3":"191"},{"geonameid":6294298,"name":"Dübendorf / Glärnischstrasse","admin3":"191"},{"geonameid":6294295,"name":"Dübendorf / Grundstrasse","admin3":"191"},{"geonameid":6294269,"name":"Dübendorf / Grüzenstrasse","admin3":"191"},{"geonameid":6294292,"name":"Dübendorf / Gumpisbühl","admin3":"191"},{"geonameid":6294252,"name":"Dübendorf / Heugatterstrasse","admin3":"191"},{"geonameid":6294238,"name":"Dübendorf / Hochbord","admin3":"191"},{"geonameid":6294258,"name":"Dübendorf / Höglerstrasse","admin3":"191"},{"geonameid":6294287,"name":"Dübendorf / Il Faro","admin3":"191"},{"geonameid":6294244,"name":"Dübendorf / Im Huebwisen","admin3":"191"},{"geonameid":6294279,"name":"Dübendorf / Im Schossacher","admin3":"191"},{"geonameid":6294265,"name":"Dübendorf / Im Winkel","admin3":"191"},{"geonameid":6294293,"name":"Dübendorf / Im Zwinggarten","admin3":"191"},{"geonameid":6294290,"name":"Dübendorf / Kaserne","admin3":"191"},{"geonameid":6294264,"name":"Dübendorf / Kreuzbühl","admin3":"191"},{"geonameid":6294285,"name":"Dübendorf / Kunklerstrasse","admin3":"191"},{"geonameid":6294289,"name":"Dübendorf / Libellenweg","admin3":"191"},{"geonameid":6294253,"name":"Dübendorf / Meiershofstrasse","admin3":"191"},{"geonameid":6294301,"name":"Dübendorf / Mettlen","admin3":"191"},{"geonameid":6294241,"name":"Dübendorf / Neugut","admin3":"191"},{"geonameid":6294248,"name":"Dübendorf / Neugutstrasse","admin3":"191"},{"geonameid":6294268,"name":"Dübendorf / Neuhausstrasse","admin3":"191"},{"geonameid":6294270,"name":"Dübendorf / Oberdorf","admin3":"191"},{"geonameid":6294271,"name":"Dübendorf / Oberdorfstrasse","admin3":"191"},{"geonameid":6294242,"name":"Dübendorf / Ortstallwisen","admin3":"191"},{"geonameid":6294250,"name":"Dübendorf / Rietwiesenstrasse","admin3":"191"},{"geonameid":6294235,"name":"Dübendorf / Schönau","admin3":"191"},{"geonameid":6294281,"name":"Dübendorf / Schoren","admin3":"191"},{"geonameid":6294277,"name":"Dübendorf / Schörli","admin3":"191"},{"geonameid":6294260,"name":"Dübendorf / Schulhaus Wil","admin3":"191"},{"geonameid":6294276,"name":"Dübendorf / Sonnenberg","admin3":"191"},{"geonameid":6294251,"name":"Dübendorf / Sonnental","admin3":"191"},{"geonameid":6294304,"name":"Dübendorf / Städtli","admin3":"191"},{"geonameid":6294291,"name":"Dübendorf / Stägenbuck","admin3":"191"},{"geonameid":6294236,"name":"Dübendorf / Stettbach-Industrie","admin3":"191"},{"geonameid":6294300,"name":"Dübendorf / Strehlgasse","admin3":"191"},{"geonameid":6294255,"name":"Dübendorf / Vogelquartier","admin3":"191"},{"geonameid":6294257,"name":"Dübendorf / Wasserfurren","admin3":"191"},{"geonameid":6294266,"name":"Dübendorf / Wil","admin3":"191"},{"geonameid":6294267,"name":"Dübendorf / Zelgli","admin3":"191"},{"geonameid":6294256,"name":"Dübendorf / Zipartenstrasse","admin3":"191"},{"geonameid":6295530,"name":"Ebmatingen","admin3":"195"},{"geonameid":6294437,"name":"Ebmatingen / Bachtobel","admin3":"195"},{"geonameid":6294436,"name":"Ebmatingen / Bergwisen","admin3":"195"},{"geonameid":6294439,"name":"Ebmatingen / Chalen","admin3":"195"},{"geonameid":6294434,"name":"Ebmatingen / Gerstacher","admin3":"195"},{"geonameid":6294438,"name":"Ebmatingen / Lebern","admin3":"195"},{"geonameid":6294435,"name":"Ebmatingen / Rain","admin3":"195"},{"geonameid":6294440,"name":"Ebmatingen / Rainholz","admin3":"195"},{"geonameid":2660942,"name":"Egg","admin3":"192"},{"geonameid":6294328,"name":"Eggbüel","admin3":"192"},{"geonameid":6294447,"name":"Eggenberg","admin3":"195"},{"geonameid":6294582,"name":"Eicheracker","admin3":"198"},{"geonameid":6294540,"name":"Eichhof","admin3":"197"},{"geonameid":6294323,"name":"Eichholz","admin3":"192"},{"geonameid":6294349,"name":"Ellenwis","admin3":"192"},{"geonameid":6294384,"name":"Engel","admin3":"192"},{"geonameid":6294319,"name":"Esslingen","admin3":"192"},{"geonameid":2660826,"name":"Fällanden","admin3":"193"},{"geonameid":6294261,"name":"Fallmen","admin3":"191"},{"geonameid":6295650,"name":"Feld","admin3":"195"},{"geonameid":6294468,"name":"Fluh","admin3":"195"},{"geonameid":6294553,"name":"Freudwil","admin3":"198"},{"geonameid":6294429,"name":"Furen","admin3":"194"},{"geonameid":6294309,"name":"Geeren","admin3":"191"},{"geonameid":6294393,"name":"Geren","admin3":"193"},{"geonameid":6294528,"name":"Gibel","admin3":"196"},{"geonameid":6294559,"name":"Glattenried","admin3":"198"},{"geonameid":6295518,"name":"Gockhausen","admin3":"191"},{"geonameid":6294307,"name":"Gockhausen / Geerenacher","admin3":"191"},{"geonameid":6294306,"name":"Gockhausen / Langstuck","admin3":"191"},{"geonameid":6294305,"name":"Gockhausen / Meisenrain","admin3":"191"},{"geonameid":6294308,"name":"Gockhausen / Tobelacher","admin3":"191"},{"geonameid":2660515,"name":"Greifensee","admin3":"194"},{"geonameid":6294413,"name":"Greifensee / Baumgarten-Sandbüel","admin3":"194"},{"geonameid":6294417,"name":"Greifensee / Breiti","admin3":"194"},{"geonameid":6294412,"name":"Greifensee / Grafenwis","admin3":"194"},{"geonameid":6294421,"name":"Greifensee / Hof","admin3":"194"},{"geonameid":6294416,"name":"Greifensee / Ladenzentrum Stationsstrasse","admin3":"194"},{"geonameid":6294422,"name":"Greifensee / Langacher","admin3":"194"},{"geonameid":6294415,"name":"Greifensee / Meierwis","admin3":"194"},{"geonameid":6294418,"name":"Greifensee / Mettmen","admin3":"194"},{"geonameid":6294411,"name":"Greifensee / Müllerwis / Seilerwis","admin3":"194"},{"geonameid":6294410,"name":"Greifensee / Ocht","admin3":"194"},{"geonameid":6294425,"name":"Greifensee / Pfisterhölzli","admin3":"194"},{"geonameid":6294424,"name":"Greifensee / Säge","admin3":"194"},{"geonameid":6294414,"name":"Greifensee / Sandacher","admin3":"194"},{"geonameid":6294419,"name":"Greifensee / Schloss / Städtli","admin3":"194"},{"geonameid":6294420,"name":"Greifensee / Seestrasse / Dorfstrasse","admin3":"194"},{"geonameid":6294426,"name":"Greifensee / Tumigerstrasse","admin3":"194"},{"geonameid":6294423,"name":"Greifensee / Wildsbergstrasse / Tumigerstrasse","admin3":"194"},{"geonameid":6294554,"name":"Grossriet","admin3":"198"},{"geonameid":6294482,"name":"Grueben","admin3":"195"},{"geonameid":6294325,"name":"Güetli","admin3":"192"},{"geonameid":6294469,"name":"Guldenenstrasse","admin3":"195"},{"geonameid":6294617,"name":"Gutenswil","admin3":"199"},{"geonameid":6294618,"name":"Gutenswil / Pfäffikerstrasse","admin3":"199"},{"geonameid":6294628,"name":"Halde","admin3":"200"},{"geonameid":6294433,"name":"Halde","admin3":"195"},{"geonameid":6294460,"name":"Halden","admin3":"195"},{"geonameid":6294573,"name":"Hämmigächer","admin3":"198"},{"geonameid":6294542,"name":"Hanfländer","admin3":"197"},{"geonameid":6294510,"name":"Hänsler","admin3":"196"},{"geonameid":6294339,"name":"Haslen","admin3":"192"},{"geonameid":6295517,"name":"Hegnau","admin3":"199"},{"geonameid":6294612,"name":"Hegnau / Alt-Hegnau","admin3":"199"},{"geonameid":6294614,"name":"Hegnau / Dammboden-Grindel","admin3":"199"},{"geonameid":6294607,"name":"Hegnau / Gfenn","admin3":"199"},{"geonameid":6294615,"name":"Hegnau / Im Zentrum","admin3":"199"},{"geonameid":6294610,"name":"Hegnau / Maiacher","admin3":"199"},{"geonameid":6294608,"name":"Hegnau / Oetenbüel","admin3":"199"},{"geonameid":6294605,"name":"Hegnau / Sunnebüel-Eich","admin3":"199"},{"geonameid":6294539,"name":"Heidenried","admin3":"197"},{"geonameid":6294518,"name":"Heidihof","admin3":"196"},{"geonameid":6294471,"name":"Hell","admin3":"195"},{"geonameid":6295538,"name":"Hermikon","admin3":"191"},{"geonameid":6294316,"name":"Hermikon / Hermikon-Nord","admin3":"191"},{"geonameid":6294315,"name":"Hermikon / Hermikon-Süd","admin3":"191"},{"geonameid":6294479,"name":"Heuberg","admin3":"195"},{"geonameid":6294529,"name":"Heusberg","admin3":"196"},{"geonameid":6294520,"name":"Himendal","admin3":"196"},{"geonameid":6294629,"name":"Hinter-Rüti","admin3":"200"},{"geonameid":6294472,"name":"Hintere Wannwis","admin3":"195"},{"geonameid":6294318,"name":"Hinteregg","admin3":"192"},{"geonameid":6294546,"name":"Holzacker","admin3":"197"},{"geonameid":6294338,"name":"Hostig","admin3":"192"},{"geonameid":6294374,"name":"Hottental","admin3":"192"},{"geonameid":6294355,"name":"Husacher","admin3":"192"},{"geonameid":6294571,"name":"Hütten","admin3":"198"},{"geonameid":6294463,"name":"Ifang","admin3":"195"},{"geonameid":6294366,"name":"Im mittleren Ämet","admin3":"192"},{"geonameid":6294368,"name":"Im usseren Ämet","admin3":"192"},{"geonameid":6294392,"name":"Industriestrasse","admin3":"193"},{"geonameid":6294359,"name":"Inner-Vollikon","admin3":"192"},{"geonameid":6294581,"name":"Kies","admin3":"198"},{"geonameid":6294596,"name":"Kindhausen / Gärtnerei Leimgruber","admin3":"199"},{"geonameid":6294594,"name":"Kindhausen / Kindhausen (Dorf)","admin3":"199"},{"geonameid":6294585,"name":"Kluszelg","admin3":"198"},{"geonameid":6294466,"name":"Kreuzbühl","admin3":"195"},{"geonameid":6294579,"name":"Landgricht","admin3":"198"},{"geonameid":6294398,"name":"Langäri","admin3":"193"},{"geonameid":6294341,"name":"Lätten","admin3":"192"},{"geonameid":6294360,"name":"Lee","admin3":"192"},{"geonameid":6294365,"name":"Leihalde","admin3":"192"},{"geonameid":6294363,"name":"Leihalden","admin3":"192"},{"geonameid":6294342,"name":"Lesirain","admin3":"192"},{"geonameid":6294483,"name":"Letzi","admin3":"195"},{"geonameid":6294373,"name":"Lieburg","admin3":"192"},{"geonameid":6294385,"name":"Lindenhof","admin3":"192"},{"geonameid":6294504,"name":"Lindenmatt","admin3":"196"},{"geonameid":6294500,"name":"Lindhof","admin3":"196"},{"geonameid":6294369,"name":"Loo","admin3":"192"},{"geonameid":6294457,"name":"Looren","admin3":"195"},{"geonameid":6294312,"name":"Loren","admin3":"191"},{"geonameid":6294375,"name":"Lurweid","admin3":"192"},{"geonameid":6294336,"name":"Maienrain","admin3":"192"},{"geonameid":2659720,"name":"Maur","admin3":"195"},{"geonameid":6294443,"name":"Maur / Chaibler","admin3":"195"},{"geonameid":6294442,"name":"Maur / Hubrain","admin3":"195"},{"geonameid":6294441,"name":"Maur / Regenbogen","admin3":"195"},{"geonameid":2659631,"name":"Mönchaltorf","admin3":"196"},{"geonameid":6294493,"name":"Mönchaltorf / Bruggächer","admin3":"196"},{"geonameid":6294491,"name":"Mönchaltorf / Dorf","admin3":"196"},{"geonameid":6294496,"name":"Mönchaltorf / Heugarten","admin3":"196"},{"geonameid":6294492,"name":"Mönchaltorf / Hohfurren","admin3":"196"},{"geonameid":6294497,"name":"Mönchaltorf / Rietwis","admin3":"196"},{"geonameid":6294494,"name":"Mönchaltorf / Schwerzisteg","admin3":"196"},{"geonameid":6294386,"name":"Morglen","admin3":"193"},{"geonameid":6294394,"name":"Mülibächli","admin3":"193"},{"geonameid":2659515,"name":"Nänikon","admin3":"198"},{"geonameid":6294592,"name":"Nänikon / Mettmenried","admin3":"198"},{"geonameid":6294555,"name":"Nänikon / Nänikon (Dorfkern)","admin3":"198"},{"geonameid":6294577,"name":"Neufuhr","admin3":"198"},{"geonameid":6294481,"name":"Neugut","admin3":"195"},{"geonameid":6294397,"name":"Neuhaus","admin3":"193"},{"geonameid":6294320,"name":"Neuhus (bei Hinteregg)","admin3":"192"},{"geonameid":6294372,"name":"Niederesslingen","admin3":"192"},{"geonameid":6294327,"name":"Ober Halden","admin3":"192"},{"geonameid":6294524,"name":"Oberer Brand","admin3":"196"},{"geonameid":6294351,"name":"Oberschaubigen","admin3":"192"},{"geonameid":2659213,"name":"Pfaffhausen","admin3":"193"},{"geonameid":6294459,"name":"Platte","admin3":"195"},{"geonameid":6294330,"name":"Rällikon","admin3":"192"},{"geonameid":6294572,"name":"Riedikon","admin3":"198"},{"geonameid":6294376,"name":"Rohr","admin3":"192"},{"geonameid":6294636,"name":"Roswies","admin3":"200"},{"geonameid":6294343,"name":"Rotblatt","admin3":"192"},{"geonameid":6294456,"name":"Rüti","admin3":"195"},{"geonameid":6294633,"name":"Rütihof","admin3":"200"},{"geonameid":6294344,"name":"Sagenacher","admin3":"192"},{"geonameid":6294346,"name":"Sandgrueb","admin3":"192"},{"geonameid":6294388,"name":"Schärler","admin3":"193"},{"geonameid":6294352,"name":"Schaubigen","admin3":"192"},{"geonameid":6294448,"name":"Scheuren","admin3":"195"},{"geonameid":6294464,"name":"Schifflände","admin3":"195"},{"geonameid":6294311,"name":"Schlossbreiti","admin3":"191"},{"geonameid":6294404,"name":"Schönau","admin3":"193"},{"geonameid":6295514,"name":"Schwerzenbach","admin3":"197"},{"geonameid":6294532,"name":"Schwerzenbach / Blatten","admin3":"197"},{"geonameid":6294531,"name":"Schwerzenbach / Chimli","admin3":"197"},{"geonameid":6294534,"name":"Schwerzenbach / Chropfacher","admin3":"197"},{"geonameid":6294538,"name":"Schwerzenbach / Juch","admin3":"197"},{"geonameid":6294535,"name":"Schwerzenbach / Widacher","admin3":"197"},{"geonameid":6294533,"name":"Schwerzenbach / Zilacher","admin3":"197"},{"geonameid":6294537,"name":"Schwerzenbach / Zimikerriet","admin3":"197"},{"geonameid":6294536,"name":"Schwerzenbach / Zimikerriet/Guntenbachstr.","admin3":"197"},{"geonameid":6294431,"name":"Spitz","admin3":"194"},{"geonameid":6294588,"name":"Spitzacker","admin3":"198"},{"geonameid":6294567,"name":"Steinbruch (bei Werrikon)","admin3":"198"},{"geonameid":6294474,"name":"Steindrüsen","admin3":"195"},{"geonameid":6294232,"name":"Stettbach","admin3":"191"},{"geonameid":6294478,"name":"Stiefelacher","admin3":"195"},{"geonameid":6294322,"name":"Stifelacher","admin3":"192"},{"geonameid":6294324,"name":"Stifelwis","admin3":"192"},{"geonameid":6294451,"name":"Stuelen","admin3":"195"},{"geonameid":6294587,"name":"Sulzbach","admin3":"198"},{"geonameid":6294379,"name":"Sunnenberg","admin3":"192"},{"geonameid":6294455,"name":"Süssplätz","admin3":"195"},{"geonameid":6294556,"name":"Tämbrig","admin3":"198"},{"geonameid":6294589,"name":"Trimuelen","admin3":"198"},{"geonameid":6294557,"name":"Tumiger","admin3":"198"},{"geonameid":6294476,"name":"Uessikon","admin3":"195"},{"geonameid":6294329,"name":"Unter Halden","admin3":"192"},{"geonameid":6294521,"name":"Unterer Brand","admin3":"196"},{"geonameid":6294381,"name":"Unterneuhus","admin3":"192"},{"geonameid":6294377,"name":"Usser-Vollikon","admin3":"192"},{"geonameid":2658216,"name":"Uster","admin3":"198"},{"geonameid":6294549,"name":"Uster / Gschwader","admin3":"198"},{"geonameid":6294547,"name":"Uster / Kirch-Uster","admin3":"198"},{"geonameid":6294552,"name":"Uster / Kreidenbühl","admin3":"198"},{"geonameid":6294548,"name":"Uster / Nieder-Uster","admin3":"198"},{"geonameid":6294551,"name":"Uster / Nossikon","admin3":"198"},{"geonameid":6294550,"name":"Uster / Ober-Uster","admin3":"198"},{"geonameid":6294604,"name":"Volketswil / Brugglen","admin3":"199"},{"geonameid":6294597,"name":"Volketswil / Langacher","admin3":"199"},{"geonameid":6294601,"name":"Volketswil / Neuhof","admin3":"199"},{"geonameid":2658105,"name":"Volketswil / Volketswil (Dorf)","admin3":"199"},{"geonameid":6294332,"name":"Vorder-Guldenen","admin3":"192"},{"geonameid":6294480,"name":"Vordere Wannwis","admin3":"195"},{"geonameid":6294354,"name":"Vorderer-Radrain","admin3":"192"},{"geonameid":6294234,"name":"Waldegg","admin3":"191"},{"geonameid":6294626,"name":"Wangen","admin3":"200"},{"geonameid":6294444,"name":"Wassberg","admin3":"195"},{"geonameid":6294513,"name":"Weid","admin3":"196"},{"geonameid":6294632,"name":"Weidli","admin3":"200"},{"geonameid":6294565,"name":"Wermatswil","admin3":"198"},{"geonameid":6294560,"name":"Werrikon","admin3":"198"},{"geonameid":6294507,"name":"Widenriet","admin3":"196"},{"geonameid":6294519,"name":"Wihalden","admin3":"196"},{"geonameid":6294430,"name":"Wildsberg","admin3":"194"},{"geonameid":6294562,"name":"Winikon","admin3":"198"},{"geonameid":6294382,"name":"Wolfenriet","admin3":"192"},{"geonameid":6294458,"name":"Wölfern","admin3":"195"},{"geonameid":6294452,"name":"Wolfgalgen","admin3":"195"},{"geonameid":6294498,"name":"Wüeri","admin3":"196"},{"geonameid":6294356,"name":"Zelg","admin3":"192"},{"geonameid":6294389,"name":"Zelg","admin3":"193"},{"geonameid":6294391,"name":"Zil","admin3":"193"},{"geonameid":6294619,"name":"Zimikon / Chalberweidli","admin3":"199"},{"geonameid":6294624,"name":"Zimikon / In der Höh","admin3":"199"},{"geonameid":6294621,"name":"Zimikon / Industriegebiet","admin3":"199"},{"geonameid":6294625,"name":"Zimikon / Rütiwies","admin3":"199"},{"geonameid":6294620,"name":"Zimikon / Zimikon (Dorf)","admin3":"199"}],"admin3":[{"geonameid":7285675,"name":"Dübendorf","admin3":"191"},{"geonameid":7285702,"name":"Egg","admin3":"192"},{"geonameid":7285794,"name":"Fällanden","admin3":"193"},{"geonameid":7285971,"name":"Greifensee","admin3":"194"},{"geonameid":7286464,"name":"Maur","admin3":"195"},{"geonameid":7286523,"name":"Mönchaltorf","admin3":"196"},{"geonameid":7287128,"name":"Schwerzenbach","admin3":"197"},{"geonameid":7287397,"name":"Uster","admin3":"198"},{"geonameid":7287492,"name":"Volketswil","admin3":"199"},{"geonameid":7287541,"name":"Wangen-Brüttisellen","admin3":"200"}],"alternateNames":[]},"__N_SSG":true}