{"pageProps":{"locale":"en","admin2":{"geonameid":4477734,"name":"Madison County","country":"US","admin1":"NC","admin2":"115","admin3":"","latitude":"35.8580900","longitude":"-82.7057600","localeAltName":null},"admin1":{"geonameid":4482348,"name":"North Carolina","admin1":"NC","localeAltName":"North Carolina"},"locations":[{"geonameid":4472119,"name":"Hot Springs","admin3":"","localeAltName":null},{"geonameid":4478056,"name":"Mars Hill","admin3":"93376","localeAltName":null},{"geonameid":4478090,"name":"Marshall","admin3":"93290","localeAltName":null}],"admin3":[{"geonameid":4495431,"name":"Township 3, Mars Hill","admin3":"93376","localeAltName":null},{"geonameid":7172151,"name":"Township 1, North Marshall","admin3":"93290","localeAltName":null},{"geonameid":7172152,"name":"Township 1, South Marshall","admin3":"93298"},{"geonameid":7172153,"name":"Township 10, Grapevine","admin3":"93660"},{"geonameid":7172154,"name":"Township 11, Revere-Rice Cove","admin3":"93706"},{"geonameid":7172155,"name":"Township 9, Sandy Mush","admin3":"93654"}],"alternateNames":[{"alternatenameId":2089560,"geonameid":4482348,"isoLanguage":"en","alternateName":"North Carolina","isPreferredName":true,"isShortName":true,"isColloquial":false,"isHistoric":false}]},"__N_SSG":true}