{"pageProps":{"locale":"en","admin2":{"geonameid":4497286,"name":"Wake County","country":"US","admin1":"NC","admin2":"183","admin3":"","latitude":"35.7901200","longitude":"-78.6502200","localeAltName":null},"admin1":{"geonameid":4482348,"name":"North Carolina","admin1":"NC","localeAltName":"North Carolina"},"locations":[{"geonameid":4452808,"name":"Apex","admin3":"93984","localeAltName":null},{"geonameid":4459467,"name":"Cary","admin3":"90536","localeAltName":null},{"geonameid":4467485,"name":"Fuquay-Varina","admin3":"92056","localeAltName":null},{"geonameid":4467657,"name":"Garner","admin3":"92788","localeAltName":null},{"geonameid":4468990,"name":"Green Level","admin3":"93984","localeAltName":null},{"geonameid":4471641,"name":"Holly Springs","admin3":"91524","localeAltName":null},{"geonameid":4474527,"name":"Knightdale","admin3":"92792","localeAltName":null},{"geonameid":4480285,"name":"Morrisville","admin3":"90576","localeAltName":null},{"geonameid":4487042,"name":"Raleigh","admin3":"92612","localeAltName":null},{"geonameid":4488859,"name":"Rolesville","admin3":"93880","localeAltName":null},{"geonameid":10629562,"name":"Scotts Mill","admin3":"93984","localeAltName":null},{"geonameid":4497290,"name":"Wake Forest","admin3":"93880","localeAltName":null},{"geonameid":4498084,"name":"Wendell","admin3":"91992","localeAltName":null},{"geonameid":4498303,"name":"West Raleigh","admin3":"92612","localeAltName":null},{"geonameid":4500324,"name":"Zebulon","admin3":"91868","localeAltName":null}],"admin3":[{"geonameid":4453863,"name":"Township of Bartons Creek","admin3":"90164"},{"geonameid":4457913,"name":"Township of Buckhorn","admin3":"90420"},{"geonameid":4459475,"name":"Township of Cary","admin3":"90536","localeAltName":null},{"geonameid":4459826,"name":"Township of Cedar Fork","admin3":"90576","localeAltName":null},{"geonameid":4471654,"name":"Township of Holly Springs","admin3":"91524","localeAltName":null},{"geonameid":4472138,"name":"Township of House Creek","admin3":"91548"},{"geonameid":4475568,"name":"Township of Leesville","admin3":"91772"},{"geonameid":4476596,"name":"Township of Little River","admin3":"91868","localeAltName":null},{"geonameid":4478027,"name":"Township of Marks Creek","admin3":"91992","localeAltName":null},{"geonameid":4478980,"name":"Township of Meredith","admin3":"92036"},{"geonameid":4479093,"name":"Township of Middle Creek","admin3":"92056","localeAltName":null},{"geonameid":4481667,"name":"Township of Neuse","admin3":"92228"},{"geonameid":4481940,"name":"Township of New Light","admin3":"92264"},{"geonameid":4483937,"name":"Township of Panther Branch","admin3":"92440"},{"geonameid":4487055,"name":"Township of Raleigh","admin3":"92612","localeAltName":null},{"geonameid":4489737,"name":"Township of Saint Marys","admin3":"92788","localeAltName":null},{"geonameid":4489768,"name":"Township of Saint Matthews","admin3":"92792","localeAltName":null},{"geonameid":4494302,"name":"Township of Swift Creek","admin3":"93200"},{"geonameid":4497295,"name":"Township of Wake Forest","admin3":"93880","localeAltName":null},{"geonameid":4498709,"name":"Township of White Oak","admin3":"93984","localeAltName":null}],"alternateNames":[{"alternatenameId":2089560,"geonameid":4482348,"isoLanguage":"en","alternateName":"North Carolina","isPreferredName":true,"isShortName":true,"isColloquial":false,"isHistoric":false}]},"__N_SSG":true}