{"pageProps":{"locale":"en","admin2":{"geonameid":5058187,"name":"Barnes County","country":"US","admin1":"ND","admin2":"003","admin3":"","latitude":"46.9361100","longitude":"-98.0715800","localeAltName":null},"admin1":{"geonameid":5690763,"name":"North Dakota","admin1":"ND","localeAltName":"North Dakota"},"locations":[{"geonameid":5062292,"name":"Valley City","admin3":"81180","localeAltName":null}],"admin3":[{"geonameid":5058072,"name":"Township of Alta","admin3":"01780"},{"geonameid":5058088,"name":"Township of Anderson","admin3":"02300"},{"geonameid":5058145,"name":"Township of Ashtabula","admin3":"03580"},{"geonameid":5058177,"name":"Township of Baldwin","admin3":"04340"},{"geonameid":5058327,"name":"Township of Binghampton","admin3":"07100"},{"geonameid":5058417,"name":"Township of Brimer","admin3":"09420"},{"geonameid":5058803,"name":"Township of Cuba","admin3":"17300"},{"geonameid":5058839,"name":"City of Dazey","admin3":"18340"},{"geonameid":5058840,"name":"Township of Dazey","admin3":"18380"},{"geonameid":5058989,"name":"Township of Eckelson","admin3":"21820"},{"geonameid":5059015,"name":"Township of Edna","admin3":"22460"},{"geonameid":5059063,"name":"Township of Ellsbury","admin3":"23500"},{"geonameid":5059191,"name":"City of Fingal","admin3":"26380"},{"geonameid":5059349,"name":"Township of Getchell","admin3":"30060"},{"geonameid":5059440,"name":"Township of Grand Prairie","admin3":"32340"},{"geonameid":5059470,"name":"Township of Green","admin3":"33020"},{"geonameid":5059479,"name":"Township of Greenland","admin3":"33380"},{"geonameid":5059619,"name":"Township of Hemen","admin3":"37180"},{"geonameid":5059682,"name":"Township of Hobart","admin3":"38300"},{"geonameid":5059929,"name":"City of Kathryn","admin3":"41500"},{"geonameid":5060037,"name":"Township of Lake Town","admin3":"43980"},{"geonameid":5060100,"name":"City of Leal","admin3":"45460"},{"geonameid":5060169,"name":"City of Litchville","admin3":"47140"},{"geonameid":5060287,"name":"Township of Mansfield","admin3":"50340"},{"geonameid":5060316,"name":"Township of Marsh","admin3":"50900"},{"geonameid":5060382,"name":"Township of Meadow Lake","admin3":"51700"},{"geonameid":5060479,"name":"Township of Minnie Lake","admin3":"53340"},{"geonameid":5060597,"name":"Township of Nelson","admin3":"55820"},{"geonameid":5060648,"name":"Township of Noltimier","admin3":"57140"},{"geonameid":5060650,"name":"City of Nome","admin3":"57180"},{"geonameid":5060662,"name":"Township of Norma","admin3":"57420"},{"geonameid":5060762,"name":"Township of Oakhill","admin3":"58780"},{"geonameid":5060811,"name":"City of Oriska","admin3":"59660"},{"geonameid":5060812,"name":"Township of Oriska","admin3":"59700"},{"geonameid":5060942,"name":"Township of Pierce","admin3":"62460"},{"geonameid":5060947,"name":"City of Pillsbury","admin3":"62540"},{"geonameid":5061018,"name":"Township of Potter","admin3":"64020"},{"geonameid":5061071,"name":"Township of Raritan","admin3":"65380"},{"geonameid":5061151,"name":"City of Rogers","admin3":"67620"},{"geonameid":5061152,"name":"Township of Rogers","admin3":"67660"},{"geonameid":5061187,"name":"Township of Rosebud","admin3":"68140"},{"geonameid":5061428,"name":"City of Sanborn","admin3":"70380"},{"geonameid":5061897,"name":"Township of Sibley Trail","admin3":"72940"},{"geonameid":5061898,"name":"City of Sibley","admin3":"72820"},{"geonameid":5061929,"name":"Township of Skandia","admin3":"73500"},{"geonameid":5062004,"name":"Township of Spring Creek","admin3":"74900"},{"geonameid":5062014,"name":"Township of Springvale","admin3":"75100"},{"geonameid":5062047,"name":"Township of Stewart","admin3":"76020"},{"geonameid":5062115,"name":"Township of Svea","admin3":"77300"},{"geonameid":5062177,"name":"Township of Thordenskjold","admin3":"78700"},{"geonameid":5062287,"name":"Township of Uxbridge","admin3":"80980"},{"geonameid":5062293,"name":"City of Valley City","admin3":"81180","localeAltName":null},{"geonameid":5062304,"name":"Township of Valley","admin3":"81080"},{"geonameid":5062435,"name":"Township of Weimer","admin3":"84220"},{"geonameid":5062543,"name":"City of Wimbledon","admin3":"86620"}],"alternateNames":[{"alternatenameId":2080778,"geonameid":5690763,"isoLanguage":"en","alternateName":"North Dakota","isPreferredName":true,"isShortName":true,"isColloquial":false,"isHistoric":false}]},"__N_SSG":true}