{"pageProps":{"locale":"en","admin2":{"geonameid":5688266,"name":"Burleigh County","country":"US","admin1":"ND","admin2":"015","admin3":"","latitude":"46.9773900","longitude":"-100.4687300","localeAltName":null},"admin1":{"geonameid":5690763,"name":"North Dakota","admin1":"ND","localeAltName":"North Dakota"},"locations":[{"geonameid":5687809,"name":"Baldwin","admin3":"16860","localeAltName":null},{"geonameid":5688025,"name":"Bismarck","admin3":"07200","localeAltName":null},{"geonameid":5690162,"name":"Lincoln","admin3":"46640","localeAltName":null}],"admin3":[{"geonameid":5687743,"name":"Township of Apple Creek","admin3":"02780"},{"geonameid":5688028,"name":"City of Bismarck","admin3":"07200","localeAltName":null},{"geonameid":5688141,"name":"Township of Boyd","admin3":"08780"},{"geonameid":5688330,"name":"Township of Canfield","admin3":"11940"},{"geonameid":5688460,"name":"Township of Christiania","admin3":"14060"},{"geonameid":5688484,"name":"Township of Clear Lake","admin3":"14380"},{"geonameid":5688591,"name":"Township of Crofte","admin3":"16860","localeAltName":null},{"geonameid":5688593,"name":"Township of Cromwell","admin3":"16900"},{"geonameid":5688832,"name":"Township of Driscoll","admin3":"20540"},{"geonameid":5688932,"name":"Township of Ecklund","admin3":"21860"},{"geonameid":5689035,"name":"Township of Estherville","admin3":"24940"},{"geonameid":5689135,"name":"Township of Florence Lake","admin3":"26860"},{"geonameid":5689190,"name":"Township of Francis","admin3":"28100"},{"geonameid":5689280,"name":"Township of Ghylin","admin3":"30100"},{"geonameid":5689281,"name":"Township of Gibbs","admin3":"30140"},{"geonameid":5689312,"name":"Township of Glenview","admin3":"30900"},{"geonameid":5689384,"name":"Township of Grass Lake","admin3":"32740"},{"geonameid":5689539,"name":"Township of Hay Creek","admin3":"36460"},{"geonameid":5689550,"name":"Township of Hazel Grove","admin3":"36660"},{"geonameid":5690178,"name":"City of Lincoln","admin3":"46640","localeAltName":null},{"geonameid":5690245,"name":"Township of Logan","admin3":"47500"},{"geonameid":5690286,"name":"Township of Long Lake","admin3":"47860"},{"geonameid":5690329,"name":"Unorganized Territory of Lyman","admin3":"48620"},{"geonameid":5690444,"name":"Township of McKenzie","admin3":"49380"},{"geonameid":5690484,"name":"Township of Menoken","admin3":"52220"},{"geonameid":5690545,"name":"Township of Missouri","admin3":"53620"},{"geonameid":5690585,"name":"Township of Morton","admin3":"54460"},{"geonameid":5690663,"name":"Township of Naughton","admin3":"55540"},{"geonameid":5690941,"name":"Township of Painted Woods","admin3":"60580"},{"geonameid":5691249,"name":"City of Regan","admin3":"65980"},{"geonameid":5691288,"name":"Township of Richmond","admin3":"66635"},{"geonameid":5691330,"name":"Township of Rock Hill","admin3":"67420"},{"geonameid":5691998,"name":"Township of Schrunk","admin3":"71220"},{"geonameid":5692088,"name":"Township of Sibley Butte","admin3":"72900"},{"geonameid":5692354,"name":"Township of Steiber","admin3":"75820"},{"geonameid":5692364,"name":"Township of Sterling","admin3":"75940"},{"geonameid":5692494,"name":"Township of Taft","admin3":"77780"},{"geonameid":5692524,"name":"Township of Telfer","admin3":"78300"},{"geonameid":5692543,"name":"Township of Thelma","admin3":"78580"},{"geonameid":5692645,"name":"Township of Trygg","admin3":"79820"},{"geonameid":5692942,"name":"Township of Wild Rose","admin3":"85980"},{"geonameid":5692974,"name":"Township of Wilson","admin3":"86540"},{"geonameid":5692982,"name":"City of Wing","admin3":"86780"},{"geonameid":5692983,"name":"Township of Wing","admin3":"86820"},{"geonameid":7274868,"name":"Unorganized Territory of Burnt Creek-Riverview","admin3":"11045"},{"geonameid":7274893,"name":"Unorganized Territory of Lincoln-Fort Rice","admin3":"46710"},{"geonameid":7274907,"name":"Unorganized Territory of Phoenix","admin3":"62160"}],"alternateNames":[{"alternatenameId":2080778,"geonameid":5690763,"isoLanguage":"en","alternateName":"North Dakota","isPreferredName":true,"isShortName":true,"isColloquial":false,"isHistoric":false}]},"__N_SSG":true}