{"pageProps":{"locale":"en","admin2":{"geonameid":5059254,"name":"Foster County","country":"US","admin1":"ND","admin2":"031","admin3":"","latitude":"47.4570800","longitude":"-98.8830200","localeAltName":null},"admin1":{"geonameid":5690763,"name":"North Dakota","admin1":"ND","localeAltName":"North Dakota"},"locations":[{"geonameid":5058552,"name":"Carrington","admin3":"12340","localeAltName":null}],"admin3":[{"geonameid":5058329,"name":"Township of Birtsell","admin3":"07140"},{"geonameid":5058381,"name":"Township of Bordulac","admin3":"08420"},{"geonameid":5058452,"name":"Township of Bucephalia","admin3":"10020"},{"geonameid":5058555,"name":"City of Carrington","admin3":"12340","localeAltName":null},{"geonameid":5058979,"name":"Township of Eastman","admin3":"21700"},{"geonameid":5059132,"name":"Township of Estabrook","admin3":"24900"},{"geonameid":5059219,"name":"Township of Florance","admin3":"26820"},{"geonameid":5059371,"name":"City of Glenfield","admin3":"30660"},{"geonameid":5059413,"name":"City of Grace City","admin3":"31740"},{"geonameid":5059594,"name":"Township of Haven","admin3":"36260"},{"geonameid":5060087,"name":"Township of Larrabee","admin3":"45180"},{"geonameid":5060218,"name":"Township of Longview","admin3":"47900"},{"geonameid":5060358,"name":"City of McHenry","admin3":"49260"},{"geonameid":5060368,"name":"Township of McKinnon","admin3":"49500"},{"geonameid":5060402,"name":"Township of Melville","admin3":"52100"},{"geonameid":5060660,"name":"Township of Nordmore","admin3":"57380"},{"geonameid":5061162,"name":"Township of Rolling Prairie","admin3":"67900"},{"geonameid":5061177,"name":"Township of Rose Hill","admin3":"68300"},{"geonameid":5062591,"name":"Township of Wyard","admin3":"87700"},{"geonameid":7165534,"name":"Township of Carrington","admin3":"12380"},{"geonameid":7165558,"name":"Township of Glenfield","admin3":"30700"},{"geonameid":7165590,"name":"Township of McHenry","admin3":"49300"}],"alternateNames":[{"alternatenameId":2080778,"geonameid":5690763,"isoLanguage":"en","alternateName":"North Dakota","isPreferredName":true,"isShortName":true,"isColloquial":false,"isHistoric":false}]},"__N_SSG":true}