{"pageProps":{"locale":"en","admin2":{"geonameid":5689375,"name":"Grant County","country":"US","admin1":"ND","admin2":"037","admin3":"","latitude":"46.3582800","longitude":"-101.6397100","localeAltName":null},"admin1":{"geonameid":5690763,"name":"North Dakota","admin1":"ND","localeAltName":"North Dakota"},"locations":[{"geonameid":5688962,"name":"Elgin","admin3":"23020","localeAltName":null}],"admin3":[{"geonameid":5688354,"name":"City of Carson","admin3":"12460"},{"geonameid":5688907,"name":"Unorganized Territory of East Grant","admin3":"21670"},{"geonameid":5688964,"name":"City of Elgin","admin3":"23020","localeAltName":null},{"geonameid":5688986,"name":"Township of Elm","admin3":"23580"},{"geonameid":5689110,"name":"Township of Fisher","admin3":"26580"},{"geonameid":5689197,"name":"Township of Freda","admin3":"28300"},{"geonameid":5689721,"name":"Township of Howe","admin3":"39060"},{"geonameid":5690098,"name":"Township of Lark","admin3":"45140"},{"geonameid":5690125,"name":"Township of Leipzig","admin3":"45820"},{"geonameid":5690127,"name":"City of Leith","admin3":"45860"},{"geonameid":5690530,"name":"Township of Minnie","admin3":"53300"},{"geonameid":5690707,"name":"City of New Leipzig","admin3":"56420"},{"geonameid":5691136,"name":"Township of Pretty Rock","admin3":"64580"},{"geonameid":5691185,"name":"Township of Raleigh","admin3":"65140"},{"geonameid":5691334,"name":"Township of Rock","admin3":"67340"},{"geonameid":5692843,"name":"Unorganized Territory of West Grant","admin3":"85000"},{"geonameid":5692988,"name":"Township of Winona","admin3":"86900"}],"alternateNames":[{"alternatenameId":2080778,"geonameid":5690763,"isoLanguage":"en","alternateName":"North Dakota","isPreferredName":true,"isShortName":true,"isColloquial":false,"isHistoric":false}]},"__N_SSG":true}