{"pageProps":{"locale":"en","admin2":{"geonameid":5059489,"name":"Griggs County","country":"US","admin1":"ND","admin2":"039","admin3":"","latitude":"47.4572900","longitude":"-98.2370400","localeAltName":null},"admin1":{"geonameid":5690763,"name":"North Dakota","admin1":"ND","localeAltName":"North Dakota"},"locations":[{"geonameid":5058701,"name":"Cooperstown","admin3":"15900","localeAltName":null}],"admin3":[{"geonameid":5058022,"name":"Township of Addie","admin3":"00420"},{"geonameid":5058180,"name":"Township of Ball Hill","admin3":"04540"},{"geonameid":5058201,"name":"Township of Bartley","admin3":"05180"},{"geonameid":5058324,"name":"City of Binford","admin3":"07020"},{"geonameid":5058425,"name":"Township of Broadview","admin3":"09660"},{"geonameid":5058448,"name":"Township of Bryan","admin3":"09940"},{"geonameid":5058645,"name":"Township of Clearfield","admin3":"14340"},{"geonameid":5058705,"name":"City of Cooperstown","admin3":"15900","localeAltName":null},{"geonameid":5058706,"name":"Township of Cooperstown","admin3":"15940"},{"geonameid":5058905,"name":"Township of Dover","admin3":"20060"},{"geonameid":5059477,"name":"Township of Greenfield","admin3":"33260"},{"geonameid":5059548,"name":"City of Hannaford","admin3":"35020"},{"geonameid":5059614,"name":"Township of Helena","admin3":"37100"},{"geonameid":5059966,"name":"Township of Kingsley","admin3":"42820"},{"geonameid":5060121,"name":"Township of Lenora","admin3":"45900"},{"geonameid":5060262,"name":"Township of Mabel","admin3":"48820"},{"geonameid":5060950,"name":"Township of Pilot Mound","admin3":"62580"},{"geonameid":5061168,"name":"Township of Romness","admin3":"67980"},{"geonameid":5061197,"name":"Township of Rosendal","admin3":"68460"},{"geonameid":5062117,"name":"Township of Sverdrup","admin3":"77340"},{"geonameid":5062258,"name":"Township of Tyrol","admin3":"80580"},{"geonameid":5062408,"name":"Township of Washburn","admin3":"83660"},{"geonameid":5062535,"name":"Township of Willow","admin3":"86300"}],"alternateNames":[{"alternatenameId":2080778,"geonameid":5690763,"isoLanguage":"en","alternateName":"North Dakota","isPreferredName":true,"isShortName":true,"isColloquial":false,"isHistoric":false}]},"__N_SSG":true}