{"pageProps":{"locale":"en","admin2":{"geonameid":5060192,"name":"Logan County","country":"US","admin1":"ND","admin2":"047","admin3":"","latitude":"46.4573600","longitude":"-99.4774700","localeAltName":null},"admin1":{"geonameid":5690763,"name":"North Dakota","admin1":"ND","localeAltName":"North Dakota"},"locations":[{"geonameid":5060572,"name":"Napoleon","admin3":"55420","localeAltName":null}],"admin3":[{"geonameid":5058968,"name":"Unorganized Territory of East Logan","admin3":"21675"},{"geonameid":5059196,"name":"Township of Finn","admin3":"26500"},{"geonameid":5059266,"name":"City of Fredonia","admin3":"28380"},{"geonameid":5059302,"name":"City of Gackle","admin3":"28860"},{"geonameid":5059368,"name":"Township of Glendale","admin3":"30620"},{"geonameid":5059505,"name":"Township of Gutschmidt","admin3":"33940"},{"geonameid":5059510,"name":"Township of Haag","admin3":"34060"},{"geonameid":5059847,"name":"Township of Janke","admin3":"40620"},{"geonameid":5060574,"name":"City of Napoleon","admin3":"55420","localeAltName":null},{"geonameid":5061081,"name":"Township of Red Lake","admin3":"65700"},{"geonameid":5061823,"name":"Township of Sealy","admin3":"71580"},{"geonameid":5062466,"name":"Unorganized Territory of West Logan","admin3":"85065"}],"alternateNames":[{"alternatenameId":2080778,"geonameid":5690763,"isoLanguage":"en","alternateName":"North Dakota","isPreferredName":true,"isShortName":true,"isColloquial":false,"isHistoric":false}]},"__N_SSG":true}