{"pageProps":{"locale":"en","admin2":{"geonameid":5690489,"name":"Mercer County","country":"US","admin1":"ND","admin2":"057","admin3":"","latitude":"47.3092200","longitude":"-101.8315300","localeAltName":null},"admin1":{"geonameid":5690763,"name":"North Dakota","admin1":"ND","localeAltName":"North Dakota"},"locations":[{"geonameid":5688003,"name":"Beulah","admin3":"06660","localeAltName":null},{"geonameid":5689557,"name":"Hazen","admin3":"36780","localeAltName":null}],"admin3":[{"geonameid":5687991,"name":"City of Beulah","admin3":"06660","localeAltName":null},{"geonameid":5688913,"name":"Unorganized Territory of East Mercer","admin3":"21710"},{"geonameid":5689316,"name":"City of Golden Valley","admin3":"31180"},{"geonameid":5689559,"name":"City of Hazen","admin3":"36780","localeAltName":null},{"geonameid":5691048,"name":"City of Pick City","admin3":"62260"},{"geonameid":5692344,"name":"City of Stanton","admin3":"75420"},{"geonameid":5692846,"name":"Unorganized Territory of West Mercer","admin3":"85075"},{"geonameid":5693053,"name":"City of Zap","admin3":"88140"},{"geonameid":7274883,"name":"Unorganized Territory of Fort Berthold","admin3":"27336"}],"alternateNames":[{"alternatenameId":2080778,"geonameid":5690763,"isoLanguage":"en","alternateName":"North Dakota","isPreferredName":true,"isShortName":true,"isColloquial":false,"isHistoric":false}]},"__N_SSG":true}