{"pageProps":{"locale":"en","admin2":{"geonameid":5690583,"name":"Morton County","country":"US","admin1":"ND","admin2":"059","admin3":"","latitude":"46.7160600","longitude":"-101.2811700","localeAltName":null},"admin1":{"geonameid":5690763,"name":"North Dakota","admin1":"ND","localeAltName":"North Dakota"},"locations":[{"geonameid":5689296,"name":"Glen Ullin","admin3":"30860","localeAltName":null},{"geonameid":5689578,"name":"Hebron","admin3":"36860","localeAltName":null},{"geonameid":5690366,"name":"Mandan","admin3":"49900","localeAltName":null},{"geonameid":5690709,"name":"New Salem","admin3":"56700","localeAltName":null}],"admin3":[{"geonameid":5687684,"name":"City of Almont","admin3":"01700"},{"geonameid":5688343,"name":"Township of Captain's Landing","admin3":"12080"},{"geonameid":5688914,"name":"Unorganized Territory of East Morton","admin3":"21720"},{"geonameid":5689119,"name":"City of Flasher","admin3":"26660"},{"geonameid":5689299,"name":"City of Glen Ullin","admin3":"30860","localeAltName":null},{"geonameid":5689580,"name":"City of Hebron","admin3":"36860","localeAltName":null},{"geonameid":5690370,"name":"City of Mandan","admin3":"49900","localeAltName":null},{"geonameid":5690372,"name":"Unorganized Territory of Mandan","admin3":"49920"},{"geonameid":5690710,"name":"City of New Salem","admin3":"56700","localeAltName":null},{"geonameid":5692847,"name":"Unorganized Territory of West Morton","admin3":"85080"}],"alternateNames":[{"alternatenameId":2080778,"geonameid":5690763,"isoLanguage":"en","alternateName":"North Dakota","isPreferredName":true,"isShortName":true,"isColloquial":false,"isHistoric":false}]},"__N_SSG":true}