{"pageProps":{"locale":"en","admin2":{"geonameid":5060593,"name":"Nelson County","country":"US","admin1":"ND","admin2":"063","admin3":"","latitude":"47.9216900","longitude":"-98.1920400","localeAltName":null},"admin1":{"geonameid":5690763,"name":"North Dakota","admin1":"ND","localeAltName":"North Dakota"},"locations":[{"geonameid":5060055,"name":"Lakota","admin3":"44300","localeAltName":null}],"admin3":[{"geonameid":5058026,"name":"Township of Adler","admin3":"00580"},{"geonameid":5058092,"name":"City of Aneta","admin3":"02380"},{"geonameid":5058262,"name":"Township of Bergen","admin3":"06220"},{"geonameid":5058589,"name":"Township of Central","admin3":"13260"},{"geonameid":5058635,"name":"Township of Clara","admin3":"14180"},{"geonameid":5058812,"name":"Township of Dahlen","admin3":"17660"},{"geonameid":5058835,"name":"Township of Dayton","admin3":"18300"},{"geonameid":5058897,"name":"Township of Dodds","admin3":"19780"},{"geonameid":5059114,"name":"Township of Enterprise","admin3":"24500"},{"geonameid":5059185,"name":"Township of Field","admin3":"26220"},{"geonameid":5059226,"name":"Township of Forde","admin3":"27020"},{"geonameid":5059534,"name":"Township of Hamlin","admin3":"34780"},{"geonameid":5059788,"name":"Township of Illinois","admin3":"39820"},{"geonameid":5060057,"name":"City of Lakota","admin3":"44300","localeAltName":null},{"geonameid":5060058,"name":"Township of Lakota","admin3":"44340"},{"geonameid":5060104,"name":"Township of Lee","admin3":"45540"},{"geonameid":5060130,"name":"Township of Leval","admin3":"46140"},{"geonameid":5060379,"name":"City of McVille","admin3":"49580"},{"geonameid":5060404,"name":"Township of Melvin","admin3":"52140"},{"geonameid":5060422,"name":"City of Michigan City","admin3":"52740"},{"geonameid":5060425,"name":"Township of Michigan","admin3":"52640"},{"geonameid":5060579,"name":"Township of Nash","admin3":"55460"},{"geonameid":5060599,"name":"Township of Nesheim","admin3":"55860"},{"geonameid":5060807,"name":"Township of Ora","admin3":"59580"},{"geonameid":5060815,"name":"Township of Osago","admin3":"59900"},{"geonameid":5060883,"name":"City of Pekin","admin3":"61460"},{"geonameid":5060917,"name":"City of Petersburg","admin3":"61860"},{"geonameid":5060918,"name":"Township of Petersburg","admin3":"61900"},{"geonameid":5061218,"name":"Township of Rubin","admin3":"68820"},{"geonameid":5061225,"name":"Township of Rugh","admin3":"68900"},{"geonameid":5061444,"name":"Township of Sarnia","admin3":"70820"},{"geonameid":5062198,"name":"City of Tolna","admin3":"79180"},{"geonameid":5062394,"name":"Township of Wamduska","admin3":"83340"},{"geonameid":5062526,"name":"Township of Williams","admin3":"86140"}],"alternateNames":[{"alternatenameId":2080778,"geonameid":5690763,"isoLanguage":"en","alternateName":"North Dakota","isPreferredName":true,"isShortName":true,"isColloquial":false,"isHistoric":false}]},"__N_SSG":true}