{"pageProps":{"locale":"en","admin2":{"geonameid":5060890,"name":"Pembina County","country":"US","admin1":"ND","admin2":"067","admin3":"","latitude":"48.7675200","longitude":"-97.5518300","localeAltName":null},"admin1":{"geonameid":5690763,"name":"North Dakota","admin1":"ND","localeAltName":"North Dakota"},"locations":[{"geonameid":5058568,"name":"Cavalier","admin3":"12940","localeAltName":null},{"geonameid":5058918,"name":"Drayton","admin3":"20340","localeAltName":null},{"geonameid":5060887,"name":"Pembina","admin3":"61580","localeAltName":null},{"geonameid":5062370,"name":"Walhalla","admin3":"82980","localeAltName":null}],"admin3":[{"geonameid":5058031,"name":"Township of Advance","admin3":"00700"},{"geonameid":5058039,"name":"Township of Akra","admin3":"00900"},{"geonameid":5058207,"name":"City of Bathgate","admin3":"05260"},{"geonameid":5058208,"name":"Township of Bathgate","admin3":"05300"},{"geonameid":5058219,"name":"Township of Beaulieu","admin3":"05580"},{"geonameid":5058540,"name":"City of Canton City","admin3":"12060"},{"geonameid":5058544,"name":"Township of Carlisle","admin3":"12180"},{"geonameid":5058573,"name":"City of Cavalier","admin3":"12940","localeAltName":null},{"geonameid":5058574,"name":"Township of Cavalier","admin3":"12980"},{"geonameid":5058797,"name":"City of Crystal","admin3":"17060"},{"geonameid":5058798,"name":"Township of Crystal","admin3":"17100"},{"geonameid":5058922,"name":"City of Drayton","admin3":"20340","localeAltName":null},{"geonameid":5058923,"name":"Township of Drayton","admin3":"20380"},{"geonameid":5059085,"name":"Township of Elora","admin3":"23900"},{"geonameid":5059178,"name":"Township of Felson","admin3":"25980"},{"geonameid":5059316,"name":"Township of Gardar","admin3":"29140"},{"geonameid":5059530,"name":"City of Hamilton","admin3":"34620"},{"geonameid":5059531,"name":"Township of Hamilton","admin3":"34660"},{"geonameid":5059873,"name":"Township of Joliette","admin3":"41020"},{"geonameid":5060006,"name":"Township of La Moure","admin3":"44580"},{"geonameid":5060153,"name":"Township of Lincoln","admin3":"46660"},{"geonameid":5060186,"name":"Township of Lodema","admin3":"47460"},{"geonameid":5060440,"name":"Township of Midland","admin3":"52780"},{"geonameid":5060545,"name":"City of Mountain","admin3":"54740"},{"geonameid":5060586,"name":"City of Neche","admin3":"55620"},{"geonameid":5060587,"name":"Township of Neche","admin3":"55660"},{"geonameid":5060866,"name":"Township of Park","admin3":"60820"},{"geonameid":5060900,"name":"Township of Pembina","admin3":"61620"},{"geonameid":5060923,"name":"City of Pembina","admin3":"61580","localeAltName":null},{"geonameid":5061337,"name":"Township of Saint Joseph","admin3":"70020"},{"geonameid":5061406,"name":"City of Saint Thomas","admin3":"70260"},{"geonameid":5061407,"name":"Township of Saint Thomas","admin3":"70300"},{"geonameid":5062173,"name":"Township of Thingvalla","admin3":"78620"},{"geonameid":5062374,"name":"City of Walhalla","admin3":"82980","localeAltName":null},{"geonameid":5062375,"name":"Township of Walhalla","admin3":"83020"}],"alternateNames":[{"alternatenameId":2080778,"geonameid":5690763,"isoLanguage":"en","alternateName":"North Dakota","isPreferredName":true,"isShortName":true,"isColloquial":false,"isHistoric":false}]},"__N_SSG":true}