{"pageProps":{"locale":"en","admin2":{"geonameid":5691033,"name":"Pierce County","country":"US","admin1":"ND","admin2":"069","admin3":"","latitude":"48.2496000","longitude":"-99.9718200","localeAltName":null},"admin1":{"geonameid":5690763,"name":"North Dakota","admin1":"ND","localeAltName":"North Dakota"},"locations":[{"geonameid":5061221,"name":"Rugby","admin3":"68860","localeAltName":null}],"admin3":[{"geonameid":5059088,"name":"Township of Elverum","admin3":"23940"},{"geonameid":5059513,"name":"Township of Hagel","admin3":"34140"},{"geonameid":5060419,"name":"Township of Meyer","admin3":"52580"},{"geonameid":5060697,"name":"Unorganized Territory of North Pierce","admin3":"58080"},{"geonameid":5061098,"name":"Township of Reno Valley","admin3":"66060"},{"geonameid":5061222,"name":"City of Rugby","admin3":"68860","localeAltName":null},{"geonameid":5061233,"name":"Township of Rush Lake","admin3":"68980"},{"geonameid":5061975,"name":"Unorganized Territory of South Pierce","admin3":"74305"},{"geonameid":5062565,"name":"City of Wolford","admin3":"87180"},{"geonameid":5687727,"name":"Township of Antelope Lake","admin3":"02620"},{"geonameid":5687817,"name":"City of Balta","admin3":"04580"},{"geonameid":5688404,"name":"Unorganized Territory of Central Pierce","admin3":"13300"},{"geonameid":5688976,"name":"Township of Elling","admin3":"23300"},{"geonameid":5689812,"name":"Township of Jefferson","admin3":"40700"},{"geonameid":5690686,"name":"Township of Ness","admin3":"55900"},{"geonameid":5692603,"name":"Township of Torgerson","admin3":"79220"},{"geonameid":5692643,"name":"Township of Truman","admin3":"79780"},{"geonameid":5692660,"name":"Township of Tuscarora","admin3":"80100"},{"geonameid":5692912,"name":"Township of White","admin3":"85460"},{"geonameid":7165524,"name":"Township of Balta","admin3":"04620"}],"alternateNames":[{"alternatenameId":2080778,"geonameid":5690763,"isoLanguage":"en","alternateName":"North Dakota","isPreferredName":true,"isShortName":true,"isColloquial":false,"isHistoric":false}]},"__N_SSG":true}