{"pageProps":{"locale":"en","admin2":{"geonameid":5061157,"name":"Rolette County","country":"US","admin1":"ND","admin2":"079","admin3":"","latitude":"48.7724500","longitude":"-99.8409900","localeAltName":null},"admin1":{"geonameid":5690763,"name":"North Dakota","admin1":"ND","localeAltName":"North Dakota"},"locations":[{"geonameid":5058233,"name":"Belcourt","admin3":"80010","localeAltName":null},{"geonameid":5688861,"name":"Dunseith","admin3":"21020","localeAltName":null},{"geonameid":7315336,"name":"Green Acres","admin3":"80010","localeAltName":null},{"geonameid":5061154,"name":"Rolette","admin3":"67780","localeAltName":null},{"geonameid":5061159,"name":"Rolla","admin3":"67820","localeAltName":null},{"geonameid":5061876,"name":"Shell Valley","admin3":"72260","localeAltName":null}],"admin3":[{"geonameid":5058970,"name":"Unorganized Territory of East Rolette","admin3":"21750"},{"geonameid":5060567,"name":"City of Mylo","admin3":"55220"},{"geonameid":5060704,"name":"Unorganized Territory of North Rolette","admin3":"58125"},{"geonameid":5061158,"name":"City of Rolette","admin3":"67780","localeAltName":null},{"geonameid":5061161,"name":"City of Rolla","admin3":"67820","localeAltName":null},{"geonameid":5061313,"name":"City of Saint John","admin3":"69980"},{"geonameid":5061859,"name":"Township of Shell Valley","admin3":"72260","localeAltName":null},{"geonameid":5061978,"name":"Unorganized Territory of South Rolette","admin3":"74320"},{"geonameid":5062235,"name":"Unorganized Territory of Turtle Mountain","admin3":"80010","localeAltName":null},{"geonameid":5688864,"name":"City of Dunseith","admin3":"21020","localeAltName":null},{"geonameid":5689999,"name":"Township of Kohlmeier","admin3":"43340"},{"geonameid":5692232,"name":"Township of South Valley","admin3":"74340"}],"alternateNames":[{"alternatenameId":2080778,"geonameid":5690763,"isoLanguage":"en","alternateName":"North Dakota","isPreferredName":true,"isShortName":true,"isColloquial":false,"isHistoric":false}]},"__N_SSG":true}