{"pageProps":{"locale":"en","admin2":{"geonameid":5062209,"name":"Towner County","country":"US","admin1":"ND","admin2":"095","admin3":"","latitude":"48.6855400","longitude":"-99.2458000","localeAltName":null},"admin1":{"geonameid":5690763,"name":"North Dakota","admin1":"ND","localeAltName":"North Dakota"},"locations":[{"geonameid":5058534,"name":"Cando","admin3":"11860","localeAltName":null}],"admin3":[{"geonameid":5058112,"name":"Township of Armourdale","admin3":"03100"},{"geonameid":5058146,"name":"Township of Atkins","admin3":"03660"},{"geonameid":5058294,"name":"Township of Bethel","admin3":"06620"},{"geonameid":5058332,"name":"City of Bisbee","admin3":"07180"},{"geonameid":5058537,"name":"City of Cando","admin3":"11860","localeAltName":null},{"geonameid":5058698,"name":"Township of Coolin","admin3":"15860"},{"geonameid":5058779,"name":"Township of Crocus","admin3":"16820"},{"geonameid":5058825,"name":"Township of Dash","admin3":"18140"},{"geonameid":5059018,"name":"City of Egeland","admin3":"22540"},{"geonameid":5059345,"name":"Township of Gerrard","admin3":"30020"},{"geonameid":5059427,"name":"Township of Grainfield","admin3":"31980"},{"geonameid":5059554,"name":"City of Hansboro","admin3":"35140"},{"geonameid":5059755,"name":"Township of Howell","admin3":"39100"},{"geonameid":5060078,"name":"Township of Lansing","admin3":"44980"},{"geonameid":5060493,"name":"Township of Monroe","admin3":"53900"},{"geonameid":5060542,"name":"Township of Mount View","admin3":"54940"},{"geonameid":5060605,"name":"Township of New City","admin3":"56140"},{"geonameid":5060800,"name":"Township of Olson","admin3":"59380"},{"geonameid":5060872,"name":"Township of Paulson","admin3":"61140"},{"geonameid":5060911,"name":"City of Perth","admin3":"61780"},{"geonameid":5060939,"name":"Township of Picton","admin3":"62420"},{"geonameid":5061144,"name":"Township of Rock Lake","admin3":"67540"},{"geonameid":5061147,"name":"City of Rocklake","admin3":"67500"},{"geonameid":5061901,"name":"Township of Sidney","admin3":"72980"},{"geonameid":5061938,"name":"Township of Smith","admin3":"73660"},{"geonameid":5061952,"name":"Township of Sorenson","admin3":"73940"},{"geonameid":5062013,"name":"Township of Springfield","admin3":"74980"},{"geonameid":5062159,"name":"Township of Teddy","admin3":"78260"},{"geonameid":5062242,"name":"Township of Twin Hill","admin3":"80340"},{"geonameid":5062328,"name":"Township of Victor","admin3":"82020"},{"geonameid":5062341,"name":"Township of Virginia","admin3":"82300"},{"geonameid":5062637,"name":"Township of Zion","admin3":"88220"},{"geonameid":7165533,"name":"Township of Cando","admin3":"11900"},{"geonameid":7165587,"name":"Township of Maza","admin3":"51620"}],"alternateNames":[{"alternatenameId":2080778,"geonameid":5690763,"isoLanguage":"en","alternateName":"North Dakota","isPreferredName":true,"isShortName":true,"isColloquial":false,"isHistoric":false}]},"__N_SSG":true}