{"pageProps":{"locale":"en","admin2":{"geonameid":5062441,"name":"Wells County","country":"US","admin1":"ND","admin2":"103","admin3":"","latitude":"47.5875300","longitude":"-99.6609500","localeAltName":null},"admin1":{"geonameid":5690763,"name":"North Dakota","admin1":"ND","localeAltName":"North Dakota"},"locations":[{"geonameid":5059576,"name":"Harvey","admin3":"35900","localeAltName":null}],"admin3":[{"geonameid":5058270,"name":"Township of Berlin","admin3":"06380"},{"geonameid":5058321,"name":"Township of Bilodeau","admin3":"06980"},{"geonameid":5058389,"name":"City of Bowdon","admin3":"08580"},{"geonameid":5058406,"name":"Township of Bremen","admin3":"09260"},{"geonameid":5058566,"name":"City of Cathay","admin3":"12820"},{"geonameid":5058609,"name":"Township of Chaseley","admin3":"13740"},{"geonameid":5058857,"name":"Township of Delger","admin3":"18860"},{"geonameid":5059158,"name":"Township of Fairville","admin3":"25500"},{"geonameid":5059183,"name":"City of Fessenden","admin3":"26180"},{"geonameid":5059253,"name":"Township of Forward","admin3":"27900"},{"geonameid":5059260,"name":"Township of Fram","admin3":"28060"},{"geonameid":5059344,"name":"Township of Germantown","admin3":"29980"},{"geonameid":5059511,"name":"Township of Haaland","admin3":"34100"},{"geonameid":5059524,"name":"City of Hamberg","admin3":"34460"},{"geonameid":5059526,"name":"Township of Hamburg","admin3":"34540"},{"geonameid":5059581,"name":"City of Harvey","admin3":"35900","localeAltName":null},{"geonameid":5059596,"name":"Township of Hawksnest","admin3":"36380"},{"geonameid":5059609,"name":"Township of Heimdal","admin3":"37060"},{"geonameid":5059770,"name":"City of Hurdsfield","admin3":"39580"},{"geonameid":5059866,"name":"Township of Johnson","admin3":"40820"},{"geonameid":5060256,"name":"Township of Lynn","admin3":"48660"},{"geonameid":5060280,"name":"Township of Manfred","admin3":"50060"},{"geonameid":5060737,"name":"Township of Norway Lake","admin3":"58580"},{"geonameid":5060818,"name":"Township of Oshkosh","admin3":"60020"},{"geonameid":5061043,"name":"Township of Progress","admin3":"64700"},{"geonameid":5061237,"name":"Township of Rusland","admin3":"69100"},{"geonameid":5061266,"name":"Township of Saint Anna","admin3":"69660"},{"geonameid":5061914,"name":"Township of Silver Lake","admin3":"73140"},{"geonameid":5061965,"name":"Township of South Cottonwood","admin3":"74080"},{"geonameid":5061993,"name":"Township of Speedwell","admin3":"74540"},{"geonameid":5062147,"name":"City of Sykeston","admin3":"77660"},{"geonameid":5062289,"name":"Township of Valhalla","admin3":"81060"},{"geonameid":5062443,"name":"Township of Wells","admin3":"84380"},{"geonameid":5062469,"name":"Township of West Norway","admin3":"85100"},{"geonameid":5062470,"name":"Township of West Ontario","admin3":"85120"},{"geonameid":5062582,"name":"Township of Woodward","admin3":"87540"},{"geonameid":5688242,"name":"Township of Bull Moose","admin3":"10700"},{"geonameid":5688623,"name":"Township of Crystal Lake","admin3":"17140"},{"geonameid":5689656,"name":"Township of Hillsdale","admin3":"38220"},{"geonameid":5691101,"name":"Township of Pony Gulch","admin3":"63620"},{"geonameid":5692862,"name":"Township of Western","admin3":"84740"},{"geonameid":7165536,"name":"Township of Cathay","admin3":"12860"},{"geonameid":7165632,"name":"Township of Sykeston","admin3":"77700"}],"alternateNames":[{"alternatenameId":2080778,"geonameid":5690763,"isoLanguage":"en","alternateName":"North Dakota","isPreferredName":true,"isShortName":true,"isColloquial":false,"isHistoric":false}]},"__N_SSG":true}