{"pageProps":{"locale":"en","admin2":{"geonameid":5692940,"name":"Williams County","country":"US","admin1":"ND","admin2":"105","admin3":"","latitude":"48.3436800","longitude":"-103.4802100","localeAltName":null},"admin1":{"geonameid":5690763,"name":"North Dakota","admin1":"ND","localeAltName":"North Dakota"},"locations":[{"geonameid":5691210,"name":"Ray","admin3":"65580","localeAltName":null},{"geonameid":5692590,"name":"Tioga","admin3":"78940","localeAltName":null},{"geonameid":5692947,"name":"Williston","admin3":"86220","localeAltName":null}],"admin3":[{"geonameid":5687658,"name":"City of Alamo","admin3":"00940"},{"geonameid":5687769,"name":"Township of Athens","admin3":"03620"},{"geonameid":5687831,"name":"Township of Barr Butte","admin3":"05020"},{"geonameid":5688006,"name":"Township of Big Meadow","admin3":"06860"},{"geonameid":5688016,"name":"Township of Big Stone","admin3":"06900"},{"geonameid":5688053,"name":"Township of Blacktail","admin3":"07460"},{"geonameid":5688077,"name":"Township of Blue Ridge","admin3":"08100"},{"geonameid":5688097,"name":"Township of Bonetraill","admin3":"08260"},{"geonameid":5688180,"name":"Township of Brooklyn","admin3":"09820"},{"geonameid":5688234,"name":"Township of Buford","admin3":"10540"},{"geonameid":5688238,"name":"Township of Bull Butte","admin3":"10620"},{"geonameid":5688414,"name":"Township of Champion","admin3":"13460"},{"geonameid":5688494,"name":"Township of Climax","admin3":"14860"},{"geonameid":5688844,"name":"Township of Dry Fork","admin3":"20580"},{"geonameid":5688846,"name":"Township of Dublin","admin3":"20660"},{"geonameid":5688905,"name":"Township of East Fork","admin3":"21660"},{"geonameid":5688979,"name":"Township of Ellisville","admin3":"23420"},{"geonameid":5689019,"name":"City of Epping","admin3":"24540"},{"geonameid":5689022,"name":"Township of Equality","admin3":"24580"},{"geonameid":5689080,"name":"Township of Farmvale","admin3":"25900"},{"geonameid":5689317,"name":"Township of Golden Valley","admin3":"31260"},{"geonameid":5689326,"name":"Township of Good Luck","admin3":"31460"},{"geonameid":5689412,"name":"City of Grenora","admin3":"33500"},{"geonameid":5689497,"name":"Township of Hardscrabble","admin3":"35340"},{"geonameid":5689551,"name":"Township of Hazel","admin3":"36620"},{"geonameid":5689581,"name":"Township of Hebron","admin3":"36900"},{"geonameid":5689861,"name":"Township of Judson","admin3":"41260"},{"geonameid":5690181,"name":"Township of Lindahl","admin3":"46900"},{"geonameid":5690393,"name":"Township of Marshall","admin3":"50980"},{"geonameid":5690543,"name":"Township of Missouri Ridge","admin3":"53660"},{"geonameid":5690567,"name":"Township of Mont","admin3":"53940"},{"geonameid":5690702,"name":"Township of New Home","admin3":"56300"},{"geonameid":5690873,"name":"Township of Oliver","admin3":"59260"},{"geonameid":5690895,"name":"Township of Orthell","admin3":"59860"},{"geonameid":5691019,"name":"Township of Pherrin","admin3":"62140"},{"geonameid":5691065,"name":"Township of Pleasant Valley","admin3":"63260"},{"geonameid":5691178,"name":"Township of Rainbow","admin3":"65020"},{"geonameid":5691214,"name":"City of Ray","admin3":"65580","localeAltName":null},{"geonameid":5691331,"name":"Township of Rock Island","admin3":"67460"},{"geonameid":5691420,"name":"Township of Round Prairie","admin3":"68700"},{"geonameid":5691683,"name":"Township of Sauk Valley","admin3":"70900"},{"geonameid":5692007,"name":"Township of Scorio","admin3":"71300"},{"geonameid":5692223,"name":"Township of South Meadow","admin3":"74260"},{"geonameid":5692236,"name":"Unorganized Territory of Southeast Williams","admin3":"74115"},{"geonameid":5692254,"name":"City of Springbrook","admin3":"74780"},{"geonameid":5692298,"name":"Township of Springbrook","admin3":"74820"},{"geonameid":5692418,"name":"Township of Strandahl","admin3":"76460"},{"geonameid":5692434,"name":"Township of Stony Creek","admin3":"76340"},{"geonameid":5692585,"name":"City of Tioga","admin3":"78940","localeAltName":null},{"geonameid":5692586,"name":"Township of Tioga","admin3":"78980"},{"geonameid":5692622,"name":"Township of Trenton","admin3":"79500"},{"geonameid":5692640,"name":"Township of Truax","admin3":"79740"},{"geonameid":5692664,"name":"Township of Twelve Mile","admin3":"80220"},{"geonameid":5692686,"name":"Township of Tyrone","admin3":"80620"},{"geonameid":5692759,"name":"Township of View","admin3":"82100"},{"geonameid":5692828,"name":"Township of West Bank","admin3":"84580"},{"geonameid":5692935,"name":"City of Wildrose","admin3":"86020"},{"geonameid":5692950,"name":"City of Williston","admin3":"86220","localeAltName":null},{"geonameid":5692951,"name":"Township of Williston","admin3":"86260"},{"geonameid":5692984,"name":"Township of Winner","admin3":"86860"},{"geonameid":7165651,"name":"Township of Wheelock","admin3":"85340"},{"geonameid":7274870,"name":"Unorganized Territory of Cow Creek","admin3":"16440"}],"alternateNames":[{"alternatenameId":2080778,"geonameid":5690763,"isoLanguage":"en","alternateName":"North Dakota","isPreferredName":true,"isShortName":true,"isColloquial":false,"isHistoric":false}]},"__N_SSG":true}