{"pageProps":{"locale":"en","admin2":{"geonameid":4236063,"name":"Clinton County","country":"US","admin1":"IL","admin2":"027","admin3":"","latitude":"38.6064500","longitude":"-89.4224800","localeAltName":null},"admin1":{"geonameid":4896861,"name":"Illinois","admin1":"IL","localeAltName":"Illinois"},"locations":[{"geonameid":4232564,"name":"Albers","admin3":"44667","localeAltName":null},{"geonameid":4233090,"name":"Aviston","admin3":"73365","localeAltName":null},{"geonameid":4233261,"name":"Bartelso","admin3":"67652","localeAltName":null},{"geonameid":4233430,"name":"Beckemeyer","admin3":"78344","localeAltName":null},{"geonameid":4234362,"name":"Breese","admin3":"07926","localeAltName":null},{"geonameid":4235229,"name":"Carlyle","admin3":"11241","localeAltName":null},{"geonameid":4239368,"name":"Germantown","admin3":"29054","localeAltName":null},{"geonameid":4245474,"name":"New Baden","admin3":"44667","localeAltName":null},{"geonameid":4251413,"name":"Trenton","admin3":"73365","localeAltName":null}],"admin3":[{"geonameid":4234365,"name":"Township of Breese","admin3":"07926","localeAltName":null},{"geonameid":4234496,"name":"Township of Brookside","admin3":"08732"},{"geonameid":4235243,"name":"Township of Carlyle","admin3":"11241","localeAltName":null},{"geonameid":4236041,"name":"Township of Clement","admin3":"14884"},{"geonameid":4237531,"name":"Township of East Fork","admin3":"21748"},{"geonameid":4239373,"name":"Township of Germantown","admin3":"29054","localeAltName":null},{"geonameid":4241601,"name":"Township of Irishtown","admin3":"37673"},{"geonameid":4242643,"name":"Township of Lake","admin3":"40871"},{"geonameid":4243508,"name":"Township of Looking Glass","admin3":"44667","localeAltName":null},{"geonameid":4244427,"name":"Township of Meridian","admin3":"48476"},{"geonameid":4249251,"name":"Township of Saint Rose","admin3":"67171"},{"geonameid":4249487,"name":"Township of Santa Fe","admin3":"67652","localeAltName":null},{"geonameid":4250839,"name":"Township of Sugar Creek","admin3":"73365","localeAltName":null},{"geonameid":4252273,"name":"Township of Wade","admin3":"78344","localeAltName":null},{"geonameid":4252920,"name":"Township of Wheatfield","admin3":"80996"}],"alternateNames":[{"alternatenameId":2089562,"geonameid":4896861,"isoLanguage":"en","alternateName":"Illinois","isPreferredName":true,"isShortName":true,"isColloquial":false,"isHistoric":false}]},"__N_SSG":true}