{"pageProps":{"locale":"en","admin2":{"geonameid":4888671,"name":"Cook County","country":"US","admin1":"IL","admin2":"031","admin3":"","latitude":"41.8954000","longitude":"-87.6461600","localeAltName":null},"admin1":{"geonameid":4896861,"name":"Illinois","admin1":"IL","localeAltName":"Illinois"},"locations":[{"geonameid":4883012,"name":"Albany Park","admin3":"14000","localeAltName":null},{"geonameid":4883207,"name":"Alsip","admin3":"83531","localeAltName":null},{"geonameid":4883555,"name":"Arlington Heights","admin3":"81100","localeAltName":null},{"geonameid":4883679,"name":"Ashburn","admin3":"14000","localeAltName":null},{"geonameid":8436084,"name":"Auburn Gresham","admin3":"14000","localeAltName":null},{"geonameid":4883904,"name":"Avondale","admin3":"14000","localeAltName":null},{"geonameid":4884116,"name":"Barrington","admin3":"03831","localeAltName":null},{"geonameid":4884121,"name":"Barrington Hills","admin3":"03831","localeAltName":null},{"geonameid":4884141,"name":"Bartlett","admin3":"32694","localeAltName":null},{"geonameid":4884344,"name":"Bedford Park","admin3":"72689","localeAltName":null},{"geonameid":4884434,"name":"Bellwood","admin3":"62133","localeAltName":null},{"geonameid":4884442,"name":"Belmont Cragin","admin3":"14000","localeAltName":null},{"geonameid":4884562,"name":"Berkeley","admin3":"62133","localeAltName":null},{"geonameid":4884597,"name":"Berwyn","admin3":"05586","localeAltName":null},{"geonameid":4885186,"name":"Blue Island","admin3":"10474","localeAltName":null},{"geonameid":4885565,"name":"Bridgeport","admin3":"14000","localeAltName":null},{"geonameid":4885573,"name":"Bridgeview","admin3":"45447","localeAltName":null},{"geonameid":4885597,"name":"Brighton Park","admin3":"14000","localeAltName":null},{"geonameid":4885637,"name":"Broadview","admin3":"62133","localeAltName":null},{"geonameid":4885689,"name":"Brookfield","admin3":"62133","localeAltName":null},{"geonameid":4885955,"name":"Buffalo Grove","admin3":"81100","localeAltName":null},{"geonameid":4885983,"name":"Burbank","admin3":"72689","localeAltName":null},{"geonameid":4886038,"name":"Burnham","admin3":"75198","localeAltName":null},{"geonameid":4886255,"name":"Calumet City","admin3":"75198","localeAltName":null},{"geonameid":4886269,"name":"Calumet Park","admin3":"10474","localeAltName":null},{"geonameid":4887284,"name":"Chatham","admin3":"14000","localeAltName":null},{"geonameid":4887398,"name":"Chicago","admin3":"14000","localeAltName":null},{"geonameid":4887442,"name":"Chicago Heights","admin3":"06561","localeAltName":null},{"geonameid":4887463,"name":"Chicago Lawn","admin3":"14000","localeAltName":null},{"geonameid":8436065,"name":"Chicago Loop","admin3":"14000","localeAltName":null},{"geonameid":4887492,"name":"Chicago Ridge","admin3":"83531","localeAltName":null},{"geonameid":4888015,"name":"Cicero","admin3":"14364","localeAltName":null},{"geonameid":4888892,"name":"Country Club Hills","admin3":"07939","localeAltName":null},{"geonameid":4888906,"name":"Countryside","admin3":"45447","localeAltName":null},{"geonameid":4889113,"name":"Crestwood","admin3":"83531","localeAltName":null},{"geonameid":4889772,"name":"Des Plaines","admin3":"46162","localeAltName":null},{"geonameid":4889957,"name":"Dixmoor","admin3":"75198","localeAltName":null},{"geonameid":4890009,"name":"Dolton","admin3":"75198","localeAltName":null},{"geonameid":4890075,"name":"Douglas","admin3":"14000","localeAltName":null},{"geonameid":4890507,"name":"East Garfield Park","admin3":"14000","localeAltName":null},{"geonameid":4890513,"name":"East Hazel Crest","admin3":"75198","localeAltName":null},{"geonameid":4890701,"name":"Edgewater","admin3":"14000","localeAltName":null},{"geonameid":4890925,"name":"Elk Grove Village","admin3":"23243","localeAltName":null},{"geonameid":4891051,"name":"Elmwood Park","admin3":"43120","localeAltName":null},{"geonameid":4891176,"name":"Englewood","admin3":"14000","localeAltName":null},{"geonameid":4891382,"name":"Evanston","admin3":"24595","localeAltName":null},{"geonameid":4891431,"name":"Evergreen Park","admin3":"83531","localeAltName":null},{"geonameid":4892684,"name":"Flossmoor","admin3":"63498","localeAltName":null},{"geonameid":4892731,"name":"Ford Heights","admin3":"06561","localeAltName":null},{"geonameid":4892775,"name":"Forest Park","admin3":"62133","localeAltName":null},{"geonameid":4892797,"name":"Forest View","admin3":"72689","localeAltName":null},{"geonameid":4893070,"name":"Franklin Park","admin3":"43120","localeAltName":null},{"geonameid":4893365,"name":"Gage Park","admin3":"14000","localeAltName":null},{"geonameid":4894078,"name":"Glencoe","admin3":"52909","localeAltName":null},{"geonameid":4893886,"name":"Glenview","admin3":"53676","localeAltName":null},{"geonameid":4893896,"name":"Glenwood","admin3":"06561","localeAltName":null},{"geonameid":4893983,"name":"Golf","admin3":"53013","localeAltName":null},{"geonameid":4894320,"name":"Grand Boulevard","admin3":"14000","localeAltName":null},{"geonameid":8436083,"name":"Greater Grand Crossing","admin3":"14000","localeAltName":null},{"geonameid":4895066,"name":"Hanover Park","admin3":"32694","localeAltName":null},{"geonameid":4895298,"name":"Harvey","admin3":"75198","localeAltName":null},{"geonameid":4895308,"name":"Harwood Heights","admin3":"54430","localeAltName":null},{"geonameid":4895416,"name":"Hazel Crest","admin3":"07939","localeAltName":null},{"geonameid":4895767,"name":"Hickory Hills","admin3":"57355","localeAltName":null},{"geonameid":4895971,"name":"Hillside","admin3":"62133","localeAltName":null},{"geonameid":4896069,"name":"Hodgkins","admin3":"45447","localeAltName":null},{"geonameid":4896075,"name":"Hoffman Estates","admin3":"68016","localeAltName":null},{"geonameid":4896348,"name":"Hometown","admin3":"83531","localeAltName":null},{"geonameid":4896353,"name":"Homewood","admin3":"06561","localeAltName":null},{"geonameid":4896728,"name":"Hyde Park","admin3":"14000","localeAltName":null},{"geonameid":4897039,"name":"Indian Head Park","admin3":"45447","localeAltName":null},{"geonameid":4897482,"name":"Inverness","admin3":"57238","localeAltName":null},{"geonameid":4897543,"name":"Irving Park","admin3":"14000","localeAltName":null},{"geonameid":4898152,"name":"Justice","admin3":"45447","localeAltName":null},{"geonameid":4898349,"name":"Kenilworth","admin3":"52909","localeAltName":null},{"geonameid":4898401,"name":"Kenwood","admin3":"14000","localeAltName":null},{"geonameid":4898846,"name":"La Grange","admin3":"45447","localeAltName":null},{"geonameid":4898850,"name":"La Grange Park","admin3":"62133","localeAltName":null},{"geonameid":4899340,"name":"Lansing","admin3":"75198","localeAltName":null},{"geonameid":4899581,"name":"Lemont","admin3":"42808","localeAltName":null},{"geonameid":4899911,"name":"Lincoln Park","admin3":"14000","localeAltName":null},{"geonameid":4899966,"name":"Lincoln Square","admin3":"14000","localeAltName":null},{"geonameid":4899988,"name":"Lincolnwood","admin3":"53013","localeAltName":null},{"geonameid":4900358,"name":"Logan Square","admin3":"14000","localeAltName":null},{"geonameid":4900611,"name":"Lower West Side","admin3":"14000","localeAltName":null},{"geonameid":4900739,"name":"Lynwood","admin3":"06561","localeAltName":null},{"geonameid":4900749,"name":"Lyons","admin3":"45447","localeAltName":null},{"geonameid":4901229,"name":"Markham","admin3":"07939","localeAltName":null},{"geonameid":4901445,"name":"Matteson","admin3":"63498","localeAltName":null},{"geonameid":4901514,"name":"Maywood","admin3":"62133","localeAltName":null},{"geonameid":4901710,"name":"McKinley Park","admin3":"14000","localeAltName":null},{"geonameid":4901868,"name":"Melrose Park","admin3":"62133","localeAltName":null},{"geonameid":4902033,"name":"Merrionette Park","admin3":"83531","localeAltName":null},{"geonameid":4902181,"name":"Midlothian","admin3":"07939","localeAltName":null},{"geonameid":4902667,"name":"Morgan Park","admin3":"14000","localeAltName":null},{"geonameid":4902763,"name":"Morton Grove","admin3":"53013","localeAltName":null},{"geonameid":4902900,"name":"Mount Greenwood","admin3":"14000","localeAltName":null},{"geonameid":4903024,"name":"Mount Prospect","admin3":"81100","localeAltName":null},{"geonameid":4903360,"name":"Near North Side","admin3":"14000","localeAltName":null},{"geonameid":4903363,"name":"Near South Side","admin3":"14000","localeAltName":null},{"geonameid":4903466,"name":"New City","admin3":"14000","localeAltName":null},{"geonameid":4903730,"name":"Niles","admin3":"53013","localeAltName":null},{"geonameid":4903803,"name":"Norridge","admin3":"54430","localeAltName":null},{"geonameid":4903858,"name":"North Center","admin3":"14000","localeAltName":null},{"geonameid":4903940,"name":"North Lawndale","admin3":"14000","localeAltName":null},{"geonameid":4904002,"name":"North Riverside","admin3":"64434","localeAltName":null},{"geonameid":4904056,"name":"Northbrook","admin3":"53676","localeAltName":null},{"geonameid":4904094,"name":"Northfield","admin3":"53676","localeAltName":null},{"geonameid":4904102,"name":"Northlake","admin3":"43120","localeAltName":null},{"geonameid":4904286,"name":"Oak Forest","admin3":"07939","localeAltName":null},{"geonameid":4904365,"name":"Oak Lawn","admin3":"83531","localeAltName":null},{"geonameid":4904381,"name":"Oak Park","admin3":"54898","localeAltName":null},{"geonameid":4904793,"name":"Olympia Fields","admin3":"06561","localeAltName":null},{"geonameid":4904934,"name":"Orland Hills","admin3":"56614","localeAltName":null},{"geonameid":4904937,"name":"Orland Park","admin3":"56614","localeAltName":null},{"geonameid":4905211,"name":"Palatine","admin3":"57238","localeAltName":null},{"geonameid":4905259,"name":"Palos Heights","admin3":"83531","localeAltName":null},{"geonameid":4905263,"name":"Palos Hills","admin3":"57355","localeAltName":null},{"geonameid":4905265,"name":"Palos Park","admin3":"57355","localeAltName":null},{"geonameid":4905337,"name":"Park Forest","admin3":"63498","localeAltName":null},{"geonameid":4905367,"name":"Park Ridge","admin3":"46162","localeAltName":null},{"geonameid":4905873,"name":"Phoenix","admin3":"75198","localeAltName":null},{"geonameid":4906500,"name":"Portage Park","admin3":"14000","localeAltName":null},{"geonameid":4906527,"name":"Posen","admin3":"07939","localeAltName":null},{"geonameid":4906882,"name":"Prospect Heights","admin3":"81100","localeAltName":null},{"geonameid":4907514,"name":"Richton Park","admin3":"63498","localeAltName":null},{"geonameid":4907637,"name":"River Forest","admin3":"64317","localeAltName":null},{"geonameid":4907649,"name":"River Grove","admin3":"43120","localeAltName":null},{"geonameid":4907683,"name":"Riverdale","admin3":"75198","localeAltName":null},{"geonameid":4907706,"name":"Riverside","admin3":"64434","localeAltName":null},{"geonameid":4907786,"name":"Robbins","admin3":"07939","localeAltName":null},{"geonameid":4908033,"name":"Rogers Park","admin3":"14000","localeAltName":null},{"geonameid":4908052,"name":"Rolling Meadows","admin3":"57238","localeAltName":null},{"geonameid":4908179,"name":"Rosemont","admin3":"46162","localeAltName":null},{"geonameid":4910634,"name":"Sauk Village","admin3":"06561","localeAltName":null},{"geonameid":4910713,"name":"Schaumburg","admin3":"68016","localeAltName":null},{"geonameid":4910743,"name":"Schiller Park","admin3":"43120","localeAltName":null},{"geonameid":4911600,"name":"Skokie","admin3":"53013","localeAltName":null},{"geonameid":4911825,"name":"South Barrington","admin3":"03831","localeAltName":null},{"geonameid":4911863,"name":"South Chicago","admin3":"14000","localeAltName":null},{"geonameid":4911868,"name":"South Chicago Heights","admin3":"06561","localeAltName":null},{"geonameid":4911934,"name":"South Holland","admin3":"75198","localeAltName":null},{"geonameid":4911951,"name":"South Lawndale","admin3":"14000","localeAltName":null},{"geonameid":4912013,"name":"South Shore","admin3":"14000","localeAltName":null},{"geonameid":4912474,"name":"Steger","admin3":"06561","localeAltName":null},{"geonameid":4912555,"name":"Stickney","admin3":"72689","localeAltName":null},{"geonameid":4912602,"name":"Stone Park","admin3":"62133","localeAltName":null},{"geonameid":4912691,"name":"Streamwood","admin3":"32694","localeAltName":null},{"geonameid":4912845,"name":"Summit","admin3":"45447","localeAltName":null},{"geonameid":4913605,"name":"Thornton","admin3":"75198","localeAltName":null},{"geonameid":4913723,"name":"Tinley Park","admin3":"07939","localeAltName":null},{"geonameid":4914557,"name":"Uptown","admin3":"14000","localeAltName":null},{"geonameid":4915987,"name":"West Elsdon","admin3":"14000","localeAltName":null},{"geonameid":4915989,"name":"West Englewood","admin3":"14000","localeAltName":null},{"geonameid":4916003,"name":"West Garfield Park","admin3":"14000","localeAltName":null},{"geonameid":4916028,"name":"West Lawn","admin3":"14000","localeAltName":null},{"geonameid":4916079,"name":"West Ridge","admin3":"14000","localeAltName":null},{"geonameid":4916118,"name":"West Town","admin3":"14000","localeAltName":null},{"geonameid":4916140,"name":"Westchester","admin3":"62133","localeAltName":null},{"geonameid":4916161,"name":"Western Springs","admin3":"45447","localeAltName":null},{"geonameid":4916311,"name":"Wheeling","admin3":"81100","localeAltName":null},{"geonameid":4916698,"name":"Willow Springs","admin3":"45447","localeAltName":null},{"geonameid":4916732,"name":"Wilmette","admin3":"52909","localeAltName":null},{"geonameid":4916891,"name":"Winnetka","admin3":"52909","localeAltName":null},{"geonameid":4917067,"name":"Woodlawn","admin3":"14000","localeAltName":null},{"geonameid":4917171,"name":"Worth","admin3":"83531","localeAltName":null}],"admin3":[{"geonameid":4884130,"name":"Township of Barrington","admin3":"03831","localeAltName":null},{"geonameid":4884603,"name":"Township of Berwyn","admin3":"05586","localeAltName":null},{"geonameid":4885151,"name":"Township of Bloom","admin3":"06561","localeAltName":null},{"geonameid":4885496,"name":"Township of Bremen","admin3":"07939","localeAltName":null},{"geonameid":4886283,"name":"Township of Calumet","admin3":"10474","localeAltName":null},{"geonameid":4887539,"name":"City of Chicago","admin3":"14000","localeAltName":null},{"geonameid":4888023,"name":"Township of Cicero","admin3":"14364","localeAltName":null},{"geonameid":4890927,"name":"Township of Elk Grove","admin3":"23243","localeAltName":null},{"geonameid":4891393,"name":"Township of Evanston","admin3":"24595","localeAltName":null},{"geonameid":4895070,"name":"Township of Hanover","admin3":"32694","localeAltName":null},{"geonameid":4899588,"name":"Township of Lemont","admin3":"42808","localeAltName":null},{"geonameid":4899681,"name":"Township of Leyden","admin3":"43120","localeAltName":null},{"geonameid":4900763,"name":"Township of Lyons","admin3":"45447","localeAltName":null},{"geonameid":4900916,"name":"Township of Maine","admin3":"46162","localeAltName":null},{"geonameid":4903626,"name":"Township of New Trier","admin3":"52909","localeAltName":null},{"geonameid":4903743,"name":"Township of Niles","admin3":"53013","localeAltName":null},{"geonameid":4904100,"name":"Township of Northfield","admin3":"53676","localeAltName":null},{"geonameid":4904216,"name":"Township of Norwood Park","admin3":"54430","localeAltName":null},{"geonameid":4904405,"name":"Township of Oak Park","admin3":"54898","localeAltName":null},{"geonameid":4904954,"name":"Township of Orland","admin3":"56614","localeAltName":null},{"geonameid":4905222,"name":"Township of Palatine","admin3":"57238","localeAltName":null},{"geonameid":4905277,"name":"Township of Palos","admin3":"57355","localeAltName":null},{"geonameid":4906919,"name":"Township of Proviso","admin3":"62133","localeAltName":null},{"geonameid":4907461,"name":"Township of Rich","admin3":"63498","localeAltName":null},{"geonameid":4907644,"name":"Township of River Forest","admin3":"64317","localeAltName":null},{"geonameid":4907744,"name":"Township of Riverside","admin3":"64434","localeAltName":null},{"geonameid":4910724,"name":"Township of Schaumburg","admin3":"68016","localeAltName":null},{"geonameid":4912558,"name":"Township of Stickney","admin3":"72689","localeAltName":null},{"geonameid":4913615,"name":"Township of Thornton","admin3":"75198","localeAltName":null},{"geonameid":4916320,"name":"Township of Wheeling","admin3":"81100","localeAltName":null},{"geonameid":4917179,"name":"Township of Worth","admin3":"83531","localeAltName":null}],"alternateNames":[{"alternatenameId":2089562,"geonameid":4896861,"isoLanguage":"en","alternateName":"Illinois","isPreferredName":true,"isShortName":true,"isColloquial":false,"isHistoric":false}]},"__N_SSG":true}