{"pageProps":{"locale":"en","admin2":{"geonameid":4889548,"name":"De Witt County","country":"US","admin1":"IL","admin2":"039","admin3":"","latitude":"40.1746300","longitude":"-88.9040900","localeAltName":null},"admin1":{"geonameid":4896861,"name":"Illinois","admin1":"IL","localeAltName":"Illinois"},"locations":[{"geonameid":4888217,"name":"Clinton","admin3":"15014","localeAltName":null},{"geonameid":4891772,"name":"Farmer City","admin3":"67639","localeAltName":null},{"geonameid":4915469,"name":"Wapella","admin3":"78786","localeAltName":null}],"admin3":[{"geonameid":4884104,"name":"Township of Barnett","admin3":"03714"},{"geonameid":4888231,"name":"Township of Clintonia","admin3":"15014","localeAltName":null},{"geonameid":4889077,"name":"Township of Creek","admin3":"17302"},{"geonameid":4889550,"name":"Township of De Witt","admin3":"19785"},{"geonameid":4895180,"name":"Township of Harp","admin3":"33058"},{"geonameid":4903759,"name":"Township of Nixon","admin3":"53117"},{"geonameid":4908367,"name":"Township of Rutledge","admin3":"66469"},{"geonameid":4910574,"name":"Township of Santa Anna","admin3":"67639","localeAltName":null},{"geonameid":4913383,"name":"Township of Texas","admin3":"74769"},{"geonameid":4914144,"name":"Township of Tunbridge","admin3":"76342"},{"geonameid":4915471,"name":"Township of Wapella","admin3":"78786","localeAltName":null},{"geonameid":4915777,"name":"Township of Waynesville","admin3":"79462"},{"geonameid":4916783,"name":"Township of Wilson","admin3":"82140"}],"alternateNames":[{"alternatenameId":2089562,"geonameid":4896861,"isoLanguage":"en","alternateName":"Illinois","isPreferredName":true,"isShortName":true,"isColloquial":false,"isHistoric":false}]},"__N_SSG":true}