{"pageProps":{"locale":"en","admin2":{"geonameid":4893313,"name":"Fulton County","country":"US","admin1":"IL","admin2":"057","admin3":"","latitude":"40.4727700","longitude":"-90.2074700","localeAltName":null},"admin1":{"geonameid":4896861,"name":"Illinois","admin1":"IL","localeAltName":"Illinois"},"locations":[{"geonameid":4883749,"name":"Astoria","admin3":"02648","localeAltName":null},{"geonameid":4883893,"name":"Avon","admin3":"76667","localeAltName":null},{"geonameid":4831990,"name":"Canton","admin3":"11020","localeAltName":null},{"geonameid":4889255,"name":"Cuba","admin3":"62276","localeAltName":null},{"geonameid":4891784,"name":"Farmington","admin3":"25544","localeAltName":null},{"geonameid":4899665,"name":"Lewistown","admin3":"43068","localeAltName":null},{"geonameid":4908819,"name":"Saint David","admin3":"09265","localeAltName":null},{"geonameid":4914725,"name":"Vermont","admin3":"77655","localeAltName":null}],"admin3":[{"geonameid":4883752,"name":"Township of Astoria","admin3":"02648","localeAltName":null},{"geonameid":4884036,"name":"Township of Banner","admin3":"03584"},{"geonameid":4884575,"name":"Township of Bernadotte","admin3":"05469"},{"geonameid":4885891,"name":"Township of Buckheart","admin3":"09265","localeAltName":null},{"geonameid":4886572,"name":"Township of Canton","admin3":"11020","localeAltName":null},{"geonameid":4886760,"name":"Township of Cass","admin3":"11696"},{"geonameid":4889674,"name":"Township of Deerfield","admin3":"18979"},{"geonameid":4890973,"name":"Township of Ellisville","admin3":"23542"},{"geonameid":4891630,"name":"Township of Fairview","admin3":"25076"},{"geonameid":4891796,"name":"Township of Farmington","admin3":"25544","localeAltName":null},{"geonameid":4891826,"name":"Township of Farmers","admin3":"25427"},{"geonameid":4895223,"name":"Township of Harris","admin3":"33110"},{"geonameid":4897566,"name":"Township of Isabel","admin3":"37842"},{"geonameid":4898095,"name":"Township of Joshua","admin3":"38713"},{"geonameid":4898426,"name":"Township of Kerton","admin3":"39714"},{"geonameid":4899534,"name":"Township of Lee","admin3":"42574"},{"geonameid":4899669,"name":"Township of Lewistown","admin3":"43068","localeAltName":null},{"geonameid":4900211,"name":"Township of Liverpool","admin3":"44134"},{"geonameid":4904929,"name":"Township of Orion","admin3":"56588"},{"geonameid":4906357,"name":"Township of Pleasant","admin3":"60430"},{"geonameid":4906958,"name":"Township of Putman","admin3":"62276","localeAltName":null},{"geonameid":4914398,"name":"Township of Union","admin3":"76667","localeAltName":null},{"geonameid":4914733,"name":"Township of Vermont","admin3":"77655","localeAltName":null},{"geonameid":4915682,"name":"Township of Waterford","admin3":"79137"},{"geonameid":4917066,"name":"Township of Woodland","admin3":"83089"},{"geonameid":4917317,"name":"Township of Young Hickory","admin3":"84077"}],"alternateNames":[{"alternatenameId":2089562,"geonameid":4896861,"isoLanguage":"en","alternateName":"Illinois","isPreferredName":true,"isShortName":true,"isColloquial":false,"isHistoric":false}]},"__N_SSG":true}