{"pageProps":{"locale":"en","admin2":{"geonameid":4240145,"name":"Hamilton County","country":"US","admin1":"IL","admin2":"065","admin3":"","latitude":"38.0815700","longitude":"-88.5391100","localeAltName":null},"admin1":{"geonameid":4896861,"name":"Illinois","admin1":"IL","localeAltName":"Illinois"},"locations":[{"geonameid":4236786,"name":"Dahlgren","admin3":"18316","localeAltName":null},{"geonameid":4244307,"name":"McLeansboro","admin3":"45837","localeAltName":null}],"admin3":[{"geonameid":4233405,"name":"Township of Beaver Creek","admin3":"04481"},{"geonameid":4236635,"name":"Township of Crook","admin3":"17627"},{"geonameid":4236690,"name":"Township of Crouch","admin3":"17809"},{"geonameid":4236788,"name":"Township of Dahlgren","admin3":"18316","localeAltName":null},{"geonameid":4238737,"name":"Township of Flannigan","admin3":"26324"},{"geonameid":4242369,"name":"Township of Knight Prairie","admin3":"40299"},{"geonameid":4244129,"name":"Township of Mayberry","admin3":"47657"},{"geonameid":4244315,"name":"Township of McLeansboro","admin3":"45837","localeAltName":null},{"geonameid":4250299,"name":"Township of South Crouch","admin3":"70655"},{"geonameid":4250306,"name":"Township of South Flannigan","admin3":"70785"},{"geonameid":4250385,"name":"Township of South Twigg","admin3":"71305"},{"geonameid":4251610,"name":"Township of Twigg","admin3":"76472"}],"alternateNames":[{"alternatenameId":2089562,"geonameid":4896861,"isoLanguage":"en","alternateName":"Illinois","isPreferredName":true,"isShortName":true,"isColloquial":false,"isHistoric":false}]},"__N_SSG":true}