{"pageProps":{"locale":"en","admin2":{"geonameid":4898722,"name":"Knox County","country":"US","admin1":"IL","admin2":"095","admin3":"","latitude":"40.9318200","longitude":"-90.2132600","localeAltName":null},"admin1":{"geonameid":4896861,"name":"Illinois","admin1":"IL","localeAltName":"Illinois"},"locations":[{"geonameid":4882839,"name":"Abingdon","admin3":"11891","localeAltName":null},{"geonameid":4883230,"name":"Altona","admin3":"78565","localeAltName":null},{"geonameid":4890506,"name":"East Galesburg","admin3":"40403","localeAltName":null},{"geonameid":4893392,"name":"Galesburg","admin3":"28352","localeAltName":null},{"geonameid":4898734,"name":"Knoxville","admin3":"40403","localeAltName":null},{"geonameid":4904429,"name":"Oak Run","admin3":"59221","localeAltName":null},{"geonameid":4904831,"name":"Oneida","admin3":"56172","localeAltName":null},{"geonameid":4915669,"name":"Wataga","admin3":"71435","localeAltName":null},{"geonameid":4916626,"name":"Williamsfield","admin3":"76303","localeAltName":null},{"geonameid":4917250,"name":"Yates City","admin3":"67223","localeAltName":null}],"admin3":[{"geonameid":4886855,"name":"Township of Cedar","admin3":"11891","localeAltName":null},{"geonameid":4887389,"name":"Township of Chestnut","admin3":"13217"},{"geonameid":4888739,"name":"Township of Copley","admin3":"16275"},{"geonameid":4890833,"name":"Township of Elba","admin3":"22879"},{"geonameid":4893393,"name":"Township of Galesburg City","admin3":"28352","localeAltName":null},{"geonameid":4893403,"name":"Township of Galesburg","admin3":"28339"},{"geonameid":4895350,"name":"Township of Haw Creek","admin3":"33552"},{"geonameid":4895563,"name":"Township of Henderson","admin3":"34020"},{"geonameid":4897061,"name":"Township of Indian Point","admin3":"37361"},{"geonameid":4898732,"name":"Township of Knox","admin3":"40403","localeAltName":null},{"geonameid":4900734,"name":"Township of Lynn","admin3":"45330"},{"geonameid":4901140,"name":"Township of Maquon","admin3":"46708"},{"geonameid":4904839,"name":"Township of Ontario","admin3":"56172","localeAltName":null},{"geonameid":4904880,"name":"Township of Orange","admin3":"56315"},{"geonameid":4905766,"name":"Township of Persifer","admin3":"59221","localeAltName":null},{"geonameid":4907615,"name":"Township of Rio","admin3":"64161"},{"geonameid":4910440,"name":"Township of Salem","admin3":"67223","localeAltName":null},{"geonameid":4912131,"name":"Township of Sparta","admin3":"71435","localeAltName":null},{"geonameid":4914126,"name":"Township of Truro","admin3":"76303","localeAltName":null},{"geonameid":4914790,"name":"Township of Victoria","admin3":"77824"},{"geonameid":4915425,"name":"Township of Walnut Grove","admin3":"78565","localeAltName":null}],"alternateNames":[{"alternatenameId":2089562,"geonameid":4896861,"isoLanguage":"en","alternateName":"Illinois","isPreferredName":true,"isShortName":true,"isColloquial":false,"isHistoric":false}]},"__N_SSG":true}