{"pageProps":{"locale":"en","admin2":{"geonameid":4244772,"name":"Montgomery County","country":"US","admin1":"IL","admin2":"135","admin3":"","latitude":"39.2310400","longitude":"-89.4788700","localeAltName":null},"admin1":{"geonameid":4896861,"name":"Illinois","admin1":"IL","localeAltName":"Illinois"},"locations":[{"geonameid":4236124,"name":"Coffeen","admin3":"21761","localeAltName":null},{"geonameid":4238226,"name":"Farmersville","admin3":"","localeAltName":null},{"geonameid":4240782,"name":"Hillsboro","admin3":"35060","localeAltName":null},{"geonameid":4243131,"name":"Litchfield","admin3":"53949","localeAltName":null},{"geonameid":4245744,"name":"Nokomis","admin3":"53182","localeAltName":null},{"geonameid":4247860,"name":"Raymond","admin3":"62978","localeAltName":null},{"geonameid":4249584,"name":"Schram City","admin3":"21761","localeAltName":null},{"geonameid":4251138,"name":"Taylor Springs","admin3":"35060","localeAltName":null},{"geonameid":4253325,"name":"Witt","admin3":"82738","localeAltName":null}],"admin3":[{"geonameid":4233046,"name":"Township of Audubon","admin3":"02960"},{"geonameid":4234923,"name":"Township of Butler Grove","admin3":"10175"},{"geonameid":4237533,"name":"Township of East Fork","admin3":"21761","localeAltName":null},{"geonameid":4238318,"name":"Township of Fillmore","admin3":"26090"},{"geonameid":4239956,"name":"Township of Grisham","admin3":"31836"},{"geonameid":4240350,"name":"Township of Harvel","admin3":"33370"},{"geonameid":4240752,"name":"Township of Hillsboro","admin3":"35060","localeAltName":null},{"geonameid":4241611,"name":"Township of Irving","admin3":"37751"},{"geonameid":4245752,"name":"Township of Nokomis","admin3":"53182","localeAltName":null},{"geonameid":4245827,"name":"Township of North Litchfield","admin3":"53949","localeAltName":null},{"geonameid":4247057,"name":"Township of Pitman","admin3":"60183"},{"geonameid":4247858,"name":"Township of Raymond","admin3":"62978","localeAltName":null},{"geonameid":4248534,"name":"Township of Rountree","admin3":"66092"},{"geonameid":4250304,"name":"Township of South Fillmore","admin3":"70772"},{"geonameid":4250342,"name":"Township of South Litchfield","admin3":"70928"},{"geonameid":4252402,"name":"Township of Walshville","admin3":"78669"},{"geonameid":4253331,"name":"Township of Witt","admin3":"82738","localeAltName":null},{"geonameid":4253590,"name":"Township of Zanesville","admin3":"84129"}],"alternateNames":[{"alternatenameId":2089562,"geonameid":4896861,"isoLanguage":"en","alternateName":"Illinois","isPreferredName":true,"isShortName":true,"isColloquial":false,"isHistoric":false}]},"__N_SSG":true}