{"pageProps":{"locale":"en","admin2":{"geonameid":4905877,"name":"Piatt County","country":"US","admin1":"IL","admin2":"147","admin3":"","latitude":"40.0103700","longitude":"-88.5910900","localeAltName":null},"admin1":{"geonameid":4896861,"name":"Illinois","admin1":"IL","localeAltName":"Illinois"},"locations":[{"geonameid":4233552,"name":"Bement","admin3":"05157","localeAltName":null},{"geonameid":4235607,"name":"Cerro Gordo","admin3":"12275","localeAltName":null},{"geonameid":4901006,"name":"Mansfield","admin3":"06808","localeAltName":null},{"geonameid":4902567,"name":"Monticello","admin3":"50257","localeAltName":null}],"admin3":[{"geonameid":4233560,"name":"Township of Bement","admin3":"05157","localeAltName":null},{"geonameid":4235612,"name":"Township of Cerro Gordo","admin3":"12275","localeAltName":null},{"geonameid":4251832,"name":"Township of Unity","admin3":"76888"},{"geonameid":4253205,"name":"Township of Willow Branch","admin3":"81906"},{"geonameid":4885213,"name":"Township of Blue Ridge","admin3":"06808","localeAltName":null},{"geonameid":4894083,"name":"Township of Goose Creek","admin3":"30523"},{"geonameid":4902579,"name":"Township of Monticello","admin3":"50257","localeAltName":null},{"geonameid":4910568,"name":"Township of Sangamon","admin3":"67587"}],"alternateNames":[{"alternatenameId":2089562,"geonameid":4896861,"isoLanguage":"en","alternateName":"Illinois","isPreferredName":true,"isShortName":true,"isColloquial":false,"isHistoric":false}]},"__N_SSG":true}