{"pageProps":{"locale":"en","admin2":{"geonameid":4906962,"name":"Putnam County","country":"US","admin1":"IL","admin2":"155","admin3":"","latitude":"41.2044700","longitude":"-89.2858300","localeAltName":null},"admin1":{"geonameid":4896861,"name":"Illinois","admin1":"IL","localeAltName":"Illinois"},"locations":[{"geonameid":4894410,"name":"Granville","admin3":"31030","localeAltName":null},{"geonameid":4895580,"name":"Hennepin","admin3":"34124","localeAltName":null},{"geonameid":4901208,"name":"Mark","admin3":"31030","localeAltName":null}],"admin3":[{"geonameid":4894416,"name":"Township of Granville","admin3":"31030","localeAltName":null},{"geonameid":4895582,"name":"Township of Hennepin","admin3":"34124","localeAltName":null},{"geonameid":4900879,"name":"Township of Magnolia","admin3":"46123"},{"geonameid":4911057,"name":"Township of Senachwine","admin3":"68627"}],"alternateNames":[{"alternatenameId":2089562,"geonameid":4896861,"isoLanguage":"en","alternateName":"Illinois","isPreferredName":true,"isShortName":true,"isColloquial":false,"isHistoric":false}]},"__N_SSG":true}