{"pageProps":{"locale":"en","admin2":{"geonameid":4248062,"name":"Richland County","country":"US","admin1":"IL","admin2":"159","admin3":"","latitude":"38.7123600","longitude":"-88.0851000","localeAltName":null},"admin1":{"geonameid":4896861,"name":"Illinois","admin1":"IL","localeAltName":"Illinois"},"locations":[{"geonameid":4245740,"name":"Noble","admin3":"53156","localeAltName":null},{"geonameid":4246382,"name":"Olney","admin3":"55925","localeAltName":null}],"admin3":[{"geonameid":4234214,"name":"Township of Bonpas","admin3":"07289"},{"geonameid":4235939,"name":"Township of Claremont","admin3":"14546"},{"geonameid":4236916,"name":"Township of Decker","admin3":"18862"},{"geonameid":4236996,"name":"Township of Denver","admin3":"19486"},{"geonameid":4239367,"name":"Township of German","admin3":"29028"},{"geonameid":4243760,"name":"Township of Madison","admin3":"46006"},{"geonameid":4245742,"name":"Township of Noble","admin3":"53156","localeAltName":null},{"geonameid":4246387,"name":"Township of Olney","admin3":"55925","localeAltName":null},{"geonameid":4247591,"name":"Township of Preston","admin3":"61847"}],"alternateNames":[{"alternatenameId":2089562,"geonameid":4896861,"isoLanguage":"en","alternateName":"Illinois","isPreferredName":true,"isShortName":true,"isColloquial":false,"isHistoric":false}]},"__N_SSG":true}