{"pageProps":{"locale":"en","admin2":{"geonameid":4249341,"name":"Saline County","country":"US","admin1":"IL","admin2":"165","admin3":"","latitude":"37.7531800","longitude":"-88.5408000","localeAltName":null},"admin1":{"geonameid":4896861,"name":"Illinois","admin1":"IL","localeAltName":"Illinois"},"locations":[{"geonameid":4235274,"name":"Carrier Mills","admin3":"11404","localeAltName":null},{"geonameid":4237767,"name":"Eldorado","admin3":"21709","localeAltName":null},{"geonameid":4239218,"name":"Galatia","admin3":"28274","localeAltName":null},{"geonameid":4240284,"name":"Harrisburg","admin3":"33149","localeAltName":null}],"admin3":[{"geonameid":4234695,"name":"Township of Brushy","admin3":"09122"},{"geonameid":4235278,"name":"Township of Carrier Mills","admin3":"11404","localeAltName":null},{"geonameid":4236426,"name":"Township of Cottage","admin3":"16535"},{"geonameid":4237510,"name":"Township of East Eldorado","admin3":"21709","localeAltName":null},{"geonameid":4239221,"name":"Township of Galatia","admin3":"28274","localeAltName":null},{"geonameid":4240290,"name":"Township of Harrisburg","admin3":"33149","localeAltName":null},{"geonameid":4241380,"name":"Township of Independence","admin3":"37205"},{"geonameid":4243450,"name":"Township of Long Branch","admin3":"44485"},{"geonameid":4245243,"name":"Township of Mountain","admin3":"50803"},{"geonameid":4247771,"name":"Township of Raleigh","admin3":"62601"},{"geonameid":4247875,"name":"Township of Rector","admin3":"63030"},{"geonameid":4250720,"name":"Township of Stonefort","admin3":"72897"},{"geonameid":4251105,"name":"Township of Tate","admin3":"74509"}],"alternateNames":[{"alternatenameId":2089562,"geonameid":4896861,"isoLanguage":"en","alternateName":"Illinois","isPreferredName":true,"isShortName":true,"isColloquial":false,"isHistoric":false}]},"__N_SSG":true}