{"pageProps":{"locale":"ro","admin2":{"geonameid":664383,"name":"Comuna Uda","country":"RO","admin1":"03","admin2":"19392","admin3":"","latitude":"44.8759100","longitude":"24.5858200"},"admin1":{"geonameid":686192,"name":"Argeş","admin1":"03"},"locations":[{"geonameid":685875,"name":"Bădulești","admin3":""},{"geonameid":685864,"name":"Băgeşti","admin3":""},{"geonameid":685422,"name":"Bărănești","admin3":""},{"geonameid":683862,"name":"Braniștea","admin3":""},{"geonameid":681823,"name":"Cândeleşti","admin3":""},{"geonameid":682040,"name":"Chirițești","admin3":""},{"geonameid":681730,"name":"Cioceşti","admin3":""},{"geonameid":680461,"name":"Cotu","admin3":""},{"geonameid":679672,"name":"Dealu Bisericii","admin3":""},{"geonameid":679576,"name":"Dealu Tolcesii","admin3":""},{"geonameid":679575,"name":"Dealu Ţoneşti","admin3":""},{"geonameid":679424,"name":"Diconești","admin3":""},{"geonameid":677450,"name":"Gherăşeşti","admin3":""},{"geonameid":676923,"name":"Gorani","admin3":""},{"geonameid":676780,"name":"Greabăn","admin3":""},{"geonameid":674757,"name":"Linia Mare","admin3":""},{"geonameid":674317,"name":"Lungeşti","admin3":""},{"geonameid":674310,"name":"Lungulești","admin3":""},{"geonameid":673442,"name":"Miercani","admin3":""},{"geonameid":668905,"name":"Râjleţu-Govora","admin3":""},{"geonameid":10941923,"name":"Romana","admin3":""},{"geonameid":668147,"name":"Săliștea","admin3":""},{"geonameid":667326,"name":"Şetrari","admin3":""},{"geonameid":664385,"name":"Uda","admin3":""},{"geonameid":664380,"name":"Uda de Jos","admin3":""},{"geonameid":664379,"name":"Uda de Sus","admin3":""},{"geonameid":663438,"name":"Valea Satului","admin3":""}],"admin3":[],"alternateNames":[]},"__N_SSG":true}