{"pageProps":{"locale":"en","admin2":{"geonameid":6544235,"name":"Gemeente Steenwijkerland","country":"NL","admin1":"15","admin2":"1708","admin3":"","latitude":"52.7558700","longitude":"6.0402800"},"admin1":{"geonameid":2748838,"name":"Provincie Overijssel","admin1":"15"},"locations":[{"geonameid":2746261,"name":"'t Klooster","admin3":""},{"geonameid":2746377,"name":"â€™t Haagje","admin3":""},{"geonameid":2759547,"name":"Baarlo","admin3":""},{"geonameid":2759541,"name":"Baars","admin3":""},{"geonameid":2759398,"name":"Barsbeek","admin3":""},{"geonameid":2759388,"name":"Basse","admin3":""},{"geonameid":2759387,"name":"Basserveld","admin3":""},{"geonameid":2759239,"name":"Belt-Schutsloot","admin3":""},{"geonameid":2758871,"name":"Blankenham","admin3":""},{"geonameid":2758862,"name":"Blauwe Hand","admin3":""},{"geonameid":2758777,"name":"Blokzijl","admin3":""},{"geonameid":2757793,"name":"De Berg","admin3":""},{"geonameid":2757726,"name":"De Bult","admin3":""},{"geonameid":2757580,"name":"De Hare","admin3":""},{"geonameid":2757135,"name":"De Pol","admin3":""},{"geonameid":2756791,"name":"Dinxterveen","admin3":""},{"geonameid":2756671,"name":"Doosje","admin3":""},{"geonameid":2756463,"name":"Dwarsgracht","admin3":""},{"geonameid":2756328,"name":"Eese","admin3":""},{"geonameid":2756320,"name":"Eesveen","admin3":""},{"geonameid":2755517,"name":"Giethoorn","admin3":""},{"geonameid":2755175,"name":"Groote Leeuwte","admin3":""},{"geonameid":2754620,"name":"Heetveld","admin3":""},{"geonameid":2753365,"name":"IJsselham","admin3":""},{"geonameid":2753220,"name":"Jonen","admin3":""},{"geonameid":2753147,"name":"Kadoelen","admin3":""},{"geonameid":2753140,"name":"Kalenberg","admin3":""},{"geonameid":2753127,"name":"Kallenkote","admin3":""},{"geonameid":2752162,"name":"Kuinre","admin3":""},{"geonameid":2752733,"name":"Leeuwte","admin3":""},{"geonameid":2751167,"name":"Marijenkampen","admin3":""},{"geonameid":2750860,"name":"Middenbuurt","admin3":""},{"geonameid":2750747,"name":"Moespot","admin3":""},{"geonameid":2750574,"name":"Muggenbeet","admin3":""},{"geonameid":2750474,"name":"Nederland","admin3":""},{"geonameid":2749972,"name":"Noordeinde","admin3":""},{"geonameid":2749895,"name":"Noordervenerbosch","admin3":""},{"geonameid":2749653,"name":"Oldemarkt","admin3":""},{"geonameid":2749589,"name":"Onna","admin3":""},{"geonameid":2749431,"name":"Oostermeenthe","admin3":""},{"geonameid":2749212,"name":"Ossenzijl","admin3":""},{"geonameid":2748777,"name":"Paasloo","admin3":""},{"geonameid":6544752,"name":"Poepershoek","admin3":""},{"geonameid":2748013,"name":"Roekebosch","admin3":""},{"geonameid":2747966,"name":"Ronduite","admin3":""},{"geonameid":2747654,"name":"Scheerwolde","admin3":""},{"geonameid":2747262,"name":"Sint Jansklooster","admin3":""},{"geonameid":2746766,"name":"Steenwijk","admin3":""},{"geonameid":2746761,"name":"Steenwijkerwold","admin3":""},{"geonameid":2746120,"name":"Tuk","admin3":""},{"geonameid":2745606,"name":"Verlaat","admin3":""},{"geonameid":2745333,"name":"Vollenhove","admin3":""},{"geonameid":2745048,"name":"Wanneperveen","admin3":""},{"geonameid":2744788,"name":"Westeinde","admin3":""},{"geonameid":2744593,"name":"Wetering","admin3":""},{"geonameid":2744392,"name":"Willemsoord","admin3":""},{"geonameid":2744279,"name":"Witte Paarden","admin3":""},{"geonameid":2743787,"name":"Zuideinde","admin3":""},{"geonameid":2743652,"name":"Zuidveen","admin3":""},{"geonameid":2743604,"name":"Zuurbeek","admin3":""}],"admin3":[],"alternateNames":[{"alternatenameId":11907794,"geonameid":2748838,"isoLanguage":"de","alternateName":"Overijssel","isPreferredName":true,"isShortName":true,"isColloquial":false,"isHistoric":false}]},"__N_SSG":true}