{"pageProps":{"locale":"en","admin2":{"geonameid":2746132,"name":"Gemeente Tubbergen","country":"NL","admin1":"15","admin2":"0183","admin3":"","latitude":"52.4045100","longitude":"6.7824100"},"admin1":{"geonameid":2748838,"name":"Provincie Overijssel","admin1":"15"},"locations":[{"geonameid":2759919,"name":"Albergen","admin3":""},{"geonameid":2759626,"name":"Assinkshoek","admin3":""},{"geonameid":2758234,"name":"Broekzijde","admin3":""},{"geonameid":2757282,"name":"Demmershoek","admin3":""},{"geonameid":2755896,"name":"Fleringen","admin3":""},{"geonameid":2755652,"name":"Geesteren","admin3":""},{"geonameid":2755005,"name":"Haarle","admin3":""},{"geonameid":2754866,"name":"Harbrinkhoek","admin3":""},{"geonameid":2754107,"name":"Hezingen","admin3":""},{"geonameid":2752607,"name":"Kl√∂ssehoek","admin3":""},{"geonameid":2751911,"name":"Langeveen","admin3":""},{"geonameid":2751222,"name":"Mander","admin3":""},{"geonameid":2751221,"name":"Manderveen","admin3":""},{"geonameid":2751187,"name":"Mariaparochie","admin3":""},{"geonameid":2748209,"name":"Reutum","admin3":""},{"geonameid":2748070,"name":"Rikmansbrug","admin3":""},{"geonameid":2746133,"name":"Tubbergen","admin3":""},{"geonameid":2745799,"name":"Vasse","admin3":""},{"geonameid":2744876,"name":"Weitemanslanden","admin3":""},{"geonameid":2744653,"name":"West Geesteren","admin3":""}],"admin3":[],"alternateNames":[{"alternatenameId":11907794,"geonameid":2748838,"isoLanguage":"de","alternateName":"Overijssel","isPreferredName":true,"isShortName":true,"isColloquial":false,"isHistoric":false}]},"__N_SSG":true}