{"pageProps":{"locale":"it","admin2":{"geonameid":2523962,"name":"Provincia di Oristano","country":"IT","admin1":"14","admin2":"OR","admin3":"","latitude":"40.0168200","longitude":"8.7313100","localeAltName":"Oristano"},"admin1":{"geonameid":2523228,"name":"Sardegna","admin1":"14","localeAltName":null},"locations":[{"geonameid":3183579,"name":"Abbasanta","admin3":"095001","localeAltName":null},{"geonameid":2525751,"name":"Ales","admin3":"095004","localeAltName":null},{"geonameid":2525689,"name":"Arborea","admin3":"095006","localeAltName":null},{"geonameid":3182898,"name":"Ardauli","admin3":"095007","localeAltName":null},{"geonameid":2525601,"name":"Baratili San Pietro","admin3":"095011","localeAltName":null},{"geonameid":2525596,"name":"Baressa","admin3":"095012","localeAltName":null},{"geonameid":3182267,"name":"Bauladu","admin3":"095013","localeAltName":null},{"geonameid":3181899,"name":"Bonarcado","admin3":"095015","localeAltName":null},{"geonameid":3181706,"name":"Bosa","admin3":"095079","localeAltName":null},{"geonameid":3181384,"name":"Busachi","admin3":"095017","localeAltName":null},{"geonameid":2525478,"name":"Cabras","admin3":"095018","localeAltName":null},{"geonameid":3177719,"name":"Cuglieri","admin3":"095019","localeAltName":null},{"geonameid":2524839,"name":"Donigala Fenugheddu","admin3":"095038","localeAltName":null},{"geonameid":2524720,"name":"Fordongianus","admin3":"095020","localeAltName":null},{"geonameid":3176167,"name":"Ghilarza","admin3":"095021","localeAltName":null},{"geonameid":2524588,"name":"Gonnoscodina","admin3":"095022","localeAltName":null},{"geonameid":2524586,"name":"Gonnosnò","admin3":"095023","localeAltName":null},{"geonameid":2524585,"name":"Gonnostramatza","admin3":"095024","localeAltName":null},{"geonameid":2524479,"name":"Laconi","admin3":"095082","localeAltName":null},{"geonameid":2524246,"name":"Marrubiu","admin3":"095025","localeAltName":null},{"geonameid":2524209,"name":"Masullas","admin3":"095026","localeAltName":null},{"geonameid":3173413,"name":"Milis","admin3":"095027","localeAltName":null},{"geonameid":2524116,"name":"Mogoro","admin3":"095029","localeAltName":null},{"geonameid":3172635,"name":"Montresta","admin3":"095085","localeAltName":null},{"geonameid":2524050,"name":"Morgongiori","admin3":"095030","localeAltName":null},{"geonameid":3172380,"name":"Narbolia","admin3":"095031","localeAltName":null},{"geonameid":3172324,"name":"Neoneli","admin3":"095032","localeAltName":null},{"geonameid":3172211,"name":"Norbello","admin3":"095033","localeAltName":null},{"geonameid":3172161,"name":"Nughedu Santa Vittoria","admin3":"095034","localeAltName":null},{"geonameid":2523990,"name":"Nurachi","admin3":"095035","localeAltName":null},{"geonameid":2523986,"name":"Nuraxinieddu","admin3":"095038","localeAltName":null},{"geonameid":6535675,"name":"Ollastra","admin3":"095037","localeAltName":null},{"geonameid":2523964,"name":"Oristano","admin3":"095038","localeAltName":null},{"geonameid":2523904,"name":"Palmas Arborea","admin3":"095039","localeAltName":null},{"geonameid":3171371,"name":"Paulilatino","admin3":"095041","localeAltName":null},{"geonameid":2523613,"name":"Riola Sardo","admin3":"095043","localeAltName":null},{"geonameid":2523567,"name":"Ruinas","admin3":"095044","localeAltName":null},{"geonameid":2523530,"name":"Samugheo","admin3":"095045","localeAltName":null},{"geonameid":2523406,"name":"San Nicolò d'Arcidano","admin3":"095046","localeAltName":null},{"geonameid":3167212,"name":"San Vero Milis","admin3":"095050","localeAltName":null},{"geonameid":2523344,"name":"Santa Giusta","admin3":"095047","localeAltName":null},{"geonameid":3167233,"name":"Santu Lussurgiu","admin3":"095049","localeAltName":null},{"geonameid":3166976,"name":"Scano di Montiferro","admin3":"095051","localeAltName":null},{"geonameid":3166825,"name":"Sedilo","admin3":"095052","localeAltName":null},{"geonameid":3166746,"name":"Seneghe","admin3":"095053","localeAltName":null},{"geonameid":2523127,"name":"Siamaggiore","admin3":"095056","localeAltName":null},{"geonameid":2523126,"name":"Siamanna","admin3":"095057","localeAltName":null},{"geonameid":2523105,"name":"Silì","admin3":"095038","localeAltName":null},{"geonameid":2523099,"name":"Simaxis","admin3":"095059","localeAltName":null},{"geonameid":2523088,"name":"Sini","admin3":"095060","localeAltName":null},{"geonameid":2523069,"name":"Solanas","admin3":"095018","localeAltName":null},{"geonameid":2523064,"name":"Solarussa","admin3":"095062","localeAltName":null},{"geonameid":3166030,"name":"Suni","admin3":"095087","localeAltName":null},{"geonameid":8949991,"name":"Tanca Marchese","admin3":"095065","localeAltName":null},{"geonameid":2522958,"name":"Terralba","admin3":"095065","localeAltName":null},{"geonameid":2522879,"name":"Tramatza","admin3":"095066","localeAltName":null},{"geonameid":3165217,"name":"Tresnuraghes","admin3":"095067","localeAltName":null},{"geonameid":3165057,"name":"Ulà Tirso","admin3":"095068","localeAltName":null},{"geonameid":2522826,"name":"Uras","admin3":"095069","localeAltName":null},{"geonameid":2522822,"name":"Usellus","admin3":"095070","localeAltName":null},{"geonameid":2522720,"name":"Villaurbana","admin3":"095072","localeAltName":null},{"geonameid":2522685,"name":"Zeddiani","admin3":"095074","localeAltName":null},{"geonameid":2522683,"name":"Zerfaliu","admin3":"095075","localeAltName":null}],"admin3":[{"geonameid":2525479,"name":"Cabras","admin3":"095018","localeAltName":null},{"geonameid":6537854,"name":"Flussio","admin3":"095080"},{"geonameid":6537859,"name":"Montresta","admin3":"095085","localeAltName":null},{"geonameid":6537880,"name":"Suni","admin3":"095087","localeAltName":null},{"geonameid":6537882,"name":"Tinnura","admin3":"095088"},{"geonameid":6537958,"name":"Abbasanta","admin3":"095001","localeAltName":null},{"geonameid":6537959,"name":"Allai","admin3":"095005"},{"geonameid":6537960,"name":"Ardauli","admin3":"095007","localeAltName":null},{"geonameid":6537961,"name":"Assolo","admin3":"095008"},{"geonameid":6537962,"name":"Asuni","admin3":"095009"},{"geonameid":6537963,"name":"Baradili","admin3":"095010"},{"geonameid":6537964,"name":"Bauladu","admin3":"095013","localeAltName":null},{"geonameid":6537965,"name":"Bidonì","admin3":"095014"},{"geonameid":6537966,"name":"Busachi","admin3":"095017","localeAltName":null},{"geonameid":6537967,"name":"Gonnosnò","admin3":"095023","localeAltName":null},{"geonameid":6537968,"name":"Gonnostramatza","admin3":"095024","localeAltName":null},{"geonameid":6537969,"name":"Masullas","admin3":"095026","localeAltName":null},{"geonameid":6537970,"name":"Morgongiori","admin3":"095030","localeAltName":null},{"geonameid":6537971,"name":"Neoneli","admin3":"095032","localeAltName":null},{"geonameid":6537972,"name":"Nughedu Santa Vittoria","admin3":"095034","localeAltName":null},{"geonameid":6537973,"name":"Nurachi","admin3":"095035","localeAltName":null},{"geonameid":6537974,"name":"Pau","admin3":"095040"},{"geonameid":6537975,"name":"Riola Sardo","admin3":"095043","localeAltName":null},{"geonameid":6537976,"name":"San Nicolò d'Arcidano","admin3":"095046","localeAltName":null},{"geonameid":6537977,"name":"Sennariolo","admin3":"095055"},{"geonameid":6537978,"name":"Simala","admin3":"095058"},{"geonameid":6537979,"name":"Sini","admin3":"095060","localeAltName":null},{"geonameid":6537980,"name":"Siris","admin3":"095061"},{"geonameid":6537981,"name":"Sorradile","admin3":"095063"},{"geonameid":6537982,"name":"Tramatza","admin3":"095066","localeAltName":null},{"geonameid":6537983,"name":"Zeddiani","admin3":"095074","localeAltName":null},{"geonameid":6537984,"name":"Curcuris","admin3":"095077"},{"geonameid":6539260,"name":"Laconi","admin3":"095082","localeAltName":null},{"geonameid":6539352,"name":"Aidomaggiore","admin3":"095002"},{"geonameid":6539353,"name":"Albagiara","admin3":"095003"},{"geonameid":6539354,"name":"Baratili San Pietro","admin3":"095011","localeAltName":null},{"geonameid":6539355,"name":"Baressa","admin3":"095012","localeAltName":null},{"geonameid":6539356,"name":"Bonarcado","admin3":"095015","localeAltName":null},{"geonameid":6539357,"name":"Cuglieri","admin3":"095019","localeAltName":null},{"geonameid":6539358,"name":"Fordongianus","admin3":"095020","localeAltName":null},{"geonameid":6539359,"name":"Ghilarza","admin3":"095021","localeAltName":null},{"geonameid":6539360,"name":"Gonnoscodina","admin3":"095022","localeAltName":null},{"geonameid":6539361,"name":"Marrubiu","admin3":"095025","localeAltName":null},{"geonameid":6539362,"name":"Mogorella","admin3":"095028"},{"geonameid":6539363,"name":"Mogoro","admin3":"095029","localeAltName":null},{"geonameid":6539364,"name":"Narbolia","admin3":"095031","localeAltName":null},{"geonameid":6539365,"name":"Norbello","admin3":"095033","localeAltName":null},{"geonameid":6539366,"name":"Nureci","admin3":"095036"},{"geonameid":6539367,"name":"Palmas Arborea","admin3":"095039","localeAltName":null},{"geonameid":6539368,"name":"Paulilatino","admin3":"095041","localeAltName":null},{"geonameid":6539369,"name":"Samugheo","admin3":"095045","localeAltName":null},{"geonameid":6539370,"name":"Santu Lussurgiu","admin3":"095049","localeAltName":null},{"geonameid":6539371,"name":"San Vero Milis","admin3":"095050","localeAltName":null},{"geonameid":6539372,"name":"Sedilo","admin3":"095052","localeAltName":null},{"geonameid":6539373,"name":"Senis","admin3":"095054"},{"geonameid":6539374,"name":"Siamaggiore","admin3":"095056","localeAltName":null},{"geonameid":6539375,"name":"Siamanna","admin3":"095057","localeAltName":null},{"geonameid":6539376,"name":"Solarussa","admin3":"095062","localeAltName":null},{"geonameid":6539377,"name":"Terralba","admin3":"095065","localeAltName":null},{"geonameid":6539378,"name":"Ulà Tirso","admin3":"095068","localeAltName":null},{"geonameid":6539379,"name":"Uras","admin3":"095069","localeAltName":null},{"geonameid":6539380,"name":"Villanova Truschedu","admin3":"095071"},{"geonameid":6539381,"name":"Villaurbana","admin3":"095072","localeAltName":null},{"geonameid":6539382,"name":"Villa Verde","admin3":"095073"},{"geonameid":6539383,"name":"Zerfaliu","admin3":"095075","localeAltName":null},{"geonameid":6539384,"name":"Siapiccia","admin3":"095076"},{"geonameid":6539598,"name":"Pompu","admin3":"095042"},{"geonameid":6539874,"name":"Bosa","admin3":"095079","localeAltName":null},{"geonameid":6539883,"name":"Ales","admin3":"095004","localeAltName":null},{"geonameid":6539884,"name":"Arborea","admin3":"095006","localeAltName":null},{"geonameid":6539885,"name":"Milis","admin3":"095027","localeAltName":null},{"geonameid":6539886,"name":"Usellus","admin3":"095070","localeAltName":null},{"geonameid":6540077,"name":"Ruinas","admin3":"095044","localeAltName":null},{"geonameid":6540078,"name":"Santa Giusta","admin3":"095047","localeAltName":null},{"geonameid":6540079,"name":"Simaxis","admin3":"095059","localeAltName":null},{"geonameid":6540123,"name":"Oristano","admin3":"095038","localeAltName":null},{"geonameid":6540867,"name":"Sagama","admin3":"095086"},{"geonameid":6540878,"name":"Boroneddu","admin3":"095016"},{"geonameid":6540879,"name":"Seneghe","admin3":"095053","localeAltName":null},{"geonameid":6540880,"name":"Tadasuni","admin3":"095064"},{"geonameid":6541368,"name":"Modolo","admin3":"095084"},{"geonameid":6541775,"name":"Magomadas","admin3":"095083"},{"geonameid":6541978,"name":"Soddì","admin3":"095078"},{"geonameid":6542276,"name":"Scano di Montiferro","admin3":"095051","localeAltName":null},{"geonameid":6542277,"name":"Tresnuraghes","admin3":"095067","localeAltName":null},{"geonameid":6543316,"name":"Villa Sant'Antonio","admin3":"095048"},{"geonameid":6543652,"name":"Ollastra","admin3":"095037","localeAltName":null}],"alternateNames":[{"alternatenameId":2431335,"geonameid":2523962,"isoLanguage":"it","alternateName":"Oristano","isPreferredName":true,"isShortName":true,"isColloquial":false,"isHistoric":false}]},"__N_SSG":true}