{"pageProps":{"locale":"it","admin2":{"geonameid":3167094,"name":"Provincia di Sassari","country":"IT","admin1":"14","admin2":"SS","admin3":"","latitude":"40.7701400","longitude":"8.7588500","localeAltName":"Sassari"},"admin1":{"geonameid":2523228,"name":"Sardegna","admin1":"14","localeAltName":null},"locations":[{"geonameid":3183443,"name":"Aggius","admin3":"090001","localeAltName":null},{"geonameid":3168361,"name":"Aglientu","admin3":"090062","localeAltName":null},{"geonameid":3183372,"name":"Alà dei Sardi","admin3":"090002","localeAltName":null},{"geonameid":3183284,"name":"Alghero","admin3":"090003","localeAltName":null},{"geonameid":3183070,"name":"Anela","admin3":"090004","localeAltName":null},{"geonameid":3182899,"name":"Ardara","admin3":"090005","localeAltName":null},{"geonameid":3182769,"name":"Arzachena","admin3":"090006","localeAltName":null},{"geonameid":3182589,"name":"Badesi","admin3":"090081","localeAltName":null},{"geonameid":3182435,"name":"Banari","admin3":"090007","localeAltName":null},{"geonameid":8949207,"name":"Bancali","admin3":"090064","localeAltName":null},{"geonameid":3182183,"name":"Benetutti","admin3":"090008","localeAltName":null},{"geonameid":3182170,"name":"Berchidda","admin3":"090009","localeAltName":null},{"geonameid":3182168,"name":"Berchiddeddu","admin3":"090047","localeAltName":null},{"geonameid":3181880,"name":"Bonnanaro","admin3":"090011","localeAltName":null},{"geonameid":3181879,"name":"Bono","admin3":"090012","localeAltName":null},{"geonameid":3181875,"name":"Bonorva","admin3":"090013","localeAltName":null},{"geonameid":3181661,"name":"Bottidda","admin3":"090016","localeAltName":null},{"geonameid":8950201,"name":"Buddittogliu Straulas","admin3":"090092","localeAltName":null},{"geonameid":3181451,"name":"Buddusò","admin3":"090017","localeAltName":null},{"geonameid":6535673,"name":"Budoni","admin3":"090091","localeAltName":null},{"geonameid":3181415,"name":"Bultei","admin3":"090018","localeAltName":null},{"geonameid":3181414,"name":"Bulzi","admin3":"090019","localeAltName":null},{"geonameid":3181398,"name":"Burgos","admin3":"090020","localeAltName":null},{"geonameid":3181240,"name":"Calangianus","admin3":"090021","localeAltName":null},{"geonameid":3174531,"name":"Cannigione","admin3":"090006","localeAltName":null},{"geonameid":3180518,"name":"Cargeghe","admin3":"090022","localeAltName":null},{"geonameid":3179470,"name":"Castelsardo","admin3":"090023","localeAltName":null},{"geonameid":3178858,"name":"Chiaramonti","admin3":"090025","localeAltName":null},{"geonameid":3178513,"name":"Codaruina","admin3":"090079","localeAltName":null},{"geonameid":3178495,"name":"Codrongianos","admin3":"090026","localeAltName":null},{"geonameid":3177920,"name":"Cossoine","admin3":"090027","localeAltName":null},{"geonameid":3177350,"name":"Erula","admin3":"090088","localeAltName":null},{"geonameid":3177063,"name":"Fertilia","admin3":"090003","localeAltName":null},{"geonameid":3176903,"name":"Florinas","admin3":"090029","localeAltName":null},{"geonameid":3176131,"name":"Giave","admin3":"090030","localeAltName":null},{"geonameid":3176009,"name":"Golfo Aranci","admin3":"","localeAltName":null},{"geonameid":6535672,"name":"Golfo Aranci","admin3":"090083","localeAltName":null},{"geonameid":3175575,"name":"Illorai","admin3":"090031","localeAltName":null},{"geonameid":3175389,"name":"Ittireddu","admin3":"090032","localeAltName":null},{"geonameid":3175388,"name":"Ittiri","admin3":"090033","localeAltName":null},{"geonameid":3175217,"name":"La Maddalena","admin3":"090035","localeAltName":null},{"geonameid":7160128,"name":"La Muddizza","admin3":"090079","localeAltName":null},{"geonameid":3175293,"name":"Laerru","admin3":"090034","localeAltName":null},{"geonameid":3205826,"name":"Li Punti-San Giovanni","admin3":"090064","localeAltName":null},{"geonameid":3174628,"name":"Loiri Porto San Paolo","admin3":"090084","localeAltName":null},{"geonameid":7160131,"name":"Lu Bagnu","admin3":"090023","localeAltName":null},{"geonameid":3174451,"name":"Luogosanto","admin3":"090036","localeAltName":null},{"geonameid":3174437,"name":"Luras","admin3":"090037","localeAltName":null},{"geonameid":3174037,"name":"Mara","admin3":"090038","localeAltName":null},{"geonameid":3173832,"name":"Martis","admin3":"090039","localeAltName":null},{"geonameid":12188754,"name":"Monte Rosello","admin3":"090064","localeAltName":null},{"geonameid":3172703,"name":"Monti","admin3":"090041","localeAltName":null},{"geonameid":3172607,"name":"Mores","admin3":"090042","localeAltName":null},{"geonameid":3172434,"name":"Muros","admin3":"090043","localeAltName":null},{"geonameid":8950261,"name":"Murta Maria","admin3":"090047","localeAltName":null},{"geonameid":3172162,"name":"Nughedu San Nicolò","admin3":"090044","localeAltName":null},{"geonameid":3172159,"name":"Nule","admin3":"090045","localeAltName":null},{"geonameid":3172158,"name":"Nulvi","admin3":"090046","localeAltName":null},{"geonameid":3172087,"name":"Olbia","admin3":"090047","localeAltName":null},{"geonameid":3172042,"name":"Olmedo","admin3":"090048","localeAltName":null},{"geonameid":3171861,"name":"Oschiri","admin3":"090049","localeAltName":null},{"geonameid":3171849,"name":"Osilo","admin3":"090050","localeAltName":null},{"geonameid":3171814,"name":"Ossi","admin3":"090051","localeAltName":null},{"geonameid":8949015,"name":"Ottava","admin3":"090064","localeAltName":null},{"geonameid":3171760,"name":"Ozieri","admin3":"090052","localeAltName":null},{"geonameid":3171725,"name":"Padria","admin3":"090053","localeAltName":null},{"geonameid":3171721,"name":"Padru","admin3":"090090","localeAltName":null},{"geonameid":3171654,"name":"Palau","admin3":"090054","localeAltName":null},{"geonameid":3171376,"name":"Pattada","admin3":"090055","localeAltName":null},{"geonameid":3171216,"name":"Perfugas","admin3":"090056","localeAltName":null},{"geonameid":6587940,"name":"Pittulongu","admin3":"090047","localeAltName":null},{"geonameid":3170554,"name":"Ploaghe","admin3":"090057","localeAltName":null},{"geonameid":6544029,"name":"Porto Cervo","admin3":"090006","localeAltName":null},{"geonameid":6559431,"name":"Porto San Paolo","admin3":"090084","localeAltName":null},{"geonameid":3170069,"name":"Porto Torres","admin3":"090058","localeAltName":null},{"geonameid":3169990,"name":"Pozzomaggiore","admin3":"090059","localeAltName":null},{"geonameid":3169743,"name":"Putifigari","admin3":"090060","localeAltName":null},{"geonameid":3169061,"name":"Romana","admin3":"090061","localeAltName":null},{"geonameid":8949106,"name":"San Nicola","admin3":"090052","localeAltName":null},{"geonameid":3167901,"name":"San Pantaleo","admin3":"090047","localeAltName":null},{"geonameid":3167329,"name":"San Teodoro","admin3":"090092","localeAltName":null},{"geonameid":3167416,"name":"Sant'Antonio di Gallura","admin3":"090085","localeAltName":null},{"geonameid":3167591,"name":"Santa Maria Coghinas","admin3":"090087","localeAltName":null},{"geonameid":3167359,"name":"Santa Teresa Gallura","admin3":"090063","localeAltName":null},{"geonameid":3167096,"name":"Sassari","admin3":"090064","localeAltName":null},{"geonameid":3166824,"name":"Sedini","admin3":"090065","localeAltName":null},{"geonameid":3166729,"name":"Sennori","admin3":"090067","localeAltName":null},{"geonameid":3166531,"name":"Siligo","admin3":"090068","localeAltName":null},{"geonameid":3166346,"name":"Sorso","admin3":"090069","localeAltName":null},{"geonameid":3166134,"name":"Stintino","admin3":"090089","localeAltName":null},{"geonameid":3165939,"name":"Tanaunella","admin3":"090091","localeAltName":null},{"geonameid":3165835,"name":"Telti","admin3":"090080","localeAltName":null},{"geonameid":3165828,"name":"Tempio Pausania","admin3":"090070","localeAltName":null},{"geonameid":3165697,"name":"Thiesi","admin3":"090071","localeAltName":null},{"geonameid":3165633,"name":"Tissi","admin3":"090072","localeAltName":null},{"geonameid":3165488,"name":"Torralba","admin3":"090073","localeAltName":null},{"geonameid":6692293,"name":"Trinità d'Agultu","admin3":"090074","localeAltName":null},{"geonameid":3165167,"name":"Trinità d'Agultu e Vignola","admin3":"090074","localeAltName":null},{"geonameid":3165115,"name":"Tula","admin3":"090075","localeAltName":null},{"geonameid":3165030,"name":"Uri","admin3":"090076","localeAltName":null},{"geonameid":3165019,"name":"Usini","admin3":"090077","localeAltName":null},{"geonameid":6534816,"name":"Valledoria","admin3":"090079","localeAltName":null},{"geonameid":6535671,"name":"Viddalba","admin3":"090082","localeAltName":null},{"geonameid":3164177,"name":"Villanova Monteleone","admin3":"090078","localeAltName":null}],"admin3":[{"geonameid":6537820,"name":"Aggius","admin3":"090001","localeAltName":null},{"geonameid":6537821,"name":"Alghero","admin3":"090003","localeAltName":null},{"geonameid":6537822,"name":"Benetutti","admin3":"090008","localeAltName":null},{"geonameid":6537823,"name":"Berchidda","admin3":"090009","localeAltName":null},{"geonameid":6537824,"name":"Buddusò","admin3":"090017","localeAltName":null},{"geonameid":6537825,"name":"Bulzi","admin3":"090019","localeAltName":null},{"geonameid":6537826,"name":"Chiaramonti","admin3":"090025","localeAltName":null},{"geonameid":6537827,"name":"Giave","admin3":"090030","localeAltName":null},{"geonameid":6537828,"name":"Martis","admin3":"090039","localeAltName":null},{"geonameid":6537829,"name":"Monteleone Rocca Doria","admin3":"090040"},{"geonameid":6537830,"name":"Mores","admin3":"090042","localeAltName":null},{"geonameid":6537831,"name":"Muros","admin3":"090043","localeAltName":null},{"geonameid":6537832,"name":"Osilo","admin3":"090050","localeAltName":null},{"geonameid":6537833,"name":"Ossi","admin3":"090051","localeAltName":null},{"geonameid":6537834,"name":"Padria","admin3":"090053","localeAltName":null},{"geonameid":6537835,"name":"Palau","admin3":"090054","localeAltName":null},{"geonameid":6537836,"name":"Perfugas","admin3":"090056","localeAltName":null},{"geonameid":6537837,"name":"Ploaghe","admin3":"090057","localeAltName":null},{"geonameid":6537838,"name":"Putifigari","admin3":"090060","localeAltName":null},{"geonameid":6537839,"name":"Semestene","admin3":"090066"},{"geonameid":6537840,"name":"Sennori","admin3":"090067","localeAltName":null},{"geonameid":6537841,"name":"Sorso","admin3":"090069","localeAltName":null},{"geonameid":6537842,"name":"Tissi","admin3":"090072","localeAltName":null},{"geonameid":6537843,"name":"Tula","admin3":"090075","localeAltName":null},{"geonameid":6537844,"name":"Uri","admin3":"090076","localeAltName":null},{"geonameid":6537845,"name":"Usini","admin3":"090077","localeAltName":null},{"geonameid":6537846,"name":"Badesi","admin3":"090081","localeAltName":null},{"geonameid":6539218,"name":"Alà dei Sardi","admin3":"090002","localeAltName":null},{"geonameid":6539219,"name":"Arzachena","admin3":"090006","localeAltName":null},{"geonameid":6539220,"name":"Banari","admin3":"090007","localeAltName":null},{"geonameid":6539221,"name":"Bonorva","admin3":"090013","localeAltName":null},{"geonameid":6539222,"name":"Cargeghe","admin3":"090022","localeAltName":null},{"geonameid":6539223,"name":"Castelsardo","admin3":"090023","localeAltName":null},{"geonameid":6539224,"name":"Codrongianos","admin3":"090026","localeAltName":null},{"geonameid":6539225,"name":"Florinas","admin3":"090029","localeAltName":null},{"geonameid":6539226,"name":"Illorai","admin3":"090031","localeAltName":null},{"geonameid":6539227,"name":"Ittireddu","admin3":"090032","localeAltName":null},{"geonameid":6539228,"name":"Ittiri","admin3":"090033","localeAltName":null},{"geonameid":6539229,"name":"Laerru","admin3":"090034","localeAltName":null},{"geonameid":6539230,"name":"Luras","admin3":"090037","localeAltName":null},{"geonameid":6539231,"name":"Mara","admin3":"090038","localeAltName":null},{"geonameid":6539232,"name":"Nule","admin3":"090045","localeAltName":null},{"geonameid":6539233,"name":"Nulvi","admin3":"090046","localeAltName":null},{"geonameid":6539234,"name":"Olmedo","admin3":"090048","localeAltName":null},{"geonameid":6539235,"name":"Oschiri","admin3":"090049","localeAltName":null},{"geonameid":6539236,"name":"Ozieri","admin3":"090052","localeAltName":null},{"geonameid":6539237,"name":"Pozzomaggiore","admin3":"090059","localeAltName":null},{"geonameid":6539238,"name":"Santa Teresa Gallura","admin3":"090063","localeAltName":null},{"geonameid":6539239,"name":"Sedini","admin3":"090065","localeAltName":null},{"geonameid":6539240,"name":"Thiesi","admin3":"090071","localeAltName":null},{"geonameid":6539241,"name":"Villanova Monteleone","admin3":"090078","localeAltName":null},{"geonameid":6539242,"name":"Tergu","admin3":"090086"},{"geonameid":6539243,"name":"Stintino","admin3":"090089","localeAltName":null},{"geonameid":6539586,"name":"Tempio Pausania","admin3":"090070","localeAltName":null},{"geonameid":6539873,"name":"Bono","admin3":"090012","localeAltName":null},{"geonameid":6539896,"name":"Padru","admin3":"090090","localeAltName":null},{"geonameid":6540065,"name":"Romana","admin3":"090061","localeAltName":null},{"geonameid":6540111,"name":"Sassari","admin3":"090064","localeAltName":null},{"geonameid":6540127,"name":"Olbia","admin3":"090047","localeAltName":null},{"geonameid":6540855,"name":"Anela","admin3":"090004","localeAltName":null},{"geonameid":6540856,"name":"Bessude","admin3":"090010"},{"geonameid":6540857,"name":"Bonnanaro","admin3":"090011","localeAltName":null},{"geonameid":6540858,"name":"Bortigiadas","admin3":"090014"},{"geonameid":6540859,"name":"Cheremule","admin3":"090024"},{"geonameid":6540860,"name":"Porto Torres","admin3":"090058","localeAltName":null},{"geonameid":6540861,"name":"Aglientu","admin3":"090062","localeAltName":null},{"geonameid":6540862,"name":"Siligo","admin3":"090068","localeAltName":null},{"geonameid":6540863,"name":"Santa Maria Coghinas","admin3":"090087","localeAltName":null},{"geonameid":6541352,"name":"Ardara","admin3":"090005","localeAltName":null},{"geonameid":6541353,"name":"Borutta","admin3":"090015"},{"geonameid":6541354,"name":"Bottidda","admin3":"090016","localeAltName":null},{"geonameid":6541355,"name":"Bultei","admin3":"090018","localeAltName":null},{"geonameid":6541356,"name":"Burgos","admin3":"090020","localeAltName":null},{"geonameid":6541357,"name":"La Maddalena","admin3":"090035","localeAltName":null},{"geonameid":6541358,"name":"Monti","admin3":"090041","localeAltName":null},{"geonameid":6541359,"name":"Pattada","admin3":"090055","localeAltName":null},{"geonameid":6541360,"name":"Torralba","admin3":"090073","localeAltName":null},{"geonameid":6541361,"name":"Telti","admin3":"090080","localeAltName":null},{"geonameid":6541362,"name":"Erula","admin3":"090088","localeAltName":null},{"geonameid":6541774,"name":"Cossoine","admin3":"090027","localeAltName":null},{"geonameid":6541777,"name":"San Teodoro","admin3":"090092","localeAltName":null},{"geonameid":6541974,"name":"Calangianus","admin3":"090021","localeAltName":null},{"geonameid":6542198,"name":"Nughedu San Nicolò","admin3":"090044","localeAltName":null},{"geonameid":6542199,"name":"Trinità d'Agultu e Vignola","admin3":"090074","localeAltName":null},{"geonameid":6542200,"name":"Loiri Porto San Paolo","admin3":"090084","localeAltName":null},{"geonameid":6542274,"name":"Luogosanto","admin3":"090036","localeAltName":null},{"geonameid":6542275,"name":"Sant'Antonio di Gallura","admin3":"090085","localeAltName":null},{"geonameid":6542809,"name":"Valledoria","admin3":"090079","localeAltName":null},{"geonameid":6543647,"name":"Esporlatu","admin3":"090028"},{"geonameid":6543648,"name":"Viddalba","admin3":"090082","localeAltName":null},{"geonameid":6543649,"name":"Golfo Aranci","admin3":"090083","localeAltName":null},{"geonameid":6543650,"name":"Budoni","admin3":"090091","localeAltName":null}],"alternateNames":[{"alternatenameId":1347966,"geonameid":3167094,"isoLanguage":"it","alternateName":"Sassari","isPreferredName":true,"isShortName":true,"isColloquial":false,"isHistoric":false}]},"__N_SSG":true}