{"pageProps":{"locale":"en","admin2":{"geonameid":3333231,"name":"Glasgow City","country":"GB","admin1":"SCT","admin2":"V2","admin3":"","latitude":"55.8666700","longitude":"-4.2500000"},"admin1":{"geonameid":2638360,"name":"Scotland","admin1":"SCT"},"locations":[{"geonameid":2657280,"name":"Anniesland","admin3":""},{"geonameid":2656624,"name":"Baillieston","admin3":""},{"geonameid":2653810,"name":"Cardonald","admin3":""},{"geonameid":2653745,"name":"Carmunnock","admin3":""},{"geonameid":2657249,"name":"Carntyne","admin3":""},{"geonameid":11550825,"name":"Castlemilk","admin3":""},{"geonameid":2653513,"name":"Cathcart","admin3":""},{"geonameid":12036330,"name":"Cessnock","admin3":""},{"geonameid":2651576,"name":"Dalmarnock","admin3":""},{"geonameid":8604584,"name":"Dennistoun","admin3":""},{"geonameid":2650943,"name":"Drumchapel","admin3":""},{"geonameid":2649405,"name":"Finnieston","admin3":""},{"geonameid":2648579,"name":"Glasgow","admin3":""},{"geonameid":2648258,"name":"Govan","admin3":""},{"geonameid":2646893,"name":"Hillington","admin3":""},{"geonameid":2646370,"name":"Hurlet","admin3":""},{"geonameid":2645448,"name":"Kings Park","admin3":""},{"geonameid":2645371,"name":"Kinning Park","admin3":""},{"geonameid":2643098,"name":"Mansewood","admin3":""},{"geonameid":2642930,"name":"Maryhill","admin3":""},{"geonameid":2642093,"name":"Mount Vernon","admin3":""},{"geonameid":2641479,"name":"Nitshill","admin3":""},{"geonameid":2640594,"name":"Partick","admin3":""},{"geonameid":2640162,"name":"Pollok","admin3":""},{"geonameid":2640161,"name":"Pollokshaws","admin3":""},{"geonameid":7535667,"name":"Pollokshields","admin3":""},{"geonameid":2640156,"name":"Polmadie","admin3":""},{"geonameid":2639875,"name":"Provanmill","admin3":""},{"geonameid":2638353,"name":"Scotstoun","admin3":""},{"geonameid":7302142,"name":"Shawlands","admin3":""},{"geonameid":2637989,"name":"Shieldhall","admin3":""},{"geonameid":7302138,"name":"Silverburn Centre","admin3":""},{"geonameid":2637197,"name":"Springburn","admin3":""},{"geonameid":9613549,"name":"Stobcross (historical)","admin3":""},{"geonameid":6697765,"name":"Summerston","admin3":""},{"geonameid":2635724,"name":"Tollcross","admin3":""},{"geonameid":2635573,"name":"Tradeston","admin3":""},{"geonameid":2634084,"name":"Whiteinch","admin3":""},{"geonameid":11550824,"name":"Yoker","admin3":""}],"admin3":[],"alternateNames":[]},"__N_SSG":true}