{"pageProps":{"locale":"en","admin2":{"geonameid":2646944,"name":"Highland","country":"GB","admin1":"SCT","admin2":"V3","admin3":"","latitude":"57.5000000","longitude":"-5.0000000"},"admin1":{"geonameid":2638360,"name":"Scotland","admin1":"SCT"},"locations":[{"geonameid":11551027,"name":"A'Chill","admin3":""},{"geonameid":2657853,"name":"Aberarder","admin3":""},{"geonameid":2657842,"name":"Aberchalder","admin3":""},{"geonameid":6458622,"name":"Abriachan","admin3":""},{"geonameid":2657767,"name":"Achagarve","admin3":""},{"geonameid":2657766,"name":"Achagate","admin3":""},{"geonameid":2657754,"name":"Achanalt","admin3":""},{"geonameid":2657751,"name":"Achany","admin3":""},{"geonameid":2657750,"name":"Achaphubuil","admin3":""},{"geonameid":2657749,"name":"Acharacle","admin3":""},{"geonameid":2657747,"name":"Acharn","admin3":""},{"geonameid":2657743,"name":"Acharra","admin3":""},{"geonameid":2657741,"name":"Acheninver","admin3":""},{"geonameid":2657740,"name":"Achentoul","admin3":""},{"geonameid":2657738,"name":"Achfary","admin3":""},{"geonameid":2657737,"name":"Achiltibuie","admin3":""},{"geonameid":2657736,"name":"Achinduich","admin3":""},{"geonameid":2657734,"name":"Achintee","admin3":""},{"geonameid":2657733,"name":"Achintraid","admin3":""},{"geonameid":2657732,"name":"Achlain","admin3":""},{"geonameid":10103883,"name":"Achlean","admin3":""},{"geonameid":2657729,"name":"Achlyness","admin3":""},{"geonameid":2657728,"name":"Achmelvich","admin3":""},{"geonameid":2657725,"name":"Achmore","admin3":""},{"geonameid":2657720,"name":"Achnahanat","admin3":""},{"geonameid":2657718,"name":"Achnasheen","admin3":""},{"geonameid":2657714,"name":"Achness","admin3":""},{"geonameid":11071772,"name":"Achosnich","admin3":""},{"geonameid":2657711,"name":"Achriesgill","admin3":""},{"geonameid":11049116,"name":"Achtoly","admin3":""},{"geonameid":11071774,"name":"Achvaich","admin3":""},{"geonameid":10245165,"name":"Achvarasdal","admin3":""},{"geonameid":2657707,"name":"Ackergill","admin3":""},{"geonameid":2657659,"name":"Advie","admin3":""},{"geonameid":2657614,"name":"Aird of Sleat","admin3":""},{"geonameid":2657593,"name":"Airor","admin3":""},{"geonameid":2657496,"name":"Allanfearn","admin3":""},{"geonameid":2657464,"name":"Alltbeath","admin3":""},{"geonameid":2657462,"name":"Alltnacaillich","admin3":""},{"geonameid":2657461,"name":"Alltsigh","admin3":""},{"geonameid":2657445,"name":"Alness","admin3":""},{"geonameid":2657422,"name":"Altandhu","admin3":""},{"geonameid":2657421,"name":"Altanduin","admin3":""},{"geonameid":2657411,"name":"Altnaharra","admin3":""},{"geonameid":2657386,"name":"Alvie","admin3":""},{"geonameid":2657317,"name":"An Gallanach","admin3":""},{"geonameid":2657304,"name":"Ankerville","admin3":""},{"geonameid":2657303,"name":"Ankerville Corner","admin3":""},{"geonameid":2657237,"name":"Applecross","admin3":""},{"geonameid":2657200,"name":"Ardcharnich","admin3":""},{"geonameid":2657198,"name":"Ardclach","admin3":""},{"geonameid":6458621,"name":"Ardendrain","admin3":""},{"geonameid":2657187,"name":"Ardersier","admin3":""},{"geonameid":8260058,"name":"Ardgay","admin3":""},{"geonameid":2657180,"name":"Ardgour","admin3":""},{"geonameid":2657178,"name":"Ardheslaig","admin3":""},{"geonameid":2657160,"name":"Ardmair","admin3":""},{"geonameid":6458681,"name":"Ardnagrask","admin3":""},{"geonameid":2657140,"name":"Ardnarff","admin3":""},{"geonameid":2657139,"name":"Ardnastang","admin3":""},{"geonameid":11071768,"name":"Ardshave","admin3":""},{"geonameid":2657121,"name":"Ardshealach","admin3":""},{"geonameid":2657116,"name":"Ardslignish","admin3":""},{"geonameid":2657111,"name":"Ardtoe","admin3":""},{"geonameid":2657107,"name":"Ardullie","admin3":""},{"geonameid":2657106,"name":"Ardvar","admin3":""},{"geonameid":2657204,"name":"Ardvasar","admin3":""},{"geonameid":2657105,"name":"Ardverikie","admin3":""},{"geonameid":2657084,"name":"Arisaig","admin3":"2646086"},{"geonameid":2657066,"name":"Armadale","admin3":""},{"geonameid":2657038,"name":"Arnisdale","admin3":""},{"geonameid":2657036,"name":"Arnish","admin3":""},{"geonameid":11072184,"name":"Aryhoulan","admin3":""},{"geonameid":2656880,"name":"Astle","admin3":""},{"geonameid":2656846,"name":"Athnamulloch","admin3":""},{"geonameid":2656805,"name":"Auchness","admin3":""},{"geonameid":10104104,"name":"Auchtercairn","admin3":""},{"geonameid":2656798,"name":"Auchterneed","admin3":""},{"geonameid":2656795,"name":"Auckingill","admin3":""},{"geonameid":2656783,"name":"Auldearn","admin3":""},{"geonameid":6544996,"name":"Ault a' chruinn","admin3":""},{"geonameid":2656779,"name":"Aultbea","admin3":""},{"geonameid":2656777,"name":"Aultgrishan","admin3":""},{"geonameid":2656774,"name":"Aultivullin","admin3":""},{"geonameid":2656771,"name":"Aultnaharrie","admin3":""},{"geonameid":2656752,"name":"Aviemore","admin3":""},{"geonameid":2656750,"name":"Avoch","admin3":""},{"geonameid":2656674,"name":"Backies","admin3":""},{"geonameid":2656663,"name":"Badbea","admin3":""},{"geonameid":2656660,"name":"Badcall","admin3":""},{"geonameid":2656661,"name":"Badcall","admin3":""},{"geonameid":2656658,"name":"Badcaul","admin3":""},{"geonameid":8199471,"name":"Baddidarroch","admin3":""},{"geonameid":2656652,"name":"Badenscallie","admin3":""},{"geonameid":2656645,"name":"Badluchrach","admin3":""},{"geonameid":11071766,"name":"Badninish","admin3":""},{"geonameid":2656643,"name":"Badrallach","admin3":""},{"geonameid":2656610,"name":"Balaldie","admin3":""},{"geonameid":2656607,"name":"Balavil","admin3":""},{"geonameid":2656604,"name":"Balblair","admin3":""},{"geonameid":2656605,"name":"Balblair","admin3":""},{"geonameid":2656601,"name":"Balchladich","admin3":""},{"geonameid":9884117,"name":"Balchrick","admin3":""},{"geonameid":2656575,"name":"Balintore","admin3":""},{"geonameid":2656569,"name":"Ballachulish","admin3":""},{"geonameid":11592108,"name":"Balloch","admin3":""},{"geonameid":2656459,"name":"Balmacara","admin3":""},{"geonameid":2656448,"name":"Balmore","admin3":""},{"geonameid":2656444,"name":"Balnacarn","admin3":""},{"geonameid":6620351,"name":"Balnain","admin3":""},{"geonameid":2656441,"name":"Balnakeil","admin3":""},{"geonameid":2656409,"name":"Banavie","admin3":""},{"geonameid":2656370,"name":"Barbaraville","admin3":""},{"geonameid":2656349,"name":"Barevan","admin3":""},{"geonameid":2656267,"name":"Barr","admin3":""},{"geonameid":2656254,"name":"Barrisdale","admin3":""},{"geonameid":2656087,"name":"Bearnock","admin3":""},{"geonameid":2656076,"name":"Beauly","admin3":""},{"geonameid":2655975,"name":"Belladrum","admin3":""},{"geonameid":2655957,"name":"Belloch","admin3":""},{"geonameid":2655950,"name":"Belmaduthy","admin3":""},{"geonameid":2655845,"name":"Bernisdale","admin3":""},{"geonameid":2655843,"name":"Berriedale","admin3":""},{"geonameid":2655790,"name":"Bettyhill","admin3":""},{"geonameid":2655680,"name":"Big Sand","admin3":""},{"geonameid":2655675,"name":"Bilbster","admin3":""},{"geonameid":11071765,"name":"Birichen","admin3":""},{"geonameid":2655405,"name":"Blaich","admin3":""},{"geonameid":2655404,"name":"Blain","admin3":""},{"geonameid":9884118,"name":"Blairmore","admin3":""},{"geonameid":2655299,"name":"Boat of Garten","admin3":""},{"geonameid":2655300,"name":"Boath","admin3":""},{"geonameid":11071993,"name":"Boghole Farm","admin3":""},{"geonameid":2655257,"name":"Bohenie","admin3":""},{"geonameid":2655255,"name":"Bohuntine","admin3":""},{"geonameid":2655248,"name":"Boleskine","admin3":""},{"geonameid":2655223,"name":"Bonar Bridge","admin3":""},{"geonameid":2655212,"name":"Bonnavoulin","admin3":""},{"geonameid":2655183,"name":"Boreraig","admin3":""},{"geonameid":2655176,"name":"Borgue","admin3":""},{"geonameid":2655152,"name":"Borve","admin3":""},{"geonameid":2655066,"name":"Bowermadden","admin3":""},{"geonameid":2655063,"name":"Bowertower","admin3":""},{"geonameid":2655020,"name":"Bracadale","admin3":""},{"geonameid":6948343,"name":"Bracara","admin3":""},{"geonameid":2655011,"name":"Brackley","admin3":""},{"geonameid":2655010,"name":"Brackloch","admin3":""},{"geonameid":2655005,"name":"Bracora","admin3":"2646086"},{"geonameid":6948344,"name":"Bracorina","admin3":"2646086"},{"geonameid":2654961,"name":"Braemore","admin3":""},{"geonameid":2654962,"name":"Braemore","admin3":""},{"geonameid":2654854,"name":"Brawl","admin3":""},{"geonameid":2654834,"name":"Breakish","admin3":""},{"geonameid":2654751,"name":"Bridgend","admin3":""},{"geonameid":2654691,"name":"Brin","admin3":""},{"geonameid":2654653,"name":"Broadford","admin3":""},{"geonameid":2654619,"name":"Brochel","admin3":""},{"geonameid":2654545,"name":"Brora","admin3":""},{"geonameid":2654530,"name":"Brough","admin3":""},{"geonameid":2654432,"name":"Bualintur","admin3":""},{"geonameid":2654331,"name":"Bundalloch","admin3":""},{"geonameid":2653982,"name":"Calligarry","admin3":""},{"geonameid":2653973,"name":"Calrossie","admin3":""},{"geonameid":2653954,"name":"Camasterach","admin3":""},{"geonameid":2653953,"name":"Camastianavaig","admin3":""},{"geonameid":2653952,"name":"Camasunary","admin3":""},{"geonameid":6458595,"name":"Camault Muir","admin3":""},{"geonameid":11071762,"name":"Camore","admin3":""},{"geonameid":2653893,"name":"Canisbay","admin3":""},{"geonameid":2653886,"name":"Cannich","admin3":""},{"geonameid":6269280,"name":"Caol","admin3":""},{"geonameid":2653836,"name":"Caradal","admin3":""},{"geonameid":2653831,"name":"Carbost","admin3":""},{"geonameid":2653740,"name":"Carnach","admin3":""},{"geonameid":2653741,"name":"Carnach","admin3":""},{"geonameid":2653721,"name":"Carndearg","admin3":""},{"geonameid":2653706,"name":"Carnoch","admin3":""},{"geonameid":6458674,"name":"Carnoch","admin3":""},{"geonameid":2653690,"name":"Carrbridge","admin3":""},{"geonameid":2653625,"name":"Cashel Dhu","admin3":""},{"geonameid":2653536,"name":"Castletown","admin3":""},{"geonameid":2653506,"name":"Catlodge","admin3":""},{"geonameid":2653470,"name":"Cawdor","admin3":""},{"geonameid":2653000,"name":"Cilmalieu","admin3":""},{"geonameid":2652978,"name":"Clachtoll","admin3":""},{"geonameid":6269284,"name":"Claggan","admin3":""},{"geonameid":11071780,"name":"Clashban","admin3":""},{"geonameid":2652930,"name":"Clashmore","admin3":""},{"geonameid":2652929,"name":"Clashnessie","admin3":""},{"geonameid":2652896,"name":"Cleadale","admin3":""},{"geonameid":2652772,"name":"Clovullin","admin3":""},{"geonameid":2652755,"name":"Clunas","admin3":""},{"geonameid":2652753,"name":"Clune","admin3":""},{"geonameid":2652752,"name":"Clunes","admin3":""},{"geonameid":2652723,"name":"Clynekirkton","admin3":""},{"geonameid":2652636,"name":"Coignashie","admin3":""},{"geonameid":2652634,"name":"Coillemore","admin3":""},{"geonameid":2652633,"name":"Coillore","admin3":""},{"geonameid":2652620,"name":"Colbost","admin3":""},{"geonameid":2652439,"name":"Conon Bridge","admin3":""},{"geonameid":6950948,"name":"Cononbridge","admin3":""},{"geonameid":2652433,"name":"Contin","admin3":""},{"geonameid":6269281,"name":"Corpach","admin3":""},{"geonameid":2652346,"name":"Corran","admin3":""},{"geonameid":2652347,"name":"Corran","admin3":""},{"geonameid":2652332,"name":"Corrimony","admin3":""},{"geonameid":2652329,"name":"Corrlarach","admin3":""},{"geonameid":8317220,"name":"Corrour","admin3":""},{"geonameid":11551026,"name":"Corrour Shooting Lodge","admin3":""},{"geonameid":2652328,"name":"Corrybrough","admin3":""},{"geonameid":11072182,"name":"Corrychurrachan","admin3":""},{"geonameid":2652326,"name":"Corrykinloch","admin3":""},{"geonameid":10245397,"name":"Corsback","admin3":""},{"geonameid":2652259,"name":"Cougie","admin3":""},{"geonameid":2652258,"name":"Coul","admin3":""},{"geonameid":2652257,"name":"Coulags","admin3":""},{"geonameid":2652226,"name":"Cove","admin3":""},{"geonameid":2652168,"name":"Craggie","admin3":""},{"geonameid":2652157,"name":"Craig","admin3":""},{"geonameid":2652158,"name":"Craig","admin3":""},{"geonameid":6693102,"name":"Craig Dunain","admin3":""},{"geonameid":6458676,"name":"Craigdhu","admin3":""},{"geonameid":6458675,"name":"Crask Of Aigas","admin3":""},{"geonameid":2652071,"name":"Craskie","admin3":""},{"geonameid":6458686,"name":"Crelevan","admin3":""},{"geonameid":2651968,"name":"Croachy","admin3":""},{"geonameid":2651942,"name":"Croick","admin3":""},{"geonameid":2651936,"name":"Cromarty","admin3":""},{"geonameid":2651932,"name":"Cromdale","admin3":""},{"geonameid":2651883,"name":"Crossburn","admin3":""},{"geonameid":2651865,"name":"Crosskirk","admin3":""},{"geonameid":2651819,"name":"Croy","admin3":""},{"geonameid":2651792,"name":"Cuaig","admin3":""},{"geonameid":2651776,"name":"Cuil","admin3":""},{"geonameid":2651765,"name":"Culbokie","admin3":""},{"geonameid":6458597,"name":"Culburnie","admin3":""},{"geonameid":2651757,"name":"Culkein","admin3":""},{"geonameid":6458684,"name":"Culligran","admin3":""},{"geonameid":11240121,"name":"Culloden","admin3":""},{"geonameid":2651735,"name":"Culmaily","admin3":""},{"geonameid":11240122,"name":"Culnacnoc","admin3":""},{"geonameid":2651729,"name":"Culrain","admin3":""},{"geonameid":11071776,"name":"Cuthill","admin3":""},{"geonameid":2651608,"name":"Dalbeg","admin3":""},{"geonameid":2651603,"name":"Dalchreichart","admin3":""},{"geonameid":2651601,"name":"Dalcross","admin3":""},{"geonameid":2651594,"name":"Dalelia","admin3":""},{"geonameid":2651572,"name":"Dalmigavie","admin3":""},{"geonameid":2651568,"name":"Dalnahaitnach","admin3":""},{"geonameid":2651565,"name":"Dalness","admin3":""},{"geonameid":2651563,"name":"Dalroy","admin3":""},{"geonameid":2651543,"name":"Dalwhinnie","admin3":""},{"geonameid":6620262,"name":"Daviot","admin3":""},{"geonameid":2651340,"name":"Derraid","admin3":""},{"geonameid":2651277,"name":"Diabaig","admin3":""},{"geonameid":2651272,"name":"Dibidil","admin3":""},{"geonameid":8643135,"name":"Digg","admin3":""},{"geonameid":2651245,"name":"Dingwall","admin3":""},{"geonameid":2651096,"name":"Dores","admin3":""},{"geonameid":2651089,"name":"Dornie","admin3":""},{"geonameid":2651088,"name":"Dornoch","admin3":""},{"geonameid":2651083,"name":"Dorrery","admin3":""},{"geonameid":2651057,"name":"Dounreay","admin3":""},{"geonameid":2650984,"name":"Drimnin","admin3":""},{"geonameid":6458687,"name":"Druimkinnerras","admin3":""},{"geonameid":2650951,"name":"Drumbeg","admin3":""},{"geonameid":2650940,"name":"Drumfearn","admin3":""},{"geonameid":2650938,"name":"Drumgask","admin3":""},{"geonameid":2650918,"name":"Drumnadrochit","admin3":""},{"geonameid":2650892,"name":"Drynoch","admin3":""},{"geonameid":2650820,"name":"Duirinish","admin3":""},{"geonameid":2650817,"name":"Duisky","admin3":""},{"geonameid":9072587,"name":"Dulnain Bridge","admin3":""},{"geonameid":2650805,"name":"Dulsie","admin3":""},{"geonameid":2650780,"name":"Dunan","admin3":""},{"geonameid":2650774,"name":"Dunbeath","admin3":""},{"geonameid":6639621,"name":"Dundonnell","admin3":""},{"geonameid":2650743,"name":"Dundreggan","admin3":""},{"geonameid":2650693,"name":"Dunnet","admin3":""},{"geonameid":2650641,"name":"Dunvegan","admin3":""},{"geonameid":2650621,"name":"Durness","admin3":""},{"geonameid":2650607,"name":"Duthil","admin3":""},{"geonameid":2650582,"name":"Eabost","admin3":""},{"geonameid":2650553,"name":"Earlish","admin3":""},{"geonameid":2650487,"name":"East Canisbay","admin3":""},{"geonameid":2650474,"name":"East Croachy","admin3":""},{"geonameid":2650401,"name":"East Laroch","admin3":""},{"geonameid":2650465,"name":"Easter Clynekirkton","admin3":""},{"geonameid":2650463,"name":"Easter Fearn","admin3":""},{"geonameid":2650452,"name":"Easter Rarichie","admin3":""},{"geonameid":2650448,"name":"Easter Urray","admin3":""},{"geonameid":2650257,"name":"Edderton","admin3":""},{"geonameid":2650226,"name":"Edinbain","admin3":""},{"geonameid":6619382,"name":"Edinbane","admin3":""},{"geonameid":2650160,"name":"Eil","admin3":""},{"geonameid":2650121,"name":"Elgol","admin3":""},{"geonameid":2650065,"name":"Elphin","admin3":""},{"geonameid":2650012,"name":"Embo","admin3":""},{"geonameid":11071759,"name":"Embo Street","admin3":""},{"geonameid":2649953,"name":"Erbusaig","admin3":""},{"geonameid":6458688,"name":"Erchless Castle","admin3":""},{"geonameid":2649949,"name":"Eriboll","admin3":""},{"geonameid":2649922,"name":"Errogie","admin3":""},{"geonameid":2649902,"name":"Eskadale","admin3":""},{"geonameid":2649870,"name":"Etteridge","admin3":""},{"geonameid":2649851,"name":"Evanton","admin3":""},{"geonameid":2649848,"name":"Evelix","admin3":""},{"geonameid":2649772,"name":"Eyre","admin3":""},{"geonameid":6946947,"name":"Faichem","admin3":""},{"geonameid":6946951,"name":"Faichemard Farm","admin3":""},{"geonameid":2649751,"name":"Faillie","admin3":""},{"geonameid":2649749,"name":"Fain","admin3":""},{"geonameid":2649648,"name":"Farr","admin3":""},{"geonameid":2649649,"name":"Farr","admin3":""},{"geonameid":2649636,"name":"Faskadale","admin3":""},{"geonameid":2649630,"name":"Fasnakyle","admin3":""},{"geonameid":2649628,"name":"Fassfern","admin3":""},{"geonameid":2649595,"name":"Fearnmore","admin3":""},{"geonameid":2649529,"name":"Ferness","admin3":""},{"geonameid":2649524,"name":"Fernilea","admin3":""},{"geonameid":2649505,"name":"Feshiebridge","admin3":""},{"geonameid":2649362,"name":"Fiskavaig","admin3":""},{"geonameid":2648987,"name":"Fiunary","admin3":""},{"geonameid":2649330,"name":"Flashader","admin3":""},{"geonameid":2649283,"name":"Flodigarry","admin3":""},{"geonameid":2649265,"name":"Fodderty","admin3":""},{"geonameid":2649190,"name":"Forse","admin3":""},{"geonameid":2649187,"name":"Forsinain","admin3":""},{"geonameid":2649186,"name":"Forsinard","admin3":""},{"geonameid":2649183,"name":"Fort Augustus","admin3":""},{"geonameid":2649180,"name":"Fort George","admin3":""},{"geonameid":2649169,"name":"Fort William","admin3":"2646086"},{"geonameid":2649171,"name":"Fortrose","admin3":""},{"geonameid":11071758,"name":"Fourpenny","admin3":""},{"geonameid":6458689,"name":"Foxhole","admin3":""},{"geonameid":2649113,"name":"Foyers","admin3":""},{"geonameid":10245166,"name":"Fresgoe","admin3":""},{"geonameid":2649064,"name":"Freswick","admin3":""},{"geonameid":2648237,"name":"Gaick Lodge","admin3":""},{"geonameid":2648941,"name":"Gairloch","admin3":""},{"geonameid":2648939,"name":"Gairlochy","admin3":""},{"geonameid":2648911,"name":"Galmisdale","admin3":""},{"geonameid":2648905,"name":"Galtrigill","admin3":""},{"geonameid":2648888,"name":"Garbat","admin3":""},{"geonameid":2648856,"name":"Garrafad","admin3":""},{"geonameid":2648799,"name":"Garvan","admin3":""},{"geonameid":2648797,"name":"Garve","admin3":""},{"geonameid":11072187,"name":"Gaul / Camusnagaul","admin3":""},{"geonameid":2648743,"name":"Geary","admin3":""},{"geonameid":2648655,"name":"Gills","admin3":""},{"geonameid":6458682,"name":"Glassburn","admin3":""},{"geonameid":11072020,"name":"Glenbeg","admin3":""},{"geonameid":2648522,"name":"Glenborrodale","admin3":""},{"geonameid":2648510,"name":"Glenceitlein","admin3":""},{"geonameid":7874330,"name":"Glencoe","admin3":""},{"geonameid":2648507,"name":"Glencripesdale","admin3":""},{"geonameid":11427403,"name":"Glendale","admin3":""},{"geonameid":2648494,"name":"Glenelg","admin3":""},{"geonameid":2648483,"name":"Glenfinnan","admin3":""},{"geonameid":2648457,"name":"Glenmore","admin3":""},{"geonameid":2648458,"name":"Glenmore","admin3":""},{"geonameid":6951022,"name":"Glenmoriston","admin3":""},{"geonameid":2648439,"name":"Glenrossal","admin3":""},{"geonameid":2648417,"name":"Glenurguhart","admin3":""},{"geonameid":2648374,"name":"Gobernuisgeach","admin3":""},{"geonameid":11072183,"name":"Goirtean a' Chladaich","admin3":""},{"geonameid":2648341,"name":"Golspie","admin3":""},{"geonameid":2648311,"name":"Gordonbush","admin3":""},{"geonameid":2648289,"name":"Gorstan","admin3":""},{"geonameid":2648288,"name":"Gorteneorn","admin3":""},{"geonameid":2648287,"name":"Gortenfern","admin3":""},{"geonameid":2648205,"name":"Grantown on Spey","admin3":""},{"geonameid":2647973,"name":"Greenfield","admin3":""},{"geonameid":2647955,"name":"Greenland","admin3":""},{"geonameid":2647918,"name":"Greshornish","admin3":""},{"geonameid":2647822,"name":"Grumbeg","admin3":""},{"geonameid":2647631,"name":"Halistra","admin3":""},{"geonameid":2647630,"name":"Halkirk","admin3":""},{"geonameid":2647617,"name":"Hallin","admin3":""},{"geonameid":10245395,"name":"Ham","admin3":""},{"geonameid":12196311,"name":"Heast","admin3":""},{"geonameid":2647184,"name":"Heilam","admin3":""},{"geonameid":2647152,"name":"Helmsdale","admin3":""},{"geonameid":11551029,"name":"Highland","admin3":""},{"geonameid":11591741,"name":"Highland","admin3":""},{"geonameid":2649602,"name":"Hill of Fearn","admin3":""},{"geonameid":2646870,"name":"Hilton of Cadboll","admin3":""},{"geonameid":2646423,"name":"Huna","admin3":""},{"geonameid":10245392,"name":"Hunspow","admin3":""},{"geonameid":2646350,"name":"Husabost","admin3":""},{"geonameid":2646289,"name":"Idrigil","admin3":""},{"geonameid":2646249,"name":"Inchbae Lodge","admin3":""},{"geonameid":2646241,"name":"Inchlaggan","admin3":""},{"geonameid":2646231,"name":"Inchnadamph","admin3":""},{"geonameid":11072179,"name":"Inchree","admin3":""},{"geonameid":2646156,"name":"Insh","admin3":""},{"geonameid":2646154,"name":"Inshes","admin3":""},{"geonameid":2646149,"name":"Inver","admin3":""},{"geonameid":2646094,"name":"Inver Mallie","admin3":""},{"geonameid":2646146,"name":"Inverailort","admin3":"2646086"},{"geonameid":2646144,"name":"Inveralligin","admin3":""},{"geonameid":2646141,"name":"Inveran","admin3":""},{"geonameid":2646136,"name":"Inverasdale","admin3":""},{"geonameid":2646133,"name":"Inverbroom","admin3":""},{"geonameid":2646132,"name":"Invercannich","admin3":""},{"geonameid":2646131,"name":"Invercassley","admin3":""},{"geonameid":2646126,"name":"Invercoe","admin3":""},{"geonameid":2646125,"name":"Inverdruie","admin3":""},{"geonameid":2646120,"name":"Inverfarigaig","admin3":""},{"geonameid":2646119,"name":"Invergarry","admin3":""},{"geonameid":2646115,"name":"Invergordon","admin3":""},{"geonameid":2646112,"name":"Inverguseran","admin3":""},{"geonameid":2646108,"name":"Inverie","admin3":""},{"geonameid":2646106,"name":"Inverinate","admin3":""},{"geonameid":2646101,"name":"Inverkirkaig","admin3":""},{"geonameid":2646100,"name":"Inverlael","admin3":""},{"geonameid":2646099,"name":"Inverlaidnan","admin3":""},{"geonameid":2646098,"name":"Inverlair","admin3":""},{"geonameid":6269283,"name":"Inverlochy","admin3":""},{"geonameid":2646091,"name":"Invermoriston","admin3":""},{"geonameid":2646090,"name":"Invernaver","admin3":""},{"geonameid":2646088,"name":"Inverness","admin3":""},{"geonameid":2646081,"name":"Inversanda","admin3":""},{"geonameid":2646080,"name":"Invershiel","admin3":""},{"geonameid":2646079,"name":"Invershin","admin3":""},{"geonameid":10245164,"name":"Isauld","admin3":""},{"geonameid":8317154,"name":"Isle of Canna","admin3":""},{"geonameid":8317353,"name":"Isle of Eigg","admin3":""},{"geonameid":8317647,"name":"Isle of Rum","admin3":""},{"geonameid":2646006,"name":"Isleornsay","admin3":""},{"geonameid":12032349,"name":"Iverness","admin3":""},{"geonameid":2645976,"name":"Jamestown","admin3":""},{"geonameid":2645974,"name":"Janetstown","admin3":""},{"geonameid":2645965,"name":"Jemimaville","admin3":""},{"geonameid":7870366,"name":"John O' Groats","admin3":""},{"geonameid":11903565,"name":"Kalnakill","admin3":""},{"geonameid":2645907,"name":"Kearvaig","admin3":""},{"geonameid":2645882,"name":"Keiss","admin3":""},{"geonameid":2645817,"name":"Kenmore","admin3":""},{"geonameid":2645797,"name":"Kentallen","admin3":""},{"geonameid":2645785,"name":"Kentra","admin3":""},{"geonameid":2645781,"name":"Keoldale","admin3":"2636507"},{"geonameid":11072180,"name":"Keppenach","admin3":""},{"geonameid":2645768,"name":"Kerrysdale","admin3":""},{"geonameid":2645760,"name":"Kessock","admin3":""},{"geonameid":2645707,"name":"Kilbride","admin3":""},{"geonameid":2645695,"name":"Kilcheran","admin3":""},{"geonameid":2645692,"name":"Kilchoan","admin3":""},{"geonameid":2645677,"name":"Kildonan","admin3":""},{"geonameid":2645672,"name":"Kildonnan","admin3":""},{"geonameid":2645664,"name":"Kilfinnan","admin3":""},{"geonameid":2645634,"name":"Killilan","admin3":""},{"geonameid":2645610,"name":"Kilmaluag","admin3":""},{"geonameid":2645606,"name":"Kilmarie","admin3":""},{"geonameid":2645589,"name":"Kilmorack","admin3":""},{"geonameid":2645584,"name":"Kilmore","admin3":""},{"geonameid":2645579,"name":"Kilmory","admin3":""},{"geonameid":2645580,"name":"Kilmory","admin3":""},{"geonameid":2645577,"name":"Kilmote","admin3":""},{"geonameid":2645573,"name":"Kilmuir","admin3":""},{"geonameid":2645574,"name":"Kilmuir","admin3":""},{"geonameid":2645575,"name":"Kilmuir","admin3":""},{"geonameid":2645576,"name":"Kilmuir","admin3":""},{"geonameid":2645562,"name":"Kilournan","admin3":""},{"geonameid":6458596,"name":"Kiltarlity","admin3":""},{"geonameid":2645545,"name":"Kilvaxter","admin3":""},{"geonameid":2645527,"name":"Kinbrace","admin3":""},{"geonameid":2645524,"name":"Kincardine","admin3":""},{"geonameid":2645518,"name":"Kincraig","admin3":""},{"geonameid":2645484,"name":"Kingsburgh","admin3":""},{"geonameid":2645409,"name":"Kingussie","admin3":""},{"geonameid":2645403,"name":"Kinloch","admin3":""},{"geonameid":2645404,"name":"Kinloch","admin3":""},{"geonameid":2645396,"name":"Kinloch Hourn","admin3":""},{"geonameid":2645401,"name":"Kinlochbervie","admin3":""},{"geonameid":2645399,"name":"Kinlocheil","admin3":""},{"geonameid":2645398,"name":"Kinlochewe","admin3":""},{"geonameid":2645395,"name":"Kinlochleven","admin3":""},{"geonameid":2645393,"name":"Kinlochmoidart","admin3":""},{"geonameid":2645392,"name":"Kinlochmore","admin3":""},{"geonameid":2645389,"name":"Kinlochteacuis","admin3":""},{"geonameid":2645366,"name":"Kinrara","admin3":""},{"geonameid":2645354,"name":"Kintradwell","admin3":""},{"geonameid":2645272,"name":"Kirkhill","admin3":""},{"geonameid":11071755,"name":"Kirkton","admin3":""},{"geonameid":2645220,"name":"Kirkton","admin3":""},{"geonameid":2645185,"name":"Kirtomy","admin3":""},{"geonameid":2645179,"name":"Kishorn","admin3":""},{"geonameid":2645173,"name":"Klibreck","admin3":""},{"geonameid":2645140,"name":"Knockan","admin3":""},{"geonameid":2645135,"name":"Knockbain","admin3":""},{"geonameid":2645122,"name":"Knockfin","admin3":""},{"geonameid":2645090,"name":"Kyle of Lochalsh","admin3":""},{"geonameid":2645091,"name":"Kyleakin","admin3":""},{"geonameid":2645089,"name":"Kylerhea","admin3":""},{"geonameid":2645088,"name":"Kylesmorar","admin3":""},{"geonameid":2645087,"name":"Kylestrome","admin3":""},{"geonameid":2645046,"name":"Laggan","admin3":""},{"geonameid":6696999,"name":"Laid","admin3":""},{"geonameid":2645037,"name":"Laide","admin3":""},{"geonameid":2645027,"name":"Lairg","admin3":""},{"geonameid":2644895,"name":"Langwell","admin3":""},{"geonameid":2644844,"name":"Laroch","admin3":""},{"geonameid":2644825,"name":"Latheron","admin3":""},{"geonameid":2644713,"name":"Leckmelm","admin3":""},{"geonameid":2644708,"name":"Ledbeg","admin3":""},{"geonameid":2644705,"name":"Ledmore","admin3":""},{"geonameid":2644589,"name":"Letterewe","admin3":""},{"geonameid":2644588,"name":"Letterfearn","admin3":""},{"geonameid":2644587,"name":"Letterfinlay","admin3":""},{"geonameid":2644555,"name":"Lewiston","admin3":""},{"geonameid":2644527,"name":"Liddesdale","admin3":""},{"geonameid":2644344,"name":"Little Creich","admin3":""},{"geonameid":2644325,"name":"Little Gruinard","admin3":""},{"geonameid":11071753,"name":"Little Torboll","admin3":""},{"geonameid":2644331,"name":"Littleferry","admin3":""},{"geonameid":7910406,"name":"Loch Assynt","admin3":""},{"geonameid":2643857,"name":"Lochailort","admin3":"2646086"},{"geonameid":2643855,"name":"Lochaline","admin3":""},{"geonameid":2643842,"name":"Lochcarron","admin3":""},{"geonameid":2643834,"name":"Lochend","admin3":""},{"geonameid":2643818,"name":"Lochinver","admin3":""},{"geonameid":2643800,"name":"Lochtreighead","admin3":""},{"geonameid":11072188,"name":"Lochyside","admin3":""},{"geonameid":2643746,"name":"Lonbain","admin3":""},{"geonameid":10103801,"name":"Londubh","admin3":""},{"geonameid":2643732,"name":"Lone","admin3":""},{"geonameid":11071775,"name":"Lonemore","admin3":""},{"geonameid":2643594,"name":"Lorgill","admin3":""},{"geonameid":2643580,"name":"Lothbeg","admin3":""},{"geonameid":2643527,"name":"Lower Derraid","admin3":""},{"geonameid":2643526,"name":"Lower Diabaig","admin3":""},{"geonameid":2643525,"name":"Lower Dounreay","admin3":""},{"geonameid":2643522,"name":"Lower Gledfield","admin3":""},{"geonameid":2643452,"name":"Lubcroy","admin3":""},{"geonameid":11591730,"name":"Luibeilt","admin3":""},{"geonameid":2643355,"name":"Lusa","admin3":""},{"geonameid":2643345,"name":"Lusta","admin3":""},{"geonameid":2643331,"name":"Lybster","admin3":""},{"geonameid":11240123,"name":"Lyth","admin3":""},{"geonameid":2643174,"name":"Mains of Dalvey","admin3":""},{"geonameid":2643156,"name":"Mallaig","admin3":"2646086"},{"geonameid":11592278,"name":"Maryburgh","admin3":""},{"geonameid":6458683,"name":"Mauld","admin3":""},{"geonameid":11071777,"name":"Meikle Ferry","admin3":""},{"geonameid":2642788,"name":"Melgarve","admin3":""},{"geonameid":2642779,"name":"Mellon Charles","admin3":""},{"geonameid":2642771,"name":"Melness","admin3":""},{"geonameid":2642761,"name":"Melvaig","admin3":""},{"geonameid":2642759,"name":"Melvich","admin3":""},{"geonameid":2642682,"name":"Mey","admin3":""},{"geonameid":10104102,"name":"Mial","admin3":""},{"geonameid":2642631,"name":"Mid Clyth","admin3":""},{"geonameid":2642555,"name":"Midtown Brae","admin3":""},{"geonameid":2642481,"name":"Milovaig","admin3":""},{"geonameid":2642473,"name":"Milton","admin3":""},{"geonameid":11592183,"name":"Milton of Leys","admin3":""},{"geonameid":2642352,"name":"Monessie","admin3":""},{"geonameid":2642325,"name":"Monkstadt","admin3":""},{"geonameid":6692509,"name":"Morar","admin3":""},{"geonameid":2642156,"name":"Morvich","admin3":""},{"geonameid":2642076,"name":"Moy","admin3":""},{"geonameid":6458677,"name":"Muchrachd","admin3":""},{"geonameid":2642017,"name":"Mugeary","admin3":""},{"geonameid":2642001,"name":"Muir of Ord","admin3":""},{"geonameid":6948345,"name":"Munerigie","admin3":""},{"geonameid":2641959,"name":"Munlochy","admin3":""},{"geonameid":2641936,"name":"Mybster","admin3":""},{"geonameid":2641910,"name":"Nairn","admin3":""},{"geonameid":2641864,"name":"Naust","admin3":""},{"geonameid":2641855,"name":"Navidale","admin3":""},{"geonameid":2641832,"name":"Nedd","admin3":""},{"geonameid":6620364,"name":"Nethy Bridge","admin3":""},{"geonameid":2641628,"name":"New Kelso","admin3":""},{"geonameid":2641542,"name":"Newtonmore","admin3":""},{"geonameid":2641496,"name":"Nigg","admin3":""},{"geonameid":2641426,"name":"North Ballachulish","admin3":""},{"geonameid":2641363,"name":"North Erradale","admin3":""},{"geonameid":2641325,"name":"North Kessock","admin3":""},{"geonameid":2641104,"name":"Obinan","admin3":""},{"geonameid":2641101,"name":"Occumster","admin3":""},{"geonameid":2641095,"name":"Ochtow","admin3":""},{"geonameid":2641091,"name":"Ockle","admin3":""},{"geonameid":2641044,"name":"Oldany","admin3":""},{"geonameid":2640994,"name":"Oldshore","admin3":""},{"geonameid":2640993,"name":"Oldshore Beg","admin3":""},{"geonameid":2640992,"name":"Oldshoremore","admin3":""},{"geonameid":6458678,"name":"Oldtown Of Aigas","admin3":""},{"geonameid":2640978,"name":"Ollach","admin3":""},{"geonameid":2640960,"name":"Onich","admin3":"2646086"},{"geonameid":2640951,"name":"Orbost","admin3":""},{"geonameid":2640944,"name":"Ord","admin3":""},{"geonameid":11240124,"name":"Ose","admin3":""},{"geonameid":2640770,"name":"Overscaig","admin3":""},{"geonameid":2640707,"name":"Oykell Bridge","admin3":""},{"geonameid":2640542,"name":"Peanmeanach","admin3":""},{"geonameid":11071760,"name":"Pilburdy","admin3":""},{"geonameid":2640213,"name":"Plockton","admin3":""},{"geonameid":2640178,"name":"Polbain","admin3":""},{"geonameid":2640172,"name":"Polglass","admin3":""},{"geonameid":6697001,"name":"Polla","admin3":""},{"geonameid":2640097,"name":"Poolewe","admin3":""},{"geonameid":2640050,"name":"Port Henderson","admin3":""},{"geonameid":2640020,"name":"Port na Long","admin3":""},{"geonameid":2640057,"name":"Portgower","admin3":""},{"geonameid":2640027,"name":"Portmahomack","admin3":""},{"geonameid":2640019,"name":"Portnancon","admin3":""},{"geonameid":2640006,"name":"Portree","admin3":""},{"geonameid":2640000,"name":"Portskerra","admin3":""},{"geonameid":2639879,"name":"Proncy","admin3":""},{"geonameid":2639854,"name":"Pulrossie","admin3":""},{"geonameid":2639696,"name":"Rahoy","admin3":""},{"geonameid":2639679,"name":"Ramasaig","admin3":""},{"geonameid":2639631,"name":"Rarichie","admin3":""},{"geonameid":9072603,"name":"Ratagan","admin3":""},{"geonameid":11071770,"name":"Rearquhar","admin3":""},{"geonameid":2639573,"name":"Reay","admin3":""},{"geonameid":2639561,"name":"Redcastle","admin3":""},{"geonameid":2639507,"name":"Reiff","admin3":""},{"geonameid":2639488,"name":"Reraig","admin3":""},{"geonameid":2639485,"name":"Resipol","admin3":""},{"geonameid":2639483,"name":"Resolis","admin3":""},{"geonameid":2639468,"name":"Rhefail","admin3":""},{"geonameid":6458680,"name":"Rheindown","admin3":""},{"geonameid":2639465,"name":"Rhian","admin3":""},{"geonameid":2639463,"name":"Rhiconich","admin3":""},{"geonameid":2639457,"name":"Rhilochan","admin3":""},{"geonameid":2639396,"name":"Ribigill","admin3":""},{"geonameid":2639306,"name":"Rispond","admin3":""},{"geonameid":2639294,"name":"Roag","admin3":""},{"geonameid":2639251,"name":"Rockfield","admin3":""},{"geonameid":2639217,"name":"Rogart","admin3":""},{"geonameid":2639146,"name":"Rosehall","admin3":""},{"geonameid":2639142,"name":"Rosemarkie","admin3":""},{"geonameid":2639136,"name":"Roshven","admin3":""},{"geonameid":11240125,"name":"Roskhill","admin3":""},{"geonameid":2639117,"name":"Rosskeen","admin3":""},{"geonameid":2639080,"name":"Rothiemurchus","admin3":""},{"geonameid":2639021,"name":"Roybridge","admin3":""},{"geonameid":6458679,"name":"Ruilick","admin3":""},{"geonameid":2638922,"name":"Ruthven","admin3":""},{"geonameid":2638923,"name":"Ruthven","admin3":""},{"geonameid":2638685,"name":"Salachadh","admin3":""},{"geonameid":2638675,"name":"Salen","admin3":""},{"geonameid":2638660,"name":"Sallachan","admin3":""},{"geonameid":2638659,"name":"Sallachy","admin3":""},{"geonameid":2638611,"name":"Sand","admin3":""},{"geonameid":2638532,"name":"Sandwood","admin3":""},{"geonameid":2638526,"name":"Sangobeg","admin3":""},{"geonameid":2638512,"name":"Sarclet","admin3":""},{"geonameid":2638432,"name":"Scamadale","admin3":""},{"geonameid":2638429,"name":"Scamodale","admin3":""},{"geonameid":2638413,"name":"Scardroy","admin3":""},{"geonameid":2638411,"name":"Scarfskerry","admin3":""},{"geonameid":2638373,"name":"Sconser","admin3":""},{"geonameid":2638371,"name":"Scoraig","admin3":""},{"geonameid":2638351,"name":"Scotstown","admin3":""},{"geonameid":2638344,"name":"Scourie","admin3":""},{"geonameid":2638339,"name":"Scrabster","admin3":""},{"geonameid":2638142,"name":"Shandwick","admin3":""},{"geonameid":2638073,"name":"Sheigra","admin3":""},{"geonameid":6544998,"name":"Shiel Bridge","admin3":""},{"geonameid":2637996,"name":"Shiel Bridge","admin3":""},{"geonameid":2637993,"name":"Shieldaig","admin3":""},{"geonameid":2637994,"name":"Shieldaig","admin3":""},{"geonameid":2637964,"name":"Shinness","admin3":""},{"geonameid":2637932,"name":"Shirramore","admin3":""},{"geonameid":2637792,"name":"Skail","admin3":""},{"geonameid":2637790,"name":"Skaill","admin3":""},{"geonameid":2637771,"name":"Skeabost","admin3":""},{"geonameid":2637760,"name":"Skelbo","admin3":""},{"geonameid":11071757,"name":"Skelbo Street","admin3":""},{"geonameid":11049117,"name":"Skerray","admin3":""},{"geonameid":2637711,"name":"Skinidin","admin3":""},{"geonameid":2637686,"name":"Skudiburgh","admin3":""},{"geonameid":2637684,"name":"Skullomie","admin3":""},{"geonameid":2637680,"name":"Skye of Curr","admin3":""},{"geonameid":2637677,"name":"Slaggan","admin3":""},{"geonameid":2637648,"name":"Slickly","admin3":""},{"geonameid":10104099,"name":"Smithstown","admin3":""},{"geonameid":6640071,"name":"Smithton","admin3":""},{"geonameid":2637497,"name":"Sourlies","admin3":""},{"geonameid":10345358,"name":"South Ballachulish","admin3":""},{"geonameid":2637428,"name":"South Erradale","admin3":""},{"geonameid":2637393,"name":"South Kessock","admin3":""},{"geonameid":2637248,"name":"Spean Bridge","admin3":""},{"geonameid":2637223,"name":"Spinningdale","admin3":""},{"geonameid":2637144,"name":"Staffin","admin3":""},{"geonameid":2636986,"name":"Staxigoe","admin3":""},{"geonameid":2636961,"name":"Stein","admin3":""},{"geonameid":2636952,"name":"Stenscholl","admin3":""},{"geonameid":2636906,"name":"Stittenham","admin3":""},{"geonameid":2636874,"name":"Stoer","admin3":""},{"geonameid":2636778,"name":"Stoul","admin3":""},{"geonameid":10104101,"name":"Strath","admin3":""},{"geonameid":2636698,"name":"Strath","admin3":""},{"geonameid":2636704,"name":"Strathcarron","admin3":""},{"geonameid":2636689,"name":"Strathpeffer","admin3":""},{"geonameid":2636688,"name":"Strathy","admin3":""},{"geonameid":2636648,"name":"Strollamus","admin3":""},{"geonameid":2636641,"name":"Stromeferry","admin3":""},{"geonameid":11072185,"name":"Stronchreggan","admin3":""},{"geonameid":2636621,"name":"Strontian","admin3":""},{"geonameid":2636613,"name":"Struan","admin3":""},{"geonameid":2636606,"name":"Struy","admin3":""},{"geonameid":2636383,"name":"Swiney","admin3":""},{"geonameid":2636345,"name":"Syre","admin3":""},{"geonameid":2636321,"name":"Tain","admin3":""},{"geonameid":2636306,"name":"Talisker","admin3":""},{"geonameid":2636295,"name":"Talmine","admin3":""},{"geonameid":2636240,"name":"Tarbert","admin3":""},{"geonameid":2636232,"name":"Tarbet","admin3":"2646086"},{"geonameid":2636196,"name":"Tarskavaig","admin3":""},{"geonameid":2636152,"name":"Teangue","admin3":""},{"geonameid":11071751,"name":"The Mound","admin3":""},{"geonameid":2635912,"name":"Thrumster","admin3":""},{"geonameid":10245405,"name":"Thurdistoft","admin3":""},{"geonameid":2635881,"name":"Thurso","admin3":""},{"geonameid":2635733,"name":"Tokavaig","admin3":""},{"geonameid":2635730,"name":"Tole","admin3":""},{"geonameid":2635710,"name":"Tomatin","admin3":""},{"geonameid":2635709,"name":"Tomcrasky","admin3":""},{"geonameid":2635708,"name":"Tomdoun","admin3":""},{"geonameid":2635707,"name":"Tomich","admin3":""},{"geonameid":6458685,"name":"Tomnacross","admin3":""},{"geonameid":2635693,"name":"Tongue","admin3":""},{"geonameid":2635677,"name":"Torboll","admin3":""},{"geonameid":2635676,"name":"Torcastle","admin3":""},{"geonameid":2635674,"name":"Tordarroch","admin3":""},{"geonameid":2635672,"name":"Tore","admin3":""},{"geonameid":2635671,"name":"Tòrgulbin","admin3":""},{"geonameid":6620456,"name":"Torlundy","admin3":""},{"geonameid":2635666,"name":"Tormore","admin3":""},{"geonameid":2635659,"name":"Torness","admin3":""},{"geonameid":6639625,"name":"Torridon","admin3":""},{"geonameid":2635637,"name":"Torrin","admin3":""},{"geonameid":11049115,"name":"Torrisdale","admin3":""},{"geonameid":2635632,"name":"Torroble","admin3":""},{"geonameid":2635619,"name":"Toscaig","admin3":""},{"geonameid":2635614,"name":"Totaig","admin3":""},{"geonameid":2635562,"name":"Trantlebeg","admin3":""},{"geonameid":11072186,"name":"Trioslaig / Trislaig","admin3":""},{"geonameid":2635415,"name":"Trumpan","admin3":""},{"geonameid":2635390,"name":"Tuirnaig","admin3":""},{"geonameid":2635252,"name":"Uags","admin3":""},{"geonameid":2635219,"name":"Uig","admin3":""},{"geonameid":2635220,"name":"Uig","admin3":""},{"geonameid":2635207,"name":"Ulbster","admin3":""},{"geonameid":2635199,"name":"Ullapool","admin3":""},{"geonameid":2635178,"name":"Unapool","admin3":""},{"geonameid":2635168,"name":"Unish","admin3":""},{"geonameid":2635140,"name":"Upper Camster","admin3":""},{"geonameid":2635134,"name":"Upper Derraid","admin3":""},{"geonameid":2635133,"name":"Upper Diabaig","admin3":""},{"geonameid":2635132,"name":"Upper Dounreay","admin3":""},{"geonameid":2635130,"name":"Upper Eathie","admin3":""},{"geonameid":2635074,"name":"Urchany","admin3":""},{"geonameid":2635056,"name":"Urray","admin3":""},{"geonameid":11240126,"name":"Waternish","admin3":""},{"geonameid":2634667,"name":"Watten","admin3":""},{"geonameid":2634476,"name":"West Canisbay","admin3":""},{"geonameid":2634460,"name":"West Croachy","admin3":""},{"geonameid":10245387,"name":"West Dunnet","admin3":""},{"geonameid":2634370,"name":"West Langwell","admin3":""},{"geonameid":2634369,"name":"West Laroch","admin3":""},{"geonameid":2634443,"name":"Wester Clynekirkton","admin3":""},{"geonameid":2634440,"name":"Wester Fearn","admin3":""},{"geonameid":11071783,"name":"Wester Gruinards","admin3":""},{"geonameid":2634432,"name":"Wester Inverwick","admin3":""},{"geonameid":2634425,"name":"Wester Rarichie","admin3":""},{"geonameid":2634422,"name":"Wester Urray","admin3":""},{"geonameid":2634441,"name":"Westerdale","admin3":""},{"geonameid":11592297,"name":"Westhill","admin3":""},{"geonameid":2634193,"name":"Whaligoe","admin3":""},{"geonameid":2633982,"name":"Wick","admin3":"2654041"},{"geonameid":2633620,"name":"Woodside","admin3":""}],"admin3":[{"geonameid":2636507,"name":"Sutherlandshire","admin3":"2636507"},{"geonameid":2641907,"name":"Nairnshire","admin3":"2641907"},{"geonameid":2646086,"name":"Inverness-shire","admin3":"2646086"},{"geonameid":2654041,"name":"Caithness-shire","admin3":"2654041"}],"alternateNames":[]},"__N_SSG":true}