{"pageProps":{"locale":"en","admin2":{"geonameid":4956873,"name":"Aroostook County","country":"US","admin1":"ME","admin2":"003","admin3":"","latitude":"46.6588100","longitude":"-68.5988900"},"admin1":{"geonameid":4971068,"name":"Maine","admin1":"ME"},"locations":[{"geonameid":4960140,"name":"Caribou","admin3":"10565"},{"geonameid":4963478,"name":"Easton","admin3":"21380"},{"geonameid":4964605,"name":"Fort Fairfield","admin3":"25615"},{"geonameid":4964627,"name":"Fort Kent","admin3":"25755"},{"geonameid":4964919,"name":"Frenchville","admin3":"26735"},{"geonameid":4967277,"name":"Hodgdon","admin3":"33385"},{"geonameid":4967563,"name":"Houlton","admin3":"33980"},{"geonameid":4969532,"name":"Limestone","admin3":"39300"},{"geonameid":4970938,"name":"Madawaska","admin3":"42520"},{"geonameid":4970940,"name":"Madawaska","admin3":"10565"},{"geonameid":4975966,"name":"Presque Isle","admin3":"60825"},{"geonameid":4981710,"name":"Van Buren","admin3":"78570"}],"admin3":[{"geonameid":4956626,"name":"Town of Allagash","admin3":"00800"},{"geonameid":4956718,"name":"Town of Amity","admin3":"01220"},{"geonameid":4956926,"name":"Town of Ashland","admin3":"01710"},{"geonameid":4957278,"name":"Town of Bancroft","admin3":"02760"},{"geonameid":4958652,"name":"Town of Blaine","admin3":"05385"},{"geonameid":4959277,"name":"Town of Bridgewater","admin3":"07065"},{"geonameid":4960188,"name":"City of Caribou","admin3":"10565"},{"geonameid":4960349,"name":"Plantation of Cary","admin3":"11020"},{"geonameid":4960394,"name":"Town of Castle Hill","admin3":"11300"},{"geonameid":4960407,"name":"Town of Caswell","admin3":"11335"},{"geonameid":4960538,"name":"Unorganized Territory of Central Aroostook","admin3":"11785"},{"geonameid":4960667,"name":"Town of Chapman","admin3":"12000"},{"geonameid":4961890,"name":"Town of Crystal","admin3":"15395"},{"geonameid":4962024,"name":"Plantation of Cyr","admin3":"15990"},{"geonameid":4963090,"name":"Town of Dyer Brook","admin3":"19210"},{"geonameid":4963123,"name":"Town of Eagle Lake","admin3":"19420"},{"geonameid":4963485,"name":"Town of Easton","admin3":"21380"},{"geonameid":4964613,"name":"Town of Fort Fairfield","admin3":"25615"},{"geonameid":4964642,"name":"Town of Fort Kent","admin3":"25755"},{"geonameid":4964922,"name":"Town of Frenchville","admin3":"26735"},{"geonameid":4965100,"name":"Plantation of Garfield","admin3":"27120"},{"geonameid":4965300,"name":"Plantation of Glenwood","admin3":"27855"},{"geonameid":4965579,"name":"Town of Grand Isle","admin3":"28590"},{"geonameid":4966354,"name":"Town of Hamlin","admin3":"30690"},{"geonameid":4966369,"name":"Town of Hammond","admin3":"30725"},{"geonameid":4966795,"name":"Town of Haynesville","admin3":"32195"},{"geonameid":4967037,"name":"Town of Hersey","admin3":"32685"},{"geonameid":4967288,"name":"Town of Hodgdon","admin3":"33385"},{"geonameid":4967584,"name":"Town of Houlton","admin3":"33980"},{"geonameid":4968121,"name":"Town of Island Falls","admin3":"35065"},{"geonameid":4969550,"name":"Town of Limestone","admin3":"39300"},{"geonameid":4969614,"name":"Town of Linneus","admin3":"39965"},{"geonameid":4970210,"name":"Town of Littleton","admin3":"40595"},{"geonameid":4970832,"name":"Town of Ludlow","admin3":"41715"},{"geonameid":4970934,"name":"Plantation of Macwahoc","admin3":"42450"},{"geonameid":4970949,"name":"Town of Madawaska","admin3":"42520"},{"geonameid":4971168,"name":"Town of Mapleton","admin3":"43255"},{"geonameid":4971260,"name":"Town of Mars Hill","admin3":"43710"},{"geonameid":4971367,"name":"Town of Masardis","admin3":"43990"},{"geonameid":4971830,"name":"Town of Merrill","admin3":"45180"},{"geonameid":4972403,"name":"Town of Monticello","admin3":"46685"},{"geonameid":4972600,"name":"Plantation of Moro","admin3":"47175"},{"geonameid":4973171,"name":"Plantation of Nashville","admin3":"48120"},{"geonameid":4973251,"name":"Town of New Canada","admin3":"48575"},{"geonameid":4973275,"name":"Town of New Limerick","admin3":"48960"},{"geonameid":4973296,"name":"Town of New Sweden","admin3":"49415"},{"geonameid":4973783,"name":"Unorganized Territory of Northwest Aroostook","admin3":"53602"},{"geonameid":4974069,"name":"Town of Oakfield","admin3":"54385"},{"geonameid":4974304,"name":"Town of Orient","admin3":"55435"},{"geonameid":4974513,"name":"Plantation of Oxbow","admin3":"56205"},{"geonameid":4975038,"name":"Town of Perham","admin3":"58060"},{"geonameid":4975781,"name":"Town of Portage Lake","admin3":"60300"},{"geonameid":4975983,"name":"City of Presque Isle","admin3":"60825"},{"geonameid":4976468,"name":"Plantation of Reed","admin3":"62400"},{"geonameid":4977284,"name":"Town of Saint Agatha","admin3":"64780"},{"geonameid":4977377,"name":"Town of Saint Francis","admin3":"65025"},{"geonameid":4978494,"name":"Town of Sherman","admin3":"67790"},{"geonameid":4978879,"name":"Town of Smyrna","admin3":"69260"},{"geonameid":4979039,"name":"Unorganized Territory of South Aroostook","admin3":"69930"},{"geonameid":4979662,"name":"Unorganized Territory of Square Lake","admin3":"73472"},{"geonameid":4979942,"name":"Town of Stockholm","admin3":"74405"},{"geonameid":4981717,"name":"Town of Van Buren","admin3":"78570"},{"geonameid":4982007,"name":"Town of Wade","admin3":"79270"},{"geonameid":4982106,"name":"Town of Wallagrass","admin3":"79865"},{"geonameid":4982170,"name":"Town of Washburn","admin3":"80285"},{"geonameid":4982821,"name":"Town of Westfield","admin3":"82770"},{"geonameid":4982825,"name":"Town of Westmanland","admin3":"83540"},{"geonameid":4982834,"name":"Town of Weston","admin3":"83785"},{"geonameid":4983354,"name":"Plantation of Winterville","admin3":"86865"},{"geonameid":4983459,"name":"Town of Woodland","admin3":"87215"}],"alternateNames":[]},"__N_SSG":true}