{"pageProps":{"locale":"en","admin2":{"geonameid":4974977,"name":"Penobscot County","country":"US","admin1":"ME","admin2":"019","admin3":"","latitude":"45.4005100","longitude":"-68.6494300"},"admin1":{"geonameid":4971068,"name":"Maine","admin1":"ME"},"locations":[{"geonameid":4957280,"name":"Bangor","admin3":"02795"},{"geonameid":4959106,"name":"Bradford","admin3":"06575"},{"geonameid":4959119,"name":"Bradley","admin3":"06680"},{"geonameid":4959233,"name":"Brewer","admin3":"06925"},{"geonameid":5281055,"name":"Carmel","admin3":"10670"},{"geonameid":4960682,"name":"Charleston","admin3":"12105"},{"geonameid":4961493,"name":"Corinna","admin3":"14310"},{"geonameid":4962502,"name":"Dexter","admin3":"17530"},{"geonameid":4962596,"name":"Dixmont","admin3":"17950"},{"geonameid":4963318,"name":"East Millinocket","admin3":"21030"},{"geonameid":4963547,"name":"Eddington","admin3":"22535"},{"geonameid":4963801,"name":"Enfield","admin3":"23620"},{"geonameid":4963848,"name":"Etna","admin3":"23865"},{"geonameid":4965101,"name":"Garland","admin3":"27190"},{"geonameid":4965923,"name":"Greenbush","admin3":"29185"},{"geonameid":4966371,"name":"Hampden","admin3":"30795"},{"geonameid":4966992,"name":"Hermon","admin3":"32510"},{"geonameid":4967344,"name":"Holden","admin3":"33490"},{"geonameid":4967652,"name":"Howland","admin3":"34190"},{"geonameid":4967690,"name":"Hudson","admin3":"34365"},{"geonameid":4968688,"name":"Kenduskeag","admin3":"36325"},{"geonameid":4969375,"name":"Levant","admin3":"38705"},{"geonameid":4969547,"name":"Lincoln","admin3":"39475"},{"geonameid":4971734,"name":"Medway","admin3":"45005"},{"geonameid":4972028,"name":"Milford","admin3":"45670"},{"geonameid":4972220,"name":"Millinocket","admin3":"45810"},{"geonameid":4973333,"name":"Newport","admin3":"49065"},{"geonameid":4974231,"name":"Old Town","admin3":"55225"},{"geonameid":4974313,"name":"Orono","admin3":"55565"},{"geonameid":4974328,"name":"Orrington","admin3":"55680"},{"geonameid":4974775,"name":"Patten","admin3":"57150"},{"geonameid":4975573,"name":"Plymouth","admin3":"59950"},{"geonameid":4979840,"name":"Stetson","admin3":"74055"},{"geonameid":4981750,"name":"Veazie","admin3":"78780"}],"admin3":[{"geonameid":4956681,"name":"Town of Alton","admin3":"01115"},{"geonameid":4957307,"name":"City of Bangor","admin3":"02795"},{"geonameid":4959117,"name":"Town of Bradford","admin3":"06575"},{"geonameid":4959130,"name":"Town of Bradley","admin3":"06680"},{"geonameid":4959246,"name":"City of Brewer","admin3":"06925"},{"geonameid":4959653,"name":"Town of Burlington","admin3":"09200"},{"geonameid":4960239,"name":"Town of Carmel","admin3":"10670"},{"geonameid":4960273,"name":"Plantation of Carroll","admin3":"10810"},{"geonameid":4960688,"name":"Town of Charleston","admin3":"12105"},{"geonameid":4960770,"name":"Town of Chester","admin3":"12525"},{"geonameid":4961092,"name":"Town of Clifton","admin3":"13365"},{"geonameid":4961497,"name":"Town of Corinna","admin3":"14310"},{"geonameid":4961498,"name":"Town of Corinth","admin3":"14380"},{"geonameid":4962512,"name":"Town of Dexter","admin3":"17530"},{"geonameid":4962599,"name":"Town of Dixmont","admin3":"17950"},{"geonameid":4962842,"name":"Plantation of Drew","admin3":"18580"},{"geonameid":4963242,"name":"Unorganized Territory of East Central Penobscot","admin3":"19868"},{"geonameid":4963322,"name":"Town of East Millinocket","admin3":"21030"},{"geonameid":4963548,"name":"Town of Eddington","admin3":"22535"},{"geonameid":4963572,"name":"Town of Edinburg","admin3":"22710"},{"geonameid":4963805,"name":"Town of Enfield","admin3":"23620"},{"geonameid":4963853,"name":"Town of Etna","admin3":"23865"},{"geonameid":4963908,"name":"Town of Exeter","admin3":"24110"},{"geonameid":4965109,"name":"Town of Garland","admin3":"27190"},{"geonameid":4965292,"name":"Town of Glenburn","admin3":"27645"},{"geonameid":4965928,"name":"Town of Greenbush","admin3":"29185"},{"geonameid":4966378,"name":"Town of Hampden","admin3":"30795"},{"geonameid":4967003,"name":"Town of Hermon","admin3":"32510"},{"geonameid":4967350,"name":"Town of Holden","admin3":"33490"},{"geonameid":4967658,"name":"Town of Howland","admin3":"34190"},{"geonameid":4967696,"name":"Town of Hudson","admin3":"34365"},{"geonameid":4968692,"name":"Town of Kenduskeag","admin3":"36325"},{"geonameid":4969072,"name":"Town of Lagrange","admin3":"37760"},{"geonameid":4969121,"name":"Town of Lakeville","admin3":"38005"},{"geonameid":4969322,"name":"Town of Lee","admin3":"38530"},{"geonameid":4969378,"name":"Town of Levant","admin3":"38705"},{"geonameid":4969591,"name":"Town of Lincoln","admin3":"39475"},{"geonameid":4970670,"name":"Town of Lowell","admin3":"41435"},{"geonameid":4971449,"name":"Town of Mattawamkeag","admin3":"44270"},{"geonameid":4971460,"name":"Town of Maxfield","admin3":"44340"},{"geonameid":4971737,"name":"Town of Medway","admin3":"45005"},{"geonameid":4972031,"name":"Town of Milford","admin3":"45670"},{"geonameid":4972222,"name":"Town of Millinocket","admin3":"45810"},{"geonameid":4972731,"name":"Town of Mount Chase","admin3":"47560"},{"geonameid":4973308,"name":"Town of Newburgh","admin3":"48505"},{"geonameid":4973341,"name":"Town of Newport","admin3":"49065"},{"geonameid":4973641,"name":"Unorganized Territory of North Penobscot","admin3":"52710"},{"geonameid":4974239,"name":"City of Old Town","admin3":"55225"},{"geonameid":4974324,"name":"Town of Orono","admin3":"55565"},{"geonameid":4974330,"name":"Town of Orrington","admin3":"55680"},{"geonameid":4974729,"name":"Town of Passadumkeag","admin3":"57045"},{"geonameid":4974780,"name":"Town of Patten","admin3":"57150"},{"geonameid":4975578,"name":"Town of Plymouth","admin3":"59950"},{"geonameid":4978181,"name":"Plantation of Seboeis","admin3":"67160"},{"geonameid":4979577,"name":"Town of Springfield","admin3":"73250"},{"geonameid":4979702,"name":"Town of Stacyville","admin3":"73600"},{"geonameid":4979862,"name":"Town of Stetson","admin3":"74055"},{"geonameid":4981391,"name":"Unorganized Territory of Twombly Ridge","admin3":"78015"},{"geonameid":4981753,"name":"Town of Veazie","admin3":"78780"},{"geonameid":4982343,"name":"Plantation of Webster","admin3":"81055"},{"geonameid":4983054,"name":"Unorganized Territory of Whitney","admin3":"85230"},{"geonameid":4983308,"name":"Town of Winn","admin3":"86305"},{"geonameid":4983498,"name":"Town of Woodville","admin3":"87390"}],"alternateNames":[]},"__N_SSG":true}