{"pageProps":{"locale":"en","admin2":{"geonameid":4975418,"name":"Piscataquis County","country":"US","admin1":"ME","admin2":"021","admin3":"","latitude":"45.8373600","longitude":"-69.2845200"},"admin1":{"geonameid":4971068,"name":"Maine","admin1":"ME"},"locations":[{"geonameid":4959464,"name":"Brownville","admin3":"08325"},{"geonameid":4962775,"name":"Dover-Foxcroft","admin3":"18195"},{"geonameid":4965978,"name":"Greenville","admin3":"29535"},{"geonameid":4972235,"name":"Milo","admin3":"46020"},{"geonameid":4977779,"name":"Sangerville","admin3":"65865"}],"admin3":[{"geonameid":4956401,"name":"Town of Abbot","admin3":"00100"},{"geonameid":4956964,"name":"Town of Atkinson","admin3":"01920"},{"geonameid":4957843,"name":"Town of Beaver Cove","admin3":"03740"},{"geonameid":4959034,"name":"Town of Bowerbank","admin3":"06400"},{"geonameid":4959469,"name":"Town of Brownville","admin3":"08325"},{"geonameid":4962778,"name":"Town of Dover-Foxcroft","admin3":"18195"},{"geonameid":4965990,"name":"Town of Greenville","admin3":"29535"},{"geonameid":4966100,"name":"Town of Guilford","admin3":"30095"},{"geonameid":4968928,"name":"Plantation of Kingsbury","admin3":"37095"},{"geonameid":4969099,"name":"Plantation of Lake View","admin3":"37970"},{"geonameid":4971717,"name":"Town of Medford","admin3":"44830"},{"geonameid":4972240,"name":"Town of Milo","admin3":"46020"},{"geonameid":4972393,"name":"Town of Monson","admin3":"46580"},{"geonameid":4973750,"name":"Unorganized Territory of Northeast Piscataquis","admin3":"51105"},{"geonameid":4973803,"name":"Unorganized Territory of Northwest Piscataquis","admin3":"53628"},{"geonameid":4974670,"name":"Town of Parkman","admin3":"56765"},{"geonameid":4977780,"name":"Town of Sangerville","admin3":"65865"},{"geonameid":4978166,"name":"Town of Sebec","admin3":"66950"},{"geonameid":4978539,"name":"Town of Shirley","admin3":"68140"},{"geonameid":4979307,"name":"Unorganized Territory of Southeast Piscataquis","admin3":"70655"},{"geonameid":4982387,"name":"Town of Wellington","admin3":"81405"},{"geonameid":4983205,"name":"Town of Willimantic","admin3":"85710"}],"alternateNames":[]},"__N_SSG":true}