{"pageProps":{"locale":"it","admin2":{"geonameid":3177088,"name":"Provincia di Ferrara","country":"IT","admin1":"05","admin2":"FE","admin3":"","latitude":"44.8000000","longitude":"11.8333300","localeAltName":"Ferrara"},"admin1":{"geonameid":3177401,"name":"Emilia-Romagna","admin1":"05","localeAltName":"Emilia-Romagna"},"locations":[{"geonameid":8950302,"name":"Aguscello","admin3":"038008","localeAltName":null},{"geonameid":8950162,"name":"Alberone","admin3":"038029","localeAltName":null},{"geonameid":3183115,"name":"Ambrogio","admin3":"038007","localeAltName":null},{"geonameid":3182878,"name":"Argenta","admin3":"038001","localeAltName":null},{"geonameid":3215763,"name":"Ariano Ferrarese","admin3":"038014","localeAltName":null},{"geonameid":3182264,"name":"Baura","admin3":"038008","localeAltName":null},{"geonameid":3182146,"name":"Berra","admin3":"038029","localeAltName":null},{"geonameid":3181978,"name":"Boara","admin3":"038008","localeAltName":null},{"geonameid":3181891,"name":"Bondeno","admin3":"038003","localeAltName":null},{"geonameid":3181694,"name":"Bosco Mesola","admin3":"038014","localeAltName":null},{"geonameid":8950303,"name":"Casaglia","admin3":"038008","localeAltName":null},{"geonameid":3179162,"name":"Cento","admin3":"038004","localeAltName":null},{"geonameid":3178940,"name":"Coccanile-Cesta","admin3":"038007","localeAltName":null},{"geonameid":3178505,"name":"Codigoro","admin3":"038005","localeAltName":null},{"geonameid":3178290,"name":"Cologna","admin3":"038029","localeAltName":null},{"geonameid":3178245,"name":"Comacchio","admin3":"038006","localeAltName":null},{"geonameid":8379290,"name":"Cona","admin3":"038008","localeAltName":null},{"geonameid":3178183,"name":"Consandolo","admin3":"038001","localeAltName":null},{"geonameid":3178137,"name":"Copparo","admin3":"038007","localeAltName":null},{"geonameid":3178027,"name":"Coronella","admin3":"038018","localeAltName":null},{"geonameid":8299679,"name":"Corpo Reno","admin3":"038004","localeAltName":null},{"geonameid":8948948,"name":"Dodici Morelli","admin3":"038004","localeAltName":null},{"geonameid":3177560,"name":"Dogato","admin3":"038017","localeAltName":null},{"geonameid":3177501,"name":"Dosso","admin3":"038028","localeAltName":null},{"geonameid":3177090,"name":"Ferrara","admin3":"038008","localeAltName":null},{"geonameid":3176731,"name":"Formignana","admin3":"038030","localeAltName":null},{"geonameid":8949667,"name":"Fossanova San Marco","admin3":"038008","localeAltName":null},{"geonameid":3176597,"name":"Francolino","admin3":"038008","localeAltName":null},{"geonameid":3176416,"name":"Gaibanella-Sant'Edigio","admin3":"038008","localeAltName":null},{"geonameid":3176359,"name":"Gallo","admin3":"038018","localeAltName":null},{"geonameid":3176332,"name":"Gambulaga","admin3":"038019","localeAltName":null},{"geonameid":3175987,"name":"Gorino","admin3":"038025","localeAltName":null},{"geonameid":3175980,"name":"Goro","admin3":"038025","localeAltName":null},{"geonameid":3175488,"name":"Jolanda di Savoia","admin3":"038010","localeAltName":null},{"geonameid":3165953,"name":"La Saletta-Tamara","admin3":"038007","localeAltName":null},{"geonameid":3175248,"name":"Lagosanto","admin3":"038011","localeAltName":null},{"geonameid":3215568,"name":"Lido degli Estensi","admin3":"038006","localeAltName":null},{"geonameid":3215593,"name":"Lido delle Nazioni","admin3":"038006","localeAltName":null},{"geonameid":3215569,"name":"Lido di Pomposa-Lido degli Scacchi","admin3":"038006","localeAltName":null},{"geonameid":3215562,"name":"Lido di Spina","admin3":"038006","localeAltName":null},{"geonameid":3174597,"name":"Longastrino","admin3":"038001","localeAltName":null},{"geonameid":8949752,"name":"Marrara","admin3":"038008","localeAltName":null},{"geonameid":3173789,"name":"Masi-Torello","admin3":"038012","localeAltName":null},{"geonameid":3173763,"name":"Massa Fiscaglia","admin3":"038027","localeAltName":null},{"geonameid":3173533,"name":"Mesola","admin3":"038014","localeAltName":null},{"geonameid":3173484,"name":"Mezzogoro","admin3":"038005","localeAltName":null},{"geonameid":3173447,"name":"Migliarino","admin3":"038027","localeAltName":null},{"geonameid":3173446,"name":"Migliaro","admin3":"038027","localeAltName":null},{"geonameid":3173382,"name":"Mirabello","admin3":"038028","localeAltName":null},{"geonameid":3173157,"name":"Monestirolo","admin3":"038008","localeAltName":null},{"geonameid":3173101,"name":"Montalbano","admin3":"038008","localeAltName":null},{"geonameid":3215773,"name":"Monticelli","admin3":"038014","localeAltName":null},{"geonameid":3171823,"name":"Ospital Monacale","admin3":"038001","localeAltName":null},{"geonameid":3171808,"name":"Ostellato","admin3":"038017","localeAltName":null},{"geonameid":3170709,"name":"Pilastri","admin3":"038003","localeAltName":null},{"geonameid":3170442,"name":"Poggio Renatico","admin3":"038018","localeAltName":null},{"geonameid":8949095,"name":"Pontegradella","admin3":"038008","localeAltName":null},{"geonameid":8949405,"name":"Pontelangorino","admin3":"038005","localeAltName":null},{"geonameid":3170243,"name":"Pontemaodino","admin3":"038005","localeAltName":null},{"geonameid":3170137,"name":"Porotto-Cassama","admin3":"038008","localeAltName":null},{"geonameid":3170087,"name":"Porto Garibaldi","admin3":"038006","localeAltName":null},{"geonameid":3170082,"name":"Portomaggiore","admin3":"038019","localeAltName":null},{"geonameid":3169707,"name":"Quartesana","admin3":"038008","localeAltName":null},{"geonameid":3169493,"name":"Renazzo","admin3":"038004","localeAltName":null},{"geonameid":8949481,"name":"Reno Centese","admin3":"038004","localeAltName":null},{"geonameid":3169303,"name":"Ripapersico","admin3":"038019","localeAltName":null},{"geonameid":3169220,"name":"Ro","admin3":"038029","localeAltName":null},{"geonameid":3168561,"name":"San Bartolomeo In Bosco","admin3":"038008","localeAltName":null},{"geonameid":3168528,"name":"San Biagio","admin3":"038001","localeAltName":null},{"geonameid":3168500,"name":"San Carlo","admin3":"038028","localeAltName":null},{"geonameid":3168275,"name":"San Giovanni","admin3":"038017","localeAltName":null},{"geonameid":3168216,"name":"San Giuseppe","admin3":"038006","localeAltName":null},{"geonameid":3168048,"name":"San Martino","admin3":"038008","localeAltName":null},{"geonameid":3167915,"name":"San Nicol√≤","admin3":"038001","localeAltName":null},{"geonameid":3167629,"name":"Sant'Agostino","admin3":"038028","localeAltName":null},{"geonameid":3167560,"name":"Santa Maria Codifiume","admin3":"038001","localeAltName":null},{"geonameid":3166869,"name":"Scortichino","admin3":"038003","localeAltName":null},{"geonameid":3215752,"name":"Serravalle","admin3":"038029","localeAltName":null},{"geonameid":3165222,"name":"Tresigallo-Final di Rero","admin3":"038030","localeAltName":null},{"geonameid":3164383,"name":"Vigarano Mainarda","admin3":"038022","localeAltName":null},{"geonameid":3164382,"name":"Vigarano Pieve","admin3":"038022","localeAltName":null},{"geonameid":6535030,"name":"Voghiera","admin3":"038023","localeAltName":null}],"admin3":[{"geonameid":6536746,"name":"Argenta","admin3":"038001","localeAltName":null},{"geonameid":6536747,"name":"Jolanda di Savoia","admin3":"038010","localeAltName":null},{"geonameid":6536748,"name":"Portomaggiore","admin3":"038019","localeAltName":null},{"geonameid":6536751,"name":"Goro","admin3":"038025","localeAltName":null},{"geonameid":6538479,"name":"Codigoro","admin3":"038005","localeAltName":null},{"geonameid":6538480,"name":"Comacchio","admin3":"038006","localeAltName":null},{"geonameid":6538481,"name":"Lagosanto","admin3":"038011","localeAltName":null},{"geonameid":6538482,"name":"Poggio Renatico","admin3":"038018","localeAltName":null},{"geonameid":6539716,"name":"Ostellato","admin3":"038017","localeAltName":null},{"geonameid":6539945,"name":"Bondeno","admin3":"038003","localeAltName":null},{"geonameid":6540430,"name":"Copparo","admin3":"038007","localeAltName":null},{"geonameid":6541038,"name":"Cento","admin3":"038004","localeAltName":null},{"geonameid":6541039,"name":"Mesola","admin3":"038014","localeAltName":null},{"geonameid":6541040,"name":"Vigarano Mainarda","admin3":"038022","localeAltName":null},{"geonameid":6541836,"name":"Masi Torello","admin3":"038012","localeAltName":null},{"geonameid":6542120,"name":"Ferrara","admin3":"038008","localeAltName":null},{"geonameid":6543016,"name":"Voghiera","admin3":"038023","localeAltName":null},{"geonameid":8658902,"name":"Fiscaglia","admin3":"038027","localeAltName":null},{"geonameid":11550071,"name":"Terre del Reno","admin3":"038028","localeAltName":null},{"geonameid":12032182,"name":"Tresignana","admin3":"038030","localeAltName":null},{"geonameid":12032192,"name":"Riva del Po","admin3":"038029","localeAltName":null}],"alternateNames":[{"alternatenameId":1351186,"geonameid":3177088,"isoLanguage":"it","alternateName":"Ferrara","isPreferredName":true,"isShortName":true,"isColloquial":false,"isHistoric":false},{"alternatenameId":1351276,"geonameid":3177401,"isoLanguage":"it","alternateName":"Emilia-Romagna","isPreferredName":true,"isShortName":true,"isColloquial":false,"isHistoric":false}]},"__N_SSG":true}