{"pageProps":{"locale":"en","admin2":{"geonameid":4868410,"name":"Muscatine County","country":"US","admin1":"IA","admin2":"139","admin3":"","latitude":"41.4839200","longitude":"-91.1127600","localeAltName":null},"admin1":{"geonameid":4862182,"name":"Iowa","admin1":"IA","localeAltName":"Iowa"},"locations":[{"geonameid":4857911,"name":"Fruitland","admin3":"91491","localeAltName":null},{"geonameid":4868404,"name":"Muscatine","admin3":"90279","localeAltName":null},{"geonameid":4881433,"name":"West Liberty","admin3":"94419","localeAltName":null},{"geonameid":4882164,"name":"Wilton","admin3":"94758","localeAltName":null}],"admin3":[{"geonameid":4848885,"name":"Township of Bloomington","admin3":"90279","localeAltName":null},{"geonameid":4850828,"name":"Township of Cedar","admin3":"90561"},{"geonameid":4857917,"name":"Township of Fruitland","admin3":"91491","localeAltName":null},{"geonameid":4857948,"name":"Township of Fulton","admin3":"91494"},{"geonameid":4858663,"name":"Township of Goshen","admin3":"91590"},{"geonameid":4864036,"name":"Township of Lake","admin3":"92358"},{"geonameid":4867829,"name":"Township of Montpelier","admin3":"92997"},{"geonameid":4868043,"name":"Township of Moscow","admin3":"93027"},{"geonameid":4870160,"name":"Township of Orono","admin3":"93204"},{"geonameid":4871235,"name":"Township of Pike","admin3":"93318"},{"geonameid":4875975,"name":"Township of Seventy-Six","admin3":"93816"},{"geonameid":4878147,"name":"Township of Sweetland","admin3":"94074"},{"geonameid":4880669,"name":"Township of Wapsinonoc","admin3":"94419","localeAltName":null},{"geonameid":4882177,"name":"Township of Wilton","admin3":"94758","localeAltName":null}],"alternateNames":[{"alternatenameId":1980290,"geonameid":4862182,"isoLanguage":"en","alternateName":"Iowa","isPreferredName":true,"isShortName":true,"isColloquial":false,"isHistoric":false}]},"__N_SSG":true}