{"pageProps":{"locale":"en","admin2":{"geonameid":6544239,"name":"Gemeente Westerveld","country":"NL","admin1":"01","admin2":"1701","admin3":"","latitude":"52.8270000","longitude":"6.2906000"},"admin1":{"geonameid":2756631,"name":"Provincie Drenthe","admin1":"01"},"locations":[{"geonameid":2758570,"name":"Boschoord","admin3":""},{"geonameid":2758527,"name":"Boterveen","admin3":""},{"geonameid":2758067,"name":"Busselte","admin3":""},{"geonameid":2757831,"name":"Darp","admin3":""},{"geonameid":2756855,"name":"Diever","admin3":""},{"geonameid":2756853,"name":"Dieverbrug","admin3":""},{"geonameid":2756753,"name":"Doldersum","admin3":""},{"geonameid":2756451,"name":"Dwingeloo","admin3":""},{"geonameid":2756382,"name":"Eemster","admin3":""},{"geonameid":2755986,"name":"Eursinge","admin3":""},{"geonameid":2755824,"name":"Frederiksoord","admin3":""},{"geonameid":2755647,"name":"Geeuwenbrug","admin3":""},{"geonameid":2754752,"name":"Havelte","admin3":""},{"geonameid":2754749,"name":"Havelterberg","admin3":""},{"geonameid":2754236,"name":"Het Moer","admin3":""},{"geonameid":2754213,"name":"Het Schier","admin3":""},{"geonameid":2753861,"name":"Holtien","admin3":""},{"geonameid":2753860,"name":"Holtinge","admin3":""},{"geonameid":2753859,"name":"Holtland","admin3":""},{"geonameid":2753120,"name":"Kalteren","admin3":""},{"geonameid":2751776,"name":"Leggeloo","admin3":""},{"geonameid":2751662,"name":"Lhee","admin3":""},{"geonameid":2751661,"name":"Lheebroek","admin3":""},{"geonameid":2750661,"name":"Molenstad","admin3":""},{"geonameid":2750079,"name":"Nijensleek","admin3":""},{"geonameid":2749651,"name":"Oldendiever","admin3":""},{"geonameid":6544696,"name":"Oude Willem","admin3":""},{"geonameid":2748438,"name":"Prinses Marianne","admin3":""},{"geonameid":2746486,"name":"Ten Have","admin3":""},{"geonameid":2746000,"name":"Uffelte","admin3":""},{"geonameid":2745777,"name":"Veendijk","admin3":""},{"geonameid":2745701,"name":"Veldhuizen","admin3":""},{"geonameid":2745449,"name":"Vledder","admin3":""},{"geonameid":2745440,"name":"Vledderveen","admin3":""},{"geonameid":2745035,"name":"Wapse","admin3":""},{"geonameid":2745033,"name":"Wapserveen","admin3":""},{"geonameid":2744978,"name":"Wateren","admin3":""},{"geonameid":2744787,"name":"Westeinde","admin3":""},{"geonameid":2744418,"name":"Wilhelminaoord","admin3":""},{"geonameid":2744290,"name":"Wittelte","admin3":""},{"geonameid":2744270,"name":"Witteveen","admin3":""},{"geonameid":2743857,"name":"Zoerte","admin3":""},{"geonameid":2743824,"name":"Zorgvlied","admin3":""}],"admin3":[],"alternateNames":[{"alternatenameId":11907792,"geonameid":2756631,"isoLanguage":"de","alternateName":"Drenthe","isPreferredName":true,"isShortName":true,"isColloquial":false,"isHistoric":false}]},"__N_SSG":true}