{"pageProps":{"locale":"en","admin2":{"geonameid":2751428,"name":"Gemeente Loppersum","country":"NL","admin1":"04","admin2":"0024","admin3":"","latitude":"53.3384900","longitude":"6.7214900"},"admin1":{"geonameid":2755249,"name":"Provincie Groningen","admin1":"04"},"locations":[{"geonameid":2758503,"name":"Bovendijks","admin3":""},{"geonameid":2757608,"name":"De Groeve","admin3":""},{"geonameid":2757581,"name":"De Har","admin3":""},{"geonameid":6544914,"name":"Dijkum","admin3":""},{"geonameid":2756411,"name":"Eekwerd","admin3":""},{"geonameid":2756410,"name":"Eekwerderdraai","admin3":""},{"geonameid":2756355,"name":"Eenum","admin3":""},{"geonameid":2756354,"name":"Eenumerhoogte","admin3":""},{"geonameid":2756061,"name":"Enzelens","admin3":""},{"geonameid":2755849,"name":"Fraamklap","admin3":""},{"geonameid":2755725,"name":"Garrelsweer","admin3":""},{"geonameid":2755720,"name":"Garsthuizen","admin3":""},{"geonameid":2754011,"name":"Hoeksmeer","admin3":""},{"geonameid":6544913,"name":"Honderd","admin3":""},{"geonameid":2753460,"name":"Huizinge","admin3":""},{"geonameid":2752532,"name":"Kolhol","admin3":""},{"geonameid":2751803,"name":"Leermens","admin3":""},{"geonameid":2751429,"name":"Loppersum","admin3":""},{"geonameid":2751373,"name":"Lutjerijp","admin3":""},{"geonameid":2751370,"name":"Lutjewijtwerd","admin3":""},{"geonameid":2750931,"name":"Merum","admin3":""},{"geonameid":2750868,"name":"Middelstum","admin3":""},{"geonameid":2749394,"name":"Oosterwijtwerd","admin3":""},{"geonameid":2746832,"name":"Startenhuizen","admin3":""},{"geonameid":2746813,"name":"Stedum","admin3":""},{"geonameid":2746652,"name":"Stork","admin3":""},{"geonameid":2746028,"name":"t Zandstervoorwerk","admin3":""},{"geonameid":2746027,"name":"t Zandt","admin3":""},{"geonameid":2746450,"name":"Terhorn","admin3":""},{"geonameid":2746198,"name":"Toornwerd","admin3":""},{"geonameid":2745569,"name":"Vierburen","admin3":""},{"geonameid":2744753,"name":"Westeremden","admin3":""},{"geonameid":6544925,"name":"Westeremder Voorwerk","admin3":""},{"geonameid":2744671,"name":"Westerwijtwerd","admin3":""},{"geonameid":2744326,"name":"Wirdum","admin3":""},{"geonameid":2744325,"name":"Wirdumerdraai","admin3":""},{"geonameid":2744003,"name":"Zeerijp","admin3":""},{"geonameid":2743893,"name":"Zijldijk","admin3":""}],"admin3":[],"alternateNames":[{"alternatenameId":11907791,"geonameid":2755249,"isoLanguage":"de","alternateName":"Groningen","isPreferredName":true,"isShortName":true,"isColloquial":false,"isHistoric":false}]},"__N_SSG":true}