{"pageProps":{"locale":"en","admin2":{"geonameid":2757339,"name":"Gemeente Delfzijl","country":"NL","admin1":"04","admin2":"0010","admin3":"","latitude":"53.3001900","longitude":"6.9312900"},"admin1":{"geonameid":2755249,"name":"Provincie Groningen","admin1":"04"},"locations":[{"geonameid":2759783,"name":"Amsweer","admin3":""},{"geonameid":2759648,"name":"Arwerd","admin3":""},{"geonameid":2759569,"name":"Baamsum","admin3":""},{"geonameid":2758983,"name":"Bierum","admin3":""},{"geonameid":2758970,"name":"Biessum","admin3":""},{"geonameid":2758607,"name":"Borgsweer","admin3":""},{"geonameid":2757846,"name":"Dallingeweer","admin3":""},{"geonameid":2757441,"name":"Dekkershuizen","admin3":""},{"geonameid":2757340,"name":"Delfzijl","admin3":""},{"geonameid":2755929,"name":"Farmsum","admin3":""},{"geonameid":2755912,"name":"Fiemel","admin3":""},{"geonameid":2755692,"name":"Geefsweer","admin3":""},{"geonameid":2755489,"name":"Godlinze","admin3":""},{"geonameid":2755312,"name":"Grijzemonnikenklooster","admin3":""},{"geonameid":2754114,"name":"Heveskes","admin3":""},{"geonameid":2754113,"name":"Heveskesklooster","admin3":""},{"geonameid":2753846,"name":"Holwierde","admin3":""},{"geonameid":2753665,"name":"Hoogwatum","admin3":""},{"geonameid":2752703,"name":"Kleine Wierum","admin3":""},{"geonameid":2752438,"name":"Kopaf","admin3":""},{"geonameid":2752275,"name":"Krewerd","admin3":""},{"geonameid":2752220,"name":"Kroonstad","admin3":""},{"geonameid":2752062,"name":"Ladysmith","admin3":""},{"geonameid":2752002,"name":"Lalleweer","admin3":""},{"geonameid":2751706,"name":"Lesterhuis","admin3":""},{"geonameid":2751426,"name":"Losdorp","admin3":""},{"geonameid":2751065,"name":"Meedhuizen","admin3":""},{"geonameid":2750506,"name":"Nansum","admin3":""},{"geonameid":2750127,"name":"Nieuwstad","admin3":""},{"geonameid":2750083,"name":"Nijenklooster","admin3":""},{"geonameid":2750004,"name":"Nooitgedacht","admin3":""},{"geonameid":2749645,"name":"Oldenklooster","admin3":""},{"geonameid":2749287,"name":"Opmeeden","admin3":""},{"geonameid":2749209,"name":"Oterdum","admin3":""},{"geonameid":2748518,"name":"Polen","admin3":""},{"geonameid":2747741,"name":"Schaapbulten","admin3":""},{"geonameid":2746935,"name":"Spijk","admin3":""},{"geonameid":2746428,"name":"Termunten","admin3":""},{"geonameid":2746426,"name":"Termunterzijl","admin3":""},{"geonameid":2746131,"name":"Tuikwerd","admin3":""},{"geonameid":2746067,"name":"Tweehuizen","admin3":""},{"geonameid":2745987,"name":"Uiteinde","admin3":""},{"geonameid":2745959,"name":"Uitwierde","admin3":""},{"geonameid":2745552,"name":"Vierhuizen","admin3":""},{"geonameid":2745090,"name":"Wagenborgen","admin3":""},{"geonameid":2744997,"name":"Wartumerklap","admin3":""},{"geonameid":2744873,"name":"Weiwerd","admin3":""},{"geonameid":2744228,"name":"Woldendorp","admin3":""},{"geonameid":2743849,"name":"Zomerdijk","admin3":""}],"admin3":[],"alternateNames":[{"alternatenameId":11907791,"geonameid":2755249,"isoLanguage":"de","alternateName":"Groningen","isPreferredName":true,"isShortName":true,"isColloquial":false,"isHistoric":false}]},"__N_SSG":true}