{"pageProps":{"locale":"ro","admin2":{"geonameid":685618,"name":"Comuna Bălileşti","country":"RO","admin1":"03","admin2":"14272","admin3":"","latitude":"45.0798100","longitude":"24.9394300"},"admin1":{"geonameid":686192,"name":"Argeş","admin1":"03"},"locations":[{"geonameid":685750,"name":"Băjești","admin3":""},{"geonameid":685749,"name":"Băjeştii Mari","admin3":""},{"geonameid":685748,"name":"Băjeştii Mici","admin3":""},{"geonameid":685620,"name":"Bălileşti","admin3":""},{"geonameid":676947,"name":"Golești","admin3":""},{"geonameid":676939,"name":"Goleştii Vulpeşti","admin3":""},{"geonameid":676730,"name":"Grigoreni","admin3":""},{"geonameid":670197,"name":"Poienița","admin3":""},{"geonameid":669657,"name":"Priboaia","admin3":""},{"geonameid":668702,"name":"Româneşti","admin3":""},{"geonameid":665743,"name":"Surdeni","admin3":""},{"geonameid":664324,"name":"Ulița","admin3":""},{"geonameid":663608,"name":"Valea Mare","admin3":""},{"geonameid":663602,"name":"Valea Mare-Bratia","admin3":""},{"geonameid":663517,"name":"Valea Podului","admin3":""}],"admin3":[],"alternateNames":[]},"__N_SSG":true}