{"pageProps":{"locale":"ro","admin2":{"geonameid":678865,"name":"Comuna Drajna de Sus","country":"RO","admin1":"30","admin2":"132896","admin3":"","latitude":"45.2435200","longitude":"26.0760100"},"admin1":{"geonameid":669737,"name":"Prahova","admin1":"30"},"locations":[{"geonameid":682531,"name":"Cătunu","admin3":""},{"geonameid":681708,"name":"Ciocrac","admin3":""},{"geonameid":678868,"name":"Drajna de Jos","admin3":""},{"geonameid":678866,"name":"Drajna de Sus","admin3":""},{"geonameid":678491,"name":"Făget","admin3":""},{"geonameid":671936,"name":"Ogretin","admin3":""},{"geonameid":670916,"name":"Piatra","admin3":""},{"geonameid":670601,"name":"Pițigoi","admin3":""},{"geonameid":670569,"name":"Plai","admin3":""},{"geonameid":670267,"name":"Podurile","admin3":""},{"geonameid":670050,"name":"Poiana Mierlei","admin3":""}],"admin3":[],"alternateNames":[{"alternatenameId":8326236,"geonameid":669737,"isoLanguage":"en","alternateName":"Prahova","isPreferredName":true,"isShortName":true,"isColloquial":false,"isHistoric":false}]},"__N_SSG":true}