{"pageProps":{"locale":"ro","admin2":{"geonameid":8334852,"name":"Oraş Urlaţi","country":"RO","admin1":"30","admin2":"131620","admin3":"","latitude":"44.9969200","longitude":"26.2437700"},"admin1":{"geonameid":669737,"name":"Prahova","admin1":"30"},"locations":[{"geonameid":686155,"name":"Arioneștii Noi","admin3":""},{"geonameid":686154,"name":"Arioneștii Vechi","admin3":""},{"geonameid":682196,"name":"Cherba","admin3":""},{"geonameid":680220,"name":"Crângu","admin3":""},{"geonameid":675276,"name":"Jercălăi","admin3":""},{"geonameid":673717,"name":"Mărunțiș","admin3":""},{"geonameid":671667,"name":"Orzoaia de Jos","admin3":""},{"geonameid":671666,"name":"Orzoaia de Sus","admin3":""},{"geonameid":11001881,"name":"Schiau","admin3":""},{"geonameid":664292,"name":"Ulmi","admin3":""},{"geonameid":664150,"name":"Urlaţi","admin3":""},{"geonameid":663900,"name":"Valea Bobului","admin3":""},{"geonameid":663815,"name":"Valea Crângului","admin3":""},{"geonameid":663735,"name":"Valea Humei","admin3":""},{"geonameid":663734,"name":"Valea Iarului","admin3":""},{"geonameid":663582,"name":"Valea Mieilor","admin3":""},{"geonameid":663546,"name":"Valea Nucetului","admin3":""},{"geonameid":663521,"name":"Valea Pietrei","admin3":""},{"geonameid":663418,"name":"Valea Seacă","admin3":""},{"geonameid":663404,"name":"Valea Seman","admin3":""},{"geonameid":663338,"name":"Valea Urloii","admin3":""}],"admin3":[],"alternateNames":[{"alternatenameId":8326236,"geonameid":669737,"isoLanguage":"en","alternateName":"Prahova","isPreferredName":true,"isShortName":true,"isColloquial":false,"isHistoric":false}]},"__N_SSG":true}