{"pageProps":{"locale":"ro","admin2":{"geonameid":667093,"name":"Comuna Simoneşti","country":"RO","admin1":"20","admin2":"85984","admin3":"","latitude":"46.3546600","longitude":"25.1132500"},"admin1":{"geonameid":676309,"name":"Harghita","admin1":"20"},"locations":[{"geonameid":685094,"name":"Bențid","admin3":""},{"geonameid":683063,"name":"Cădaciu Mare","admin3":""},{"geonameid":683062,"name":"Cădaciu Mic","admin3":""},{"geonameid":682443,"name":"Cehețel","admin3":""},{"geonameid":682225,"name":"Chedia Mare","admin3":""},{"geonameid":682224,"name":"Chedia Mică","admin3":""},{"geonameid":681254,"name":"Cobătești","admin3":""},{"geonameid":673627,"name":"Medișoru Mare","admin3":""},{"geonameid":673394,"name":"Mihăileni","admin3":""},{"geonameid":672261,"name":"Nicoleni","admin3":""},{"geonameid":668513,"name":"Rugănești","admin3":""},{"geonameid":667094,"name":"Simoneşti","admin3":""},{"geonameid":665514,"name":"Tărcești","admin3":""},{"geonameid":664455,"name":"Turdeni","admin3":""}],"admin3":[],"alternateNames":[]},"__N_SSG":true}