{"pageProps":{"locale":"ro","admin2":{"geonameid":662273,"name":"Comuna Zătreni","country":"RO","admin1":"39","admin2":"174290","admin3":"","latitude":"44.7706900","longitude":"23.8432000"},"admin1":{"geonameid":662892,"name":"Vâlcea","admin1":"39"},"locations":[{"geonameid":684694,"name":"Biserica","admin3":""},{"geonameid":683168,"name":"Butanu","admin3":""},{"geonameid":681635,"name":"Ciortești","admin3":""},{"geonameid":679637,"name":"Dealu Glămeia","admin3":""},{"geonameid":679574,"name":"Dealu Văleni","admin3":""},{"geonameid":678384,"name":"Făurești","admin3":""},{"geonameid":673914,"name":"Mănicea","admin3":""},{"geonameid":673643,"name":"Mecea","admin3":""},{"geonameid":671826,"name":"Oltețu","admin3":""},{"geonameid":671369,"name":"Păpălăi","admin3":""},{"geonameid":667921,"name":"Sășcioara","admin3":""},{"geonameid":666274,"name":"Stanomiru","admin3":""},{"geonameid":663322,"name":"Valea Văleni","admin3":""},{"geonameid":663293,"name":"Văleni","admin3":""},{"geonameid":662274,"name":"Zătreni","admin3":""},{"geonameid":662272,"name":"Zătreni-Biserica","admin3":""},{"geonameid":662271,"name":"Zătrenii de Sus","admin3":""}],"admin3":[],"alternateNames":[]},"__N_SSG":true}