{"pageProps":{"locale":"ro","admin2":{"geonameid":683593,"name":"Comuna Buceş","country":"RO","admin1":"21","admin2":"88788","admin3":"","latitude":"46.1913000","longitude":"22.9771800"},"admin1":{"geonameid":675917,"name":"Hunedoara","admin1":"21"},"locations":[{"geonameid":684130,"name":"Borzeşti","admin3":""},{"geonameid":683937,"name":"Brădineşti","admin3":""},{"geonameid":683594,"name":"Buceş","admin3":""},{"geonameid":683590,"name":"Buceș-Vulcan","admin3":""},{"geonameid":681929,"name":"Câinele","admin3":""},{"geonameid":680797,"name":"Cornăţel","admin3":""},{"geonameid":678614,"name":"După Piatră","admin3":""},{"geonameid":678615,"name":"Dupăpiatră","admin3":""},{"geonameid":676686,"name":"Grohoțele","admin3":""},{"geonameid":674139,"name":"Măgura","admin3":""},{"geonameid":673806,"name":"Marginea","admin3":""},{"geonameid":673395,"name":"Mihăileni","admin3":""},{"geonameid":667353,"name":"Şerboaia","admin3":""},{"geonameid":666289,"name":"Stănija","admin3":""},{"geonameid":665489,"name":"Tarnița","admin3":""},{"geonameid":663497,"name":"Valea Porcului","admin3":""}],"admin3":[],"alternateNames":[]},"__N_SSG":true}