{"pageProps":{"locale":"en","admin2":{"geonameid":4488575,"name":"Rockingham County","country":"US","admin1":"NC","admin2":"157","admin3":"","latitude":"36.3960800","longitude":"-79.7751500","localeAltName":null},"admin1":{"geonameid":4482348,"name":"North Carolina","admin1":"NC","localeAltName":"North Carolina"},"locations":[{"geonameid":4464873,"name":"Eden","admin3":"91752","localeAltName":null},{"geonameid":4477732,"name":"Madison","admin3":"91956","localeAltName":null},{"geonameid":4478408,"name":"Mayodan","admin3":"91956","localeAltName":null},{"geonameid":4487682,"name":"Reidsville","admin3":"92652","localeAltName":null},{"geonameid":4493592,"name":"Stoneville","admin3":"92020","localeAltName":null},{"geonameid":4498056,"name":"Wentworth","admin3":"93936","localeAltName":null}],"admin3":[{"geonameid":4472412,"name":"Township of Huntsville","admin3":"91564"},{"geonameid":4475420,"name":"Township of Leaksville","admin3":"91752","localeAltName":null},{"geonameid":4477745,"name":"Township of Madison","admin3":"91956","localeAltName":null},{"geonameid":4478433,"name":"Township of Mayo","admin3":"92020","localeAltName":null},{"geonameid":4481713,"name":"Township of New Bethel","admin3":"92232"},{"geonameid":4486514,"name":"Township of Price","admin3":"92568"},{"geonameid":4487654,"name":"Township of Reidsville","admin3":"92652","localeAltName":null},{"geonameid":4489265,"name":"Township of Ruffin","admin3":"92772"},{"geonameid":4491810,"name":"Township of Simpsonville","admin3":"92960"},{"geonameid":4498061,"name":"Township of Wentworth","admin3":"93936","localeAltName":null},{"geonameid":4499280,"name":"Township of Williamsburg","admin3":"94032"}],"alternateNames":[{"alternatenameId":2089560,"geonameid":4482348,"isoLanguage":"en","alternateName":"North Carolina","isPreferredName":true,"isShortName":true,"isColloquial":false,"isHistoric":false}]},"__N_SSG":true}