{"pageProps":{"locale":"en","admin2":{"geonameid":4493238,"name":"Stanly County","country":"US","admin1":"NC","admin2":"167","admin3":"","latitude":"35.3119900","longitude":"-80.2509200","localeAltName":null},"admin1":{"geonameid":4482348,"name":"North Carolina","admin1":"NC","localeAltName":"North Carolina"},"locations":[{"geonameid":4452303,"name":"Albemarle","admin3":"93028","localeAltName":null},{"geonameid":4453351,"name":"Badin","admin3":"92296","localeAltName":null},{"geonameid":4476786,"name":"Locust","admin3":"91196","localeAltName":null},{"geonameid":4479619,"name":"Millingport","admin3":"90048","localeAltName":null},{"geonameid":4479779,"name":"Misenheimer","admin3":"92680","localeAltName":null},{"geonameid":4481941,"name":"New London","admin3":"91416","localeAltName":null},{"geonameid":4482693,"name":"Norwood","admin3":"90596","localeAltName":null},{"geonameid":4482973,"name":"Oakboro","admin3":"90264","localeAltName":null},{"geonameid":4487360,"name":"Red Cross","admin3":"90264","localeAltName":null},{"geonameid":4487912,"name":"Richfield","admin3":"91416","localeAltName":null},{"geonameid":4493215,"name":"Stanfield","admin3":"91196","localeAltName":null}],"admin3":[{"geonameid":4452525,"name":"Township of Almond","admin3":"90048","localeAltName":null},{"geonameid":4455799,"name":"Township of Big Lick","admin3":"90264","localeAltName":null},{"geonameid":4460006,"name":"Township of Center","admin3":"90596","localeAltName":null},{"geonameid":4465363,"name":"Township of Endy","admin3":"91032"},{"geonameid":4467490,"name":"Township of Furr","admin3":"91196","localeAltName":null},{"geonameid":4470108,"name":"Township of Harris","admin3":"91416","localeAltName":null},{"geonameid":4482298,"name":"Township of North Albemarle","admin3":"92296","localeAltName":null},{"geonameid":4487990,"name":"Township of Ridenhour","admin3":"92680","localeAltName":null},{"geonameid":4492489,"name":"Township of South Albemarle","admin3":"93028","localeAltName":null},{"geonameid":4496090,"name":"Township of Tyson","admin3":"93800"}],"alternateNames":[{"alternatenameId":2089560,"geonameid":4482348,"isoLanguage":"en","alternateName":"North Carolina","isPreferredName":true,"isShortName":true,"isColloquial":false,"isHistoric":false}]},"__N_SSG":true}