{"pageProps":{"locale":"en","admin2":{"geonameid":4710229,"name":"McLennan County","country":"US","admin1":"TX","admin2":"309","admin3":"","latitude":"31.5523800","longitude":"-97.2017900","localeAltName":null},"admin1":{"geonameid":4736286,"name":"Texas","admin1":"TX","localeAltName":"Texas"},"locations":[{"geonameid":4673389,"name":"Bellmead","admin3":"","localeAltName":null},{"geonameid":4674001,"name":"Beverly","admin3":"","localeAltName":null},{"geonameid":4674006,"name":"Beverly Hills","admin3":"","localeAltName":null},{"geonameid":4676794,"name":"Bruceville-Eddy","admin3":"","localeAltName":null},{"geonameid":4684084,"name":"Crawford","admin3":"","localeAltName":null},{"geonameid":4693426,"name":"Gholson","admin3":"","localeAltName":null},{"geonameid":4695893,"name":"Hallsburg","admin3":"","localeAltName":null},{"geonameid":4697330,"name":"Hewitt","admin3":"","localeAltName":null},{"geonameid":4704238,"name":"Lacy-Lakeview","admin3":"","localeAltName":null},{"geonameid":4707868,"name":"Lorena","admin3":"","localeAltName":null},{"geonameid":4709320,"name":"Mart","admin3":"","localeAltName":null},{"geonameid":4710129,"name":"McGregor","admin3":"","localeAltName":null},{"geonameid":4712097,"name":"Moody","admin3":"","localeAltName":null},{"geonameid":4715411,"name":"Northcrest","admin3":"","localeAltName":null},{"geonameid":4722757,"name":"Riesel","admin3":"","localeAltName":null},{"geonameid":4723165,"name":"Robinson","admin3":"","localeAltName":null},{"geonameid":4739526,"name":"Waco","admin3":"","localeAltName":null},{"geonameid":4740686,"name":"West","admin3":"","localeAltName":null},{"geonameid":4743105,"name":"Woodway","admin3":"","localeAltName":null}],"admin3":[{"geonameid":4676793,"name":"City of Bruceville-Eddy","admin3":"4676793"},{"geonameid":7173008,"name":"City of Bellmead","admin3":"7173008"},{"geonameid":7173017,"name":"City of Beverly Hills","admin3":"7173017"},{"geonameid":7173488,"name":"City of Gholson","admin3":"7173488"},{"geonameid":7173567,"name":"City of Hallsburg","admin3":"7173567"},{"geonameid":7173612,"name":"City of Hewitt","admin3":"7173612"},{"geonameid":7173665,"name":"City of Leroy","admin3":"7173665"},{"geonameid":7173698,"name":"City of Lorena","admin3":"7173698"},{"geonameid":7173750,"name":"City of Riesel","admin3":"7173750"},{"geonameid":7173769,"name":"City of Robinson","admin3":"7173769"},{"geonameid":7173789,"name":"City of Ross","admin3":"7173789"},{"geonameid":7173815,"name":"City of Mart","admin3":"7173815"},{"geonameid":7173831,"name":"City of McGregor","admin3":"7173831"},{"geonameid":7173888,"name":"City of Moody","admin3":"7173888"},{"geonameid":7174211,"name":"City of Lacy-Lakeview","admin3":"7174211"},{"geonameid":7174634,"name":"City of Waco","admin3":"7174634"},{"geonameid":7174676,"name":"City of West","admin3":"7174676"},{"geonameid":7174738,"name":"City of Woodway","admin3":"7174738"},{"geonameid":7174807,"name":"Town of Crawford","admin3":"7174807"}],"alternateNames":[{"alternatenameId":1614423,"geonameid":4736286,"isoLanguage":"en","alternateName":"Texas","isPreferredName":true,"isShortName":true,"isColloquial":false,"isHistoric":false}]},"__N_SSG":true}