{"pageProps":{"locale":"en","admin2":{"geonameid":4712390,"name":"Morris County","country":"US","admin1":"TX","admin2":"343","admin3":"","latitude":"33.1134800","longitude":"-94.7326500","localeAltName":null},"admin1":{"geonameid":4736286,"name":"Texas","admin1":"TX","localeAltName":"Texas"},"locations":[{"geonameid":4684858,"name":"Daingerfield","admin3":"","localeAltName":null},{"geonameid":4707479,"name":"Lone Star","admin3":"","localeAltName":null},{"geonameid":4713782,"name":"Naples","admin3":"","localeAltName":null},{"geonameid":4716696,"name":"Omaha","admin3":"","localeAltName":null}],"admin3":[{"geonameid":7173272,"name":"City of Daingerfield","admin3":"7173272"},{"geonameid":7173689,"name":"City of Lone Star","admin3":"7173689"},{"geonameid":7173928,"name":"City of Naples","admin3":"7173928"},{"geonameid":7174016,"name":"City of Omaha","admin3":"7174016"}],"alternateNames":[{"alternatenameId":1614423,"geonameid":4736286,"isoLanguage":"en","alternateName":"Texas","isPreferredName":true,"isShortName":true,"isColloquial":false,"isHistoric":false}]},"__N_SSG":true}