{"pageProps":{"locale":"en","admin2":{"geonameid":3333125,"name":"City and Borough of Birmingham","country":"GB","admin1":"ENG","admin2":"A7","admin3":"","latitude":"52.4804800","longitude":"-1.8982300","localeAltName":"Birmingham"},"admin1":{"geonameid":6269131,"name":"England","admin1":"ENG","localeAltName":"England"},"locations":[{"geonameid":2657703,"name":"Acocks Green","admin3":"","localeAltName":null},{"geonameid":2656867,"name":"Aston","admin3":"","localeAltName":null},{"geonameid":7302130,"name":"Bartley Green","admin3":"47UB","localeAltName":null},{"geonameid":2655603,"name":"Birmingham","admin3":"","localeAltName":null},{"geonameid":2655094,"name":"Bournville","admin3":"","localeAltName":null},{"geonameid":11778104,"name":"Castle Vale","admin3":"","localeAltName":null},{"geonameid":11887250,"name":"Digbeth","admin3":"","localeAltName":null},{"geonameid":2650236,"name":"Edgbaston","admin3":"47UB","localeAltName":null},{"geonameid":2649951,"name":"Erdington","admin3":"","localeAltName":null},{"geonameid":2649131,"name":"Four Oaks","admin3":"","localeAltName":null},{"geonameid":11550626,"name":"Gravelly Hill","admin3":"","localeAltName":null},{"geonameid":8604608,"name":"Hall Green","admin3":"","localeAltName":null},{"geonameid":11551175,"name":"Handsworth","admin3":"","localeAltName":null},{"geonameid":2647508,"name":"Harborne","admin3":"","localeAltName":null},{"geonameid":2647255,"name":"Hay Mills","admin3":"00CT005","localeAltName":null},{"geonameid":2646814,"name":"Hockley","admin3":"","localeAltName":null},{"geonameid":11281384,"name":"Kings Heath","admin3":"","localeAltName":null},{"geonameid":2645450,"name":"Kings Norton","admin3":"","localeAltName":null},{"geonameid":2646737,"name":"Kingstanding","admin3":"","localeAltName":null},{"geonameid":2643716,"name":"Longbridge","admin3":"","localeAltName":null},{"geonameid":2642149,"name":"Moseley","admin3":"","localeAltName":null},{"geonameid":11778063,"name":"Nechells","admin3":"","localeAltName":null},{"geonameid":2641355,"name":"Northfield","admin3":"","localeAltName":null},{"geonameid":2640363,"name":"Perry Barr","admin3":"41UD","localeAltName":null},{"geonameid":2639762,"name":"Quinton","admin3":"","localeAltName":null},{"geonameid":11807694,"name":"Rednal","admin3":"","localeAltName":null},{"geonameid":6694235,"name":"Roughley","admin3":"41UD","localeAltName":null},{"geonameid":2639001,"name":"Rubery","admin3":"","localeAltName":null},{"geonameid":2638635,"name":"Saltley","admin3":"00CT005","localeAltName":null},{"geonameid":2638221,"name":"Selly Oak","admin3":"47UB","localeAltName":null},{"geonameid":10345361,"name":"Selly Park","admin3":"","localeAltName":null},{"geonameid":2638071,"name":"Sheldon","admin3":"","localeAltName":null},{"geonameid":11550610,"name":"Short Heath","admin3":"","localeAltName":null},{"geonameid":2637618,"name":"Small Heath","admin3":"47UB","localeAltName":null},{"geonameid":11611170,"name":"Sparkbrook","admin3":"","localeAltName":null},{"geonameid":11611169,"name":"Sparkhill","admin3":"","localeAltName":null},{"geonameid":2636979,"name":"Stechford","admin3":"00CT005","localeAltName":null},{"geonameid":2636486,"name":"Sutton Coldfield","admin3":"","localeAltName":null},{"geonameid":11550629,"name":"Tile Cross","admin3":"","localeAltName":null},{"geonameid":2635287,"name":"Tyburn","admin3":"00CT005","localeAltName":null},{"geonameid":2635258,"name":"Tyseley","admin3":"47UB","localeAltName":null},{"geonameid":12076699,"name":"Washwood Heath","admin3":"","localeAltName":null},{"geonameid":11550631,"name":"West Heath","admin3":"","localeAltName":null},{"geonameid":2633724,"name":"Witton","admin3":"","localeAltName":null},{"geonameid":2633452,"name":"Wylde Green","admin3":"","localeAltName":null},{"geonameid":2633419,"name":"Yardley","admin3":"00CT005","localeAltName":null}],"admin3":[{"geonameid":7300538,"name":"New Frankley in Birmingham","admin3":"00CN001"}],"alternateNames":[{"alternatenameId":2184556,"geonameid":3333125,"isoLanguage":"en","alternateName":"Birmingham","isPreferredName":true,"isShortName":true,"isColloquial":false,"isHistoric":false},{"alternatenameId":1626647,"geonameid":6269131,"isoLanguage":"en","alternateName":"England","isPreferredName":true,"isShortName":true,"isColloquial":false,"isHistoric":false}]},"__N_SSG":true}