{"pageProps":{"locale":"en","admin2":{"geonameid":3333165,"name":"City of Leicester","country":"GB","admin1":"ENG","admin2":"H4","admin3":"","latitude":"52.6333300","longitude":"-1.1333300","localeAltName":"Leicester"},"admin1":{"geonameid":6269131,"name":"England","admin1":"ENG","localeAltName":"England"},"locations":[{"geonameid":2656715,"name":"Aylestone","admin3":"31UJ","localeAltName":null},{"geonameid":2646434,"name":"Humberstone","admin3":"31UC","localeAltName":null},{"geonameid":2644668,"name":"Leicester","admin3":"31UC","localeAltName":null},{"geonameid":11073426,"name":"Wolsey Island","admin3":"","localeAltName":null}],"admin3":[],"alternateNames":[{"alternatenameId":2432690,"geonameid":3333165,"isoLanguage":"en","alternateName":"Leicester","isPreferredName":true,"isShortName":true,"isColloquial":false,"isHistoric":false},{"alternatenameId":1626647,"geonameid":6269131,"isoLanguage":"en","alternateName":"England","isPreferredName":true,"isShortName":true,"isColloquial":false,"isHistoric":false}]},"__N_SSG":true}