{"pageProps":{"locale":"en","admin2":{"geonameid":5457180,"name":"Bernalillo County","country":"US","admin1":"NM","admin2":"001","admin3":"","latitude":"35.0513100","longitude":"-106.6701700"},"admin1":{"geonameid":5481136,"name":"New Mexico","admin1":"NM","localeAltName":"New Mexico"},"locations":[{"geonameid":5454711,"name":"Albuquerque","admin3":"","localeAltName":"Albuquerque"},{"geonameid":5460489,"name":"Carnuel","admin3":""},{"geonameid":5475667,"name":"Lee Acres","admin3":""},{"geonameid":5476960,"name":"Los Ranchos de Albuquerque","admin3":""},{"geonameid":5481793,"name":"North Valley","admin3":""},{"geonameid":5483380,"name":"Paradise Hills","admin3":""},{"geonameid":5484816,"name":"Ponderosa Pine","admin3":""},{"geonameid":5490090,"name":"Sandia Heights","admin3":""},{"geonameid":5490093,"name":"Sandia Knolls","admin3":""},{"geonameid":5492450,"name":"South Valley","admin3":""}],"admin3":[{"geonameid":11788846,"name":"City of Albuquerque","admin3":"11788846"}],"alternateNames":[{"alternatenameId":1609808,"geonameid":5454711,"isoLanguage":"en","alternateName":"Albuquerque","isPreferredName":true,"isShortName":true,"isColloquial":false,"isHistoric":false},{"alternatenameId":2124824,"geonameid":5481136,"isoLanguage":"en","alternateName":"New Mexico","isPreferredName":true,"isShortName":true,"isColloquial":false,"isHistoric":false}]},"__N_SSG":true}