{"pageProps":{"locale":"ro","admin2":{"geonameid":667592,"name":"Oraş Scorniceşti","country":"RO","admin1":"29","admin2":"128711","admin3":"","latitude":"44.5679000","longitude":"24.5539400"},"admin1":{"geonameid":671857,"name":"Olt","admin1":"29"},"locations":[{"geonameid":685549,"name":"Bălțați"},{"geonameid":684819,"name":"Bircii"},{"geonameid":681995,"name":"Chițeasca"},{"geonameid":680959,"name":"Constantinești"},{"geonameid":675487,"name":"Isăreşti"},{"geonameid":675209,"name":"Jitaru"},{"geonameid":673799,"name":"Mărgineni"},{"geonameid":673782,"name":"Mărgineni Slobozia"},{"geonameid":673405,"name":"Mihăilești Popești"},{"geonameid":672947,"name":"Mogoșești"},{"geonameid":672397,"name":"Negreni"},{"geonameid":670662,"name":"Piscani"},{"geonameid":668414,"name":"Rusciori"},{"geonameid":667593,"name":"Scorniceşti"},{"geonameid":665801,"name":"Șuica"},{"geonameid":665800,"name":"Şuica de Sus"},{"geonameid":665463,"name":"Tătărăi"},{"geonameid":665319,"name":"Teiuș"}],"admin3":[],"alternateNames":[]},"__N_SSG":true}