{"pageProps":{"locale":"en","admin2":{"geonameid":6077246,"name":"Montréal","country":"CA","admin1":"10","admin2":"06","admin3":"","latitude":"45.5000800","longitude":"-73.6824800"},"admin1":{"geonameid":6115047,"name":"Québec","admin1":"10"},"locations":[{"geonameid":5885369,"name":"Anjou","admin3":"66023"},{"geonameid":5890542,"name":"Baie-D'Urfé","admin3":"66112"},{"geonameid":5895650,"name":"Beaconsfield","admin3":"66107"},{"geonameid":5896547,"name":"Beaurepaire","admin3":"66107"},{"geonameid":5905868,"name":"Bordeaux","admin3":"66023"},{"geonameid":5916599,"name":"Cap-Saint-Jacques","admin3":"66023"},{"geonameid":5917781,"name":"Cartierville","admin3":"66023"},{"geonameid":5919582,"name":"Chameran","admin3":"66023"},{"geonameid":5926406,"name":"Communauté métropolitaine de Montréal","admin3":"66072"},{"geonameid":5928258,"name":"Cosmos","admin3":"66023"},{"geonameid":5928488,"name":"Côte-Saint-Luc","admin3":"66058"},{"geonameid":5940956,"name":"Dollard-Des Ormeaux","admin3":"66142"},{"geonameid":5941925,"name":"Dorval","admin3":"66087"},{"geonameid":5948061,"name":"Elm Park","admin3":"66142"},{"geonameid":5951028,"name":"Fairview","admin3":"66142"},{"geonameid":5966049,"name":"Greendale","admin3":"66023"},{"geonameid":5970014,"name":"Hampstead","admin3":"66058"},{"geonameid":5975176,"name":"Hillcrest Gardens","admin3":"66023"},{"geonameid":6064479,"name":"Hochelaga-Maisonneuve","admin3":"66023"},{"geonameid":5992830,"name":"Kirkland","admin3":"66102"},{"geonameid":6049212,"name":"L'An-Deux-Mille","admin3":"66023"},{"geonameid":6020354,"name":"Lacey Green","admin3":"66102"},{"geonameid":6545041,"name":"Lachine","admin3":"66023"},{"geonameid":6048649,"name":"Lakeroad","admin3":"66142"},{"geonameid":6048683,"name":"Lakeside Heights","admin3":"66097"},{"geonameid":6945990,"name":"LaSalle","admin3":"66023"},{"geonameid":6053284,"name":"Le Vieux-Port","admin3":"66023"},{"geonameid":6059888,"name":"Longue-Pointe","admin3":"66023"},{"geonameid":6077315,"name":"Mont-Royal","admin3":"66072"},{"geonameid":6077243,"name":"Montréal","admin3":"66023"},{"geonameid":6077251,"name":"Montréal-Est","admin3":"66007"},{"geonameid":6077265,"name":"Montréal-Ouest","admin3":"66047"},{"geonameid":6091314,"name":"Notre-Dame-de-Grâce","admin3":"66023"},{"geonameid":6091431,"name":"Notre-Dame-des-Victoires","admin3":"66023"},{"geonameid":6104319,"name":"Pierrefonds","admin3":"66023"},{"geonameid":6107171,"name":"Pointe-aux-Trembles","admin3":"66023"},{"geonameid":6107325,"name":"Pointe-Claire","admin3":"66097"},{"geonameid":6122776,"name":"Riviera","admin3":"66023"},{"geonameid":6128682,"name":"Roxboro","admin3":"66023"},{"geonameid":6138353,"name":"Saint-Hippolyte","admin3":"66023"},{"geonameid":6138610,"name":"Saint-Laurent","admin3":"66072"},{"geonameid":6138625,"name":"Saint-Léonard","admin3":"66023"},{"geonameid":6138791,"name":"Saint-Michel","admin3":"66023"},{"geonameid":6138936,"name":"Saint-Pierre","admin3":"66023"},{"geonameid":6138980,"name":"Saint-Raymond","admin3":"66023"},{"geonameid":6137733,"name":"Sainte-Anne-de-Bellevue","admin3":"66117"},{"geonameid":6137896,"name":"Sainte-Geneviève","admin3":"66023"},{"geonameid":6141115,"name":"Saraguay","admin3":"66023"},{"geonameid":6159579,"name":"Sunnybrooke","admin3":"66142"},{"geonameid":6165650,"name":"Thorndale","admin3":"66023"},{"geonameid":6166695,"name":"Timberlea Trail","admin3":"66102"},{"geonameid":10175251,"name":"Trudeau","admin3":"66087"},{"geonameid":6173767,"name":"Verdun","admin3":"66023"},{"geonameid":6174216,"name":"Vieux-Saint-Laurent","admin3":"66023"},{"geonameid":6174348,"name":"Villeray","admin3":"66023"},{"geonameid":6179291,"name":"West Park","admin3":"66142"},{"geonameid":6179194,"name":"Westminster","admin3":"66142"},{"geonameid":6179226,"name":"Westmount","admin3":"66032"},{"geonameid":6179585,"name":"Westwood","admin3":"66142"},{"geonameid":6185778,"name":"Youville","admin3":"66023"}],"admin3":[{"geonameid":8672553,"name":"Kirkland","admin3":"66102"},{"geonameid":8672592,"name":"Beaconsfield","admin3":"66107"},{"geonameid":8672593,"name":"Mont-Royal","admin3":"66072"},{"geonameid":8672772,"name":"Senneville","admin3":"66127"},{"geonameid":8673482,"name":"L'Île-Dorval","admin3":"66092"},{"geonameid":8673556,"name":"Hampstead","admin3":"66062"},{"geonameid":8673819,"name":"Dorval","admin3":"66087"},{"geonameid":8673832,"name":"Côte-Saint-Luc","admin3":"66058"},{"geonameid":8673843,"name":"Baie-D'Urfé","admin3":"66112"},{"geonameid":8673972,"name":"Montréal-Est","admin3":"66007"},{"geonameid":8674013,"name":"Sainte-Anne-de-Bellevue","admin3":"66117"},{"geonameid":8674046,"name":"Westmount","admin3":"66032"},{"geonameid":8674067,"name":"Dollard-Des Ormeaux","admin3":"66142"},{"geonameid":8674075,"name":"Montréal-Ouest","admin3":"66047"},{"geonameid":8674139,"name":"Montréal","admin3":"66023"},{"geonameid":8674189,"name":"Pointe-Claire","admin3":"66097"}],"alternateNames":[]},"__N_SSG":true}