{"pageProps":{"locale":"ro","admin2":{"geonameid":8334699,"name":"Comuna Dealu Morii","country":"RO","admin1":"04","admin2":"22237","admin3":"","latitude":"46.3087700","longitude":"27.2951100"},"admin1":{"geonameid":685947,"name":"Bacău","admin1":"04"},"locations":[{"geonameid":685690,"name":"Bălănești"},{"geonameid":685489,"name":"Banca"},{"geonameid":684623,"name":"Blaga"},{"geonameid":684517,"name":"Boboș"},{"geonameid":684471,"name":"Bodeasa"},{"geonameid":684097,"name":"Bostănești"},{"geonameid":683025,"name":"Calapodești"},{"geonameid":682515,"name":"Căuia"},{"geonameid":682514,"name":"Căuia de Sus"},{"geonameid":679604,"name":"Dealu Morii"},{"geonameid":679528,"name":"Deleni"},{"geonameid":679066,"name":"Dorofei"},{"geonameid":678749,"name":"Dumbrava"},{"geonameid":677339,"name":"Ghionoaia"},{"geonameid":676837,"name":"Grădești"},{"geonameid":676265,"name":"Hazu Moara Dediului"},{"geonameid":674639,"name":"Livezile"},{"geonameid":674024,"name":"Măldăreşti"},{"geonameid":673604,"name":"Meleşcani"},{"geonameid":672341,"name":"Negulești"},{"geonameid":668505,"name":"Ruget"},{"geonameid":665380,"name":"Tăvădărești"}],"admin3":[],"alternateNames":[]},"__N_SSG":true}