{"pageProps":{"locale":"de","admin2":{"geonameid":6458870,"name":"Bellinzona District","country":"CH","admin1":"TI","admin2":"2101","admin3":"","latitude":"46.1885800","longitude":"9.0025400"},"admin1":{"geonameid":2658370,"name":"Ticino","admin1":"TI"},"locations":[{"geonameid":2661567,"name":"Bellinzona","admin3":"5002"},{"geonameid":2661294,"name":"Cadenazzo","admin3":"5003"},{"geonameid":2661280,"name":"Camorino","admin3":"5002"},{"geonameid":2661160,"name":"Claro","admin3":"5002"},{"geonameid":2660603,"name":"Giubiasco","admin3":"5002"},{"geonameid":2660576,"name":"Gnosca","admin3":"5002"},{"geonameid":2660558,"name":"Gorduno","admin3":"5002"},{"geonameid":2660238,"name":"Isone","admin3":"5009"},{"geonameid":2659831,"name":"Lumino","admin3":"5010"},{"geonameid":2659641,"name":"Moleno","admin3":"5002"},{"geonameid":2659616,"name":"Monte Carasso","admin3":"5002"},{"geonameid":2659209,"name":"Pianezzo","admin3":"5002"},{"geonameid":2659004,"name":"Robasacco","admin3":"5003"},{"geonameid":2658632,"name":"Sementina","admin3":"5002"}],"admin3":[{"geonameid":2661732,"name":"Arbedo-Castione","admin3":"5001"},{"geonameid":7285189,"name":"Bellinzona","admin3":"5002"},{"geonameid":7285419,"name":"Cadenazzo","admin3":"5003"},{"geonameid":7285538,"name":"Comunanza Medeglia/Cadenazzo","admin3":"5391"},{"geonameid":7286152,"name":"Isone","admin3":"5009"},{"geonameid":7286389,"name":"Lumino","admin3":"5010"},{"geonameid":7287678,"name":"Sant'Antonino","admin3":"5017"}],"alternateNames":[]},"__N_SSG":true}