{"pageProps":{"locale":"de","admin2":{"geonameid":6458750,"name":"Locarno District","country":"CH","admin1":"TI","admin2":"2104","admin3":"","latitude":"46.1803300","longitude":"8.7599100"},"admin1":{"geonameid":2658370,"name":"Ticino","admin1":"TI"},"locations":[{"geonameid":2661698,"name":"Ascona","admin3":"5091"},{"geonameid":2661662,"name":"Avegno","admin3":"5396"},{"geonameid":2661442,"name":"Borgnone","admin3":"5397"},{"geonameid":2661391,"name":"Brione","admin3":"5399"},{"geonameid":2661388,"name":"Brissago","admin3":"5097"},{"geonameid":2661244,"name":"Caviano","admin3":"5398"},{"geonameid":2661128,"name":"Contone","admin3":"5398"},{"geonameid":2661116,"name":"Corippo","admin3":"5399"},{"geonameid":2661066,"name":"Cugnasco","admin3":"5138"},{"geonameid":2660729,"name":"Frasco","admin3":"5399"},{"geonameid":2660559,"name":"Gordola","admin3":"5108"},{"geonameid":2660265,"name":"Indemini","admin3":"5398"},{"geonameid":2660252,"name":"Intragna","admin3":"5397"},{"geonameid":2659988,"name":"Lavertezzo","admin3":"5112"},{"geonameid":2659869,"name":"Locarno","admin3":"5113"},{"geonameid":2659853,"name":"Losone","admin3":"5115"},{"geonameid":2659800,"name":"Magadino","admin3":"5398"},{"geonameid":2659682,"name":"Mergoscia","admin3":"5117"},{"geonameid":2659658,"name":"Minusio","admin3":"5118"},{"geonameid":2659573,"name":"Mosogno","admin3":"5136"},{"geonameid":6692335,"name":"Muralto","admin3":"5120"},{"geonameid":2659261,"name":"Palagnedra","admin3":"5397"},{"geonameid":2659205,"name":"Piazzogna","admin3":"5398"},{"geonameid":2658980,"name":"Ronco sopra Ascona","admin3":"5125"},{"geonameid":2658804,"name":"San Nazzaro","admin3":"5398"},{"geonameid":7282784,"name":"Scaiano","admin3":"5398"},{"geonameid":2658555,"name":"Sonogno","admin3":"5399"},{"geonameid":2658162,"name":"Vergeletto","admin3":"5136"},{"geonameid":2658152,"name":"Verscio","admin3":"5396"},{"geonameid":2658114,"name":"Vira","admin3":"5398"}],"admin3":[{"geonameid":7285107,"name":"Ascona","admin3":"5091"},{"geonameid":7285337,"name":"Brione sopra Minusio","admin3":"5096"},{"geonameid":7285340,"name":"Brissago","admin3":"5097"},{"geonameid":7285602,"name":"Cugnasco-Gerra","admin3":"5138"},{"geonameid":7285941,"name":"Gordola","admin3":"5108"},{"geonameid":7286288,"name":"Lavertezzo","admin3":"5112"},{"geonameid":7286361,"name":"Locarno","admin3":"5113"},{"geonameid":7286372,"name":"Losone","admin3":"5115"},{"geonameid":7286489,"name":"Mergoscia","admin3":"5117"},{"geonameid":7286509,"name":"Minusio","admin3":"5118"},{"geonameid":7286597,"name":"Muralto","admin3":"5120"},{"geonameid":7286742,"name":"Onsernone","admin3":"5136"},{"geonameid":7286754,"name":"Orselina","admin3":"5121"},{"geonameid":7286945,"name":"Ronco sopra Ascona","admin3":"5125"},{"geonameid":7287288,"name":"Tenero-Contra","admin3":"5131"},{"geonameid":8260337,"name":"Gambarogno","admin3":"5398"},{"geonameid":8260338,"name":"Centovalli","admin3":"5397"},{"geonameid":8740950,"name":"Terre di Pedemonte","admin3":"5396"},{"geonameid":12206811,"name":"Verzasca","admin3":"5399"}],"alternateNames":[]},"__N_SSG":true}