{"pageProps":{"locale":"en","admin2":{"geonameid":4839420,"name":"New London County","country":"US","admin1":"CT","admin2":"011","admin3":"","latitude":"41.4667800","longitude":"-72.1065000","localeAltName":null},"admin1":{"geonameid":4831725,"name":"Connecticut","admin1":"CT","localeAltName":"Connecticut"},"locations":[{"geonameid":5280920,"name":"Baltic","admin3":"71670","localeAltName":null},{"geonameid":7257804,"name":"Central Waterford","admin3":"80280","localeAltName":null},{"geonameid":5284283,"name":"Colchester","admin3":"15910","localeAltName":null},{"geonameid":7257357,"name":"Conning Towers-Nautilus Park","admin3":"34250","localeAltName":null},{"geonameid":4834837,"name":"Gales Ferry","admin3":"42600","localeAltName":null},{"geonameid":4835461,"name":"Groton","admin3":"34250","localeAltName":null},{"geonameid":4835472,"name":"Groton Long Point","admin3":"34250","localeAltName":null},{"geonameid":4836993,"name":"Jewett City","admin3":"33900","localeAltName":null},{"geonameid":4837648,"name":"Ledyard","admin3":"42600","localeAltName":null},{"geonameid":4837798,"name":"Lisbon","admin3":"","localeAltName":null},{"geonameid":4837916,"name":"Long Hill","admin3":"34250","localeAltName":null},{"geonameid":4838887,"name":"Montville Center","admin3":"48900","localeAltName":null},{"geonameid":4839141,"name":"Mystic","admin3":"73770","localeAltName":null},{"geonameid":4839416,"name":"New London","admin3":"52350","localeAltName":null},{"geonameid":4839521,"name":"Niantic","admin3":"23400","localeAltName":null},{"geonameid":4839568,"name":"Noank","admin3":"34250","localeAltName":null},{"geonameid":4839843,"name":"Norwich","admin3":"56270","localeAltName":null},{"geonameid":4840015,"name":"Old Mystic","admin3":"34250","localeAltName":null},{"geonameid":7257396,"name":"Oxoboxo River","admin3":"48900","localeAltName":null},{"geonameid":4840426,"name":"Pawcatuck","admin3":"73770","localeAltName":null},{"geonameid":4840983,"name":"Poquonock Bridge","admin3":"34250","localeAltName":null},{"geonameid":4841125,"name":"Preston City","admin3":"62150","localeAltName":null},{"geonameid":4842488,"name":"Salem","admin3":"66210","localeAltName":null},{"geonameid":4843735,"name":"Stonington","admin3":"73770","localeAltName":null},{"geonameid":4844602,"name":"Uncasville","admin3":"48900","localeAltName":null},{"geonameid":8480031,"name":"Waterford","admin3":"80280","localeAltName":null}],"admin3":[{"geonameid":4833475,"name":"Town of East Lyme","admin3":"23400","localeAltName":null},{"geonameid":4834768,"name":"Town of Franklin","admin3":"29910"},{"geonameid":4835452,"name":"Town of Griswold","admin3":"33900","localeAltName":null},{"geonameid":4835486,"name":"Town of Groton","admin3":"34250","localeAltName":null},{"geonameid":4837642,"name":"Town of Lebanon","admin3":"42390"},{"geonameid":4837659,"name":"Town of Ledyard","admin3":"42600","localeAltName":null},{"geonameid":4838084,"name":"Town of Lyme","admin3":"44210"},{"geonameid":4838891,"name":"Town of Montville","admin3":"48900","localeAltName":null},{"geonameid":4839433,"name":"Town of New London","admin3":"52350","localeAltName":null},{"geonameid":4839758,"name":"Town of North Stonington","admin3":"55500"},{"geonameid":4839859,"name":"Town of Norwich","admin3":"56270","localeAltName":null},{"geonameid":4840004,"name":"Town of Old Lyme","admin3":"57040"},{"geonameid":4841077,"name":"Town of Preston","admin3":"62150","localeAltName":null},{"geonameid":4842502,"name":"Town of Salem","admin3":"66210","localeAltName":null},{"geonameid":4843479,"name":"Town of Sprague","admin3":"71670","localeAltName":null},{"geonameid":4843755,"name":"Town of Stonington","admin3":"73770","localeAltName":null},{"geonameid":4844898,"name":"Town of Voluntown","admin3":"78600"},{"geonameid":4845233,"name":"Town of Waterford","admin3":"80280","localeAltName":null},{"geonameid":5282690,"name":"Town of Bozrah","admin3":"06820"},{"geonameid":5284289,"name":"Town of Colchester","admin3":"15910","localeAltName":null}],"alternateNames":[{"alternatenameId":1980080,"geonameid":4831725,"isoLanguage":"en","alternateName":"Connecticut","isPreferredName":true,"isShortName":true,"isColloquial":false,"isHistoric":false}]},"__N_SSG":true}