{"pageProps":{"locale":"de","admin2":{"geonameid":7285009,"name":"Riviera-Pays-d'Enhaut District","country":"CH","admin1":"VD","admin2":"2230","admin3":"","latitude":"46.4645900","longitude":"6.8849900"},"admin1":{"geonameid":2658182,"name":"Canton de Vaud","admin1":"VD"},"locations":[{"geonameid":2661468,"name":"Blonay","admin3":"5881"},{"geonameid":2661247,"name":"Caux","admin3":"5886"},{"geonameid":2661214,"name":"Chardonne","admin3":"5882"},{"geonameid":2661205,"name":"Château-d'Oex","admin3":"5841"},{"geonameid":6697711,"name":"Jongny","admin3":"5885"},{"geonameid":2660008,"name":"La Tour-de-Peilz","admin3":"5889"},{"geonameid":2659601,"name":"Montreux","admin3":"5886"},{"geonameid":2658961,"name":"Rossinière","admin3":"5842"},{"geonameid":2658945,"name":"Rougemont","admin3":"5843"},{"geonameid":2658145,"name":"Vevey","admin3":"5890"},{"geonameid":2658141,"name":"Veytaux","admin3":"5891"}],"admin3":[{"geonameid":7285272,"name":"Blonay","admin3":"5881"},{"geonameid":7285475,"name":"Chardonne","admin3":"5882"},{"geonameid":7285564,"name":"Corseaux","admin3":"5883"},{"geonameid":7285567,"name":"Corsier-sur-Vevey","admin3":"5884"},{"geonameid":7286165,"name":"Jongny","admin3":"5885"},{"geonameid":7286273,"name":"La Tour-de-Peilz","admin3":"5889"},{"geonameid":7286542,"name":"Montreux","admin3":"5886"},{"geonameid":7286956,"name":"Rossinière","admin3":"5842"},{"geonameid":7286964,"name":"Rougemont","admin3":"5843"},{"geonameid":7287030,"name":"Saint-Légier-La Chiésaz","admin3":"5888"},{"geonameid":7287444,"name":"Vevey","admin3":"5890"},{"geonameid":7287449,"name":"Veytaux","admin3":"5891"},{"geonameid":7287673,"name":"Château-d'Oex","admin3":"5841"}],"alternateNames":[]},"__N_SSG":true}