{"pageProps":{"locale":"en","admin2":{"geonameid":4507215,"name":"Brown County","country":"US","admin1":"OH","admin2":"015","admin3":"","latitude":"38.9340500","longitude":"-83.8674300","localeAltName":null},"admin1":{"geonameid":5165418,"name":"Ohio","admin1":"OH","localeAltName":"Ohio"},"locations":[{"geonameid":4504988,"name":"Aberdeen","admin3":"36834","localeAltName":null},{"geonameid":4512584,"name":"Georgetown","admin3":"63212","localeAltName":null},{"geonameid":4513572,"name":"Hamersville","admin3":"15224","localeAltName":null},{"geonameid":4519005,"name":"Mount Orab","admin3":"31696","localeAltName":null},{"geonameid":4522540,"name":"Ripley","admin3":"78232","localeAltName":null},{"geonameid":4523072,"name":"Russellville","admin3":"38528","localeAltName":null},{"geonameid":4523924,"name":"Sardinia","admin3":"81102","localeAltName":null}],"admin3":[{"geonameid":4507607,"name":"Township of Byrd","admin3":"10758"},{"geonameid":4508834,"name":"Township of Clark","admin3":"15224","localeAltName":null},{"geonameid":4510543,"name":"Township of Eagle","admin3":"23072"},{"geonameid":4512255,"name":"Township of Franklin","admin3":"28210"},{"geonameid":4513232,"name":"Township of Green","admin3":"31696","localeAltName":null},{"geonameid":4514856,"name":"Township of Huntington","admin3":"36834","localeAltName":null},{"geonameid":4515366,"name":"Township of Jackson","admin3":"37688"},{"geonameid":4515473,"name":"Township of Jefferson","admin3":"38528","localeAltName":null},{"geonameid":4516522,"name":"Township of Lewis","admin3":"42910"},{"geonameid":4521116,"name":"Township of Perry","admin3":"61770"},{"geonameid":4521263,"name":"Township of Pike","admin3":"62596"},{"geonameid":4521625,"name":"Township of Pleasant","admin3":"63212","localeAltName":null},{"geonameid":4524282,"name":"Township of Scott","admin3":"71066"},{"geonameid":4525471,"name":"Township of Sterling","admin3":"74559"},{"geonameid":4526889,"name":"Township of Union","admin3":"78232","localeAltName":null},{"geonameid":4527699,"name":"Township of Washington","admin3":"81102","localeAltName":null}],"alternateNames":[{"alternatenameId":2089549,"geonameid":5165418,"isoLanguage":"en","alternateName":"Ohio","isPreferredName":true,"isShortName":true,"isColloquial":false,"isHistoric":false}]},"__N_SSG":true}