{"pageProps":{"locale":"de","admin1":{"geonameid":2822542,"name":"Thuringia","country":"DE","admin1":"15","latitude":"50.9166700","longitude":"11.0000000","localeAltName":"Thüringen"},"admin2":[],"admin3":[{"geonameid":2957763,"name":"Altenburger Land","admin3":"16077","localeAltName":null},{"geonameid":6547387,"name":"Eichsfeld","admin3":"16061","localeAltName":null},{"geonameid":6547386,"name":"Eisenach","admin3":"16056","localeAltName":null},{"geonameid":6547391,"name":"Ilm-Kreis","admin3":"16070","localeAltName":null},{"geonameid":2929668,"name":"Kreisfreie Stadt Erfurt","admin3":"16051","localeAltName":null},{"geonameid":2921230,"name":"Kreisfreie Stadt Gera","admin3":"16052","localeAltName":null},{"geonameid":2895042,"name":"Kreisfreie Stadt Jena","admin3":"16053","localeAltName":null},{"geonameid":2824945,"name":"Kreisfreie Stadt Suhl","admin3":"16054","localeAltName":null},{"geonameid":2812479,"name":"Kreisfreie Stadt Weimar","admin3":"16055","localeAltName":null},{"geonameid":6547390,"name":"Kyffhäuserkreis","admin3":"16065","localeAltName":null},{"geonameid":2918750,"name":"Landkreis Gotha","admin3":"16067","localeAltName":null},{"geonameid":2917735,"name":"Landkreis Greiz","admin3":"16076","localeAltName":null},{"geonameid":2904803,"name":"Landkreis Hildburghausen","admin3":"16069","localeAltName":null},{"geonameid":2861979,"name":"Landkreis Nordhausen","admin3":"16062","localeAltName":null},{"geonameid":3302169,"name":"Landkreis Schmalkalden-Meiningen","admin3":"16066","localeAltName":null},{"geonameid":2831402,"name":"Landkreis Sömmerda","admin3":"16068","localeAltName":null},{"geonameid":2831245,"name":"Landkreis Sonneberg","admin3":"16072","localeAltName":null},{"geonameid":6547393,"name":"Saale-Holzland-Kreis","admin3":"16074","localeAltName":null},{"geonameid":6547394,"name":"Saale-Orla-Kreis","admin3":"16075","localeAltName":null},{"geonameid":6547392,"name":"Saalfeld-Rudolstadt","admin3":"16073","localeAltName":null},{"geonameid":6547389,"name":"Unstrut-Hainich-Kreis","admin3":"16064","localeAltName":null},{"geonameid":6547388,"name":"Wartburgkreis","admin3":"16063","localeAltName":"Wartburgkreis"},{"geonameid":2812480,"name":"Weimarer Land","admin3":"16071","localeAltName":null}],"country":{"geonameid":2921044,"country":"DE","name":"Federal Republic of Germany","localeAltName":"Deutschland"},"alternateNames":[{"alternatenameId":2185077,"geonameid":2822542,"isoLanguage":"de","alternateName":"Thüringen","isPreferredName":true,"isShortName":true,"isColloquial":false,"isHistoric":false},{"alternatenameId":1557479,"geonameid":2921044,"isoLanguage":"de","alternateName":"Deutschland","isPreferredName":true,"isShortName":true,"isColloquial":false,"isHistoric":false},{"alternatenameId":1557482,"geonameid":2921044,"isoLanguage":"en","alternateName":"Germany","isPreferredName":true,"isShortName":true,"isColloquial":false,"isHistoric":false},{"alternatenameId":16432315,"geonameid":6547388,"isoLanguage":"de","alternateName":"Wartburgkreis","isPreferredName":true,"isShortName":true,"isColloquial":false,"isHistoric":false}]},"__N_SSG":true}