{"pageProps":{"locale":"en","admin2":{"geonameid":3333162,"name":"Knowsley","country":"GB","admin1":"ENG","admin2":"G9","admin3":"","latitude":"53.4166700","longitude":"-2.8333300","localeAltName":"Knowsley"},"admin1":{"geonameid":6269131,"name":"England","admin1":"ENG","localeAltName":"England"},"locations":[{"geonameid":2651918,"name":"Cronton"},{"geonameid":2647637,"name":"Halewood"},{"geonameid":2646329,"name":"Huyton"},{"geonameid":2646328,"name":"Huyton Quarry"},{"geonameid":2645313,"name":"Kirkby"},{"geonameid":2645097,"name":"Knowsley"},{"geonameid":2639928,"name":"Prescot"},{"geonameid":2639276,"name":"Roby"},{"geonameid":11669841,"name":"Stockbridge Village"},{"geonameid":6694788,"name":"Whiston"}],"admin3":[{"geonameid":7293815,"name":"Prescot","admin3":"00BX004"},{"geonameid":7293816,"name":"Tarbock","admin3":"00BX006"},{"geonameid":7295335,"name":"Halewood","admin3":"00BX002"},{"geonameid":7295391,"name":"Knowsley","admin3":"00BX003"},{"geonameid":7295926,"name":"Cronton","admin3":"00BX001"},{"geonameid":7295927,"name":"Whiston","admin3":"00BX007"}],"alternateNames":[{"alternatenameId":8666499,"geonameid":3333162,"isoLanguage":"en","alternateName":"Knowsley","isPreferredName":true,"isShortName":true,"isColloquial":false,"isHistoric":false},{"alternatenameId":1626647,"geonameid":6269131,"isoLanguage":"en","alternateName":"England","isPreferredName":true,"isShortName":true,"isColloquial":false,"isHistoric":false}]},"__N_SSG":true}