{"pageProps":{"locale":"en","admin2":{"geonameid":3333205,"name":"Sunderland","country":"GB","admin1":"ENG","admin2":"N6","admin3":"","latitude":"54.8833300","longitude":"-1.4166700","localeAltName":"Sunderland"},"admin1":{"geonameid":6269131,"name":"England","admin1":"ENG","localeAltName":"England"},"locations":[{"geonameid":8604498,"name":"Barnes"},{"geonameid":2652183,"name":"Cox Green"},{"geonameid":7287965,"name":"Easington Lane"},{"geonameid":10345366,"name":"East Rainton"},{"geonameid":12188628,"name":"Fencehouses"},{"geonameid":2647021,"name":"Hetton-Le-Hole"},{"geonameid":2643478,"name":"Low Moorsley"},{"geonameid":2642316,"name":"Monkwearmouth"},{"geonameid":2641635,"name":"New Herrington"},{"geonameid":2641570,"name":"New Silksworth"},{"geonameid":2641704,"name":"Newbottle"},{"geonameid":2641001,"name":"Old Penshaw"},{"geonameid":2640668,"name":"Pallion"},{"geonameid":6269330,"name":"Rickleton"},{"geonameid":2638899,"name":"Ryhope"},{"geonameid":7839130,"name":"Shiney Row"},{"geonameid":2637840,"name":"Silksworth"},{"geonameid":11551049,"name":"South Hylton"},{"geonameid":2637286,"name":"Southwick"},{"geonameid":11551003,"name":"Springwell"},{"geonameid":2636531,"name":"Sunderland"},{"geonameid":2635046,"name":"Usworth"},{"geonameid":2634715,"name":"Washington","localeAltName":"Washington"}],"admin3":[{"geonameid":7297770,"name":"Burdon","admin3":"00CM001"},{"geonameid":7301423,"name":"Hetton","admin3":"00CM002"},{"geonameid":7301424,"name":"Warden Law","admin3":"00CM003"}],"alternateNames":[{"alternatenameId":2730133,"geonameid":2634715,"isoLanguage":"en","alternateName":"Washington","isPreferredName":true,"isShortName":true,"isColloquial":false,"isHistoric":false},{"alternatenameId":8666530,"geonameid":3333205,"isoLanguage":"en","alternateName":"Sunderland","isPreferredName":true,"isShortName":true,"isColloquial":false,"isHistoric":false},{"alternatenameId":1626647,"geonameid":6269131,"isoLanguage":"en","alternateName":"England","isPreferredName":true,"isShortName":true,"isColloquial":false,"isHistoric":false}]},"__N_SSG":true}