{"pageProps":{"locale":"en","admin2":{"geonameid":4961900,"name":"Cumberland County","country":"US","admin1":"ME","admin2":"005","admin3":"","latitude":"43.8060800","longitude":"-70.3302000"},"admin1":{"geonameid":4971068,"name":"Maine","admin1":"ME"},"locations":[{"geonameid":4959279,"name":"Bridgton","admin3":"07170"},{"geonameid":4959473,"name":"Brunswick","admin3":"08430"},{"geonameid":7257441,"name":"Brunswick Station","admin3":"08430"},{"geonameid":4960358,"name":"Casco","admin3":"11125"},{"geonameid":4961898,"name":"Cumberland Center","admin3":"15430"},{"geonameid":4963985,"name":"Falmouth","admin3":"24495"},{"geonameid":4963987,"name":"Falmouth Foreside","admin3":"24495"},{"geonameid":4964867,"name":"Freeport","admin3":"26525"},{"geonameid":4965481,"name":"Gorham","admin3":"28240"},{"geonameid":4965671,"name":"Gray","admin3":"28870"},{"geonameid":4966554,"name":"Harpswell Center","admin3":"31390"},{"geonameid":4966598,"name":"Harrison","admin3":"31600"},{"geonameid":4969789,"name":"Little Falls","admin3":"28240"},{"geonameid":4973259,"name":"New Gloucester","admin3":"48820"},{"geonameid":4973717,"name":"North Windham","admin3":"86025"},{"geonameid":4975802,"name":"Portland","admin3":"60545"},{"geonameid":4976361,"name":"Raymond","admin3":"61945"},{"geonameid":4977882,"name":"Scarborough","admin3":"66145"},{"geonameid":4979244,"name":"South Portland","admin3":"71990"},{"geonameid":4979245,"name":"South Portland Gardens","admin3":"71990"},{"geonameid":4979295,"name":"South Windham","admin3":"86025"},{"geonameid":4979819,"name":"Steep Falls","admin3":"73670"},{"geonameid":4982720,"name":"West Scarborough","admin3":"66145"},{"geonameid":4982753,"name":"Westbrook","admin3":"82105"},{"geonameid":4983572,"name":"Yarmouth","admin3":"87845"}],"admin3":[{"geonameid":4957262,"name":"Town of Baldwin","admin3":"02655"},{"geonameid":4959286,"name":"Town of Bridgton","admin3":"07170"},{"geonameid":4959483,"name":"Town of Brunswick","admin3":"08430"},{"geonameid":4960086,"name":"Town of Cape Elizabeth","admin3":"10180"},{"geonameid":4960367,"name":"Town of Casco","admin3":"11125"},{"geonameid":4961911,"name":"Town of Cumberland","admin3":"15430"},{"geonameid":4963994,"name":"Town of Falmouth","admin3":"24495"},{"geonameid":4964879,"name":"Town of Freeport","admin3":"26525"},{"geonameid":4965493,"name":"Town of Gorham","admin3":"28240"},{"geonameid":4965689,"name":"Town of Gray","admin3":"28870"},{"geonameid":4966564,"name":"Town of Harpswell","admin3":"31390"},{"geonameid":4966605,"name":"Town of Harrison","admin3":"31600"},{"geonameid":4970346,"name":"Town of Long Island","admin3":"41067"},{"geonameid":4973112,"name":"Town of Naples","admin3":"48085"},{"geonameid":4973264,"name":"Town of New Gloucester","admin3":"48820"},{"geonameid":4973729,"name":"Town of North Yarmouth","admin3":"53860"},{"geonameid":4975841,"name":"City of Portland","admin3":"60545"},{"geonameid":4975908,"name":"Town of Pownal","admin3":"60685"},{"geonameid":4976369,"name":"Town of Raymond","admin3":"61945"},{"geonameid":4977894,"name":"Town of Scarborough","admin3":"66145"},{"geonameid":4978140,"name":"Town of Sebago","admin3":"66775"},{"geonameid":4979250,"name":"City of South Portland","admin3":"71990"},{"geonameid":4979724,"name":"Town of Standish","admin3":"73670"},{"geonameid":4982764,"name":"City of Westbrook","admin3":"82105"},{"geonameid":4983279,"name":"Town of Windham","admin3":"86025"},{"geonameid":4983582,"name":"Town of Yarmouth","admin3":"87845"},{"geonameid":7160192,"name":"Town of Frye Island","admin3":"27025"}],"alternateNames":[]},"__N_SSG":true}