{"pageProps":{"locale":"en","admin2":{"geonameid":5178040,"name":"Allegheny County","country":"US","admin1":"PA","admin2":"003","admin3":"","latitude":"40.4688300","longitude":"-79.9811900"},"admin1":{"geonameid":6254927,"name":"Pennsylvania","admin1":"PA","localeAltName":"Pennsylvania"},"locations":[{"geonameid":5178165,"name":"Allison Park","admin3":"32328"},{"geonameid":5178632,"name":"Aspinwall","admin3":"03320"},{"geonameid":5178724,"name":"Avalon","admin3":"03608"},{"geonameid":5178883,"name":"Bakerstown","admin3":"64528"},{"geonameid":5178940,"name":"Baldwin","admin3":"03928"},{"geonameid":5179751,"name":"Bell Acres","admin3":"05216"},{"geonameid":5179811,"name":"Bellevue","admin3":"05312"},{"geonameid":5179911,"name":"Ben Avon","admin3":"05504"},{"geonameid":5180199,"name":"Bethel Park","admin3":""},{"geonameid":5180876,"name":"Blawnox","admin3":"07000"},{"geonameid":5180905,"name":"Bloomfield","admin3":"61000"},{"geonameid":5181390,"name":"Brackenridge","admin3":"07976"},{"geonameid":5181396,"name":"Braddock","admin3":"07992"},{"geonameid":5181400,"name":"Braddock Hills","admin3":"08008"},{"geonameid":5181428,"name":"Bradford Woods","admin3":"08064"},{"geonameid":5181553,"name":"Brentwood","admin3":"08416"},{"geonameid":5181636,"name":"Bridgeville","admin3":"08624"},{"geonameid":5182063,"name":"Bryn Mawr","admin3":"79274"},{"geonameid":4833478,"name":"Carnegie","admin3":"11336"},{"geonameid":7258082,"name":"Carnot-Moon","admin3":"50784"},{"geonameid":5183428,"name":"Castle Shannon","admin3":"11680"},{"geonameid":5184178,"name":"Cheswick","admin3":"13392"},{"geonameid":5184346,"name":"Churchill","admin3":"13608"},{"geonameid":5184396,"name":"Clairton","admin3":"13704"},{"geonameid":5185408,"name":"Coraopolis","admin3":"16144"},{"geonameid":5185721,"name":"Crafton","admin3":"16848"},{"geonameid":5186171,"name":"Curtisville","admin3":"82800"},{"geonameid":5187150,"name":"Dormont","admin3":"19576"},{"geonameid":5187286,"name":"Dravosburg","admin3":"19856"},{"geonameid":5187580,"name":"Duquesne","admin3":"20432"},{"geonameid":5187987,"name":"East McKeesport","admin3":"21444"},{"geonameid":5188029,"name":"East Pittsburgh","admin3":"21712"},{"geonameid":5188284,"name":"Edgewood","admin3":"22520"},{"geonameid":5188302,"name":"Edgeworth","admin3":"22576"},{"geonameid":5188465,"name":"Elizabeth","admin3":"22992"},{"geonameid":5188743,"name":"Emsworth","admin3":"23616"},{"geonameid":5188787,"name":"Enlow","admin3":"55016"},{"geonameid":5188904,"name":"Etna","admin3":"24160"},{"geonameid":5189981,"name":"Forest Hills","admin3":"26592"},{"geonameid":5190213,"name":"Fox Chapel","admin3":"27120"},{"geonameid":5190360,"name":"Franklin Park","admin3":"27552"},{"geonameid":5191070,"name":"Gibsonia","admin3":"64528"},{"geonameid":5191236,"name":"Glassport","admin3":"29432"},{"geonameid":5191335,"name":"Glenshaw","admin3":"69584"},{"geonameid":5191925,"name":"Green Tree","admin3":"31256"},{"geonameid":5192000,"name":"Greenock","admin3":"23000"},{"geonameid":5193133,"name":"Heidelberg","admin3":"33592"},{"geonameid":5194067,"name":"Homestead","admin3":"35424"},{"geonameid":5194741,"name":"Imperial","admin3":"55016"},{"geonameid":5194914,"name":"Industry","admin3":"23000"},{"geonameid":5194912,"name":"Ingram","admin3":"37000"},{"geonameid":5195297,"name":"Jefferson Hills","admin3":"37955"},{"geonameid":5197594,"name":"Leetsdale","admin3":"42392"},{"geonameid":5197865,"name":"Liberty","admin3":"43064"},{"geonameid":5198062,"name":"Lincoln","admin3":"43408"},{"geonameid":5200474,"name":"McKees Rocks","admin3":"46264"},{"geonameid":5200499,"name":"McKeesport","admin3":"46256"},{"geonameid":5201452,"name":"Millvale","admin3":"49920"},{"geonameid":5201734,"name":"Monroeville","admin3":""},{"geonameid":5202215,"name":"Mount Lebanon","admin3":"51696"},{"geonameid":5202251,"name":"Mount Oliver","admin3":"51744"},{"geonameid":5202734,"name":"Munhall","admin3":"52320"},{"geonameid":5203537,"name":"North Braddock","admin3":"54816"},{"geonameid":5203785,"name":"North Versailles","admin3":"55488"},{"geonameid":5204143,"name":"Oakdale","admin3":"55840"},{"geonameid":5204203,"name":"Oakmont","admin3":"56088"},{"geonameid":5205377,"name":"Penn Hills","admin3":"59032"},{"geonameid":5206361,"name":"Pitcairn","admin3":"60712"},{"geonameid":5206379,"name":"Pittsburgh","admin3":"61000"},{"geonameid":5206510,"name":"Pleasant Hills","admin3":"61328"},{"geonameid":5206606,"name":"Plum","admin3":"61536"},{"geonameid":5206958,"name":"Port Vue","admin3":"62320"},{"geonameid":5207581,"name":"Rankin","admin3":"63408"},{"geonameid":5208015,"name":"Rennerdale","admin3":"15216"},{"geonameid":5209347,"name":"Russellton","admin3":"82800"},{"geonameid":5211506,"name":"Sewickley","admin3":"69376"},{"geonameid":5211708,"name":"Sharpsburg","admin3":"69776"},{"geonameid":7259013,"name":"South Park Township","admin3":"72400"},{"geonameid":5213447,"name":"Springdale","admin3":"72960"},{"geonameid":5214576,"name":"Sturgeon","admin3":"55016"},{"geonameid":5215064,"name":"Swissvale","admin3":"75816"},{"geonameid":5215215,"name":"Tarentum","admin3":"76104"},{"geonameid":5216343,"name":"Turtle Creek","admin3":"77912"},{"geonameid":5216895,"name":"Upper Saint Clair","admin3":"79274"},{"geonameid":5217179,"name":"Verona","admin3":"80032"},{"geonameid":5217183,"name":"Versailles","admin3":"80040"},{"geonameid":5218750,"name":"West Homestead","admin3":"83200"},{"geonameid":5218802,"name":"West Mifflin","admin3":"83512"},{"geonameid":5218918,"name":"West View","admin3":"84144"},{"geonameid":5219140,"name":"Whitaker","admin3":"84440"},{"geonameid":5219216,"name":"White Oak","admin3":"84704"},{"geonameid":5219271,"name":"Whitehall","admin3":"84512"},{"geonameid":5219501,"name":"Wilkinsburg","admin3":"85188"},{"geonameid":5219653,"name":"Wilmerding","admin3":"85496"},{"geonameid":5219667,"name":"Wilson","admin3":"13704"}],"admin3":[{"geonameid":5177978,"name":"Township of Aleppo","admin3":"00724"},{"geonameid":5178636,"name":"Borough of Aspinwall","admin3":"03320"},{"geonameid":5178726,"name":"Borough of Avalon","admin3":"03608"},{"geonameid":5178957,"name":"Borough of Baldwin","admin3":"03928"},{"geonameid":5178958,"name":"Township of Baldwin","admin3":"03932"},{"geonameid":5179752,"name":"Borough of Bell Acres","admin3":"05216"},{"geonameid":5179818,"name":"Borough of Bellevue","admin3":"05312"},{"geonameid":5179901,"name":"Borough of Ben Avon Heights","admin3":"05520"},{"geonameid":5179902,"name":"Borough of Ben Avon","admin3":"05504"},{"geonameid":5180866,"name":"Borough of Blawnox","admin3":"07000"},{"geonameid":5181392,"name":"Borough of Brackenridge","admin3":"07976"},{"geonameid":5181401,"name":"Borough of Braddock Hills","admin3":"08008"},{"geonameid":5181402,"name":"Borough of Braddock","admin3":"07992"},{"geonameid":5181433,"name":"Borough of Bradford Woods","admin3":"08064"},{"geonameid":5181556,"name":"Borough of Brentwood","admin3":"08416"},{"geonameid":5181638,"name":"Borough of Bridgeville","admin3":"08624"},{"geonameid":5183282,"name":"Borough of Carnegie","admin3":"11336"},{"geonameid":5183429,"name":"Borough of Castle Shannon","admin3":"11680"},{"geonameid":5183814,"name":"Borough of Chalfant","admin3":"12496"},{"geonameid":5184179,"name":"Borough of Cheswick","admin3":"13392"},{"geonameid":5184352,"name":"Borough of Churchill","admin3":"13608"},{"geonameid":5184399,"name":"City of Clairton","admin3":"13704"},{"geonameid":5184976,"name":"Township of Collier","admin3":"15216"},{"geonameid":5185411,"name":"Borough of Coraopolis","admin3":"16144"},{"geonameid":5185719,"name":"Borough of Crafton","admin3":"16848"},{"geonameid":5185851,"name":"Township of Crescent","admin3":"17048"},{"geonameid":5187152,"name":"Borough of Dormont","admin3":"19576"},{"geonameid":5187287,"name":"Borough of Dravosburg","admin3":"19856"},{"geonameid":5187588,"name":"City of Duquesne","admin3":"20432"},{"geonameid":5187908,"name":"Township of East Deer","admin3":"21024"},{"geonameid":5187988,"name":"Borough of East McKeesport","admin3":"21444"},{"geonameid":5188030,"name":"Borough of East Pittsburgh","admin3":"21712"},{"geonameid":5188301,"name":"Borough of Edgewood","admin3":"22520"},{"geonameid":5188304,"name":"Borough of Edgeworth","admin3":"22576"},{"geonameid":5188470,"name":"Borough of Elizabeth","admin3":"22992"},{"geonameid":5188471,"name":"Township of Elizabeth","admin3":"23000"},{"geonameid":5188748,"name":"Borough of Emsworth","admin3":"23616"},{"geonameid":5188906,"name":"Borough of Etna","admin3":"24160"},{"geonameid":5189407,"name":"Township of Fawn","admin3":"25400"},{"geonameid":5189569,"name":"Township of Findlay","admin3":"25904"},{"geonameid":5189995,"name":"Borough of Forest Hills","admin3":"26592"},{"geonameid":5190106,"name":"Township of Forward","admin3":"26896"},{"geonameid":5190422,"name":"Township of Frazer","admin3":"27608"},{"geonameid":5191238,"name":"Borough of Glassport","admin3":"29432"},{"geonameid":5191312,"name":"Borough of Glenfield","admin3":"29592"},{"geonameid":5191930,"name":"Borough of Green Tree","admin3":"31256"},{"geonameid":5192536,"name":"Township of Hampton","admin3":"32328"},{"geonameid":5192665,"name":"Township of Harmar","admin3":"32624"},{"geonameid":5192752,"name":"Township of Harrison","admin3":"32832"},{"geonameid":5192983,"name":"Borough of Haysville","admin3":"33312"},{"geonameid":5193105,"name":"Borough of Heidelberg","admin3":"33592"},{"geonameid":5194075,"name":"Borough of Homestead","admin3":"35424"},{"geonameid":5194879,"name":"Township of Indiana","admin3":"36808"},{"geonameid":5194917,"name":"Borough of Ingram","admin3":"37000"},{"geonameid":5195303,"name":"Borough of Jefferson Hills","admin3":"37955"},{"geonameid":5196001,"name":"Township of Kennedy","admin3":"39312"},{"geonameid":5196147,"name":"Township of Kilbuck","admin3":"39624"},{"geonameid":5197592,"name":"Township of Leet","admin3":"42368"},{"geonameid":5197595,"name":"Borough of Leetsdale","admin3":"42392"},{"geonameid":5197894,"name":"Borough of Liberty","admin3":"43064"},{"geonameid":5198122,"name":"Borough of Lincoln","admin3":"43408"},{"geonameid":5199990,"name":"Township of Marshall","admin3":"47696"},{"geonameid":5200255,"name":"Township of McCandless","admin3":"45900"},{"geonameid":5200477,"name":"Borough of McKees Rocks","admin3":"46264"},{"geonameid":5200483,"name":"City of McKeesport","admin3":"46256"},{"geonameid":5201454,"name":"Borough of Millvale","admin3":"49920"},{"geonameid":5201831,"name":"Township of Moon","admin3":"50784"},{"geonameid":5202225,"name":"Township of Mount Lebanon","admin3":"51696"},{"geonameid":5202255,"name":"Borough of Mount Oliver","admin3":"51744"},{"geonameid":5202736,"name":"Borough of Munhall","admin3":"52320"},{"geonameid":5203088,"name":"Township of Neville","admin3":"53136"},{"geonameid":5203538,"name":"Borough of North Braddock","admin3":"54816"},{"geonameid":5203636,"name":"Township of North Fayette","admin3":"55016"},{"geonameid":5203786,"name":"Township of North Versailles","admin3":"55488"},{"geonameid":5204031,"name":"Township of O'Hara","admin3":"56384"},{"geonameid":5204152,"name":"Borough of Oakdale","admin3":"55840"},{"geonameid":5204208,"name":"Borough of Oakmont","admin3":"56088"},{"geonameid":5204270,"name":"Township of Ohio","admin3":"56392"},{"geonameid":5204618,"name":"Borough of Glen Osborne","admin3":"29732"},{"geonameid":5205381,"name":"Township of Penn Hills","admin3":"59032"},{"geonameid":5205494,"name":"Borough of Pennsbury Village","admin3":"59152"},{"geonameid":5206264,"name":"Township of Pine","admin3":"60272"},{"geonameid":5206363,"name":"Borough of Pitcairn","admin3":"60712"},{"geonameid":5206393,"name":"City of Pittsburgh","admin3":"61000"},{"geonameid":5206513,"name":"Borough of Pleasant Hills","admin3":"61328"},{"geonameid":5206638,"name":"Borough of Plum","admin3":"61536"},{"geonameid":5206959,"name":"Borough of Port Vue","admin3":"62320"},{"geonameid":5207588,"name":"Borough of Rankin","admin3":"63408"},{"geonameid":5208048,"name":"Township of Reserve","admin3":"64240"},{"geonameid":5208193,"name":"Township of Richland","admin3":"64528"},{"geonameid":5208634,"name":"Township of Robinson","admin3":"65352"},{"geonameid":5209081,"name":"Township of Ross","admin3":"66264"},{"geonameid":5209090,"name":"Borough of Rosslyn Farms","admin3":"66320"},{"geonameid":5211274,"name":"Township of Scott","admin3":"68388"},{"geonameid":5211517,"name":"Borough of Sewickley Heights","admin3":"69400"},{"geonameid":5211519,"name":"Borough of Sewickley Hills","admin3":"69416"},{"geonameid":5211520,"name":"Borough of Sewickley","admin3":"69376"},{"geonameid":5211615,"name":"Township of Shaler","admin3":"69584"},{"geonameid":5211711,"name":"Borough of Sharpsburg","admin3":"69776"},{"geonameid":5213000,"name":"Township of South Fayette","admin3":"72160"},{"geonameid":5213074,"name":"Township of South Park","admin3":"72400"},{"geonameid":5213121,"name":"Township of South Versailles","admin3":"72568"},{"geonameid":5213453,"name":"Borough of Springdale","admin3":"72960"},{"geonameid":5213454,"name":"Township of Springdale","admin3":"72968"},{"geonameid":5214450,"name":"Township of Stowe","admin3":"74648"},{"geonameid":5215066,"name":"Borough of Swissvale","admin3":"75816"},{"geonameid":5215216,"name":"Borough of Tarentum","admin3":"76104"},{"geonameid":5215562,"name":"Borough of Thornburg","admin3":"76560"},{"geonameid":5216348,"name":"Borough of Turtle Creek","admin3":"77912"},{"geonameid":5216894,"name":"Township of Upper Saint Clair","admin3":"79274"},{"geonameid":5217182,"name":"Borough of Verona","admin3":"80032"},{"geonameid":5217185,"name":"Borough of Versailles","admin3":"80040"},{"geonameid":5217806,"name":"Borough of Wall","admin3":"80600"},{"geonameid":5218672,"name":"Township of West Deer","admin3":"82800"},{"geonameid":5218685,"name":"Borough of West Elizabeth","admin3":"82848"},{"geonameid":5218752,"name":"Borough of West Homestead","admin3":"83200"},{"geonameid":5218806,"name":"Borough of West Mifflin","admin3":"83512"},{"geonameid":5218927,"name":"Borough of West View","admin3":"84144"},{"geonameid":5219146,"name":"Borough of Whitaker","admin3":"84440"},{"geonameid":5219243,"name":"Borough of White Oak","admin3":"84704"},{"geonameid":5219286,"name":"Borough of Whitehall","admin3":"84512"},{"geonameid":5219500,"name":"Township of Wilkins","admin3":"85184"},{"geonameid":5219503,"name":"Borough of Wilkinsburg","admin3":"85188"},{"geonameid":5219654,"name":"Borough of Wilmerding","admin3":"85496"},{"geonameid":6326720,"name":"Borough of Fox Chapel","admin3":"27120"},{"geonameid":6326721,"name":"Borough of Franklin Park","admin3":"27552"}],"alternateNames":[{"alternatenameId":2186547,"geonameid":6254927,"isoLanguage":"en","alternateName":"Pennsylvania","isPreferredName":true,"isShortName":true,"isColloquial":false,"isHistoric":false}]},"__N_SSG":true}