{"pageProps":{"locale":"en","admin2":{"geonameid":5182539,"name":"Butler County","country":"US","admin1":"PA","admin2":"019","admin3":"","latitude":"40.9117200","longitude":"-79.9129900"},"admin1":{"geonameid":6254927,"name":"Pennsylvania","admin1":"PA","localeAltName":"Pennsylvania"},"locations":[{"geonameid":5182534,"name":"Butler","admin3":"10464"},{"geonameid":5184197,"name":"Chicora","admin3":"13440"},{"geonameid":8643098,"name":"Cranberry Township","admin3":"16920"},{"geonameid":5188935,"name":"Evans City","admin3":"24248"},{"geonameid":5189493,"name":"Fernway","admin3":"16920"},{"geonameid":5190247,"name":"Fox Run","admin3":"16920"},{"geonameid":7258746,"name":"Homeacre-Lyndora","admin3":"10472"},{"geonameid":5199944,"name":"Mars","admin3":"47672"},{"geonameid":5200639,"name":"Meadowood","admin3":"10472"},{"geonameid":5200837,"name":"Meridian","admin3":"10472"},{"geonameid":5203468,"name":"Nixon","admin3":"58792"},{"geonameid":5204107,"name":"Oak Hills","admin3":"10472"},{"geonameid":5207263,"name":"Prospect","admin3":"62752"},{"geonameid":5211020,"name":"Saxonburg","admin3":"68056"},{"geonameid":5211465,"name":"Seven Fields","admin3":"69309"},{"geonameid":7258973,"name":"Shanor-Northvue","admin3":"12024"},{"geonameid":5212532,"name":"Slippery Rock","admin3":"71184"},{"geonameid":5220432,"name":"Zelienople","admin3":"87272"}],"admin3":[{"geonameid":5177866,"name":"Township of Adams","admin3":"00300"},{"geonameid":5178083,"name":"Township of Allegheny","admin3":"00860"},{"geonameid":5181450,"name":"Township of Brady","admin3":"08096"},{"geonameid":5181968,"name":"Borough of Bruin","admin3":"09528"},{"geonameid":5182290,"name":"Township of Buffalo","admin3":"10000"},{"geonameid":5182566,"name":"City of Butler","admin3":"10464"},{"geonameid":5182567,"name":"Township of Butler","admin3":"10472"},{"geonameid":5182763,"name":"Borough of Callery","admin3":"10800"},{"geonameid":5183672,"name":"Township of Center","admin3":"12024"},{"geonameid":5184060,"name":"Borough of Cherry Valley","admin3":"13152"},{"geonameid":5184061,"name":"Township of Cherry","admin3":"12992"},{"geonameid":5184200,"name":"Borough of Chicora","admin3":"13440"},{"geonameid":5184499,"name":"Township of Clay","admin3":"13936"},{"geonameid":5184556,"name":"Township of Clearfield","admin3":"14048"},{"geonameid":5184634,"name":"Township of Clinton","admin3":"14320"},{"geonameid":5185118,"name":"Township of Concord","admin3":"15480"},{"geonameid":5185246,"name":"Borough of Connoquenessing","admin3":"15808"},{"geonameid":5185247,"name":"Township of Connoquenessing","admin3":"15816"},{"geonameid":5185775,"name":"Township of Cranberry","admin3":"16920"},{"geonameid":5187118,"name":"Township of Donegal","admin3":"19456"},{"geonameid":5187860,"name":"Borough of East Butler","admin3":"20904"},{"geonameid":5188174,"name":"Borough of Eau Claire","admin3":"22128"},{"geonameid":5188938,"name":"Borough of Evans City","admin3":"24248"},{"geonameid":5189236,"name":"Borough of Fairview","admin3":"24832"},{"geonameid":5189238,"name":"Township of Fairview","admin3":"24840"},{"geonameid":5190107,"name":"Township of Forward","admin3":"26904"},{"geonameid":5190388,"name":"Township of Franklin","admin3":"27352"},{"geonameid":5192700,"name":"Borough of Harmony","admin3":"32688"},{"geonameid":5192758,"name":"Borough of Harrisville","admin3":"32896"},{"geonameid":5195161,"name":"Township of Jackson","admin3":"37344"},{"geonameid":5195335,"name":"Township of Jefferson","admin3":"37848"},{"geonameid":5195763,"name":"Borough of Karns City","admin3":"38768"},{"geonameid":5197099,"name":"Township of Lancaster","admin3":"41208"},{"geonameid":5199898,"name":"Township of Marion","admin3":"47448"},{"geonameid":5199940,"name":"Borough of Mars","admin3":"47672"},{"geonameid":5200805,"name":"Township of Mercer","admin3":"48688"},{"geonameid":5201021,"name":"Township of Middlesex","admin3":"49056"},{"geonameid":5202661,"name":"Township of Muddy Creek","admin3":"52176"},{"geonameid":5204193,"name":"Township of Oakland","admin3":"55992"},{"geonameid":5205137,"name":"Township of Parker","admin3":"57984"},{"geonameid":5205435,"name":"Township of Penn","admin3":"58792"},{"geonameid":5205764,"name":"Borough of Petrolia","admin3":"59672"},{"geonameid":5206998,"name":"Borough of Portersville","admin3":"62224"},{"geonameid":5207258,"name":"Borough of Prospect","admin3":"62752"},{"geonameid":5211022,"name":"Borough of Saxonburg","admin3":"68056"},{"geonameid":5211466,"name":"Borough of Seven Fields","admin3":"69309"},{"geonameid":5212540,"name":"Borough of Slippery Rock","admin3":"71184"},{"geonameid":5212541,"name":"Township of Slippery Rock","admin3":"71192"},{"geonameid":5214799,"name":"Township of Summit","admin3":"75184"},{"geonameid":5216961,"name":"Borough of Valencia","admin3":"79504"},{"geonameid":5217147,"name":"Township of Venango","admin3":"79904"},{"geonameid":5218141,"name":"Township of Washington","admin3":"81192"},{"geonameid":5218786,"name":"Borough of West Liberty","admin3":"83376"},{"geonameid":5218904,"name":"Borough of West Sunbury","admin3":"84064"},{"geonameid":5219779,"name":"Township of Winfield","admin3":"85784"},{"geonameid":5220141,"name":"Township of Worth","admin3":"86536"},{"geonameid":5220434,"name":"Borough of Zelienople","admin3":"87272"}],"alternateNames":[{"alternatenameId":2186547,"geonameid":6254927,"isoLanguage":"en","alternateName":"Pennsylvania","isPreferredName":true,"isShortName":true,"isColloquial":false,"isHistoric":false}]},"__N_SSG":true}