{"pageProps":{"locale":"en","admin2":{"geonameid":5183193,"name":"Carbon County","country":"US","admin1":"PA","admin2":"025","admin3":"","latitude":"40.9181800","longitude":"-75.7088200"},"admin1":{"geonameid":6254927,"name":"Pennsylvania","admin1":"PA","localeAltName":"Pennsylvania"},"locations":[{"geonameid":5195460,"name":"Jim Thorpe","admin3":"38200"},{"geonameid":5197163,"name":"Lansford","admin3":"41464"},{"geonameid":5197673,"name":"Lehighton","admin3":"42472"},{"geonameid":5203071,"name":"Nesquehoning","admin3":"53088"},{"geonameid":5204957,"name":"Palmerton","admin3":"57696"},{"geonameid":5214775,"name":"Summit Hill","admin3":"75248"},{"geonameid":5215856,"name":"Towamensing Trails","admin3":"58968"},{"geonameid":5218305,"name":"Weatherly","admin3":"81856"},{"geonameid":7259151,"name":"Weissport East","admin3":"27368"}],"admin3":[{"geonameid":5179005,"name":"Township of Banks","admin3":"04048"},{"geonameid":5179509,"name":"Borough of Beaver Meadows","admin3":"04816"},{"geonameid":5181325,"name":"Borough of Bowmanstown","admin3":"07880"},{"geonameid":5188017,"name":"Township of East Penn","admin3":"21664"},{"geonameid":5188064,"name":"Borough of East Side","admin3":"21816"},{"geonameid":5190389,"name":"Township of Franklin","admin3":"27368"},{"geonameid":5195458,"name":"Borough of Jim Thorpe","admin3":"38200"},{"geonameid":5196135,"name":"Township of Kidder","admin3":"39608"},{"geonameid":5197164,"name":"Borough of Lansford","admin3":"41464"},{"geonameid":5197414,"name":"Township of Lausanne","admin3":"41888"},{"geonameid":5197670,"name":"Township of Lehigh","admin3":"42400"},{"geonameid":5197679,"name":"Borough of Lehighton","admin3":"42472"},{"geonameid":5199189,"name":"Township of Lower Towamensing","admin3":"45128"},{"geonameid":5199541,"name":"Township of Mahoning","admin3":"46640"},{"geonameid":5203076,"name":"Borough of Nesquehoning","admin3":"53088"},{"geonameid":5204864,"name":"Township of Packer","admin3":"57504"},{"geonameid":5204961,"name":"Borough of Palmerton","admin3":"57696"},{"geonameid":5205169,"name":"Borough of Parryville","admin3":"58304"},{"geonameid":5205369,"name":"Township of Penn Forest","admin3":"58968"},{"geonameid":5214779,"name":"Borough of Summit Hill","admin3":"75248"},{"geonameid":5215858,"name":"Township of Towamensing","admin3":"77160"},{"geonameid":5218306,"name":"Borough of Weatherly","admin3":"81856"},{"geonameid":5218409,"name":"Borough of Weissport","admin3":"82080"}],"alternateNames":[{"alternatenameId":2186547,"geonameid":6254927,"isoLanguage":"en","alternateName":"Pennsylvania","isPreferredName":true,"isShortName":true,"isColloquial":false,"isHistoric":false}]},"__N_SSG":true}