{"pageProps":{"locale":"en","admin2":{"geonameid":5184079,"name":"Chester County","country":"US","admin1":"PA","admin2":"029","admin3":"","latitude":"39.9731400","longitude":"-75.7484500"},"admin1":{"geonameid":6254927,"name":"Pennsylvania","admin1":"PA","localeAltName":"Pennsylvania"},"locations":[{"geonameid":4556341,"name":"Atglen","admin3":"03384"},{"geonameid":4556349,"name":"Avondale","admin3":"03656"},{"geonameid":5180102,"name":"Berwyn","admin3":"21928"},{"geonameid":4556939,"name":"Caln","admin3":"10824"},{"geonameid":5184082,"name":"Chester Springs","admin3":"83832"},{"geonameid":5184086,"name":"Chesterbrook","admin3":"77344"},{"geonameid":4557247,"name":"Coatesville","admin3":"14712"},{"geonameid":5186852,"name":"Devon","admin3":"21928"},{"geonameid":5187232,"name":"Downingtown","admin3":"19752"},{"geonameid":7315346,"name":"Eagleview","admin3":"79480"},{"geonameid":5188659,"name":"Elverson","admin3":"23440"},{"geonameid":5189022,"name":"Exton","admin3":"84192"},{"geonameid":5194100,"name":"Honey Brook","admin3":"35528"},{"geonameid":5195980,"name":"Kenilworth","admin3":"54936"},{"geonameid":4558942,"name":"Kennett Square","admin3":"39352"},{"geonameid":5198203,"name":"Lionville","admin3":"79480"},{"geonameid":5199600,"name":"Malvern","admin3":"46792"},{"geonameid":4560185,"name":"Oxford","admin3":"57480"},{"geonameid":5205037,"name":"Paoli","admin3":"77344"},{"geonameid":4560229,"name":"Parkesburg","admin3":"58032"},{"geonameid":5205849,"name":"Phoenixville","admin3":"60120"},{"geonameid":4561345,"name":"South Coatesville","admin3":"72072"},{"geonameid":5213096,"name":"South Pottstown","admin3":"54936"},{"geonameid":5213317,"name":"Spring City","admin3":"72920"},{"geonameid":4561716,"name":"Thorndale","admin3":"10824"},{"geonameid":4561755,"name":"Toughkenamon","admin3":"53608"},{"geonameid":4561873,"name":"Upland","admin3":"83464"},{"geonameid":4562144,"name":"West Chester","admin3":"82704"},{"geonameid":4562148,"name":"West Grove","admin3":"83104"}],"admin3":[{"geonameid":4556342,"name":"Borough of Atglen","admin3":"03384"},{"geonameid":4556351,"name":"Borough of Avondale","admin3":"03656"},{"geonameid":4556605,"name":"Township of Birmingham","admin3":"06544"},{"geonameid":4556943,"name":"Township of Caln","admin3":"10824"},{"geonameid":4557249,"name":"City of Coatesville","admin3":"14712"},{"geonameid":4557670,"name":"Township of East Bradford","admin3":"20824"},{"geonameid":4557692,"name":"Township of East Fallowfield","admin3":"21104"},{"geonameid":4557703,"name":"Township of East Marlborough","admin3":"21480"},{"geonameid":4557705,"name":"Township of East Nottingham","admin3":"21624"},{"geonameid":4557726,"name":"Township of East Goshen","admin3":"21192"},{"geonameid":4557781,"name":"Township of Elk","admin3":"23032"},{"geonameid":4558070,"name":"Township of Franklin","admin3":"27376"},{"geonameid":4558611,"name":"Township of Highland","admin3":"34448"},{"geonameid":4558948,"name":"Borough of Kennett Square","admin3":"39352"},{"geonameid":4558949,"name":"Township of Kennett","admin3":"39344"},{"geonameid":4559306,"name":"Township of London Britain","admin3":"44440"},{"geonameid":4559308,"name":"Township of London Grove","admin3":"44480"},{"geonameid":4559314,"name":"Township of Londonderry","admin3":"44456"},{"geonameid":4559356,"name":"Township of Lower Oxford","admin3":"45040"},{"geonameid":4559717,"name":"Borough of Modena","admin3":"50232"},{"geonameid":4559976,"name":"Township of New Garden","admin3":"53608"},{"geonameid":4559982,"name":"Township of New London","admin3":"53816"},{"geonameid":4560001,"name":"Township of Newlin","admin3":"53784"},{"geonameid":4560190,"name":"Borough of Oxford","admin3":"57480"},{"geonameid":4560232,"name":"Borough of Parkesburg","admin3":"58032"},{"geonameid":4560293,"name":"Township of Penn","admin3":"58808"},{"geonameid":4560302,"name":"Township of Pennsbury","admin3":"59136"},{"geonameid":4560485,"name":"Township of Pocopson","admin3":"61800"},{"geonameid":4560884,"name":"Township of Sadsbury","admin3":"67080"},{"geonameid":4561341,"name":"Borough of South Coatesville","admin3":"72072"},{"geonameid":4561714,"name":"Township of Thornbury","admin3":"76568"},{"geonameid":4561884,"name":"Township of Upper Oxford","admin3":"79208"},{"geonameid":4561913,"name":"Township of Valley","admin3":"79544"},{"geonameid":4562115,"name":"Township of West Bradford","admin3":"82544"},{"geonameid":4562133,"name":"Township of West Caln","admin3":"82664"},{"geonameid":4562135,"name":"Borough of West Chester","admin3":"82704"},{"geonameid":4562140,"name":"Township of West Fallowfield","admin3":"82936"},{"geonameid":4562146,"name":"Township of West Goshen","admin3":"83080"},{"geonameid":4562149,"name":"Borough of West Grove","admin3":"83104"},{"geonameid":4562159,"name":"Township of West Marlborough","admin3":"83464"},{"geonameid":4562161,"name":"Township of West Nottingham","admin3":"83712"},{"geonameid":4562172,"name":"Township of West Whiteland","admin3":"84192"},{"geonameid":4562188,"name":"Township of Westtown","admin3":"84104"},{"geonameid":4562270,"name":"Township of Willistown","admin3":"85352"},{"geonameid":5183894,"name":"Township of Charlestown","admin3":"12744"},{"geonameid":5187239,"name":"Borough of Downingtown","admin3":"19752"},{"geonameid":5187861,"name":"Township of East Caln","admin3":"20920"},{"geonameid":5187879,"name":"Township of East Coventry","admin3":"21008"},{"geonameid":5187881,"name":"Township of East Brandywine","admin3":"20864"},{"geonameid":5188002,"name":"Township of East Nantmeal","admin3":"21576"},{"geonameid":5188028,"name":"Township of East Pikeland","admin3":"21696"},{"geonameid":5188102,"name":"Township of East Vincent","admin3":"22000"},{"geonameid":5188113,"name":"Township of East Whiteland","admin3":"22056"},{"geonameid":5188154,"name":"Township of Easttown","admin3":"21928"},{"geonameid":5188660,"name":"Borough of Elverson","admin3":"23440"},{"geonameid":5194103,"name":"Borough of Honey Brook","admin3":"35528"},{"geonameid":5194104,"name":"Township of Honey Brook","admin3":"35536"},{"geonameid":5199603,"name":"Borough of Malvern","admin3":"46792"},{"geonameid":5203619,"name":"Township of North Coventry","admin3":"54936"},{"geonameid":5205856,"name":"Borough of Phoenixville","admin3":"60120"},{"geonameid":5211217,"name":"Township of Schuylkill","admin3":"68288"},{"geonameid":5212984,"name":"Township of South Coventry","admin3":"72088"},{"geonameid":5213318,"name":"Borough of Spring City","admin3":"72920"},{"geonameid":5215971,"name":"Township of Tredyffrin","admin3":"77344"},{"geonameid":5216918,"name":"Township of Upper Uwchlan","admin3":"79352"},{"geonameid":5216954,"name":"Township of Uwchlan","admin3":"79480"},{"geonameid":5217827,"name":"Township of Wallace","admin3":"80616"},{"geonameid":5218058,"name":"Township of Warwick","admin3":"81160"},{"geonameid":5218662,"name":"Township of West Brandywine","admin3":"82576"},{"geonameid":5218819,"name":"Township of West Nantmeal","admin3":"83664"},{"geonameid":5218849,"name":"Township of West Pikeland","admin3":"83832"},{"geonameid":5218875,"name":"Township of West Sadsbury","admin3":"83968"},{"geonameid":5218929,"name":"Township of West Vincent","admin3":"84160"}],"alternateNames":[{"alternatenameId":2186547,"geonameid":6254927,"isoLanguage":"en","alternateName":"Pennsylvania","isPreferredName":true,"isShortName":true,"isColloquial":false,"isHistoric":false}]},"__N_SSG":true}