{"pageProps":{"locale":"en","admin2":{"geonameid":5184423,"name":"Clarion County","country":"US","admin1":"PA","admin2":"031","admin3":"","latitude":"41.1923900","longitude":"-79.4209600"},"admin1":{"geonameid":6254927,"name":"Pennsylvania","admin1":"PA","localeAltName":"Pennsylvania"},"locations":[{"geonameid":5184422,"name":"Clarion","admin3":"13800"},{"geonameid":5196465,"name":"Knox","admin3":"40272"},{"geonameid":5199873,"name":"Marianne","admin3":"57536"}],"admin3":[{"geonameid":5178610,"name":"Township of Ashland","admin3":"03248"},{"geonameid":5179571,"name":"Township of Beaver","admin3":"04696"},{"geonameid":5181451,"name":"Township of Brady","admin3":"08112"},{"geonameid":5182761,"name":"Borough of Callensburg","admin3":"10792"},{"geonameid":5184431,"name":"Borough of Clarion","admin3":"13800"},{"geonameid":5184432,"name":"Township of Clarion","admin3":"13808"},{"geonameid":5187775,"name":"Borough of East Brady","admin3":"20840"},{"geonameid":5188535,"name":"Township of Elk","admin3":"23040"},{"geonameid":5189365,"name":"Township of Farmington","admin3":"25272"},{"geonameid":5190266,"name":"Borough of Foxburg","admin3":"27112"},{"geonameid":5192937,"name":"Borough of Hawthorn","admin3":"33216"},{"geonameid":5193613,"name":"Township of Highland","admin3":"34456"},{"geonameid":5196467,"name":"Borough of Knox","admin3":"40272"},{"geonameid":5196468,"name":"Township of Knox","admin3":"40288"},{"geonameid":5197973,"name":"Township of Licking","admin3":"43192"},{"geonameid":5198056,"name":"Township of Limestone","admin3":"43344"},{"geonameid":5199459,"name":"Township of Madison","admin3":"46464"},{"geonameid":5201313,"name":"Township of Millcreek","admin3":"49536"},{"geonameid":5201728,"name":"Township of Monroe","admin3":"50464"},{"geonameid":5203110,"name":"Borough of New Bethlehem","admin3":"53248"},{"geonameid":5204908,"name":"Township of Paint","admin3":"57536"},{"geonameid":5205697,"name":"Township of Perry","admin3":"59456"},{"geonameid":5206312,"name":"Township of Piney","admin3":"60648"},{"geonameid":5206996,"name":"Township of Porter","admin3":"62144"},{"geonameid":5207849,"name":"Township of Redbank","admin3":"63728"},{"geonameid":5208196,"name":"Township of Richland","admin3":"64552"},{"geonameid":5208362,"name":"Borough of Rimersburg","admin3":"64904"},{"geonameid":5210677,"name":"Township of Salem","admin3":"67432"},{"geonameid":5212029,"name":"Borough of Shippenville","admin3":"70368"},{"geonameid":5212522,"name":"Borough of Sligo","admin3":"71176"},{"geonameid":5214491,"name":"Borough of Strattanville","admin3":"74728"},{"geonameid":5215748,"name":"Township of Toby","admin3":"76928"},{"geonameid":5218143,"name":"Township of Washington","admin3":"81208"}],"alternateNames":[{"alternatenameId":2186547,"geonameid":6254927,"isoLanguage":"en","alternateName":"Pennsylvania","isPreferredName":true,"isShortName":true,"isColloquial":false,"isHistoric":false}]},"__N_SSG":true}