{"pageProps":{"locale":"en","admin2":{"geonameid":5184630,"name":"Clinton County","country":"US","admin1":"PA","admin2":"035","admin3":"","latitude":"41.2340500","longitude":"-77.6381100"},"admin1":{"geonameid":6254927,"name":"Pennsylvania","admin1":"PA","localeAltName":"Pennsylvania"},"locations":[{"geonameid":5178736,"name":"Avis","admin3":"03632"},{"geonameid":5183416,"name":"Castanea","admin3":"11640"},{"geonameid":5187573,"name":"Dunnstown","admin3":"86448"},{"geonameid":5189839,"name":"Flemington","admin3":"26296"},{"geonameid":5198635,"name":"Lock Haven","admin3":"44128"},{"geonameid":5201245,"name":"Mill Hall","admin3":"49760"},{"geonameid":5208028,"name":"Renovo","admin3":"64200"}],"admin3":[{"geonameid":5178161,"name":"Township of Allison","admin3":"02032"},{"geonameid":5178740,"name":"Borough of Avis","admin3":"03632"},{"geonameid":5178910,"name":"Township of Bald Eagle","admin3":"03912"},{"geonameid":5179665,"name":"Borough of Beech Creek","admin3":"04984"},{"geonameid":5179666,"name":"Township of Beech Creek","admin3":"04992"},{"geonameid":5183417,"name":"Township of Castanea","admin3":"11640"},{"geonameid":5183868,"name":"Township of Chapman","admin3":"12640"},{"geonameid":5184916,"name":"Township of Colebrook","admin3":"14960"},{"geonameid":5185818,"name":"Township of Crawford","admin3":"16976"},{"geonameid":5187572,"name":"Township of Dunnstable","admin3":"20408"},{"geonameid":5187959,"name":"Township of East Keating","admin3":"21328"},{"geonameid":5189840,"name":"Borough of Flemington","admin3":"26296"},{"geonameid":5190755,"name":"Township of Gallagher","admin3":"28296"},{"geonameid":5191965,"name":"Township of Greene","admin3":"30928"},{"geonameid":5192229,"name":"Township of Grugan","admin3":"31680"},{"geonameid":5197038,"name":"Township of Lamar","admin3":"41112"},{"geonameid":5197701,"name":"Township of Leidy","admin3":"42544"},{"geonameid":5198640,"name":"City of Lock Haven","admin3":"44128"},{"geonameid":5198771,"name":"Township of Logan","admin3":"44336"},{"geonameid":5198778,"name":"Borough of Loganton","admin3":"44400"},{"geonameid":5201246,"name":"Borough of Mill Hall","admin3":"49760"},{"geonameid":5203920,"name":"Township of Noyes","admin3":"55744"},{"geonameid":5206020,"name":"Township of Pine Creek","admin3":"60360"},{"geonameid":5206983,"name":"Township of Porter","admin3":"62152"},{"geonameid":5208031,"name":"Borough of Renovo","admin3":"64200"},{"geonameid":5213090,"name":"Borough of South Renovo","admin3":"72448"},{"geonameid":5218285,"name":"Township of Wayne","admin3":"81728"},{"geonameid":5218789,"name":"Township of West Keating","admin3":"83240"},{"geonameid":5220116,"name":"Township of Woodward","admin3":"86448"}],"alternateNames":[{"alternatenameId":2186547,"geonameid":6254927,"isoLanguage":"en","alternateName":"Pennsylvania","isPreferredName":true,"isShortName":true,"isColloquial":false,"isHistoric":false}]},"__N_SSG":true}