{"pageProps":{"locale":"en","admin2":{"geonameid":5186395,"name":"Dauphin County","country":"US","admin1":"PA","admin2":"043","admin3":"","latitude":"40.4154400","longitude":"-76.7794700"},"admin1":{"geonameid":6254927,"name":"Pennsylvania","admin1":"PA","localeAltName":"Pennsylvania"},"locations":[{"geonameid":5181562,"name":"Bressler","admin3":"75672"},{"geonameid":5185006,"name":"Colonial Park","admin3":"45056"},{"geonameid":5188482,"name":"Elizabethville","admin3":"23024"},{"geonameid":5188784,"name":"Enhaut","admin3":"75672"},{"geonameid":5192726,"name":"Harrisburg","admin3":"32800"},{"geonameid":5193342,"name":"Hershey","admin3":"18936"},{"geonameid":5193622,"name":"Highspire","admin3":"34664"},{"geonameid":5194513,"name":"Hummelstown","admin3":"36232"},{"geonameid":5197435,"name":"Lawnton","admin3":"75672"},{"geonameid":5197445,"name":"Lawrence Park","admin3":"45056"},{"geonameid":5198180,"name":"Linglestown","admin3":"45056"},{"geonameid":5199324,"name":"Lykens","admin3":"45592"},{"geonameid":5200122,"name":"Matamoras","admin3":"32040"},{"geonameid":5201027,"name":"Middletown","admin3":"49128"},{"geonameid":5201405,"name":"Millersburg","admin3":"49680"},{"geonameid":5204944,"name":"Palmdale","admin3":"18936"},{"geonameid":5205249,"name":"Paxtang","admin3":"58504"},{"geonameid":5205267,"name":"Paxtonia","admin3":"45056"},{"geonameid":5205343,"name":"Penbrook","admin3":"58712"},{"geonameid":5207214,"name":"Progress","admin3":"75528"},{"geonameid":5209232,"name":"Royalton","admin3":"66560"},{"geonameid":5209362,"name":"Rutherford","admin3":"75672"},{"geonameid":5212430,"name":"Skyline View","admin3":"83128"},{"geonameid":5214040,"name":"Steelton","admin3":"73888"},{"geonameid":5219592,"name":"Williamstown","admin3":"85320"}],"admin3":[{"geonameid":5180089,"name":"Borough of Berrysburg","admin3":"05856"},{"geonameid":5185179,"name":"Township of Conewago","admin3":"15640"},{"geonameid":5186398,"name":"Borough of Dauphin","admin3":"18272"},{"geonameid":5186787,"name":"Township of Derry","admin3":"18936"},{"geonameid":5187933,"name":"Township of East Hanover","admin3":"21208"},{"geonameid":5188483,"name":"Borough of Elizabethville","admin3":"23024"},{"geonameid":5191721,"name":"Borough of Gratz","admin3":"30600"},{"geonameid":5192397,"name":"Borough of Halifax","admin3":"32032"},{"geonameid":5192398,"name":"Township of Halifax","admin3":"32040"},{"geonameid":5192740,"name":"City of Harrisburg","admin3":"32800"},{"geonameid":5193623,"name":"Borough of Highspire","admin3":"34664"},{"geonameid":5194515,"name":"Borough of Hummelstown","admin3":"36232"},{"geonameid":5195164,"name":"Township of Jackson","admin3":"37368"},{"geonameid":5195336,"name":"Township of Jefferson","admin3":"37864"},{"geonameid":5198793,"name":"Township of Londonderry","admin3":"44464"},{"geonameid":5199152,"name":"Township of Lower Paxton","admin3":"45056"},{"geonameid":5199179,"name":"Township of Lower Swatara","admin3":"45120"},{"geonameid":5199325,"name":"Township of Lykens","admin3":"45600"},{"geonameid":5200978,"name":"Township of Middle Paxton","admin3":"49040"},{"geonameid":5201042,"name":"Borough of Middletown","admin3":"49128"},{"geonameid":5201078,"name":"Township of Mifflin","admin3":"49264"},{"geonameid":5201406,"name":"Borough of Millersburg","admin3":"49680"},{"geonameid":5205253,"name":"Borough of Paxtang","admin3":"58504"},{"geonameid":5205345,"name":"Borough of Penbrook","admin3":"58712"},{"geonameid":5205966,"name":"Borough of Pillow","admin3":"60264"},{"geonameid":5207893,"name":"Township of Reed","admin3":"63928"},{"geonameid":5209235,"name":"Borough of Royalton","admin3":"66560"},{"geonameid":5209319,"name":"Township of Rush","admin3":"66744"},{"geonameid":5213028,"name":"Township of South Hanover","admin3":"72200"},{"geonameid":5214044,"name":"Borough of Steelton","admin3":"73888"},{"geonameid":5214930,"name":"Township of Susquehanna","admin3":"75528"},{"geonameid":5215008,"name":"Township of Swatara","admin3":"75672"},{"geonameid":5216872,"name":"Township of Upper Paxton","admin3":"79216"},{"geonameid":5218144,"name":"Township of Washington","admin3":"81216"},{"geonameid":5218287,"name":"Township of Wayne","admin3":"81744"},{"geonameid":5218728,"name":"Township of West Hanover","admin3":"83128"},{"geonameid":5219388,"name":"Township of Wiconisco","admin3":"84976"},{"geonameid":5219571,"name":"Township of Williams","admin3":"85232"},{"geonameid":5219596,"name":"Borough of Williamstown","admin3":"85320"},{"geonameid":6326714,"name":"Borough of Lykens","admin3":"45592"}],"alternateNames":[{"alternatenameId":2186547,"geonameid":6254927,"isoLanguage":"en","alternateName":"Pennsylvania","isPreferredName":true,"isShortName":true,"isColloquial":false,"isHistoric":false}]},"__N_SSG":true}