{"pageProps":{"locale":"en","admin2":{"geonameid":5188847,"name":"Erie County","country":"US","admin1":"PA","admin2":"049","admin3":"","latitude":"42.1174800","longitude":"-80.0981100"},"admin1":{"geonameid":6254927,"name":"Pennsylvania","admin1":"PA","localeAltName":"Pennsylvania"},"locations":[{"geonameid":5177944,"name":"Albion","admin3":"00628"},{"geonameid":5178748,"name":"Avonia","admin3":"24864"},{"geonameid":5185490,"name":"Corry","admin3":"16296"},{"geonameid":5188306,"name":"Edinboro","admin3":"22608"},{"geonameid":5188843,"name":"Erie","admin3":"24000"},{"geonameid":5189124,"name":"Fairview","admin3":"24864"},{"geonameid":5191161,"name":"Girard","admin3":"29232"},{"geonameid":5196767,"name":"Lake City","admin3":"40960"},{"geonameid":5197446,"name":"Lawrence Park","admin3":"41984"},{"geonameid":5203634,"name":"North East","admin3":"54952"},{"geonameid":7258393,"name":"Northwest Harborcreek","admin3":"32520"},{"geonameid":5216639,"name":"Union City","admin3":"78448"},{"geonameid":5218198,"name":"Waterford","admin3":"81456"},{"geonameid":5218531,"name":"Wesleyville","admin3":"82344"}],"admin3":[{"geonameid":5177946,"name":"Borough of Albion","admin3":"00628"},{"geonameid":5178259,"name":"Township of Amity","admin3":"02336"},{"geonameid":5185119,"name":"Township of Concord","admin3":"15504"},{"geonameid":5185224,"name":"Township of Conneaut","admin3":"15736"},{"geonameid":5185493,"name":"City of Corry","admin3":"16296"},{"geonameid":5185792,"name":"Borough of Cranesville","admin3":"16960"},{"geonameid":5188311,"name":"Borough of Edinboro","admin3":"22608"},{"geonameid":5188457,"name":"Borough of Elgin","admin3":"22960"},{"geonameid":5188494,"name":"Township of Elk Creek","admin3":"23088"},{"geonameid":5188867,"name":"City of Erie","admin3":"24000"},{"geonameid":5189239,"name":"Township of Fairview","admin3":"24864"},{"geonameid":5190391,"name":"Township of Franklin","admin3":"27392"},{"geonameid":5191166,"name":"Borough of Girard","admin3":"29232"},{"geonameid":5191168,"name":"Township of Girard","admin3":"29240"},{"geonameid":5191966,"name":"Township of Greene","admin3":"30936"},{"geonameid":5191983,"name":"Township of Greenfield","admin3":"31008"},{"geonameid":5192625,"name":"Township of Harborcreek","admin3":"32520"},{"geonameid":5196770,"name":"Borough of Lake City","admin3":"40960"},{"geonameid":5197448,"name":"Township of Lawrence Park","admin3":"41984"},{"geonameid":5197483,"name":"Township of LeBoeuf","admin3":"42208"},{"geonameid":5200457,"name":"Borough of McKean","admin3":"46216"},{"geonameid":5200458,"name":"Township of McKean","admin3":"46224"},{"geonameid":5201292,"name":"Borough of Mill Village","admin3":"49936"},{"geonameid":5201314,"name":"Township of Millcreek","admin3":"49548"},{"geonameid":5203629,"name":"Borough of North East","admin3":"54952"},{"geonameid":5203630,"name":"Township of North East","admin3":"54960"},{"geonameid":5206448,"name":"Borough of Platea","admin3":"61168"},{"geonameid":5213477,"name":"Township of Springfield","admin3":"73048"},{"geonameid":5214801,"name":"Township of Summit","admin3":"75208"},{"geonameid":5216647,"name":"Borough of Union City","admin3":"78448"},{"geonameid":5216706,"name":"Township of Union","admin3":"78312"},{"geonameid":5217149,"name":"Township of Venango","admin3":"79928"},{"geonameid":5218145,"name":"Township of Washington","admin3":"81224"},{"geonameid":5218201,"name":"Borough of Waterford","admin3":"81456"},{"geonameid":5218202,"name":"Township of Waterford","admin3":"81472"},{"geonameid":5218261,"name":"Borough of Wattsburg","admin3":"81648"},{"geonameid":5218288,"name":"Township of Wayne","admin3":"81760"},{"geonameid":5218532,"name":"Borough of Wesleyville","admin3":"82344"}],"alternateNames":[{"alternatenameId":2186547,"geonameid":6254927,"isoLanguage":"en","alternateName":"Pennsylvania","isPreferredName":true,"isShortName":true,"isColloquial":false,"isHistoric":false}]},"__N_SSG":true}