{"pageProps":{"locale":"en","admin2":{"geonameid":5196674,"name":"Lackawanna County","country":"US","admin1":"PA","admin2":"069","admin3":"","latitude":"41.4367900","longitude":"-75.6092000"},"admin1":{"geonameid":6254927,"name":"Pennsylvania","admin1":"PA","localeAltName":"Pennsylvania"},"locations":[{"geonameid":5178450,"name":"Archbald","admin3":"02832"},{"geonameid":8480065,"name":"Big Bass Lake","admin3":"14256"},{"geonameid":5180843,"name":"Blakely","admin3":"06928"},{"geonameid":5183204,"name":"Carbondale","admin3":"11232"},{"geonameid":5184233,"name":"Chinchilla","admin3":"71872"},{"geonameid":5184469,"name":"Clarks Green","admin3":"13880"},{"geonameid":5184490,"name":"Clarks Summit","admin3":"13880"},{"geonameid":5186267,"name":"Dalton","admin3":"18088"},{"geonameid":5186924,"name":"Dickson City","admin3":"19160"},{"geonameid":5187542,"name":"Dunmore","admin3":"20352"},{"geonameid":5195399,"name":"Jermyn","admin3":"38096"},{"geonameid":5195437,"name":"Jessup","admin3":"38160"},{"geonameid":5200194,"name":"Mayfield","admin3":"48176"},{"geonameid":5201901,"name":"Moosic","admin3":"50880"},{"geonameid":5202009,"name":"Moscow","admin3":"51208"},{"geonameid":5202141,"name":"Mount Cobb","admin3":"37896"},{"geonameid":5204331,"name":"Old Forge","admin3":"56576"},{"geonameid":5204476,"name":"Olyphant","admin3":"56792"},{"geonameid":5211303,"name":"Scranton","admin3":"69000"},{"geonameid":5212312,"name":"Simpson","admin3":"25560"},{"geonameid":5215247,"name":"Taylor","admin3":"76184"},{"geonameid":5215611,"name":"Throop","admin3":"76648"}],"admin3":[{"geonameid":5178455,"name":"Borough of Archbald","admin3":"02832"},{"geonameid":5180018,"name":"Township of Benton","admin3":"05696"},{"geonameid":5180846,"name":"Borough of Blakely","admin3":"06928"},{"geonameid":5183208,"name":"City of Carbondale","admin3":"11232"},{"geonameid":5183209,"name":"Township of Carbondale","admin3":"11240"},{"geonameid":5184470,"name":"Borough of Clarks Green","admin3":"13864"},{"geonameid":5184481,"name":"Borough of Clarks Summit","admin3":"13880"},{"geonameid":5184615,"name":"Township of Clifton","admin3":"14256"},{"geonameid":5185637,"name":"Township of Covington","admin3":"16664"},{"geonameid":5186271,"name":"Borough of Dalton","admin3":"18088"},{"geonameid":5186925,"name":"Borough of Dickson City","admin3":"19160"},{"geonameid":5187551,"name":"Borough of Dunmore","admin3":"20352"},{"geonameid":5188638,"name":"Township of Elmhurst","admin3":"23336"},{"geonameid":5189439,"name":"Township of Fell","admin3":"25560"},{"geonameid":5191294,"name":"Township of Glenburn","admin3":"29504"},{"geonameid":5191984,"name":"Township of Greenfield","admin3":"31016"},{"geonameid":5195338,"name":"Township of Jefferson","admin3":"37896"},{"geonameid":5195404,"name":"Borough of Jermyn","admin3":"38096"},{"geonameid":5195440,"name":"Borough of Jessup","admin3":"38160"},{"geonameid":5196651,"name":"Township of La Plume","admin3":"41504"},{"geonameid":5199461,"name":"Township of Madison","admin3":"46480"},{"geonameid":5200197,"name":"Borough of Mayfield","admin3":"48176"},{"geonameid":5201890,"name":"Borough of Moosic","admin3":"50880"},{"geonameid":5202011,"name":"Borough of Moscow","admin3":"51208"},{"geonameid":5203350,"name":"Township of Newton","admin3":"54136"},{"geonameid":5203514,"name":"Township of North Abington","admin3":"54680"},{"geonameid":5204336,"name":"Borough of Old Forge","admin3":"56576"},{"geonameid":5204484,"name":"Borough of Olyphant","admin3":"56792"},{"geonameid":5207598,"name":"Township of Ransom","admin3":"63432"},{"geonameid":5208519,"name":"Township of Roaring Brook","admin3":"65224"},{"geonameid":5211276,"name":"Township of Scott","admin3":"68400"},{"geonameid":5211312,"name":"City of Scranton","admin3":"69000"},{"geonameid":5212906,"name":"Township of South Abington","admin3":"71872"},{"geonameid":5213314,"name":"Township of Spring Brook","admin3":"72896"},{"geonameid":5215282,"name":"Borough of Taylor","admin3":"76184"},{"geonameid":5215567,"name":"Township of Thornhurst","admin3":"76601"},{"geonameid":5215612,"name":"Borough of Throop","admin3":"76648"},{"geonameid":5217115,"name":"Borough of Vandling","admin3":"79792"},{"geonameid":5218533,"name":"Township of West Abington","admin3":"82360"}],"alternateNames":[{"alternatenameId":2186547,"geonameid":6254927,"isoLanguage":"en","alternateName":"Pennsylvania","isPreferredName":true,"isShortName":true,"isColloquial":false,"isHistoric":false}]},"__N_SSG":true}