{"pageProps":{"locale":"en","admin2":{"geonameid":5197085,"name":"Lancaster County","country":"US","admin1":"PA","admin2":"071","admin3":"","latitude":"40.0424400","longitude":"-76.2477000"},"admin1":{"geonameid":6254927,"name":"Pennsylvania","admin1":"PA","localeAltName":"Pennsylvania"},"locations":[{"geonameid":5177874,"name":"Adamstown","admin3":"00364"},{"geonameid":5177922,"name":"Akron","admin3":"00540"},{"geonameid":5178839,"name":"Bainbridge","admin3":"15824"},{"geonameid":5180958,"name":"Blue Ball","admin3":"21072"},{"geonameid":5181326,"name":"Bowmansville","admin3":"08352"},{"geonameid":5181605,"name":"Brickerville","admin3":"23008"},{"geonameid":5181940,"name":"Brownstown","admin3":"82824"},{"geonameid":4557181,"name":"Christiana","admin3":"13512"},{"geonameid":5184494,"name":"Clay","admin3":"13960"},{"geonameid":5185029,"name":"Columbia","admin3":"15384"},{"geonameid":4557316,"name":"Conestoga","admin3":"15592"},{"geonameid":5186794,"name":"Denver","admin3":"18888"},{"geonameid":5187889,"name":"East Earl","admin3":"21072"},{"geonameid":5188022,"name":"East Petersburg","admin3":"21688"},{"geonameid":5188474,"name":"Elizabethtown","admin3":"23016"},{"geonameid":5188815,"name":"Ephrata","admin3":"23832"},{"geonameid":5189796,"name":"Fivepointville","admin3":"08352"},{"geonameid":4558131,"name":"Gap","admin3":"67568"},{"geonameid":4558172,"name":"Georgetown","admin3":"04376"},{"geonameid":5194941,"name":"Intercourse","admin3":"42080"},{"geonameid":4559065,"name":"Lampeter","admin3":"83256"},{"geonameid":5197079,"name":"Lancaster","admin3":"41216"},{"geonameid":5197120,"name":"Landisville","admin3":"21232"},{"geonameid":5197749,"name":"Leola","admin3":"79080"},{"geonameid":5198218,"name":"Lititz","admin3":"43816"},{"geonameid":5199648,"name":"Manheim","admin3":"46888"},{"geonameid":5199879,"name":"Marietta","admin3":"47424"},{"geonameid":5200208,"name":"Maytown","admin3":"21032"},{"geonameid":4559685,"name":"Millersville","admin3":"49728"},{"geonameid":5202202,"name":"Mount Joy","admin3":"51656"},{"geonameid":5202566,"name":"Mountville","admin3":"52016"},{"geonameid":5203221,"name":"New Holland","admin3":"53696"},{"geonameid":5205052,"name":"Paradise","admin3":"57848"},{"geonameid":5205613,"name":"Penryn","admin3":"58840"},{"geonameid":4560577,"name":"Quarryville","admin3":"63064"},{"geonameid":5207745,"name":"Reamstown","admin3":"20984"},{"geonameid":5207989,"name":"Reinholds","admin3":"82728"},{"geonameid":5208119,"name":"Rheems","admin3":"82816"},{"geonameid":5209110,"name":"Rothsville","admin3":"81168"},{"geonameid":5210741,"name":"Salunga","admin3":"21232"},{"geonameid":5211129,"name":"Schoeneck","admin3":"82728"},{"geonameid":4561542,"name":"Strasburg","admin3":"74712"},{"geonameid":5214999,"name":"Swartzville","admin3":"20984"},{"geonameid":5215373,"name":"Terre Hill","admin3":"76400"},{"geonameid":4562275,"name":"Willow Street","admin3":"83256"}],"admin3":[{"geonameid":4556406,"name":"Township of Bart","admin3":"04376"},{"geonameid":4557183,"name":"Borough of Christiana","admin3":"13512"},{"geonameid":4557282,"name":"Township of Colerain","admin3":"15056"},{"geonameid":4557329,"name":"Township of Conestoga","admin3":"15592"},{"geonameid":4557615,"name":"Township of Drumore","admin3":"20032"},{"geonameid":4557696,"name":"Township of East Drumore","admin3":"21040"},{"geonameid":4557738,"name":"Township of Eden","admin3":"22336"},{"geonameid":4558108,"name":"Township of Fulton","admin3":"28168"},{"geonameid":4559237,"name":"Township of Little Britain","admin3":"43832"},{"geonameid":4559408,"name":"Township of Manor","admin3":"46992"},{"geonameid":4559468,"name":"Township of Martic","admin3":"47824"},{"geonameid":4560245,"name":"Township of Paradise","admin3":"57848"},{"geonameid":4560324,"name":"Township of Pequea","admin3":"59360"},{"geonameid":4560556,"name":"Township of Providence","admin3":"62832"},{"geonameid":4560581,"name":"Borough of Quarryville","admin3":"63064"},{"geonameid":4560885,"name":"Township of Sadsbury","admin3":"67096"},{"geonameid":4561067,"name":"Township of Salisbury","admin3":"67568"},{"geonameid":4561546,"name":"Borough of Strasburg","admin3":"74712"},{"geonameid":4561547,"name":"Township of Strasburg","admin3":"74720"},{"geonameid":4562153,"name":"Township of West Lampeter","admin3":"83256"},{"geonameid":5177876,"name":"Borough of Adamstown","admin3":"00364"},{"geonameid":5177924,"name":"Borough of Akron","admin3":"00540"},{"geonameid":5181535,"name":"Township of Brecknock","admin3":"08352"},{"geonameid":5182699,"name":"Township of Caernarvon","admin3":"10704"},{"geonameid":5184501,"name":"Township of Clay","admin3":"13960"},{"geonameid":5185042,"name":"Borough of Columbia","admin3":"15384"},{"geonameid":5185258,"name":"Township of Conoy","admin3":"15824"},{"geonameid":5186763,"name":"Borough of Denver","admin3":"18888"},{"geonameid":5187741,"name":"Township of Earl","admin3":"20688"},{"geonameid":5187873,"name":"Township of East Cocalico","admin3":"20984"},{"geonameid":5187886,"name":"Township of East Donegal","admin3":"21032"},{"geonameid":5187890,"name":"Township of East Earl","admin3":"21072"},{"geonameid":5187937,"name":"Township of East Hempfield","admin3":"21232"},{"geonameid":5187968,"name":"Township of East Lampeter","admin3":"21344"},{"geonameid":5188025,"name":"Borough of East Petersburg","admin3":"21688"},{"geonameid":5188472,"name":"Township of Elizabeth","admin3":"23008"},{"geonameid":5188480,"name":"Borough of Elizabethtown","admin3":"23016"},{"geonameid":5188820,"name":"Borough of Ephrata","admin3":"23832"},{"geonameid":5188821,"name":"Township of Ephrata","admin3":"23840"},{"geonameid":5197098,"name":"City of Lancaster","admin3":"41216"},{"geonameid":5197100,"name":"Township of Lancaster","admin3":"41224"},{"geonameid":5197490,"name":"Township of Leacock","admin3":"42080"},{"geonameid":5198222,"name":"Borough of Lititz","admin3":"43816"},{"geonameid":5199656,"name":"Borough of Manheim","admin3":"46888"},{"geonameid":5199657,"name":"Township of Manheim","admin3":"46896"},{"geonameid":5199880,"name":"Borough of Marietta","admin3":"47424"},{"geonameid":5201415,"name":"Borough of Millersville","admin3":"49728"},{"geonameid":5202209,"name":"Borough of Mount Joy","admin3":"51656"},{"geonameid":5202210,"name":"Township of Mount Joy","admin3":"51664"},{"geonameid":5202562,"name":"Borough of Mountville","admin3":"52016"},{"geonameid":5203195,"name":"Borough of New Holland","admin3":"53696"},{"geonameid":5205440,"name":"Township of Penn","admin3":"58840"},{"geonameid":5207600,"name":"Township of Rapho","admin3":"63440"},{"geonameid":5215374,"name":"Borough of Terre Hill","admin3":"76400"},{"geonameid":5216838,"name":"Township of Upper Leacock","admin3":"79080"},{"geonameid":5218059,"name":"Township of Warwick","admin3":"81168"},{"geonameid":5218649,"name":"Township of West Cocalico","admin3":"82728"},{"geonameid":5218675,"name":"Township of West Donegal","admin3":"82816"},{"geonameid":5218677,"name":"Township of West Earl","admin3":"82824"},{"geonameid":5218735,"name":"Township of West Hempfield","admin3":"83152"}],"alternateNames":[{"alternatenameId":2186547,"geonameid":6254927,"isoLanguage":"en","alternateName":"Pennsylvania","isPreferredName":true,"isShortName":true,"isColloquial":false,"isHistoric":false}]},"__N_SSG":true}