{"pageProps":{"locale":"en","admin2":{"geonameid":5197646,"name":"Lehigh County","country":"US","admin1":"PA","admin2":"077","admin3":"","latitude":"40.6127100","longitude":"-75.5923700"},"admin1":{"geonameid":6254927,"name":"Pennsylvania","admin1":"PA","localeAltName":"Pennsylvania"},"locations":[{"geonameid":5177951,"name":"Alburtis","admin3":"00660"},{"geonameid":5178127,"name":"Allentown","admin3":"02000"},{"geonameid":5178280,"name":"Ancient Oaks","admin3":"44952"},{"geonameid":5181570,"name":"Breinigsville","admin3":"79104"},{"geonameid":5183438,"name":"Catasauqua","admin3":"11720"},{"geonameid":5183576,"name":"Cementon","admin3":""},{"geonameid":5183791,"name":"Cetronia","admin3":"72632"},{"geonameid":5185380,"name":"Coopersburg","admin3":"16056"},{"geonameid":5185397,"name":"Coplay","admin3":"16128"},{"geonameid":5187157,"name":"Dorneyville","admin3":"72632"},{"geonameid":5188351,"name":"Egypt","admin3":""},{"geonameid":5188726,"name":"Emmaus","admin3":"23584"},{"geonameid":5190150,"name":"Fountain Hill","admin3":"27008"},{"geonameid":5190679,"name":"Fullerton","admin3":""},{"geonameid":5193863,"name":"Hokendauqua","admin3":""},{"geonameid":5197413,"name":"Laurys Station","admin3":"55576"},{"geonameid":5199439,"name":"Macungie","admin3":"46392"},{"geonameid":5211128,"name":"Schnecksville","admin3":"55576"},{"geonameid":5212477,"name":"Slatington","admin3":"71144"},{"geonameid":5214175,"name":"Stiles","admin3":""},{"geonameid":5216013,"name":"Trexlertown","admin3":"79104"},{"geonameid":5218505,"name":"Wescosville","admin3":"44952"},{"geonameid":5219287,"name":"Whitehall Township","admin3":"16128"}],"admin3":[{"geonameid":5177953,"name":"Borough of Alburtis","admin3":"00660"},{"geonameid":5178154,"name":"City of Allentown","admin3":"02000"},{"geonameid":5183442,"name":"Borough of Catasauqua","admin3":"11720"},{"geonameid":5185382,"name":"Borough of Coopersburg","admin3":"16056"},{"geonameid":5185401,"name":"Borough of Coplay","admin3":"16128"},{"geonameid":5188731,"name":"Borough of Emmaus","admin3":"23584"},{"geonameid":5190153,"name":"Borough of Fountain Hill","admin3":"27008"},{"geonameid":5192588,"name":"Township of Hanover","admin3":"32400"},{"geonameid":5193108,"name":"Township of Heidelberg","admin3":"33616"},{"geonameid":5199129,"name":"Township of Lower Macungie","admin3":"44952"},{"geonameid":5199136,"name":"Township of Lower Milford","admin3":"44992"},{"geonameid":5199202,"name":"Township of Lowhill","admin3":"45168"},{"geonameid":5199365,"name":"Township of Lynn","admin3":"45656"},{"geonameid":5199437,"name":"Borough of Macungie","admin3":"46392"},{"geonameid":5203799,"name":"Township of North Whitehall","admin3":"55576"},{"geonameid":5210698,"name":"Township of Salisbury","admin3":"67576"},{"geonameid":5212480,"name":"Borough of Slatington","admin3":"71144"},{"geonameid":5213129,"name":"Township of South Whitehall","admin3":"72632"},{"geonameid":5216853,"name":"Township of Upper Milford","admin3":"79160"},{"geonameid":5216861,"name":"Township of Upper Macungie","admin3":"79104"},{"geonameid":5216900,"name":"Township of Upper Saucon","admin3":"79288"},{"geonameid":5218150,"name":"Township of Washington","admin3":"81280"},{"geonameid":5218400,"name":"Township of Weisenberg","admin3":"82064"}],"alternateNames":[{"alternatenameId":2186547,"geonameid":6254927,"isoLanguage":"en","alternateName":"Pennsylvania","isPreferredName":true,"isShortName":true,"isColloquial":false,"isHistoric":false}]},"__N_SSG":true}