{"pageProps":{"locale":"en","admin2":{"geonameid":5207042,"name":"Potter County","country":"US","admin1":"PA","admin2":"105","admin3":"","latitude":"41.7449200","longitude":"-77.8958100"},"admin1":{"geonameid":6254927,"name":"Pennsylvania","admin1":"PA","localeAltName":"Pennsylvania"},"locations":[{"geonameid":5185531,"name":"Coudersport","admin3":"16448"},{"geonameid":5190743,"name":"Galeton","admin3":"28280"},{"geonameid":5212002,"name":"Shinglehouse","admin3":"70304"}],"admin3":[{"geonameid":5177766,"name":"Township of Abbott","admin3":"00108"},{"geonameid":5178046,"name":"Township of Allegany","admin3":"00836"},{"geonameid":5178734,"name":"Borough of Austin","admin3":"03576"},{"geonameid":5180568,"name":"Township of Bingham","admin3":"06432"},{"geonameid":5184413,"name":"Township of Clara","admin3":"13760"},{"geonameid":5185537,"name":"Borough of Coudersport","admin3":"16448"},{"geonameid":5188913,"name":"Township of Eulalia","admin3":"24184"},{"geonameid":5190746,"name":"Borough of Galeton","admin3":"28280"},{"geonameid":5190949,"name":"Township of Genesee","admin3":"28760"},{"geonameid":5192753,"name":"Township of Harrison","admin3":"32848"},{"geonameid":5193064,"name":"Township of Hebron","admin3":"33512"},{"geonameid":5193082,"name":"Township of Hector","admin3":"33568"},{"geonameid":5194065,"name":"Township of Homer","admin3":"35400"},{"geonameid":5195822,"name":"Township of Keating","admin3":"38920"},{"geonameid":5204642,"name":"Borough of Oswayo","admin3":"57280"},{"geonameid":5204643,"name":"Township of Oswayo","admin3":"57288"},{"geonameid":5205940,"name":"Township of Pike","admin3":"60200"},{"geonameid":5206568,"name":"Township of Pleasant Valley","admin3":"61400"},{"geonameid":5206967,"name":"Township of Portage","admin3":"62072"},{"geonameid":5209118,"name":"Township of Roulette","admin3":"66416"},{"geonameid":5211692,"name":"Township of Sharon","admin3":"69736"},{"geonameid":5211999,"name":"Borough of Shinglehouse","admin3":"70304"},{"geonameid":5214144,"name":"Township of Stewardson","admin3":"74072"},{"geonameid":5214802,"name":"Township of Summit","admin3":"75224"},{"geonameid":5215025,"name":"Township of Sweden","admin3":"75720"},{"geonameid":5215105,"name":"Township of Sylvania","admin3":"75952"},{"geonameid":5216558,"name":"Borough of Ulysses","admin3":"78240"},{"geonameid":5216559,"name":"Township of Ulysses","admin3":"78248"},{"geonameid":5218630,"name":"Township of West Branch","admin3":"82568"},{"geonameid":5219074,"name":"Township of Wharton","admin3":"84360"}],"alternateNames":[{"alternatenameId":2186547,"geonameid":6254927,"isoLanguage":"en","alternateName":"Pennsylvania","isPreferredName":true,"isShortName":true,"isColloquial":false,"isHistoric":false}]},"__N_SSG":true}