{"pageProps":{"locale":"en","admin2":{"geonameid":5212772,"name":"Snyder County","country":"US","admin1":"PA","admin2":"109","admin3":"","latitude":"40.7698400","longitude":"-77.0701900"},"admin1":{"geonameid":6254927,"name":"Pennsylvania","admin1":"PA","localeAltName":"Pennsylvania"},"locations":[{"geonameid":5194512,"name":"Hummels Wharf","admin3":"50488"},{"geonameid":5201006,"name":"Middleburg","admin3":"48960"},{"geonameid":5211411,"name":"Selinsgrove","admin3":"69216"},{"geonameid":5211637,"name":"Shamokin Dam","admin3":"69616"}],"admin3":[{"geonameid":4833670,"name":"Borough of Selinsgrove","admin3":"69216"},{"geonameid":5177868,"name":"Township of Adams","admin3":"00316"},{"geonameid":5179575,"name":"Township of Beaver","admin3":"04736"},{"geonameid":5179610,"name":"Borough of Beavertown","admin3":"04848"},{"geonameid":5183674,"name":"Township of Center","admin3":"12060"},{"geonameid":5183869,"name":"Township of Chapman","admin3":"12672"},{"geonameid":5190395,"name":"Township of Franklin","admin3":"27440"},{"geonameid":5190460,"name":"Borough of Freeburg","admin3":"27696"},{"geonameid":5195172,"name":"Township of Jackson","admin3":"37448"},{"geonameid":5200300,"name":"Borough of McClure","admin3":"45992"},{"geonameid":5201007,"name":"Borough of Middleburg","admin3":"48960"},{"geonameid":5201011,"name":"Township of Middlecreek","admin3":"49016"},{"geonameid":5201731,"name":"Township of Monroe","admin3":"50488"},{"geonameid":5205443,"name":"Township of Penn","admin3":"58864"},{"geonameid":5205702,"name":"Township of Perry","admin3":"59504"},{"geonameid":5211625,"name":"Borough of Shamokin Dam","admin3":"69616"},{"geonameid":5213440,"name":"Township of Spring","admin3":"72856"},{"geonameid":5216714,"name":"Township of Union","admin3":"78408"},{"geonameid":5218155,"name":"Township of Washington","admin3":"81320"},{"geonameid":5218545,"name":"Township of West Beaver","admin3":"82464"},{"geonameid":5218844,"name":"Township of West Perry","admin3":"83808"}],"alternateNames":[{"alternatenameId":2186547,"geonameid":6254927,"isoLanguage":"en","alternateName":"Pennsylvania","isPreferredName":true,"isShortName":true,"isColloquial":false,"isHistoric":false}]},"__N_SSG":true}