{"pageProps":{"locale":"en","admin2":{"geonameid":5218076,"name":"Washington County","country":"US","admin1":"PA","admin2":"125","admin3":"","latitude":"40.1894000","longitude":"-80.2482400"},"admin1":{"geonameid":6254927,"name":"Pennsylvania","admin1":"PA","localeAltName":"Pennsylvania"},"locations":[{"geonameid":5178824,"name":"Baidland","admin3":"11424"},{"geonameid":5180021,"name":"Bentleyville","admin3":"05672"},{"geonameid":5182414,"name":"Burgettstown","admin3":"10224"},{"geonameid":5182733,"name":"California","admin3":"10768"},{"geonameid":5183161,"name":"Canonsburg","admin3":"11152"},{"geonameid":7258090,"name":"Cecil-Bishop","admin3":"11800"},{"geonameid":5183683,"name":"Centerville","admin3":"12224"},{"geonameid":5183891,"name":"Charleroi","admin3":"12704"},{"geonameid":5187134,"name":"Donora","admin3":"19536"},{"geonameid":5188105,"name":"East Washington","admin3":"22016"},{"geonameid":5190870,"name":"Gastonville","admin3":"78432"},{"geonameid":5194369,"name":"Houston","admin3":"35896"},{"geonameid":5199740,"name":"Maple Glen","admin3":"12224"},{"geonameid":5200371,"name":"McDonald","admin3":"46072"},{"geonameid":5200422,"name":"McGovern","admin3":"12848"},{"geonameid":5200544,"name":"McMurray","admin3":"59608"},{"geonameid":5201046,"name":"Midland","admin3":"12848"},{"geonameid":5201688,"name":"Monongahela","admin3":"50408"},{"geonameid":5202776,"name":"Muse","admin3":"11800"},{"geonameid":5203155,"name":"New Eagle","admin3":"53496"},{"geonameid":5203609,"name":"North Charleroi","admin3":"54888"},{"geonameid":5213220,"name":"Speers","admin3":"72736"},{"geonameid":5215541,"name":"Thompsonville","admin3":"59608"},{"geonameid":5218069,"name":"Washington","admin3":"81328"},{"geonameid":7259200,"name":"Wickerham Manor-Fisher","admin3":"11424"},{"geonameid":5219949,"name":"Wolfdale","admin3":"11176"}],"admin3":[{"geonameid":4557668,"name":"Township of East Bethlehem","admin3":"20808"},{"geonameid":4557694,"name":"Township of East Finley","admin3":"21144"},{"geonameid":4562113,"name":"Township of West Bethlehem","admin3":"82512"},{"geonameid":5178125,"name":"Borough of Allenport","admin3":"00988"},{"geonameid":5178272,"name":"Township of Amwell","admin3":"02384"},{"geonameid":5179230,"name":"Borough of Beallsville","admin3":"04568"},{"geonameid":5180012,"name":"Borough of Bentleyville","admin3":"05672"},{"geonameid":5180804,"name":"Township of Blaine","admin3":"06840"},{"geonameid":5182280,"name":"Township of Buffalo","admin3":"10032"},{"geonameid":5182412,"name":"Borough of Burgettstown","admin3":"10224"},{"geonameid":5182746,"name":"Borough of California","admin3":"10768"},{"geonameid":5183167,"name":"Borough of Canonsburg","admin3":"11152"},{"geonameid":5183172,"name":"Township of Canton","admin3":"11176"},{"geonameid":5183337,"name":"Township of Carroll","admin3":"11424"},{"geonameid":5183491,"name":"Township of Cecil","admin3":"11800"},{"geonameid":5183694,"name":"Borough of Centerville","admin3":"12224"},{"geonameid":5183879,"name":"Borough of Charleroi","admin3":"12704"},{"geonameid":5183925,"name":"Township of Chartiers","admin3":"12848"},{"geonameid":5184510,"name":"Borough of Claysville","admin3":"14000"},{"geonameid":5184699,"name":"Borough of Coal Center","admin3":"14568"},{"geonameid":5184858,"name":"Borough of Cokeburg","admin3":"14896"},{"geonameid":5185969,"name":"Township of Cross Creek","admin3":"17314"},{"geonameid":5186560,"name":"Borough of Deemston","admin3":"18496"},{"geonameid":5187119,"name":"Township of Donegal","admin3":"19464"},{"geonameid":5187136,"name":"Borough of Donora","admin3":"19536"},{"geonameid":5187539,"name":"Borough of Dunlevy","admin3":"20328"},{"geonameid":5188106,"name":"Borough of East Washington","admin3":"22016"},{"geonameid":5188403,"name":"Borough of Elco","admin3":"22800"},{"geonameid":5188618,"name":"Borough of Ellsworth","admin3":"23296"},{"geonameid":5189301,"name":"Township of Fallowfield","admin3":"25104"},{"geonameid":5189587,"name":"Borough of Finleyville","admin3":"25944"},{"geonameid":5191850,"name":"Borough of Green Hills","admin3":"31082"},{"geonameid":5192591,"name":"Township of Hanover","admin3":"32440"},{"geonameid":5194211,"name":"Township of Hopewell","admin3":"35696"},{"geonameid":5194375,"name":"Borough of Houston","admin3":"35896"},{"geonameid":5194762,"name":"Township of Independence","admin3":"36800"},{"geonameid":5195341,"name":"Township of Jefferson","admin3":"37936"},{"geonameid":5198810,"name":"Borough of Long Branch","admin3":"44512"},{"geonameid":5199872,"name":"Borough of Marianna","admin3":"47400"},{"geonameid":5200390,"name":"Borough of McDonald","admin3":"46072"},{"geonameid":5201064,"name":"Borough of Midway","admin3":"49240"},{"geonameid":5201701,"name":"City of Monongahela","admin3":"50408"},{"geonameid":5201977,"name":"Township of Morris","admin3":"51104"},{"geonameid":5202336,"name":"Township of Mount Pleasant","admin3":"51864"},{"geonameid":5203157,"name":"Borough of New Eagle","admin3":"53496"},{"geonameid":5203534,"name":"Township of North Bethlehem","admin3":"54800"},{"geonameid":5203610,"name":"Borough of North Charleroi","admin3":"54888"},{"geonameid":5203673,"name":"Township of North Franklin","admin3":"55040"},{"geonameid":5203771,"name":"Township of North Strabane","admin3":"55432"},{"geonameid":5203914,"name":"Township of Nottingham","admin3":"55712"},{"geonameid":5205748,"name":"Township of Peters","admin3":"59608"},{"geonameid":5208635,"name":"Township of Robinson","admin3":"65376"},{"geonameid":5208971,"name":"Borough of Roscoe","admin3":"66016"},{"geonameid":5212657,"name":"Township of Smith","admin3":"71288"},{"geonameid":5212869,"name":"Township of Somerset","admin3":"71792"},{"geonameid":5213045,"name":"Township of South Franklin","admin3":"72176"},{"geonameid":5213112,"name":"Township of South Strabane","admin3":"72504"},{"geonameid":5213223,"name":"Borough of Speers","admin3":"72736"},{"geonameid":5214216,"name":"Borough of Stockdale","admin3":"74224"},{"geonameid":5216412,"name":"Borough of Twilight","admin3":"78008"},{"geonameid":5216717,"name":"Township of Union","admin3":"78432"},{"geonameid":5218137,"name":"City of Washington","admin3":"81328"},{"geonameid":5218634,"name":"Borough of West Brownsville","admin3":"82616"},{"geonameid":5218710,"name":"Township of West Finley","admin3":"83000"},{"geonameid":5218801,"name":"Borough of West Middletown","admin3":"83504"},{"geonameid":5218847,"name":"Township of West Pike Run","admin3":"83840"}],"alternateNames":[{"alternatenameId":2186547,"geonameid":6254927,"isoLanguage":"en","alternateName":"Pennsylvania","isPreferredName":true,"isShortName":true,"isColloquial":false,"isHistoric":false}]},"__N_SSG":true}