{"pageProps":{"locale":"en","admin2":{"geonameid":4987673,"name":"Calhoun County","country":"US","admin1":"MI","admin2":"025","admin3":"","latitude":"42.2465300","longitude":"-85.0055900"},"admin1":{"geonameid":5001836,"name":"Michigan","admin1":"MI","localeAltName":"Michigan"},"locations":[{"geonameid":4983905,"name":"Albion","admin3":"00980"},{"geonameid":4984489,"name":"Athens","admin3":"03900"},{"geonameid":4985153,"name":"Battle Creek","admin3":"05920"},{"geonameid":4987154,"name":"Brownlee Park","admin3":"25935"},{"geonameid":4996369,"name":"Homer","admin3":"38940"},{"geonameid":4998703,"name":"Lakeview","admin3":"05920"},{"geonameid":7259362,"name":"Level Park-Oak Park","admin3":"06720"},{"geonameid":5000996,"name":"Marshall","admin3":"51940"},{"geonameid":5010917,"name":"Springfield","admin3":"75700"}],"admin3":[{"geonameid":4983908,"name":"City of Albion","admin3":"00980"},{"geonameid":4983909,"name":"Township of Albion","admin3":"01000"},{"geonameid":4984492,"name":"Township of Athens","admin3":"03900"},{"geonameid":4985159,"name":"City of Battle Creek","admin3":"05920"},{"geonameid":4985503,"name":"Charter Township of Bedford","admin3":"06720"},{"geonameid":4987412,"name":"Township of Burlington","admin3":"11820"},{"geonameid":4988941,"name":"Township of Clarence","admin3":"15960"},{"geonameid":4988949,"name":"Township of Clarendon","admin3":"16020"},{"geonameid":4989493,"name":"Township of Convis","admin3":"17880"},{"geonameid":4991789,"name":"Township of Eckford","admin3":"24700"},{"geonameid":4992145,"name":"Charter Township of Emmett","admin3":"25935"},{"geonameid":4993386,"name":"Township of Fredonia","admin3":"30500"},{"geonameid":4996377,"name":"Township of Homer","admin3":"38940"},{"geonameid":4999016,"name":"Township of Lee","admin3":"46620"},{"geonameid":4999118,"name":"Township of Leroy","admin3":"47060"},{"geonameid":5000852,"name":"Township of Marengo","admin3":"51520"},{"geonameid":5001012,"name":"City of Marshall","admin3":"51940"},{"geonameid":5001013,"name":"Township of Marshall","admin3":"51960"},{"geonameid":5003481,"name":"Township of Newton","admin3":"57620"},{"geonameid":5005291,"name":"Charter Township of Pennfield","admin3":"63440"},{"geonameid":5009647,"name":"Township of Sheridan","admin3":"72980"},{"geonameid":5010893,"name":"City of Springfield","admin3":"75700"},{"geonameid":5011988,"name":"Township of Tekonsha","admin3":"79180"}],"alternateNames":[{"alternatenameId":2124820,"geonameid":5001836,"isoLanguage":"en","alternateName":"Michigan","isPreferredName":true,"isShortName":true,"isColloquial":false,"isHistoric":false}]},"__N_SSG":true}