{"pageProps":{"locale":"en","admin2":{"geonameid":4990662,"name":"Delta County","country":"US","admin1":"MI","admin2":"041","admin3":"","latitude":"45.7916200","longitude":"-86.8706000"},"admin1":{"geonameid":5001836,"name":"Michigan","admin1":"MI","localeAltName":"Michigan"},"locations":[{"geonameid":4992232,"name":"Escanaba","admin3":"26360"},{"geonameid":4993981,"name":"Gladstone","admin3":"32300"}],"admin3":[{"geonameid":4984819,"name":"Township of Baldwin","admin3":"04900"},{"geonameid":4984950,"name":"Township of Bark River","admin3":"05420"},{"geonameid":4985214,"name":"Township of Bay de Noc","admin3":"06040"},{"geonameid":4986826,"name":"Township of Brampton","admin3":"09980"},{"geonameid":4989666,"name":"Township of Cornell","admin3":"18280"},{"geonameid":4992181,"name":"Township of Ensign","admin3":"26140"},{"geonameid":4992239,"name":"City of Escanaba","admin3":"26360"},{"geonameid":4992240,"name":"Township of Escanaba","admin3":"26380"},{"geonameid":4992400,"name":"Township of Fairbanks","admin3":"26960"},{"geonameid":4993090,"name":"Township of Ford River","admin3":"29380"},{"geonameid":4993674,"name":"Township of Garden","admin3":"31400"},{"geonameid":4993984,"name":"City of Gladstone","admin3":"32300"},{"geonameid":5000784,"name":"Township of Maple Ridge","admin3":"51260"},{"geonameid":5001131,"name":"Township of Masonville","admin3":"52220"},{"geonameid":5003209,"name":"Township of Nahma","admin3":"56500"},{"geonameid":5014365,"name":"Township of Wells","admin3":"85240"}],"alternateNames":[{"alternatenameId":2124820,"geonameid":5001836,"isoLanguage":"en","alternateName":"Michigan","isPreferredName":true,"isShortName":true,"isColloquial":false,"isHistoric":false}]},"__N_SSG":true}