{"pageProps":{"locale":"en","admin2":{"geonameid":4994374,"name":"Grand Traverse County","country":"US","admin1":"MI","admin2":"055","admin3":"","latitude":"44.7162400","longitude":"-85.5522000"},"admin1":{"geonameid":5001836,"name":"Michigan","admin1":"MI","localeAltName":"Michigan"},"locations":[{"geonameid":4998195,"name":"Kingsley","admin3":"62320"},{"geonameid":5012495,"name":"Traverse City","admin3":"80340"}],"admin3":[{"geonameid":4983755,"name":"Township of Acme","admin3":"00200"},{"geonameid":4986350,"name":"Township of Blair","admin3":"08880"},{"geonameid":4991497,"name":"Township of East Bay","admin3":"23800"},{"geonameid":4992677,"name":"Township of Fife Lake","admin3":"28020"},{"geonameid":4993708,"name":"Charter Township of Garfield","admin3":"31580"},{"geonameid":4994443,"name":"Township of Grant","admin3":"34240"},{"geonameid":4994652,"name":"Township of Green Lake","admin3":"34960"},{"geonameid":5000023,"name":"Township of Long Lake","admin3":"49240"},{"geonameid":5001212,"name":"Township of Mayfield","admin3":"52480"},{"geonameid":5004944,"name":"Township of Paradise","admin3":"62320"},{"geonameid":5005281,"name":"Township of Peninsula","admin3":"63340"},{"geonameid":5012496,"name":"City of Traverse City","admin3":"80340"},{"geonameid":5012954,"name":"Township of Union","admin3":"81320"},{"geonameid":5014931,"name":"Township of Whitewater","admin3":"87040"}],"alternateNames":[{"alternatenameId":2124820,"geonameid":5001836,"isoLanguage":"en","alternateName":"Michigan","isPreferredName":true,"isShortName":true,"isColloquial":false,"isHistoric":false}]},"__N_SSG":true}