{"pageProps":{"locale":"en","admin2":{"geonameid":4997130,"name":"Ingham County","country":"US","admin1":"MI","admin2":"065","admin3":"","latitude":"42.5971000","longitude":"-84.3735400"},"admin1":{"geonameid":5001836,"name":"Michigan","admin1":"MI","localeAltName":"Michigan"},"locations":[{"geonameid":4991640,"name":"East Lansing","admin3":"24120"},{"geonameid":4991823,"name":"Edgemont Park","admin3":"46020"},{"geonameid":4995514,"name":"Haslett","admin3":"53140"},{"geonameid":4996306,"name":"Holt","admin3":"21420"},{"geonameid":4998830,"name":"Lansing","admin3":"46000"},{"geonameid":4999122,"name":"Leslie","admin3":"47180"},{"geonameid":5001093,"name":"Mason","admin3":"52180"},{"geonameid":5004359,"name":"Okemos","admin3":"53140"},{"geonameid":5011227,"name":"Stockbridge","admin3":"76580"},{"geonameid":5014278,"name":"Webberville","admin3":"47080"},{"geonameid":5015133,"name":"Williamston","admin3":"87420"}],"admin3":[{"geonameid":4983879,"name":"Township of Alaiedon","admin3":"00800"},{"geonameid":4984588,"name":"Township of Aurelius","admin3":"04240"},{"geonameid":4987369,"name":"Township of Bunker Hill","admin3":"11640"},{"geonameid":4990649,"name":"Charter Township of Delhi","admin3":"21420"},{"geonameid":4991641,"name":"City of East Lansing","admin3":"24120"},{"geonameid":4997134,"name":"Township of Ingham","admin3":"40640"},{"geonameid":4998835,"name":"Charter Township of Lansing","admin3":"46020"},{"geonameid":4998836,"name":"City of Lansing","admin3":"46000"},{"geonameid":4999119,"name":"Township of Leroy","admin3":"47080"},{"geonameid":4999125,"name":"City of Leslie","admin3":"47180"},{"geonameid":4999126,"name":"Township of Leslie","admin3":"47200"},{"geonameid":4999853,"name":"Township of Locke","admin3":"49040"},{"geonameid":5001125,"name":"City of Mason","admin3":"52180"},{"geonameid":5001699,"name":"Charter Township of Meridian","admin3":"53140"},{"geonameid":5004515,"name":"Township of Onondaga","admin3":"60800"},{"geonameid":5011228,"name":"Township of Stockbridge","admin3":"76580"},{"geonameid":5013246,"name":"Township of Vevay","admin3":"82220"},{"geonameid":5014742,"name":"Township of Wheatfield","admin3":"86520"},{"geonameid":5014849,"name":"Township of White Oak","admin3":"86900"},{"geonameid":5015134,"name":"City of Williamston","admin3":"87420"},{"geonameid":5015135,"name":"Township of Williamstown","admin3":"87440"}],"alternateNames":[{"alternatenameId":2124820,"geonameid":5001836,"isoLanguage":"en","alternateName":"Michigan","isPreferredName":true,"isShortName":true,"isColloquial":false,"isHistoric":false}]},"__N_SSG":true}