{"pageProps":{"locale":"en","admin2":{"geonameid":5001099,"name":"Mason County","country":"US","admin1":"MI","admin2":"105","admin3":"","latitude":"43.9562500","longitude":"-86.4225800"},"admin1":{"geonameid":5001836,"name":"Michigan","admin1":"MI","localeAltName":"Michigan"},"locations":[{"geonameid":5000306,"name":"Ludington","admin3":"49640"},{"geonameid":5009277,"name":"Scottville","admin3":"72080"}],"admin3":[{"geonameid":4984125,"name":"Township of Amber","admin3":"01980"},{"geonameid":4986846,"name":"Township of Branch","admin3":"10020"},{"geonameid":4990233,"name":"Township of Custer","admin3":"19440"},{"geonameid":4991816,"name":"Township of Eden","admin3":"24820"},{"geonameid":4993397,"name":"Township of Free Soil","admin3":"30620"},{"geonameid":4994447,"name":"Township of Grant","admin3":"34320"},{"geonameid":4995170,"name":"Township of Hamlin","admin3":"36220"},{"geonameid":4999903,"name":"Township of Logan","admin3":"49140"},{"geonameid":5000316,"name":"City of Ludington","admin3":"49640"},{"geonameid":5001568,"name":"Township of Meade","admin3":"52640"},{"geonameid":5005381,"name":"Charter Township of Pere Marquette","admin3":"63600"},{"geonameid":5007320,"name":"Township of Riverton","admin3":"68860"},{"geonameid":5009278,"name":"City of Scottville","admin3":"72080"},{"geonameid":5009650,"name":"Township of Sheridan","admin3":"73060"},{"geonameid":5009682,"name":"Township of Sherman","admin3":"73240"},{"geonameid":5011546,"name":"Township of Summit","admin3":"77220"},{"geonameid":5013265,"name":"Township of Victory","admin3":"82360"}],"alternateNames":[{"alternatenameId":2124820,"geonameid":5001836,"isoLanguage":"en","alternateName":"Michigan","isPreferredName":true,"isShortName":true,"isColloquial":false,"isHistoric":false}]},"__N_SSG":true}