{"pageProps":{"locale":"en","admin2":{"geonameid":5001670,"name":"Menominee County","country":"US","admin1":"MI","admin2":"109","admin3":"","latitude":"45.5251400","longitude":"-87.5096900"},"admin1":{"geonameid":5001836,"name":"Michigan","admin1":"MI","localeAltName":"Michigan"},"locations":[{"geonameid":5001669,"name":"Menominee","admin3":"53020"}],"admin3":[{"geonameid":4988377,"name":"Township of Cedarville","admin3":"14240"},{"geonameid":4990270,"name":"Township of Daggett","admin3":"19580"},{"geonameid":4992488,"name":"Township of Faithorn","admin3":"27300"},{"geonameid":4994248,"name":"Township of Gourley","admin3":"33160"},{"geonameid":4995401,"name":"Township of Harris","admin3":"36760"},{"geonameid":4996304,"name":"Township of Holmes","admin3":"38760"},{"geonameid":4997124,"name":"Township of Ingallston","admin3":"40600"},{"geonameid":4998639,"name":"Township of Lake","admin3":"44360"},{"geonameid":5001625,"name":"Township of Mellen","admin3":"52860"},{"geonameid":5001674,"name":"Township of Menominee","admin3":"53040"},{"geonameid":5001731,"name":"City of Menominee","admin3":"53020"},{"geonameid":5001778,"name":"Township of Meyer","admin3":"53460"},{"geonameid":5003204,"name":"Township of Nadeau","admin3":"56440"},{"geonameid":5010672,"name":"Township of Spalding","admin3":"75350"},{"geonameid":5011143,"name":"City of Stephenson","admin3":"76380"},{"geonameid":5011144,"name":"Township of Stephenson","admin3":"76400"}],"alternateNames":[{"alternatenameId":2124820,"geonameid":5001836,"isoLanguage":"en","alternateName":"Michigan","isPreferredName":true,"isShortName":true,"isColloquial":false,"isHistoric":false}]},"__N_SSG":true}