{"pageProps":{"locale":"en","admin2":{"geonameid":5002390,"name":"Montcalm County","country":"US","admin1":"MI","admin2":"117","admin3":"","latitude":"43.3109600","longitude":"-85.1525200"},"admin1":{"geonameid":5001836,"name":"Michigan","admin1":"MI","localeAltName":"Michigan"},"locations":[{"geonameid":4988138,"name":"Carson City","admin3":"13600"},{"geonameid":4991857,"name":"Edmore","admin3":"38840"},{"geonameid":4994763,"name":"Greenville","admin3":"35100"},{"geonameid":4996618,"name":"Howard City","admin3":"68120"},{"geonameid":4998705,"name":"Lakeview","admin3":"14000"},{"geonameid":5011042,"name":"Stanton","admin3":"76220"}],"admin3":[{"geonameid":4985629,"name":"Township of Belvidere","admin3":"07200"},{"geonameid":4986426,"name":"Township of Bloomer","admin3":"09040"},{"geonameid":4987513,"name":"Township of Bushnell","admin3":"12120"},{"geonameid":4988141,"name":"City of Carson City","admin3":"13600"},{"geonameid":4988260,"name":"Township of Cato","admin3":"14000"},{"geonameid":4990133,"name":"Township of Crystal","admin3":"19080"},{"geonameid":4990429,"name":"Township of Day","admin3":"19920"},{"geonameid":4991096,"name":"Township of Douglass","admin3":"22760"},{"geonameid":4992273,"name":"Township of Eureka","admin3":"26520"},{"geonameid":4992350,"name":"Township of Evergreen","admin3":"26720"},{"geonameid":4992422,"name":"Township of Fairplain","admin3":"27180"},{"geonameid":4992648,"name":"Township of Ferris","admin3":"27900"},{"geonameid":4994740,"name":"City of Greenville","admin3":"35100"},{"geonameid":4996365,"name":"Township of Home","admin3":"38840"},{"geonameid":5000800,"name":"Township of Maple Valley","admin3":"51340"},{"geonameid":5002379,"name":"Township of Montcalm","admin3":"55140"},{"geonameid":5005637,"name":"Township of Pierson","admin3":"64040"},{"geonameid":5005851,"name":"Township of Pine","admin3":"64200"},{"geonameid":5007048,"name":"Township of Reynolds","admin3":"68120"},{"geonameid":5007122,"name":"Township of Richland","admin3":"68300"},{"geonameid":5009826,"name":"Township of Sidney","admin3":"73840"},{"geonameid":5011048,"name":"City of Stanton","admin3":"76220"},{"geonameid":5015275,"name":"Township of Winfield","admin3":"87880"}],"alternateNames":[{"alternatenameId":2124820,"geonameid":5001836,"isoLanguage":"en","alternateName":"Michigan","isPreferredName":true,"isShortName":true,"isColloquial":false,"isHistoric":false}]},"__N_SSG":true}