{"pageProps":{"locale":"ro","admin2":{"geonameid":668992,"name":"Comuna Reghiu","country":"RO","admin1":"40","admin2":"177469","admin3":"","latitude":"45.7967200","longitude":"26.8364800","localeAltName":null},"admin1":{"geonameid":662447,"name":"Vrancea","admin1":"40","localeAltName":"Vrancea"},"locations":[{"geonameid":678440,"name":"Farcaș","admin3":"","localeAltName":null},{"geonameid":675270,"name":"Jgheaburi","admin3":"","localeAltName":null},{"geonameid":670699,"name":"Pârlita","admin3":"","localeAltName":null},{"geonameid":670629,"name":"Piscu Reghiului","admin3":"","localeAltName":null},{"geonameid":669198,"name":"Răiuți","admin3":"","localeAltName":null},{"geonameid":668994,"name":"Reghiu","admin3":"","localeAltName":null},{"geonameid":667051,"name":"Șindrilari","admin3":"","localeAltName":null},{"geonameid":664095,"name":"Ursoaia","admin3":"","localeAltName":null},{"geonameid":663579,"name":"Valea Milcovului","admin3":"","localeAltName":null}],"admin3":[],"alternateNames":[{"alternatenameId":391637,"geonameid":662447,"isoLanguage":"ro","alternateName":"Vrancea","isPreferredName":true,"isShortName":true,"isColloquial":false,"isHistoric":false}]},"__N_SSG":true}