{"pageProps":{"locale":"ro","admin2":{"geonameid":671441,"name":"Comuna Paltin","country":"RO","admin1":"40","admin2":"177101","admin3":"","latitude":"45.7791800","longitude":"26.7477000","localeAltName":null},"admin1":{"geonameid":662447,"name":"Vrancea","admin1":"40","localeAltName":"Vrancea"},"locations":[{"geonameid":685410,"name":"Bărăşti","admin3":"","localeAltName":null},{"geonameid":677490,"name":"Ghebari","admin3":"","localeAltName":null},{"geonameid":671443,"name":"Paltin","admin3":"","localeAltName":null},{"geonameid":670272,"name":"Poduri","admin3":"","localeAltName":null},{"geonameid":669736,"name":"Prahuda","admin3":"","localeAltName":null},{"geonameid":666872,"name":"Şipotele","admin3":"","localeAltName":null},{"geonameid":665252,"name":"Țepa","admin3":"","localeAltName":null},{"geonameid":664837,"name":"Tojanii de Jos","admin3":"","localeAltName":null},{"geonameid":664836,"name":"Tojanii de Sus","admin3":"","localeAltName":null},{"geonameid":662896,"name":"Vâlcani","admin3":"","localeAltName":null}],"admin3":[],"alternateNames":[{"alternatenameId":391637,"geonameid":662447,"isoLanguage":"ro","alternateName":"Vrancea","isPreferredName":true,"isShortName":true,"isColloquial":false,"isHistoric":false}]},"__N_SSG":true}