{"pageProps":{"locale":"de","admin2":{"geonameid":6458813,"name":"Bezirk Baden","country":"CH","admin1":"AG","admin2":"1902","admin3":"","latitude":"47.4566000","longitude":"8.3005900"},"admin1":{"geonameid":2661876,"name":"Kanton Aargau","admin1":"AG"},"locations":[{"geonameid":2661646,"name":"Baden","admin3":"4021"},{"geonameid":2661495,"name":"Birmenstorf","admin3":"4024"},{"geonameid":2658256,"name":"Ehrendingen","admin3":"4049"},{"geonameid":2660659,"name":"Gebenstorf","admin3":"4029"},{"geonameid":2660160,"name":"Killwangen","admin3":"4030"},{"geonameid":2660090,"name":"Künten","admin3":"4031"},{"geonameid":2659691,"name":"Mellingen","admin3":"4033"},{"geonameid":2659490,"name":"Neuenhof","admin3":"4034"},{"geonameid":2659456,"name":"Niederrohrdorf","admin3":"4035"},{"geonameid":8469173,"name":"Oberrohrdorf","admin3":"4037"},{"geonameid":2659344,"name":"Obersiggenthal","admin3":"4038"},{"geonameid":2658524,"name":"Spreitenbach","admin3":"4040"},{"geonameid":2658288,"name":"Turgi","admin3":"4042"},{"geonameid":2658237,"name":"Untersiggenthal","admin3":"4044"},{"geonameid":2658011,"name":"Wettingen","admin3":"4021"},{"geonameid":2657948,"name":"Würenlingen","admin3":"4047"},{"geonameid":2657947,"name":"Würenlos","admin3":"4048"}],"admin3":[{"geonameid":2659345,"name":"Obersiggenthal","admin3":"4038"},{"geonameid":7285134,"name":"Baden","admin3":"4021"},{"geonameid":7285188,"name":"Bellikon","admin3":"4022"},{"geonameid":7285203,"name":"Bergdietikon","admin3":"4023"},{"geonameid":7285254,"name":"Birmenstorf","admin3":"4024"},{"geonameid":7285711,"name":"Ehrendingen","admin3":"4049"},{"geonameid":7285733,"name":"Ennetbaden","admin3":"4026"},{"geonameid":7285833,"name":"Fislisbach","admin3":"4027"},{"geonameid":7285866,"name":"Freienwil","admin3":"4028"},{"geonameid":7285895,"name":"Gebenstorf","admin3":"4029"},{"geonameid":7286196,"name":"Killwangen","admin3":"4030"},{"geonameid":7286228,"name":"Künten","admin3":"4031"},{"geonameid":7286416,"name":"Mägenwil","admin3":"4032"},{"geonameid":7286480,"name":"Mellingen","admin3":"4033"},{"geonameid":7286625,"name":"Neuenhof","admin3":"4034"},{"geonameid":7286650,"name":"Niederrohrdorf","admin3":"4035"},{"geonameid":7286710,"name":"Oberrohrdorf","admin3":"4037"},{"geonameid":7286882,"name":"Remetschwil","admin3":"4039"},{"geonameid":7287207,"name":"Spreitenbach","admin3":"4040"},{"geonameid":7287236,"name":"Stetten","admin3":"4041"},{"geonameid":7287353,"name":"Turgi","admin3":"4042"},{"geonameid":7287386,"name":"Untersiggenthal","admin3":"4044"},{"geonameid":7287562,"name":"Wettingen","admin3":"4045"},{"geonameid":7287602,"name":"Wohlenschwil","admin3":"4046"},{"geonameid":7287614,"name":"Würenlingen","admin3":"4047"},{"geonameid":7287615,"name":"Würenlos","admin3":"4048"}],"alternateNames":[]},"__N_SSG":true}