{"pageProps":{"locale":"en","admin2":{"geonameid":4846643,"name":"Allamakee County","country":"US","admin1":"IA","admin2":"005","admin3":"","latitude":"43.2842800","longitude":"-91.3780900","localeAltName":null},"admin1":{"geonameid":4862182,"name":"Iowa","admin1":"IA","localeAltName":"Iowa"},"locations":[{"geonameid":4864165,"name":"Lansing","admin3":"92382","localeAltName":null},{"geonameid":4871875,"name":"Postville","admin3":"93468","localeAltName":null},{"geonameid":4880997,"name":"Waukon","admin3":"92799","localeAltName":null}],"admin3":[{"geonameid":4850939,"name":"Township of Center","admin3":"90582"},{"geonameid":4856099,"name":"Township of Fairview","admin3":"91290"},{"geonameid":4857690,"name":"Township of Franklin","admin3":"91383"},{"geonameid":4857842,"name":"Township of French Creek","admin3":"91488"},{"geonameid":4859721,"name":"Township of Hanover","admin3":"91824"},{"geonameid":4862183,"name":"Township of Iowa","admin3":"92049"},{"geonameid":4862540,"name":"Township of Jefferson","admin3":"92202"},{"geonameid":4863880,"name":"Township of Lafayette","admin3":"92331"},{"geonameid":4864178,"name":"Township of Lansing","admin3":"92382","localeAltName":null},{"geonameid":4864964,"name":"Township of Linton","admin3":"92655"},{"geonameid":4865645,"name":"Township of Ludlow","admin3":"92727"},{"geonameid":4865926,"name":"Township of Makee","admin3":"92799","localeAltName":null},{"geonameid":4870580,"name":"Township of Paint Creek","admin3":"93255"},{"geonameid":4871874,"name":"Township of Post","admin3":"93468","localeAltName":null},{"geonameid":4878293,"name":"Township of Taylor","admin3":"94089"},{"geonameid":4879338,"name":"Township of Union City","admin3":"94290"},{"geonameid":4879378,"name":"Township of Union Prairie","admin3":"94293"},{"geonameid":4880907,"name":"Township of Waterloo","admin3":"94596"}],"alternateNames":[{"alternatenameId":1980290,"geonameid":4862182,"isoLanguage":"en","alternateName":"Iowa","isPreferredName":true,"isShortName":true,"isColloquial":false,"isHistoric":false}]},"__N_SSG":true}