{"pageProps":{"locale":"it","admin2":{"geonameid":3174050,"name":"Provincia di Mantova","country":"IT","admin1":"09","admin2":"MN","admin3":"","latitude":"45.1666700","longitude":"10.7833300","localeAltName":"Mantova"},"admin1":{"geonameid":3174618,"name":"Lombardia","admin1":"09","localeAltName":"Lombardia"},"locations":[{"geonameid":3183518,"name":"Acquanegra sul Chiese","admin3":"020001","localeAltName":null},{"geonameid":3182734,"name":"Asola","admin3":"020002","localeAltName":null},{"geonameid":3182498,"name":"Bagnolo San Vito","admin3":"020003","localeAltName":null},{"geonameid":8949531,"name":"Barbasso","admin3":"020052","localeAltName":null},{"geonameid":8949382,"name":"Belforte","admin3":"020025","localeAltName":null},{"geonameid":8949775,"name":"Bondanello","admin3":"020035","localeAltName":null},{"geonameid":3181890,"name":"Bondeno","admin3":"020027","localeAltName":null},{"geonameid":3181802,"name":"Borgoforte","admin3":"020071","localeAltName":null},{"geonameid":3181633,"name":"Bozzolo","admin3":"020007","localeAltName":null},{"geonameid":8949687,"name":"Breda Cisoni","admin3":"020054","localeAltName":null},{"geonameid":3181376,"name":"Buscoldo","admin3":"020021","localeAltName":null},{"geonameid":3181004,"name":"Campitello","admin3":"020031","localeAltName":null},{"geonameid":3180805,"name":"Canneto sull'Oglio","admin3":"020008","localeAltName":null},{"geonameid":3175351,"name":"Cappelletta","admin3":"020071","localeAltName":null},{"geonameid":3180570,"name":"Carbonara di Po","admin3":"020073","localeAltName":null},{"geonameid":3180174,"name":"Casalmoro","admin3":"020010","localeAltName":null},{"geonameid":3180170,"name":"Casaloldo","admin3":"020011","localeAltName":null},{"geonameid":3180167,"name":"Casalromano","admin3":"020012","localeAltName":null},{"geonameid":3179724,"name":"Castel d'Ario","admin3":"020014","localeAltName":null},{"geonameid":3179675,"name":"Castel Goffredo","admin3":"020015","localeAltName":null},{"geonameid":6534992,"name":"Castelbelforte","admin3":"020013","localeAltName":null},{"geonameid":3179570,"name":"Castellucchio","admin3":"020016","localeAltName":null},{"geonameid":3179538,"name":"Castelnuovo","admin3":"020002","localeAltName":null},{"geonameid":3179415,"name":"Castiglione delle Stiviere","admin3":"020017","localeAltName":null},{"geonameid":8949857,"name":"Castiglione Mantovano","admin3":"020053","localeAltName":null},{"geonameid":3179253,"name":"Cavriana","admin3":"020018","localeAltName":null},{"geonameid":3179098,"name":"Ceresara","admin3":"020019","localeAltName":null},{"geonameid":3179097,"name":"Cerese","admin3":"020071","localeAltName":null},{"geonameid":3179090,"name":"Cereta","admin3":"020070","localeAltName":null},{"geonameid":3179071,"name":"Cerlongo","admin3":"020026","localeAltName":null},{"geonameid":8949669,"name":"Cizzolo","admin3":"020066","localeAltName":null},{"geonameid":3178230,"name":"Commessaggio","admin3":"020020","localeAltName":null},{"geonameid":8949498,"name":"Correggioli","admin3":"020038","localeAltName":null},{"geonameid":3177503,"name":"Dosolo","admin3":"020022","localeAltName":null},{"geonameid":8948780,"name":"Eremo","admin3":"020021","localeAltName":null},{"geonameid":6535242,"name":"Felonica","admin3":"020061","localeAltName":null},{"geonameid":8950050,"name":"Formigosa","admin3":"020030","localeAltName":null},{"geonameid":3176257,"name":"Gazoldo degli Ippoliti","admin3":"020024","localeAltName":null},{"geonameid":3176247,"name":"Gazzo","admin3":"020057","localeAltName":null},{"geonameid":3176243,"name":"Gazzuolo","admin3":"020025","localeAltName":null},{"geonameid":3176014,"name":"Goito","admin3":"020026","localeAltName":null},{"geonameid":3176002,"name":"Gonzaga","admin3":"020027","localeAltName":null},{"geonameid":8949689,"name":"Gozzolina","admin3":"020017","localeAltName":null},{"geonameid":3175858,"name":"Grazie","admin3":"020021","localeAltName":null},{"geonameid":8949961,"name":"Grole","admin3":"020017","localeAltName":null},{"geonameid":3175679,"name":"Guidizzolo","admin3":"020028","localeAltName":null},{"geonameid":8948848,"name":"Levata","admin3":"020021","localeAltName":null},{"geonameid":3174764,"name":"Libiola","admin3":"020062","localeAltName":null},{"geonameid":8948812,"name":"Lunetta-Frassino","admin3":"020030","localeAltName":null},{"geonameid":3174253,"name":"Magnacavallo","admin3":"020029","localeAltName":null},{"geonameid":8949006,"name":"Malavicina","admin3":"020053","localeAltName":null},{"geonameid":3174051,"name":"Mantova","admin3":"020030","localeAltName":null},{"geonameid":3174008,"name":"Marcaria","admin3":"020031","localeAltName":null},{"geonameid":6535243,"name":"Mariana Mantovana","admin3":"020032","localeAltName":null},{"geonameid":3173895,"name":"Marmirolo","admin3":"020033","localeAltName":null},{"geonameid":3173657,"name":"Medole","admin3":"020034","localeAltName":null},{"geonameid":3173316,"name":"Moglia","admin3":"020061","localeAltName":null},{"geonameid":3173317,"name":"Moglia","admin3":"020035","localeAltName":null},{"geonameid":3173077,"name":"Montanara","admin3":"020021","localeAltName":null},{"geonameid":3172628,"name":"Monzambano","admin3":"020036","localeAltName":null},{"geonameid":6534993,"name":"Motteggiana","admin3":"020037","localeAltName":null},{"geonameid":6534565,"name":"Mottella","admin3":"020057","localeAltName":null},{"geonameid":3171792,"name":"Ostiglia","admin3":"020038","localeAltName":null},{"geonameid":3171602,"name":"Palidano","admin3":"020027","localeAltName":null},{"geonameid":3171305,"name":"Pegognaga","admin3":"020039","localeAltName":null},{"geonameid":3170823,"name":"Pietole","admin3":"020071","localeAltName":null},{"geonameid":6534615,"name":"Pieve di Coriano","admin3":"020072","localeAltName":null},{"geonameid":3170606,"name":"Piubega","admin3":"020041","localeAltName":null},{"geonameid":3170441,"name":"Poggio Rusco","admin3":"020042","localeAltName":null},{"geonameid":3170394,"name":"Polesine","admin3":"020039","localeAltName":null},{"geonameid":3170331,"name":"Pomponesco","admin3":"020043","localeAltName":null},{"geonameid":8950072,"name":"Ponteterra","admin3":"020054","localeAltName":null},{"geonameid":6534616,"name":"Ponti sul Mincio","admin3":"020044","localeAltName":null},{"geonameid":8949521,"name":"Pozzolo","admin3":"020033","localeAltName":null},{"geonameid":3169666,"name":"Quingentole","admin3":"020046","localeAltName":null},{"geonameid":3169656,"name":"Quistello","admin3":"020047","localeAltName":null},{"geonameid":6534617,"name":"Redondesco","admin3":"020048","localeAltName":null},{"geonameid":3169462,"name":"Revere","admin3":"020072","localeAltName":null},{"geonameid":3169250,"name":"Rivarolo Mantovano","admin3":"020050","localeAltName":null},{"geonameid":3169093,"name":"Rodigo","admin3":"020051","localeAltName":null},{"geonameid":8949895,"name":"Romanore","admin3":"020071","localeAltName":null},{"geonameid":3168999,"name":"Roncoferraro","admin3":"020052","localeAltName":null},{"geonameid":3168865,"name":"Roverbella","admin3":"020053","localeAltName":null},{"geonameid":3168752,"name":"Sabbioneta","admin3":"020054","localeAltName":null},{"geonameid":3168546,"name":"San Benedetto Po","admin3":"020055","localeAltName":null},{"geonameid":8949053,"name":"San Biagio","admin3":"020003","localeAltName":null},{"geonameid":8950111,"name":"San Cataldo","admin3":"020071","localeAltName":null},{"geonameid":3168326,"name":"San Giacomo delle Segnate","admin3":"020056","localeAltName":null},{"geonameid":3168253,"name":"San Giovanni del Dosso","admin3":"020058","localeAltName":null},{"geonameid":3168027,"name":"San Martino Dall'Argine","admin3":"020059","localeAltName":null},{"geonameid":8949905,"name":"San Matteo","admin3":"020066","localeAltName":null},{"geonameid":3167959,"name":"San Michele in Bosco","admin3":"020031","localeAltName":null},{"geonameid":3167409,"name":"Sant'Antonio","admin3":"020045","localeAltName":null},{"geonameid":6535245,"name":"Schivenoglia","admin3":"020060","localeAltName":null},{"geonameid":3166697,"name":"Sermide","admin3":"020061","localeAltName":null},{"geonameid":6534618,"name":"Serravalle a Po","admin3":"020062","localeAltName":null},{"geonameid":3166469,"name":"Soave","admin3":"020045","localeAltName":null},{"geonameid":3166427,"name":"Solferino","admin3":"020063","localeAltName":null},{"geonameid":8949376,"name":"Stradella","admin3":"020057","localeAltName":null},{"geonameid":3166011,"name":"Sustinente","admin3":"020064","localeAltName":null},{"geonameid":3166006,"name":"Suzzara","admin3":"020065","localeAltName":null},{"geonameid":8949855,"name":"Tabellano","admin3":"020065","localeAltName":null},{"geonameid":3164440,"name":"Viadana","admin3":"020066","localeAltName":null},{"geonameid":3164168,"name":"Villa Pasquali","admin3":"020054","localeAltName":null},{"geonameid":6535246,"name":"Villa Poma","admin3":"020072","localeAltName":null},{"geonameid":8949876,"name":"Villa Saviola","admin3":"020037","localeAltName":null},{"geonameid":3164127,"name":"Villastrada","admin3":"020022","localeAltName":null},{"geonameid":3164094,"name":"Villimpenta","admin3":"020068","localeAltName":null},{"geonameid":3163965,"name":"Volta Mantovana","admin3":"020070","localeAltName":null}],"admin3":[{"geonameid":3164441,"name":"Viadana","admin3":"020066","localeAltName":null},{"geonameid":3170081,"name":"Porto Mantovano","admin3":"020045","localeAltName":null},{"geonameid":6536222,"name":"Rivarolo Mantovano","admin3":"020050","localeAltName":null},{"geonameid":6536223,"name":"Rodigo","admin3":"020051","localeAltName":null},{"geonameid":6536224,"name":"Roverbella","admin3":"020053","localeAltName":null},{"geonameid":6536225,"name":"San Giacomo delle Segnate","admin3":"020056","localeAltName":null},{"geonameid":6536226,"name":"Sermide e Felonica","admin3":"020061","localeAltName":null},{"geonameid":6536227,"name":"Volta Mantovana","admin3":"020070","localeAltName":null},{"geonameid":6536584,"name":"Acquanegra sul Chiese","admin3":"020001","localeAltName":null},{"geonameid":6536585,"name":"Casaloldo","admin3":"020011","localeAltName":null},{"geonameid":6536586,"name":"Casalromano","admin3":"020012","localeAltName":null},{"geonameid":6536587,"name":"Castel d'Ario","admin3":"020014","localeAltName":null},{"geonameid":6536588,"name":"Castellucchio","admin3":"020016","localeAltName":null},{"geonameid":6536589,"name":"Commessaggio","admin3":"020020","localeAltName":null},{"geonameid":6536590,"name":"Gazoldo degli Ippoliti","admin3":"020024","localeAltName":null},{"geonameid":6536591,"name":"Marcaria","admin3":"020031","localeAltName":null},{"geonameid":6537229,"name":"Bagnolo San Vito","admin3":"020003","localeAltName":null},{"geonameid":6537230,"name":"Bozzolo","admin3":"020007","localeAltName":null},{"geonameid":6537231,"name":"Castel Goffredo","admin3":"020015","localeAltName":null},{"geonameid":6537232,"name":"Castiglione delle Stiviere","admin3":"020017","localeAltName":null},{"geonameid":6537233,"name":"Gazzuolo","admin3":"020025","localeAltName":null},{"geonameid":6537234,"name":"Goito","admin3":"020026","localeAltName":null},{"geonameid":6537235,"name":"Gonzaga","admin3":"020027","localeAltName":null},{"geonameid":6537236,"name":"Guidizzolo","admin3":"020028","localeAltName":null},{"geonameid":6537237,"name":"Monzambano","admin3":"020036","localeAltName":null},{"geonameid":6537238,"name":"Ostiglia","admin3":"020038","localeAltName":null},{"geonameid":6537239,"name":"Poggio Rusco","admin3":"020042","localeAltName":null},{"geonameid":6537241,"name":"Sustinente","admin3":"020064","localeAltName":null},{"geonameid":6539679,"name":"Moglia","admin3":"020035","localeAltName":null},{"geonameid":6539792,"name":"Cavriana","admin3":"020018","localeAltName":null},{"geonameid":6539793,"name":"Marmirolo","admin3":"020033","localeAltName":null},{"geonameid":6540221,"name":"Piubega","admin3":"020041","localeAltName":null},{"geonameid":6540222,"name":"Quingentole","admin3":"020046","localeAltName":null},{"geonameid":6540223,"name":"Quistello","admin3":"020047","localeAltName":null},{"geonameid":6540224,"name":"San Benedetto Po","admin3":"020055","localeAltName":null},{"geonameid":6540371,"name":"Asola","admin3":"020002","localeAltName":null},{"geonameid":6540372,"name":"Casalmoro","admin3":"020010","localeAltName":null},{"geonameid":6540373,"name":"Ceresara","admin3":"020019","localeAltName":null},{"geonameid":6540374,"name":"Dosolo","admin3":"020022","localeAltName":null},{"geonameid":6540375,"name":"Magnacavallo","admin3":"020029","localeAltName":null},{"geonameid":6540376,"name":"Medole","admin3":"020034","localeAltName":null},{"geonameid":6540377,"name":"Pegognaga","admin3":"020039","localeAltName":null},{"geonameid":6540647,"name":"Roncoferraro","admin3":"020052","localeAltName":null},{"geonameid":6540648,"name":"San Giovanni del Dosso","admin3":"020058","localeAltName":null},{"geonameid":6540649,"name":"Suzzara","admin3":"020065","localeAltName":null},{"geonameid":6541534,"name":"Villimpenta","admin3":"020068","localeAltName":null},{"geonameid":6541718,"name":"Pomponesco","admin3":"020043","localeAltName":null},{"geonameid":6541719,"name":"Solferino","admin3":"020063","localeAltName":null},{"geonameid":6541855,"name":"Mantova","admin3":"020030","localeAltName":null},{"geonameid":6542040,"name":"Canneto sull'Oglio","admin3":"020008","localeAltName":null},{"geonameid":6542221,"name":"San Martino dall'Argine","admin3":"020059","localeAltName":null},{"geonameid":6542303,"name":"Curtatone","admin3":"020021","localeAltName":null},{"geonameid":6542617,"name":"San Giorgio Bigarello","admin3":"020057","localeAltName":null},{"geonameid":6542664,"name":"Ponti sul Mincio","admin3":"020044","localeAltName":null},{"geonameid":6542665,"name":"Redondesco","admin3":"020048","localeAltName":null},{"geonameid":6542666,"name":"Serravalle a Po","admin3":"020062","localeAltName":null},{"geonameid":6542978,"name":"Castelbelforte","admin3":"020013","localeAltName":null},{"geonameid":6542979,"name":"Motteggiana","admin3":"020037","localeAltName":null},{"geonameid":6543228,"name":"Mariana Mantovana","admin3":"020032","localeAltName":null},{"geonameid":6543229,"name":"Sabbioneta","admin3":"020054","localeAltName":null},{"geonameid":6543230,"name":"Schivenoglia","admin3":"020060","localeAltName":null},{"geonameid":11287661,"name":"Borgo Virgilio","admin3":"020071","localeAltName":null},{"geonameid":12032164,"name":"Borgo Mantovano","admin3":"020072","localeAltName":null},{"geonameid":12032193,"name":"Borgocarbonara","admin3":"020073","localeAltName":null}],"alternateNames":[{"alternatenameId":1350143,"geonameid":3174050,"isoLanguage":"it","alternateName":"Mantova","isPreferredName":true,"isShortName":true,"isColloquial":false,"isHistoric":false},{"alternatenameId":1350145,"geonameid":3174050,"isoLanguage":"de","alternateName":"Mantua","isPreferredName":true,"isShortName":true,"isColloquial":false,"isHistoric":false},{"alternatenameId":1350323,"geonameid":3174618,"isoLanguage":"it","alternateName":"Lombardia","isPreferredName":true,"isShortName":true,"isColloquial":false,"isHistoric":false}]},"__N_SSG":true}