{"pageProps":{"locale":"it","admin2":{"geonameid":3178227,"name":"Provincia di Como","country":"IT","admin1":"09","admin2":"CO","admin3":"","latitude":"45.9124900","longitude":"9.1574400","localeAltName":"Como"},"admin1":{"geonameid":3174618,"name":"Lombardia","admin1":"09","localeAltName":"Lombardia"},"locations":[{"geonameid":6534462,"name":"Albavilla","admin3":"013003","localeAltName":null},{"geonameid":6534925,"name":"Albese Con Cassano","admin3":"013004","localeAltName":null},{"geonameid":6535113,"name":"Albiolo","admin3":"013005","localeAltName":null},{"geonameid":6534926,"name":"Alserio","admin3":"013006","localeAltName":null},{"geonameid":6535114,"name":"Alzate Brianza","admin3":"013007","localeAltName":null},{"geonameid":8949570,"name":"Andrate-Molinetto","admin3":"013102","localeAltName":null},{"geonameid":3183010,"name":"Anzano del Parco","admin3":"013009","localeAltName":null},{"geonameid":3182965,"name":"Appiano Gentile","admin3":"013010","localeAltName":null},{"geonameid":3182880,"name":"Argegno","admin3":"013011","localeAltName":null},{"geonameid":3182811,"name":"Arosio","admin3":"013012","localeAltName":null},{"geonameid":3182720,"name":"Asso","admin3":"013013","localeAltName":null},{"geonameid":8949417,"name":"Azzano","admin3":"013252","localeAltName":null},{"geonameid":3182338,"name":"Barni","admin3":"013015","localeAltName":null},{"geonameid":3182230,"name":"Bellagio","admin3":"013250","localeAltName":null},{"geonameid":8949427,"name":"Beregazzo","admin3":"013022","localeAltName":null},{"geonameid":6534463,"name":"Beregazzo con Figliaro","admin3":"013022","localeAltName":null},{"geonameid":6535747,"name":"Binago","admin3":"013023","localeAltName":null},{"geonameid":6534409,"name":"Bizzarone","admin3":"013024","localeAltName":null},{"geonameid":6534411,"name":"Blevio","admin3":"013026","localeAltName":null},{"geonameid":6534464,"name":"Bregnano","admin3":"013028","localeAltName":null},{"geonameid":3181571,"name":"Brenna","admin3":"013029","localeAltName":null},{"geonameid":3181484,"name":"Brunate","admin3":"013032","localeAltName":null},{"geonameid":6534412,"name":"Bulgarograsso","admin3":"013034","localeAltName":null},{"geonameid":8949392,"name":"Bulgorello","admin3":"013036","localeAltName":null},{"geonameid":6535748,"name":"Cabiate","admin3":"013035","localeAltName":null},{"geonameid":6692284,"name":"Cadenabbia","admin3":"013113","localeAltName":null},{"geonameid":6534413,"name":"Cadorago-Caslino al Piano","admin3":"013036","localeAltName":null},{"geonameid":6535749,"name":"Cagno","admin3":"013255","localeAltName":null},{"geonameid":8949408,"name":"Calozzo","admin3":"013183","localeAltName":null},{"geonameid":8949141,"name":"Camnago-Boscone","admin3":"013099","localeAltName":null},{"geonameid":3181006,"name":"Campione","admin3":"013040","localeAltName":null},{"geonameid":3180758,"name":"Cantù","admin3":"013041","localeAltName":null},{"geonameid":9036146,"name":"Cantù Asnago","admin3":"013041","localeAltName":null},{"geonameid":3180754,"name":"Canzo","admin3":"013042","localeAltName":null},{"geonameid":6535115,"name":"Capiago-Intimiano-Olmeda","admin3":"013043","localeAltName":null},{"geonameid":6534414,"name":"Carate Urio","admin3":"013044","localeAltName":null},{"geonameid":6534415,"name":"Carbonate","admin3":"013045","localeAltName":null},{"geonameid":3180510,"name":"Carimate","admin3":"013046","localeAltName":null},{"geonameid":3180500,"name":"Carlazzo","admin3":"013047","localeAltName":null},{"geonameid":6535116,"name":"Carugo","admin3":"013048","localeAltName":null},{"geonameid":8949584,"name":"Cascina Restelli","admin3":"013128","localeAltName":null},{"geonameid":9036167,"name":"Cascina Valle-Stazione di Carimate","admin3":"013046","localeAltName":null},{"geonameid":6534416,"name":"Caslino d'Erba","admin3":"013052","localeAltName":null},{"geonameid":6534417,"name":"Casnate Con Bernate","admin3":"013053","localeAltName":null},{"geonameid":6535117,"name":"Cassina Rizzardi","admin3":"013055","localeAltName":null},{"geonameid":6535118,"name":"Castelmarte","admin3":"013058","localeAltName":null},{"geonameid":6534418,"name":"Castelnuovo Bozzente","admin3":"013059","localeAltName":null},{"geonameid":3179413,"name":"Castiglione d'Intelvi","admin3":"013254","localeAltName":null},{"geonameid":6534927,"name":"Cavallasca","admin3":"013206","localeAltName":null},{"geonameid":3179070,"name":"Cermenate","admin3":"013064","localeAltName":null},{"geonameid":3179067,"name":"Cernobbio","admin3":"013065","localeAltName":null},{"geonameid":3178647,"name":"Cirimido","admin3":"013068","localeAltName":null},{"geonameid":6534928,"name":"Civenna","admin3":"013250","localeAltName":null},{"geonameid":8949571,"name":"Codogna-Cardano","admin3":"013111","localeAltName":null},{"geonameid":6535120,"name":"Colonno","admin3":"013074","localeAltName":null},{"geonameid":3178229,"name":"Como","admin3":"013075","localeAltName":null},{"geonameid":8949816,"name":"Concagno","admin3":"013255","localeAltName":null},{"geonameid":6534469,"name":"Consiglio di Rumo","admin3":"013249","localeAltName":null},{"geonameid":3180532,"name":"Corneno-Galliano-Carella Mariaga","admin3":"013097","localeAltName":null},{"geonameid":6534929,"name":"Corrido","admin3":"013077","localeAltName":null},{"geonameid":6534470,"name":"Cremia","admin3":"013083","localeAltName":null},{"geonameid":6535121,"name":"Cucciago","admin3":"013084","localeAltName":null},{"geonameid":3177540,"name":"Domaso","admin3":"013089","localeAltName":null},{"geonameid":3177526,"name":"Dongo","admin3":"013090","localeAltName":null},{"geonameid":6534404,"name":"Drezzo","admin3":"013251","localeAltName":null},{"geonameid":3177372,"name":"Erba","admin3":"013095","localeAltName":null},{"geonameid":8949576,"name":"Fabbrica Durini","admin3":"013007","localeAltName":null},{"geonameid":6534472,"name":"Faggeto Lario","admin3":"013098","localeAltName":null},{"geonameid":6534473,"name":"Faloppio","admin3":"013099","localeAltName":null},{"geonameid":6534930,"name":"Fenegrò","admin3":"013100","localeAltName":null},{"geonameid":6535124,"name":"Figino Serenza","admin3":"013101","localeAltName":null},{"geonameid":8949169,"name":"Figliaro","admin3":"013022","localeAltName":null},{"geonameid":3176976,"name":"Fino Mornasco","admin3":"013102","localeAltName":null},{"geonameid":8948915,"name":"Gaggino","admin3":"013099","localeAltName":null},{"geonameid":3176287,"name":"Garzeno","admin3":"013106","localeAltName":null},{"geonameid":3176199,"name":"Gera Lario","admin3":"013107","localeAltName":null},{"geonameid":6534474,"name":"Gironico al Piano","admin3":"013251","localeAltName":null},{"geonameid":3175936,"name":"Grandate","admin3":"013110","localeAltName":null},{"geonameid":6534475,"name":"Grandola ed Uniti","admin3":"013111","localeAltName":null},{"geonameid":3175869,"name":"Gravedona-San Gregorio","admin3":"013249","localeAltName":null},{"geonameid":3175829,"name":"Griante","admin3":"013113","localeAltName":null},{"geonameid":6535125,"name":"Guanzate","admin3":"013114","localeAltName":null},{"geonameid":3175497,"name":"Inverigo","admin3":"013118","localeAltName":null},{"geonameid":3175262,"name":"Laglio","admin3":"013119","localeAltName":null},{"geonameid":6534932,"name":"Laino","admin3":"013120","localeAltName":null},{"geonameid":6535126,"name":"Lambrugo","admin3":"013121","localeAltName":null},{"geonameid":3175152,"name":"Lanzo d'Intelvi","admin3":"013253","localeAltName":null},{"geonameid":3174893,"name":"Lenno","admin3":"013252","localeAltName":null},{"geonameid":3174776,"name":"Lezzeno","admin3":"013126","localeAltName":null},{"geonameid":6535127,"name":"Limido Comasco","admin3":"013128","localeAltName":null},{"geonameid":6535128,"name":"Lipomo","admin3":"013129","localeAltName":null},{"geonameid":3174644,"name":"Locate Varesino","admin3":"013131","localeAltName":null},{"geonameid":3174621,"name":"Lomazzo","admin3":"013133","localeAltName":null},{"geonameid":6535129,"name":"Longone al Segrino","admin3":"013134","localeAltName":null},{"geonameid":8948926,"name":"Lucino","admin3":"013154","localeAltName":null},{"geonameid":6535130,"name":"Luisago","admin3":"013135","localeAltName":null},{"geonameid":3174439,"name":"Lurago d'Erba","admin3":"013136","localeAltName":null},{"geonameid":3174438,"name":"Lurago Marinone","admin3":"013137","localeAltName":null},{"geonameid":3174435,"name":"Lurate Caccivio","admin3":"013138","localeAltName":null},{"geonameid":6535131,"name":"Magreglio","admin3":"013139","localeAltName":null},{"geonameid":8949212,"name":"Manera","admin3":"013133","localeAltName":null},{"geonameid":3173949,"name":"Mariano Comense","admin3":"013143","localeAltName":null},{"geonameid":3173787,"name":"Maslianico","admin3":"013144","localeAltName":null},{"geonameid":3173598,"name":"Menaggio","admin3":"013145","localeAltName":null},{"geonameid":6534426,"name":"Merone","admin3":"013147","localeAltName":null},{"geonameid":6534476,"name":"Mezzegra","admin3":"013252","localeAltName":null},{"geonameid":6534427,"name":"Moltrasio","admin3":"013152","localeAltName":null},{"geonameid":8949027,"name":"Montano","admin3":"013154","localeAltName":null},{"geonameid":3174515,"name":"Montano Lucino","admin3":"013154","localeAltName":null},{"geonameid":8949096,"name":"Montesolaro","admin3":"013046","localeAltName":null},{"geonameid":6534428,"name":"Montorfano","admin3":"013157","localeAltName":null},{"geonameid":3172495,"name":"Mozzate","admin3":"013159","localeAltName":null},{"geonameid":3172414,"name":"Musso","admin3":"013160","localeAltName":null},{"geonameid":8949428,"name":"Navedano","admin3":"013212","localeAltName":null},{"geonameid":6534429,"name":"Nesso","admin3":"013161","localeAltName":null},{"geonameid":6534477,"name":"Nobile-Monguzzo","admin3":"013153","localeAltName":null},{"geonameid":6534443,"name":"Novedrate","admin3":"013163","localeAltName":null},{"geonameid":8949608,"name":"Occagno","admin3":"013211","localeAltName":null},{"geonameid":3172067,"name":"Olgiate Comasco","admin3":"013165","localeAltName":null},{"geonameid":3172032,"name":"Oltrona di San Mamette","admin3":"013169","localeAltName":null},{"geonameid":3171912,"name":"Orsenigo","admin3":"013170","localeAltName":null},{"geonameid":8948911,"name":"Osigo","admin3":"013229","localeAltName":null},{"geonameid":6534444,"name":"Ossuccio","admin3":"013252","localeAltName":null},{"geonameid":8468629,"name":"Osteno","admin3":"013071","localeAltName":null},{"geonameid":6534445,"name":"Parè","admin3":"013251","localeAltName":null},{"geonameid":6534479,"name":"Pellio Intelvi","admin3":"013253","localeAltName":null},{"geonameid":8949796,"name":"Penzano","admin3":"013097","localeAltName":null},{"geonameid":6534480,"name":"Pianello del Lario","admin3":"013183","localeAltName":null},{"geonameid":6534447,"name":"Plesio","admin3":"013185","localeAltName":null},{"geonameid":3170418,"name":"Pognana Lario","admin3":"013186","localeAltName":null},{"geonameid":3170253,"name":"Ponte Lambro","admin3":"013188","localeAltName":null},{"geonameid":3170141,"name":"Porlezza","admin3":"013189","localeAltName":null},{"geonameid":6535132,"name":"Proserpio","admin3":"013192","localeAltName":null},{"geonameid":8949331,"name":"Puginate","admin3":"013028","localeAltName":null},{"geonameid":3169746,"name":"Pusiano","admin3":"013193","localeAltName":null},{"geonameid":6535751,"name":"Rodero","admin3":"013197","localeAltName":null},{"geonameid":6535752,"name":"Ronago","admin3":"013199","localeAltName":null},{"geonameid":3168870,"name":"Rovellasca","admin3":"013201","localeAltName":null},{"geonameid":3168868,"name":"Rovello Porro","admin3":"013202","localeAltName":null},{"geonameid":6534448,"name":"Sala Comacina","admin3":"013203","localeAltName":null},{"geonameid":6534449,"name":"San Bartolomeo Val Cavargna","admin3":"013204","localeAltName":null},{"geonameid":6535753,"name":"San Fedele Intelvi","admin3":"013254","localeAltName":null},{"geonameid":3168400,"name":"San Fedele Superiore","admin3":"013254","localeAltName":null},{"geonameid":6534450,"name":"San Fermo della Battaglia","admin3":"013206","localeAltName":null},{"geonameid":8435875,"name":"San Mamete","admin3":"013234","localeAltName":null},{"geonameid":6534436,"name":"San Siro","admin3":"013248","localeAltName":null},{"geonameid":6534482,"name":"Schignano","admin3":"013211","localeAltName":null},{"geonameid":6535754,"name":"Senna Comasco","admin3":"013212","localeAltName":null},{"geonameid":6534452,"name":"Solbiate","admin3":"013255","localeAltName":null},{"geonameid":6535755,"name":"Sorico","admin3":"013216","localeAltName":null},{"geonameid":3166355,"name":"Sormano","admin3":"013217","localeAltName":null},{"geonameid":6534453,"name":"Stazzona","admin3":"013218","localeAltName":null},{"geonameid":6535756,"name":"Tavernerio","admin3":"013222","localeAltName":null},{"geonameid":3165498,"name":"Torno","admin3":"013223","localeAltName":null},{"geonameid":3165252,"name":"Tremezzo","admin3":"013252","localeAltName":null},{"geonameid":6535757,"name":"Turate","admin3":"013227","localeAltName":null},{"geonameid":3165063,"name":"Uggiate Trevano","admin3":"013228","localeAltName":null},{"geonameid":6534484,"name":"Valbrona","admin3":"013229","localeAltName":null},{"geonameid":6535758,"name":"Valmorea","admin3":"013232","localeAltName":null},{"geonameid":6534454,"name":"Veniano","admin3":"013238","localeAltName":null},{"geonameid":6535759,"name":"Vercana","admin3":"013239","localeAltName":null},{"geonameid":3164506,"name":"Vertemate Con Minoprio","admin3":"013242","localeAltName":null},{"geonameid":8950314,"name":"Vignola","admin3":"013083","localeAltName":null},{"geonameid":8948763,"name":"Vill'Albese","admin3":"013003","localeAltName":null},{"geonameid":3164227,"name":"Villa Guardia","admin3":"013245","localeAltName":null}],"admin3":[{"geonameid":3164755,"name":"Valsolda","admin3":"013234","localeAltName":null},{"geonameid":3164776,"name":"Valmorea","admin3":"013232","localeAltName":null},{"geonameid":3170324,"name":"Ponna","admin3":"013187"},{"geonameid":3173788,"name":"Maslianico","admin3":"013144","localeAltName":null},{"geonameid":3174436,"name":"Lurate Caccivio","admin3":"013138","localeAltName":null},{"geonameid":3178558,"name":"Claino con Osteno","admin3":"013071","localeAltName":null},{"geonameid":3181581,"name":"Bregnano","admin3":"013028","localeAltName":null},{"geonameid":6535950,"name":"Uggiate-Trevano","admin3":"013228","localeAltName":null},{"geonameid":6536109,"name":"Brunate","admin3":"013032","localeAltName":null},{"geonameid":6536110,"name":"Caglio","admin3":"013037"},{"geonameid":6536113,"name":"Mariano Comense","admin3":"013143","localeAltName":null},{"geonameid":6536114,"name":"Musso","admin3":"013160","localeAltName":null},{"geonameid":6536116,"name":"Pusiano","admin3":"013193","localeAltName":null},{"geonameid":6536117,"name":"Rezzago","admin3":"013195"},{"geonameid":6536118,"name":"Rovellasca","admin3":"013201","localeAltName":null},{"geonameid":6536131,"name":"Campione d'Italia","admin3":"013040","localeAltName":null},{"geonameid":6536493,"name":"Appiano Gentile","admin3":"013010","localeAltName":null},{"geonameid":6536494,"name":"Cermenate","admin3":"013064","localeAltName":null},{"geonameid":6536495,"name":"Cernobbio","admin3":"013065","localeAltName":null},{"geonameid":6536496,"name":"Fino Mornasco","admin3":"013102","localeAltName":null},{"geonameid":6536497,"name":"Gravedona ed Uniti","admin3":"013249","localeAltName":null},{"geonameid":6536498,"name":"Lomazzo","admin3":"013133","localeAltName":null},{"geonameid":6537092,"name":"Anzano del Parco","admin3":"013009","localeAltName":null},{"geonameid":6537093,"name":"Carimate","admin3":"013046","localeAltName":null},{"geonameid":6537094,"name":"Carlazzo","admin3":"013047","localeAltName":null},{"geonameid":6537095,"name":"Cirimido","admin3":"013068","localeAltName":null},{"geonameid":6537096,"name":"Garzeno","admin3":"013106","localeAltName":null},{"geonameid":6537097,"name":"Gera Lario","admin3":"013107","localeAltName":null},{"geonameid":6537098,"name":"Laglio","admin3":"013119","localeAltName":null},{"geonameid":6537100,"name":"Locate Varesino","admin3":"013131","localeAltName":null},{"geonameid":6537101,"name":"Oltrona di San Mamette","admin3":"013169","localeAltName":null},{"geonameid":6539464,"name":"Cantù","admin3":"013041","localeAltName":null},{"geonameid":6539465,"name":"Canzo","admin3":"013042","localeAltName":null},{"geonameid":6539466,"name":"Rovello Porro","admin3":"013202","localeAltName":null},{"geonameid":6539467,"name":"Sormano","admin3":"013217","localeAltName":null},{"geonameid":6539615,"name":"Porlezza","admin3":"013189","localeAltName":null},{"geonameid":6539616,"name":"Torno","admin3":"013223","localeAltName":null},{"geonameid":6539673,"name":"Livo","admin3":"013130"},{"geonameid":6540091,"name":"Asso","admin3":"013013","localeAltName":null},{"geonameid":6540092,"name":"Brienno","admin3":"013030"},{"geonameid":6540160,"name":"Bellagio","admin3":"013250","localeAltName":null},{"geonameid":6540162,"name":"Menaggio","admin3":"013145","localeAltName":null},{"geonameid":6540164,"name":"Pigra","admin3":"013184"},{"geonameid":6540165,"name":"Pognana Lario","admin3":"013186","localeAltName":null},{"geonameid":6540327,"name":"Barni","admin3":"013015","localeAltName":null},{"geonameid":6540328,"name":"Cavargna","admin3":"013062"},{"geonameid":6540329,"name":"Domaso","admin3":"013089","localeAltName":null},{"geonameid":6540330,"name":"Lezzeno","admin3":"013126","localeAltName":null},{"geonameid":6540331,"name":"Vertemate con Minoprio","admin3":"013242","localeAltName":null},{"geonameid":6540575,"name":"Argegno","admin3":"013011","localeAltName":null},{"geonameid":6540576,"name":"Dizzasco","admin3":"013087"},{"geonameid":6540577,"name":"Inverigo","admin3":"013118","localeAltName":null},{"geonameid":6540578,"name":"Lurago Marinone","admin3":"013137","localeAltName":null},{"geonameid":6540579,"name":"Mozzate","admin3":"013159","localeAltName":null},{"geonameid":6540580,"name":"Ponte Lambro","admin3":"013188","localeAltName":null},{"geonameid":6541413,"name":"Grandate","admin3":"013110","localeAltName":null},{"geonameid":6541414,"name":"Brenna","admin3":"013029","localeAltName":null},{"geonameid":6541415,"name":"Villa Guardia","admin3":"013245","localeAltName":null},{"geonameid":6541490,"name":"Olgiate Comasco","admin3":"013165","localeAltName":null},{"geonameid":6541491,"name":"Orsenigo","admin3":"013170","localeAltName":null},{"geonameid":6541558,"name":"Dongo","admin3":"013090","localeAltName":null},{"geonameid":6541559,"name":"Erba","admin3":"013095","localeAltName":null},{"geonameid":6541583,"name":"Arosio","admin3":"013012","localeAltName":null},{"geonameid":6541584,"name":"Griante","admin3":"013113","localeAltName":null},{"geonameid":6541986,"name":"Veleso","admin3":"013236"},{"geonameid":6542055,"name":"Como","admin3":"013075","localeAltName":null},{"geonameid":6542139,"name":"Lurago d'Erba","admin3":"013136","localeAltName":null},{"geonameid":6542162,"name":"Montano Lucino","admin3":"013154","localeAltName":null},{"geonameid":6542478,"name":"Bizzarone","admin3":"013024","localeAltName":null},{"geonameid":6542479,"name":"Blessagno","admin3":"013025"},{"geonameid":6542480,"name":"Blevio","admin3":"013026","localeAltName":null},{"geonameid":6542481,"name":"Bulgarograsso","admin3":"013034","localeAltName":null},{"geonameid":6542482,"name":"Cadorago","admin3":"013036","localeAltName":null},{"geonameid":6542483,"name":"Carate Urio","admin3":"013044","localeAltName":null},{"geonameid":6542484,"name":"Carbonate","admin3":"013045","localeAltName":null},{"geonameid":6542485,"name":"Caslino d'Erba","admin3":"013052","localeAltName":null},{"geonameid":6542486,"name":"Casnate con Bernate","admin3":"013053","localeAltName":null},{"geonameid":6542487,"name":"Castelnuovo Bozzente","admin3":"013059","localeAltName":null},{"geonameid":6542493,"name":"Merone","admin3":"013147","localeAltName":null},{"geonameid":6542494,"name":"Moltrasio","admin3":"013152","localeAltName":null},{"geonameid":6542495,"name":"Montorfano","admin3":"013157","localeAltName":null},{"geonameid":6542496,"name":"Nesso","admin3":"013161","localeAltName":null},{"geonameid":6542502,"name":"San Siro","admin3":"013248","localeAltName":null},{"geonameid":6542508,"name":"Novedrate","admin3":"013163","localeAltName":null},{"geonameid":6542511,"name":"Peglio","admin3":"013178"},{"geonameid":6542512,"name":"Plesio","admin3":"013185","localeAltName":null},{"geonameid":6542513,"name":"Sala Comacina","admin3":"013203","localeAltName":null},{"geonameid":6542514,"name":"San Bartolomeo Val Cavargna","admin3":"013204","localeAltName":null},{"geonameid":6542515,"name":"San Fermo della Battaglia","admin3":"013206","localeAltName":null},{"geonameid":6542516,"name":"San Nazzaro Val Cavargna","admin3":"013207"},{"geonameid":6542518,"name":"Stazzona","admin3":"013218","localeAltName":null},{"geonameid":6542519,"name":"Veniano","admin3":"013238","localeAltName":null},{"geonameid":6542526,"name":"Albavilla","admin3":"013003","localeAltName":null},{"geonameid":6542527,"name":"Beregazzo con Figliaro","admin3":"013022","localeAltName":null},{"geonameid":6542533,"name":"Cremia","admin3":"013083","localeAltName":null},{"geonameid":6542534,"name":"Eupilio","admin3":"013097","localeAltName":null},{"geonameid":6542535,"name":"Faggeto Lario","admin3":"013098","localeAltName":null},{"geonameid":6542536,"name":"Faloppio","admin3":"013099","localeAltName":null},{"geonameid":6542538,"name":"Grandola ed Uniti","admin3":"013111","localeAltName":null},{"geonameid":6542540,"name":"Monguzzo","admin3":"013153","localeAltName":null},{"geonameid":6542541,"name":"Montemezzo","admin3":"013155"},{"geonameid":6542542,"name":"Pianello del Lario","admin3":"013183","localeAltName":null},{"geonameid":6542543,"name":"Schignano","admin3":"013211","localeAltName":null},{"geonameid":6542544,"name":"Trezzone","admin3":"013226"},{"geonameid":6542545,"name":"Valbrona","admin3":"013229","localeAltName":null},{"geonameid":6542546,"name":"Val Rezzo","admin3":"013233"},{"geonameid":6542911,"name":"Albese con Cassano","admin3":"013004","localeAltName":null},{"geonameid":6542912,"name":"Alserio","admin3":"013006","localeAltName":null},{"geonameid":6542915,"name":"Corrido","admin3":"013077","localeAltName":null},{"geonameid":6542916,"name":"Fenegrò","admin3":"013100","localeAltName":null},{"geonameid":6542918,"name":"Laino","admin3":"013120","localeAltName":null},{"geonameid":6542919,"name":"Lasnigo","admin3":"013123"},{"geonameid":6543099,"name":"Albiolo","admin3":"013005","localeAltName":null},{"geonameid":6543100,"name":"Alzate Brianza","admin3":"013007","localeAltName":null},{"geonameid":6543101,"name":"Capiago Intimiano","admin3":"013043","localeAltName":null},{"geonameid":6543102,"name":"Carugo","admin3":"013048","localeAltName":null},{"geonameid":6543103,"name":"Cassina Rizzardi","admin3":"013055","localeAltName":null},{"geonameid":6543104,"name":"Castelmarte","admin3":"013058","localeAltName":null},{"geonameid":6543105,"name":"Cerano d'Intelvi","admin3":"013063"},{"geonameid":6543106,"name":"Colonno","admin3":"013074","localeAltName":null},{"geonameid":6543107,"name":"Cucciago","admin3":"013084","localeAltName":null},{"geonameid":6543108,"name":"Cusino","admin3":"013085"},{"geonameid":6543109,"name":"Dosso del Liro","admin3":"013092"},{"geonameid":6543110,"name":"Figino Serenza","admin3":"013101","localeAltName":null},{"geonameid":6543111,"name":"Guanzate","admin3":"013114","localeAltName":null},{"geonameid":6543112,"name":"Lambrugo","admin3":"013121","localeAltName":null},{"geonameid":6543113,"name":"Limido Comasco","admin3":"013128","localeAltName":null},{"geonameid":6543114,"name":"Lipomo","admin3":"013129","localeAltName":null},{"geonameid":6543115,"name":"Longone al Segrino","admin3":"013134","localeAltName":null},{"geonameid":6543116,"name":"Luisago","admin3":"013135","localeAltName":null},{"geonameid":6543117,"name":"Magreglio","admin3":"013139","localeAltName":null},{"geonameid":6543118,"name":"Proserpio","admin3":"013192","localeAltName":null},{"geonameid":6543720,"name":"Bene Lario","admin3":"013021"},{"geonameid":6543721,"name":"Binago","admin3":"013023","localeAltName":null},{"geonameid":6543722,"name":"Cabiate","admin3":"013035","localeAltName":null},{"geonameid":6543725,"name":"Rodero","admin3":"013197","localeAltName":null},{"geonameid":6543726,"name":"Ronago","admin3":"013199","localeAltName":null},{"geonameid":6543727,"name":"Senna Comasco","admin3":"013212","localeAltName":null},{"geonameid":6543728,"name":"Sorico","admin3":"013216","localeAltName":null},{"geonameid":6543729,"name":"Tavernerio","admin3":"013222","localeAltName":null},{"geonameid":6543730,"name":"Turate","admin3":"013227","localeAltName":null},{"geonameid":6543731,"name":"Vercana","admin3":"013239","localeAltName":null},{"geonameid":6543732,"name":"Zelbio","admin3":"013246"},{"geonameid":9950786,"name":"Colverde","admin3":"013251","localeAltName":null},{"geonameid":11071790,"name":"Tremezzina","admin3":"013252","localeAltName":null},{"geonameid":11550075,"name":"Alta Valle Intelvi","admin3":"013253","localeAltName":null},{"geonameid":12032162,"name":"Centro Valle Intelvi","admin3":"013254","localeAltName":null},{"geonameid":12032181,"name":"Solbiate con Cagno","admin3":"013255","localeAltName":null}],"alternateNames":[{"alternatenameId":1350323,"geonameid":3174618,"isoLanguage":"it","alternateName":"Lombardia","isPreferredName":true,"isShortName":true,"isColloquial":false,"isHistoric":false},{"alternatenameId":1351516,"geonameid":3178227,"isoLanguage":"it","alternateName":"Como","isPreferredName":true,"isShortName":true,"isColloquial":false,"isHistoric":false}]},"__N_SSG":true}