{"pageProps":{"locale":"en","admin2":{"geonameid":4255024,"name":"Brown County","country":"US","admin1":"IN","admin2":"013","admin3":"","latitude":"39.1962100","longitude":"-86.2273700","localeAltName":null},"admin1":{"geonameid":4921868,"name":"Indiana","admin1":"IN","localeAltName":"Indiana"},"locations":[{"geonameid":7728583,"name":"Cordry Sweetwater Lakes","admin3":"30528","localeAltName":null},{"geonameid":4261983,"name":"Nashville","admin3":"80396","localeAltName":null}],"admin3":[{"geonameid":4258448,"name":"Township of Hamblen","admin3":"30528","localeAltName":null},{"geonameid":4259589,"name":"Township of Jackson","admin3":"36810"},{"geonameid":4266217,"name":"Township of Van Buren","admin3":"78398"},{"geonameid":4266609,"name":"Township of Washington","admin3":"80396","localeAltName":null}],"alternateNames":[{"alternatenameId":2124819,"geonameid":4921868,"isoLanguage":"en","alternateName":"Indiana","isPreferredName":true,"isShortName":true,"isColloquial":false,"isHistoric":false}]},"__N_SSG":true}