{"pageProps":{"locale":"en","admin2":{"geonameid":11353077,"name":"Newry Mourne and Down","country":"GB","admin1":"NIR","admin2":"N09000010","admin3":"","latitude":"54.2361600","longitude":"-6.0668700"},"admin1":{"geonameid":2641364,"name":"Northern Ireland","admin1":"NIR"},"locations":[{"geonameid":2657410,"name":"Altnamackan"},{"geonameid":2657299,"name":"Annacloy"},{"geonameid":2657295,"name":"Annalong"},{"geonameid":2657205,"name":"Ardarragh"},{"geonameid":2657182,"name":"Ardglass"},{"geonameid":2656538,"name":"Ballsmill"},{"geonameid":2656524,"name":"Ballyculter"},{"geonameid":2656502,"name":"Ballyhornan"},{"geonameid":2656499,"name":"Ballykinler"},{"geonameid":2656492,"name":"Ballymartin"},{"geonameid":2656483,"name":"Ballynahinch"},{"geonameid":2656475,"name":"Ballynoe"},{"geonameid":2656463,"name":"Ballyward"},{"geonameid":2656380,"name":"Bannvale"},{"geonameid":2655965,"name":"Belleek"},{"geonameid":2655813,"name":"Bessbrook"},{"geonameid":2655568,"name":"Bishops Court"},{"geonameid":2655334,"name":"Bloody Bridge"},{"geonameid":2655015,"name":"Brackenagh"},{"geonameid":2654453,"name":"Bryansford"},{"geonameid":2654239,"name":"Burren"},{"geonameid":2653918,"name":"Camlough"},{"geonameid":2653534,"name":"Castlewellan"},{"geonameid":2653352,"name":"Chapeltown"},{"geonameid":2652802,"name":"Cloghoge"},{"geonameid":2652783,"name":"Clough"},{"geonameid":2652081,"name":"Cranley"},{"geonameid":2652020,"name":"Creggan"},{"geonameid":2651876,"name":"Crossgar"},{"geonameid":2651864,"name":"Crossmaglen"},{"geonameid":2651754,"name":"Cullaville"},{"geonameid":2651737,"name":"Cullyhanna"},{"geonameid":2651336,"name":"Derryboy"},{"geonameid":2651023,"name":"Downpatrick"},{"geonameid":2650978,"name":"Dromara"},{"geonameid":2650954,"name":"Drumaroad"},{"geonameid":2650934,"name":"Drumintee"},{"geonameid":2650739,"name":"Dundrum"},{"geonameid":2650701,"name":"Dunmore"},{"geonameid":2650702,"name":"Dunmore"},{"geonameid":2649402,"name":"Finnis"},{"geonameid":2649201,"name":"Forkill"},{"geonameid":2648581,"name":"Glasdrumman"},{"geonameid":2648540,"name":"Glen Anne"},{"geonameid":2648211,"name":"Gransha"},{"geonameid":2647978,"name":"Greencastle"},{"geonameid":2646882,"name":"Hilltown"},{"geonameid":2645963,"name":"Jerrettspass"},{"geonameid":2645948,"name":"Jonesborough"},{"geonameid":2645687,"name":"Kilclief"},{"geonameid":2645685,"name":"Kilcoo"},{"geonameid":2645660,"name":"Kilkeel"},{"geonameid":2645623,"name":"Killough"},{"geonameid":2645620,"name":"Killowen"},{"geonameid":2645613,"name":"Killyleagh"},{"geonameid":2645587,"name":"Kilmore"},{"geonameid":2644404,"name":"Lisnacree"},{"geonameid":2644393,"name":"Listooder"},{"geonameid":2643212,"name":"Maghera"},{"geonameid":2643201,"name":"Magherasaul"},{"geonameid":2642873,"name":"Mayobridge"},{"geonameid":2642817,"name":"Meigh"},{"geonameid":2642495,"name":"Milltown"},{"geonameid":11496496,"name":"Minerstown"},{"geonameid":2642101,"name":"Mount Norris"},{"geonameid":2642073,"name":"Moyad"},{"geonameid":2641988,"name":"Mullaghbane"},{"geonameid":6695976,"name":"Newcastle"},{"geonameid":2641581,"name":"Newry"},{"geonameid":2641515,"name":"Newtownhamilton"},{"geonameid":2639702,"name":"Raffrey"},{"geonameid":2639698,"name":"Raholp"},{"geonameid":2639122,"name":"Rossglass"},{"geonameid":2639106,"name":"Rostrevor"},{"geonameid":2638800,"name":"Saintfield"},{"geonameid":2638492,"name":"Saul"},{"geonameid":2638378,"name":"Scollogstown"},{"geonameid":2638310,"name":"Seaforde"},{"geonameid":2637169,"name":"Square"},{"geonameid":2636724,"name":"Strangford"},{"geonameid":2636611,"name":"Struell"},{"geonameid":2635370,"name":"Tullymurry"},{"geonameid":2635263,"name":"Tyrella"},{"geonameid":2634743,"name":"Warrenpoint"},{"geonameid":2633952,"name":"Widows Row"}],"admin3":[],"alternateNames":[]},"__N_SSG":true}