{"pageProps":{"locale":"en","admin2":{"geonameid":4392183,"name":"Jackson County","country":"US","admin1":"MO","admin2":"095","admin3":"","latitude":"39.0085000","longitude":"-94.3460900","localeAltName":null},"admin1":{"geonameid":4398678,"name":"Missouri","admin1":"MO","localeAltName":"Missouri"},"locations":[{"geonameid":4377664,"name":"Blue Springs","admin3":"68438","localeAltName":null},{"geonameid":4378990,"name":"Buckner","admin3":"25282","localeAltName":null},{"geonameid":4385018,"name":"East Independence","admin3":"06490","localeAltName":null},{"geonameid":4388402,"name":"Grain Valley","admin3":"68438","localeAltName":null},{"geonameid":4388460,"name":"Grandview","admin3":"77506","localeAltName":null},{"geonameid":4388831,"name":"Greenwood","admin3":"59564","localeAltName":null},{"geonameid":4391812,"name":"Independence","admin3":"06490","localeAltName":null},{"geonameid":4393217,"name":"Kansas City","admin3":"38054","localeAltName":null},{"geonameid":4394237,"name":"Lake Lotawana","admin3":"75598","localeAltName":null},{"geonameid":4394348,"name":"Lake Tapawingo","admin3":"68438","localeAltName":null},{"geonameid":4394870,"name":"Lee's Summit","admin3":"59564","localeAltName":null},{"geonameid":4396090,"name":"Lone Jack","admin3":"75598","localeAltName":null},{"geonameid":4401282,"name":"Oak Grove","admin3":"68438","localeAltName":null},{"geonameid":4405188,"name":"Raytown","admin3":"08686","localeAltName":null},{"geonameid":4410585,"name":"Sugar Creek","admin3":"06490","localeAltName":null}],"admin3":[{"geonameid":4377683,"name":"Township of Blue","admin3":"06490","localeAltName":null},{"geonameid":4378501,"name":"Township of Brooking","admin3":"08686","localeAltName":null},{"geonameid":4387003,"name":"Township of Fort Osage","admin3":"25282","localeAltName":null},{"geonameid":4393258,"name":"Township of Kaw","admin3":"38054","localeAltName":null},{"geonameid":4404605,"name":"Township of Prairie","admin3":"59564","localeAltName":null},{"geonameid":4409255,"name":"Township of Sni-A-Bar","admin3":"68438","localeAltName":null},{"geonameid":4412858,"name":"Township of Van Buren","admin3":"75598","localeAltName":null},{"geonameid":4413691,"name":"Township of Washington","admin3":"77506","localeAltName":null}],"alternateNames":[{"alternatenameId":2089572,"geonameid":4398678,"isoLanguage":"en","alternateName":"Missouri","isPreferredName":true,"isShortName":true,"isColloquial":false,"isHistoric":false}]},"__N_SSG":true}