{"pageProps":{"locale":"en","admin2":{"geonameid":5226565,"name":"Brule County","country":"US","admin1":"SD","admin2":"015","admin3":"","latitude":"43.7180600","longitude":"-99.0809400"},"admin1":{"geonameid":5769223,"name":"South Dakota","admin1":"SD","localeAltName":"South Dakota"},"locations":[{"geonameid":5226824,"name":"Chamberlain","admin3":"11220"}],"admin3":[{"geonameid":5225970,"name":"Township of America","admin3":"01340"},{"geonameid":5226571,"name":"Township of Brule","admin3":"07780"},{"geonameid":5226828,"name":"City of Chamberlain","admin3":"11220"},{"geonameid":5226829,"name":"Township of Chamberlain","admin3":"11260"},{"geonameid":5226948,"name":"Township of Cleveland","admin3":"12780"},{"geonameid":5227446,"name":"Township of Eagle","admin3":"17500"},{"geonameid":5228468,"name":"Township of Highland","admin3":"28700"},{"geonameid":5228987,"name":"City of Kimball","admin3":"33980"},{"geonameid":5228988,"name":"Township of Kimball","admin3":"34020"},{"geonameid":5229510,"name":"Township of Lyon","admin3":"39700"},{"geonameid":5230182,"name":"Township of Ola","admin3":"46740"},{"geonameid":5230449,"name":"Township of Plainfield","admin3":"49860"},{"geonameid":5230490,"name":"Township of Pleasant Grove","admin3":"50580"},{"geonameid":5230564,"name":"Township of Plummer","admin3":"51180"},{"geonameid":5230654,"name":"Town of Pukwana","admin3":"52220"},{"geonameid":5230655,"name":"Township of Pukwana","admin3":"52260"},{"geonameid":5230738,"name":"Township of Red Lake","admin3":"53660"},{"geonameid":5230828,"name":"Township of Richland","admin3":"54540"},{"geonameid":5231900,"name":"Township of Smith","admin3":"59540"},{"geonameid":5232384,"name":"Township of Torrey Lake","admin3":"63780"},{"geonameid":5232520,"name":"Township of Union","admin3":"64940"},{"geonameid":5232679,"name":"Township of Waldro","admin3":"68220"},{"geonameid":5232844,"name":"Township of West Point","admin3":"70500"},{"geonameid":5232933,"name":"Township of Wilbur","admin3":"71700"},{"geonameid":5232966,"name":"Township of Willow Lake","admin3":"71900"}],"alternateNames":[{"alternatenameId":2089551,"geonameid":5769223,"isoLanguage":"en","alternateName":"South Dakota","isPreferredName":true,"isShortName":true,"isColloquial":false,"isHistoric":false}]},"__N_SSG":true}