{"pageProps":{"locale":"en","admin2":{"geonameid":5763761,"name":"Corson County","country":"US","admin1":"SD","admin2":"031","admin3":"","latitude":"45.7086000","longitude":"-101.1968700"},"admin1":{"geonameid":5769223,"name":"South Dakota","admin1":"SD","localeAltName":"South Dakota"},"locations":[],"admin3":[{"geonameid":5763500,"name":"Unorganized Territory of East Corson","admin3":"17745"},{"geonameid":5763930,"name":"Township of Custer","admin3":"15100"},{"geonameid":5766461,"name":"Unorganized Territory of Lemmon","admin3":"36332"},{"geonameid":5766972,"name":"City of McIntosh","admin3":"39940"},{"geonameid":5766987,"name":"City of McLaughlin","admin3":"40020"},{"geonameid":5767230,"name":"Town of Morristown","admin3":"43860"},{"geonameid":5767981,"name":"Township of Pleasant Ridge","admin3":"50660"},{"geonameid":5768092,"name":"Township of Prairie View","admin3":"51700"},{"geonameid":5768417,"name":"Township of Ridgeland","admin3":"54860"},{"geonameid":5768539,"name":"Township of Rolling Green","admin3":"55700"},{"geonameid":5769010,"name":"Township of Sherman","admin3":"58500"},{"geonameid":5770088,"name":"Township of Wakpala","admin3":"68180"},{"geonameid":5770160,"name":"Township of Watauga","admin3":"69260"},{"geonameid":5770220,"name":"Unorganized Territory of West Corson","admin3":"70310"}],"alternateNames":[{"alternatenameId":2089551,"geonameid":5769223,"isoLanguage":"en","alternateName":"South Dakota","isPreferredName":true,"isShortName":true,"isColloquial":false,"isHistoric":false}]},"__N_SSG":true}