{"pageProps":{"locale":"en","admin2":{"geonameid":5763916,"name":"Custer County","country":"US","admin1":"SD","admin2":"033","admin3":"","latitude":"43.6776300","longitude":"-103.4515400"},"admin1":{"geonameid":5769223,"name":"South Dakota","admin1":"SD","localeAltName":"South Dakota"},"locations":[{"geonameid":5763910,"name":"Custer","admin3":"15140"}],"admin3":[{"geonameid":5763156,"name":"Town of Buffalo Gap","admin3":"08340"},{"geonameid":5763929,"name":"City of Custer","admin3":"15140"},{"geonameid":5764428,"name":"Unorganized Territory of East Custer","admin3":"17750"},{"geonameid":5764666,"name":"Town of Fairburn","admin3":"20340"},{"geonameid":5765549,"name":"Town of Hermosa","admin3":"28300"},{"geonameid":5768115,"name":"Town of Pringle","admin3":"51940"},{"geonameid":5770224,"name":"Unorganized Territory of West Custer","admin3":"70320"}],"alternateNames":[{"alternatenameId":2089551,"geonameid":5769223,"isoLanguage":"en","alternateName":"South Dakota","isPreferredName":true,"isShortName":true,"isColloquial":false,"isHistoric":false}]},"__N_SSG":true}