{"pageProps":{"locale":"en","admin2":{"geonameid":5227240,"name":"Day County","country":"US","admin1":"SD","admin2":"037","admin3":"","latitude":"45.3671500","longitude":"-97.6074100"},"admin1":{"geonameid":5769223,"name":"South Dakota","admin1":"SD","localeAltName":"South Dakota"},"locations":[{"geonameid":5232764,"name":"Webster","admin3":"69780"}],"admin3":[{"geonameid":5225996,"name":"Town of Andover","admin3":"01500"},{"geonameid":5225997,"name":"Township of Andover","admin3":"01540"},{"geonameid":5226520,"name":"City of Bristol","admin3":"07300"},{"geonameid":5226522,"name":"Township of Bristol","admin3":"07340"},{"geonameid":5226650,"name":"Town of Butler","admin3":"08860"},{"geonameid":5226651,"name":"Township of Butler","admin3":"08900"},{"geonameid":5226814,"name":"Township of Central Point","admin3":"11180"},{"geonameid":5227550,"name":"Township of Egeland","admin3":"18540"},{"geonameid":5227744,"name":"Township of Farmington","admin3":"21140"},{"geonameid":5228229,"name":"Town of Grenville","admin3":"26220"},{"geonameid":5228230,"name":"Township of Grenville","admin3":"26260"},{"geonameid":5228470,"name":"Township of Highland","admin3":"28780"},{"geonameid":5228571,"name":"Township of Homer","admin3":"29860"},{"geonameid":5228721,"name":"Township of Independence","admin3":"31460"},{"geonameid":5228979,"name":"Township of Kidder","admin3":"33860"},{"geonameid":5229041,"name":"Township of Kosciusko","admin3":"34300"},{"geonameid":5229298,"name":"Township of Liberty","admin3":"36860"},{"geonameid":5229306,"name":"Town of Lily","admin3":"37140"},{"geonameid":5229504,"name":"Township of Lynn","admin3":"39580"},{"geonameid":5229858,"name":"Township of Morton","admin3":"43900"},{"geonameid":5230127,"name":"Township of Nutley","admin3":"46140"},{"geonameid":5230140,"name":"Township of Oak Gulch","admin3":"46260"},{"geonameid":5230418,"name":"Town of Pierpont","admin3":"49540"},{"geonameid":5230678,"name":"Township of Racine","admin3":"52660"},{"geonameid":5230709,"name":"Township of Raritan","admin3":"53020"},{"geonameid":5230966,"name":"Town of Roslyn","admin3":"56380"},{"geonameid":5231004,"name":"Township of Rusk","admin3":"56940"},{"geonameid":5231740,"name":"Township of Scotland","admin3":"58020"},{"geonameid":5232431,"name":"Township of Troy","admin3":"64100"},{"geonameid":5232522,"name":"Township of Union","admin3":"65060"},{"geonameid":5232563,"name":"Township of Valley","admin3":"66020"},{"geonameid":5232751,"name":"City of Waubay","admin3":"69340"},{"geonameid":5232752,"name":"Township of Waubay","admin3":"69380"},{"geonameid":5232771,"name":"City of Webster","admin3":"69780"},{"geonameid":5232772,"name":"Township of Webster","admin3":"69740"},{"geonameid":5232876,"name":"Township of Wheatland","admin3":"70820"},{"geonameid":5233064,"name":"Township of York","admin3":"73220"}],"alternateNames":[{"alternatenameId":2089551,"geonameid":5769223,"isoLanguage":"en","alternateName":"South Dakota","isPreferredName":true,"isShortName":true,"isColloquial":false,"isHistoric":false}]},"__N_SSG":true}