{"pageProps":{"locale":"en","admin2":{"geonameid":5228223,"name":"Gregory County","country":"US","admin1":"SD","admin2":"053","admin3":"","latitude":"43.1923800","longitude":"-99.1856100"},"admin1":{"geonameid":5769223,"name":"South Dakota","admin1":"SD","localeAltName":"South Dakota"},"locations":[{"geonameid":5228222,"name":"Gregory","admin3":"26180"}],"admin3":[{"geonameid":5226449,"name":"City of Bonesteel","admin3":"06220"},{"geonameid":5226630,"name":"City of Burke","admin3":"08700"},{"geonameid":5227192,"name":"Town of Dallas","admin3":"15300"},{"geonameid":5227340,"name":"Township of Dixon","admin3":"16700"},{"geonameid":5227487,"name":"Unorganized Territory of East Gregory","admin3":"17800"},{"geonameid":5227525,"name":"Township of Edens","admin3":"18260"},{"geonameid":5227698,"name":"Town of Fairfax","admin3":"20380"},{"geonameid":5227699,"name":"Township of Fairfax","admin3":"20420"},{"geonameid":5228225,"name":"City of Gregory","admin3":"26180"},{"geonameid":5228431,"name":"Town of Herrick","admin3":"28420"},{"geonameid":5228857,"name":"Township of Jones","admin3":"32940"},{"geonameid":5229359,"name":"Township of Landing Creek","admin3":"35740"},{"geonameid":5230073,"name":"Unorganized Territory of North Gregory","admin3":"45582"},{"geonameid":5230529,"name":"Township of Pleasant Valley","admin3":"50780"},{"geonameid":5231726,"name":"Township of Schriever","admin3":"57860"},{"geonameid":5231973,"name":"Unorganized Territory of Southeast Gregory","admin3":"59854"},{"geonameid":5232107,"name":"Township of Star Valley","admin3":"61460"},{"geonameid":7274916,"name":"Unorganized Territory of West Gregory","admin3":"70370"}],"alternateNames":[{"alternatenameId":2089551,"geonameid":5769223,"isoLanguage":"en","alternateName":"South Dakota","isPreferredName":true,"isShortName":true,"isColloquial":false,"isHistoric":false}]},"__N_SSG":true}