{"pageProps":{"locale":"en","admin2":{"geonameid":5228308,"name":"Hanson County","country":"US","admin1":"SD","admin2":"061","admin3":"","latitude":"43.6748200","longitude":"-97.7873400"},"admin1":{"geonameid":5769223,"name":"South Dakota","admin1":"SD","localeAltName":"South Dakota"},"locations":[],"admin3":[{"geonameid":5225920,"name":"City of Alexandria","admin3":"00820"},{"geonameid":5226324,"name":"Township of Beulah","admin3":"05260"},{"geonameid":5227558,"name":"Township of Edgerton","admin3":"18340"},{"geonameid":5227617,"name":"City of Emery","admin3":"19420"},{"geonameid":5227727,"name":"Township of Fairview","admin3":"20740"},{"geonameid":5227742,"name":"Town of Farmer","admin3":"21060"},{"geonameid":5227950,"name":"Town of Fulton","admin3":"23220"},{"geonameid":5228315,"name":"Township of Hanson","admin3":"26940"},{"geonameid":5228795,"name":"Township of Jasper","admin3":"32420"},{"geonameid":5230470,"name":"Township of Plano","admin3":"50140"},{"geonameid":5230553,"name":"Township of Pleasant","admin3":"50380"},{"geonameid":5230944,"name":"Township of Rosedale","admin3":"56060"},{"geonameid":5232043,"name":"Township of Spring Lake","admin3":"60860"},{"geonameid":5232315,"name":"Township of Taylor","admin3":"63020"},{"geonameid":5232758,"name":"Township of Wayne","admin3":"69540"},{"geonameid":5233041,"name":"Township of Worthen","admin3":"72780"}],"alternateNames":[{"alternatenameId":2089551,"geonameid":5769223,"isoLanguage":"en","alternateName":"South Dakota","isPreferredName":true,"isShortName":true,"isColloquial":false,"isHistoric":false}]},"__N_SSG":true}