{"pageProps":{"locale":"en","admin2":{"geonameid":5229574,"name":"Marshall County","country":"US","admin1":"SD","admin2":"091","admin3":"","latitude":"45.7586700","longitude":"-97.5985000"},"admin1":{"geonameid":5769223,"name":"South Dakota","admin1":"SD","localeAltName":"South Dakota"},"locations":[{"geonameid":5226523,"name":"Britton","admin3":"07380"}],"admin3":[{"geonameid":5226526,"name":"City of Britton","admin3":"07380"},{"geonameid":5226601,"name":"Township of Buffalo","admin3":"08220"},{"geonameid":5227229,"name":"Township of Dayton","admin3":"15660"},{"geonameid":5227422,"name":"Township of Dumarce","admin3":"17300"},{"geonameid":5227518,"name":"Town of Eden","admin3":"18180"},{"geonameid":5227524,"name":"Township of Eden","admin3":"18220"},{"geonameid":5227860,"name":"Township of Fort","admin3":"22180"},{"geonameid":5228289,"name":"Township of Hamilton","admin3":"26740"},{"geonameid":5228444,"name":"Township of Hickman","admin3":"28540"},{"geonameid":5229065,"name":"Township of La Belle","admin3":"34500"},{"geonameid":5229127,"name":"Town of Lake City","admin3":"35220"},{"geonameid":5229203,"name":"Township of Lake","admin3":"34940"},{"geonameid":5229228,"name":"Town of Langford","admin3":"35820"},{"geonameid":5229453,"name":"Township of Lowell","admin3":"39100"},{"geonameid":5229645,"name":"Township of McKinley","admin3":"39980"},{"geonameid":5229762,"name":"Township of Miller","admin3":"42540"},{"geonameid":5229993,"name":"Township of Newark","admin3":"44780"},{"geonameid":5229996,"name":"Township of Newport","admin3":"45020"},{"geonameid":5230028,"name":"Township of Nordland","admin3":"45380"},{"geonameid":5230532,"name":"Township of Pleasant Valley","admin3":"50900"},{"geonameid":5230732,"name":"Township of Red Iron Lake","admin3":"53620"},{"geonameid":5231868,"name":"Township of Sisseton","admin3":"59220"},{"geonameid":5232126,"name":"Township of Stena","admin3":"61540"},{"geonameid":5232583,"name":"City of Veblen","admin3":"66540"},{"geonameid":5232584,"name":"Township of Veblen","admin3":"66580"},{"geonameid":5232611,"name":"Township of Victor","admin3":"67100"},{"geonameid":5232757,"name":"Township of Waverly","admin3":"69500"},{"geonameid":5232860,"name":"Township of Weston","admin3":"70420"},{"geonameid":5232917,"name":"Township of White","admin3":"70980"},{"geonameid":5233000,"name":"Township of Wismer","admin3":"72300"}],"alternateNames":[{"alternatenameId":2089551,"geonameid":5769223,"isoLanguage":"en","alternateName":"South Dakota","isPreferredName":true,"isShortName":true,"isColloquial":false,"isHistoric":false}]},"__N_SSG":true}