{"pageProps":{"locale":"en","admin2":{"geonameid":5229782,"name":"Minnehaha County","country":"US","admin1":"SD","admin2":"099","admin3":"","latitude":"43.6741800","longitude":"-96.7914400"},"admin1":{"geonameid":5769223,"name":"South Dakota","admin1":"SD","localeAltName":"South Dakota"},"locations":[{"geonameid":5226143,"name":"Baltic","admin3":"03380"},{"geonameid":5226489,"name":"Brandon","admin3":"06840"},{"geonameid":5227129,"name":"Crooks","admin3":"14740"},{"geonameid":5227270,"name":"Dell Rapids","admin3":"15980"},{"geonameid":5227996,"name":"Garretson","admin3":"23820"},{"geonameid":5228353,"name":"Hartford","admin3":"27540"},{"geonameid":5231851,"name":"Sioux Falls","admin3":"59020"}],"admin3":[{"geonameid":5226144,"name":"City of Baltic","admin3":"03380"},{"geonameid":5226242,"name":"Township of Benton","admin3":"04860"},{"geonameid":5226491,"name":"City of Brandon","admin3":"06840"},{"geonameid":5226492,"name":"Township of Brandon","admin3":"06820"},{"geonameid":5226602,"name":"Township of Buffalo","admin3":"08260"},{"geonameid":5226624,"name":"Township of Burk","admin3":"08660"},{"geonameid":5226942,"name":"Township of Clear Lake","admin3":"12660"},{"geonameid":5227034,"name":"City of Colton","admin3":"13380"},{"geonameid":5227130,"name":"City of Crooks","admin3":"14740"},{"geonameid":5227271,"name":"City of Dell Rapids","admin3":"15980"},{"geonameid":5227272,"name":"Township of Dell Rapids","admin3":"16020"},{"geonameid":5227533,"name":"Township of Edison","admin3":"18380"},{"geonameid":5227997,"name":"City of Garretson","admin3":"23820"},{"geonameid":5228156,"name":"Township of Grand Meadow","admin3":"25180"},{"geonameid":5228359,"name":"City of Hartford","admin3":"27540"},{"geonameid":5228360,"name":"Township of Hartford","admin3":"27580"},{"geonameid":5228473,"name":"Township of Highland","admin3":"28900"},{"geonameid":5228658,"name":"Town of Humboldt","admin3":"30900"},{"geonameid":5228659,"name":"Township of Humboldt","admin3":"30940"},{"geonameid":5229383,"name":"Township of Logan","admin3":"38380"},{"geonameid":5229514,"name":"Township of Lyons","admin3":"39780"},{"geonameid":5229553,"name":"Township of Mapleton","admin3":"40660"},{"geonameid":5230291,"name":"Township of Palisade","admin3":"48220"},{"geonameid":5230740,"name":"Township of Red Rock","admin3":"53740"},{"geonameid":5231794,"name":"Town of Sherman","admin3":"58580"},{"geonameid":5231856,"name":"City of Sioux Falls","admin3":"59020"},{"geonameid":5232008,"name":"Township of Split Rock","admin3":"60300"},{"geonameid":5232263,"name":"Township of Sverdrup","admin3":"62540"},{"geonameid":5232312,"name":"Township of Taopi","admin3":"62980"},{"geonameid":5232558,"name":"City of Valley Springs","admin3":"66260"},{"geonameid":5232559,"name":"Township of Valley Springs","admin3":"66300"},{"geonameid":5232689,"name":"Township of Wall Lake","admin3":"68460"},{"geonameid":5232760,"name":"Township of Wayne","admin3":"69620"},{"geonameid":5232783,"name":"Township of Wellington","admin3":"69940"}],"alternateNames":[{"alternatenameId":2089551,"geonameid":5769223,"isoLanguage":"en","alternateName":"South Dakota","isPreferredName":true,"isShortName":true,"isColloquial":false,"isHistoric":false}]},"__N_SSG":true}