{"pageProps":{"locale":"en","admin2":{"geonameid":5231251,"name":"Sanborn County","country":"US","admin1":"SD","admin2":"111","admin3":"","latitude":"44.0234500","longitude":"-98.0913900"},"admin1":{"geonameid":5769223,"name":"South Dakota","admin1":"SD","localeAltName":"South Dakota"},"locations":[],"admin3":[{"geonameid":5225887,"name":"Township of Afton","admin3":"00420"},{"geonameid":5226058,"name":"Town of Artesian","admin3":"02380"},{"geonameid":5226236,"name":"Township of Benedict","admin3":"04780"},{"geonameid":5226652,"name":"Township of Butler","admin3":"08940"},{"geonameid":5227317,"name":"Township of Diana","admin3":"16540"},{"geonameid":5227577,"name":"Township of Elliott","admin3":"18780"},{"geonameid":5227822,"name":"Township of Floyd","admin3":"21940"},{"geonameid":5228782,"name":"Township of Jackson","admin3":"32300"},{"geonameid":5229291,"name":"Town of Letcher","admin3":"36620"},{"geonameid":5229292,"name":"Township of Letcher","admin3":"36660"},{"geonameid":5229385,"name":"Township of Logan","admin3":"38460"},{"geonameid":5230227,"name":"Township of Oneida","admin3":"47020"},{"geonameid":5230717,"name":"Township of Ravenna","admin3":"53140"},{"geonameid":5231872,"name":"Township of Silver Creek","admin3":"58820"},{"geonameid":5232477,"name":"Township of Twin Lake","admin3":"64820"},{"geonameid":5232529,"name":"Township of Union","admin3":"65460"},{"geonameid":5232719,"name":"Township of Warren","admin3":"68860"},{"geonameid":5233038,"name":"City of Woonsocket","admin3":"72700"},{"geonameid":5233039,"name":"Township of Woonsocket","admin3":"72740"}],"alternateNames":[{"alternatenameId":2089551,"geonameid":5769223,"isoLanguage":"en","alternateName":"South Dakota","isPreferredName":true,"isShortName":true,"isColloquial":false,"isHistoric":false}]},"__N_SSG":true}