{"pageProps":{"locale":"en","admin2":{"geonameid":2754858,"name":"Gemeente Hardenberg","country":"NL","admin1":"15","admin2":"0160","admin3":"","latitude":"52.5931200","longitude":"6.5347600"},"admin1":{"geonameid":2748838,"name":"Provincie Overijssel","admin1":"15"},"locations":[{"geonameid":2759772,"name":"Ane","admin3":""},{"geonameid":2759771,"name":"Anerveen","admin3":""},{"geonameid":2759770,"name":"Anevelde","admin3":""},{"geonameid":2759575,"name":"Baalder","admin3":""},{"geonameid":2759470,"name":"Balkbrug","admin3":""},{"geonameid":2759205,"name":"Benedenvaart","admin3":""},{"geonameid":2759141,"name":"Bergentheim","admin3":""},{"geonameid":2758206,"name":"Brucht","admin3":""},{"geonameid":2758205,"name":"Bruchterveld","admin3":""},{"geonameid":2757928,"name":"Collendoorn","admin3":""},{"geonameid":2757927,"name":"Collendoornerveen","admin3":""},{"geonameid":2757797,"name":"De Belt","admin3":""},{"geonameid":2757602,"name":"De Haandrik","admin3":""},{"geonameid":2757594,"name":"De Haar","admin3":""},{"geonameid":2757396,"name":"De Krim","admin3":""},{"geonameid":6544887,"name":"De Maat","admin3":""},{"geonameid":2757298,"name":"De Meene","admin3":""},{"geonameid":2757265,"name":"De Mulderij","admin3":""},{"geonameid":2757136,"name":"De Pol","admin3":""},{"geonameid":2757069,"name":"De Schans","admin3":""},{"geonameid":2757698,"name":"Dedemsvaart","admin3":""},{"geonameid":2757210,"name":"Den Huizen","admin3":""},{"geonameid":2757202,"name":"Den Kaat","admin3":""},{"geonameid":2757187,"name":"Den Oosterhuis","admin3":""},{"geonameid":2757182,"name":"Den Velde","admin3":""},{"geonameid":2757181,"name":"Den Westerhuis","admin3":""},{"geonameid":2756848,"name":"Diffelen","admin3":""},{"geonameid":2756447,"name":"Ebbenbroek","admin3":""},{"geonameid":2756101,"name":"Engeland","admin3":""},{"geonameid":2755412,"name":"Gouden Ploeg","admin3":""},{"geonameid":2755371,"name":"Gramsbergen","admin3":""},{"geonameid":2755109,"name":"Groot-Oever","admin3":""},{"geonameid":2754861,"name":"Hardenberg","admin3":""},{"geonameid":2754700,"name":"Heemse","admin3":""},{"geonameid":2754698,"name":"Heemserveen","admin3":""},{"geonameid":2754273,"name":"Het Hazebos","admin3":""},{"geonameid":2753867,"name":"Holtheme","admin3":""},{"geonameid":2753865,"name":"Holthone","admin3":""},{"geonameid":2753709,"name":"Hoogenweg","admin3":""},{"geonameid":2752987,"name":"Keiendorp","admin3":""},{"geonameid":2752854,"name":"Kievitshaar","admin3":""},{"geonameid":2752623,"name":"Kloosterhaar","admin3":""},{"geonameid":2751437,"name":"Loozen","admin3":""},{"geonameid":6544884,"name":"Loozermars","admin3":""},{"geonameid":2751359,"name":"Lutten","admin3":""},{"geonameid":2751356,"name":"Lutten-Oever","admin3":""},{"geonameid":2751354,"name":"Lutterhartje","admin3":""},{"geonameid":2751350,"name":"Lutterveld","admin3":""},{"geonameid":2751177,"name":"MariÃ«nberg","admin3":""},{"geonameid":2749826,"name":"Noord-Stegeren","admin3":""},{"geonameid":2749185,"name":"Oud-Avereest","admin3":""},{"geonameid":2749177,"name":"Oud-Bergentheim","admin3":""},{"geonameid":2748925,"name":"Oud-Lutten","admin3":""},{"geonameid":2748351,"name":"Radewijk","admin3":""},{"geonameid":2748190,"name":"Rheeze","admin3":""},{"geonameid":2748187,"name":"Rheezerveen","admin3":""},{"geonameid":2747437,"name":"Schuinesloot","admin3":""},{"geonameid":2747347,"name":"Sibculo","admin3":""},{"geonameid":2747191,"name":"Slagharen","admin3":""},{"geonameid":6544885,"name":"Sluis Zes","admin3":""},{"geonameid":2746911,"name":"Sponturfwijk","admin3":""},{"geonameid":2746583,"name":"Strooiendorp","admin3":""},{"geonameid":2746516,"name":"t Bergje","admin3":""},{"geonameid":2746374,"name":"t Haantje","admin3":""},{"geonameid":2745684,"name":"Veldzicht","admin3":""},{"geonameid":2745653,"name":"Venebrugge","admin3":""},{"geonameid":2744304,"name":"Witman","admin3":""}],"admin3":[],"alternateNames":[{"alternatenameId":11907794,"geonameid":2748838,"isoLanguage":"de","alternateName":"Overijssel","isPreferredName":true,"isShortName":true,"isColloquial":false,"isHistoric":false}]},"__N_SSG":true}