{"pageProps":{"locale":"en","admin2":{"geonameid":4452352,"name":"Alexander County","country":"US","admin1":"NC","admin2":"003","admin3":"","latitude":"35.9210200","longitude":"-81.1770200","localeAltName":null},"admin1":{"geonameid":4482348,"name":"North Carolina","admin1":"NC","localeAltName":"North Carolina"},"locations":[{"geonameid":4455335,"name":"Bethlehem","admin3":"94086","localeAltName":null},{"geonameid":4470940,"name":"Hiddenite","admin3":"92908","localeAltName":null},{"geonameid":4493685,"name":"Stony Point","admin3":"92908","localeAltName":null},{"geonameid":4494650,"name":"Taylorsville","admin3":"93228","localeAltName":null}],"admin3":[{"geonameid":4465186,"name":"Township of Ellendale","admin3":"91020"},{"geonameid":4469546,"name":"Township of Gwaltneys","admin3":"91364"},{"geonameid":4476591,"name":"Township of Little River","admin3":"91848"},{"geonameid":4479608,"name":"Township of Millers","admin3":"92068"},{"geonameid":4491079,"name":"Township of Sharpes","admin3":"92908","localeAltName":null},{"geonameid":4493910,"name":"Township of Sugar Loaf","admin3":"93168"},{"geonameid":4494654,"name":"Township of Taylorsville","admin3":"93228","localeAltName":null},{"geonameid":4499661,"name":"Township of Wittenburg","admin3":"94086","localeAltName":null}],"alternateNames":[{"alternatenameId":2089560,"geonameid":4482348,"isoLanguage":"en","alternateName":"North Carolina","isPreferredName":true,"isShortName":true,"isColloquial":false,"isHistoric":false}]},"__N_SSG":true}