{"pageProps":{"locale":"en","admin2":{"geonameid":4452391,"name":"Alleghany County","country":"US","admin1":"NC","admin2":"005","admin3":"","latitude":"36.4913400","longitude":"-81.1271900","localeAltName":null},"admin1":{"geonameid":4482348,"name":"North Carolina","admin1":"NC","localeAltName":"North Carolina"},"locations":[{"geonameid":4492829,"name":"Sparta","admin3":"91204","localeAltName":null}],"admin3":[{"geonameid":4460424,"name":"Township of Cherry Lane","admin3":"90640"},{"geonameid":4462380,"name":"Township of Cranberry","admin3":"90808"},{"geonameid":4467595,"name":"Township of Gap Civil","admin3":"91204","localeAltName":null},{"geonameid":4468015,"name":"Township of Glade Creek","admin3":"91232"},{"geonameid":4485346,"name":"Township of Piney Creek","admin3":"92508"},{"geonameid":4486456,"name":"Township of Prathers Creek","admin3":"92564"},{"geonameid":4498790,"name":"Township of Whitehead","admin3":"93960"}],"alternateNames":[{"alternatenameId":2089560,"geonameid":4482348,"isoLanguage":"en","alternateName":"North Carolina","isPreferredName":true,"isShortName":true,"isColloquial":false,"isHistoric":false}]},"__N_SSG":true}