{"pageProps":{"locale":"en","admin2":{"geonameid":4458194,"name":"Burke County","country":"US","admin1":"NC","admin2":"023","admin3":"","latitude":"35.7495200","longitude":"-81.7047000","localeAltName":null},"admin1":{"geonameid":4482348,"name":"North Carolina","admin1":"NC","localeAltName":"North Carolina"},"locations":[{"geonameid":4461668,"name":"Connelly Springs","admin3":"91912","localeAltName":null},{"geonameid":4464096,"name":"Drexel","admin3":"90912","localeAltName":null},{"geonameid":4468056,"name":"Glen Alpine","admin3":"92952","localeAltName":null},{"geonameid":4471149,"name":"Hildebran","admin3":"91572","localeAltName":null},{"geonameid":4472557,"name":"Icard","admin3":"91572","localeAltName":null},{"geonameid":4480219,"name":"Morganton","admin3":"92136","localeAltName":null},{"geonameid":4489354,"name":"Rutherford College","admin3":"91912","localeAltName":null},{"geonameid":4489915,"name":"Salem","admin3":"92136","localeAltName":null},{"geonameid":4496484,"name":"Valdese","admin3":"91912","localeAltName":null}],"admin3":[{"geonameid":4464097,"name":"Township of Drexel","admin3":"90912","localeAltName":null},{"geonameid":4472531,"name":"Township of Icard","admin3":"91572","localeAltName":null},{"geonameid":4473660,"name":"Township of Jonas Ridge","admin3":"91676"},{"geonameid":4476066,"name":"Township of Linville","admin3":"91832"},{"geonameid":4477341,"name":"Township of Lovelady","admin3":"91912","localeAltName":null},{"geonameid":4477421,"name":"Township of Lower Creek","admin3":"91920"},{"geonameid":4477430,"name":"Township of Lower Fork","admin3":"91928"},{"geonameid":4480226,"name":"Township of Morganton","admin3":"92136","localeAltName":null},{"geonameid":4486839,"name":"Township of Quaker Meadows","admin3":"92592"},{"geonameid":4491703,"name":"Township of Silver Creek","admin3":"92952","localeAltName":null},{"geonameid":4492224,"name":"Township of Smoky Creek","admin3":"92996"},{"geonameid":4496387,"name":"Township of Upper Creek","admin3":"93832"},{"geonameid":4496395,"name":"Township of Upper Fork","admin3":"93836"}],"alternateNames":[{"alternatenameId":2089560,"geonameid":4482348,"isoLanguage":"en","alternateName":"North Carolina","isPreferredName":true,"isShortName":true,"isColloquial":false,"isHistoric":false}]},"__N_SSG":true}