{"pageProps":{"locale":"en","admin2":{"geonameid":4459575,"name":"Catawba County","country":"US","admin1":"NC","admin2":"035","admin3":"","latitude":"35.6626100","longitude":"-81.2144800","localeAltName":null},"admin1":{"geonameid":4482348,"name":"North Carolina","admin1":"NC","localeAltName":"North Carolina"},"locations":[{"geonameid":4459569,"name":"Catawba","admin3":"90556","localeAltName":null},{"geonameid":4460831,"name":"Claremont","admin3":"90700","localeAltName":null},{"geonameid":4461696,"name":"Conover","admin3":"92284","localeAltName":null},{"geonameid":4470778,"name":"Hickory","admin3":"91468","localeAltName":null},{"geonameid":4474841,"name":"Lake Norman of Catawba","admin3":"92152","localeAltName":null},{"geonameid":4477228,"name":"Longview","admin3":"91468","localeAltName":null},{"geonameid":4477779,"name":"Maiden","admin3":"92284","localeAltName":null},{"geonameid":4481090,"name":"Mountain View","admin3":"91468","localeAltName":null},{"geonameid":4482101,"name":"Newton","admin3":"92284","localeAltName":null},{"geonameid":4493146,"name":"Saint Stephens","admin3":"90700","localeAltName":null},{"geonameid":4491300,"name":"Sherrills Ford","admin3":"92152","localeAltName":null}],"admin3":[{"geonameid":4453654,"name":"Township of Bandy's","admin3":"90140"},{"geonameid":4458613,"name":"Township of Caldwell","admin3":"90476"},{"geonameid":4459593,"name":"Township of Catawba","admin3":"90556","localeAltName":null},{"geonameid":4461093,"name":"Township of Clines","admin3":"90700","localeAltName":null},{"geonameid":4470894,"name":"Township of Hickory","admin3":"91468","localeAltName":null},{"geonameid":4473112,"name":"Township of Jacobs Fork","admin3":"91636"},{"geonameid":4481035,"name":"Township of Mountain Creek","admin3":"92152","localeAltName":null},{"geonameid":4482116,"name":"Township of Newton","admin3":"92284","localeAltName":null}],"alternateNames":[{"alternatenameId":2089560,"geonameid":4482348,"isoLanguage":"en","alternateName":"North Carolina","isPreferredName":true,"isShortName":true,"isColloquial":false,"isHistoric":false}]},"__N_SSG":true}