{"pageProps":{"locale":"en","admin2":{"geonameid":4460366,"name":"Cherokee County","country":"US","admin1":"NC","admin2":"039","admin3":"","latitude":"35.1338400","longitude":"-84.0634700","localeAltName":null},"admin1":{"geonameid":4482348,"name":"North Carolina","admin1":"NC","localeAltName":"North Carolina"},"locations":[{"geonameid":4452655,"name":"Andrews","admin3":"93852","localeAltName":null},{"geonameid":4481308,"name":"Murphy","admin3":"92192","localeAltName":null}],"admin3":[{"geonameid":4454559,"name":"Township of Beaverdam","admin3":"90188"},{"geonameid":4472126,"name":"Township of Hothouse","admin3":"91544"},{"geonameid":4481322,"name":"Township of Murphy","admin3":"92192","localeAltName":null},{"geonameid":4482703,"name":"Township of Notla","admin3":"92336"},{"geonameid":4491489,"name":"Township of Shoal Creek","admin3":"92932"},{"geonameid":4496519,"name":"Township of Valleytown","admin3":"93852","localeAltName":null}],"alternateNames":[{"alternatenameId":2089560,"geonameid":4482348,"isoLanguage":"en","alternateName":"North Carolina","isPreferredName":true,"isShortName":true,"isColloquial":false,"isHistoric":false}]},"__N_SSG":true}