{"pageProps":{"locale":"en","admin2":{"geonameid":4468623,"name":"Granville County","country":"US","admin1":"NC","admin2":"077","admin3":"","latitude":"36.3040200","longitude":"-78.6530200","localeAltName":null},"admin1":{"geonameid":4482348,"name":"North Carolina","admin1":"NC","localeAltName":"North Carolina"},"locations":[{"geonameid":4458372,"name":"Butner","admin3":"90936","localeAltName":null},{"geonameid":4462446,"name":"Creedmoor","admin3":"90936","localeAltName":null},{"geonameid":4483745,"name":"Oxford","admin3":"92424","localeAltName":null}],"admin3":[{"geonameid":4049722,"name":"Township of Fishing Creek","admin3":"91108"},{"geonameid":4456988,"name":"Township of Brassfield","admin3":"90356"},{"geonameid":4464419,"name":"Township of Dutchville","admin3":"90936","localeAltName":null},{"geonameid":4482909,"name":"Township of Oak Hill","admin3":"92348"},{"geonameid":4483757,"name":"Township of Oxford","admin3":"92424","localeAltName":null},{"geonameid":4489978,"name":"Township of Salem","admin3":"92800"},{"geonameid":4490429,"name":"Township of Sassafras Fork","admin3":"92844"},{"geonameid":4494425,"name":"Township of Tally Ho","admin3":"93212"},{"geonameid":4497471,"name":"Township of Walnut Grove","admin3":"93884"}],"alternateNames":[{"alternatenameId":2089560,"geonameid":4482348,"isoLanguage":"en","alternateName":"North Carolina","isPreferredName":true,"isShortName":true,"isColloquial":false,"isHistoric":false}]},"__N_SSG":true}