{"pageProps":{"locale":"en","admin2":{"geonameid":4472505,"name":"Hyde County","country":"US","admin1":"NC","admin2":"095","admin3":"","latitude":"35.4100400","longitude":"-76.1485000","localeAltName":null},"admin1":{"geonameid":4482348,"name":"North Carolina","admin1":"NC","localeAltName":"North Carolina"},"locations":[{"geonameid":4483142,"name":"Ocracoke","admin3":"92372","localeAltName":null}],"admin3":[{"geonameid":4462773,"name":"Township of Currituck","admin3":"90856"},{"geonameid":4465683,"name":"Township of Fairfield","admin3":"91048"},{"geonameid":4474784,"name":"Township of Lake Landing","admin3":"91724"},{"geonameid":4483147,"name":"Township of Ocracoke","admin3":"92372","localeAltName":null},{"geonameid":4494213,"name":"Township of Swan Quarter","admin3":"93184"},{"geonameid":7274932,"name":"Unorganized Territory of Lake Mattamuskeet","admin3":"91728"}],"alternateNames":[{"alternatenameId":2089560,"geonameid":4482348,"isoLanguage":"en","alternateName":"North Carolina","isPreferredName":true,"isShortName":true,"isColloquial":false,"isHistoric":false}]},"__N_SSG":true}