{"pageProps":{"locale":"en","admin2":{"geonameid":4473029,"name":"Jackson County","country":"US","admin1":"NC","admin2":"099","admin3":"","latitude":"35.2873900","longitude":"-83.1408300","localeAltName":null},"admin1":{"geonameid":4482348,"name":"North Carolina","admin1":"NC","localeAltName":"North Carolina"},"locations":[{"geonameid":4462701,"name":"Cullowhee","admin3":"90848","localeAltName":null},{"geonameid":4494335,"name":"Sylva","admin3":"93204","localeAltName":null}],"admin3":[{"geonameid":4453770,"name":"Township of Barkers Creek","admin3":"90156"},{"geonameid":4459004,"name":"Township of Canada","admin3":"90484"},{"geonameid":4459100,"name":"Township of Caney Fork","admin3":"90500"},{"geonameid":4459516,"name":"Township of Cashiers","admin3":"90540"},{"geonameid":4462703,"name":"Township of Cullowhee","admin3":"90848","localeAltName":null},{"geonameid":4463698,"name":"Township of Dillsboro","admin3":"90900"},{"geonameid":4469136,"name":"Township of Greens Creek","admin3":"91320"},{"geonameid":4469709,"name":"Township of Hamburg","admin3":"91384"},{"geonameid":4481129,"name":"Township of Mountain","admin3":"92148"},{"geonameid":4486847,"name":"Township of Qualla","admin3":"92596"},{"geonameid":4488136,"name":"Township of River","admin3":"92684"},{"geonameid":4490485,"name":"Township of Savannah","admin3":"92856"},{"geonameid":4490621,"name":"Township of Scott Creek","admin3":"92868"},{"geonameid":4494338,"name":"Township of Sylva","admin3":"93204","localeAltName":null},{"geonameid":4497954,"name":"Township of Webster","admin3":"93924"}],"alternateNames":[{"alternatenameId":2089560,"geonameid":4482348,"isoLanguage":"en","alternateName":"North Carolina","isPreferredName":true,"isShortName":true,"isColloquial":false,"isHistoric":false}]},"__N_SSG":true}