{"pageProps":{"locale":"en","admin2":{"geonameid":4479988,"name":"Montgomery County","country":"US","admin1":"NC","admin2":"123","admin3":"","latitude":"35.3324600","longitude":"-79.9054700","localeAltName":null},"admin1":{"geonameid":4482348,"name":"North Carolina","admin1":"NC","localeAltName":"North Carolina"},"locations":[{"geonameid":4456054,"name":"Biscoe","admin3":"90272","localeAltName":null},{"geonameid":4459022,"name":"Candor","admin3":"90272","localeAltName":null},{"geonameid":4480497,"name":"Mount Gilead","admin3":"92160","localeAltName":null},{"geonameid":4493256,"name":"Star","admin3":"93100","localeAltName":null},{"geonameid":4495714,"name":"Troy","admin3":"93772","localeAltName":null}],"admin3":[{"geonameid":4456057,"name":"Township of Biscoe","admin3":"90272","localeAltName":null},{"geonameid":4460346,"name":"Township of Cheek Creek","admin3":"90628"},{"geonameid":4465052,"name":"Township of Eldorado","admin3":"90988"},{"geonameid":4476593,"name":"Township of Little River","admin3":"91856"},{"geonameid":4480510,"name":"Township of Mount Gilead","admin3":"92160","localeAltName":null},{"geonameid":4483515,"name":"Township of Ophir","admin3":"92412"},{"geonameid":4484442,"name":"Township of Pee Dee","admin3":"92464"},{"geonameid":4488792,"name":"Township of Rocky Springs","admin3":"92748"},{"geonameid":4493264,"name":"Township of Star","admin3":"93100","localeAltName":null},{"geonameid":4495724,"name":"Township of Troy","admin3":"93772","localeAltName":null},{"geonameid":4496473,"name":"Township of Uwharrie","admin3":"93848"}],"alternateNames":[{"alternatenameId":2089560,"geonameid":4482348,"isoLanguage":"en","alternateName":"North Carolina","isPreferredName":true,"isShortName":true,"isColloquial":false,"isHistoric":false}]},"__N_SSG":true}