{"pageProps":{"locale":"en","admin2":{"geonameid":4480053,"name":"Moore County","country":"US","admin1":"NC","admin2":"125","admin3":"","latitude":"35.3107200","longitude":"-79.4813100","localeAltName":null},"admin1":{"geonameid":4482348,"name":"North Carolina","admin1":"NC","localeAltName":"North Carolina"},"locations":[{"geonameid":4452137,"name":"Aberdeen","admin3":"","localeAltName":null},{"geonameid":4459426,"name":"Carthage","admin3":"","localeAltName":null},{"geonameid":4467089,"name":"Foxfire","admin3":"","localeAltName":null},{"geonameid":4485259,"name":"Pinebluff","admin3":"","localeAltName":null},{"geonameid":4485272,"name":"Pinehurst","admin3":"","localeAltName":null},{"geonameid":4488289,"name":"Robbins","admin3":"","localeAltName":null},{"geonameid":4490858,"name":"Seven Lakes","admin3":"","localeAltName":null},{"geonameid":4492722,"name":"Southern Pines","admin3":"","localeAltName":null},{"geonameid":4494655,"name":"Taylortown","admin3":"","localeAltName":null},{"geonameid":4049908,"name":"Vass","admin3":"","localeAltName":null},{"geonameid":4498560,"name":"Whispering Pines","admin3":"","localeAltName":null}],"admin3":[],"alternateNames":[{"alternatenameId":2089560,"geonameid":4482348,"isoLanguage":"en","alternateName":"North Carolina","isPreferredName":true,"isShortName":true,"isColloquial":false,"isHistoric":false}]},"__N_SSG":true}