{"pageProps":{"locale":"en","admin2":{"geonameid":4481511,"name":"Nash County","country":"US","admin1":"NC","admin2":"127","admin3":"","latitude":"35.9672200","longitude":"-77.9864800","localeAltName":null},"admin1":{"geonameid":4482348,"name":"North Carolina","admin1":"NC","localeAltName":"North Carolina"},"locations":[{"geonameid":4453371,"name":"Bailey","admin3":"90124","localeAltName":null},{"geonameid":4453954,"name":"Battleboro","admin3":"93068","localeAltName":null},{"geonameid":4463942,"name":"Dortches","admin3":"93144","localeAltName":null},{"geonameid":4479191,"name":"Middlesex","admin3":"90916","localeAltName":null},{"geonameid":4481519,"name":"Nashville","admin3":"92212","localeAltName":null},{"geonameid":4487401,"name":"Red Oak","admin3":"92636","localeAltName":null},{"geonameid":4488762,"name":"Rocky Mount","admin3":"","localeAltName":null},{"geonameid":4491086,"name":"Sharpsburg","admin3":"92740","localeAltName":null},{"geonameid":4493028,"name":"Spring Hope","admin3":"91976","localeAltName":null},{"geonameid":4498571,"name":"Whitakers","admin3":"","localeAltName":null}],"admin3":[{"geonameid":4453407,"name":"Township of Bailey","admin3":"90124","localeAltName":null},{"geonameid":4459524,"name":"Township of Castalia","admin3":"90544"},{"geonameid":4461828,"name":"Township of Coopers","admin3":"90776"},{"geonameid":4464173,"name":"Township of Dry Wells","admin3":"90916","localeAltName":null},{"geonameid":4466111,"name":"Township of Ferrells","admin3":"91100"},{"geonameid":4469274,"name":"Township of Griffins","admin3":"91336"},{"geonameid":4473071,"name":"Township of Jackson","admin3":"91616"},{"geonameid":4477880,"name":"Township of Mannings","admin3":"91976","localeAltName":null},{"geonameid":4481523,"name":"Township of Nashville","admin3":"92212","localeAltName":null},{"geonameid":4482575,"name":"Township of North Whitakers","admin3":"92328"},{"geonameid":4482933,"name":"Township of Oak Level","admin3":"92356"},{"geonameid":4487412,"name":"Township of Red Oak","admin3":"92636","localeAltName":null},{"geonameid":4488746,"name":"Township of Rocky Mount","admin3":"92740","localeAltName":null},{"geonameid":4492689,"name":"Township of South Whitakers","admin3":"93068","localeAltName":null},{"geonameid":4493645,"name":"Township of Stony Creek","admin3":"93144","localeAltName":null}],"alternateNames":[{"alternatenameId":2089560,"geonameid":4482348,"isoLanguage":"en","alternateName":"North Carolina","isPreferredName":true,"isShortName":true,"isColloquial":false,"isHistoric":false}]},"__N_SSG":true}