{"pageProps":{"locale":"en","admin2":{"geonameid":4482584,"name":"Northampton County","country":"US","admin1":"NC","admin2":"131","admin3":"","latitude":"36.4176600","longitude":"-77.3967400","localeAltName":null},"admin1":{"geonameid":4482348,"name":"North Carolina","admin1":"NC","localeAltName":"North Carolina"},"locations":[{"geonameid":4461704,"name":"Conway","admin3":"91708","localeAltName":null},{"geonameid":4467701,"name":"Garysburg","admin3":"92368","localeAltName":null},{"geonameid":4467757,"name":"Gaston","admin3":"91212","localeAltName":null},{"geonameid":4487877,"name":"Rich Square","admin3":"92676","localeAltName":null},{"geonameid":4490677,"name":"Seaboard","admin3":"92880","localeAltName":null},{"geonameid":4499867,"name":"Woodland","admin3":"92676","localeAltName":null}],"admin3":[{"geonameid":4467731,"name":"Township of Gaston","admin3":"91212","localeAltName":null},{"geonameid":4473072,"name":"Township of Jackson","admin3":"91620"},{"geonameid":4474456,"name":"Township of Kirby","admin3":"91708","localeAltName":null},{"geonameid":4483140,"name":"Township of Oconeechee","admin3":"92368","localeAltName":null},{"geonameid":4485867,"name":"Township of Pleasant Hill","admin3":"92536"},{"geonameid":4487878,"name":"Township of Rich Square","admin3":"92676","localeAltName":null},{"geonameid":4488242,"name":"Township of Roanoke","admin3":"92696"},{"geonameid":4490678,"name":"Township of Seaboard","admin3":"92880","localeAltName":null},{"geonameid":4498981,"name":"Township of Wiccacanee","admin3":"94004"}],"alternateNames":[{"alternatenameId":2089560,"geonameid":4482348,"isoLanguage":"en","alternateName":"North Carolina","isPreferredName":true,"isShortName":true,"isColloquial":false,"isHistoric":false}]},"__N_SSG":true}