{"pageProps":{"locale":"en","admin2":{"geonameid":4488351,"name":"Robeson County","country":"US","admin1":"NC","admin2":"155","admin3":"","latitude":"34.6400900","longitude":"-79.1035300","localeAltName":null},"admin1":{"geonameid":4482348,"name":"North Carolina","admin1":"NC","localeAltName":"North Carolina"},"locations":[{"geonameid":4453762,"name":"Barker Ten Mile","admin3":"91940","localeAltName":null},{"geonameid":4465691,"name":"Fairmont","admin3":"91052","localeAltName":null},{"geonameid":4477525,"name":"Lumberton","admin3":"91940","localeAltName":null},{"geonameid":4478372,"name":"Maxton","admin3":"92016","localeAltName":null},{"geonameid":4484490,"name":"Pembroke","admin3":"92472","localeAltName":null},{"geonameid":4486589,"name":"Prospect","admin3":"92984","localeAltName":null},{"geonameid":4487421,"name":"Red Springs","admin3":"92640","localeAltName":null},{"geonameid":4489185,"name":"Rowland","admin3":"92760","localeAltName":null},{"geonameid":4489790,"name":"Saint Pauls","admin3":"","localeAltName":null}],"admin3":[{"geonameid":4452370,"name":"Township of Alfordsville","admin3":"90028"},{"geonameid":4453340,"name":"Township of Back Swamp","admin3":"90120"},{"geonameid":4457273,"name":"Township of Britts","admin3":"90372"},{"geonameid":4458298,"name":"Township of Burnt Swamp","admin3":"90460"},{"geonameid":4464650,"name":"Township of East Howellsville","admin3":"90960"},{"geonameid":4465696,"name":"Township of Fairmont","admin3":"91052","localeAltName":null},{"geonameid":4467516,"name":"Township of Gaddys","admin3":"91200"},{"geonameid":4477522,"name":"Township of Lumber Bridge","admin3":"91936"},{"geonameid":4477531,"name":"Township of Lumberton","admin3":"91940","localeAltName":null},{"geonameid":4478375,"name":"Township of Maxton","admin3":"92016","localeAltName":null},{"geonameid":4483578,"name":"Township of Orrum","admin3":"92420"},{"geonameid":4484110,"name":"Township of Parkton","admin3":"92444"},{"geonameid":4484495,"name":"Township of Pembroke","admin3":"92472","localeAltName":null},{"geonameid":4484798,"name":"Township of Philadelphus","admin3":"92484"},{"geonameid":4486994,"name":"Township of Raft Swamp","admin3":"92608"},{"geonameid":4487423,"name":"Township of Red Springs","admin3":"92640","localeAltName":null},{"geonameid":4487670,"name":"Township of Rennert","admin3":"92656"},{"geonameid":4489195,"name":"Township of Rowland","admin3":"92760","localeAltName":null},{"geonameid":4489421,"name":"Township of Saddletree","admin3":"92780"},{"geonameid":4491023,"name":"Township of Shannon","admin3":"92904"},{"geonameid":4492213,"name":"Township of Smiths","admin3":"92984","localeAltName":null},{"geonameid":4492254,"name":"Township of Smyrna","admin3":"93004"},{"geonameid":4493415,"name":"Township of Sterlings","admin3":"93120"},{"geonameid":4494985,"name":"Township of Thompson","admin3":"93236"},{"geonameid":4496301,"name":"Township of Union","admin3":"93812"},{"geonameid":4498228,"name":"Township of West Howellsville","admin3":"93952"},{"geonameid":4499651,"name":"Township of Wisharts","admin3":"94080"},{"geonameid":7172776,"name":"Township of Whitehouse","admin3":"93962"}],"alternateNames":[{"alternatenameId":2089560,"geonameid":4482348,"isoLanguage":"en","alternateName":"North Carolina","isPreferredName":true,"isShortName":true,"isColloquial":false,"isHistoric":false}]},"__N_SSG":true}