{"pageProps":{"locale":"en","admin2":{"geonameid":4496070,"name":"Tyrrell County","country":"US","admin1":"NC","admin2":"177","admin3":"","latitude":"35.8701800","longitude":"-76.1700500","localeAltName":null},"admin1":{"geonameid":4482348,"name":"North Carolina","admin1":"NC","localeAltName":"North Carolina"},"locations":[{"geonameid":4461493,"name":"Columbia","admin3":"90736","localeAltName":null}],"admin3":[{"geonameid":4452497,"name":"Township of Alligator","admin3":"90044"},{"geonameid":4461498,"name":"Township of Columbia","admin3":"90736","localeAltName":null},{"geonameid":4469450,"name":"Township of Gum Neck","admin3":"91360"},{"geonameid":4490683,"name":"Township of Scuppernong","admin3":"92872"},{"geonameid":4492587,"name":"Township of South Fork","admin3":"93040"}],"alternateNames":[{"alternatenameId":2089560,"geonameid":4482348,"isoLanguage":"en","alternateName":"North Carolina","isPreferredName":true,"isShortName":true,"isColloquial":false,"isHistoric":false}]},"__N_SSG":true}