{"pageProps":{"locale":"en","admin2":{"geonameid":4497859,"name":"Wayne County","country":"US","admin1":"NC","admin2":"191","admin3":"","latitude":"35.3637800","longitude":"-78.0041500","localeAltName":null},"admin1":{"geonameid":4482348,"name":"North Carolina","admin1":"NC","localeAltName":"North Carolina"},"locations":[{"geonameid":4457342,"name":"Brogden","admin3":"90384","localeAltName":null},{"geonameid":4465291,"name":"Elroy","admin3":"92256","localeAltName":null},{"geonameid":4467254,"name":"Fremont","admin3":"92200","localeAltName":null},{"geonameid":4468261,"name":"Goldsboro","admin3":"91260","localeAltName":null},{"geonameid":4477971,"name":"Mar-Mac","admin3":"90384","localeAltName":null},{"geonameid":4480638,"name":"Mount Olive","admin3":"90384","localeAltName":null},{"geonameid":4484957,"name":"Pikeville","admin3":"92492","localeAltName":null},{"geonameid":4497476,"name":"Walnut Creek","admin3":"92256","localeAltName":null}],"admin3":[{"geonameid":4457347,"name":"Township of Brogden","admin3":"90384","localeAltName":null},{"geonameid":4457844,"name":"Township of Buck Swamp","admin3":"90428"},{"geonameid":4466888,"name":"Township of Fork","admin3":"91136"},{"geonameid":4468264,"name":"Township of Goldsboro","admin3":"91260","localeAltName":null},{"geonameid":4468615,"name":"Township of Grantham","admin3":"91280"},{"geonameid":4468924,"name":"Township of Great Swamp","admin3":"91300"},{"geonameid":4472683,"name":"Township of Indian Springs","admin3":"91576"},{"geonameid":4481443,"name":"Township of Nahunta","admin3":"92200","localeAltName":null},{"geonameid":4481895,"name":"Township of New Hope","admin3":"92256","localeAltName":null},{"geonameid":4484959,"name":"Township of Pikeville","admin3":"92492","localeAltName":null},{"geonameid":4490451,"name":"Township of Saulston","admin3":"92848"},{"geonameid":4493646,"name":"Township of Stoney Creek","admin3":"93138"}],"alternateNames":[{"alternatenameId":2089560,"geonameid":4482348,"isoLanguage":"en","alternateName":"North Carolina","isPreferredName":true,"isShortName":true,"isColloquial":false,"isHistoric":false}]},"__N_SSG":true}