{"pageProps":{"locale":"en","admin2":{"geonameid":5053562,"name":"Yellow Medicine County","country":"US","admin1":"MN","admin2":"173","admin3":"","latitude":"44.7162500","longitude":"-95.8683600","localeAltName":null},"admin1":{"geonameid":5037779,"name":"Minnesota","admin1":"MN","localeAltName":"Minnesota"},"locations":[{"geonameid":5020238,"name":"Canby","admin3":"09604","localeAltName":null},{"geonameid":5021405,"name":"Clarkfield","admin3":"11656","localeAltName":null},{"geonameid":5028572,"name":"Granite Falls","admin3":"25280","localeAltName":null}],"admin3":[{"geonameid":5019810,"name":"Township of Burton","admin3":"08884"},{"geonameid":5020261,"name":"City of Canby","admin3":"09604","localeAltName":null},{"geonameid":5021424,"name":"City of Clarkfield","admin3":"11656","localeAltName":null},{"geonameid":5025192,"name":"City of Echo","admin3":"17900"},{"geonameid":5025193,"name":"Township of Echo","admin3":"17918"},{"geonameid":5026997,"name":"Township of Florida","admin3":"21464"},{"geonameid":5027180,"name":"Township of Fortier","admin3":"21914"},{"geonameid":5027496,"name":"Township of Friendship","admin3":"22832"},{"geonameid":5028596,"name":"City of Granite Falls","admin3":"25280","localeAltName":null},{"geonameid":5029213,"name":"Township of Hammer","admin3":"26792"},{"geonameid":5029267,"name":"City of Hanley Falls","admin3":"26972"},{"geonameid":5029697,"name":"City of Hazel Run","admin3":"28016"},{"geonameid":5029698,"name":"Township of Hazel Run","admin3":"28034"},{"geonameid":5034802,"name":"Township of Lisbon","admin3":"37394"},{"geonameid":5037706,"name":"Township of Minnesota Falls","admin3":"43180"},{"geonameid":5039386,"name":"Township of Norman","admin3":"46636"},{"geonameid":5039390,"name":"Township of Normania","admin3":"46690"},{"geonameid":5040250,"name":"Township of Omro","admin3":"48292"},{"geonameid":5040420,"name":"Township of Oshkosh","admin3":"48940"},{"geonameid":5042164,"name":"City of Porter","admin3":"52144"},{"geonameid":5042176,"name":"Township of Posen","admin3":"52180"},{"geonameid":5045012,"name":"City of Saint Leo","admin3":"57202"},{"geonameid":5045903,"name":"Township of Sandnes","admin3":"58378"},{"geonameid":5047428,"name":"Township of Sioux Agency","admin3":"60538"},{"geonameid":5048936,"name":"Township of Stony Run","admin3":"63004"},{"geonameid":5049472,"name":"Township of Swede Prairie","admin3":"63850"},{"geonameid":5050864,"name":"Township of Tyro","admin3":"66082"},{"geonameid":5052279,"name":"Township of Wergeland","admin3":"69160"},{"geonameid":5053353,"name":"City of Wood Lake","admin3":"71446"},{"geonameid":5053354,"name":"Township of Wood Lake","admin3":"71464"}],"alternateNames":[{"alternatenameId":2089541,"geonameid":5037779,"isoLanguage":"en","alternateName":"Minnesota","isPreferredName":true,"isShortName":true,"isColloquial":false,"isHistoric":false}]},"__N_SSG":true}