{"pageProps":{"locale":"en","admin2":{"geonameid":5175898,"name":"Wayne County","country":"US","admin1":"OH","admin2":"169","admin3":"","latitude":"40.8288700","longitude":"-81.8880300","localeAltName":null},"admin1":{"geonameid":5165418,"name":"Ohio","admin1":"OH","localeAltName":"Ohio"},"locations":[{"geonameid":5145894,"name":"Apple Creek","admin3":"24136","localeAltName":null},{"geonameid":5151415,"name":"Creston","admin3":"11276","localeAltName":null},{"geonameid":5151660,"name":"Dalton","admin3":"75231","localeAltName":null},{"geonameid":5152278,"name":"Doylestown","admin3":"14240","localeAltName":null},{"geonameid":5159637,"name":"Kidron","admin3":"75231","localeAltName":null},{"geonameid":5162013,"name":"Marshallville","admin3":"04276","localeAltName":null},{"geonameid":5165755,"name":"Orrville","admin3":"04276","localeAltName":null},{"geonameid":5168225,"name":"Rittman","admin3":"67356","localeAltName":null},{"geonameid":5172048,"name":"Shreve","admin3":"16224","localeAltName":null},{"geonameid":5172321,"name":"Smithville","admin3":"31878","localeAltName":null},{"geonameid":5176378,"name":"West Salem","admin3":"18322","localeAltName":null},{"geonameid":5177358,"name":"Wooster","admin3":"86548","localeAltName":null}],"admin3":[{"geonameid":5146642,"name":"Township of Baughman","admin3":"04276","localeAltName":null},{"geonameid":5149186,"name":"Township of Canaan","admin3":"11276","localeAltName":null},{"geonameid":5149932,"name":"Township of Chester","admin3":"14044"},{"geonameid":5150027,"name":"Township of Chippewa","admin3":"14240","localeAltName":null},{"geonameid":5150619,"name":"Township of Clinton","admin3":"16224","localeAltName":null},{"geonameid":5150982,"name":"Township of Congress","admin3":"18322","localeAltName":null},{"geonameid":5152808,"name":"Township of East Union","admin3":"24136","localeAltName":null},{"geonameid":5155116,"name":"Township of Franklin","admin3":"28504"},{"geonameid":5156433,"name":"Township of Green","admin3":"31878","localeAltName":null},{"geonameid":5163127,"name":"Township of Milton","admin3":"50666"},{"geonameid":5166024,"name":"Township of Paint","admin3":"59556"},{"geonameid":5166879,"name":"Township of Plain","admin3":"62995"},{"geonameid":5170626,"name":"Township of Salt Creek","admin3":"70198"},{"geonameid":5173320,"name":"Township of Sugar Creek","admin3":"75231","localeAltName":null},{"geonameid":5175932,"name":"Township of Wayne","admin3":"82320"},{"geonameid":5177374,"name":"City of Wooster","admin3":"86548","localeAltName":null},{"geonameid":5177375,"name":"Township of Wooster","admin3":"86562"},{"geonameid":7317320,"name":"City of Rittman","admin3":"67356","localeAltName":null}],"alternateNames":[{"alternatenameId":2089549,"geonameid":5165418,"isoLanguage":"en","alternateName":"Ohio","isPreferredName":true,"isShortName":true,"isColloquial":false,"isHistoric":false}]},"__N_SSG":true}