{"pageProps":{"locale":"en","admin2":{"geonameid":4782579,"name":"Rockingham County","country":"US","admin1":"VA","admin2":"165","admin3":"","latitude":"38.5121300","longitude":"-78.8757600"},"admin1":{"geonameid":6254928,"name":"Virginia","admin1":"VA","localeAltName":"Virginia"},"locations":[{"geonameid":8097233,"name":"Belmont Estates","admin3":""},{"geonameid":4748925,"name":"Bridgewater","admin3":""},{"geonameid":4749117,"name":"Broadway","admin3":""},{"geonameid":4755491,"name":"Dayton","admin3":""},{"geonameid":4757467,"name":"Elkton","admin3":""},{"geonameid":4762454,"name":"Grottoes","admin3":""},{"geonameid":4771924,"name":"Massanetta Springs","admin3":""},{"geonameid":4771928,"name":"Massanutten","admin3":""},{"geonameid":4789655,"name":"Timberville","admin3":""}],"admin3":[],"alternateNames":[{"alternatenameId":6755491,"geonameid":6254928,"isoLanguage":"en","alternateName":"Virginia","isPreferredName":true,"isShortName":true,"isColloquial":false,"isHistoric":false}]},"__N_SSG":true}