{"pageProps":{"locale":"en","admin2":{"geonameid":4296212,"name":"Jefferson County","country":"US","admin1":"KY","admin2":"111","admin3":"","latitude":"38.1871900","longitude":"-85.6591600"},"admin1":{"geonameid":6254925,"name":"Kentucky","admin1":"KY","localeAltName":"Kentucky"},"locations":[{"geonameid":4282497,"name":"Anchorage","admin3":""},{"geonameid":4282818,"name":"Audubon Park","admin3":""},{"geonameid":4283127,"name":"Barbourmeade","admin3":""},{"geonameid":4283760,"name":"Beechwood Village","admin3":""},{"geonameid":4286054,"name":"Buechel","admin3":""},{"geonameid":4288250,"name":"Coldstream","admin3":""},{"geonameid":4290181,"name":"Douglass Hills","admin3":""},{"geonameid":4291373,"name":"Fairdale","admin3":""},{"geonameid":4291620,"name":"Fern Creek","admin3":""},{"geonameid":4293284,"name":"Graymoor-Devondale","admin3":""},{"geonameid":4301094,"name":"Heritage Creek","admin3":""},{"geonameid":4294799,"name":"Highview","admin3":""},{"geonameid":4295689,"name":"Hurstbourne","admin3":""},{"geonameid":4295686,"name":"Hurstbourne Acres","admin3":""},{"geonameid":4295852,"name":"Indian Hills","admin3":""},{"geonameid":4295856,"name":"Indian Hills Cherokee Section","admin3":""},{"geonameid":4296218,"name":"Jeffersontown","admin3":""},{"geonameid":4299276,"name":"Louisville","admin3":""},{"geonameid":4299562,"name":"Lyndon","admin3":""},{"geonameid":4300725,"name":"Middletown","admin3":""},{"geonameid":4302504,"name":"Newburg","admin3":""},{"geonameid":4302761,"name":"Northfield","admin3":""},{"geonameid":4303012,"name":"Okolona","admin3":""},{"geonameid":4304713,"name":"Pleasure Ridge Park","admin3":""},{"geonameid":4305287,"name":"Prospect","admin3":""},{"geonameid":4309414,"name":"Saint Dennis","admin3":""},{"geonameid":4307238,"name":"Saint Matthews","admin3":""},{"geonameid":4307275,"name":"Saint Regis Park","admin3":""},{"geonameid":4308225,"name":"Shively","admin3":""},{"geonameid":4311963,"name":"Valley Station","admin3":""},{"geonameid":4312811,"name":"Watterson Park","admin3":""},{"geonameid":4312983,"name":"West Buechel","admin3":""},{"geonameid":4313719,"name":"Windy Hills","admin3":""},{"geonameid":4314051,"name":"Worthington","admin3":""},{"geonameid":4314047,"name":"Worthington Hills","admin3":""}],"admin3":[{"geonameid":7169320,"name":"City of Anchorage","admin3":"7169320"},{"geonameid":7169347,"name":"City of Audubon Park","admin3":"7169347"},{"geonameid":7169360,"name":"City of Bancroft","admin3":"7169360"},{"geonameid":7169362,"name":"City of Barbourmeade","admin3":"7169362"},{"geonameid":7169374,"name":"City of Druid Hills","admin3":"7169374"},{"geonameid":7169444,"name":"City of Fincastle","admin3":"7169444"},{"geonameid":7169462,"name":"City of Forest Hills","admin3":"7169462"},{"geonameid":7169508,"name":"City of Glenview","admin3":"7169508"},{"geonameid":7169509,"name":"City of Glenview Hills","admin3":"7169509"},{"geonameid":7169510,"name":"City of Glenview Manor","admin3":"7169510"},{"geonameid":7169515,"name":"City of Goose Creek","admin3":"7169515"},{"geonameid":7169531,"name":"City of Graymoor-Devondale","admin3":"7169531"},{"geonameid":7169536,"name":"City of Green Spring","admin3":"7169536"},{"geonameid":7169599,"name":"City of Beechwood Village","admin3":"7169599"},{"geonameid":7169606,"name":"City of Bellemeade","admin3":"7169606"},{"geonameid":7169609,"name":"City of Bellewood","admin3":"7169609"},{"geonameid":7169634,"name":"City of Blue Ridge Manor","admin3":"7169634"},{"geonameid":7169663,"name":"City of Briarwood","admin3":"7169663"},{"geonameid":7169668,"name":"City of Broeck Pointe","admin3":"7169668"},{"geonameid":7169673,"name":"City of Brownsboro Farm","admin3":"7169673"},{"geonameid":7169674,"name":"City of Brownsboro Village","admin3":"7169674"},{"geonameid":7169700,"name":"City of Cambridge","admin3":"7169700"},{"geonameid":7169783,"name":"City of Coldstream","admin3":"7169783"},{"geonameid":7169813,"name":"City of Creekside","admin3":"7169813"},{"geonameid":7169824,"name":"City of Crossgate","admin3":"7169824"},{"geonameid":7169876,"name":"City of Douglass Hills","admin3":"7169876"},{"geonameid":7169884,"name":"City of Middletown","admin3":"7169884"},{"geonameid":7169901,"name":"City of Mockingbird Valley","admin3":"7169901"},{"geonameid":7169915,"name":"City of Moorland","admin3":"7169915"},{"geonameid":7169946,"name":"City of Murray Hill","admin3":"7169946"},{"geonameid":7169969,"name":"City of Norbourne Estates","admin3":"7169969"},{"geonameid":7169976,"name":"City of Northfield","admin3":"7169976"},{"geonameid":7169980,"name":"City of Norwood","admin3":"7169980"},{"geonameid":7169999,"name":"City of Old Brownsboro Place","admin3":"7169999"},{"geonameid":7170040,"name":"City of Parkway Village","admin3":"7170040"},{"geonameid":7170072,"name":"City of Plantation","admin3":"7170072"},{"geonameid":7170085,"name":"City of Poplar Hills","admin3":"7170085"},{"geonameid":7170102,"name":"City of Prospect","admin3":"7170102"},{"geonameid":7170130,"name":"City of Richlawn","admin3":"7170130"},{"geonameid":7170138,"name":"City of Riverwood","admin3":"7170138"},{"geonameid":7170154,"name":"City of Rolling Fields","admin3":"7170154"},{"geonameid":7170156,"name":"City of Rolling Hills","admin3":"7170156"},{"geonameid":7170188,"name":"City of Hickory Hill","admin3":"7170188"},{"geonameid":7170194,"name":"City of Hills and Dales","admin3":"7170194"},{"geonameid":7170205,"name":"City of Hollow Creek","admin3":"7170205"},{"geonameid":7170209,"name":"City of Hollyvilla","admin3":"7170209"},{"geonameid":7170217,"name":"City of Houston Acres","admin3":"7170217"},{"geonameid":7170225,"name":"City of Hurstbourne","admin3":"7170225"},{"geonameid":7170226,"name":"City of Hurstbourne Acres","admin3":"7170226"},{"geonameid":7170232,"name":"City of Indian Hills","admin3":"7170232"},{"geonameid":7170258,"name":"City of Jeffersontown","admin3":"7170258"},{"geonameid":7170284,"name":"City of Kingsley","admin3":"7170284"},{"geonameid":7170319,"name":"City of Langdon Place","admin3":"7170319"},{"geonameid":7170351,"name":"City of Lincolnshire","admin3":"7170351"},{"geonameid":7170385,"name":"City of Lyndon","admin3":"7170385"},{"geonameid":7170387,"name":"City of Lynnview","admin3":"7170387"},{"geonameid":7170403,"name":"City of Manor Creek","admin3":"7170403"},{"geonameid":7170420,"name":"City of Maryhill Estates","admin3":"7170420"},{"geonameid":7170435,"name":"City of Meadow Vale","admin3":"7170435"},{"geonameid":7170436,"name":"City of Meadowbrook Farm","admin3":"7170436"},{"geonameid":7170437,"name":"City of Meadowview Estates","admin3":"7170437"},{"geonameid":7170766,"name":"City of Saint Matthews","admin3":"7170766"},{"geonameid":7170768,"name":"City of Saint Regis Park","admin3":"7170768"},{"geonameid":7170804,"name":"City of Seneca Gardens","admin3":"7170804"},{"geonameid":7170817,"name":"City of Shively","admin3":"7170817"},{"geonameid":7170839,"name":"City of South Park View","admin3":"7170839"},{"geonameid":7170850,"name":"City of Spring Mill","admin3":"7170850"},{"geonameid":7170851,"name":"City of Spring Valley","admin3":"7170851"},{"geonameid":7170865,"name":"City of Strathmoor Manor","admin3":"7170865"},{"geonameid":7170866,"name":"City of Strathmoor Village","admin3":"7170866"},{"geonameid":7170879,"name":"City of Sycamore","admin3":"7170879"},{"geonameid":7170894,"name":"City of Ten Broeck","admin3":"7170894"},{"geonameid":7170898,"name":"City of Thornhill","admin3":"7170898"},{"geonameid":7170971,"name":"City of Watterson Park","admin3":"7170971"},{"geonameid":7170981,"name":"City of Wellington","admin3":"7170981"},{"geonameid":7170982,"name":"City of West Buechel","admin3":"7170982"},{"geonameid":7170992,"name":"City of Westwood","admin3":"7170992"},{"geonameid":7171008,"name":"City of Wildwood","admin3":"7171008"},{"geonameid":7171022,"name":"City of Windy Hills","admin3":"7171022"},{"geonameid":7171037,"name":"City of Woodland Hills","admin3":"7171037"},{"geonameid":7171040,"name":"City of Woodlawn Park","admin3":"7171040"},{"geonameid":7171045,"name":"City of Worthington Hills","admin3":"7171045"}],"alternateNames":[{"alternatenameId":6755489,"geonameid":6254925,"isoLanguage":"en","alternateName":"Kentucky","isPreferredName":true,"isShortName":true,"isColloquial":false,"isHistoric":false}]},"__N_SSG":true}