{"pageProps":{"locale":"en","admin2":{"geonameid":2747114,"name":"Gemeente Sluis","country":"NL","admin1":"10","admin2":"1714","admin3":"","latitude":"51.3349000","longitude":"3.5197400"},"admin1":{"geonameid":2744011,"name":"Provincie Zeeland","admin1":"10"},"locations":[{"geonameid":2760096,"name":"Aardenburg","admin3":""},{"geonameid":2759925,"name":"Akkerput","admin3":""},{"geonameid":2759492,"name":"Bakkersdam","admin3":""},{"geonameid":2759476,"name":"Balhofstede","admin3":""},{"geonameid":2758963,"name":"Biezen","admin3":""},{"geonameid":2758735,"name":"Boerenhol","admin3":""},{"geonameid":2758341,"name":"Breskens","admin3":""},{"geonameid":2758033,"name":"Cadzand","admin3":""},{"geonameid":2758032,"name":"Cadzand-Bad","admin3":""},{"geonameid":2757264,"name":"De Munte","admin3":""},{"geonameid":2756647,"name":"Draaibrug","admin3":""},{"geonameid":2756419,"name":"Eede","admin3":""},{"geonameid":2755305,"name":"Groede","admin3":""},{"geonameid":2754517,"name":"Heille","admin3":""},{"geonameid":2753799,"name":"Hoofdplaat","admin3":""},{"geonameid":2753710,"name":"Hoogeweg","admin3":""},{"geonameid":2753348,"name":"IJzendijke","admin3":""},{"geonameid":2752811,"name":"Klakbaan","admin3":""},{"geonameid":2752783,"name":"Klein-Brabant","admin3":""},{"geonameid":2752501,"name":"Koninginnehaven","admin3":""},{"geonameid":2752200,"name":"Kruisdijk","admin3":""},{"geonameid":2752194,"name":"Kruishoofd","admin3":""},{"geonameid":2751340,"name":"Maagd van Gent","admin3":""},{"geonameid":2751338,"name":"Maaidijk","admin3":""},{"geonameid":2751131,"name":"Marolleput","admin3":""},{"geonameid":2750759,"name":"Moershoofde","admin3":""},{"geonameid":2750658,"name":"Molentje","admin3":""},{"geonameid":2750244,"name":"Nieuwesluis","admin3":""},{"geonameid":2750178,"name":"Nieuwland","admin3":""},{"geonameid":2750120,"name":"Nieuwvliet","admin3":""},{"geonameid":2750119,"name":"Nieuwvliet-Bad","admin3":""},{"geonameid":2749761,"name":"Nummer Een","admin3":""},{"geonameid":2749541,"name":"Oostburg","admin3":""},{"geonameid":2749539,"name":"Oostburgsche Brug","admin3":""},{"geonameid":2749093,"name":"Oudeland","admin3":""},{"geonameid":2748566,"name":"Plakkebord","admin3":""},{"geonameid":2748506,"name":"Ponte","admin3":""},{"geonameid":2748505,"name":"Ponte-Avanc√©","admin3":""},{"geonameid":2748387,"name":"Pyramide","admin3":""},{"geonameid":2748220,"name":"Retranchement","admin3":""},{"geonameid":2747958,"name":"Roodenhoek","admin3":""},{"geonameid":2747752,"name":"Sasput","admin3":""},{"geonameid":2747614,"name":"Scherpbier","admin3":""},{"geonameid":2747517,"name":"Schoondijke","admin3":""},{"geonameid":2747295,"name":"Sint Anna ter Muiden","admin3":""},{"geonameid":2747250,"name":"Sint Kruis","admin3":""},{"geonameid":2747159,"name":"Slijkplaat","admin3":""},{"geonameid":2747156,"name":"Slikkenburg","admin3":""},{"geonameid":2747117,"name":"Sluis","admin3":""},{"geonameid":2747090,"name":"Smedekensbrugge","admin3":""},{"geonameid":2746782,"name":"Steenhoven","admin3":""},{"geonameid":2746581,"name":"Stroopuit","admin3":""},{"geonameid":2746453,"name":"Terhofstede","admin3":""},{"geonameid":2746176,"name":"Tragel","admin3":""},{"geonameid":2746105,"name":"Turkeye","admin3":""},{"geonameid":2745883,"name":"Valeiskreek","admin3":""},{"geonameid":2745685,"name":"Veldzicht","admin3":""},{"geonameid":2745686,"name":"Veldzicht","admin3":""},{"geonameid":2745145,"name":"Vuilpan","admin3":""},{"geonameid":2744964,"name":"Waterlandkerkje","admin3":""},{"geonameid":2743634,"name":"Zuidzande","admin3":""}],"admin3":[],"alternateNames":[{"alternatenameId":11907790,"geonameid":2744011,"isoLanguage":"de","alternateName":"Zeeland","isPreferredName":true,"isShortName":true,"isColloquial":false,"isHistoric":false}]},"__N_SSG":true}