{"pageProps":{"locale":"en","admin2":{"geonameid":5465283,"name":"Doña Ana County","country":"US","admin1":"NM","admin2":"013","admin3":"","latitude":"32.3526800","longitude":"-106.8328000"},"admin1":{"geonameid":5481136,"name":"New Mexico","admin1":"NM","localeAltName":"New Mexico"},"locations":[{"geonameid":5455381,"name":"Anthony","admin3":""},{"geonameid":5457146,"name":"Berino","admin3":""},{"geonameid":5461353,"name":"Chaparral","admin3":""},{"geonameid":5465262,"name":"Doña Ana","admin3":""},{"geonameid":5470850,"name":"Hatch","admin3":""},{"geonameid":5474975,"name":"La Union","admin3":""},{"geonameid":5475352,"name":"Las Cruces","admin3":""},{"geonameid":5478971,"name":"Mesilla","admin3":""},{"geonameid":5479038,"name":"Mesquite","admin3":""},{"geonameid":5486551,"name":"Radium Springs","admin3":""},{"geonameid":5489804,"name":"San Miguel","admin3":""},{"geonameid":5489914,"name":"San Ysidro","admin3":""},{"geonameid":5490374,"name":"Santa Teresa","admin3":""},{"geonameid":5493403,"name":"Sunland Park","admin3":""},{"geonameid":5495937,"name":"University Park","admin3":""},{"geonameid":5496286,"name":"Vado","admin3":""},{"geonameid":5497914,"name":"White Sands","admin3":""}],"admin3":[{"geonameid":11788512,"name":"City of Anthony","admin3":"11788512"},{"geonameid":11789057,"name":"City of Las Cruces","admin3":"11789057"}],"alternateNames":[{"alternatenameId":2124824,"geonameid":5481136,"isoLanguage":"en","alternateName":"New Mexico","isPreferredName":true,"isShortName":true,"isColloquial":false,"isHistoric":false}]},"__N_SSG":true}