{"pageProps":{"locale":"en","admin2":{"geonameid":5496319,"name":"Valencia County","country":"US","admin1":"NM","admin2":"061","admin3":"","latitude":"34.7154500","longitude":"-106.8091100"},"admin1":{"geonameid":5481136,"name":"New Mexico","admin1":"NM","localeAltName":"New Mexico"},"locations":[{"geonameid":5456975,"name":"Belen","admin3":""},{"geonameid":5458548,"name":"Bosque Farms","admin3":""},{"geonameid":5466437,"name":"El Cerro","admin3":""},{"geonameid":7261104,"name":"El Cerro Mission","admin3":""},{"geonameid":5473163,"name":"Jarales","admin3":""},{"geonameid":7176022,"name":"Las Maravillas","admin3":""},{"geonameid":5476881,"name":"Los Chavez","admin3":""},{"geonameid":5476913,"name":"Los Lunas","admin3":""},{"geonameid":5478673,"name":"Meadow Lake","admin3":""},{"geonameid":7176024,"name":"Monterey Park","admin3":""},{"geonameid":5483884,"name":"Peralta","admin3":""},{"geonameid":7176031,"name":"Rio Communities","admin3":""},{"geonameid":5494790,"name":"Tome","admin3":""},{"geonameid":5496315,"name":"Valencia","admin3":""}],"admin3":[{"geonameid":11788727,"name":"City of Rio Communities","admin3":"11788727"}],"alternateNames":[{"alternatenameId":2124824,"geonameid":5481136,"isoLanguage":"en","alternateName":"New Mexico","isPreferredName":true,"isShortName":true,"isColloquial":false,"isHistoric":false}]},"__N_SSG":true}