{"pageProps":{"locale":"en","admin2":{"geonameid":4146810,"name":"Bay County","country":"US","admin1":"FL","admin2":"005","admin3":"","latitude":"30.2376500","longitude":"-85.6326200","localeAltName":null},"admin1":{"geonameid":4155751,"name":"Florida","admin1":"FL","localeAltName":"Florida"},"locations":[{"geonameid":4149635,"name":"Callaway","admin3":"","localeAltName":null},{"geonameid":4150340,"name":"Cedar Grove","admin3":"","localeAltName":null},{"geonameid":4158662,"name":"Hiland Park","admin3":"","localeAltName":null},{"geonameid":4161141,"name":"Laguna Beach","admin3":"","localeAltName":null},{"geonameid":4162911,"name":"Lower Grand Lagoon","admin3":"","localeAltName":null},{"geonameid":4163049,"name":"Lynn Haven","admin3":"","localeAltName":null},{"geonameid":4164131,"name":"Mexico Beach","admin3":"","localeAltName":null},{"geonameid":4167694,"name":"Panama City","admin3":"","localeAltName":null},{"geonameid":4167695,"name":"Panama City Beach","admin3":"","localeAltName":null},{"geonameid":4167797,"name":"Parker","admin3":"","localeAltName":null},{"geonameid":4169302,"name":"Pretty Bayou","admin3":"","localeAltName":null},{"geonameid":4173892,"name":"Springfield","admin3":"","localeAltName":null},{"geonameid":7260215,"name":"Tyndall Air Force Base","admin3":"","localeAltName":null},{"geonameid":4176277,"name":"Upper Grand Lagoon","admin3":"","localeAltName":null},{"geonameid":4178909,"name":"Youngstown","admin3":"","localeAltName":null}],"admin3":[{"geonameid":7169697,"name":"City of Callaway","admin3":"7169697"},{"geonameid":7169880,"name":"City of Mexico Beach","admin3":"7169880"},{"geonameid":7170037,"name":"City of Parker","admin3":"7170037"},{"geonameid":7170386,"name":"City of Lynn Haven","admin3":"7170386"},{"geonameid":7170853,"name":"City of Springfield","admin3":"7170853"},{"geonameid":7317924,"name":"City of Panama City Beach","admin3":"7317924"}],"alternateNames":[{"alternatenameId":2080779,"geonameid":4155751,"isoLanguage":"en","alternateName":"Florida","isPreferredName":true,"isShortName":true,"isColloquial":false,"isHistoric":false}]},"__N_SSG":true}