{"pageProps":{"locale":"en","admin2":{"geonameid":4151550,"name":"Collier County","country":"US","admin1":"FL","admin2":"021","admin3":"","latitude":"26.0992400","longitude":"-81.3809700","localeAltName":null},"admin1":{"geonameid":4155751,"name":"Florida","admin1":"FL","localeAltName":"Florida"},"locations":[{"geonameid":4154031,"name":"East Naples","admin3":"","localeAltName":null},{"geonameid":4156920,"name":"Golden Gate","admin3":"","localeAltName":null},{"geonameid":4159553,"name":"Immokalee","admin3":"","localeAltName":null},{"geonameid":7315231,"name":"Island Walk","admin3":"","localeAltName":null},{"geonameid":4161807,"name":"Lely","admin3":"","localeAltName":null},{"geonameid":4161810,"name":"Lely Resort","admin3":"","localeAltName":null},{"geonameid":4163384,"name":"Marco","admin3":"","localeAltName":null},{"geonameid":4163388,"name":"Marco Island","admin3":"","localeAltName":null},{"geonameid":4165565,"name":"Naples","admin3":"","localeAltName":null},{"geonameid":4165574,"name":"Naples Manor","admin3":"","localeAltName":null},{"geonameid":4165576,"name":"Naples Park","admin3":"","localeAltName":null},{"geonameid":4167127,"name":"Orangetree","admin3":"","localeAltName":null},{"geonameid":4168095,"name":"Pelican Bay","admin3":"","localeAltName":null},{"geonameid":4168564,"name":"Pine Ridge","admin3":"","localeAltName":null},{"geonameid":7315240,"name":"Verona Walk","admin3":"","localeAltName":null},{"geonameid":4176527,"name":"Vineyards","admin3":"","localeAltName":null}],"admin3":[{"geonameid":7169948,"name":"City of Naples","admin3":"7169948"},{"geonameid":7170408,"name":"City of Marco Island","admin3":"7170408"},{"geonameid":11788975,"name":"City of Everglades","admin3":"11788975"}],"alternateNames":[{"alternatenameId":2080779,"geonameid":4155751,"isoLanguage":"en","alternateName":"Florida","isPreferredName":true,"isShortName":true,"isColloquial":false,"isHistoric":false}]},"__N_SSG":true}