{"pageProps":{"locale":"en","admin2":{"geonameid":4159657,"name":"Indian River County","country":"US","admin1":"FL","admin2":"061","admin3":"","latitude":"27.6963900","longitude":"-80.5740900","localeAltName":null},"admin1":{"geonameid":4155751,"name":"Florida","admin1":"FL","localeAltName":"Florida"},"locations":[{"geonameid":4154972,"name":"Fellsmere","admin3":"","localeAltName":null},{"geonameid":4155726,"name":"Florida Ridge","admin3":"","localeAltName":null},{"geonameid":4156752,"name":"Gifford","admin3":"","localeAltName":null},{"geonameid":4159672,"name":"Indian River Shores","admin3":"","localeAltName":null},{"geonameid":4170520,"name":"Roseland","admin3":"","localeAltName":null},{"geonameid":4172372,"name":"Sebastian","admin3":"","localeAltName":null},{"geonameid":4173380,"name":"South Beach","admin3":"","localeAltName":null},{"geonameid":4176409,"name":"Vero Beach","admin3":"","localeAltName":null},{"geonameid":7260233,"name":"Vero Beach South","admin3":"","localeAltName":null},{"geonameid":4177268,"name":"Wabasso","admin3":"","localeAltName":null},{"geonameid":4177270,"name":"Wabasso Beach","admin3":"","localeAltName":null},{"geonameid":4177950,"name":"West Vero Corridor","admin3":"","localeAltName":null},{"geonameid":4178548,"name":"Winter Beach","admin3":"","localeAltName":null}],"admin3":[{"geonameid":7170799,"name":"City of Sebastian","admin3":"7170799"},{"geonameid":7170939,"name":"City of Vero Beach","admin3":"7170939"},{"geonameid":7171137,"name":"Town of Indian River Shores","admin3":"7171137"},{"geonameid":7172271,"name":"Town of Orchid","admin3":"7172271"},{"geonameid":7317674,"name":"City of Fellsmere","admin3":"7317674"}],"alternateNames":[{"alternatenameId":2080779,"geonameid":4155751,"isoLanguage":"en","alternateName":"Florida","isPreferredName":true,"isShortName":true,"isColloquial":false,"isHistoric":false}]},"__N_SSG":true}