{"pageProps":{"locale":"en","admin2":{"geonameid":4161204,"name":"Lake County","country":"US","admin1":"FL","admin2":"069","admin3":"","latitude":"28.7614700","longitude":"-81.7113000","localeAltName":null},"admin1":{"geonameid":4155751,"name":"Florida","admin1":"FL","localeAltName":"Florida"},"locations":[{"geonameid":4146338,"name":"Astatula","admin3":"","localeAltName":null},{"geonameid":4146339,"name":"Astor","admin3":"","localeAltName":null},{"geonameid":4151352,"name":"Clermont","admin3":"","localeAltName":null},{"geonameid":4154606,"name":"Eustis","admin3":"","localeAltName":null},{"geonameid":7259780,"name":"Four Corners","admin3":"","localeAltName":null},{"geonameid":4156337,"name":"Fruitland Park","admin3":"","localeAltName":null},{"geonameid":4157605,"name":"Groveland","admin3":"","localeAltName":null},{"geonameid":4158257,"name":"Hawthorne","admin3":"","localeAltName":null},{"geonameid":4159315,"name":"Howey-in-the-Hills","admin3":"","localeAltName":null},{"geonameid":4161118,"name":"Lady Lake","admin3":"","localeAltName":null},{"geonameid":4161283,"name":"Lake Kathryn","admin3":"","localeAltName":null},{"geonameid":7260355,"name":"Lake Mack-Forest Hills","admin3":"","localeAltName":null},{"geonameid":4161771,"name":"Leesburg","admin3":"","localeAltName":null},{"geonameid":4163635,"name":"Mascotte","admin3":"","localeAltName":null},{"geonameid":4164575,"name":"Minneola","admin3":"","localeAltName":null},{"geonameid":4164806,"name":"Montverde","admin3":"","localeAltName":null},{"geonameid":4165069,"name":"Mount Dora","admin3":"","localeAltName":null},{"geonameid":4165218,"name":"Mount Plymouth","admin3":"","localeAltName":null},{"geonameid":4167478,"name":"Paisley","admin3":"","localeAltName":null},{"geonameid":4168525,"name":"Pine Lakes","admin3":"","localeAltName":null},{"geonameid":4172971,"name":"Silver Lake","admin3":"","localeAltName":null},{"geonameid":4173355,"name":"Sorrento","admin3":"","localeAltName":null},{"geonameid":4174861,"name":"Tavares","admin3":"","localeAltName":null},{"geonameid":4176059,"name":"Umatilla","admin3":"","localeAltName":null},{"geonameid":4178817,"name":"Yalaha","admin3":"","localeAltName":null}],"admin3":[{"geonameid":7169552,"name":"City of Groveland","admin3":"7169552"},{"geonameid":7169765,"name":"City of Clermont","admin3":"7169765"},{"geonameid":7169896,"name":"City of Minneola","admin3":"7169896"},{"geonameid":7169927,"name":"City of Mount Dora","admin3":"7169927"},{"geonameid":7170550,"name":"Town of Astatula","admin3":"7170550"},{"geonameid":7171122,"name":"Town of Howey-in-the-Hills","admin3":"7171122"},{"geonameid":7171425,"name":"Town of Montverde","admin3":"7171425"},{"geonameid":7317689,"name":"City of Fruitland Park","admin3":"7317689"},{"geonameid":7318044,"name":"City of Leesburg","admin3":"7318044"},{"geonameid":7318089,"name":"City of Mascotte","admin3":"7318089"},{"geonameid":7318153,"name":"City of Tavares","admin3":"7318153"},{"geonameid":7318168,"name":"City of Umatilla","admin3":"7318168"},{"geonameid":7318221,"name":"Town of Lady Lake","admin3":"7318221"},{"geonameid":11788376,"name":"City of Eustis","admin3":"11788376"}],"alternateNames":[{"alternatenameId":2080779,"geonameid":4155751,"isoLanguage":"en","alternateName":"Florida","isPreferredName":true,"isShortName":true,"isColloquial":false,"isHistoric":false}]},"__N_SSG":true}