{"pageProps":{"locale":"en","admin2":{"geonameid":4161743,"name":"Lee County","country":"US","admin1":"FL","admin2":"071","admin3":"","latitude":"26.6253600","longitude":"-81.8495200","localeAltName":null},"admin1":{"geonameid":4155751,"name":"Florida","admin1":"FL","localeAltName":"Florida"},"locations":[{"geonameid":4145959,"name":"Alva","admin3":"","localeAltName":null},{"geonameid":4148504,"name":"Bokeelia","admin3":"","localeAltName":null},{"geonameid":4148533,"name":"Bonita Springs","admin3":"","localeAltName":null},{"geonameid":4149241,"name":"Buckingham","admin3":"","localeAltName":null},{"geonameid":4149412,"name":"Burnt Store Marina","admin3":"","localeAltName":null},{"geonameid":4149962,"name":"Cape Coral","admin3":"","localeAltName":null},{"geonameid":4150010,"name":"Captiva","admin3":"","localeAltName":null},{"geonameid":4152639,"name":"Cypress Lake","admin3":"","localeAltName":null},{"geonameid":4154568,"name":"Estero","admin3":"","localeAltName":null},{"geonameid":4155995,"name":"Fort Myers","admin3":"","localeAltName":null},{"geonameid":4155996,"name":"Fort Myers Beach","admin3":"","localeAltName":null},{"geonameid":4156006,"name":"Fort Myers Shores","admin3":"","localeAltName":null},{"geonameid":4156601,"name":"Gateway","admin3":"","localeAltName":null},{"geonameid":4158094,"name":"Harlem Heights","admin3":"","localeAltName":null},{"geonameid":4159805,"name":"Iona","admin3":"","localeAltName":null},{"geonameid":4161785,"name":"Lehigh Acres","admin3":"","localeAltName":null},{"geonameid":4162532,"name":"Lochmoor Waterway Estates","admin3":"","localeAltName":null},{"geonameid":4047852,"name":"Matlacha","admin3":"","localeAltName":null},{"geonameid":4163833,"name":"McGregor","admin3":"","localeAltName":null},{"geonameid":4166195,"name":"North Fort Myers","admin3":"","localeAltName":null},{"geonameid":4166943,"name":"Olga","admin3":"","localeAltName":null},{"geonameid":4167465,"name":"Page Park","admin3":"","localeAltName":null},{"geonameid":4167671,"name":"Palmona Park","admin3":"","localeAltName":null},{"geonameid":4168493,"name":"Pine Island Center","admin3":"","localeAltName":null},{"geonameid":4168556,"name":"Pine Manor","admin3":"","localeAltName":null},{"geonameid":4169461,"name":"Punta Rassa","admin3":"","localeAltName":null},{"geonameid":4171061,"name":"Saint James City","admin3":"","localeAltName":null},{"geonameid":4171782,"name":"San Carlos Park","admin3":"","localeAltName":null},{"geonameid":4172052,"name":"Sanibel","admin3":"","localeAltName":null},{"geonameid":4174343,"name":"Suncoast Estates","admin3":"","localeAltName":null},{"geonameid":4175298,"name":"Three Oaks","admin3":"","localeAltName":null},{"geonameid":4175319,"name":"Tice","admin3":"","localeAltName":null},{"geonameid":4047914,"name":"Villas","admin3":"","localeAltName":null},{"geonameid":4178111,"name":"Whiskey Creek","admin3":"","localeAltName":null}],"admin3":[{"geonameid":7169467,"name":"City of Fort Myers","admin3":"7169467"},{"geonameid":7169639,"name":"City of Bonita Springs","admin3":"7169639"},{"geonameid":7169711,"name":"City of Cape Coral","admin3":"7169711"},{"geonameid":7170783,"name":"City of Sanibel","admin3":"7170783"},{"geonameid":7171747,"name":"Town of Fort Myers Beach","admin3":"7171747"}],"alternateNames":[{"alternatenameId":2080779,"geonameid":4155751,"isoLanguage":"en","alternateName":"Florida","isPreferredName":true,"isShortName":true,"isColloquial":false,"isHistoric":false}]},"__N_SSG":true}