{"pageProps":{"locale":"en","admin2":{"geonameid":4161891,"name":"Levy County","country":"US","admin1":"FL","admin2":"075","admin3":"","latitude":"29.2822100","longitude":"-82.7886100","localeAltName":null},"admin1":{"geonameid":4155751,"name":"Florida","admin1":"FL","localeAltName":"Florida"},"locations":[{"geonameid":4146051,"name":"Andrews","admin3":"","localeAltName":null},{"geonameid":4148957,"name":"Bronson","admin3":"","localeAltName":null},{"geonameid":4150356,"name":"Cedar Key","admin3":"","localeAltName":null},{"geonameid":4150733,"name":"Chiefland","admin3":"","localeAltName":null},{"geonameid":7259697,"name":"East Bronson","admin3":"","localeAltName":null},{"geonameid":7259711,"name":"East Williston","admin3":"","localeAltName":null},{"geonameid":4159702,"name":"Inglis","admin3":"","localeAltName":null},{"geonameid":4163296,"name":"Manatee Road","admin3":"","localeAltName":null},{"geonameid":4178414,"name":"Williston","admin3":"","localeAltName":null},{"geonameid":4178419,"name":"Williston Highlands","admin3":"","localeAltName":null},{"geonameid":4178826,"name":"Yankeetown","admin3":"","localeAltName":null}],"admin3":[{"geonameid":7169436,"name":"City of Fanning Springs","admin3":"7169436"},{"geonameid":7169731,"name":"City of Cedar Key","admin3":"7169731"},{"geonameid":7170694,"name":"Town of Bronson","admin3":"7170694"},{"geonameid":7172278,"name":"Town of Otter Creek","admin3":"7172278"},{"geonameid":7318204,"name":"City of Williston","admin3":"7318204"},{"geonameid":7318216,"name":"Town of Inglis","admin3":"7318216"},{"geonameid":11788643,"name":"City of Chiefland","admin3":"11788643"}],"alternateNames":[{"alternatenameId":2080779,"geonameid":4155751,"isoLanguage":"en","alternateName":"Florida","isPreferredName":true,"isShortName":true,"isColloquial":false,"isHistoric":false}]},"__N_SSG":true}