{"pageProps":{"locale":"en","admin2":{"geonameid":4164238,"name":"Miami-Dade County","country":"US","admin1":"FL","admin2":"086","admin3":"","latitude":"25.6089700","longitude":"-80.4986700","localeAltName":null},"admin1":{"geonameid":4155751,"name":"Florida","admin1":"FL","localeAltName":"Florida"},"locations":[{"geonameid":4145805,"name":"Allapattah","admin3":"","localeAltName":null},{"geonameid":4146039,"name":"Andover","admin3":"","localeAltName":null},{"geonameid":4146429,"name":"Aventura","admin3":"","localeAltName":null},{"geonameid":4146564,"name":"Bal Harbour","admin3":"","localeAltName":null},{"geonameid":4146823,"name":"Bay Harbor Islands","admin3":"","localeAltName":null},{"geonameid":4147988,"name":"Biscayne Park","admin3":"","localeAltName":null},{"geonameid":4149077,"name":"Brownsville","admin3":"","localeAltName":null},{"geonameid":4149342,"name":"Bunche Park","admin3":"","localeAltName":null},{"geonameid":4150066,"name":"Carol City","admin3":"","localeAltName":null},{"geonameid":4151460,"name":"Coconut Grove","admin3":"","localeAltName":null},{"geonameid":4151871,"name":"Coral Gables","admin3":"","localeAltName":null},{"geonameid":4151921,"name":"Coral Terrace","admin3":"","localeAltName":null},{"geonameid":4152093,"name":"Country Club","admin3":"","localeAltName":null},{"geonameid":4152064,"name":"Country Walk","admin3":"","localeAltName":null},{"geonameid":4152564,"name":"Cutler","admin3":"","localeAltName":null},{"geonameid":6332309,"name":"Cutler Bay","admin3":"","localeAltName":null},{"geonameid":4152574,"name":"Cutler Ridge","admin3":"","localeAltName":null},{"geonameid":4153471,"name":"Doral","admin3":"","localeAltName":null},{"geonameid":4154051,"name":"East Perrine","admin3":"","localeAltName":null},{"geonameid":4154299,"name":"El Portal","admin3":"","localeAltName":null},{"geonameid":4155529,"name":"Flagami","admin3":"","localeAltName":null},{"geonameid":4155669,"name":"Florida City","admin3":"","localeAltName":null},{"geonameid":4156091,"name":"Fountainebleau","admin3":"","localeAltName":null},{"geonameid":4156824,"name":"Gladeview","admin3":"","localeAltName":null},{"geonameid":4156857,"name":"Glenvar Heights","admin3":"","localeAltName":null},{"geonameid":4156918,"name":"Golden Beach","admin3":"","localeAltName":null},{"geonameid":4156931,"name":"Golden Glades","admin3":"","localeAltName":null},{"geonameid":4157097,"name":"Goulds","admin3":"","localeAltName":null},{"geonameid":4158476,"name":"Hialeah","admin3":"","localeAltName":null},{"geonameid":4158482,"name":"Hialeah Gardens","admin3":"","localeAltName":null},{"geonameid":4159050,"name":"Homestead","admin3":"","localeAltName":null},{"geonameid":7259871,"name":"Homestead Base","admin3":"","localeAltName":null},{"geonameid":4159873,"name":"Isle of Normandy","admin3":"","localeAltName":null},{"geonameid":4159896,"name":"Ives Estates","admin3":"","localeAltName":null},{"geonameid":4160705,"name":"Kendale Lakes","admin3":"","localeAltName":null},{"geonameid":4160711,"name":"Kendall","admin3":"","localeAltName":null},{"geonameid":7260327,"name":"Kendall West","admin3":"","localeAltName":null},{"geonameid":4160789,"name":"Key Biscayne","admin3":"","localeAltName":null},{"geonameid":4161298,"name":"Lake Lucerne","admin3":"","localeAltName":null},{"geonameid":4161460,"name":"Lakes by the Bay","admin3":"","localeAltName":null},{"geonameid":4161797,"name":"Leisure City","admin3":"","localeAltName":null},{"geonameid":4163952,"name":"Medley","admin3":"","localeAltName":null},{"geonameid":4164138,"name":"Miami","admin3":"","localeAltName":null},{"geonameid":4164143,"name":"Miami Beach","admin3":"","localeAltName":null},{"geonameid":4164167,"name":"Miami Gardens","admin3":"","localeAltName":null},{"geonameid":4164186,"name":"Miami Lakes","admin3":"","localeAltName":null},{"geonameid":4164211,"name":"Miami Shores","admin3":"","localeAltName":null},{"geonameid":4164223,"name":"Miami Springs","admin3":"","localeAltName":null},{"geonameid":4165580,"name":"Naranja","admin3":"","localeAltName":null},{"geonameid":4166066,"name":"Norland","admin3":"","localeAltName":null},{"geonameid":4166105,"name":"North Bay Village","admin3":"","localeAltName":null},{"geonameid":4166232,"name":"North Miami","admin3":"","localeAltName":null},{"geonameid":4166233,"name":"North Miami Beach","admin3":"","localeAltName":null},{"geonameid":4166805,"name":"Ojus","admin3":"","localeAltName":null},{"geonameid":4166979,"name":"Olympia Heights","admin3":"","localeAltName":null},{"geonameid":4167003,"name":"Opa-locka","admin3":"","localeAltName":null},{"geonameid":4167594,"name":"Palm Springs North","admin3":"","localeAltName":null},{"geonameid":4167634,"name":"Palmetto Bay","admin3":"","localeAltName":null},{"geonameid":4167647,"name":"Palmetto Estates","admin3":"","localeAltName":null},{"geonameid":4168590,"name":"Pinecrest","admin3":"","localeAltName":null},{"geonameid":4168659,"name":"Pinewood","admin3":"","localeAltName":null},{"geonameid":4169345,"name":"Princeton","admin3":"","localeAltName":null},{"geonameid":4170000,"name":"Richmond Heights","admin3":"","localeAltName":null},{"geonameid":4170005,"name":"Richmond West","admin3":"","localeAltName":null},{"geonameid":4172294,"name":"Scott Lake","admin3":"","localeAltName":null},{"geonameid":4173495,"name":"South Miami","admin3":"","localeAltName":null},{"geonameid":4173497,"name":"South Miami Heights","admin3":"","localeAltName":null},{"geonameid":4174383,"name":"Sunny Isles Beach","admin3":"","localeAltName":null},{"geonameid":4174425,"name":"Sunset","admin3":"","localeAltName":null},{"geonameid":4174518,"name":"Surfside","admin3":"","localeAltName":null},{"geonameid":4174600,"name":"Sweetwater","admin3":"","localeAltName":null},{"geonameid":4174744,"name":"Tamiami","admin3":"","localeAltName":null},{"geonameid":4175091,"name":"The Crossings","admin3":"","localeAltName":null},{"geonameid":4175117,"name":"The Hammocks","admin3":"","localeAltName":null},{"geonameid":4175296,"name":"Three Lakes","admin3":"","localeAltName":null},{"geonameid":4176217,"name":"University Park","admin3":"","localeAltName":null},{"geonameid":4176550,"name":"Virginia Gardens","admin3":"","localeAltName":null},{"geonameid":4177865,"name":"West Little River","admin3":"","localeAltName":null},{"geonameid":4177874,"name":"West Miami","admin3":"","localeAltName":null},{"geonameid":4177917,"name":"West Perrine","admin3":"","localeAltName":null},{"geonameid":4177965,"name":"Westchester","admin3":"","localeAltName":null},{"geonameid":4178032,"name":"Westview","admin3":"","localeAltName":null},{"geonameid":4178053,"name":"Westwood Lake","admin3":"","localeAltName":null}],"admin3":[{"geonameid":7169351,"name":"City of Aventura","admin3":"7169351"},{"geonameid":7169800,"name":"City of Coral Gables","admin3":"7169800"},{"geonameid":7169875,"name":"City of Doral","admin3":"7169875"},{"geonameid":7169881,"name":"City of Miami Gardens","admin3":"7169881"},{"geonameid":7169882,"name":"City of Miami Springs","admin3":"7169882"},{"geonameid":7170183,"name":"City of Hialeah","admin3":"7170183"},{"geonameid":7170184,"name":"City of Hialeah Gardens","admin3":"7170184"},{"geonameid":7170242,"name":"City of Islandia","admin3":"7170242"},{"geonameid":7170589,"name":"Town of Bay Harbor Islands","admin3":"7170589"},{"geonameid":7170838,"name":"City of South Miami","admin3":"7170838"},{"geonameid":7170875,"name":"City of Sunny Isles Beach","admin3":"7170875"},{"geonameid":7170877,"name":"City of Sweetwater","admin3":"7170877"},{"geonameid":7170986,"name":"City of West Miami","admin3":"7170986"},{"geonameid":7171382,"name":"Town of Medley","admin3":"7171382"},{"geonameid":7171394,"name":"Town of Miami Lakes","admin3":"7171394"},{"geonameid":7171588,"name":"Town of Cutler Bay","admin3":"7171588"},{"geonameid":7171820,"name":"Town of Golden Beach","admin3":"7171820"},{"geonameid":7172621,"name":"Village of Bal Harbour","admin3":"7172621"},{"geonameid":7172654,"name":"Village of El Portal","admin3":"7172654"},{"geonameid":7172688,"name":"Village of Key Biscayne","admin3":"7172688"},{"geonameid":7172706,"name":"Village of Miami Shores","admin3":"7172706"},{"geonameid":7172723,"name":"Village of Palmetto Bay","admin3":"7172723"},{"geonameid":7172726,"name":"Village of Pinecrest","admin3":"7172726"},{"geonameid":7172768,"name":"Village of Virginia Gardens","admin3":"7172768"},{"geonameid":7317676,"name":"City of Florida City","admin3":"7317676"},{"geonameid":7317904,"name":"City of North Bay Village","admin3":"7317904"},{"geonameid":7317907,"name":"City of North Miami Beach","admin3":"7317907"},{"geonameid":7317915,"name":"City of Opa-locka","admin3":"7317915"},{"geonameid":7317991,"name":"City of Homestead","admin3":"7317991"}],"alternateNames":[{"alternatenameId":2080779,"geonameid":4155751,"isoLanguage":"en","alternateName":"Florida","isPreferredName":true,"isShortName":true,"isColloquial":false,"isHistoric":false},{"alternatenameId":9529053,"geonameid":7169800,"isoLanguage":"en","alternateName":"Coral Gables","isPreferredName":true,"isShortName":true,"isColloquial":false,"isHistoric":false}]},"__N_SSG":true}