{"pageProps":{"locale":"en","admin2":{"geonameid":4164762,"name":"Monroe County","country":"US","admin1":"FL","admin2":"087","admin3":"","latitude":"25.5573100","longitude":"-80.9170500","localeAltName":null},"admin1":{"geonameid":4155751,"name":"Florida","admin1":"FL","localeAltName":"Florida"},"locations":[{"geonameid":4147679,"name":"Big Coppitt Key","admin3":"","localeAltName":null},{"geonameid":4147801,"name":"Big Pine Key","admin3":"","localeAltName":null},{"geonameid":4152513,"name":"Cudjoe Key","admin3":"","localeAltName":null},{"geonameid":4153693,"name":"Duck Key","admin3":"","localeAltName":null},{"geonameid":4159839,"name":"Islamorada","admin3":"","localeAltName":null},{"geonameid":4160792,"name":"Key Colony Beach","admin3":"","localeAltName":null},{"geonameid":4160795,"name":"Key Largo","admin3":"","localeAltName":null},{"geonameid":4160812,"name":"Key West","admin3":"","localeAltName":null},{"geonameid":4163379,"name":"Marathon","admin3":"","localeAltName":null},{"geonameid":4166208,"name":"North Key Largo","admin3":"","localeAltName":null},{"geonameid":4168783,"name":"Plantation","admin3":"","localeAltName":null},{"geonameid":4174131,"name":"Stock Island","admin3":"","localeAltName":null},{"geonameid":4174870,"name":"Tavernier","admin3":"","localeAltName":null}],"admin3":[{"geonameid":7170277,"name":"City of Key Colony Beach","admin3":"7170277"},{"geonameid":7170278,"name":"City of Key West","admin3":"7170278"},{"geonameid":7170330,"name":"City of Layton","admin3":"7170330"},{"geonameid":7170407,"name":"City of Marathon","admin3":"7170407"},{"geonameid":7172685,"name":"Village of Islamorada, Village of Islands","admin3":"7172685"}],"alternateNames":[{"alternatenameId":2080779,"geonameid":4155751,"isoLanguage":"en","alternateName":"Florida","isPreferredName":true,"isShortName":true,"isColloquial":false,"isHistoric":false}]},"__N_SSG":true}