{"pageProps":{"locale":"en","admin2":{"geonameid":4166818,"name":"Okaloosa County","country":"US","admin1":"FL","admin2":"091","admin3":"","latitude":"30.6650300","longitude":"-86.5921800","localeAltName":null},"admin1":{"geonameid":4155751,"name":"Florida","admin1":"FL","localeAltName":"Florida"},"locations":[{"geonameid":4152311,"name":"Crestview","admin3":"","localeAltName":null},{"geonameid":4153188,"name":"Destin","admin3":"","localeAltName":null},{"geonameid":7259720,"name":"Eglin Air Force Base","admin3":"","localeAltName":null},{"geonameid":4154270,"name":"Eglin Village","admin3":"","localeAltName":null},{"geonameid":4156042,"name":"Fort Walton Beach","admin3":"7169470","localeAltName":null},{"geonameid":4161296,"name":"Lake Lorraine","admin3":"","localeAltName":null},{"geonameid":4161662,"name":"Laurel Hill","admin3":"","localeAltName":null},{"geonameid":4163599,"name":"Mary Esther","admin3":"","localeAltName":null},{"geonameid":4165995,"name":"Niceville","admin3":"","localeAltName":null},{"geonameid":4166723,"name":"Ocean City","admin3":"","localeAltName":null},{"geonameid":4172620,"name":"Shalimar","admin3":"","localeAltName":null},{"geonameid":4176316,"name":"Valparaiso","admin3":"","localeAltName":null},{"geonameid":4178775,"name":"Wright","admin3":"","localeAltName":null}],"admin3":[{"geonameid":7169470,"name":"City of Fort Walton Beach","admin3":"7169470","localeAltName":null},{"geonameid":7169818,"name":"City of Crestview","admin3":"7169818"},{"geonameid":7169866,"name":"City of Destin","admin3":"7169866"},{"geonameid":7169966,"name":"City of Niceville","admin3":"7169966"},{"geonameid":7170324,"name":"City of Laurel Hill","admin3":"7170324"},{"geonameid":7170419,"name":"City of Mary Esther","admin3":"7170419"},{"geonameid":7170932,"name":"City of Valparaiso","admin3":"7170932"},{"geonameid":7171512,"name":"Town of Cinco Bayou","admin3":"7171512"},{"geonameid":7172529,"name":"Town of Shalimar","admin3":"7172529"}],"alternateNames":[{"alternatenameId":2080779,"geonameid":4155751,"isoLanguage":"en","alternateName":"Florida","isPreferredName":true,"isShortName":true,"isColloquial":false,"isHistoric":false}]},"__N_SSG":true}