{"pageProps":{"locale":"en","admin2":{"geonameid":4167060,"name":"Orange County","country":"US","admin1":"FL","admin2":"095","admin3":"","latitude":"28.5144200","longitude":"-81.3234800","localeAltName":null},"admin1":{"geonameid":4155751,"name":"Florida","admin1":"FL","localeAltName":"Florida"},"locations":[{"geonameid":6332439,"name":"Alafaya","admin3":"","localeAltName":null},{"geonameid":4146166,"name":"Apopka","admin3":"","localeAltName":null},{"geonameid":4146464,"name":"Azalea Park","admin3":"","localeAltName":null},{"geonameid":4146830,"name":"Bay Hill","admin3":"","localeAltName":null},{"geonameid":4147247,"name":"Belle Isle","admin3":"","localeAltName":null},{"geonameid":4148012,"name":"Bithlo","admin3":"","localeAltName":null},{"geonameid":4150880,"name":"Christmas","admin3":"","localeAltName":null},{"geonameid":4151207,"name":"Clarcona","admin3":"","localeAltName":null},{"geonameid":4151745,"name":"Conway","admin3":"","localeAltName":null},{"geonameid":4153367,"name":"Doctor Phillips","admin3":"","localeAltName":null},{"geonameid":4154127,"name":"Eatonville","admin3":"","localeAltName":null},{"geonameid":4154216,"name":"Edgewood","admin3":"","localeAltName":null},{"geonameid":4154769,"name":"Fairview Shores","admin3":"","localeAltName":null},{"geonameid":4157092,"name":"Gotha","admin3":"","localeAltName":null},{"geonameid":4158844,"name":"Holden Heights","admin3":"","localeAltName":null},{"geonameid":7315230,"name":"Horizon West","admin3":"","localeAltName":null},{"geonameid":4159416,"name":"Hunters Creek","admin3":"","localeAltName":null},{"geonameid":4161178,"name":"Lake Butler","admin3":"","localeAltName":null},{"geonameid":4161253,"name":"Lake Hart","admin3":"","localeAltName":null},{"geonameid":4162539,"name":"Lockhart","admin3":"","localeAltName":null},{"geonameid":4163220,"name":"Maitland","admin3":"","localeAltName":null},{"geonameid":4163918,"name":"Meadow Woods","admin3":"","localeAltName":null},{"geonameid":4166583,"name":"Oak Ridge","admin3":"","localeAltName":null},{"geonameid":4166628,"name":"Oakland","admin3":"","localeAltName":null},{"geonameid":4166776,"name":"Ocoee","admin3":"","localeAltName":null},{"geonameid":4167147,"name":"Orlando","admin3":"","localeAltName":null},{"geonameid":4167176,"name":"Orlovista","admin3":"","localeAltName":null},{"geonameid":4167738,"name":"Paradise Heights","admin3":"","localeAltName":null},{"geonameid":4168418,"name":"Pine Castle","admin3":"","localeAltName":null},{"geonameid":4168459,"name":"Pine Hills","admin3":"","localeAltName":null},{"geonameid":4173124,"name":"Sky Lake","admin3":"","localeAltName":null},{"geonameid":4173394,"name":"South Apopka","admin3":"","localeAltName":null},{"geonameid":4173600,"name":"Southchase","admin3":"","localeAltName":null},{"geonameid":4174700,"name":"Taft","admin3":"","localeAltName":null},{"geonameid":4174791,"name":"Tangelo Park","admin3":"","localeAltName":null},{"geonameid":4174793,"name":"Tangerine","admin3":"","localeAltName":null},{"geonameid":4175374,"name":"Tildenville","admin3":"","localeAltName":null},{"geonameid":4176109,"name":"Union Park","admin3":"","localeAltName":null},{"geonameid":4177617,"name":"Wedgefield","admin3":"","localeAltName":null},{"geonameid":4178397,"name":"Williamsburg","admin3":"","localeAltName":null},{"geonameid":4178501,"name":"Windermere","admin3":"","localeAltName":null},{"geonameid":4178550,"name":"Winter Garden","admin3":"","localeAltName":null},{"geonameid":4178560,"name":"Winter Park","admin3":"","localeAltName":null},{"geonameid":4178933,"name":"Zellwood","admin3":"","localeAltName":null}],"admin3":[{"geonameid":7169325,"name":"City of Apopka","admin3":"7169325"},{"geonameid":7169399,"name":"City of Edgewood","admin3":"7169399"},{"geonameid":7169590,"name":"City of Bay Lake","admin3":"7169590"},{"geonameid":7169601,"name":"City of Belle Isle","admin3":"7169601"},{"geonameid":7169989,"name":"Town of Oakland","admin3":"7169989"},{"geonameid":7169991,"name":"City of Ocoee","admin3":"7169991"},{"geonameid":7170008,"name":"City of Orlando","admin3":"7170008"},{"geonameid":7170298,"name":"City of Lake Buena Vista","admin3":"7170298"},{"geonameid":7170395,"name":"City of Maitland","admin3":"7170395"},{"geonameid":7171026,"name":"City of Winter Garden","admin3":"7171026"},{"geonameid":7171028,"name":"City of Winter Park","admin3":"7171028"},{"geonameid":7171657,"name":"Town of Eatonville","admin3":"7171657"},{"geonameid":7172117,"name":"Town of Windermere","admin3":"7172117"}],"alternateNames":[{"alternatenameId":2080779,"geonameid":4155751,"isoLanguage":"en","alternateName":"Florida","isPreferredName":true,"isShortName":true,"isColloquial":false,"isHistoric":false}]},"__N_SSG":true}