{"pageProps":{"locale":"en","admin2":{"geonameid":4172139,"name":"Sarasota County","country":"US","admin1":"FL","admin2":"115","admin3":"","latitude":"27.1824800","longitude":"-82.3649800","localeAltName":null},"admin1":{"geonameid":4155751,"name":"Florida","admin1":"FL","localeAltName":"Florida"},"locations":[{"geonameid":4147145,"name":"Bee Ridge","admin3":"","localeAltName":null},{"geonameid":4153186,"name":"Desoto Lakes","admin3":"","localeAltName":null},{"geonameid":4154465,"name":"Englewood","admin3":"","localeAltName":null},{"geonameid":4156340,"name":"Fruitville","admin3":"","localeAltName":null},{"geonameid":4157657,"name":"Gulf Gate Estates","admin3":"","localeAltName":null},{"geonameid":4160752,"name":"Kensington Park","admin3":"","localeAltName":null},{"geonameid":4161352,"name":"Lake Sarasota","admin3":"","localeAltName":null},{"geonameid":4161659,"name":"Laurel","admin3":"","localeAltName":null},{"geonameid":4166049,"name":"Nokomis","admin3":"","localeAltName":null},{"geonameid":4166274,"name":"North Port","admin3":"","localeAltName":null},{"geonameid":4166298,"name":"North Sarasota","admin3":"","localeAltName":null},{"geonameid":4167245,"name":"Osprey","admin3":"","localeAltName":null},{"geonameid":4168784,"name":"Plantation","admin3":"","localeAltName":null},{"geonameid":4170018,"name":"Ridge Wood Heights","admin3":"","localeAltName":null},{"geonameid":4172131,"name":"Sarasota","admin3":"","localeAltName":null},{"geonameid":4172150,"name":"Sarasota Springs","admin3":"","localeAltName":null},{"geonameid":4172935,"name":"Siesta Key","admin3":"","localeAltName":null},{"geonameid":4173460,"name":"South Gate Ridge","admin3":"","localeAltName":null},{"geonameid":4173558,"name":"South Sarasota","admin3":"","localeAltName":null},{"geonameid":4173593,"name":"South Venice","admin3":"","localeAltName":null},{"geonameid":4173634,"name":"Southgate","admin3":"","localeAltName":null},{"geonameid":4175136,"name":"The Meadows","admin3":"","localeAltName":null},{"geonameid":4176299,"name":"Utopia","admin3":"","localeAltName":null},{"geonameid":4176324,"name":"Vamo","admin3":"","localeAltName":null},{"geonameid":4176380,"name":"Venice","admin3":"","localeAltName":null},{"geonameid":4176387,"name":"Venice Gardens","admin3":"","localeAltName":null},{"geonameid":4177450,"name":"Warm Mineral Springs","admin3":"","localeAltName":null}],"admin3":[{"geonameid":7169975,"name":"City of North Port","admin3":"7169975"},{"geonameid":7170936,"name":"City of Venice","admin3":"7170936"},{"geonameid":7318110,"name":"City of Sarasota","admin3":"7318110"}],"alternateNames":[{"alternatenameId":2080779,"geonameid":4155751,"isoLanguage":"en","alternateName":"Florida","isPreferredName":true,"isShortName":true,"isColloquial":false,"isHistoric":false}]},"__N_SSG":true}