{"pageProps":{"locale":"en","admin2":{"geonameid":5235945,"name":"Essex County","country":"US","admin1":"VT","admin2":"009","admin3":"","latitude":"44.7277900","longitude":"-71.7360500"},"admin1":{"geonameid":5242283,"name":"Vermont","admin1":"VT","localeAltName":"Vermont"},"locations":[{"geonameid":5238176,"name":"Lunenburg","admin3":"41425"}],"admin3":[{"geonameid":5233339,"name":"Town of Averill","admin3":"02125"},{"geonameid":5233948,"name":"Town of Bloomfield","admin3":"06325"},{"geonameid":5234175,"name":"Town of Brighton","admin3":"08725"},{"geonameid":5234290,"name":"Town of Brunswick","admin3":"10075"},{"geonameid":5234593,"name":"Town of Canaan","admin3":"11800"},{"geonameid":5235106,"name":"Town of Concord","admin3":"15250"},{"geonameid":5235717,"name":"Town of East Haven","admin3":"21250"},{"geonameid":5236102,"name":"Town of Ferdinand","admin3":"25975"},{"geonameid":5236539,"name":"Town of Granby","admin3":"29125"},{"geonameid":5236703,"name":"Town of Guildhall","admin3":"30775"},{"geonameid":5237919,"name":"Town of Lemington","admin3":"39700"},{"geonameid":5237933,"name":"Town of Lewis","admin3":"39775"},{"geonameid":5238173,"name":"Town of Lunenburg","admin3":"41425"},{"geonameid":5238242,"name":"Town of Maidstone","admin3":"42475"},{"geonameid":5239317,"name":"Town of Norton","admin3":"52750"},{"geonameid":5242305,"name":"Town of Victory","admin3":"75175"}],"alternateNames":[{"alternatenameId":1979591,"geonameid":5242283,"isoLanguage":"en","alternateName":"Vermont","isPreferredName":true,"isShortName":true,"isColloquial":false,"isHistoric":false}]},"__N_SSG":true}