{"pageProps":{"locale":"en","admin2":{"geonameid":5239504,"name":"Orange County","country":"US","admin1":"VT","admin2":"017","admin3":"","latitude":"44.0056000","longitude":"-72.3766100"},"admin1":{"geonameid":5242283,"name":"Vermont","admin1":"VT","localeAltName":"Vermont"},"locations":[{"geonameid":5234814,"name":"Chelsea","admin3":"13525"},{"geonameid":5240140,"name":"Randolph","admin3":"58075"},{"geonameid":5242528,"name":"Washington","admin3":"76750"},{"geonameid":5242994,"name":"Williamstown","admin3":"84175"}],"admin3":[{"geonameid":5234064,"name":"Town of Bradford","admin3":"07375"},{"geonameid":5234083,"name":"Town of Braintree","admin3":"07600"},{"geonameid":5234228,"name":"Town of Brookfield","admin3":"09325"},{"geonameid":5234819,"name":"Town of Chelsea","admin3":"13525"},{"geonameid":5235173,"name":"Town of Corinth","admin3":"15700"},{"geonameid":5236034,"name":"Town of Fairlee","admin3":"25675"},{"geonameid":5239045,"name":"Town of Newbury","admin3":"48175"},{"geonameid":5239510,"name":"Town of Orange","admin3":"53425"},{"geonameid":5240157,"name":"Town of Randolph","admin3":"58075"},{"geonameid":5241642,"name":"Town of Strafford","admin3":"70675"},{"geonameid":5241929,"name":"Town of Thetford","admin3":"72400"},{"geonameid":5241999,"name":"Town of Topsham","admin3":"73075"},{"geonameid":5242084,"name":"Town of Tunbridge","admin3":"73675"},{"geonameid":5242298,"name":"Town of Vershire","admin3":"74950"},{"geonameid":5242542,"name":"Town of Washington","admin3":"76750"},{"geonameid":5242697,"name":"Town of West Fairlee","admin3":"79975"},{"geonameid":5243000,"name":"Town of Williamstown","admin3":"84175"}],"alternateNames":[{"alternatenameId":1979591,"geonameid":5242283,"isoLanguage":"en","alternateName":"Vermont","isPreferredName":true,"isShortName":true,"isColloquial":false,"isHistoric":false}]},"__N_SSG":true}