{"pageProps":{"locale":"ro","admin2":{"geonameid":683892,"name":"Comuna Braloştiţa","country":"RO","admin1":"17","admin2":"71126","admin3":"","latitude":"44.5048300","longitude":"23.4912300"},"admin1":{"geonameid":679134,"name":"Dolj","admin1":"17"},"locations":[{"geonameid":683893,"name":"Braloştiţa","admin3":""},{"geonameid":681750,"name":"Ciocanele","admin3":""},{"geonameid":681223,"name":"Cocina","admin3":""},{"geonameid":680503,"name":"Cotina","admin3":""},{"geonameid":680502,"name":"Cotina Schitu","admin3":""},{"geonameid":678400,"name":"Faţa Racoviţei","admin3":""},{"geonameid":672039,"name":"Ochişoru","admin3":""},{"geonameid":669328,"name":"Racovița","admin3":""},{"geonameid":669310,"name":"Racoviţa din Faţă","admin3":""},{"geonameid":667668,"name":"Schitu","admin3":""},{"geonameid":667293,"name":"Sfârcea","admin3":""},{"geonameid":663766,"name":"Valea Fântânilor","admin3":""},{"geonameid":663682,"name":"Valea lui Stroe","admin3":""}],"admin3":[],"alternateNames":[]},"__N_SSG":true}