{"pageProps":{"locale":"ro","admin2":{"geonameid":667097,"name":"Comuna Şimnicu de Sus","country":"RO","admin1":"17","admin2":"70174","admin3":"","latitude":"44.4128300","longitude":"23.7886300"},"admin1":{"geonameid":679134,"name":"Dolj","admin1":"17"},"locations":[{"geonameid":686566,"name":"Albești","admin3":""},{"geonameid":680753,"name":"Cornetu","admin3":""},{"geonameid":679537,"name":"Deleni","admin3":""},{"geonameid":678780,"name":"Dudovicești","admin3":""},{"geonameid":678597,"name":"Duțulești","admin3":""},{"geonameid":678067,"name":"Florești","admin3":""},{"geonameid":676375,"name":"Halalăi","admin3":""},{"geonameid":675354,"name":"Izvor","admin3":""},{"geonameid":675248,"name":"Jieni","admin3":""},{"geonameid":674858,"name":"Leșile","admin3":""},{"geonameid":673312,"name":"Milești","admin3":""},{"geonameid":669873,"name":"Popeşti Cardina","admin3":""},{"geonameid":668716,"name":"Românești","admin3":""},{"geonameid":667098,"name":"Şimnicu de Sus","admin3":""},{"geonameid":663346,"name":"Valea Ungei","admin3":""}],"admin3":[],"alternateNames":[]},"__N_SSG":true}