{"pageProps":{"locale":"en","admin2":{"geonameid":4968714,"name":"Kennebec County","country":"US","admin1":"ME","admin2":"011","admin3":"","latitude":"44.4091600","longitude":"-69.7672600"},"admin1":{"geonameid":4971068,"name":"Maine","admin1":"ME"},"locations":[{"geonameid":4956545,"name":"Albion","admin3":"00590"},{"geonameid":4957003,"name":"Augusta","admin3":"02100"},{"geonameid":4957962,"name":"Belgrade","admin3":"04020"},{"geonameid":4958037,"name":"Benton","admin3":"04475"},{"geonameid":4960753,"name":"Chelsea","admin3":"12350"},{"geonameid":4960817,"name":"China","admin3":"12735"},{"geonameid":4961093,"name":"Clinton","admin3":"13470"},{"geonameid":4964021,"name":"Farmingdale","admin3":"24670"},{"geonameid":4964068,"name":"Fayette","admin3":"24950"},{"geonameid":4965079,"name":"Gardiner","admin3":"27085"},{"geonameid":4966320,"name":"Hallowell","admin3":"30550"},{"geonameid":4971094,"name":"Manchester","admin3":"43080"},{"geonameid":4972368,"name":"Monmouth","admin3":"46405"},{"geonameid":4972784,"name":"Mount Vernon","admin3":"47770"},{"geonameid":4974071,"name":"Oakland","admin3":"54560"},{"geonameid":4974578,"name":"Palermo","admin3":"12735"},{"geonameid":4975451,"name":"Pittston","admin3":"59110"},{"geonameid":4976315,"name":"Randolph","admin3":"61700"},{"geonameid":4976383,"name":"Readfield","admin3":"62190"},{"geonameid":4976934,"name":"Rome","admin3":"63835"},{"geonameid":4978585,"name":"Sidney","admin3":"68385"},{"geonameid":4981745,"name":"Vassalboro","admin3":"78745"},{"geonameid":4981774,"name":"Vienna","admin3":"79025"},{"geonameid":4982236,"name":"Waterville","admin3":"80740"},{"geonameid":4982265,"name":"Wayne","admin3":"80880"},{"geonameid":4983283,"name":"Windsor","admin3":"86165"},{"geonameid":4983322,"name":"Winslow","admin3":"86515"},{"geonameid":4983355,"name":"Winthrop","admin3":"86970"}],"admin3":[{"geonameid":4956538,"name":"Town of Albion","admin3":"00590"},{"geonameid":4957001,"name":"City of Augusta","admin3":"02100"},{"geonameid":4957968,"name":"Town of Belgrade","admin3":"04020"},{"geonameid":4958042,"name":"Town of Benton","admin3":"04475"},{"geonameid":4960748,"name":"Town of Chelsea","admin3":"12350"},{"geonameid":4960827,"name":"Town of China","admin3":"12735"},{"geonameid":4961094,"name":"Town of Clinton","admin3":"13470"},{"geonameid":4964023,"name":"Town of Farmingdale","admin3":"24670"},{"geonameid":4964071,"name":"Town of Fayette","admin3":"24950"},{"geonameid":4965082,"name":"City of Gardiner","admin3":"27085"},{"geonameid":4966324,"name":"City of Hallowell","admin3":"30550"},{"geonameid":4969641,"name":"Town of Litchfield","admin3":"40175"},{"geonameid":4971097,"name":"Town of Manchester","admin3":"43080"},{"geonameid":4972372,"name":"Town of Monmouth","admin3":"46405"},{"geonameid":4972786,"name":"Town of Mount Vernon","admin3":"47770"},{"geonameid":4974074,"name":"Town of Oakland","admin3":"54560"},{"geonameid":4975454,"name":"Town of Pittston","admin3":"59110"},{"geonameid":4976316,"name":"Town of Randolph","admin3":"61700"},{"geonameid":4976386,"name":"Town of Readfield","admin3":"62190"},{"geonameid":4976939,"name":"Town of Rome","admin3":"63835"},{"geonameid":4978588,"name":"Town of Sidney","admin3":"68385"},{"geonameid":4981740,"name":"Town of Vassalboro","admin3":"78745"},{"geonameid":4981777,"name":"Town of Vienna","admin3":"79025"},{"geonameid":4982238,"name":"City of Waterville","admin3":"80740"},{"geonameid":4982267,"name":"Town of Wayne","admin3":"80880"},{"geonameid":4982606,"name":"Town of West Gardiner","admin3":"82945"},{"geonameid":4983289,"name":"Town of Windsor","admin3":"86165"},{"geonameid":4983336,"name":"Town of Winslow","admin3":"86515"},{"geonameid":4983358,"name":"Town of Winthrop","admin3":"86970"}],"alternateNames":[]},"__N_SSG":true}