{"pageProps":{"locale":"en","admin2":{"geonameid":2751036,"name":"Gemeente Meerssen","country":"NL","admin1":"05","admin2":"0938","admin3":"","latitude":"50.8951800","longitude":"5.7571100","localeAltName":null},"admin1":{"geonameid":2751596,"name":"Provincie Limburg","admin1":"05","localeAltName":"Limburg"},"locations":[{"geonameid":2760113,"name":"Aan de Maas","admin3":"","localeAltName":null},{"geonameid":2758270,"name":"Broekhoven","admin3":"","localeAltName":null},{"geonameid":2758227,"name":"Brommelen","admin3":"","localeAltName":null},{"geonameid":2758111,"name":"Bunde","admin3":"","localeAltName":null},{"geonameid":2755557,"name":"Geulle","admin3":"","localeAltName":null},{"geonameid":2753445,"name":"Hulsen","admin3":"","localeAltName":null},{"geonameid":2753424,"name":"Humcoven","admin3":"","localeAltName":null},{"geonameid":2753400,"name":"Hussenberg","admin3":"","localeAltName":null},{"geonameid":2753052,"name":"Kasen","admin3":"","localeAltName":null},{"geonameid":2751037,"name":"Meerssen","admin3":"","localeAltName":null},{"geonameid":2750609,"name":"Moorveld","admin3":"","localeAltName":null},{"geonameid":2749542,"name":"Oostbroek","admin3":"","localeAltName":null},{"geonameid":2748358,"name":"Raar","admin3":"","localeAltName":null},{"geonameid":2747900,"name":"Rothem","admin3":"","localeAltName":null},{"geonameid":2747588,"name":"Schietecoven","admin3":"","localeAltName":null},{"geonameid":2747050,"name":"Snijdersberg","admin3":"","localeAltName":null},{"geonameid":6544804,"name":"Stommeveld","admin3":"","localeAltName":null},{"geonameid":2745955,"name":"Ulestraten","admin3":"","localeAltName":null},{"geonameid":2745216,"name":"Voulwames","admin3":"","localeAltName":null},{"geonameid":2744952,"name":"Waterval","admin3":"","localeAltName":null},{"geonameid":2744912,"name":"Weert","admin3":"","localeAltName":null},{"geonameid":2744807,"name":"Westbroek","admin3":"","localeAltName":null}],"admin3":[],"alternateNames":[{"alternatenameId":9073257,"geonameid":2751596,"isoLanguage":"en","alternateName":"Limburg","isPreferredName":true,"isShortName":true,"isColloquial":false,"isHistoric":false},{"alternatenameId":9073258,"geonameid":2751596,"isoLanguage":"de","alternateName":"Limburg","isPreferredName":true,"isShortName":true,"isColloquial":false,"isHistoric":false}]},"__N_SSG":true}