{"pageProps":{"locale":"en","admin2":{"geonameid":6544226,"name":"Gemeente Leudal","country":"NL","admin1":"05","admin2":"1640","admin3":"","latitude":"51.2437100","longitude":"5.8981500","localeAltName":null},"admin1":{"geonameid":2751596,"name":"Provincie Limburg","admin1":"05","localeAltName":"Limburg"},"locations":[{"geonameid":2760114,"name":"Aan de Bergen","admin3":"","localeAltName":null},{"geonameid":2760028,"name":"Achter het Klooster","admin3":"","localeAltName":null},{"geonameid":2759647,"name":"Asbroek","admin3":"","localeAltName":null},{"geonameid":2759522,"name":"Baexem","admin3":"","localeAltName":null},{"geonameid":2759098,"name":"Berik","admin3":"","localeAltName":null},{"geonameid":2758832,"name":"Blenkert","admin3":"","localeAltName":null},{"geonameid":2758179,"name":"Brumholt","admin3":"","localeAltName":null},{"geonameid":2758161,"name":"Buggenum","admin3":"","localeAltName":null},{"geonameid":6544721,"name":"Caluna","admin3":"","localeAltName":null},{"geonameid":2757801,"name":"De Beekkant","admin3":"","localeAltName":null},{"geonameid":2757499,"name":"De Horck","admin3":"","localeAltName":null},{"geonameid":2757408,"name":"De Kouk","admin3":"","localeAltName":null},{"geonameid":6544713,"name":"Dries","admin3":"","localeAltName":null},{"geonameid":6544716,"name":"Eiland","admin3":"","localeAltName":null},{"geonameid":2756262,"name":"Eind","admin3":"","localeAltName":null},{"geonameid":2756202,"name":"Ell","admin3":"","localeAltName":null},{"geonameid":2756197,"name":"Ellerhei","admin3":"","localeAltName":null},{"geonameid":2755600,"name":"Gendijk","admin3":"","localeAltName":null},{"geonameid":6544722,"name":"Geneijgen","admin3":"","localeAltName":null},{"geonameid":2755575,"name":"Gerhegge","admin3":"","localeAltName":null},{"geonameid":2755363,"name":"Grathem","admin3":"","localeAltName":null},{"geonameid":2754975,"name":"Haelen","admin3":"","localeAltName":null},{"geonameid":2754973,"name":"Haelensche Broek","admin3":"","localeAltName":null},{"geonameid":2754947,"name":"Haler","admin3":"","localeAltName":null},{"geonameid":2754882,"name":"Hanssum","admin3":"","localeAltName":null},{"geonameid":2754607,"name":"Heiakker","admin3":"","localeAltName":null},{"geonameid":2754604,"name":"Heibloem","admin3":"","localeAltName":null},{"geonameid":2754595,"name":"Heide","admin3":"","localeAltName":null},{"geonameid":2754596,"name":"Heide","admin3":"","localeAltName":null},{"geonameid":2754598,"name":"Heide","admin3":"","localeAltName":null},{"geonameid":2754500,"name":"Heioord","admin3":"","localeAltName":null},{"geonameid":2754111,"name":"Heythuysen","admin3":"","localeAltName":null},{"geonameid":6544726,"name":"Hoek","admin3":"","localeAltName":null},{"geonameid":2753916,"name":"Hollander","admin3":"","localeAltName":null},{"geonameid":6544711,"name":"Hoogstraat","admin3":"","localeAltName":null},{"geonameid":2753610,"name":"Horn","admin3":"","localeAltName":null},{"geonameid":2753416,"name":"Hunsel","admin3":"","localeAltName":null},{"geonameid":2753297,"name":"Ittervoort","admin3":"","localeAltName":null},{"geonameid":2753062,"name":"Kappert","admin3":"","localeAltName":null},{"geonameid":2753054,"name":"Karreveld","admin3":"","localeAltName":null},{"geonameid":2752981,"name":"Keizerbosch","admin3":"","localeAltName":null},{"geonameid":2752967,"name":"Kelpen","admin3":"","localeAltName":null},{"geonameid":6929953,"name":"Kelpen-Oler","admin3":"","localeAltName":null},{"geonameid":2752825,"name":"Kinkhoven","admin3":"","localeAltName":null},{"geonameid":6544715,"name":"Klein Hanssum","admin3":"","localeAltName":null},{"geonameid":2752091,"name":"Laak","admin3":"","localeAltName":null},{"geonameid":6544720,"name":"Leveroijse Bergen","admin3":"","localeAltName":null},{"geonameid":2751079,"name":"Maxet","admin3":"","localeAltName":null},{"geonameid":2750601,"name":"Mortel","admin3":"","localeAltName":null},{"geonameid":2750456,"name":"Neer","admin3":"","localeAltName":null},{"geonameid":2750443,"name":"Neeritter","admin3":"","localeAltName":null},{"geonameid":2750066,"name":"Nijken","admin3":"","localeAltName":null},{"geonameid":2749759,"name":"Nunhem","admin3":"","localeAltName":null},{"geonameid":2749632,"name":"Oler","admin3":"","localeAltName":null},{"geonameid":2749311,"name":"Op de Bos","admin3":"","localeAltName":null},{"geonameid":2749294,"name":"Ophoven","admin3":"","localeAltName":null},{"geonameid":2748844,"name":"Overhaelen","admin3":"","localeAltName":null},{"geonameid":2747990,"name":"Roggel","admin3":"","localeAltName":null},{"geonameid":2747975,"name":"Roligt","admin3":"","localeAltName":null},{"geonameid":2747761,"name":"Santfort","admin3":"","localeAltName":null},{"geonameid":2747739,"name":"Schaapsbrug","admin3":"","localeAltName":null},{"geonameid":2747691,"name":"Schans","admin3":"","localeAltName":null},{"geonameid":2747565,"name":"Schillersheide","admin3":"","localeAltName":null},{"geonameid":2747077,"name":"Smidstraat","admin3":"","localeAltName":null},{"geonameid":2746579,"name":"Strubben","admin3":"","localeAltName":null},{"geonameid":2746001,"name":"Uffelse","admin3":"","localeAltName":null},{"geonameid":2745639,"name":"Venne","admin3":"","localeAltName":null},{"geonameid":6544717,"name":"Vestjenshoek","admin3":"","localeAltName":null},{"geonameid":2745463,"name":"Vlaas","admin3":"","localeAltName":null},{"geonameid":2745081,"name":"Waije","admin3":"","localeAltName":null}],"admin3":[],"alternateNames":[{"alternatenameId":9073257,"geonameid":2751596,"isoLanguage":"en","alternateName":"Limburg","isPreferredName":true,"isShortName":true,"isColloquial":false,"isHistoric":false},{"alternatenameId":9073258,"geonameid":2751596,"isoLanguage":"de","alternateName":"Limburg","isPreferredName":true,"isShortName":true,"isColloquial":false,"isHistoric":false}]},"__N_SSG":true}