{"pageProps":{"locale":"en","admin2":{"geonameid":2754651,"name":"Gemeente Heerlen","country":"NL","admin1":"05","admin2":"0917","admin3":"","latitude":"50.8877700","longitude":"5.9740700","localeAltName":null},"admin1":{"geonameid":2751596,"name":"Provincie Limburg","admin1":"05","localeAltName":"Limburg"},"locations":[{"geonameid":2759302,"name":"Beersdal","admin3":"","localeAltName":null},{"geonameid":2759264,"name":"Beitel","admin3":"","localeAltName":null},{"geonameid":2759174,"name":"Benzenrade","admin3":"","localeAltName":null},{"geonameid":2757317,"name":"Dem","admin3":"","localeAltName":null},{"geonameid":2754652,"name":"Heerlen","admin3":"","localeAltName":null},{"geonameid":2754650,"name":"Heerlerbaan","admin3":"","localeAltName":null},{"geonameid":2754649,"name":"Heerlerheide","admin3":"","localeAltName":null},{"geonameid":2754486,"name":"Heksenberg","admin3":"","localeAltName":null},{"geonameid":2753996,"name":"Hoensbroek","admin3":"","localeAltName":null},{"geonameid":2753816,"name":"Hondsrug","admin3":"","localeAltName":null},{"geonameid":2753401,"name":"Husken","admin3":"","localeAltName":null},{"geonameid":2753328,"name":"Imstenrade","admin3":"","localeAltName":null},{"geonameid":2751194,"name":"Maria-Gewanden","admin3":"","localeAltName":null},{"geonameid":2751180,"name":"Mariarade","admin3":"","localeAltName":null},{"geonameid":2751005,"name":"Meezenbroek","admin3":"","localeAltName":null},{"geonameid":2750723,"name":"Molenberg","admin3":"","localeAltName":null},{"geonameid":2750157,"name":"Nieuw-Lotbroek","admin3":"","localeAltName":null},{"geonameid":2748763,"name":"Palemig","admin3":"","localeAltName":null},{"geonameid":2748710,"name":"Passart","admin3":"","localeAltName":null},{"geonameid":2747429,"name":"Schurenberg","admin3":"","localeAltName":null},{"geonameid":2747069,"name":"Smitzerveld","admin3":"","localeAltName":null},{"geonameid":2746489,"name":"Ten Esschen","admin3":"","localeAltName":null},{"geonameid":2746408,"name":"Terschuren","admin3":"","localeAltName":null},{"geonameid":2745865,"name":"Valkenhuizen","admin3":"","localeAltName":null},{"geonameid":2745210,"name":"Vrank","admin3":"","localeAltName":null},{"geonameid":2745190,"name":"Vrieheide","admin3":"","localeAltName":null},{"geonameid":2745157,"name":"Vrusschemig","admin3":"","localeAltName":null},{"geonameid":2744843,"name":"Welten","admin3":"","localeAltName":null}],"admin3":[],"alternateNames":[{"alternatenameId":9073257,"geonameid":2751596,"isoLanguage":"en","alternateName":"Limburg","isPreferredName":true,"isShortName":true,"isColloquial":false,"isHistoric":false},{"alternatenameId":9073258,"geonameid":2751596,"isoLanguage":"de","alternateName":"Limburg","isPreferredName":true,"isShortName":true,"isColloquial":false,"isHistoric":false}]},"__N_SSG":true}