{"pageProps":{"locale":"en","admin2":{"geonameid":2755583,"name":"Gemeente Gennep","country":"NL","admin1":"05","admin2":"0907","admin3":"","latitude":"51.7006300","longitude":"5.9844700","localeAltName":null},"admin1":{"geonameid":2751596,"name":"Provincie Limburg","admin1":"05","localeAltName":"Limburg"},"locations":[{"geonameid":2760139,"name":"Aaldonk","admin3":"","localeAltName":null},{"geonameid":2757843,"name":"Dam","admin3":"","localeAltName":null},{"geonameid":2757323,"name":"De Looi","admin3":"","localeAltName":null},{"geonameid":2755584,"name":"Gennep","admin3":"","localeAltName":null},{"geonameid":2754556,"name":"Heijen","admin3":"","localeAltName":null},{"geonameid":6544809,"name":"Hekkens","admin3":"","localeAltName":null},{"geonameid":2750795,"name":"Milsbeek","admin3":"","localeAltName":null},{"geonameid":2749197,"name":"Ottersum","admin3":"","localeAltName":null},{"geonameid":6544797,"name":"Smele","admin3":"","localeAltName":null},{"geonameid":2745626,"name":"Ven-Zelderheide","admin3":"","localeAltName":null},{"geonameid":2743970,"name":"Zelder","admin3":"","localeAltName":null}],"admin3":[],"alternateNames":[{"alternatenameId":9073257,"geonameid":2751596,"isoLanguage":"en","alternateName":"Limburg","isPreferredName":true,"isShortName":true,"isColloquial":false,"isHistoric":false},{"alternatenameId":9073258,"geonameid":2751596,"isoLanguage":"de","alternateName":"Limburg","isPreferredName":true,"isShortName":true,"isColloquial":false,"isHistoric":false}]},"__N_SSG":true}