{"pageProps":{"locale":"en","admin2":{"geonameid":2744609,"name":"Gemeente Weststellingwerf","country":"NL","admin1":"02","admin2":"0098","admin3":"","latitude":"52.8764700","longitude":"6.0199800"},"admin1":{"geonameid":2755812,"name":"Provincie Friesland","admin1":"02"},"locations":[{"geonameid":2758828,"name":"Blesdijke","admin3":""},{"geonameid":2758826,"name":"Blesdijkerveld","admin3":""},{"geonameid":6697902,"name":"Boekelte","admin3":""},{"geonameid":2758453,"name":"Boijl","admin3":""},{"geonameid":2757773,"name":"De Blesse","admin3":""},{"geonameid":2757530,"name":"De Hoeve","admin3":""},{"geonameid":2757297,"name":"De Meente","admin3":""},{"geonameid":2755380,"name":"Gracht","admin3":""},{"geonameid":2751947,"name":"Langelille","admin3":""},{"geonameid":2751495,"name":"Lombok","admin3":""},{"geonameid":2750555,"name":"Munnekeburen","admin3":""},{"geonameid":2750092,"name":"Nijeholtpade","admin3":""},{"geonameid":2750091,"name":"Nijeholtwolde","admin3":""},{"geonameid":2750090,"name":"Nijelamer","admin3":""},{"geonameid":2750076,"name":"Nijetrijne","admin3":""},{"geonameid":2749807,"name":"Noordwolde","admin3":""},{"geonameid":2749804,"name":"Noordwolde-Zuid","admin3":""},{"geonameid":2749663,"name":"Oldeholtpade","admin3":""},{"geonameid":2749662,"name":"Oldeholtwolde","admin3":""},{"geonameid":2749655,"name":"Oldelamer","admin3":""},{"geonameid":2749639,"name":"Oldetrijne","admin3":""},{"geonameid":2749412,"name":"Oosterstreek","admin3":""},{"geonameid":2748858,"name":"Overburen","admin3":""},{"geonameid":2748653,"name":"Peperga","admin3":""},{"geonameid":2748089,"name":"Rijsberkampen","admin3":""},{"geonameid":2748027,"name":"Rode Dorp","admin3":""},{"geonameid":2747606,"name":"Scherpenzeel","admin3":""},{"geonameid":2747476,"name":"Schoterzijl","admin3":""},{"geonameid":2747163,"name":"Slijkenburg","admin3":""},{"geonameid":2747008,"name":"Sonnega","admin3":""},{"geonameid":2746976,"name":"Spanga","admin3":""},{"geonameid":2746752,"name":"Steggerda","admin3":""},{"geonameid":2746441,"name":"Ter Idzard","admin3":""},{"geonameid":2745505,"name":"Vinkega","admin3":""},{"geonameid":2744194,"name":"Wolvega","admin3":""},{"geonameid":2744071,"name":"Zandhuizen","admin3":""}],"admin3":[],"alternateNames":[{"alternatenameId":5463435,"geonameid":2755812,"isoLanguage":"de","alternateName":"Friesland","isPreferredName":true,"isShortName":true,"isColloquial":false,"isHistoric":false}]},"__N_SSG":true}