{"pageProps":{"locale":"en","admin2":{"geonameid":2747091,"name":"Gemeente Smallingerland","country":"NL","admin1":"02","admin2":"0090","admin3":"","latitude":"53.1166700","longitude":"6.0333300"},"admin1":{"geonameid":2755812,"name":"Provincie Friesland","admin1":"02"},"locations":[{"geonameid":2758633,"name":"Boornbergum","admin3":""},{"geonameid":2758128,"name":"Buitenstverlaat","admin3":""},{"geonameid":2757683,"name":"De Drait","admin3":""},{"geonameid":2757641,"name":"De Gaasten","admin3":""},{"geonameid":2757640,"name":"De Galhoek","admin3":""},{"geonameid":2757023,"name":"De Tike","admin3":""},{"geonameid":2756990,"name":"De Veenhoop","admin3":""},{"geonameid":2756941,"name":"De Wieken","admin3":""},{"geonameid":2756933,"name":"De Wilgen","admin3":""},{"geonameid":2756644,"name":"Drachten","admin3":""},{"geonameid":2756642,"name":"Drachtstercompagnie","admin3":""},{"geonameid":2756309,"name":"Egbertsgaasten","admin3":""},{"geonameid":2755873,"name":"Folgeren","admin3":""},{"geonameid":2755480,"name":"GoÃ«ngahuizen","admin3":""},{"geonameid":2754160,"name":"Het Zwartveen","admin3":""},{"geonameid":2753545,"name":"Houtigehage","admin3":""},{"geonameid":2752414,"name":"Kortehemmen","admin3":""},{"geonameid":2751399,"name":"Luchtenveld","admin3":""},{"geonameid":2750898,"name":"Middelburen","admin3":""},{"geonameid":2750098,"name":"Nijega","admin3":""},{"geonameid":2749304,"name":"Opeinde","admin3":""},{"geonameid":2749282,"name":"Opperburen","admin3":""},{"geonameid":2749136,"name":"Oudega","admin3":""},{"geonameid":2747886,"name":"Rottevalle","admin3":""},{"geonameid":2747095,"name":"Smalle Ee","admin3":""},{"geonameid":2745988,"name":"Uiteinde","admin3":""},{"geonameid":2745934,"name":"Ureterperverlaat","admin3":""},{"geonameid":6639608,"name":"Zandburen","admin3":""}],"admin3":[],"alternateNames":[{"alternatenameId":5463435,"geonameid":2755812,"isoLanguage":"de","alternateName":"Friesland","isPreferredName":true,"isShortName":true,"isColloquial":false,"isHistoric":false}]},"__N_SSG":true}