{"pageProps":{"locale":"en","admin2":{"geonameid":4236576,"name":"Crawford County","country":"US","admin1":"IL","admin2":"033","admin3":"","latitude":"39.0026900","longitude":"-87.7595600","localeAltName":null},"admin1":{"geonameid":4896861,"name":"Illinois","admin1":"IL","localeAltName":"Illinois"},"locations":[{"geonameid":4241211,"name":"Hutsonville","admin3":"36854","localeAltName":null},{"geonameid":4246130,"name":"Oblong","admin3":"55119","localeAltName":null},{"geonameid":4246560,"name":"Palestine","admin3":"41833","localeAltName":null},{"geonameid":4248256,"name":"Robinson","admin3":"64720","localeAltName":null}],"admin3":[{"geonameid":4240945,"name":"Township of Honey Creek","admin3":"35970"},{"geonameid":4241218,"name":"Township of Hutsonville","admin3":"36854","localeAltName":null},{"geonameid":4242689,"name":"Township of Lamotte","admin3":"41833","localeAltName":null},{"geonameid":4242988,"name":"Township of Licking","admin3":"43315"},{"geonameid":4243997,"name":"Township of Martin","admin3":"47202"},{"geonameid":4244782,"name":"Township of Montgomery","admin3":"50205"},{"geonameid":4246135,"name":"Township of Oblong","admin3":"55119","localeAltName":null},{"geonameid":4247642,"name":"Township of Prairie","admin3":"61470"},{"geonameid":4248273,"name":"Township of Robinson","admin3":"64720","localeAltName":null},{"geonameid":4250416,"name":"Township of Southwest","admin3":"71344"}],"alternateNames":[{"alternatenameId":2089562,"geonameid":4896861,"isoLanguage":"en","alternateName":"Illinois","isPreferredName":true,"isShortName":true,"isColloquial":false,"isHistoric":false}]},"__N_SSG":true}