{"pageProps":{"locale":"en","admin2":{"geonameid":4899519,"name":"Lee County","country":"US","admin1":"IL","admin2":"103","admin3":"","latitude":"41.7461900","longitude":"-89.3003900","localeAltName":null},"admin1":{"geonameid":4896861,"name":"Illinois","admin1":"IL","localeAltName":"Illinois"},"locations":[{"geonameid":4883249,"name":"Amboy","admin3":"01283","localeAltName":null},{"geonameid":4883701,"name":"Ashton","admin3":"02596","localeAltName":null},{"geonameid":4889959,"name":"Dixon","admin3":"20175","localeAltName":null},{"geonameid":4893061,"name":"Franklin Grove","admin3":"27695","localeAltName":null},{"geonameid":4905245,"name":"Palmyra","admin3":"57316","localeAltName":null},{"geonameid":4905498,"name":"Paw Paw","admin3":"83674","localeAltName":null}],"admin3":[{"geonameid":4883229,"name":"Township of Alto","admin3":"01101"},{"geonameid":4883255,"name":"Township of Amboy","admin3":"01283","localeAltName":null},{"geonameid":4883707,"name":"Township of Ashton","admin3":"02596","localeAltName":null},{"geonameid":4885417,"name":"Township of Bradford","admin3":"07679"},{"geonameid":4885709,"name":"Township of Brooklyn","admin3":"08654"},{"geonameid":4887587,"name":"Township of Franklin Grove","admin3":"27695","localeAltName":null},{"geonameid":4889975,"name":"Township of Dixon","admin3":"20175","localeAltName":null},{"geonameid":4890511,"name":"Township of East Grove","admin3":"21865"},{"geonameid":4894998,"name":"Township of Hamilton","admin3":"32447"},{"geonameid":4895147,"name":"Township of Harmon","admin3":"32980"},{"geonameid":4899518,"name":"Township of Lee Center","admin3":"42613"},{"geonameid":4901202,"name":"Township of Marion","admin3":"46890"},{"geonameid":4901487,"name":"Township of May","admin3":"47644"},{"geonameid":4903267,"name":"Township of Nachusa","admin3":"51557"},{"geonameid":4903410,"name":"Township of Nelson","admin3":"51960"},{"geonameid":4905246,"name":"Township of Palmyra","admin3":"57316","localeAltName":null},{"geonameid":4907433,"name":"Township of Reynolds","admin3":"63407"},{"geonameid":4911881,"name":"Township of South Dixon","admin3":"70694"},{"geonameid":4912761,"name":"Township of Sublette","admin3":"73300"},{"geonameid":4914890,"name":"Township of Viola","admin3":"78110"},{"geonameid":4916661,"name":"Township of Willow Creek","admin3":"81971"},{"geonameid":4917226,"name":"Township of Wyoming","admin3":"83674","localeAltName":null}],"alternateNames":[{"alternatenameId":2089562,"geonameid":4896861,"isoLanguage":"en","alternateName":"Illinois","isPreferredName":true,"isShortName":true,"isColloquial":false,"isHistoric":false}]},"__N_SSG":true}