{"pageProps":{"locale":"en","admin2":{"geonameid":4247802,"name":"Randolph County","country":"US","admin1":"IL","admin2":"157","admin3":"","latitude":"38.0521200","longitude":"-89.8253100","localeAltName":null},"admin1":{"geonameid":4896861,"name":"Illinois","admin1":"IL","localeAltName":"Illinois"},"locations":[{"geonameid":4235724,"name":"Chester","admin3":"","localeAltName":null},{"geonameid":4236454,"name":"Coulterville","admin3":"","localeAltName":null},{"geonameid":4238033,"name":"Evansville","admin3":"","localeAltName":null},{"geonameid":4246821,"name":"Percy","admin3":"","localeAltName":null},{"geonameid":4247545,"name":"Prairie du Rocher","admin3":"","localeAltName":null},{"geonameid":4247880,"name":"Red Bud","admin3":"","localeAltName":null},{"geonameid":4250476,"name":"Sparta","admin3":"","localeAltName":null},{"geonameid":4250627,"name":"Steeleville","admin3":"","localeAltName":null},{"geonameid":4251276,"name":"Tilden","admin3":"","localeAltName":null}],"admin3":[],"alternateNames":[{"alternatenameId":2089562,"geonameid":4896861,"isoLanguage":"en","alternateName":"Illinois","isPreferredName":true,"isShortName":true,"isColloquial":false,"isHistoric":false}]},"__N_SSG":true}