{"pageProps":{"locale":"de","locations":[{"geonameid":2951679,"name":"Beckingen","admin3":"10042","localeAltName":null},{"geonameid":2949760,"name":"Bethingen","admin3":"10042","localeAltName":null},{"geonameid":2949470,"name":"Bexbach","admin3":"10045","localeAltName":null},{"geonameid":2947739,"name":"Blieskastel","admin3":"10045","localeAltName":null},{"geonameid":2945730,"name":"Bous","admin3":"10044","localeAltName":null},{"geonameid":2944031,"name":"Britten","admin3":"10042","localeAltName":null},{"geonameid":2936977,"name":"Dillingen","admin3":"10044","localeAltName":null},{"geonameid":2935110,"name":"Dreisbach","admin3":"10042","localeAltName":null},{"geonameid":2930019,"name":"Ensdorf","admin3":"10044","localeAltName":null},{"geonameid":2929865,"name":"Eppelborn","admin3":"10043","localeAltName":null},{"geonameid":2928208,"name":"Faha","admin3":"10042","localeAltName":null},{"geonameid":2927182,"name":"Fenne","admin3":"10041","localeAltName":null},{"geonameid":2925038,"name":"Freisen","admin3":"10046","localeAltName":null},{"geonameid":2924461,"name":"Friedrichsthal","admin3":"10041","localeAltName":null},{"geonameid":2923614,"name":"Fürstenhausen","admin3":"10041","localeAltName":null},{"geonameid":2920921,"name":"Gersheim","admin3":"10045","localeAltName":null},{"geonameid":2915116,"name":"Großrosseln","admin3":"10041","localeAltName":null},{"geonameid":2910935,"name":"Hangard","admin3":"10043","localeAltName":null},{"geonameid":2858712,"name":"Heidstock","admin3":"10041","localeAltName":null},{"geonameid":2904985,"name":"Heusweiler","admin3":"10041","localeAltName":null},{"geonameid":2899449,"name":"Homburg","admin3":"10045","localeAltName":null},{"geonameid":2896538,"name":"Illingen","admin3":"10043","localeAltName":null},{"geonameid":2890322,"name":"Kirkel","admin3":"10045","localeAltName":null},{"geonameid":2889709,"name":"Kleinblittersdorf","admin3":"10041","localeAltName":null},{"geonameid":2879832,"name":"Lebach","admin3":"10044","localeAltName":null},{"geonameid":2875831,"name":"Losheim","admin3":"10042","localeAltName":null},{"geonameid":3225156,"name":"Ludweiler-Warndt","admin3":"10041","localeAltName":null},{"geonameid":11002725,"name":"Luisenthal","admin3":"10041","localeAltName":null},{"geonameid":2874212,"name":"Mainzweiler","admin3":"10043","localeAltName":null},{"geonameid":2873224,"name":"Marpingen","admin3":"10046","localeAltName":null},{"geonameid":2871832,"name":"Merchweiler","admin3":"10043","localeAltName":null},{"geonameid":2871675,"name":"Merzig","admin3":"10042","localeAltName":null},{"geonameid":2871538,"name":"Mettlach","admin3":"10042","localeAltName":null},{"geonameid":2867127,"name":"Nalbach","admin3":"10044","localeAltName":null},{"geonameid":2867120,"name":"Namborn","admin3":"10046","localeAltName":null},{"geonameid":2864435,"name":"Neunkirchen","admin3":"10043","localeAltName":null},{"geonameid":2862294,"name":"Nohfelden","admin3":"10046","localeAltName":null},{"geonameid":2862174,"name":"Nonnweiler","admin3":"10046","localeAltName":null},{"geonameid":2858807,"name":"Oberthal","admin3":"10046","localeAltName":null},{"geonameid":2857044,"name":"Orscholz","admin3":"10042","localeAltName":null},{"geonameid":2855917,"name":"Ottweiler","admin3":"10043","localeAltName":null},{"geonameid":2851584,"name":"Püttlingen","admin3":"10041","localeAltName":null},{"geonameid":2851337,"name":"Quierschied","admin3":"10041","localeAltName":null},{"geonameid":2847033,"name":"Riegelsberg","admin3":"10041","localeAltName":null},{"geonameid":11002721,"name":"Röchling-Höhe","admin3":"10041","localeAltName":null},{"geonameid":2842647,"name":"Saarbrücken","admin3":"10041","localeAltName":null},{"geonameid":2842638,"name":"Saarhölzbach","admin3":"10042","localeAltName":null},{"geonameid":2842632,"name":"Saarlouis","admin3":"10044","localeAltName":null},{"geonameid":2842621,"name":"Saarwellingen","admin3":"10044","localeAltName":null},{"geonameid":2841590,"name":"Sankt Ingbert","admin3":"10045","localeAltName":null},{"geonameid":2841463,"name":"Sankt Wendel","admin3":"10046","localeAltName":null},{"geonameid":2839316,"name":"Schiffweiler","admin3":"10043","localeAltName":null},{"geonameid":2837954,"name":"Schmelz","admin3":"10044","localeAltName":null},{"geonameid":2835382,"name":"Schwalbach","admin3":"10044","localeAltName":null},{"geonameid":2830452,"name":"Spiesen-Elversberg","admin3":"10043","localeAltName":null},{"geonameid":2824841,"name":"Sulzbach","admin3":"10041","localeAltName":null},{"geonameid":2822713,"name":"Tholey","admin3":"10046","localeAltName":null},{"geonameid":2820583,"name":"Überherrn","admin3":"10044","localeAltName":null},{"geonameid":2816630,"name":"Völklingen","admin3":"10041","localeAltName":null},{"geonameid":2815565,"name":"Wadern","admin3":"10042","localeAltName":null},{"geonameid":2815559,"name":"Wadgassen","admin3":"10044","localeAltName":null},{"geonameid":2814613,"name":"Wallerfangen","admin3":"10044","localeAltName":null},{"geonameid":2812071,"name":"Weiskirchen","admin3":"10042","localeAltName":null},{"geonameid":2811683,"name":"Weiten","admin3":"10042","localeAltName":null}],"admin1":{"geonameid":2842635,"name":"Saarland","admin1":"09","localeAltName":"Saarland"},"admin2":"no-adm2","admin3":{"geonameid":3249067,"name":"Saarpfalz-Kreis","country":"DE","admin1":"09","admin2":"00","admin3":"10045","latitude":"49.2700000","longitude":"7.2477800","localeAltName":null},"admin4":[{"geonameid":2890321,"name":"Kirkel","admin3":"10045","localeAltName":null},{"geonameid":2925039,"name":"Freisen","admin3":"10046","localeAltName":null},{"geonameid":3207558,"name":"Mandelbachtal","admin3":"10045","localeAltName":null},{"geonameid":6547396,"name":"Perl","admin3":"10042","localeAltName":null},{"geonameid":6547462,"name":"Nalbach","admin3":"10044","localeAltName":null},{"geonameid":6547509,"name":"Großrosseln","admin3":"10041","localeAltName":null},{"geonameid":6547510,"name":"Heusweiler","admin3":"10041","localeAltName":null},{"geonameid":6547511,"name":"Kleinblittersdorf","admin3":"10041","localeAltName":null},{"geonameid":6547512,"name":"Quierschied","admin3":"10041","localeAltName":null},{"geonameid":6547513,"name":"Riegelsberg","admin3":"10041","localeAltName":null},{"geonameid":6547514,"name":"Beckingen","admin3":"10042","localeAltName":null},{"geonameid":6547515,"name":"Losheim am See","admin3":"10042","localeAltName":null},{"geonameid":6547516,"name":"Mettlach","admin3":"10042","localeAltName":null},{"geonameid":6547517,"name":"Weiskirchen","admin3":"10042","localeAltName":null},{"geonameid":6547518,"name":"Eppelborn","admin3":"10043","localeAltName":null},{"geonameid":6547519,"name":"Illingen / Saar","admin3":"10043","localeAltName":null},{"geonameid":6547520,"name":"Merchweiler","admin3":"10043","localeAltName":null},{"geonameid":6547521,"name":"Schiffweiler","admin3":"10043","localeAltName":null},{"geonameid":6547522,"name":"Spiesen-Elversberg","admin3":"10043","localeAltName":null},{"geonameid":6547523,"name":"Rehlingen-Siersburg","admin3":"10044","localeAltName":null},{"geonameid":6547524,"name":"Saarwellingen","admin3":"10044","localeAltName":null},{"geonameid":6547525,"name":"Schmelz","admin3":"10044","localeAltName":null},{"geonameid":6547526,"name":"Schwalbach","admin3":"10044","localeAltName":null},{"geonameid":6547527,"name":"Überherrn","admin3":"10044","localeAltName":null},{"geonameid":6547528,"name":"Wadgassen","admin3":"10044","localeAltName":null},{"geonameid":6547529,"name":"Wallerfangen","admin3":"10044","localeAltName":null},{"geonameid":6547530,"name":"Bous","admin3":"10044","localeAltName":null},{"geonameid":6547531,"name":"Ensdorf","admin3":"10044","localeAltName":null},{"geonameid":6547532,"name":"Gersheim","admin3":"10045","localeAltName":null},{"geonameid":6547533,"name":"Marpingen","admin3":"10046","localeAltName":null},{"geonameid":6547534,"name":"Namborn","admin3":"10046","localeAltName":null},{"geonameid":6547535,"name":"Nohfelden","admin3":"10046","localeAltName":null},{"geonameid":6547536,"name":"Nonnweiler","admin3":"10046","localeAltName":null},{"geonameid":6547537,"name":"Oberthal","admin3":"10046","localeAltName":null},{"geonameid":6547538,"name":"Tholey","admin3":"10046","localeAltName":null},{"geonameid":6550575,"name":"Friedrichsthal","admin3":"10041","localeAltName":null},{"geonameid":6550576,"name":"Püttlingen","admin3":"10041","localeAltName":null},{"geonameid":6550577,"name":"Völklingen","admin3":"10041","localeAltName":null},{"geonameid":6550578,"name":"Wadern","admin3":"10042","localeAltName":null},{"geonameid":6550579,"name":"Ottweiler / Saar","admin3":"10043","localeAltName":null},{"geonameid":6550580,"name":"Lebach","admin3":"10044","localeAltName":null},{"geonameid":6550581,"name":"Bexbach","admin3":"10045","localeAltName":null},{"geonameid":6550582,"name":"Blieskastel","admin3":"10045","localeAltName":null},{"geonameid":6550583,"name":"St. Ingbert","admin3":"10045","localeAltName":null},{"geonameid":6551163,"name":"Saarbrücken, Landeshauptstadt","admin3":"10041","localeAltName":null},{"geonameid":6551164,"name":"Merzig, Kreisstadt","admin3":"10042","localeAltName":null},{"geonameid":6551165,"name":"Neunkirchen, Kreisstadt","admin3":"10043","localeAltName":null},{"geonameid":6551166,"name":"Saarlouis, Kreisstadt","admin3":"10044","localeAltName":null},{"geonameid":6551167,"name":"Homburg, Kreisstadt","admin3":"10045","localeAltName":null},{"geonameid":6551268,"name":"Dillingen/Saar","admin3":"10044","localeAltName":null},{"geonameid":7602413,"name":"Sulzbach/Saar","admin3":"10041","localeAltName":null},{"geonameid":7602589,"name":"St. Wendel, Kreisstadt","admin3":"10046","localeAltName":null}]},"__N_SSG":true}