{"pageProps":{"locale":"en","admin2":{"geonameid":5521001,"name":"El Paso County","country":"US","admin1":"TX","admin2":"141","admin3":"","latitude":"31.7685500","longitude":"-106.2348300","localeAltName":null},"admin1":{"geonameid":4736286,"name":"Texas","admin1":"TX","localeAltName":"Texas"},"locations":[{"geonameid":5516077,"name":"Agua Dulce","admin3":"","localeAltName":null},{"geonameid":5516368,"name":"Anthony","admin3":"","localeAltName":null},{"geonameid":5518232,"name":"Canutillo","admin3":"","localeAltName":null},{"geonameid":5519108,"name":"Clint","admin3":"","localeAltName":null},{"geonameid":5520993,"name":"El Paso","admin3":"","localeAltName":null},{"geonameid":5521233,"name":"Fabens","admin3":"","localeAltName":null},{"geonameid":7261282,"name":"Fort Bliss","admin3":"","localeAltName":null},{"geonameid":5523335,"name":"Homestead Meadows North","admin3":"","localeAltName":null},{"geonameid":5523336,"name":"Homestead Meadows South","admin3":"","localeAltName":null},{"geonameid":5523369,"name":"Horizon City","admin3":"","localeAltName":null},{"geonameid":5526668,"name":"Morning Glory","admin3":"","localeAltName":null},{"geonameid":5530058,"name":"San Elizario","admin3":"","localeAltName":null},{"geonameid":5530932,"name":"Socorro","admin3":"","localeAltName":null},{"geonameid":5530937,"name":"Socorro Mission Number 1 Colonia","admin3":"","localeAltName":null},{"geonameid":5531548,"name":"Sparks","admin3":"","localeAltName":null},{"geonameid":5532423,"name":"Tornillo","admin3":"","localeAltName":null},{"geonameid":5532993,"name":"Vinton","admin3":"","localeAltName":null},{"geonameid":5533510,"name":"Westway","admin3":"","localeAltName":null}],"admin3":[{"geonameid":7174460,"name":"City of Socorro","admin3":"7174460"},{"geonameid":7174792,"name":"Town of Anthony","admin3":"7174792"},{"geonameid":7175619,"name":"Town of Clint","admin3":"7175619"},{"geonameid":7175991,"name":"Village of Vinton","admin3":"7175991"},{"geonameid":11788406,"name":"City of Horizon City","admin3":"11788406"},{"geonameid":11788572,"name":"City of San Elizario","admin3":"11788572"}],"alternateNames":[{"alternatenameId":1614423,"geonameid":4736286,"isoLanguage":"en","alternateName":"Texas","isPreferredName":true,"isShortName":true,"isColloquial":false,"isHistoric":false}]},"__N_SSG":true}