{"pageProps":{"locale":"en","admin2":{"geonameid":6172002,"name":"Comt√©s unis de Prescott et Russell","country":"CA","admin1":"08","admin2":"3502","admin3":"","latitude":"45.4168000","longitude":"-75.2493100"},"admin1":{"geonameid":6093943,"name":"Ontario","admin1":"08"},"locations":[{"geonameid":5881866,"name":"Aberdeen","admin3":"3502010"},{"geonameid":5883589,"name":"Alfred","admin3":"3502023"},{"geonameid":5892799,"name":"Barb","admin3":"3502001"},{"geonameid":5904243,"name":"Blue Corners","admin3":"3502010"},{"geonameid":5906575,"name":"Bourget","admin3":""},{"geonameid":5908993,"name":"Brisson","admin3":"3502048"},{"geonameid":5918013,"name":"Cassburn","admin3":"3502010"},{"geonameid":5919177,"name":"Centrefield","admin3":"3502023"},{"geonameid":5924947,"name":"Coins Gratton","admin3":"3502023"},{"geonameid":8617396,"name":"Embrun","admin3":"3502048"},{"geonameid":5950509,"name":"Evanturel","admin3":"3502010"},{"geonameid":5952101,"name":"Felton","admin3":"3502048"},{"geonameid":5955615,"name":"Forget","admin3":"3502048"},{"geonameid":5961824,"name":"Glen Andrew","admin3":"3502001"},{"geonameid":5961853,"name":"Glenburn","admin3":"3502023"},{"geonameid":5962618,"name":"Golden Hill","admin3":"3502001"},{"geonameid":5966403,"name":"Green Lane","admin3":"3502010"},{"geonameid":5970438,"name":"Happy Hollow","admin3":"3502010"},{"geonameid":5974016,"name":"Henrys Corner","admin3":"3502010"},{"geonameid":5986467,"name":"Jessups Falls","admin3":"3502023"},{"geonameid":6049372,"name":"L'Ange-Gardien","admin3":"3502010"},{"geonameid":8556299,"name":"L'Orignal","admin3":"3502010"},{"geonameid":6049957,"name":"La Renouche","admin3":"3502001"},{"geonameid":6066462,"name":"Marionville","admin3":"3502048"},{"geonameid":6067299,"name":"Marvelville","admin3":"3502048"},{"geonameid":6090573,"name":"North Russell","admin3":"3502048"},{"geonameid":6100904,"name":"Pendleton","admin3":"3502023"},{"geonameid":6106160,"name":"Plantagenet Station","admin3":"3502023"},{"geonameid":6106286,"name":"Pleasant Corners","admin3":"3502010"},{"geonameid":6107815,"name":"Pointe-Fortune","admin3":"3502001"},{"geonameid":6122536,"name":"Ritchance","admin3":"3502010"},{"geonameid":6126275,"name":"Rockdale","admin3":"3502023"},{"geonameid":6140752,"name":"Sandy Hill","admin3":"3502010"},{"geonameid":6144175,"name":"Senecal","admin3":"3502023"},{"geonameid":6157440,"name":"St-Onge","admin3":"3502048"},{"geonameid":6155790,"name":"St. Davids","admin3":"3502001"},{"geonameid":11696034,"name":"St. Isidore","admin3":""},{"geonameid":6155397,"name":"Stardale","admin3":"3502001"},{"geonameid":6155868,"name":"Ste-Anne-de-Prescott","admin3":"3502001"},{"geonameid":6164686,"name":"The Rollway","admin3":"3502023"},{"geonameid":6168603,"name":"Treadwell","admin3":"3502023"},{"geonameid":6173412,"name":"Vankleek Hill","admin3":"3502010"},{"geonameid":6173413,"name":"Vankleek Hill Station","admin3":"3502010"},{"geonameid":6174301,"name":"Village Lanthier","admin3":"3502010"},{"geonameid":11838088,"name":"Wendover","admin3":"3502023"},{"geonameid":6179196,"name":"Westminster","admin3":"3502023"}],"admin3":[{"geonameid":5883593,"name":"Alfred and Plantagenet","admin3":"3502023"},{"geonameid":5919683,"name":"Champlain","admin3":"3502010"},{"geonameid":5945719,"name":"East Hawkesbury","admin3":"3502001"},{"geonameid":6136573,"name":"Russell","admin3":"3502048"}],"alternateNames":[]},"__N_SSG":true}