{"pageProps":{"locale":"en","admin2":{"geonameid":6185560,"name":"York","country":"CA","admin1":"08","admin2":"3519","admin3":"","latitude":"44.0001100","longitude":"-79.4663200"},"admin1":{"geonameid":6093943,"name":"Ontario","admin1":"08"},"locations":[{"geonameid":5923662,"name":"Clearview Heights","admin3":"3519049"},{"geonameid":5945707,"name":"East Gwillimbury","admin3":""},{"geonameid":5950605,"name":"Eversley","admin3":"3519049"},{"geonameid":5962114,"name":"Glenville","admin3":"3519049"},{"geonameid":5963631,"name":"Gormley","admin3":""},{"geonameid":5970454,"name":"Happy Valley","admin3":"3519049"},{"geonameid":5974157,"name":"Heritage Park","admin3":"3519049"},{"geonameid":5976253,"name":"Holly Park","admin3":"3519049"},{"geonameid":5991426,"name":"Kettleby","admin3":"3519049"},{"geonameid":5992180,"name":"King","admin3":"3519049"},{"geonameid":5992211,"name":"King City","admin3":"3519049"},{"geonameid":5992226,"name":"King Creek","admin3":"3519049"},{"geonameid":5992282,"name":"Kinghorn","admin3":"3519049"},{"geonameid":5992419,"name":"Kingscross Estates","admin3":"3519049"},{"geonameid":6050237,"name":"Laskay","admin3":"3519049"},{"geonameid":6054538,"name":"Linton","admin3":"3519049"},{"geonameid":6087768,"name":"New Scotland","admin3":"3519049"},{"geonameid":6088775,"name":"Nobleton","admin3":"3519049"},{"geonameid":6112336,"name":"Pottageville","admin3":"3519049"},{"geonameid":6122091,"name":"Richmond Hill","admin3":""},{"geonameid":8556260,"name":"Schomberg","admin3":"3519049"},{"geonameid":6150683,"name":"Snowball","admin3":"3519049"},{"geonameid":6157938,"name":"Strange","admin3":"3519049"},{"geonameid":6160073,"name":"Sutton","admin3":""},{"geonameid":6162664,"name":"Temperanceville","admin3":"3519049"}],"admin3":[{"geonameid":5992181,"name":"King","admin3":"3519049"}],"alternateNames":[]},"__N_SSG":true}