{"pageProps":{"locale":"en","admin2":{"geonameid":5063023,"name":"Antelope County","country":"US","admin1":"NE","admin2":"003","admin3":"","latitude":"42.1769000","longitude":"-98.0666900"},"admin1":{"geonameid":5073708,"name":"Nebraska","admin1":"NE","localeAltName":"Nebraska"},"locations":[{"geonameid":5073735,"name":"Neligh","admin3":"33775"}],"admin3":[{"geonameid":5063595,"name":"Township of Bazile","admin3":"03320"},{"geonameid":5064229,"name":"Township of Blaine","admin3":"05245"},{"geonameid":5064904,"name":"Township of Burnett","admin3":"07170"},{"geonameid":5065366,"name":"Township of Cedar","admin3":"08045"},{"geonameid":5065871,"name":"Township of Clearwater","admin3":"09480"},{"geonameid":5066391,"name":"Township of Crawford","admin3":"11160"},{"geonameid":5066614,"name":"Township of Custer","admin3":"11895"},{"geonameid":5067429,"name":"Township of Eden","admin3":"14415"},{"geonameid":5067516,"name":"Township of Elgin","admin3":"14765"},{"geonameid":5067587,"name":"Township of Ellsworth","admin3":"15185"},{"geonameid":5067615,"name":"Township of Elm","admin3":"15255"},{"geonameid":5068760,"name":"Township of Frenchtown","admin3":"17740"},{"geonameid":5068901,"name":"Township of Garfield","admin3":"18055"},{"geonameid":5069354,"name":"Township of Grant","admin3":"19665"},{"geonameid":5072070,"name":"Township of Lincoln","admin3":"27155"},{"geonameid":5072229,"name":"Township of Logan","admin3":"28525"},{"geonameid":5073749,"name":"City of Neligh","admin3":"33775"},{"geonameid":5073750,"name":"Township of Neligh","admin3":"33810"},{"geonameid":5074328,"name":"Township of Oakdale","admin3":"35420"},{"geonameid":5074579,"name":"Township of Ord","admin3":"37245"},{"geonameid":5076580,"name":"Township of Royal","admin3":"42530"},{"geonameid":5078920,"name":"Township of Sherman","admin3":"44875"},{"geonameid":5079566,"name":"Township of Stanton","admin3":"46730"},{"geonameid":5081095,"name":"Township of Verdigris","admin3":"50440"},{"geonameid":5081934,"name":"Township of Willow","admin3":"53135"}],"alternateNames":[{"alternatenameId":2124821,"geonameid":5073708,"isoLanguage":"en","alternateName":"Nebraska","isPreferredName":true,"isShortName":true,"isColloquial":false,"isHistoric":false}]},"__N_SSG":true}