{"pageProps":{"locale":"en","admin2":{"geonameid":5073611,"name":"Nance County","country":"US","admin1":"NE","admin2":"125","admin3":"","latitude":"41.3973000","longitude":"-97.9922500"},"admin1":{"geonameid":5073708,"name":"Nebraska","admin1":"NE","localeAltName":"Nebraska"},"locations":[{"geonameid":5068818,"name":"Fullerton","admin3":"17810"}],"admin3":[{"geonameid":5063719,"name":"Township of Beaver","admin3":"03460"},{"geonameid":5065369,"name":"Township of Cedar","admin3":"08115"},{"geonameid":5066298,"name":"Township of Cottonwood","admin3":"10845"},{"geonameid":5066344,"name":"Township of Council Creek","admin3":"10915"},{"geonameid":5067370,"name":"Township of East Newman","admin3":"14240"},{"geonameid":5068826,"name":"City of Fullerton","admin3":"17810"},{"geonameid":5068827,"name":"Township of Fullerton","admin3":"17845"},{"geonameid":5068978,"name":"City of Genoa","admin3":"18475"},{"geonameid":5068979,"name":"Township of Genoa","admin3":"18510"},{"geonameid":5072393,"name":"Township of Loup Ferry","admin3":"29540"},{"geonameid":5075720,"name":"Township of Prairie Creek","admin3":"40185"},{"geonameid":5079165,"name":"Township of South Branch","admin3":"45715"},{"geonameid":5080302,"name":"Township of Timber Creek","admin3":"48970"},{"geonameid":5081650,"name":"Township of West Newman","admin3":"52470"}],"alternateNames":[{"alternatenameId":2124821,"geonameid":5073708,"isoLanguage":"en","alternateName":"Nebraska","isPreferredName":true,"isShortName":true,"isColloquial":false,"isHistoric":false}]},"__N_SSG":true}