{"pageProps":{"locale":"de","admin2":{"geonameid":11611648,"name":"Region Surselva","country":"CH","admin1":"GR","admin2":"1850","admin3":"","latitude":"46.6956400","longitude":"9.0483400","localeAltName":null},"admin1":{"geonameid":2660522,"name":"Kanton Graubünden","admin1":"GR","localeAltName":null},"locations":[{"geonameid":2661414,"name":"Breíl","admin3":"3981","localeAltName":null},{"geonameid":2661009,"name":"Disentis","admin3":"3982","localeAltName":null},{"geonameid":2660828,"name":"Falera","admin3":"3572","localeAltName":null},{"geonameid":2660755,"name":"Flond","admin3":"3988","localeAltName":null},{"geonameid":2660275,"name":"Ilanz","admin3":"3619","localeAltName":null},{"geonameid":2660083,"name":"Laax","admin3":"3575","localeAltName":null},{"geonameid":2660064,"name":"Ladir","admin3":"3619","localeAltName":null},{"geonameid":2659832,"name":"Lumbrein","admin3":"3618","localeAltName":null},{"geonameid":2659813,"name":"Luven","admin3":"3619","localeAltName":null},{"geonameid":2659582,"name":"Morissen","admin3":"3618","localeAltName":null},{"geonameid":2659354,"name":"Obersaxen","admin3":"3988","localeAltName":null},{"geonameid":2659196,"name":"Pitasch","admin3":"3619","localeAltName":null},{"geonameid":2659031,"name":"Riein","admin3":"3619","localeAltName":null},{"geonameid":2658933,"name":"Rueun","admin3":"3619","localeAltName":null},{"geonameid":2658920,"name":"Ruschein","admin3":"3619","localeAltName":null},{"geonameid":2658646,"name":"Seewis","admin3":"3619","localeAltName":null},{"geonameid":2659480,"name":"Surcuolm","admin3":"3988","localeAltName":null},{"geonameid":6943335,"name":"Surrein","admin3":"3985","localeAltName":null},{"geonameid":2658405,"name":"Tenna","admin3":"3672","localeAltName":null},{"geonameid":2658299,"name":"Trun","admin3":"3987","localeAltName":null},{"geonameid":2658198,"name":"Valendas","admin3":"3672","localeAltName":null},{"geonameid":2658191,"name":"Vals Platz","admin3":"3603","localeAltName":null},{"geonameid":2658153,"name":"Versam","admin3":"3672","localeAltName":null},{"geonameid":2658134,"name":"Vignogn","admin3":"3618","localeAltName":null},{"geonameid":2658092,"name":"Vrin","admin3":"3618","localeAltName":null},{"geonameid":2658059,"name":"Waltensburg","admin3":"3981","localeAltName":"Waltensburg"}],"admin3":[{"geonameid":2658300,"name":"Trun","admin3":"3987","localeAltName":null},{"geonameid":7285321,"name":"Breil/Brigels","admin3":"3981","localeAltName":null},{"geonameid":7285656,"name":"Disentis/Mustér","admin3":"3982","localeAltName":null},{"geonameid":7285793,"name":"Falera","admin3":"3572","localeAltName":null},{"geonameid":7286235,"name":"Laax","admin3":"3575","localeAltName":null},{"geonameid":7286467,"name":"Medel (Lucmagn)","admin3":"3983"},{"geonameid":7287015,"name":"Sagogn","admin3":"3581"},{"geonameid":7287097,"name":"Schluein","admin3":"3582"},{"geonameid":7287263,"name":"Sumvitg","admin3":"3985","localeAltName":null},{"geonameid":7287351,"name":"Tujetsch","admin3":"3986"},{"geonameid":7287414,"name":"Vals","admin3":"3603","localeAltName":null},{"geonameid":8740945,"name":"Lumnezia","admin3":"3618","localeAltName":null},{"geonameid":8740946,"name":"Ilanz/Glion","admin3":"3619","localeAltName":null},{"geonameid":8740964,"name":"Safiental","admin3":"3672","localeAltName":null},{"geonameid":11611706,"name":"Obersaxen Mundaun","admin3":"3988","localeAltName":null}],"alternateNames":[{"alternatenameId":4022276,"geonameid":2658059,"isoLanguage":"de","alternateName":"Waltensburg","isPreferredName":true,"isShortName":true,"isColloquial":false,"isHistoric":false}]},"__N_SSG":true}