{"pageProps":{"locale":"en","admin2":{"geonameid":5019385,"name":"Brown County","country":"US","admin1":"MN","admin2":"015","admin3":"","latitude":"44.2421700","longitude":"-94.7274800","localeAltName":null},"admin1":{"geonameid":5037779,"name":"Minnesota","admin1":"MN","localeAltName":"Minnesota"},"locations":[{"geonameid":5039173,"name":"New Ulm","admin3":"46042","localeAltName":null},{"geonameid":5047603,"name":"Sleepy Eye","admin3":"60844","localeAltName":null},{"geonameid":5048394,"name":"Springfield","admin3":"61816","localeAltName":null}],"admin3":[{"geonameid":5016057,"name":"Township of Albin","admin3":"00748"},{"geonameid":5017249,"name":"Township of Bashaw","admin3":"03826"},{"geonameid":5019766,"name":"Township of Burnstown","admin3":"08776"},{"geonameid":5021705,"name":"City of Cobden","admin3":"12394"},{"geonameid":5021845,"name":"City of Comfrey","admin3":"12772"},{"geonameid":5022176,"name":"Township of Cottonwood","admin3":"13546"},{"geonameid":5025245,"name":"Township of Eden","admin3":"18026"},{"geonameid":5025914,"name":"City of Evan","admin3":"19880"},{"geonameid":5029297,"name":"City of Hanska","admin3":"27008"},{"geonameid":5030575,"name":"Township of Home","admin3":"29960"},{"geonameid":5033804,"name":"Township of Lake Hanska","admin3":"34442"},{"geonameid":5034378,"name":"Township of Leavenworth","admin3":"36116"},{"geonameid":5034733,"name":"Township of Linden","admin3":"37214"},{"geonameid":5037490,"name":"Township of Milford","admin3":"42182"},{"geonameid":5038745,"name":"Township of Mulligan","admin3":"44746"},{"geonameid":5039189,"name":"City of New Ulm","admin3":"46042","localeAltName":null},{"geonameid":5039620,"name":"Township of North Star","admin3":"47248"},{"geonameid":5042288,"name":"Township of Prairieville","admin3":"52342"},{"geonameid":5047292,"name":"Township of Sigel","admin3":"60160"},{"geonameid":5047623,"name":"City of Sleepy Eye","admin3":"60844","localeAltName":null},{"geonameid":5048406,"name":"City of Springfield","admin3":"61816","localeAltName":null},{"geonameid":5048605,"name":"Township of Stark","admin3":"62518"},{"geonameid":5048667,"name":"Township of Stately","admin3":"62590"}],"alternateNames":[{"alternatenameId":2089541,"geonameid":5037779,"isoLanguage":"en","alternateName":"Minnesota","isPreferredName":true,"isShortName":true,"isColloquial":false,"isHistoric":false}]},"__N_SSG":true}