{"pageProps":{"locale":"en","admin2":{"geonameid":5026478,"name":"Fillmore County","country":"US","admin1":"MN","admin2":"045","admin3":"","latitude":"43.6740000","longitude":"-92.0901700","localeAltName":null},"admin1":{"geonameid":5037779,"name":"Minnesota","admin1":"MN","localeAltName":"Minnesota"},"locations":[{"geonameid":5020946,"name":"Chatfield","admin3":"11008","localeAltName":null},{"geonameid":5029374,"name":"Harmony","admin3":"27188","localeAltName":null},{"geonameid":5034153,"name":"Lanesboro","admin3":"35450","localeAltName":null},{"geonameid":5036148,"name":"Mabel","admin3":"38888","localeAltName":null},{"geonameid":5042330,"name":"Preston","admin3":"52450","localeAltName":null},{"geonameid":5044055,"name":"Rushford","admin3":"56284","localeAltName":null},{"geonameid":5044066,"name":"Rushford Village","admin3":"56302","localeAltName":null},{"geonameid":5048378,"name":"Spring Valley","admin3":"62104","localeAltName":null}],"admin3":[{"geonameid":5016292,"name":"Township of Amherst","admin3":"01396"},{"geonameid":5016568,"name":"Township of Arendahl","admin3":"02098"},{"geonameid":5017650,"name":"Township of Beaver","admin3":"04402"},{"geonameid":5018722,"name":"Township of Bloomfield","admin3":"06544"},{"geonameid":5019286,"name":"Township of Bristol","admin3":"07804"},{"geonameid":5020344,"name":"City of Canton","admin3":"09802"},{"geonameid":5020345,"name":"Township of Canton","admin3":"09820"},{"geonameid":5020392,"name":"Township of Carimona","admin3":"09910"},{"geonameid":5020480,"name":"Township of Carrolton","admin3":"10090"},{"geonameid":5020956,"name":"City of Chatfield","admin3":"11008","localeAltName":null},{"geonameid":5020957,"name":"Township of Chatfield","admin3":"11026"},{"geonameid":5026489,"name":"Township of Fillmore","admin3":"21068"},{"geonameid":5027143,"name":"Township of Forestville","admin3":"21860"},{"geonameid":5027221,"name":"City of Fountain","admin3":"22094"},{"geonameid":5027222,"name":"Township of Fountain","admin3":"22112"},{"geonameid":5029385,"name":"City of Harmony","admin3":"27188","localeAltName":null},{"geonameid":5029386,"name":"Township of Harmony","admin3":"27206"},{"geonameid":5030481,"name":"Township of Holt","admin3":"29852"},{"geonameid":5032114,"name":"Township of Jordan","admin3":"32156"},{"geonameid":5034141,"name":"City of Lanesboro","admin3":"35450","localeAltName":null},{"geonameid":5036160,"name":"City of Mabel","admin3":"38888","localeAltName":null},{"geonameid":5039200,"name":"Township of Newburg","admin3":"45466"},{"geonameid":5039770,"name":"Township of Norway","admin3":"47392"},{"geonameid":5040464,"name":"City of Ostrander","admin3":"49030"},{"geonameid":5041271,"name":"City of Peterson","admin3":"50596"},{"geonameid":5041512,"name":"Township of Pilot Mound","admin3":"51010"},{"geonameid":5042296,"name":"Township of Preble","admin3":"52396"},{"geonameid":5042344,"name":"Township of Preston","admin3":"52468"},{"geonameid":5042378,"name":"City of Preston","admin3":"52450","localeAltName":null},{"geonameid":5044067,"name":"City of Rushford Village","admin3":"56302","localeAltName":null},{"geonameid":5044068,"name":"City of Rushford","admin3":"56284","localeAltName":null},{"geonameid":5048388,"name":"City of Spring Valley","admin3":"62104","localeAltName":null},{"geonameid":5048389,"name":"Township of Spring Valley","admin3":"62122"},{"geonameid":5049180,"name":"Township of Sumner","admin3":"63418"},{"geonameid":5052593,"name":"City of Whalan","admin3":"69808"},{"geonameid":5053517,"name":"City of Wykoff","admin3":"71950"},{"geonameid":5053591,"name":"Township of York","admin3":"72076"}],"alternateNames":[{"alternatenameId":2089541,"geonameid":5037779,"isoLanguage":"en","alternateName":"Minnesota","isPreferredName":true,"isShortName":true,"isColloquial":false,"isHistoric":false}]},"__N_SSG":true}