{"pageProps":{"locale":"en","admin2":{"geonameid":5047260,"name":"Sibley County","country":"US","admin1":"MN","admin2":"143","admin3":"","latitude":"44.5794800","longitude":"-94.2321600","localeAltName":null},"admin1":{"geonameid":5037779,"name":"Minnesota","admin1":"MN","localeAltName":"Minnesota"},"locations":[{"geonameid":5016580,"name":"Arlington","admin3":"02152","localeAltName":null},{"geonameid":5027765,"name":"Gaylord","admin3":"23300","localeAltName":null},{"geonameid":5027923,"name":"Gibbon","admin3":"23678","localeAltName":null},{"geonameid":5028730,"name":"Green Isle","admin3":"25658","localeAltName":null},{"geonameid":5029840,"name":"Henderson","admin3":"28394","localeAltName":null},{"geonameid":5053204,"name":"Winthrop","admin3":"71122","localeAltName":null}],"admin3":[{"geonameid":5016123,"name":"Township of Alfsborg","admin3":"00982"},{"geonameid":5016591,"name":"City of Arlington","admin3":"02152","localeAltName":null},{"geonameid":5016592,"name":"Township of Arlington","admin3":"02170"},{"geonameid":5018535,"name":"Township of Bismarck","admin3":"06130"},{"geonameid":5022093,"name":"Township of Cornish","admin3":"13348"},{"geonameid":5024667,"name":"Township of Dryden","admin3":"16426"},{"geonameid":5026364,"name":"Township of Faxon","admin3":"20726"},{"geonameid":5027760,"name":"City of Gaylord","admin3":"23300","localeAltName":null},{"geonameid":5027928,"name":"City of Gibbon","admin3":"23678","localeAltName":null},{"geonameid":5028469,"name":"Township of Grafton","admin3":"24794"},{"geonameid":5028735,"name":"City of Green Isle","admin3":"25658","localeAltName":null},{"geonameid":5028736,"name":"Township of Green Isle","admin3":"25676"},{"geonameid":5029847,"name":"City of Henderson","admin3":"28394","localeAltName":null},{"geonameid":5029848,"name":"Township of Henderson","admin3":"28412"},{"geonameid":5031898,"name":"Township of Jessenland","admin3":"31922"},{"geonameid":5033045,"name":"Township of Kelso","admin3":"32714"},{"geonameid":5037974,"name":"Township of Moltke","admin3":"43612"},{"geonameid":5039074,"name":"City of New Auburn","admin3":"45376"},{"geonameid":5039075,"name":"Township of New Auburn","admin3":"45394"},{"geonameid":5046944,"name":"Township of Severance","admin3":"59242"},{"geonameid":5047280,"name":"Township of Sibley","admin3":"60124"},{"geonameid":5050316,"name":"Township of Transit","admin3":"65380"},{"geonameid":5051947,"name":"Township of Washington Lake","admin3":"68368"},{"geonameid":5053213,"name":"City of Winthrop","admin3":"71122","localeAltName":null}],"alternateNames":[{"alternatenameId":2089541,"geonameid":5037779,"isoLanguage":"en","alternateName":"Minnesota","isPreferredName":true,"isShortName":true,"isColloquial":false,"isHistoric":false}]},"__N_SSG":true}