{"pageProps":{"locale":"en","admin2":{"geonameid":2758173,"name":"Gemeente Brunssum","country":"NL","admin1":"05","admin2":"0899","admin3":"","latitude":"50.9445100","longitude":"5.9761800","localeAltName":null},"admin1":{"geonameid":2751596,"name":"Provincie Limburg","admin1":"05","localeAltName":"Limburg"},"locations":[{"geonameid":2758510,"name":"Bouwberg","admin3":"","localeAltName":null},{"geonameid":2758174,"name":"Brunssum","admin3":"","localeAltName":null},{"geonameid":2757045,"name":"De Stack","admin3":"","localeAltName":null},{"geonameid":2754268,"name":"Het Heufke","admin3":"","localeAltName":null},{"geonameid":2752644,"name":"Kling","admin3":"","localeAltName":null},{"geonameid":2752202,"name":"Kruisberg","admin3":"","localeAltName":null},{"geonameid":2751966,"name":"Langeberg","admin3":"","localeAltName":null},{"geonameid":2751784,"name":"Leeuwstuk","admin3":"","localeAltName":null},{"geonameid":2747809,"name":"Rumpen","admin3":"","localeAltName":null},{"geonameid":2747416,"name":"Schuttersveld","admin3":"","localeAltName":null},{"geonameid":2746174,"name":"Treebeek","admin3":"","localeAltName":null}],"admin3":[],"alternateNames":[{"alternatenameId":9073257,"geonameid":2751596,"isoLanguage":"en","alternateName":"Limburg","isPreferredName":true,"isShortName":true,"isColloquial":false,"isHistoric":false},{"alternatenameId":9073258,"geonameid":2751596,"isoLanguage":"de","alternateName":"Limburg","isPreferredName":true,"isShortName":true,"isColloquial":false,"isHistoric":false}]},"__N_SSG":true}