{"pageProps":{"locale":"en","admin2":{"geonameid":5194872,"name":"Indiana County","country":"US","admin1":"PA","admin2":"063","admin3":"","latitude":"40.6520500","longitude":"-79.0875500","localeAltName":null},"admin1":{"geonameid":6254927,"name":"Pennsylvania","admin1":"PA","localeAltName":"Pennsylvania"},"locations":[{"geonameid":5180709,"name":"Black Lick","admin3":"10352","localeAltName":null},{"geonameid":5180834,"name":"Blairsville","admin3":"06904","localeAltName":null},{"geonameid":5184181,"name":"Chevy Chase Heights","admin3":"84472","localeAltName":null},{"geonameid":5184686,"name":"Clymer","admin3":"14520","localeAltName":null},{"geonameid":5193119,"name":"Heilwood","admin3":"60320","localeAltName":null},{"geonameid":5194057,"name":"Homer City","admin3":"35408","localeAltName":null},{"geonameid":5194868,"name":"Indiana","admin3":"36816","localeAltName":null},{"geonameid":5195180,"name":"Jacksonville","admin3":"06752","localeAltName":null},{"geonameid":5195550,"name":"Johnsonburg","admin3":"04056","localeAltName":null},{"geonameid":5199242,"name":"Lucerne Mines","admin3":"12040","localeAltName":null},{"geonameid":5208613,"name":"Robinson","admin3":"84184","localeAltName":null},{"geonameid":5209085,"name":"Rossiter","admin3":"11120","localeAltName":null},{"geonameid":5210732,"name":"Saltsburg","admin3":"67648","localeAltName":null}],"admin3":[{"geonameid":5178499,"name":"Borough of Armagh","admin3":"03032"},{"geonameid":5178521,"name":"Township of Armstrong","admin3":"03064"},{"geonameid":5179008,"name":"Township of Banks","admin3":"04056","localeAltName":null},{"geonameid":5180711,"name":"Township of Black Lick","admin3":"06752","localeAltName":null},{"geonameid":5180840,"name":"Borough of Blairsville","admin3":"06904","localeAltName":null},{"geonameid":5182030,"name":"Township of Brush Valley","admin3":"09624"},{"geonameid":5182282,"name":"Township of Buffington","admin3":"10104"},{"geonameid":5182477,"name":"Township of Burrell","admin3":"10352","localeAltName":null},{"geonameid":5183158,"name":"Township of Canoe","admin3":"11120","localeAltName":null},{"geonameid":5183673,"name":"Township of Center","admin3":"12040","localeAltName":null},{"geonameid":5184046,"name":"Borough of Cherry Tree","admin3":"13120"},{"geonameid":5184064,"name":"Township of Cherryhill","admin3":"13072"},{"geonameid":5184689,"name":"Borough of Clymer","admin3":"14520","localeAltName":null},{"geonameid":5185144,"name":"Township of Conemaugh","admin3":"15560"},{"geonameid":5185838,"name":"Borough of Creekside","admin3":"17024"},{"geonameid":5187984,"name":"Township of East Mahoning","admin3":"21456"},{"geonameid":5188112,"name":"Township of East Wheatfield","admin3":"22048"},{"geonameid":5188874,"name":"Borough of Ernest","admin3":"24040"},{"geonameid":5191260,"name":"Borough of Glen Campbell","admin3":"29512"},{"geonameid":5191675,"name":"Township of Grant","admin3":"30416"},{"geonameid":5191939,"name":"Township of Green","admin3":"30816"},{"geonameid":5194058,"name":"Borough of Homer City","admin3":"35408","localeAltName":null},{"geonameid":5194878,"name":"Borough of Indiana","admin3":"36816","localeAltName":null},{"geonameid":5199891,"name":"Borough of Marion Center","admin3":"47472"},{"geonameid":5201774,"name":"Township of Montgomery","admin3":"50624"},{"geonameid":5203736,"name":"Township of North Mahoning","admin3":"55184"},{"geonameid":5206269,"name":"Township of Pine","admin3":"60320","localeAltName":null},{"geonameid":5206653,"name":"Borough of Plumville","admin3":"61632"},{"geonameid":5207718,"name":"Township of Rayne","admin3":"63584"},{"geonameid":5210733,"name":"Borough of Saltsburg","admin3":"67648","localeAltName":null},{"geonameid":5211841,"name":"Borough of Shelocta","admin3":"70040"},{"geonameid":5212589,"name":"Borough of Smicksburg","admin3":"71256"},{"geonameid":5213054,"name":"Township of South Mahoning","admin3":"72304"},{"geonameid":5218147,"name":"Township of Washington","admin3":"81256"},{"geonameid":5218791,"name":"Township of West Mahoning","admin3":"83416"},{"geonameid":5218950,"name":"Township of West Wheatfield","admin3":"84184","localeAltName":null},{"geonameid":5219269,"name":"Township of White","admin3":"84472","localeAltName":null},{"geonameid":5220416,"name":"Township of Young","admin3":"87160"}],"alternateNames":[{"alternatenameId":2186547,"geonameid":6254927,"isoLanguage":"en","alternateName":"Pennsylvania","isPreferredName":true,"isShortName":true,"isColloquial":false,"isHistoric":false}]},"__N_SSG":true}