{"pageProps":{"locale":"en","admin2":{"geonameid":4997193,"name":"Ionia County","country":"US","admin1":"MI","admin2":"067","admin3":"","latitude":"42.9450900","longitude":"-85.0746000","localeAltName":null},"admin1":{"geonameid":5001836,"name":"Michigan","admin1":"MI","localeAltName":"Michigan"},"locations":[{"geonameid":4985552,"name":"Belding","admin3":"06900","localeAltName":null},{"geonameid":4997191,"name":"Ionia","admin3":"40860","localeAltName":null},{"geonameid":4998583,"name":"Lake Odessa","admin3":"60200","localeAltName":null},{"geonameid":5000388,"name":"Lyons","admin3":"49920","localeAltName":null},{"geonameid":5003038,"name":"Muir","admin3":"49920","localeAltName":null},{"geonameid":5006314,"name":"Portland","admin3":"65860","localeAltName":null},{"geonameid":5008971,"name":"Saranac","admin3":"09680","localeAltName":null}],"admin3":[{"geonameid":4985553,"name":"City of Belding","admin3":"06900","localeAltName":null},{"geonameid":4985752,"name":"Township of Berlin","admin3":"07700"},{"geonameid":4986662,"name":"Township of Boston","admin3":"09680","localeAltName":null},{"geonameid":4987946,"name":"Township of Campbell","admin3":"12840"},{"geonameid":4990315,"name":"Township of Danby","admin3":"19720"},{"geonameid":4991733,"name":"Township of Easton","admin3":"24220"},{"geonameid":4997199,"name":"City of Ionia","admin3":"40860","localeAltName":null},{"geonameid":4997200,"name":"Township of Ionia","admin3":"40880"},{"geonameid":4997879,"name":"Township of Keene","admin3":"42520"},{"geonameid":5000399,"name":"Township of Lyons","admin3":"49920","localeAltName":null},{"geonameid":5003842,"name":"Township of North Plains","admin3":"58720"},{"geonameid":5004312,"name":"Township of Odessa","admin3":"60200","localeAltName":null},{"geonameid":5004534,"name":"Township of Orange","admin3":"60920"},{"geonameid":5004577,"name":"Township of Orleans","admin3":"61160"},{"geonameid":5004655,"name":"Township of Otisco","admin3":"61580"},{"geonameid":5006319,"name":"City of Portland","admin3":"65860","localeAltName":null},{"geonameid":5006320,"name":"Township of Portland","admin3":"65880"},{"geonameid":5007533,"name":"Township of Ronald","admin3":"69440"},{"geonameid":5009321,"name":"Township of Sebewa","admin3":"72120"}],"alternateNames":[{"alternatenameId":2124820,"geonameid":5001836,"isoLanguage":"en","alternateName":"Michigan","isPreferredName":true,"isShortName":true,"isColloquial":false,"isHistoric":false}]},"__N_SSG":true}