{"pageProps":{"locale":"en","admin2":{"geonameid":5008112,"name":"Saint Clair County","country":"US","admin1":"MI","admin2":"147","admin3":"","latitude":"42.9311200","longitude":"-82.6643700","localeAltName":null},"admin1":{"geonameid":5001836,"name":"Michigan","admin1":"MI","localeAltName":"Michigan"},"locations":[{"geonameid":4983970,"name":"Algonac","admin3":"01180","localeAltName":null},{"geonameid":4984640,"name":"Avoca","admin3":"42740","localeAltName":null},{"geonameid":4987996,"name":"Capac","admin3":"56380","localeAltName":null},{"geonameid":5000873,"name":"Marine City","admin3":"51600","localeAltName":null},{"geonameid":5001084,"name":"Marysville","admin3":"52080","localeAltName":null},{"geonameid":5005178,"name":"Pearl Beach","admin3":"16180","localeAltName":null},{"geonameid":5006233,"name":"Port Huron","admin3":"65820","localeAltName":null},{"geonameid":5010977,"name":"Saint Clair","admin3":"70680","localeAltName":null},{"geonameid":5015627,"name":"Yale","admin3":"89000","localeAltName":null}],"admin3":[{"geonameid":4983974,"name":"City of Algonac","admin3":"01180","localeAltName":null},{"geonameid":4985753,"name":"Township of Berlin","admin3":"07760"},{"geonameid":4987042,"name":"Township of Brockway","admin3":"10820"},{"geonameid":4987481,"name":"Township of Burtchville","admin3":"12020"},{"geonameid":4988188,"name":"Township of Casco","admin3":"13720"},{"geonameid":4988738,"name":"Township of China","admin3":"15540"},{"geonameid":4989012,"name":"Township of Clay","admin3":"16180","localeAltName":null},{"geonameid":4989183,"name":"Township of Clyde","admin3":"16760"},{"geonameid":4989385,"name":"Township of Columbus","admin3":"17520"},{"geonameid":4989710,"name":"Township of Cottrellville","admin3":"18400"},{"geonameid":4991570,"name":"Township of East China","admin3":"23820"},{"geonameid":4992143,"name":"Township of Emmett","admin3":"25960"},{"geonameid":4993177,"name":"Charter Township of Fort Gratiot","admin3":"29760"},{"geonameid":4994451,"name":"Township of Grant","admin3":"34420"},{"geonameid":4994777,"name":"Township of Greenwood","admin3":"35220"},{"geonameid":4997208,"name":"Township of Ira","admin3":"40920"},{"geonameid":4997996,"name":"Township of Kenockee","admin3":"42740","localeAltName":null},{"geonameid":4998127,"name":"Township of Kimball","admin3":"43160"},{"geonameid":5000377,"name":"Township of Lynn","admin3":"49800"},{"geonameid":5000874,"name":"City of Marine City","admin3":"51600","localeAltName":null},{"geonameid":5001087,"name":"City of Marysville","admin3":"52080","localeAltName":null},{"geonameid":5003176,"name":"Township of Mussey","admin3":"56380","localeAltName":null},{"geonameid":5006239,"name":"City of Port Huron","admin3":"65820","localeAltName":null},{"geonameid":5006240,"name":"Charter Township of Port Huron","admin3":"65840"},{"geonameid":5007209,"name":"Township of Riley","admin3":"68620"},{"geonameid":5008111,"name":"City of Saint Clair","admin3":"70680","localeAltName":null},{"geonameid":5008133,"name":"Township of Saint Clair","admin3":"70700"},{"geonameid":5013914,"name":"Township of Wales","admin3":"82900"},{"geonameid":5015630,"name":"City of Yale","admin3":"89000","localeAltName":null}],"alternateNames":[{"alternatenameId":2124820,"geonameid":5001836,"isoLanguage":"en","alternateName":"Michigan","isPreferredName":true,"isShortName":true,"isColloquial":false,"isHistoric":false}]},"__N_SSG":true}