{"pageProps":{"locale":"en","admin2":{"geonameid":4262934,"name":"Perry County","country":"US","admin1":"IN","admin2":"123","admin3":"","latitude":"38.0796500","longitude":"-86.6380300","localeAltName":null},"admin1":{"geonameid":4921868,"name":"Indiana","admin1":"IN","localeAltName":"Indiana"},"locations":[{"geonameid":4255457,"name":"Cannelton","admin3":"76652","localeAltName":null},{"geonameid":4265717,"name":"Tell City","admin3":"76652","localeAltName":null}],"admin3":[{"geonameid":4253862,"name":"Township of Anderson","admin3":"01504"},{"geonameid":4255828,"name":"Township of Clark","admin3":"12808"},{"geonameid":4260296,"name":"Township of Leopold","admin3":"42894"},{"geonameid":4262480,"name":"Township of Oil","admin3":"56214"},{"geonameid":4265869,"name":"Township of Tobin","admin3":"76040"},{"geonameid":4265977,"name":"Township of Troy","admin3":"76652","localeAltName":null},{"geonameid":4266134,"name":"Township of Union","admin3":"77534"}],"alternateNames":[{"alternatenameId":2124819,"geonameid":4921868,"isoLanguage":"en","alternateName":"Indiana","isPreferredName":true,"isShortName":true,"isColloquial":false,"isHistoric":false}]},"__N_SSG":true}