{"pageProps":{"locale":"en","admin2":{"geonameid":4099869,"name":"Ashley County","country":"US","admin1":"AR","admin2":"003","admin3":"","latitude":"33.1912200","longitude":"-91.7684500","localeAltName":null},"admin1":{"geonameid":4099753,"name":"Arkansas","admin1":"AR","localeAltName":"Arkansas"},"locations":[{"geonameid":4107198,"name":"Crossett","admin3":"91212","localeAltName":null},{"geonameid":4113607,"name":"Hamburg","admin3":"90687","localeAltName":null},{"geonameid":4124039,"name":"North Crossett","admin3":"91212","localeAltName":null},{"geonameid":4135746,"name":"West Crossett","admin3":"91212","localeAltName":null},{"geonameid":4136688,"name":"Wilmot","admin3":"94077","localeAltName":null}],"admin3":[{"geonameid":4100270,"name":"Township of Banner","admin3":"90102"},{"geonameid":4100645,"name":"Township of Bayou","admin3":"90162"},{"geonameid":4100826,"name":"Township of Bearhouse","admin3":"90183"},{"geonameid":4101021,"name":"Township of Beech Creek","admin3":"90210"},{"geonameid":4104713,"name":"Township of Carter","admin3":"90687","localeAltName":null},{"geonameid":4107795,"name":"Township of De Bastrop","admin3":"91044"},{"geonameid":4109763,"name":"Township of Egypt","admin3":"91212","localeAltName":null},{"geonameid":4109963,"name":"Township of Elon","admin3":"91239"},{"geonameid":4110210,"name":"Township of Extra","admin3":"91263"},{"geonameid":4119811,"name":"Township of Longview","admin3":"92277"},{"geonameid":4120479,"name":"Township of Marais Saline","admin3":"92365"},{"geonameid":4121617,"name":"Township of Mill Creek","admin3":"92469"},{"geonameid":4122030,"name":"Township of Montrose","admin3":"92541"},{"geonameid":4127147,"name":"Township of Portland","admin3":"92964"},{"geonameid":4127396,"name":"Township of Prairie","admin3":"92976"},{"geonameid":4134446,"name":"Township of Union","admin3":"93666"},{"geonameid":4136304,"name":"Township of White","admin3":"93987"},{"geonameid":4136691,"name":"Township of Wilmot","admin3":"94077","localeAltName":null}],"alternateNames":[{"alternatenameId":1979420,"geonameid":4099753,"isoLanguage":"en","alternateName":"Arkansas","isPreferredName":true,"isShortName":true,"isColloquial":false,"isHistoric":false}]},"__N_SSG":true}