{"pageProps":{"locale":"en","admin2":{"geonameid":2746837,"name":"Gemeente Staphorst","country":"NL","admin1":"15","admin2":"0180","admin3":"","latitude":"52.6324100","longitude":"6.2073700"},"admin1":{"geonameid":2748838,"name":"Provincie Overijssel","admin1":"15"},"locations":[{"geonameid":6544888,"name":"De Leijen","admin3":""},{"geonameid":2754941,"name":"Halfweg","admin3":""},{"geonameid":2754904,"name":"Hamingen","admin3":""},{"geonameid":2753381,"name":"IJhorst","admin3":""},{"geonameid":2751882,"name":"Lankhorst","admin3":""},{"geonameid":2751817,"name":"Leenders","admin3":""},{"geonameid":2748417,"name":"Punthorst","admin3":""},{"geonameid":2747974,"name":"Rollecate","admin3":""},{"geonameid":2747879,"name":"Rouveen","admin3":""},{"geonameid":2747149,"name":"Slingenberg","admin3":""},{"geonameid":2746839,"name":"Staphorst","admin3":""}],"admin3":[],"alternateNames":[{"alternatenameId":11907794,"geonameid":2748838,"isoLanguage":"de","alternateName":"Overijssel","isPreferredName":true,"isShortName":true,"isColloquial":false,"isHistoric":false}]},"__N_SSG":true}