{"pageProps":{"locale":"en","admin2":{"geonameid":6544260,"name":"Gemeente Zwartewaterland","country":"NL","admin1":"15","admin2":"1896","admin3":"","latitude":"52.6024000","longitude":"6.0740200"},"admin1":{"geonameid":2748838,"name":"Provincie Overijssel","admin1":"15"},"locations":[{"geonameid":2759940,"name":"Afsched","admin3":""},{"geonameid":2759548,"name":"Baarlo","admin3":""},{"geonameid":2757974,"name":"Cellemuiden","admin3":""},{"geonameid":2756989,"name":"De Velde","admin3":""},{"geonameid":2755594,"name":"Genemuiden","admin3":""},{"geonameid":2755587,"name":"Genne","admin3":""},{"geonameid":2755586,"name":"Genne-Overwaters","admin3":""},{"geonameid":2754779,"name":"Hasselt","admin3":""},{"geonameid":2753873,"name":"Holten","admin3":""},{"geonameid":2753089,"name":"Kamperzeedijk-West","admin3":""},{"geonameid":2752851,"name":"Kievitsnest","admin3":""},{"geonameid":2751106,"name":"Mastenbroek","admin3":""},{"geonameid":2750212,"name":"Nieuwe Wetering","admin3":""},{"geonameid":2748016,"name":"Roebolligehoek","admin3":""},{"geonameid":2746615,"name":"Streukel","admin3":""},{"geonameid":2743524,"name":"Zwartewatersklooster","admin3":""},{"geonameid":2743518,"name":"Zwartsluis","admin3":""}],"admin3":[],"alternateNames":[{"alternatenameId":11907794,"geonameid":2748838,"isoLanguage":"de","alternateName":"Overijssel","isPreferredName":true,"isShortName":true,"isColloquial":false,"isHistoric":false}]},"__N_SSG":true}