{"pageProps":{"locale":"en","admin2":{"geonameid":4813754,"name":"Marion County","country":"US","admin1":"WV","admin2":"049","admin3":"","latitude":"39.5100000","longitude":"-80.2434000","localeAltName":null},"admin1":{"geonameid":4826850,"name":"West Virginia","admin1":"WV","localeAltName":"West Virginia"},"locations":[{"geonameid":4797975,"name":"Barrackville","admin3":"","localeAltName":null},{"geonameid":4805404,"name":"Fairmont","admin3":"","localeAltName":null},{"geonameid":4807374,"name":"Grant Town","admin3":"","localeAltName":null},{"geonameid":4809644,"name":"Idamay","admin3":"","localeAltName":null},{"geonameid":4813666,"name":"Mannington","admin3":"","localeAltName":null},{"geonameid":4815200,"name":"Monongah","admin3":"","localeAltName":null},{"geonameid":4817780,"name":"Paw Paw","admin3":"","localeAltName":null},{"geonameid":4818573,"name":"Pleasant Valley","admin3":"","localeAltName":null},{"geonameid":4820129,"name":"Rivesville","admin3":"","localeAltName":null},{"geonameid":4827113,"name":"White Hall","admin3":"","localeAltName":null}],"admin3":[],"alternateNames":[{"alternatenameId":2124822,"geonameid":4826850,"isoLanguage":"en","alternateName":"West Virginia","isPreferredName":true,"isShortName":true,"isColloquial":false,"isHistoric":false}]},"__N_SSG":true}