{"pageProps":{"locale":"en","admin2":{"geonameid":4849598,"name":"Buchanan County","country":"US","admin1":"IA","admin2":"019","admin3":"","latitude":"42.4707800","longitude":"-91.8378400"},"admin1":{"geonameid":4862182,"name":"Iowa","admin1":"IA","localeAltName":"Iowa"},"locations":[{"geonameid":4855951,"name":"Fairbank","admin3":"91266"},{"geonameid":4861620,"name":"Independence","admin3":"94047"},{"geonameid":4862645,"name":"Jesup","admin3":"93294"}],"admin3":[{"geonameid":4849755,"name":"Township of Buffalo","admin3":"90384"},{"geonameid":4849978,"name":"Township of Byron","admin3":"90432"},{"geonameid":4852515,"name":"Township of Cono","admin3":"90816"},{"geonameid":4855957,"name":"Township of Fairbank","admin3":"91266"},{"geonameid":4857823,"name":"Township of Fremont","admin3":"91461"},{"geonameid":4860211,"name":"Township of Hazleton","admin3":"91902"},{"geonameid":4861003,"name":"Township of Homer","admin3":"91977"},{"geonameid":4862542,"name":"Township of Jefferson","admin3":"92208"},{"geonameid":4864635,"name":"Township of Liberty","admin3":"92439"},{"geonameid":4865857,"name":"Township of Madison","admin3":"92751"},{"geonameid":4867290,"name":"Township of Middlefield","admin3":"92919"},{"geonameid":4868927,"name":"Township of Newton","admin3":"93096"},{"geonameid":4871045,"name":"Township of Perry","admin3":"93294"},{"geonameid":4877921,"name":"Township of Sumner","admin3":"94047"},{"geonameid":4880827,"name":"Township of Washington","admin3":"94458"},{"geonameid":4881585,"name":"Township of Westburg","admin3":"94656"}],"alternateNames":[{"alternatenameId":1980290,"geonameid":4862182,"isoLanguage":"en","alternateName":"Iowa","isPreferredName":true,"isShortName":true,"isColloquial":false,"isHistoric":false}]},"__N_SSG":true}