{"pageProps":{"locale":"en","admin2":{"geonameid":4851093,"name":"Cerro Gordo County","country":"US","admin1":"IA","admin2":"033","admin3":"","latitude":"43.0815600","longitude":"-93.2608200"},"admin1":{"geonameid":4862182,"name":"Iowa","admin1":"IA","localeAltName":"Iowa"},"locations":[{"geonameid":4851935,"name":"Clear Lake","admin3":"90720"},{"geonameid":4866445,"name":"Mason City","admin3":"92890"},{"geonameid":4873424,"name":"Rockwell","admin3":"91551"}],"admin3":[{"geonameid":4847817,"name":"Township of Bath","admin3":"90135"},{"geonameid":4851952,"name":"City of Clear Lake","admin3":"90720"},{"geonameid":4851953,"name":"Township of Clear Lake","admin3":"90721"},{"geonameid":4854252,"name":"Township of Dougherty","admin3":"91017"},{"geonameid":4856218,"name":"Township of Falls","admin3":"91308"},{"geonameid":4858208,"name":"Township of Geneseo","admin3":"91551"},{"geonameid":4859020,"name":"Township of Grant","admin3":"91641"},{"geonameid":4859342,"name":"Township of Grimes","admin3":"91773"},{"geonameid":4864032,"name":"Township of Lake","admin3":"92346"},{"geonameid":4864727,"name":"Township of Lime Creek","admin3":"92508"},{"geonameid":4864847,"name":"Township of Lincoln","admin3":"92538"},{"geonameid":4866446,"name":"City of Mason City","admin3":"92890"},{"geonameid":4866514,"name":"Township of Mason","admin3":"92886"},{"geonameid":4868267,"name":"Township of Mount Vernon","admin3":"93042"},{"geonameid":4870503,"name":"Township of Owen","admin3":"93246"},{"geonameid":4871601,"name":"Township of Pleasant Valley","admin3":"93408"},{"geonameid":4871862,"name":"Township of Portland","admin3":"93456"},{"geonameid":4879413,"name":"Township of Union","admin3":"94188"}],"alternateNames":[{"alternatenameId":1980290,"geonameid":4862182,"isoLanguage":"en","alternateName":"Iowa","isPreferredName":true,"isShortName":true,"isColloquial":false,"isHistoric":false}]},"__N_SSG":true}