{"pageProps":{"locale":"en","admin2":{"geonameid":4852032,"name":"Clinton County","country":"US","admin1":"IA","admin2":"045","admin3":"","latitude":"41.8980400","longitude":"-90.5319700"},"admin1":{"geonameid":4862182,"name":"Iowa","admin1":"IA","localeAltName":"Iowa"},"locations":[{"geonameid":4850204,"name":"Camanche","admin3":"90450"},{"geonameid":4852022,"name":"Clinton","admin3":"90736"},{"geonameid":4853551,"name":"De Witt","admin3":"90993"}],"admin3":[{"geonameid":4848875,"name":"Township of Bloomfield","admin3":"90267"},{"geonameid":4849444,"name":"Township of Brookfield","admin3":"90354"},{"geonameid":4850213,"name":"Township of Camanche","admin3":"90450"},{"geonameid":4850941,"name":"Township of Center","admin3":"90591"},{"geonameid":4852053,"name":"City of Clinton","admin3":"90736"},{"geonameid":4853561,"name":"Township of De Witt","admin3":"90993"},{"geonameid":4853640,"name":"Township of Deep Creek","admin3":"90927"},{"geonameid":4855094,"name":"Township of Eden","admin3":"91137"},{"geonameid":4855326,"name":"Township of Elk River","admin3":"91194"},{"geonameid":4859021,"name":"Township of Grant","admin3":"91644"},{"geonameid":4859655,"name":"Township of Hampshire","admin3":"91818"},{"geonameid":4864638,"name":"Township of Liberty","admin3":"92448"},{"geonameid":4869958,"name":"Township of Olive","admin3":"93171"},{"geonameid":4870103,"name":"Township of Orange","admin3":"93189"},{"geonameid":4876073,"name":"Township of Sharon","admin3":"93828"},{"geonameid":4877302,"name":"Township of Spring Rock","admin3":"93990"},{"geonameid":4880834,"name":"Township of Washington","admin3":"94479"},{"geonameid":4880888,"name":"Township of Waterford","admin3":"94593"},{"geonameid":4881195,"name":"Township of Welton","admin3":"94641"}],"alternateNames":[{"alternatenameId":1980290,"geonameid":4862182,"isoLanguage":"en","alternateName":"Iowa","isPreferredName":true,"isShortName":true,"isColloquial":false,"isHistoric":false}]},"__N_SSG":true}