{"pageProps":{"locale":"en","admin2":{"geonameid":4853012,"name":"Crawford County","country":"US","admin1":"IA","admin2":"047","admin3":"","latitude":"42.0372100","longitude":"-95.3819700"},"admin1":{"geonameid":4862182,"name":"Iowa","admin1":"IA","localeAltName":"Iowa"},"locations":[{"geonameid":4853757,"name":"Denison","admin3":"90960"}],"admin3":[{"geonameid":4849187,"name":"Township of Boyer","admin3":"90315"},{"geonameid":4851198,"name":"Township of Charter Oak","admin3":"90648"},{"geonameid":4853773,"name":"Township of Denison","admin3":"90960"},{"geonameid":4854837,"name":"Township of East Boyer","admin3":"91107"},{"geonameid":4858614,"name":"Township of Goodrich","admin3":"91587"},{"geonameid":4859722,"name":"Township of Hanover","admin3":"91827"},{"geonameid":4860163,"name":"Township of Hayes","admin3":"91890"},{"geonameid":4862186,"name":"Township of Iowa","admin3":"92058"},{"geonameid":4862366,"name":"Township of Jackson","admin3":"92109"},{"geonameid":4867383,"name":"Township of Milford","admin3":"92928"},{"geonameid":4867931,"name":"Township of Morgan","admin3":"93003"},{"geonameid":4868989,"name":"Township of Nishnabotny","admin3":"93114"},{"geonameid":4870350,"name":"Township of Otter Creek","admin3":"93231"},{"geonameid":4870687,"name":"Township of Paradise","admin3":"93270"},{"geonameid":4876851,"name":"Township of Soldier","admin3":"93936"},{"geonameid":4877595,"name":"Township of Stockholm","admin3":"94017"},{"geonameid":4879414,"name":"Township of Union","admin3":"94191"},{"geonameid":4880835,"name":"Township of Washington","admin3":"94482"},{"geonameid":4881537,"name":"Township of West Side","admin3":"94701"},{"geonameid":4882105,"name":"Township of Willow","admin3":"94743"}],"alternateNames":[{"alternatenameId":1980290,"geonameid":4862182,"isoLanguage":"en","alternateName":"Iowa","isPreferredName":true,"isShortName":true,"isColloquial":false,"isHistoric":false}]},"__N_SSG":true}