{"pageProps":{"locale":"en","admin2":{"geonameid":4862800,"name":"Jones County","country":"US","admin1":"IA","admin2":"105","admin3":"","latitude":"42.1212400","longitude":"-91.1314400"},"admin1":{"geonameid":4862182,"name":"Iowa","admin1":"IA","localeAltName":"Iowa"},"locations":[{"geonameid":4846880,"name":"Anamosa","admin3":"91296"},{"geonameid":4867801,"name":"Monticello","admin3":"92725"}],"admin3":[{"geonameid":4850603,"name":"Township of Cass","admin3":"90510"},{"geonameid":4850629,"name":"Township of Castle Grove","admin3":"90519"},{"geonameid":4851882,"name":"Township of Clay","admin3":"90684"},{"geonameid":4856101,"name":"Township of Fairview","admin3":"91296"},{"geonameid":4859251,"name":"Township of Greenfield","admin3":"91761"},{"geonameid":4859575,"name":"Township of Hale","admin3":"91803"},{"geonameid":4862374,"name":"Township of Jackson","admin3":"92133"},{"geonameid":4865532,"name":"Township of Lovell","admin3":"92725"},{"geonameid":4865863,"name":"Township of Madison","admin3":"92769"},{"geonameid":4870527,"name":"Township of Oxford","admin3":"93252"},{"geonameid":4872941,"name":"Township of Richland","admin3":"93600"},{"geonameid":4873538,"name":"Township of Rome","admin3":"93687"},{"geonameid":4875772,"name":"Township of Scotch Grove","admin3":"93765"},{"geonameid":4880847,"name":"Township of Washington","admin3":"94518"},{"geonameid":4881071,"name":"Township of Wayne","admin3":"94611"},{"geonameid":4882588,"name":"Township of Wyoming","admin3":"94794"}],"alternateNames":[{"alternatenameId":1980290,"geonameid":4862182,"isoLanguage":"en","alternateName":"Iowa","isPreferredName":true,"isShortName":true,"isColloquial":false,"isHistoric":false}]},"__N_SSG":true}