{"pageProps":{"locale":"en","admin2":{"geonameid":4863357,"name":"Keokuk County","country":"US","admin1":"IA","admin2":"107","admin3":"","latitude":"41.3364600","longitude":"-92.1786400"},"admin1":{"geonameid":4862182,"name":"Iowa","admin1":"IA","localeAltName":"Iowa"},"locations":[{"geonameid":4876384,"name":"Sigourney","admin3":"93888"}],"admin3":[{"geonameid":4846381,"name":"Township of Adams","admin3":"90009"},{"geonameid":4848252,"name":"Township of Benton","admin3":"90213"},{"geonameid":4851932,"name":"Township of Clear Creek","admin3":"90717"},{"geonameid":4854927,"name":"Township of East Lancaster","admin3":"91113"},{"geonameid":4855629,"name":"Township of English River","admin3":"91233"},{"geonameid":4862375,"name":"Township of Jackson","admin3":"92136"},{"geonameid":4863882,"name":"Township of Lafayette","admin3":"92337"},{"geonameid":4864644,"name":"Township of Liberty","admin3":"92466"},{"geonameid":4871396,"name":"Township of Plank","admin3":"93342"},{"geonameid":4872057,"name":"Township of Prairie","admin3":"93489"},{"geonameid":4872942,"name":"Township of Richland","admin3":"93603"},{"geonameid":4876399,"name":"Township of Sigourney","admin3":"93888"},{"geonameid":4877502,"name":"Township of Steady Run","admin3":"94014"},{"geonameid":4880014,"name":"Township of Van Buren","admin3":"94317"},{"geonameid":4880711,"name":"Township of Warren","admin3":"94428"},{"geonameid":4880848,"name":"Township of Washington","admin3":"94521"},{"geonameid":4881427,"name":"Township of West Lancaster","admin3":"94680"}],"alternateNames":[{"alternatenameId":1980290,"geonameid":4862182,"isoLanguage":"en","alternateName":"Iowa","isPreferredName":true,"isShortName":true,"isColloquial":false,"isHistoric":false}]},"__N_SSG":true}