{"pageProps":{"locale":"en","admin2":{"geonameid":4869475,"name":"O'Brien County","country":"US","admin1":"IA","admin2":"141","admin3":"","latitude":"43.0837500","longitude":"-95.6248800"},"admin1":{"geonameid":4862182,"name":"Iowa","admin1":"IA","localeAltName":"Iowa"},"locations":[{"geonameid":4859950,"name":"Hartley","admin3":"91884"},{"geonameid":4870823,"name":"Paullina","admin3":"94251"},{"geonameid":4875489,"name":"Sanborn","admin3":"91422"},{"geonameid":4876141,"name":"Sheldon","admin3":"91356"}],"admin3":[{"geonameid":4847624,"name":"Township of Baker","admin3":"90108"},{"geonameid":4850028,"name":"Township of Caledonia","admin3":"90438"},{"geonameid":4850506,"name":"Township of Carroll","admin3":"90477"},{"geonameid":4850950,"name":"Township of Center","admin3":"90618"},{"geonameid":4853320,"name":"Township of Dale","admin3":"90876"},{"geonameid":4857335,"name":"Township of Floyd","admin3":"91356"},{"geonameid":4857703,"name":"Township of Franklin","admin3":"91422"},{"geonameid":4859034,"name":"Township of Grant","admin3":"91683"},{"geonameid":4859956,"name":"Township of Hartley","admin3":"91884"},{"geonameid":4860618,"name":"Township of Highland","admin3":"91938"},{"geonameid":4864649,"name":"Township of Liberty","admin3":"92481"},{"geonameid":4864862,"name":"Township of Lincoln","admin3":"92583"},{"geonameid":4870000,"name":"Township of Omega","admin3":"93174"},{"geonameid":4877904,"name":"Township of Summit","admin3":"94044"},{"geonameid":4879434,"name":"Township of Union","admin3":"94251"},{"geonameid":4880916,"name":"Township of Waterman","admin3":"94599"}],"alternateNames":[{"alternatenameId":1980290,"geonameid":4862182,"isoLanguage":"en","alternateName":"Iowa","isPreferredName":true,"isShortName":true,"isColloquial":false,"isHistoric":false}]},"__N_SSG":true}