{"pageProps":{"locale":"en","admin2":{"geonameid":4871919,"name":"Poweshiek County","country":"US","admin1":"IA","admin2":"157","admin3":"","latitude":"41.6864400","longitude":"-92.5314700"},"admin1":{"geonameid":4862182,"name":"Iowa","admin1":"IA","localeAltName":"Iowa"},"locations":[{"geonameid":4849448,"name":"Brooklyn","admin3":"90141"},{"geonameid":4859343,"name":"Grinnell","admin3":"91774"},{"geonameid":4867775,"name":"Montezuma","admin3":"92154"}],"admin3":[{"geonameid":4847932,"name":"Township of Bear Creek","admin3":"90141"},{"geonameid":4851291,"name":"Township of Chester","admin3":"90660"},{"geonameid":4853648,"name":"Township of Deep River","admin3":"90930"},{"geonameid":4859038,"name":"Township of Grant","admin3":"91695"},{"geonameid":4859362,"name":"City of Grinnell","admin3":"91774"},{"geonameid":4862381,"name":"Township of Jackson","admin3":"92154"},{"geonameid":4862556,"name":"Township of Jefferson","admin3":"92250"},{"geonameid":4864868,"name":"Township of Lincoln","admin3":"92601"},{"geonameid":4865868,"name":"Township of Madison","admin3":"92784"},{"geonameid":4865939,"name":"Township of Malcom","admin3":"92805"},{"geonameid":4871636,"name":"Township of Pleasant","admin3":"93375"},{"geonameid":4875815,"name":"Township of Scott","admin3":"93801"},{"geonameid":4876223,"name":"Township of Sheridan","admin3":"93846"},{"geonameid":4877838,"name":"Township of Sugar Creek","admin3":"94026"},{"geonameid":4879437,"name":"Township of Union","admin3":"94260"},{"geonameid":4880713,"name":"Township of Warren","admin3":"94434"},{"geonameid":4880859,"name":"Township of Washington","admin3":"94554"}],"alternateNames":[{"alternatenameId":1980290,"geonameid":4862182,"isoLanguage":"en","alternateName":"Iowa","isPreferredName":true,"isShortName":true,"isColloquial":false,"isHistoric":false}]},"__N_SSG":true}