{"pageProps":{"locale":"en","admin1":{"geonameid":5883102,"name":"Alberta","country":"CA","admin1":"01","latitude":"52.2833300","longitude":"-117.4690000"},"admin2":[{"geonameid":11807378,"name":"Acme","admin2":"4805044"},{"geonameid":11807191,"name":"Airdrie","admin2":"4806021"},{"geonameid":11807388,"name":"Alberta Beach","admin2":"4813012"},{"geonameid":11807419,"name":"Alix","admin2":"4808034"},{"geonameid":11807394,"name":"Alliance","admin2":"4807032"},{"geonameid":11807393,"name":"Amisk","admin2":"4807008"},{"geonameid":11807425,"name":"Andrew","admin2":"4810059"},{"geonameid":11807328,"name":"Argentia Beach","admin2":"4811003"},{"geonameid":11807306,"name":"Arrowwood","admin2":"4805011"},{"geonameid":11807291,"name":"Athabasca","admin2":"4813048"},{"geonameid":11807288,"name":"Banff","admin2":"4815035"},{"geonameid":11807418,"name":"Barnwell","admin2":"4802023"},{"geonameid":11807385,"name":"Barons","admin2":"4802016"},{"geonameid":11807247,"name":"Barrhead","admin2":"4813019"},{"geonameid":11807266,"name":"Bashaw","admin2":"4810002"},{"geonameid":11807313,"name":"Bassano","admin2":"4802039"},{"geonameid":11807384,"name":"Bawlf","admin2":"4810009"},{"geonameid":11807214,"name":"Beaumont","admin2":"4811013"},{"geonameid":5896654,"name":"Beaver County","admin2":"4810016"},{"geonameid":11807253,"name":"Beaverlodge","admin2":"4819009"},{"geonameid":11807389,"name":"Beiseker","admin2":"4806024"},{"geonameid":11807233,"name":"Bentley","admin2":"4808026"},{"geonameid":11807429,"name":"Berwyn","admin2":"4819072"},{"geonameid":11807341,"name":"Betula Beach","admin2":"4811039"},{"geonameid":11807283,"name":"Big Valley","admin2":"4807021"},{"geonameid":11807338,"name":"Birch Cove","admin2":"4813013"},{"geonameid":5901449,"name":"Birch Hills County","admin2":"4819049"},{"geonameid":11807347,"name":"Birchcliff","admin2":"4808023"},{"geonameid":11807412,"name":"Bittern Lake","admin2":"4810012"},{"geonameid":11807316,"name":"Black Diamond","admin2":"4806011"},{"geonameid":11807234,"name":"Blackfalds","admin2":"4808029"},{"geonameid":11807224,"name":"Bon Accord","admin2":"4811066"},{"geonameid":11807370,"name":"Bondiss","admin2":"4813053"},{"geonameid":11807310,"name":"Bonnyville","admin2":"4812009"},{"geonameid":11807323,"name":"Bonnyville Beach","admin2":"4812011"},{"geonameid":11807408,"name":"Botha","admin2":"4807024"},{"geonameid":11807245,"name":"Bow Island","admin2":"4801014"},{"geonameid":11807299,"name":"Bowden","admin2":"4808006"},{"geonameid":11807190,"name":"Boyle","admin2":"4813046"},{"geonameid":5908165,"name":"Brazeau County","admin2":"4811032"},{"geonameid":11807414,"name":"Breton","admin2":"4811026"},{"geonameid":11807203,"name":"Brooks","admin2":"4802034"},{"geonameid":11807259,"name":"Bruderheim","admin2":"4810066"},{"geonameid":11807375,"name":"Burnstick Lake","admin2":"4809005"},{"geonameid":11807181,"name":"Calgary","admin2":"4806016"},{"geonameid":11807269,"name":"Calmar","admin2":"4811019"},{"geonameid":11807199,"name":"Camrose","admin2":"4810011"},{"geonameid":11807228,"name":"Canmore","admin2":"4815023"},{"geonameid":11807377,"name":"Carbon","admin2":"4805042"},{"geonameid":11807311,"name":"Cardston","admin2":"4803004"},{"geonameid":5916822,"name":"Cardston County","admin2":"4803001"},{"geonameid":11807358,"name":"Carmangay","admin2":"4805002"},{"geonameid":11807441,"name":"Caroline","admin2":"4809010"},{"geonameid":11807241,"name":"Carstairs","admin2":"4806029"},{"geonameid":11807333,"name":"Castle Island","admin2":"4813009"},{"geonameid":11807262,"name":"Castor","admin2":"4807014"},{"geonameid":11807399,"name":"Cereal","admin2":"4804016"},{"geonameid":11807403,"name":"Champion","admin2":"4805004"},{"geonameid":11807444,"name":"Chauvin","admin2":"4807051"},{"geonameid":11807212,"name":"Chestermere","admin2":"4806017"},{"geonameid":11807426,"name":"Chipman","admin2":"4810062"},{"geonameid":11807240,"name":"Claresholm","admin2":"4803022"},{"geonameid":5923679,"name":"Clearwater County","admin2":"4809002"},{"geonameid":11807417,"name":"Clive","admin2":"4808032"},{"geonameid":11807427,"name":"Clyde","admin2":"4813032"},{"geonameid":11807192,"name":"Coaldale","admin2":"4802019"},{"geonameid":11807250,"name":"Coalhurst","admin2":"4802013"},{"geonameid":11807254,"name":"Cochrane","admin2":"4806019"},{"geonameid":11807217,"name":"Cold Lake","admin2":"4812002"},{"geonameid":11807402,"name":"Consort","admin2":"4804022"},{"geonameid":11807222,"name":"Coronation","admin2":"4807012"},{"geonameid":5928928,"name":"County of Athabasca No. 12","admin2":"4813044"},{"geonameid":5928929,"name":"County of Barrhead No. 11","admin2":"4813018"},{"geonameid":5928930,"name":"County of Camrose No. 22","admin2":"4810001"},{"geonameid":5928931,"name":"County of Forty Mile No. 8","admin2":"4801008"},{"geonameid":5928932,"name":"County of Grande Prairie No. 1","admin2":"4819006"},{"geonameid":5928933,"name":"County of Lethbridge No. 26","admin2":"4802011"},{"geonameid":5928934,"name":"County of Minburn No. 27","admin2":"4810026"},{"geonameid":5928935,"name":"County of Newell No. 4","admin2":"4802031"},{"geonameid":5928936,"name":"County of Paintearth No. 18","admin2":"4807011"},{"geonameid":5928938,"name":"County of St. Paul No. 19","admin2":"4812014"},{"geonameid":5928937,"name":"County of Stettler No. 6","admin2":"4807019"},{"geonameid":5928939,"name":"County of Thorhild No. 7","admin2":"4813036"},{"geonameid":5928940,"name":"County of Two Hills No. 21","admin2":"4810048"},{"geonameid":5928941,"name":"County of Vermilion River No. 24","admin2":"4810036"},{"geonameid":5928942,"name":"County of Warner No. 5","admin2":"4802001"},{"geonameid":5928943,"name":"County of Wetaskiwin No. 10","admin2":"4811001"},{"geonameid":11807366,"name":"Coutts","admin2":"4802002"},{"geonameid":11807216,"name":"Cowley","admin2":"4803016"},{"geonameid":11807287,"name":"Cremona","admin2":"4806031"},{"geonameid":11807195,"name":"Crossfield","admin2":"4806026"},{"geonameid":11791395,"name":"Crowsnest Pass","admin2":"4815007"},{"geonameid":11807363,"name":"Crystal Springs","admin2":"4811006"},{"geonameid":5934408,"name":"Cypress County","admin2":"4801003"},{"geonameid":11807198,"name":"Czar","admin2":"4807004"},{"geonameid":11807326,"name":"Daysland","admin2":"4807039"},{"geonameid":11807434,"name":"Delburne","admin2":"4808004"},{"geonameid":11807255,"name":"Delia","admin2":"4805034"},{"geonameid":11807268,"name":"Devon","admin2":"4811018"},{"geonameid":11807420,"name":"Dewberry","admin2":"4810046"},{"geonameid":11807237,"name":"Didsbury","admin2":"4806032"},{"geonameid":11807371,"name":"Donalda","admin2":"4807029"},{"geonameid":11807431,"name":"Donnelly","admin2":"4819044"},{"geonameid":11807271,"name":"Drayton Valley","admin2":"4811031"},{"geonameid":11807264,"name":"Drumheller","admin2":"4805026"},{"geonameid":11807260,"name":"Duchess","admin2":"4802036"},{"geonameid":11807232,"name":"Eckville","admin2":"4808024"},{"geonameid":11807411,"name":"Edberg","admin2":"4810006"},{"geonameid":11807445,"name":"Edgerton","admin2":"4807052"},{"geonameid":11807182,"name":"Edmonton","admin2":"4811061"},{"geonameid":11807189,"name":"Edson","admin2":"4814024"},{"geonameid":11807196,"name":"Elk Point","admin2":"4812016"},{"geonameid":11807433,"name":"Elnora","admin2":"4808002"},{"geonameid":11807435,"name":"Empress","admin2":"4804006"},{"geonameid":11807297,"name":"Fairview","admin2":"4819068"},{"geonameid":11807226,"name":"Falher","admin2":"4819046"},{"geonameid":11807410,"name":"Ferintosh","admin2":"4810004"},{"geonameid":5954111,"name":"Flagstaff County","admin2":"4807031"},{"geonameid":11807395,"name":"Foremost","admin2":"4801009"},{"geonameid":11807442,"name":"Forestburg","admin2":"4807036"},{"geonameid":11807239,"name":"Fort Macleod","admin2":"4803019"},{"geonameid":11807207,"name":"Fort Saskatchewan","admin2":"4811056"},{"geonameid":11807289,"name":"Fox Creek","admin2":"4818002"},{"geonameid":11807407,"name":"Gadsby","admin2":"4807022"},{"geonameid":11807345,"name":"Ghost Lake","admin2":"4815027"},{"geonameid":11807242,"name":"Gibbons","admin2":"4811064"},{"geonameid":11807428,"name":"Girouxville","admin2":"4819048"},{"geonameid":11807391,"name":"Glendon","admin2":"4812012"},{"geonameid":11807439,"name":"Glenwood","admin2":"4803006"},{"geonameid":11807357,"name":"Golden Days","admin2":"4811023"},{"geonameid":11807290,"name":"Grande Cache","admin2":"4818005"},{"geonameid":11807208,"name":"Grande Prairie","admin2":"4819012"},{"geonameid":11807374,"name":"Grandview","admin2":"4811004"},{"geonameid":11807187,"name":"Granum","admin2":"4803021"},{"geonameid":11807298,"name":"Grimshaw","admin2":"4819074"},{"geonameid":11807317,"name":"Gull Lake","admin2":"4808028"},{"geonameid":11807348,"name":"Half Moon Bay","admin2":"4808025"},{"geonameid":11807273,"name":"Halkirk","admin2":"4807016"},{"geonameid":11807300,"name":"Hanna","admin2":"4804011"},{"geonameid":11807329,"name":"Hardisty","admin2":"4807048"},{"geonameid":11807413,"name":"Hay Lakes","admin2":"4810014"},{"geonameid":11807443,"name":"Heisler","admin2":"4807038"},{"geonameid":11807294,"name":"High Level","admin2":"4817093"},{"geonameid":11807286,"name":"High Prairie","admin2":"4817021"},{"geonameid":11807309,"name":"High River","admin2":"4806006"},{"geonameid":11807440,"name":"Hill Spring","admin2":"4803008"},{"geonameid":11807437,"name":"Hines Creek","admin2":"4817064"},{"geonameid":11807235,"name":"Hinton","admin2":"4814019"},{"geonameid":11807421,"name":"Holden","admin2":"4810021"},{"geonameid":11807339,"name":"Horseshoe Bay","admin2":"4812020"},{"geonameid":11807380,"name":"Hughenden","admin2":"4807006"},{"geonameid":11807387,"name":"Hussar","admin2":"4805019"},{"geonameid":11807430,"name":"Hythe","admin2":"4819008"},{"geonameid":5982630,"name":"Improvement District No. 12","admin2":"4815037"},{"geonameid":5982631,"name":"Improvement District No. 13","admin2":"4810068"},{"geonameid":5982632,"name":"Improvement District No. 24","admin2":"4816051"},{"geonameid":5982633,"name":"Improvement District No. 25","admin2":"4814028"},{"geonameid":11807447,"name":"Improvement District No. 349","admin2":"4812038"},{"geonameid":5982634,"name":"Improvement District No. 4","admin2":"4803003"},{"geonameid":5982635,"name":"Improvement District No. 9","admin2":"4815032"},{"geonameid":11807307,"name":"Innisfail","admin2":"4808008"},{"geonameid":11807390,"name":"Innisfree","admin2":"4810031"},{"geonameid":11807446,"name":"Irma","admin2":"4807056"},{"geonameid":11807194,"name":"Irricana","admin2":"4806022"},{"geonameid":11807368,"name":"Island Lake","admin2":"4813049"},{"geonameid":11807369,"name":"Island Lake South","admin2":"4813051"},{"geonameid":11807364,"name":"Itaska Beach","admin2":"4811022"},{"geonameid":11807372,"name":"Jarvis Bay","admin2":"4808005"},{"geonameid":5985919,"name":"Jasper","admin2":"4815033"},{"geonameid":5989103,"name":"Kananaskis Improvement District","admin2":"4815013"},{"geonameid":11807355,"name":"Kapasiwin","admin2":"4811044"},{"geonameid":11807327,"name":"Killam","admin2":"4807042"},{"geonameid":11807422,"name":"Kitscoty","admin2":"4810041"},{"geonameid":5993556,"name":"Kneehill County","admin2":"4805041"},{"geonameid":11791378,"name":"Lac la Biche County","admin2":"4812037"},{"geonameid":6043472,"name":"Lac Ste. Anne County","admin2":"4813001"},{"geonameid":11807200,"name":"Lacombe","admin2":"4808031"},{"geonameid":6035617,"name":"Lacombe County","admin2":"4808022"},{"geonameid":11807353,"name":"Lakeview","admin2":"4811042"},{"geonameid":11807279,"name":"Lamont","admin2":"4810064"},{"geonameid":6049063,"name":"Lamont County","admin2":"4810058"},{"geonameid":11807248,"name":"Larkspur","admin2":"4813033"},{"geonameid":11807201,"name":"Leduc","admin2":"4811016"},{"geonameid":6051564,"name":"Leduc County","admin2":"4811012"},{"geonameid":11807285,"name":"Legal","admin2":"4811069"},{"geonameid":11807184,"name":"Lethbridge","admin2":"4802012"},{"geonameid":11807379,"name":"Linden","admin2":"4805046"},{"geonameid":11807197,"name":"Lloydminster","admin2":"4810039"},{"geonameid":11807405,"name":"Lomond","admin2":"4805008"},{"geonameid":11807438,"name":"Longview","admin2":"4806008"},{"geonameid":11807386,"name":"Lougheed","admin2":"4807046"},{"geonameid":11807336,"name":"Ma-Me-O Beach","admin2":"4811008"},{"geonameid":6153332,"name":"Mackenzie County","admin2":"4817095"},{"geonameid":11807314,"name":"Magrath","admin2":"4803002"},{"geonameid":11807293,"name":"Manning","admin2":"4817078"},{"geonameid":11807396,"name":"Mannville","admin2":"4810034"},{"geonameid":11807423,"name":"Marwayne","admin2":"4810044"},{"geonameid":11807218,"name":"Mayerthorpe","admin2":"4813002"},{"geonameid":11807304,"name":"McLennan","admin2":"4819042"},{"geonameid":11807183,"name":"Medicine Hat","admin2":"4801006"},{"geonameid":11807361,"name":"Mewatha Beach","admin2":"4813045"},{"geonameid":11807270,"name":"Milk River","admin2":"4802004"},{"geonameid":11807211,"name":"Millet","admin2":"4811011"},{"geonameid":11807406,"name":"Milo","admin2":"4805009"},{"geonameid":11807284,"name":"Morinville","admin2":"4811068"},{"geonameid":11807267,"name":"Morrin","admin2":"4805038"},{"geonameid":6079662,"name":"Mountain View County","admin2":"4806028"},{"geonameid":11807278,"name":"Mundare","admin2":"4810061"},{"geonameid":6084201,"name":"Municipal District of Acadia No. 34","admin2":"4804001"},{"geonameid":6084203,"name":"Municipal District of Big Lakes No. 125","admin2":"4817027"},{"geonameid":6084202,"name":"Municipal District of Bighorn No. 8","admin2":"4815015"},{"geonameid":6084204,"name":"Municipal District of Bonnyville No. 87","admin2":"4812004"},{"geonameid":6084205,"name":"Municipal District of Clear Hills No. 21","admin2":"4817062"},{"geonameid":6084206,"name":"Municipal District of Fairview No. 136","admin2":"4819066"},{"geonameid":6084207,"name":"Municipal District of Foothills No. 31","admin2":"4806001"},{"geonameid":6084208,"name":"Municipal District of Greenview No. 16","admin2":"4818015"},{"geonameid":6084209,"name":"Municipal District of Lesser Slave River No. 124","admin2":"4817033"},{"geonameid":6084210,"name":"Municipal District of Northern Lights No. 22","admin2":"4817076"},{"geonameid":6084211,"name":"Municipal District of Opportunity No. 17","admin2":"4817031"},{"geonameid":6084212,"name":"Municipal District of Peace No. 135","admin2":"4819071"},{"geonameid":6084213,"name":"Municipal District of Pincher Creek No. 9","admin2":"4803011"},{"geonameid":6084214,"name":"Municipal District of Provost No. 52","admin2":"4807001"},{"geonameid":6084215,"name":"Municipal District of Ranchland No. 66","admin2":"4815045"},{"geonameid":6084216,"name":"Municipal District of Rocky View No. 44","admin2":"4806014"},{"geonameid":6084217,"name":"Municipal District of Smoky River No. 130","admin2":"4819041"},{"geonameid":6084218,"name":"Municipal District of Spirit River No. 133","admin2":"4819054"},{"geonameid":6084219,"name":"Municipal District of Taber","admin2":"4802021"},{"geonameid":6084220,"name":"Municipal District of Wainwright No. 61","admin2":"4807049"},{"geonameid":6084221,"name":"Municipal District of Westlock No. 92","admin2":"4813028"},{"geonameid":6084222,"name":"Municipal District of Willow Creek No. 26","admin2":"4803018"},{"geonameid":11807258,"name":"Munson","admin2":"4805036"},{"geonameid":11807383,"name":"Myrnam","admin2":"4810051"},{"geonameid":11807321,"name":"Nakamun Park","admin2":"4813003"},{"geonameid":11807436,"name":"Nampa","admin2":"4817039"},{"geonameid":11807230,"name":"Nanton","admin2":"4803026"},{"geonameid":11807354,"name":"Nobleford","admin2":"4802014"},{"geonameid":11807346,"name":"Norglenwold","admin2":"4808013"},{"geonameid":11807185,"name":"Norris Beach","admin2":"4811007"},{"geonameid":6089985,"name":"Northern Sunrise County","admin2":"4817026"},{"geonameid":11807319,"name":"Okotoks","admin2":"4806012"},{"geonameid":11807204,"name":"Olds","admin2":"4806034"},{"geonameid":11807193,"name":"Onoway","admin2":"4813014"},{"geonameid":11807244,"name":"Oyen","admin2":"4804014"},{"geonameid":11807397,"name":"Paradise Valley","admin2":"4810038"},{"geonameid":11807280,"name":"Parkland Beach","admin2":"4808042"},{"geonameid":6098589,"name":"Parkland County","admin2":"4811034"},{"geonameid":11807303,"name":"Peace River","admin2":"4819038"},{"geonameid":11807373,"name":"Pelican Narrows","admin2":"4812013"},{"geonameid":11807308,"name":"Penhold","admin2":"4808009"},{"geonameid":11807227,"name":"Picture Butte","admin2":"4802018"},{"geonameid":11807312,"name":"Pincher Creek","admin2":"4803014"},{"geonameid":11807343,"name":"Point Alison","admin2":"4811041"},{"geonameid":11807282,"name":"Ponoka","admin2":"4808039"},{"geonameid":6109274,"name":"Ponoka County","admin2":"4808038"},{"geonameid":11807362,"name":"Poplar Bay","admin2":"4811005"},{"geonameid":11807257,"name":"Provost","admin2":"4807002"},{"geonameid":11807295,"name":"Rainbow Lake","admin2":"4817097"},{"geonameid":11807276,"name":"Raymond","admin2":"4802008"},{"geonameid":11807210,"name":"Red Deer","admin2":"4808011"},{"geonameid":6118160,"name":"Red Deer County","admin2":"4808001"},{"geonameid":11807249,"name":"Redcliff","admin2":"4801018"},{"geonameid":11807223,"name":"Redwater","admin2":"4811065"},{"geonameid":11807274,"name":"Rimbey","admin2":"4808044"},{"geonameid":11807335,"name":"Rochon Sands","admin2":"4807028"},{"geonameid":11807325,"name":"Rocky Mountain House","admin2":"4809015"},{"geonameid":11807376,"name":"Rockyford","admin2":"4805022"},{"geonameid":11807409,"name":"Rosalind","admin2":"4810003"},{"geonameid":11807342,"name":"Rosemary","admin2":"4802038"},{"geonameid":11807331,"name":"Ross Haven","admin2":"4813008"},{"geonameid":11807432,"name":"Rycroft","admin2":"4819056"},{"geonameid":11807251,"name":"Ryley","admin2":"4810019"},{"geonameid":6137110,"name":"Saddle Hills County","admin2":"4819059"},{"geonameid":11807356,"name":"Sandy Beach","admin2":"4813016"},{"geonameid":11807340,"name":"Seba Beach","admin2":"4811038"},{"geonameid":11807320,"name":"Sedgewick","admin2":"4807044"},{"geonameid":11807296,"name":"Sexsmith","admin2":"4819014"},{"geonameid":11807337,"name":"Silver Beach","admin2":"4811009"},{"geonameid":11807322,"name":"Silver Sands","admin2":"4813010"},{"geonameid":11807292,"name":"Slave Lake","admin2":"4817029"},{"geonameid":11807265,"name":"Smoky Lake","admin2":"4812029"},{"geonameid":6150297,"name":"Smoky Lake County","admin2":"4812022"},{"geonameid":11807349,"name":"South Baptiste","admin2":"4813055"},{"geonameid":11807238,"name":"South View","admin2":"4813015"},{"geonameid":6153329,"name":"Special Area No. 2","admin2":"4804004"},{"geonameid":6153330,"name":"Special Area No. 3","admin2":"4804012"},{"geonameid":6153331,"name":"Special Area No. 4","admin2":"4804020"},{"geonameid":11807305,"name":"Spirit River","admin2":"4819058"},{"geonameid":11807424,"name":"Spring Lake","admin2":"4811046"},{"geonameid":11807202,"name":"Spruce Grove","admin2":"4811049"},{"geonameid":11807186,"name":"St. Albert","admin2":"4811062"},{"geonameid":11807205,"name":"St. Paul","admin2":"4812018"},{"geonameid":11807404,"name":"Standard","admin2":"4805021"},{"geonameid":6155475,"name":"Starland County","admin2":"4805031"},{"geonameid":11807236,"name":"Stavely","admin2":"4803024"},{"geonameid":11807243,"name":"Stettler","admin2":"4807026"},{"geonameid":11807398,"name":"Stirling","admin2":"4802009"},{"geonameid":11807229,"name":"Stony Plain","admin2":"4811048"},{"geonameid":6157997,"name":"Strathcona County","admin2":"4811052"},{"geonameid":11807246,"name":"Strathmore","admin2":"4805018"},{"geonameid":6158563,"name":"Sturgeon County","admin2":"4811059"},{"geonameid":11807334,"name":"Sunbreaker Cove","admin2":"4808027"},{"geonameid":11807360,"name":"Sundance Beach","admin2":"4811020"},{"geonameid":11807302,"name":"Sundre","admin2":"4806036"},{"geonameid":11807359,"name":"Sunrise Beach","admin2":"4813017"},{"geonameid":11807367,"name":"Sunset Beach","admin2":"4813047"},{"geonameid":11807318,"name":"Sunset Point","admin2":"4813011"},{"geonameid":11807219,"name":"Swan Hills","admin2":"4817024"},{"geonameid":11807231,"name":"Sylvan Lake","admin2":"4808012"},{"geonameid":11807281,"name":"Taber","admin2":"4802022"},{"geonameid":11807416,"name":"Thorsby","admin2":"4811021"},{"geonameid":11807220,"name":"Three Hills","admin2":"4805048"},{"geonameid":11807252,"name":"Tofield","admin2":"4810018"},{"geonameid":11807215,"name":"Trochu","admin2":"4805049"},{"geonameid":11807315,"name":"Turner Valley","admin2":"4806009"},{"geonameid":11807225,"name":"Two Hills","admin2":"4810052"},{"geonameid":11807351,"name":"Val Quentin","admin2":"4813005"},{"geonameid":11807277,"name":"Valleyview","admin2":"4818018"},{"geonameid":11807209,"name":"Vauxhall","admin2":"4802029"},{"geonameid":11807221,"name":"Vegreville","admin2":"4810028"},{"geonameid":11807272,"name":"Vermilion","admin2":"4810042"},{"geonameid":11807401,"name":"Veteran","admin2":"4804021"},{"geonameid":11807206,"name":"Viking","admin2":"4810022"},{"geonameid":11807381,"name":"Vilna","admin2":"4812024"},{"geonameid":11807256,"name":"Vulcan","admin2":"4805006"},{"geonameid":6174688,"name":"Vulcan County","admin2":"4805001"},{"geonameid":11807392,"name":"Wabamun","admin2":"4811045"},{"geonameid":11807330,"name":"Wainwright","admin2":"4807054"},{"geonameid":11807365,"name":"Waiparous","admin2":"4815030"},{"geonameid":11807301,"name":"Warburg","admin2":"4811024"},{"geonameid":11807415,"name":"Warner","admin2":"4802006"},{"geonameid":11807382,"name":"Waskatenau","admin2":"4812026"},{"geonameid":11807263,"name":"Wembley","admin2":"4819011"},{"geonameid":11807324,"name":"West Baptiste","admin2":"4813057"},{"geonameid":11807352,"name":"West Cove","admin2":"4813006"},{"geonameid":11807188,"name":"Westlock","admin2":"4813031"},{"geonameid":11807213,"name":"Wetaskiwin","admin2":"4811002"},{"geonameid":6179870,"name":"Wheatland County","admin2":"4805012"},{"geonameid":11807332,"name":"Whispering Hills","admin2":"4813061"},{"geonameid":11807344,"name":"White Sands","admin2":"4807027"},{"geonameid":11807275,"name":"Whitecourt","admin2":"4813030"},{"geonameid":11807261,"name":"Willingdon","admin2":"4810056"},{"geonameid":6184011,"name":"Wood Buffalo","admin2":"4816037"},{"geonameid":6184203,"name":"Woodlands County","admin2":"4813029"},{"geonameid":6185360,"name":"Yellowhead County","admin2":"4814003"},{"geonameid":11807350,"name":"Yellowstone","admin2":"4813007"},{"geonameid":11807400,"name":"Youngstown","admin2":"4804019"}],"admin3":[],"country":{"geonameid":6251999,"country":"CA","name":"Canada"},"alternateNames":[]},"__N_SSG":true}