{"pageProps":{"locale":"en","admin2":{"geonameid":5226904,"name":"Clark County","country":"US","admin1":"SD","admin2":"025","admin3":"","latitude":"44.8582500","longitude":"-97.7295000","localeAltName":null},"admin1":{"geonameid":5769223,"name":"South Dakota","admin1":"SD","localeAltName":"South Dakota"},"locations":[{"geonameid":5226901,"name":"Clark","admin3":"12180","localeAltName":null}],"admin3":[{"geonameid":5226066,"name":"Township of Ash","admin3":"02500"},{"geonameid":5226379,"name":"Township of Blaine","admin3":"05900"},{"geonameid":5226480,"name":"Town of Bradley","admin3":"06660"},{"geonameid":5226911,"name":"City of Clark","admin3":"12180","localeAltName":null},{"geonameid":5226983,"name":"Township of Collins","admin3":"13180"},{"geonameid":5227085,"name":"Township of Cottonwood","admin3":"14140"},{"geonameid":5227213,"name":"Township of Darlington","admin3":"15500"},{"geonameid":5227225,"name":"Township of Day","admin3":"15580"},{"geonameid":5227520,"name":"Township of Eden","admin3":"18020"},{"geonameid":5227605,"name":"Township of Elrod","admin3":"19220"},{"geonameid":5227836,"name":"Township of Fordham","admin3":"22060"},{"geonameid":5227877,"name":"Township of Foxton","admin3":"22540"},{"geonameid":5227968,"name":"Town of Garden City","admin3":"23460"},{"geonameid":5227988,"name":"Township of Garfield","admin3":"23540"},{"geonameid":5228275,"name":"Township of Hague","admin3":"26580"},{"geonameid":5229201,"name":"Township of Lake","admin3":"34820"},{"geonameid":5229331,"name":"Township of Lincoln","admin3":"37300"},{"geonameid":5229380,"name":"Township of Logan","admin3":"38220"},{"geonameid":5229609,"name":"Township of Maydell","admin3":"41460"},{"geonameid":5229710,"name":"Township of Merton","admin3":"42060"},{"geonameid":5229876,"name":"Township of Mount Pleasant","admin3":"44060"},{"geonameid":5229941,"name":"Town of Naples","admin3":"44620"},{"geonameid":5230552,"name":"Township of Pleasant","admin3":"50340"},{"geonameid":5230725,"name":"Town of Raymond","admin3":"53260"},{"geonameid":5230726,"name":"Township of Raymond","admin3":"53300"},{"geonameid":5230829,"name":"Township of Richland","admin3":"54580"},{"geonameid":5230943,"name":"Township of Rosedale","admin3":"56020"},{"geonameid":5232062,"name":"Township of Spring Valley","admin3":"60980"},{"geonameid":5232347,"name":"Township of Thorp","admin3":"63380"},{"geonameid":5232617,"name":"Town of Vienna","admin3":"67220"},{"geonameid":5232718,"name":"Township of Warren","admin3":"68820"},{"geonameid":5232732,"name":"Township of Washington","admin3":"68980"},{"geonameid":5232965,"name":"City of Willow Lake","admin3":"71940"},{"geonameid":5233027,"name":"Township of Woodland","admin3":"72660"}],"alternateNames":[{"alternatenameId":2089551,"geonameid":5769223,"isoLanguage":"en","alternateName":"South Dakota","isPreferredName":true,"isShortName":true,"isColloquial":false,"isHistoric":false}]},"__N_SSG":true}