{"pageProps":{"locale":"en","admin2":{"geonameid":6544286,"name":"Berkelland","country":"NL","admin1":"03","admin2":"1859","admin3":"","latitude":"52.1060600","longitude":"6.5674800"},"admin1":{"geonameid":2755634,"name":"Provincie Gelderland","admin1":"03"},"locations":[{"geonameid":2759595,"name":"Avest","admin3":""},{"geonameid":2759240,"name":"Beltrum","admin3":""},{"geonameid":2758626,"name":"Borculo","admin3":""},{"geonameid":2758310,"name":"Brinkmanshoek","admin3":""},{"geonameid":2758210,"name":"Brouwershoek","admin3":""},{"geonameid":2758192,"name":"De Bruil","admin3":""},{"geonameid":2757697,"name":"De Dennenhoek","admin3":""},{"geonameid":2757595,"name":"De Haar","admin3":""},{"geonameid":2757492,"name":"De Horst","admin3":""},{"geonameid":2756837,"name":"Dijkhoek","admin3":""},{"geonameid":2756295,"name":"Eibergen","admin3":""},{"geonameid":2755960,"name":"Everwenninkhoek","admin3":""},{"geonameid":6950856,"name":"Formerhoek","admin3":""},{"geonameid":2755653,"name":"Geesteren","admin3":""},{"geonameid":2755609,"name":"Gelselaar","admin3":""},{"geonameid":2754991,"name":"Haarlo","admin3":""},{"geonameid":2754141,"name":"Heure","admin3":""},{"geonameid":2754139,"name":"Heurne","admin3":""},{"geonameid":2753870,"name":"Holterhoek","admin3":""},{"geonameid":2753643,"name":"Hoonte","admin3":""},{"geonameid":2753406,"name":"Hupsel","admin3":""},{"geonameid":2752154,"name":"Kulsdom","admin3":""},{"geonameid":2751727,"name":"Lemperhoek","admin3":""},{"geonameid":2751711,"name":"Leo-Stichting","admin3":""},{"geonameid":2751555,"name":"Lintvelde","admin3":""},{"geonameid":2751531,"name":"Lochuizen","admin3":""},{"geonameid":2751481,"name":"Loo","admin3":""},{"geonameid":2751230,"name":"Mallem","admin3":""},{"geonameid":2750489,"name":"Nederbiel","admin3":""},{"geonameid":2750460,"name":"Neede","admin3":""},{"geonameid":2750279,"name":"Nieuwenhuishoek","admin3":""},{"geonameid":2749871,"name":"Noordijk","admin3":""},{"geonameid":2749649,"name":"Olden Eibergen","admin3":""},{"geonameid":6544701,"name":"Oosterveld","admin3":""},{"geonameid":2748863,"name":"Overbiel","admin3":""},{"geonameid":2748249,"name":"Rekken","admin3":""},{"geonameid":2748226,"name":"Respelhoek","admin3":""},{"geonameid":2748146,"name":"Rietmolen","admin3":""},{"geonameid":2747792,"name":"Ruurlo","admin3":""},{"geonameid":6544698,"name":"Schependom","admin3":""},{"geonameid":6544704,"name":"t Kip","admin3":""},{"geonameid":2744975,"name":"Waterhoek","admin3":""},{"geonameid":2744352,"name":"Winkelerhoek","admin3":""},{"geonameid":2744312,"name":"Wissinkhoek","admin3":""},{"geonameid":2743487,"name":"Zwilbroek","admin3":""},{"geonameid":2743478,"name":"Zwolle","admin3":""}],"admin3":[],"alternateNames":[{"alternatenameId":11907787,"geonameid":2755634,"isoLanguage":"de","alternateName":"Gelderland","isPreferredName":true,"isShortName":true,"isColloquial":false,"isHistoric":false}]},"__N_SSG":true}