{"pageProps":{"locale":"en","admin2":{"geonameid":6544222,"name":"Oude IJsselstreek","country":"NL","admin1":"03","admin2":"1509","admin3":"","latitude":"51.8996300","longitude":"6.3807800"},"admin1":{"geonameid":2755634,"name":"Provincie Gelderland","admin1":"03"},"locations":[{"geonameid":2758909,"name":"Binnenheurne","admin3":""},{"geonameid":2758650,"name":"Bontebrug","admin3":""},{"geonameid":2758382,"name":"Breedenbroek","admin3":""},{"geonameid":2756107,"name":"Engbergen","admin3":""},{"geonameid":2755995,"name":"Etten","admin3":""},{"geonameid":2755599,"name":"Gendringen","admin3":""},{"geonameid":2755235,"name":"Groot Breedenbroek","admin3":""},{"geonameid":2754702,"name":"Heelweg","admin3":""},{"geonameid":6544702,"name":"Heelweg-Oost","admin3":""},{"geonameid":6544703,"name":"Heelweg-West","admin3":""},{"geonameid":2754119,"name":"Heuven","admin3":""},{"geonameid":2751654,"name":"Lichtenberg","admin3":""},{"geonameid":2751004,"name":"Megchelen","admin3":""},{"geonameid":2750793,"name":"Milt","admin3":""},{"geonameid":2750402,"name":"Netterden","admin3":""},{"geonameid":2750149,"name":"Nieuw Oostendorp","admin3":""},{"geonameid":2748348,"name":"Rafelder","admin3":""},{"geonameid":2747322,"name":"Silvolde","admin3":""},{"geonameid":2747321,"name":"Silvolderbuurt","admin3":""},{"geonameid":2747310,"name":"Sinderen","admin3":""},{"geonameid":2746468,"name":"Terborg","admin3":""},{"geonameid":2745953,"name":"Ulft","admin3":""},{"geonameid":2745801,"name":"Varsselder","admin3":""},{"geonameid":2745800,"name":"Varsseveld","admin3":""},{"geonameid":2745697,"name":"Veldhunten","admin3":""},{"geonameid":2745298,"name":"Voorst","admin3":""},{"geonameid":2745065,"name":"Wals","admin3":""},{"geonameid":2745016,"name":"Warm","admin3":""},{"geonameid":2744780,"name":"Westendorp","admin3":""},{"geonameid":2744569,"name":"Wieken","admin3":""},{"geonameid":2744324,"name":"Wisch","admin3":""},{"geonameid":2743914,"name":"Ziek","admin3":""}],"admin3":[],"alternateNames":[{"alternatenameId":11907787,"geonameid":2755634,"isoLanguage":"de","alternateName":"Gelderland","isPreferredName":true,"isShortName":true,"isColloquial":false,"isHistoric":false}]},"__N_SSG":true}