{"pageProps":{"locale":"en","admin2":{"geonameid":5397100,"name":"Sonoma County","country":"US","admin1":"CA","admin2":"097","admin3":"","latitude":"38.5252900","longitude":"-122.9225400","localeAltName":null},"admin1":{"geonameid":5332921,"name":"California","admin1":"CA","localeAltName":"California"},"locations":[{"geonameid":5329735,"name":"Bodega Bay","admin3":"","localeAltName":null},{"geonameid":5330427,"name":"Boyes Hot Springs","admin3":"","localeAltName":null},{"geonameid":5333515,"name":"Camp Meeker","admin3":"","localeAltName":null},{"geonameid":5338104,"name":"Cloverdale","admin3":"","localeAltName":null},{"geonameid":5339865,"name":"Cotati","admin3":"","localeAltName":null},{"geonameid":5345916,"name":"El Verano","admin3":"","localeAltName":null},{"geonameid":5345990,"name":"Eldridge","admin3":"","localeAltName":null},{"geonameid":7261259,"name":"Fetters Hot Springs-Agua Caliente","admin3":"","localeAltName":null},{"geonameid":5349984,"name":"Forestville","admin3":"","localeAltName":null},{"geonameid":5351265,"name":"Fulton","admin3":"","localeAltName":null},{"geonameid":5352059,"name":"Geyserville","admin3":"","localeAltName":null},{"geonameid":5352376,"name":"Glen Ellen","admin3":"","localeAltName":null},{"geonameid":5353815,"name":"Graton","admin3":"","localeAltName":null},{"geonameid":5354655,"name":"Guerneville","admin3":"","localeAltName":null},{"geonameid":5356012,"name":"Healdsburg","admin3":"","localeAltName":null},{"geonameid":5362885,"name":"Kenwood","admin3":"","localeAltName":null},{"geonameid":7261625,"name":"Larkfield-Wikiup","admin3":"","localeAltName":null},{"geonameid":5374275,"name":"Monte Rio","admin3":"","localeAltName":null},{"geonameid":5378692,"name":"Occidental","admin3":"","localeAltName":null},{"geonameid":5381932,"name":"Penngrove","admin3":"","localeAltName":null},{"geonameid":5382232,"name":"Petaluma","admin3":"","localeAltName":null},{"geonameid":5388564,"name":"Rohnert Park","admin3":"","localeAltName":null},{"geonameid":5388858,"name":"Roseland","admin3":"","localeAltName":null},{"geonameid":5393287,"name":"Santa Rosa","admin3":"","localeAltName":null},{"geonameid":5394063,"name":"Sea Ranch","admin3":"","localeAltName":null},{"geonameid":5394165,"name":"Sebastopol","admin3":"","localeAltName":null},{"geonameid":5397095,"name":"Sonoma","admin3":"","localeAltName":null},{"geonameid":5401408,"name":"Temelec","admin3":"","localeAltName":null},{"geonameid":5410004,"name":"Windsor","admin3":"","localeAltName":null}],"admin3":[{"geonameid":11788482,"name":"City of Cotati","admin3":"11788482"},{"geonameid":11788550,"name":"City of Sebastopol","admin3":"11788550"},{"geonameid":11788687,"name":"City of Cloverdale","admin3":"11788687"},{"geonameid":11788696,"name":"City of Sonoma","admin3":"11788696"},{"geonameid":11788768,"name":"City of Healdsburg","admin3":"11788768"},{"geonameid":11788827,"name":"City of Rohnert Park","admin3":"11788827"},{"geonameid":11788859,"name":"City of Santa Rosa","admin3":"11788859"}],"alternateNames":[{"alternatenameId":1632217,"geonameid":5332921,"isoLanguage":"en","alternateName":"California","isPreferredName":true,"isShortName":true,"isColloquial":false,"isHistoric":false}]},"__N_SSG":true}