{"pageProps":{"locale":"en","admin2":{"geonameid":4542393,"name":"McClain County","country":"US","admin1":"OK","admin2":"087","admin3":"","latitude":"35.0093400","longitude":"-97.4443000","localeAltName":null},"admin1":{"geonameid":4544379,"name":"Oklahoma","admin1":"OK","localeAltName":"Oklahoma"},"locations":[{"geonameid":4530883,"name":"Blanchard","admin3":"","localeAltName":null},{"geonameid":4050178,"name":"Cole","admin3":"","localeAltName":null},{"geonameid":4535076,"name":"Dibble","admin3":"","localeAltName":null},{"geonameid":4537728,"name":"Goldsby","admin3":"","localeAltName":null},{"geonameid":4543622,"name":"Newcastle","admin3":"","localeAltName":null},{"geonameid":4548560,"name":"Purcell","admin3":"","localeAltName":null},{"geonameid":4554703,"name":"Washington","admin3":"","localeAltName":null},{"geonameid":4554839,"name":"Wayne","admin3":"","localeAltName":null}],"admin3":[],"alternateNames":[{"alternatenameId":2089556,"geonameid":4544379,"isoLanguage":"en","alternateName":"Oklahoma","isPreferredName":true,"isShortName":true,"isColloquial":false,"isHistoric":false}]},"__N_SSG":true}