{"pageProps":{"locale":"en","admin2":{"geonameid":2755475,"name":"Gemeente Goes","country":"NL","admin1":"10","admin2":"0664","admin3":"","latitude":"51.5150000","longitude":"3.8394900"},"admin1":{"geonameid":2744011,"name":"Provincie Zeeland","admin1":"10"},"locations":[{"geonameid":2758852,"name":"Blauwewijk","admin3":""},{"geonameid":2757616,"name":"De Groe","admin3":""},{"geonameid":2756254,"name":"Eindewege","admin3":""},{"geonameid":2755476,"name":"Goes","admin3":""},{"geonameid":6544903,"name":"Het Sas","admin3":""},{"geonameid":2753018,"name":"Kattendijke","admin3":""},{"geonameid":2752638,"name":"Kloetinge","admin3":""},{"geonameid":2750635,"name":"Monnikendijk","admin3":""},{"geonameid":2749977,"name":"Noordeinde","admin3":""},{"geonameid":2748904,"name":"Oud-Sabbinge","admin3":""},{"geonameid":2748561,"name":"Planketent","admin3":""},{"geonameid":2747950,"name":"Roodewijk","admin3":""},{"geonameid":2747358,"name":"s-Heer Arendskerke","admin3":""},{"geonameid":2747352,"name":"s-Heer Hendrikskinderen","admin3":""},{"geonameid":2747113,"name":"Sluis De Piet","admin3":""},{"geonameid":2746404,"name":"Tervaten","admin3":""},{"geonameid":2745121,"name":"Waanskinderen","admin3":""},{"geonameid":2744423,"name":"Wilhelminadorp","admin3":""},{"geonameid":2744320,"name":"Wissekerke","admin3":""},{"geonameid":2744199,"name":"Wolphaartsdijk","admin3":""}],"admin3":[],"alternateNames":[{"alternatenameId":11907790,"geonameid":2744011,"isoLanguage":"de","alternateName":"Zeeland","isPreferredName":true,"isShortName":true,"isColloquial":false,"isHistoric":false}]},"__N_SSG":true}