{"pageProps":{"locale":"en","admin2":{"geonameid":6119126,"name":"Regional District of Bulkley-Nechako","country":"CA","admin1":"02","admin2":"5951","admin3":"","latitude":"54.4998200","longitude":"-125.6700300"},"admin1":{"geonameid":5909050,"name":"British Columbia","admin1":"02"},"locations":[{"geonameid":5911745,"name":"Burns Lake","admin3":"5951022"},{"geonameid":5881688,"name":"Fort St. James","admin3":"5951013"},{"geonameid":5957607,"name":"Fraser Lake","admin3":"5951009"},{"geonameid":5964759,"name":"Granisle","admin3":"5951032"},{"geonameid":5977783,"name":"Houston","admin3":"5951034"},{"geonameid":6149996,"name":"Smithers","admin3":"5951043"},{"geonameid":6162623,"name":"Telkwa","admin3":"5951038"},{"geonameid":6173361,"name":"Vanderhoof","admin3":"5951007"}],"admin3":[{"geonameid":12031904,"name":"Fraser Lake","admin3":"5951009"},{"geonameid":12031905,"name":"Granisle","admin3":"5951032"},{"geonameid":12031995,"name":"Burns Lake","admin3":"5951022"},{"geonameid":12032001,"name":"Fort St. James","admin3":"5951013"},{"geonameid":12032002,"name":"Houston","admin3":"5951034"},{"geonameid":12032003,"name":"Smithers","admin3":"5951043"},{"geonameid":12032004,"name":"Telkwa","admin3":"5951038"},{"geonameid":12032005,"name":"Vanderhoof","admin3":"5951007"}],"alternateNames":[]},"__N_SSG":true}