{"pageProps":{"locale":"it","admin2":{"geonameid":3169411,"name":"Provincia di Rieti","country":"IT","admin1":"07","admin2":"RI","admin3":"","latitude":"42.3913300","longitude":"12.9507200","localeAltName":"Rieti"},"admin1":{"geonameid":3174976,"name":"Lazio","admin1":"07","localeAltName":"Lazio"},"locations":[{"geonameid":3183121,"name":"Amatrice","admin3":"057002","localeAltName":null},{"geonameid":3183018,"name":"Antrodoco","admin3":"057003","localeAltName":null},{"geonameid":3181869,"name":"Borbona","admin3":"057006","localeAltName":null},{"geonameid":3181765,"name":"Borgo Quinzio","admin3":"057027","localeAltName":null},{"geonameid":8950004,"name":"Borgo San Pietro","admin3":"057051","localeAltName":null},{"geonameid":3181745,"name":"Borgo Velino","admin3":"057008","localeAltName":null},{"geonameid":3181760,"name":"Borgorose","admin3":"057007","localeAltName":null},{"geonameid":3180812,"name":"Canneto","admin3":"057027","localeAltName":null},{"geonameid":3180775,"name":"Cantalupo in Sabina","admin3":"057010","localeAltName":null},{"geonameid":8949684,"name":"Casali","admin3":"057055","localeAltName":null},{"geonameid":3179858,"name":"Casette","admin3":"057059","localeAltName":null},{"geonameid":3179803,"name":"Casperia","admin3":"057012","localeAltName":null},{"geonameid":3179524,"name":"Castelnuovo di Farfa","admin3":"057014","localeAltName":null},{"geonameid":3178617,"name":"Cittaducale","admin3":"057016","localeAltName":null},{"geonameid":3178329,"name":"Collevecchio","admin3":"057021","localeAltName":null},{"geonameid":3178302,"name":"Colli sul Velino","admin3":"057022","localeAltName":null},{"geonameid":3178169,"name":"Contigliano","admin3":"057025","localeAltName":null},{"geonameid":3178104,"name":"Corese Terra","admin3":"057027","localeAltName":null},{"geonameid":3177941,"name":"Corvaro","admin3":"057007","localeAltName":null},{"geonameid":8950153,"name":"Ferruti","admin3":"057044","localeAltName":null},{"geonameid":3176772,"name":"Forano","admin3":"057029","localeAltName":null},{"geonameid":3176265,"name":"Gavignano Sabino","admin3":"057029","localeAltName":null},{"geonameid":9036175,"name":"Grotti","admin3":"057016","localeAltName":null},{"geonameid":3174875,"name":"Leonessa","admin3":"057033","localeAltName":null},{"geonameid":3174713,"name":"Limiti di Greccio","admin3":"057031","localeAltName":null},{"geonameid":3174256,"name":"Magliano Sabina","admin3":"057035","localeAltName":null},{"geonameid":3172871,"name":"Monteleone Sabino","admin3":"057041","localeAltName":null},{"geonameid":3172651,"name":"Montopoli in Sabina","admin3":"057044","localeAltName":null},{"geonameid":3171125,"name":"Pescorocchiano","admin3":"057049","localeAltName":null},{"geonameid":9036136,"name":"Piani Poggio Fidoni","admin3":"057059","localeAltName":null},{"geonameid":3170482,"name":"Poggio Bustone","admin3":"057051","localeAltName":null},{"geonameid":3170479,"name":"Poggio Catino","admin3":"057052","localeAltName":null},{"geonameid":3170456,"name":"Poggio Mirteto","admin3":"057053","localeAltName":null},{"geonameid":6690961,"name":"Poggio Mirteto Scalo","admin3":"057053","localeAltName":null},{"geonameid":3170455,"name":"Poggio Moiano","admin3":"057054","localeAltName":null},{"geonameid":3170453,"name":"Poggio Nativo","admin3":"057055","localeAltName":null},{"geonameid":3169412,"name":"Rieti","admin3":"057059","localeAltName":null},{"geonameid":8950195,"name":"Santa Croce","admin3":"057009","localeAltName":null},{"geonameid":3167366,"name":"Santa Rufina","admin3":"057016","localeAltName":null},{"geonameid":3166983,"name":"Scandriglia","admin3":"057064","localeAltName":null},{"geonameid":3166804,"name":"Selci","admin3":"057065","localeAltName":null},{"geonameid":3166135,"name":"Stimigliano","admin3":"057066","localeAltName":null},{"geonameid":8949636,"name":"Talocci","admin3":"057027","localeAltName":null},{"geonameid":3165604,"name":"Toffia","admin3":"057068","localeAltName":null},{"geonameid":3165551,"name":"Torano","admin3":"057007","localeAltName":null},{"geonameid":3165398,"name":"Torricella in Sabina","admin3":"057069","localeAltName":null}],"admin3":[{"geonameid":3175850,"name":"Greccio","admin3":"057031","localeAltName":null},{"geonameid":6536360,"name":"Paganico Sabino","admin3":"057048"},{"geonameid":6536361,"name":"Pozzaglia Sabina","admin3":"057058"},{"geonameid":6536915,"name":"Accumoli","admin3":"057001"},{"geonameid":6536916,"name":"Ascrea","admin3":"057004"},{"geonameid":6536917,"name":"Belmonte in Sabina","admin3":"057005"},{"geonameid":6536918,"name":"Cantalice","admin3":"057009","localeAltName":null},{"geonameid":6536919,"name":"Casaprota","admin3":"057011"},{"geonameid":6536920,"name":"Concerviano","admin3":"057023"},{"geonameid":6536921,"name":"Forano","admin3":"057029","localeAltName":null},{"geonameid":6536922,"name":"Frasso Sabino","admin3":"057030"},{"geonameid":6536923,"name":"Longone Sabino","admin3":"057034"},{"geonameid":6536924,"name":"Magliano Sabina","admin3":"057035","localeAltName":null},{"geonameid":6536925,"name":"Micigliano","admin3":"057037"},{"geonameid":6536926,"name":"Mompeo","admin3":"057038"},{"geonameid":6536927,"name":"Monte San Giovanni in Sabina","admin3":"057043"},{"geonameid":6536928,"name":"Orvinio","admin3":"057047"},{"geonameid":6536929,"name":"Petrella Salto","admin3":"057050"},{"geonameid":6536930,"name":"Poggio Bustone","admin3":"057051","localeAltName":null},{"geonameid":6536931,"name":"Poggio Moiano","admin3":"057054","localeAltName":null},{"geonameid":6536932,"name":"Poggio Nativo","admin3":"057055","localeAltName":null},{"geonameid":6536933,"name":"Rivodutri","admin3":"057060"},{"geonameid":6536934,"name":"Torri in Sabina","admin3":"057070"},{"geonameid":6536935,"name":"Turania","admin3":"057071"},{"geonameid":6536936,"name":"Vacone","admin3":"057072"},{"geonameid":6536937,"name":"Varco Sabino","admin3":"057073"},{"geonameid":6538643,"name":"Antrodoco","admin3":"057003","localeAltName":null},{"geonameid":6538644,"name":"Borbona","admin3":"057006","localeAltName":null},{"geonameid":6538645,"name":"Cantalupo in Sabina","admin3":"057010","localeAltName":null},{"geonameid":6538646,"name":"Casperia","admin3":"057012","localeAltName":null},{"geonameid":6538647,"name":"Castel di Tora","admin3":"057013"},{"geonameid":6538648,"name":"Castelnuovo di Farfa","admin3":"057014","localeAltName":null},{"geonameid":6538649,"name":"Cittaducale","admin3":"057016","localeAltName":null},{"geonameid":6538650,"name":"Cittareale","admin3":"057017"},{"geonameid":6538651,"name":"Colle di Tora","admin3":"057019"},{"geonameid":6538652,"name":"Cottanello","admin3":"057026"},{"geonameid":6538653,"name":"Montasola","admin3":"057039"},{"geonameid":6538654,"name":"Monteleone Sabino","admin3":"057041","localeAltName":null},{"geonameid":6538655,"name":"Morro Reatino","admin3":"057045"},{"geonameid":6538656,"name":"Nespolo","admin3":"057046"},{"geonameid":6538657,"name":"Pescorocchiano","admin3":"057049","localeAltName":null},{"geonameid":6538658,"name":"Poggio Catino","admin3":"057052","localeAltName":null},{"geonameid":6538659,"name":"Poggio Mirteto","admin3":"057053","localeAltName":null},{"geonameid":6538660,"name":"Poggio San Lorenzo","admin3":"057056"},{"geonameid":6538661,"name":"Roccantica","admin3":"057061"},{"geonameid":6538662,"name":"Stimigliano","admin3":"057066","localeAltName":null},{"geonameid":6538663,"name":"Toffia","admin3":"057068","localeAltName":null},{"geonameid":6538664,"name":"Torricella in Sabina","admin3":"057069","localeAltName":null},{"geonameid":6539593,"name":"Leonessa","admin3":"057033","localeAltName":null},{"geonameid":6539753,"name":"Collevecchio","admin3":"057021","localeAltName":null},{"geonameid":6539754,"name":"Fiamignano","admin3":"057028"},{"geonameid":6539755,"name":"Labro","admin3":"057032"},{"geonameid":6539756,"name":"Montebuono","admin3":"057040"},{"geonameid":6539975,"name":"Selci","admin3":"057065","localeAltName":null},{"geonameid":6540504,"name":"Amatrice","admin3":"057002","localeAltName":null},{"geonameid":6540505,"name":"Castel Sant'Angelo","admin3":"057015"},{"geonameid":6540506,"name":"Collalto Sabino","admin3":"057018"},{"geonameid":6540507,"name":"Collegiove","admin3":"057020"},{"geonameid":6540508,"name":"Colli sul Velino","admin3":"057022","localeAltName":null},{"geonameid":6540509,"name":"Fara in Sabina","admin3":"057027","localeAltName":null},{"geonameid":6540510,"name":"Posta","admin3":"057057"},{"geonameid":6540511,"name":"Rocca Sinibalda","admin3":"057062"},{"geonameid":6540512,"name":"Salisano","admin3":"057063"},{"geonameid":6540513,"name":"Scandriglia","admin3":"057064","localeAltName":null},{"geonameid":6540514,"name":"Tarano","admin3":"057067"},{"geonameid":6541125,"name":"Borgorose","admin3":"057007","localeAltName":null},{"geonameid":6541126,"name":"Borgo Velino","admin3":"057008","localeAltName":null},{"geonameid":6541127,"name":"Configni","admin3":"057024"},{"geonameid":6541128,"name":"Contigliano","admin3":"057025","localeAltName":null},{"geonameid":6541462,"name":"Rieti","admin3":"057059","localeAltName":null},{"geonameid":6541650,"name":"Marcetelli","admin3":"057036"},{"geonameid":6542182,"name":"Montopoli di Sabina","admin3":"057044","localeAltName":null},{"geonameid":6543602,"name":"Montenero Sabino","admin3":"057042"}],"alternateNames":[{"alternatenameId":1348754,"geonameid":3169411,"isoLanguage":"it","alternateName":"Rieti","isPreferredName":true,"isShortName":true,"isColloquial":false,"isHistoric":false},{"alternatenameId":1350464,"geonameid":3174976,"isoLanguage":"it","alternateName":"Lazio","isPreferredName":true,"isShortName":true,"isColloquial":false,"isHistoric":false}]},"__N_SSG":true}