{"pageProps":{"locale":"it","admin2":{"geonameid":3164038,"name":"Provincia di Viterbo","country":"IT","admin1":"07","admin2":"VT","admin3":"","latitude":"42.4166700","longitude":"12.0833300","localeAltName":"Viterbo"},"admin1":{"geonameid":3174976,"name":"Lazio","admin1":"07","localeAltName":"Lazio"},"locations":[{"geonameid":3183516,"name":"Acquapendente","admin3":"056001","localeAltName":null},{"geonameid":3182838,"name":"Arlena di Castro","admin3":"056002","localeAltName":null},{"geonameid":3182494,"name":"Bagnoregio","admin3":"056003","localeAltName":null},{"geonameid":3182400,"name":"Barbarano Romano","admin3":"056004","localeAltName":null},{"geonameid":3182296,"name":"Bassano in Teverina","admin3":"056006","localeAltName":null},{"geonameid":3182295,"name":"Bassano Romano","admin3":"056005","localeAltName":null},{"geonameid":8950015,"name":"Belvedere Lidia","admin3":"056039","localeAltName":null},{"geonameid":3181983,"name":"Blera","admin3":"056007","localeAltName":null},{"geonameid":3181917,"name":"Bolsena","admin3":"056008","localeAltName":null},{"geonameid":3181909,"name":"Bomarzo","admin3":"056009","localeAltName":null},{"geonameid":3181230,"name":"Calcata Nuova","admin3":"056010","localeAltName":null},{"geonameid":3180849,"name":"Canepina","admin3":"056011","localeAltName":null},{"geonameid":3180838,"name":"Canino","admin3":"056012","localeAltName":null},{"geonameid":3180689,"name":"Capodimonte","admin3":"056013","localeAltName":null},{"geonameid":3180644,"name":"Capranica","admin3":"056014","localeAltName":null},{"geonameid":3180635,"name":"Caprarola","admin3":"056015","localeAltName":null},{"geonameid":3180576,"name":"Carbognano","admin3":"056016","localeAltName":null},{"geonameid":3179473,"name":"Castel Sant'Elia","admin3":"056017","localeAltName":null},{"geonameid":3179410,"name":"Castiglione in Teverina","admin3":"056018","localeAltName":null},{"geonameid":3179202,"name":"Celleno","admin3":"056019","localeAltName":null},{"geonameid":3179201,"name":"Cellere","admin3":"056020","localeAltName":null},{"geonameid":3178595,"name":"Civita Castellana","admin3":"056021","localeAltName":null},{"geonameid":3178576,"name":"Civitella d'Agliano","admin3":"056022","localeAltName":null},{"geonameid":8950040,"name":"Colle Diana","admin3":"056049","localeAltName":null},{"geonameid":6929939,"name":"Colle Farnese","admin3":"056039","localeAltName":null},{"geonameid":3178119,"name":"Corchiano","admin3":"056023","localeAltName":null},{"geonameid":3177314,"name":"Fabrica di Roma","admin3":"056024","localeAltName":null},{"geonameid":8199357,"name":"Faleri","admin3":"056024","localeAltName":null},{"geonameid":3177245,"name":"Faleria","admin3":"056025","localeAltName":null},{"geonameid":3177190,"name":"Farnese","admin3":"056026","localeAltName":null},{"geonameid":3176384,"name":"Gallese","admin3":"056027","localeAltName":null},{"geonameid":3175957,"name":"Gradoli","admin3":"056028","localeAltName":null},{"geonameid":3175956,"name":"Graffignano","admin3":"056029","localeAltName":null},{"geonameid":3175765,"name":"Grotte di Castro","admin3":"056030","localeAltName":null},{"geonameid":3175764,"name":"Grotte Santo Stefano","admin3":"056059","localeAltName":null},{"geonameid":3175454,"name":"Ischia di Castro","admin3":"056031","localeAltName":null},{"geonameid":3175068,"name":"Latera","admin3":"056032","localeAltName":null},{"geonameid":8950020,"name":"Lido di Tarquinia","admin3":"056050","localeAltName":null},{"geonameid":3174534,"name":"Lubriano","admin3":"056033","localeAltName":null},{"geonameid":3173861,"name":"Marta","admin3":"056034","localeAltName":null},{"geonameid":3173082,"name":"Montalto di Castro","admin3":"056035","localeAltName":null},{"geonameid":3172778,"name":"Monte Romano","admin3":"056037","localeAltName":null},{"geonameid":3172931,"name":"Montefiascone","admin3":"056036","localeAltName":null},{"geonameid":3172772,"name":"Monterosi","admin3":"056038","localeAltName":null},{"geonameid":3172322,"name":"Nepi","admin3":"056039","localeAltName":null},{"geonameid":3172016,"name":"Onano","admin3":"056040","localeAltName":null},{"geonameid":3171947,"name":"Oriolo Romano","admin3":"056041","localeAltName":null},{"geonameid":3171898,"name":"Orte","admin3":"056042","localeAltName":null},{"geonameid":9036394,"name":"Orte Scalo","admin3":"056042","localeAltName":null},{"geonameid":8949442,"name":"Pallone","admin3":"056060","localeAltName":null},{"geonameid":8949519,"name":"Paparano","admin3":"056060","localeAltName":null},{"geonameid":3171143,"name":"Pescia Romana","admin3":"056035","localeAltName":null},{"geonameid":3170931,"name":"Piansano","admin3":"056043","localeAltName":null},{"geonameid":8949241,"name":"Regolelli","admin3":"056024","localeAltName":null},{"geonameid":3169012,"name":"Ronciglione","admin3":"056045","localeAltName":null},{"geonameid":3168109,"name":"San Lorenzo Nuovo","admin3":"056047","localeAltName":null},{"geonameid":3168034,"name":"San Martino al Cimino","admin3":"056059","localeAltName":null},{"geonameid":8949371,"name":"Sassacci","admin3":"056021","localeAltName":null},{"geonameid":8950212,"name":"Scalo Teverina","admin3":"056027","localeAltName":null},{"geonameid":3166504,"name":"Sipicciano","admin3":"056029","localeAltName":null},{"geonameid":3166357,"name":"Soriano nel Cimino","admin3":"056048","localeAltName":null},{"geonameid":3166010,"name":"Sutri","admin3":"056049","localeAltName":null},{"geonameid":3165919,"name":"Tarquinia","admin3":"056050","localeAltName":null},{"geonameid":3165083,"name":"Tuscania","admin3":"056052","localeAltName":null},{"geonameid":3164923,"name":"Valentano","admin3":"056053","localeAltName":null},{"geonameid":3164833,"name":"Vallerano","admin3":"056054","localeAltName":null},{"geonameid":3164682,"name":"Vasanello","admin3":"056055","localeAltName":null},{"geonameid":3164645,"name":"Vejano","admin3":"056056","localeAltName":null},{"geonameid":3164472,"name":"Vetralla","admin3":"056057","localeAltName":null},{"geonameid":3164354,"name":"Vignanello","admin3":"056058","localeAltName":null},{"geonameid":6535621,"name":"Villa San Giovanni in Tuscia","admin3":"056046","localeAltName":null},{"geonameid":3164039,"name":"Viterbo","admin3":"056059","localeAltName":null},{"geonameid":3164029,"name":"Vitorchiano","admin3":"056060","localeAltName":null},{"geonameid":3163887,"name":"Zepponami","admin3":"056036","localeAltName":null}],"admin3":[{"geonameid":6536359,"name":"Calcata","admin3":"056010","localeAltName":null},{"geonameid":6536895,"name":"Barbarano Romano","admin3":"056004","localeAltName":null},{"geonameid":6536896,"name":"Bomarzo","admin3":"056009","localeAltName":null},{"geonameid":6536897,"name":"Canepina","admin3":"056011","localeAltName":null},{"geonameid":6536898,"name":"Canino","admin3":"056012","localeAltName":null},{"geonameid":6536899,"name":"Carbognano","admin3":"056016","localeAltName":null},{"geonameid":6536900,"name":"Castel Sant'Elia","admin3":"056017","localeAltName":null},{"geonameid":6536901,"name":"Castiglione in Teverina","admin3":"056018","localeAltName":null},{"geonameid":6536902,"name":"Celleno","admin3":"056019","localeAltName":null},{"geonameid":6536903,"name":"Corchiano","admin3":"056023","localeAltName":null},{"geonameid":6536904,"name":"Fabrica di Roma","admin3":"056024","localeAltName":null},{"geonameid":6536905,"name":"Gradoli","admin3":"056028","localeAltName":null},{"geonameid":6536906,"name":"Grotte di Castro","admin3":"056030","localeAltName":null},{"geonameid":6536907,"name":"Ischia di Castro","admin3":"056031","localeAltName":null},{"geonameid":6536908,"name":"San Lorenzo Nuovo","admin3":"056047","localeAltName":null},{"geonameid":6536909,"name":"Tarquinia","admin3":"056050","localeAltName":null},{"geonameid":6536910,"name":"Tessennano","admin3":"056051"},{"geonameid":6536911,"name":"Tuscania","admin3":"056052","localeAltName":null},{"geonameid":6536912,"name":"Valentano","admin3":"056053","localeAltName":null},{"geonameid":6536913,"name":"Vasanello","admin3":"056055","localeAltName":null},{"geonameid":6536914,"name":"Vitorchiano","admin3":"056060","localeAltName":null},{"geonameid":6538628,"name":"Arlena di Castro","admin3":"056002","localeAltName":null},{"geonameid":6538629,"name":"Bassano in Teverina","admin3":"056006","localeAltName":null},{"geonameid":6538630,"name":"Civitella d'Agliano","admin3":"056022","localeAltName":null},{"geonameid":6538631,"name":"Graffignano","admin3":"056029","localeAltName":null},{"geonameid":6538632,"name":"Latera","admin3":"056032","localeAltName":null},{"geonameid":6538633,"name":"Lubriano","admin3":"056033","localeAltName":null},{"geonameid":6538634,"name":"Montalto di Castro","admin3":"056035","localeAltName":null},{"geonameid":6538635,"name":"Montefiascone","admin3":"056036","localeAltName":null},{"geonameid":6538636,"name":"Monte Romano","admin3":"056037","localeAltName":null},{"geonameid":6538637,"name":"Monterosi","admin3":"056038","localeAltName":null},{"geonameid":6538638,"name":"Onano","admin3":"056040","localeAltName":null},{"geonameid":6538639,"name":"Piansano","admin3":"056043","localeAltName":null},{"geonameid":6538640,"name":"Proceno","admin3":"056044"},{"geonameid":6538641,"name":"Soriano nel Cimino","admin3":"056048","localeAltName":null},{"geonameid":6538642,"name":"Vignanello","admin3":"056058","localeAltName":null},{"geonameid":6539750,"name":"Farnese","admin3":"056026","localeAltName":null},{"geonameid":6539751,"name":"Ronciglione","admin3":"056045","localeAltName":null},{"geonameid":6539752,"name":"Vallerano","admin3":"056054","localeAltName":null},{"geonameid":6539973,"name":"Gallese","admin3":"056027","localeAltName":null},{"geonameid":6539974,"name":"Marta","admin3":"056034","localeAltName":null},{"geonameid":6540107,"name":"Viterbo","admin3":"056059","localeAltName":null},{"geonameid":6540448,"name":"Blera","admin3":"056007","localeAltName":null},{"geonameid":6540496,"name":"Bagnoregio","admin3":"056003","localeAltName":null},{"geonameid":6540497,"name":"Capranica","admin3":"056014","localeAltName":null},{"geonameid":6540498,"name":"Caprarola","admin3":"056015","localeAltName":null},{"geonameid":6540499,"name":"Cellere","admin3":"056020","localeAltName":null},{"geonameid":6540500,"name":"Faleria","admin3":"056025","localeAltName":null},{"geonameid":6540501,"name":"Oriolo Romano","admin3":"056041","localeAltName":null},{"geonameid":6540502,"name":"Orte","admin3":"056042","localeAltName":null},{"geonameid":6540503,"name":"Vejano","admin3":"056056","localeAltName":null},{"geonameid":6541120,"name":"Acquapendente","admin3":"056001","localeAltName":null},{"geonameid":6541121,"name":"Bassano Romano","admin3":"056005","localeAltName":null},{"geonameid":6541122,"name":"Capodimonte","admin3":"056013","localeAltName":null},{"geonameid":6541123,"name":"Civita Castellana","admin3":"056021","localeAltName":null},{"geonameid":6541124,"name":"Nepi","admin3":"056039","localeAltName":null},{"geonameid":6541613,"name":"Sutri","admin3":"056049","localeAltName":null},{"geonameid":6541888,"name":"Vetralla","admin3":"056057","localeAltName":null},{"geonameid":6542216,"name":"Bolsena","admin3":"056008","localeAltName":null},{"geonameid":6543601,"name":"Villa San Giovanni in Tuscia","admin3":"056046","localeAltName":null}],"alternateNames":[{"alternatenameId":1347098,"geonameid":3164038,"isoLanguage":"it","alternateName":"Viterbo","isPreferredName":true,"isShortName":true,"isColloquial":false,"isHistoric":false},{"alternatenameId":1350464,"geonameid":3174976,"isoLanguage":"it","alternateName":"Lazio","isPreferredName":true,"isShortName":true,"isColloquial":false,"isHistoric":false}]},"__N_SSG":true}