{"pageProps":{"locale":"de","admin2":{"geonameid":6458829,"name":"Bezirk Lebern","country":"CH","admin1":"SO","admin2":"1107","admin3":"","latitude":"47.2179800","longitude":"7.4805300"},"admin1":{"geonameid":2658563,"name":"Kanton Solothurn","admin1":"SO"},"locations":[{"geonameid":2661533,"name":"Bettlach","admin3":"2543"},{"geonameid":2660512,"name":"Grenchen","admin3":"2546"},{"geonameid":6691324,"name":"Langendorf","admin3":"2550"},{"geonameid":2659036,"name":"Riedholz","admin3":"2554"},{"geonameid":2658634,"name":"Selzach","admin3":"2556"}],"admin3":[{"geonameid":7285146,"name":"Balm bei Günsberg","admin3":"2541"},{"geonameid":7285185,"name":"Bellach","admin3":"2542"},{"geonameid":7285225,"name":"Bettlach","admin3":"2543"},{"geonameid":7285803,"name":"Feldbrunnen-St. Niklaus","admin3":"2544"},{"geonameid":7285843,"name":"Flumenthal","admin3":"2545"},{"geonameid":7285973,"name":"Grenchen","admin3":"2546"},{"geonameid":7286004,"name":"Günsberg","admin3":"2547"},{"geonameid":7286118,"name":"Hubersdorf","admin3":"2548"},{"geonameid":7286176,"name":"Kammersrohr","admin3":"2549"},{"geonameid":7286258,"name":"Langendorf","admin3":"2550"},{"geonameid":7286369,"name":"Lommiswil","admin3":"2551"},{"geonameid":7286682,"name":"Oberdorf (SO)","admin3":"2553"},{"geonameid":7286906,"name":"Riedholz","admin3":"2554"},{"geonameid":7287003,"name":"Rüttenen","admin3":"2555"},{"geonameid":7287144,"name":"Selzach","admin3":"2556"}],"alternateNames":[]},"__N_SSG":true}