{"pageProps":{"locale":"de","admin2":{"geonameid":6458869,"name":"Bezirk Thal","country":"CH","admin1":"SO","admin2":"1102","admin3":"","latitude":"47.3109500","longitude":"7.6359200"},"admin1":{"geonameid":2658563,"name":"Kanton Solothurn","admin1":"SO"},"locations":[{"geonameid":2661858,"name":"Aedermannsdorf","admin3":"2421"},{"geonameid":2661626,"name":"Balsthal","admin3":"2422"},{"geonameid":2660666,"name":"Gänsbrunnen","admin3":"2430"},{"geonameid":2660375,"name":"Herbetswil","admin3":"2424"},{"geonameid":2660313,"name":"Holderbank","admin3":"2425"},{"geonameid":2659997,"name":"Laupersdorf","admin3":"2426"},{"geonameid":2659726,"name":"Matzendorf","admin3":"2427"},{"geonameid":2658021,"name":"Welschenrohr","admin3":"2430"}],"admin3":[{"geonameid":7285024,"name":"Aedermannsdorf","admin3":"2421"},{"geonameid":7285148,"name":"Balsthal","admin3":"2422"},{"geonameid":7286062,"name":"Herbetswil","admin3":"2424"},{"geonameid":7286102,"name":"Holderbank (SO)","admin3":"2425"},{"geonameid":7286281,"name":"Laupersdorf","admin3":"2426"},{"geonameid":7286460,"name":"Matzendorf","admin3":"2427"},{"geonameid":7286580,"name":"Mümliswil-Ramiswil","admin3":"2428"},{"geonameid":12206814,"name":"Welschenrohr-Gänsbrunnen","admin3":"2430"}],"alternateNames":[]},"__N_SSG":true}