{"pageProps":{"locale":"de","admin2":{"geonameid":6458893,"name":"Bezirk Olten","country":"CH","admin1":"SO","admin2":"1108","admin3":"","latitude":"47.3442600","longitude":"7.9075500"},"admin1":{"geonameid":2658563,"name":"Kanton Solothurn","admin1":"SO"},"locations":[{"geonameid":2660703,"name":"Fulenbach","admin3":""},{"geonameid":2660442,"name":"Gunzgen","admin3":"2578"},{"geonameid":2660426,"name":"Hägendorf","admin3":"2579"},{"geonameid":2659464,"name":"Niedergösgen","admin3":"2572"},{"geonameid":2659384,"name":"Obergösgen","admin3":"2573"},{"geonameid":2659297,"name":"Olten","admin3":"2581"},{"geonameid":2658706,"name":"Schönenwerd","admin3":"2583"},{"geonameid":2658053,"name":"Wangen","admin3":"2586"}],"admin3":[{"geonameid":7285291,"name":"Boningen","admin3":"2571"},{"geonameid":7285622,"name":"Däniken","admin3":"2572"},{"geonameid":7285679,"name":"Dulliken","admin3":"2573"},{"geonameid":7285742,"name":"Eppenberg-Wöschnau","admin3":"2574"},{"geonameid":7285875,"name":"Fulenbach","admin3":"2575"},{"geonameid":7285981,"name":"Gretzenbach","admin3":"2576"},{"geonameid":7286006,"name":"Gunzgen","admin3":"2578"},{"geonameid":7286020,"name":"Hägendorf","admin3":"2579"},{"geonameid":7286182,"name":"Kappel (SO)","admin3":"2580"},{"geonameid":7286738,"name":"Olten","admin3":"2581"},{"geonameid":7286897,"name":"Rickenbach (SO)","admin3":"2582"},{"geonameid":7287110,"name":"Schönenwerd","admin3":"2583"},{"geonameid":7287221,"name":"Starrkirch-Wil","admin3":"2584"},{"geonameid":7287537,"name":"Walterswil (SO)","admin3":"2585"},{"geonameid":7287540,"name":"Wangen bei Olten","admin3":"2586"}],"alternateNames":[]},"__N_SSG":true}