{"pageProps":{"locale":"de","admin2":{"geonameid":6458742,"name":"Bezirk Gäu","country":"CH","admin1":"SO","admin2":"1101","admin3":"","latitude":"47.2960600","longitude":"7.7750300"},"admin1":{"geonameid":2658563,"name":"Kanton Solothurn","admin1":"SO"},"locations":[{"geonameid":2660943,"name":"Egerkingen","admin3":"2401"},{"geonameid":2659469,"name":"Niederbuchsiten","admin3":"2405"},{"geonameid":2659406,"name":"Oberbuchsiten","admin3":"2406"},{"geonameid":2659311,"name":"Oensingen","admin3":"2407"},{"geonameid":2657957,"name":"Wolfwil","admin3":"2408"}],"admin3":[{"geonameid":7285701,"name":"Egerkingen","admin3":"2401"},{"geonameid":7286030,"name":"Härkingen","admin3":"2402"},{"geonameid":7286190,"name":"Kestenholz","admin3":"2403"},{"geonameid":7286624,"name":"Neuendorf","admin3":"2404"},{"geonameid":7286635,"name":"Niederbuchsiten","admin3":"2405"},{"geonameid":7286676,"name":"Oberbuchsiten","admin3":"2406"},{"geonameid":7286728,"name":"Oensingen","admin3":"2407"},{"geonameid":7287607,"name":"Wolfwil","admin3":"2408"}],"alternateNames":[]},"__N_SSG":true}