{"pageProps":{"locale":"de","admin2":{"geonameid":6458874,"name":"Bezirk Gösgen","country":"CH","admin1":"SO","admin2":"1105","admin3":"","latitude":"47.3775800","longitude":"7.9203000"},"admin1":{"geonameid":2658563,"name":"Kanton Solothurn","admin1":"SO"},"locations":[{"geonameid":2659467,"name":"Erlinsbach","admin3":"2503"},{"geonameid":2659851,"name":"Lostorf","admin3":"2493"},{"geonameid":2658992,"name":"Rohr","admin3":"2499"},{"geonameid":2658312,"name":"Trimbach","admin3":"2500"}],"admin3":[{"geonameid":7285755,"name":"Erlinsbach (SO)","admin3":"2503"},{"geonameid":7286035,"name":"Hauenstein-Ifenthal","admin3":"2491"},{"geonameid":7286191,"name":"Kienberg","admin3":"2492"},{"geonameid":7286374,"name":"Lostorf","admin3":"2493"},{"geonameid":7286640,"name":"Niedergösgen","admin3":"2495"},{"geonameid":7286692,"name":"Obergösgen","admin3":"2497"},{"geonameid":7287253,"name":"Stüsslingen","admin3":"2499"},{"geonameid":7287333,"name":"Trimbach","admin3":"2500"},{"geonameid":7287593,"name":"Winznau","admin3":"2501"},{"geonameid":7287594,"name":"Wisen (SO)","admin3":"2502"}],"alternateNames":[]},"__N_SSG":true}