{"pageProps":{"locale":"ro","admin2":{"geonameid":666675,"name":"Comuna Slobozia Bradului","country":"RO","admin1":"40","admin2":"177655","admin3":"","latitude":"45.4920300","longitude":"27.0397700","localeAltName":null},"admin1":{"geonameid":662447,"name":"Vrancea","admin1":"40","localeAltName":"Vrancea"},"locations":[{"geonameid":680750,"name":"Cornetu","admin3":"","localeAltName":null},{"geonameid":682676,"name":"Coroteni","admin3":"","localeAltName":null},{"geonameid":674927,"name":"Leeşti","admin3":"","localeAltName":null},{"geonameid":674797,"name":"Liești","admin3":"","localeAltName":null},{"geonameid":671881,"name":"Olăreni","admin3":"","localeAltName":null},{"geonameid":666676,"name":"Slobozia Bradului","admin3":"","localeAltName":null},{"geonameid":663912,"name":"Valea Beciului","admin3":"","localeAltName":null}],"admin3":[],"alternateNames":[{"alternatenameId":391637,"geonameid":662447,"isoLanguage":"ro","alternateName":"Vrancea","isPreferredName":true,"isShortName":true,"isColloquial":false,"isHistoric":false}]},"__N_SSG":true}