{"pageProps":{"locale":"ro","admin2":{"geonameid":662737,"name":"Comuna Vârteşcoiu","country":"RO","admin1":"40","admin2":"178689","admin3":"","latitude":"45.7246500","longitude":"27.0647100","localeAltName":null},"admin1":{"geonameid":662447,"name":"Vrancea","admin1":"40","localeAltName":"Vrancea"},"locations":[{"geonameid":685207,"name":"Beciu","admin3":"","localeAltName":null},{"geonameid":678453,"name":"Faraoanele","admin3":"","localeAltName":null},{"geonameid":671840,"name":"Olteni","admin3":"","localeAltName":null},{"geonameid":670950,"name":"Pietroasa","admin3":"","localeAltName":null},{"geonameid":668885,"name":"Râmniceanca","admin3":"","localeAltName":null},{"geonameid":668586,"name":"Rotăreşti","admin3":"","localeAltName":null},{"geonameid":662738,"name":"Vârteşcoiu","admin3":"","localeAltName":null}],"admin3":[],"alternateNames":[{"alternatenameId":391637,"geonameid":662447,"isoLanguage":"ro","alternateName":"Vrancea","isPreferredName":true,"isShortName":true,"isColloquial":false,"isHistoric":false}]},"__N_SSG":true}