{"pageProps":{"locale":"ro","admin2":{"geonameid":672717,"name":"Comuna Moviliţa","country":"RO","admin1":"40","admin2":"176793","admin3":"","latitude":"45.9575000","longitude":"27.1048700","localeAltName":null},"admin1":{"geonameid":662447,"name":"Vrancea","admin1":"40","localeAltName":"Vrancea"},"locations":[{"geonameid":679341,"name":"Diocheți-Rediu","admin3":"","localeAltName":null},{"geonameid":677904,"name":"Frecăței","admin3":"","localeAltName":null},{"geonameid":672720,"name":"Moviliţa","admin3":"","localeAltName":null},{"geonameid":669009,"name":"Rediu","admin3":"","localeAltName":null},{"geonameid":666371,"name":"Sperieţi","admin3":"","localeAltName":null},{"geonameid":664581,"name":"Trotușanu","admin3":"","localeAltName":null},{"geonameid":663287,"name":"Văleni","admin3":"","localeAltName":null},{"geonameid":662362,"name":"Zăbrăuţii","admin3":"","localeAltName":null}],"admin3":[],"alternateNames":[{"alternatenameId":391637,"geonameid":662447,"isoLanguage":"ro","alternateName":"Vrancea","isPreferredName":true,"isShortName":true,"isColloquial":false,"isHistoric":false}]},"__N_SSG":true}