{"pageProps":{"locale":"ro","admin2":{"geonameid":680508,"name":"Comuna Coteşti","country":"RO","admin1":"40","admin2":"175885","admin3":"","latitude":"45.6368900","longitude":"27.0754600","localeAltName":null},"admin1":{"geonameid":662447,"name":"Vrancea","admin1":"40","localeAltName":"Vrancea"},"locations":[{"geonameid":683443,"name":"Budești","admin3":"","localeAltName":null},{"geonameid":680509,"name":"Coteşti","admin3":"","localeAltName":null},{"geonameid":676940,"name":"Goleștii de Sus","admin3":"","localeAltName":null},{"geonameid":675903,"name":"Hurhuia","admin3":"","localeAltName":null},{"geonameid":673250,"name":"Mânăstirea Coteşti","admin3":"","localeAltName":null},{"geonameid":671978,"name":"Odobasca-Coteşti","admin3":"","localeAltName":null},{"geonameid":667658,"name":"Schitu Coteşti","admin3":"","localeAltName":null},{"geonameid":663818,"name":"Valea Cotești","admin3":"","localeAltName":null}],"admin3":[],"alternateNames":[{"alternatenameId":391637,"geonameid":662447,"isoLanguage":"ro","alternateName":"Vrancea","isPreferredName":true,"isShortName":true,"isColloquial":false,"isHistoric":false}]},"__N_SSG":true}