{"pageProps":{"locale":"ro","admin2":{"geonameid":662384,"name":"Comuna Vulturu","country":"RO","admin1":"40","admin2":"178821","admin3":"","latitude":"45.6078300","longitude":"27.4228100","localeAltName":null},"admin1":{"geonameid":662447,"name":"Vrancea","admin1":"40","localeAltName":"Vrancea"},"locations":[{"geonameid":684057,"name":"Boţârlău","admin3":"","localeAltName":null},{"geonameid":676189,"name":"Hânguleşti","admin3":"","localeAltName":null},{"geonameid":673974,"name":"Maluri","admin3":"","localeAltName":null},{"geonameid":673970,"name":"Maluri-Râmnic","admin3":"","localeAltName":null},{"geonameid":663988,"name":"Vadu Roșca","admin3":"","localeAltName":null},{"geonameid":663987,"name":"Vadu Roşca de Jos","admin3":"","localeAltName":null},{"geonameid":662382,"name":"Vulturu","admin3":"","localeAltName":null},{"geonameid":662383,"name":"Vulturu de Jos","admin3":"","localeAltName":null}],"admin3":[],"alternateNames":[{"alternatenameId":391637,"geonameid":662447,"isoLanguage":"ro","alternateName":"Vrancea","isPreferredName":true,"isShortName":true,"isColloquial":false,"isHistoric":false}]},"__N_SSG":true}