{"pageProps":{"locale":"ro","admin2":{"geonameid":666331,"name":"Comuna Spulber","country":"RO","admin1":"40","admin2":"178965","admin3":"","latitude":"45.7465400","longitude":"26.7392500","localeAltName":null},"admin1":{"geonameid":662447,"name":"Vrancea","admin1":"40","localeAltName":"Vrancea"},"locations":[{"geonameid":682645,"name":"Carşocheşti","admin3":"","localeAltName":null},{"geonameid":682644,"name":"Carșochești-Corăbița","admin3":"","localeAltName":null},{"geonameid":679038,"name":"Dosu Ţapului","admin3":"","localeAltName":null},{"geonameid":678398,"name":"Faţa Ţipăului","admin3":"","localeAltName":null},{"geonameid":672875,"name":"Morărești","admin3":"","localeAltName":null},{"geonameid":671194,"name":"Păvălari","admin3":"","localeAltName":null},{"geonameid":670269,"name":"Poduri de Jos","admin3":"","localeAltName":null},{"geonameid":670268,"name":"Poduri de Sus","admin3":"","localeAltName":null},{"geonameid":666332,"name":"Spulber","admin3":"","localeAltName":null},{"geonameid":665039,"name":"Țipău","admin3":"","localeAltName":null},{"geonameid":664838,"name":"Tojanii","admin3":"","localeAltName":null}],"admin3":[],"alternateNames":[{"alternatenameId":391637,"geonameid":662447,"isoLanguage":"ro","alternateName":"Vrancea","isPreferredName":true,"isShortName":true,"isColloquial":false,"isHistoric":false}]},"__N_SSG":true}