{"pageProps":{"locale":"ro","admin2":{"geonameid":678650,"name":"Comuna Dumitreşti","country":"RO","admin1":"40","admin2":"175983","admin3":"","latitude":"45.5771500","longitude":"26.9072800","localeAltName":null},"admin1":{"geonameid":662447,"name":"Vrancea","admin1":"40","localeAltName":"Vrancea"},"locations":[{"geonameid":685708,"name":"Bălălăi","admin3":"","localeAltName":null},{"geonameid":684910,"name":"Biceștii de Jos","admin3":"","localeAltName":null},{"geonameid":684909,"name":"Biceștii de Sus","admin3":"","localeAltName":null},{"geonameid":684576,"name":"Blidari","admin3":"","localeAltName":null},{"geonameid":681474,"name":"Ciucurile","admin3":"","localeAltName":null},{"geonameid":678653,"name":"Dumitrești","admin3":"","localeAltName":null},{"geonameid":678647,"name":"Dumitreștii de Sus","admin3":"","localeAltName":null},{"geonameid":678649,"name":"Dumitreștii-Față","admin3":"","localeAltName":null},{"geonameid":677640,"name":"Găloiești","admin3":"","localeAltName":null},{"geonameid":677128,"name":"Giurcari","admin3":"","localeAltName":null},{"geonameid":676694,"name":"Groapa Mare","admin3":"","localeAltName":null},{"geonameid":674999,"name":"Lăstuni","admin3":"","localeAltName":null},{"geonameid":674767,"name":"Linia","admin3":"","localeAltName":null},{"geonameid":674284,"name":"Lupoaia","admin3":"","localeAltName":null},{"geonameid":672771,"name":"Motnău","admin3":"","localeAltName":null},{"geonameid":671179,"name":"Pe Faţă","admin3":"","localeAltName":null},{"geonameid":670195,"name":"Poienița","admin3":"","localeAltName":null},{"geonameid":668667,"name":"Roșcari","admin3":"","localeAltName":null},{"geonameid":667106,"name":"Siminoc","admin3":"","localeAltName":null},{"geonameid":665063,"name":"Tinoasa","admin3":"","localeAltName":null},{"geonameid":664635,"name":"Trestia","admin3":"","localeAltName":null},{"geonameid":663587,"name":"Valea Mică","admin3":"","localeAltName":null}],"admin3":[],"alternateNames":[{"alternatenameId":391637,"geonameid":662447,"isoLanguage":"ro","alternateName":"Vrancea","isPreferredName":true,"isShortName":true,"isColloquial":false,"isHistoric":false}]},"__N_SSG":true}