{"pageProps":{"locale":"ro","admin2":{"geonameid":8334851,"name":"Comuna Garoafa","country":"RO","admin1":"40","admin2":"176212","admin3":"","latitude":"45.7981200","longitude":"27.2501000","localeAltName":null},"admin1":{"geonameid":662447,"name":"Vrancea","admin1":"40","localeAltName":"Vrancea"},"locations":[{"geonameid":684627,"name":"Bizighești","admin3":"","localeAltName":null},{"geonameid":681365,"name":"Ciușlea","admin3":"","localeAltName":null},{"geonameid":679301,"name":"Doaga","admin3":"","localeAltName":null},{"geonameid":678394,"name":"Făurei","admin3":"","localeAltName":null},{"geonameid":677583,"name":"Garoafa","admin3":"","localeAltName":null},{"geonameid":11048298,"name":"Precistanu","admin3":"","localeAltName":null},{"geonameid":669362,"name":"Răchitosu","admin3":"","localeAltName":null},{"geonameid":666009,"name":"Străjescu","admin3":"","localeAltName":null},{"geonameid":664914,"name":"Tişiţa","admin3":"","localeAltName":null}],"admin3":[],"alternateNames":[{"alternatenameId":391637,"geonameid":662447,"isoLanguage":"ro","alternateName":"Vrancea","isPreferredName":true,"isShortName":true,"isColloquial":false,"isHistoric":false}]},"__N_SSG":true}