{"pageProps":{"locale":"ro","admin2":{"geonameid":8334930,"name":"Comuna Cernişoara","country":"RO","admin1":"39","admin2":"169039","admin3":"","latitude":"45.0343200","longitude":"24.0048700"},"admin1":{"geonameid":662892,"name":"Vâlcea","admin1":"39"},"locations":[{"geonameid":686144,"name":"Armășești","admin3":""},{"geonameid":682298,"name":"Cernişoara","admin3":""},{"geonameid":676658,"name":"Groși","admin3":""},{"geonameid":674200,"name":"Mădulari","admin3":""},{"geonameid":674089,"name":"Mahalaua Ghiţuleşti","admin3":""},{"geonameid":674088,"name":"Mahalaua Machedoneşti","admin3":""},{"geonameid":674085,"name":"Mahalaua Murguleşti","admin3":""},{"geonameid":674084,"name":"Mahalaua Obârşia","admin3":""},{"geonameid":674083,"name":"Mahalaua Oleşti","admin3":""},{"geonameid":674081,"name":"Mahalaua Şcoala","admin3":""},{"geonameid":672975,"name":"Modoia","admin3":""},{"geonameid":672082,"name":"Obârșia","admin3":""},{"geonameid":671865,"name":"Oleşti","admin3":""},{"geonameid":667959,"name":"Sărsănești","admin3":""},{"geonameid":663537,"name":"Valea Orlii","admin3":""}],"admin3":[],"alternateNames":[]},"__N_SSG":true}