{"pageProps":{"locale":"ro","admin2":{"geonameid":662515,"name":"Comuna Voineşti","country":"RO","admin1":"16","admin2":"69526","admin3":"","latitude":"45.0698600","longitude":"25.2607200"},"admin1":{"geonameid":679385,"name":"Dâmboviţa","admin1":"16"},"locations":[{"geonameid":683219,"name":"Burlăneşti","admin3":""},{"geonameid":677533,"name":"Gemenea Brătulești","admin3":""},{"geonameid":675582,"name":"Între Dealuri","admin3":""},{"geonameid":675155,"name":"Juguleşti","admin3":""},{"geonameid":674489,"name":"Lunca","admin3":""},{"geonameid":673922,"name":"Manga","admin3":""},{"geonameid":673181,"name":"Mânjina","admin3":""},{"geonameid":673802,"name":"Mărgineanca","admin3":""},{"geonameid":673463,"name":"Micloşanii Mari","admin3":""},{"geonameid":673027,"name":"Mlăcile","admin3":""},{"geonameid":671814,"name":"Oncești","admin3":""},{"geonameid":668533,"name":"Rudari","admin3":""},{"geonameid":665825,"name":"Suduleni","admin3":""},{"geonameid":662521,"name":"Voineşti","admin3":""}],"admin3":[],"alternateNames":[]},"__N_SSG":true}