{"pageProps":{"locale":"en","admin2":{"geonameid":5462019,"name":"Cibola County","country":"US","admin1":"NM","admin2":"006","admin3":"","latitude":"34.9125700","longitude":"-107.9997100","localeAltName":null},"admin1":{"geonameid":5481136,"name":"New Mexico","admin1":"NM","localeAltName":"New Mexico"},"locations":[{"geonameid":7315302,"name":"Bluewater Village","admin3":"","localeAltName":null},{"geonameid":5469841,"name":"Grants","admin3":"","localeAltName":null},{"geonameid":5475044,"name":"Laguna","admin3":"","localeAltName":null},{"geonameid":5479005,"name":"Mesita","admin3":"","localeAltName":null},{"geonameid":5479418,"name":"Milan","admin3":"","localeAltName":null},{"geonameid":5483387,"name":"Paraje","admin3":"","localeAltName":null},{"geonameid":5489890,"name":"San Rafael","admin3":"","localeAltName":null},{"geonameid":7261794,"name":"Skyline-Ganipa","admin3":"","localeAltName":null}],"admin3":[],"alternateNames":[{"alternatenameId":2124824,"geonameid":5481136,"isoLanguage":"en","alternateName":"New Mexico","isPreferredName":true,"isShortName":true,"isColloquial":false,"isHistoric":false}]},"__N_SSG":true}