{"pageProps":{"locale":"en","admin2":{"geonameid":5487732,"name":"Rio Arriba County","country":"US","admin1":"NM","admin2":"039","admin3":"","latitude":"36.5095700","longitude":"-106.6931100","localeAltName":null},"admin1":{"geonameid":5481136,"name":"New Mexico","admin1":"NM","localeAltName":"New Mexico"},"locations":[{"geonameid":5461240,"name":"Chama","admin3":"","localeAltName":null},{"geonameid":5461293,"name":"Chamita","admin3":"","localeAltName":null},{"geonameid":5461623,"name":"Chili","admin3":"","localeAltName":null},{"geonameid":5461645,"name":"Chimayo","admin3":"","localeAltName":null},{"geonameid":5465133,"name":"Dixon","admin3":"","localeAltName":null},{"geonameid":5465650,"name":"Dulce","admin3":"","localeAltName":null},{"geonameid":5466456,"name":"El Duende","admin3":"","localeAltName":null},{"geonameid":5466535,"name":"El Rito","admin3":"","localeAltName":null},{"geonameid":5467024,"name":"Espa√±ola","admin3":"","localeAltName":null},{"geonameid":5471232,"name":"Hernandez","admin3":"","localeAltName":null},{"geonameid":5474935,"name":"La Mesilla","admin3":"","localeAltName":null},{"geonameid":5474986,"name":"La Villita","admin3":"","localeAltName":null},{"geonameid":5476909,"name":"Los Luceros","admin3":"","localeAltName":null},{"geonameid":5480832,"name":"Navajo","admin3":"","localeAltName":null},{"geonameid":7262027,"name":"Ohkay Owingeh","admin3":"","localeAltName":null},{"geonameid":5489630,"name":"San Jose","admin3":"","localeAltName":null},{"geonameid":5489690,"name":"San Juan","admin3":"","localeAltName":null},{"geonameid":5490234,"name":"Santa Clara Pueblo","admin3":"","localeAltName":null},{"geonameid":5490359,"name":"Santa Teresa","admin3":"","localeAltName":null},{"geonameid":5495238,"name":"Truchas","admin3":"","localeAltName":null},{"geonameid":5496554,"name":"Velarde","admin3":"","localeAltName":null}],"admin3":[],"alternateNames":[{"alternatenameId":2124824,"geonameid":5481136,"isoLanguage":"en","alternateName":"New Mexico","isPreferredName":true,"isShortName":true,"isColloquial":false,"isHistoric":false}]},"__N_SSG":true}