{"pageProps":{"locale":"en","admin2":{"geonameid":5490135,"name":"Sandoval County","country":"US","admin1":"NM","admin2":"043","admin3":"","latitude":"35.6885500","longitude":"-106.8658400","localeAltName":null},"admin1":{"geonameid":5481136,"name":"New Mexico","admin1":"NM","localeAltName":"New Mexico"},"locations":[{"geonameid":5454807,"name":"Algodones","admin3":"","localeAltName":null},{"geonameid":5457198,"name":"Bernalillo","admin3":"","localeAltName":null},{"geonameid":5462480,"name":"Cochiti","admin3":"","localeAltName":null},{"geonameid":5462489,"name":"Cochiti Lake","admin3":"","localeAltName":null},{"geonameid":5463237,"name":"Corrales","admin3":"","localeAltName":null},{"geonameid":5550492,"name":"Cuba","admin3":"","localeAltName":null},{"geonameid":7839240,"name":"Enchanted Hills","admin3":"","localeAltName":null},{"geonameid":5473297,"name":"Jemez Pueblo","admin3":"","localeAltName":null},{"geonameid":5483779,"name":"Pe√±a Blanca","admin3":"","localeAltName":null},{"geonameid":5484613,"name":"Placitas","admin3":"","localeAltName":null},{"geonameid":5487811,"name":"Rio Rancho","admin3":"","localeAltName":null},{"geonameid":5489545,"name":"San Felipe Pueblo","admin3":"","localeAltName":null},{"geonameid":5490202,"name":"Santa Ana Pueblo","admin3":"","localeAltName":null},{"geonameid":5490385,"name":"Santo Domingo Pueblo","admin3":"","localeAltName":null},{"geonameid":5498952,"name":"Zia Pueblo","admin3":"","localeAltName":null}],"admin3":[],"alternateNames":[{"alternatenameId":2124824,"geonameid":5481136,"isoLanguage":"en","alternateName":"New Mexico","isPreferredName":true,"isShortName":true,"isColloquial":false,"isHistoric":false}]},"__N_SSG":true}