{"pageProps":{"locale":"en","admin2":{"geonameid":5490272,"name":"Santa Fe County","country":"US","admin1":"NM","admin2":"049","admin3":"","latitude":"35.5068600","longitude":"-105.9761200","localeAltName":null},"admin1":{"geonameid":5481136,"name":"New Mexico","admin1":"NM","localeAltName":"New Mexico"},"locations":[{"geonameid":5454355,"name":"Agua Fria","admin3":"","localeAltName":null},{"geonameid":5460910,"name":"Cedar Grove","admin3":"","localeAltName":null},{"geonameid":5466336,"name":"Edgewood","admin3":"","localeAltName":null},{"geonameid":5466517,"name":"El Rancho","admin3":"","localeAltName":null},{"geonameid":5466567,"name":"El Valle de Arroyo Seco","admin3":"","localeAltName":null},{"geonameid":5466585,"name":"Eldorado at Santa Fe","admin3":"","localeAltName":null},{"geonameid":5474794,"name":"La Cienega","admin3":"","localeAltName":null},{"geonameid":5474960,"name":"La Puebla","admin3":"","localeAltName":null},{"geonameid":5480731,"name":"Nambe","admin3":"","localeAltName":null},{"geonameid":5550529,"name":"Pojoaque","admin3":"","localeAltName":null},{"geonameid":5489602,"name":"San Ildefonso Pueblo","admin3":"","localeAltName":null},{"geonameid":5490263,"name":"Santa Fe","admin3":"","localeAltName":null},{"geonameid":5494156,"name":"Tesuque","admin3":"","localeAltName":null}],"admin3":[{"geonameid":11788286,"name":"City of Santa Fe","admin3":"11788286"}],"alternateNames":[{"alternatenameId":2124824,"geonameid":5481136,"isoLanguage":"en","alternateName":"New Mexico","isPreferredName":true,"isShortName":true,"isColloquial":false,"isHistoric":false}]},"__N_SSG":true}