{"pageProps":{"locale":"en","admin2":{"geonameid":5493780,"name":"Taos County","country":"US","admin1":"NM","admin2":"055","admin3":"","latitude":"36.5783000","longitude":"-105.6309700","localeAltName":null},"admin1":{"geonameid":5481136,"name":"New Mexico","admin1":"NM","localeAltName":"New Mexico"},"locations":[{"geonameid":5455775,"name":"Arroyo Seco","admin3":"","localeAltName":null},{"geonameid":5483803,"name":"Pe√±asco","admin3":"","localeAltName":null},{"geonameid":5485658,"name":"Questa","admin3":"","localeAltName":null},{"geonameid":5486761,"name":"Ranchos de Taos","admin3":"","localeAltName":null},{"geonameid":5493684,"name":"Talpa","admin3":"","localeAltName":null},{"geonameid":5493811,"name":"Taos","admin3":"","localeAltName":null},{"geonameid":5493798,"name":"Taos Pueblo","admin3":"","localeAltName":null}],"admin3":[],"alternateNames":[{"alternatenameId":2124824,"geonameid":5481136,"isoLanguage":"en","alternateName":"New Mexico","isPreferredName":true,"isShortName":true,"isColloquial":false,"isHistoric":false}]},"__N_SSG":true}