{"pageProps":{"locale":"en","admin2":{"geonameid":5790179,"name":"Clark County","country":"US","admin1":"WA","admin2":"011","admin3":"","latitude":"45.7792700","longitude":"-122.4825900"},"admin1":{"geonameid":5815135,"name":"Washington","admin1":"WA","localeAltName":"Washington"},"locations":[{"geonameid":5785614,"name":"Amboy","admin3":""},{"geonameid":5786322,"name":"Barberton","admin3":""},{"geonameid":5786485,"name":"Battle Ground","admin3":""},{"geonameid":5788290,"name":"Brush Prairie","admin3":""},{"geonameid":5788822,"name":"Camas","admin3":""},{"geonameid":7261729,"name":"Dollar Corner","admin3":""},{"geonameid":5794242,"name":"Felida","admin3":""},{"geonameid":5794273,"name":"Fern Prairie","admin3":""},{"geonameid":5794559,"name":"Five Corners","admin3":""},{"geonameid":5796984,"name":"Hazel Dell","admin3":""},{"geonameid":5797435,"name":"Hockinson","admin3":""},{"geonameid":5800069,"name":"La Center","admin3":""},{"geonameid":5800314,"name":"Lake Shore","admin3":""},{"geonameid":5800840,"name":"Lewisville","admin3":""},{"geonameid":5803025,"name":"Meadow Glade","admin3":""},{"geonameid":5803482,"name":"Mill Plain","admin3":""},{"geonameid":5803622,"name":"Minnehaha","admin3":""},{"geonameid":5804135,"name":"Mount Vista","admin3":""},{"geonameid":5805815,"name":"Orchards","admin3":""},{"geonameid":5808311,"name":"Ridgefield","admin3":""},{"geonameid":5809333,"name":"Salmon Creek","admin3":""},{"geonameid":5814616,"name":"Vancouver","admin3":""},{"geonameid":5814695,"name":"Venersborg","admin3":""},{"geonameid":5814950,"name":"Walnut Grove","admin3":""},{"geonameid":5815136,"name":"Washougal","admin3":""},{"geonameid":5816582,"name":"Yacolt","admin3":""}],"admin3":[{"geonameid":7172990,"name":"City of Battle Ground","admin3":"7172990"},{"geonameid":7173109,"name":"City of Camas","admin3":"7173109"},{"geonameid":7173749,"name":"City of Ridgefield","admin3":"7173749"},{"geonameid":7174192,"name":"City of La Center","admin3":"7174192"},{"geonameid":7174625,"name":"City of Vancouver","admin3":"7174625"},{"geonameid":7174653,"name":"City of Washougal","admin3":"7174653"},{"geonameid":7175914,"name":"Town of Yacolt","admin3":"7175914"}],"alternateNames":[{"alternatenameId":2089568,"geonameid":5815135,"isoLanguage":"en","alternateName":"Washington","isPreferredName":true,"isShortName":true,"isColloquial":false,"isHistoric":false}]},"__N_SSG":true}