{"pageProps":{"locale":"en","admin2":{"geonameid":5799853,"name":"Kitsap County","country":"US","admin1":"WA","admin2":"035","admin3":"","latitude":"47.6398300","longitude":"-122.6490000"},"admin1":{"geonameid":5815135,"name":"Washington","admin1":"WA","localeAltName":"Washington"},"locations":[{"geonameid":5816320,"name":"Bainbridge Island","admin3":""},{"geonameid":7260845,"name":"Bangor Trident Base","admin3":""},{"geonameid":5787076,"name":"Bethel","admin3":""},{"geonameid":5788054,"name":"Bremerton","admin3":""},{"geonameid":5788531,"name":"Burley","admin3":""},{"geonameid":5789949,"name":"Chico","admin3":""},{"geonameid":5793237,"name":"East Port Orchard","admin3":""},{"geonameid":5793780,"name":"Enetai","admin3":""},{"geonameid":7261137,"name":"Erlands Point-Kitsap Lake","admin3":""},{"geonameid":5796685,"name":"Hansville","admin3":""},{"geonameid":5798318,"name":"Indianola","admin3":""},{"geonameid":5799815,"name":"Kingston","admin3":""},{"geonameid":5801441,"name":"Lofall","admin3":""},{"geonameid":5802247,"name":"Manchester","admin3":""},{"geonameid":5804540,"name":"Navy Yard City","admin3":""},{"geonameid":5806274,"name":"Parkwood","admin3":""},{"geonameid":5807236,"name":"Port Orchard","admin3":""},{"geonameid":5807337,"name":"Poulsbo","admin3":""},{"geonameid":5808691,"name":"Rocky Point","admin3":""},{"geonameid":5809806,"name":"Seabeck","admin3":""},{"geonameid":5810490,"name":"Silverdale","admin3":""},{"geonameid":5811567,"name":"Southworth","admin3":""},{"geonameid":5812723,"name":"Suquamish","admin3":""},{"geonameid":5813832,"name":"Tracyton","admin3":""}],"admin3":[{"geonameid":7172972,"name":"City of Bainbridge Island","admin3":"7172972"},{"geonameid":7173059,"name":"City of Bremerton","admin3":"7173059"},{"geonameid":7174117,"name":"City of Port Orchard","admin3":"7174117"},{"geonameid":7174127,"name":"City of Poulsbo","admin3":"7174127"}],"alternateNames":[{"alternatenameId":2089568,"geonameid":5815135,"isoLanguage":"en","alternateName":"Washington","isPreferredName":true,"isShortName":true,"isColloquial":false,"isHistoric":false}]},"__N_SSG":true}