{"pageProps":{"locale":"en","admin2":{"geonameid":5267654,"name":"Polk County","country":"US","admin1":"WI","admin2":"095","admin3":"","latitude":"45.4614200","longitude":"-92.4413900","localeAltName":null},"admin1":{"geonameid":5279468,"name":"Wisconsin","admin1":"WI","localeAltName":"Wisconsin"},"locations":[{"geonameid":5243872,"name":"Amery","admin3":"01725","localeAltName":null},{"geonameid":5244607,"name":"Balsam Lake","admin3":"04475","localeAltName":null},{"geonameid":5248263,"name":"Centuria","admin3":"13850","localeAltName":null},{"geonameid":5248780,"name":"Clam Falls","admin3":"14837","localeAltName":null},{"geonameid":5248864,"name":"Clayton","admin3":"15100","localeAltName":null},{"geonameid":5248897,"name":"Clear Lake","admin3":"15250","localeAltName":null},{"geonameid":5250897,"name":"Dresser","admin3":"20850","localeAltName":null},{"geonameid":5253772,"name":"Frederic","admin3":"27500","localeAltName":null},{"geonameid":5261245,"name":"Luck","admin3":"46200","localeAltName":null},{"geonameid":5263014,"name":"Milltown","admin3":"52075","localeAltName":null},{"geonameid":5265824,"name":"Osceola","admin3":"60450","localeAltName":null},{"geonameid":5270204,"name":"Saint Croix Falls","admin3":"70550","localeAltName":null}],"admin3":[{"geonameid":5243679,"name":"Town of Alden","admin3":"00950"},{"geonameid":5243876,"name":"City of Amery","admin3":"01725","localeAltName":null},{"geonameid":5244077,"name":"Town of Apple River","admin3":"02350"},{"geonameid":5244614,"name":"Town of Balsam Lake","admin3":"04500"},{"geonameid":5244615,"name":"Village of Balsam Lake","admin3":"04475","localeAltName":null},{"geonameid":5245250,"name":"Town of Beaver","admin3":"05825"},{"geonameid":5246038,"name":"Town of Black Brook","admin3":"07700"},{"geonameid":5246442,"name":"Town of Bone Lake","admin3":"08750"},{"geonameid":5248264,"name":"Village of Centuria","admin3":"13850","localeAltName":null},{"geonameid":5248785,"name":"Town of Clam Falls","admin3":"14837","localeAltName":null},{"geonameid":5248870,"name":"Town of Clayton","admin3":"15125"},{"geonameid":5248872,"name":"Village of Clayton","admin3":"15100","localeAltName":null},{"geonameid":5248908,"name":"Town of Clear Lake","admin3":"15275"},{"geonameid":5248909,"name":"Village of Clear Lake","admin3":"15250","localeAltName":null},{"geonameid":5250898,"name":"Village of Dresser","admin3":"20850","localeAltName":null},{"geonameid":5252141,"name":"Town of Eureka","admin3":"24450"},{"geonameid":5252535,"name":"Town of Farmington","admin3":"25350"},{"geonameid":5253774,"name":"Village of Frederic","admin3":"27500","localeAltName":null},{"geonameid":5254072,"name":"Town of Garfield","admin3":"28350"},{"geonameid":5254174,"name":"Town of Georgetown","admin3":"28725"},{"geonameid":5258076,"name":"Town of Johnstown","admin3":"38400"},{"geonameid":5259376,"name":"Town of Laketown","admin3":"41900"},{"geonameid":5260097,"name":"Town of Lincoln","admin3":"44475"},{"geonameid":5260963,"name":"Town of Lorain","admin3":"45775"},{"geonameid":5261246,"name":"Town of Luck","admin3":"46225"},{"geonameid":5261247,"name":"Village of Luck","admin3":"46200","localeAltName":null},{"geonameid":5262343,"name":"Town of McKinley","admin3":"46900"},{"geonameid":5263016,"name":"Town of Milltown","admin3":"52100"},{"geonameid":5263017,"name":"Village of Milltown","admin3":"52075","localeAltName":null},{"geonameid":5265833,"name":"Town of Osceola","admin3":"60475"},{"geonameid":5265834,"name":"Village of Osceola","admin3":"60450","localeAltName":null},{"geonameid":5270207,"name":"City of Saint Croix Falls","admin3":"70550","localeAltName":null},{"geonameid":5270208,"name":"Town of Saint Croix Falls","admin3":"70575"},{"geonameid":5274619,"name":"Town of Sterling","admin3":"77050"},{"geonameid":5278635,"name":"Town of West Sweden","admin3":"86350"}],"alternateNames":[{"alternatenameId":2089565,"geonameid":5279468,"isoLanguage":"en","alternateName":"Wisconsin","isPreferredName":true,"isShortName":true,"isColloquial":false,"isHistoric":false}]},"__N_SSG":true}