{"pageProps":{"locale":"en","admin2":{"geonameid":4186396,"name":"Carroll County","country":"US","admin1":"GA","admin2":"045","admin3":"","latitude":"33.5828200","longitude":"-85.0797400"},"admin1":{"geonameid":4197000,"name":"Georgia","admin1":"GA","localeAltName":"Georgia"},"locations":[{"geonameid":4183899,"name":"Bowdon","admin3":""},{"geonameid":4186416,"name":"Carrollton","admin3":""},{"geonameid":4211143,"name":"Mount Zion","admin3":""},{"geonameid":4225973,"name":"Temple","admin3":""},{"geonameid":4228452,"name":"Villa Rica","admin3":""}],"admin3":[{"geonameid":7169936,"name":"City of Mount Zion","admin3":"7169936"},{"geonameid":7170892,"name":"City of Temple","admin3":"7170892"},{"geonameid":7171003,"name":"City of Whitesburg","admin3":"7171003"},{"geonameid":7317756,"name":"City of Bowdon","admin3":"7317756"},{"geonameid":7317775,"name":"City of Carrollton","admin3":"7317775"},{"geonameid":7318177,"name":"City of Villa Rica","admin3":"7318177"}],"alternateNames":[{"alternatenameId":2089570,"geonameid":4197000,"isoLanguage":"en","alternateName":"Georgia","isPreferredName":true,"isShortName":true,"isColloquial":false,"isHistoric":false}]},"__N_SSG":true}