{"pageProps":{"locale":"en","admin2":{"geonameid":4187535,"name":"Cherokee County","country":"US","admin1":"GA","admin2":"057","admin3":"","latitude":"34.2439300","longitude":"-84.4762000"},"admin1":{"geonameid":4197000,"name":"Georgia","admin1":"GA","localeAltName":"Georgia"},"locations":[{"geonameid":4180913,"name":"Ball Ground","admin3":""},{"geonameid":4186213,"name":"Canton","admin3":""},{"geonameid":4201047,"name":"Holly Springs","admin3":""},{"geonameid":4231874,"name":"Woodstock","admin3":""}],"admin3":[{"geonameid":7169952,"name":"City of Nelson","admin3":"7169952"},{"geonameid":7170208,"name":"City of Holly Springs","admin3":"7170208"},{"geonameid":7170951,"name":"City of Waleska","admin3":"7170951"},{"geonameid":7171042,"name":"City of Woodstock","admin3":"7171042"},{"geonameid":7317647,"name":"City of Ball Ground","admin3":"7317647"},{"geonameid":7317774,"name":"City of Canton","admin3":"7317774"}],"alternateNames":[{"alternatenameId":2089570,"geonameid":4197000,"isoLanguage":"en","alternateName":"Georgia","isPreferredName":true,"isShortName":true,"isColloquial":false,"isHistoric":false}]},"__N_SSG":true}