{"pageProps":{"locale":"en","admin2":{"geonameid":4188547,"name":"Cobb County","country":"US","admin1":"GA","admin2":"067","admin3":"","latitude":"33.9414700","longitude":"-84.5766700"},"admin1":{"geonameid":4197000,"name":"Georgia","admin1":"GA","localeAltName":"Georgia"},"locations":[{"geonameid":4179074,"name":"Acworth","admin3":""},{"geonameid":4180564,"name":"Austell","admin3":""},{"geonameid":4194111,"name":"Fair Oaks","admin3":""},{"geonameid":4203696,"name":"Kennesaw","admin3":""},{"geonameid":4207226,"name":"Mableton","admin3":""},{"geonameid":4207783,"name":"Marietta","admin3":""},{"geonameid":4217214,"name":"Powder Springs","admin3":""},{"geonameid":4223379,"name":"Smyrna","admin3":""},{"geonameid":4228518,"name":"Vinings","admin3":""}],"admin3":[{"geonameid":7169293,"name":"City of Acworth","admin3":"7169293"},{"geonameid":7170832,"name":"City of Smyrna","admin3":"7170832"},{"geonameid":7317645,"name":"City of Austell","admin3":"7317645"},{"geonameid":7317954,"name":"City of Powder Springs","admin3":"7317954"},{"geonameid":7318024,"name":"City of Kennesaw","admin3":"7318024"},{"geonameid":7318081,"name":"City of Marietta","admin3":"7318081"}],"alternateNames":[{"alternatenameId":2089570,"geonameid":4197000,"isoLanguage":"en","alternateName":"Georgia","isPreferredName":true,"isShortName":true,"isColloquial":false,"isHistoric":false}]},"__N_SSG":true}