{"pageProps":{"locale":"it","admin1":{"geonameid":2523119,"name":"Sicilia","country":"IT","admin1":"15","latitude":"37.7500000","longitude":"14.2500000","localeAltName":null},"admin2":[{"geonameid":2525763,"name":"Agrigento","admin2":"AG","localeAltName":"Agrigento"},{"geonameid":2525065,"name":"Catania","admin2":"CT","localeAltName":"Catania"},{"geonameid":2524818,"name":"Enna","admin2":"EN","localeAltName":"Enna"},{"geonameid":2524169,"name":"Messina","admin2":"ME","localeAltName":"Messina"},{"geonameid":2523918,"name":"Palermo","admin2":"PA","localeAltName":"Palermo"},{"geonameid":2525447,"name":"Provincia di Caltanissetta","admin2":"CL","localeAltName":"Caltanissetta"},{"geonameid":2523082,"name":"Provincia di Siracusa","admin2":"SR","localeAltName":"Siracusa"},{"geonameid":2523649,"name":"Ragusa","admin2":"RG","localeAltName":"Ragusa"},{"geonameid":2522875,"name":"Trapani","admin2":"TP","localeAltName":"Trapani"}],"admin3":[],"country":{"geonameid":3175395,"country":"IT","name":"Italian Republic","localeAltName":"Italia"},"alternateNames":[{"alternatenameId":1182583,"geonameid":2522875,"isoLanguage":"it","alternateName":"Trapani","isPreferredName":true,"isShortName":true,"isColloquial":false,"isHistoric":false},{"alternatenameId":1182679,"geonameid":2523082,"isoLanguage":"de","alternateName":"Syrakus","isPreferredName":true,"isShortName":true,"isColloquial":false,"isHistoric":false},{"alternatenameId":1182680,"geonameid":2523082,"isoLanguage":"it","alternateName":"Siracusa","isPreferredName":true,"isShortName":true,"isColloquial":false,"isHistoric":false},{"alternatenameId":2431343,"geonameid":2523082,"isoLanguage":"en","alternateName":"Syracuse","isPreferredName":true,"isShortName":true,"isColloquial":false,"isHistoric":false},{"alternatenameId":1980456,"geonameid":2523119,"isoLanguage":"en","alternateName":"Sicily","isPreferredName":true,"isShortName":true,"isColloquial":false,"isHistoric":false},{"alternatenameId":1182955,"geonameid":2523649,"isoLanguage":"it","alternateName":"Ragusa","isPreferredName":true,"isShortName":true,"isColloquial":false,"isHistoric":false},{"alternatenameId":1183070,"geonameid":2523918,"isoLanguage":"it","alternateName":"Palermo","isPreferredName":true,"isShortName":true,"isColloquial":false,"isHistoric":false},{"alternatenameId":1183176,"geonameid":2524169,"isoLanguage":"it","alternateName":"Messina","isPreferredName":true,"isShortName":true,"isColloquial":false,"isHistoric":false},{"alternatenameId":1183476,"geonameid":2524818,"isoLanguage":"it","alternateName":"Enna","isPreferredName":true,"isShortName":true,"isColloquial":false,"isHistoric":false},{"alternatenameId":1183567,"geonameid":2525065,"isoLanguage":"it","alternateName":"Catania","isPreferredName":true,"isShortName":true,"isColloquial":false,"isHistoric":false},{"alternatenameId":1183731,"geonameid":2525447,"isoLanguage":"it","alternateName":"Caltanissetta","isPreferredName":true,"isShortName":true,"isColloquial":false,"isHistoric":false},{"alternatenameId":1183888,"geonameid":2525763,"isoLanguage":"it","alternateName":"Agrigento","isPreferredName":true,"isShortName":true,"isColloquial":false,"isHistoric":false},{"alternatenameId":2431338,"geonameid":2525763,"isoLanguage":"de","alternateName":"Agrigent","isPreferredName":true,"isShortName":true,"isColloquial":false,"isHistoric":false},{"alternatenameId":1563662,"geonameid":3175395,"isoLanguage":"it","alternateName":"Italia","isPreferredName":true,"isShortName":true,"isColloquial":false,"isHistoric":false}]},"__N_SSG":true}