{"pageProps":{"locale":"en","admin2":{"geonameid":4997272,"name":"Isabella County","country":"US","admin1":"MI","admin2":"073","admin3":"","latitude":"43.6406000","longitude":"-84.8468000","localeAltName":null},"admin1":{"geonameid":5001836,"name":"Michigan","admin1":"MI","localeAltName":"Michigan"},"locations":[{"geonameid":5013285,"name":"Lake Isabella","admin3":"73200","localeAltName":null},{"geonameid":5002714,"name":"Mount Pleasant","admin3":"56020","localeAltName":null},{"geonameid":5009625,"name":"Shepherd","admin3":"16880","localeAltName":null},{"geonameid":5014319,"name":"Weidman","admin3":"73200","localeAltName":null}],"admin3":[{"geonameid":4987098,"name":"Township of Broomfield","admin3":"11140"},{"geonameid":4988779,"name":"Township of Chippewa","admin3":"15580"},{"geonameid":4989223,"name":"Township of Coe","admin3":"16880","localeAltName":null},{"geonameid":4989278,"name":"Township of Coldwater","admin3":"17060"},{"geonameid":4990606,"name":"Township of Deerfield","admin3":"21140"},{"geonameid":4990708,"name":"Township of Denver","admin3":"21680"},{"geonameid":4993428,"name":"Township of Fremont","admin3":"30680"},{"geonameid":4993956,"name":"Township of Gilmore","admin3":"32200"},{"geonameid":4997274,"name":"Township of Isabella","admin3":"41160"},{"geonameid":4999352,"name":"Township of Lincoln","admin3":"47660"},{"geonameid":5002727,"name":"City of Mount Pleasant","admin3":"56020","localeAltName":null},{"geonameid":5004054,"name":"Township of Nottawa","admin3":"59360"},{"geonameid":5007503,"name":"Township of Rolland","admin3":"69300"},{"geonameid":5009680,"name":"Township of Sherman","admin3":"73200","localeAltName":null},{"geonameid":5012955,"name":"Charter Township of Union","admin3":"81340"},{"geonameid":5013213,"name":"Township of Vernon","admin3":"82000"},{"geonameid":5015326,"name":"Township of Wise","admin3":"88040"}],"alternateNames":[{"alternatenameId":2124820,"geonameid":5001836,"isoLanguage":"en","alternateName":"Michigan","isPreferredName":true,"isShortName":true,"isColloquial":false,"isHistoric":false}]},"__N_SSG":true}