{"pageProps":{"locale":"en","admin2":{"geonameid":4998845,"name":"Lapeer County","country":"US","admin1":"MI","admin2":"087","admin3":"","latitude":"43.0901500","longitude":"-83.2217800","localeAltName":null},"admin1":{"geonameid":5001836,"name":"Michigan","admin1":"MI","localeAltName":"Michigan"},"locations":[{"geonameid":4984067,"name":"Almont","admin3":"01680","localeAltName":null},{"geonameid":4984510,"name":"Attica","admin3":"04040","localeAltName":null},{"geonameid":7259538,"name":"Barnes Lake-Millers Lake","admin3":"21160","localeAltName":null},{"geonameid":4989376,"name":"Columbiaville","admin3":"51420","localeAltName":null},{"geonameid":4991218,"name":"Dryden","admin3":"23160","localeAltName":null},{"geonameid":4996956,"name":"Imlay City","admin3":"40320","localeAltName":null},{"geonameid":4998842,"name":"Lapeer","admin3":"46040","localeAltName":null},{"geonameid":5001755,"name":"Metamora","admin3":"53360","localeAltName":null},{"geonameid":5003617,"name":"North Branch","admin3":"58090","localeAltName":null}],"admin3":[{"geonameid":4984071,"name":"Township of Almont","admin3":"01680","localeAltName":null},{"geonameid":4984341,"name":"Township of Arcadia","admin3":"03280"},{"geonameid":4984511,"name":"Township of Attica","admin3":"04040","localeAltName":null},{"geonameid":4987413,"name":"Township of Burlington","admin3":"11840"},{"geonameid":4987436,"name":"Township of Burnside","admin3":"11900"},{"geonameid":4990607,"name":"Township of Deerfield","admin3":"21160","localeAltName":null},{"geonameid":4991221,"name":"Township of Dryden","admin3":"23160","localeAltName":null},{"geonameid":4991913,"name":"Township of Elba","admin3":"25160"},{"geonameid":4994141,"name":"Township of Goodland","admin3":"32960"},{"geonameid":4995030,"name":"Township of Hadley","admin3":"35840"},{"geonameid":4996957,"name":"City of Imlay City","admin3":"40320","localeAltName":null},{"geonameid":4996958,"name":"Township of Imlay","admin3":"40300"},{"geonameid":4998851,"name":"City of Lapeer","admin3":"46040","localeAltName":null},{"geonameid":4998852,"name":"Township of Lapeer","admin3":"46060"},{"geonameid":5000833,"name":"Township of Marathon","admin3":"51420","localeAltName":null},{"geonameid":5001213,"name":"Township of Mayfield","admin3":"52500"},{"geonameid":5001757,"name":"Township of Metamora","admin3":"53360","localeAltName":null},{"geonameid":5003701,"name":"Township of North Branch","admin3":"58090","localeAltName":null},{"geonameid":5004565,"name":"Township of Oregon","admin3":"61060"},{"geonameid":5007083,"name":"Township of Rich","admin3":"68160"}],"alternateNames":[{"alternatenameId":2124820,"geonameid":5001836,"isoLanguage":"en","alternateName":"Michigan","isPreferredName":true,"isShortName":true,"isColloquial":false,"isHistoric":false}]},"__N_SSG":true}