{"pageProps":{"locale":"en","admin2":{"geonameid":5228688,"name":"Hutchinson County","country":"US","admin1":"SD","admin2":"067","admin3":"","latitude":"43.3348500","longitude":"-97.7544200","localeAltName":null},"admin1":{"geonameid":5769223,"name":"South Dakota","admin1":"SD","localeAltName":"South Dakota"},"locations":[{"geonameid":5227913,"name":"Freeman","admin3":"23020","localeAltName":null},{"geonameid":5229694,"name":"Menno","admin3":"41980","localeAltName":null},{"geonameid":5230313,"name":"Parkston","admin3":"48460","localeAltName":null},{"geonameid":5232415,"name":"Tripp","admin3":"64020","localeAltName":null}],"admin3":[{"geonameid":5226727,"name":"Township of Capital","admin3":"09700"},{"geonameid":5226929,"name":"Township of Clayton","admin3":"12460"},{"geonameid":5227131,"name":"Township of Cross Plains","admin3":"14780"},{"geonameid":5227693,"name":"Township of Fair","admin3":"20300"},{"geonameid":5227865,"name":"Township of Foster","admin3":"22420"},{"geonameid":5227917,"name":"City of Freeman","admin3":"23020","localeAltName":null},{"geonameid":5228046,"name":"Township of German","admin3":"24140"},{"geonameid":5228173,"name":"Township of Grandview","admin3":"25420"},{"geonameid":5228940,"name":"Township of Kassel","admin3":"33340"},{"geonameid":5228949,"name":"Township of Kaylor","admin3":"33420"},{"geonameid":5229057,"name":"Township of Kulm","admin3":"34420"},{"geonameid":5229300,"name":"Township of Liberty","admin3":"36940"},{"geonameid":5229699,"name":"City of Menno","admin3":"41980","localeAltName":null},{"geonameid":5229766,"name":"Township of Milltown","admin3":"42660"},{"geonameid":5229814,"name":"Township of Molan","admin3":"43260"},{"geonameid":5230143,"name":"Township of Oak Hollow","admin3":"46300"},{"geonameid":5230216,"name":"Town of Olivet","admin3":"46900"},{"geonameid":5230317,"name":"City of Parkston","admin3":"48460","localeAltName":null},{"geonameid":5230554,"name":"Township of Pleasant","admin3":"50420"},{"geonameid":5231775,"name":"Township of Sharon","admin3":"58340"},{"geonameid":5231831,"name":"Township of Silver Lake","admin3":"58860"},{"geonameid":5232114,"name":"Township of Starr","admin3":"61420"},{"geonameid":5232257,"name":"Township of Susquehanna","admin3":"62500"},{"geonameid":5232288,"name":"Township of Sweet","admin3":"62620"},{"geonameid":5232422,"name":"City of Tripp","admin3":"64020","localeAltName":null},{"geonameid":5232566,"name":"Township of Valley","admin3":"66140"},{"geonameid":5233006,"name":"Township of Wittenberg","admin3":"72420"},{"geonameid":5233013,"name":"Township of Wolf Creek","admin3":"72460"}],"alternateNames":[{"alternatenameId":2089551,"geonameid":5769223,"isoLanguage":"en","alternateName":"South Dakota","isPreferredName":true,"isShortName":true,"isColloquial":false,"isHistoric":false}]},"__N_SSG":true}