{"pageProps":{"locale":"en","admin2":{"geonameid":4048522,"name":"Boone County","country":"US","admin1":"KY","admin2":"015","admin3":"","latitude":"38.9698600","longitude":"-84.7278700","localeAltName":null},"admin1":{"geonameid":6254925,"name":"Kentucky","admin1":"KY","localeAltName":"Kentucky"},"locations":[{"geonameid":4286281,"name":"Burlington","admin3":"","localeAltName":null},{"geonameid":4291945,"name":"Florence","admin3":"","localeAltName":null},{"geonameid":4292182,"name":"Francisville","admin3":"","localeAltName":null},{"geonameid":4294425,"name":"Hebron","admin3":"","localeAltName":null},{"geonameid":4302910,"name":"Oakbrook","admin3":"","localeAltName":null},{"geonameid":4304035,"name":"Petersburg","admin3":"","localeAltName":null},{"geonameid":4311646,"name":"Union","admin3":"","localeAltName":null},{"geonameid":4312051,"name":"Verona","admin3":"","localeAltName":null},{"geonameid":4312671,"name":"Walton","admin3":"","localeAltName":null}],"admin3":[{"geonameid":7169453,"name":"City of Florence","admin3":"7169453"},{"geonameid":7170924,"name":"City of Union","admin3":"7170924"},{"geonameid":7170956,"name":"City of Walton","admin3":"7170956"}],"alternateNames":[{"alternatenameId":6755489,"geonameid":6254925,"isoLanguage":"en","alternateName":"Kentucky","isPreferredName":true,"isShortName":true,"isColloquial":false,"isHistoric":false}]},"__N_SSG":true}