{"pageProps":{"locale":"en","admin2":{"geonameid":4286705,"name":"Campbell County","country":"US","admin1":"KY","admin2":"037","admin3":"","latitude":"38.9464800","longitude":"-84.3797000","localeAltName":null},"admin1":{"geonameid":6254925,"name":"Kentucky","admin1":"KY","localeAltName":"Kentucky"},"locations":[{"geonameid":4282342,"name":"Alexandria","admin3":"","localeAltName":null},{"geonameid":4283845,"name":"Bellevue","admin3":"","localeAltName":null},{"geonameid":4287872,"name":"Claryville","admin3":"","localeAltName":null},{"geonameid":4288230,"name":"Cold Spring","admin3":"","localeAltName":null},{"geonameid":4289629,"name":"Dayton","admin3":"","localeAltName":null},{"geonameid":4292071,"name":"Fort Thomas","admin3":"","localeAltName":null},{"geonameid":4294788,"name":"Highland Heights","admin3":"","localeAltName":null},{"geonameid":4302529,"name":"Newport","admin3":"","localeAltName":null},{"geonameid":4308401,"name":"Silver Grove","admin3":"","localeAltName":null},{"geonameid":4309097,"name":"Southgate","admin3":"","localeAltName":null},{"geonameid":4313448,"name":"Wilder","admin3":"","localeAltName":null}],"admin3":[{"geonameid":7169306,"name":"City of Alexandria","admin3":"7169306"},{"geonameid":7169469,"name":"City of Fort Thomas","admin3":"7169469"},{"geonameid":7169608,"name":"City of Bellevue","admin3":"7169608"},{"geonameid":7169782,"name":"City of Cold Spring","admin3":"7169782"},{"geonameid":7169817,"name":"City of Crestview","admin3":"7169817"},{"geonameid":7169846,"name":"City of Dayton","admin3":"7169846"},{"geonameid":7169878,"name":"City of Mentor","admin3":"7169878"},{"geonameid":7169963,"name":"City of Newport","admin3":"7169963"},{"geonameid":7170193,"name":"City of Highland Heights","admin3":"7170193"},{"geonameid":7170445,"name":"City of Melbourne","admin3":"7170445"},{"geonameid":7170819,"name":"City of Silver Grove","admin3":"7170819"},{"geonameid":7170842,"name":"City of Southgate","admin3":"7170842"},{"geonameid":7171007,"name":"City of Wilder","admin3":"7171007"},{"geonameid":7171039,"name":"City of Woodlawn","admin3":"7171039"}],"alternateNames":[{"alternatenameId":6755489,"geonameid":6254925,"isoLanguage":"en","alternateName":"Kentucky","isPreferredName":true,"isShortName":true,"isColloquial":false,"isHistoric":false}]},"__N_SSG":true}