{"pageProps":{"locale":"en","admin2":{"geonameid":4296902,"name":"Kenton County","country":"US","admin1":"KY","admin2":"117","admin3":"","latitude":"38.9334600","longitude":"-84.5333400","localeAltName":null},"admin1":{"geonameid":6254925,"name":"Kentucky","admin1":"KY","localeAltName":"Kentucky"},"locations":[{"geonameid":4285591,"name":"Bromley","admin3":"","localeAltName":null},{"geonameid":4288809,"name":"Covington","admin3":"","localeAltName":null},{"geonameid":4289028,"name":"Crescent Springs","admin3":"","localeAltName":null},{"geonameid":4289040,"name":"Crestview Hills","admin3":"","localeAltName":null},{"geonameid":4290873,"name":"Edgewood","admin3":"","localeAltName":null},{"geonameid":4291156,"name":"Elsmere","admin3":"","localeAltName":null},{"geonameid":4291255,"name":"Erlanger","admin3":"","localeAltName":null},{"geonameid":4292067,"name":"Fort Mitchell","admin3":"","localeAltName":null},{"geonameid":4292072,"name":"Fort Wright","admin3":"","localeAltName":null},{"geonameid":4295776,"name":"Independence","admin3":"","localeAltName":null},{"geonameid":4297318,"name":"Lakeside Park","admin3":"","localeAltName":null},{"geonameid":4299531,"name":"Ludlow","admin3":"","localeAltName":null},{"geonameid":4303595,"name":"Park Hills","admin3":"","localeAltName":null},{"geonameid":4307052,"name":"Ryland Heights","admin3":"","localeAltName":null},{"geonameid":4310616,"name":"Taylor Mill","admin3":"","localeAltName":null},{"geonameid":4312088,"name":"Villa Hills","admin3":"","localeAltName":null}],"admin3":[{"geonameid":7169398,"name":"City of Edgewood","admin3":"7169398"},{"geonameid":7169413,"name":"City of Elsmere","admin3":"7169413"},{"geonameid":7169418,"name":"City of Erlanger","admin3":"7169418"},{"geonameid":7169433,"name":"City of Fairview","admin3":"7169433"},{"geonameid":7169466,"name":"City of Fort Mitchell","admin3":"7169466"},{"geonameid":7169471,"name":"City of Fort Wright","admin3":"7169471"},{"geonameid":7169669,"name":"City of Bromley","admin3":"7169669"},{"geonameid":7169808,"name":"City of Covington","admin3":"7169808"},{"geonameid":7169816,"name":"City of Crescent Springs","admin3":"7169816"},{"geonameid":7169819,"name":"City of Crestview Hills","admin3":"7169819"},{"geonameid":7170034,"name":"City of Park Hills","admin3":"7170034"},{"geonameid":7170230,"name":"City of Independence","admin3":"7170230"},{"geonameid":7170275,"name":"City of Kenton Vale","admin3":"7170275"},{"geonameid":7170310,"name":"City of Lakeside Park","admin3":"7170310"},{"geonameid":7170377,"name":"City of Ludlow","admin3":"7170377"},{"geonameid":7170754,"name":"City of Ryland Heights","admin3":"7170754"},{"geonameid":7170889,"name":"City of Taylor Mill","admin3":"7170889"},{"geonameid":7170944,"name":"City of Villa Hills","admin3":"7170944"}],"alternateNames":[{"alternatenameId":6755489,"geonameid":6254925,"isoLanguage":"en","alternateName":"Kentucky","isPreferredName":true,"isShortName":true,"isColloquial":false,"isHistoric":false}]},"__N_SSG":true}