{"pageProps":{"locale":"en","admin2":{"geonameid":4301955,"name":"Muhlenberg County","country":"US","admin1":"KY","admin2":"177","admin3":"","latitude":"37.2157900","longitude":"-87.1420400","localeAltName":null},"admin1":{"geonameid":6254925,"name":"Kentucky","admin1":"KY","localeAltName":"Kentucky"},"locations":[{"geonameid":4283753,"name":"Beechmont","admin3":"","localeAltName":null},{"geonameid":4287450,"name":"Central City","admin3":"","localeAltName":null},{"geonameid":4290224,"name":"Drakesboro","admin3":"","localeAltName":null},{"geonameid":4293477,"name":"Greenville","admin3":"","localeAltName":null},{"geonameid":4301317,"name":"Morehead","admin3":"","localeAltName":null},{"geonameid":4305110,"name":"Powderly","admin3":"","localeAltName":null}],"admin3":[{"geonameid":7169372,"name":"City of Drakesboro","admin3":"7169372"},{"geonameid":7169544,"name":"City of Greenville","admin3":"7169544"},{"geonameid":7169656,"name":"City of Bremen","admin3":"7169656"},{"geonameid":7169738,"name":"City of Central City","admin3":"7169738"},{"geonameid":7170094,"name":"City of Powderly","admin3":"7170094"},{"geonameid":7170837,"name":"City of South Carrollton","admin3":"7170837"}],"alternateNames":[{"alternatenameId":6755489,"geonameid":6254925,"isoLanguage":"en","alternateName":"Kentucky","isPreferredName":true,"isShortName":true,"isColloquial":false,"isHistoric":false}]},"__N_SSG":true}