{"pageProps":{"locale":"en","admin2":{"geonameid":4303164,"name":"Oldham County","country":"US","admin1":"KY","admin2":"185","admin3":"","latitude":"38.3994400","longitude":"-85.4483700","localeAltName":null},"admin1":{"geonameid":6254925,"name":"Kentucky","admin1":"KY","localeAltName":"Kentucky"},"locations":[{"geonameid":4286037,"name":"Buckner","admin3":"","localeAltName":null},{"geonameid":4289042,"name":"Crestwood","admin3":"","localeAltName":null},{"geonameid":4293055,"name":"Goshen","admin3":"","localeAltName":null},{"geonameid":4297238,"name":"La Grange","admin3":"","localeAltName":null},{"geonameid":4303297,"name":"Orchard Grass Hills","admin3":"","localeAltName":null},{"geonameid":4303597,"name":"Park Lake","admin3":"","localeAltName":null},{"geonameid":4304058,"name":"Pewee Valley","admin3":"","localeAltName":null}],"admin3":[{"geonameid":7169518,"name":"City of Goshen","admin3":"7169518"},{"geonameid":7169820,"name":"City of Crestwood","admin3":"7169820"},{"geonameid":7170007,"name":"City of Orchard Grass Hills","admin3":"7170007"},{"geonameid":7170058,"name":"City of Pewee Valley","admin3":"7170058"},{"geonameid":7170137,"name":"City of River Bluff","admin3":"7170137"},{"geonameid":7170293,"name":"City of La Grange","admin3":"7170293"}],"alternateNames":[{"alternatenameId":6755489,"geonameid":6254925,"isoLanguage":"en","alternateName":"Kentucky","isPreferredName":true,"isShortName":true,"isColloquial":false,"isHistoric":false}]},"__N_SSG":true}