{"pageProps":{"locale":"en","admin2":{"geonameid":4305364,"name":"Pulaski County","country":"US","admin1":"KY","admin2":"199","admin3":"","latitude":"37.1039300","longitude":"-84.5771800","localeAltName":null},"admin1":{"geonameid":6254925,"name":"Kentucky","admin1":"KY","localeAltName":"Kentucky"},"locations":[{"geonameid":4286307,"name":"Burnside","admin3":"","localeAltName":null},{"geonameid":4291600,"name":"Ferguson","admin3":"","localeAltName":null},{"geonameid":4307782,"name":"Science Hill","admin3":"","localeAltName":null},{"geonameid":4308922,"name":"Somerset","admin3":"","localeAltName":null}],"admin3":[{"geonameid":7169420,"name":"City of Eubank","admin3":"7169420"},{"geonameid":7169441,"name":"City of Ferguson","admin3":"7169441"},{"geonameid":7169685,"name":"City of Burnside","admin3":"7169685"},{"geonameid":7170792,"name":"City of Science Hill","admin3":"7170792"},{"geonameid":7170833,"name":"City of Somerset","admin3":"7170833"}],"alternateNames":[{"alternatenameId":6755489,"geonameid":6254925,"isoLanguage":"en","alternateName":"Kentucky","isPreferredName":true,"isShortName":true,"isColloquial":false,"isHistoric":false}]},"__N_SSG":true}