{"pageProps":{"locale":"it","admin2":{"geonameid":3171057,"name":"Provincia di Piacenza","country":"IT","admin1":"05","admin2":"PC","admin3":"","latitude":"44.8833300","longitude":"9.5833300","localeAltName":"Piacenza"},"admin1":{"geonameid":3177401,"name":"Emilia-Romagna","admin1":"05","localeAltName":"Emilia-Romagna"},"locations":[{"geonameid":3183450,"name":"Agazzano","admin3":"033001","localeAltName":null},{"geonameid":3183184,"name":"Alseno","admin3":"033002","localeAltName":null},{"geonameid":3182104,"name":"Bettola","admin3":"033004","localeAltName":null},{"geonameid":3181970,"name":"Bobbio","admin3":"033005","localeAltName":null},{"geonameid":3181779,"name":"Borgonovo Valtidone","admin3":"033006","localeAltName":null},{"geonameid":3181201,"name":"Calendasco","admin3":"033008","localeAltName":null},{"geonameid":3180748,"name":"Caorso","admin3":"033010","localeAltName":null},{"geonameid":3180457,"name":"Carpaneto Piacentino","admin3":"033011","localeAltName":null},{"geonameid":3179485,"name":"Castel San Giovanni","admin3":"033013","localeAltName":null},{"geonameid":3179642,"name":"Castell'Arquato","admin3":"033012","localeAltName":null},{"geonameid":8950325,"name":"Castelnuovo Fogliani","admin3":"033002","localeAltName":null},{"geonameid":3179446,"name":"Castelvetro Piacentino","admin3":"033014","localeAltName":null},{"geonameid":3177977,"name":"Cortemaggiore","admin3":"033018","localeAltName":null},{"geonameid":3176964,"name":"Fiorenzuola d'Arda","admin3":"033021","localeAltName":null},{"geonameid":3176819,"name":"Fontana Pradosa","admin3":"033013","localeAltName":null},{"geonameid":3175973,"name":"Gossolengo","admin3":"033023","localeAltName":null},{"geonameid":3175950,"name":"Gragnano Trebbiense","admin3":"033024","localeAltName":null},{"geonameid":3175795,"name":"Gropparello","admin3":"033025","localeAltName":null},{"geonameid":3174503,"name":"Lugagnano Val d'Arda","admin3":"033026","localeAltName":null},{"geonameid":3174421,"name":"Lusurasco","admin3":"033002","localeAltName":null},{"geonameid":3172689,"name":"Monticelli d'Ongina","admin3":"033027","localeAltName":null},{"geonameid":3172551,"name":"Mortizza","admin3":"033032","localeAltName":null},{"geonameid":8949126,"name":"Niviano","admin3":"033038","localeAltName":null},{"geonameid":8950235,"name":"Olza-Fogarole","admin3":"033027","localeAltName":null},{"geonameid":3171058,"name":"Piacenza","admin3":"033032","localeAltName":null},{"geonameid":3170981,"name":"Pianello Val Tidone","admin3":"033033","localeAltName":null},{"geonameid":8949666,"name":"Pittolo","admin3":"033032","localeAltName":null},{"geonameid":3170537,"name":"Podenzano","admin3":"033035","localeAltName":null},{"geonameid":3170274,"name":"Ponte dell'Olio","admin3":"033036","localeAltName":null},{"geonameid":3170232,"name":"Pontenure","admin3":"033037","localeAltName":null},{"geonameid":3169703,"name":"Quarto","admin3":"033023","localeAltName":null},{"geonameid":3169243,"name":"Rivergaro","admin3":"033038","localeAltName":null},{"geonameid":3168879,"name":"Rottofreno","admin3":"033039","localeAltName":null},{"geonameid":8948789,"name":"Roveleto","admin3":"033007","localeAltName":null},{"geonameid":3168289,"name":"San Giorgio Piacentino","admin3":"033040","localeAltName":null},{"geonameid":8949049,"name":"San Giovanni-San Bernardino","admin3":"033004","localeAltName":null},{"geonameid":3168227,"name":"San Giuliano","admin3":"033014","localeAltName":null},{"geonameid":3167948,"name":"San Nazzaro","admin3":"033027","localeAltName":null},{"geonameid":8556235,"name":"San Nicol√≤","admin3":"033039","localeAltName":null},{"geonameid":3167804,"name":"San Polo","admin3":"033035","localeAltName":null},{"geonameid":3167124,"name":"Sarmato","admin3":"033042","localeAltName":null},{"geonameid":3166580,"name":"Settima","admin3":"033023","localeAltName":null},{"geonameid":3165288,"name":"Travo","admin3":"033043","localeAltName":null},{"geonameid":8949474,"name":"Trevozzo","admin3":"033049","localeAltName":null},{"geonameid":3164537,"name":"Vernasca","admin3":"033044","localeAltName":null},{"geonameid":8950379,"name":"Vigolo Marchese","admin3":"033012","localeAltName":null},{"geonameid":3164322,"name":"Vigolzone","admin3":"033045","localeAltName":null},{"geonameid":3164175,"name":"Villanova","admin3":"033046","localeAltName":null},{"geonameid":3163875,"name":"Ziano Piacentino","admin3":"033048","localeAltName":null}],"admin3":[{"geonameid":6536331,"name":"Besenzone","admin3":"033003"},{"geonameid":6536332,"name":"Borgonovo Val Tidone","admin3":"033006","localeAltName":null},{"geonameid":6536333,"name":"Castell'Arquato","admin3":"033012","localeAltName":null},{"geonameid":6536334,"name":"Coli","admin3":"033016"},{"geonameid":6536335,"name":"Monticelli d'Ongina","admin3":"033027","localeAltName":null},{"geonameid":6536336,"name":"Morfasso","admin3":"033028"},{"geonameid":6536338,"name":"Pianello Val Tidone","admin3":"033033","localeAltName":null},{"geonameid":6536339,"name":"Rivergaro","admin3":"033038","localeAltName":null},{"geonameid":6536345,"name":"Cadeo","admin3":"033007","localeAltName":null},{"geonameid":6536702,"name":"San Giorgio Piacentino","admin3":"033040","localeAltName":null},{"geonameid":6536703,"name":"Vigolzone","admin3":"033045","localeAltName":null},{"geonameid":6538409,"name":"Agazzano","admin3":"033001","localeAltName":null},{"geonameid":6538410,"name":"Caorso","admin3":"033010","localeAltName":null},{"geonameid":6538411,"name":"Carpaneto Piacentino","admin3":"033011","localeAltName":null},{"geonameid":6538412,"name":"Farini","admin3":"033019"},{"geonameid":6538413,"name":"Gragnano Trebbiense","admin3":"033024","localeAltName":null},{"geonameid":6538414,"name":"Lugagnano Val d'Arda","admin3":"033026","localeAltName":null},{"geonameid":6538415,"name":"Podenzano","admin3":"033035","localeAltName":null},{"geonameid":6538416,"name":"Ponte dell'Olio","admin3":"033036","localeAltName":null},{"geonameid":6538417,"name":"Ziano Piacentino","admin3":"033048","localeAltName":null},{"geonameid":6539637,"name":"Bettola","admin3":"033004","localeAltName":null},{"geonameid":6539653,"name":"Bobbio","admin3":"033005","localeAltName":null},{"geonameid":6539655,"name":"Ottone","admin3":"033030"},{"geonameid":6539940,"name":"Castel San Giovanni","admin3":"033013","localeAltName":null},{"geonameid":6540246,"name":"Villanova sull'Arda","admin3":"033046","localeAltName":null},{"geonameid":6540265,"name":"Ferriere","admin3":"033020"},{"geonameid":6540266,"name":"Piozzano","admin3":"033034"},{"geonameid":6540406,"name":"Travo","admin3":"033043","localeAltName":null},{"geonameid":6540407,"name":"Vernasca","admin3":"033044","localeAltName":null},{"geonameid":6541020,"name":"Calendasco","admin3":"033008","localeAltName":null},{"geonameid":6541021,"name":"Cortemaggiore","admin3":"033018","localeAltName":null},{"geonameid":6541022,"name":"Fiorenzuola d'Arda","admin3":"033021","localeAltName":null},{"geonameid":6541024,"name":"Sarmato","admin3":"033042","localeAltName":null},{"geonameid":6541513,"name":"Castelvetro Piacentino","admin3":"033014","localeAltName":null},{"geonameid":6541543,"name":"Pontenure","admin3":"033037","localeAltName":null},{"geonameid":6541631,"name":"Rottofreno","admin3":"033039","localeAltName":null},{"geonameid":6541827,"name":"Alseno","admin3":"033002","localeAltName":null},{"geonameid":6541828,"name":"Gossolengo","admin3":"033023","localeAltName":null},{"geonameid":6541829,"name":"Gropparello","admin3":"033025","localeAltName":null},{"geonameid":6542025,"name":"Piacenza","admin3":"033032","localeAltName":null},{"geonameid":6542698,"name":"Corte Brugnatella","admin3":"033017"},{"geonameid":6542722,"name":"Cerignale","admin3":"033015"},{"geonameid":6542725,"name":"Gazzola","admin3":"033022"},{"geonameid":6543581,"name":"San Pietro in Cerro","admin3":"033041"},{"geonameid":6543582,"name":"Zerba","admin3":"033047"},{"geonameid":12032158,"name":"Alta Val Tidone","admin3":"033049","localeAltName":null}],"alternateNames":[{"alternatenameId":2431280,"geonameid":3171057,"isoLanguage":"it","alternateName":"Piacenza","isPreferredName":true,"isShortName":true,"isColloquial":false,"isHistoric":false},{"alternatenameId":1351276,"geonameid":3177401,"isoLanguage":"it","alternateName":"Emilia-Romagna","isPreferredName":true,"isShortName":true,"isColloquial":false,"isHistoric":false}]},"__N_SSG":true}