{"pageProps":{"locale":"en","admin2":{"geonameid":2747890,"name":"Gemeente Rotterdam","country":"NL","admin1":"11","admin2":"0599","admin3":"","latitude":"51.8824600","longitude":"4.2878400"},"admin1":{"geonameid":2743698,"name":"Provincie Zuid-Holland","admin1":"11"},"locations":[{"geonameid":8379268,"name":"'s-Gravenland","admin3":""},{"geonameid":2758872,"name":"Blankenburg","admin3":""},{"geonameid":2758795,"name":"Bloemhof","admin3":""},{"geonameid":2757963,"name":"Charlois","admin3":""},{"geonameid":2757347,"name":"Delfshaven","admin3":""},{"geonameid":2755925,"name":"Feijenoord","admin3":""},{"geonameid":2755289,"name":"Groeneweg","admin3":""},{"geonameid":2755123,"name":"Groot IJsselmonde","admin3":""},{"geonameid":2754552,"name":"Heijplaat","admin3":""},{"geonameid":2754074,"name":"Hillegersberg","admin3":""},{"geonameid":2754007,"name":"Hoek van Holland","admin3":""},{"geonameid":2753666,"name":"Hoogvliet","admin3":""},{"geonameid":2753614,"name":"Hordijkerveld","admin3":""},{"geonameid":2753359,"name":"IJsselmonde","admin3":""},{"geonameid":2753081,"name":"Kandelaar","admin3":""},{"geonameid":2753045,"name":"Katendrecht","admin3":""},{"geonameid":7873874,"name":"Kop van Zuid","admin3":""},{"geonameid":2752314,"name":"Kralingen","admin3":""},{"geonameid":2752312,"name":"Kralingse Veer","admin3":""},{"geonameid":2751497,"name":"Lombardijen","admin3":""},{"geonameid":2751017,"name":"Meeuwenplaat","admin3":""},{"geonameid":2749604,"name":"Ommoord","admin3":""},{"geonameid":2748893,"name":"Oud Verlaat","admin3":""},{"geonameid":2749090,"name":"Oudeland","admin3":""},{"geonameid":2748826,"name":"Overschie","admin3":""},{"geonameid":2748657,"name":"Pendrecht","admin3":""},{"geonameid":2748647,"name":"Pernis","admin3":""},{"geonameid":2748451,"name":"Prins Alexanderpolder","admin3":""},{"geonameid":2747891,"name":"Rotterdam","admin3":""},{"geonameid":2747870,"name":"Rozenburg","admin3":""},{"geonameid":2747597,"name":"Schiebroek","admin3":""},{"geonameid":2746975,"name":"Spangen","admin3":""},{"geonameid":2746464,"name":"Terbregge","admin3":""},{"geonameid":2745193,"name":"Vreewijk","admin3":""},{"geonameid":2744616,"name":"Westpunt","admin3":""},{"geonameid":2744104,"name":"Zalmplaat","admin3":""},{"geonameid":2743640,"name":"Zuidwijk","admin3":""},{"geonameid":2743505,"name":"Zweth","admin3":""}],"admin3":[],"alternateNames":[{"alternatenameId":11907789,"geonameid":2743698,"isoLanguage":"de","alternateName":"SÃ¼dholland","isPreferredName":true,"isShortName":true,"isColloquial":false,"isHistoric":false}]},"__N_SSG":true}