{"pageProps":{"locale":"en","admin2":{"geonameid":5673204,"name":"Ravalli County","country":"US","admin1":"MT","admin2":"081","admin3":"","latitude":"46.0817000","longitude":"-114.1206900","localeAltName":null},"admin1":{"geonameid":5667009,"name":"Montana","admin1":"MT","localeAltName":"Montana"},"locations":[{"geonameid":5646474,"name":"Corvallis","admin3":"","localeAltName":null},{"geonameid":5647774,"name":"Darby","admin3":"","localeAltName":null},{"geonameid":5652509,"name":"Florence","admin3":"","localeAltName":null},{"geonameid":5655959,"name":"Hamilton","admin3":"","localeAltName":null},{"geonameid":5671528,"name":"Pinesdale","admin3":"","localeAltName":null},{"geonameid":5680485,"name":"Stevensville","admin3":"","localeAltName":null},{"geonameid":5684455,"name":"Victor","admin3":"","localeAltName":null}],"admin3":[],"alternateNames":[{"alternatenameId":2089563,"geonameid":5667009,"isoLanguage":"en","alternateName":"Montana","isPreferredName":true,"isShortName":true,"isColloquial":false,"isHistoric":false}]},"__N_SSG":true}