{"pageProps":{"locale":"en","admin2":{"geonameid":5251040,"name":"Dunn County","country":"US","admin1":"WI","admin2":"033","admin3":"","latitude":"44.9465900","longitude":"-91.8964100","localeAltName":null},"admin1":{"geonameid":5279468,"name":"Wisconsin","admin1":"WI","localeAltName":"Wisconsin"},"locations":[{"geonameid":5246565,"name":"Boyceville","admin3":"09050","localeAltName":null},{"geonameid":5249152,"name":"Colfax","admin3":"16275","localeAltName":null},{"geonameid":5251712,"name":"Elk Mound","admin3":"23325","localeAltName":null},{"geonameid":5262634,"name":"Menomonie","admin3":"51025","localeAltName":null},{"geonameid":5275391,"name":"Tainter Lake","admin3":"78975","localeAltName":null}],"admin3":[{"geonameid":5246567,"name":"Village of Boyceville","admin3":"09050","localeAltName":null},{"geonameid":5249154,"name":"Town of Colfax","admin3":"16300"},{"geonameid":5249155,"name":"Village of Colfax","admin3":"16275","localeAltName":null},{"geonameid":5250864,"name":"Village of Downing","admin3":"20675"},{"geonameid":5251043,"name":"Town of Dunn","admin3":"21150"},{"geonameid":5251464,"name":"Town of Eau Galle","admin3":"22375"},{"geonameid":5251716,"name":"Town of Elk Mound","admin3":"23350"},{"geonameid":5251717,"name":"Village of Elk Mound","admin3":"23325","localeAltName":null},{"geonameid":5254870,"name":"Town of Grant","admin3":"30300"},{"geonameid":5255852,"name":"Town of Hay River","admin3":"33400"},{"geonameid":5258765,"name":"Village of Knapp","admin3":"39975"},{"geonameid":5261236,"name":"Town of Lucas","admin3":"46175"},{"geonameid":5262644,"name":"City of Menomonie","admin3":"51025","localeAltName":null},{"geonameid":5262645,"name":"Town of Menomonie","admin3":"51050"},{"geonameid":5264421,"name":"Town of New Haven","admin3":"56775"},{"geonameid":5265908,"name":"Town of Otter Creek","admin3":"60725"},{"geonameid":5266650,"name":"Town of Peru","admin3":"62125"},{"geonameid":5268484,"name":"Town of Red Cedar","admin3":"66550"},{"geonameid":5268895,"name":"Village of Ridgeland","admin3":"67800"},{"geonameid":5269235,"name":"Town of Rock Creek","admin3":"68700"},{"geonameid":5272097,"name":"Town of Sand Creek","admin3":"71425"},{"geonameid":5272982,"name":"Town of Sheridan","admin3":"73300"},{"geonameid":5273009,"name":"Town of Sherman","admin3":"73375"},{"geonameid":5274120,"name":"Town of Spring Brook","admin3":"75750"},{"geonameid":5274488,"name":"Town of Stanton","admin3":"76650"},{"geonameid":5275380,"name":"Town of Tainter","admin3":"78975","localeAltName":null},{"geonameid":5275784,"name":"Town of Tiffany","admin3":"79775"},{"geonameid":5278699,"name":"Town of Weston","admin3":"85975"},{"geonameid":5278762,"name":"Village of Wheeler","admin3":"86575"},{"geonameid":5279264,"name":"Town of Wilson","admin3":"87375"}],"alternateNames":[{"alternatenameId":2089565,"geonameid":5279468,"isoLanguage":"en","alternateName":"Wisconsin","isPreferredName":true,"isShortName":true,"isColloquial":false,"isHistoric":false}]},"__N_SSG":true}