{"pageProps":{"locale":"en","admin2":{"geonameid":5258396,"name":"Kenosha County","country":"US","admin1":"WI","admin2":"059","admin3":"","latitude":"42.5728000","longitude":"-87.8398100","localeAltName":null},"admin1":{"geonameid":5279468,"name":"Wisconsin","admin1":"WI","localeAltName":"Wisconsin"},"locations":[{"geonameid":5246785,"name":"Bristol","admin3":"","localeAltName":null},{"geonameid":5247648,"name":"Camp Lake","admin3":"71125","localeAltName":null},{"geonameid":5258393,"name":"Kenosha","admin3":"39225","localeAltName":null},{"geonameid":5259266,"name":"Lake Shangrila","admin3":"71125","localeAltName":null},{"geonameid":5266129,"name":"Paddock Lake","admin3":"60975","localeAltName":null},{"geonameid":5267403,"name":"Pleasant Prairie","admin3":"63300","localeAltName":null},{"geonameid":5267912,"name":"Powers Lake","admin3":"86500","localeAltName":null},{"geonameid":5271991,"name":"Salem","admin3":"71125","localeAltName":null},{"geonameid":5273204,"name":"Silver Lake","admin3":"74025","localeAltName":null},{"geonameid":5273614,"name":"Somers","admin3":"","localeAltName":null},{"geonameid":5276542,"name":"Twin Lakes","admin3":"81250","localeAltName":null}],"admin3":[{"geonameid":5246760,"name":"Town of Brighton","admin3":"09635"},{"geonameid":5258413,"name":"City of Kenosha","admin3":"39225","localeAltName":null},{"geonameid":5266131,"name":"Village of Paddock Lake","admin3":"60975","localeAltName":null},{"geonameid":5266218,"name":"Town of Paris","admin3":"61175"},{"geonameid":5267408,"name":"Village of Pleasant Prairie","admin3":"63300","localeAltName":null},{"geonameid":5268353,"name":"Town of Randall","admin3":"66125"},{"geonameid":5272038,"name":"Town of Salem","admin3":"71125","localeAltName":null},{"geonameid":5273230,"name":"Village of Silver Lake","admin3":"74025","localeAltName":null},{"geonameid":5276567,"name":"Village of Twin Lakes","admin3":"81250","localeAltName":null},{"geonameid":5278747,"name":"Town of Wheatland","admin3":"86500","localeAltName":null}],"alternateNames":[{"alternatenameId":2089565,"geonameid":5279468,"isoLanguage":"en","alternateName":"Wisconsin","isPreferredName":true,"isShortName":true,"isColloquial":false,"isHistoric":false}]},"__N_SSG":true}