{"pageProps":{"locale":"de","admin2":{"geonameid":6458771,"name":"Lugano District","country":"CH","admin1":"TI","admin2":"2105","admin3":"","latitude":"46.0232200","longitude":"8.9380200"},"admin1":{"geonameid":2658370,"name":"Ticino","admin1":"TI"},"locations":[{"geonameid":2661836,"name":"Agno","admin3":"5141"},{"geonameid":2661835,"name":"Agra","admin3":"5236"},{"geonameid":2661714,"name":"Arogno","admin3":"5144"},{"geonameid":2661696,"name":"Astano","admin3":"5146"},{"geonameid":2661515,"name":"Bidogno","admin3":"5226"},{"geonameid":2661498,"name":"Bioggio","admin3":"5151"},{"geonameid":2661494,"name":"Bironico","admin3":"5238"},{"geonameid":2661460,"name":"Bogno","admin3":"5192"},{"geonameid":2661402,"name":"Breno","admin3":"5237"},{"geonameid":2661366,"name":"Brusino Arsizio","admin3":"5160"},{"geonameid":2661295,"name":"Cadempino","admin3":"5162"},{"geonameid":2661293,"name":"Cadro","admin3":"5192"},{"geonameid":2661291,"name":"Cagiallo","admin3":"5192"},{"geonameid":2661269,"name":"Canobbio","admin3":"5167"},{"geonameid":2661260,"name":"Caslano","admin3":"5171"},{"geonameid":2661232,"name":"Certara","admin3":"5192"},{"geonameid":2661164,"name":"Cimadera","admin3":"5192"},{"geonameid":6697686,"name":"Colla","admin3":"5192"},{"geonameid":2661140,"name":"Comano","admin3":"5176"},{"geonameid":2660668,"name":"Gandria","admin3":"5192"},{"geonameid":2660519,"name":"Gravesano","admin3":"5187"},{"geonameid":2660243,"name":"Iseo","admin3":"5151"},{"geonameid":2659836,"name":"Lugano","admin3":"5192"},{"geonameid":2659739,"name":"Massagno","admin3":"5196"},{"geonameid":2659714,"name":"Medeglia","admin3":"5238"},{"geonameid":2659696,"name":"Melano","admin3":"5197"},{"geonameid":2659692,"name":"Melide","admin3":"5198"},{"geonameid":2659660,"name":"Miglieglia","admin3":"5200"},{"geonameid":2659627,"name":"Montagnola","admin3":"5236"},{"geonameid":2659592,"name":"Morcote","admin3":"5203"},{"geonameid":2659566,"name":"Mugena","admin3":"5237"},{"geonameid":2659435,"name":"Novaggio","admin3":"5207"},{"geonameid":2659142,"name":"Pregassona","admin3":"5192"},{"geonameid":2659126,"name":"Pura","admin3":"5216"},{"geonameid":2658943,"name":"Rovio","admin3":"5219"},{"geonameid":2658617,"name":"Sessa","admin3":"5222"},{"geonameid":2658604,"name":"Sigirino","admin3":"5238"},{"geonameid":2658549,"name":"Sorengo","admin3":"5225"},{"geonameid":2658398,"name":"Tesserete","admin3":"5226"},{"geonameid":10375675,"name":"Vico Morcote","admin3":"5233"},{"geonameid":2658135,"name":"Viganello","admin3":"5192"}],"admin3":[{"geonameid":2659697,"name":"Melano","admin3":"5197"},{"geonameid":7285041,"name":"Agno","admin3":"5141"},{"geonameid":7285063,"name":"Alto Malcantone","admin3":"5237"},{"geonameid":7285086,"name":"Aranno","admin3":"5143"},{"geonameid":7285101,"name":"Arogno","admin3":"5144"},{"geonameid":7285109,"name":"Astano","admin3":"5146"},{"geonameid":7285175,"name":"Bedano","admin3":"5148"},{"geonameid":7285176,"name":"Bedigliora","admin3":"5149"},{"geonameid":7285249,"name":"Bioggio","admin3":"5151"},{"geonameid":7285262,"name":"Bissone","admin3":"5154"},{"geonameid":7285356,"name":"Brusino Arsizio","admin3":"5160"},{"geonameid":7285417,"name":"Cademario","admin3":"5161"},{"geonameid":7285418,"name":"Cadempino","admin3":"5162"},{"geonameid":7285429,"name":"Canobbio","admin3":"5167"},{"geonameid":7285431,"name":"Capriasca","admin3":"5226"},{"geonameid":7285438,"name":"Caslano","admin3":"5171"},{"geonameid":7285533,"name":"Comano","admin3":"5176"},{"geonameid":7285537,"name":"Comunanza Capriasca/Valcolla","admin3":"5394"},{"geonameid":7285595,"name":"Croglio","admin3":"5178"},{"geonameid":7285609,"name":"Cureglia","admin3":"5180"},{"geonameid":7285610,"name":"Curio","admin3":"5181"},{"geonameid":7285956,"name":"Grancia","admin3":"5186"},{"geonameid":7285970,"name":"Gravesano","admin3":"5187"},{"geonameid":7286253,"name":"Lamone","admin3":"5189"},{"geonameid":7286383,"name":"Lugano","admin3":"5192"},{"geonameid":7286418,"name":"Magliaso","admin3":"5193"},{"geonameid":7286431,"name":"Manno","admin3":"5194"},{"geonameid":7286439,"name":"Maroggia","admin3":"5195"},{"geonameid":7286450,"name":"Massagno","admin3":"5196"},{"geonameid":7286478,"name":"Melide","admin3":"5198"},{"geonameid":7286505,"name":"Mezzovico-Vira","admin3":"5199"},{"geonameid":7286508,"name":"Miglieglia","admin3":"5200"},{"geonameid":7286532,"name":"Monteggio","admin3":"5202"},{"geonameid":7286551,"name":"Morcote","admin3":"5203"},{"geonameid":7286608,"name":"Muzzano","admin3":"5205"},{"geonameid":7286617,"name":"Neggio","admin3":"5206"},{"geonameid":7286661,"name":"Novaggio","admin3":"5207"},{"geonameid":7286748,"name":"Origlio","admin3":"5208"},{"geonameid":7286771,"name":"Paradiso","admin3":"5210"},{"geonameid":7286812,"name":"Ponte Capriasca","admin3":"5212"},{"geonameid":7286815,"name":"Ponte Tresa","admin3":"5213"},{"geonameid":7286823,"name":"Porza","admin3":"5214"},{"geonameid":7286844,"name":"Pura","admin3":"5216"},{"geonameid":7286966,"name":"Rovio","admin3":"5219"},{"geonameid":7287067,"name":"Savosa","admin3":"5221"},{"geonameid":7287157,"name":"Sessa","admin3":"5222"},{"geonameid":7287194,"name":"Sorengo","admin3":"5225"},{"geonameid":7287320,"name":"Torricella-Taverne","admin3":"5227"},{"geonameid":7287435,"name":"Vernate","admin3":"5230"},{"geonameid":7287450,"name":"Vezia","admin3":"5231"},{"geonameid":7287452,"name":"Vico Morcote","admin3":"5233"},{"geonameid":7287680,"name":"Collina d'Oro","admin3":"5236"},{"geonameid":8260341,"name":"Monteceneri","admin3":"5238"}],"alternateNames":[]},"__N_SSG":true}