{"pageProps":{"locale":"en","admin2":{"geonameid":5910071,"name":"Bruce County","country":"CA","admin1":"08","admin2":"3541","admin3":"","latitude":"44.5000900","longitude":"-81.2497400"},"admin1":{"geonameid":6093943,"name":"Ontario","admin1":"08"},"locations":[{"geonameid":5884364,"name":"Ambleside","admin3":"3541004"},{"geonameid":6694819,"name":"Arran-Elderslie","admin3":"3541043"},{"geonameid":5887243,"name":"Arranvale","admin3":"3541043"},{"geonameid":5894284,"name":"Barrow Bay","admin3":"3541069"},{"geonameid":5907183,"name":"Bradley","admin3":"3541032"},{"geonameid":5908948,"name":"Brinkman's Corners","admin3":"3541069"},{"geonameid":5915625,"name":"Cape Chin","admin3":"3541069"},{"geonameid":5915627,"name":"Cape Chin North","admin3":"3541069"},{"geonameid":5915628,"name":"Cape Chin South","admin3":"3541069"},{"geonameid":5916883,"name":"Cargill","admin3":"3541032"},{"geonameid":5919263,"name":"Centreville","admin3":"3541069"},{"geonameid":6694298,"name":"Chesley","admin3":"3541043"},{"geonameid":5923226,"name":"Clarke's Corners","admin3":"3541069"},{"geonameid":5923307,"name":"Clarks Church","admin3":"3541015"},{"geonameid":5924222,"name":"Clover Valley","admin3":"3541015"},{"geonameid":5943852,"name":"Dunblane","admin3":"3541043"},{"geonameid":5944079,"name":"Dunkeld","admin3":"3541032"},{"geonameid":5944586,"name":"Dyer's Bay","admin3":"3541069"},{"geonameid":5946585,"name":"Eden Grove","admin3":"3541032"},{"geonameid":5946587,"name":"Edenhurst","admin3":"3541069"},{"geonameid":5947805,"name":"Ellengowan","admin3":"3541032"},{"geonameid":5948154,"name":"Elsinore","admin3":"3541043"},{"geonameid":5961242,"name":"Gillies Hill","admin3":"3541043"},{"geonameid":5961251,"name":"Gillies Lake","admin3":"3541069"},{"geonameid":5976840,"name":"Hopeness","admin3":"3541069"},{"geonameid":5978842,"name":"Huron Ridge","admin3":"3541024"},{"geonameid":5992144,"name":"Kincardine","admin3":"3541024"},{"geonameid":5992188,"name":"Kingarf","admin3":"3541024"},{"geonameid":5992542,"name":"Kinhuron","admin3":"3541024"},{"geonameid":6048423,"name":"Lake Huron Highland","admin3":"3541024"},{"geonameid":6048655,"name":"Lake Rosalind","admin3":"3541032"},{"geonameid":6049473,"name":"Langside","admin3":"3541015"},{"geonameid":8616971,"name":"Lion's Head","admin3":"3541069"},{"geonameid":6055556,"name":"Little Egypt","admin3":"3541032"},{"geonameid":6058245,"name":"Lockerby","admin3":"3541043"},{"geonameid":6060356,"name":"Lorne","admin3":"3541024"},{"geonameid":6060362,"name":"Lorne Beach","admin3":"3541024"},{"geonameid":6060930,"name":"Lovat","admin3":"3541032"},{"geonameid":6061315,"name":"Lower Langside","admin3":"3541015"},{"geonameid":6064727,"name":"Malcolm","admin3":"3541032"},{"geonameid":6065611,"name":"Maple Hill","admin3":"3541032"},{"geonameid":6069862,"name":"McIntosh","admin3":"3541004"},{"geonameid":6071276,"name":"McVicar","admin3":"3541069"},{"geonameid":6073561,"name":"Mildmay","admin3":"3541004"},{"geonameid":6073732,"name":"Millarton","admin3":"3541024"},{"geonameid":6073988,"name":"Miller Lake","admin3":"3541069"},{"geonameid":6076133,"name":"Moltke","admin3":"3541004"},{"geonameid":6077499,"name":"Monument Corners","admin3":"3541069"},{"geonameid":6081197,"name":"Mount Hope","admin3":"3541043"},{"geonameid":6086109,"name":"Narva","admin3":"3541032"},{"geonameid":6093434,"name":"Old Woman's River","admin3":"3541069"},{"geonameid":6094915,"name":"Otter Creek","admin3":"3541004"},{"geonameid":6096232,"name":"Paisley","admin3":"3541043"},{"geonameid":6100220,"name":"Pearl Lake","admin3":"3541032"},{"geonameid":8030167,"name":"Pike Bay","admin3":"3541069"},{"geonameid":6105208,"name":"Pine River","admin3":"3541015"},{"geonameid":6106656,"name":"Point Clark","admin3":"3541015"},{"geonameid":6114360,"name":"Purple Grove","admin3":"3541015"},{"geonameid":6119222,"name":"Reid's Corners","admin3":"3541015"},{"geonameid":6122462,"name":"Ripley","admin3":"3541015"},{"geonameid":6139321,"name":"Salem","admin3":"3541004"},{"geonameid":6139324,"name":"Salem","admin3":"3541043"},{"geonameid":6149238,"name":"Slade","admin3":"3541024"},{"geonameid":10942253,"name":"Southampton","admin3":""},{"geonameid":6154540,"name":"Spry","admin3":"3541069"},{"geonameid":8593830,"name":"Tara","admin3":"3541043"},{"geonameid":6162524,"name":"Teeswater","admin3":"3541004"},{"geonameid":6167034,"name":"Tiverton","admin3":"3541024"},{"geonameid":6167125,"name":"Tobermory","admin3":"3541069"},{"geonameid":6173769,"name":"Verdun","admin3":"3541015"},{"geonameid":6173944,"name":"Vesta","admin3":"3541032"},{"geonameid":6694299,"name":"Walkerton","admin3":"3541032"},{"geonameid":6178913,"name":"Westford","admin3":"3541004"},{"geonameid":6180265,"name":"Whitechurch","admin3":"3541015"},{"geonameid":8556287,"name":"Wiarton","admin3":""},{"geonameid":6182319,"name":"Williscroft","admin3":"3541043"}],"admin3":[{"geonameid":5887237,"name":"Arran-Elderslie","admin3":"3541043"},{"geonameid":5909290,"name":"Brockton","admin3":"3541032"},{"geonameid":5978839,"name":"Huron-Kinloss","admin3":"3541015"},{"geonameid":5992145,"name":"Kincardine","admin3":"3541024"},{"geonameid":6089926,"name":"Northern Bruce Peninsula","admin3":"3541069"},{"geonameid":6151761,"name":"South Bruce","admin3":"3541004"}],"alternateNames":[]},"__N_SSG":true}