{"pageProps":{"locale":"en","admin2":{"geonameid":5978829,"name":"Huron County","country":"CA","admin1":"08","admin2":"3540","admin3":"","latitude":"43.6667900","longitude":"-81.4997700"},"admin1":{"geonameid":6093943,"name":"Ontario","admin1":"08"},"locations":[{"geonameid":5888201,"name":"Auburn","admin3":"3540063"},{"geonameid":5897685,"name":"Belfast","admin3":"3540063"},{"geonameid":5898133,"name":"Belmore","admin3":"3540050"},{"geonameid":5904662,"name":"Blyth","admin3":"3540055"},{"geonameid":5905053,"name":"Bogies Beach","admin3":"3540063"},{"geonameid":5910322,"name":"Brussels","admin3":""},{"geonameid":5917218,"name":"Carlow","admin3":"3540063"},{"geonameid":5924039,"name":"Clinton","admin3":"3540025"},{"geonameid":5932350,"name":"Crewe","admin3":"3540063"},{"geonameid":5941641,"name":"Donnybrook","admin3":"3540055"},{"geonameid":5944103,"name":"Dunlop","admin3":"3540063"},{"geonameid":5955477,"name":"Fordyce","admin3":"3540055"},{"geonameid":5961825,"name":"Glenannan","admin3":"3540050"},{"geonameid":5962442,"name":"Goderich","admin3":""},{"geonameid":5971028,"name":"Harlock","admin3":"3540025"},{"geonameid":5976320,"name":"Holmesville","admin3":"3540025"},{"geonameid":5978989,"name":"Hutton Heights","admin3":"3540055"},{"geonameid":5985657,"name":"Jamestown","admin3":"3540050"},{"geonameid":5992136,"name":"Kinburn","admin3":"3540025"},{"geonameid":5992388,"name":"Kingsbridge","admin3":"3540063"},{"geonameid":5992681,"name":"Kintail","admin3":"3540063"},{"geonameid":6048474,"name":"Lakelet","admin3":"3540046"},{"geonameid":6049322,"name":"Lanes","admin3":"3540063"},{"geonameid":6058148,"name":"Lochalsh","admin3":"3540063"},{"geonameid":6058557,"name":"Londesborough","admin3":"3540025"},{"geonameid":6060699,"name":"Lothian","admin3":"3540063"},{"geonameid":6061716,"name":"Loyal","admin3":"3540063"},{"geonameid":6061818,"name":"Lucknow","admin3":"3540063"},{"geonameid":6064032,"name":"Mafeking","admin3":"3540063"},{"geonameid":6066687,"name":"Marnoch","admin3":"3540055"},{"geonameid":6068404,"name":"Mayne Corners","admin3":"3540046"},{"geonameid":6069551,"name":"McGaw","admin3":"3540063"},{"geonameid":6087423,"name":"Newbridge","admin3":"3540046"},{"geonameid":6088291,"name":"Nile","admin3":"3540063"},{"geonameid":8556298,"name":"Port Albert","admin3":"3540063"},{"geonameid":6111828,"name":"Porter's Hill","admin3":"3540025"},{"geonameid":6113741,"name":"Prosperity","admin3":"3540063"},{"geonameid":6139737,"name":"Saltford","admin3":"3540063"},{"geonameid":6141144,"name":"Saratoga","admin3":"3540063"},{"geonameid":6146116,"name":"Sheppardton","admin3":"3540063"},{"geonameid":6155660,"name":"St. Augustine","admin3":"3540063"},{"geonameid":6156649,"name":"St. Helens","admin3":"3540063"},{"geonameid":6159222,"name":"Summerhill","admin3":"3540025"},{"geonameid":6159675,"name":"Sunset Beach","admin3":"3540063"},{"geonameid":6159741,"name":"Sunshine","admin3":"3540050"},{"geonameid":6178904,"name":"Westfield","admin3":"3540055"},{"geonameid":6183141,"name":"Wingham","admin3":"3540055"},{"geonameid":6186121,"name":"Zion","admin3":"3540063"},{"geonameid":6186201,"name":"Zurich","admin3":""}],"admin3":[{"geonameid":5887554,"name":"Ashfield-Colborne-Wawanosh","admin3":"3540063"},{"geonameid":5919114,"name":"Central Huron","admin3":"3540025"},{"geonameid":5977940,"name":"Howick","admin3":"3540046"},{"geonameid":6078921,"name":"Morris-Turnberry","admin3":"3540050"},{"geonameid":6090149,"name":"North Huron","admin3":"3540055"}],"alternateNames":[]},"__N_SSG":true}