{"pageProps":{"locale":"en","admin2":{"geonameid":6088501,"name":"Nipissing District","country":"CA","admin1":"08","admin2":"3548","admin3":"","latitude":"46.0001000","longitude":"-78.9995900"},"admin1":{"geonameid":6093943,"name":"Ontario","admin1":"08"},"locations":[{"geonameid":5882835,"name":"Airy","admin3":"3548001"},{"geonameid":5883298,"name":"Alderdale","admin3":"3548031"},{"geonameid":5887859,"name":"Astorville","admin3":"3548034"},{"geonameid":5888693,"name":"Aylen Lake","admin3":"3548001"},{"geonameid":5898113,"name":"Bellwood","admin3":"3548001"},{"geonameid":5903625,"name":"Blanchard's Landing","admin3":"3548022"},{"geonameid":8556281,"name":"Bonfield","admin3":"3548027"},{"geonameid":5905753,"name":"Booth","admin3":"3548034"},{"geonameid":5905783,"name":"Booth Landing","admin3":"3548031"},{"geonameid":5913550,"name":"Callander","admin3":""},{"geonameid":5921654,"name":"Chiswick","admin3":"3548031"},{"geonameid":5927726,"name":"Corbeil","admin3":"3548034"},{"geonameid":5933117,"name":"Cross Lake","admin3":"3548001"},{"geonameid":5946275,"name":"Eau Claire","admin3":"3548022"},{"geonameid":5965805,"name":"Great Desert","admin3":"3548027"},{"geonameid":5968472,"name":"Gunters","admin3":"3548001"},{"geonameid":5993414,"name":"Klock","admin3":"3548013"},{"geonameid":9034824,"name":"Lavigne","admin3":""},{"geonameid":6063885,"name":"Madawaska","admin3":"3548001"},{"geonameid":6070223,"name":"McKenzie Lake","admin3":"3548001"},{"geonameid":6084356,"name":"Murchison","admin3":"3548001"},{"geonameid":6089426,"name":"North Bay","admin3":""},{"geonameid":6091212,"name":"Nosbonsing","admin3":"3548034"},{"geonameid":6116531,"name":"Rankin","admin3":"3548013"},{"geonameid":6136747,"name":"Rutherglen","admin3":"3548027"},{"geonameid":6150195,"name":"Smith's Landing","admin3":"3548019"},{"geonameid":6175385,"name":"Wallace","admin3":"3548001"},{"geonameid":6176556,"name":"Wasing","admin3":"3548031"},{"geonameid":6181282,"name":"Whitney","admin3":"3548001"},{"geonameid":6182772,"name":"Wilson's Landing","admin3":"3548019"}],"admin3":[{"geonameid":5905482,"name":"Bonfield","admin3":"3548027"},{"geonameid":5913659,"name":"Calvin","admin3":"3548022"},{"geonameid":5921606,"name":"Chisholm","admin3":"3548031"},{"geonameid":5945662,"name":"East Ferris","admin3":"3548034"},{"geonameid":6067964,"name":"Mattawan","admin3":"3548019"},{"geonameid":6096661,"name":"Papineau-Cameron","admin3":"3548013"},{"geonameid":6151501,"name":"South Algonquin","admin3":"3548001"}],"alternateNames":[]},"__N_SSG":true}