{"pageProps":{"locale":"en","admin2":{"geonameid":3333239,"name":"Bridgend county borough","country":"GB","admin1":"WLS","admin2":"X3","admin3":"","latitude":"51.5500000","longitude":"-3.5833300"},"admin1":{"geonameid":2634895,"name":"Wales","admin1":"WLS","localeAltName":"Wales"},"locations":[{"geonameid":2657804,"name":"Aberkenfig","admin3":"00PB014"},{"geonameid":2655800,"name":"Betws","admin3":"00PB008"},{"geonameid":2655468,"name":"Blackmill","admin3":"00PB015"},{"geonameid":2655412,"name":"Blaengarw","admin3":"00PB008"},{"geonameid":2654755,"name":"Bridgend","admin3":"00PB002"},{"geonameid":3345287,"name":"Bryncethin","admin3":"00PB018"},{"geonameid":2654436,"name":"Brynmenyn","admin3":"00PB019"},{"geonameid":3345289,"name":"Cefn Cribwr","admin3":"00PB003"},{"geonameid":2652622,"name":"Coity","admin3":"00PB004"},{"geonameid":2652178,"name":"Coychurch","admin3":"00PB006"},{"geonameid":2651254,"name":"Dinas","admin3":"00PB008"},{"geonameid":3345282,"name":"Evanstown","admin3":"00PB015"},{"geonameid":2648824,"name":"Garth","admin3":"00PB012"},{"geonameid":3345286,"name":"Heol-y-Cyw","admin3":"00PB005"},{"geonameid":2645825,"name":"Kenfig","admin3":"00PB020"},{"geonameid":2645824,"name":"Kenfig Hill","admin3":"00PB021"},{"geonameid":8224199,"name":"Laleston","admin3":"00PB009"},{"geonameid":2644036,"name":"Llangeinor","admin3":"00PB008"},{"geonameid":8468610,"name":"Llangewydd","admin3":"00PB009"},{"geonameid":2643996,"name":"Llangynwyd","admin3":"00PB011"},{"geonameid":2643218,"name":"Maesteg","admin3":"00PB012"},{"geonameid":3345291,"name":"Merthyr Mawr","admin3":"00PB013"},{"geonameid":2641889,"name":"Nant-y-moel","admin3":"00PB015"},{"geonameid":2641566,"name":"Newton","admin3":"00PB017"},{"geonameid":2641388,"name":"North Cornelly","admin3":"00PB020"},{"geonameid":2641171,"name":"Nottage","admin3":"00PB017"},{"geonameid":3345280,"name":"Ogmore Vale","admin3":"00PB015"},{"geonameid":2640484,"name":"Pencoed","admin3":"00PB016"},{"geonameid":3345278,"name":"Pont Rhyd-y-cyff","admin3":"00PB011"},{"geonameid":2640109,"name":"Pontycymer","admin3":"00PB008"},{"geonameid":2640054,"name":"Porthcawl","admin3":"00PB017"},{"geonameid":3345279,"name":"Price Town","admin3":"00PB015"},{"geonameid":2639823,"name":"Pyle","admin3":"00PB021"},{"geonameid":3345285,"name":"Sarn","admin3":"00PB018"},{"geonameid":2637449,"name":"South Cornelly","admin3":"00PB020"},{"geonameid":2635702,"name":"Tondu","admin3":"00PB019"},{"geonameid":2635257,"name":"Tythegston","admin3":"00PB013"}],"admin3":[{"geonameid":7291174,"name":"Pyle","admin3":"00PB021"},{"geonameid":7291603,"name":"Brackla","admin3":"00PB001"},{"geonameid":7291604,"name":"Coychurch Higher","admin3":"00PB005"},{"geonameid":7291605,"name":"Maesteg","admin3":"00PB012"},{"geonameid":7291606,"name":"Merthyr Mawr","admin3":"00PB013"},{"geonameid":7292176,"name":"Laleston","admin3":"00PB009"},{"geonameid":7292177,"name":"Llangynwyd Lower","admin3":"00PB010"},{"geonameid":7292178,"name":"Llangynwyd Middle","admin3":"00PB011"},{"geonameid":7292179,"name":"Pencoed","admin3":"00PB016"},{"geonameid":7292180,"name":"St. Bride's Minor","admin3":"00PB018"},{"geonameid":7292181,"name":"Ynysawdre","admin3":"00PB019"},{"geonameid":7292182,"name":"Cornelly","admin3":"00PB020"},{"geonameid":7293928,"name":"Garw Valley","admin3":"00PB008"},{"geonameid":7296013,"name":"Bridgend","admin3":"00PB002"},{"geonameid":7297732,"name":"Coity Higher","admin3":"00PB004"},{"geonameid":7297851,"name":"Newcastle Higher","admin3":"00PB014"},{"geonameid":7300412,"name":"Porthcawl","admin3":"00PB017"},{"geonameid":7300997,"name":"Cefn Cribwr","admin3":"00PB003"},{"geonameid":7300998,"name":"Coychurch Lower","admin3":"00PB006"},{"geonameid":7300999,"name":"Ogmore Valley","admin3":"00PB015"}],"alternateNames":[{"alternatenameId":1626654,"geonameid":2634895,"isoLanguage":"en","alternateName":"Wales","isPreferredName":true,"isShortName":true,"isColloquial":false,"isHistoric":false}]},"__N_SSG":true}