{"pageProps":{"locale":"ro","admin2":{"geonameid":675422,"name":"Comuna Ivăneşti","country":"RO","admin1":"38","admin2":"164393","admin3":"","latitude":"46.6621600","longitude":"27.4446500"},"admin1":{"geonameid":663116,"name":"Vaslui","admin1":"38"},"locations":[{"geonameid":686533,"name":"Albina","admin3":""},{"geonameid":684581,"name":"Bleșca","admin3":""},{"geonameid":683639,"name":"Broșteni","admin3":""},{"geonameid":683191,"name":"Buscata","admin3":""},{"geonameid":680658,"name":"Coşca","admin3":""},{"geonameid":680643,"name":"Coșești","admin3":""},{"geonameid":677825,"name":"Fundătura Mare","admin3":""},{"geonameid":11002925,"name":"Fundătura Mică","admin3":""},{"geonameid":676159,"name":"Hârșoveni","admin3":""},{"geonameid":675716,"name":"Iezerel","admin3":""},{"geonameid":675427,"name":"Ivănești","admin3":""},{"geonameid":664093,"name":"Ursoaia","admin3":""},{"geonameid":663615,"name":"Valea Mare","admin3":""},{"geonameid":663543,"name":"Valea Oanei","admin3":""}],"admin3":[],"alternateNames":[]},"__N_SSG":true}