{"pageProps":{"locale":"en","admin2":{"geonameid":5222961,"name":"Kent County","country":"US","admin1":"RI","admin2":"003","admin3":"","latitude":"41.6733400","longitude":"-71.5789500"},"admin1":{"geonameid":5224323,"name":"Rhode Island","admin1":"RI","localeAltName":"Rhode Island"},"locations":[{"geonameid":5221637,"name":"Coventry","admin3":"18640"},{"geonameid":5221875,"name":"East Greenwich","admin3":"22240"},{"geonameid":5225507,"name":"Warwick","admin3":"74300"},{"geonameid":8260172,"name":"West Greenwich","admin3":"77720"},{"geonameid":5225627,"name":"West Warwick","admin3":"78440"}],"admin3":[{"geonameid":5221644,"name":"Town of Coventry","admin3":"18640"},{"geonameid":5221925,"name":"Town of East Greenwich","admin3":"22240"},{"geonameid":5225530,"name":"City of Warwick","admin3":"74300"},{"geonameid":5225612,"name":"Town of West Greenwich","admin3":"77720"},{"geonameid":5225625,"name":"Town of West Warwick","admin3":"78440"}],"alternateNames":[{"alternatenameId":2124823,"geonameid":5224323,"isoLanguage":"en","alternateName":"Rhode Island","isPreferredName":true,"isShortName":true,"isColloquial":false,"isHistoric":false}]},"__N_SSG":true}