{"pageProps":{"locale":"en","admin2":{"geonameid":5224162,"name":"Providence County","country":"US","admin1":"RI","admin2":"007","admin3":"","latitude":"41.8713600","longitude":"-71.5786000"},"admin1":{"geonameid":5224323,"name":"Rhode Island","admin1":"RI","localeAltName":"Rhode Island"},"locations":[{"geonameid":5221341,"name":"Central Falls","admin3":"14140"},{"geonameid":5221401,"name":"Chepachet","admin3":"30340"},{"geonameid":5221659,"name":"Cranston","admin3":"5221674"},{"geonameid":5221703,"name":"Cumberland","admin3":"20080"},{"geonameid":5221705,"name":"Cumberland Hill","admin3":"20080"},{"geonameid":5221931,"name":"East Providence","admin3":"22960"},{"geonameid":5222169,"name":"Foster","admin3":"27460"},{"geonameid":5222476,"name":"Greenville","admin3":"66200"},{"geonameid":5222569,"name":"Harrisville","admin3":"11800"},{"geonameid":8604682,"name":"Johnston","admin3":"5222928"},{"geonameid":8531960,"name":"Lincoln","admin3":"41500"},{"geonameid":5223681,"name":"North Providence","admin3":"5223683"},{"geonameid":5223685,"name":"North Scituate","admin3":"64220"},{"geonameid":5223687,"name":"North Smithfield","admin3":"52480"},{"geonameid":5223854,"name":"Pascoag","admin3":"11800"},{"geonameid":5223869,"name":"Pawtucket","admin3":"54640"},{"geonameid":5224151,"name":"Providence","admin3":"59000"},{"geonameid":5224949,"name":"Smithfield","admin3":"66200"},{"geonameid":5225388,"name":"Valley Falls","admin3":"20080"},{"geonameid":5225809,"name":"Woonsocket","admin3":"80780"}],"admin3":[{"geonameid":5221187,"name":"Town of Burrillville","admin3":"11800"},{"geonameid":5221349,"name":"City of Central Falls","admin3":"14140"},{"geonameid":5221674,"name":"City of Cranston","admin3":"5221674"},{"geonameid":5221711,"name":"Town of Cumberland","admin3":"20080"},{"geonameid":5221937,"name":"City of East Providence","admin3":"22960"},{"geonameid":5222177,"name":"Town of Foster","admin3":"27460"},{"geonameid":5222349,"name":"Town of Glocester","admin3":"30340"},{"geonameid":5222928,"name":"Town of Johnston","admin3":"5222928"},{"geonameid":5223114,"name":"Town of Lincoln","admin3":"41500"},{"geonameid":5223683,"name":"Town of North Providence","admin3":"5223683"},{"geonameid":5223692,"name":"Town of North Smithfield","admin3":"52480"},{"geonameid":5223878,"name":"City of Pawtucket","admin3":"54640"},{"geonameid":5224183,"name":"City of Providence","admin3":"59000"},{"geonameid":5224787,"name":"Town of Scituate","admin3":"64220"},{"geonameid":5224955,"name":"Town of Smithfield","admin3":"66200"},{"geonameid":5225821,"name":"City of Woonsocket","admin3":"80780"}],"alternateNames":[{"alternatenameId":2124823,"geonameid":5224323,"isoLanguage":"en","alternateName":"Rhode Island","isPreferredName":true,"isShortName":true,"isColloquial":false,"isHistoric":false}]},"__N_SSG":true}