{"pageProps":{"locale":"de","admin1":{"geonameid":2842635,"name":"Saarland","country":"DE","admin1":"09","latitude":"49.4047200","longitude":"6.9608300","localeAltName":"Saarland"},"admin2":[],"admin3":[{"geonameid":2871673,"name":"Landkreis Merzig-Wadern","admin3":"10042","localeAltName":null},{"geonameid":3249066,"name":"Landkreis Neunkirchen","admin3":"10043","localeAltName":null},{"geonameid":3249065,"name":"Landkreis Saarlouis","admin3":"10044","localeAltName":null},{"geonameid":2841464,"name":"Landkreis Sankt Wendel","admin3":"10046","localeAltName":null},{"geonameid":3249068,"name":"Regionalverband Saarbr√ºcken","admin3":"10041","localeAltName":null},{"geonameid":3249067,"name":"Saarpfalz-Kreis","admin3":"10045","localeAltName":null}],"country":{"geonameid":2921044,"country":"DE","name":"Federal Republic of Germany","localeAltName":"Deutschland"},"alternateNames":[{"alternatenameId":1620115,"geonameid":2842635,"isoLanguage":"de","alternateName":"Saarland","isPreferredName":true,"isShortName":true,"isColloquial":false,"isHistoric":false},{"alternatenameId":1557479,"geonameid":2921044,"isoLanguage":"de","alternateName":"Deutschland","isPreferredName":true,"isShortName":true,"isColloquial":false,"isHistoric":false},{"alternatenameId":1557482,"geonameid":2921044,"isoLanguage":"en","alternateName":"Germany","isPreferredName":true,"isShortName":true,"isColloquial":false,"isHistoric":false}]},"__N_SSG":true}