{"pageProps":{"locale":"en","admin2":{"geonameid":2744256,"name":"Gemeente Woensdrecht","country":"NL","admin1":"06","admin2":"0873","admin3":"","latitude":"51.4094800","longitude":"4.3351200"},"admin1":{"geonameid":2749990,"name":"Provincie Noord-Brabant","admin1":"06"},"locations":[{"geonameid":2760103,"name":"Aanwas","admin3":""},{"geonameid":2758030,"name":"Calfven","admin3":""},{"geonameid":2756267,"name":"Eiland","admin3":""},{"geonameid":2753725,"name":"Hoogerheide","admin3":""},{"geonameid":2753521,"name":"Huijbergen","admin3":""},{"geonameid":2752403,"name":"Korteven","admin3":""},{"geonameid":2751827,"name":"Leemberg","admin3":""},{"geonameid":2749223,"name":"Ossendrecht","admin3":""},{"geonameid":2748865,"name":"Overberg","admin3":""},{"geonameid":2748569,"name":"Plaatsluis","admin3":""},{"geonameid":2748397,"name":"Putte","admin3":""},{"geonameid":2747533,"name":"Schoelieberg","admin3":""},{"geonameid":2744257,"name":"Woensdrecht","admin3":""},{"geonameid":2744078,"name":"Zandfort","admin3":""}],"admin3":[],"alternateNames":[{"alternatenameId":11907788,"geonameid":2749990,"isoLanguage":"de","alternateName":"Nordbrabant","isPreferredName":true,"isShortName":true,"isColloquial":false,"isHistoric":false}]},"__N_SSG":true}