{"pageProps":{"locale":"en","admin2":{"geonameid":6544277,"name":"Gemeente Heeze-Leende","country":"NL","admin1":"06","admin2":"1658","admin3":"","latitude":"51.3640400","longitude":"5.5587000"},"admin1":{"geonameid":2749990,"name":"Provincie Noord-Brabant","admin1":"06"},"locations":[{"geonameid":6544750,"name":"Boschhoven","admin3":""},{"geonameid":2758555,"name":"Boshoven","admin3":""},{"geonameid":2758197,"name":"Bruggerhuizen","admin3":""},{"geonameid":2755981,"name":"Euvelwegen","admin3":""},{"geonameid":2755501,"name":"Ginderover","admin3":""},{"geonameid":2754728,"name":"Hazenhurk","admin3":""},{"geonameid":2754618,"name":"Heeze","admin3":""},{"geonameid":2754614,"name":"Heezerenbosch","admin3":""},{"geonameid":2752928,"name":"Kerkhof","admin3":""},{"geonameid":2752283,"name":"Kreijl","admin3":""},{"geonameid":2752208,"name":"Kruis","admin3":""},{"geonameid":2751821,"name":"Leende","admin3":""},{"geonameid":2751816,"name":"Leenderstrijp","admin3":""},{"geonameid":2750573,"name":"Muggenberg","admin3":""},{"geonameid":2749445,"name":"Oosterik","admin3":""},{"geonameid":2749039,"name":"Oudenmolen","admin3":""},{"geonameid":2747814,"name":"Rul","admin3":""},{"geonameid":2746730,"name":"Sterksel","admin3":""},{"geonameid":2746633,"name":"Strabrecht","admin3":""},{"geonameid":2745867,"name":"Valkenhorst","admin3":""},{"geonameid":2745657,"name":"Ven","admin3":""},{"geonameid":2743933,"name":"Zevenhuizen","admin3":""}],"admin3":[],"alternateNames":[{"alternatenameId":11907788,"geonameid":2749990,"isoLanguage":"de","alternateName":"Nordbrabant","isPreferredName":true,"isShortName":true,"isColloquial":false,"isHistoric":false}]},"__N_SSG":true}