{"pageProps":{"locale":"en","admin2":{"geonameid":4590186,"name":"Orangeburg County","country":"US","admin1":"SC","admin2":"075","admin3":"","latitude":"33.4389900","longitude":"-80.8003000","localeAltName":null},"admin1":{"geonameid":4597040,"name":"South Carolina","admin1":"SC","localeAltName":"South Carolina"},"locations":[{"geonameid":4571994,"name":"Bowman","admin3":"","localeAltName":null},{"geonameid":4572098,"name":"Branchville","admin3":"","localeAltName":null},{"geonameid":4572352,"name":"Brookdale","admin3":"","localeAltName":null},{"geonameid":4577557,"name":"Edisto","admin3":"","localeAltName":null},{"geonameid":4577727,"name":"Elloree","admin3":"","localeAltName":null},{"geonameid":4582000,"name":"Holly Hill","admin3":"","localeAltName":null},{"geonameid":4589360,"name":"North","admin3":"","localeAltName":null},{"geonameid":4590184,"name":"Orangeburg","admin3":"","localeAltName":null},{"geonameid":4594983,"name":"Santee","admin3":"","localeAltName":null},{"geonameid":4597418,"name":"Springfield","admin3":"","localeAltName":null},{"geonameid":4601093,"name":"Wilkinson Heights","admin3":"","localeAltName":null}],"admin3":[],"alternateNames":[{"alternatenameId":2089561,"geonameid":4597040,"isoLanguage":"en","alternateName":"South Carolina","isPreferredName":true,"isShortName":true,"isColloquial":false,"isHistoric":false}]},"__N_SSG":true}