{"pageProps":{"locale":"en","admin1":{"geonameid":6065171,"name":"Manitoba","country":"CA","admin1":"03","latitude":"55.0001900","longitude":"-97.0004900"},"admin2":[{"geonameid":5883398,"name":"Alexander","admin2":"5883398"},{"geonameid":5884145,"name":"Alonsa","admin2":"5884145"},{"geonameid":5886869,"name":"Argyle","admin2":"5886869"},{"geonameid":5887047,"name":"Armstrong","admin2":"5887047"},{"geonameid":5909350,"name":"Brokenhead","admin2":"5909350"},{"geonameid":5917773,"name":"Cartier","admin2":"5917773"},{"geonameid":6125861,"name":"Cartwright–Roblin","admin2":"6125861"},{"geonameid":5925083,"name":"Coldwell","admin2":"5925083"},{"geonameid":5928075,"name":"Cornwallis","admin2":"5928075"},{"geonameid":5935342,"name":"Dauphin","admin2":"5935342"},{"geonameid":5938127,"name":"De Salaberry","admin2":"5938127"},{"geonameid":5943543,"name":"Dufferin","admin2":"5943543"},{"geonameid":5946153,"name":"East St. Paul","admin2":"5946153"},{"geonameid":12088765,"name":"Ellice-Archie","admin2":"12088765"},{"geonameid":5948173,"name":"Elton","admin2":"5948173"},{"geonameid":5950217,"name":"Ethelbert","admin2":"5950217"},{"geonameid":5953379,"name":"Fisher","admin2":"5953379"},{"geonameid":5961067,"name":"Gilbert Plains","admin2":"5961067"},{"geonameid":5961416,"name":"Gimli","admin2":"5961416"},{"geonameid":5964094,"name":"Grahamdale","admin2":"5964094"},{"geonameid":5964715,"name":"Grandview","admin2":"5964715"},{"geonameid":5966926,"name":"Grey","admin2":"5966926"},{"geonameid":5969882,"name":"Hamiota","admin2":"5969882"},{"geonameid":5970302,"name":"Hanover","admin2":"5970302"},{"geonameid":5972962,"name":"Headingley","admin2":"5972962"},{"geonameid":5990627,"name":"Kelsey","admin2":"5990627"},{"geonameid":6170648,"name":"Killarney-Turtle Mountain","admin2":"6170648"},{"geonameid":5994865,"name":"La Broquerie","admin2":"5994865"},{"geonameid":6014442,"name":"Lac du Bonnet","admin2":"6014442"},{"geonameid":12088767,"name":"Lakeshore","admin2":"12088767"},{"geonameid":6060360,"name":"Lorne","admin2":"6060360"},{"geonameid":6060804,"name":"Louise","admin2":"6060804"},{"geonameid":6062676,"name":"Macdonald","admin2":"6062676"},{"geonameid":6069089,"name":"McCreary","admin2":"6069089"},{"geonameid":6076808,"name":"Montcalm","admin2":"6076808"},{"geonameid":6078726,"name":"Morris","admin2":"6078726"},{"geonameid":6079284,"name":"Mossey River","admin2":"6079284"},{"geonameid":6090358,"name":"North Norfolk","admin2":"6090358"},{"geonameid":12088769,"name":"Oakview","admin2":"12088769"},{"geonameid":6100811,"name":"Pembina","admin2":"6100811"},{"geonameid":6105291,"name":"Piney","admin2":"6105291"},{"geonameid":6105529,"name":"Pipestone","admin2":"6105529"},{"geonameid":6111530,"name":"Portage la Prairie","admin2":"6111530"},{"geonameid":12088768,"name":"Prairie Lakes","admin2":"12088768"},{"geonameid":6121677,"name":"Reynolds","admin2":"6121677"},{"geonameid":6121732,"name":"Rhineland","admin2":"6121732"},{"geonameid":12088770,"name":"Riding Mountain West","admin2":"12088770"},{"geonameid":6122576,"name":"Ritchot","admin2":"6122576"},{"geonameid":6126541,"name":"Rockwood","admin2":"6126541"},{"geonameid":6127181,"name":"Roland","admin2":"6127181"},{"geonameid":6127585,"name":"Rosedale","admin2":"6127585"},{"geonameid":6127818,"name":"Rossburn","admin2":"6127818"},{"geonameid":6127874,"name":"Rosser","admin2":"6127874"},{"geonameid":6147482,"name":"Sifton","admin2":"6147482"},{"geonameid":6154185,"name":"Springfield","admin2":"6154185"},{"geonameid":6155131,"name":"St. Andrews","admin2":"6155131"},{"geonameid":6155764,"name":"St. Clements","admin2":"6155764"},{"geonameid":6156605,"name":"St. François Xavier","admin2":"6156605"},{"geonameid":6156971,"name":"St. Laurent","admin2":"6156971"},{"geonameid":6155186,"name":"Stanley","admin2":"6155186"},{"geonameid":6155865,"name":"Ste. Anne","admin2":"6155865"},{"geonameid":6156288,"name":"Ste. Rose","admin2":"6156288"},{"geonameid":6158376,"name":"Stuartburn","admin2":"6158376"},{"geonameid":6160992,"name":"Taché","admin2":"6160992"},{"geonameid":6165405,"name":"Thompson","admin2":"6165405"},{"geonameid":6174040,"name":"Victoria","admin2":"6174040"},{"geonameid":6174050,"name":"Victoria Beach","admin2":"6174050"},{"geonameid":12088766,"name":"Wallace-Woodworth","admin2":"12088766"},{"geonameid":6179507,"name":"West St. Paul","admin2":"6179507"},{"geonameid":6180469,"name":"Whitehead","admin2":"6180469"},{"geonameid":6180732,"name":"Whitemouth","admin2":"6180732"},{"geonameid":6184198,"name":"Woodlands","admin2":"6184198"},{"geonameid":11153049,"name":"Yellowhead","admin2":"11153049"}],"admin3":[],"country":{"geonameid":6251999,"country":"CA","name":"Canada"},"alternateNames":[]},"__N_SSG":true}