{"pageProps":{"locale":"en","admin1":{"geonameid":6093943,"name":"Ontario","country":"CA","admin1":"08","latitude":"49.2501400","longitude":"-84.4998300"},"admin2":[{"geonameid":5883638,"name":"Algoma","admin2":"3557"},{"geonameid":5907982,"name":"Brant","admin2":"3529"},{"geonameid":5910071,"name":"Bruce County","admin2":"3541"},{"geonameid":5920450,"name":"Chatham-Kent","admin2":"3536"},{"geonameid":5924616,"name":"Cochrane District","admin2":"3556"},{"geonameid":6172002,"name":"Comt√©s unis de Prescott et Russell","admin2":"3502"},{"geonameid":6084939,"name":"District Municipality of Muskoka","admin2":"3544"},{"geonameid":5943542,"name":"Dufferin County","admin2":"3522"},{"geonameid":5944369,"name":"Durham","admin2":"3518"},{"geonameid":5947587,"name":"Elgin County","admin2":"3534"},{"geonameid":5949533,"name":"Essex County","admin2":"3537"},{"geonameid":5958506,"name":"Frontenac County","admin2":"3510"},{"geonameid":6158841,"name":"Greater Sudbury","admin2":"3553"},{"geonameid":5966925,"name":"Grey County","admin2":"3542"},{"geonameid":5969093,"name":"Haldimand County","admin2":"3528"},{"geonameid":5969392,"name":"Haliburton County","admin2":"3546"},{"geonameid":5969719,"name":"Halton","admin2":"3524"},{"geonameid":5969784,"name":"Hamilton","admin2":"3525"},{"geonameid":5971841,"name":"Hastings County","admin2":"3512"},{"geonameid":5978829,"name":"Huron County","admin2":"3540"},{"geonameid":5989818,"name":"Kawartha Lakes","admin2":"3516"},{"geonameid":5991054,"name":"Kenora District","admin2":"3560"},{"geonameid":6049019,"name":"Lambton County","admin2":"3538"},{"geonameid":6049130,"name":"Lanark County","admin2":"3509"},{"geonameid":6052311,"name":"Lennox and Addington County","admin2":"3511"},{"geonameid":6065217,"name":"Manitoulin District","admin2":"3551"},{"geonameid":6073256,"name":"Middlesex County","admin2":"3539"},{"geonameid":6088501,"name":"Nipissing District","admin2":"3548"},{"geonameid":6090772,"name":"Northumberland County","admin2":"3514"},{"geonameid":8581623,"name":"Ottawa","admin2":"3506"},{"geonameid":6095780,"name":"Oxford County","admin2":"3532"},{"geonameid":6098746,"name":"Parry Sound District","admin2":"3549"},{"geonameid":6100475,"name":"Peel","admin2":"3521"},{"geonameid":6101545,"name":"Perth County","admin2":"3531"},{"geonameid":6101646,"name":"Peterborough County","admin2":"3515"},{"geonameid":6113354,"name":"Prince Edward County","admin2":"3513"},{"geonameid":6116135,"name":"Rainy River District","admin2":"3559"},{"geonameid":6087883,"name":"Regional Municipality of Niagara","admin2":"3526"},{"geonameid":6176824,"name":"Regional Municipality of Waterloo","admin2":"3530"},{"geonameid":6119449,"name":"Renfrew County","admin2":"3547"},{"geonameid":6147963,"name":"Simcoe County","admin2":"3543"},{"geonameid":6158840,"name":"Sudbury","admin2":"3552"},{"geonameid":6166139,"name":"Thunder Bay District","admin2":"3558"},{"geonameid":6166724,"name":"Timiskaming District","admin2":"3554"},{"geonameid":8133394,"name":"Toronto county","admin2":"3520"},{"geonameid":6172001,"name":"United Counties of Leeds and Grenville","admin2":"3507"},{"geonameid":6172003,"name":"United Counties of Stormont, Dundas and Glengarry","admin2":"3501"},{"geonameid":6177913,"name":"Wellington County","admin2":"3523"},{"geonameid":6185560,"name":"York","admin2":"3519"}],"admin3":[],"country":{"geonameid":6251999,"country":"CA","name":"Canada"},"alternateNames":[]},"__N_SSG":true}