{"pageProps":{"locale":"en","admin1":{"geonameid":6115047,"name":"Québec","country":"CA","admin1":"10","latitude":"52.0001700","longitude":"-71.9990700"},"admin2":[{"geonameid":5881941,"name":"Abitibi-Témiscamingue","admin2":"08"},{"geonameid":6691318,"name":"Bas-Saint-Laurent","admin2":"01"},{"geonameid":6691319,"name":"Capitale-Nationale","admin2":"03"},{"geonameid":8449526,"name":"Centre-du-Québec","admin2":"17"},{"geonameid":6691322,"name":"Chaudière-Appalaches","admin2":"12"},{"geonameid":5928473,"name":"Côte-Nord","admin2":"09"},{"geonameid":5949621,"name":"Estrie","admin2":"05"},{"geonameid":6691321,"name":"Gaspésie-Îles-de-la-Madeleine","admin2":"11"},{"geonameid":6049141,"name":"Lanaudière","admin2":"14"},{"geonameid":6050541,"name":"Laurentides","admin2":"15"},{"geonameid":6050612,"name":"Laval","admin2":"13"},{"geonameid":6068167,"name":"Mauricie","admin2":"04"},{"geonameid":6076966,"name":"Montérégie","admin2":"16"},{"geonameid":6077246,"name":"Montréal","admin2":"06"},{"geonameid":6691320,"name":"Nord-du-Québec","admin2":"10"},{"geonameid":6095306,"name":"Outaouais","admin2":"07"},{"geonameid":6137271,"name":"Saguenay/Lac-Saint-Jean","admin2":"02"}],"admin3":[],"country":{"geonameid":6251999,"country":"CA","name":"Canada"},"alternateNames":[]},"__N_SSG":true}