{"pageProps":{"locale":"en","admin2":{"geonameid":3333238,"name":"Blaenau Gwent","country":"GB","admin1":"WLS","admin2":"X2","admin3":"","latitude":"51.7500000","longitude":"-3.1666700"},"admin1":{"geonameid":2634895,"name":"Wales","admin1":"WLS","localeAltName":"Wales"},"locations":[{"geonameid":2657848,"name":"Aberbeeg","admin3":"00PL006"},{"geonameid":2657784,"name":"Abertillery","admin3":"00PL001"},{"geonameid":2656083,"name":"Beaufort","admin3":"00PL002"},{"geonameid":2655403,"name":"Blaina","admin3":"00PL007"},{"geonameid":2654437,"name":"Brynmawr","admin3":"00PL003"},{"geonameid":2651659,"name":"Cwm","admin3":"00PL004"},{"geonameid":2650285,"name":"Ebbw Vale","admin3":"00PL005"},{"geonameid":2641891,"name":"Nant-y-bwch","admin3":"00PL008"},{"geonameid":2641890,"name":"Nantyglo","admin3":"00PL007"},{"geonameid":2637808,"name":"Sirhowy","admin3":"00PL008"},{"geonameid":2635547,"name":"Tredegar","admin3":"00PL008"},{"geonameid":2634966,"name":"Victoria","admin3":"00PL004"}],"admin3":[{"geonameid":7290776,"name":"Abertillery","admin3":"00PL001"},{"geonameid":7292853,"name":"Nantyglo and Blaina","admin3":"00PL007"},{"geonameid":7299754,"name":"Brynmawr","admin3":"00PL003"},{"geonameid":7299755,"name":"Llanhilleth","admin3":"00PL006"},{"geonameid":7299756,"name":"Tredegar","admin3":"00PL008"},{"geonameid":7300543,"name":"Beaufort","admin3":"00PL002"},{"geonameid":7300544,"name":"Cwm","admin3":"00PL004"},{"geonameid":7300545,"name":"Ebbw Vale","admin3":"00PL005"}],"alternateNames":[{"alternatenameId":1626654,"geonameid":2634895,"isoLanguage":"en","alternateName":"Wales","isPreferredName":true,"isShortName":true,"isColloquial":false,"isHistoric":false}]},"__N_SSG":true}