{"pageProps":{"locale":"en","admin2":{"geonameid":2653753,"name":"Carmarthenshire","country":"GB","admin1":"WLS","admin2":"X7","admin3":"","latitude":"51.8333300","longitude":"-4.1666700","localeAltName":"Carmarthenshire"},"admin1":{"geonameid":2634895,"name":"Wales","admin1":"WLS","localeAltName":"Wales"},"locations":[{"geonameid":2657810,"name":"Abergorlech","admin3":"00NU053"},{"geonameid":2657808,"name":"Abergwili","admin3":"00NU001"},{"geonameid":2657793,"name":"Abernant","admin3":"00NU002"},{"geonameid":2657460,"name":"Alltwalis","admin3":"00NU036"},{"geonameid":2657345,"name":"Ammanford","admin3":"00NU003"},{"geonameid":3345172,"name":"Bancffosfelen","admin3":"00NU066"},{"geonameid":2656403,"name":"Bancyfelin","admin3":"00NU068"},{"geonameid":2655799,"name":"Betws","admin3":"00NU004"},{"geonameid":3345206,"name":"Blaenwaun","admin3":"00NU055"},{"geonameid":2654825,"name":"Brechfa","admin3":"00NU037"},{"geonameid":10376328,"name":"Broadlay","admin3":"00NU069"},{"geonameid":3345214,"name":"Broadway","admin3":"00NU020"},{"geonameid":10376329,"name":"Broadway","admin3":"00NU069"},{"geonameid":2654575,"name":"Brondini","admin3":"00NU033"},{"geonameid":3345164,"name":"Bronwydd Arms","admin3":"00NU005"},{"geonameid":3345213,"name":"Brook","admin3":"00NU025"},{"geonameid":2654229,"name":"Burry Port","admin3":"00NU007"},{"geonameid":3345219,"name":"Bwlchnewydd","admin3":"00NU063"},{"geonameid":2654130,"name":"Bynea","admin3":"00NU033"},{"geonameid":2654078,"name":"Caio","admin3":"00NU014"},{"geonameid":3345204,"name":"Capel Dewi","admin3":"00NU021"},{"geonameid":3345200,"name":"Capel Gwyn","admin3":"00NU001"},{"geonameid":2653847,"name":"Capel Hendre","admin3":"00NU028"},{"geonameid":3345197,"name":"Capel Isaac","admin3":"00NU059"},{"geonameid":2653846,"name":"Capel Iwan","admin3":"00NU008"},{"geonameid":2653755,"name":"Carmarthen","admin3":"00NU006"},{"geonameid":2653751,"name":"Carmel","admin3":"00NU035"},{"geonameid":3345177,"name":"Carway","admin3":"00NU045"},{"geonameid":3345209,"name":"Cefn-y-pant","admin3":"00NU022"},{"geonameid":3345187,"name":"Cefneithin","admin3":"00NU017"},{"geonameid":2652998,"name":"Cilycwm","admin3":"00NU009"},{"geonameid":3345194,"name":"Court Henry","admin3":"00NU031"},{"geonameid":3345167,"name":"Croesyceilog","admin3":"00NU029"},{"geonameid":2651872,"name":"Cross Hands","admin3":"00NU050"},{"geonameid":3345159,"name":"Crosshands","admin3":"00NU022"},{"geonameid":2651798,"name":"Crunwear","admin3":"00NU015"},{"geonameid":3345170,"name":"Crwbin","admin3":"00NU045"},{"geonameid":2651644,"name":"Cwm-pengraig","admin3":"00NU042"},{"geonameid":2651657,"name":"Cwmann","admin3":"00NU064"},{"geonameid":3345207,"name":"Cwmbach","admin3":"00NU055"},{"geonameid":2651648,"name":"Cwmduad","admin3":"00NU013"},{"geonameid":2651647,"name":"Cwmfelin Boeth","admin3":"00NU022"},{"geonameid":3345208,"name":"Cwmfelin Mynach","admin3":"00NU055"},{"geonameid":3345168,"name":"Cwmffrwd","admin3":"00NU029"},{"geonameid":3345244,"name":"Cwmisfael","admin3":"00NU045"},{"geonameid":2651645,"name":"Cwmorgan","admin3":"00NU008"},{"geonameid":2651639,"name":"Cyffic","admin3":"00NU015"},{"geonameid":2651634,"name":"Cynghordy","admin3":"00NU034"},{"geonameid":3345181,"name":"Cynheidre","admin3":"00NU033"},{"geonameid":2652428,"name":"Cynwyl Elfed","admin3":"00NU013"},{"geonameid":2651312,"name":"Derwydd","admin3":"00NU028"},{"geonameid":3345155,"name":"Dinas","admin3":"00NU071"},{"geonameid":3345203,"name":"Dolgran","admin3":"00NU036"},{"geonameid":3345190,"name":"Drefach","admin3":"00NU017"},{"geonameid":2650890,"name":"Dryslwyn","admin3":"00NU041"},{"geonameid":3345146,"name":"Efailwen","admin3":"00NU010"},{"geonameid":2650179,"name":"Eglwys-Cymmyn","admin3":"00NU015"},{"geonameid":3345220,"name":"Esgair","admin3":"00NU013"},{"geonameid":3345192,"name":"Felindre","admin3":"00NU041"},{"geonameid":3345178,"name":"Felinfoel","admin3":"00NU033"},{"geonameid":3345199,"name":"Felingwmuchaf","admin3":"00NU031"},{"geonameid":2649512,"name":"Ferryside","admin3":"00NU069"},{"geonameid":2649496,"name":"Ffair-f√¢ch","admin3":"00NU016"},{"geonameid":2649495,"name":"Ffald-y-Brenin","admin3":"00NU058"},{"geonameid":3345242,"name":"Fforest","admin3":"00NU030"},{"geonameid":3345163,"name":"Ffynnon-ddrain","admin3":"00NU006"},{"geonameid":3345179,"name":"Five Roads","admin3":"00NU033"},{"geonameid":2648864,"name":"Garnant","admin3":"00NU012"},{"geonameid":2648727,"name":"Gellywen","admin3":"00NU060"},{"geonameid":2648603,"name":"Glanamman","admin3":"00NU012"},{"geonameid":3345148,"name":"Glandy Cross","admin3":"00NU010"},{"geonameid":2648351,"name":"Golden Grove","admin3":"00NU035"},{"geonameid":3345186,"name":"Gorslas","admin3":"00NU017"},{"geonameid":3345183,"name":"Greynor","admin3":"00NU030"},{"geonameid":3345222,"name":"Gwernogle","admin3":"00NU037"},{"geonameid":2647721,"name":"Gwyddgrug","admin3":"00NU036"},{"geonameid":3345151,"name":"Hebron","admin3":"00NU010"},{"geonameid":2647112,"name":"Hendy","admin3":"00NU030"},{"geonameid":2647100,"name":"Henllan","admin3":"00NU042"},{"geonameid":2647098,"name":"Henllan Amgoed","admin3":"00NU018"},{"geonameid":2634655,"name":"Hermon","admin3":"00NU013"},{"geonameid":2646801,"name":"Hoel-galed","admin3":"00NU059"},{"geonameid":2645720,"name":"Kidwelly","admin3":"00NU019"},{"geonameid":2644816,"name":"Laugharne","admin3":"00NU020"},{"geonameid":2644186,"name":"Llanarthne","admin3":"00NU021"},{"geonameid":2644168,"name":"Llanboidy","admin3":"00NU022"},{"geonameid":3345211,"name":"Llandawke","admin3":"00NU020"},{"geonameid":2644158,"name":"Llanddarog","admin3":"00NU023"},{"geonameid":2644155,"name":"Llanddeusant","admin3":"00NU024"},{"geonameid":2644125,"name":"Llanddowror","admin3":"00NU025"},{"geonameid":2644141,"name":"Llandefaelog","admin3":"00NU029"},{"geonameid":2644135,"name":"Llandeilo","admin3":"00NU026"},{"geonameid":2644127,"name":"Llandovery","admin3":"00NU027"},{"geonameid":2644115,"name":"Llandybie","admin3":"00NU028"},{"geonameid":2644111,"name":"Llandyry","admin3":"00NU072"},{"geonameid":2644105,"name":"Llanedy","admin3":"00NU030"},{"geonameid":3345193,"name":"Llanegwad","admin3":"00NU031"},{"geonameid":2644100,"name":"Llanelli","admin3":"00NU032"},{"geonameid":2644085,"name":"Llanfair-ar-y-bryn","admin3":"00NU034"},{"geonameid":2644078,"name":"Llanfallteg","admin3":"00NU018"},{"geonameid":2644077,"name":"Llanfallteg West","admin3":"00NU018"},{"geonameid":2644071,"name":"Llanfihangel-ar-Arth","admin3":"00NU036"},{"geonameid":2644064,"name":"Llanfihangel-Rhos-y-corn","admin3":"00NU037"},{"geonameid":3345201,"name":"Llanfihangel-uwch-Gwili","admin3":"00NU001"},{"geonameid":2644052,"name":"Llanfynydd","admin3":"00NU038"},{"geonameid":8299837,"name":"Llangadog","admin3":"00NU039"},{"geonameid":2644046,"name":"Llangain","admin3":"00NU040"},{"geonameid":2644042,"name":"Llangathen","admin3":"00NU041"},{"geonameid":2644034,"name":"Llangeler","admin3":"00NU042"},{"geonameid":2644031,"name":"Llangendeirne","admin3":"00NU045"},{"geonameid":2644030,"name":"Llangennech","admin3":"00NU043"},{"geonameid":2644023,"name":"Llanglydwen","admin3":"00NU022"},{"geonameid":2644013,"name":"Llangunnor","admin3":"00NU044"},{"geonameid":2644000,"name":"Llangynin","admin3":"00NU046"},{"geonameid":3345216,"name":"Llangynog","admin3":"00NU047"},{"geonameid":2643984,"name":"Llanllawddog","admin3":"00NU048"},{"geonameid":3345166,"name":"Llanllwch","admin3":"00NU006"},{"geonameid":3345212,"name":"Llanmiloe","admin3":"00NU025"},{"geonameid":2643973,"name":"Llannon","admin3":"00NU050"},{"geonameid":2643969,"name":"Llanpumsaint","admin3":"00NU051"},{"geonameid":2643956,"name":"Llansadurnen","admin3":"00NU020"},{"geonameid":2643955,"name":"Llansadwrn","admin3":"00NU052"},{"geonameid":3345175,"name":"Llansaint","admin3":"00NU069"},{"geonameid":2643947,"name":"Llansawel","admin3":"00NU053"},{"geonameid":2643942,"name":"Llansteffan","admin3":"00NU054"},{"geonameid":2643915,"name":"Llanwinio","admin3":"00NU055"},{"geonameid":2643909,"name":"Llanwrda","admin3":"00NU056"},{"geonameid":2643903,"name":"Llanybri","admin3":"00NU054"},{"geonameid":2643902,"name":"Llanybydder","admin3":"00NU057"},{"geonameid":2643897,"name":"Llanycrwys","admin3":"00NU058"},{"geonameid":3345158,"name":"Llwyn-y-brain","admin3":"00NU015"},{"geonameid":2643758,"name":"Login","admin3":"00NU010"},{"geonameid":3345188,"name":"Maesybont","admin3":"00NU035"},{"geonameid":2642994,"name":"Marros","admin3":"00NU015"},{"geonameid":2641933,"name":"Meidrim","admin3":"00NU060"},{"geonameid":3345171,"name":"Meinciau","admin3":"00NU045"},{"geonameid":2642707,"name":"Merthyr","admin3":"00NU063"},{"geonameid":3345217,"name":"Morfa Bach","admin3":"00NU054"},{"geonameid":2641935,"name":"Myddfai","admin3":"00NU061"},{"geonameid":2641899,"name":"Nantgaredig","admin3":"00NU031"},{"geonameid":3345205,"name":"Nantycaws","admin3":"00NU044"},{"geonameid":2641667,"name":"Newchurch","admin3":"00NU063"},{"geonameid":3345198,"name":"Pantglas Hall","admin3":"00NU038"},{"geonameid":2640506,"name":"Pembrey","admin3":"00NU007"},{"geonameid":3345195,"name":"Pen-y-banc","admin3":"00NU059"},{"geonameid":3345218,"name":"Pen-y-bont","admin3":"00NU071"},{"geonameid":3345185,"name":"Pen-y-groes","admin3":"00NU028"},{"geonameid":2640493,"name":"Penboyr","admin3":"00NU042"},{"geonameid":2640491,"name":"Pencader","admin3":"00NU036"},{"geonameid":2640488,"name":"Pencarreg","admin3":"00NU064"},{"geonameid":2640477,"name":"Pendine","admin3":"00NU065"},{"geonameid":11593357,"name":"Pentre-cwrt","admin3":"00NU042"},{"geonameid":3345243,"name":"Pentre-Gwenlais","admin3":"00NU028"},{"geonameid":3345165,"name":"Pentre-Morgan","admin3":"00NU005"},{"geonameid":3345173,"name":"Pont Henri","admin3":"00NU033"},{"geonameid":3345169,"name":"Pontantwn","admin3":"00NU045"},{"geonameid":3345202,"name":"Pontarsais","admin3":"00NU048"},{"geonameid":2640111,"name":"Pontyates","admin3":"00NU033"},{"geonameid":2640110,"name":"Pontyberem","admin3":"00NU066"},{"geonameid":2640043,"name":"Porth-y-rhyd","admin3":"00NU056"},{"geonameid":3345191,"name":"Porthyrhyd","admin3":"00NU023"},{"geonameid":2639851,"name":"Pumpsaint","admin3":"00NU014"},{"geonameid":3345182,"name":"Pwll","admin3":"00NU033"},{"geonameid":3345210,"name":"Pwll-trap","admin3":"00NU068"},{"geonameid":3345157,"name":"Red Roses","admin3":"00NU015"},{"geonameid":3345221,"name":"Rhos","admin3":"00NU042"},{"geonameid":2639418,"name":"Rhyd-cymmerau","admin3":"00NU053"},{"geonameid":2639419,"name":"Rhydargaeau","admin3":"00NU048"},{"geonameid":3345144,"name":"Rhydywrach","admin3":"00NU018"},{"geonameid":2638833,"name":"Saint Clears","admin3":"00NU068"},{"geonameid":2638782,"name":"Saint Ishmael","admin3":"00NU069"},{"geonameid":10376327,"name":"Saint Ishmael Town","admin3":"00NU069"},{"geonameid":3345196,"name":"Salem","admin3":"00NU059"},{"geonameid":3345215,"name":"Sarnau","admin3":"00NU063"},{"geonameid":3345184,"name":"Saron","admin3":"00NU028"},{"geonameid":3345180,"name":"Sylen","admin3":"00NU033"},{"geonameid":2636298,"name":"Talley","admin3":"00NU070"},{"geonameid":2636292,"name":"Talog","admin3":"00NU002"},{"geonameid":2635520,"name":"Trelech","admin3":"00NU071"},{"geonameid":2635519,"name":"Trelech-a‚Äôr-Bettws","admin3":"00NU071"},{"geonameid":3345176,"name":"Trimsaran","admin3":"00NU072"},{"geonameid":2635437,"name":"Trostre","admin3":"00NU032"},{"geonameid":3345189,"name":"Tumble","admin3":"00NU050"},{"geonameid":2635290,"name":"Twyn Llanan","admin3":"00NU024"},{"geonameid":2635286,"name":"Tycroes","admin3":"00NU030"},{"geonameid":7289874,"name":"Upper Tumble","admin3":"00NU050"},{"geonameid":2634997,"name":"Velindre","admin3":"00NU042"},{"geonameid":2634035,"name":"Whitland","admin3":"00NU073"},{"geonameid":2633335,"name":"Ystrad-ffin","admin3":"00NU034"}],"admin3":[{"geonameid":7291025,"name":"Abergwili","admin3":"00NU001"},{"geonameid":7291026,"name":"Ammanford","admin3":"00NU003"},{"geonameid":7291027,"name":"Bronwydd","admin3":"00NU005"},{"geonameid":7292347,"name":"Abernant","admin3":"00NU002"},{"geonameid":7292348,"name":"Cenarth","admin3":"00NU008"},{"geonameid":7292349,"name":"Cilymaenllwyd","admin3":"00NU010"},{"geonameid":7292350,"name":"Cynwyl Elfed","admin3":"00NU013"},{"geonameid":7292351,"name":"Gorslas","admin3":"00NU017"},{"geonameid":7292352,"name":"Kidwelly","admin3":"00NU019"},{"geonameid":7292353,"name":"Llanboidy","admin3":"00NU022"},{"geonameid":7292354,"name":"Llandovery","admin3":"00NU027"},{"geonameid":7292355,"name":"Llandybie","admin3":"00NU028"},{"geonameid":7292356,"name":"Llanfihangel Rhos-y-Corn","admin3":"00NU037"},{"geonameid":7292357,"name":"Llangeler","admin3":"00NU042"},{"geonameid":7292358,"name":"Llanllwni","admin3":"00NU049"},{"geonameid":7292359,"name":"Llannon","admin3":"00NU050"},{"geonameid":7292360,"name":"Llanybydder","admin3":"00NU057"},{"geonameid":7292361,"name":"Meidrim","admin3":"00NU060"},{"geonameid":7292362,"name":"Newcastle Emlyn","admin3":"00NU062"},{"geonameid":7292363,"name":"Pontyberem","admin3":"00NU066"},{"geonameid":7292364,"name":"Quarter Bach","admin3":"00NU067"},{"geonameid":7293940,"name":"Cyngor Bro Dyffryn Cennen","admin3":"00NU016"},{"geonameid":7294059,"name":"Betws","admin3":"00NU004"},{"geonameid":7294060,"name":"Laugharne Township","admin3":"00NU020"},{"geonameid":7294061,"name":"Llandeilo","admin3":"00NU026"},{"geonameid":7294062,"name":"Llanedi","admin3":"00NU030"},{"geonameid":7294063,"name":"Llanelli","admin3":"00NU032"},{"geonameid":7294064,"name":"Llangadog","admin3":"00NU039"},{"geonameid":7294065,"name":"Llangennech","admin3":"00NU043"},{"geonameid":7294066,"name":"Llangyndeyrn","admin3":"00NU045"},{"geonameid":7294067,"name":"Llanpumsaint","admin3":"00NU051"},{"geonameid":7294068,"name":"Llanwinio","admin3":"00NU055"},{"geonameid":7294069,"name":"Llanwrda","admin3":"00NU056"},{"geonameid":7294070,"name":"Llanycrwys","admin3":"00NU058"},{"geonameid":7294071,"name":"Pencarreg","admin3":"00NU064"},{"geonameid":7294072,"name":"St. Clears","admin3":"00NU068"},{"geonameid":7294073,"name":"Whitland","admin3":"00NU073"},{"geonameid":7295999,"name":"Carmarthen","admin3":"00NU006"},{"geonameid":7297148,"name":"Pembrey and Burry Port Town","admin3":"00NU007"},{"geonameid":7297149,"name":"Cilycwm","admin3":"00NU009"},{"geonameid":7297150,"name":"Henllanfallteg","admin3":"00NU018"},{"geonameid":7297151,"name":"Llanarthney","admin3":"00NU021"},{"geonameid":7297152,"name":"Llandyfaelog","admin3":"00NU029"},{"geonameid":7297153,"name":"Llanfair-ar-y-Bryn","admin3":"00NU034"},{"geonameid":7297154,"name":"Llanfynydd","admin3":"00NU038"},{"geonameid":7297155,"name":"Llangynin","admin3":"00NU046"},{"geonameid":7297156,"name":"Llansadwrn","admin3":"00NU052"},{"geonameid":7297157,"name":"Myddfai","admin3":"00NU061"},{"geonameid":7297158,"name":"Pendine","admin3":"00NU065"},{"geonameid":7297159,"name":"Trimsaran","admin3":"00NU072"},{"geonameid":7297744,"name":"Llangathen","admin3":"00NU041"},{"geonameid":7297867,"name":"Llangain","admin3":"00NU040"},{"geonameid":7299053,"name":"Trelech","admin3":"00NU071"},{"geonameid":7301138,"name":"Cwmamman","admin3":"00NU012"},{"geonameid":7301139,"name":"Cynwyl Gaeo","admin3":"00NU014"},{"geonameid":7301140,"name":"Eglwyscummin","admin3":"00NU015"},{"geonameid":7301141,"name":"Llanddarog","admin3":"00NU023"},{"geonameid":7301142,"name":"Llanddeusant","admin3":"00NU024"},{"geonameid":7301143,"name":"Llanddowror","admin3":"00NU025"},{"geonameid":7301144,"name":"Llanegwad","admin3":"00NU031"},{"geonameid":7301145,"name":"Llanelli Rural","admin3":"00NU033"},{"geonameid":7301146,"name":"Llanfihangel Aberbythych","admin3":"00NU035"},{"geonameid":7301147,"name":"Llanfihangel-ar-Arth","admin3":"00NU036"},{"geonameid":7301148,"name":"Llangunnor","admin3":"00NU044"},{"geonameid":7301149,"name":"Llangynog","admin3":"00NU047"},{"geonameid":7301150,"name":"Llanllawddog","admin3":"00NU048"},{"geonameid":7301151,"name":"Llansawel","admin3":"00NU053"},{"geonameid":7301152,"name":"Llansteffan","admin3":"00NU054"},{"geonameid":7301153,"name":"Manordeilo and Salem","admin3":"00NU059"},{"geonameid":7301154,"name":"Newchurch and Merthyr","admin3":"00NU063"},{"geonameid":7301155,"name":"St. Ishmael","admin3":"00NU069"},{"geonameid":7301156,"name":"Talley","admin3":"00NU070"}],"alternateNames":[{"alternatenameId":1626654,"geonameid":2634895,"isoLanguage":"en","alternateName":"Wales","isPreferredName":true,"isShortName":true,"isColloquial":false,"isHistoric":false},{"alternatenameId":2254298,"geonameid":2653753,"isoLanguage":"en","alternateName":"Carmarthenshire","isPreferredName":true,"isShortName":true,"isColloquial":false,"isHistoric":false}]},"__N_SSG":true}