{"pageProps":{"locale":"en","admin2":{"geonameid":3333249,"name":"Torfaen County Borough","country":"GB","admin1":"WLS","admin2":"Z2","admin3":"","latitude":"51.7014600","longitude":"-3.0513600"},"admin1":{"geonameid":2634895,"name":"Wales","admin1":"WLS","localeAltName":"Wales"},"locations":[{"geonameid":2657787,"name":"Abersychan","admin3":"00PM001"},{"geonameid":2655413,"name":"Blaenavon","admin3":"00PM002"},{"geonameid":2651655,"name":"Cwmavon","admin3":"00PM002"},{"geonameid":2651654,"name":"Cwmbran","admin3":"00PM004"},{"geonameid":2647893,"name":"Griffithstown","admin3":"00PM010"},{"geonameid":2643923,"name":"Llantarnam","admin3":"00PM007"},{"geonameid":3345333,"name":"New Inn","admin3":"00PM009"},{"geonameid":2640127,"name":"Ponthir","admin3":"00PM012"},{"geonameid":2640123,"name":"Pontnewydd","admin3":"00PM013"},{"geonameid":2640121,"name":"Pontnewynydd","admin3":"00PM011"},{"geonameid":2640106,"name":"Pontypool","admin3":"00PM014"},{"geonameid":2635012,"name":"Varteg Hill","admin3":"00PM001"}],"admin3":[{"geonameid":7291967,"name":"Blaenavon","admin3":"00PM002"},{"geonameid":7291969,"name":"Croesyceiliog","admin3":"00PM003"},{"geonameid":7291971,"name":"Cwmbran Central","admin3":"00PM004"},{"geonameid":7291972,"name":"Llantarnam","admin3":"00PM007"},{"geonameid":7291973,"name":"Ponthir","admin3":"00PM012"},{"geonameid":7291974,"name":"Trevethin","admin3":"00PM015"},{"geonameid":7292649,"name":"Abersychan","admin3":"00PM001"},{"geonameid":7292651,"name":"Panteg","admin3":"00PM010"},{"geonameid":7292652,"name":"Pen Tranch","admin3":"00PM011"},{"geonameid":7292653,"name":"Pontymoile","admin3":"00PM014"},{"geonameid":7293956,"name":"Fairwater","admin3":"00PM005"},{"geonameid":7296058,"name":"New Inn","admin3":"00PM009"},{"geonameid":7296059,"name":"Pontnewydd","admin3":"00PM013"},{"geonameid":7299626,"name":"Henllys","admin3":"00PM006"},{"geonameid":7301605,"name":"Llanyrafon","admin3":"00PM008"},{"geonameid":7301606,"name":"Upper Cwmbran","admin3":"00PM016"}],"alternateNames":[{"alternatenameId":1626654,"geonameid":2634895,"isoLanguage":"en","alternateName":"Wales","isPreferredName":true,"isShortName":true,"isColloquial":false,"isHistoric":false}]},"__N_SSG":true}