{"pageProps":{"locale":"en","admin2":{"geonameid":4674023,"name":"Bexar County","country":"US","admin1":"TX","admin2":"029","admin3":"","latitude":"29.4489600","longitude":"-98.5200200","localeAltName":null},"admin1":{"geonameid":4736286,"name":"Texas","admin1":"TX","localeAltName":"Texas"},"locations":[{"geonameid":4670029,"name":"Alamo Heights","admin3":"","localeAltName":null},{"geonameid":4672081,"name":"Balcones Heights","admin3":"","localeAltName":null},{"geonameid":4679437,"name":"Castle Hills","admin3":"","localeAltName":null},{"geonameid":4680782,"name":"China Grove","admin3":"","localeAltName":null},{"geonameid":4683021,"name":"Converse","admin3":"","localeAltName":null},{"geonameid":4684330,"name":"Cross Mountain","admin3":"","localeAltName":null},{"geonameid":4689077,"name":"Elmendorf","admin3":"","localeAltName":null},{"geonameid":4689803,"name":"Fair Oaks Ranch","admin3":"","localeAltName":null},{"geonameid":4695179,"name":"Grey Forest","admin3":"","localeAltName":null},{"geonameid":4697038,"name":"Helotes","admin3":"","localeAltName":null},{"geonameid":4697744,"name":"Hill Country Village","admin3":"","localeAltName":null},{"geonameid":4698384,"name":"Hollywood Park","admin3":"","localeAltName":null},{"geonameid":4703415,"name":"Kirby","admin3":"","localeAltName":null},{"geonameid":7261570,"name":"Lackland Air Force Base","admin3":"","localeAltName":null},{"geonameid":4705923,"name":"Leon Valley","admin3":"","localeAltName":null},{"geonameid":4707055,"name":"Live Oak","admin3":"","localeAltName":null},{"geonameid":4708569,"name":"Macdona","admin3":"","localeAltName":null},{"geonameid":4716676,"name":"Olmos Park","admin3":"","localeAltName":null},{"geonameid":4724892,"name":"Saint Hedwig","admin3":"","localeAltName":null},{"geonameid":4726206,"name":"San Antonio","admin3":"","localeAltName":null},{"geonameid":4727290,"name":"Scenic Oaks","admin3":"","localeAltName":null},{"geonameid":4727785,"name":"Selma","admin3":"","localeAltName":null},{"geonameid":4728147,"name":"Shavano Park","admin3":"","localeAltName":null},{"geonameid":4732801,"name":"Somerset","admin3":"","localeAltName":null},{"geonameid":4736043,"name":"Terrell Hills","admin3":"","localeAltName":null},{"geonameid":4736922,"name":"Timberwood Park","admin3":"","localeAltName":null},{"geonameid":4738574,"name":"Universal City","admin3":"","localeAltName":null},{"geonameid":4739414,"name":"Von Ormy","admin3":"","localeAltName":null},{"geonameid":4742537,"name":"Windcrest","admin3":"","localeAltName":null}],"admin3":[{"geonameid":7172817,"name":"City of Castle Hills","admin3":"7172817"},{"geonameid":7173379,"name":"City of Elmendorf","admin3":"7173379"},{"geonameid":7173551,"name":"City of Grey Forest","admin3":"7173551"},{"geonameid":7173601,"name":"City of Helotes","admin3":"7173601"},{"geonameid":7173621,"name":"City of Hill Country Village","admin3":"7173621"},{"geonameid":7173662,"name":"City of Leon Valley","admin3":"7173662"},{"geonameid":7174414,"name":"City of Selma","admin3":"7174414"},{"geonameid":7174427,"name":"City of Shavano Park","admin3":"7174427"},{"geonameid":7174465,"name":"City of Somerset","admin3":"7174465"},{"geonameid":7175009,"name":"Town of Saint Hedwig","admin3":"7175009"},{"geonameid":7175181,"name":"Town of Hollywood Park","admin3":"7175181"},{"geonameid":7175602,"name":"Town of China Grove","admin3":"7175602"},{"geonameid":7226947,"name":"City of Von Ormy","admin3":"7226947"},{"geonameid":11788323,"name":"City of Kirby","admin3":"11788323"},{"geonameid":11788371,"name":"City of Live Oak","admin3":"11788371"},{"geonameid":11788402,"name":"City of Converse","admin3":"11788402"},{"geonameid":11788451,"name":"City of Alamo Heights","admin3":"11788451"},{"geonameid":11788452,"name":"City of Olmos Park","admin3":"11788452"},{"geonameid":11788461,"name":"City of Balcones Heights","admin3":"11788461"},{"geonameid":11788511,"name":"City of Universal City","admin3":"11788511"},{"geonameid":11788595,"name":"City of Windcrest","admin3":"11788595"},{"geonameid":11788734,"name":"City of Sandy Oaks","admin3":"11788734"},{"geonameid":11788800,"name":"City of Terrell Hills","admin3":"11788800"},{"geonameid":11788957,"name":"City of San Antonio","admin3":"11788957"}],"alternateNames":[{"alternatenameId":1614423,"geonameid":4736286,"isoLanguage":"en","alternateName":"Texas","isPreferredName":true,"isShortName":true,"isColloquial":false,"isHistoric":false}]},"__N_SSG":true}