{"pageProps":{"locale":"ro","admin2":{"geonameid":669363,"name":"Comuna Răchitoasa","country":"RO","admin1":"04","admin2":"24837","admin3":"","latitude":"46.4477200","longitude":"27.3687500"},"admin1":{"geonameid":685947,"name":"Bacău","admin1":"04"},"locations":[{"geonameid":685360,"name":"Barcana"},{"geonameid":683532,"name":"Bucșa"},{"geonameid":683490,"name":"Buda"},{"geonameid":683233,"name":"Burdusaci"},{"geonameid":679775,"name":"Dănăila"},{"geonameid":678746,"name":"Dumbrava"},{"geonameid":678439,"name":"Farcașa"},{"geonameid":677817,"name":"Fundătura Răchitoasa"},{"geonameid":676485,"name":"Gura Sohodol"},{"geonameid":676397,"name":"Hăghiac"},{"geonameid":674449,"name":"Lunca"},{"geonameid":674452,"name":"Lunca"},{"geonameid":674191,"name":"Magazia"},{"geonameid":672719,"name":"Movilița"},{"geonameid":671779,"name":"Oprișești"},{"geonameid":669768,"name":"Poteca"},{"geonameid":669440,"name":"Putini"},{"geonameid":669364,"name":"Răchitoasa"},{"geonameid":665896,"name":"Stupeni"},{"geonameid":664876,"name":"Tochilea"}],"admin3":[],"alternateNames":[]},"__N_SSG":true}