{"pageProps":{"locale":"en","admin2":{"geonameid":5392967,"name":"Santa Barbara County","country":"US","admin1":"CA","admin2":"083","admin3":"","latitude":"34.5383400","longitude":"-120.0307800","localeAltName":null},"admin1":{"geonameid":5332921,"name":"California","admin1":"CA","localeAltName":"California"},"locations":[{"geonameid":5331568,"name":"Buellton","admin3":"","localeAltName":null},{"geonameid":5334423,"name":"Carpinteria","admin3":"","localeAltName":null},{"geonameid":5352963,"name":"Goleta","admin3":"","localeAltName":null},{"geonameid":5354591,"name":"Guadalupe","admin3":"","localeAltName":null},{"geonameid":5359864,"name":"Isla Vista","admin3":"","localeAltName":null},{"geonameid":5367788,"name":"Lompoc","admin3":"","localeAltName":null},{"geonameid":5368321,"name":"Los Alamos","admin3":"","localeAltName":null},{"geonameid":5368559,"name":"Los Olivos","admin3":"","localeAltName":null},{"geonameid":5373614,"name":"Mission Canyon","admin3":"","localeAltName":null},{"geonameid":5373650,"name":"Mission Hills","admin3":"","localeAltName":null},{"geonameid":5374340,"name":"Montecito","admin3":"","localeAltName":null},{"geonameid":5376728,"name":"New Cuyama","admin3":"","localeAltName":null},{"geonameid":5379609,"name":"Orcutt","admin3":"","localeAltName":null},{"geonameid":5392952,"name":"Santa Barbara","admin3":"","localeAltName":null},{"geonameid":5393180,"name":"Santa Maria","admin3":"","localeAltName":null},{"geonameid":5393388,"name":"Santa Ynez","admin3":"","localeAltName":null},{"geonameid":5397059,"name":"Solvang","admin3":"","localeAltName":null},{"geonameid":5399786,"name":"Summerland","admin3":"","localeAltName":null},{"geonameid":5403000,"name":"Toro Canyon","admin3":"","localeAltName":null},{"geonameid":7262449,"name":"Vandenberg Air Force Base","admin3":"","localeAltName":null},{"geonameid":5405737,"name":"Vandenberg Village","admin3":"","localeAltName":null}],"admin3":[{"geonameid":11788548,"name":"City of Carpinteria","admin3":"11788548"}],"alternateNames":[{"alternatenameId":1632217,"geonameid":5332921,"isoLanguage":"en","alternateName":"California","isPreferredName":true,"isShortName":true,"isColloquial":false,"isHistoric":false}]},"__N_SSG":true}