{"pageProps":{"locale":"ro","admin2":{"geonameid":675580,"name":"Comuna Întregalde","country":"RO","admin1":"01","admin2":"4981","admin3":"","latitude":"46.2490800","longitude":"23.3921300"},"admin1":{"geonameid":686581,"name":"Alba","admin1":"01"},"locations":[{"geonameid":680175,"name":"Cristeşti","admin3":""},{"geonameid":679638,"name":"Dealu Geoagiului","admin3":""},{"geonameid":678046,"name":"Floreşti","admin3":""},{"geonameid":677341,"name":"Ghioncani","admin3":""},{"geonameid":675657,"name":"Iliești","admin3":""},{"geonameid":675581,"name":"Intregalde","admin3":""},{"geonameid":675419,"name":"Ivăniș","admin3":""},{"geonameid":673777,"name":"Mărinești","admin3":""},{"geonameid":672974,"name":"Modolești","admin3":""},{"geonameid":672450,"name":"Necrilești","admin3":""},{"geonameid":670182,"name":"Poeşti","admin3":""},{"geonameid":669890,"name":"Popești","admin3":""},{"geonameid":667292,"name":"Sfârcea","admin3":""},{"geonameid":665358,"name":"Tecșești","admin3":""}],"admin3":[],"alternateNames":[]},"__N_SSG":true}