{"pageProps":{"locale":"ro","admin2":{"geonameid":662965,"name":"Comuna Vidra","country":"RO","admin1":"01","admin2":"8425","admin3":"","latitude":"46.3706700","longitude":"22.9272600"},"admin1":{"geonameid":686581,"name":"Alba","admin1":"01"},"locations":[{"geonameid":685935,"name":"Băceşti","admin3":""},{"geonameid":685844,"name":"Băi","admin3":""},{"geonameid":685514,"name":"Bălteşti","admin3":""},{"geonameid":685114,"name":"Bendeşti","admin3":""},{"geonameid":684544,"name":"Bobărești","admin3":""},{"geonameid":684396,"name":"Bogdănești","admin3":""},{"geonameid":684209,"name":"Bordeşti-Găeşti","admin3":""},{"geonameid":684207,"name":"Bordeștii Poieni","admin3":""},{"geonameid":683441,"name":"Budeşti","admin3":""},{"geonameid":683095,"name":"Căbăuşeşti","admin3":""},{"geonameid":680691,"name":"Coroieşti","admin3":""},{"geonameid":679971,"name":"Culdești","admin3":""},{"geonameid":679745,"name":"Dănileşti","admin3":""},{"geonameid":679636,"name":"Dealu Goiești","admin3":""},{"geonameid":679149,"name":"Dolea","admin3":""},{"geonameid":679054,"name":"Dos","admin3":""},{"geonameid":679043,"name":"Dosu Luncii","admin3":""},{"geonameid":679037,"name":"Dosu Urdeşului","admin3":""},{"geonameid":679036,"name":"Dosu Văsești","admin3":""},{"geonameid":678943,"name":"Drăgoeşti","admin3":""},{"geonameid":678935,"name":"Drăgoiești-Luncă","admin3":""},{"geonameid":678293,"name":"Ficărești","admin3":""},{"geonameid":677074,"name":"Gligorești","admin3":""},{"geonameid":676994,"name":"Goiești","admin3":""},{"geonameid":676382,"name":"Haiducești","admin3":""},{"geonameid":679700,"name":"Hărăști","admin3":""},{"geonameid":676231,"name":"Hereşti","admin3":""},{"geonameid":676135,"name":"Hoancă","admin3":""},{"geonameid":676018,"name":"Horgeşti","admin3":""},{"geonameid":675286,"name":"Jeflești","admin3":""},{"geonameid":674476,"name":"Lunca","admin3":""},{"geonameid":674435,"name":"Lunca Bisericii","admin3":""},{"geonameid":674420,"name":"Lunca de Jos","admin3":""},{"geonameid":674414,"name":"Lunca de Sus","admin3":""},{"geonameid":674404,"name":"Lunca Goiești","admin3":""},{"geonameid":674403,"name":"Lunca Guesţilor","admin3":""},{"geonameid":674475,"name":"Lunca Vesești","admin3":""},{"geonameid":672973,"name":"Modolești","admin3":""},{"geonameid":672324,"name":"Nemeși","admin3":""},{"geonameid":671904,"name":"Oidești","admin3":""},{"geonameid":670614,"name":"Pitărcești","admin3":""},{"geonameid":670555,"name":"Plăşeşti","admin3":""},{"geonameid":670514,"name":"Pleșcuța","admin3":""},{"geonameid":670216,"name":"Poeni","admin3":""},{"geonameid":670003,"name":"Poieni","admin3":""},{"geonameid":669931,"name":"Ponorel","admin3":""},{"geonameid":669497,"name":"Puiulețești","admin3":""},{"geonameid":668478,"name":"Runc","admin3":""},{"geonameid":668398,"name":"Ruşeşti","admin3":""},{"geonameid":667454,"name":"Segaj","admin3":""},{"geonameid":664181,"name":"Urdeș","admin3":""},{"geonameid":662899,"name":"Vâlcăneasa","admin3":""},{"geonameid":662860,"name":"Vâlceşti","admin3":""},{"geonameid":663572,"name":"Valea Morii","admin3":""},{"geonameid":663148,"name":"Vărtăneşti","admin3":""},{"geonameid":662744,"name":"Vârtăneşti","admin3":""},{"geonameid":663132,"name":"Văsești","admin3":""},{"geonameid":662968,"name":"Vidra","admin3":""},{"geonameid":662661,"name":"Vitcari","admin3":""},{"geonameid":662418,"name":"Vulcăneasa","admin3":""}],"admin3":[],"alternateNames":[]},"__N_SSG":true}