{"pageProps":{"locale":"ro","admin2":{"geonameid":672472,"name":"Comuna Poiana Vadului","country":"RO","admin1":"01","admin2":"6271","admin3":"","latitude":"46.4045700","longitude":"22.8708000"},"admin1":{"geonameid":686581,"name":"Alba","admin1":"01"},"locations":[{"geonameid":681801,"name":"Cândreşti","admin3":""},{"geonameid":680573,"name":"Costești","admin3":""},{"geonameid":678777,"name":"Duduieni","admin3":""},{"geonameid":678473,"name":"Făgetu de Jos","admin3":""},{"geonameid":678472,"name":"Făgetu de Sus","admin3":""},{"geonameid":676339,"name":"Hănășești","admin3":""},{"geonameid":674302,"name":"Lupăiești","admin3":""},{"geonameid":672865,"name":"Morcănești","admin3":""},{"geonameid":672468,"name":"Neagra de Jos","admin3":""},{"geonameid":671283,"name":"Păștești","admin3":""},{"geonameid":671032,"name":"Petelei","admin3":""},{"geonameid":670015,"name":"Poiana Vadului","admin3":""},{"geonameid":666298,"name":"Stănești","admin3":""}],"admin3":[],"alternateNames":[]},"__N_SSG":true}