{"pageProps":{"locale":"en","admin2":{"geonameid":4339583,"name":"Saint Charles Parish","country":"US","admin1":"LA","admin2":"089","admin3":"","latitude":"29.9055300","longitude":"-90.3582200"},"admin1":{"geonameid":4331987,"name":"Louisiana","admin1":"LA","localeAltName":"Louisiana"},"locations":[{"geonameid":4314712,"name":"Ama","admin3":""},{"geonameid":4315845,"name":"Bayou Gauche","admin3":""},{"geonameid":4317718,"name":"Boutte","admin3":""},{"geonameid":4322016,"name":"Des Allemands","admin3":""},{"geonameid":4322034,"name":"Destrehan","admin3":""},{"geonameid":4326799,"name":"Hahnville","admin3":""},{"geonameid":4332109,"name":"Luling","admin3":""},{"geonameid":4333725,"name":"Montz","admin3":""},{"geonameid":4335123,"name":"New Sarpy","admin3":""},{"geonameid":4335326,"name":"Norco","admin3":""},{"geonameid":4336492,"name":"Paradis","admin3":""},{"geonameid":4340551,"name":"Saint Rose","admin3":""}],"admin3":[],"alternateNames":[{"alternatenameId":2089571,"geonameid":4331987,"isoLanguage":"en","alternateName":"Louisiana","isPreferredName":true,"isShortName":true,"isColloquial":false,"isHistoric":false}]},"__N_SSG":true}