{"pageProps":{"locale":"it","admin2":{"geonameid":2524818,"name":"Enna","country":"IT","admin1":"15","admin2":"EN","admin3":"","latitude":"37.5833300","longitude":"14.4333300","localeAltName":"Enna"},"admin1":{"geonameid":2523119,"name":"Sicilia","admin1":"15","localeAltName":null},"locations":[{"geonameid":2525767,"name":"Agira","admin3":"086001","localeAltName":null},{"geonameid":2525761,"name":"Aidone","admin3":"086002","localeAltName":null},{"geonameid":2525651,"name":"Assoro","admin3":"086003","localeAltName":null},{"geonameid":2525593,"name":"Barrafranca","admin3":"086004","localeAltName":null},{"geonameid":2525461,"name":"Calascibetta","admin3":"086005","localeAltName":null},{"geonameid":2525057,"name":"Catenanuova","admin3":"086006","localeAltName":null},{"geonameid":2525032,"name":"Centuripe","admin3":"086007","localeAltName":null},{"geonameid":2525031,"name":"Cerami","admin3":"086008","localeAltName":null},{"geonameid":8950375,"name":"Crociate","admin3":"086012","localeAltName":null},{"geonameid":2524819,"name":"Enna","admin3":"086009","localeAltName":null},{"geonameid":2524686,"name":"Gagliano Castelferrato","admin3":"086010","localeAltName":null},{"geonameid":2524404,"name":"Leonforte","admin3":"086011","localeAltName":null},{"geonameid":2524009,"name":"Nicosia","admin3":"086012","localeAltName":null},{"geonameid":2524004,"name":"Nissoria","admin3":"086013","localeAltName":null},{"geonameid":6951042,"name":"Pergusa","admin3":"086009","localeAltName":null},{"geonameid":2523796,"name":"Piazza Armerina","admin3":"086014","localeAltName":null},{"geonameid":2523784,"name":"Pietraperzia","admin3":"086015","localeAltName":null},{"geonameid":2523632,"name":"Regalbuto","admin3":"086016","localeAltName":null},{"geonameid":8950154,"name":"San Giorgio","admin3":"086003","localeAltName":null},{"geonameid":2523028,"name":"Sperlinga","admin3":"086017","localeAltName":null},{"geonameid":2522849,"name":"Troina / Draginai","admin3":"086018","localeAltName":null},{"geonameid":2522805,"name":"Valguarnera Caropepe","admin3":"086019","localeAltName":null},{"geonameid":2522763,"name":"Villadoro","admin3":"086012","localeAltName":null},{"geonameid":2522735,"name":"Villapriolo","admin3":"086020","localeAltName":null},{"geonameid":2522732,"name":"Villarosa","admin3":"086020","localeAltName":null}],"admin3":[{"geonameid":6537793,"name":"Aidone","admin3":"086002","localeAltName":null},{"geonameid":6537794,"name":"Calascibetta","admin3":"086005","localeAltName":null},{"geonameid":6537795,"name":"Centuripe","admin3":"086007","localeAltName":null},{"geonameid":6537796,"name":"Nissoria","admin3":"086013","localeAltName":null},{"geonameid":6537797,"name":"Piazza Armerina","admin3":"086014","localeAltName":null},{"geonameid":6537798,"name":"Regalbuto","admin3":"086016","localeAltName":null},{"geonameid":6537799,"name":"Valguarnera Caropepe","admin3":"086019","localeAltName":null},{"geonameid":6539185,"name":"Agira","admin3":"086001","localeAltName":null},{"geonameid":6539186,"name":"Catenanuova","admin3":"086006","localeAltName":null},{"geonameid":6539187,"name":"Cerami","admin3":"086008","localeAltName":null},{"geonameid":6539188,"name":"Gagliano Castelferrato","admin3":"086010","localeAltName":null},{"geonameid":6539189,"name":"Nicosia","admin3":"086012","localeAltName":null},{"geonameid":6539190,"name":"Pietraperzia","admin3":"086015","localeAltName":null},{"geonameid":6539191,"name":"Sperlinga","admin3":"086017","localeAltName":null},{"geonameid":6539192,"name":"Troina","admin3":"086018","localeAltName":null},{"geonameid":6539193,"name":"Villarosa","admin3":"086020","localeAltName":null},{"geonameid":6540848,"name":"Barrafranca","admin3":"086004","localeAltName":null},{"geonameid":6541346,"name":"Assoro","admin3":"086003","localeAltName":null},{"geonameid":6541871,"name":"Enna","admin3":"086009","localeAltName":null},{"geonameid":6541965,"name":"Leonforte","admin3":"086011","localeAltName":null}],"alternateNames":[{"alternatenameId":1980456,"geonameid":2523119,"isoLanguage":"en","alternateName":"Sicily","isPreferredName":true,"isShortName":true,"isColloquial":false,"isHistoric":false},{"alternatenameId":1183476,"geonameid":2524818,"isoLanguage":"it","alternateName":"Enna","isPreferredName":true,"isShortName":true,"isColloquial":false,"isHistoric":false}]},"__N_SSG":true}