{"pageProps":{"locale":"it","admin2":{"geonameid":2523918,"name":"Palermo","country":"IT","admin1":"15","admin2":"PA","admin3":"","latitude":"37.8166700","longitude":"13.5833300","localeAltName":"Palermo"},"admin1":{"geonameid":2523119,"name":"Sicilia","admin1":"15","localeAltName":null},"locations":[{"geonameid":8949166,"name":"Agliandroni-Paternella","admin3":"082071","localeAltName":null},{"geonameid":2525746,"name":"Alia","admin3":"082001","localeAltName":null},{"geonameid":2525741,"name":"Alimena","admin3":"082002","localeAltName":null},{"geonameid":2525740,"name":"Aliminusa","admin3":"082003","localeAltName":null},{"geonameid":2525734,"name":"Altavilla Milicia","admin3":"082004","localeAltName":null},{"geonameid":2525729,"name":"Altofonte","admin3":"082005","localeAltName":null},{"geonameid":2525628,"name":"Bagheria","admin3":"082006","localeAltName":null},{"geonameid":2525609,"name":"Balestrate","admin3":"082007","localeAltName":null},{"geonameid":2525583,"name":"Baucina","admin3":"082008","localeAltName":null},{"geonameid":8949900,"name":"Bellolampo","admin3":"082053","localeAltName":null},{"geonameid":2525573,"name":"Belmonte Mezzagno","admin3":"082009","localeAltName":null},{"geonameid":2525552,"name":"Bisacquino","admin3":"082010","localeAltName":null},{"geonameid":6535663,"name":"Blufi","admin3":"082082","localeAltName":null},{"geonameid":2525537,"name":"Bolognetta","admin3":"082011","localeAltName":null},{"geonameid":2525534,"name":"Bompietro","admin3":"082012","localeAltName":null},{"geonameid":2525526,"name":"Borgetto","admin3":"082013","localeAltName":null},{"geonameid":8949654,"name":"C.da Ponticello","admin3":"082070","localeAltName":null},{"geonameid":2525476,"name":"Caccamo","admin3":"082014","localeAltName":null},{"geonameid":2525445,"name":"Caltavuturo","admin3":"082015","localeAltName":null},{"geonameid":2525424,"name":"Campofelice di Fitalia","admin3":"082016","localeAltName":null},{"geonameid":2525423,"name":"Campofelice di Roccella","admin3":"082017","localeAltName":null},{"geonameid":2525422,"name":"Campofiorito","admin3":"082018","localeAltName":null},{"geonameid":2525415,"name":"Camporeale","admin3":"082019","localeAltName":null},{"geonameid":8949240,"name":"Cannizzaro-Favara","admin3":"082049","localeAltName":null},{"geonameid":2525392,"name":"Capaci","admin3":"082020","localeAltName":null},{"geonameid":2525350,"name":"Carini","admin3":"082021","localeAltName":null},{"geonameid":2525103,"name":"Castelbuono","admin3":"082022","localeAltName":null},{"geonameid":2525102,"name":"Casteldaccia","admin3":"082023","localeAltName":null},{"geonameid":2525093,"name":"Castellana Sicula","admin3":"082024","localeAltName":null},{"geonameid":2525074,"name":"Castronuovo di Sicilia","admin3":"082025","localeAltName":null},{"geonameid":2525043,"name":"Cefalà Diana","admin3":"082026","localeAltName":null},{"geonameid":2525041,"name":"Cefalù","admin3":"082027","localeAltName":null},{"geonameid":2525026,"name":"Cerda","admin3":"082028","localeAltName":null},{"geonameid":2525003,"name":"Chiusa Sclafani","admin3":"082029","localeAltName":null},{"geonameid":8948762,"name":"Ciaculli","admin3":"082053","localeAltName":null},{"geonameid":2524989,"name":"Ciminna","admin3":"082030","localeAltName":null},{"geonameid":2524987,"name":"Cinisi","admin3":"082031","localeAltName":null},{"geonameid":2524964,"name":"Collesano","admin3":"082032","localeAltName":null},{"geonameid":2524940,"name":"Contessa Entellina","admin3":"082033","localeAltName":null},{"geonameid":2524928,"name":"Corleone","admin3":"082034","localeAltName":null},{"geonameid":2524790,"name":"Fasanò-Ss.Trinità-Pianello","admin3":"082055","localeAltName":null},{"geonameid":8949741,"name":"Ficarazzelli-Bagni Italia","admin3":"082079","localeAltName":null},{"geonameid":2524765,"name":"Ficarazzi","admin3":"082035","localeAltName":null},{"geonameid":2524750,"name":"Finale","admin3":"082059","localeAltName":null},{"geonameid":2524661,"name":"Gangi","admin3":"082036","localeAltName":null},{"geonameid":2524641,"name":"Geraci Siculo","admin3":"082037","localeAltName":null},{"geonameid":8949252,"name":"Giacalone","admin3":"082049","localeAltName":null},{"geonameid":2524624,"name":"Giardinello","admin3":"082038","localeAltName":null},{"geonameid":2524598,"name":"Giuliana","admin3":"082039","localeAltName":null},{"geonameid":2524592,"name":"Godrano","admin3":"082040","localeAltName":null},{"geonameid":2524572,"name":"Gratteri","admin3":"082041","localeAltName":null},{"geonameid":2524565,"name":"Grisì","admin3":"082049","localeAltName":null},{"geonameid":2524496,"name":"Isnello","admin3":"082042","localeAltName":null},{"geonameid":2524494,"name":"Isola delle Femmine","admin3":"082043","localeAltName":null},{"geonameid":2524438,"name":"Lascari","admin3":"082044","localeAltName":null},{"geonameid":2524402,"name":"Lercara Friddi","admin3":"082045","localeAltName":null},{"geonameid":2524255,"name":"Marineo","admin3":"082046","localeAltName":null},{"geonameid":2524163,"name":"Mezzojuso","admin3":"082047","localeAltName":null},{"geonameid":2524126,"name":"Misilmeri","admin3":"082048","localeAltName":null},{"geonameid":2524085,"name":"Monreale","admin3":"082049","localeAltName":null},{"geonameid":2524070,"name":"Montelepre","admin3":"082050","localeAltName":null},{"geonameid":2524069,"name":"Montemaggiore Belsito","admin3":"082051","localeAltName":null},{"geonameid":2523925,"name":"Palazzo Adriano","admin3":"082052","localeAltName":null},{"geonameid":2523920,"name":"Palermo","admin3":"082053","localeAltName":null},{"geonameid":2523871,"name":"Partinico","admin3":"082054","localeAltName":null},{"geonameid":2523822,"name":"Petralia Soprana","admin3":"082055","localeAltName":null},{"geonameid":2523821,"name":"Petralia Sottana","admin3":"082056","localeAltName":null},{"geonameid":8950355,"name":"Piana Calzata","admin3":"082017","localeAltName":null},{"geonameid":2523808,"name":"Piana degli Albanesi","admin3":"082057","localeAltName":null},{"geonameid":8948928,"name":"Piano dei Geli","admin3":"082049","localeAltName":null},{"geonameid":8948970,"name":"Piano Maglio-Blandino","admin3":"082005","localeAltName":null},{"geonameid":8949772,"name":"Piano Pantaleo","admin3":"082048","localeAltName":null},{"geonameid":2523774,"name":"Pioppo","admin3":"082049","localeAltName":null},{"geonameid":2523736,"name":"Polizzi Generosa","admin3":"082058","localeAltName":null},{"geonameid":2523734,"name":"Pollina","admin3":"082059","localeAltName":null},{"geonameid":2523715,"name":"Portella di Mare","admin3":"082048","localeAltName":null},{"geonameid":2523678,"name":"Prizzi","admin3":"082060","localeAltName":null},{"geonameid":2523600,"name":"Roccamena","admin3":"082061","localeAltName":null},{"geonameid":2523599,"name":"Roccapalumba","admin3":"082062","localeAltName":null},{"geonameid":2523511,"name":"San Cipirello","admin3":"082063","localeAltName":null},{"geonameid":2523451,"name":"San Giuseppe Jato","admin3":"082064","localeAltName":null},{"geonameid":8949577,"name":"San Martino delle Scale","admin3":"082049","localeAltName":null},{"geonameid":2523419,"name":"San Mauro Castelverde","admin3":"082065","localeAltName":null},{"geonameid":2523364,"name":"Santa Cristina Gela","admin3":"082066","localeAltName":null},{"geonameid":2523352,"name":"Santa Flavia","admin3":"082067","localeAltName":null},{"geonameid":2523193,"name":"Sciara","admin3":"082068","localeAltName":null},{"geonameid":2523186,"name":"Scillato","admin3":"082081","localeAltName":null},{"geonameid":2523130,"name":"Sferracavallo","admin3":"082053","localeAltName":null},{"geonameid":2522960,"name":"Termini Imerese","admin3":"082070","localeAltName":null},{"geonameid":2522952,"name":"Terrasini","admin3":"082071","localeAltName":null},{"geonameid":8949137,"name":"Torre Colonna-Sperone","admin3":"082004","localeAltName":null},{"geonameid":2522893,"name":"Torretta","admin3":"082072","localeAltName":null},{"geonameid":2522883,"name":"Trabia","admin3":"082073","localeAltName":null},{"geonameid":6535662,"name":"Trappeto","admin3":"082074","localeAltName":null},{"geonameid":2522818,"name":"Ustica","admin3":"082075","localeAltName":null},{"geonameid":2522804,"name":"Valledolmo","admin3":"082076","localeAltName":null},{"geonameid":2522787,"name":"Ventimiglia di Sicilia","admin3":"082077","localeAltName":null},{"geonameid":2522774,"name":"Vicari","admin3":"082078","localeAltName":null},{"geonameid":8949017,"name":"Villa Ciambra","admin3":"082049","localeAltName":null},{"geonameid":2522767,"name":"Villabate","admin3":"082079","localeAltName":null},{"geonameid":2522760,"name":"Villafrati","admin3":"082080","localeAltName":null}],"admin3":[{"geonameid":2524162,"name":"Mezzojuso","admin3":"082047","localeAltName":null},{"geonameid":6536403,"name":"Balestrate","admin3":"082007","localeAltName":null},{"geonameid":6536404,"name":"Castronovo di Sicilia","admin3":"082025","localeAltName":null},{"geonameid":6537733,"name":"Alia","admin3":"082001","localeAltName":null},{"geonameid":6537734,"name":"Altofonte","admin3":"082005","localeAltName":null},{"geonameid":6537735,"name":"Bagheria","admin3":"082006","localeAltName":null},{"geonameid":6537736,"name":"Borgetto","admin3":"082013","localeAltName":null},{"geonameid":6537737,"name":"Caltavuturo","admin3":"082015","localeAltName":null},{"geonameid":6537738,"name":"Campofelice di Roccella","admin3":"082017","localeAltName":null},{"geonameid":6537739,"name":"Casteldaccia","admin3":"082023","localeAltName":null},{"geonameid":6537740,"name":"Cefalù","admin3":"082027","localeAltName":null},{"geonameid":6537741,"name":"Chiusa Sclafani","admin3":"082029","localeAltName":null},{"geonameid":6537742,"name":"Ciminna","admin3":"082030","localeAltName":null},{"geonameid":6537743,"name":"Cinisi","admin3":"082031","localeAltName":null},{"geonameid":6537744,"name":"Collesano","admin3":"082032","localeAltName":null},{"geonameid":6537745,"name":"Corleone","admin3":"082034","localeAltName":null},{"geonameid":6537746,"name":"Gratteri","admin3":"082041","localeAltName":null},{"geonameid":6537747,"name":"Lercara Friddi","admin3":"082045","localeAltName":null},{"geonameid":6537748,"name":"Montemaggiore Belsito","admin3":"082051","localeAltName":null},{"geonameid":6537749,"name":"Partinico","admin3":"082054","localeAltName":null},{"geonameid":6537750,"name":"Polizzi Generosa","admin3":"082058","localeAltName":null},{"geonameid":6537751,"name":"Santa Cristina Gela","admin3":"082066","localeAltName":null},{"geonameid":6537752,"name":"Terrasini","admin3":"082071","localeAltName":null},{"geonameid":6537753,"name":"Scillato","admin3":"082081","localeAltName":null},{"geonameid":6539116,"name":"Alimena","admin3":"082002","localeAltName":null},{"geonameid":6539117,"name":"Aliminusa","admin3":"082003","localeAltName":null},{"geonameid":6539118,"name":"Baucina","admin3":"082008","localeAltName":null},{"geonameid":6539119,"name":"Bisacquino","admin3":"082010","localeAltName":null},{"geonameid":6539120,"name":"Bolognetta","admin3":"082011","localeAltName":null},{"geonameid":6539121,"name":"Caccamo","admin3":"082014","localeAltName":null},{"geonameid":6539122,"name":"Campofelice di Fitalia","admin3":"082016","localeAltName":null},{"geonameid":6539123,"name":"Campofiorito","admin3":"082018","localeAltName":null},{"geonameid":6539124,"name":"Camporeale","admin3":"082019","localeAltName":null},{"geonameid":6539125,"name":"Castellana Sicula","admin3":"082024","localeAltName":null},{"geonameid":6539126,"name":"Cerda","admin3":"082028","localeAltName":null},{"geonameid":6539127,"name":"Contessa Entellina","admin3":"082033","localeAltName":null},{"geonameid":6539128,"name":"Ficarazzi","admin3":"082035","localeAltName":null},{"geonameid":6539129,"name":"Gangi","admin3":"082036","localeAltName":null},{"geonameid":6539130,"name":"Godrano","admin3":"082040","localeAltName":null},{"geonameid":6539131,"name":"Isola delle Femmine","admin3":"082043","localeAltName":null},{"geonameid":6539132,"name":"Lascari","admin3":"082044","localeAltName":null},{"geonameid":6539133,"name":"Misilmeri","admin3":"082048","localeAltName":null},{"geonameid":6539134,"name":"Palazzo Adriano","admin3":"082052","localeAltName":null},{"geonameid":6539135,"name":"Piana degli Albanesi","admin3":"082057","localeAltName":null},{"geonameid":6539136,"name":"Prizzi","admin3":"082060","localeAltName":null},{"geonameid":6539137,"name":"Roccamena","admin3":"082061","localeAltName":null},{"geonameid":6539138,"name":"San Cipirello","admin3":"082063","localeAltName":null},{"geonameid":6539139,"name":"San Mauro Castelverde","admin3":"082065","localeAltName":null},{"geonameid":6539140,"name":"Termini Imerese","admin3":"082070","localeAltName":null},{"geonameid":6539141,"name":"Ventimiglia di Sicilia","admin3":"082077","localeAltName":null},{"geonameid":6539142,"name":"Vicari","admin3":"082078","localeAltName":null},{"geonameid":6539143,"name":"Villafrati","admin3":"082080","localeAltName":null},{"geonameid":6539864,"name":"Giardinello","admin3":"082038","localeAltName":null},{"geonameid":6539865,"name":"Giuliana","admin3":"082039","localeAltName":null},{"geonameid":6539866,"name":"Marineo","admin3":"082046","localeAltName":null},{"geonameid":6540049,"name":"Castelbuono","admin3":"082022","localeAltName":null},{"geonameid":6540050,"name":"Monreale","admin3":"082049","localeAltName":null},{"geonameid":6540823,"name":"Geraci Siculo","admin3":"082037","localeAltName":null},{"geonameid":6540824,"name":"Montelepre","admin3":"082050","localeAltName":null},{"geonameid":6540825,"name":"Pollina","admin3":"082059","localeAltName":null},{"geonameid":6540826,"name":"Villabate","admin3":"082079","localeAltName":null},{"geonameid":6541320,"name":"Altavilla Milicia","admin3":"082004","localeAltName":null},{"geonameid":6541321,"name":"Bompietro","admin3":"082012","localeAltName":null},{"geonameid":6541322,"name":"Isnello","admin3":"082042","localeAltName":null},{"geonameid":6541323,"name":"Petralia Sottana","admin3":"082056","localeAltName":null},{"geonameid":6541324,"name":"Roccapalumba","admin3":"082062","localeAltName":null},{"geonameid":6541325,"name":"Sciara","admin3":"082068","localeAltName":null},{"geonameid":6541326,"name":"Ustica","admin3":"082075","localeAltName":null},{"geonameid":6541327,"name":"Valledolmo","admin3":"082076","localeAltName":null},{"geonameid":6541760,"name":"Belmonte Mezzagno","admin3":"082009","localeAltName":null},{"geonameid":6541761,"name":"Capaci","admin3":"082020","localeAltName":null},{"geonameid":6541762,"name":"Cefalà Diana","admin3":"082026","localeAltName":null},{"geonameid":6541763,"name":"Petralia Soprana","admin3":"082055","localeAltName":null},{"geonameid":6541960,"name":"Santa Flavia","admin3":"082067","localeAltName":null},{"geonameid":6542099,"name":"Carini","admin3":"082021","localeAltName":null},{"geonameid":6542100,"name":"Torretta","admin3":"082072","localeAltName":null},{"geonameid":6542101,"name":"Trabia","admin3":"082073","localeAltName":null},{"geonameid":6542127,"name":"Palermo","admin3":"082053","localeAltName":null},{"geonameid":6542234,"name":"Sclafani Bagni","admin3":"082069"},{"geonameid":6542271,"name":"San Giuseppe Jato","admin3":"082064","localeAltName":null},{"geonameid":6543641,"name":"Trappeto","admin3":"082074","localeAltName":null},{"geonameid":6543642,"name":"Blufi","admin3":"082082","localeAltName":null}],"alternateNames":[{"alternatenameId":1980456,"geonameid":2523119,"isoLanguage":"en","alternateName":"Sicily","isPreferredName":true,"isShortName":true,"isColloquial":false,"isHistoric":false},{"alternatenameId":1183070,"geonameid":2523918,"isoLanguage":"it","alternateName":"Palermo","isPreferredName":true,"isShortName":true,"isColloquial":false,"isHistoric":false}]},"__N_SSG":true}