{"pageProps":{"locale":"en","admin2":{"geonameid":6544268,"name":"Gemeente Bernheze","country":"NL","admin1":"06","admin2":"1721","admin3":"","latitude":"51.6855600","longitude":"5.5237800"},"admin1":{"geonameid":2749990,"name":"Provincie Noord-Brabant","admin1":"06"},"locations":[{"geonameid":2759323,"name":"Beemd","admin3":""},{"geonameid":2759065,"name":"Berkt","admin3":""},{"geonameid":2759051,"name":"Bernissche Hoeven","admin3":""},{"geonameid":2759025,"name":"Beugt","admin3":""},{"geonameid":2758272,"name":"Broekhoek","admin3":""},{"geonameid":2758071,"name":"Bus","admin3":""},{"geonameid":2756794,"name":"Dinthersehoek","admin3":""},{"geonameid":2756704,"name":"Donk","admin3":""},{"geonameid":2756694,"name":"Donzel","admin3":""},{"geonameid":2756691,"name":"Doodenhoek","admin3":""},{"geonameid":2756274,"name":"Eikenhoek","admin3":""},{"geonameid":2755875,"name":"Fokkershoek","admin3":""},{"geonameid":2754734,"name":"Hazelberg","admin3":""},{"geonameid":2754635,"name":"Heesch","admin3":""},{"geonameid":2754629,"name":"Heeswijk-Dinther","admin3":""},{"geonameid":2754603,"name":"Heibloem","admin3":""},{"geonameid":2754523,"name":"Heilaren","admin3":""},{"geonameid":6544729,"name":"Heische Wal","admin3":""},{"geonameid":2754445,"name":"Heloren","admin3":""},{"geonameid":2754128,"name":"Heuvel","admin3":""},{"geonameid":2753836,"name":"Hommelse Hoeven","admin3":""},{"geonameid":2753707,"name":"Hooge Wijst","admin3":""},{"geonameid":2753118,"name":"Kameren","admin3":""},{"geonameid":2753075,"name":"Kantje","admin3":""},{"geonameid":2752012,"name":"Lage Wijst","admin3":""},{"geonameid":2751871,"name":"Lariestraat","admin3":""},{"geonameid":2751483,"name":"Loo","admin3":""},{"geonameid":2751449,"name":"Loosbroek","admin3":""},{"geonameid":2750948,"name":"Menzel","admin3":""},{"geonameid":2750572,"name":"Muggenhoek","admin3":""},{"geonameid":2750547,"name":"Munnekens-Vinkel","admin3":""},{"geonameid":2750031,"name":"Nistelrode","admin3":""},{"geonameid":2747997,"name":"Roestenburg","admin3":""},{"geonameid":2747815,"name":"Rukven","admin3":""},{"geonameid":2745252,"name":"Vorstenbosch","admin3":""},{"geonameid":2744068,"name":"Zandkant","admin3":""},{"geonameid":2743946,"name":"Zevenbergen","admin3":""},{"geonameid":2743850,"name":"Zoggel","admin3":""}],"admin3":[],"alternateNames":[{"alternatenameId":11907788,"geonameid":2749990,"isoLanguage":"de","alternateName":"Nordbrabant","isPreferredName":true,"isShortName":true,"isColloquial":false,"isHistoric":false}]},"__N_SSG":true}