{"pageProps":{"locale":"ro","admin2":{"geonameid":667255,"name":"Comuna Sicheviţa","country":"RO","admin1":"12","admin2":"53853","admin3":"","latitude":"44.7061600","longitude":"21.8291000"},"admin1":{"geonameid":682714,"name":"Caraş-Severin","admin1":"12"},"locations":[{"geonameid":683720,"name":"Brestelnic","admin3":""},{"geonameid":682859,"name":"Camenița","admin3":""},{"geonameid":681532,"name":"Cârșie","admin3":""},{"geonameid":682635,"name":"Cartieru Viilor","admin3":""},{"geonameid":680361,"name":"Cracu Almăj","admin3":""},{"geonameid":680062,"name":"Crușovița","admin3":""},{"geonameid":837448,"name":"Curmătura","admin3":""},{"geonameid":679925,"name":"Curmătura","admin3":""},{"geonameid":677943,"name":"Frăsiniș","admin3":""},{"geonameid":676896,"name":"Gornea","admin3":""},{"geonameid":676794,"name":"Gramensca","admin3":""},{"geonameid":676595,"name":"Gruşănăţ","admin3":""},{"geonameid":674690,"name":"Liborajdea","admin3":""},{"geonameid":674565,"name":"Lucacevăț","admin3":""},{"geonameid":673729,"name":"Martinovăț","admin3":""},{"geonameid":671997,"name":"Odăi","admin3":""},{"geonameid":671953,"name":"Ogașu Podului","admin3":""},{"geonameid":671453,"name":"Pălevin","admin3":""},{"geonameid":670478,"name":"Ploca","admin3":""},{"geonameid":669668,"name":"Presicheviţa","admin3":""},{"geonameid":669601,"name":"Prislop","admin3":""},{"geonameid":668132,"name":"Săliştiuţ","admin3":""},{"geonameid":667712,"name":"Scaunele Cruşoviţei","admin3":""},{"geonameid":667256,"name":"Sicheviţa","admin3":""},{"geonameid":666615,"name":"Smizi","admin3":""},{"geonameid":665979,"name":"Streneac","admin3":""},{"geonameid":663633,"name":"Valea Mare","admin3":""},{"geonameid":663589,"name":"Valea Mică","admin3":""},{"geonameid":663539,"name":"Valea Orevița","admin3":""},{"geonameid":663477,"name":"Valea Ravensca","admin3":""},{"geonameid":663399,"name":"Valea Sicheviței","admin3":""},{"geonameid":662433,"name":"Vucsor","admin3":""},{"geonameid":662307,"name":"Zănou","admin3":""},{"geonameid":662277,"name":"Zăsloane","admin3":""}],"admin3":[],"alternateNames":[]},"__N_SSG":true}