{"pageProps":{"locale":"ro","location":{"geonameid":798549,"name":"România","country":"RO","latitude":"46.0000000","longitude":"25.0000000","localeAltName":"România"},"locations":[{"geonameid":686581,"name":"Alba","admin1":"01"},{"geonameid":686253,"name":"Arad","admin1":"02"},{"geonameid":686192,"name":"Argeş","admin1":"03"},{"geonameid":685947,"name":"Bacău","admin1":"04"},{"geonameid":684878,"name":"Bihor","admin1":"05"},{"geonameid":684647,"name":"Bistriţa-Năsăud","admin1":"06"},{"geonameid":684038,"name":"Botoşani","admin1":"07"},{"geonameid":683901,"name":"Brăila","admin1":"08"},{"geonameid":683843,"name":"Braşov","admin1":"09"},{"geonameid":683504,"name":"București","admin1":"10"},{"geonameid":683121,"name":"Buzău","admin1":"11"},{"geonameid":683016,"name":"Călăraşi","admin1":"41"},{"geonameid":682714,"name":"Caraş-Severin","admin1":"12"},{"geonameid":681291,"name":"Cluj","admin1":"13"},{"geonameid":680962,"name":"Constanța","admin1":"14","localeAltName":"Constanța"},{"geonameid":680428,"name":"Covasna","admin1":"15"},{"geonameid":679385,"name":"Dâmboviţa","admin1":"16"},{"geonameid":679134,"name":"Dolj","admin1":"17"},{"geonameid":677692,"name":"Galaţi","admin1":"18"},{"geonameid":677104,"name":"Giurgiu","admin1":"42"},{"geonameid":676898,"name":"Gorj","admin1":"19"},{"geonameid":676309,"name":"Harghita","admin1":"20"},{"geonameid":675917,"name":"Hunedoara","admin1":"21"},{"geonameid":675848,"name":"Ialomiţa","admin1":"22"},{"geonameid":675809,"name":"Iaşi","admin1":"23"},{"geonameid":865518,"name":"Ilfov","admin1":"43"},{"geonameid":673887,"name":"Maramureş","admin1":"25"},{"geonameid":673612,"name":"Mehedinţi","admin1":"26"},{"geonameid":672628,"name":"Mureş","admin1":"27"},{"geonameid":672460,"name":"Neamţ","admin1":"28"},{"geonameid":671857,"name":"Olt","admin1":"29"},{"geonameid":669737,"name":"Prahova","admin1":"30"},{"geonameid":668248,"name":"Sălaj","admin1":"31"},{"geonameid":667869,"name":"Satu Mare","admin1":"32"},{"geonameid":667267,"name":"Sibiu","admin1":"33"},{"geonameid":665849,"name":"Suceava","admin1":"34"},{"geonameid":665283,"name":"Teleorman","admin1":"35"},{"geonameid":665091,"name":"Timiş","admin1":"36"},{"geonameid":664517,"name":"Tulcea","admin1":"37"},{"geonameid":662892,"name":"Vâlcea","admin1":"39"},{"geonameid":663116,"name":"Vaslui","admin1":"38"},{"geonameid":662447,"name":"Vrancea","admin1":"40","localeAltName":"Vrancea"}],"alternateNames":[{"alternatenameId":391637,"geonameid":662447,"isoLanguage":"ro","alternateName":"Vrancea","isPreferredName":true,"isShortName":true,"isColloquial":false,"isHistoric":false},{"alternatenameId":393492,"geonameid":665849,"isoLanguage":"en","alternateName":"Suceava","isPreferredName":true,"isShortName":true,"isColloquial":false,"isHistoric":false},{"alternatenameId":8326236,"geonameid":669737,"isoLanguage":"en","alternateName":"Prahova","isPreferredName":true,"isShortName":true,"isColloquial":false,"isHistoric":false},{"alternatenameId":402149,"geonameid":680962,"isoLanguage":"ro","alternateName":"Constanța","isPreferredName":true,"isShortName":true,"isColloquial":false,"isHistoric":false},{"alternatenameId":490801,"geonameid":798549,"isoLanguage":"ro","alternateName":"România","isPreferredName":true,"isShortName":true,"isColloquial":false,"isHistoric":false},{"alternatenameId":8321538,"geonameid":865518,"isoLanguage":"en","alternateName":"Ilfov","isPreferredName":true,"isShortName":true,"isColloquial":false,"isHistoric":false}]},"__N_SSG":true}