{"pageProps":{"locale":"en","admin2":{"geonameid":3333203,"name":"Stockton-on-Tees","country":"GB","admin1":"ENG","admin2":"N3","admin3":"","latitude":"54.5500000","longitude":"-1.3333300"},"admin1":{"geonameid":6269131,"name":"England","admin1":"ENG"},"locations":[{"geonameid":2655664,"name":"Billingham"},{"geonameid":2653762,"name":"Carlton"},{"geonameid":6694830,"name":"Eaglescliffe"},{"geonameid":2650035,"name":"Elton"},{"geonameid":2647865,"name":"Grindon"},{"geonameid":11551118,"name":"Hartburn"},{"geonameid":2647304,"name":"Haverton Hill"},{"geonameid":7289940,"name":"High Leven"},{"geonameid":2645254,"name":"Kirklevington"},{"geonameid":2643655,"name":"Long Newton"},{"geonameid":2641197,"name":"Norton"},{"geonameid":2640070,"name":"Port Clarence"},{"geonameid":2639534,"name":"Redmarshall"},{"geonameid":2636915,"name":"Stillington"},{"geonameid":2636876,"name":"Stockton-on-Tees"},{"geonameid":2636005,"name":"Thornaby-on-Tees"},{"geonameid":2635942,"name":"Thorpe Thewles"},{"geonameid":2633684,"name":"Wolviston"},{"geonameid":2633415,"name":"Yarm"}],"admin3":[{"geonameid":7292490,"name":"Aislaby","admin3":"00EF001"},{"geonameid":7292491,"name":"Redmarshall","admin3":"00EF014"},{"geonameid":7294162,"name":"Egglescliffe","admin3":"00EF004"},{"geonameid":7296340,"name":"Longnewton","admin3":"00EF010"},{"geonameid":7297261,"name":"Elton","admin3":"00EF005"},{"geonameid":7297262,"name":"Newsham","admin3":"00EF012"},{"geonameid":7297263,"name":"Stillington and Whitton","admin3":"00EF015"},{"geonameid":7297264,"name":"Thornaby","admin3":"00EF016"},{"geonameid":7297265,"name":"Wolviston","admin3":"00EF017"},{"geonameid":7298363,"name":"Carlton","admin3":"00EF002"},{"geonameid":7299556,"name":"Castlelevington","admin3":"00EF003"},{"geonameid":7299557,"name":"Hilton","admin3":"00EF007"},{"geonameid":7299558,"name":"Ingleby Barwick","admin3":"00EF008"},{"geonameid":7299559,"name":"Kirklevington","admin3":"00EF009"},{"geonameid":7299560,"name":"Preston-on-Tees","admin3":"00EF013"},{"geonameid":7299561,"name":"Billingham","admin3":"00EF019"},{"geonameid":7301311,"name":"Grindon","admin3":"00EF006"},{"geonameid":7301312,"name":"Maltby","admin3":"00EF011"},{"geonameid":7301313,"name":"Yarm","admin3":"00EF018"}],"alternateNames":[]},"__N_SSG":true}