{"pageProps":{"locale":"en","admin2":{"geonameid":4106009,"name":"Cleburne County","country":"US","admin1":"AR","admin2":"023","admin3":"","latitude":"35.5381100","longitude":"-92.0267400","localeAltName":null},"admin1":{"geonameid":4099753,"name":"Arkansas","admin1":"AR","localeAltName":"Arkansas"},"locations":[{"geonameid":4113167,"name":"Greers Ferry","admin3":"91458","localeAltName":null},{"geonameid":4114225,"name":"Heber Springs","admin3":"91656","localeAltName":null},{"geonameid":4127735,"name":"Quitman","admin3":"90597","localeAltName":null},{"geonameid":4133998,"name":"Tumbling Shoals","admin3":"92853","localeAltName":null}],"admin3":[{"geonameid":4104012,"name":"Township of Cadron","admin3":"90597","localeAltName":null},{"geonameid":4104086,"name":"Township of California","admin3":"90615"},{"geonameid":4105136,"name":"Township of Center Post","admin3":"90750"},{"geonameid":4105920,"name":"Township of Clayton","admin3":"90828"},{"geonameid":4111583,"name":"Township of Francis","admin3":"91329"},{"geonameid":4112295,"name":"Township of Giles","admin3":"91458","localeAltName":null},{"geonameid":4112850,"name":"Township of Grassey","admin3":"91493"},{"geonameid":4114207,"name":"Township of Healing Springs","admin3":"91653"},{"geonameid":4114232,"name":"Township of Heber","admin3":"91656","localeAltName":null},{"geonameid":4121098,"name":"Township of McJester","admin3":"92319"},{"geonameid":4122155,"name":"Township of Morgan","admin3":"92556"},{"geonameid":4123007,"name":"Township of Mountain","admin3":"92583"},{"geonameid":4125898,"name":"Township of Peter Creek","admin3":"92853","localeAltName":null},{"geonameid":4126048,"name":"Township of Pickens","admin3":"92874"},{"geonameid":4126398,"name":"Township of Pine","admin3":"92886"},{"geonameid":4126473,"name":"Township of Piney","admin3":"92901"},{"geonameid":4126940,"name":"Township of Poff","admin3":"92931"},{"geonameid":4130049,"name":"Township of Saline","admin3":"93294"},{"geonameid":4132664,"name":"Township of Sugar Camp","admin3":"93510"},{"geonameid":4132698,"name":"Township of Sugar Loaf","admin3":"93525"},{"geonameid":4134675,"name":"Township of Valley","admin3":"93750"},{"geonameid":4136443,"name":"Township of Wilburn","admin3":"94053"}],"alternateNames":[{"alternatenameId":1979420,"geonameid":4099753,"isoLanguage":"en","alternateName":"Arkansas","isPreferredName":true,"isShortName":true,"isColloquial":false,"isHistoric":false}]},"__N_SSG":true}