{"pageProps":{"locale":"en","admin2":{"geonameid":4917555,"name":"Allen County","country":"US","admin1":"IN","admin2":"003","admin3":"","latitude":"41.0908700","longitude":"-85.0665600","localeAltName":null},"admin1":{"geonameid":4921868,"name":"Indiana","admin1":"IN","localeAltName":"Indiana"},"locations":[{"geonameid":4920423,"name":"Fort Wayne","admin3":"80342","localeAltName":null},{"geonameid":4920825,"name":"Grabill","admin3":"10990","localeAltName":null},{"geonameid":4921161,"name":"Harlan","admin3":"72116","localeAltName":null},{"geonameid":4921471,"name":"Hoagland","admin3":"45882","localeAltName":null},{"geonameid":4921722,"name":"Huntertown","admin3":"58950","localeAltName":null},{"geonameid":4922721,"name":"Leo-Cedarville","admin3":"10990","localeAltName":null},{"geonameid":4923735,"name":"Monroeville","admin3":"50238","localeAltName":null},{"geonameid":4924104,"name":"New Haven","admin3":"00298","localeAltName":null},{"geonameid":4928386,"name":"Woodburn","admin3":"47646","localeAltName":null},{"geonameid":4928503,"name":"Zanesville","admin3":"40716","localeAltName":null}],"admin3":[{"geonameid":4832142,"name":"Township of Jefferson","admin3":"37836"},{"geonameid":4917496,"name":"Township of Adams","admin3":"00298","localeAltName":null},{"geonameid":4917509,"name":"Township of Aboite","admin3":"00208"},{"geonameid":4918799,"name":"Township of Cedar Creek","admin3":"10990","localeAltName":null},{"geonameid":4919959,"name":"Township of Eel River","admin3":"20512"},{"geonameid":4921948,"name":"Township of Jackson","admin3":"36738"},{"geonameid":4922469,"name":"Township of Lafayette","admin3":"40716","localeAltName":null},{"geonameid":4922554,"name":"Township of Lake","admin3":"40932"},{"geonameid":4923130,"name":"Township of Madison","admin3":"45882","localeAltName":null},{"geonameid":4923218,"name":"Township of Marion","admin3":"46836"},{"geonameid":4923319,"name":"Township of Maumee","admin3":"47646","localeAltName":null},{"geonameid":4923569,"name":"Township of Milan","admin3":"49248"},{"geonameid":4923726,"name":"Township of Monroe","admin3":"50238","localeAltName":null},{"geonameid":4924721,"name":"Township of Perry","admin3":"58950","localeAltName":null},{"geonameid":4924937,"name":"Township of Pleasant","admin3":"60354"},{"geonameid":4925861,"name":"Township of Saint Joseph","admin3":"66924"},{"geonameid":4926211,"name":"Township of Scipio","admin3":"68292"},{"geonameid":4926720,"name":"Township of Springfield","admin3":"72116","localeAltName":null},{"geonameid":4927899,"name":"Township of Washington","admin3":"80342","localeAltName":null},{"geonameid":4927953,"name":"Township of Wayne","admin3":"81620"}],"alternateNames":[{"alternatenameId":2124819,"geonameid":4921868,"isoLanguage":"en","alternateName":"Indiana","isPreferredName":true,"isShortName":true,"isColloquial":false,"isHistoric":false}]},"__N_SSG":true}