{"pageProps":{"locale":"en","admin2":{"geonameid":4266110,"name":"Union County","country":"US","admin1":"IN","admin2":"161","admin3":"","latitude":"39.6255500","longitude":"-84.9251400","localeAltName":null},"admin1":{"geonameid":4921868,"name":"Indiana","admin1":"IN","localeAltName":"Indiana"},"locations":[{"geonameid":4260329,"name":"Liberty","admin3":"11656","localeAltName":null},{"geonameid":4266783,"name":"West College Corner","admin3":"77678","localeAltName":null}],"admin3":[{"geonameid":4255067,"name":"Township of Brownsville","admin3":"08542"},{"geonameid":4255620,"name":"Township of Center","admin3":"11656","localeAltName":null},{"geonameid":4258562,"name":"Township of Harmony","admin3":"31522"},{"geonameid":4258617,"name":"Township of Harrison","admin3":"32008"},{"geonameid":4260359,"name":"Township of Liberty","admin3":"43452"},{"geonameid":4266137,"name":"Township of Union","admin3":"77678","localeAltName":null}],"alternateNames":[{"alternatenameId":2124819,"geonameid":4921868,"isoLanguage":"en","alternateName":"Indiana","isPreferredName":true,"isShortName":true,"isColloquial":false,"isHistoric":false}]},"__N_SSG":true}