{"pageProps":{"locale":"ro","admin2":{"geonameid":8306731,"name":"Oraş Comãneşti","country":"RO","admin1":"04","admin2":"20821","admin3":"","latitude":"46.4234800","longitude":"26.4279600"},"admin1":{"geonameid":685947,"name":"Bacău","admin1":"04"},"locations":[{"geonameid":682051,"name":"Chiricel","admin3":""},{"geonameid":681017,"name":"Comăneşti","admin3":""},{"geonameid":677023,"name":"Gloduri","admin3":""},{"geonameid":675074,"name":"Lăloaia","admin3":""},{"geonameid":674888,"name":"Leorda","admin3":""},{"geonameid":674451,"name":"Lunca","admin3":""},{"geonameid":674417,"name":"Lunca de Jos","admin3":""},{"geonameid":670340,"name":"Podei","admin3":""},{"geonameid":666869,"name":"Şipoteni","admin3":""},{"geonameid":665853,"name":"Sub Săloaia","admin3":""},{"geonameid":665766,"name":"Şupan","admin3":""},{"geonameid":663131,"name":"Văsâieşti","admin3":""},{"geonameid":663038,"name":"Vermești","admin3":""},{"geonameid":662252,"name":"Zăvoi","admin3":""}],"admin3":[],"alternateNames":[]},"__N_SSG":true}