{"pageProps":{"locale":"en","admin2":{"geonameid":4105899,"name":"Clay County","country":"US","admin1":"AR","admin2":"021","admin3":"","latitude":"36.3683900","longitude":"-90.4173800","localeAltName":null},"admin1":{"geonameid":4099753,"name":"Arkansas","admin1":"AR","localeAltName":"Arkansas"},"locations":[{"geonameid":4106689,"name":"Corning","admin3":"91474","localeAltName":null},{"geonameid":4126105,"name":"Piggott","admin3":"92719","localeAltName":null},{"geonameid":4127973,"name":"Rector","admin3":"91201","localeAltName":null}],"admin3":[{"geonameid":4101222,"name":"Township of Bennett-Lemmons","admin3":"90232"},{"geonameid":4102831,"name":"Township of Bradshaw-Haywood","admin3":"90448"},{"geonameid":4103226,"name":"Township of Brown-Carpenter","admin3":"90496"},{"geonameid":4103983,"name":"Township of Cache-Wilson","admin3":"90589"},{"geonameid":4105275,"name":"Township of Chalk Bluff-Liddell","admin3":"90757"},{"geonameid":4105859,"name":"Township of Clark","admin3":"90801"},{"geonameid":4106047,"name":"Township of Cleveland-North Kilgore","admin3":"90874"},{"geonameid":4109537,"name":"Township of East Oak Bluff-Blue Cane","admin3":"91201","localeAltName":null},{"geonameid":4112402,"name":"Township of Gleghorn-South Kilgore","admin3":"91474","localeAltName":null},{"geonameid":4116732,"name":"Township of Johnson","admin3":"91971"},{"geonameid":4117642,"name":"Township of Knob","admin3":"92058"},{"geonameid":4123391,"name":"Township of Nelson","admin3":"92667"},{"geonameid":4124153,"name":"Township of North Saint Francis","admin3":"92719","localeAltName":null},{"geonameid":4125664,"name":"Township of Payne-Swain","admin3":"92836"},{"geonameid":4127038,"name":"Township of Pollard","admin3":"92952"},{"geonameid":4131765,"name":"Township of South Saint Francis","admin3":"93439"},{"geonameid":4135875,"name":"Township of West Oak Bluff","admin3":"93971"}],"alternateNames":[{"alternatenameId":1979420,"geonameid":4099753,"isoLanguage":"en","alternateName":"Arkansas","isPreferredName":true,"isShortName":true,"isColloquial":false,"isHistoric":false}]},"__N_SSG":true}