{"pageProps":{"locale":"de","admin2":{"geonameid":8740968,"name":"Entlebuch District","country":"CH","admin1":"LU","admin2":"316","admin3":"","latitude":"46.9259000","longitude":"8.0142700"},"admin1":{"geonameid":2659810,"name":"Kanton Luzern","admin1":"LU"},"locations":[{"geonameid":2660992,"name":"Doppleschwand","admin3":"1001"},{"geonameid":2660887,"name":"Entlebuch","admin3":"1002"},{"geonameid":2660856,"name":"Escholzmatt","admin3":"1010"},{"geonameid":2660748,"name":"Fl端hli","admin3":"1004"},{"geonameid":2660410,"name":"Hasle","admin3":"1005"},{"geonameid":2658690,"name":"Sch端pfheim","admin3":"1008"},{"geonameid":2658014,"name":"Werthenstein","admin3":"1009"},{"geonameid":2657956,"name":"Wolhusen","admin3":"1009"}],"admin3":[{"geonameid":7285667,"name":"Doppleschwand","admin3":"1001"},{"geonameid":7285736,"name":"Entlebuch","admin3":"1002"},{"geonameid":7285842,"name":"Fl端hli","admin3":"1004"},{"geonameid":7286032,"name":"Hasle (LU)","admin3":"1005"},{"geonameid":7286944,"name":"Romoos","admin3":"1007"},{"geonameid":7287117,"name":"Sch端pfheim","admin3":"1008"},{"geonameid":7287561,"name":"Werthenstein","admin3":"1009"},{"geonameid":7287608,"name":"Wolhusen","admin3":"1107"},{"geonameid":8740939,"name":"Escholzmatt-Marbach","admin3":"1010"}],"alternateNames":[]},"__N_SSG":true}