{"pageProps":{"locale":"en","admin2":{"geonameid":2745773,"name":"Gemeente Veenendaal","country":"NL","admin1":"09","admin2":"0345","admin3":"","latitude":"52.0245900","longitude":"5.5556200"},"admin1":{"geonameid":2745909,"name":"Provincie Utrecht","admin1":"09"},"locations":[{"geonameid":2746339,"name":"â€™t Horntie","admin3":""},{"geonameid":2759220,"name":"Benedeneind","admin3":""},{"geonameid":2757596,"name":"De Haar","admin3":""},{"geonameid":2757293,"name":"De Melm","admin3":""},{"geonameid":2756815,"name":"Dikkenberg","admin3":""},{"geonameid":2755834,"name":"Fransegat","admin3":""},{"geonameid":2753813,"name":"Hondzenelleboog","admin3":""},{"geonameid":2750890,"name":"Middelbuurt","admin3":""},{"geonameid":2747824,"name":"Ruisseveen","admin3":""},{"geonameid":2745774,"name":"Veenendaal","admin3":""}],"admin3":[],"alternateNames":[{"alternatenameId":11907793,"geonameid":2745909,"isoLanguage":"de","alternateName":"Utrecht","isPreferredName":true,"isShortName":true,"isColloquial":false,"isHistoric":false}]},"__N_SSG":true}