{"pageProps":{"locale":"en","admin2":{"geonameid":6544250,"name":"Gemeente De Ronde Venen","country":"NL","admin1":"09","admin2":"0736","admin3":"","latitude":"52.2151500","longitude":"4.9012300"},"admin1":{"geonameid":2745909,"name":"Provincie Utrecht","admin1":"09"},"locations":[{"geonameid":2760110,"name":"Aan de Zuwe","admin3":""},{"geonameid":2760067,"name":"Abcoude","admin3":""},{"geonameid":2760047,"name":"Achterbos","admin3":""},{"geonameid":2759804,"name":"Amstelhoek","admin3":""},{"geonameid":2759572,"name":"Baambrugge","admin3":""},{"geonameid":2759570,"name":"Baambrugse Zuwe","admin3":""},{"geonameid":2758521,"name":"Botshol","admin3":""},{"geonameid":2757539,"name":"De Hoef","admin3":""},{"geonameid":2757283,"name":"Demmerik","admin3":""},{"geonameid":2756701,"name":"Donkereind","admin3":""},{"geonameid":2756697,"name":"Donkervliet","admin3":""},{"geonameid":2755682,"name":"Geer","admin3":""},{"geonameid":6544894,"name":"Gemaal","admin3":""},{"geonameid":2755282,"name":"Groenlandsekade","admin3":""},{"geonameid":2752243,"name":"Kromme Mijdrecht","admin3":""},{"geonameid":2750956,"name":"Mennonietenbuurt","admin3":""},{"geonameid":2750815,"name":"Mijdrecht","admin3":""},{"geonameid":2750409,"name":"Nessersluis","admin3":""},{"geonameid":2748947,"name":"Oudhuizen","admin3":""},{"geonameid":2746677,"name":"Stokkelaarsbrug","admin3":""},{"geonameid":2745496,"name":"Vinkekade","admin3":""},{"geonameid":2745493,"name":"Vinkeveen","admin3":""},{"geonameid":2744947,"name":"Waverveen","admin3":""},{"geonameid":2744376,"name":"Wilnis","admin3":""}],"admin3":[],"alternateNames":[{"alternatenameId":11907793,"geonameid":2745909,"isoLanguage":"de","alternateName":"Utrecht","isPreferredName":true,"isShortName":true,"isColloquial":false,"isHistoric":false}]},"__N_SSG":true}