{"pageProps":{"locale":"en","admin2":{"geonameid":5653656,"name":"Gallatin County","country":"US","admin1":"MT","admin2":"031","admin3":"","latitude":"45.5404900","longitude":"-111.1703500","localeAltName":null},"admin1":{"geonameid":5667009,"name":"Montana","admin1":"MT","localeAltName":"Montana"},"locations":[{"geonameid":5639364,"name":"Belgrade","admin3":"","localeAltName":null},{"geonameid":5640193,"name":"Big Sky","admin3":"","localeAltName":null},{"geonameid":5641727,"name":"Bozeman","admin3":"","localeAltName":null},{"geonameid":5644999,"name":"Churchill","admin3":"","localeAltName":null},{"geonameid":5653014,"name":"Four Corners","admin3":"","localeAltName":null},{"geonameid":5653639,"name":"Gallatin Gateway","admin3":"","localeAltName":null},{"geonameid":5660769,"name":"King Arthur Park","admin3":"","localeAltName":null},{"geonameid":5664535,"name":"Manhattan","admin3":"","localeAltName":null},{"geonameid":5682364,"name":"Three Forks","admin3":"","localeAltName":null},{"geonameid":5685767,"name":"West Yellowstone","admin3":"","localeAltName":null}],"admin3":[],"alternateNames":[{"alternatenameId":2089563,"geonameid":5667009,"isoLanguage":"en","alternateName":"Montana","isPreferredName":true,"isShortName":true,"isColloquial":false,"isHistoric":false}]},"__N_SSG":true}