{"pageProps":{"locale":"ro","admin2":{"geonameid":669936,"name":"Comuna Ponoarele","country":"RO","admin1":"26","admin2":"112995","admin3":"","latitude":"44.9734700","longitude":"22.7567600"},"admin1":{"geonameid":673612,"name":"Mehedinţi","admin1":"26"},"locations":[{"geonameid":685499,"name":"Băluța","admin3":""},{"geonameid":684809,"name":"Bârâiacu","admin3":""},{"geonameid":683671,"name":"Brânzeni","admin3":""},{"geonameid":683362,"name":"Buicani","admin3":""},{"geonameid":682401,"name":"Ceptureni","admin3":""},{"geonameid":680357,"name":"Cracu Muntelui","admin3":""},{"geonameid":679488,"name":"Delureni","admin3":""},{"geonameid":677587,"name":"Gărdăneasa","admin3":""},{"geonameid":677456,"name":"Gheorghești","admin3":""},{"geonameid":674542,"name":"Ludu","admin3":""},{"geonameid":669940,"name":"Ponoarele","admin3":""},{"geonameid":669566,"name":"Proitești","admin3":""},{"geonameid":669202,"name":"Răiculești","admin3":""},{"geonameid":666866,"name":"Șipotu","admin3":""},{"geonameid":663333,"name":"Valea Ursului","admin3":""}],"admin3":[],"alternateNames":[]},"__N_SSG":true}