{"pageProps":{"locale":"ro","admin2":{"geonameid":670430,"name":"Comuna Plopşoru","country":"RO","admin1":"19","admin2":"81264","admin3":"","latitude":"44.7386900","longitude":"23.3905300"},"admin1":{"geonameid":676898,"name":"Gorj","admin1":"19"},"locations":[{"geonameid":683649,"name":"Broșteni","admin3":""},{"geonameid":683625,"name":"Broștenii de Sus","admin3":""},{"geonameid":682409,"name":"Ceplea","admin3":""},{"geonameid":679915,"name":"Cursaru","admin3":""},{"geonameid":679533,"name":"Deleni","admin3":""},{"geonameid":675521,"name":"Iosa","admin3":""},{"geonameid":675386,"name":"Izvoarele","admin3":""},{"geonameid":671876,"name":"Olari","admin3":""},{"geonameid":670628,"name":"Piscuri","admin3":""},{"geonameid":670432,"name":"Plopşoru","admin3":""},{"geonameid":668002,"name":"Sărdănești","admin3":""},{"geonameid":663844,"name":"Valea Ceplei","admin3":""},{"geonameid":663295,"name":"Văleni","admin3":""},{"geonameid":663254,"name":"Vălenii de Sus","admin3":""}],"admin3":[],"alternateNames":[]},"__N_SSG":true}