{"pageProps":{"locale":"en","admin2":{"geonameid":5383537,"name":"Placer County","country":"US","admin1":"CA","admin2":"061","admin3":"","latitude":"39.0634300","longitude":"-120.7176600","localeAltName":null},"admin1":{"geonameid":5332921,"name":"California","admin1":"CA","localeAltName":"California"},"locations":[{"geonameid":5323456,"name":"Alta","admin3":"","localeAltName":null},{"geonameid":5325223,"name":"Auburn","admin3":"","localeAltName":null},{"geonameid":5334374,"name":"Carnelian Bay","admin3":"","localeAltName":null},{"geonameid":5338567,"name":"Colfax","admin3":"","localeAltName":null},{"geonameid":5343475,"name":"Dollar Point","admin3":"","localeAltName":null},{"geonameid":5349975,"name":"Foresthill","admin3":"","localeAltName":null},{"geonameid":5353530,"name":"Granite Bay","admin3":"","localeAltName":null},{"geonameid":5363364,"name":"Kings Beach","admin3":"","localeAltName":null},{"geonameid":5366375,"name":"Lincoln","admin3":"","localeAltName":null},{"geonameid":5368233,"name":"Loomis","admin3":"","localeAltName":null},{"geonameid":5371905,"name":"Meadow Vista","admin3":"","localeAltName":null},{"geonameid":5376831,"name":"Newcastle","admin3":"","localeAltName":null},{"geonameid":5377266,"name":"North Auburn","admin3":"","localeAltName":null},{"geonameid":5382026,"name":"Penryn","admin3":"","localeAltName":null},{"geonameid":5388319,"name":"Rocklin","admin3":"","localeAltName":null},{"geonameid":5388881,"name":"Roseville","admin3":"","localeAltName":null},{"geonameid":5550352,"name":"Sheridan","admin3":"","localeAltName":null},{"geonameid":7262635,"name":"Sunnyside-Tahoe City","admin3":"","localeAltName":null},{"geonameid":5400943,"name":"Tahoe Vista","admin3":"","localeAltName":null},{"geonameid":5400946,"name":"Tahoma","admin3":"","localeAltName":null}],"admin3":[{"geonameid":11788392,"name":"City of Lincoln","admin3":"11788392"},{"geonameid":11788783,"name":"City of Roseville","admin3":"11788783"},{"geonameid":11788872,"name":"City of Auburn","admin3":"11788872"}],"alternateNames":[{"alternatenameId":1632217,"geonameid":5332921,"isoLanguage":"en","alternateName":"California","isPreferredName":true,"isShortName":true,"isColloquial":false,"isHistoric":false}]},"__N_SSG":true}