{"pageProps":{"locale":"en","admin2":{"geonameid":6544220,"name":"Gemeente Koggenland","country":"NL","admin1":"07","admin2":"1598","admin3":"","latitude":"52.6416300","longitude":"4.9490900"},"admin1":{"geonameid":2749879,"name":"Provincie Noord-Holland","admin1":"07"},"locations":[{"geonameid":2759601,"name":"Avenhorn","admin3":""},{"geonameid":2759536,"name":"Baarsdorpermeer","admin3":""},{"geonameid":2759070,"name":"Berkhout","admin3":""},{"geonameid":2759068,"name":"Berkmeer","admin3":""},{"geonameid":2758772,"name":"Bobeldijk","admin3":""},{"geonameid":2757623,"name":"De Goorn","admin3":""},{"geonameid":2757484,"name":"De Hulk","admin3":""},{"geonameid":2755088,"name":"Grosthuizen","admin3":""},{"geonameid":2754375,"name":"Hensbroek","admin3":""},{"geonameid":2753037,"name":"Kathoek","admin3":""},{"geonameid":2749828,"name":"Noord-Spierdijk","admin3":""},{"geonameid":2749982,"name":"Noorddijk","admin3":""},{"geonameid":2749920,"name":"Noordermeer","admin3":""},{"geonameid":2749745,"name":"Obdam","admin3":""},{"geonameid":2749353,"name":"Oostmijzen","admin3":""},{"geonameid":2749047,"name":"Oudendijk","admin3":""},{"geonameid":2747800,"name":"Rustenburg","admin3":""},{"geonameid":2747668,"name":"Scharwoude","admin3":""},{"geonameid":2746943,"name":"Spierdijk","admin3":""},{"geonameid":2745924,"name":"Ursem","admin3":""},{"geonameid":2744626,"name":"Westmijzen","admin3":""},{"geonameid":2744239,"name":"Wogmeer","admin3":""},{"geonameid":2743654,"name":"Zuid-Spierdijk","admin3":""},{"geonameid":2743746,"name":"Zuidermeer","admin3":""}],"admin3":[],"alternateNames":[]},"__N_SSG":true}