{"pageProps":{"locale":"it","admin2":{"geonameid":3175057,"name":"Provincia di Latina","country":"IT","admin1":"07","admin2":"LT","admin3":"","latitude":"41.4591800","longitude":"12.9010200","localeAltName":"Latina"},"admin1":{"geonameid":3174976,"name":"Lazio","admin1":"07","localeAltName":"Lazio"},"locations":[{"geonameid":3182957,"name":"Aprilia","admin3":"059001","localeAltName":null},{"geonameid":8950341,"name":"Apriliana","admin3":"059001","localeAltName":null},{"geonameid":3182293,"name":"Bassiano","admin3":"059002","localeAltName":null},{"geonameid":3182231,"name":"Bella Farnia","admin3":"059024","localeAltName":null},{"geonameid":3181814,"name":"Borgo Bainsizza","admin3":"059011","localeAltName":null},{"geonameid":3181812,"name":"Borgo Carso","admin3":"059011","localeAltName":null},{"geonameid":3177269,"name":"Borgo Faiti","admin3":"059028","localeAltName":null},{"geonameid":8950260,"name":"Borgo Flora","admin3":"059005","localeAltName":null},{"geonameid":3181797,"name":"Borgo Grappa","admin3":"059011","localeAltName":null},{"geonameid":3175666,"name":"Borgo Hermada","admin3":"059032","localeAltName":null},{"geonameid":3181786,"name":"Borgo Montello","admin3":"059011","localeAltName":null},{"geonameid":3181771,"name":"Borgo Piave","admin3":"059011","localeAltName":null},{"geonameid":3181769,"name":"Borgo Podgora","admin3":"059011","localeAltName":null},{"geonameid":3181759,"name":"Borgo Sabotino-Foce Verde","admin3":"059011","localeAltName":null},{"geonameid":3167974,"name":"Borgo San Michele","admin3":"059011","localeAltName":null},{"geonameid":8949993,"name":"Borgo Santa Maria","admin3":"059011","localeAltName":null},{"geonameid":3181743,"name":"Borgo Vodice","admin3":"059024","localeAltName":null},{"geonameid":8949350,"name":"Camilleri-Vallelata","admin3":"059001","localeAltName":null},{"geonameid":3180981,"name":"Campo di Carne","admin3":"059001","localeAltName":null},{"geonameid":3180979,"name":"Campodimele","admin3":"059024","localeAltName":null},{"geonameid":3180962,"name":"Campoleone","admin3":"059001","localeAltName":null},{"geonameid":8949650,"name":"Campoverde","admin3":"059001","localeAltName":null},{"geonameid":8948950,"name":"Carrara-Pontenuovo","admin3":"059027","localeAltName":null},{"geonameid":8949146,"name":"Casalazzara","admin3":"059001","localeAltName":null},{"geonameid":3179692,"name":"Castelforte","admin3":"059004","localeAltName":null},{"geonameid":8950349,"name":"Cerri Aprano","admin3":"059026","localeAltName":null},{"geonameid":8949661,"name":"Chiesuola","admin3":"059011","localeAltName":null},{"geonameid":3178631,"name":"Cisterna di Latina","admin3":"059005","localeAltName":null},{"geonameid":3178099,"name":"Cori","admin3":"059006","localeAltName":null},{"geonameid":8949586,"name":"Crocefisso","admin3":"059011","localeAltName":null},{"geonameid":8950036,"name":"Farneto","admin3":"059011","localeAltName":null},{"geonameid":3176843,"name":"Fondi","admin3":"059007","localeAltName":null},{"geonameid":3166038,"name":"Forme di Suio-San Cataldo","admin3":"059004","localeAltName":null},{"geonameid":3176738,"name":"Formia","admin3":"059008","localeAltName":null},{"geonameid":8948829,"name":"Fossignano","admin3":"059001","localeAltName":null},{"geonameid":3176438,"name":"Gaeta","admin3":"059009","localeAltName":null},{"geonameid":8948805,"name":"Genio Civile","admin3":"059001","localeAltName":null},{"geonameid":3176057,"name":"Giulianello","admin3":"059006","localeAltName":null},{"geonameid":8948823,"name":"Grunuovo-Campomaggiore San Luca","admin3":"059026","localeAltName":null},{"geonameid":3175392,"name":"Itri","admin3":"059010","localeAltName":null},{"geonameid":8949643,"name":"La Fiora","admin3":"059032","localeAltName":null},{"geonameid":3175058,"name":"Latina","admin3":"059011","localeAltName":null},{"geonameid":8426434,"name":"Latina Scalo","admin3":"059011","localeAltName":null},{"geonameid":8949245,"name":"Le Forna","admin3":"059018","localeAltName":null},{"geonameid":3174891,"name":"Lenola","admin3":"059012","localeAltName":null},{"geonameid":3174309,"name":"Maenza","admin3":"059013","localeAltName":null},{"geonameid":3174018,"name":"Maranola-Trivio","admin3":"059008","localeAltName":null},{"geonameid":3173391,"name":"Minturno","admin3":"059014","localeAltName":null},{"geonameid":8949356,"name":"Molella","admin3":"059024","localeAltName":null},{"geonameid":3172760,"name":"Monte San Biagio","admin3":"059015","localeAltName":null},{"geonameid":3172697,"name":"Monticchio","admin3":"059027","localeAltName":null},{"geonameid":3172204,"name":"Norma","admin3":"059016","localeAltName":null},{"geonameid":8948961,"name":"Penitro","admin3":"059008","localeAltName":null},{"geonameid":3170196,"name":"Pontinia","admin3":"059017","localeAltName":null},{"geonameid":3170189,"name":"Ponza","admin3":"059018","localeAltName":null},{"geonameid":8949144,"name":"Prato di Coppola","admin3":"059011","localeAltName":null},{"geonameid":3169811,"name":"Priverno","admin3":"059019","localeAltName":null},{"geonameid":3169793,"name":"Prossedi","admin3":"059020","localeAltName":null},{"geonameid":6535050,"name":"Roccagorga","admin3":"059021","localeAltName":null},{"geonameid":3169133,"name":"Roccasecca dei Volsci","admin3":"059023","localeAltName":null},{"geonameid":3168764,"name":"Sabaudia","admin3":"059024","localeAltName":null},{"geonameid":3168426,"name":"San Donato","admin3":"059024","localeAltName":null},{"geonameid":3168393,"name":"San Felice Circeo","admin3":"059025","localeAltName":null},{"geonameid":3167536,"name":"Santa Maria Infante","admin3":"059014","localeAltName":null},{"geonameid":3167308,"name":"Santi Cosma e Damiano","admin3":"059026","localeAltName":null},{"geonameid":8950030,"name":"Scalo","admin3":"059029","localeAltName":null},{"geonameid":8950305,"name":"Scopeto Madonna Gulia","admin3":"059011","localeAltName":null},{"geonameid":3166695,"name":"Sermoneta","admin3":"059027","localeAltName":null},{"geonameid":3166571,"name":"Sezze","admin3":"059028","localeAltName":null},{"geonameid":8468672,"name":"Sezze Scalo","admin3":"059028","localeAltName":null},{"geonameid":3166394,"name":"Sonnino","admin3":"059029","localeAltName":null},{"geonameid":3166283,"name":"Sperlonga","admin3":"059030","localeAltName":null},{"geonameid":9036135,"name":"Spigno Saturnia Inferiore","admin3":"059031","localeAltName":null},{"geonameid":3165762,"name":"Terracina","admin3":"059032","localeAltName":null},{"geonameid":3165119,"name":"Tufo","admin3":"059014","localeAltName":null},{"geonameid":8950037,"name":"Valle Bernardo","admin3":"059012","localeAltName":null},{"geonameid":3164580,"name":"Ventosa","admin3":"059026","localeAltName":null},{"geonameid":3164577,"name":"Ventotene","admin3":"059033","localeAltName":null}],"admin3":[{"geonameid":6536970,"name":"Itri","admin3":"059010","localeAltName":null},{"geonameid":6536971,"name":"Maenza","admin3":"059013","localeAltName":null},{"geonameid":6536972,"name":"Monte San Biagio","admin3":"059015","localeAltName":null},{"geonameid":6536973,"name":"Priverno","admin3":"059019","localeAltName":null},{"geonameid":6536974,"name":"Prossedi","admin3":"059020","localeAltName":null},{"geonameid":6536975,"name":"Roccasecca dei Volsci","admin3":"059023","localeAltName":null},{"geonameid":6536976,"name":"Sermoneta","admin3":"059027","localeAltName":null},{"geonameid":6536977,"name":"Ventotene","admin3":"059033","localeAltName":null},{"geonameid":6538692,"name":"Bassiano","admin3":"059002","localeAltName":null},{"geonameid":6538693,"name":"Castelforte","admin3":"059004","localeAltName":null},{"geonameid":6538694,"name":"Cori","admin3":"059006","localeAltName":null},{"geonameid":6538695,"name":"Lenola","admin3":"059012","localeAltName":null},{"geonameid":6538696,"name":"Norma","admin3":"059016","localeAltName":null},{"geonameid":6538697,"name":"Ponza","admin3":"059018","localeAltName":null},{"geonameid":6538698,"name":"Rocca Massima","admin3":"059022"},{"geonameid":6540530,"name":"Formia","admin3":"059008","localeAltName":null},{"geonameid":6540531,"name":"Sonnino","admin3":"059029","localeAltName":null},{"geonameid":6540532,"name":"Sperlonga","admin3":"059030","localeAltName":null},{"geonameid":6541135,"name":"Aprilia","admin3":"059001","localeAltName":null},{"geonameid":6541136,"name":"Fondi","admin3":"059007","localeAltName":null},{"geonameid":6541137,"name":"Sabaudia","admin3":"059024","localeAltName":null},{"geonameid":6541138,"name":"Santi Cosma e Damiano","admin3":"059026","localeAltName":null},{"geonameid":6541139,"name":"Sezze","admin3":"059028","localeAltName":null},{"geonameid":6541545,"name":"Spigno Saturnia","admin3":"059031","localeAltName":null},{"geonameid":6541617,"name":"Cisterna di Latina","admin3":"059005","localeAltName":null},{"geonameid":6541618,"name":"Pontinia","admin3":"059017","localeAltName":null},{"geonameid":6541619,"name":"San Felice Circeo","admin3":"059025","localeAltName":null},{"geonameid":6541892,"name":"Minturno","admin3":"059014","localeAltName":null},{"geonameid":6541893,"name":"Terracina","admin3":"059032","localeAltName":null},{"geonameid":6542094,"name":"Gaeta","admin3":"059009","localeAltName":null},{"geonameid":6542115,"name":"Latina","admin3":"059011","localeAltName":null},{"geonameid":6543036,"name":"Roccagorga","admin3":"059021","localeAltName":null},{"geonameid":6543603,"name":"Campodimele","admin3":"059003"}],"alternateNames":[{"alternatenameId":1350464,"geonameid":3174976,"isoLanguage":"it","alternateName":"Lazio","isPreferredName":true,"isShortName":true,"isColloquial":false,"isHistoric":false},{"alternatenameId":1350496,"geonameid":3175057,"isoLanguage":"it","alternateName":"Latina","isPreferredName":true,"isShortName":true,"isColloquial":false,"isHistoric":false}]},"__N_SSG":true}