{"pageProps":{"locale":"en","admin2":{"geonameid":5084247,"name":"Carroll County","country":"US","admin1":"NH","admin2":"003","admin3":"","latitude":"43.8739100","longitude":"-71.2027700","localeAltName":null},"admin1":{"geonameid":5090174,"name":"New Hampshire","admin1":"NH","localeAltName":"New Hampshire"},"locations":[{"geonameid":5082554,"name":"Albany","admin3":"45060","localeAltName":null},{"geonameid":5083833,"name":"Brookfield","admin3":"07940","localeAltName":null},{"geonameid":5084376,"name":"Center Harbor","admin3":"49380","localeAltName":null},{"geonameid":5084387,"name":"Center Ossipee","admin3":"58740","localeAltName":null},{"geonameid":5084939,"name":"Conway","admin3":"14660","localeAltName":null},{"geonameid":5085825,"name":"Effingham","admin3":"23620","localeAltName":null},{"geonameid":5086373,"name":"Freedom","admin3":"27700","localeAltName":null},{"geonameid":5088043,"name":"Jackson","admin3":"38260","localeAltName":null},{"geonameid":5089144,"name":"Madison","admin3":"45060","localeAltName":null},{"geonameid":5089850,"name":"Moultonborough","admin3":"49380","localeAltName":null},{"geonameid":5090347,"name":"North Conway","admin3":"14660","localeAltName":null},{"geonameid":5090683,"name":"Ossipee","admin3":"58740","localeAltName":null},{"geonameid":5092346,"name":"Sanbornville","admin3":"78180","localeAltName":null},{"geonameid":5092370,"name":"Sandwich","admin3":"67780","localeAltName":null},{"geonameid":5093469,"name":"Tamworth","admin3":"76100","localeAltName":null},{"geonameid":5093845,"name":"Tuftonboro","admin3":"77620","localeAltName":null},{"geonameid":5094191,"name":"Wakefield","admin3":"78180","localeAltName":null},{"geonameid":5094877,"name":"Wolfeboro","admin3":"86420","localeAltName":null}],"admin3":[{"geonameid":5082564,"name":"Town of Albany","admin3":"00420"},{"geonameid":5083045,"name":"Town of Bartlett","admin3":"03700"},{"geonameid":5083834,"name":"Town of Brookfield","admin3":"07940","localeAltName":null},{"geonameid":5084490,"name":"Town of Chatham","admin3":"11780"},{"geonameid":5084950,"name":"Town of Conway","admin3":"14660","localeAltName":null},{"geonameid":5085799,"name":"Town of Eaton","admin3":"23380"},{"geonameid":5085828,"name":"Town of Effingham","admin3":"23620","localeAltName":null},{"geonameid":5086376,"name":"Town of Freedom","admin3":"27700","localeAltName":null},{"geonameid":5087243,"name":"Town of Hart's Location","admin3":"34500"},{"geonameid":5088055,"name":"Town of Jackson","admin3":"38260","localeAltName":null},{"geonameid":5089153,"name":"Town of Madison","admin3":"45060","localeAltName":null},{"geonameid":5089855,"name":"Town of Moultonborough","admin3":"49380","localeAltName":null},{"geonameid":5090692,"name":"Town of Ossipee","admin3":"58740","localeAltName":null},{"geonameid":5092382,"name":"Town of Sandwich","admin3":"67780","localeAltName":null},{"geonameid":5093466,"name":"Town of Tamworth","admin3":"76100","localeAltName":null},{"geonameid":5093849,"name":"Town of Tuftonboro","admin3":"77620","localeAltName":null},{"geonameid":5094195,"name":"Town of Wakefield","admin3":"78180","localeAltName":null},{"geonameid":5094894,"name":"Town of Wolfeboro","admin3":"86420","localeAltName":null}],"alternateNames":[{"alternatenameId":1980215,"geonameid":5090174,"isoLanguage":"en","alternateName":"New Hampshire","isPreferredName":true,"isShortName":true,"isColloquial":false,"isHistoric":false}]},"__N_SSG":true}