{"pageProps":{"locale":"en","admin2":{"geonameid":5084505,"name":"Cheshire County","country":"US","admin1":"NH","admin2":"005","admin3":"","latitude":"42.9193200","longitude":"-72.2511800","localeAltName":null},"admin1":{"geonameid":5090174,"name":"New Hampshire","admin1":"NH","localeAltName":"New Hampshire"},"locations":[{"geonameid":5082595,"name":"Alstead","admin3":"00820","localeAltName":null},{"geonameid":5084524,"name":"Chesterfield","admin3":"12260","localeAltName":null},{"geonameid":5085564,"name":"Dublin","admin3":"19140","localeAltName":null},{"geonameid":5086182,"name":"Fitzwilliam","admin3":"26500","localeAltName":null},{"geonameid":5086574,"name":"Gilsum","admin3":"29220","localeAltName":null},{"geonameid":5087227,"name":"Harrisville","admin3":"34420","localeAltName":null},{"geonameid":5087494,"name":"Hinsdale","admin3":"36660","localeAltName":null},{"geonameid":5088061,"name":"Jaffrey","admin3":"38500","localeAltName":null},{"geonameid":5088262,"name":"Keene","admin3":"39300","localeAltName":null},{"geonameid":5089236,"name":"Marlborough","admin3":"45460","localeAltName":null},{"geonameid":5089240,"name":"Marlow","admin3":"45700","localeAltName":null},{"geonameid":5090084,"name":"Nelson","admin3":"50580","localeAltName":null},{"geonameid":5090441,"name":"North Walpole","admin3":"78420","localeAltName":null},{"geonameid":5091729,"name":"Richmond","admin3":"64420","localeAltName":null},{"geonameid":5091744,"name":"Rindge","admin3":"64580","localeAltName":null},{"geonameid":5093183,"name":"Stoddard","admin3":"73700","localeAltName":null},{"geonameid":5093333,"name":"Sullivan","admin3":"74900","localeAltName":null},{"geonameid":5093401,"name":"Surry","admin3":"75300","localeAltName":null},{"geonameid":5093422,"name":"Swanzey","admin3":"75700","localeAltName":null},{"geonameid":5093821,"name":"Troy","admin3":"77380","localeAltName":null},{"geonameid":5094235,"name":"Walpole","admin3":"78420","localeAltName":null},{"geonameid":5094538,"name":"West Swanzey","admin3":"75700","localeAltName":null},{"geonameid":5094550,"name":"Westmoreland","admin3":"82660","localeAltName":null},{"geonameid":5094812,"name":"Winchester","admin3":"85540","localeAltName":null}],"admin3":[{"geonameid":5082600,"name":"Town of Alstead","admin3":"00820","localeAltName":null},{"geonameid":5084527,"name":"Town of Chesterfield","admin3":"12260","localeAltName":null},{"geonameid":5085571,"name":"Town of Dublin","admin3":"19140","localeAltName":null},{"geonameid":5086184,"name":"Town of Fitzwilliam","admin3":"26500","localeAltName":null},{"geonameid":5086579,"name":"Town of Gilsum","admin3":"29220","localeAltName":null},{"geonameid":5087232,"name":"Town of Harrisville","admin3":"34420","localeAltName":null},{"geonameid":5087500,"name":"Town of Hinsdale","admin3":"36660","localeAltName":null},{"geonameid":5088072,"name":"Town of Jaffrey","admin3":"38500","localeAltName":null},{"geonameid":5088258,"name":"City of Keene","admin3":"39300","localeAltName":null},{"geonameid":5089239,"name":"Town of Marlborough","admin3":"45460","localeAltName":null},{"geonameid":5089244,"name":"Town of Marlow","admin3":"45700","localeAltName":null},{"geonameid":5090090,"name":"Town of Nelson","admin3":"50580","localeAltName":null},{"geonameid":5091733,"name":"Town of Richmond","admin3":"64420","localeAltName":null},{"geonameid":5091745,"name":"Town of Rindge","admin3":"64580","localeAltName":null},{"geonameid":5091971,"name":"Town of Roxbury","admin3":"65700"},{"geonameid":5093187,"name":"Town of Stoddard","admin3":"73700","localeAltName":null},{"geonameid":5093336,"name":"Town of Sullivan","admin3":"74900","localeAltName":null},{"geonameid":5093427,"name":"Town of Swanzey","admin3":"75700","localeAltName":null},{"geonameid":5093825,"name":"Town of Troy","admin3":"77380","localeAltName":null},{"geonameid":5094244,"name":"Town of Walpole","admin3":"78420","localeAltName":null},{"geonameid":5094554,"name":"Town of Westmoreland","admin3":"82660","localeAltName":null},{"geonameid":5094814,"name":"Town of Winchester","admin3":"85540","localeAltName":null},{"geonameid":5281188,"name":"Town of Surry","admin3":"75300","localeAltName":null}],"alternateNames":[{"alternatenameId":1980215,"geonameid":5090174,"isoLanguage":"en","alternateName":"New Hampshire","isPreferredName":true,"isShortName":true,"isColloquial":false,"isHistoric":false}]},"__N_SSG":true}