{"pageProps":{"locale":"en","admin2":{"geonameid":5084973,"name":"Coos County","country":"US","admin1":"NH","admin2":"007","admin3":"","latitude":"44.6896000","longitude":"-71.3054200","localeAltName":null},"admin1":{"geonameid":5090174,"name":"New Hampshire","admin1":"NH","localeAltName":"New Hampshire"},"locations":[{"geonameid":5083330,"name":"Berlin","admin3":"05140","localeAltName":null},{"geonameid":5084246,"name":"Carroll","admin3":"10100","localeAltName":null},{"geonameid":5084820,"name":"Colebrook","admin3":"13780","localeAltName":null},{"geonameid":5084845,"name":"Columbia","admin3":"13940","localeAltName":null},{"geonameid":4832988,"name":"Dalton","admin3":"16820","localeAltName":null},{"geonameid":5086700,"name":"Gorham","admin3":"30260","localeAltName":null},{"geonameid":5086978,"name":"Groveton","admin3":"56100","localeAltName":null},{"geonameid":5088090,"name":"Jefferson","admin3":"38820","localeAltName":null},{"geonameid":5088529,"name":"Lancaster","admin3":"40420","localeAltName":null},{"geonameid":5089546,"name":"Milan","admin3":"47860","localeAltName":null},{"geonameid":5090464,"name":"Northumberland","admin3":"56100","localeAltName":null},{"geonameid":5091247,"name":"Pittsburg","admin3":"61780","localeAltName":null},{"geonameid":4833026,"name":"Stark","admin3":"73060","localeAltName":null},{"geonameid":5093157,"name":"Stewartstown","admin3":"73380","localeAltName":null},{"geonameid":5093242,"name":"Stratford","admin3":"74180","localeAltName":null},{"geonameid":5094647,"name":"Whitefield","admin3":"84420","localeAltName":null}],"admin3":[{"geonameid":5083340,"name":"City of Berlin","admin3":"05140","localeAltName":null},{"geonameid":5084039,"name":"Township of Cambridge","admin3":"08420"},{"geonameid":5084253,"name":"Town of Carroll","admin3":"10100","localeAltName":null},{"geonameid":5084675,"name":"Town of Clarksville","admin3":"13220"},{"geonameid":5084827,"name":"Town of Colebrook","admin3":"13780","localeAltName":null},{"geonameid":5084850,"name":"Town of Columbia","admin3":"13940","localeAltName":null},{"geonameid":5085204,"name":"Town of Dalton","admin3":"16820","localeAltName":null},{"geonameid":5085449,"name":"Township of Dixville","admin3":"18420"},{"geonameid":5085596,"name":"Town of Dummer","admin3":"19300"},{"geonameid":5085933,"name":"Town of Errol","admin3":"25140"},{"geonameid":5086716,"name":"Town of Gorham","admin3":"30260","localeAltName":null},{"geonameid":5088100,"name":"Town of Jefferson","admin3":"38820","localeAltName":null},{"geonameid":5088331,"name":"Township of Kilkenny","admin3":"39940"},{"geonameid":5088533,"name":"Town of Lancaster","admin3":"40420","localeAltName":null},{"geonameid":5089553,"name":"Town of Milan","admin3":"47860","localeAltName":null},{"geonameid":5089666,"name":"Township of Millsfield","admin3":"48260"},{"geonameid":5090467,"name":"Town of Northumberland","admin3":"56100","localeAltName":null},{"geonameid":5090570,"name":"Township of Odell","admin3":"57860"},{"geonameid":5091249,"name":"Town of Pittsburg","admin3":"61780","localeAltName":null},{"geonameid":5091610,"name":"Town of Randolph","admin3":"63860"},{"geonameid":5092612,"name":"Town of Shelburne","admin3":"68980"},{"geonameid":5093110,"name":"Town of Stark","admin3":"73060","localeAltName":null},{"geonameid":5093160,"name":"Town of Stewartstown","admin3":"73380","localeAltName":null},{"geonameid":5093248,"name":"Town of Stratford","admin3":"74180","localeAltName":null},{"geonameid":5093296,"name":"Township of Success","admin3":"74500"},{"geonameid":5094651,"name":"Town of Whitefield","admin3":"84420","localeAltName":null}],"alternateNames":[{"alternatenameId":1980215,"geonameid":5090174,"isoLanguage":"en","alternateName":"New Hampshire","isPreferredName":true,"isShortName":true,"isColloquial":false,"isHistoric":false}]},"__N_SSG":true}