{"pageProps":{"locale":"en","admin2":{"geonameid":5093334,"name":"Sullivan County","country":"US","admin1":"NH","admin2":"019","admin3":"","latitude":"43.3612200","longitude":"-72.2224000","localeAltName":null},"admin1":{"geonameid":5090174,"name":"New Hampshire","admin1":"NH","localeAltName":"New Hampshire"},"locations":[{"geonameid":5082515,"name":"Acworth","admin3":"00260","localeAltName":null},{"geonameid":5084457,"name":"Charlestown","admin3":"11380","localeAltName":null},{"geonameid":5084633,"name":"Claremont","admin3":"12900","localeAltName":null},{"geonameid":5085124,"name":"Croydon","admin3":"16340","localeAltName":null},{"geonameid":5086717,"name":"Goshen","admin3":"30500","localeAltName":null},{"geonameid":5086792,"name":"Grantham","admin3":"31220","localeAltName":null},{"geonameid":5088542,"name":"Langdon","admin3":"40900","localeAltName":null},{"geonameid":5088638,"name":"Lempster","admin3":"41700","localeAltName":null},{"geonameid":5090256,"name":"Newport","admin3":"52580","localeAltName":null},{"geonameid":5093030,"name":"Springfield","admin3":"72740","localeAltName":null},{"geonameid":5093347,"name":"Sunapee","admin3":"75060","localeAltName":null},{"geonameid":5093977,"name":"Unity","admin3":"77940","localeAltName":null},{"geonameid":5094275,"name":"Washington","admin3":"78980","localeAltName":null}],"admin3":[{"geonameid":5082520,"name":"Town of Acworth","admin3":"00260","localeAltName":null},{"geonameid":5084464,"name":"Town of Charlestown","admin3":"11380","localeAltName":null},{"geonameid":5084645,"name":"City of Claremont","admin3":"12900","localeAltName":null},{"geonameid":5085014,"name":"Town of Cornish","admin3":"15060"},{"geonameid":5085130,"name":"Town of Croydon","admin3":"16340","localeAltName":null},{"geonameid":5086721,"name":"Town of Goshen","admin3":"30500","localeAltName":null},{"geonameid":5086796,"name":"Town of Grantham","admin3":"31220","localeAltName":null},{"geonameid":5088549,"name":"Town of Langdon","admin3":"40900","localeAltName":null},{"geonameid":5088640,"name":"Town of Lempster","admin3":"41700","localeAltName":null},{"geonameid":5090267,"name":"Town of Newport","admin3":"52580","localeAltName":null},{"geonameid":5091269,"name":"Town of Plainfield","admin3":"62340"},{"geonameid":5093028,"name":"Town of Springfield","admin3":"72740","localeAltName":null},{"geonameid":5093359,"name":"Town of Sunapee","admin3":"75060","localeAltName":null},{"geonameid":5093980,"name":"Town of Unity","admin3":"77940","localeAltName":null},{"geonameid":5094285,"name":"Town of Washington","admin3":"78980","localeAltName":null}],"alternateNames":[{"alternatenameId":1980215,"geonameid":5090174,"isoLanguage":"en","alternateName":"New Hampshire","isPreferredName":true,"isShortName":true,"isColloquial":false,"isHistoric":false}]},"__N_SSG":true}