{"pageProps":{"locale":"en","admin2":{"geonameid":3333167,"name":"Liverpool","country":"GB","admin1":"ENG","admin2":"H8","admin3":"","latitude":"53.4166700","longitude":"-2.9166700","localeAltName":"Liverpool"},"admin1":{"geonameid":6269131,"name":"England","admin1":"ENG","localeAltName":"England"},"locations":[{"geonameid":2657633,"name":"Aigburth","admin3":"00BX002","localeAltName":null},{"geonameid":11550900,"name":"Allerton","admin3":"","localeAltName":null},{"geonameid":11669847,"name":"Belle Vale","admin3":"","localeAltName":null},{"geonameid":2653169,"name":"Childwall","admin3":"00BX003","localeAltName":null},{"geonameid":11902915,"name":"Clubmoor","admin3":"","localeAltName":null},{"geonameid":10244559,"name":"Croxteth","admin3":"","localeAltName":null},{"geonameid":2651285,"name":"Deysbrook","admin3":"","localeAltName":null},{"geonameid":2651246,"name":"Dingle","admin3":"00CA001","localeAltName":null},{"geonameid":2649610,"name":"Fazakerley","admin3":"00CA001","localeAltName":null},{"geonameid":2648827,"name":"Garston","admin3":"","localeAltName":null},{"geonameid":11888134,"name":"Gateacre","admin3":"","localeAltName":null},{"geonameid":10244562,"name":"Gillmoss","admin3":"","localeAltName":null},{"geonameid":11669848,"name":"Hunts Cross","admin3":"","localeAltName":null},{"geonameid":11669846,"name":"Kensington","admin3":"","localeAltName":null},{"geonameid":11669845,"name":"Kirkdale","admin3":"","localeAltName":null},{"geonameid":8063573,"name":"Knotty Ash","admin3":"","localeAltName":null},{"geonameid":2644210,"name":"Liverpool","admin3":"","localeAltName":null},{"geonameid":11550898,"name":"Mossley Hill","admin3":"","localeAltName":null},{"geonameid":11549414,"name":"Netherley","admin3":"","localeAltName":null},{"geonameid":11669849,"name":"Norris Green","admin3":"","localeAltName":null},{"geonameid":8063574,"name":"Old Swan","admin3":"","localeAltName":null},{"geonameid":2637241,"name":"Speke","admin3":"","localeAltName":null},{"geonameid":2635578,"name":"Toxteth","admin3":"00CA001","localeAltName":null},{"geonameid":11669844,"name":"Vauxhall","admin3":"","localeAltName":null},{"geonameid":2634827,"name":"Walton","admin3":"","localeAltName":null},{"geonameid":2634646,"name":"Wavertree","admin3":"00BX003","localeAltName":null},{"geonameid":2634455,"name":"West Derby","admin3":"00BX003","localeAltName":null},{"geonameid":2633586,"name":"Woolton","admin3":"00BX002","localeAltName":null}],"admin3":[],"alternateNames":[{"alternatenameId":8666501,"geonameid":3333167,"isoLanguage":"en","alternateName":"Liverpool","isPreferredName":true,"isShortName":true,"isColloquial":false,"isHistoric":false},{"alternatenameId":1626647,"geonameid":6269131,"isoLanguage":"en","alternateName":"England","isPreferredName":true,"isShortName":true,"isColloquial":false,"isHistoric":false}]},"__N_SSG":true}