{"pageProps":{"locale":"en","admin2":{"geonameid":3333198,"name":"South Gloucestershire","country":"GB","admin1":"ENG","admin2":"M6","admin3":"","latitude":"51.5000000","longitude":"-2.4166700","localeAltName":null},"admin1":{"geonameid":6269131,"name":"England","admin1":"ENG","localeAltName":"England"},"locations":[{"geonameid":2657688,"name":"Acton Turville","admin3":"00HD001","localeAltName":null},{"geonameid":2657450,"name":"Almondsbury","admin3":"00HD002","localeAltName":null},{"geonameid":2657388,"name":"Alveston","admin3":"00HD003","localeAltName":null},{"geonameid":2656765,"name":"Aust","admin3":"00HD004","localeAltName":null},{"geonameid":2648170,"name":"Badminton","admin3":"00HD005","localeAltName":null},{"geonameid":8199225,"name":"Beach","admin3":"00HD006","localeAltName":null},{"geonameid":2655536,"name":"Bitton","admin3":"00HD006","localeAltName":null},{"geonameid":2653343,"name":"Charfield","admin3":"00HD008","localeAltName":null},{"geonameid":2653328,"name":"Charlton","admin3":"00HD002","localeAltName":null},{"geonameid":2653137,"name":"Chipping Sodbury","admin3":"00HD034","localeAltName":null},{"geonameid":8658767,"name":"Coalpit Heath","admin3":"00HD016","localeAltName":null},{"geonameid":2652615,"name":"Cold Ashton","admin3":"00HD009","localeAltName":null},{"geonameid":10345347,"name":"Conham","admin3":"00HD046","localeAltName":null},{"geonameid":2651926,"name":"Cromhall","admin3":"00HD010","localeAltName":null},{"geonameid":2651017,"name":"Doynton","admin3":"00HD012","localeAltName":null},{"geonameid":2650586,"name":"Dyrham","admin3":"00HD013","localeAltName":null},{"geonameid":3345399,"name":"Easter Compton","admin3":"00HD002","localeAltName":null},{"geonameid":2650135,"name":"Elberton","admin3":"00HD004","localeAltName":null},{"geonameid":3345394,"name":"Engine Common","admin3":"00HD021","localeAltName":null},{"geonameid":2649725,"name":"Falfield","admin3":"00HD014","localeAltName":null},{"geonameid":2649452,"name":"Filton","admin3":"00HD015","localeAltName":null},{"geonameid":2649101,"name":"Frampton Cotterell","admin3":"00HD016","localeAltName":null},{"geonameid":2649075,"name":"Frenchay","admin3":"00HD043","localeAltName":null},{"geonameid":2647620,"name":"Hallen","admin3":"00HD002","localeAltName":null},{"geonameid":2647577,"name":"Hambrook","admin3":"00HD043","localeAltName":null},{"geonameid":8224197,"name":"Hanham","admin3":"00HD046","localeAltName":null},{"geonameid":2647293,"name":"Hawkesbury","admin3":"00HD018","localeAltName":null},{"geonameid":3345345,"name":"Hawkesbury Upton","admin3":"00HD018","localeAltName":null},{"geonameid":2646900,"name":"Hill","admin3":"00HD019","localeAltName":null},{"geonameid":2646850,"name":"Hinton","admin3":"00HD013","localeAltName":null},{"geonameid":2646547,"name":"Horton","admin3":"00HD020","localeAltName":null},{"geonameid":2646040,"name":"Iron Acton","admin3":"00HD021","localeAltName":null},{"geonameid":2645418,"name":"Kingswood","admin3":"00HD046","localeAltName":null},{"geonameid":3345346,"name":"Little Badminton","admin3":"00HD018","localeAltName":null},{"geonameid":11669851,"name":"Little Stoke","admin3":"00HD035","localeAltName":null},{"geonameid":2644234,"name":"Littleton-upon-Severn","admin3":"00HD004","localeAltName":null},{"geonameid":8063454,"name":"Longwell Green","admin3":"00HD026","localeAltName":null},{"geonameid":2643116,"name":"Mangotsfield","admin3":"00HD045","localeAltName":null},{"geonameid":2642981,"name":"Marshfield","admin3":"00HD024","localeAltName":null},{"geonameid":2642167,"name":"Morton","admin3":"00HD036","localeAltName":null},{"geonameid":2641601,"name":"New Passage","admin3":"00HD029","localeAltName":null},{"geonameid":2641033,"name":"Oldbury-on-Severn","admin3":"00HD025","localeAltName":null},{"geonameid":2640969,"name":"Olveston","admin3":"00HD027","localeAltName":null},{"geonameid":2640580,"name":"Patchway","admin3":"00HD028","localeAltName":null},{"geonameid":9430566,"name":"Petty France","admin3":"00HD018","localeAltName":null},{"geonameid":2640288,"name":"Pilning","admin3":"00HD029","localeAltName":null},{"geonameid":3345395,"name":"Pucklechurch","admin3":"00HD030","localeAltName":null},{"geonameid":2639648,"name":"Rangeworthy","admin3":"00HD031","localeAltName":null},{"geonameid":2639521,"name":"Redwick","admin3":"00HD029","localeAltName":null},{"geonameid":3345400,"name":"Severn Beach","admin3":"00HD029","localeAltName":null},{"geonameid":2638045,"name":"Shepperdine","admin3":"00HD025","localeAltName":null},{"geonameid":2637805,"name":"Siston","admin3":"00HD033","localeAltName":null},{"geonameid":2637017,"name":"Staple Hill","admin3":"","localeAltName":null},{"geonameid":2636854,"name":"Stoke Gifford","admin3":"00HD035","localeAltName":null},{"geonameid":2636002,"name":"Thornbury","admin3":"00HD036","localeAltName":null},{"geonameid":2635667,"name":"Tormarton","admin3":"00HD037","localeAltName":null},{"geonameid":2635623,"name":"Tortworth","admin3":"00HD038","localeAltName":null},{"geonameid":2635256,"name":"Tytherington","admin3":"00HD039","localeAltName":null},{"geonameid":2634754,"name":"Warmley","admin3":"00HD033","localeAltName":null},{"geonameid":2634431,"name":"Westerleigh","admin3":"00HD040","localeAltName":null},{"geonameid":2633984,"name":"Wick","admin3":"00HD041","localeAltName":null},{"geonameid":2633966,"name":"Wickwar","admin3":"00HD042","localeAltName":null},{"geonameid":6693205,"name":"Winterbourne","admin3":"00HD043","localeAltName":null},{"geonameid":2633406,"name":"Yate","admin3":"00HD044","localeAltName":null}],"admin3":[{"geonameid":7293724,"name":"Dyrham and Hinton","admin3":"00HD013","localeAltName":null},{"geonameid":7293725,"name":"Hanham","admin3":"00HD046","localeAltName":null},{"geonameid":7296005,"name":"Bitton","admin3":"00HD006","localeAltName":null},{"geonameid":7296006,"name":"Filton","admin3":"00HD015","localeAltName":null},{"geonameid":7296007,"name":"Marshfield","admin3":"00HD024","localeAltName":null},{"geonameid":7296008,"name":"Rockhampton","admin3":"00HD032"},{"geonameid":7296009,"name":"Siston","admin3":"00HD033","localeAltName":null},{"geonameid":7296010,"name":"Tormarton","admin3":"00HD037","localeAltName":null},{"geonameid":7296011,"name":"Tortworth","admin3":"00HD038","localeAltName":null},{"geonameid":7296012,"name":"Westerleigh","admin3":"00HD040","localeAltName":null},{"geonameid":7297376,"name":"Acton Turville","admin3":"00HD001","localeAltName":null},{"geonameid":7297377,"name":"Cold Ashton","admin3":"00HD009","localeAltName":null},{"geonameid":7297378,"name":"Cromhall","admin3":"00HD010","localeAltName":null},{"geonameid":7297379,"name":"Dodington","admin3":"00HD011"},{"geonameid":7297380,"name":"Falfield","admin3":"00HD014","localeAltName":null},{"geonameid":7297381,"name":"Frampton Cotterell","admin3":"00HD016","localeAltName":null},{"geonameid":7297382,"name":"Hawkesbury","admin3":"00HD018","localeAltName":null},{"geonameid":7297437,"name":"Tytherington","admin3":"00HD039","localeAltName":null},{"geonameid":7297438,"name":"Winterbourne","admin3":"00HD043","localeAltName":null},{"geonameid":7298284,"name":"Pilning and Severn Beach","admin3":"00HD029","localeAltName":null},{"geonameid":7298285,"name":"Stoke Gifford","admin3":"00HD035","localeAltName":null},{"geonameid":7299103,"name":"Alveston","admin3":"00HD003","localeAltName":null},{"geonameid":7299104,"name":"Badminton","admin3":"00HD005","localeAltName":null},{"geonameid":7299105,"name":"Bradley Stoke","admin3":"00HD007"},{"geonameid":7299106,"name":"Charfield","admin3":"00HD008","localeAltName":null},{"geonameid":7299107,"name":"Hill","admin3":"00HD019","localeAltName":null},{"geonameid":7299108,"name":"Horton","admin3":"00HD020","localeAltName":null},{"geonameid":7299109,"name":"Iron Acton","admin3":"00HD021","localeAltName":null},{"geonameid":7299110,"name":"Olveston","admin3":"00HD027","localeAltName":null},{"geonameid":7299111,"name":"Rangeworthy","admin3":"00HD031","localeAltName":null},{"geonameid":7299112,"name":"Sodbury","admin3":"00HD034","localeAltName":null},{"geonameid":7299113,"name":"Thornbury","admin3":"00HD036","localeAltName":null},{"geonameid":7299114,"name":"Wick and Abson","admin3":"00HD041","localeAltName":null},{"geonameid":7300058,"name":"Almondsbury","admin3":"00HD002","localeAltName":null},{"geonameid":7300059,"name":"Aust","admin3":"00HD004","localeAltName":null},{"geonameid":7300060,"name":"Doynton","admin3":"00HD012","localeAltName":null},{"geonameid":7300061,"name":"Hanham Abbots","admin3":"00HD017"},{"geonameid":7300062,"name":"Oldland","admin3":"00HD026","localeAltName":null},{"geonameid":7300063,"name":"Pucklechurch","admin3":"00HD030","localeAltName":null},{"geonameid":7300064,"name":"Wickwar","admin3":"00HD042","localeAltName":null},{"geonameid":7300065,"name":"Yate","admin3":"00HD044","localeAltName":null},{"geonameid":7300066,"name":"Downend and Bromley Heath","admin3":"00HD045","localeAltName":null},{"geonameid":7300983,"name":"Little Sodbury","admin3":"00HD022"},{"geonameid":7301215,"name":"Mangotsfield Rural","admin3":"00HD023"},{"geonameid":7301216,"name":"Oldbury-upon-Severn","admin3":"00HD025","localeAltName":null},{"geonameid":7301217,"name":"Patchway","admin3":"00HD028","localeAltName":null}],"alternateNames":[{"alternatenameId":1626647,"geonameid":6269131,"isoLanguage":"en","alternateName":"England","isPreferredName":true,"isShortName":true,"isColloquial":false,"isHistoric":false}]},"__N_SSG":true}