{"pageProps":{"locale":"en","admin2":{"geonameid":4188937,"name":"Colquitt County","country":"US","admin1":"GA","admin2":"071","admin3":"","latitude":"31.1883900","longitude":"-83.7688500","localeAltName":null},"admin1":{"geonameid":4197000,"name":"Georgia","admin1":"GA","localeAltName":"Georgia"},"locations":[{"geonameid":4182096,"name":"Berlin","admin3":"","localeAltName":null},{"geonameid":4191671,"name":"Doerun","admin3":"","localeAltName":null},{"geonameid":4210397,"name":"Moultrie","admin3":"","localeAltName":null},{"geonameid":4212913,"name":"Norman Park","admin3":"","localeAltName":null}],"admin3":[{"geonameid":7169487,"name":"City of Funston","admin3":"7169487"},{"geonameid":7169618,"name":"City of Berlin","admin3":"7169618"},{"geonameid":7169872,"name":"City of Doerun","admin3":"7169872"},{"geonameid":7169971,"name":"City of Norman Park","admin3":"7169971"},{"geonameid":7317878,"name":"City of Moultrie","admin3":"7317878"}],"alternateNames":[{"alternatenameId":2089570,"geonameid":4197000,"isoLanguage":"en","alternateName":"Georgia","isPreferredName":true,"isShortName":true,"isColloquial":false,"isHistoric":false}]},"__N_SSG":true}