{"pageProps":{"locale":"en","admin2":{"geonameid":2750466,"name":"Gemeente Nederweert","country":"NL","admin1":"05","admin2":"0946","admin3":"","latitude":"51.2881300","longitude":"5.7715700","localeAltName":null},"admin1":{"geonameid":2751596,"name":"Provincie Limburg","admin1":"05","localeAltName":"Limburg"},"locations":[{"geonameid":2746087,"name":"'t Vlut","admin3":"","localeAltName":null},{"geonameid":2758750,"name":"Boeket","admin3":"","localeAltName":null},{"geonameid":2758534,"name":"Bosserstraat","admin3":"","localeAltName":null},{"geonameid":2758443,"name":"Braakpeel","admin3":"","localeAltName":null},{"geonameid":2758162,"name":"Budschop","admin3":"","localeAltName":null},{"geonameid":2757208,"name":"De Nieuwe Hoeven","admin3":"","localeAltName":null},{"geonameid":2756261,"name":"Eind","admin3":"","localeAltName":null},{"geonameid":2753613,"name":"Horick","admin3":"","localeAltName":null},{"geonameid":2753612,"name":"Horickheide","admin3":"","localeAltName":null},{"geonameid":2753444,"name":"Hulsen","admin3":"","localeAltName":null},{"geonameid":2753095,"name":"Kampershoek","admin3":"","localeAltName":null},{"geonameid":2752817,"name":"Klaarstraat","admin3":"","localeAltName":null},{"geonameid":2752345,"name":"Kraan","admin3":"","localeAltName":null},{"geonameid":2752284,"name":"Kreijel","admin3":"","localeAltName":null},{"geonameid":2751669,"name":"Leveroy","admin3":"","localeAltName":null},{"geonameid":2750993,"name":"Meijelsedijk","admin3":"","localeAltName":null},{"geonameid":6544802,"name":"Mildert","admin3":"","localeAltName":null},{"geonameid":2750799,"name":"Millert","admin3":"","localeAltName":null},{"geonameid":2750467,"name":"Nederweert","admin3":"","localeAltName":null},{"geonameid":11395892,"name":"Nederweert-Eind","admin3":"","localeAltName":null},{"geonameid":2750276,"name":"Nieuw- en Winnerstraat","admin3":"","localeAltName":null},{"geonameid":2749235,"name":"Ospel","admin3":"","localeAltName":null},{"geonameid":6544803,"name":"Ospeldijk","admin3":"","localeAltName":null},{"geonameid":2747996,"name":"Roeven","admin3":"","localeAltName":null},{"geonameid":2747495,"name":"Schoor","admin3":"","localeAltName":null},{"geonameid":2746625,"name":"Strateris","admin3":"","localeAltName":null},{"geonameid":2745104,"name":"Waatskamp","admin3":"","localeAltName":null},{"geonameid":2745103,"name":"Waatskamperheide","admin3":"","localeAltName":null}],"admin3":[],"alternateNames":[{"alternatenameId":9073257,"geonameid":2751596,"isoLanguage":"en","alternateName":"Limburg","isPreferredName":true,"isShortName":true,"isColloquial":false,"isHistoric":false},{"alternatenameId":9073258,"geonameid":2751596,"isoLanguage":"de","alternateName":"Limburg","isPreferredName":true,"isShortName":true,"isColloquial":false,"isHistoric":false}]},"__N_SSG":true}