{"pageProps":{"locale":"en","admin2":{"geonameid":2746746,"name":"Gemeente Stein","country":"NL","admin1":"05","admin2":"0971","admin3":"","latitude":"50.9735800","longitude":"5.7612600","localeAltName":null},"admin1":{"geonameid":2751596,"name":"Provincie Limburg","admin1":"05","localeAltName":"Limburg"},"locations":[{"geonameid":2759163,"name":"Berg","admin3":"","localeAltName":null},{"geonameid":2757978,"name":"Catsop","admin3":"","localeAltName":null},{"geonameid":2757746,"name":"De Bramert","admin3":"","localeAltName":null},{"geonameid":2756169,"name":"Elsloo","admin3":"","localeAltName":null},{"geonameid":2754600,"name":"Heide","admin3":"","localeAltName":null},{"geonameid":2752954,"name":"Kerensheide","admin3":"","localeAltName":null},{"geonameid":2752724,"name":"Kleine Meers","admin3":"","localeAltName":null},{"geonameid":2751305,"name":"Maasband","admin3":"","localeAltName":null},{"geonameid":2751040,"name":"Meers","admin3":"","localeAltName":null},{"geonameid":2750499,"name":"Nattenhoven","admin3":"","localeAltName":null},{"geonameid":2750355,"name":"Nieuwdorp","admin3":"","localeAltName":null},{"geonameid":2746748,"name":"Stein","admin3":"","localeAltName":null},{"geonameid":2746458,"name":"Terhagen","admin3":"","localeAltName":null},{"geonameid":2745926,"name":"Urmond","admin3":"","localeAltName":null},{"geonameid":2745692,"name":"Veldschuur","admin3":"","localeAltName":null}],"admin3":[],"alternateNames":[{"alternatenameId":9073257,"geonameid":2751596,"isoLanguage":"en","alternateName":"Limburg","isPreferredName":true,"isShortName":true,"isColloquial":false,"isHistoric":false},{"alternatenameId":9073258,"geonameid":2751596,"isoLanguage":"de","alternateName":"Limburg","isPreferredName":true,"isShortName":true,"isColloquial":false,"isHistoric":false}]},"__N_SSG":true}