{"pageProps":{"locale":"en","admin2":{"geonameid":5719297,"name":"Clackamas County","country":"US","admin1":"OR","admin2":"005","admin3":"","latitude":"45.1881600","longitude":"-122.2209400"},"admin1":{"geonameid":5744337,"name":"Oregon","admin1":"OR","localeAltName":"Oregon"},"locations":[{"geonameid":5713224,"name":"Beavercreek","admin3":""},{"geonameid":5717758,"name":"Canby","admin3":""},{"geonameid":5719308,"name":"Clackamas","admin3":""},{"geonameid":5722088,"name":"Damascus","admin3":""},{"geonameid":5725801,"name":"Estacada","admin3":""},{"geonameid":5728429,"name":"Gladstone","admin3":""},{"geonameid":5730183,"name":"Happy Valley","admin3":""},{"geonameid":5733582,"name":"Jennings Lodge","admin3":""},{"geonameid":5735724,"name":"Lake Oswego","admin3":""},{"geonameid":5740900,"name":"Milwaukie","admin3":""},{"geonameid":5741182,"name":"Molalla","admin3":""},{"geonameid":5741683,"name":"Mount Hood Village","admin3":""},{"geonameid":5742096,"name":"Mulino","admin3":""},{"geonameid":5743731,"name":"Oak Grove","admin3":""},{"geonameid":7262019,"name":"Oatfield","admin3":""},{"geonameid":5744253,"name":"Oregon City","admin3":""},{"geonameid":5750477,"name":"Sandy","admin3":""},{"geonameid":5754243,"name":"Stafford","admin3":""},{"geonameid":5760009,"name":"West Linn","admin3":""},{"geonameid":5761287,"name":"Wilsonville","admin3":""}],"admin3":[{"geonameid":11788566,"name":"City of Oregon City","admin3":"11788566"},{"geonameid":11788685,"name":"City of Rivergrove","admin3":"11788685"},{"geonameid":11788714,"name":"City of Johnson City","admin3":"11788714"},{"geonameid":11788929,"name":"City of Happy Valley","admin3":"11788929"}],"alternateNames":[{"alternatenameId":1894740,"geonameid":5744337,"isoLanguage":"en","alternateName":"Oregon","isPreferredName":true,"isShortName":true,"isColloquial":false,"isHistoric":false}]},"__N_SSG":true}