{"pageProps":{"locale":"en","admin2":{"geonameid":5759333,"name":"Washington County","country":"US","admin1":"OR","admin2":"067","admin3":"","latitude":"45.5600700","longitude":"-123.0984900"},"admin1":{"geonameid":5744337,"name":"Oregon","admin1":"OR","localeAltName":"Oregon"},"locations":[{"geonameid":5711099,"name":"Aloha","admin3":""},{"geonameid":5712430,"name":"Banks","admin3":""},{"geonameid":5713376,"name":"Beaverton","admin3":""},{"geonameid":5713759,"name":"Bethany","admin3":""},{"geonameid":5718480,"name":"Cedar Hills","admin3":""},{"geonameid":5718492,"name":"Cedar Mill","admin3":""},{"geonameid":5720639,"name":"Cornelius","admin3":""},{"geonameid":5724406,"name":"Durham","admin3":""},{"geonameid":5727190,"name":"Forest Grove","admin3":""},{"geonameid":7261327,"name":"Garden Home-Whitford","admin3":""},{"geonameid":5731371,"name":"Hillsboro","admin3":""},{"geonameid":5735043,"name":"King City","admin3":""},{"geonameid":5740325,"name":"Metzger","admin3":""},{"geonameid":5743413,"name":"North Plains","admin3":""},{"geonameid":5743753,"name":"Oak Hills","admin3":""},{"geonameid":5747420,"name":"Raleigh Hills","admin3":""},{"geonameid":5749017,"name":"Rockcreek","admin3":""},{"geonameid":5751632,"name":"Sherwood","admin3":""},{"geonameid":5756758,"name":"Tigard","admin3":""},{"geonameid":5757506,"name":"Tualatin","admin3":""},{"geonameid":5759989,"name":"West Haven","admin3":""},{"geonameid":7262498,"name":"West Haven-Sylvan","admin3":""},{"geonameid":5760068,"name":"West Slope","admin3":""}],"admin3":[{"geonameid":11788354,"name":"City of Cornelius","admin3":"11788354"},{"geonameid":11788603,"name":"City of Durham","admin3":"11788603"},{"geonameid":11788704,"name":"City of King City","admin3":"11788704"}],"alternateNames":[{"alternatenameId":1894740,"geonameid":5744337,"isoLanguage":"en","alternateName":"Oregon","isPreferredName":true,"isShortName":true,"isColloquial":false,"isHistoric":false}]},"__N_SSG":true}