{"pageProps":{"locale":"en","admin2":{"geonameid":4241687,"name":"Jackson County","country":"US","admin1":"IL","admin2":"077","admin3":"","latitude":"37.7851400","longitude":"-89.3821200","localeAltName":null},"admin1":{"geonameid":4896861,"name":"Illinois","admin1":"IL","localeAltName":"Illinois"},"locations":[{"geonameid":4233069,"name":"Ava","admin3":"07731","localeAltName":null},{"geonameid":4235193,"name":"Carbondale","admin3":"11170","localeAltName":null},{"geonameid":4236879,"name":"De Soto","admin3":"19629","localeAltName":null},{"geonameid":4237807,"name":"Elkville","admin3":"23217","localeAltName":null},{"geonameid":4239696,"name":"Grand Tower","admin3":"30783","localeAltName":null},{"geonameid":4240292,"name":"Harrison","admin3":"70408","localeAltName":null},{"geonameid":4243794,"name":"Makanda","admin3":"46227","localeAltName":null},{"geonameid":4245336,"name":"Murphysboro","admin3":"51466","localeAltName":null}],"admin3":[{"geonameid":4234337,"name":"Township of Bradley","admin3":"07731","localeAltName":null},{"geonameid":4235201,"name":"Township of Carbondale","admin3":"11170","localeAltName":null},{"geonameid":4236873,"name":"Township of De Soto","admin3":"19629","localeAltName":null},{"geonameid":4236987,"name":"Township of Degognia","admin3":"19148"},{"geonameid":4237795,"name":"Township of Elk","admin3":"23217","localeAltName":null},{"geonameid":4238907,"name":"Township of Fountain Bluff","admin3":"27260"},{"geonameid":4239698,"name":"Township of Grand Tower","admin3":"30783","localeAltName":null},{"geonameid":4242306,"name":"Township of Kinkaid","admin3":"40104"},{"geonameid":4242873,"name":"Township of Levan","admin3":"42990"},{"geonameid":4243796,"name":"Township of Makanda","admin3":"46227","localeAltName":null},{"geonameid":4245341,"name":"Township of Murphysboro","admin3":"51466","localeAltName":null},{"geonameid":4246431,"name":"Township of Ora","admin3":"56276"},{"geonameid":4247353,"name":"Township of Pomona","admin3":"60963"},{"geonameid":4249414,"name":"Township of Sand Ridge","admin3":"67522"},{"geonameid":4250268,"name":"Township of Somerset","admin3":"70408","localeAltName":null},{"geonameid":4251968,"name":"Township of Vergennes","admin3":"77538"}],"alternateNames":[{"alternatenameId":2089562,"geonameid":4896861,"isoLanguage":"en","alternateName":"Illinois","isPreferredName":true,"isShortName":true,"isColloquial":false,"isHistoric":false}]},"__N_SSG":true}