{"pageProps":{"locale":"en","admin2":{"geonameid":4935156,"name":"Dukes County","country":"US","admin1":"MA","admin2":"007","admin3":"","latitude":"41.3887700","longitude":"-70.6987700"},"admin1":{"geonameid":6254926,"name":"Massachusetts","admin1":"MA","localeAltName":"Massachusetts"},"locations":[{"geonameid":4935645,"name":"Edgartown","admin3":"21150"},{"geonameid":4946056,"name":"Oak Bluffs","admin3":"50390"},{"geonameid":4953938,"name":"Vineyard Haven","admin3":"69940"},{"geonameid":4955117,"name":"West Tisbury","admin3":"78235"}],"admin3":[{"geonameid":4929163,"name":"Town of Aquinnah","admin3":"01585"},{"geonameid":4933056,"name":"Town of Chilmark","admin3":"13800"},{"geonameid":4935661,"name":"Town of Edgartown","admin3":"21150"},{"geonameid":4937987,"name":"Town of Gosnold","admin3":"26325"},{"geonameid":4946064,"name":"Town of Oak Bluffs","admin3":"50390"},{"geonameid":4953063,"name":"Town of Tisbury","admin3":"69940"},{"geonameid":4955121,"name":"Town of West Tisbury","admin3":"78235"}],"alternateNames":[{"alternatenameId":6755490,"geonameid":6254926,"isoLanguage":"en","alternateName":"Massachusetts","isPreferredName":true,"isShortName":true,"isColloquial":false,"isHistoric":false}]},"__N_SSG":true}