{"pageProps":{"locale":"en","admin1":{"geonameid":5879092,"name":"Alaska","country":"US","admin1":"AK","latitude":"64.0002800","longitude":"-150.0002800","localeAltName":"Alaska"},"admin2":[{"geonameid":5879166,"name":"Aleutians East Borough","admin2":"013","localeAltName":null},{"geonameid":5879164,"name":"Aleutians West Census Area","admin2":"016","localeAltName":null},{"geonameid":5879348,"name":"Anchorage Municipality","admin2":"020","localeAltName":null},{"geonameid":5880573,"name":"Bethel Census Area","admin2":"050","localeAltName":null},{"geonameid":5858042,"name":"Bristol Bay Borough","admin2":"060","localeAltName":null},{"geonameid":7117591,"name":"City and Borough of Wrangell","admin2":"275","localeAltName":null},{"geonameid":5860541,"name":"Denali Borough","admin2":"068","localeAltName":null},{"geonameid":5860696,"name":"Dillingham Census Area","admin2":"070","localeAltName":null},{"geonameid":5861900,"name":"Fairbanks North Star Borough","admin2":"090","localeAltName":null},{"geonameid":5846893,"name":"Haines Borough","admin2":"100","localeAltName":null},{"geonameid":7117568,"name":"Hoonah-Angoon Census Area","admin2":"105","localeAltName":null},{"geonameid":5554074,"name":"Juneau City and Borough","admin2":"110","localeAltName":null},{"geonameid":5866071,"name":"Kenai Peninsula Borough","admin2":"122","localeAltName":null},{"geonameid":5554432,"name":"Ketchikan Gateway Borough","admin2":"130","localeAltName":null},{"geonameid":5866574,"name":"Kodiak Island Borough","admin2":"150","localeAltName":null},{"geonameid":11550056,"name":"Kusilvak Census Area","admin2":"158","localeAltName":null},{"geonameid":5867113,"name":"Lake and Peninsula Borough","admin2":"164","localeAltName":null},{"geonameid":5868437,"name":"Matanuska-Susitna Borough","admin2":"170","localeAltName":null},{"geonameid":5870134,"name":"Nome Census Area","admin2":"180","localeAltName":null},{"geonameid":5870308,"name":"North Slope Borough","admin2":"185","localeAltName":null},{"geonameid":5870351,"name":"Northwest Arctic Borough","admin2":"188","localeAltName":null},{"geonameid":7117732,"name":"Petersburg Borough","admin2":"195","localeAltName":null},{"geonameid":11550055,"name":"Prince of Wales-Hyder Census Area","admin2":"198","localeAltName":null},{"geonameid":5557295,"name":"Sitka City and Borough","admin2":"220","localeAltName":null},{"geonameid":7117565,"name":"Skagway Municipality","admin2":"230","localeAltName":null},{"geonameid":5874863,"name":"Southeast Fairbanks Census Area","admin2":"240","localeAltName":null},{"geonameid":5877395,"name":"Valdez-Cordova Census Area","admin2":"261","localeAltName":null},{"geonameid":5558618,"name":"Yakutat City and Borough","admin2":"282","localeAltName":null},{"geonameid":5878558,"name":"Yukon-Koyukuk Census Area","admin2":"290","localeAltName":null}],"admin3":[],"country":{"geonameid":6252001,"country":"US","name":"United States","localeAltName":null},"alternateNames":[{"alternatenameId":2089569,"geonameid":5879092,"isoLanguage":"en","alternateName":"Alaska","isPreferredName":true,"isShortName":true,"isColloquial":false,"isHistoric":false},{"alternatenameId":2422318,"geonameid":6252001,"isoLanguage":"de","alternateName":"USA","isPreferredName":true,"isShortName":true,"isColloquial":false,"isHistoric":false}]},"__N_SSG":true}