{"pageProps":{"locale":"en","admin1":{"geonameid":5551752,"name":"Arizona","country":"US","admin1":"AZ","latitude":"34.5003000","longitude":"-111.5009800","localeAltName":"Arizona"},"admin2":[{"geonameid":5551519,"name":"Apache County","admin2":"001","localeAltName":null},{"geonameid":5290270,"name":"Cochise County","admin2":"003","localeAltName":null},{"geonameid":5290307,"name":"Coconino County","admin2":"005","localeAltName":null},{"geonameid":5295877,"name":"Gila County","admin2":"007","localeAltName":null},{"geonameid":5296368,"name":"Graham County","admin2":"009","localeAltName":null},{"geonameid":5296837,"name":"Greenlee County","admin2":"011","localeAltName":null},{"geonameid":5301323,"name":"La Paz County","admin2":"012","localeAltName":null},{"geonameid":5303754,"name":"Maricopa County","admin2":"013","localeAltName":null},{"geonameid":5305206,"name":"Mohave County","admin2":"015","localeAltName":null},{"geonameid":5306233,"name":"Navajo County","admin2":"017","localeAltName":null},{"geonameid":5308878,"name":"Pima County","admin2":"019","localeAltName":null},{"geonameid":5308916,"name":"Pinal County","admin2":"021","localeAltName":null},{"geonameid":5313135,"name":"Santa Cruz County","admin2":"023","localeAltName":null},{"geonameid":5321860,"name":"Yavapai County","admin2":"025","localeAltName":null},{"geonameid":5322057,"name":"Yuma County","admin2":"027","localeAltName":null}],"admin3":[],"country":{"geonameid":6252001,"country":"US","name":"United States","localeAltName":null},"alternateNames":[{"alternatenameId":1979309,"geonameid":5551752,"isoLanguage":"en","alternateName":"Arizona","isPreferredName":true,"isShortName":true,"isColloquial":false,"isHistoric":false},{"alternatenameId":2422318,"geonameid":6252001,"isoLanguage":"de","alternateName":"USA","isPreferredName":true,"isShortName":true,"isColloquial":false,"isHistoric":false}]},"__N_SSG":true}