{"pageProps":{"locale":"en","admin1":{"geonameid":4099753,"name":"Arkansas","country":"US","admin1":"AR","latitude":"34.7503700","longitude":"-92.5004400","localeAltName":"Arkansas"},"admin2":[{"geonameid":4099679,"name":"Arkansas County","admin2":"001","localeAltName":null},{"geonameid":4099869,"name":"Ashley County","admin2":"003","localeAltName":null},{"geonameid":4100581,"name":"Baxter County","admin2":"005","localeAltName":null},{"geonameid":4101244,"name":"Benton County","admin2":"007","localeAltName":null},{"geonameid":4102608,"name":"Boone County","admin2":"009","localeAltName":null},{"geonameid":4102799,"name":"Bradley County","admin2":"011","localeAltName":null},{"geonameid":4104063,"name":"Calhoun County","admin2":"013","localeAltName":null},{"geonameid":4104658,"name":"Carroll County","admin2":"015","localeAltName":null},{"geonameid":4105506,"name":"Chicot County","admin2":"017","localeAltName":null},{"geonameid":4105838,"name":"Clark County","admin2":"019","localeAltName":null},{"geonameid":4105899,"name":"Clay County","admin2":"021","localeAltName":null},{"geonameid":4106009,"name":"Cleburne County","admin2":"023","localeAltName":null},{"geonameid":4106032,"name":"Cleveland County","admin2":"025","localeAltName":null},{"geonameid":4106339,"name":"Columbia County","admin2":"027","localeAltName":null},{"geonameid":4106460,"name":"Conway County","admin2":"029","localeAltName":null},{"geonameid":4106979,"name":"Craighead County","admin2":"031","localeAltName":null},{"geonameid":4107027,"name":"Crawford County","admin2":"033","localeAltName":null},{"geonameid":4107079,"name":"Crittenden County","admin2":"035","localeAltName":null},{"geonameid":4107139,"name":"Cross County","admin2":"037","localeAltName":null},{"geonameid":4107572,"name":"Dallas County","admin2":"039","localeAltName":null},{"geonameid":4108100,"name":"Desha County","admin2":"041","localeAltName":null},{"geonameid":4108996,"name":"Drew County","admin2":"043","localeAltName":null},{"geonameid":4110465,"name":"Faulkner County","admin2":"045","localeAltName":null},{"geonameid":4111593,"name":"Franklin County","admin2":"047","localeAltName":null},{"geonameid":4111857,"name":"Fulton County","admin2":"049","localeAltName":null},{"geonameid":4112045,"name":"Garland County","admin2":"051","localeAltName":null},{"geonameid":4112780,"name":"Grant County","admin2":"053","localeAltName":null},{"geonameid":4113088,"name":"Greene County","admin2":"055","localeAltName":null},{"geonameid":4114303,"name":"Hempstead County","admin2":"057","localeAltName":null},{"geonameid":4115406,"name":"Hot Spring County","admin2":"059","localeAltName":null},{"geonameid":4115463,"name":"Howard County","admin2":"061","localeAltName":null},{"geonameid":4115832,"name":"Independence County","admin2":"063","localeAltName":null},{"geonameid":4116178,"name":"Izard County","admin2":"065","localeAltName":null},{"geonameid":4116263,"name":"Jackson County","admin2":"067","localeAltName":null},{"geonameid":4116433,"name":"Jefferson County","admin2":"069","localeAltName":null},{"geonameid":4116689,"name":"Johnson County","admin2":"071","localeAltName":null},{"geonameid":4117774,"name":"Lafayette County","admin2":"073","localeAltName":null},{"geonameid":4118467,"name":"Lawrence County","admin2":"075","localeAltName":null},{"geonameid":4118578,"name":"Lee County","admin2":"077","localeAltName":null},{"geonameid":4118984,"name":"Lincoln County","admin2":"079","localeAltName":null},{"geonameid":4119374,"name":"Little River County","admin2":"081","localeAltName":null},{"geonameid":4119581,"name":"Logan County","admin2":"083","localeAltName":null},{"geonameid":4119825,"name":"Lonoke County","admin2":"085","localeAltName":null},{"geonameid":4120275,"name":"Madison County","admin2":"087","localeAltName":null},{"geonameid":4120525,"name":"Marion County","admin2":"089","localeAltName":null},{"geonameid":4121680,"name":"Miller County","admin2":"091","localeAltName":null},{"geonameid":4121839,"name":"Mississippi County","admin2":"093","localeAltName":null},{"geonameid":4121968,"name":"Monroe County","admin2":"095","localeAltName":null},{"geonameid":4121992,"name":"Montgomery County","admin2":"097","localeAltName":null},{"geonameid":4123415,"name":"Nevada County","admin2":"099","localeAltName":null},{"geonameid":4123857,"name":"Newton County","admin2":"101","localeAltName":null},{"geonameid":4125059,"name":"Ouachita County","admin2":"103","localeAltName":null},{"geonameid":4125858,"name":"Perry County","admin2":"105","localeAltName":null},{"geonameid":4126012,"name":"Phillips County","admin2":"107","localeAltName":null},{"geonameid":4126123,"name":"Pike County","admin2":"109","localeAltName":null},{"geonameid":4126942,"name":"Poinsett County","admin2":"111","localeAltName":null},{"geonameid":4127017,"name":"Polk County","admin2":"113","localeAltName":null},{"geonameid":4127100,"name":"Pope County","admin2":"115","localeAltName":null},{"geonameid":4127330,"name":"Prairie County","admin2":"117","localeAltName":null},{"geonameid":4127619,"name":"Pulaski County","admin2":"119","localeAltName":null},{"geonameid":4127846,"name":"Randolph County","admin2":"121","localeAltName":null},{"geonameid":4129533,"name":"Saint Francis County","admin2":"123","localeAltName":null},{"geonameid":4130035,"name":"Saline County","admin2":"125","localeAltName":null},{"geonameid":4130373,"name":"Scott County","admin2":"127","localeAltName":null},{"geonameid":4130432,"name":"Searcy County","admin2":"129","localeAltName":null},{"geonameid":4130449,"name":"Sebastian County","admin2":"131","localeAltName":null},{"geonameid":4130562,"name":"Sevier County","admin2":"133","localeAltName":null},{"geonameid":4130730,"name":"Sharp County","admin2":"135","localeAltName":null},{"geonameid":4132456,"name":"Stone County","admin2":"137","localeAltName":null},{"geonameid":4134330,"name":"Union County","admin2":"139","localeAltName":null},{"geonameid":4134690,"name":"Van Buren County","admin2":"141","localeAltName":null},{"geonameid":4135394,"name":"Washington County","admin2":"143","localeAltName":null},{"geonameid":4136143,"name":"White County","admin2":"145","localeAltName":null},{"geonameid":4137047,"name":"Woodruff County","admin2":"147","localeAltName":null},{"geonameid":4137268,"name":"Yell County","admin2":"149","localeAltName":null}],"admin3":[],"country":{"geonameid":6252001,"country":"US","name":"United States","localeAltName":null},"alternateNames":[{"alternatenameId":1979420,"geonameid":4099753,"isoLanguage":"en","alternateName":"Arkansas","isPreferredName":true,"isShortName":true,"isColloquial":false,"isHistoric":false},{"alternatenameId":2422318,"geonameid":6252001,"isoLanguage":"de","alternateName":"USA","isPreferredName":true,"isShortName":true,"isColloquial":false,"isHistoric":false}]},"__N_SSG":true}