{"pageProps":{"locale":"en","admin1":{"geonameid":5855797,"name":"Hawaii","country":"US","admin1":"HI","latitude":"20.7878500","longitude":"-156.3861200","localeAltName":"Hawaii"},"admin2":[{"geonameid":5855765,"name":"Hawaii County","admin2":"001","localeAltName":null},{"geonameid":5856194,"name":"Honolulu County","admin2":"003","localeAltName":null},{"geonameid":5847795,"name":"Kalawao County","admin2":"005","localeAltName":null},{"geonameid":5848514,"name":"Kauai County","admin2":"007","localeAltName":null},{"geonameid":5850871,"name":"Maui County","admin2":"009","localeAltName":null}],"admin3":[],"country":{"geonameid":6252001,"country":"US","name":"United States","localeAltName":null},"alternateNames":[{"alternatenameId":1632575,"geonameid":5855797,"isoLanguage":"en","alternateName":"Hawaii","isPreferredName":true,"isShortName":true,"isColloquial":false,"isHistoric":false},{"alternatenameId":2422318,"geonameid":6252001,"isoLanguage":"de","alternateName":"USA","isPreferredName":true,"isShortName":true,"isColloquial":false,"isHistoric":false}]},"__N_SSG":true}