{"pageProps":{"locale":"en","admin1":{"geonameid":4896861,"name":"Illinois","country":"US","admin1":"IL","latitude":"40.0003200","longitude":"-89.2503700","localeAltName":"Illinois"},"admin2":[{"geonameid":4232512,"name":"Adams County","admin2":"001","localeAltName":null},{"geonameid":4232592,"name":"Alexander County","admin2":"003","localeAltName":null},{"geonameid":4234184,"name":"Bond County","admin2":"005","localeAltName":null},{"geonameid":4885392,"name":"Boone County","admin2":"007","localeAltName":null},{"geonameid":4234528,"name":"Brown County","admin2":"009","localeAltName":null},{"geonameid":4885994,"name":"Bureau County","admin2":"011","localeAltName":null},{"geonameid":4235018,"name":"Calhoun County","admin2":"013","localeAltName":null},{"geonameid":4886694,"name":"Carroll County","admin2":"015","localeAltName":null},{"geonameid":4235369,"name":"Cass County","admin2":"017","localeAltName":null},{"geonameid":4887163,"name":"Champaign County","admin2":"019","localeAltName":null},{"geonameid":4235793,"name":"Christian County","admin2":"021","localeAltName":null},{"geonameid":4235954,"name":"Clark County","admin2":"023","localeAltName":null},{"geonameid":4235992,"name":"Clay County","admin2":"025","localeAltName":null},{"geonameid":4236063,"name":"Clinton County","admin2":"027","localeAltName":null},{"geonameid":4236157,"name":"Coles County","admin2":"029","localeAltName":null},{"geonameid":4888671,"name":"Cook County","admin2":"031","localeAltName":null},{"geonameid":4236576,"name":"Crawford County","admin2":"033","localeAltName":null},{"geonameid":4236738,"name":"Cumberland County","admin2":"035","localeAltName":null},{"geonameid":4889548,"name":"De Witt County","admin2":"039","localeAltName":null},{"geonameid":4889554,"name":"DeKalb County","admin2":"037","localeAltName":null},{"geonameid":4237204,"name":"Douglas County","admin2":"041","localeAltName":null},{"geonameid":4890213,"name":"DuPage County","admin2":"043","localeAltName":null},{"geonameid":4237672,"name":"Edgar County","admin2":"045","localeAltName":null},{"geonameid":4237705,"name":"Edwards County","admin2":"047","localeAltName":null},{"geonameid":4237730,"name":"Effingham County","admin2":"049","localeAltName":null},{"geonameid":4238245,"name":"Fayette County","admin2":"051","localeAltName":null},{"geonameid":4892729,"name":"Ford County","admin2":"053","localeAltName":null},{"geonameid":4238982,"name":"Franklin County","admin2":"055","localeAltName":null},{"geonameid":4893313,"name":"Fulton County","admin2":"057","localeAltName":null},{"geonameid":4239230,"name":"Gallatin County","admin2":"059","localeAltName":null},{"geonameid":4239836,"name":"Greene County","admin2":"061","localeAltName":null},{"geonameid":4894828,"name":"Grundy County","admin2":"063","localeAltName":null},{"geonameid":4240145,"name":"Hamilton County","admin2":"065","localeAltName":null},{"geonameid":4895035,"name":"Hancock County","admin2":"067","localeAltName":null},{"geonameid":4240212,"name":"Hardin County","admin2":"069","localeAltName":null},{"geonameid":4895552,"name":"Henderson County","admin2":"071","localeAltName":null},{"geonameid":4895598,"name":"Henry County","admin2":"073","localeAltName":null},{"geonameid":4897521,"name":"Iroquois County","admin2":"075","localeAltName":null},{"geonameid":4241687,"name":"Jackson County","admin2":"077","localeAltName":null},{"geonameid":4241756,"name":"Jasper County","admin2":"079","localeAltName":null},{"geonameid":4241773,"name":"Jefferson County","admin2":"081","localeAltName":null},{"geonameid":4241818,"name":"Jersey County","admin2":"083","localeAltName":null},{"geonameid":4897897,"name":"Jo Daviess County","admin2":"085","localeAltName":null},{"geonameid":4241904,"name":"Johnson County","admin2":"087","localeAltName":null},{"geonameid":4898166,"name":"Kane County","admin2":"089","localeAltName":null},{"geonameid":4898188,"name":"Kankakee County","admin2":"091","localeAltName":null},{"geonameid":4898342,"name":"Kendall County","admin2":"093","localeAltName":null},{"geonameid":4898722,"name":"Knox County","admin2":"095","localeAltName":null},{"geonameid":4898998,"name":"Lake County","admin2":"097","localeAltName":null},{"geonameid":4898878,"name":"LaSalle County","admin2":"099","localeAltName":null},{"geonameid":4242758,"name":"Lawrence County","admin2":"101","localeAltName":null},{"geonameid":4899519,"name":"Lee County","admin2":"103","localeAltName":null},{"geonameid":4900233,"name":"Livingston County","admin2":"105","localeAltName":null},{"geonameid":4900338,"name":"Logan County","admin2":"107","localeAltName":null},{"geonameid":4243719,"name":"Macon County","admin2":"115","localeAltName":null},{"geonameid":4243727,"name":"Macoupin County","admin2":"117","localeAltName":null},{"geonameid":4243743,"name":"Madison County","admin2":"119","localeAltName":null},{"geonameid":4243907,"name":"Marion County","admin2":"121","localeAltName":null},{"geonameid":4901299,"name":"Marshall County","admin2":"123","localeAltName":null},{"geonameid":4901395,"name":"Mason County","admin2":"125","localeAltName":null},{"geonameid":4244065,"name":"Massac County","admin2":"127","localeAltName":null},{"geonameid":4901622,"name":"McDonough County","admin2":"109","localeAltName":null},{"geonameid":4901666,"name":"McHenry County","admin2":"111","localeAltName":null},{"geonameid":4901730,"name":"McLean County","admin2":"113","localeAltName":null},{"geonameid":4901936,"name":"Menard County","admin2":"129","localeAltName":null},{"geonameid":4901976,"name":"Mercer County","admin2":"131","localeAltName":null},{"geonameid":4244752,"name":"Monroe County","admin2":"133","localeAltName":null},{"geonameid":4244772,"name":"Montgomery County","admin2":"135","localeAltName":null},{"geonameid":4244840,"name":"Morgan County","admin2":"137","localeAltName":null},{"geonameid":4244913,"name":"Moultrie County","admin2":"139","localeAltName":null},{"geonameid":4904601,"name":"Ogle County","admin2":"141","localeAltName":null},{"geonameid":4905697,"name":"Peoria County","admin2":"143","localeAltName":null},{"geonameid":4246841,"name":"Perry County","admin2":"145","localeAltName":null},{"geonameid":4905877,"name":"Piatt County","admin2":"147","localeAltName":null},{"geonameid":4246953,"name":"Pike County","admin2":"149","localeAltName":null},{"geonameid":4247387,"name":"Pope County","admin2":"151","localeAltName":null},{"geonameid":4247655,"name":"Pulaski County","admin2":"153","localeAltName":null},{"geonameid":4906962,"name":"Putnam County","admin2":"155","localeAltName":null},{"geonameid":4247802,"name":"Randolph County","admin2":"157","localeAltName":null},{"geonameid":4248062,"name":"Richland County","admin2":"159","localeAltName":null},{"geonameid":4907910,"name":"Rock Island County","admin2":"161","localeAltName":null},{"geonameid":4248751,"name":"Saint Clair County","admin2":"163","localeAltName":null},{"geonameid":4249341,"name":"Saline County","admin2":"165","localeAltName":null},{"geonameid":4249472,"name":"Sangamon County","admin2":"167","localeAltName":null},{"geonameid":4910877,"name":"Schuyler County","admin2":"169","localeAltName":null},{"geonameid":4249615,"name":"Scott County","admin2":"171","localeAltName":null},{"geonameid":4249847,"name":"Shelby County","admin2":"173","localeAltName":null},{"geonameid":4912398,"name":"Stark County","admin2":"175","localeAltName":null},{"geonameid":4912492,"name":"Stephenson County","admin2":"177","localeAltName":null},{"geonameid":4913271,"name":"Tazewell County","admin2":"179","localeAltName":null},{"geonameid":4251707,"name":"Union County","admin2":"181","localeAltName":null},{"geonameid":4914710,"name":"Vermilion County","admin2":"183","localeAltName":null},{"geonameid":4252248,"name":"Wabash County","admin2":"185","localeAltName":null},{"geonameid":4915502,"name":"Warren County","admin2":"187","localeAltName":null},{"geonameid":4252486,"name":"Washington County","admin2":"189","localeAltName":null},{"geonameid":4252607,"name":"Wayne County","admin2":"191","localeAltName":null},{"geonameid":4252955,"name":"White County","admin2":"193","localeAltName":null},{"geonameid":4916434,"name":"Whiteside County","admin2":"195","localeAltName":null},{"geonameid":4916565,"name":"Will County","admin2":"197","localeAltName":null},{"geonameid":4253173,"name":"Williamson County","admin2":"199","localeAltName":null},{"geonameid":4916845,"name":"Winnebago County","admin2":"201","localeAltName":null},{"geonameid":4917010,"name":"Woodford County","admin2":"203","localeAltName":null}],"admin3":[],"country":{"geonameid":6252001,"country":"US","name":"United States","localeAltName":null},"alternateNames":[{"alternatenameId":2089562,"geonameid":4896861,"isoLanguage":"en","alternateName":"Illinois","isPreferredName":true,"isShortName":true,"isColloquial":false,"isHistoric":false},{"alternatenameId":2422318,"geonameid":6252001,"isoLanguage":"de","alternateName":"USA","isPreferredName":true,"isShortName":true,"isColloquial":false,"isHistoric":false}]},"__N_SSG":true}