{"pageProps":{"locale":"en","admin1":{"geonameid":4862182,"name":"Iowa","country":"US","admin1":"IA","latitude":"42.0002700","longitude":"-93.5004900","localeAltName":"Iowa"},"admin2":[{"geonameid":4846344,"name":"Adair County","admin2":"001","localeAltName":null},{"geonameid":4846362,"name":"Adams County","admin2":"003","localeAltName":null},{"geonameid":4846643,"name":"Allamakee County","admin2":"005","localeAltName":null},{"geonameid":4847063,"name":"Appanoose County","admin2":"007","localeAltName":null},{"geonameid":4847428,"name":"Audubon County","admin2":"009","localeAltName":null},{"geonameid":4848237,"name":"Benton County","admin2":"011","localeAltName":null},{"geonameid":4848699,"name":"Black Hawk County","admin2":"013","localeAltName":null},{"geonameid":4849058,"name":"Boone County","admin2":"015","localeAltName":null},{"geonameid":4849288,"name":"Bremer County","admin2":"017","localeAltName":null},{"geonameid":4849598,"name":"Buchanan County","admin2":"019","localeAltName":null},{"geonameid":4849689,"name":"Buena Vista County","admin2":"021","localeAltName":null},{"geonameid":4849935,"name":"Butler County","admin2":"023","localeAltName":null},{"geonameid":4850031,"name":"Calhoun County","admin2":"025","localeAltName":null},{"geonameid":4850488,"name":"Carroll County","admin2":"027","localeAltName":null},{"geonameid":4850583,"name":"Cass County","admin2":"029","localeAltName":null},{"geonameid":4850676,"name":"Cedar County","admin2":"031","localeAltName":null},{"geonameid":4851093,"name":"Cerro Gordo County","admin2":"033","localeAltName":null},{"geonameid":4851249,"name":"Cherokee County","admin2":"035","localeAltName":null},{"geonameid":4851303,"name":"Chickasaw County","admin2":"037","localeAltName":null},{"geonameid":4851832,"name":"Clarke County","admin2":"039","localeAltName":null},{"geonameid":4851866,"name":"Clay County","admin2":"041","localeAltName":null},{"geonameid":4851902,"name":"Clayton County","admin2":"043","localeAltName":null},{"geonameid":4852032,"name":"Clinton County","admin2":"045","localeAltName":null},{"geonameid":4853012,"name":"Crawford County","admin2":"047","localeAltName":null},{"geonameid":4853335,"name":"Dallas County","admin2":"049","localeAltName":null},{"geonameid":4853465,"name":"Davis County","admin2":"051","localeAltName":null},{"geonameid":4853590,"name":"Decatur County","admin2":"053","localeAltName":null},{"geonameid":4853709,"name":"Delaware County","admin2":"055","localeAltName":null},{"geonameid":4853838,"name":"Des Moines County","admin2":"057","localeAltName":null},{"geonameid":4853961,"name":"Dickinson County","admin2":"059","localeAltName":null},{"geonameid":4854534,"name":"Dubuque County","admin2":"061","localeAltName":null},{"geonameid":4855587,"name":"Emmet County","admin2":"063","localeAltName":null},{"geonameid":4856473,"name":"Fayette County","admin2":"065","localeAltName":null},{"geonameid":4857314,"name":"Floyd County","admin2":"067","localeAltName":null},{"geonameid":4857648,"name":"Franklin County","admin2":"069","localeAltName":null},{"geonameid":4857806,"name":"Fremont County","admin2":"071","localeAltName":null},{"geonameid":4859214,"name":"Greene County","admin2":"073","localeAltName":null},{"geonameid":4859441,"name":"Grundy County","admin2":"075","localeAltName":null},{"geonameid":4859502,"name":"Guthrie County","admin2":"077","localeAltName":null},{"geonameid":4859624,"name":"Hamilton County","admin2":"079","localeAltName":null},{"geonameid":4859678,"name":"Hancock County","admin2":"081","localeAltName":null},{"geonameid":4859771,"name":"Hardin County","admin2":"083","localeAltName":null},{"geonameid":4859901,"name":"Harrison County","admin2":"085","localeAltName":null},{"geonameid":4860353,"name":"Henry County","admin2":"087","localeAltName":null},{"geonameid":4861232,"name":"Howard County","admin2":"089","localeAltName":null},{"geonameid":4861343,"name":"Humboldt County","admin2":"091","localeAltName":null},{"geonameid":4861459,"name":"Ida County","admin2":"093","localeAltName":null},{"geonameid":4831820,"name":"Iowa County","admin2":"095","localeAltName":null},{"geonameid":4862320,"name":"Jackson County","admin2":"097","localeAltName":null},{"geonameid":4862456,"name":"Jasper County","admin2":"099","localeAltName":null},{"geonameid":4862494,"name":"Jefferson County","admin2":"101","localeAltName":null},{"geonameid":4862732,"name":"Johnson County","admin2":"103","localeAltName":null},{"geonameid":4862800,"name":"Jones County","admin2":"105","localeAltName":null},{"geonameid":4863357,"name":"Keokuk County","admin2":"107","localeAltName":null},{"geonameid":4863753,"name":"Kossuth County","admin2":"109","localeAltName":null},{"geonameid":4864395,"name":"Lee County","admin2":"111","localeAltName":null},{"geonameid":4864924,"name":"Linn County","admin2":"113","localeAltName":null},{"geonameid":4865506,"name":"Louisa County","admin2":"115","localeAltName":null},{"geonameid":4865617,"name":"Lucas County","admin2":"117","localeAltName":null},{"geonameid":4865744,"name":"Lyon County","admin2":"119","localeAltName":null},{"geonameid":4865839,"name":"Madison County","admin2":"121","localeAltName":null},{"geonameid":4865894,"name":"Mahaska County","admin2":"123","localeAltName":null},{"geonameid":4866274,"name":"Marion County","admin2":"125","localeAltName":null},{"geonameid":4866360,"name":"Marshall County","admin2":"127","localeAltName":null},{"geonameid":4867477,"name":"Mills County","admin2":"129","localeAltName":null},{"geonameid":4867612,"name":"Mitchell County","admin2":"131","localeAltName":null},{"geonameid":4867704,"name":"Monona County","admin2":"133","localeAltName":null},{"geonameid":4867729,"name":"Monroe County","admin2":"135","localeAltName":null},{"geonameid":4867788,"name":"Montgomery County","admin2":"137","localeAltName":null},{"geonameid":4868410,"name":"Muscatine County","admin2":"139","localeAltName":null},{"geonameid":4869475,"name":"O'Brien County","admin2":"141","localeAltName":null},{"geonameid":4870217,"name":"Osceola County","admin2":"143","localeAltName":null},{"geonameid":4870567,"name":"Page County","admin2":"145","localeAltName":null},{"geonameid":4870630,"name":"Palo Alto County","admin2":"147","localeAltName":null},{"geonameid":4871708,"name":"Plymouth County","admin2":"149","localeAltName":null},{"geonameid":4871736,"name":"Pocahontas County","admin2":"151","localeAltName":null},{"geonameid":4871782,"name":"Polk County","admin2":"153","localeAltName":null},{"geonameid":4871894,"name":"Pottawattamie County","admin2":"155","localeAltName":null},{"geonameid":4871919,"name":"Poweshiek County","admin2":"157","localeAltName":null},{"geonameid":4873016,"name":"Ringgold County","admin2":"159","localeAltName":null},{"geonameid":4873899,"name":"Sac County","admin2":"161","localeAltName":null},{"geonameid":4875785,"name":"Scott County","admin2":"163","localeAltName":null},{"geonameid":4876117,"name":"Shelby County","admin2":"165","localeAltName":null},{"geonameid":4876545,"name":"Sioux County","admin2":"167","localeAltName":null},{"geonameid":4877685,"name":"Story County","admin2":"169","localeAltName":null},{"geonameid":4878233,"name":"Tama County","admin2":"171","localeAltName":null},{"geonameid":4878273,"name":"Taylor County","admin2":"173","localeAltName":null},{"geonameid":4879340,"name":"Union County","admin2":"175","localeAltName":null},{"geonameid":4879999,"name":"Van Buren County","admin2":"177","localeAltName":null},{"geonameid":4880625,"name":"Wapello County","admin2":"179","localeAltName":null},{"geonameid":4880695,"name":"Warren County","admin2":"181","localeAltName":null},{"geonameid":4880748,"name":"Washington County","admin2":"183","localeAltName":null},{"geonameid":4881059,"name":"Wayne County","admin2":"185","localeAltName":null},{"geonameid":4881109,"name":"Webster County","admin2":"187","localeAltName":null},{"geonameid":4882231,"name":"Winnebago County","admin2":"189","localeAltName":null},{"geonameid":4882242,"name":"Winneshiek County","admin2":"191","localeAltName":null},{"geonameid":4882396,"name":"Woodbury County","admin2":"193","localeAltName":null},{"geonameid":4882561,"name":"Worth County","admin2":"195","localeAltName":null},{"geonameid":4882529,"name":"Wright County","admin2":"197","localeAltName":null}],"admin3":[],"country":{"geonameid":6252001,"country":"US","name":"United States","localeAltName":null},"alternateNames":[{"alternatenameId":1980290,"geonameid":4862182,"isoLanguage":"en","alternateName":"Iowa","isPreferredName":true,"isShortName":true,"isColloquial":false,"isHistoric":false},{"alternatenameId":2422318,"geonameid":6252001,"isoLanguage":"de","alternateName":"USA","isPreferredName":true,"isShortName":true,"isColloquial":false,"isHistoric":false}]},"__N_SSG":true}