{"pageProps":{"locale":"en","admin1":{"geonameid":6254926,"name":"Massachusetts","country":"US","admin1":"MA","latitude":"42.3656500","longitude":"-71.1083200","localeAltName":"Massachusetts"},"admin2":[{"geonameid":4929772,"name":"Barnstable County","admin2":"001","localeAltName":null},{"geonameid":4930396,"name":"Berkshire County","admin2":"003","localeAltName":null},{"geonameid":4931378,"name":"Bristol County","admin2":"005","localeAltName":null},{"geonameid":4935156,"name":"Dukes County","admin2":"007","localeAltName":null},{"geonameid":4935951,"name":"Essex County","admin2":"009","localeAltName":null},{"geonameid":4937280,"name":"Franklin County","admin2":"011","localeAltName":null},{"geonameid":4938741,"name":"Hampden County","admin2":"013","localeAltName":null},{"geonameid":4938757,"name":"Hampshire County","admin2":"015","localeAltName":null},{"geonameid":4943909,"name":"Middlesex County","admin2":"017","localeAltName":null},{"geonameid":4944911,"name":"Nantucket County","admin2":"019","localeAltName":null},{"geonameid":4945455,"name":"Norfolk County","admin2":"021","localeAltName":null},{"geonameid":4947607,"name":"Plymouth County","admin2":"023","localeAltName":null},{"geonameid":4952349,"name":"Suffolk County","admin2":"025","localeAltName":null},{"geonameid":4956199,"name":"Worcester County","admin2":"027","localeAltName":null}],"admin3":[],"country":{"geonameid":6252001,"country":"US","name":"United States","localeAltName":null},"alternateNames":[{"alternatenameId":2422318,"geonameid":6252001,"isoLanguage":"de","alternateName":"USA","isPreferredName":true,"isShortName":true,"isColloquial":false,"isHistoric":false},{"alternatenameId":6755490,"geonameid":6254926,"isoLanguage":"en","alternateName":"Massachusetts","isPreferredName":true,"isShortName":true,"isColloquial":false,"isHistoric":false}]},"__N_SSG":true}