{"pageProps":{"locale":"en","admin1":{"geonameid":5667009,"name":"Montana","country":"US","admin1":"MT","latitude":"47.0002500","longitude":"-109.7510200","localeAltName":"Montana"},"admin2":[{"geonameid":5639238,"name":"Beaverhead County","admin2":"001","localeAltName":null},{"geonameid":5639974,"name":"Big Horn County","admin2":"003","localeAltName":null},{"geonameid":5640934,"name":"Blaine County","admin2":"005","localeAltName":null},{"geonameid":5642059,"name":"Broadwater County","admin2":"007","localeAltName":null},{"geonameid":5643686,"name":"Carbon County","admin2":"009","localeAltName":null},{"geonameid":5643864,"name":"Carter County","admin2":"011","localeAltName":null},{"geonameid":5643929,"name":"Cascade County","admin2":"013","localeAltName":null},{"geonameid":5644870,"name":"Chouteau County","admin2":"015","localeAltName":null},{"geonameid":5647449,"name":"Custer County","admin2":"017","localeAltName":null},{"geonameid":5647744,"name":"Daniels County","admin2":"019","localeAltName":null},{"geonameid":5647905,"name":"Dawson County","admin2":"021","localeAltName":null},{"geonameid":5648270,"name":"Deer Lodge County","admin2":"023","localeAltName":null},{"geonameid":5651490,"name":"Fallon County","admin2":"025","localeAltName":null},{"geonameid":5651735,"name":"Fergus County","admin2":"027","localeAltName":null},{"geonameid":5652361,"name":"Flathead County","admin2":"029","localeAltName":null},{"geonameid":5653656,"name":"Gallatin County","admin2":"031","localeAltName":null},{"geonameid":5653782,"name":"Garfield County","admin2":"033","localeAltName":null},{"geonameid":5654267,"name":"Glacier County","admin2":"035","localeAltName":null},{"geonameid":5654674,"name":"Golden Valley County","admin2":"037","localeAltName":null},{"geonameid":5654985,"name":"Granite County","admin2":"039","localeAltName":null},{"geonameid":5657400,"name":"Hill County","admin2":"041","localeAltName":null},{"geonameid":5659534,"name":"Jefferson County","admin2":"043","localeAltName":null},{"geonameid":5660055,"name":"Judith Basin County","admin2":"045","localeAltName":null},{"geonameid":5661385,"name":"Lake County","admin2":"047","localeAltName":null},{"geonameid":5662129,"name":"Lewis and Clark County","admin2":"049","localeAltName":null},{"geonameid":5662222,"name":"Liberty County","admin2":"051","localeAltName":null},{"geonameid":5662406,"name":"Lincoln County","admin2":"053","localeAltName":null},{"geonameid":5664295,"name":"Madison County","admin2":"057","localeAltName":null},{"geonameid":5665177,"name":"McCone County","admin2":"055","localeAltName":null},{"geonameid":5665612,"name":"Meagher County","admin2":"059","localeAltName":null},{"geonameid":5666480,"name":"Mineral County","admin2":"061","localeAltName":null},{"geonameid":5666648,"name":"Missoula County","admin2":"063","localeAltName":null},{"geonameid":5667879,"name":"Musselshell County","admin2":"065","localeAltName":null},{"geonameid":5670652,"name":"Park County","admin2":"067","localeAltName":null},{"geonameid":5671200,"name":"Petroleum County","admin2":"069","localeAltName":null},{"geonameid":5671269,"name":"Phillips County","admin2":"071","localeAltName":null},{"geonameid":5672061,"name":"Pondera County","admin2":"073","localeAltName":null},{"geonameid":5672326,"name":"Powder River County","admin2":"075","localeAltName":null},{"geonameid":5672344,"name":"Powell County","admin2":"077","localeAltName":null},{"geonameid":5672408,"name":"Prairie County","admin2":"079","localeAltName":null},{"geonameid":5673204,"name":"Ravalli County","admin2":"081","localeAltName":null},{"geonameid":5673849,"name":"Richland County","admin2":"083","localeAltName":null},{"geonameid":5674655,"name":"Roosevelt County","admin2":"085","localeAltName":null},{"geonameid":5674707,"name":"Rosebud County","admin2":"087","localeAltName":null},{"geonameid":5676299,"name":"Sanders County","admin2":"089","localeAltName":null},{"geonameid":5677503,"name":"Sheridan County","admin2":"091","localeAltName":null},{"geonameid":5677822,"name":"Silver Bow County","admin2":"093","localeAltName":null},{"geonameid":5680538,"name":"Stillwater County","admin2":"095","localeAltName":null},{"geonameid":5681435,"name":"Sweet Grass County","admin2":"097","localeAltName":null},{"geonameid":5681965,"name":"Teton County","admin2":"099","localeAltName":null},{"geonameid":5682810,"name":"Toole County","admin2":"101","localeAltName":null},{"geonameid":5683061,"name":"Treasure County","admin2":"103","localeAltName":null},{"geonameid":5684246,"name":"Valley County","admin2":"105","localeAltName":null},{"geonameid":5685886,"name":"Wheatland County","admin2":"107","localeAltName":null},{"geonameid":5686294,"name":"Wibaux County","admin2":"109","localeAltName":null},{"geonameid":5687489,"name":"Yellowstone County","admin2":"111","localeAltName":null}],"admin3":[],"country":{"geonameid":6252001,"country":"US","name":"United States","localeAltName":null},"alternateNames":[{"alternatenameId":2089563,"geonameid":5667009,"isoLanguage":"en","alternateName":"Montana","isPreferredName":true,"isShortName":true,"isColloquial":false,"isHistoric":false},{"alternatenameId":2422318,"geonameid":6252001,"isoLanguage":"de","alternateName":"USA","isPreferredName":true,"isShortName":true,"isColloquial":false,"isHistoric":false}]},"__N_SSG":true}