{"pageProps":{"locale":"en","admin1":{"geonameid":5128638,"name":"New York","country":"US","admin1":"NY","latitude":"43.0003500","longitude":"-75.4999000","localeAltName":"New York"},"admin2":[{"geonameid":5106841,"name":"Albany County","admin2":"001","localeAltName":null},{"geonameid":5106997,"name":"Allegany County","admin2":"003","localeAltName":null},{"geonameid":5110253,"name":"Bronx County","admin2":"005","localeAltName":null},{"geonameid":5110365,"name":"Broome County","admin2":"007","localeAltName":null},{"geonameid":5111846,"name":"Cattaraugus County","admin2":"009","localeAltName":null},{"geonameid":5111868,"name":"Cayuga County","admin2":"011","localeAltName":null},{"geonameid":5112358,"name":"Chautauqua County","admin2":"013","localeAltName":null},{"geonameid":5112392,"name":"Chemung County","admin2":"015","localeAltName":null},{"geonameid":5112398,"name":"Chenango County","admin2":"017","localeAltName":null},{"geonameid":5112977,"name":"Clinton County","admin2":"019","localeAltName":null},{"geonameid":5113366,"name":"Columbia County","admin2":"021","localeAltName":null},{"geonameid":5113792,"name":"Cortland County","admin2":"023","localeAltName":null},{"geonameid":5114810,"name":"Delaware County","admin2":"025","localeAltName":null},{"geonameid":5115580,"name":"Dutchess County","admin2":"027","localeAltName":null},{"geonameid":5116642,"name":"Erie County","admin2":"029","localeAltName":null},{"geonameid":5116680,"name":"Essex County","admin2":"031","localeAltName":null},{"geonameid":5117867,"name":"Franklin County","admin2":"033","localeAltName":null},{"geonameid":5118116,"name":"Fulton County","admin2":"035","localeAltName":null},{"geonameid":5118380,"name":"Genesee County","admin2":"037","localeAltName":null},{"geonameid":5119355,"name":"Greene County","admin2":"039","localeAltName":null},{"geonameid":5119847,"name":"Hamilton County","admin2":"041","localeAltName":null},{"geonameid":5120548,"name":"Herkimer County","admin2":"043","localeAltName":null},{"geonameid":5122581,"name":"Jefferson County","admin2":"045","localeAltName":null},{"geonameid":6941775,"name":"Kings County","admin2":"047","localeAltName":null},{"geonameid":5124290,"name":"Lewis County","admin2":"049","localeAltName":null},{"geonameid":5124928,"name":"Livingston County","admin2":"051","localeAltName":null},{"geonameid":5125630,"name":"Madison County","admin2":"053","localeAltName":null},{"geonameid":5127305,"name":"Monroe County","admin2":"055","localeAltName":null},{"geonameid":5127354,"name":"Montgomery County","admin2":"057","localeAltName":null},{"geonameid":5128316,"name":"Nassau County","admin2":"059","localeAltName":null},{"geonameid":5128594,"name":"New York County","admin2":"061","localeAltName":null},{"geonameid":5128734,"name":"Niagara County","admin2":"063","localeAltName":null},{"geonameid":5129832,"name":"Oneida County","admin2":"065","localeAltName":null},{"geonameid":5129867,"name":"Onondaga County","admin2":"067","localeAltName":null},{"geonameid":5129891,"name":"Ontario County","admin2":"069","localeAltName":null},{"geonameid":5129915,"name":"Orange County","admin2":"071","localeAltName":null},{"geonameid":5129995,"name":"Orleans County","admin2":"073","localeAltName":null},{"geonameid":5130076,"name":"Oswego County","admin2":"075","localeAltName":null},{"geonameid":5130111,"name":"Otsego County","admin2":"077","localeAltName":null},{"geonameid":5133166,"name":"Putnam County","admin2":"079","localeAltName":null},{"geonameid":5133268,"name":"Queens County","admin2":"081","localeAltName":null},{"geonameid":5133668,"name":"Rensselaer County","admin2":"083","localeAltName":null},{"geonameid":5139559,"name":"Richmond County","admin2":"085","localeAltName":null},{"geonameid":5134189,"name":"Rockland County","admin2":"087","localeAltName":null},{"geonameid":5136325,"name":"Saratoga County","admin2":"091","localeAltName":null},{"geonameid":5136456,"name":"Schenectady County","admin2":"093","localeAltName":null},{"geonameid":5136495,"name":"Schoharie County","admin2":"095","localeAltName":null},{"geonameid":5137368,"name":"Schuyler County","admin2":"097","localeAltName":null},{"geonameid":5137620,"name":"Seneca County","admin2":"099","localeAltName":null},{"geonameid":5135484,"name":"St. Lawrence County","admin2":"089","localeAltName":null},{"geonameid":5139656,"name":"Steuben County","admin2":"101","localeAltName":null},{"geonameid":5140076,"name":"Suffolk County","admin2":"103","localeAltName":null},{"geonameid":5140135,"name":"Sullivan County","admin2":"105","localeAltName":null},{"geonameid":5141045,"name":"Tioga County","admin2":"107","localeAltName":null},{"geonameid":5141153,"name":"Tompkins County","admin2":"109","localeAltName":null},{"geonameid":5141784,"name":"Ulster County","admin2":"111","localeAltName":null},{"geonameid":5143268,"name":"Warren County","admin2":"113","localeAltName":null},{"geonameid":5143303,"name":"Washington County","admin2":"115","localeAltName":null},{"geonameid":5143455,"name":"Wayne County","admin2":"117","localeAltName":null},{"geonameid":5144050,"name":"Westchester County","admin2":"119","localeAltName":null},{"geonameid":5145163,"name":"Wyoming County","admin2":"121","localeAltName":null},{"geonameid":5145190,"name":"Yates County","admin2":"123","localeAltName":null}],"admin3":[],"country":{"geonameid":6252001,"country":"US","name":"United States","localeAltName":null},"alternateNames":[{"alternatenameId":1980360,"geonameid":5128638,"isoLanguage":"de","alternateName":"New York","isPreferredName":true,"isShortName":true,"isColloquial":false,"isHistoric":false},{"alternatenameId":1980362,"geonameid":5128638,"isoLanguage":"en","alternateName":"New York","isPreferredName":true,"isShortName":true,"isColloquial":false,"isHistoric":false},{"alternatenameId":2422318,"geonameid":6252001,"isoLanguage":"de","alternateName":"USA","isPreferredName":true,"isShortName":true,"isColloquial":false,"isHistoric":false}]},"__N_SSG":true}