{"pageProps":{"locale":"en","admin1":{"geonameid":5165418,"name":"Ohio","country":"US","admin1":"OH","latitude":"40.2503400","longitude":"-83.0001800","localeAltName":"Ohio"},"admin2":[{"geonameid":4505006,"name":"Adams County","admin2":"001","localeAltName":null},{"geonameid":5145576,"name":"Allen County","admin2":"003","localeAltName":null},{"geonameid":5146062,"name":"Ashland County","admin2":"005","localeAltName":null},{"geonameid":5146092,"name":"Ashtabula County","admin2":"007","localeAltName":null},{"geonameid":4505546,"name":"Athens County","admin2":"009","localeAltName":null},{"geonameid":5146199,"name":"Auglaize County","admin2":"011","localeAltName":null},{"geonameid":5147012,"name":"Belmont County","admin2":"013","localeAltName":null},{"geonameid":4507215,"name":"Brown County","admin2":"015","localeAltName":null},{"geonameid":4507568,"name":"Butler County","admin2":"017","localeAltName":null},{"geonameid":5149311,"name":"Carroll County","admin2":"019","localeAltName":null},{"geonameid":5149757,"name":"Champaign County","admin2":"021","localeAltName":null},{"geonameid":4508810,"name":"Clark County","admin2":"023","localeAltName":null},{"geonameid":4508924,"name":"Clermont County","admin2":"025","localeAltName":null},{"geonameid":4508988,"name":"Clinton County","admin2":"027","localeAltName":null},{"geonameid":5150853,"name":"Columbiana County","admin2":"029","localeAltName":null},{"geonameid":5151190,"name":"Coshocton County","admin2":"031","localeAltName":null},{"geonameid":5151374,"name":"Crawford County","admin2":"033","localeAltName":null},{"geonameid":5151606,"name":"Cuyahoga County","admin2":"035","localeAltName":null},{"geonameid":5151705,"name":"Darke County","admin2":"037","localeAltName":null},{"geonameid":5151865,"name":"Defiance County","admin2":"039","localeAltName":null},{"geonameid":5151896,"name":"Delaware County","admin2":"041","localeAltName":null},{"geonameid":5153362,"name":"Erie County","admin2":"043","localeAltName":null},{"geonameid":4511295,"name":"Fairfield County","admin2":"045","localeAltName":null},{"geonameid":4511521,"name":"Fayette County","admin2":"047","localeAltName":null},{"geonameid":4512214,"name":"Franklin County","admin2":"049","localeAltName":null},{"geonameid":5155347,"name":"Fulton County","admin2":"051","localeAltName":null},{"geonameid":4512438,"name":"Gallia County","admin2":"053","localeAltName":null},{"geonameid":5155556,"name":"Geauga County","admin2":"055","localeAltName":null},{"geonameid":4513280,"name":"Greene County","admin2":"057","localeAltName":null},{"geonameid":5156615,"name":"Guernsey County","admin2":"059","localeAltName":null},{"geonameid":4513583,"name":"Hamilton County","admin2":"061","localeAltName":null},{"geonameid":5156770,"name":"Hancock County","admin2":"063","localeAltName":null},{"geonameid":5156844,"name":"Hardin County","admin2":"065","localeAltName":null},{"geonameid":5156975,"name":"Harrison County","admin2":"067","localeAltName":null},{"geonameid":5157338,"name":"Henry County","admin2":"069","localeAltName":null},{"geonameid":4514204,"name":"Highland County","admin2":"071","localeAltName":null},{"geonameid":4514358,"name":"Hocking County","admin2":"073","localeAltName":null},{"geonameid":5157783,"name":"Holmes County","admin2":"075","localeAltName":null},{"geonameid":5158275,"name":"Huron County","admin2":"077","localeAltName":null},{"geonameid":4515328,"name":"Jackson County","admin2":"079","localeAltName":null},{"geonameid":5159079,"name":"Jefferson County","admin2":"081","localeAltName":null},{"geonameid":5159891,"name":"Knox County","admin2":"083","localeAltName":null},{"geonameid":5160090,"name":"Lake County","admin2":"085","localeAltName":null},{"geonameid":4516351,"name":"Lawrence County","admin2":"087","localeAltName":null},{"geonameid":5160740,"name":"Licking County","admin2":"089","localeAltName":null},{"geonameid":5161156,"name":"Logan County","admin2":"091","localeAltName":null},{"geonameid":5161272,"name":"Lorain County","admin2":"093","localeAltName":null},{"geonameid":5161413,"name":"Lucas County","admin2":"095","localeAltName":null},{"geonameid":4517365,"name":"Madison County","admin2":"097","localeAltName":null},{"geonameid":5161640,"name":"Mahoning County","admin2":"099","localeAltName":null},{"geonameid":5161911,"name":"Marion County","admin2":"101","localeAltName":null},{"geonameid":5162517,"name":"Medina County","admin2":"103","localeAltName":null},{"geonameid":4518038,"name":"Meigs County","admin2":"105","localeAltName":null},{"geonameid":5162679,"name":"Mercer County","admin2":"107","localeAltName":null},{"geonameid":5162774,"name":"Miami County","admin2":"109","localeAltName":null},{"geonameid":4518563,"name":"Monroe County","admin2":"111","localeAltName":null},{"geonameid":4518598,"name":"Montgomery County","admin2":"113","localeAltName":null},{"geonameid":4518677,"name":"Morgan County","admin2":"115","localeAltName":null},{"geonameid":5163509,"name":"Morrow County","admin2":"117","localeAltName":null},{"geonameid":4519300,"name":"Muskingum County","admin2":"119","localeAltName":null},{"geonameid":4519808,"name":"Noble County","admin2":"121","localeAltName":null},{"geonameid":5165803,"name":"Ottawa County","admin2":"123","localeAltName":null},{"geonameid":5166256,"name":"Paulding County","admin2":"125","localeAltName":null},{"geonameid":4521093,"name":"Perry County","admin2":"127","localeAltName":null},{"geonameid":4521196,"name":"Pickaway County","admin2":"129","localeAltName":null},{"geonameid":4521245,"name":"Pike County","admin2":"131","localeAltName":null},{"geonameid":5167284,"name":"Portage County","admin2":"133","localeAltName":null},{"geonameid":4521907,"name":"Preble County","admin2":"135","localeAltName":null},{"geonameid":5167574,"name":"Putnam County","admin2":"137","localeAltName":null},{"geonameid":5168041,"name":"Richland County","admin2":"139","localeAltName":null},{"geonameid":4522889,"name":"Ross County","admin2":"141","localeAltName":null},{"geonameid":5170698,"name":"Sandusky County","admin2":"143","localeAltName":null},{"geonameid":4524221,"name":"Scioto County","admin2":"145","localeAltName":null},{"geonameid":5171643,"name":"Seneca County","admin2":"147","localeAltName":null},{"geonameid":5171871,"name":"Shelby County","admin2":"149","localeAltName":null},{"geonameid":5172936,"name":"Stark County","admin2":"151","localeAltName":null},{"geonameid":5173386,"name":"Summit County","admin2":"153","localeAltName":null},{"geonameid":5174418,"name":"Trumbull County","admin2":"155","localeAltName":null},{"geonameid":5174499,"name":"Tuscarawas County","admin2":"157","localeAltName":null},{"geonameid":5174669,"name":"Union County","admin2":"159","localeAltName":null},{"geonameid":5175012,"name":"Van Wert County","admin2":"161","localeAltName":null},{"geonameid":4527250,"name":"Vinton County","admin2":"163","localeAltName":null},{"geonameid":4527624,"name":"Warren County","admin2":"165","localeAltName":null},{"geonameid":4527654,"name":"Washington County","admin2":"167","localeAltName":null},{"geonameid":5175898,"name":"Wayne County","admin2":"169","localeAltName":null},{"geonameid":5176872,"name":"Williams County","admin2":"171","localeAltName":null},{"geonameid":5177229,"name":"Wood County","admin2":"173","localeAltName":null},{"geonameid":5177434,"name":"Wyandot County","admin2":"175","localeAltName":null}],"admin3":[],"country":{"geonameid":6252001,"country":"US","name":"United States","localeAltName":null},"alternateNames":[{"alternatenameId":2089549,"geonameid":5165418,"isoLanguage":"en","alternateName":"Ohio","isPreferredName":true,"isShortName":true,"isColloquial":false,"isHistoric":false},{"alternatenameId":2422318,"geonameid":6252001,"isoLanguage":"de","alternateName":"USA","isPreferredName":true,"isShortName":true,"isColloquial":false,"isHistoric":false}]},"__N_SSG":true}