{"pageProps":{"locale":"en","admin1":{"geonameid":5744337,"name":"Oregon","country":"US","admin1":"OR","latitude":"44.0001300","longitude":"-120.5013900","localeAltName":"Oregon"},"admin2":[{"geonameid":5712180,"name":"Baker County","admin2":"001","localeAltName":null},{"geonameid":5713677,"name":"Benton County","admin2":"003","localeAltName":null},{"geonameid":5719297,"name":"Clackamas County","admin2":"005","localeAltName":null},{"geonameid":5719408,"name":"Clatsop County","admin2":"007","localeAltName":null},{"geonameid":5720173,"name":"Columbia County","admin2":"009","localeAltName":null},{"geonameid":5720502,"name":"Coos County","admin2":"011","localeAltName":null},{"geonameid":5721611,"name":"Crook County","admin2":"013","localeAltName":null},{"geonameid":5721936,"name":"Curry County","admin2":"015","localeAltName":null},{"geonameid":5722958,"name":"Deschutes County","admin2":"017","localeAltName":null},{"geonameid":5723759,"name":"Douglas County","admin2":"019","localeAltName":null},{"geonameid":5728364,"name":"Gilliam County","admin2":"021","localeAltName":null},{"geonameid":5729054,"name":"Grant County","admin2":"023","localeAltName":null},{"geonameid":5730293,"name":"Harney County","admin2":"025","localeAltName":null},{"geonameid":5731767,"name":"Hood River County","admin2":"027","localeAltName":null},{"geonameid":5733351,"name":"Jackson County","admin2":"029","localeAltName":null},{"geonameid":5733534,"name":"Jefferson County","admin2":"031","localeAltName":null},{"geonameid":5734120,"name":"Josephine County","admin2":"033","localeAltName":null},{"geonameid":5735237,"name":"Klamath County","admin2":"035","localeAltName":null},{"geonameid":5735647,"name":"Lake County","admin2":"037","localeAltName":null},{"geonameid":5735869,"name":"Lane County","admin2":"039","localeAltName":null},{"geonameid":5736643,"name":"Lincoln County","admin2":"041","localeAltName":null},{"geonameid":5736713,"name":"Linn County","admin2":"043","localeAltName":null},{"geonameid":5738839,"name":"Malheur County","admin2":"045","localeAltName":null},{"geonameid":5739051,"name":"Marion County","admin2":"047","localeAltName":null},{"geonameid":5741531,"name":"Morrow County","admin2":"049","localeAltName":null},{"geonameid":5742126,"name":"Multnomah County","admin2":"051","localeAltName":null},{"geonameid":5746351,"name":"Polk County","admin2":"053","localeAltName":null},{"geonameid":5751614,"name":"Sherman County","admin2":"055","localeAltName":null},{"geonameid":5756780,"name":"Tillamook County","admin2":"057","localeAltName":null},{"geonameid":5758058,"name":"Umatilla County","admin2":"059","localeAltName":null},{"geonameid":5758120,"name":"Union County","admin2":"061","localeAltName":null},{"geonameid":5759046,"name":"Wallowa County","admin2":"063","localeAltName":null},{"geonameid":5759298,"name":"Wasco County","admin2":"065","localeAltName":null},{"geonameid":5759333,"name":"Washington County","admin2":"067","localeAltName":null},{"geonameid":5760229,"name":"Wheeler County","admin2":"069","localeAltName":null},{"geonameid":5761960,"name":"Yamhill County","admin2":"071","localeAltName":null}],"admin3":[],"country":{"geonameid":6252001,"country":"US","name":"United States","localeAltName":null},"alternateNames":[{"alternatenameId":1894740,"geonameid":5744337,"isoLanguage":"en","alternateName":"Oregon","isPreferredName":true,"isShortName":true,"isColloquial":false,"isHistoric":false},{"alternatenameId":2422318,"geonameid":6252001,"isoLanguage":"de","alternateName":"USA","isPreferredName":true,"isShortName":true,"isColloquial":false,"isHistoric":false}]},"__N_SSG":true}