{"pageProps":{"locale":"en","admin1":{"geonameid":4597040,"name":"South Carolina","country":"US","admin1":"SC","latitude":"34.0004300","longitude":"-81.0000900","localeAltName":"South Carolina"},"admin2":[{"geonameid":4568959,"name":"Abbeville County","admin2":"001","localeAltName":null},{"geonameid":4569073,"name":"Aiken County","admin2":"003","localeAltName":null},{"geonameid":4569210,"name":"Allendale County","admin2":"005","localeAltName":null},{"geonameid":4569313,"name":"Anderson County","admin2":"007","localeAltName":null},{"geonameid":4569930,"name":"Bamberg County","admin2":"009","localeAltName":null},{"geonameid":4570020,"name":"Barnwell County","admin2":"011","localeAltName":null},{"geonameid":4570292,"name":"Beaufort County","admin2":"013","localeAltName":null},{"geonameid":4570707,"name":"Berkeley County","admin2":"015","localeAltName":null},{"geonameid":4573075,"name":"Calhoun County","admin2":"017","localeAltName":null},{"geonameid":4574328,"name":"Charleston County","admin2":"019","localeAltName":null},{"geonameid":4574428,"name":"Cherokee County","admin2":"021","localeAltName":null},{"geonameid":4574531,"name":"Chester County","admin2":"023","localeAltName":null},{"geonameid":4574554,"name":"Chesterfield County","admin2":"025","localeAltName":null},{"geonameid":4574857,"name":"Clarendon County","admin2":"027","localeAltName":null},{"geonameid":4575230,"name":"Colleton County","admin2":"029","localeAltName":null},{"geonameid":4576323,"name":"Darlington County","admin2":"031","localeAltName":null},{"geonameid":4576657,"name":"Dillon County","admin2":"033","localeAltName":null},{"geonameid":4576822,"name":"Dorchester County","admin2":"035","localeAltName":null},{"geonameid":4577533,"name":"Edgefield County","admin2":"037","localeAltName":null},{"geonameid":4578064,"name":"Fairfield County","admin2":"039","localeAltName":null},{"geonameid":4578745,"name":"Florence County","admin2":"041","localeAltName":null},{"geonameid":4579666,"name":"Georgetown County","admin2":"043","localeAltName":null},{"geonameid":4580549,"name":"Greenville County","admin2":"045","localeAltName":null},{"geonameid":4580575,"name":"Greenwood County","admin2":"047","localeAltName":null},{"geonameid":4580988,"name":"Hampton County","admin2":"049","localeAltName":null},{"geonameid":4582287,"name":"Horry County","admin2":"051","localeAltName":null},{"geonameid":4583318,"name":"Jasper County","admin2":"053","localeAltName":null},{"geonameid":4583989,"name":"Kershaw County","admin2":"055","localeAltName":null},{"geonameid":4584561,"name":"Lancaster County","admin2":"057","localeAltName":null},{"geonameid":4584742,"name":"Laurens County","admin2":"059","localeAltName":null},{"geonameid":4584845,"name":"Lee County","admin2":"061","localeAltName":null},{"geonameid":4585002,"name":"Lexington County","admin2":"063","localeAltName":null},{"geonameid":4586272,"name":"Marion County","admin2":"067","localeAltName":null},{"geonameid":4586301,"name":"Marlboro County","admin2":"069","localeAltName":null},{"geonameid":4586645,"name":"McCormick County","admin2":"065","localeAltName":null},{"geonameid":4589213,"name":"Newberry County","admin2":"071","localeAltName":null},{"geonameid":4589892,"name":"Oconee County","admin2":"073","localeAltName":null},{"geonameid":4590186,"name":"Orangeburg County","admin2":"075","localeAltName":null},{"geonameid":4590954,"name":"Pickens County","admin2":"077","localeAltName":null},{"geonameid":4592843,"name":"Richland County","admin2":"079","localeAltName":null},{"geonameid":4594698,"name":"Saluda County","admin2":"081","localeAltName":null},{"geonameid":4597204,"name":"Spartanburg County","admin2":"083","localeAltName":null},{"geonameid":4597954,"name":"Sumter County","admin2":"085","localeAltName":null},{"geonameid":4599283,"name":"Union County","admin2":"087","localeAltName":null},{"geonameid":4601150,"name":"Williamsburg County","admin2":"089","localeAltName":null},{"geonameid":4601709,"name":"York County","admin2":"091","localeAltName":null}],"admin3":[],"country":{"geonameid":6252001,"country":"US","name":"United States","localeAltName":null},"alternateNames":[{"alternatenameId":2089561,"geonameid":4597040,"isoLanguage":"en","alternateName":"South Carolina","isPreferredName":true,"isShortName":true,"isColloquial":false,"isHistoric":false},{"alternatenameId":2422318,"geonameid":6252001,"isoLanguage":"de","alternateName":"USA","isPreferredName":true,"isShortName":true,"isColloquial":false,"isHistoric":false}]},"__N_SSG":true}