{"pageProps":{"locale":"ro","admin2":{"geonameid":674882,"name":"Comuna Leordeni","country":"RO","admin1":"03","admin2":"16757","admin3":"","latitude":"44.7911700","longitude":"25.1629900"},"admin1":{"geonameid":686192,"name":"Argeş","admin1":"03"},"locations":[{"geonameid":685806,"name":"Băila","admin3":""},{"geonameid":685591,"name":"Baloteasca","admin3":""},{"geonameid":684838,"name":"Bântău","admin3":""},{"geonameid":683419,"name":"Budișteni","admin3":""},{"geonameid":681613,"name":"Cârciumăreşti","admin3":""},{"geonameid":681692,"name":"Ciolcești","admin3":""},{"geonameid":681443,"name":"Ciulnița","admin3":""},{"geonameid":680448,"name":"Cotu Malului","admin3":""},{"geonameid":677069,"name":"Glâmbocata","admin3":""},{"geonameid":677066,"name":"Glâmbocata-Deal","admin3":""},{"geonameid":677032,"name":"Glodu","admin3":""},{"geonameid":674885,"name":"Leordeni","admin3":""},{"geonameid":673698,"name":"Măţăoana","admin3":""},{"geonameid":673003,"name":"Moara Mocanului","admin3":""},{"geonameid":669548,"name":"Prundeni","admin3":""},{"geonameid":669544,"name":"Prundu","admin3":""},{"geonameid":667635,"name":"Schitu Scoicești","admin3":""}],"admin3":[],"alternateNames":[]},"__N_SSG":true}