{"pageProps":{"locale":"en","admin2":{"geonameid":5226441,"name":"Bon Homme County","country":"US","admin1":"SD","admin2":"009","admin3":"","latitude":"42.9883700","longitude":"-97.8846300","localeAltName":null},"admin1":{"geonameid":5769223,"name":"South Dakota","admin1":"SD","localeAltName":"South Dakota"},"locations":[{"geonameid":5226101,"name":"Avon","admin3":"02900","localeAltName":null},{"geonameid":5231735,"name":"Scotland","admin3":"57940","localeAltName":null},{"geonameid":5232077,"name":"Springfield","admin3":"60660","localeAltName":null},{"geonameid":5232489,"name":"Tyndall","admin3":"64860","localeAltName":null}],"admin3":[{"geonameid":5226103,"name":"City of Avon","admin3":"02900","localeAltName":null},{"geonameid":5230086,"name":"Unorganized Territory of Northeast Bon Homme","admin3":"45550"},{"geonameid":5230095,"name":"Unorganized Territory of Northwest Bon Homme","admin3":"45790"},{"geonameid":5231738,"name":"City of Scotland","admin3":"57940","localeAltName":null},{"geonameid":5231971,"name":"Unorganized Territory of Southeast Bon Homme","admin3":"59846"},{"geonameid":5231979,"name":"Unorganized Territory of Southwest Bon Homme","admin3":"59950"},{"geonameid":5232082,"name":"City of Springfield","admin3":"60660","localeAltName":null},{"geonameid":5232302,"name":"Town of Tabor","admin3":"62820"},{"geonameid":5232492,"name":"City of Tyndall","admin3":"64860","localeAltName":null}],"alternateNames":[{"alternatenameId":2089551,"geonameid":5769223,"isoLanguage":"en","alternateName":"South Dakota","isPreferredName":true,"isShortName":true,"isColloquial":false,"isHistoric":false}]},"__N_SSG":true}