{"pageProps":{"locale":"en","admin2":{"geonameid":5226536,"name":"Brookings County","country":"US","admin1":"SD","admin2":"011","admin3":"","latitude":"44.3696800","longitude":"-96.7904200","localeAltName":null},"admin1":{"geonameid":5769223,"name":"South Dakota","admin1":"SD","localeAltName":"South Dakota"},"locations":[{"geonameid":5226090,"name":"Aurora","admin3":"02780","localeAltName":null},{"geonameid":5226534,"name":"Brookings","admin3":"07580","localeAltName":null},{"geonameid":5227572,"name":"Elkton","admin3":"18700","localeAltName":null},{"geonameid":5232637,"name":"Volga","admin3":"67700","localeAltName":null}],"admin3":[{"geonameid":5225886,"name":"Township of Afton","admin3":"00380"},{"geonameid":5225958,"name":"Township of Alton","admin3":"01260"},{"geonameid":5226033,"name":"Township of Argo","admin3":"02100"},{"geonameid":5226095,"name":"Town of Aurora","admin3":"02780","localeAltName":null},{"geonameid":5226097,"name":"Township of Aurora","admin3":"02820"},{"geonameid":5226150,"name":"Township of Bangor","admin3":"03460"},{"geonameid":5226542,"name":"City of Brookings","admin3":"07580","localeAltName":null},{"geonameid":5226543,"name":"Township of Brookings","admin3":"07620"},{"geonameid":5226559,"name":"City of Bruce","admin3":"07740"},{"geonameid":5226644,"name":"Town of Bushnell","admin3":"08820"},{"geonameid":5227573,"name":"City of Elkton","admin3":"18700","localeAltName":null},{"geonameid":5227574,"name":"Township of Elkton","admin3":"18740"},{"geonameid":5227671,"name":"Township of Eureka","admin3":"20140"},{"geonameid":5229151,"name":"Township of Lake Hendricks","admin3":"35380"},{"geonameid":5229180,"name":"Township of Lake Sinai","admin3":"35580"},{"geonameid":5229211,"name":"Township of Laketon","admin3":"35620"},{"geonameid":5229666,"name":"Township of Medary","admin3":"41780"},{"geonameid":5230147,"name":"Township of Oak Lake","admin3":"46340"},{"geonameid":5230164,"name":"Township of Oakwood","admin3":"46440"},{"geonameid":5230265,"name":"Township of Oslo","admin3":"47860"},{"geonameid":5230319,"name":"Township of Parnell","admin3":"48540"},{"geonameid":5230638,"name":"Township of Preston","admin3":"51900"},{"geonameid":5230826,"name":"Township of Richland","admin3":"54460"},{"geonameid":5231795,"name":"Township of Sherman","admin3":"58460"},{"geonameid":5231846,"name":"Town of Sinai","admin3":"58900"},{"geonameid":5232137,"name":"Township of Sterling","admin3":"61620"},{"geonameid":5232396,"name":"Township of Trenton","admin3":"63980"},{"geonameid":5232638,"name":"City of Volga","admin3":"67700","localeAltName":null},{"geonameid":5232639,"name":"Township of Volga","admin3":"67740"},{"geonameid":5232916,"name":"City of White","admin3":"70940"},{"geonameid":5232998,"name":"Township of Winsor","admin3":"72260"}],"alternateNames":[{"alternatenameId":2089551,"geonameid":5769223,"isoLanguage":"en","alternateName":"South Dakota","isPreferredName":true,"isShortName":true,"isColloquial":false,"isHistoric":false}]},"__N_SSG":true}