{"pageProps":{"locale":"en","admin2":{"geonameid":5226849,"name":"Charles Mix County","country":"US","admin1":"SD","admin2":"023","admin3":"","latitude":"43.2079100","longitude":"-98.5878900","localeAltName":null},"admin1":{"geonameid":5769223,"name":"South Dakota","admin1":"SD","localeAltName":"South Dakota"},"locations":[{"geonameid":5229103,"name":"Lake Andes","admin3":"35100","localeAltName":null},{"geonameid":5230472,"name":"Platte","admin3":"50260","localeAltName":null},{"geonameid":5232661,"name":"Wagner","admin3":"68020","localeAltName":null}],"admin3":[{"geonameid":5226576,"name":"Township of Bryan","admin3":"07940"},{"geonameid":5226749,"name":"Township of Carroll","admin3":"10100"},{"geonameid":5226918,"name":"Township of Choteau Creek","admin3":"11940"},{"geonameid":5227207,"name":"Town of Dante","admin3":"15420"},{"geonameid":5227212,"name":"Township of Darlington","admin3":"15460"},{"geonameid":5227831,"name":"Township of Forbes","admin3":"22020"},{"geonameid":5228014,"name":"City of Geddes","admin3":"23980"},{"geonameid":5228127,"name":"Township of Goose Lake","admin3":"24900"},{"geonameid":5228288,"name":"Township of Hamilton","admin3":"26700"},{"geonameid":5228469,"name":"Township of Highland","admin3":"28740"},{"geonameid":5228631,"name":"Township of Howard","admin3":"30380"},{"geonameid":5228780,"name":"Township of Jackson","admin3":"32220"},{"geonameid":5228965,"name":"Township of Kennedy","admin3":"33660"},{"geonameid":5229068,"name":"Township of La Roche","admin3":"36020"},{"geonameid":5229106,"name":"City of Lake Andes","admin3":"35100","localeAltName":null},{"geonameid":5229149,"name":"Township of Lake George","admin3":"35340"},{"geonameid":5229246,"name":"Township of Lawrence","admin3":"36100"},{"geonameid":5229404,"name":"Township of Lone Tree","admin3":"38620"},{"geonameid":5229840,"name":"Township of Moore","admin3":"43580"},{"geonameid":5230413,"name":"Town of Pickstown","admin3":"49460"},{"geonameid":5230446,"name":"Township of Plain Center","admin3":"49820"},{"geonameid":5230480,"name":"City of Platte","admin3":"50260","localeAltName":null},{"geonameid":5230481,"name":"Township of Platte","admin3":"50300"},{"geonameid":5230721,"name":"Town of Ravinia","admin3":"53220"},{"geonameid":5230763,"name":"Township of Ree","admin3":"53900"},{"geonameid":5230805,"name":"Township of Rhoda","admin3":"54340"},{"geonameid":5230979,"name":"Township of Rouse","admin3":"56500"},{"geonameid":5231815,"name":"Township of Signal","admin3":"58740"},{"geonameid":5232669,"name":"City of Wagner","admin3":"68020","localeAltName":null},{"geonameid":5232672,"name":"Township of Wahehe","admin3":"68060"},{"geonameid":5232936,"name":"Township of White Swan","admin3":"71500"}],"alternateNames":[{"alternatenameId":2089551,"geonameid":5769223,"isoLanguage":"en","alternateName":"South Dakota","isPreferredName":true,"isShortName":true,"isColloquial":false,"isHistoric":false}]},"__N_SSG":true}