{"pageProps":{"locale":"en","admin2":{"geonameid":5228291,"name":"Hamlin County","country":"US","admin1":"SD","admin2":"057","admin3":"","latitude":"44.6737600","longitude":"-97.1883300","localeAltName":null},"admin1":{"geonameid":5769223,"name":"South Dakota","admin1":"SD","localeAltName":"South Dakota"},"locations":[{"geonameid":5226762,"name":"Castlewood","admin3":"10500","localeAltName":null},{"geonameid":5227651,"name":"Estelline","admin3":"19980","localeAltName":null}],"admin3":[{"geonameid":5226500,"name":"Township of Brantford","admin3":"07020"},{"geonameid":5226580,"name":"City of Bryant","admin3":"08060"},{"geonameid":5226764,"name":"City of Castlewood","admin3":"10500","localeAltName":null},{"geonameid":5226765,"name":"Township of Castlewood","admin3":"10540"},{"geonameid":5226950,"name":"Township of Cleveland","admin3":"12860"},{"geonameid":5227281,"name":"Township of Dempster","admin3":"16140"},{"geonameid":5227341,"name":"Township of Dixon","admin3":"16740"},{"geonameid":5227653,"name":"City of Estelline","admin3":"19980","localeAltName":null},{"geonameid":5227654,"name":"Township of Estelline","admin3":"20020"},{"geonameid":5227819,"name":"Township of Florence","admin3":"21860"},{"geonameid":5227991,"name":"Township of Garfield","admin3":"23660"},{"geonameid":5228294,"name":"Township of Hamlin","admin3":"26780"},{"geonameid":5228383,"name":"Town of Hayti","admin3":"27820"},{"geonameid":5228384,"name":"Township of Hayti","admin3":"27860"},{"geonameid":5228390,"name":"Town of Hazel","admin3":"27940"},{"geonameid":5229166,"name":"City of Lake Norden","admin3":"35460"},{"geonameid":5230026,"name":"Township of Norden","admin3":"45340"},{"geonameid":5230236,"name":"Township of Opdahl","admin3":"47300"},{"geonameid":5230285,"name":"Township of Oxford","admin3":"48060"}],"alternateNames":[{"alternatenameId":2089551,"geonameid":5769223,"isoLanguage":"en","alternateName":"South Dakota","isPreferredName":true,"isShortName":true,"isColloquial":false,"isHistoric":false}]},"__N_SSG":true}