{"pageProps":{"locale":"en","admin2":{"geonameid":5229494,"name":"Lyman County","country":"US","admin1":"SD","admin2":"085","admin3":"","latitude":"43.8958200","longitude":"-99.8473800","localeAltName":null},"admin1":{"geonameid":5769223,"name":"South Dakota","admin1":"SD","localeAltName":"South Dakota"},"locations":[{"geonameid":5229455,"name":"Lower Brule","admin3":"39190","localeAltName":null},{"geonameid":5768099,"name":"Presho","admin3":"51820","localeAltName":null}],"admin3":[{"geonameid":5226126,"name":"Township of Bailey","admin3":"03220"},{"geonameid":5228739,"name":"Township of Iona","admin3":"31740"},{"geonameid":5228961,"name":"Town of Kennebec","admin3":"33580"},{"geonameid":5230134,"name":"Town of Oacoma","admin3":"46180"},{"geonameid":5230135,"name":"Township of Oacoma","admin3":"46220"},{"geonameid":5230557,"name":"Township of Pleasant","admin3":"50540"},{"geonameid":5230783,"name":"Town of Reliance","admin3":"54020"},{"geonameid":5230798,"name":"Township of Rex","admin3":"54260"},{"geonameid":5230937,"name":"Township of Rose","admin3":"55860"},{"geonameid":5231956,"name":"Unorganized Territory of Central Lyman","admin3":"11154"},{"geonameid":5768094,"name":"Township of Pratt","admin3":"51780"},{"geonameid":5768102,"name":"City of Presho","admin3":"51820","localeAltName":null},{"geonameid":5770035,"name":"Township of Vivian","admin3":"67660"},{"geonameid":7274877,"name":"Unorganized Territory of East Lyman","admin3":"17845"},{"geonameid":7274895,"name":"Unorganized Territory of Lower Brule","admin3":"39190","localeAltName":null},{"geonameid":7274904,"name":"Unorganized Territory of West Lyman","admin3":"70398"}],"alternateNames":[{"alternatenameId":2089551,"geonameid":5769223,"isoLanguage":"en","alternateName":"South Dakota","isPreferredName":true,"isShortName":true,"isColloquial":false,"isHistoric":false}]},"__N_SSG":true}