{"pageProps":{"locale":"en","admin2":{"geonameid":5229775,"name":"Miner County","country":"US","admin1":"SD","admin2":"097","admin3":"","latitude":"44.0219500","longitude":"-97.6102500","localeAltName":null},"admin1":{"geonameid":5769223,"name":"South Dakota","admin1":"SD","localeAltName":"South Dakota"},"locations":[{"geonameid":5228623,"name":"Howard","admin3":"30460","localeAltName":null}],"admin3":[{"geonameid":5225873,"name":"Township of Adams","admin3":"00300"},{"geonameid":5226207,"name":"Township of Beaver","admin3":"04100"},{"geonameid":5226221,"name":"Township of Belleview","admin3":"04500"},{"geonameid":5226714,"name":"Town of Canova","admin3":"09420"},{"geonameid":5226715,"name":"Township of Canova","admin3":"09460"},{"geonameid":5226753,"name":"City of Carthage","admin3":"10220"},{"geonameid":5226754,"name":"Township of Carthage","admin3":"10260"},{"geonameid":5226943,"name":"Township of Clearwater","admin3":"12700"},{"geonameid":5226959,"name":"Township of Clinton","admin3":"12980"},{"geonameid":5228152,"name":"Township of Grafton","admin3":"25060"},{"geonameid":5228205,"name":"Township of Green Valley","admin3":"26020"},{"geonameid":5228412,"name":"Township of Henden","admin3":"28060"},{"geonameid":5228630,"name":"City of Howard","admin3":"30460","localeAltName":null},{"geonameid":5228633,"name":"Township of Howard","admin3":"30500"},{"geonameid":5229776,"name":"Township of Miner","admin3":"42740"},{"geonameid":5230757,"name":"Township of Redstone","admin3":"53860"},{"geonameid":5230883,"name":"Township of Rock Creek","admin3":"55380"},{"geonameid":5230971,"name":"Township of Roswell","admin3":"56460"},{"geonameid":5232598,"name":"Township of Vermillion","admin3":"66780"},{"geonameid":5232621,"name":"Town of Vilas","admin3":"67340"}],"alternateNames":[{"alternatenameId":2089551,"geonameid":5769223,"isoLanguage":"en","alternateName":"South Dakota","isPreferredName":true,"isShortName":true,"isColloquial":false,"isHistoric":false}]},"__N_SSG":true}