{"pageProps":{"locale":"en","admin2":{"geonameid":5768976,"name":"Oglala Lakota County","country":"US","admin1":"SD","admin2":"102","admin3":"","latitude":"43.3355900","longitude":"-102.5516200","localeAltName":null},"admin1":{"geonameid":5769223,"name":"South Dakota","admin1":"SD","localeAltName":"South Dakota"},"locations":[{"geonameid":5766307,"name":"Kyle","admin3":"","localeAltName":null},{"geonameid":7259380,"name":"Manderson-White Horse Creek","admin3":"70415","localeAltName":null},{"geonameid":5767610,"name":"Oglala","admin3":"70415","localeAltName":null},{"geonameid":5767939,"name":"Pine Ridge","admin3":"70415","localeAltName":null},{"geonameid":5768046,"name":"Porcupine","admin3":"","localeAltName":null}],"admin3":[{"geonameid":5762613,"name":"Town of Batesland","admin3":"03860"},{"geonameid":5770262,"name":"Unorganized Territory of West Oglala Lakota","admin3":"70415","localeAltName":null}],"alternateNames":[{"alternatenameId":2089551,"geonameid":5769223,"isoLanguage":"en","alternateName":"South Dakota","isPreferredName":true,"isShortName":true,"isColloquial":false,"isHistoric":false}]},"__N_SSG":true}