{"pageProps":{"locale":"en","admin2":{"geonameid":5767840,"name":"Pennington County","country":"US","admin1":"SD","admin2":"103","admin3":"","latitude":"44.0037300","longitude":"-102.8238300","localeAltName":null},"admin1":{"geonameid":5769223,"name":"South Dakota","admin1":"SD","localeAltName":"South Dakota"},"locations":[{"geonameid":5762502,"name":"Ashland Heights","admin3":"11165","localeAltName":null},{"geonameid":5763011,"name":"Box Elder","admin3":"06620","localeAltName":null},{"geonameid":5763699,"name":"Colonial Pine Hills","admin3":"44070","localeAltName":null},{"geonameid":5765226,"name":"Green Valley","admin3":"11165","localeAltName":null},{"geonameid":5765609,"name":"Hill City","admin3":"29100","localeAltName":null},{"geonameid":5766087,"name":"Johnson Siding","admin3":"44070","localeAltName":null},{"geonameid":5767383,"name":"New Underwood","admin3":"45060","localeAltName":null},{"geonameid":5768233,"name":"Rapid City","admin3":"52980","localeAltName":null},{"geonameid":5768244,"name":"Rapid Valley","admin3":"11165","localeAltName":null},{"geonameid":5770098,"name":"Wall","admin3":"68380","localeAltName":null}],"admin3":[{"geonameid":5762499,"name":"Township of Ash","admin3":"02520"},{"geonameid":5763013,"name":"City of Box Elder","admin3":"06620","localeAltName":null},{"geonameid":5763419,"name":"Township of Castle Butte","admin3":"10380"},{"geonameid":5763464,"name":"Township of Cedar Butte","admin3":"10820"},{"geonameid":5763504,"name":"Unorganized Territory of Central Pennington","admin3":"11165","localeAltName":null},{"geonameid":5763714,"name":"Township of Conata","admin3":"13620"},{"geonameid":5763871,"name":"Township of Crooked Creek","admin3":"14700"},{"geonameid":5763987,"name":"Unorganized Territory of Dalzell Canyon","admin3":"15350"},{"geonameid":5764418,"name":"Unorganized Territory of East Central Pennington","admin3":"17730"},{"geonameid":5764682,"name":"Township of Fairview","admin3":"20900"},{"geonameid":5764788,"name":"Township of Flat Butte","admin3":"21660"},{"geonameid":5765643,"name":"City of Hill City","admin3":"29100","localeAltName":null},{"geonameid":5765793,"name":"Township of Huron","admin3":"31100"},{"geonameid":5765813,"name":"Township of Imlay","admin3":"31420"},{"geonameid":5766215,"name":"Town of Keystone","admin3":"33820"},{"geonameid":5766344,"name":"Township of Lake Creek","admin3":"35280"},{"geonameid":5766345,"name":"Township of Lake Flat","admin3":"35300"},{"geonameid":5766347,"name":"Township of Lake Hill","admin3":"35420"},{"geonameid":5767251,"name":"Unorganized Territory of Mount Rushmore","admin3":"44070","localeAltName":null},{"geonameid":5767385,"name":"City of New Underwood","admin3":"45060","localeAltName":null},{"geonameid":5767545,"name":"Unorganized Territory of Northeast Pennington","admin3":"45574"},{"geonameid":5767736,"name":"Township of Owanka","admin3":"47980"},{"geonameid":5767845,"name":"Township of Peno","admin3":"49140"},{"geonameid":5768150,"name":"Town of Quinn","admin3":"52500"},{"geonameid":5768151,"name":"Township of Quinn","admin3":"52540"},{"geonameid":5768216,"name":"Township of Rainy Creek/Cheyenne","admin3":"52720"},{"geonameid":5768234,"name":"City of Rapid City","admin3":"52980","localeAltName":null},{"geonameid":5768235,"name":"Unorganized Territory of Rapid City East","admin3":"52987"},{"geonameid":5768872,"name":"Township of Scenic","admin3":"57820"},{"geonameid":5769030,"name":"Township of Shyne","admin3":"58660"},{"geonameid":5769538,"name":"Township of Sunnyside","admin3":"62340"},{"geonameid":5770103,"name":"Town of Wall","admin3":"68380","localeAltName":null},{"geonameid":5770157,"name":"Town of Wasta","admin3":"69140"},{"geonameid":5770158,"name":"Township of Wasta","admin3":"69180"},{"geonameid":5770256,"name":"Unorganized Territory of West Pennington","admin3":"70475"}],"alternateNames":[{"alternatenameId":2089551,"geonameid":5769223,"isoLanguage":"en","alternateName":"South Dakota","isPreferredName":true,"isShortName":true,"isColloquial":false,"isHistoric":false}]},"__N_SSG":true}