{"pageProps":{"locale":"en","admin2":{"geonameid":5232458,"name":"Turner County","country":"US","admin1":"SD","admin2":"125","admin3":"","latitude":"43.3108700","longitude":"-97.1486600","localeAltName":null},"admin1":{"geonameid":5769223,"name":"South Dakota","admin1":"SD","localeAltName":"South Dakota"},"locations":[{"geonameid":5226805,"name":"Centerville","admin3":"11060","localeAltName":null},{"geonameid":5229560,"name":"Marion","admin3":"40860","localeAltName":null},{"geonameid":5230309,"name":"Parker","admin3":"48380","localeAltName":null},{"geonameid":5232604,"name":"Viborg","admin3":"67020","localeAltName":null}],"admin3":[{"geonameid":5226552,"name":"Township of Brothersfield","admin3":"07700"},{"geonameid":5226808,"name":"City of Centerville","admin3":"11060","localeAltName":null},{"geonameid":5226810,"name":"Township of Centerville","admin3":"11100"},{"geonameid":5226835,"name":"Town of Chancellor","admin3":"11380"},{"geonameid":5226868,"name":"Township of Childstown","admin3":"11900"},{"geonameid":5227198,"name":"Township of Daneville","admin3":"15380"},{"geonameid":5227221,"name":"Town of Davis","admin3":"15540"},{"geonameid":5227361,"name":"Town of Dolton","admin3":"16860"},{"geonameid":5227362,"name":"Township of Dolton","admin3":"16900"},{"geonameid":5228050,"name":"Township of Germantown","admin3":"24220"},{"geonameid":5228569,"name":"Township of Home","admin3":"29820"},{"geonameid":5228672,"name":"Township of Hurley","admin3":"31020"},{"geonameid":5228725,"name":"City of Hurley","admin3":"30980"},{"geonameid":5228747,"name":"City of Irene","admin3":"31940"},{"geonameid":5229562,"name":"City of Marion","admin3":"40860","localeAltName":null},{"geonameid":5229563,"name":"Township of Marion","admin3":"40900"},{"geonameid":5229723,"name":"Township of Middleton","admin3":"42100"},{"geonameid":5229827,"name":"Town of Monroe","admin3":"43380"},{"geonameid":5229829,"name":"Township of Monroe","admin3":"43420"},{"geonameid":5230107,"name":"Township of Norway","admin3":"45980"},{"geonameid":5230311,"name":"City of Parker","admin3":"48380","localeAltName":null},{"geonameid":5230312,"name":"Township of Parker","admin3":"48420"},{"geonameid":5230947,"name":"Township of Rosefield","admin3":"56180"},{"geonameid":5231243,"name":"Township of Salem","admin3":"57420"},{"geonameid":5232065,"name":"Township of Spring Valley","admin3":"61140"},{"geonameid":5232273,"name":"Township of Swan Lake","admin3":"62580"},{"geonameid":5232460,"name":"Township of Turner","admin3":"64500"},{"geonameid":5232606,"name":"City of Viborg","admin3":"67020","localeAltName":null}],"alternateNames":[{"alternatenameId":2089551,"geonameid":5769223,"isoLanguage":"en","alternateName":"South Dakota","isPreferredName":true,"isShortName":true,"isColloquial":false,"isHistoric":false}]},"__N_SSG":true}