{"pageProps":{"locale":"it","admin2":{"geonameid":3178795,"name":"Provincia di Chieti","country":"IT","admin1":"01","admin2":"CH","admin3":"","latitude":"42.1166700","longitude":"14.3500000","localeAltName":null},"admin1":{"geonameid":3183560,"name":"Abruzzo","admin1":"01","localeAltName":"Abruzzo"},"locations":[{"geonameid":3182915,"name":"Archi","admin3":"069002","localeAltName":null},{"geonameid":3182850,"name":"Arielli","admin3":"069004","localeAltName":null},{"geonameid":3182700,"name":"Atessa","admin3":"069005","localeAltName":null},{"geonameid":3181908,"name":"Bomba","admin3":"069006","localeAltName":null},{"geonameid":3181461,"name":"Bucchianico","admin3":"069008","localeAltName":null},{"geonameid":3180791,"name":"Canosa Sannita","admin3":"069010","localeAltName":null},{"geonameid":3180430,"name":"Carpineto Sinello","admin3":"069011","localeAltName":null},{"geonameid":3180388,"name":"Carunchio","admin3":"069012","localeAltName":null},{"geonameid":3180332,"name":"Casacanditella","admin3":"069013","localeAltName":null},{"geonameid":3180254,"name":"Casalanguida","admin3":"069014","localeAltName":null},{"geonameid":3180247,"name":"Casalbordino-Miracoli","admin3":"069015","localeAltName":null},{"geonameid":3180182,"name":"Casalincontrada","admin3":"069016","localeAltName":null},{"geonameid":3179828,"name":"Casoli","admin3":"069017","localeAltName":null},{"geonameid":3179683,"name":"Castel Frentano","admin3":"069018","localeAltName":null},{"geonameid":3179699,"name":"Castelferrato","admin3":"069094","localeAltName":null},{"geonameid":3179409,"name":"Castiglione Messer Marino","admin3":"069020","localeAltName":null},{"geonameid":3179213,"name":"Celenza sul Trigno","admin3":"069021","localeAltName":null},{"geonameid":3178796,"name":"Chieti","admin3":"069022","localeAltName":null},{"geonameid":3178404,"name":"Colledimezzo","admin3":"069026","localeAltName":null},{"geonameid":3177844,"name":"Crecchio","admin3":"069027","localeAltName":null},{"geonameid":3177692,"name":"Cupello","admin3":"069028","localeAltName":null},{"geonameid":3177210,"name":"Fara Filiorum Petri","admin3":"069030","localeAltName":null},{"geonameid":3177202,"name":"Fara San Martino","admin3":"069031","localeAltName":null},{"geonameid":3177001,"name":"Filetto","admin3":"069032","localeAltName":null},{"geonameid":3176652,"name":"Fossacesia","admin3":"069033","localeAltName":null},{"geonameid":3176605,"name":"Francavilla al Mare","admin3":"069035","localeAltName":null},{"geonameid":3176538,"name":"Fresagrandinaria","admin3":"069036","localeAltName":null},{"geonameid":3176527,"name":"Frisa","admin3":"069037","localeAltName":null},{"geonameid":3176474,"name":"Furci","admin3":"069038","localeAltName":null},{"geonameid":3176179,"name":"Gessopalena","admin3":"069040","localeAltName":null},{"geonameid":3176064,"name":"Gissi","admin3":"069041","localeAltName":null},{"geonameid":3176054,"name":"Giuliano Teatino","admin3":"069042","localeAltName":null},{"geonameid":3175709,"name":"Guardiagrele","admin3":"069043","localeAltName":null},{"geonameid":3175216,"name":"Lama dei Peligni","admin3":"069045","localeAltName":null},{"geonameid":3175173,"name":"Lanciano","admin3":"069046","localeAltName":null},{"geonameid":3174886,"name":"Lentella","admin3":"069047","localeAltName":null},{"geonameid":6535306,"name":"Liscia","admin3":"069049","localeAltName":null},{"geonameid":3173925,"name":"Marina di San Vito","admin3":"069086","localeAltName":null},{"geonameid":7290694,"name":"Marina di Vasto","admin3":"069099","localeAltName":null},{"geonameid":3173454,"name":"Miglianico","admin3":"069050","localeAltName":null},{"geonameid":3173057,"name":"Montazzoli","admin3":"069051","localeAltName":null},{"geonameid":8949724,"name":"Monte Marcone","admin3":"069005","localeAltName":null},{"geonameid":3172814,"name":"Monteodorisio","admin3":"069055","localeAltName":null},{"geonameid":3172497,"name":"Mozzagrogna","admin3":"069056","localeAltName":null},{"geonameid":3171905,"name":"Orsogna","admin3":"069057","localeAltName":null},{"geonameid":3171886,"name":"Ortona","admin3":"069058","localeAltName":null},{"geonameid":3171678,"name":"Paglieta","admin3":"069059","localeAltName":null},{"geonameid":3171611,"name":"Palena","admin3":"069060","localeAltName":null},{"geonameid":6535650,"name":"Palmoli","admin3":"069061","localeAltName":null},{"geonameid":3171557,"name":"Palombaro","admin3":"069062","localeAltName":null},{"geonameid":8949806,"name":"Parco","admin3":"069081","localeAltName":null},{"geonameid":8949897,"name":"Piane d'Archi-Quadroni","admin3":"069002","localeAltName":null},{"geonameid":8949777,"name":"Piazzano-Piana la Fara","admin3":"069005","localeAltName":null},{"geonameid":3170465,"name":"Poggiofiorito","admin3":"069067","localeAltName":null},{"geonameid":3170369,"name":"Pollutri","admin3":"069068","localeAltName":null},{"geonameid":3169830,"name":"Pretoro","admin3":"069069","localeAltName":null},{"geonameid":3169732,"name":"Quadri","admin3":"069070","localeAltName":null},{"geonameid":8949924,"name":"Quadroni-Fontolfi-Impicciaturo-Maligni","admin3":"069065","localeAltName":null},{"geonameid":3169594,"name":"Rapino","admin3":"069071","localeAltName":null},{"geonameid":3169300,"name":"Ripa Teatina","admin3":"069072","localeAltName":null},{"geonameid":6535651,"name":"Rocca San Giovanni","admin3":"069074","localeAltName":null},{"geonameid":3169130,"name":"Roccaspinalveti-Santa Giusta","admin3":"069076","localeAltName":null},{"geonameid":8378897,"name":"Sambuceto","admin3":"069081","localeAltName":null},{"geonameid":3168509,"name":"San Buono","admin3":"069079","localeAltName":null},{"geonameid":3167999,"name":"San Martino sulla Marrucina","admin3":"069082","localeAltName":null},{"geonameid":3169163,"name":"San Rocco","admin3":"069073","localeAltName":null},{"geonameid":3167751,"name":"San Salvo","admin3":"069083","localeAltName":null},{"geonameid":8949066,"name":"San Salvo Marina","admin3":"069083","localeAltName":null},{"geonameid":3167185,"name":"San Vito Chietino","admin3":"069086","localeAltName":null},{"geonameid":8949637,"name":"Sant'Amato-Nasuti","admin3":"069046","localeAltName":null},{"geonameid":3167380,"name":"Sant'Apollinare","admin3":"069086","localeAltName":null},{"geonameid":8949883,"name":"Sant'Egidio","admin3":"069059","localeAltName":null},{"geonameid":3167318,"name":"Sant'Eusanio del Sangro","admin3":"069085","localeAltName":null},{"geonameid":8950032,"name":"Santa Lucia","admin3":"069058","localeAltName":null},{"geonameid":3167539,"name":"Santa Maria Imbaro","admin3":"069084","localeAltName":null},{"geonameid":3166943,"name":"Scerni","admin3":"069087","localeAltName":null},{"geonameid":8949107,"name":"Selva","admin3":"069001","localeAltName":null},{"geonameid":3165585,"name":"Tollo","admin3":"069090","localeAltName":null},{"geonameid":3165522,"name":"Torino di Sangro","admin3":"069091","localeAltName":null},{"geonameid":3165504,"name":"Tornareccio","admin3":"069092","localeAltName":null},{"geonameid":3165470,"name":"Torrebruna","admin3":"069093","localeAltName":null},{"geonameid":3165412,"name":"Torrevecchia","admin3":"069094","localeAltName":null},{"geonameid":3165397,"name":"Torricella Peligna","admin3":"069095","localeAltName":null},{"geonameid":3165263,"name":"Treglio","admin3":"069096","localeAltName":null},{"geonameid":3164672,"name":"Vasto","admin3":"069099","localeAltName":null},{"geonameid":3164288,"name":"Villa Caldari","admin3":"069058","localeAltName":null},{"geonameid":8950280,"name":"Villa Grande","admin3":"069058","localeAltName":null},{"geonameid":3164143,"name":"Villa San Leonardo","admin3":"069058","localeAltName":null},{"geonameid":3164134,"name":"Villa Santa Maria","admin3":"069102","localeAltName":null},{"geonameid":3164213,"name":"Villamagna","admin3":"069101","localeAltName":null}],"admin3":[{"geonameid":6536400,"name":"Roccamontepiano","admin3":"069073","localeAltName":null},{"geonameid":6537472,"name":"Montebello sul Sangro","admin3":"069009"},{"geonameid":6537473,"name":"Casacanditella","admin3":"069013","localeAltName":null},{"geonameid":6537474,"name":"Castelguidone","admin3":"069019"},{"geonameid":6537475,"name":"Civitaluparella","admin3":"069023"},{"geonameid":6537476,"name":"Colledimacine","admin3":"069025"},{"geonameid":6537477,"name":"Colledimezzo","admin3":"069026","localeAltName":null},{"geonameid":6537478,"name":"Fara San Martino","admin3":"069031","localeAltName":null},{"geonameid":6537479,"name":"Fraine","admin3":"069034"},{"geonameid":6537480,"name":"Francavilla al Mare","admin3":"069035","localeAltName":null},{"geonameid":6537481,"name":"Gessopalena","admin3":"069040","localeAltName":null},{"geonameid":6537482,"name":"Giuliano Teatino","admin3":"069042","localeAltName":null},{"geonameid":6537483,"name":"Montazzoli","admin3":"069051","localeAltName":null},{"geonameid":6537484,"name":"Monteferrante","admin3":"069052"},{"geonameid":6537485,"name":"Montelapiano","admin3":"069053"},{"geonameid":6537486,"name":"Monteodorisio","admin3":"069055","localeAltName":null},{"geonameid":6537487,"name":"Orsogna","admin3":"069057","localeAltName":null},{"geonameid":6537488,"name":"Paglieta","admin3":"069059","localeAltName":null},{"geonameid":6537489,"name":"Perano","admin3":"069065","localeAltName":null},{"geonameid":6537490,"name":"Pizzoferrato","admin3":"069066"},{"geonameid":6537491,"name":"Pretoro","admin3":"069069","localeAltName":null},{"geonameid":6537492,"name":"Roio del Sangro","admin3":"069077"},{"geonameid":6537493,"name":"San Buono","admin3":"069079","localeAltName":null},{"geonameid":6537494,"name":"San Salvo","admin3":"069083","localeAltName":null},{"geonameid":6537495,"name":"Treglio","admin3":"069096","localeAltName":null},{"geonameid":6537496,"name":"Pietraferrazzana","admin3":"069103"},{"geonameid":6537497,"name":"Fallo","admin3":"069104"},{"geonameid":6538869,"name":"Atessa","admin3":"069005","localeAltName":null},{"geonameid":6538870,"name":"Bomba","admin3":"069006","localeAltName":null},{"geonameid":6538871,"name":"Bucchianico","admin3":"069008","localeAltName":null},{"geonameid":6538872,"name":"Carunchio","admin3":"069012","localeAltName":null},{"geonameid":6538873,"name":"Castiglione Messer Marino","admin3":"069020","localeAltName":null},{"geonameid":6538874,"name":"Celenza sul Trigno","admin3":"069021","localeAltName":null},{"geonameid":6538875,"name":"Cupello","admin3":"069028","localeAltName":null},{"geonameid":6538876,"name":"Dogliola","admin3":"069029"},{"geonameid":6538877,"name":"Fara Filiorum Petri","admin3":"069030","localeAltName":null},{"geonameid":6538878,"name":"Gamberale","admin3":"069039"},{"geonameid":6538879,"name":"Gissi","admin3":"069041","localeAltName":null},{"geonameid":6538880,"name":"Guilmi","admin3":"069044"},{"geonameid":6538881,"name":"Lama dei Peligni","admin3":"069045","localeAltName":null},{"geonameid":6538882,"name":"Palena","admin3":"069060","localeAltName":null},{"geonameid":6538883,"name":"Pennadomo","admin3":"069063"},{"geonameid":6538884,"name":"Poggiofiorito","admin3":"069067","localeAltName":null},{"geonameid":6538885,"name":"Pollutri","admin3":"069068","localeAltName":null},{"geonameid":6538886,"name":"Ripa Teatina","admin3":"069072","localeAltName":null},{"geonameid":6538887,"name":"Rosello","admin3":"069078"},{"geonameid":6538888,"name":"San Giovanni Lipioni","admin3":"069080"},{"geonameid":6538889,"name":"Sant'Eusanio del Sangro","admin3":"069085","localeAltName":null},{"geonameid":6538890,"name":"San Vito Chietino","admin3":"069086","localeAltName":null},{"geonameid":6538891,"name":"Schiavi di Abruzzo","admin3":"069088"},{"geonameid":6538892,"name":"Taranta Peligna","admin3":"069089"},{"geonameid":6538893,"name":"Torino di Sangro","admin3":"069091","localeAltName":null},{"geonameid":6538894,"name":"Torrebruna","admin3":"069093","localeAltName":null},{"geonameid":6538895,"name":"Tufillo","admin3":"069097"},{"geonameid":6538896,"name":"Vasto","admin3":"069099","localeAltName":null},{"geonameid":6539829,"name":"Borrello","admin3":"069007"},{"geonameid":6539830,"name":"Ortona","admin3":"069058","localeAltName":null},{"geonameid":6539831,"name":"Villa Santa Maria","admin3":"069102","localeAltName":null},{"geonameid":6540014,"name":"Archi","admin3":"069002","localeAltName":null},{"geonameid":6540015,"name":"Casoli","admin3":"069017","localeAltName":null},{"geonameid":6540016,"name":"Palombaro","admin3":"069062","localeAltName":null},{"geonameid":6540294,"name":"Casalbordino","admin3":"069015","localeAltName":null},{"geonameid":6540732,"name":"Ari","admin3":"069003"},{"geonameid":6540733,"name":"Arielli","admin3":"069004","localeAltName":null},{"geonameid":6540734,"name":"Crecchio","admin3":"069027","localeAltName":null},{"geonameid":6540735,"name":"Fresagrandinaria","admin3":"069036","localeAltName":null},{"geonameid":6540736,"name":"Pennapiedimonte","admin3":"069064"},{"geonameid":6541224,"name":"Altino","admin3":"069001","localeAltName":null},{"geonameid":6541225,"name":"Carpineto Sinello","admin3":"069011","localeAltName":null},{"geonameid":6541226,"name":"Casalanguida","admin3":"069014","localeAltName":null},{"geonameid":6541227,"name":"Frisa","admin3":"069037","localeAltName":null},{"geonameid":6541228,"name":"Guardiagrele","admin3":"069043","localeAltName":null},{"geonameid":6541229,"name":"Lentella","admin3":"069047","localeAltName":null},{"geonameid":6541230,"name":"Miglianico","admin3":"069050","localeAltName":null},{"geonameid":6541231,"name":"Montenerodomo","admin3":"069054"},{"geonameid":6541232,"name":"Quadri","admin3":"069070","localeAltName":null},{"geonameid":6541233,"name":"Rapino","admin3":"069071","localeAltName":null},{"geonameid":6541234,"name":"Santa Maria Imbaro","admin3":"069084","localeAltName":null},{"geonameid":6541235,"name":"Tornareccio","admin3":"069092","localeAltName":null},{"geonameid":6541236,"name":"Torricella Peligna","admin3":"069095","localeAltName":null},{"geonameid":6541237,"name":"Vacri","admin3":"069098"},{"geonameid":6541238,"name":"Villalfonsina","admin3":"069100"},{"geonameid":6541239,"name":"Villamagna","admin3":"069101","localeAltName":null},{"geonameid":6541458,"name":"Furci","admin3":"069038","localeAltName":null},{"geonameid":6541703,"name":"Canosa Sannita","admin3":"069010","localeAltName":null},{"geonameid":6541704,"name":"Fossacesia","admin3":"069033","localeAltName":null},{"geonameid":6541705,"name":"Lettopalena","admin3":"069048"},{"geonameid":6541706,"name":"Mozzagrogna","admin3":"069056","localeAltName":null},{"geonameid":6541707,"name":"Torrevecchia Teatina","admin3":"069094","localeAltName":null},{"geonameid":6541928,"name":"Civitella Messer Raimondo","admin3":"069024"},{"geonameid":6541929,"name":"Filetto","admin3":"069032","localeAltName":null},{"geonameid":6541930,"name":"Lanciano","admin3":"069046","localeAltName":null},{"geonameid":6541931,"name":"Roccascalegna","admin3":"069075"},{"geonameid":6541932,"name":"Scerni","admin3":"069087","localeAltName":null},{"geonameid":6541933,"name":"Tollo","admin3":"069090","localeAltName":null},{"geonameid":6542065,"name":"Roccaspinalveti","admin3":"069076","localeAltName":null},{"geonameid":6542118,"name":"Chieti","admin3":"069022","localeAltName":null},{"geonameid":6542228,"name":"San Martino sulla Marrucina","admin3":"069082","localeAltName":null},{"geonameid":6542266,"name":"Castel Frentano","admin3":"069018","localeAltName":null},{"geonameid":6542356,"name":"San Giovanni Teatino","admin3":"069081","localeAltName":null},{"geonameid":6543290,"name":"Liscia","admin3":"069049","localeAltName":null},{"geonameid":6543628,"name":"Casalincontrada","admin3":"069016","localeAltName":null},{"geonameid":6543629,"name":"Palmoli","admin3":"069061","localeAltName":null},{"geonameid":6543630,"name":"Rocca San Giovanni","admin3":"069074","localeAltName":null}],"alternateNames":[{"alternatenameId":2254448,"geonameid":3183560,"isoLanguage":"it","alternateName":"Abruzzo","isPreferredName":true,"isShortName":true,"isColloquial":false,"isHistoric":false}]},"__N_SSG":true}