{"pageProps":{"locale":"en","admin2":{"geonameid":4323288,"name":"East Baton Rouge Parish","country":"US","admin1":"LA","admin2":"033","admin3":"","latitude":"30.5382400","longitude":"-91.0956200","localeAltName":null},"admin1":{"geonameid":4331987,"name":"Louisiana","admin1":"LA","localeAltName":"Louisiana"},"locations":[{"geonameid":4315312,"name":"Baker","admin3":"","localeAltName":null},{"geonameid":4315588,"name":"Baton Rouge","admin3":"","localeAltName":null},{"geonameid":4318037,"name":"Brownsfield","admin3":"","localeAltName":null},{"geonameid":4319435,"name":"Central","admin3":"","localeAltName":null},{"geonameid":4325507,"name":"Gardere","admin3":"","localeAltName":null},{"geonameid":4326534,"name":"Greenwood","admin3":"","localeAltName":null},{"geonameid":4328435,"name":"Inniswold","admin3":"","localeAltName":null},{"geonameid":4333161,"name":"Merrydale","admin3":"","localeAltName":null},{"geonameid":4333718,"name":"Monticello","admin3":"","localeAltName":null},{"geonameid":4335754,"name":"Oak Hills Place","admin3":"","localeAltName":null},{"geonameid":4335963,"name":"Old Jefferson","admin3":"","localeAltName":null},{"geonameid":4341378,"name":"Shenandoah","admin3":"","localeAltName":null},{"geonameid":4344644,"name":"Village Saint George","admin3":"","localeAltName":null},{"geonameid":4346014,"name":"Westminster","admin3":"","localeAltName":null},{"geonameid":4346788,"name":"Zachary","admin3":"","localeAltName":null}],"admin3":[{"geonameid":11788472,"name":"City of Central","admin3":"11788472"}],"alternateNames":[{"alternatenameId":2089571,"geonameid":4331987,"isoLanguage":"en","alternateName":"Louisiana","isPreferredName":true,"isShortName":true,"isColloquial":false,"isHistoric":false}]},"__N_SSG":true}