{"pageProps":{"locale":"en","admin2":{"geonameid":4331488,"name":"Livingston Parish","country":"US","admin1":"LA","admin2":"063","admin3":"","latitude":"30.4401400","longitude":"-90.7279100","localeAltName":null},"admin1":{"geonameid":4331987,"name":"Louisiana","admin1":"LA","localeAltName":"Louisiana"},"locations":[{"geonameid":4314498,"name":"Albany","admin3":"","localeAltName":null},{"geonameid":4321988,"name":"Denham Springs","admin3":"","localeAltName":null},{"geonameid":4325242,"name":"French Settlement","admin3":"","localeAltName":null},{"geonameid":4329820,"name":"Killian","admin3":"","localeAltName":null},{"geonameid":4331485,"name":"Livingston","admin3":"","localeAltName":null},{"geonameid":4337866,"name":"Port Vincent","admin3":"","localeAltName":null},{"geonameid":4344844,"name":"Walker","admin3":"","localeAltName":null},{"geonameid":4345555,"name":"Watson","admin3":"","localeAltName":null}],"admin3":[],"alternateNames":[{"alternatenameId":2089571,"geonameid":4331987,"isoLanguage":"en","alternateName":"Louisiana","isPreferredName":true,"isShortName":true,"isColloquial":false,"isHistoric":false}]},"__N_SSG":true}