{"pageProps":{"locale":"en","admin2":{"geonameid":4050506,"name":"Campbell County","country":"US","admin1":"TN","admin2":"013","admin3":"","latitude":"36.4035100","longitude":"-84.1493800","localeAltName":null},"admin1":{"geonameid":4662168,"name":"Tennessee","admin1":"TN","localeAltName":"Tennessee"},"locations":[{"geonameid":4611691,"name":"Caryville","admin3":"","localeAltName":null},{"geonameid":4622096,"name":"Fincastle","admin3":"","localeAltName":null},{"geonameid":4631357,"name":"Hunter","admin3":"","localeAltName":null},{"geonameid":4632591,"name":"Jacksboro","admin3":"","localeAltName":null},{"geonameid":4632967,"name":"Jellico","admin3":"","localeAltName":null},{"geonameid":4635037,"name":"LaFollette","admin3":"","localeAltName":null},{"geonameid":4649400,"name":"Pine Crest","admin3":"","localeAltName":null}],"admin3":[],"alternateNames":[{"alternatenameId":2089557,"geonameid":4662168,"isoLanguage":"en","alternateName":"Tennessee","isPreferredName":true,"isShortName":true,"isColloquial":false,"isHistoric":false}]},"__N_SSG":true}