{"pageProps":{"locale":"en","admin2":{"geonameid":5800813,"name":"Lewis County","country":"US","admin1":"WA","admin2":"041","admin3":"","latitude":"46.5777300","longitude":"-122.3924100","localeAltName":null},"admin1":{"geonameid":5815135,"name":"Washington","admin1":"WA","localeAltName":"Washington"},"locations":[{"geonameid":5789683,"name":"Centralia","admin3":"","localeAltName":null},{"geonameid":5789817,"name":"Chehalis","admin3":"","localeAltName":null},{"geonameid":5794716,"name":"Fords Prairie","admin3":"","localeAltName":null},{"geonameid":5803964,"name":"Morton","admin3":"","localeAltName":null},{"geonameid":5804022,"name":"Mossyrock","admin3":"","localeAltName":null},{"geonameid":5804467,"name":"Napavine","admin3":"","localeAltName":null},{"geonameid":5805747,"name":"Onalaska","admin3":"","localeAltName":null},{"geonameid":5806391,"name":"Pe Ell","admin3":"","localeAltName":null},{"geonameid":5813681,"name":"Toledo","admin3":"","localeAltName":null},{"geonameid":5814542,"name":"Vader","admin3":"","localeAltName":null},{"geonameid":5816314,"name":"Winlock","admin3":"","localeAltName":null}],"admin3":[{"geonameid":7172834,"name":"City of Centralia","admin3":"7172834"},{"geonameid":7172841,"name":"City of Chehalis","admin3":"7172841"},{"geonameid":7173898,"name":"City of Morton","admin3":"7173898"},{"geonameid":7173901,"name":"City of Mossyrock","admin3":"7173901"},{"geonameid":7173927,"name":"City of Napavine","admin3":"7173927"},{"geonameid":7174576,"name":"City of Toledo","admin3":"7174576"},{"geonameid":7174620,"name":"City of Vader","admin3":"7174620"},{"geonameid":7174721,"name":"City of Winlock","admin3":"7174721"},{"geonameid":7175528,"name":"Town of Pe Ell","admin3":"7175528"}],"alternateNames":[{"alternatenameId":2089568,"geonameid":5815135,"isoLanguage":"en","alternateName":"Washington","isPreferredName":true,"isShortName":true,"isColloquial":false,"isHistoric":false}]},"__N_SSG":true}