{"pageProps":{"locale":"en","admin2":{"geonameid":2745904,"name":"Gemeente Vaals","country":"NL","admin1":"05","admin2":"0981","admin3":"","latitude":"50.7784800","longitude":"5.9767400","localeAltName":null},"admin1":{"geonameid":2751596,"name":"Provincie Limburg","admin1":"05","localeAltName":"Limburg"},"locations":[{"geonameid":2758023,"name":"Camerig","admin3":"","localeAltName":null},{"geonameid":2757896,"name":"Cottessen","admin3":"","localeAltName":null},{"geonameid":2754818,"name":"Harles","admin3":"","localeAltName":null},{"geonameid":2753883,"name":"Holset","admin3":"","localeAltName":null},{"geonameid":2751730,"name":"Lemiers","admin3":"","localeAltName":null},{"geonameid":2751224,"name":"Mamelis","admin3":"","localeAltName":null},{"geonameid":2750968,"name":"Melleschet","admin3":"","localeAltName":null},{"geonameid":6544807,"name":"Oud-Lemiers","admin3":"","localeAltName":null},{"geonameid":2748321,"name":"Raren","admin3":"","localeAltName":null},{"geonameid":2747895,"name":"Rott","admin3":"","localeAltName":null},{"geonameid":2745906,"name":"Vaals","admin3":"","localeAltName":null},{"geonameid":2745522,"name":"Vijlen","admin3":"","localeAltName":null},{"geonameid":2744221,"name":"Wolfhaag","admin3":"","localeAltName":null}],"admin3":[],"alternateNames":[{"alternatenameId":9073257,"geonameid":2751596,"isoLanguage":"en","alternateName":"Limburg","isPreferredName":true,"isShortName":true,"isColloquial":false,"isHistoric":false},{"alternatenameId":9073258,"geonameid":2751596,"isoLanguage":"de","alternateName":"Limburg","isPreferredName":true,"isShortName":true,"isColloquial":false,"isHistoric":false}]},"__N_SSG":true}