{"pageProps":{"locale":"en","admin2":{"geonameid":6544225,"name":"Gulpen-Wittem","country":"NL","admin1":"05","admin2":"1729","admin3":"","latitude":"50.8137400","longitude":"5.8929600","localeAltName":null},"admin1":{"geonameid":2751596,"name":"Provincie Limburg","admin1":"05","localeAltName":"Limburg"},"locations":[{"geonameid":2759295,"name":"Beertsenhoven","admin3":"","localeAltName":null},{"geonameid":2759127,"name":"Berghem","admin3":"","localeAltName":null},{"geonameid":2759004,"name":"Beutenaken","admin3":"","localeAltName":null},{"geonameid":2758928,"name":"Billinghuizen","admin3":"","localeAltName":null},{"geonameid":2758886,"name":"Bissen","admin3":"","localeAltName":null},{"geonameid":2758667,"name":"Bommerig","admin3":"","localeAltName":null},{"geonameid":2758300,"name":"Broek","admin3":"","localeAltName":null},{"geonameid":2757997,"name":"Cartils","admin3":"","localeAltName":null},{"geonameid":2757888,"name":"Crapoel","admin3":"","localeAltName":null},{"geonameid":2757862,"name":"Dal","admin3":"","localeAltName":null},{"geonameid":2757481,"name":"De Hut","admin3":"","localeAltName":null},{"geonameid":2756879,"name":"Diependal","admin3":"","localeAltName":null},{"geonameid":6544710,"name":"Dijk","admin3":"","localeAltName":null},{"geonameid":2756204,"name":"Elkenrade","admin3":"","localeAltName":null},{"geonameid":2756152,"name":"Elzet","admin3":"","localeAltName":null},{"geonameid":2756056,"name":"Epen","admin3":"","localeAltName":null},{"geonameid":2756055,"name":"Eperheide","admin3":"","localeAltName":null},{"geonameid":2755999,"name":"Etenaken","admin3":"","localeAltName":null},{"geonameid":2755980,"name":"Euverem","admin3":"","localeAltName":null},{"geonameid":2755941,"name":"Eys","admin3":"","localeAltName":null},{"geonameid":2755939,"name":"Eyserheide","admin3":"","localeAltName":null},{"geonameid":6544724,"name":"Gracht Burggraaf","admin3":"","localeAltName":null},{"geonameid":2755045,"name":"Gulpen","admin3":"","localeAltName":null},{"geonameid":2754555,"name":"Heijenrath","admin3":"","localeAltName":null},{"geonameid":2754467,"name":"Helle","admin3":"","localeAltName":null},{"geonameid":2754068,"name":"Hilleshagen","admin3":"","localeAltName":null},{"geonameid":2753968,"name":"HÃ¶fke","admin3":"","localeAltName":null},{"geonameid":6544712,"name":"Hurpesch","admin3":"","localeAltName":null},{"geonameid":2753317,"name":"Ingber","admin3":"","localeAltName":null},{"geonameid":2753065,"name":"Kapolder","admin3":"","localeAltName":null},{"geonameid":2752796,"name":"Kleeberg","admin3":"","localeAltName":null},{"geonameid":2752387,"name":"Kosberg","admin3":"","localeAltName":null},{"geonameid":2752148,"name":"Kuttingen","admin3":"","localeAltName":null},{"geonameid":2751978,"name":"Landsrade","admin3":"","localeAltName":null},{"geonameid":2751077,"name":"Mechelen","admin3":"","localeAltName":null},{"geonameid":2750042,"name":"Nijswiller","admin3":"","localeAltName":null},{"geonameid":2748847,"name":"Overeys","admin3":"","localeAltName":null},{"geonameid":2748845,"name":"Overgeul","admin3":"","localeAltName":null},{"geonameid":2748712,"name":"Partij","admin3":"","localeAltName":null},{"geonameid":2748644,"name":"Pesaken","admin3":"","localeAltName":null},{"geonameid":2748614,"name":"Piepert","admin3":"","localeAltName":null},{"geonameid":2748573,"name":"Plaat","admin3":"","localeAltName":null},{"geonameid":2748258,"name":"Reijmerstok","admin3":"","localeAltName":null},{"geonameid":2747580,"name":"Schilberg","admin3":"","localeAltName":null},{"geonameid":2747411,"name":"Schweiberg","admin3":"","localeAltName":null},{"geonameid":2747304,"name":"Sinselbeek","admin3":"","localeAltName":null},{"geonameid":2747176,"name":"Slenaken","admin3":"","localeAltName":null},{"geonameid":2746679,"name":"Stokhem","admin3":"","localeAltName":null},{"geonameid":2746415,"name":"Terpoorten","admin3":"","localeAltName":null},{"geonameid":2746391,"name":"Terziet","admin3":"","localeAltName":null},{"geonameid":2746154,"name":"Trintelen","admin3":"","localeAltName":null},{"geonameid":2745083,"name":"Wahlwiller","admin3":"","localeAltName":null},{"geonameid":2744958,"name":"Waterop","admin3":"","localeAltName":null},{"geonameid":2744477,"name":"Wijlre","admin3":"","localeAltName":null},{"geonameid":2744287,"name":"Wittem","admin3":"","localeAltName":null}],"admin3":[],"alternateNames":[{"alternatenameId":9073257,"geonameid":2751596,"isoLanguage":"en","alternateName":"Limburg","isPreferredName":true,"isShortName":true,"isColloquial":false,"isHistoric":false},{"alternatenameId":9073258,"geonameid":2751596,"isoLanguage":"de","alternateName":"Limburg","isPreferredName":true,"isShortName":true,"isColloquial":false,"isHistoric":false}]},"__N_SSG":true}