{"pageProps":{"locale":"en","admin2":{"geonameid":4551067,"name":"Sequoyah County","country":"US","admin1":"OK","admin2":"135","admin3":"","latitude":"35.4953500","longitude":"-94.7552400","localeAltName":null},"admin1":{"geonameid":4544379,"name":"Oklahoma","admin1":"OK","localeAltName":"Oklahoma"},"locations":[{"geonameid":4531310,"name":"Brent","admin3":"","localeAltName":null},{"geonameid":4531516,"name":"Brushy","admin3":"","localeAltName":null},{"geonameid":4532335,"name":"Carlisle","admin3":"","localeAltName":null},{"geonameid":4537760,"name":"Gore","admin3":"","localeAltName":null},{"geonameid":4543280,"name":"Muldrow","admin3":"","localeAltName":null},{"geonameid":4549125,"name":"Remy","admin3":"","localeAltName":null},{"geonameid":4549656,"name":"Roland","admin3":"","localeAltName":null},{"geonameid":4550374,"name":"Sallisaw","admin3":"","localeAltName":null},{"geonameid":4554418,"name":"Vian","admin3":"","localeAltName":null}],"admin3":[],"alternateNames":[{"alternatenameId":2089556,"geonameid":4544379,"isoLanguage":"en","alternateName":"Oklahoma","isPreferredName":true,"isShortName":true,"isColloquial":false,"isHistoric":false}]},"__N_SSG":true}