{"pageProps":{"locale":"ro","admin2":{"geonameid":669500,"name":"Comuna Pui","country":"RO","admin1":"21","admin2":"90538","admin3":"","latitude":"45.5108600","longitude":"23.0846300"},"admin1":{"geonameid":675917,"name":"Hunedoara","admin1":"21"},"locations":[{"geonameid":685873,"name":"Băiești","admin3":""},{"geonameid":678375,"name":"Federi","admin3":""},{"geonameid":678090,"name":"Fizești","admin3":""},{"geonameid":677696,"name":"Galați","admin3":""},{"geonameid":676520,"name":"Gura Luncii","admin3":""},{"geonameid":676130,"name":"Hobița","admin3":""},{"geonameid":671912,"name":"Ohaba-Ponor","admin3":""},{"geonameid":669938,"name":"Ponoarele","admin3":""},{"geonameid":669935,"name":"Ponor","admin3":""},{"geonameid":669501,"name":"Pui","admin3":""},{"geonameid":668817,"name":"Râu Bărbat","admin3":""},{"geonameid":668377,"name":"Rușor","admin3":""},{"geonameid":667341,"name":"Șerel","admin3":""},{"geonameid":664164,"name":"Uric","admin3":""},{"geonameid":663698,"name":"Valea lui Ioan","admin3":""}],"admin3":[],"alternateNames":[]},"__N_SSG":true}