{"pageProps":{"locale":"en","admin2":{"geonameid":4786352,"name":"Smyth County","country":"US","admin1":"VA","admin2":"173","admin3":"","latitude":"36.8438800","longitude":"-81.5370200","localeAltName":null},"admin1":{"geonameid":6254928,"name":"Virginia","admin1":"VA","localeAltName":"Virginia"},"locations":[{"geonameid":4743963,"name":"Adwolf","admin3":"","localeAltName":null},{"geonameid":4744971,"name":"Atkins","admin3":"","localeAltName":null},{"geonameid":4752449,"name":"Chilhowie","admin3":"","localeAltName":null},{"geonameid":4771643,"name":"Marion","admin3":"","localeAltName":null},{"geonameid":4784275,"name":"Saltville","admin3":"","localeAltName":null},{"geonameid":4784913,"name":"Seven Mile Ford","admin3":"","localeAltName":null},{"geonameid":4788171,"name":"Sugar Grove","admin3":"","localeAltName":null}],"admin3":[],"alternateNames":[{"alternatenameId":6755491,"geonameid":6254928,"isoLanguage":"en","alternateName":"Virginia","isPreferredName":true,"isShortName":true,"isColloquial":false,"isHistoric":false}]},"__N_SSG":true}