{"pageProps":{"locale":"it","admin2":{"geonameid":6458618,"name":"Provincia di Prato","country":"IT","admin1":"16","admin2":"PO","admin3":"","latitude":"43.8804600","longitude":"11.0968600","localeAltName":"Prato"},"admin1":{"geonameid":3165361,"name":"Toscana","admin1":"16","localeAltName":"Toscana"},"locations":[{"geonameid":8604874,"name":"Carmignanello","admin3":"100001","localeAltName":null},{"geonameid":3180494,"name":"Carmignano","admin3":"100002","localeAltName":null},{"geonameid":3178239,"name":"Comeana","admin3":"100002","localeAltName":null},{"geonameid":3176722,"name":"Fornacelle","admin3":"100003","localeAltName":null},{"geonameid":3175590,"name":"Il Fabbro","admin3":"100001","localeAltName":null},{"geonameid":8948824,"name":"Mercatale-San Quirico","admin3":"100007","localeAltName":null},{"geonameid":3172828,"name":"Montemurlo","admin3":"100003","localeAltName":null},{"geonameid":3172803,"name":"Montepiano","admin3":"100007","localeAltName":null},{"geonameid":8605024,"name":"Poggetto","admin3":"100004","localeAltName":null},{"geonameid":3170487,"name":"Poggio A Caiano","admin3":"100004","localeAltName":null},{"geonameid":3169921,"name":"Prato","admin3":"100005","localeAltName":null},{"geonameid":3166920,"name":"Schignano","admin3":"100006","localeAltName":null},{"geonameid":3166850,"name":"Seano","admin3":"100002","localeAltName":null},{"geonameid":3175085,"name":"Serra","admin3":"100002","localeAltName":null},{"geonameid":8604876,"name":"Terrigoli","admin3":"100007","localeAltName":null},{"geonameid":3164973,"name":"Vaiano","admin3":"100006","localeAltName":null},{"geonameid":3164533,"name":"Vernio","admin3":"100007","localeAltName":null}],"admin3":[{"geonameid":6536346,"name":"Cantagallo","admin3":"100001","localeAltName":null},{"geonameid":6538018,"name":"Poggio a Caiano","admin3":"100004","localeAltName":null},{"geonameid":6539665,"name":"Vernio","admin3":"100007","localeAltName":null},{"geonameid":6539891,"name":"Carmignano","admin3":"100002","localeAltName":null},{"geonameid":6540124,"name":"Prato","admin3":"100005","localeAltName":null},{"geonameid":6541554,"name":"Montemurlo","admin3":"100003","localeAltName":null},{"geonameid":6541787,"name":"Vaiano","admin3":"100006","localeAltName":null}],"alternateNames":[{"alternatenameId":1347493,"geonameid":3165361,"isoLanguage":"it","alternateName":"Toscana","isPreferredName":true,"isShortName":true,"isColloquial":false,"isHistoric":false},{"alternatenameId":2431349,"geonameid":6458618,"isoLanguage":"it","alternateName":"Prato","isPreferredName":true,"isShortName":true,"isColloquial":false,"isHistoric":false}]},"__N_SSG":true}