{"pageProps":{"locale":"en","admin2":{"geonameid":4269424,"name":"Chase County","country":"US","admin1":"KS","admin2":"017","admin3":"","latitude":"38.3020500","longitude":"-96.5939300","localeAltName":null},"admin1":{"geonameid":4273857,"name":"Kansas","admin1":"KS","localeAltName":"Kansas"},"locations":[{"geonameid":4269988,"name":"Cottonwood Falls","admin3":"22850","localeAltName":null}],"admin3":[{"geonameid":4267993,"name":"Township of Bazaar","admin3":"04700"},{"geonameid":4269222,"name":"Township of Cedar","admin3":"11225"},{"geonameid":4269994,"name":"Township of Cottonwood","admin3":"15875"},{"geonameid":4270389,"name":"Township of Diamond Creek","admin3":"17975"},{"geonameid":4271386,"name":"Township of Falls","admin3":"22850","localeAltName":null},{"geonameid":4273140,"name":"Township of Homestead","admin3":"32950"},{"geonameid":4275162,"name":"Township of Matfield","admin3":"45125"},{"geonameid":4280088,"name":"Township of Strong","admin3":"68600"},{"geonameid":4280490,"name":"Township of Toledo","admin3":"70775"}],"alternateNames":[{"alternatenameId":2080124,"geonameid":4273857,"isoLanguage":"en","alternateName":"Kansas","isPreferredName":true,"isShortName":true,"isColloquial":false,"isHistoric":false}]},"__N_SSG":true}