{"pageProps":{"locale":"ro","admin2":{"geonameid":677376,"name":"Comuna Ghimeş-Făget","country":"RO","admin1":"04","admin2":"22718","admin3":"","latitude":"46.6048300","longitude":"26.0535400"},"admin1":{"geonameid":685947,"name":"Bacău","admin1":"04"},"locations":[{"geonameid":686518,"name":"Aldămaş","admin3":""},{"geonameid":684871,"name":"Bilboceni","admin3":""},{"geonameid":684255,"name":"Bolovăniș","admin3":""},{"geonameid":683827,"name":"Brateş","admin3":""},{"geonameid":683473,"name":"Budaca","admin3":""},{"geonameid":678488,"name":"Făget","admin3":""},{"geonameid":678471,"name":"Făgetu de Sus","admin3":""},{"geonameid":677379,"name":"Ghimeș","admin3":""},{"geonameid":677377,"name":"Ghimeş-Făget","admin3":""},{"geonameid":671044,"name":"Petchi","admin3":""},{"geonameid":670973,"name":"Petricheni","admin3":""},{"geonameid":669369,"name":"Răchitiș","admin3":""},{"geonameid":665511,"name":"Tărcuţa","admin3":""},{"geonameid":665508,"name":"Tărhăuși","admin3":""},{"geonameid":665229,"name":"Tereni","admin3":""},{"geonameid":664469,"name":"Turcheni-Valea Rece","admin3":""},{"geonameid":663890,"name":"Valea Bortoş","admin3":""}],"admin3":[],"alternateNames":[]},"__N_SSG":true}