{"pageProps":{"locale":"en","admin2":{"geonameid":3333133,"name":"Brighton and Hove","country":"GB","admin1":"ENG","admin2":"B6","admin3":"","latitude":"50.8333300","longitude":"-0.1333300","localeAltName":"Brighton and Hove"},"admin1":{"geonameid":6269131,"name":"England","admin1":"ENG","localeAltName":"England"},"locations":[{"geonameid":2655786,"name":"Bevendean","admin3":"","localeAltName":null},{"geonameid":2654710,"name":"Brighton","admin3":"","localeAltName":null},{"geonameid":7287960,"name":"Brighton Marina Village","admin3":"","localeAltName":null},{"geonameid":2646504,"name":"Hove","admin3":"45UG","localeAltName":null},{"geonameid":2640756,"name":"Ovingdean","admin3":"","localeAltName":null},{"geonameid":2639997,"name":"Portslade-by-Sea","admin3":"45UB","localeAltName":null},{"geonameid":2639921,"name":"Preston Park","admin3":"","localeAltName":null},{"geonameid":2639069,"name":"Rottingdean","admin3":"00ML001","localeAltName":null},{"geonameid":7290454,"name":"Saltdean","admin3":"00ML001","localeAltName":null},{"geonameid":11550750,"name":"The City of Brighton and Hove","admin3":"","localeAltName":null},{"geonameid":8063670,"name":"West Blatchington","admin3":"","localeAltName":null},{"geonameid":6690584,"name":"Woodingdean","admin3":"21UF","localeAltName":null}],"admin3":[{"geonameid":7297912,"name":"Rottingdean","admin3":"00ML001","localeAltName":null}],"alternateNames":[{"alternatenameId":8666533,"geonameid":3333133,"isoLanguage":"en","alternateName":"Brighton and Hove","isPreferredName":true,"isShortName":true,"isColloquial":false,"isHistoric":false},{"alternatenameId":1626647,"geonameid":6269131,"isoLanguage":"en","alternateName":"England","isPreferredName":true,"isShortName":true,"isColloquial":false,"isHistoric":false}]},"__N_SSG":true}