{"pageProps":{"locale":"en","admin2":{"geonameid":3333161,"name":"Kirklees","country":"GB","admin1":"ENG","admin2":"G8","admin3":"","latitude":"53.5833300","longitude":"-1.7500000","localeAltName":"Kirklees"},"admin1":{"geonameid":6269131,"name":"England","admin1":"ENG","localeAltName":"England"},"locations":[{"geonameid":2657451,"name":"Almondbury","admin3":"00CZ003","localeAltName":null},{"geonameid":2656168,"name":"Batley","admin3":"","localeAltName":null},{"geonameid":2656167,"name":"Batley Carr","admin3":"00DA030","localeAltName":null},{"geonameid":2655612,"name":"Birkenshaw","admin3":"","localeAltName":null},{"geonameid":2655592,"name":"Birstall","admin3":"","localeAltName":null},{"geonameid":6301958,"name":"Blackmoorfoot","admin3":"00CZ004","localeAltName":null},{"geonameid":2654983,"name":"Bradley","admin3":"00CZ003","localeAltName":null},{"geonameid":2654611,"name":"Brockholes","admin3":"00CZ002","localeAltName":null},{"geonameid":2653629,"name":"Cartworth","admin3":"00CZ002","localeAltName":null},{"geonameid":2652898,"name":"Clayton West","admin3":"00CZ001","localeAltName":null},{"geonameid":2652890,"name":"Cleckheaton","admin3":"00CZ005","localeAltName":null},{"geonameid":2651382,"name":"Denby Dale","admin3":"00CZ001","localeAltName":null},{"geonameid":2651286,"name":"Dewsbury","admin3":"","localeAltName":null},{"geonameid":2650008,"name":"Emley","admin3":"00CZ001","localeAltName":null},{"geonameid":2649653,"name":"Farnley Tyas","admin3":"00CZ003","localeAltName":null},{"geonameid":2649567,"name":"Fenay Bridge","admin3":"00CZ003","localeAltName":null},{"geonameid":6942350,"name":"Fixby","admin3":"00CZ003","localeAltName":null},{"geonameid":2649290,"name":"Flockton","admin3":"00CZ003","localeAltName":null},{"geonameid":12070085,"name":"Gawthorpe","admin3":"00CZ003","localeAltName":null},{"geonameid":2648355,"name":"Golcar","admin3":"00CZ004","localeAltName":null},{"geonameid":2648339,"name":"Gomersal","admin3":"","localeAltName":null},{"geonameid":11593285,"name":"Grange Moor","admin3":"00CZ003","localeAltName":null},{"geonameid":2647198,"name":"Heckmondwike","admin3":"","localeAltName":null},{"geonameid":6301960,"name":"Helme","admin3":"00CZ004","localeAltName":null},{"geonameid":2647076,"name":"Hepworth","admin3":"00CZ002","localeAltName":null},{"geonameid":2646733,"name":"Holmbridge","admin3":"00CZ002","localeAltName":null},{"geonameid":2646729,"name":"Holme","admin3":"00CZ002","localeAltName":null},{"geonameid":6947738,"name":"Holme Moss","admin3":"00CZ002","localeAltName":null},{"geonameid":2646716,"name":"Holmfirth","admin3":"00CZ002","localeAltName":null},{"geonameid":2646657,"name":"Honley","admin3":"00CZ002","localeAltName":null},{"geonameid":2646458,"name":"Huddersfield","admin3":"00CZ003","localeAltName":null},{"geonameid":2645314,"name":"Kirkburton","admin3":"00CZ003","localeAltName":null},{"geonameid":2645275,"name":"Kirkheaton","admin3":"00CZ003","localeAltName":null},{"geonameid":2644478,"name":"Lindley","admin3":"","localeAltName":null},{"geonameid":2644437,"name":"Linthwaite","admin3":"","localeAltName":null},{"geonameid":2644207,"name":"Liversedge","admin3":"","localeAltName":null},{"geonameid":2642992,"name":"Marsden","admin3":"","localeAltName":null},{"geonameid":8063643,"name":"Marsh","admin3":"","localeAltName":null},{"geonameid":2642766,"name":"Meltham","admin3":"00CZ004","localeAltName":null},{"geonameid":6301962,"name":"Meltham Mills","admin3":"00CZ004","localeAltName":null},{"geonameid":2642423,"name":"Mirfield","admin3":"00CZ005","localeAltName":null},{"geonameid":2642274,"name":"Moorside Edge","admin3":"","localeAltName":null},{"geonameid":6693622,"name":"Outlane","admin3":"","localeAltName":null},{"geonameid":6693756,"name":"Ravensthorpe","admin3":"","localeAltName":null},{"geonameid":2639281,"name":"Roberttown","admin3":"","localeAltName":null},{"geonameid":6692984,"name":"Scapegoat Hill","admin3":"00CY005","localeAltName":null},{"geonameid":6693505,"name":"Scissett","admin3":"00CZ001","localeAltName":null},{"geonameid":2638065,"name":"Shelley","admin3":"00CZ003","localeAltName":null},{"geonameid":2638040,"name":"Shepley","admin3":"00CZ003","localeAltName":null},{"geonameid":2637753,"name":"Skelmanthorpe","admin3":"00CZ001","localeAltName":null},{"geonameid":2637672,"name":"Slaithwaite","admin3":"","localeAltName":null},{"geonameid":2637445,"name":"South Crosland","admin3":"00CZ004","localeAltName":null},{"geonameid":2635982,"name":"Thornhill","admin3":"","localeAltName":null}],"admin3":[{"geonameid":7293814,"name":"Mirfield","admin3":"00CZ005","localeAltName":null},{"geonameid":7295817,"name":"Denby Dale","admin3":"00CZ001","localeAltName":null},{"geonameid":7295818,"name":"Meltham","admin3":"00CZ004","localeAltName":null},{"geonameid":7295924,"name":"Holme Valley","admin3":"00CZ002","localeAltName":null},{"geonameid":7295925,"name":"Kirkburton","admin3":"00CZ003","localeAltName":null}],"alternateNames":[{"alternatenameId":8666498,"geonameid":3333161,"isoLanguage":"en","alternateName":"Kirklees","isPreferredName":true,"isShortName":true,"isColloquial":false,"isHistoric":false},{"alternatenameId":1626647,"geonameid":6269131,"isoLanguage":"en","alternateName":"England","isPreferredName":true,"isShortName":true,"isColloquial":false,"isHistoric":false}]},"__N_SSG":true}