{"pageProps":{"locale":"ro","admin2":{"geonameid":670685,"name":"Comuna Pârscov","country":"RO","admin1":"11","admin2":"48557","admin3":"","latitude":"45.3076000","longitude":"26.5528300"},"admin1":{"geonameid":683121,"name":"Buzău","admin1":"11"},"locations":[{"geonameid":685894,"name":"Badila","admin3":""},{"geonameid":681052,"name":"Colţeni Valea Seacă","admin3":""},{"geonameid":679938,"name":"Curcănești","admin3":""},{"geonameid":676476,"name":"Gura Ţârcovului","admin3":""},{"geonameid":674408,"name":"Lunca Frumoasă","admin3":""},{"geonameid":671867,"name":"Oleșești","admin3":""},{"geonameid":670704,"name":"Pârjoleşti","admin3":""},{"geonameid":670686,"name":"Pârscov","admin3":""},{"geonameid":670684,"name":"Pârscov de Jos","admin3":""},{"geonameid":670683,"name":"Pârscov de Sus","admin3":""},{"geonameid":668786,"name":"Robești","admin3":""},{"geonameid":668464,"name":"Runcu","admin3":""},{"geonameid":666286,"name":"Stănileşti","admin3":""},{"geonameid":665032,"name":"Ţârcov Izvor","admin3":""},{"geonameid":664872,"name":"Tocileni","admin3":""},{"geonameid":664627,"name":"Trestieni","admin3":""},{"geonameid":663489,"name":"Valea Purcarului","admin3":""}],"admin3":[],"alternateNames":[]},"__N_SSG":true}