{"pageProps":{"locale":"ro","admin2":{"geonameid":671270,"name":"Oraş Pãtârlagele","country":"RO","admin1":"11","admin2":"48325","admin3":"","latitude":"45.3203500","longitude":"26.3453900"},"admin1":{"geonameid":683121,"name":"Buzău","admin1":"11"},"locations":[{"geonameid":685333,"name":"Baroianu","admin3":""},{"geonameid":685332,"name":"Baroianu Mlăcile","admin3":""},{"geonameid":683618,"name":"Brusturaşu","admin3":""},{"geonameid":683611,"name":"Brusturi","admin3":""},{"geonameid":683202,"name":"Burueneşti","admin3":""},{"geonameid":682987,"name":"Calea Chiojdului","admin3":""},{"geonameid":680751,"name":"Cornetu","admin3":""},{"geonameid":680222,"name":"Crâng","admin3":""},{"geonameid":680114,"name":"Crivineni","admin3":""},{"geonameid":677814,"name":"Fundăturile","admin3":""},{"geonameid":677385,"name":"Ghileşti","admin3":""},{"geonameid":676886,"name":"Gornet","admin3":""},{"geonameid":676002,"name":"Horjani","admin3":""},{"geonameid":675594,"name":"În Poiană","admin3":""},{"geonameid":674484,"name":"Lunca","admin3":""},{"geonameid":674238,"name":"Măceşu","admin3":""},{"geonameid":673987,"name":"Malu Alb","admin3":""},{"geonameid":673272,"name":"Mănăstirea","admin3":""},{"geonameid":673718,"name":"Mărunțișu","admin3":""},{"geonameid":673355,"name":"Mihălceşti","admin3":""},{"geonameid":673031,"name":"Mlăcele","admin3":""},{"geonameid":672634,"name":"Murătoarea","admin3":""},{"geonameid":672633,"name":"Murăturile","admin3":""},{"geonameid":663562,"name":"Mușcel","admin3":""},{"geonameid":671572,"name":"Păcura","admin3":""},{"geonameid":671271,"name":"Pătârlagele","admin3":""},{"geonameid":670119,"name":"Poiana","admin3":""},{"geonameid":670206,"name":"Poienile","admin3":""},{"geonameid":667280,"name":"Sibiciu de Sus","admin3":""},{"geonameid":667210,"name":"Sila","admin3":""},{"geonameid":665936,"name":"Stroești","admin3":""},{"geonameid":663657,"name":"Valea Lupului","admin3":""},{"geonameid":663416,"name":"Valea Seacă","admin3":""},{"geonameid":663401,"name":"Valea Sibiciului","admin3":""},{"geonameid":663316,"name":"Valea Viei","admin3":""}],"admin3":[],"alternateNames":[]},"__N_SSG":true}