{"pageProps":{"locale":"en","admin2":{"geonameid":2758176,"name":"Gemeente Brummen","country":"NL","admin1":"03","admin2":"0213","admin3":"","latitude":"52.1106300","longitude":"6.1179100"},"admin1":{"geonameid":2755634,"name":"Provincie Gelderland","admin1":"03"},"locations":[{"geonameid":2758177,"name":"Brummen","admin3":""},{"geonameid":2757932,"name":"Coldenhove","admin3":""},{"geonameid":2757902,"name":"Cortenoever","admin3":""},{"geonameid":2756351,"name":"Eerbeek","admin3":""},{"geonameid":2756118,"name":"Empe","admin3":""},{"geonameid":2754936,"name":"Hall","admin3":""},{"geonameid":2751678,"name":"Leuvenheim","admin3":""},{"geonameid":2749715,"name":"Oeken","admin3":""},{"geonameid":2748182,"name":"Rhienderen","admin3":""},{"geonameid":2746217,"name":"Tonden","admin3":""},{"geonameid":2745278,"name":"Voorstonden","admin3":""},{"geonameid":2744417,"name":"Wilhelminapark","admin3":""}],"admin3":[],"alternateNames":[{"alternatenameId":11907787,"geonameid":2755634,"isoLanguage":"de","alternateName":"Gelderland","isPreferredName":true,"isShortName":true,"isColloquial":false,"isHistoric":false}]},"__N_SSG":true}