{"pageProps":{"locale":"en","admin2":{"geonameid":2754680,"name":"Gemeente Heerde","country":"NL","admin1":"03","admin2":"0246","admin3":"","latitude":"52.3883300","longitude":"6.0388900"},"admin1":{"geonameid":2755634,"name":"Provincie Gelderland","admin1":"03"},"locations":[{"geonameid":2759630,"name":"Assendorp","admin3":""},{"geonameid":2759497,"name":"Bakhuisbos","admin3":""},{"geonameid":2759119,"name":"Berghuizen","admin3":""},{"geonameid":2757703,"name":"De Delle","admin3":""},{"geonameid":2754681,"name":"Heerde","admin3":""},{"geonameid":2753639,"name":"Hoorn","admin3":""},{"geonameid":2753628,"name":"Hoornerveen","admin3":""},{"geonameid":2753577,"name":"Horsthoek","admin3":""},{"geonameid":2753576,"name":"Horsthoekerveld","admin3":""},{"geonameid":2752513,"name":"Kolthoorn","admin3":""},{"geonameid":2751148,"name":"Markluiden","admin3":""},{"geonameid":2745728,"name":"Veessen","admin3":""},{"geonameid":2745260,"name":"Vorchten","admin3":""},{"geonameid":2745037,"name":"Wapenveld","admin3":""},{"geonameid":2744821,"name":"Werven","admin3":""},{"geonameid":2744235,"name":"Wolbert","admin3":""},{"geonameid":2743616,"name":"Zuppeld","admin3":""}],"admin3":[],"alternateNames":[{"alternatenameId":11907787,"geonameid":2755634,"isoLanguage":"de","alternateName":"Gelderland","isPreferredName":true,"isShortName":true,"isColloquial":false,"isHistoric":false}]},"__N_SSG":true}