{"pageProps":{"locale":"de","admin2":{"geonameid":3214105,"name":"Regierungsbezirk Stuttgart","country":"DE","admin1":"01","admin2":"081","admin3":"","latitude":"49.0833300","longitude":"9.6666700","localeAltName":null},"admin1":{"geonameid":2953481,"name":"Baden-Württemberg","admin1":"01","localeAltName":"Baden-Württemberg"},"locations":[{"geonameid":2959927,"name":"Aalen","admin3":"08136","localeAltName":null},{"geonameid":2959793,"name":"Abstatt","admin3":"08125","localeAltName":null},{"geonameid":2959766,"name":"Abtsgmünd","admin3":"08136","localeAltName":null},{"geonameid":2959553,"name":"Adelberg","admin3":"08117","localeAltName":null},{"geonameid":2959530,"name":"Adelmannsfelden","admin3":"08136","localeAltName":null},{"geonameid":2959368,"name":"Affalterbach","admin3":"08118","localeAltName":null},{"geonameid":2958956,"name":"Aichelberg","admin3":"08117","localeAltName":null},{"geonameid":2958904,"name":"Aidlingen","admin3":"08115","localeAltName":null},{"geonameid":2958707,"name":"Albershausen","admin3":"08117","localeAltName":null},{"geonameid":2958535,"name":"Alfdorf","admin3":"08119","localeAltName":null},{"geonameid":2958288,"name":"Allmersbach im Tal","admin3":"08119","localeAltName":null},{"geonameid":2958085,"name":"Altbach","admin3":"08116","localeAltName":null},{"geonameid":2958028,"name":"Altdorf","admin3":"08115","localeAltName":null},{"geonameid":2958029,"name":"Altdorf","admin3":"08116","localeAltName":null},{"geonameid":2957499,"name":"Altenriet","admin3":"08116","localeAltName":null},{"geonameid":2957108,"name":"Althütte","admin3":"08119","localeAltName":null},{"geonameid":3206150,"name":"Aspach","admin3":"08119","localeAltName":null},{"geonameid":2955068,"name":"Asperg","admin3":"08118","localeAltName":null},{"geonameid":2955050,"name":"Assamstadt","admin3":"08128","localeAltName":null},{"geonameid":2953568,"name":"Backnang","admin3":"08119","localeAltName":null},{"geonameid":2953529,"name":"Bad Ditzenbach","admin3":"08117","localeAltName":null},{"geonameid":2953402,"name":"Bad Mergentheim","admin3":"08128","localeAltName":null},{"geonameid":2953374,"name":"Bad Rappenau","admin3":"08125","localeAltName":null},{"geonameid":2953322,"name":"Bad Überkingen","admin3":"08117","localeAltName":null},{"geonameid":2953315,"name":"Bad Wimpfen","admin3":"08125","localeAltName":null},{"geonameid":2953008,"name":"Baltmannsweiler","admin3":"08116","localeAltName":null},{"geonameid":2952359,"name":"Bartholomä","admin3":"08136","localeAltName":null},{"geonameid":2951346,"name":"Beilstein","admin3":"08125","localeAltName":null},{"geonameid":2951124,"name":"Bempflingen","admin3":"08116","localeAltName":null},{"geonameid":2951013,"name":"Benningen am Neckar","admin3":"08118","localeAltName":null},{"geonameid":2949803,"name":"Besigheim","admin3":"08118","localeAltName":null},{"geonameid":2949569,"name":"Beuren","admin3":"08116","localeAltName":null},{"geonameid":2949012,"name":"Bietigheim-Bissingen","admin3":"08118","localeAltName":null},{"geonameid":2948727,"name":"Birenbach","admin3":"08117","localeAltName":null},{"geonameid":2948202,"name":"Bissingen an der Teck","admin3":"08116","localeAltName":null},{"geonameid":2947919,"name":"Blaufelden","admin3":"08127","localeAltName":null},{"geonameid":3206154,"name":"Böbingen an der Rems","admin3":"08136","localeAltName":null},{"geonameid":2947444,"name":"Böblingen","admin3":"08115","localeAltName":null},{"geonameid":2946950,"name":"Böhmenkirch","admin3":"08117","localeAltName":null},{"geonameid":2946713,"name":"Bolheim","admin3":"08135","localeAltName":null},{"geonameid":2946696,"name":"Boll","admin3":"08117","localeAltName":null},{"geonameid":2946485,"name":"Bondorf","admin3":"08115","localeAltName":null},{"geonameid":2946428,"name":"Bönnigheim","admin3":"08118","localeAltName":null},{"geonameid":2946368,"name":"Bopfingen","admin3":"08136","localeAltName":null},{"geonameid":2945957,"name":"Börtlingen","admin3":"08117","localeAltName":null},{"geonameid":2945703,"name":"Boxberg","admin3":"08128","localeAltName":null},{"geonameid":2945591,"name":"Brackenheim","admin3":"08125","localeAltName":null},{"geonameid":2945043,"name":"Braunsbach","admin3":"08127","localeAltName":null},{"geonameid":2944178,"name":"Bretzfeld","admin3":"08126","localeAltName":null},{"geonameid":2942811,"name":"Buch am Ahorn","admin3":"08128","localeAltName":null},{"geonameid":2941926,"name":"Bühlertann","admin3":"08127","localeAltName":null},{"geonameid":2941923,"name":"Bühlerzell","admin3":"08127","localeAltName":null},{"geonameid":3206164,"name":"Burgstetten","admin3":"08119","localeAltName":null},{"geonameid":2939990,"name":"Cleebronn","admin3":"08125","localeAltName":null},{"geonameid":2939797,"name":"Crailsheim","admin3":"08127","localeAltName":null},{"geonameid":2939767,"name":"Creglingen","admin3":"08128","localeAltName":null},{"geonameid":2938633,"name":"Deckenpfronn","admin3":"08115","localeAltName":null},{"geonameid":2938538,"name":"Deggingen","admin3":"08117","localeAltName":null},{"geonameid":2938391,"name":"Deizisau","admin3":"08116","localeAltName":null},{"geonameid":2938253,"name":"Denkendorf","admin3":"08116","localeAltName":null},{"geonameid":2937896,"name":"Dettingen unter Teck","admin3":"08116","localeAltName":null},{"geonameid":2936796,"name":"Dischingen","admin3":"08135","localeAltName":null},{"geonameid":2936705,"name":"Ditzingen","admin3":"08118","localeAltName":null},{"geonameid":2936186,"name":"Donzdorf","admin3":"08117","localeAltName":null},{"geonameid":2935488,"name":"Dörzbach","admin3":"08126","localeAltName":null},{"geonameid":2934466,"name":"Durlangen","admin3":"08136","localeAltName":null},{"geonameid":2934452,"name":"Dürnau","admin3":"08117","localeAltName":null},{"geonameid":2934014,"name":"Eberdingen","admin3":"08118","localeAltName":null},{"geonameid":2933959,"name":"Ebersbach an der Fils","admin3":"08117","localeAltName":null},{"geonameid":2933897,"name":"Eberstadt","admin3":"08125","localeAltName":null},{"geonameid":2932882,"name":"Ehningen","admin3":"08115","localeAltName":null},{"geonameid":2931414,"name":"Eislingen","admin3":"08117","localeAltName":null},{"geonameid":2931080,"name":"Ellenberg","admin3":"08136","localeAltName":null},{"geonameid":2930948,"name":"Ellhofen","admin3":"08125","localeAltName":null},{"geonameid":2930889,"name":"Ellwangen","admin3":"08136","localeAltName":null},{"geonameid":2929831,"name":"Eppingen","admin3":"08125","localeAltName":null},{"geonameid":2929708,"name":"Erdmannhausen","admin3":"08118","localeAltName":null},{"geonameid":2929614,"name":"Erkenbrechtsweiler","admin3":"08116","localeAltName":null},{"geonameid":2929506,"name":"Erlenbach","admin3":"08125","localeAltName":null},{"geonameid":2929429,"name":"Erligheim","admin3":"08118","localeAltName":null},{"geonameid":2929177,"name":"Eschach","admin3":"08136","localeAltName":null},{"geonameid":2929091,"name":"Eschenbach","admin3":"08117","localeAltName":null},{"geonameid":2928761,"name":"Essingen","admin3":"08136","localeAltName":null},{"geonameid":2928751,"name":"Esslingen","admin3":"08116","localeAltName":null},{"geonameid":2927268,"name":"Fellbach","admin3":"08119","localeAltName":null},{"geonameid":2926960,"name":"Fichtenberg","admin3":"08127","localeAltName":null},{"geonameid":3336891,"name":"Filderstadt","admin3":"08116","localeAltName":null},{"geonameid":2926304,"name":"Flein","admin3":"08125","localeAltName":null},{"geonameid":2925905,"name":"Forchtenberg","admin3":"08126","localeAltName":null},{"geonameid":2925189,"name":"Freiberg am Neckar","admin3":"08118","localeAltName":null},{"geonameid":2924916,"name":"Freudenberg","admin3":"08128","localeAltName":null},{"geonameid":2924888,"name":"Freudental","admin3":"08118","localeAltName":null},{"geonameid":2924837,"name":"Frickenhausen","admin3":"08116","localeAltName":null},{"geonameid":2923325,"name":"Gaildorf","admin3":"08127","localeAltName":null},{"geonameid":2922753,"name":"Gammelshausen","admin3":"08117","localeAltName":null},{"geonameid":2922436,"name":"Gärtringen","admin3":"08115","localeAltName":null},{"geonameid":2921653,"name":"Geislingen an der Steige","admin3":"08117","localeAltName":null},{"geonameid":2921389,"name":"Gemmingen","admin3":"08125","localeAltName":null},{"geonameid":2921388,"name":"Gemmrigheim","admin3":"08118","localeAltName":null},{"geonameid":2921226,"name":"Gerabronn","admin3":"08127","localeAltName":null},{"geonameid":2921061,"name":"Gerlingen","admin3":"08118","localeAltName":null},{"geonameid":2920896,"name":"Gerstetten","admin3":"08135","localeAltName":null},{"geonameid":2920620,"name":"Giengen an der Brenz","admin3":"08135","localeAltName":null},{"geonameid":2920348,"name":"Gingen an der Fils","admin3":"08117","localeAltName":null},{"geonameid":2919524,"name":"Göggingen","admin3":"08136","localeAltName":null},{"geonameid":2919054,"name":"Göppingen","admin3":"08117","localeAltName":null},{"geonameid":11670103,"name":"Grafenau","admin3":"08115","localeAltName":null},{"geonameid":2916972,"name":"Großbettlingen","admin3":"08116","localeAltName":null},{"geonameid":2916936,"name":"Großbottwar","admin3":"08118","localeAltName":null},{"geonameid":2916224,"name":"Großerlach","admin3":"08119","localeAltName":null},{"geonameid":2915137,"name":"Großrinderfeld","admin3":"08128","localeAltName":null},{"geonameid":2914548,"name":"Gruibingen","admin3":"08117","localeAltName":null},{"geonameid":2914105,"name":"Grünsfeld","admin3":"08128","localeAltName":null},{"geonameid":2913972,"name":"Gschwend","admin3":"08136","localeAltName":null},{"geonameid":2913838,"name":"Güglingen","admin3":"08125","localeAltName":null},{"geonameid":2913693,"name":"Gundelsheim","admin3":"08125","localeAltName":null},{"geonameid":2909252,"name":"Hattenhofen","admin3":"08117","localeAltName":null},{"geonameid":2907851,"name":"Heidenheim an der Brenz","admin3":"08135","localeAltName":null},{"geonameid":2907669,"name":"Heilbronn","admin3":"08121","localeAltName":null},{"geonameid":2907280,"name":"Heiningen","admin3":"08117","localeAltName":null},{"geonameid":2906531,"name":"Hemmingen","admin3":"08118","localeAltName":null},{"geonameid":2906194,"name":"Herbrechtingen","admin3":"08135","localeAltName":null},{"geonameid":2905954,"name":"Hermaringen","admin3":"08135","localeAltName":null},{"geonameid":2905826,"name":"Herrenberg","admin3":"08115","localeAltName":null},{"geonameid":2905298,"name":"Hessigheim","admin3":"08118","localeAltName":null},{"geonameid":2905154,"name":"Heubach","admin3":"08136","localeAltName":null},{"geonameid":2905062,"name":"Heuchlingen","admin3":"08136","localeAltName":null},{"geonameid":2904784,"name":"Hildrizhausen","admin3":"08115","localeAltName":null},{"geonameid":2903290,"name":"Hochdorf","admin3":"08116","localeAltName":null},{"geonameid":2901467,"name":"Hohenstadt","admin3":"08117","localeAltName":null},{"geonameid":2899880,"name":"Holzgerlingen","admin3":"08115","localeAltName":null},{"geonameid":2899620,"name":"Holzmaden","admin3":"08116","localeAltName":null},{"geonameid":2896877,"name":"Hüttlingen","admin3":"08136","localeAltName":null},{"geonameid":2896687,"name":"Igersheim","admin3":"08128","localeAltName":null},{"geonameid":2896677,"name":"Iggingen","admin3":"08136","localeAltName":null},{"geonameid":2896477,"name":"Ilsfeld","admin3":"08125","localeAltName":null},{"geonameid":2896476,"name":"Ilshofen","admin3":"08127","localeAltName":null},{"geonameid":2896021,"name":"Ingelfingen","admin3":"08126","localeAltName":null},{"geonameid":2895574,"name":"Ittlingen","admin3":"08125","localeAltName":null},{"geonameid":2895309,"name":"Jagsthausen","admin3":"08125","localeAltName":null},{"geonameid":2895304,"name":"Jagstzell","admin3":"08136","localeAltName":null},{"geonameid":2894014,"name":"Kaisersbach","admin3":"08119","localeAltName":null},{"geonameid":2890769,"name":"Kirchardt","admin3":"08125","localeAltName":null},{"geonameid":2890646,"name":"Kirchberg an der Jagst","admin3":"08127","localeAltName":null},{"geonameid":2890645,"name":"Kirchberg an der Murr","admin3":"08119","localeAltName":null},{"geonameid":2890482,"name":"Kirchheim am Neckar","admin3":"08118","localeAltName":null},{"geonameid":2890481,"name":"Kirchheim am Ries","admin3":"08136","localeAltName":null},{"geonameid":2890473,"name":"Kirchheim unter Teck","admin3":"08116","localeAltName":null},{"geonameid":2886731,"name":"Kohlberg","admin3":"08116","localeAltName":null},{"geonameid":2886008,"name":"Köngen","admin3":"08116","localeAltName":null},{"geonameid":2885991,"name":"Königheim","admin3":"08128","localeAltName":null},{"geonameid":2885912,"name":"Königsbronn","admin3":"08135","localeAltName":null},{"geonameid":2885540,"name":"Korb","admin3":"08119","localeAltName":null},{"geonameid":2885412,"name":"Korntal","admin3":"08118","localeAltName":null},{"geonameid":2885408,"name":"Kornwestheim","admin3":"08118","localeAltName":null},{"geonameid":2884625,"name":"Krautheim","admin3":"08126","localeAltName":null},{"geonameid":2883151,"name":"Kuchen","admin3":"08117","localeAltName":null},{"geonameid":2882575,"name":"Külsheim","admin3":"08128","localeAltName":null},{"geonameid":2882439,"name":"Künzelsau","admin3":"08126","localeAltName":null},{"geonameid":2882399,"name":"Kupferzell","admin3":"08126","localeAltName":null},{"geonameid":11670106,"name":"Langenbrettach","admin3":"08125","localeAltName":null},{"geonameid":2881128,"name":"Langenburg","admin3":"08127","localeAltName":null},{"geonameid":2880215,"name":"Lauchheim","admin3":"08136","localeAltName":null},{"geonameid":3274966,"name":"Lauda-Königshofen","admin3":"08128","localeAltName":null},{"geonameid":2880111,"name":"Lauffen am Neckar","admin3":"08125","localeAltName":null},{"geonameid":2879375,"name":"Lehrensteinsfeld","admin3":"08125","localeAltName":null},{"geonameid":2879185,"name":"Leinfelden-Echterdingen","admin3":"08116","localeAltName":null},{"geonameid":3274259,"name":"Leingarten","admin3":"08125","localeAltName":null},{"geonameid":2879159,"name":"Leinzell","admin3":"08136","localeAltName":null},{"geonameid":11670107,"name":"Lenningen","admin3":"08116","localeAltName":null},{"geonameid":2878695,"name":"Leonberg","admin3":"08115","localeAltName":null},{"geonameid":2878313,"name":"Leutenbach","admin3":"08119","localeAltName":null},{"geonameid":2876604,"name":"Löchgau","admin3":"08118","localeAltName":null},{"geonameid":2875909,"name":"Lorch","admin3":"08136","localeAltName":null},{"geonameid":2875656,"name":"Löwenstein","admin3":"08125","localeAltName":null},{"geonameid":2875392,"name":"Ludwigsburg","admin3":"08118","localeAltName":null},{"geonameid":2874509,"name":"Magstadt","admin3":"08115","localeAltName":null},{"geonameid":2874246,"name":"Mainhardt","admin3":"08127","localeAltName":null},{"geonameid":2873776,"name":"Marbach am Neckar","admin3":"08118","localeAltName":null},{"geonameid":2873369,"name":"Markgröningen","admin3":"08118","localeAltName":null},{"geonameid":2872996,"name":"Massenbachhausen","admin3":"08125","localeAltName":null},{"geonameid":2871342,"name":"Michelbach an der Bilz","admin3":"08127","localeAltName":null},{"geonameid":2871326,"name":"Michelfeld","admin3":"08127","localeAltName":null},{"geonameid":2870584,"name":"Mittelschöntal","admin3":"08119","localeAltName":null},{"geonameid":2870269,"name":"Möckmühl","admin3":"08125","localeAltName":null},{"geonameid":2870202,"name":"Mögglingen","admin3":"08136","localeAltName":null},{"geonameid":2870194,"name":"Möglingen","admin3":"08118","localeAltName":null},{"geonameid":2868967,"name":"Mötzingen","admin3":"08115","localeAltName":null},{"geonameid":2868010,"name":"Mühlhausen","admin3":"08117","localeAltName":null},{"geonameid":2867847,"name":"Mulfingen","admin3":"08126","localeAltName":null},{"geonameid":2867616,"name":"Mundelsheim","admin3":"08118","localeAltName":null},{"geonameid":2867436,"name":"Murr","admin3":"08118","localeAltName":null},{"geonameid":2867431,"name":"Murrhardt","admin3":"08119","localeAltName":null},{"geonameid":2867335,"name":"Mutlangen","admin3":"08136","localeAltName":null},{"geonameid":2866942,"name":"Nattheim","admin3":"08135","localeAltName":null},{"geonameid":2866758,"name":"Neckarsulm","admin3":"08125","localeAltName":null},{"geonameid":2866757,"name":"Neckartailfingen","admin3":"08116","localeAltName":null},{"geonameid":2866755,"name":"Neckartenzlingen","admin3":"08116","localeAltName":null},{"geonameid":2866753,"name":"Neckarwestheim","admin3":"08125","localeAltName":null},{"geonameid":2866593,"name":"Neidlingen","admin3":"08116","localeAltName":null},{"geonameid":2866486,"name":"Neresheim","admin3":"08136","localeAltName":null},{"geonameid":2866022,"name":"Neudenau","admin3":"08125","localeAltName":null},{"geonameid":2865560,"name":"Neuenstadt am Kocher","admin3":"08125","localeAltName":null},{"geonameid":2865557,"name":"Neuenstein","admin3":"08126","localeAltName":null},{"geonameid":2865341,"name":"Neuffen","admin3":"08116","localeAltName":null},{"geonameid":2865086,"name":"Neuhausen auf den Fildern","admin3":"08116","localeAltName":null},{"geonameid":2864616,"name":"Neuler","admin3":"08136","localeAltName":null},{"geonameid":2863049,"name":"Niedernhall","admin3":"08126","localeAltName":null},{"geonameid":2862831,"name":"Niederstetten","admin3":"08128","localeAltName":null},{"geonameid":2862825,"name":"Niederstotzingen","admin3":"08135","localeAltName":null},{"geonameid":2861973,"name":"Nordheim","admin3":"08125","localeAltName":null},{"geonameid":2861721,"name":"Notzingen","admin3":"08116","localeAltName":null},{"geonameid":2861690,"name":"Nufringen","admin3":"08115","localeAltName":null},{"geonameid":2861632,"name":"Nürtingen","admin3":"08116","localeAltName":null},{"geonameid":2861232,"name":"Oberboihingen","admin3":"08116","localeAltName":null},{"geonameid":2860567,"name":"Obergröningen","admin3":"08136","localeAltName":null},{"geonameid":2860134,"name":"Oberjettingen","admin3":"08115","localeAltName":null},{"geonameid":2860049,"name":"Oberkochen","admin3":"08136","localeAltName":null},{"geonameid":2859285,"name":"Oberriexingen","admin3":"08118","localeAltName":null},{"geonameid":2859234,"name":"Oberrot","admin3":"08127","localeAltName":null},{"geonameid":2858999,"name":"Obersontheim","admin3":"08127","localeAltName":null},{"geonameid":2858906,"name":"Oberstenfeld","admin3":"08118","localeAltName":null},{"geonameid":2857967,"name":"Oedheim","admin3":"08125","localeAltName":null},{"geonameid":2857810,"name":"Offenau","admin3":"08125","localeAltName":null},{"geonameid":2857637,"name":"Ohmden","admin3":"08116","localeAltName":null},{"geonameid":2857565,"name":"Öhringen","admin3":"08126","localeAltName":null},{"geonameid":2857159,"name":"Oppenweiler","admin3":"08119","localeAltName":null},{"geonameid":3336892,"name":"Ostfildern","admin3":"08116","localeAltName":null},{"geonameid":2856139,"name":"Ottenbach","admin3":"08117","localeAltName":null},{"geonameid":2855824,"name":"Owen","admin3":"08116","localeAltName":null},{"geonameid":2854392,"name":"Pfaffenhofen","admin3":"08125","localeAltName":null},{"geonameid":2854152,"name":"Pfedelbach","admin3":"08126","localeAltName":null},{"geonameid":2853266,"name":"Pleidelsheim","admin3":"08118","localeAltName":null},{"geonameid":2853180,"name":"Plochingen","admin3":"08116","localeAltName":null},{"geonameid":2853107,"name":"Plüderhausen","admin3":"08119","localeAltName":null},{"geonameid":2849740,"name":"Rechberghausen","admin3":"08117","localeAltName":null},{"geonameid":2849118,"name":"Reichenbach an der Fils","admin3":"08116","localeAltName":null},{"geonameid":12188617,"name":"Remseck am Neckar","admin3":"08118","localeAltName":null},{"geonameid":2848175,"name":"Renningen","admin3":"08115","localeAltName":null},{"geonameid":2845503,"name":"Roigheim","admin3":"08125","localeAltName":null},{"geonameid":2845056,"name":"Rosenberg","admin3":"08136","localeAltName":null},{"geonameid":2844567,"name":"Rot am See","admin3":"08127","localeAltName":null},{"geonameid":2843415,"name":"Rudersberg","admin3":"08119","localeAltName":null},{"geonameid":2842974,"name":"Ruppertshofen","admin3":"08136","localeAltName":null},{"geonameid":2842824,"name":"Rutesheim","admin3":"08115","localeAltName":null},{"geonameid":11951298,"name":"Sachsenheim","admin3":"08118","localeAltName":null},{"geonameid":2842331,"name":"Salach","admin3":"08117","localeAltName":null},{"geonameid":2841290,"name":"Satteldorf","admin3":"08127","localeAltName":null},{"geonameid":2840116,"name":"Schechingen","admin3":"08136","localeAltName":null},{"geonameid":2838939,"name":"Schlaitdorf","admin3":"08116","localeAltName":null},{"geonameid":2838889,"name":"Schlat","admin3":"08117","localeAltName":null},{"geonameid":2838529,"name":"Schlierbach","admin3":"08117","localeAltName":null},{"geonameid":2837093,"name":"Schönaich","admin3":"08115","localeAltName":null},{"geonameid":2836320,"name":"Schorndorf","admin3":"08119","localeAltName":null},{"geonameid":2836040,"name":"Schrozberg","admin3":"08127","localeAltName":null},{"geonameid":2835482,"name":"Schwäbisch Gmünd","admin3":"08136","localeAltName":null},{"geonameid":2835481,"name":"Schwäbisch Hall","admin3":"08127","localeAltName":null},{"geonameid":2835411,"name":"Schwaigern","admin3":"08125","localeAltName":null},{"geonameid":2835385,"name":"Schwaikheim","admin3":"08119","localeAltName":null},{"geonameid":2834226,"name":"Schwieberdingen","admin3":"08118","localeAltName":null},{"geonameid":2832939,"name":"Sersheim","admin3":"08118","localeAltName":null},{"geonameid":2832506,"name":"Siegelsbach","admin3":"08125","localeAltName":null},{"geonameid":2831948,"name":"Sindelfingen","admin3":"08115","localeAltName":null},{"geonameid":2831091,"name":"Sontheim an der Brenz","admin3":"08135","localeAltName":null},{"geonameid":2830561,"name":"Spiegelberg","admin3":"08119","localeAltName":null},{"geonameid":2830133,"name":"Spraitbach","admin3":"08136","localeAltName":null},{"geonameid":2828206,"name":"Steinenbronn","admin3":"08115","localeAltName":null},{"geonameid":2827989,"name":"Steinheim am Albuch","admin3":"08135","localeAltName":null},{"geonameid":2827988,"name":"Steinheim an der Murr","admin3":"08118","localeAltName":null},{"geonameid":2826997,"name":"Stimpfach","admin3":"08127","localeAltName":null},{"geonameid":2826637,"name":"Stödtlen","admin3":"08136","localeAltName":null},{"geonameid":2825297,"name":"Stuttgart","admin3":"08111","localeAltName":null},{"geonameid":2927043,"name":"Stuttgart Feuerbach","admin3":"08111","localeAltName":null},{"geonameid":2867993,"name":"Stuttgart Mühlhausen","admin3":"08111","localeAltName":null},{"geonameid":6930414,"name":"Stuttgart-Ost","admin3":"08111","localeAltName":"S-Ost"},{"geonameid":2824804,"name":"Sulzbach an der Murr","admin3":"08119","localeAltName":null},{"geonameid":2824545,"name":"Süßen","admin3":"08117","localeAltName":null},{"geonameid":2824393,"name":"Täferrot","admin3":"08136","localeAltName":null},{"geonameid":2824316,"name":"Talheim","admin3":"08125","localeAltName":null},{"geonameid":2824284,"name":"Tamm","admin3":"08118","localeAltName":null},{"geonameid":2824055,"name":"Tannhausen","admin3":"08136","localeAltName":null},{"geonameid":2823854,"name":"Tauberbischofsheim","admin3":"08128","localeAltName":null},{"geonameid":2820407,"name":"Uhingen","admin3":"08117","localeAltName":null},{"geonameid":2819738,"name":"Untereisesheim","admin3":"08125","localeAltName":null},{"geonameid":2819710,"name":"Unterensingen","admin3":"08116","localeAltName":null},{"geonameid":2819479,"name":"Untergruppenbach","admin3":"08125","localeAltName":null},{"geonameid":2819282,"name":"Unterjettingen","admin3":"08115","localeAltName":null},{"geonameid":2819030,"name":"Untermünkheim","admin3":"08127","localeAltName":null},{"geonameid":2818754,"name":"Unterschneidheim","admin3":"08136","localeAltName":null},{"geonameid":3206285,"name":"Urbach","admin3":"08119","localeAltName":null},{"geonameid":2817927,"name":"Vaihingen an der Enz","admin3":"08118","localeAltName":null},{"geonameid":2817694,"name":"Vellberg","admin3":"08127","localeAltName":null},{"geonameid":2815330,"name":"Waiblingen","admin3":"08119","localeAltName":null},{"geonameid":2815076,"name":"Waldenbuch","admin3":"08115","localeAltName":null},{"geonameid":2815075,"name":"Waldenburg","admin3":"08126","localeAltName":null},{"geonameid":2814775,"name":"Waldstetten","admin3":"08136","localeAltName":null},{"geonameid":2814747,"name":"Walheim","admin3":"08118","localeAltName":null},{"geonameid":2814572,"name":"Wallhausen","admin3":"08127","localeAltName":null},{"geonameid":2814279,"name":"Wangen","admin3":"08117","localeAltName":null},{"geonameid":2813847,"name":"Wäschenbeuren","admin3":"08117","localeAltName":null},{"geonameid":2812655,"name":"Weikersheim","admin3":"08128","localeAltName":null},{"geonameid":2812625,"name":"Weil der Stadt","admin3":"08115","localeAltName":null},{"geonameid":2812502,"name":"Weil im Schönbuch","admin3":"08115","localeAltName":null},{"geonameid":2812509,"name":"Weilheim an der Teck","admin3":"08116","localeAltName":null},{"geonameid":2812158,"name":"Weinsberg","admin3":"08125","localeAltName":null},{"geonameid":2812145,"name":"Weinstadt-Endersbach","admin3":"08119","localeAltName":null},{"geonameid":2812053,"name":"Weissach","admin3":"08115","localeAltName":null},{"geonameid":2812036,"name":"Weißbach","admin3":"08126","localeAltName":null},{"geonameid":2811354,"name":"Welzheim","admin3":"08119","localeAltName":null},{"geonameid":2811204,"name":"Wendlingen am Neckar","admin3":"08116","localeAltName":null},{"geonameid":2811000,"name":"Werbach","admin3":"08128","localeAltName":null},{"geonameid":2810841,"name":"Wernau","admin3":"08116","localeAltName":null},{"geonameid":2810716,"name":"Wertheim","admin3":"08128","localeAltName":null},{"geonameid":2810136,"name":"Westhausen","admin3":"08136","localeAltName":null},{"geonameid":2809718,"name":"Widdern","admin3":"08125","localeAltName":null},{"geonameid":2809214,"name":"Wiesensteig","admin3":"08117","localeAltName":null},{"geonameid":2807872,"name":"Winnenden","admin3":"08119","localeAltName":null},{"geonameid":2807825,"name":"Winterbach","admin3":"08119","localeAltName":null},{"geonameid":2806646,"name":"Wolfschlugen","admin3":"08116","localeAltName":null},{"geonameid":2806325,"name":"Wolpertshausen","admin3":"08127","localeAltName":null},{"geonameid":2806097,"name":"Wört","admin3":"08136","localeAltName":null},{"geonameid":2805497,"name":"Wüstenrot","admin3":"08125","localeAltName":null},{"geonameid":2805361,"name":"Zaberfeld","admin3":"08125","localeAltName":null},{"geonameid":2804803,"name":"Zell unter Aichelberg","admin3":"08117","localeAltName":null},{"geonameid":2803604,"name":"Zweiflingen","admin3":"08126","localeAltName":null}],"admin3":[{"geonameid":2856827,"name":"Ostalbkreis","admin3":"08136","localeAltName":null},{"geonameid":2919053,"name":"Landkreis Göppingen","admin3":"08117","localeAltName":null},{"geonameid":2928748,"name":"Landkreis Esslingen","admin3":"08116","localeAltName":null},{"geonameid":2947443,"name":"Landkreis Böblingen","admin3":"08115","localeAltName":null},{"geonameid":3220738,"name":"Landkreis Heidenheim","admin3":"08135","localeAltName":null},{"geonameid":3220740,"name":"Stadtkreis Heilbronn","admin3":"08121","localeAltName":null},{"geonameid":3220743,"name":"Landkreis Heilbronn","admin3":"08125","localeAltName":null},{"geonameid":3220748,"name":"Hohenlohekreis","admin3":"08126","localeAltName":null},{"geonameid":3220752,"name":"Landkreis Ludwigsburg","admin3":"08118","localeAltName":null},{"geonameid":3220782,"name":"Main-Tauber-Kreis","admin3":"08128","localeAltName":null},{"geonameid":3220783,"name":"Rems-Murr-Kreis","admin3":"08119","localeAltName":null},{"geonameid":3220784,"name":"Landkreis Schwäbisch Hall","admin3":"08127","localeAltName":null},{"geonameid":3220785,"name":"Stadtkreis Stuttgart","admin3":"08111","localeAltName":null}],"alternateNames":[{"alternatenameId":2080248,"geonameid":2953481,"isoLanguage":"de","alternateName":"Baden-Württemberg","isPreferredName":true,"isShortName":true,"isColloquial":false,"isHistoric":false},{"alternatenameId":2697989,"geonameid":6930414,"isoLanguage":"de","alternateName":"S-Ost","isPreferredName":true,"isShortName":true,"isColloquial":false,"isHistoric":false}]},"__N_SSG":true}