{"pageProps":{"locale":"en","admin2":{"geonameid":4256259,"name":"Crawford County","country":"US","admin1":"IN","admin2":"025","admin3":"","latitude":"38.2924100","longitude":"-86.4517100"},"admin1":{"geonameid":4921868,"name":"Indiana","admin1":"IN","localeAltName":"Indiana"},"locations":[],"admin3":[{"geonameid":4254807,"name":"Township of Boone","admin3":"06508"},{"geonameid":4259680,"name":"Township of Jennings","admin3":"38394"},{"geonameid":4259739,"name":"Township of Johnson","admin3":"38646"},{"geonameid":4260354,"name":"Township of Liberty","admin3":"43218"},{"geonameid":4262836,"name":"Township of Patoka","admin3":"58284"},{"geonameid":4265337,"name":"Township of Sterling","admin3":"73016"},{"geonameid":4266128,"name":"Township of Union","admin3":"77210"},{"geonameid":4828442,"name":"Township of Whiskey Run","admin3":"83690"}],"alternateNames":[{"alternatenameId":2124819,"geonameid":4921868,"isoLanguage":"en","alternateName":"Indiana","isPreferredName":true,"isShortName":true,"isColloquial":false,"isHistoric":false}]},"__N_SSG":true}