{"pageProps":{"locale":"en","admin2":{"geonameid":4920444,"name":"Fountain County","country":"US","admin1":"IN","admin2":"045","admin3":"","latitude":"40.1208700","longitude":"-87.2419900"},"admin1":{"geonameid":4921868,"name":"Indiana","admin1":"IN","localeAltName":"Indiana"},"locations":[{"geonameid":4917707,"name":"Attica","admin3":"44622"},{"geonameid":4919349,"name":"Covington","admin3":"76616"},{"geonameid":4927580,"name":"Veedersburg","admin3":"78452"}],"admin3":[{"geonameid":4257825,"name":"Township of Fulton","admin3":"26134"},{"geonameid":4259595,"name":"Township of Jackson","admin3":"37008"},{"geonameid":4918618,"name":"Township of Cain","admin3":"09748"},{"geonameid":4919542,"name":"Township of Davis","admin3":"16912"},{"geonameid":4922967,"name":"Township of Logan","admin3":"44622"},{"geonameid":4923590,"name":"Township of Millcreek","admin3":"49392"},{"geonameid":4925369,"name":"Township of Richland","admin3":"64026"},{"geonameid":4926340,"name":"Township of Shawnee","admin3":"69084"},{"geonameid":4927351,"name":"Township of Troy","admin3":"76616"},{"geonameid":4927557,"name":"Township of Van Buren","admin3":"78452"},{"geonameid":4927757,"name":"Township of Wabash","admin3":"79280"}],"alternateNames":[{"alternatenameId":2124819,"geonameid":4921868,"isoLanguage":"en","alternateName":"Indiana","isPreferredName":true,"isShortName":true,"isColloquial":false,"isHistoric":false}]},"__N_SSG":true}