{"pageProps":{"locale":"en","admin2":{"geonameid":4257700,"name":"Franklin County","country":"US","admin1":"IN","admin2":"047","admin3":"","latitude":"39.4148600","longitude":"-85.0602800"},"admin1":{"geonameid":4921868,"name":"Indiana","admin1":"IN","localeAltName":"Indiana"},"locations":[{"geonameid":4254999,"name":"Brookville","admin3":"08200"}],"admin3":[{"geonameid":4254192,"name":"Township of Bath","admin3":"03700"},{"geonameid":4254676,"name":"Township of Blooming Grove","admin3":"05824"},{"geonameid":4255006,"name":"Township of Brookville","admin3":"08200"},{"geonameid":4255259,"name":"Township of Butler","admin3":"09568"},{"geonameid":4257267,"name":"Township of Fairfield","admin3":"22306"},{"geonameid":4258916,"name":"Township of Highland","admin3":"33448"},{"geonameid":4260206,"name":"Township of Laurel","admin3":"42390"},{"geonameid":4261293,"name":"Township of Metamora","admin3":"48564"},{"geonameid":4263302,"name":"Township of Posey","admin3":"61326"},{"geonameid":4263561,"name":"Township of Ray","admin3":"63126"},{"geonameid":4264379,"name":"Township of Salt Creek","admin3":"67554"},{"geonameid":4265220,"name":"Township of Springfield","admin3":"72134"},{"geonameid":4266976,"name":"Township of Whitewater","admin3":"84068"}],"alternateNames":[{"alternatenameId":2124819,"geonameid":4921868,"isoLanguage":"en","alternateName":"Indiana","isPreferredName":true,"isShortName":true,"isColloquial":false,"isHistoric":false}]},"__N_SSG":true}