{"pageProps":{"locale":"en","admin2":{"geonameid":4921085,"name":"Hamilton County","country":"US","admin1":"IN","admin2":"057","admin3":"","latitude":"40.0724900","longitude":"-86.0520100"},"admin1":{"geonameid":4921868,"name":"Indiana","admin1":"IN","localeAltName":"Indiana"},"locations":[{"geonameid":4917653,"name":"Arcadia","admin3":"37044"},{"geonameid":4255466,"name":"Carmel","admin3":"13060"},{"geonameid":4919026,"name":"Cicero","admin3":"37044"},{"geonameid":4257494,"name":"Fishers","admin3":"17488"},{"geonameid":4924198,"name":"Noblesville","admin3":"54198"},{"geonameid":4926367,"name":"Sheridan","admin3":"00388"},{"geonameid":4928118,"name":"Westfield","admin3":"80666"}],"admin3":[{"geonameid":4255854,"name":"Township of Clay","admin3":"13060"},{"geonameid":4256562,"name":"Township of Delaware","admin3":"17488"},{"geonameid":4257338,"name":"Township of Fall Creek","admin3":"22612"},{"geonameid":4917499,"name":"Township of Adams","admin3":"00388"},{"geonameid":4921955,"name":"Township of Jackson","admin3":"37044"},{"geonameid":4924201,"name":"Township of Noblesville","admin3":"54198"},{"geonameid":4927908,"name":"Township of Washington","admin3":"80666"},{"geonameid":4927955,"name":"Township of Wayne","admin3":"81710"},{"geonameid":4928199,"name":"Township of White River","admin3":"83906"}],"alternateNames":[{"alternatenameId":2124819,"geonameid":4921868,"isoLanguage":"en","alternateName":"Indiana","isPreferredName":true,"isShortName":true,"isColloquial":false,"isHistoric":false}]},"__N_SSG":true}