{"pageProps":{"locale":"en","admin2":{"geonameid":4258792,"name":"Henry County","country":"US","admin1":"IN","admin2":"065","admin3":"","latitude":"39.9310400","longitude":"-85.3964400"},"admin1":{"geonameid":4921868,"name":"Indiana","admin1":"IN","localeAltName":"Indiana"},"locations":[{"geonameid":4259960,"name":"Knightstown","admin3":"81728"},{"geonameid":4923559,"name":"Middletown","admin3":"22630"},{"geonameid":4262072,"name":"New Castle","admin3":"33124"}],"admin3":[{"geonameid":4254727,"name":"Township of Blue River","admin3":"06076"},{"geonameid":4256822,"name":"Township of Dudley","admin3":"18838"},{"geonameid":4257716,"name":"Township of Franklin","admin3":"25432"},{"geonameid":4258301,"name":"Township of Greensboro","admin3":"29700"},{"geonameid":4258612,"name":"Township of Harrison","admin3":"31828"},{"geonameid":4258798,"name":"Township of Henry","admin3":"33124"},{"geonameid":4260356,"name":"Township of Liberty","admin3":"43308"},{"geonameid":4265163,"name":"Township of Spiceland","admin3":"72026"},{"geonameid":4266676,"name":"Township of Wayne","admin3":"81728"},{"geonameid":4920208,"name":"Township of Fall Creek","admin3":"22630"},{"geonameid":4922045,"name":"Township of Jefferson","admin3":"37998"},{"geonameid":4925097,"name":"Township of Prairie","admin3":"61560"},{"geonameid":4926859,"name":"Township of Stoney Creek","admin3":"73472"}],"alternateNames":[{"alternatenameId":2124819,"geonameid":4921868,"isoLanguage":"en","alternateName":"Indiana","isPreferredName":true,"isShortName":true,"isColloquial":false,"isHistoric":false}]},"__N_SSG":true}