{"pageProps":{"locale":"en","admin2":{"geonameid":4922013,"name":"Jay County","country":"US","admin1":"IN","admin2":"075","admin3":"","latitude":"40.4379200","longitude":"-85.0056400"},"admin1":{"geonameid":4921868,"name":"Indiana","admin1":"IN","localeAltName":"Indiana"},"locations":[{"geonameid":4919798,"name":"Dunkirk","admin3":"64098"},{"geonameid":4925037,"name":"Portland","admin3":"81764"},{"geonameid":4925265,"name":"Redkey","admin3":"64098"}],"admin3":[{"geonameid":4917892,"name":"Township of Bearcreek","admin3":"03844"},{"geonameid":4920947,"name":"Township of Greene","admin3":"29466"},{"geonameid":4921958,"name":"Township of Jackson","admin3":"37152"},{"geonameid":4922047,"name":"Township of Jefferson","admin3":"38034"},{"geonameid":4922381,"name":"Township of Knox","admin3":"40356"},{"geonameid":4923133,"name":"Township of Madison","admin3":"45972"},{"geonameid":4924194,"name":"Township of Noble","admin3":"54072"},{"geonameid":4924696,"name":"Township of Penn","admin3":"58680"},{"geonameid":4924799,"name":"Township of Pike","admin3":"59724"},{"geonameid":4925372,"name":"Township of Richland","admin3":"64098"},{"geonameid":4927758,"name":"Township of Wabash","admin3":"79316"},{"geonameid":4927957,"name":"Township of Wayne","admin3":"81764"}],"alternateNames":[{"alternatenameId":2124819,"geonameid":4921868,"isoLanguage":"en","alternateName":"Indiana","isPreferredName":true,"isShortName":true,"isColloquial":false,"isHistoric":false}]},"__N_SSG":true}