{"pageProps":{"locale":"en","admin2":{"geonameid":4259654,"name":"Jefferson County","country":"US","admin1":"IN","admin2":"077","admin3":"","latitude":"38.7858200","longitude":"-85.4385700"},"admin1":{"geonameid":4921868,"name":"Indiana","admin1":"IN","localeAltName":"Indiana"},"locations":[{"geonameid":4258510,"name":"Hanover","admin3":"31234"},{"geonameid":4260853,"name":"Madison","admin3":"46008"},{"geonameid":4262293,"name":"North Madison","admin3":"46008"}],"admin3":[{"geonameid":4258141,"name":"Township of Graham","admin3":"28566"},{"geonameid":4258501,"name":"Township of Hanover","admin3":"31234"},{"geonameid":4260151,"name":"Township of Lancaster","admin3":"41940"},{"geonameid":4260862,"name":"Township of Madison","admin3":"46008"},{"geonameid":4261466,"name":"Township of Milton","admin3":"49824"},{"geonameid":4261534,"name":"Township of Monroe","admin3":"50346"},{"geonameid":4263629,"name":"Township of Republican","admin3":"63828"},{"geonameid":4264389,"name":"Township of Saluda","admin3":"67662"},{"geonameid":4264685,"name":"Township of Shelby","admin3":"69228"},{"geonameid":4264971,"name":"Township of Smyrna","admin3":"70398"}],"alternateNames":[{"alternatenameId":2124819,"geonameid":4921868,"isoLanguage":"en","alternateName":"Indiana","isPreferredName":true,"isShortName":true,"isColloquial":false,"isHistoric":false}]},"__N_SSG":true}