{"pageProps":{"locale":"en","admin2":{"geonameid":4922460,"name":"LaPorte County","country":"US","admin1":"IN","admin2":"091","admin3":"","latitude":"41.5490200","longitude":"-86.7423700"},"admin1":{"geonameid":4921868,"name":"Indiana","admin1":"IN","localeAltName":"Indiana"},"locations":[{"geonameid":4920327,"name":"Fish Lake","admin3":"43812"},{"geonameid":4921690,"name":"Hudson Lake","admin3":"35068"},{"geonameid":4922329,"name":"Kingsford Heights","admin3":"77408"},{"geonameid":8449910,"name":"La Porte","admin3":"11494"},{"geonameid":4922459,"name":"LaPorte","admin3":"11494"},{"geonameid":4922979,"name":"Long Beach","admin3":"48780"},{"geonameid":4923531,"name":"Michigan City","admin3":"48780"},{"geonameid":4927291,"name":"Trail Creek","admin3":"48780"},{"geonameid":4927832,"name":"Wanatah","admin3":"10720"},{"geonameid":4928145,"name":"Westville","admin3":"52830"}],"admin3":[{"geonameid":4918774,"name":"Township of Cass","admin3":"10720"},{"geonameid":4918860,"name":"Township of Center","admin3":"11494"},{"geonameid":4919134,"name":"Township of Clinton","admin3":"13744"},{"geonameid":4919289,"name":"Township of Coolspring","admin3":"15040"},{"geonameid":4919653,"name":"Township of Dewey","admin3":"17974"},{"geonameid":4920572,"name":"Township of Galena","admin3":"26224"},{"geonameid":4921140,"name":"Township of Hanna","admin3":"31198"},{"geonameid":4921692,"name":"Township of Hudson","admin3":"35068"},{"geonameid":4922129,"name":"Township of Johnson","admin3":"38736"},{"geonameid":4922202,"name":"Township of Kankakee","admin3":"39186"},{"geonameid":4922822,"name":"Township of Lincoln","admin3":"43812"},{"geonameid":4923541,"name":"Township of Michigan","admin3":"48780"},{"geonameid":4924099,"name":"Township of New Durham","admin3":"52830"},{"geonameid":4924195,"name":"Township of Noble","admin3":"54090"},{"geonameid":4924939,"name":"Township of Pleasant","admin3":"60408"},{"geonameid":4925099,"name":"Township of Prairie","admin3":"61596"},{"geonameid":4926212,"name":"Township of Scipio","admin3":"68346"},{"geonameid":4926722,"name":"Township of Springfield","admin3":"72170"},{"geonameid":4927475,"name":"Township of Union","admin3":"77408"},{"geonameid":4927910,"name":"Township of Washington","admin3":"80774"},{"geonameid":4928288,"name":"Township of Wills","admin3":"84554"}],"alternateNames":[{"alternatenameId":2124819,"geonameid":4921868,"isoLanguage":"en","alternateName":"Indiana","isPreferredName":true,"isShortName":true,"isColloquial":false,"isHistoric":false}]},"__N_SSG":true}