{"pageProps":{"locale":"en","admin2":{"geonameid":4262785,"name":"Parke County","country":"US","admin1":"IN","admin2":"121","admin3":"","latitude":"39.7736300","longitude":"-87.2063600"},"admin1":{"geonameid":4921868,"name":"Indiana","admin1":"IN","localeAltName":"Indiana"},"locations":[{"geonameid":4263848,"name":"Rockport","admin3":"58698"},{"geonameid":4263850,"name":"Rockville","admin3":"00460"}],"admin3":[{"geonameid":4253746,"name":"Township of Adams","admin3":"00460"},{"geonameid":4257561,"name":"Township of Florida","admin3":"23764"},{"geonameid":4258282,"name":"Township of Greene","admin3":"29484"},{"geonameid":4259207,"name":"Township of Howard","admin3":"34942"},{"geonameid":4259603,"name":"Township of Jackson","admin3":"37296"},{"geonameid":4260357,"name":"Township of Liberty","admin3":"43344"},{"geonameid":4262905,"name":"Township of Penn","admin3":"58698"},{"geonameid":4263492,"name":"Township of Raccoon","admin3":"62622"},{"geonameid":4263630,"name":"Township of Reserve","admin3":"63846"},{"geonameid":4265479,"name":"Township of Sugar Creek","admin3":"73916"},{"geonameid":4266133,"name":"Township of Union","admin3":"77516"},{"geonameid":4266463,"name":"Township of Wabash","admin3":"79334"},{"geonameid":4266625,"name":"Township of Washington","admin3":"80918"}],"alternateNames":[{"alternatenameId":2124819,"geonameid":4921868,"isoLanguage":"en","alternateName":"Indiana","isPreferredName":true,"isShortName":true,"isColloquial":false,"isHistoric":false}]},"__N_SSG":true}