{"pageProps":{"locale":"en","admin2":{"geonameid":2649469,"name":"Fife","country":"GB","admin1":"SCT","admin2":"V1","admin3":"","latitude":"56.2500000","longitude":"-3.1666700"},"admin1":{"geonameid":2638360,"name":"Scotland","admin1":"SCT"},"locations":[{"geonameid":2657829,"name":"Aberdour","admin3":""},{"geonameid":6949248,"name":"Allanhill Farm","admin3":""},{"geonameid":2657267,"name":"Anstruther","admin3":""},{"geonameid":2657266,"name":"Anstruther Easter","admin3":""},{"geonameid":2657265,"name":"Anstruther Wester","admin3":""},{"geonameid":2656802,"name":"Auchterderran","admin3":""},{"geonameid":2656799,"name":"Auchtermuchty","admin3":""},{"geonameid":2656797,"name":"Auchtertool","admin3":""},{"geonameid":2656673,"name":"Backmuir of New Gilston","admin3":""},{"geonameid":2656551,"name":"Ballingry","admin3":""},{"geonameid":2656453,"name":"Balmerino","admin3":""},{"geonameid":2656447,"name":"Balmullo","admin3":""},{"geonameid":2655393,"name":"Blairhall","admin3":""},{"geonameid":2655303,"name":"Boarhills","admin3":""},{"geonameid":2654415,"name":"Buckhaven","admin3":""},{"geonameid":2654414,"name":"Buckhaven and Methil","admin3":""},{"geonameid":2654255,"name":"Burntisland","admin3":""},{"geonameid":2654066,"name":"Cairneyhill","admin3":""},{"geonameid":2653926,"name":"Cameron","admin3":""},{"geonameid":2653925,"name":"Cameron Bridge","admin3":""},{"geonameid":2653824,"name":"Cardenden","admin3":""},{"geonameid":2653726,"name":"Carnbee","admin3":""},{"geonameid":6943698,"name":"Carnock","admin3":""},{"geonameid":2653441,"name":"Cellardyke","admin3":""},{"geonameid":2653424,"name":"Ceres","admin3":""},{"geonameid":2653333,"name":"Charlestown","admin3":""},{"geonameid":11592440,"name":"Coaltown of Balgonie","admin3":""},{"geonameid":11592126,"name":"Coaltown of Wemyss","admin3":""},{"geonameid":2652578,"name":"Colinsburgh","admin3":""},{"geonameid":2652567,"name":"Collessie","admin3":""},{"geonameid":11592113,"name":"Comrie","admin3":""},{"geonameid":2652207,"name":"Cowdenbeath","admin3":""},{"geonameid":2652113,"name":"Craigrothie","admin3":""},{"geonameid":2652102,"name":"Crail","admin3":""},{"geonameid":2651878,"name":"Crossford","admin3":""},{"geonameid":2651873,"name":"Crossgates","admin3":""},{"geonameid":2651728,"name":"Culross","admin3":""},{"geonameid":2651698,"name":"Cupar","admin3":""},{"geonameid":8063583,"name":"Dairsie","admin3":""},{"geonameid":8739669,"name":"Dalgety Bay","admin3":""},{"geonameid":2651121,"name":"Donibristle","admin3":""},{"geonameid":2650768,"name":"Dunbog","admin3":""},{"geonameid":2650732,"name":"Dunfermline","admin3":""},{"geonameid":2650719,"name":"Dunino","admin3":""},{"geonameid":10109495,"name":"Dunshalt","admin3":""},{"geonameid":2650585,"name":"Dysart","admin3":""},{"geonameid":2650545,"name":"Earlsferry","admin3":""},{"geonameid":6949249,"name":"East Neuk","admin3":""},{"geonameid":2650314,"name":"East Wemyss","admin3":""},{"geonameid":2650117,"name":"Elie","admin3":""},{"geonameid":2649722,"name":"Falkland","admin3":""},{"geonameid":11591740,"name":"Fife","admin3":""},{"geonameid":2649233,"name":"Fordell","admin3":""},{"geonameid":2649062,"name":"Freuchie","admin3":""},{"geonameid":7731325,"name":"Freuchie Mill","admin3":""},{"geonameid":2648771,"name":"Gateside","admin3":""},{"geonameid":11592154,"name":"Gauldry","admin3":""},{"geonameid":2648438,"name":"Glenrothes","admin3":""},{"geonameid":8063584,"name":"Guardbridge","admin3":""},{"geonameid":6693232,"name":"Halbeath","admin3":""},{"geonameid":2646921,"name":"High Valleyfield","admin3":""},{"geonameid":2646104,"name":"Inverkeithing","admin3":""},{"geonameid":2645843,"name":"Kelty","admin3":""},{"geonameid":2645803,"name":"Kennoway","admin3":""},{"geonameid":2645686,"name":"Kilconquhar","admin3":""},{"geonameid":2645607,"name":"Kilmany","admin3":""},{"geonameid":2645604,"name":"Kilmaron","admin3":""},{"geonameid":2645554,"name":"Kilrenny","admin3":""},{"geonameid":2645525,"name":"Kincardine","admin3":""},{"geonameid":2645500,"name":"Kinghorn","admin3":""},{"geonameid":2645494,"name":"Kinglassie","admin3":""},{"geonameid":2645489,"name":"Kingsbarns","admin3":""},{"geonameid":2645469,"name":"Kingseat","admin3":""},{"geonameid":2645463,"name":"Kingskettle","admin3":""},{"geonameid":2645298,"name":"Kirkcaldy","admin3":""},{"geonameid":2645210,"name":"Kirkton of Largo","admin3":""},{"geonameid":2645064,"name":"Ladybank","admin3":""},{"geonameid":2644861,"name":"Largo Ward","admin3":""},{"geonameid":6693047,"name":"Lathones","admin3":""},{"geonameid":2644603,"name":"Leslie","admin3":""},{"geonameid":2644581,"name":"Leuchars","admin3":""},{"geonameid":2644577,"name":"Leven","admin3":""},{"geonameid":2644495,"name":"Limekilns","admin3":""},{"geonameid":2644477,"name":"Lindores","admin3":""},{"geonameid":10109499,"name":"Linktown","admin3":""},{"geonameid":2643827,"name":"Lochgelly","admin3":""},{"geonameid":2643766,"name":"Logie","admin3":""},{"geonameid":2643468,"name":"Low Torry","admin3":""},{"geonameid":2643511,"name":"Lower Largo","admin3":""},{"geonameid":2643385,"name":"Lundin Links","admin3":""},{"geonameid":2643341,"name":"Luthrie","admin3":""},{"geonameid":2643016,"name":"Markinch","admin3":""},{"geonameid":2642694,"name":"Methil","admin3":""},{"geonameid":2642460,"name":"Milton of Balgonie","admin3":""},{"geonameid":2642338,"name":"Monimail","admin3":""},{"geonameid":2642288,"name":"Moonzie","admin3":""},{"geonameid":2641692,"name":"Newburgh","admin3":""},{"geonameid":2641593,"name":"Newport-on-Tay","admin3":""},{"geonameid":10109494,"name":"Newton of Falkland","admin3":""},{"geonameid":2641280,"name":"North Queensferry","admin3":""},{"geonameid":2641120,"name":"Oakley","admin3":""},{"geonameid":2640575,"name":"Pathhead","admin3":""},{"geonameid":2640333,"name":"Pettycur","admin3":""},{"geonameid":2640256,"name":"Pitlessie","admin3":""},{"geonameid":2640248,"name":"Pitscottie","admin3":""},{"geonameid":2640242,"name":"Pittenweem","admin3":""},{"geonameid":2639723,"name":"Radernie","admin3":""},{"geonameid":2639104,"name":"Rosyth","admin3":""},{"geonameid":2638864,"name":"Saint Andrews","admin3":""},{"geonameid":2638821,"name":"Saint Davids","admin3":""},{"geonameid":2638719,"name":"Saint Monans","admin3":""},{"geonameid":2638665,"name":"Saline","admin3":""},{"geonameid":2637816,"name":"Sinclairtown","admin3":""},{"geonameid":2637194,"name":"Springfield","admin3":""},{"geonameid":2636697,"name":"Strathkinness","admin3":""},{"geonameid":2636694,"name":"Strathmiglo","admin3":""},{"geonameid":2636158,"name":"Tayport","admin3":""},{"geonameid":2635969,"name":"Thornton","admin3":""},{"geonameid":2635629,"name":"Torryburn","admin3":""},{"geonameid":2635587,"name":"Townhill","admin3":""},{"geonameid":10109498,"name":"Wemyfield","admin3":""},{"geonameid":2634235,"name":"West Wemyss","admin3":""},{"geonameid":10171170,"name":"Windygates","admin3":""},{"geonameid":2633538,"name":"Wormit","admin3":""}],"admin3":[{"geonameid":2649468,"name":"Fifeshire","admin3":"2649468"}],"alternateNames":[]},"__N_SSG":true}