{"pageProps":{"locale":"de","admin2":{"geonameid":8740969,"name":"Hochdorf District","country":"CH","admin1":"LU","admin2":"313","admin3":"","latitude":"47.1706200","longitude":"8.2870200"},"admin1":{"geonameid":2659810,"name":"Kanton Luzern","admin1":"LU"},"locations":[{"geonameid":2661853,"name":"Aesch","admin3":"1041"},{"geonameid":2661632,"name":"Ballwil","admin3":"1023"},{"geonameid":2660911,"name":"Emmen","admin3":"1024"},{"geonameid":2660658,"name":"Gelfingen","admin3":"1039"},{"geonameid":2660414,"name":"Hämikon","admin3":"1030"},{"geonameid":2660334,"name":"Hitzkirch","admin3":"1030"},{"geonameid":2660332,"name":"Hochdorf","admin3":"1031"},{"geonameid":2660322,"name":"Hohenrain","admin3":"1032"},{"geonameid":2660250,"name":"Inwil","admin3":"1026"},{"geonameid":2659894,"name":"Lieli","admin3":"1032"},{"geonameid":6291510,"name":"Rain","admin3":""},{"geonameid":6291518,"name":"Rain","admin3":""},{"geonameid":2658983,"name":"Römerswil","admin3":"1039"}],"admin3":[{"geonameid":7285031,"name":"Aesch (LU)","admin3":"1021"},{"geonameid":7285145,"name":"Ballwil","admin3":"1023"},{"geonameid":7285725,"name":"Emmen","admin3":"1024"},{"geonameid":7285757,"name":"Ermensee","admin3":"1025"},{"geonameid":7285765,"name":"Eschenbach (LU)","admin3":"1026"},{"geonameid":7286090,"name":"Hitzkirch","admin3":"1030"},{"geonameid":7286091,"name":"Hochdorf","admin3":"1031"},{"geonameid":7286099,"name":"Hohenrain","admin3":"1032"},{"geonameid":7286145,"name":"Inwil","admin3":"1033"},{"geonameid":7286849,"name":"Rain","admin3":"1037"},{"geonameid":7286941,"name":"Römerswil","admin3":"1039"},{"geonameid":7286959,"name":"Rothenburg","admin3":"1040"},{"geonameid":7287111,"name":"Schongau","admin3":"1041"}],"alternateNames":[]},"__N_SSG":true}