{"pageProps":{"locale":"de","admin2":{"geonameid":8740970,"name":"Sursee District","country":"CH","admin1":"LU","admin2":"314","admin3":"","latitude":"47.1559100","longitude":"8.1370400"},"admin1":{"geonameid":2659810,"name":"Kanton Luzern","admin1":"LU"},"locations":[{"geonameid":2661542,"name":"Berom端nster","admin3":"1081"},{"geonameid":2661313,"name":"B端ron","admin3":"1082"},{"geonameid":2661300,"name":"Buttisholz","admin3":"1098"},{"geonameid":2660931,"name":"Eich","admin3":"1084"},{"geonameid":2660625,"name":"Geuensee","admin3":"1085"},{"geonameid":2660474,"name":"Grosswangen","admin3":"1086"},{"geonameid":2660441,"name":"Gunzwil","admin3":"1081"},{"geonameid":2660352,"name":"Hildisrieden","admin3":"1088"},{"geonameid":2660124,"name":"Knutwil","admin3":"1089"},{"geonameid":2659721,"name":"Mauensee","admin3":"1091"},{"geonameid":2659493,"name":"Neudorf","admin3":"1081"},{"geonameid":2659489,"name":"Neuenkirch","admin3":"1093"},{"geonameid":2659436,"name":"Nottwil","admin3":"1094"},{"geonameid":2659372,"name":"Oberkirch","admin3":"1095"},{"geonameid":2659216,"name":"Pfeffikon","admin3":"1097"},{"geonameid":2658914,"name":"Ruswil","admin3":"1098"},{"geonameid":2658744,"name":"Schenkon","admin3":"1099"},{"geonameid":2658631,"name":"Sempach","admin3":"1102"},{"geonameid":2658440,"name":"Sursee","admin3":"1103"},{"geonameid":2658315,"name":"Triengen","admin3":"1104"},{"geonameid":2657974,"name":"Winikon","admin3":"1104"}],"admin3":[{"geonameid":7285216,"name":"Berom端nster","admin3":"1081"},{"geonameid":7285396,"name":"B端ron","admin3":"1082"},{"geonameid":7285413,"name":"Buttisholz","admin3":"1083"},{"geonameid":7285712,"name":"Eich","admin3":"1084"},{"geonameid":7285911,"name":"Geuensee","admin3":"1085"},{"geonameid":7285993,"name":"Grosswangen","admin3":"1086"},{"geonameid":7286081,"name":"Hildisrieden","admin3":"1088"},{"geonameid":7286212,"name":"Knutwil","admin3":"1089"},{"geonameid":7286463,"name":"Mauensee","admin3":"1091"},{"geonameid":7286626,"name":"Neuenkirch","admin3":"1093"},{"geonameid":7286660,"name":"Nottwil","admin3":"1094"},{"geonameid":7286700,"name":"Oberkirch","admin3":"1095"},{"geonameid":7286896,"name":"Rickenbach (LU)","admin3":"1097"},{"geonameid":7286995,"name":"Ruswil","admin3":"1098"},{"geonameid":7287080,"name":"Schenkon","admin3":"1099"},{"geonameid":7287093,"name":"Schlierbach","admin3":"1100"},{"geonameid":7287148,"name":"Sempach","admin3":"1102"},{"geonameid":7287268,"name":"Sursee","admin3":"1103"},{"geonameid":7287331,"name":"Triengen","admin3":"1104"}],"alternateNames":[]},"__N_SSG":true}