{"pageProps":{"locale":"en","admin2":{"geonameid":4885994,"name":"Bureau County","country":"US","admin1":"IL","admin2":"011","admin3":"","latitude":"41.4041500","longitude":"-89.5286800"},"admin1":{"geonameid":4896861,"name":"Illinois","admin1":"IL","localeAltName":"Illinois"},"locations":[{"geonameid":4889761,"name":"Depue","admin3":"68562"},{"geonameid":4898927,"name":"Ladd","admin3":"32265"},{"geonameid":4906818,"name":"Princeton","admin3":"61912"},{"geonameid":4912303,"name":"Spring Valley","admin3":"32265"},{"geonameid":4915397,"name":"Walnut","admin3":"78539"}],"admin3":[{"geonameid":4883546,"name":"Township of Arispie","admin3":"02076"},{"geonameid":4884570,"name":"Township of Berlin","admin3":"05430"},{"geonameid":4886007,"name":"Township of Bureau","admin3":"09668"},{"geonameid":4888088,"name":"Township of Clarion","admin3":"14598"},{"geonameid":4888583,"name":"Township of Concord","admin3":"16028"},{"geonameid":4890112,"name":"Township of Dover","admin3":"20539"},{"geonameid":4891548,"name":"Township of Fairfield","admin3":"24790"},{"geonameid":4893963,"name":"Township of Gold","admin3":"30146"},{"geonameid":4894706,"name":"Township of Greenville","admin3":"31602"},{"geonameid":4894964,"name":"Township of Hall","admin3":"32265"},{"geonameid":4897091,"name":"Township of Indiantown","admin3":"37413"},{"geonameid":4898866,"name":"Township of La Moille","admin3":"41807"},{"geonameid":4899543,"name":"Township of Leepertown","admin3":"42665"},{"geonameid":4900832,"name":"Township of Macon","admin3":"45928"},{"geonameid":4900982,"name":"Township of Manlius","admin3":"46435"},{"geonameid":4902342,"name":"Township of Milo","admin3":"49438"},{"geonameid":4902365,"name":"Township of Mineral","admin3":"49529"},{"geonameid":4903417,"name":"Township of Neponset","admin3":"52012"},{"geonameid":4904627,"name":"Township of Ohio","admin3":"55392"},{"geonameid":4906823,"name":"Township of Princeton","admin3":"61912"},{"geonameid":4911037,"name":"Township of Selby","admin3":"68562"},{"geonameid":4915437,"name":"Township of Walnut","admin3":"78539"},{"geonameid":4916176,"name":"Township of Westfield","admin3":"80268"},{"geonameid":4916284,"name":"Township of Wheatland","admin3":"81009"},{"geonameid":4917210,"name":"Township of Wyanet","admin3":"83635"}],"alternateNames":[{"alternatenameId":2089562,"geonameid":4896861,"isoLanguage":"en","alternateName":"Illinois","isPreferredName":true,"isShortName":true,"isColloquial":false,"isHistoric":false}]},"__N_SSG":true}