{"pageProps":{"locale":"en","admin2":{"geonameid":4887163,"name":"Champaign County","country":"US","admin1":"IL","admin2":"019","admin3":"","latitude":"40.1400800","longitude":"-88.1991900"},"admin1":{"geonameid":4896861,"name":"Illinois","admin1":"IL","localeAltName":"Illinois"},"locations":[{"geonameid":4887158,"name":"Champaign","admin3":"12411"},{"geonameid":4892570,"name":"Fisher","admin3":"08914"},{"geonameid":4893720,"name":"Gifford","admin3":"15976"},{"geonameid":4896333,"name":"Homer","admin3":"70863"},{"geonameid":4899197,"name":"Lake of the Woods","admin3":"46149"},{"geonameid":4900885,"name":"Mahomet","admin3":"46149"},{"geonameid":4905866,"name":"Philo","admin3":"59546"},{"geonameid":4907131,"name":"Rantoul","admin3":"62796"},{"geonameid":4909268,"name":"Saint Joseph","admin3":""},{"geonameid":4910663,"name":"Savoy","admin3":"12398"},{"geonameid":4911455,"name":"Sidney","admin3":"69888"},{"geonameid":4913555,"name":"Thomasboro","admin3":"62796"},{"geonameid":4251341,"name":"Tolono","admin3":"75627"},{"geonameid":4914570,"name":"Urbana","admin3":"18121"}],"admin3":[{"geonameid":4233083,"name":"Township of Ayers","admin3":"03246"},{"geonameid":4236629,"name":"Township of Crittenden","admin3":"17588"},{"geonameid":4246863,"name":"Township of Pesotum","admin3":"59286"},{"geonameid":4247857,"name":"Township of Raymond","admin3":"62952"},{"geonameid":4248651,"name":"Township of Sadorus","admin3":"66547"},{"geonameid":4885780,"name":"Township of Brown","admin3":"08914"},{"geonameid":4887161,"name":"Township of Champaign City","admin3":"12411"},{"geonameid":4887169,"name":"Township of Champaign","admin3":"12398"},{"geonameid":4888372,"name":"Township of Colfax","admin3":"15482"},{"geonameid":4888564,"name":"Township of Compromise","admin3":"15976"},{"geonameid":4888598,"name":"Township of Condit","admin3":"16080"},{"geonameid":4889296,"name":"Township of Cunningham","admin3":"18121"},{"geonameid":4890455,"name":"Township of East Bend","admin3":"21566"},{"geonameid":4895312,"name":"Township of Harwood","admin3":"33422"},{"geonameid":4895620,"name":"Township of Hensley","admin3":"34189"},{"geonameid":4898421,"name":"Township of Kerr","admin3":"39688"},{"geonameid":4900646,"name":"Township of Ludlow","admin3":"45187"},{"geonameid":4900889,"name":"Township of Mahomet","admin3":"46149"},{"geonameid":4903655,"name":"Township of Newcomb","admin3":"52376"},{"geonameid":4904598,"name":"Township of Ogden","admin3":"55288"},{"geonameid":4905869,"name":"Township of Philo","admin3":"59546"},{"geonameid":4907141,"name":"Township of Rantoul","admin3":"62796"},{"geonameid":4910920,"name":"Township of Scott","admin3":"68289"},{"geonameid":4911458,"name":"Township of Sidney","admin3":"69888"},{"geonameid":4911796,"name":"Township of Somer","admin3":"70382"},{"geonameid":4911937,"name":"Township of South Homer","admin3":"70863"},{"geonameid":4912386,"name":"Township of Stanton","admin3":"72273"},{"geonameid":4913759,"name":"Township of Tolono","admin3":"75627"},{"geonameid":4914575,"name":"Township of Urbana","admin3":"77018"}],"alternateNames":[{"alternatenameId":2089562,"geonameid":4896861,"isoLanguage":"en","alternateName":"Illinois","isPreferredName":true,"isShortName":true,"isColloquial":false,"isHistoric":false}]},"__N_SSG":true}