{"pageProps":{"locale":"en","admin2":{"geonameid":4237730,"name":"Effingham County","country":"US","admin1":"IL","admin2":"049","admin3":"","latitude":"39.0597700","longitude":"-88.5898600"},"admin1":{"geonameid":4896861,"name":"Illinois","admin1":"IL","localeAltName":"Illinois"},"locations":[{"geonameid":4232662,"name":"Altamont","admin3":"50725"},{"geonameid":4237727,"name":"Effingham","admin3":"20474"},{"geonameid":4251185,"name":"Teutopolis","admin3":"74756"}],"admin3":[{"geonameid":4233187,"name":"Township of Banner","admin3":"03558"},{"geonameid":4233952,"name":"Township of Bishop","admin3":"06145"},{"geonameid":4237232,"name":"Township of Douglas","admin3":"20474"},{"geonameid":4241706,"name":"Township of Jackson","admin3":"38063"},{"geonameid":4242959,"name":"Township of Liberty","admin3":"43159"},{"geonameid":4243621,"name":"Township of Lucas","admin3":"45161"},{"geonameid":4244055,"name":"Township of Mason","admin3":"47462"},{"geonameid":4244722,"name":"Township of Moccasin","admin3":"49763"},{"geonameid":4244949,"name":"Township of Mound","admin3":"50725"},{"geonameid":4248809,"name":"Township of Saint Francis","admin3":"66807"},{"geonameid":4250908,"name":"Township of Summit","admin3":"73651"},{"geonameid":4251189,"name":"Township of Teutopolis","admin3":"74756"},{"geonameid":4251803,"name":"Township of Union","admin3":"76654"},{"geonameid":4252582,"name":"Township of Watson","admin3":"79254"},{"geonameid":4252890,"name":"Township of West","admin3":"79891"}],"alternateNames":[{"alternatenameId":2089562,"geonameid":4896861,"isoLanguage":"en","alternateName":"Illinois","isPreferredName":true,"isShortName":true,"isColloquial":false,"isHistoric":false}]},"__N_SSG":true}