{"pageProps":{"locale":"en","admin2":{"geonameid":4894828,"name":"Grundy County","country":"US","admin1":"IL","admin2":"063","admin3":"","latitude":"41.2850900","longitude":"-88.4185000"},"admin1":{"geonameid":4896861,"name":"Illinois","admin1":"IL","localeAltName":"Illinois"},"locations":[{"geonameid":4887024,"name":"Central City","admin3":"07653"},{"geonameid":4888270,"name":"Coal City","admin3":"25778"},{"geonameid":4889835,"name":"Diamond","admin3":"25778"},{"geonameid":4893472,"name":"Gardner","admin3":"28677"},{"geonameid":4902386,"name":"Minooka","admin3":"03090"},{"geonameid":4902706,"name":"Morris","admin3":"50504"}],"admin3":[{"geonameid":4883871,"name":"Township of Aux Sable","admin3":"03090"},{"geonameid":4885405,"name":"Township of Braceville","admin3":"07653"},{"geonameid":4891251,"name":"Township of Erienna","admin3":"24400"},{"geonameid":4891844,"name":"Township of Felix","admin3":"25778"},{"geonameid":4893507,"name":"Township of Garfield","admin3":"28677"},{"geonameid":4894055,"name":"Township of Goodfarm","admin3":"30432"},{"geonameid":4894101,"name":"Township of Goose Lake","admin3":"30549"},{"geonameid":4894678,"name":"Township of Greenfield","admin3":"31381"},{"geonameid":4895897,"name":"Township of Highland","admin3":"34657"},{"geonameid":4900917,"name":"Township of Maine","admin3":"46175"},{"geonameid":4901527,"name":"Township of Mazon","admin3":"47800"},{"geonameid":4902722,"name":"Township of Morris","admin3":"50504"},{"geonameid":4903432,"name":"Township of Nettle Creek","admin3":"52038"},{"geonameid":4903795,"name":"Township of Norman","admin3":"53286"},{"geonameid":4910601,"name":"Township of Saratoga","admin3":"67678"},{"geonameid":4914820,"name":"Township of Vienna","admin3":"77850"},{"geonameid":4915748,"name":"Township of Wauponsee","admin3":"79345"}],"alternateNames":[{"alternatenameId":2089562,"geonameid":4896861,"isoLanguage":"en","alternateName":"Illinois","isPreferredName":true,"isShortName":true,"isColloquial":false,"isHistoric":false}]},"__N_SSG":true}