{"pageProps":{"locale":"en","admin2":{"geonameid":4898166,"name":"Kane County","country":"US","admin1":"IL","admin2":"089","admin3":"","latitude":"41.9389400","longitude":"-88.4286600"},"admin1":{"geonameid":4896861,"name":"Illinois","admin1":"IL","localeAltName":"Illinois"},"locations":[{"geonameid":4883817,"name":"Aurora","admin3":"03025"},{"geonameid":4884192,"name":"Batavia","admin3":"04091"},{"geonameid":4884902,"name":"Big Rock","admin3":"05989"},{"geonameid":4886676,"name":"Carpentersville","admin3":"21046"},{"geonameid":4890486,"name":"East Dundee","admin3":"21046"},{"geonameid":4890835,"name":"Elburn","admin3":"06262"},{"geonameid":4890864,"name":"Elgin","admin3":"23087"},{"geonameid":4891785,"name":"Farmington","admin3":""},{"geonameid":4893591,"name":"Geneva","admin3":"28885"},{"geonameid":4893731,"name":"Gilberts","admin3":"66430"},{"geonameid":4895016,"name":"Hampshire","admin3":"32538"},{"geonameid":4899787,"name":"Lily Lake","admin3":"10903"},{"geonameid":4901102,"name":"Maple Park","admin3":"78188"},{"geonameid":4902559,"name":"Montgomery","admin3":"03025"},{"geonameid":4903818,"name":"North Aurora","admin3":"03025"},{"geonameid":4906035,"name":"Pingree Grove","admin3":"66430"},{"geonameid":8480035,"name":"Prestbury","admin3":"73404"},{"geonameid":4911640,"name":"Sleepy Hollow","admin3":"21046"},{"geonameid":4911893,"name":"South Elgin","admin3":"23087"},{"geonameid":4908737,"name":"St. Charles","admin3":""},{"geonameid":4912783,"name":"Sugar Grove","admin3":"73404"},{"geonameid":6930979,"name":"Village of Campton Hills","admin3":"10903"},{"geonameid":4915539,"name":"Wasco","admin3":"10903"},{"geonameid":4915977,"name":"West Dundee","admin3":"21046"}],"admin3":[{"geonameid":4883836,"name":"Township of Aurora","admin3":"03025"},{"geonameid":4884200,"name":"Township of Batavia","admin3":"04091"},{"geonameid":4884906,"name":"Township of Big Rock","admin3":"05989"},{"geonameid":4885029,"name":"Township of Blackberry","admin3":"06262"},{"geonameid":4886035,"name":"Township of Burlington","admin3":"09772"},{"geonameid":4886520,"name":"Township of Campton","admin3":"10903"},{"geonameid":4890288,"name":"Township of Dundee","admin3":"21046"},{"geonameid":4890887,"name":"Township of Elgin","admin3":"23087"},{"geonameid":4893599,"name":"Township of Geneva","admin3":"28885"},{"geonameid":4895026,"name":"Township of Hampshire","admin3":"32538"},{"geonameid":4898180,"name":"Township of Kaneville","admin3":"38908"},{"geonameid":4906157,"name":"Township of Plato","admin3":"60365"},{"geonameid":4908363,"name":"Township of Rutland","admin3":"66430"},{"geonameid":4912808,"name":"Township of Sugar Grove","admin3":"73404"},{"geonameid":4914901,"name":"Township of Virgil","admin3":"78188"}],"alternateNames":[{"alternatenameId":2089562,"geonameid":4896861,"isoLanguage":"en","alternateName":"Illinois","isPreferredName":true,"isShortName":true,"isColloquial":false,"isHistoric":false}]},"__N_SSG":true}