{"pageProps":{"locale":"en","admin2":{"geonameid":4898998,"name":"Lake County","country":"US","admin1":"IL","admin2":"097","admin3":"","latitude":"42.3494100","longitude":"-87.8617900"},"admin1":{"geonameid":4896861,"name":"Illinois","admin1":"IL","localeAltName":"Illinois"},"locations":[{"geonameid":4883393,"name":"Antioch","admin3":"01608"},{"geonameid":4884038,"name":"Bannockburn","admin3":"80112"},{"geonameid":4884249,"name":"Beach Park","admin3":"05326"},{"geonameid":4887205,"name":"Channel Lake","admin3":"01608"},{"geonameid":4889256,"name":"Cuba","admin3":"18004"},{"geonameid":4889652,"name":"Deer Park","admin3":"22853"},{"geonameid":4889668,"name":"Deerfield","admin3":"80112"},{"geonameid":4891534,"name":"Fairfield","admin3":"22853"},{"geonameid":4892770,"name":"Forest Lake","admin3":"22853"},{"geonameid":4892950,"name":"Fox Lake","admin3":"30952"},{"geonameid":4892953,"name":"Fox Lake Hills","admin3":"41599"},{"geonameid":4893371,"name":"Gages Lake","admin3":"78877"},{"geonameid":4894360,"name":"Grandwood Park","admin3":"78877"},{"geonameid":4894465,"name":"Grayslake","admin3":"03220"},{"geonameid":4894614,"name":"Green Oaks","admin3":"43263"},{"geonameid":4894861,"name":"Gurnee","admin3":"78877"},{"geonameid":4894921,"name":"Hainesville","admin3":"03220"},{"geonameid":4895376,"name":"Hawthorn Woods","admin3":"22853"},{"geonameid":4895876,"name":"Highland Park","admin3":"50364"},{"geonameid":4895918,"name":"Highwood","admin3":"50364"},{"geonameid":4897579,"name":"Island Lake","admin3":"79280"},{"geonameid":4898480,"name":"Kildeer","admin3":"22853"},{"geonameid":4898711,"name":"Knollwood","admin3":"69485"},{"geonameid":4898969,"name":"Lake Barrington","admin3":"18004"},{"geonameid":4898974,"name":"Lake Bluff","admin3":"69485"},{"geonameid":4898990,"name":"Lake Catherine","admin3":"01608"},{"geonameid":4899012,"name":"Lake Forest","admin3":"69485"},{"geonameid":4899154,"name":"Lake Villa","admin3":"41599"},{"geonameid":4899170,"name":"Lake Zurich","admin3":"22853"},{"geonameid":4899739,"name":"Libertyville","admin3":"43263"},{"geonameid":4899983,"name":"Lincolnshire","admin3":"77668"},{"geonameid":4900013,"name":"Lindenhurst","admin3":"41599"},{"geonameid":4900416,"name":"Long Grove","admin3":"77668"},{"geonameid":4900430,"name":"Long Lake","admin3":"30952"},{"geonameid":4903184,"name":"Mundelein","admin3":"43263"},{"geonameid":4903830,"name":"North Barrington","admin3":"18004"},{"geonameid":4903862,"name":"North Chicago","admin3":"69485"},{"geonameid":4905334,"name":"Park City","admin3":"79306"},{"geonameid":4907762,"name":"Riverwoods","admin3":"77668"},{"geonameid":4908236,"name":"Round Lake","admin3":"03220"},{"geonameid":4908237,"name":"Round Lake Beach","admin3":"03220"},{"geonameid":4908242,"name":"Round Lake Heights","admin3":"03220"},{"geonameid":4908243,"name":"Round Lake Park","admin3":"03220"},{"geonameid":4913515,"name":"Third Lake","admin3":"03220"},{"geonameid":4913816,"name":"Tower Lake","admin3":"18004"},{"geonameid":4914704,"name":"Venetian Village","admin3":"41599"},{"geonameid":4914738,"name":"Vernon Hills","admin3":"77668"},{"geonameid":4914934,"name":"Volo","admin3":"79280"},{"geonameid":4915294,"name":"Wadsworth","admin3":"52753"},{"geonameid":4915725,"name":"Wauconda","admin3":"79280"},{"geonameid":4915734,"name":"Waukegan","admin3":"79306"},{"geonameid":4916894,"name":"Winthrop Harbor","admin3":"05326"},{"geonameid":4917358,"name":"Zion","admin3":"84233"}],"admin3":[{"geonameid":4883420,"name":"Township of Antioch","admin3":"01608"},{"geonameid":4883903,"name":"Township of Avon","admin3":"03220"},{"geonameid":4884533,"name":"Township of Benton","admin3":"05326"},{"geonameid":4889264,"name":"Township of Cuba","admin3":"18004"},{"geonameid":4890828,"name":"Township of Ela","admin3":"22853"},{"geonameid":4893195,"name":"Township of Fremont","admin3":"27923"},{"geonameid":4894407,"name":"Township of Grant","admin3":"30952"},{"geonameid":4899158,"name":"Township of Lake Villa","admin3":"41599"},{"geonameid":4899744,"name":"Township of Libertyville","admin3":"43263"},{"geonameid":4902648,"name":"Township of Moraine","admin3":"50364"},{"geonameid":4903676,"name":"Township of Newport","admin3":"52753"},{"geonameid":4911345,"name":"Township of Shields","admin3":"69485"},{"geonameid":4914744,"name":"Township of Vernon","admin3":"77668"},{"geonameid":4915522,"name":"Township of Warren","admin3":"78877"},{"geonameid":4915733,"name":"Township of Wauconda","admin3":"79280"},{"geonameid":4915747,"name":"Township of Waukegan","admin3":"79306"},{"geonameid":4915973,"name":"Township of West Deerfield","admin3":"80112"},{"geonameid":4917443,"name":"Township of Zion","admin3":"84233"}],"alternateNames":[{"alternatenameId":2089562,"geonameid":4896861,"isoLanguage":"en","alternateName":"Illinois","isPreferredName":true,"isShortName":true,"isColloquial":false,"isHistoric":false}]},"__N_SSG":true}