{"pageProps":{"locale":"en","admin2":{"geonameid":4898878,"name":"LaSalle County","country":"US","admin1":"IL","admin2":"099","admin3":"","latitude":"41.3439900","longitude":"-88.8859500"},"admin1":{"geonameid":4896861,"name":"Illinois","admin1":"IL","localeAltName":"Illinois"},"locations":[{"geonameid":4832014,"name":"Deer Park","admin3":"42197"},{"geonameid":4890441,"name":"Earlville","admin3":"21527"},{"geonameid":4898875,"name":"La Salle","admin3":"42197"},{"geonameid":8480034,"name":"Lake Holiday","admin3":"54248"},{"geonameid":4901279,"name":"Marseilles","admin3":"66456"},{"geonameid":4901944,"name":"Mendota","admin3":"48346"},{"geonameid":4904605,"name":"Oglesby","admin3":"42197"},{"geonameid":4905006,"name":"Ottawa","admin3":"56939"},{"geonameid":4905770,"name":"Peru","admin3":"59247"},{"geonameid":4911059,"name":"Seneca","admin3":"46448"},{"geonameid":4911289,"name":"Sheridan","admin3":"49646"},{"geonameid":4912698,"name":"Streator","admin3":"09057"}],"admin3":[{"geonameid":4882917,"name":"Township of Adams","admin3":"00204"},{"geonameid":4883150,"name":"Township of Allen","admin3":"00763"},{"geonameid":4885698,"name":"Township of Brookfield","admin3":"08583"},{"geonameid":4885807,"name":"Township of Bruce","admin3":"09057"},{"geonameid":4889535,"name":"Township of Dayton","admin3":"18784"},{"geonameid":4889661,"name":"Township of Deer Park","admin3":"19096"},{"geonameid":4889901,"name":"Township of Dimmick","admin3":"19980"},{"geonameid":4890425,"name":"Township of Eagle","admin3":"21436"},{"geonameid":4890438,"name":"Township of Earl","admin3":"21527"},{"geonameid":4890671,"name":"Township of Eden","admin3":"22424"},{"geonameid":4891747,"name":"Township of Fall River","admin3":"25284"},{"geonameid":4891765,"name":"Township of Farm Ridge","admin3":"25583"},{"geonameid":4893155,"name":"Township of Freedom","admin3":"27845"},{"geonameid":4894341,"name":"Township of Grand Rapids","admin3":"30744"},{"geonameid":4894820,"name":"Township of Groveland","admin3":"31914"},{"geonameid":4896431,"name":"Township of Hope","admin3":"36100"},{"geonameid":4898888,"name":"Township of LaSalle","admin3":"42197"},{"geonameid":4900983,"name":"Township of Manlius","admin3":"46448"},{"geonameid":4901955,"name":"Township of Mendota","admin3":"48346"},{"geonameid":4902003,"name":"Township of Meriden","admin3":"48463"},{"geonameid":4902311,"name":"Township of Miller","admin3":"49204"},{"geonameid":4902423,"name":"Township of Mission","admin3":"49646"},{"geonameid":4904143,"name":"Township of Northville","admin3":"54248"},{"geonameid":4904865,"name":"Township of Ophir","admin3":"56224"},{"geonameid":4904972,"name":"Township of Osage","admin3":"56731"},{"geonameid":4905017,"name":"Township of Ottawa","admin3":"56939"},{"geonameid":4905029,"name":"Township of Otter Creek","admin3":"56965"},{"geonameid":4905776,"name":"Township of Peru","admin3":"59247"},{"geonameid":4907501,"name":"Township of Richland","admin3":"63576"},{"geonameid":4908364,"name":"Township of Rutland","admin3":"66456"},{"geonameid":4911085,"name":"Township of Serena","admin3":"68692"},{"geonameid":4911962,"name":"Township of South Ottawa","admin3":"71110"},{"geonameid":4914091,"name":"Township of Troy Grove","admin3":"76238"},{"geonameid":4914591,"name":"Township of Utica","admin3":"77096"},{"geonameid":4914723,"name":"Township of Vermillion","admin3":"77623"},{"geonameid":4915386,"name":"Township of Wallace","admin3":"78487"},{"geonameid":4915458,"name":"Township of Waltham","admin3":"78682"}],"alternateNames":[{"alternatenameId":2089562,"geonameid":4896861,"isoLanguage":"en","alternateName":"Illinois","isPreferredName":true,"isShortName":true,"isColloquial":false,"isHistoric":false}]},"__N_SSG":true}