{"pageProps":{"locale":"en","admin2":{"geonameid":4900233,"name":"Livingston County","country":"US","admin1":"IL","admin2":"105","admin3":"","latitude":"40.8915600","longitude":"-88.5577200"},"admin1":{"geonameid":4896861,"name":"Illinois","admin1":"IL","localeAltName":"Illinois"},"locations":[{"geonameid":4887290,"name":"Chatsworth","admin3":"12723"},{"geonameid":4890359,"name":"Dwight","admin3":"21371"},{"geonameid":4891520,"name":"Fairbury","admin3":"37244"},{"geonameid":4892637,"name":"Flanagan","admin3":"51895"},{"geonameid":4892812,"name":"Forrest","admin3":"27039"},{"geonameid":4906438,"name":"Pontiac","admin3":"61028"}],"admin3":[{"geonameid":4883295,"name":"Township of Amity","admin3":"01348"},{"geonameid":4883892,"name":"Township of Avoca","admin3":"03194"},{"geonameid":4884412,"name":"Township of Belle Prairie","admin3":"04780"},{"geonameid":4885751,"name":"Township of Broughton","admin3":"08888"},{"geonameid":4887256,"name":"Township of Charlotte","admin3":"12606"},{"geonameid":4887293,"name":"Township of Chatsworth","admin3":"12723"},{"geonameid":4890375,"name":"Township of Dwight","admin3":"21371"},{"geonameid":4891221,"name":"Township of Eppards Point","admin3":"24309"},{"geonameid":4891264,"name":"Township of Esmen","admin3":"24426"},{"geonameid":4891824,"name":"Township of Fayette","admin3":"25700"},{"geonameid":4892816,"name":"Township of Forrest","admin3":"27039"},{"geonameid":4893678,"name":"Township of Germanville","admin3":"29106"},{"geonameid":4897038,"name":"Township of Indian Grove","admin3":"37244"},{"geonameid":4900445,"name":"Township of Long Point","admin3":"44589"},{"geonameid":4903368,"name":"Township of Nebraska","admin3":"51895"},{"geonameid":4903437,"name":"Township of Nevada","admin3":"52077"},{"geonameid":4903689,"name":"Township of Newtown","admin3":"52883"},{"geonameid":4904578,"name":"Township of Odell","admin3":"55184"},{"geonameid":4905160,"name":"Township of Owego","admin3":"57056"},{"geonameid":4905984,"name":"Township of Pike","admin3":"59780"},{"geonameid":4906288,"name":"Township of Pleasant Ridge","admin3":"60612"},{"geonameid":4906451,"name":"Township of Pontiac","admin3":"61028"},{"geonameid":4907213,"name":"Township of Reading","admin3":"63017"},{"geonameid":4908095,"name":"Township of Rooks Creek","admin3":"65520"},{"geonameid":4908233,"name":"Township of Round Grove","admin3":"65988"},{"geonameid":4910650,"name":"Township of Saunemin","admin3":"67808"},{"geonameid":4912832,"name":"Township of Sullivan","admin3":"73482"},{"geonameid":4912890,"name":"Township of Sunbury","admin3":"73781"},{"geonameid":4914399,"name":"Township of Union","admin3":"76680"},{"geonameid":4915337,"name":"Township of Waldo","admin3":"78409"}],"alternateNames":[{"alternatenameId":2089562,"geonameid":4896861,"isoLanguage":"en","alternateName":"Illinois","isPreferredName":true,"isShortName":true,"isColloquial":false,"isHistoric":false}]},"__N_SSG":true}