{"pageProps":{"locale":"en","admin2":{"geonameid":4901666,"name":"McHenry County","country":"US","admin1":"IL","admin2":"111","admin3":"","latitude":"42.3243900","longitude":"-88.4524500"},"admin1":{"geonameid":4896861,"name":"Illinois","admin1":"IL","localeAltName":"Illinois"},"locations":[{"geonameid":4883078,"name":"Algonquin","admin3":"00698"},{"geonameid":4885961,"name":"Bull Valley","admin3":"54495"},{"geonameid":4886738,"name":"Cary","admin3":"00698"},{"geonameid":4889229,"name":"Crystal Lake","admin3":"00698"},{"geonameid":4892971,"name":"Fox River Grove","admin3":"00698"},{"geonameid":4895282,"name":"Harvard","admin3":"12892"},{"geonameid":4895484,"name":"Hebron","admin3":"33864"},{"geonameid":4896691,"name":"Huntley","admin3":"30666"},{"geonameid":4897967,"name":"Johnsburg","admin3":"45707"},{"geonameid":4899184,"name":"Lake in the Hills","admin3":"00698"},{"geonameid":4899213,"name":"Lakemoor","admin3":"45707"},{"geonameid":4899249,"name":"Lakewood","admin3":"30666"},{"geonameid":4901164,"name":"Marengo","admin3":"46799"},{"geonameid":4901609,"name":"McCullom Lake","admin3":"45707"},{"geonameid":4901663,"name":"McHenry","admin3":"45707"},{"geonameid":4904543,"name":"Oakwood Hills","admin3":"54495"},{"geonameid":4906087,"name":"Pistakee Highlands","admin3":"45707"},{"geonameid":4906490,"name":"Port Barrington","admin3":"54495"},{"geonameid":4906641,"name":"Prairie Grove","admin3":"54495"},{"geonameid":4907504,"name":"Richmond","admin3":"63654"},{"geonameid":4912248,"name":"Spring Grove","admin3":"10032"},{"geonameid":4916973,"name":"Wonder Lake","admin3":"45707"},{"geonameid":4917123,"name":"Woodstock","admin3":"20396"}],"admin3":[{"geonameid":4883041,"name":"Township of Alden","admin3":"00607"},{"geonameid":4883085,"name":"Township of Algonquin","admin3":"00698"},{"geonameid":4886106,"name":"Township of Burton","admin3":"10032"},{"geonameid":4887326,"name":"Township of Chemung","admin3":"12892"},{"geonameid":4888752,"name":"Township of Coral","admin3":"16314"},{"geonameid":4890061,"name":"Township of Dorr","admin3":"20396"},{"geonameid":4890299,"name":"Township of Dunham","admin3":"21111"},{"geonameid":4894295,"name":"Township of Grafton","admin3":"30666"},{"geonameid":4894731,"name":"Township of Greenwood","admin3":"31680"},{"geonameid":4895265,"name":"Township of Hartland","admin3":"33305"},{"geonameid":4895491,"name":"Township of Hebron","admin3":"33864"},{"geonameid":4901169,"name":"Township of Marengo","admin3":"46799"},{"geonameid":4901684,"name":"Township of McHenry","admin3":"45707"},{"geonameid":4904247,"name":"Township of Nunda","admin3":"54495"},{"geonameid":4907510,"name":"Township of Richmond","admin3":"63654"},{"geonameid":4907600,"name":"Township of Riley","admin3":"64096"},{"geonameid":4911064,"name":"Township of Seneca","admin3":"68653"}],"alternateNames":[{"alternatenameId":2089562,"geonameid":4896861,"isoLanguage":"en","alternateName":"Illinois","isPreferredName":true,"isShortName":true,"isColloquial":false,"isHistoric":false}]},"__N_SSG":true}