{"pageProps":{"locale":"en","admin2":{"geonameid":4244913,"name":"Moultrie County","country":"US","admin1":"IL","admin2":"139","admin3":"","latitude":"39.6414800","longitude":"-88.6193000"},"admin1":{"geonameid":4896861,"name":"Illinois","admin1":"IL","localeAltName":"Illinois"},"locations":[{"geonameid":4233670,"name":"Bethany","admin3":"47124"},{"geonameid":4243574,"name":"Lovington","admin3":"45057"},{"geonameid":4250862,"name":"Sullivan","admin3":"73508"}],"admin3":[{"geonameid":4237176,"name":"Township of Dora","admin3":"20344"},{"geonameid":4237561,"name":"Township of East Nelson","admin3":"22099"},{"geonameid":4241956,"name":"Township of Jonathan Creek","admin3":"38609"},{"geonameid":4243577,"name":"Township of Lovington","admin3":"45057"},{"geonameid":4243585,"name":"Township of Lowe","admin3":"45083"},{"geonameid":4243976,"name":"Township of Marrowbone","admin3":"47124"},{"geonameid":4250869,"name":"Township of Sullivan","admin3":"73508"},{"geonameid":4253055,"name":"Township of Whitley","admin3":"81451"}],"alternateNames":[{"alternatenameId":2089562,"geonameid":4896861,"isoLanguage":"en","alternateName":"Illinois","isPreferredName":true,"isShortName":true,"isColloquial":false,"isHistoric":false}]},"__N_SSG":true}