{"pageProps":{"locale":"en","admin2":{"geonameid":4910877,"name":"Schuyler County","country":"US","admin1":"IL","admin2":"169","admin3":"","latitude":"40.1580300","longitude":"-90.6150700"},"admin1":{"geonameid":4896861,"name":"Illinois","admin1":"IL","localeAltName":"Illinois"},"locations":[{"geonameid":4908321,"name":"Rushville","admin3":"66352"}],"admin3":[{"geonameid":4883962,"name":"Township of Bainbridge","admin3":"03350"},{"geonameid":4884967,"name":"Township of Birmingham","admin3":"06132"},{"geonameid":4885710,"name":"Township of Brooklyn","admin3":"08693"},{"geonameid":4885790,"name":"Township of Browning","admin3":"08966"},{"geonameid":4885923,"name":"Township of Buena Vista","admin3":"09395"},{"geonameid":4886387,"name":"Township of Camden","admin3":"10708"},{"geonameid":4893124,"name":"Township of Frederick","admin3":"27793"},{"geonameid":4895802,"name":"Township of Hickory","admin3":"34462"},{"geonameid":4896702,"name":"Township of Huntsville","admin3":"36776"},{"geonameid":4900204,"name":"Township of Littleton","admin3":"44069"},{"geonameid":4904492,"name":"Township of Oakland","admin3":"54794"},{"geonameid":4908327,"name":"Township of Rushville","admin3":"66352"},{"geonameid":4917136,"name":"Township of Woodstock","admin3":"83362"}],"alternateNames":[{"alternatenameId":2089562,"geonameid":4896861,"isoLanguage":"en","alternateName":"Illinois","isPreferredName":true,"isShortName":true,"isColloquial":false,"isHistoric":false}]},"__N_SSG":true}