{"pageProps":{"locale":"en","admin2":{"geonameid":4913271,"name":"Tazewell County","country":"US","admin1":"IL","admin2":"179","admin3":"","latitude":"40.5075200","longitude":"-89.5134200"},"admin1":{"geonameid":4896861,"name":"Illinois","admin1":"IL","localeAltName":"Illinois"},"locations":[{"geonameid":4889130,"name":"Creve Coeur","admin3":"31940"},{"geonameid":4889700,"name":"Delavan","admin3":"19239"},{"geonameid":4890549,"name":"East Peoria","admin3":"26636"},{"geonameid":8480037,"name":"Heritage Lake","admin3":"45792"},{"geonameid":4900808,"name":"Mackinaw","admin3":"45792"},{"geonameid":4901260,"name":"Marquette Heights","admin3":"31940"},{"geonameid":4902370,"name":"Minier","admin3":"44017"},{"geonameid":4902754,"name":"Morton","admin3":"50634"},{"geonameid":4903975,"name":"North Pekin","admin3":"58460"},{"geonameid":4905599,"name":"Pekin","admin3":"58460"},{"geonameid":4907505,"name":"Richmond","admin3":"35359"},{"geonameid":4911982,"name":"South Pekin","admin3":"14403"},{"geonameid":4913892,"name":"Tremont","admin3":"75978"},{"geonameid":4915545,"name":"Washington","admin3":"79046"}],"admin3":[{"geonameid":4885401,"name":"Township of Boynton","admin3":"07627"},{"geonameid":4888026,"name":"Township of Cincinnati","admin3":"14403"},{"geonameid":4889636,"name":"Township of Deer Creek","admin3":"18953"},{"geonameid":4889702,"name":"Township of Delavan","admin3":"19239"},{"geonameid":4889893,"name":"Township of Dillon","admin3":"19941"},{"geonameid":4890996,"name":"Township of Elm Grove","admin3":"23607"},{"geonameid":4892719,"name":"Township of Fondulac","admin3":"26636"},{"geonameid":4894821,"name":"Township of Groveland","admin3":"31940"},{"geonameid":4896048,"name":"Township of Hittle","admin3":"35359"},{"geonameid":4896436,"name":"Township of Hopedale","admin3":"36139"},{"geonameid":4900148,"name":"Township of Little Mackinaw","admin3":"44017"},{"geonameid":4900836,"name":"Township of Mackinaw","admin3":"45792"},{"geonameid":4900940,"name":"Township of Malone","admin3":"46266"},{"geonameid":4902784,"name":"Township of Morton","admin3":"50634"},{"geonameid":4905618,"name":"Township of Pekin","admin3":"58460"},{"geonameid":4910510,"name":"Township of Sand Prairie","admin3":"67483"},{"geonameid":4912295,"name":"Township of Spring Lake","admin3":"72130"},{"geonameid":4913903,"name":"Township of Tremont","admin3":"75978"},{"geonameid":4915661,"name":"Township of Washington","admin3":"79046"}],"alternateNames":[{"alternatenameId":2089562,"geonameid":4896861,"isoLanguage":"en","alternateName":"Illinois","isPreferredName":true,"isShortName":true,"isColloquial":false,"isHistoric":false}]},"__N_SSG":true}