{"pageProps":{"locale":"en","admin2":{"geonameid":4914710,"name":"Vermilion County","country":"US","admin1":"IL","admin2":"183","admin3":"","latitude":"40.1834200","longitude":"-87.7328300"},"admin1":{"geonameid":4896861,"name":"Illinois","admin1":"IL","localeAltName":"Illinois"},"locations":[{"geonameid":4886790,"name":"Catlin","admin3":"11787"},{"geonameid":4889426,"name":"Danville","admin3":"18576"},{"geonameid":4239337,"name":"Georgetown","admin3":"28976"},{"geonameid":4896390,"name":"Hoopeston","admin3":"30965"},{"geonameid":4904520,"name":"Oakwood","admin3":"55015"},{"geonameid":4908209,"name":"Rossville","admin3":"65949"},{"geonameid":4913666,"name":"Tilton","admin3":"18576"},{"geonameid":4916252,"name":"Westville","admin3":"28976"}],"admin3":[{"geonameid":4235287,"name":"Township of Carroll","admin3":"11449"},{"geonameid":4237906,"name":"Township of Elwood","admin3":"23932"},{"geonameid":4241733,"name":"Township of Jamaica","admin3":"38180"},{"geonameid":4243561,"name":"Township of Love","admin3":"44953"},{"geonameid":4250034,"name":"Township of Sidell","admin3":"69849"},{"geonameid":4885178,"name":"Township of Blount","admin3":"06678"},{"geonameid":4886151,"name":"Township of Butler","admin3":"10162"},{"geonameid":4886796,"name":"Township of Catlin","admin3":"11787"},{"geonameid":4889443,"name":"Township of Danville","admin3":"18576"},{"geonameid":4893641,"name":"Township of Georgetown","admin3":"28976"},{"geonameid":4894408,"name":"Township of Grant","admin3":"30965"},{"geonameid":4901700,"name":"Township of McKendree","admin3":"45772"},{"geonameid":4902165,"name":"Township of Middlefork","admin3":"48775"},{"geonameid":4903658,"name":"Township of Newell","admin3":"52454"},{"geonameid":4904561,"name":"Township of Oakwood","admin3":"55015"},{"geonameid":4905970,"name":"Township of Pilot","admin3":"59832"},{"geonameid":4908207,"name":"Township of Ross","admin3":"65949"},{"geonameid":4912008,"name":"Township of South Ross","admin3":"71227"},{"geonameid":4914666,"name":"Township of Vance","admin3":"77304"}],"alternateNames":[{"alternatenameId":2089562,"geonameid":4896861,"isoLanguage":"en","alternateName":"Illinois","isPreferredName":true,"isShortName":true,"isColloquial":false,"isHistoric":false}]},"__N_SSG":true}