{"pageProps":{"locale":"en","admin2":{"geonameid":4916565,"name":"Will County","country":"US","admin1":"IL","admin2":"197","admin3":"","latitude":"41.4450300","longitude":"-87.9786600"},"admin1":{"geonameid":4896861,"name":"Illinois","admin1":"IL","localeAltName":"Illinois"},"locations":[{"geonameid":4884352,"name":"Beecher","admin3":"79059"},{"geonameid":4885265,"name":"Bolingbrook","admin3":"21241"},{"geonameid":4885444,"name":"Braidwood","admin3":"63108"},{"geonameid":4887198,"name":"Channahon","admin3":"12483"},{"geonameid":4889107,"name":"Crest Hill","admin3":"44238"},{"geonameid":4889120,"name":"Crete","admin3":"17536"},{"geonameid":4889248,"name":"Crystal Lawns","admin3":"60300"},{"geonameid":4891077,"name":"Elwood","admin3":"38076"},{"geonameid":4891555,"name":"Fairmont","admin3":"44238"},{"geonameid":4893037,"name":"Frankfort","admin3":"27631"},{"geonameid":4893043,"name":"Frankfort Square","admin3":"27631"},{"geonameid":4894061,"name":"Goodings Grove","admin3":"35827"},{"geonameid":4896336,"name":"Homer Glen","admin3":"35827"},{"geonameid":4897105,"name":"Ingalls Park","admin3":"38583"},{"geonameid":4898015,"name":"Joliet","admin3":"38583"},{"geonameid":4899258,"name":"Lakewood Shores","admin3":"79865"},{"geonameid":4900292,"name":"Lockport","admin3":"44238"},{"geonameid":4900961,"name":"Manhattan","admin3":"46370"},{"geonameid":4902475,"name":"Mokena","admin3":"27631"},{"geonameid":4902498,"name":"Monee","admin3":"49958"},{"geonameid":4903535,"name":"New Lenox","admin3":"52597"},{"geonameid":4905724,"name":"Peotone","admin3":"59065"},{"geonameid":4906125,"name":"Plainfield","admin3":"60300"},{"geonameid":4906802,"name":"Preston Heights","admin3":"38583"},{"geonameid":4907953,"name":"Rockdale","admin3":"38583"},{"geonameid":4908068,"name":"Romeoville","admin3":"21241"},{"geonameid":4911418,"name":"Shorewood","admin3":"76212"},{"geonameid":7535510,"name":"University Park","admin3":"49958"},{"geonameid":4916710,"name":"Willowbrook","admin3":"17536"},{"geonameid":4916740,"name":"Wilmington","admin3":"82114"}],"admin3":[{"geonameid":4887204,"name":"Township of Channahon","admin3":"12483"},{"geonameid":4889127,"name":"Township of Crete","admin3":"17536"},{"geonameid":4889323,"name":"Township of Custer","admin3":"18199"},{"geonameid":4890211,"name":"Township of Du Page","admin3":"21241"},{"geonameid":4892675,"name":"Township of Florence","admin3":"26519"},{"geonameid":4893048,"name":"Township of Frankfort","admin3":"27631"},{"geonameid":4894597,"name":"Township of Green Garden","admin3":"31394"},{"geonameid":4896345,"name":"Township of Homer","admin3":"35827"},{"geonameid":4897699,"name":"Township of Jackson","admin3":"38076"},{"geonameid":4898038,"name":"Township of Joliet","admin3":"38583"},{"geonameid":4900305,"name":"Township of Lockport","admin3":"44238"},{"geonameid":4900967,"name":"Township of Manhattan","admin3":"46370"},{"geonameid":4902504,"name":"Township of Monee","admin3":"49958"},{"geonameid":4903538,"name":"Township of New Lenox","admin3":"52597"},{"geonameid":4905731,"name":"Township of Peotone","admin3":"59065"},{"geonameid":4906136,"name":"Township of Plainfield","admin3":"60300"},{"geonameid":4907301,"name":"Township of Reed","admin3":"63108"},{"geonameid":4914095,"name":"Township of Troy","admin3":"76212"},{"geonameid":4915662,"name":"Township of Washington","admin3":"79059"},{"geonameid":4915916,"name":"Township of Wesley","admin3":"79865"},{"geonameid":4916285,"name":"Township of Wheatland","admin3":"81035"},{"geonameid":4916573,"name":"Township of Will","admin3":"81711"},{"geonameid":4916746,"name":"Township of Wilmington","admin3":"82114"},{"geonameid":4916790,"name":"Township of Wilton","admin3":"82244"}],"alternateNames":[{"alternatenameId":2089562,"geonameid":4896861,"isoLanguage":"en","alternateName":"Illinois","isPreferredName":true,"isShortName":true,"isColloquial":false,"isHistoric":false}]},"__N_SSG":true}