{"pageProps":{"locale":"de","admin2":{"geonameid":2861322,"name":"Upper Bavaria","country":"DE","admin1":"02","admin2":"091","admin3":"","latitude":"48.0000000","longitude":"11.0000000","localeAltName":null},"admin1":{"geonameid":2951839,"name":"Bavaria","admin1":"02","localeAltName":"Bayern"},"locations":[{"geonameid":2959504,"name":"Adelshofen","admin3":"09179","localeAltName":null},{"geonameid":2959283,"name":"Aham","admin3":"09177","localeAltName":null},{"geonameid":2958831,"name":"Ainring","admin3":"09172","localeAltName":null},{"geonameid":2958756,"name":"Albaching","admin3":"09187","localeAltName":null},{"geonameid":2958376,"name":"Allershausen","admin3":"09178","localeAltName":null},{"geonameid":2958331,"name":"Alling","admin3":"09179","localeAltName":null},{"geonameid":2958032,"name":"Altdorf","admin3":"09183","localeAltName":null},{"geonameid":2957543,"name":"Altenmarkt","admin3":"09187","localeAltName":null},{"geonameid":2957469,"name":"Altenstadt","admin3":"09190","localeAltName":null},{"geonameid":2957153,"name":"Althegnenberg","admin3":"09179","localeAltName":null},{"geonameid":2956951,"name":"Altomünster","admin3":"09174","localeAltName":null},{"geonameid":2956940,"name":"Altötting","admin3":"09171","localeAltName":null},{"geonameid":2956570,"name":"Amerang","admin3":"09187","localeAltName":null},{"geonameid":2956378,"name":"Ampfing","admin3":"09183","localeAltName":null},{"geonameid":2956253,"name":"Andechs","admin3":"09188","localeAltName":null},{"geonameid":2955914,"name":"Antdorf","admin3":"09190","localeAltName":null},{"geonameid":2955835,"name":"Anzing","admin3":"09175","localeAltName":null},{"geonameid":3205437,"name":"Apfeldorf","admin3":"09181","localeAltName":null},{"geonameid":2955627,"name":"Aresing","admin3":"09171","localeAltName":null},{"geonameid":2955259,"name":"Aschau am Inn","admin3":"09183","localeAltName":null},{"geonameid":2863652,"name":"Aschau im Chiemgau","admin3":"09187","localeAltName":null},{"geonameid":2955159,"name":"Aschheim","admin3":"09184","localeAltName":null},{"geonameid":2955007,"name":"Aßling","admin3":"09175","localeAltName":null},{"geonameid":2954910,"name":"Attenkirchen","admin3":"09178","localeAltName":null},{"geonameid":2954088,"name":"Au in der Hallertau","admin3":"09178","localeAltName":null},{"geonameid":2953829,"name":"Aying","admin3":"09184","localeAltName":null},{"geonameid":3208325,"name":"Baar-Ebenhausen","admin3":"09186","localeAltName":null},{"geonameid":2953768,"name":"Babensham","admin3":"09187","localeAltName":null},{"geonameid":2953558,"name":"Bad Aibling","admin3":"09187","localeAltName":null},{"geonameid":2930367,"name":"Bad Endorf","admin3":"09187","localeAltName":null},{"geonameid":2953460,"name":"Bad Feilnbach","admin3":"09187","localeAltName":null},{"geonameid":2953443,"name":"Bad Heilbrunn","admin3":"09173","localeAltName":null},{"geonameid":2953420,"name":"Bad Kohlgrub","admin3":"09180","localeAltName":null},{"geonameid":2953371,"name":"Bad Reichenhall","admin3":"09172","localeAltName":null},{"geonameid":2953324,"name":"Bad Tölz","admin3":"09173","localeAltName":null},{"geonameid":2953318,"name":"Bad Wiessee","admin3":"09182","localeAltName":null},{"geonameid":2953213,"name":"Baierbrunn","admin3":"09184","localeAltName":null},{"geonameid":2951843,"name":"Bayerisch Gmain","admin3":"09172","localeAltName":null},{"geonameid":2951824,"name":"Bayrischzell","admin3":"09182","localeAltName":null},{"geonameid":2951104,"name":"Benediktbeuern","admin3":"09173","localeAltName":null},{"geonameid":2950881,"name":"Berchtesgaden","admin3":"09172","localeAltName":null},{"geonameid":2950358,"name":"Berg im Gau","admin3":"09185","localeAltName":null},{"geonameid":2950635,"name":"Bergen","admin3":"09189","localeAltName":null},{"geonameid":2950340,"name":"Bergkirchen","admin3":"09174","localeAltName":null},{"geonameid":2950318,"name":"Berglern","admin3":"09177","localeAltName":null},{"geonameid":2950095,"name":"Bernau am Chiemsee","admin3":"09187","localeAltName":null},{"geonameid":2950078,"name":"Bernbeuren","admin3":"09190","localeAltName":null},{"geonameid":2949324,"name":"Bichl","admin3":"09173","localeAltName":null},{"geonameid":2948265,"name":"Bischofswiesen","admin3":"09172","localeAltName":null},{"geonameid":2947450,"name":"Böbing","admin3":"09190","localeAltName":null},{"geonameid":2947316,"name":"Bockhorn","admin3":"09177","localeAltName":null},{"geonameid":2947022,"name":"Bogenhausen","admin3":"09162","localeAltName":null},{"geonameid":2945165,"name":"Brannenburg","admin3":"09187","localeAltName":null},{"geonameid":2944782,"name":"Breitbrunn","admin3":"09187","localeAltName":null},{"geonameid":2943531,"name":"Bruck","admin3":"09175","localeAltName":null},{"geonameid":2943408,"name":"Bruckmühl","admin3":"09187","localeAltName":null},{"geonameid":2943074,"name":"Brunnthal","admin3":"09184","localeAltName":null},{"geonameid":2942810,"name":"Buch am Buchrain","admin3":"09177","localeAltName":null},{"geonameid":2942795,"name":"Buchbach","admin3":"09183","localeAltName":null},{"geonameid":2941319,"name":"Burggen","admin3":"09190","localeAltName":null},{"geonameid":2941279,"name":"Burghausen","admin3":"09171","localeAltName":null},{"geonameid":2941271,"name":"Burgheim","admin3":"09185","localeAltName":null},{"geonameid":2941216,"name":"Burgkirchen an der Alz","admin3":"09171","localeAltName":null},{"geonameid":2940127,"name":"Chieming","admin3":"09189","localeAltName":null},{"geonameid":2940126,"name":"Chiemsee","admin3":"09187","localeAltName":null},{"geonameid":2939623,"name":"Dachau","admin3":"09174","localeAltName":null},{"geonameid":2938241,"name":"Denklingen","admin3":"09181","localeAltName":null},{"geonameid":2937217,"name":"Dießen am Ammersee","admin3":"09181","localeAltName":null},{"geonameid":2937073,"name":"Dietramszell","admin3":"09173","localeAltName":null},{"geonameid":2936103,"name":"Dorfen","admin3":"09177","localeAltName":null},{"geonameid":2933945,"name":"Ebersberg","admin3":"09175","localeAltName":null},{"geonameid":2933799,"name":"Eching","admin3":"09178","localeAltName":null},{"geonameid":2933801,"name":"Eching","admin3":"09181","localeAltName":null},{"geonameid":2933212,"name":"Egenhofen","admin3":"09179","localeAltName":null},{"geonameid":2933025,"name":"Egglkofen","admin3":"09183","localeAltName":null},{"geonameid":2933018,"name":"Eggstätt","admin3":"09187","localeAltName":null},{"geonameid":3205523,"name":"Eglfing","admin3":"09190","localeAltName":null},{"geonameid":2932992,"name":"Egling","admin3":"09173","localeAltName":null},{"geonameid":2932991,"name":"Egling","admin3":"09181","localeAltName":null},{"geonameid":2932960,"name":"Egmating","admin3":"09175","localeAltName":null},{"geonameid":2932938,"name":"Ehekirchen","admin3":"09185","localeAltName":null},{"geonameid":2932382,"name":"Eichenau","admin3":"09179","localeAltName":null},{"geonameid":2932286,"name":"Eichenried","admin3":"09177","localeAltName":null},{"geonameid":2932069,"name":"Eichstätt","admin3":"09176","localeAltName":null},{"geonameid":2890590,"name":"Eiselfing","admin3":"09187","localeAltName":null},{"geonameid":2931357,"name":"Eitting","admin3":"09177","localeAltName":null},{"geonameid":2930500,"name":"Emmering","admin3":"09179","localeAltName":null},{"geonameid":2930502,"name":"Emmering","admin3":"09175","localeAltName":null},{"geonameid":2930252,"name":"Engelsberg","admin3":"09189","localeAltName":null},{"geonameid":2929715,"name":"Erding","admin3":"09177","localeAltName":null},{"geonameid":2929692,"name":"Erdweg","admin3":"09174","localeAltName":null},{"geonameid":2929689,"name":"Eresing","admin3":"09181","localeAltName":null},{"geonameid":2929642,"name":"Erharting","admin3":"09183","localeAltName":null},{"geonameid":2929549,"name":"Erlbach","admin3":"09171","localeAltName":null},{"geonameid":2929353,"name":"Ernsgaden","admin3":"09186","localeAltName":null},{"geonameid":2929038,"name":"Eschenlohe","admin3":"09175","localeAltName":null},{"geonameid":2928684,"name":"Ettal","admin3":"09180","localeAltName":null},{"geonameid":2928408,"name":"Eurasburg","admin3":"09173","localeAltName":null},{"geonameid":2928116,"name":"Fahrenzhausen","admin3":"09178","localeAltName":null},{"geonameid":2927828,"name":"Farchant","admin3":"09180","localeAltName":null},{"geonameid":2927464,"name":"Feldafing","admin3":"09188","localeAltName":null},{"geonameid":2927347,"name":"Feldkirchen","admin3":"09184","localeAltName":null},{"geonameid":2927339,"name":"Feldkirchen-Westerham","admin3":"09187","localeAltName":null},{"geonameid":2926703,"name":"Finsing","admin3":"09177","localeAltName":null},{"geonameid":2926586,"name":"Fischbachau","admin3":"09182","localeAltName":null},{"geonameid":2926170,"name":"Flintsbach","admin3":"09187","localeAltName":null},{"geonameid":2925729,"name":"Forstinning","admin3":"09175","localeAltName":null},{"geonameid":2925458,"name":"Frasdorf","admin3":"09187","localeAltName":null},{"geonameid":2925383,"name":"Frauenneuharting","admin3":"09175","localeAltName":null},{"geonameid":2925274,"name":"Fraunberg","admin3":"09177","localeAltName":null},{"geonameid":2925080,"name":"Freilassing","admin3":"09172","localeAltName":null},{"geonameid":2925034,"name":"Freising","admin3":"09178","localeAltName":null},{"geonameid":2924819,"name":"Fridolfing","admin3":"09189","localeAltName":null},{"geonameid":2923625,"name":"Fürstenfeldbruck","admin3":"09179","localeAltName":null},{"geonameid":2923426,"name":"Gachenbach","admin3":"09185","localeAltName":null},{"geonameid":2923305,"name":"Gaimersheim","admin3":"09176","localeAltName":null},{"geonameid":2923253,"name":"Gaißach","admin3":"09173","localeAltName":null},{"geonameid":2922754,"name":"Gammelsdorf","admin3":"09178","localeAltName":null},{"geonameid":2922583,"name":"Garching an der Alz","admin3":"09171","localeAltName":null},{"geonameid":2922582,"name":"Garching bei München","admin3":"09184","localeAltName":null},{"geonameid":2922530,"name":"Garmisch-Partenkirchen","admin3":"09180","localeAltName":null},{"geonameid":2922502,"name":"Gars","admin3":"09183","localeAltName":null},{"geonameid":2922230,"name":"Gauting","admin3":"09188","localeAltName":null},{"geonameid":2921713,"name":"Geisenfeld","admin3":"09186","localeAltName":null},{"geonameid":2921449,"name":"Geltendorf","admin3":"09181","localeAltName":null},{"geonameid":2921139,"name":"Geretsried","admin3":"09173","localeAltName":null},{"geonameid":2921039,"name":"Germering","admin3":"09179","localeAltName":null},{"geonameid":2920967,"name":"Gerolsbach","admin3":"09186","localeAltName":null},{"geonameid":2920433,"name":"Gilching","admin3":"09188","localeAltName":null},{"geonameid":2919812,"name":"Glonn","admin3":"09175","localeAltName":null},{"geonameid":2919717,"name":"Gmund am Tegernsee","admin3":"09182","localeAltName":null},{"geonameid":2918434,"name":"Grabenstätt","admin3":"09189","localeAltName":null},{"geonameid":2918368,"name":"Gräfelfing","admin3":"09184","localeAltName":null},{"geonameid":2918241,"name":"Grafing bei München","admin3":"09175","localeAltName":null},{"geonameid":2918232,"name":"Grafrath","admin3":"09179","localeAltName":null},{"geonameid":2918204,"name":"Grainau","admin3":"09180","localeAltName":null},{"geonameid":2918037,"name":"Grasbrunn","admin3":"09184","localeAltName":null},{"geonameid":2917978,"name":"Grassau","admin3":"09189","localeAltName":null},{"geonameid":2917803,"name":"Greifenberg","admin3":"09181","localeAltName":null},{"geonameid":2917782,"name":"Greiling","admin3":"09173","localeAltName":null},{"geonameid":2917380,"name":"Griesstätt","admin3":"09187","localeAltName":null},{"geonameid":2917221,"name":"Gröbenzell","admin3":"09179","localeAltName":null},{"geonameid":2915438,"name":"Großkarolinenfeld","admin3":"09187","localeAltName":null},{"geonameid":2914876,"name":"Großweil","admin3":"09180","localeAltName":null},{"geonameid":2914064,"name":"Grünwald","admin3":"09184","localeAltName":null},{"geonameid":2913942,"name":"Gstadt am Chiemsee","admin3":"09187","localeAltName":null},{"geonameid":2913224,"name":"Haag an der Amper","admin3":"09178","localeAltName":null},{"geonameid":2913210,"name":"Haag in Oberbayern","admin3":"09183","localeAltName":null},{"geonameid":2913192,"name":"Haar","admin3":"09184","localeAltName":null},{"geonameid":2913069,"name":"Habach","admin3":"09190","localeAltName":null},{"geonameid":2911940,"name":"Haimhausen","admin3":"09174","localeAltName":null},{"geonameid":2911938,"name":"Haiming","admin3":"09171","localeAltName":null},{"geonameid":2911556,"name":"Halfing","admin3":"09187","localeAltName":null},{"geonameid":2911530,"name":"Hallbergmoos","admin3":"09178","localeAltName":null},{"geonameid":2911443,"name":"Halsbach","admin3":"09171","localeAltName":null},{"geonameid":2909253,"name":"Hattenhofen","admin3":"09179","localeAltName":null},{"geonameid":2908783,"name":"Hausham","admin3":"09182","localeAltName":null},{"geonameid":2908529,"name":"Hebertshausen","admin3":"09174","localeAltName":null},{"geonameid":2905604,"name":"Herrsching am Ammersee","admin3":"09188","localeAltName":null},{"geonameid":2905222,"name":"Hettenshausen","admin3":"09186","localeAltName":null},{"geonameid":2904741,"name":"Hilgertshausen-Tandern","admin3":"09174","localeAltName":null},{"geonameid":2902371,"name":"Hofstetten","admin3":"09181","localeAltName":null},{"geonameid":2901872,"name":"Hohenbrunn","admin3":"09184","localeAltName":null},{"geonameid":2901757,"name":"Hohenfurch","admin3":"09190","localeAltName":null},{"geonameid":2901670,"name":"Hohenkammer","admin3":"09178","localeAltName":null},{"geonameid":3205535,"name":"Höhenkirchen-Siegertsbrunn","admin3":"09184","localeAltName":null},{"geonameid":2901625,"name":"Hohenlinden","admin3":"09175","localeAltName":null},{"geonameid":2901572,"name":"Hohenpeißenberg","admin3":"09190","localeAltName":null},{"geonameid":2901568,"name":"Hohenpolding","admin3":"09177","localeAltName":null},{"geonameid":2901400,"name":"Hohenthann","admin3":"09187","localeAltName":null},{"geonameid":2899676,"name":"Holzkirchen","admin3":"09182","localeAltName":null},{"geonameid":2899033,"name":"Hörgertshausen","admin3":"09178","localeAltName":null},{"geonameid":2898471,"name":"Höslwang","admin3":"09187","localeAltName":null},{"geonameid":2897991,"name":"Huglfing","admin3":"09190","localeAltName":null},{"geonameid":2897245,"name":"Hurlach","admin3":"09181","localeAltName":null},{"geonameid":2896761,"name":"Icking","admin3":"09173","localeAltName":null},{"geonameid":2896731,"name":"Iffeldorf","admin3":"09190","localeAltName":null},{"geonameid":2896506,"name":"Ilmmünster","admin3":"09186","localeAltName":null},{"geonameid":2896005,"name":"Ingenried","admin3":"09190","localeAltName":null},{"geonameid":2895992,"name":"Ingolstadt","admin3":"09161","localeAltName":null},{"geonameid":2895938,"name":"Inning am Ammersee","admin3":"09188","localeAltName":null},{"geonameid":2895937,"name":"Inning am Holz","admin3":"09177","localeAltName":null},{"geonameid":2895898,"name":"Inzell","admin3":"09189","localeAltName":null},{"geonameid":2895751,"name":"Irschenberg","admin3":"09182","localeAltName":null},{"geonameid":2895702,"name":"Isen","admin3":"09177","localeAltName":null},{"geonameid":2895643,"name":"Ismaning","admin3":"09184","localeAltName":null},{"geonameid":2895517,"name":"Jachenau","admin3":"09173","localeAltName":null},{"geonameid":2894977,"name":"Jesenwang","admin3":"09179","localeAltName":null},{"geonameid":2894926,"name":"Jettenbach","admin3":"09183","localeAltName":null},{"geonameid":2894907,"name":"Jetzendorf","admin3":"09186","localeAltName":null},{"geonameid":2892874,"name":"Karlsfeld","admin3":"09174","localeAltName":null},{"geonameid":2892810,"name":"Karlshuld","admin3":"09185","localeAltName":null},{"geonameid":2892808,"name":"Karlskron","admin3":"09185","localeAltName":null},{"geonameid":2892461,"name":"Kastl","admin3":"09171","localeAltName":null},{"geonameid":2892078,"name":"Kaufering","admin3":"09181","localeAltName":null},{"geonameid":2891175,"name":"Kiefersfelden","admin3":"09187","localeAltName":null},{"geonameid":2891069,"name":"Kienberg","admin3":"09189","localeAltName":null},{"geonameid":2890838,"name":"Kinsau","admin3":"09181","localeAltName":null},{"geonameid":2890770,"name":"Kirchanschöring","admin3":"09189","localeAltName":null},{"geonameid":2890670,"name":"Kirchberg","admin3":"09177","localeAltName":null},{"geonameid":2890614,"name":"Kirchdorf","admin3":"09178","localeAltName":null},{"geonameid":2890615,"name":"Kirchdorf","admin3":"09178","localeAltName":null},{"geonameid":2890616,"name":"Kirchdorf","admin3":"09183","localeAltName":null},{"geonameid":2890479,"name":"Kirchheim bei München","admin3":"09184","localeAltName":null},{"geonameid":2890381,"name":"Kirchseeon","admin3":"09175","localeAltName":null},{"geonameid":2890336,"name":"Kirchweidach","admin3":"09171","localeAltName":null},{"geonameid":2886924,"name":"Kochel","admin3":"09173","localeAltName":null},{"geonameid":2886446,"name":"Kolbermoor","admin3":"09187","localeAltName":null},{"geonameid":2885898,"name":"Königsdorf","admin3":"09173","localeAltName":null},{"geonameid":3208350,"name":"Kottgeisering","admin3":"09179","localeAltName":null},{"geonameid":2884885,"name":"Kraiburg am Inn","admin3":"09183","localeAltName":null},{"geonameid":2884878,"name":"Krailling","admin3":"09188","localeAltName":null},{"geonameid":2884280,"name":"Kreuth","admin3":"09182","localeAltName":null},{"geonameid":2883236,"name":"Krün","admin3":"09180","localeAltName":null},{"geonameid":2881509,"name":"Landsberg am Lech","admin3":"09181","localeAltName":null},{"geonameid":2881505,"name":"Landsberied","admin3":"09179","localeAltName":null},{"geonameid":2881244,"name":"Langenbach","admin3":"09178","localeAltName":null},{"geonameid":2880968,"name":"Langenmosen","admin3":"09185","localeAltName":null},{"geonameid":2880957,"name":"Langenpreising","admin3":"09177","localeAltName":null},{"geonameid":2880129,"name":"Laufen","admin3":"09172","localeAltName":null},{"geonameid":2878881,"name":"Lengdorf","admin3":"09177","localeAltName":null},{"geonameid":2878824,"name":"Lenggries","admin3":"09173","localeAltName":null},{"geonameid":2876249,"name":"Lohkirchen","admin3":"09183","localeAltName":null},{"geonameid":2874200,"name":"Maisach","admin3":"09179","localeAltName":null},{"geonameid":2874157,"name":"Maitenbeth","admin3":"09183","localeAltName":null},{"geonameid":2874006,"name":"Mammendorf","admin3":"09179","localeAltName":null},{"geonameid":2873992,"name":"Manching","admin3":"09186","localeAltName":null},{"geonameid":2873300,"name":"Markt Indersdorf","admin3":"09174","localeAltName":null},{"geonameid":2873285,"name":"Markt Schwaben","admin3":"09175","localeAltName":null},{"geonameid":2873298,"name":"Marktl","admin3":"09171","localeAltName":null},{"geonameid":2873287,"name":"Marktschellenberg","admin3":"09172","localeAltName":null},{"geonameid":2873220,"name":"Marquartstein","admin3":"09189","localeAltName":null},{"geonameid":2873056,"name":"Marzling","admin3":"09178","localeAltName":null},{"geonameid":2872807,"name":"Mauern","admin3":"09178","localeAltName":null},{"geonameid":2872377,"name":"Mehring","admin3":"09171","localeAltName":null},{"geonameid":2871556,"name":"Mettenheim","admin3":"09183","localeAltName":null},{"geonameid":2871198,"name":"Miesbach","admin3":"09182","localeAltName":null},{"geonameid":2870541,"name":"Mittelstetten","admin3":"09179","localeAltName":null},{"geonameid":2870482,"name":"Mittenwald","admin3":"09180","localeAltName":null},{"geonameid":2869682,"name":"Moorenweis","admin3":"09179","localeAltName":null},{"geonameid":2869511,"name":"Moosach","admin3":"09175","localeAltName":null},{"geonameid":2869449,"name":"Moosburg","admin3":"09178","localeAltName":null},{"geonameid":2869361,"name":"Moosinning","admin3":"09177","localeAltName":null},{"geonameid":2868506,"name":"Mühldorf","admin3":"09183","localeAltName":null},{"geonameid":2867637,"name":"Münchsmünster","admin3":"09186","localeAltName":null},{"geonameid":2867714,"name":"Munich","admin3":"09162","localeAltName":null},{"geonameid":2867561,"name":"Münsing","admin3":"09173","localeAltName":null},{"geonameid":2867445,"name":"Murnau am Staffelsee","admin3":"09180","localeAltName":null},{"geonameid":2867112,"name":"Nandlstadt","admin3":"09178","localeAltName":null},{"geonameid":2866175,"name":"Neubeuern","admin3":"09187","localeAltName":null},{"geonameid":2866174,"name":"Neubiberg","admin3":"09184","localeAltName":null},{"geonameid":2866070,"name":"Neuburg an der Donau","admin3":"09185","localeAltName":null},{"geonameid":2865378,"name":"Neufahrn","admin3":"09183","localeAltName":null},{"geonameid":2865376,"name":"Neufahrn bei Freising","admin3":"09178","localeAltName":null},{"geonameid":2864547,"name":"Neumarkt-Sankt Veit","admin3":"09183","localeAltName":null},{"geonameid":2864387,"name":"Neuötting","admin3":"09171","localeAltName":null},{"geonameid":2864303,"name":"Neuried","admin3":"09184","localeAltName":null},{"geonameid":2863604,"name":"Niederbergkirchen","admin3":"09183","localeAltName":null},{"geonameid":2862809,"name":"Niedertaufkirchen","admin3":"09183","localeAltName":null},{"geonameid":2861603,"name":"Nußdorf","admin3":"09189","localeAltName":null},{"geonameid":2861599,"name":"Nußdorf am Inn","admin3":"09187","localeAltName":null},{"geonameid":2861422,"name":"Oberammergau","admin3":"09180","localeAltName":null},{"geonameid":2861374,"name":"Oberaudorf","admin3":"09187","localeAltName":null},{"geonameid":2861285,"name":"Oberbergkirchen","admin3":"09183","localeAltName":null},{"geonameid":2861096,"name":"Oberding","admin3":"09177","localeAltName":null},{"geonameid":2860525,"name":"Oberhaching","admin3":"09184","localeAltName":null},{"geonameid":2860422,"name":"Oberhausen","admin3":"09185","localeAltName":null},{"geonameid":2860430,"name":"Oberhausen","admin3":"09190","localeAltName":null},{"geonameid":2859792,"name":"Obermeitingen","admin3":"09181","localeAltName":null},{"geonameid":2859578,"name":"Oberneukirchen","admin3":"09183","localeAltName":null},{"geonameid":2859439,"name":"Oberpframmern","admin3":"09175","localeAltName":null},{"geonameid":2859147,"name":"Oberschleißheim","admin3":"09184","localeAltName":null},{"geonameid":2859068,"name":"Oberschweinbach","admin3":"09179","localeAltName":null},{"geonameid":2859007,"name":"Obersöchering","admin3":"09190","localeAltName":null},{"geonameid":2858827,"name":"Obertaufkirchen","admin3":"09183","localeAltName":null},{"geonameid":2858424,"name":"Obing","admin3":"09189","localeAltName":null},{"geonameid":2858149,"name":"Odelzhausen","admin3":"09174","localeAltName":null},{"geonameid":2857649,"name":"Ohlstadt","admin3":"09180","localeAltName":null},{"geonameid":2857472,"name":"Olching","admin3":"09179","localeAltName":null},{"geonameid":2856085,"name":"Ottenhofen","admin3":"09177","localeAltName":null},{"geonameid":2856038,"name":"Otterfing","admin3":"09182","localeAltName":null},{"geonameid":2855935,"name":"Ottobrunn","admin3":"09184","localeAltName":null},{"geonameid":2855707,"name":"Pähl","admin3":"09190","localeAltName":null},{"geonameid":2855665,"name":"Palling","admin3":"09189","localeAltName":null},{"geonameid":2855334,"name":"Pasing","admin3":"09162","localeAltName":null},{"geonameid":2855293,"name":"Pastetten","admin3":"09177","localeAltName":null},{"geonameid":2855177,"name":"Paunzhausen","admin3":"09178","localeAltName":null},{"geonameid":2855029,"name":"Peißenberg","admin3":"09190","localeAltName":null},{"geonameid":2855025,"name":"Peiting","admin3":"09190","localeAltName":null},{"geonameid":2854923,"name":"Penzberg","admin3":"09190","localeAltName":null},{"geonameid":2854910,"name":"Penzing","admin3":"09181","localeAltName":null},{"geonameid":2854892,"name":"Perach","admin3":"09171","localeAltName":null},{"geonameid":2854646,"name":"Petershausen","admin3":"09174","localeAltName":null},{"geonameid":2854561,"name":"Petting","admin3":"09189","localeAltName":null},{"geonameid":2854394,"name":"Pfaffenhofen","admin3":"09174","localeAltName":null},{"geonameid":2854386,"name":"Pfaffenhofen an der Ilm","admin3":"09186","localeAltName":null},{"geonameid":2854310,"name":"Pfaffing","admin3":"09187","localeAltName":null},{"geonameid":2853855,"name":"Piding","admin3":"09172","localeAltName":null},{"geonameid":2853527,"name":"Pittenhart","admin3":"09189","localeAltName":null},{"geonameid":2853463,"name":"Planegg","admin3":"09184","localeAltName":null},{"geonameid":2853253,"name":"Pleiskirchen","admin3":"09171","localeAltName":null},{"geonameid":2853200,"name":"Pliening","admin3":"09175","localeAltName":null},{"geonameid":2853066,"name":"Pöcking","admin3":"09188","localeAltName":null},{"geonameid":2852939,"name":"Poing","admin3":"09175","localeAltName":null},{"geonameid":2852840,"name":"Polling","admin3":"09183","localeAltName":null},{"geonameid":2852841,"name":"Polling","admin3":"09190","localeAltName":null},{"geonameid":2852599,"name":"Pörnbach","admin3":"09186","localeAltName":null},{"geonameid":2852246,"name":"Prem","admin3":"09190","localeAltName":null},{"geonameid":2852101,"name":"Prien am Chiemsee","admin3":"09187","localeAltName":null},{"geonameid":2851977,"name":"Prittriching","admin3":"09181","localeAltName":null},{"geonameid":2851801,"name":"Prutting","admin3":"09187","localeAltName":null},{"geonameid":2851782,"name":"Puchheim","admin3":"09179","localeAltName":null},{"geonameid":2851739,"name":"Pullach im Isartal","admin3":"09184","localeAltName":null},{"geonameid":2851664,"name":"Pürgen","admin3":"09181","localeAltName":null},{"geonameid":2851567,"name":"Putzbrunn","admin3":"09184","localeAltName":null},{"geonameid":2850776,"name":"Raisting","admin3":"09190","localeAltName":null},{"geonameid":2850705,"name":"Ramerberg","admin3":"09187","localeAltName":null},{"geonameid":2850603,"name":"Ramsau","admin3":"09183","localeAltName":null},{"geonameid":2850608,"name":"Ramsau","admin3":"09172","localeAltName":null},{"geonameid":2850149,"name":"Rattenkirchen","admin3":"09183","localeAltName":null},{"geonameid":2850085,"name":"Raubling","admin3":"09187","localeAltName":null},{"geonameid":2849698,"name":"Rechtmehring","admin3":"09183","localeAltName":null},{"geonameid":2849047,"name":"Reichersbeuern","admin3":"09173","localeAltName":null},{"geonameid":2849025,"name":"Reichertshausen","admin3":"09173","localeAltName":null},{"geonameid":2849019,"name":"Reichertsheim","admin3":"09183","localeAltName":null},{"geonameid":2849017,"name":"Reichertshofen","admin3":"09186","localeAltName":null},{"geonameid":2849001,"name":"Reichling","admin3":"09181","localeAltName":null},{"geonameid":2848606,"name":"Reischach","admin3":"09171","localeAltName":null},{"geonameid":2848382,"name":"Reit im Winkl","admin3":"09189","localeAltName":null},{"geonameid":2848181,"name":"Rennertshofen","admin3":"09185","localeAltName":null},{"geonameid":2847319,"name":"Ried","admin3":"09185","localeAltName":null},{"geonameid":2847195,"name":"Riedering","admin3":"09187","localeAltName":null},{"geonameid":2847017,"name":"Riegsee","admin3":"09180","localeAltName":null},{"geonameid":2846715,"name":"Rimsting","admin3":"09187","localeAltName":null},{"geonameid":2845721,"name":"Rohrbach","admin3":"09186","localeAltName":null},{"geonameid":2845723,"name":"Rohrbach","admin3":"09183","localeAltName":null},{"geonameid":2845641,"name":"Rohrdorf","admin3":"09187","localeAltName":null},{"geonameid":2845625,"name":"Rohrenfels","admin3":"09185","localeAltName":null},{"geonameid":2845565,"name":"Röhrmoos","admin3":"09174","localeAltName":null},{"geonameid":2844988,"name":"Rosenheim","admin3":"09163","localeAltName":null},{"geonameid":2843803,"name":"Rott","admin3":"09187","localeAltName":null},{"geonameid":2843775,"name":"Rottach-Egern","admin3":"09182","localeAltName":null},{"geonameid":2843731,"name":"Rottenbuch","admin3":"09190","localeAltName":null},{"geonameid":2843445,"name":"Rudelzhausen","admin3":"09178","localeAltName":null},{"geonameid":2843203,"name":"Ruhpolding","admin3":"09189","localeAltName":null},{"geonameid":2842969,"name":"Ruppertskirchen","admin3":"09174","localeAltName":null},{"geonameid":2842507,"name":"Sachsenkam","admin3":"09173","localeAltName":null},{"geonameid":2842084,"name":"Samerberg","admin3":"09187","localeAltName":null},{"geonameid":3205596,"name":"Sankt Leonhard am Wonneberg","admin3":"09189","localeAltName":null},{"geonameid":2841457,"name":"Sankt Wolfgang","admin3":"09177","localeAltName":null},{"geonameid":2841178,"name":"Sauerlach","admin3":"09184","localeAltName":null},{"geonameid":2841124,"name":"Saulgrub","admin3":"09180","localeAltName":null},{"geonameid":2840634,"name":"Schäftlarn","admin3":"09184","localeAltName":null},{"geonameid":2840117,"name":"Schechen","admin3":"09187","localeAltName":null},{"geonameid":2839538,"name":"Scheuring","admin3":"09181","localeAltName":null},{"geonameid":2839527,"name":"Scheyern","admin3":"09186","localeAltName":null},{"geonameid":2838842,"name":"Schleching","admin3":"09189","localeAltName":null},{"geonameid":2838769,"name":"Schlehdorf","admin3":"09173","localeAltName":null},{"geonameid":2838502,"name":"Schliersee","admin3":"09182","localeAltName":null},{"geonameid":2837575,"name":"Schnaitsee","admin3":"09189","localeAltName":null},{"geonameid":2837375,"name":"Schneizlreuth","admin3":"09172","localeAltName":null},{"geonameid":2837073,"name":"Schönau","admin3":"09187","localeAltName":null},{"geonameid":2837085,"name":"Schönau am Königssee","admin3":"09172","localeAltName":null},{"geonameid":2836969,"name":"Schönberg","admin3":"09187","localeAltName":null},{"geonameid":3208367,"name":"Schondorf am Ammersee","admin3":"09181","localeAltName":null},{"geonameid":2836616,"name":"Schongau","admin3":"09190","localeAltName":null},{"geonameid":2836615,"name":"Schöngeising","admin3":"09179","localeAltName":null},{"geonameid":2836469,"name":"Schonstett","admin3":"09187","localeAltName":null},{"geonameid":2836084,"name":"Schrobenhausen","admin3":"09185","localeAltName":null},{"geonameid":2835531,"name":"Schwabbruck","admin3":"09190","localeAltName":null},{"geonameid":2835496,"name":"Schwabhausen","admin3":"09174","localeAltName":null},{"geonameid":2835470,"name":"Schwabsoien","admin3":"09190","localeAltName":null},{"geonameid":2835416,"name":"Schwaigen","admin3":"09180","localeAltName":null},{"geonameid":2834416,"name":"Schweitenkirchen","admin3":"09186","localeAltName":null},{"geonameid":2834196,"name":"Schwifting","admin3":"09181","localeAltName":null},{"geonameid":2834183,"name":"Schwindegg","admin3":"09183","localeAltName":null},{"geonameid":2833866,"name":"Seefeld","admin3":"09188","localeAltName":null},{"geonameid":2833795,"name":"Seehausen am Staffelsee","admin3":"09180","localeAltName":null},{"geonameid":3205634,"name":"Seeon-Seebruck","admin3":"09189","localeAltName":null},{"geonameid":2833590,"name":"Seeshaupt","admin3":"09190","localeAltName":null},{"geonameid":2832424,"name":"Siegsdorf","admin3":"09189","localeAltName":null},{"geonameid":2831942,"name":"Sindelsdorf","admin3":"09190","localeAltName":null},{"geonameid":2831731,"name":"Söchtenau","admin3":"09187","localeAltName":null},{"geonameid":2830873,"name":"Soyen","admin3":"09187","localeAltName":null},{"geonameid":2830768,"name":"Spatzenhausen","admin3":"09180","localeAltName":null},{"geonameid":2829581,"name":"Stammham","admin3":"09177","localeAltName":null},{"geonameid":2829582,"name":"Stammham","admin3":"09171","localeAltName":null},{"geonameid":2829457,"name":"Starnberg","admin3":"09188","localeAltName":null},{"geonameid":2829375,"name":"Staudach-Egerndach","admin3":"09189","localeAltName":null},{"geonameid":2828089,"name":"Steingaden","admin3":"09190","localeAltName":null},{"geonameid":2827955,"name":"Steinhöring","admin3":"09175","localeAltName":null},{"geonameid":2827870,"name":"Steinkirchen","admin3":"09177","localeAltName":null},{"geonameid":2827406,"name":"Stephanskirchen","admin3":"09187","localeAltName":null},{"geonameid":3205570,"name":"Straßlach-Dingharting","admin3":"09184","localeAltName":null},{"geonameid":2824753,"name":"Sulzemoos","admin3":"09174","localeAltName":null},{"geonameid":2824593,"name":"Surberg","admin3":"09189","localeAltName":null},{"geonameid":2824420,"name":"Tacherting","admin3":"09189","localeAltName":null},{"geonameid":2824419,"name":"Taching am See","admin3":"09189","localeAltName":null},{"geonameid":2823810,"name":"Taufkirchen","admin3":"09177","localeAltName":null},{"geonameid":2823811,"name":"Taufkirchen","admin3":"09183","localeAltName":null},{"geonameid":2823812,"name":"Taufkirchen","admin3":"09184","localeAltName":null},{"geonameid":2823679,"name":"Tegernsee","admin3":"09182","localeAltName":null},{"geonameid":2823611,"name":"Teisendorf","admin3":"09172","localeAltName":null},{"geonameid":2823608,"name":"Teising","admin3":"09171","localeAltName":null},{"geonameid":2823214,"name":"Thaining","admin3":"09181","localeAltName":null},{"geonameid":2822075,"name":"Tittmoning","admin3":"09189","localeAltName":null},{"geonameid":2821963,"name":"Töging am Inn","admin3":"09171","localeAltName":null},{"geonameid":2821517,"name":"Traunreut","admin3":"09189","localeAltName":null},{"geonameid":2821515,"name":"Traunstein","admin3":"09189","localeAltName":null},{"geonameid":2820964,"name":"Trostberg an der Alz","admin3":"09189","localeAltName":null},{"geonameid":2820775,"name":"Tuntenhausen","admin3":"09187","localeAltName":null},{"geonameid":2820756,"name":"Türkenfeld","admin3":"09179","localeAltName":null},{"geonameid":2820714,"name":"Tüßling","admin3":"09171","localeAltName":null},{"geonameid":2820692,"name":"Tutzing","admin3":"09188","localeAltName":null},{"geonameid":2820633,"name":"Tyrlaching","admin3":"09171","localeAltName":null},{"geonameid":2820564,"name":"Übersee","admin3":"09189","localeAltName":null},{"geonameid":2820419,"name":"Uffing","admin3":"09180","localeAltName":null},{"geonameid":2820020,"name":"Unterammergau","admin3":"09180","localeAltName":null},{"geonameid":2819825,"name":"Unterdießen","admin3":"09181","localeAltName":null},{"geonameid":2819568,"name":"Unterföhring","admin3":"09184","localeAltName":null},{"geonameid":2819465,"name":"Unterhaching","admin3":"09184","localeAltName":null},{"geonameid":2818999,"name":"Unterneukirchen","admin3":"09171","localeAltName":null},{"geonameid":2818879,"name":"Unterreit","admin3":"09183","localeAltName":null},{"geonameid":2818766,"name":"Unterschleißheim","admin3":"09184","localeAltName":null},{"geonameid":2818354,"name":"Unterwössen","admin3":"09189","localeAltName":null},{"geonameid":2818014,"name":"Utting am Ammersee","admin3":"09181","localeAltName":null},{"geonameid":2817965,"name":"Vachendorf","admin3":"09189","localeAltName":null},{"geonameid":2817953,"name":"Vagen","admin3":"09187","localeAltName":null},{"geonameid":2817904,"name":"Valley","admin3":"09182","localeAltName":null},{"geonameid":2817818,"name":"Vaterstetten","admin3":"09175","localeAltName":null},{"geonameid":2817339,"name":"Vierkirchen","admin3":"09174","localeAltName":null},{"geonameid":2817239,"name":"Vilgertshofen","admin3":"09181","localeAltName":null},{"geonameid":2816795,"name":"Vogtareuth","admin3":"09187","localeAltName":null},{"geonameid":2816776,"name":"Vohburg an der Donau","admin3":"09186","localeAltName":null},{"geonameid":2815804,"name":"Waakirchen","admin3":"09182","localeAltName":null},{"geonameid":2815600,"name":"Wackersberg","admin3":"09173","localeAltName":null},{"geonameid":2815484,"name":"Waging am See","admin3":"09189","localeAltName":null},{"geonameid":2815315,"name":"Waidhofen","admin3":"09185","localeAltName":null},{"geonameid":2814874,"name":"Waldkraiburg","admin3":"09183","localeAltName":null},{"geonameid":2814582,"name":"Wallgau","admin3":"09180","localeAltName":null},{"geonameid":2814486,"name":"Walpertskirchen","admin3":"09177","localeAltName":null},{"geonameid":2814294,"name":"Wang","admin3":"09178","localeAltName":null},{"geonameid":2814053,"name":"Warngau","admin3":"09182","localeAltName":null},{"geonameid":2813935,"name":"Wartenberg","admin3":"09177","localeAltName":null},{"geonameid":2813755,"name":"Wasserburg am Inn","admin3":"09187","localeAltName":null},{"geonameid":2813152,"name":"Weichering","admin3":"09185","localeAltName":null},{"geonameid":2813145,"name":"Weichs","admin3":"09174","localeAltName":null},{"geonameid":2812644,"name":"Weil","admin3":"09181","localeAltName":null},{"geonameid":2812515,"name":"Weilheim","admin3":"09190","localeAltName":null},{"geonameid":2810587,"name":"Weßling","admin3":"09188","localeAltName":null},{"geonameid":2810581,"name":"Wessobrunn","admin3":"09190","localeAltName":null},{"geonameid":2809856,"name":"Weyarn","admin3":"09182","localeAltName":null},{"geonameid":2808810,"name":"Wildsteig","admin3":"09190","localeAltName":null},{"geonameid":2808306,"name":"Windach","admin3":"09181","localeAltName":null},{"geonameid":2808043,"name":"Winhöring","admin3":"09171","localeAltName":null},{"geonameid":2806870,"name":"Wolfersdorf","admin3":"09178","localeAltName":null},{"geonameid":2806768,"name":"Wolfratshausen","admin3":"09173","localeAltName":null},{"geonameid":2806339,"name":"Wolnzach","admin3":"09186","localeAltName":null},{"geonameid":3208380,"name":"Wörth","admin3":"09177","localeAltName":null},{"geonameid":2806072,"name":"Wörthsee","admin3":"09188","localeAltName":null},{"geonameid":2805261,"name":"Zangberg","admin3":"09183","localeAltName":null},{"geonameid":2803923,"name":"Zolling","admin3":"09178","localeAltName":null},{"geonameid":2803884,"name":"Zorneding","admin3":"09175","localeAltName":null}],"admin3":[{"geonameid":2829456,"name":"Landkreis Starnberg","admin3":"09188","localeAltName":null},{"geonameid":2854385,"name":"Landkreis Pfaffenhofen an der Ilm","admin3":"09186","localeAltName":null},{"geonameid":2866064,"name":"Landkreis Neuburg-Schrobenhausen","admin3":"09185","localeAltName":null},{"geonameid":2922531,"name":"Landkreis Garmisch-Partenkirchen","admin3":"09180","localeAltName":null},{"geonameid":2923624,"name":"Landkreis Fürstenfeldbruck","admin3":"09179","localeAltName":null},{"geonameid":2929716,"name":"Landkreis Erding","admin3":"09177","localeAltName":null},{"geonameid":2933937,"name":"Landkreis Ebersberg","admin3":"09175","localeAltName":null},{"geonameid":2950877,"name":"Berchtesgadener Land","admin3":"09172","localeAltName":null},{"geonameid":2953323,"name":"Landkreis Bad Tölz-Wolfratshausen","admin3":"09173","localeAltName":null},{"geonameid":3220817,"name":"Landkreis Altötting","admin3":"09171","localeAltName":null},{"geonameid":3220818,"name":"Landkreis Dachau","admin3":"09174","localeAltName":null},{"geonameid":3220830,"name":"Landkreis Eichstätt","admin3":"09176","localeAltName":null},{"geonameid":3220832,"name":"Landkreis Freising","admin3":"09178","localeAltName":null},{"geonameid":3220833,"name":"Kreisfreie Stadt Ingolstadt","admin3":"09161","localeAltName":null},{"geonameid":3220834,"name":"Landkreis Landsberg am Lech","admin3":"09181","localeAltName":null},{"geonameid":3220835,"name":"Landkreis Miesbach","admin3":"09182","localeAltName":null},{"geonameid":3220836,"name":"Landkreis Mühldorf am Inn","admin3":"09183","localeAltName":null},{"geonameid":3220837,"name":"Kreisfreie Stadt München","admin3":"09162","localeAltName":null},{"geonameid":3220838,"name":"Landkreis München","admin3":"09184","localeAltName":null},{"geonameid":3220839,"name":"Kreisfreie Stadt Rosenheim","admin3":"09163","localeAltName":null},{"geonameid":3220840,"name":"Landkreis Rosenheim","admin3":"09187","localeAltName":null},{"geonameid":3220841,"name":"Landkreis Traunstein","admin3":"09189","localeAltName":null},{"geonameid":3220842,"name":"Landkreis Weilheim-Schongau","admin3":"09190","localeAltName":null}],"alternateNames":[{"alternatenameId":1894550,"geonameid":2951839,"isoLanguage":"de","alternateName":"Bayern","isPreferredName":true,"isShortName":true,"isColloquial":false,"isHistoric":false},{"alternatenameId":1894551,"geonameid":2951839,"isoLanguage":"en","alternateName":"Bavaria","isPreferredName":true,"isShortName":true,"isColloquial":false,"isHistoric":false}]},"__N_SSG":true}