{"pageProps":{"locale":"en","admin2":{"geonameid":11353076,"name":"Armagh City Banbridge and Craigavon","country":"GB","admin1":"NIR","admin2":"N09000002","admin3":"","latitude":"54.3692200","longitude":"-6.4565100"},"admin1":{"geonameid":2641364,"name":"Northern Ireland","admin1":"NIR"},"locations":[{"geonameid":2657694,"name":"Acton","admin3":""},{"geonameid":2657644,"name":"Aghagallon","admin3":""},{"geonameid":2657638,"name":"Aghory","admin3":""},{"geonameid":2657300,"name":"Annaclone","admin3":""},{"geonameid":2657298,"name":"Annaghmore","admin3":""},{"geonameid":2657296,"name":"Annaloist","admin3":""},{"geonameid":2657060,"name":"Armagh","admin3":""},{"geonameid":2656957,"name":"Ashfield","admin3":""},{"geonameid":2656562,"name":"Balleer","admin3":""},{"geonameid":2656478,"name":"Ballynaskeagh","admin3":""},{"geonameid":2656468,"name":"Ballyroney","admin3":""},{"geonameid":2656407,"name":"Banbridge","admin3":""},{"geonameid":2655421,"name":"Blackwatertown","admin3":""},{"geonameid":2655216,"name":"Bondville","admin3":""},{"geonameid":2653990,"name":"Callan Bridge","admin3":""},{"geonameid":2653738,"name":"Carnagh","admin3":""},{"geonameid":2653334,"name":"Charlestown","admin3":""},{"geonameid":2653036,"name":"Church Hill","admin3":""},{"geonameid":2652939,"name":"Clare","admin3":""},{"geonameid":2652940,"name":"Clare","admin3":""},{"geonameid":2652384,"name":"Corbet Milltown","admin3":""},{"geonameid":3345440,"name":"Craigavon","admin3":""},{"geonameid":2651519,"name":"Darkley","admin3":""},{"geonameid":2651330,"name":"Derrymacash","admin3":""},{"geonameid":2651325,"name":"Derrytrasna","admin3":""},{"geonameid":2651131,"name":"Donaghcloney","admin3":""},{"geonameid":2650977,"name":"Dromore","admin3":""},{"geonameid":2650941,"name":"Drumcree","admin3":""},{"geonameid":2650916,"name":"Drumnasoo","admin3":""},{"geonameid":2650724,"name":"Dungormley","admin3":""},{"geonameid":2648669,"name":"Gilford","admin3":""},{"geonameid":2648217,"name":"Grange Blundel","admin3":""},{"geonameid":2647569,"name":"Hamiltons Bawn","admin3":""},{"geonameid":2646896,"name":"Hillhead","admin3":""},{"geonameid":2645923,"name":"Katesbridge","admin3":""},{"geonameid":2645917,"name":"Keady","admin3":""},{"geonameid":2645614,"name":"Killylea","admin3":""},{"geonameid":2645586,"name":"Kilmore","admin3":""},{"geonameid":8504561,"name":"Knockmenagh","admin3":""},{"geonameid":2644787,"name":"Lawrencetown","admin3":""},{"geonameid":2644392,"name":"Listullycurran","admin3":""},{"geonameid":2643566,"name":"Loughbrickland","admin3":""},{"geonameid":2643563,"name":"Loughgall","admin3":""},{"geonameid":2643562,"name":"Loughgilly","admin3":""},{"geonameid":2643529,"name":"Lower Darkley","admin3":""},{"geonameid":2643360,"name":"Lurgan","admin3":""},{"geonameid":2643240,"name":"Maddan","admin3":""},{"geonameid":2643205,"name":"Magheralin","admin3":""},{"geonameid":2643026,"name":"Market Hill","admin3":""},{"geonameid":9319471,"name":"Markethill","admin3":""},{"geonameid":2642577,"name":"Middletown","admin3":""},{"geonameid":2642516,"name":"Millford","admin3":""},{"geonameid":2642493,"name":"Milltown","admin3":""},{"geonameid":2642494,"name":"Milltown","admin3":""},{"geonameid":2642284,"name":"Moorefield","admin3":""},{"geonameid":2642079,"name":"Mowhan","admin3":""},{"geonameid":2642077,"name":"Moy","admin3":""},{"geonameid":2642072,"name":"Moyallan","admin3":""},{"geonameid":2640085,"name":"Portadown","admin3":""},{"geonameid":2639940,"name":"Poyntz Pass","admin3":""},{"geonameid":2639621,"name":"Rathfriland","admin3":""},{"geonameid":2639390,"name":"Rich Hill","admin3":""},{"geonameid":2638399,"name":"Scarva","admin3":""},{"geonameid":2638364,"name":"Scotch Street","admin3":""},{"geonameid":2638306,"name":"Seagoe","admin3":""},{"geonameid":2638285,"name":"Seapatrick","admin3":""},{"geonameid":2637733,"name":"Skerries","admin3":""},{"geonameid":2636271,"name":"Tandragee","admin3":""},{"geonameid":2636187,"name":"Tassagh","admin3":""},{"geonameid":2655629,"name":"The Birches","admin3":""},{"geonameid":2651275,"name":"The Diamond","admin3":""},{"geonameid":2635279,"name":"Tynan","admin3":""},{"geonameid":2634769,"name":"Waringsford","admin3":""},{"geonameid":2634768,"name":"Waringstown","admin3":""}],"admin3":[],"alternateNames":[]},"__N_SSG":true}