{"pageProps":{"locale":"en","admin2":{"geonameid":3333223,"name":"City of Belfast","country":"GB","admin1":"NIR","admin2":"N09000003","admin3":"","latitude":"54.5833300","longitude":"-5.9166700","localeAltName":"Belfast"},"admin1":{"geonameid":2641364,"name":"Northern Ireland","admin1":"NIR"},"locations":[{"geonameid":8504555,"name":"Andersonstown","admin3":""},{"geonameid":11694441,"name":"Ardoyne","admin3":""},{"geonameid":2656505,"name":"Ballyhackamore","admin3":""},{"geonameid":2656496,"name":"Ballymacarret","admin3":""},{"geonameid":2656485,"name":"Ballynafeigh","admin3":""},{"geonameid":2656451,"name":"Balmoral","admin3":""},{"geonameid":2655984,"name":"Belfast","admin3":""},{"geonameid":7280023,"name":"Belfast City Centre","admin3":""},{"geonameid":2653558,"name":"Castlereagh","admin3":""},{"geonameid":11821769,"name":"Cathedral's Quarter","admin3":""},{"geonameid":2652828,"name":"Cliftonville","admin3":""},{"geonameid":2650696,"name":"Dunmurry","admin3":""},{"geonameid":2649450,"name":"Finaghy","admin3":""},{"geonameid":2648649,"name":"Gilnahirk","admin3":""},{"geonameid":2647977,"name":"Greencastle","admin3":""},{"geonameid":2645146,"name":"Knock","admin3":""},{"geonameid":2644670,"name":"Legoniel","admin3":""},{"geonameid":2640916,"name":"Ormeau","admin3":""},{"geonameid":2639786,"name":"Queens Island","admin3":""},{"geonameid":2639138,"name":"Rosetta","admin3":""},{"geonameid":2638139,"name":"Shankill","admin3":""},{"geonameid":2637761,"name":"Skegoniel","admin3":""},{"geonameid":2637195,"name":"Springfield","admin3":""},{"geonameid":8063575,"name":"Stormont","admin3":""},{"geonameid":2636721,"name":"Stranmillis","admin3":""},{"geonameid":2636359,"name":"Sydenham","admin3":""},{"geonameid":2634085,"name":"Whitehouse Upper","admin3":""},{"geonameid":2633841,"name":"Windsor","admin3":""}],"admin3":[],"alternateNames":[{"alternatenameId":8666542,"geonameid":3333223,"isoLanguage":"en","alternateName":"Belfast","isPreferredName":true,"isShortName":true,"isColloquial":false,"isHistoric":false}]},"__N_SSG":true}