{"pageProps":{"locale":"en","admin2":{"geonameid":10287303,"name":"De Fryske Marren","country":"NL","admin1":"02","admin2":"1940","admin3":"","latitude":"52.9690600","longitude":"5.7724600"},"admin1":{"geonameid":2755812,"name":"Provincie Friesland","admin1":"02"},"locations":[{"geonameid":2759921,"name":"Akmarijp","admin3":""},{"geonameid":2759496,"name":"Bakhuizen","admin3":""},{"geonameid":2759472,"name":"Balk","admin3":""},{"geonameid":2759461,"name":"Ballingbuur","admin3":""},{"geonameid":2759447,"name":"Bandsloot","admin3":""},{"geonameid":2759431,"name":"Bantega","admin3":""},{"geonameid":2759423,"name":"Bargebek","admin3":""},{"geonameid":2758629,"name":"Boornzwaag","admin3":""},{"geonameid":2758628,"name":"Boornzwaag over de Wielen","admin3":""},{"geonameid":6639645,"name":"Brekkenpolder","admin3":""},{"geonameid":2758295,"name":"Broek","admin3":""},{"geonameid":2758247,"name":"Broek-Noord","admin3":""},{"geonameid":2757921,"name":"Commissiepolle","admin3":""},{"geonameid":2757098,"name":"De Rijlst","admin3":""},{"geonameid":2756920,"name":"De Woudfennen","admin3":""},{"geonameid":2757372,"name":"Delburen","admin3":""},{"geonameid":2757346,"name":"Delfstrahuizen","admin3":""},{"geonameid":2756842,"name":"Dijken","admin3":""},{"geonameid":2756715,"name":"Doniaga","admin3":""},{"geonameid":2756439,"name":"Echten","admin3":""},{"geonameid":2756438,"name":"Echtenerbrug","admin3":""},{"geonameid":2756323,"name":"Eesterga","admin3":""},{"geonameid":2756235,"name":"Elahuizen","admin3":""},{"geonameid":2756216,"name":"Elfbergen","admin3":""},{"geonameid":2755908,"name":"Finkeburen","admin3":""},{"geonameid":2755871,"name":"Follega","admin3":""},{"geonameid":2755522,"name":"Gietersebrug","admin3":""},{"geonameid":2755467,"name":"Goingarijp","admin3":""},{"geonameid":2754831,"name":"Harich","admin3":""},{"geonameid":2754796,"name":"Haskerhorne","admin3":""},{"geonameid":2754586,"name":"Heide","admin3":""},{"geonameid":2753657,"name":"Hooibergen","admin3":""},{"geonameid":2753390,"name":"Idskenhuizen","admin3":""},{"geonameid":2753197,"name":"Joure","admin3":""},{"geonameid":2752536,"name":"Kolderwolde","admin3":""},{"geonameid":2752460,"name":"Kooisloot","admin3":""},{"geonameid":2751888,"name":"Langweer","admin3":""},{"geonameid":2751782,"name":"Legemeer","admin3":""},{"geonameid":2751729,"name":"Lemmer","admin3":""},{"geonameid":2750842,"name":"Middenvaart","admin3":""},{"geonameid":2750788,"name":"Mirns","admin3":""},{"geonameid":2750376,"name":"Nieuw Amerika","admin3":""},{"geonameid":2750099,"name":"Nijega","admin3":""},{"geonameid":2750094,"name":"Nijehaske","admin3":""},{"geonameid":2750089,"name":"Nijemirdum","admin3":""},{"geonameid":2749640,"name":"Oldeouwer","admin3":""},{"geonameid":2749591,"name":"Onland","admin3":""},{"geonameid":2749385,"name":"Oosterzee","admin3":""},{"geonameid":2749386,"name":"Oosterzee-Buren","admin3":""},{"geonameid":2749196,"name":"Otterweg","admin3":""},{"geonameid":2749138,"name":"Oudega","admin3":""},{"geonameid":2749120,"name":"Oudehaske","admin3":""},{"geonameid":2749061,"name":"Oudemirdum","admin3":""},{"geonameid":2748873,"name":"Ouwster-Nijega","admin3":""},{"geonameid":2748874,"name":"Ouwsterhaule","admin3":""},{"geonameid":2748516,"name":"Polle","admin3":""},{"geonameid":2748093,"name":"Rijs","admin3":""},{"geonameid":2747984,"name":"Rohel","admin3":""},{"geonameid":2747898,"name":"Rotstergaast","admin3":""},{"geonameid":2747897,"name":"Rotsterhaule","admin3":""},{"geonameid":2747884,"name":"Rottum","admin3":""},{"geonameid":2747850,"name":"Ruigahuizen","admin3":""},{"geonameid":2747669,"name":"Scharsterbrug","admin3":""},{"geonameid":2747468,"name":"Schouw","admin3":""},{"geonameid":2747231,"name":"Sint Nicolaasga","admin3":""},{"geonameid":2747257,"name":"Sintjohannesga","admin3":""},{"geonameid":2747131,"name":"Sloten","admin3":""},{"geonameid":2747048,"name":"Snikzwaag","admin3":""},{"geonameid":2747014,"name":"Sondel","admin3":""},{"geonameid":2746973,"name":"Spannenburg","admin3":""},{"geonameid":2746531,"name":"Tacozijl","admin3":""},{"geonameid":2746449,"name":"Terherne","admin3":""},{"geonameid":2746440,"name":"Terkaple","admin3":""},{"geonameid":2746418,"name":"Teroele","admin3":""},{"geonameid":2746269,"name":"Tjerkgaast","admin3":""},{"geonameid":2746144,"name":"Trophorne","admin3":""},{"geonameid":2745727,"name":"Vegelinsoord","admin3":""},{"geonameid":2745555,"name":"Vierhuis","admin3":""},{"geonameid":2744750,"name":"Westerend Harich","admin3":""},{"geonameid":2744713,"name":"Westermeer","admin3":""},{"geonameid":2744510,"name":"Wijckel","admin3":""},{"geonameid":2744509,"name":"Wijckelereebuurt","admin3":""},{"geonameid":2743942,"name":"Zevenbuurt","admin3":""}],"admin3":[],"alternateNames":[{"alternatenameId":5463435,"geonameid":2755812,"isoLanguage":"de","alternateName":"Friesland","isPreferredName":true,"isShortName":true,"isColloquial":false,"isHistoric":false}]},"__N_SSG":true}