{"pageProps":{"locale":"en","admin2":{"geonameid":2759131,"name":"Bergeijk","country":"NL","admin1":"06","admin2":"1724","admin3":"","latitude":"51.3018200","longitude":"5.3394600"},"admin1":{"geonameid":2749990,"name":"Provincie Noord-Brabant","admin1":"06"},"locations":[{"geonameid":2759132,"name":"Bergeijk","admin3":""},{"geonameid":2758718,"name":"Boevenheuvel","admin3":""},{"geonameid":2758580,"name":"Boscheind","admin3":""},{"geonameid":2758556,"name":"Boshoven","admin3":""},{"geonameid":2758436,"name":"Braambosch","admin3":""},{"geonameid":2758269,"name":"Broekhoven","admin3":""},{"geonameid":2757820,"name":"De Aa","admin3":""},{"geonameid":2757072,"name":"De Rund","admin3":""},{"geonameid":2756260,"name":"Eind","admin3":""},{"geonameid":2755942,"name":"Eykereind","admin3":""},{"geonameid":2754565,"name":"Heiereind","admin3":""},{"geonameid":2754042,"name":"Hobbel","admin3":""},{"geonameid":2753972,"name":"Hof","admin3":""},{"geonameid":2753773,"name":"Hooge Berkt","admin3":""},{"geonameid":2752057,"name":"Lage Berkt","admin3":""},{"geonameid":2751486,"name":"Loo","admin3":""},{"geonameid":2751412,"name":"Loveren","admin3":""},{"geonameid":2751346,"name":"Luyksgestel","admin3":""},{"geonameid":2750570,"name":"Muggenhool","admin3":""},{"geonameid":2748150,"name":"Riethoven","admin3":""},{"geonameid":2748074,"name":"Rijt","admin3":""},{"geonameid":2747389,"name":"Sengelsbroek","admin3":""},{"geonameid":6544737,"name":"Spaanrijt","admin3":""},{"geonameid":2745276,"name":"Voort","admin3":""},{"geonameid":2745068,"name":"Walik","admin3":""},{"geonameid":2744938,"name":"Weebosch","admin3":""},{"geonameid":2744731,"name":"Westerhoven","admin3":""},{"geonameid":2744301,"name":"Witrijt","admin3":""}],"admin3":[],"alternateNames":[{"alternatenameId":11907788,"geonameid":2749990,"isoLanguage":"de","alternateName":"Nordbrabant","isPreferredName":true,"isShortName":true,"isColloquial":false,"isHistoric":false}]},"__N_SSG":true}