{"pageProps":{"locale":"en","admin2":{"geonameid":2755506,"name":"Gemeente Gilze en Rijen","country":"NL","admin1":"06","admin2":"0784","admin3":"","latitude":"51.5565600","longitude":"4.9125300"},"admin1":{"geonameid":2749990,"name":"Provincie Noord-Brabant","admin1":"06"},"locations":[{"geonameid":2759092,"name":"Berkeind","admin3":""},{"geonameid":2758966,"name":"Biestraat","admin3":""},{"geonameid":2758697,"name":"Bolberg","admin3":""},{"geonameid":2756978,"name":"De Vijf Eiken","admin3":""},{"geonameid":2756604,"name":"Driehoek","admin3":""},{"geonameid":2755507,"name":"Gilze","admin3":""},{"geonameid":2755019,"name":"Haansberg","admin3":""},{"geonameid":2753778,"name":"Hooge Aard","admin3":""},{"geonameid":2753590,"name":"Horst","admin3":""},{"geonameid":2753430,"name":"Hulten","admin3":""},{"geonameid":2752074,"name":"Laareind","admin3":""},{"geonameid":2751917,"name":"Langereit","admin3":""},{"geonameid":2750666,"name":"Molenschot","admin3":""},{"geonameid":2750423,"name":"Nerhoven","admin3":""},{"geonameid":2748372,"name":"Raakeind","admin3":""},{"geonameid":2748130,"name":"Rijen","admin3":""},{"geonameid":2745609,"name":"Verhoven","admin3":""},{"geonameid":2745230,"name":"Vossenberg","admin3":""},{"geonameid":2744882,"name":"Weilenseind","admin3":""}],"admin3":[],"alternateNames":[{"alternatenameId":11907788,"geonameid":2749990,"isoLanguage":"de","alternateName":"Nordbrabant","isPreferredName":true,"isShortName":true,"isColloquial":false,"isHistoric":false}]},"__N_SSG":true}