{"pageProps":{"locale":"en","admin2":{"geonameid":2754065,"name":"Gemeente Hilvarenbeek","country":"NL","admin1":"06","admin2":"0798","admin3":"","latitude":"51.4777200","longitude":"5.1477800"},"admin1":{"geonameid":2749990,"name":"Provincie Noord-Brabant","admin1":"06"},"locations":[{"geonameid":2759539,"name":"Baarschot","admin3":""},{"geonameid":2759296,"name":"Beerten","admin3":""},{"geonameid":2758969,"name":"Biest-Houtakker","admin3":""},{"geonameid":2757186,"name":"Den Opslag","admin3":""},{"geonameid":2756859,"name":"Diessen","admin3":""},{"geonameid":6544819,"name":"Driehuizen","admin3":""},{"geonameid":2756490,"name":"Dun","admin3":""},{"geonameid":2756031,"name":"Esbeek","admin3":""},{"geonameid":2755431,"name":"Gorp","admin3":""},{"geonameid":2755276,"name":"Groenstraat","admin3":""},{"geonameid":2755114,"name":"Groot Loo","admin3":""},{"geonameid":2755057,"name":"Grote Voort","admin3":""},{"geonameid":2754959,"name":"Haghorst","admin3":""},{"geonameid":2754543,"name":"Heikant","admin3":""},{"geonameid":2754066,"name":"Hilvarenbeek","admin3":""},{"geonameid":2753670,"name":"Hoog Spul","admin3":""},{"geonameid":2753763,"name":"Hooge Haghorst","admin3":""},{"geonameid":2753754,"name":"Hoogeind","admin3":""},{"geonameid":2753565,"name":"Houtakker","admin3":""},{"geonameid":2752680,"name":"Klein Loo","admin3":""},{"geonameid":2752705,"name":"Kleine Voort","admin3":""},{"geonameid":2752101,"name":"Laag Spul","admin3":""},{"geonameid":2752047,"name":"Lage Haghorst","admin3":""},{"geonameid":2747875,"name":"Rovert","admin3":""},{"geonameid":2747171,"name":"Slibbroek","admin3":""},{"geonameid":2744954,"name":"Waterstraat","admin3":""},{"geonameid":2744672,"name":"Westerwijk","admin3":""},{"geonameid":2744673,"name":"Westerwijk","admin3":""}],"admin3":[],"alternateNames":[{"alternatenameId":11907788,"geonameid":2749990,"isoLanguage":"de","alternateName":"Nordbrabant","isPreferredName":true,"isShortName":true,"isColloquial":false,"isHistoric":false}]},"__N_SSG":true}