{"pageProps":{"locale":"en","admin2":{"geonameid":2758459,"name":"Gemeente Boxtel","country":"NL","admin1":"06","admin2":"0757","admin3":"","latitude":"51.5847200","longitude":"5.3265400"},"admin1":{"geonameid":2749990,"name":"Provincie Noord-Brabant","admin1":"06"},"locations":[{"geonameid":2758460,"name":"Boxtel","admin3":""},{"geonameid":2758334,"name":"Breukelen","admin3":""},{"geonameid":6544870,"name":"De Vorst","admin3":""},{"geonameid":6544863,"name":"Den Berg","admin3":""},{"geonameid":2754148,"name":"Heult","admin3":""},{"geonameid":2754109,"name":"Hezelaar","admin3":""},{"geonameid":2753047,"name":"Kasteren","admin3":""},{"geonameid":6544824,"name":"Kinderbos","admin3":""},{"geonameid":6544826,"name":"Kleinder-Liempde","admin3":""},{"geonameid":2751934,"name":"Langenberg","admin3":""},{"geonameid":2751716,"name":"Lennisheuvel","admin3":""},{"geonameid":2751645,"name":"Liempde","admin3":""},{"geonameid":2751394,"name":"Luissel","admin3":""},{"geonameid":2750541,"name":"Munsel","admin3":""},{"geonameid":2750425,"name":"Nergena","admin3":""},{"geonameid":2749585,"name":"Onrooi","admin3":""},{"geonameid":2757088,"name":"Roond","admin3":""},{"geonameid":2747401,"name":"Selissen","admin3":""},{"geonameid":2746213,"name":"Tongeren","admin3":""},{"geonameid":2745174,"name":"Vrilkhoven","admin3":""}],"admin3":[],"alternateNames":[{"alternatenameId":11907788,"geonameid":2749990,"isoLanguage":"de","alternateName":"Nordbrabant","isPreferredName":true,"isShortName":true,"isColloquial":false,"isHistoric":false}]},"__N_SSG":true}