{"pageProps":{"locale":"en","admin2":{"geonameid":2757873,"name":"Gemeente Cuijk","country":"NL","admin1":"06","admin2":"1684","admin3":"","latitude":"51.7173900","longitude":"5.8577300"},"admin1":{"geonameid":2749990,"name":"Provincie Noord-Brabant","admin1":"06"},"locations":[{"geonameid":2759309,"name":"Beers","admin3":""},{"geonameid":2757874,"name":"Cuijk","admin3":""},{"geonameid":2757550,"name":"De Heuf","admin3":""},{"geonameid":2757147,"name":"De Plaats","admin3":""},{"geonameid":2756738,"name":"Dommelsvoort","admin3":""},{"geonameid":2755954,"name":"Ewinkel","admin3":""},{"geonameid":2754868,"name":"Haps","admin3":""},{"geonameid":2754830,"name":"Haring","admin3":""},{"geonameid":2754628,"name":"Heeswijk","admin3":""},{"geonameid":2753522,"name":"Huij","admin3":""},{"geonameid":2753013,"name":"Katwijk","admin3":""},{"geonameid":2752681,"name":"Klein Linden","admin3":""},{"geonameid":2755115,"name":"Linden","admin3":""},{"geonameid":2748399,"name":"Putselaar","admin3":""},{"geonameid":2747303,"name":"Sint Agatha","admin3":""},{"geonameid":2745581,"name":"Vianen","admin3":""},{"geonameid":2743920,"name":"Zevenhutten","admin3":""}],"admin3":[],"alternateNames":[{"alternatenameId":11907788,"geonameid":2749990,"isoLanguage":"de","alternateName":"Nordbrabant","isPreferredName":true,"isShortName":true,"isColloquial":false,"isHistoric":false}]},"__N_SSG":true}