{"pageProps":{"locale":"ro","admin2":{"geonameid":672300,"name":"Comuna Nereju","country":"RO","admin1":"40","admin2":"176944","admin3":"","latitude":"45.7083300","longitude":"26.6979400","localeAltName":null},"admin1":{"geonameid":662447,"name":"Vrancea","admin1":"40","localeAltName":"Vrancea"},"locations":[{"geonameid":683971,"name":"Brădăcești","admin3":"","localeAltName":null},{"geonameid":682061,"name":"Chiricani","admin3":"","localeAltName":null},{"geonameid":681162,"name":"Cofăreşti","admin3":"","localeAltName":null},{"geonameid":674381,"name":"Lunca Nerejului","admin3":"","localeAltName":null},{"geonameid":672301,"name":"Nereju","admin3":"","localeAltName":null},{"geonameid":672299,"name":"Nereju Mic","admin3":"","localeAltName":null},{"geonameid":670284,"name":"Podu Nerejului","admin3":"","localeAltName":null},{"geonameid":668258,"name":"Sahastru","admin3":"","localeAltName":null}],"admin3":[],"alternateNames":[{"alternatenameId":391637,"geonameid":662447,"isoLanguage":"ro","alternateName":"Vrancea","isPreferredName":true,"isShortName":true,"isColloquial":false,"isHistoric":false}]},"__N_SSG":true}