{"pageProps":{"locale":"ro","admin2":{"geonameid":662966,"name":"Comuna Vidra","country":"RO","admin1":"40","admin2":"178377","admin3":"","latitude":"45.9142000","longitude":"26.9050600","localeAltName":null},"admin1":{"geonameid":662447,"name":"Vrancea","admin1":"40","localeAltName":"Vrancea"},"locations":[{"geonameid":683250,"name":"Burca","admin3":"","localeAltName":null},{"geonameid":682976,"name":"Căliman","admin3":"","localeAltName":null},{"geonameid":680028,"name":"Cucueţi","admin3":"","localeAltName":null},{"geonameid":680023,"name":"Cucueţii de sub Măgură","admin3":"","localeAltName":null},{"geonameid":675503,"name":"Irești","admin3":"","localeAltName":null},{"geonameid":668506,"name":"Ruget","admin3":"","localeAltName":null},{"geonameid":667735,"name":"Scafari","admin3":"","localeAltName":null},{"geonameid":667357,"name":"Șerbești","admin3":"","localeAltName":null},{"geonameid":665594,"name":"Talpani","admin3":"","localeAltName":null},{"geonameid":665171,"name":"Tichiriș","admin3":"","localeAltName":null},{"geonameid":662970,"name":"Vidra","admin3":"","localeAltName":null},{"geonameid":662926,"name":"Viișoara","admin3":"","localeAltName":null},{"geonameid":662483,"name":"Voloșcani","admin3":"","localeAltName":null},{"geonameid":662480,"name":"Voloşcani Mari","admin3":"","localeAltName":null},{"geonameid":662479,"name":"Voloşcani Mici","admin3":"","localeAltName":null}],"admin3":[],"alternateNames":[{"alternatenameId":391637,"geonameid":662447,"isoLanguage":"ro","alternateName":"Vrancea","isPreferredName":true,"isShortName":true,"isColloquial":false,"isHistoric":false}]},"__N_SSG":true}