{"pageProps":{"locale":"en","admin2":{"geonameid":2744113,"name":"Gemeente Zaanstad","country":"NL","admin1":"07","admin2":"0479","admin3":"","latitude":"52.4530800","longitude":"4.8125300"},"admin1":{"geonameid":2749879,"name":"Provincie Noord-Holland","admin1":"07"},"locations":[{"geonameid":2759631,"name":"Assendelft","admin3":""},{"geonameid":2755025,"name":"Haaldersbroek","admin3":""},{"geonameid":2754432,"name":"Hembrug","admin3":""},{"geonameid":2754259,"name":"Het Kalf","admin3":""},{"geonameid":6544871,"name":"J. J. Allanstraat","admin3":""},{"geonameid":2752476,"name":"Koog aan de Zaan","admin3":""},{"geonameid":2752240,"name":"Krommenie","admin3":""},{"geonameid":2752239,"name":"Krommeniedijk","admin3":""},{"geonameid":2751955,"name":"Langeheit","admin3":""},{"geonameid":2750906,"name":"Middel","admin3":""},{"geonameid":2750497,"name":"Nauerna","admin3":""},{"geonameid":6544878,"name":"Noordeinde","admin3":""},{"geonameid":2745160,"name":"Vrouwenverdriet","admin3":""},{"geonameid":2744636,"name":"West-Knollendam","admin3":""},{"geonameid":2744600,"name":"Westzaan","admin3":""},{"geonameid":2744596,"name":"Westzaner-Overtoom","admin3":""},{"geonameid":2744171,"name":"Wormerveer","admin3":""},{"geonameid":2744118,"name":"Zaandam","admin3":""},{"geonameid":2744116,"name":"Zaandijk","admin3":""},{"geonameid":2744114,"name":"Zaanstad","admin3":""},{"geonameid":6544875,"name":"Zuideinde","admin3":""}],"admin3":[],"alternateNames":[]},"__N_SSG":true}