{"pageProps":{"locale":"ro","admin2":{"geonameid":668638,"name":"Comuna Roşia Montană","country":"RO","admin1":"01","admin2":"6761","admin3":"","latitude":"46.3099100","longitude":"23.0869700"},"admin1":{"geonameid":686581,"name":"Alba","admin1":"01"},"locations":[{"geonameid":685607,"name":"Bălmoșești"},{"geonameid":684569,"name":"Blideşti"},{"geonameid":683253,"name":"Bunta"},{"geonameid":682658,"name":"Cărpiniș"},{"geonameid":682651,"name":"Cărpiniş-Sat"},{"geonameid":681267,"name":"Coasta Henții"},{"geonameid":680801,"name":"Corna"},{"geonameid":679942,"name":"Curături"},{"geonameid":10861183,"name":"Dăroaia"},{"geonameid":677203,"name":"Gârda"},{"geonameid":677202,"name":"Gârda-Bărbuleşti"},{"geonameid":676493,"name":"Gura Roșiei"},{"geonameid":675860,"name":"Iacobești"},{"geonameid":675695,"name":"Ignățești"},{"geonameid":671708,"name":"Orlea"},{"geonameid":668639,"name":"Roșia Montană"},{"geonameid":666604,"name":"Șoal"},{"geonameid":665501,"name":"Țarina"},{"geonameid":662726,"name":"Vârtop"}],"admin3":[],"alternateNames":[]},"__N_SSG":true}