{"pageProps":{"locale":"en","admin2":{"geonameid":4966407,"name":"Hancock County","country":"US","admin1":"ME","admin2":"009","admin3":"","latitude":"44.5628900","longitude":"-68.3682100"},"admin1":{"geonameid":4971068,"name":"Maine","admin1":"ME"},"locations":[{"geonameid":4957320,"name":"Bar Harbor","admin3":"02865"},{"geonameid":4958721,"name":"Blue Hill","admin3":"05700"},{"geonameid":4959356,"name":"Brooklin","admin3":"07800"},{"geonameid":4959371,"name":"Brooksville","admin3":"07975"},{"geonameid":4959551,"name":"Bucksport","admin3":"08815"},{"geonameid":4960381,"name":"Castine","admin3":"11265"},{"geonameid":4962317,"name":"Dedham","admin3":"16935"},{"geonameid":4962384,"name":"Deer Isle","admin3":"17145"},{"geonameid":4963692,"name":"Ellsworth","admin3":"23200"},{"geonameid":4964817,"name":"Franklin","admin3":"26350"},{"geonameid":4965529,"name":"Gouldsboro","admin3":"28450"},{"geonameid":4966383,"name":"Hancock","admin3":"30970"},{"geonameid":4974306,"name":"Orland","admin3":"55505"},{"geonameid":4974352,"name":"Otis","admin3":"55890"},{"geonameid":4974967,"name":"Penobscot","admin3":"57920"},{"geonameid":4978242,"name":"Sedgwick","admin3":"67300"},{"geonameid":4979352,"name":"Southwest Harbor","admin3":"72865"},{"geonameid":4979975,"name":"Stonington","admin3":"74580"},{"geonameid":4980155,"name":"Sullivan","admin3":"74965"},{"geonameid":4980248,"name":"Surry","admin3":"75280"},{"geonameid":4981071,"name":"Tremont","admin3":"77345"},{"geonameid":4981078,"name":"Trenton","admin3":"77415"},{"geonameid":4981759,"name":"Verona","admin3":"78925"}],"admin3":[{"geonameid":4956716,"name":"Town of Amherst","admin3":"01185"},{"geonameid":4957009,"name":"Town of Aurora","admin3":"02165"},{"geonameid":4957335,"name":"Town of Bar Harbor","admin3":"02865"},{"geonameid":4958738,"name":"Town of Blue Hill","admin3":"05700"},{"geonameid":4959358,"name":"Town of Brooklin","admin3":"07800"},{"geonameid":4959372,"name":"Town of Brooksville","admin3":"07975"},{"geonameid":4959556,"name":"Town of Bucksport","admin3":"08815"},{"geonameid":4960390,"name":"Town of Castine","admin3":"11265"},{"geonameid":4960544,"name":"Unorganized Territory of Central Hancock","admin3":"11800"},{"geonameid":4961651,"name":"Town of Cranberry Isles","admin3":"14905"},{"geonameid":4962319,"name":"Town of Dedham","admin3":"16935"},{"geonameid":4962387,"name":"Town of Deer Isle","admin3":"17145"},{"geonameid":4963278,"name":"Unorganized Territory of East Hancock","admin3":"20405"},{"geonameid":4963418,"name":"Town of Eastbrook","admin3":"19770"},{"geonameid":4963711,"name":"City of Ellsworth","admin3":"23200"},{"geonameid":4964834,"name":"Town of Franklin","admin3":"26350"},{"geonameid":4964911,"name":"Town of Frenchboro","admin3":"26595"},{"geonameid":4965533,"name":"Town of Gouldsboro","admin3":"28450"},{"geonameid":4965793,"name":"Town of Great Pond","admin3":"28975"},{"geonameid":4966411,"name":"Town of Hancock","admin3":"30970"},{"geonameid":4969153,"name":"Town of Lamoine","admin3":"38180"},{"geonameid":4971207,"name":"Town of Mariaville","admin3":"43430"},{"geonameid":4972752,"name":"Town of Mount Desert","admin3":"47630"},{"geonameid":4973795,"name":"Unorganized Territory of Northwest Hancock","admin3":"53620"},{"geonameid":4974310,"name":"Town of Orland","admin3":"55505"},{"geonameid":4974341,"name":"Town of Osborn","admin3":"55855"},{"geonameid":4974357,"name":"Town of Otis","admin3":"55890"},{"geonameid":4975003,"name":"Town of Penobscot","admin3":"57920"},{"geonameid":4978246,"name":"Town of Sedgwick","admin3":"67300"},{"geonameid":4979012,"name":"Town of Sorrento","admin3":"69750"},{"geonameid":4979356,"name":"Town of Southwest Harbor","admin3":"72865"},{"geonameid":4979979,"name":"Town of Stonington","admin3":"74580"},{"geonameid":4980164,"name":"Town of Sullivan","admin3":"74965"},{"geonameid":4980251,"name":"Town of Surry","admin3":"75280"},{"geonameid":4980286,"name":"Town of Swans Island","admin3":"75455"},{"geonameid":4981077,"name":"Town of Tremont","admin3":"77345"},{"geonameid":4981086,"name":"Town of Trenton","admin3":"77415"},{"geonameid":4981763,"name":"Town of Verona Island","admin3":"78925"},{"geonameid":4982103,"name":"Town of Waltham","admin3":"80040"},{"geonameid":4983345,"name":"Town of Winter Harbor","admin3":"86655"},{"geonameid":7274848,"name":"Unorganized Territory of Marshall Island","admin3":"43578"}],"alternateNames":[]},"__N_SSG":true}