{"pageProps":{"locale":"en","admin2":{"geonameid":4871708,"name":"Plymouth County","country":"US","admin1":"IA","admin2":"149","admin3":"","latitude":"42.7378300","longitude":"-96.2140400","localeAltName":null},"admin1":{"geonameid":4862182,"name":"Iowa","admin1":"IA","localeAltName":"Iowa"},"locations":[{"geonameid":4846499,"name":"Akron","admin3":"93462","localeAltName":null},{"geonameid":4860738,"name":"Hinton","admin3":"92007","localeAltName":null},{"geonameid":4863535,"name":"Kingsley","admin3":"91533","localeAltName":null},{"geonameid":4864337,"name":"Le Mars","admin3":"90060","localeAltName":null},{"geonameid":4867097,"name":"Merrill","admin3":"93429","localeAltName":null},{"geonameid":4872752,"name":"Remsen","admin3":"93564","localeAltName":null}],"admin3":[{"geonameid":4846817,"name":"Township of America","admin3":"90060","localeAltName":null},{"geonameid":4855274,"name":"Township of Elgin","admin3":"91167"},{"geonameid":4855371,"name":"Township of Elkhorn","admin3":"91188"},{"geonameid":4857752,"name":"Township of Fredonia","admin3":"91443"},{"geonameid":4858093,"name":"Township of Garfield","admin3":"91533","localeAltName":null},{"geonameid":4859036,"name":"Township of Grant","admin3":"91689"},{"geonameid":4859688,"name":"Township of Hancock","admin3":"91821"},{"geonameid":4860362,"name":"Township of Henry","admin3":"91908"},{"geonameid":4861378,"name":"Township of Hungerford","admin3":"92007","localeAltName":null},{"geonameid":4862753,"name":"Township of Johnson","admin3":"92274"},{"geonameid":4864650,"name":"Township of Liberty","admin3":"92484"},{"geonameid":4864864,"name":"Township of Lincoln","admin3":"92589"},{"geonameid":4866307,"name":"Township of Marion","admin3":"92865"},{"geonameid":4866817,"name":"Township of Meadow","admin3":"92904"},{"geonameid":4871048,"name":"Township of Perry","admin3":"93303"},{"geonameid":4871725,"name":"Township of Plymouth","admin3":"93429","localeAltName":null},{"geonameid":4871864,"name":"Township of Portland","admin3":"93462","localeAltName":null},{"geonameid":4872176,"name":"Township of Preston","admin3":"93507"},{"geonameid":4872761,"name":"Township of Remsen","admin3":"93564","localeAltName":null},{"geonameid":4876575,"name":"Township of Sioux","admin3":"93921"},{"geonameid":4877439,"name":"Township of Stanton","admin3":"94005"},{"geonameid":4879435,"name":"Township of Union","admin3":"94254"},{"geonameid":4880856,"name":"Township of Washington","admin3":"94545"},{"geonameid":4881625,"name":"Township of Westfield","admin3":"94665"}],"alternateNames":[{"alternatenameId":1980290,"geonameid":4862182,"isoLanguage":"en","alternateName":"Iowa","isPreferredName":true,"isShortName":true,"isColloquial":false,"isHistoric":false}]},"__N_SSG":true}