{"pageProps":{"locale":"en","admin2":{"geonameid":4879999,"name":"Van Buren County","country":"US","admin1":"IA","admin2":"177","admin3":"","latitude":"40.7532300","longitude":"-91.9499900","localeAltName":null},"admin1":{"geonameid":4862182,"name":"Iowa","admin1":"IA","localeAltName":"Iowa"},"locations":[{"geonameid":4856426,"name":"Farmington","admin3":"91320","localeAltName":null},{"geonameid":4863380,"name":"Keosauqua","admin3":"94323","localeAltName":null}],"admin3":[{"geonameid":4849024,"name":"Township of Bonaparte","admin3":"90294"},{"geonameid":4850831,"name":"Township of Cedar","admin3":"90570"},{"geonameid":4851244,"name":"Township of Chequest","admin3":"90651"},{"geonameid":4853875,"name":"Township of Des Moines","admin3":"90990"},{"geonameid":4856435,"name":"Township of Farmington","admin3":"91320","localeAltName":null},{"geonameid":4859893,"name":"Township of Harrisburg","admin3":"91851"},{"geonameid":4860363,"name":"Township of Henry","admin3":"91911"},{"geonameid":4862385,"name":"Township of Jackson","admin3":"92166"},{"geonameid":4864668,"name":"Township of Lick Creek","admin3":"92505"},{"geonameid":4879442,"name":"Township of Union","admin3":"94275"},{"geonameid":4880016,"name":"Township of Van Buren","admin3":"94323","localeAltName":null},{"geonameid":4880132,"name":"Township of Vernon","admin3":"94341"},{"geonameid":4880225,"name":"Township of Village","admin3":"94359"},{"geonameid":4880865,"name":"Township of Washington","admin3":"94572"}],"alternateNames":[{"alternatenameId":1980290,"geonameid":4862182,"isoLanguage":"en","alternateName":"Iowa","isPreferredName":true,"isShortName":true,"isColloquial":false,"isHistoric":false}]},"__N_SSG":true}