{"pageProps":{"locale":"en","admin2":{"geonameid":4882242,"name":"Winneshiek County","country":"US","admin1":"IA","admin2":"191","admin3":"","latitude":"43.2906700","longitude":"-91.8437100","localeAltName":null},"admin1":{"geonameid":4862182,"name":"Iowa","admin1":"IA","localeAltName":"Iowa"},"locations":[{"geonameid":4850061,"name":"Calmar","admin3":"90447","localeAltName":null},{"geonameid":4853608,"name":"Decorah","admin3":"90924","localeAltName":null},{"geonameid":4870263,"name":"Ossian","admin3":"92937","localeAltName":null}],"admin3":[{"geonameid":4848877,"name":"Township of Bloomfield","admin3":"90273"},{"geonameid":4848946,"name":"Township of Bluffton","admin3":"90288"},{"geonameid":4849885,"name":"Township of Burr Oak","admin3":"90414"},{"geonameid":4850073,"name":"Township of Calmar","admin3":"90447","localeAltName":null},{"geonameid":4850344,"name":"Township of Canoe","admin3":"90462"},{"geonameid":4853621,"name":"Township of Decorah","admin3":"90924","localeAltName":null},{"geonameid":4857713,"name":"Township of Frankville","admin3":"91434"},{"geonameid":4857831,"name":"Township of Fremont","admin3":"91485"},{"geonameid":4858496,"name":"Township of Glenwood","admin3":"91578"},{"geonameid":4860432,"name":"Township of Hesper","admin3":"91917"},{"geonameid":4860624,"name":"Township of Highland","admin3":"91956"},{"geonameid":4862390,"name":"Township of Jackson","admin3":"92181"},{"geonameid":4864878,"name":"Township of Lincoln","admin3":"92631"},{"geonameid":4865869,"name":"Township of Madison","admin3":"92787"},{"geonameid":4867386,"name":"Township of Military","admin3":"92937","localeAltName":null},{"geonameid":4870154,"name":"Township of Orleans","admin3":"93201"},{"geonameid":4871639,"name":"Township of Pleasant","admin3":"93384"},{"geonameid":4877346,"name":"Township of Springfield","admin3":"93984"},{"geonameid":4877924,"name":"Township of Sumner","admin3":"94056"},{"geonameid":4880870,"name":"Township of Washington","admin3":"94587"}],"alternateNames":[{"alternatenameId":1980290,"geonameid":4862182,"isoLanguage":"en","alternateName":"Iowa","isPreferredName":true,"isShortName":true,"isColloquial":false,"isHistoric":false}]},"__N_SSG":true}