{"pageProps":{"locale":"en","admin2":{"geonameid":5501879,"name":"Clark County","country":"US","admin1":"NV","admin2":"003","admin3":"","latitude":"36.2152000","longitude":"-115.0135600"},"admin1":{"geonameid":5509151,"name":"Nevada","admin1":"NV","localeAltName":"Nevada"},"locations":[{"geonameid":5500539,"name":"Boulder City","admin3":""},{"geonameid":5500947,"name":"Bunkerville","admin3":""},{"geonameid":5503766,"name":"Enterprise","admin3":""},{"geonameid":5505411,"name":"Henderson","admin3":""},{"geonameid":5506956,"name":"Las Vegas","admin3":""},{"geonameid":5507016,"name":"Laughlin","admin3":""},{"geonameid":5508180,"name":"Mesquite","admin3":""},{"geonameid":5508470,"name":"Moapa Town","admin3":""},{"geonameid":5508473,"name":"Moapa Valley","admin3":""},{"geonameid":7261960,"name":"Nellis Air Force Base","admin3":""},{"geonameid":5509403,"name":"North Las Vegas","admin3":""},{"geonameid":5509952,"name":"Paradise","admin3":""},{"geonameid":5511806,"name":"Sandy Valley","admin3":""},{"geonameid":5512909,"name":"Spring Valley","admin3":""},{"geonameid":7262622,"name":"Summerlin South","admin3":""},{"geonameid":5513343,"name":"Sunrise Manor","admin3":""},{"geonameid":5515110,"name":"Whitney","admin3":""},{"geonameid":5515345,"name":"Winchester","admin3":""}],"admin3":[{"geonameid":11788782,"name":"City of Henderson","admin3":"11788782"},{"geonameid":11788836,"name":"City of North Las Vegas","admin3":"11788836"}],"alternateNames":[{"alternatenameId":2089566,"geonameid":5509151,"isoLanguage":"en","alternateName":"Nevada","isPreferredName":true,"isShortName":true,"isColloquial":false,"isHistoric":false}]},"__N_SSG":true}