{"pageProps":{"locale":"de","admin2":{"geonameid":8260142,"name":"Bern-Mittelland District","country":"CH","admin1":"BE","admin2":"246","admin3":"","latitude":"46.9252600","longitude":"7.4902400","localeAltName":null},"admin1":{"geonameid":2661551,"name":"Canton de Berne","admin1":"BE","localeAltName":null},"locations":[{"geonameid":2661825,"name":"Albligen","admin3":"855","localeAltName":null},{"geonameid":2661716,"name":"Arni","admin3":"602","localeAltName":null},{"geonameid":2661612,"name":"Bäriswil","admin3":"403","localeAltName":null},{"geonameid":2661563,"name":"Belp","admin3":"861","localeAltName":null},{"geonameid":2661552,"name":"Bern","admin3":"351","localeAltName":null},{"geonameid":2661506,"name":"Biglen","admin3":"603","localeAltName":null},{"geonameid":2661456,"name":"Bolligen","admin3":"352","localeAltName":null},{"geonameid":2661425,"name":"Bowil","admin3":"605","localeAltName":null},{"geonameid":2661401,"name":"Brenzikofen","admin3":"606","localeAltName":null},{"geonameid":2660798,"name":"Ferenbalm","admin3":"662","localeAltName":null},{"geonameid":2660728,"name":"Fraubrunnen","admin3":"538","localeAltName":null},{"geonameid":2660726,"name":"Frauenkappelen","admin3":"663","localeAltName":null},{"geonameid":2660628,"name":"Gerzensee","admin3":"866","localeAltName":null},{"geonameid":2658921,"name":"Graben","admin3":"853","localeAltName":null},{"geonameid":2660452,"name":"Guggisberg","admin3":"852","localeAltName":null},{"geonameid":2660361,"name":"Hermiswil","admin3":"880","localeAltName":null},{"geonameid":2660228,"name":"Jegenstorf","admin3":"540","localeAltName":null},{"geonameid":2660177,"name":"Kehrsatz","admin3":"870","localeAltName":null},{"geonameid":2660163,"name":"Kiesen","admin3":"611","localeAltName":null},{"geonameid":2660153,"name":"Kirchdorf","admin3":"872","localeAltName":null},{"geonameid":2660152,"name":"Kirchlindach","admin3":"354","localeAltName":null},{"geonameid":2660119,"name":"Köniz","admin3":"355","localeAltName":null},{"geonameid":2660117,"name":"Konolfingen","admin3":"612","localeAltName":null},{"geonameid":2660107,"name":"Kriechenwil","admin3":"667","localeAltName":null},{"geonameid":2660043,"name":"Landiswil","admin3":"613","localeAltName":null},{"geonameid":2659998,"name":"Laupen","admin3":"667","localeAltName":null},{"geonameid":2659883,"name":"Linden","admin3":"614","localeAltName":null},{"geonameid":2659561,"name":"Mühleberg","admin3":"668","localeAltName":null},{"geonameid":2659558,"name":"Mühlethurnen","admin3":"889","localeAltName":null},{"geonameid":2659552,"name":"Münchenbuchsee","admin3":"546","localeAltName":null},{"geonameid":2659546,"name":"Münsingen","admin3":"616","localeAltName":null},{"geonameid":2659532,"name":"Muri","admin3":"356","localeAltName":null},{"geonameid":2659412,"name":"Oberbalm","admin3":"357","localeAltName":null},{"geonameid":2659402,"name":"Oberdiessbach","admin3":"619","localeAltName":null},{"geonameid":2659028,"name":"Riggisberg","admin3":"879","localeAltName":null},{"geonameid":2658940,"name":"Rubigen","admin3":"623","localeAltName":null},{"geonameid":2658935,"name":"Rüeggisberg","admin3":"880","localeAltName":null},{"geonameid":2658922,"name":"Rüschegg","admin3":"853","localeAltName":null},{"geonameid":2658478,"name":"Stettlen","admin3":"358","localeAltName":null},{"geonameid":2658353,"name":"Toffen","admin3":"884","localeAltName":null},{"geonameid":2658310,"name":"Trimstein","admin3":"616","localeAltName":null},{"geonameid":2658217,"name":"Urtenen","admin3":"551","localeAltName":null},{"geonameid":2658176,"name":"Vechigen","admin3":"359","localeAltName":null},{"geonameid":2658064,"name":"Walkringen","admin3":"626","localeAltName":null},{"geonameid":2659447,"name":"Wichtrach","admin3":"632","localeAltName":null},{"geonameid":2657980,"name":"Wileroltigen","admin3":"671","localeAltName":null},{"geonameid":2657964,"name":"Wohlen","admin3":"360","localeAltName":null},{"geonameid":2657954,"name":"Worb","admin3":"627","localeAltName":null},{"geonameid":2657935,"name":"Zäziwil","admin3":"628","localeAltName":null},{"geonameid":2657919,"name":"Zimmerwald","admin3":"877","localeAltName":null},{"geonameid":2657913,"name":"Zollikofen","admin3":"361","localeAltName":null}],"admin3":[{"geonameid":2659491,"name":"Neuenegg","admin3":"670"},{"geonameid":7285051,"name":"Allmendingen","admin3":"630"},{"geonameid":7285100,"name":"Arni (BE)","admin3":"602","localeAltName":null},{"geonameid":7285158,"name":"Bäriswil","admin3":"403","localeAltName":null},{"geonameid":7285194,"name":"Belp","admin3":"861","localeAltName":null},{"geonameid":7285212,"name":"Bern/Berne/Berna","admin3":"351","localeAltName":"Bern"},{"geonameid":7285244,"name":"Biglen","admin3":"603","localeAltName":null},{"geonameid":7285283,"name":"Bolligen","admin3":"352","localeAltName":null},{"geonameid":7285316,"name":"Bowil","admin3":"605","localeAltName":null},{"geonameid":7285325,"name":"Bremgarten bei Bern","admin3":"353"},{"geonameid":7285327,"name":"Brenzikofen","admin3":"606","localeAltName":null},{"geonameid":7285520,"name":"Clavaleyres","admin3":"661"},{"geonameid":7285631,"name":"Deisswil bei Münchenbuchsee","admin3":"535"},{"geonameid":7285644,"name":"Diemerswil","admin3":"536"},{"geonameid":7285807,"name":"Ferenbalm","admin3":"662","localeAltName":null},{"geonameid":7285860,"name":"Fraubrunnen","admin3":"538","localeAltName":null},{"geonameid":7285862,"name":"Frauenkappelen","admin3":"663","localeAltName":null},{"geonameid":7285867,"name":"Freimettigen","admin3":"607"},{"geonameid":7285909,"name":"Gerzensee","admin3":"866","localeAltName":null},{"geonameid":7285992,"name":"Grosshöchstetten","admin3":"608"},{"geonameid":7286002,"name":"Guggisberg","admin3":"852","localeAltName":null},{"geonameid":7286007,"name":"Gurbrü","admin3":"665"},{"geonameid":7286044,"name":"Häutligen","admin3":"609"},{"geonameid":7286063,"name":"Herbligen","admin3":"610"},{"geonameid":7286131,"name":"Iffwil","admin3":"541"},{"geonameid":7286156,"name":"Ittigen","admin3":"362"},{"geonameid":7286157,"name":"Jaberg","admin3":"868"},{"geonameid":7286159,"name":"Jegenstorf","admin3":"540","localeAltName":null},{"geonameid":7286183,"name":"Kaufdorf","admin3":"869"},{"geonameid":7286184,"name":"Kehrsatz","admin3":"870","localeAltName":null},{"geonameid":7286193,"name":"Kiesen","admin3":"611","localeAltName":null},{"geonameid":7286200,"name":"Kirchdorf (BE)","admin3":"872","localeAltName":null},{"geonameid":7286203,"name":"Kirchlindach","admin3":"354","localeAltName":null},{"geonameid":7286216,"name":"Köniz","admin3":"355","localeAltName":null},{"geonameid":7286217,"name":"Konolfingen","admin3":"612","localeAltName":null},{"geonameid":7286223,"name":"Kriechenwil","admin3":"666"},{"geonameid":7286255,"name":"Landiswil","admin3":"613","localeAltName":null},{"geonameid":7286280,"name":"Laupen","admin3":"667","localeAltName":null},{"geonameid":7286356,"name":"Linden","admin3":"614","localeAltName":null},{"geonameid":7286459,"name":"Mattstetten","admin3":"543"},{"geonameid":7286471,"name":"Meikirch","admin3":"307"},{"geonameid":7286510,"name":"Mirchel","admin3":"615"},{"geonameid":7286548,"name":"Moosseedorf","admin3":"544"},{"geonameid":7286571,"name":"Mühleberg","admin3":"668","localeAltName":null},{"geonameid":7286582,"name":"Münchenbuchsee","admin3":"546","localeAltName":null},{"geonameid":7286584,"name":"Münchenwiler/Villars-Les-Moines","admin3":"669"},{"geonameid":7286590,"name":"Münsingen","admin3":"616","localeAltName":null},{"geonameid":7286601,"name":"Muri bei Bern","admin3":"356","localeAltName":null},{"geonameid":7286643,"name":"Niederhünigen","admin3":"617"},{"geonameid":7286645,"name":"Niedermuhlern","admin3":"877","localeAltName":null},{"geonameid":7286673,"name":"Oberbalm","admin3":"357","localeAltName":null},{"geonameid":7286679,"name":"Oberdiessbach","admin3":"619","localeAltName":null},{"geonameid":7286698,"name":"Oberhünigen","admin3":"629"},{"geonameid":7286716,"name":"Oberthal","admin3":"620"},{"geonameid":7286745,"name":"Oppligen","admin3":"622"},{"geonameid":7286761,"name":"Ostermundigen","admin3":"363"},{"geonameid":7286913,"name":"Riggisberg","admin3":"879","localeAltName":null},{"geonameid":7286968,"name":"Rubigen","admin3":"623","localeAltName":null},{"geonameid":7286974,"name":"Rüeggisberg","admin3":"880","localeAltName":null},{"geonameid":7286989,"name":"Rüschegg","admin3":"853","localeAltName":null},{"geonameid":7287239,"name":"Stettlen","admin3":"358","localeAltName":null},{"geonameid":7287315,"name":"Toffen","admin3":"884","localeAltName":null},{"geonameid":7287396,"name":"Urtenen-Schönbühl","admin3":"551","localeAltName":null},{"geonameid":7287425,"name":"Vechigen","admin3":"359","localeAltName":null},{"geonameid":7287519,"name":"Wald (BE)","admin3":"888"},{"geonameid":7287526,"name":"Walkringen","admin3":"626","localeAltName":null},{"geonameid":7287565,"name":"Wichtrach","admin3":"632","localeAltName":null},{"geonameid":7287570,"name":"Wiggiswil","admin3":"553"},{"geonameid":7287582,"name":"Wileroltigen","admin3":"671","localeAltName":null},{"geonameid":7287601,"name":"Wohlen bei Bern","admin3":"360","localeAltName":null},{"geonameid":7287610,"name":"Worb","admin3":"627","localeAltName":null},{"geonameid":7287624,"name":"Zäziwil","admin3":"628","localeAltName":null},{"geonameid":7287640,"name":"Zollikofen","admin3":"361","localeAltName":null},{"geonameid":7287652,"name":"Zuzwil (BE)","admin3":"557"},{"geonameid":8260339,"name":"Schwarzenburg","admin3":"855","localeAltName":null},{"geonameid":12110844,"name":"Thurnen","admin3":"889","localeAltName":null}],"alternateNames":[{"alternatenameId":8490409,"geonameid":2661552,"isoLanguage":"en","alternateName":"Bern","isPreferredName":true,"isShortName":true,"isColloquial":false,"isHistoric":false},{"alternatenameId":9484868,"geonameid":7285212,"isoLanguage":"de","alternateName":"Bern","isPreferredName":true,"isShortName":true,"isColloquial":false,"isHistoric":false},{"alternatenameId":9484870,"geonameid":7285212,"isoLanguage":"en","alternateName":"Berne","isPreferredName":true,"isShortName":true,"isColloquial":false,"isHistoric":false},{"alternatenameId":9484871,"geonameid":7285212,"isoLanguage":"it","alternateName":"Berna","isPreferredName":true,"isShortName":true,"isColloquial":false,"isHistoric":false}]},"__N_SSG":true}