{"pageProps":{"locale":"en","admin2":{"geonameid":2756058,"name":"Gemeente Epe","country":"NL","admin1":"03","admin2":"0232","admin3":"","latitude":"52.3339400","longitude":"5.9617500"},"admin1":{"geonameid":2755634,"name":"Provincie Gelderland","admin1":"03"},"locations":[{"geonameid":2758562,"name":"Boshoek","admin3":""},{"geonameid":2758088,"name":"Burgerenk","admin3":""},{"geonameid":2756834,"name":"Dijkhuizen","admin3":""},{"geonameid":2756114,"name":"Emst","admin3":""},{"geonameid":2756059,"name":"Epe","admin3":""},{"geonameid":2755673,"name":"Geerstraat","admin3":""},{"geonameid":2755425,"name":"Gortel","admin3":""},{"geonameid":2754893,"name":"Hanendorp","admin3":""},{"geonameid":2754609,"name":"Hegge","admin3":""},{"geonameid":2753941,"name":"Hoge Land","admin3":""},{"geonameid":2753221,"name":"Jonas","admin3":""},{"geonameid":2752068,"name":"Laarstraat","admin3":""},{"geonameid":2751475,"name":"Loobrink","admin3":""},{"geonameid":2750383,"name":"Niersen","admin3":""},{"geonameid":2749712,"name":"Oene","admin3":""},{"geonameid":2749425,"name":"Ooster Oene","admin3":""},{"geonameid":2749454,"name":"Oosterhof","admin3":""},{"geonameid":2747664,"name":"Schaveren","admin3":""},{"geonameid":2746254,"name":"t Laar","admin3":""},{"geonameid":2746212,"name":"Tongeren","admin3":""},{"geonameid":2745892,"name":"Vaassen","admin3":""},{"geonameid":2745658,"name":"Vemde","admin3":""},{"geonameid":2744779,"name":"Westendorp","admin3":""},{"geonameid":2744468,"name":"Wijnbergen","admin3":""},{"geonameid":2744318,"name":"Wissel","admin3":""},{"geonameid":2743605,"name":"Zuuk","admin3":""}],"admin3":[],"alternateNames":[{"alternatenameId":11907787,"geonameid":2755634,"isoLanguage":"de","alternateName":"Gelderland","isPreferredName":true,"isShortName":true,"isColloquial":false,"isHistoric":false}]},"__N_SSG":true}