{"pageProps":{"locale":"en","admin2":{"geonameid":6544236,"name":"Gemeente Lingewaard","country":"NL","admin1":"03","admin2":"1705","admin3":"","latitude":"51.8955800","longitude":"5.9457700"},"admin1":{"geonameid":2755634,"name":"Provincie Gelderland","admin1":"03"},"locations":[{"geonameid":2759765,"name":"Angeren","admin3":""},{"geonameid":2759576,"name":"Baal","admin3":""},{"geonameid":2759231,"name":"Bemmel","admin3":""},{"geonameid":2759138,"name":"Bergerden","admin3":""},{"geonameid":2758736,"name":"Boerenhoek","admin3":""},{"geonameid":2757161,"name":"De Pas","admin3":""},{"geonameid":2757162,"name":"De Pas","admin3":""},{"geonameid":2756683,"name":"Doornenburg","admin3":""},{"geonameid":2756680,"name":"Doornik","admin3":""},{"geonameid":2755891,"name":"Flieren","admin3":""},{"geonameid":2755597,"name":"Gendt","admin3":""},{"geonameid":2755026,"name":"Haalderen","admin3":""},{"geonameid":2754265,"name":"Het Hoog","admin3":""},{"geonameid":6544707,"name":"Hoeve","admin3":""},{"geonameid":2753824,"name":"Honderdmorgen","admin3":""},{"geonameid":2753504,"name":"Huissen","admin3":""},{"geonameid":2753457,"name":"Hulhuizen","admin3":""},{"geonameid":2753073,"name":"Kapel","admin3":""},{"geonameid":2752788,"name":"Klein Baal","admin3":""},{"geonameid":2752511,"name":"Kommerdijk","admin3":""},{"geonameid":2751439,"name":"Looveer","admin3":""},{"geonameid":2748224,"name":"Ressen","admin3":""},{"geonameid":2746720,"name":"Sterreschans","admin3":""},{"geonameid":2744076,"name":"Zandheuvel","admin3":""}],"admin3":[],"alternateNames":[{"alternatenameId":11907787,"geonameid":2755634,"isoLanguage":"de","alternateName":"Gelderland","isPreferredName":true,"isShortName":true,"isColloquial":false,"isHistoric":false}]},"__N_SSG":true}