{"pageProps":{"locale":"en","admin2":{"geonameid":5146062,"name":"Ashland County","country":"US","admin1":"OH","admin2":"005","admin3":"","latitude":"40.8460200","longitude":"-82.2706900","localeAltName":null},"admin1":{"geonameid":5165418,"name":"Ohio","admin1":"OH","localeAltName":"Ohio"},"locations":[{"geonameid":5146055,"name":"Ashland","admin3":"02568","localeAltName":null},{"geonameid":5159171,"name":"Jeromesville","admin3":"51086","localeAltName":null},{"geonameid":5161340,"name":"Loudonville","admin3":"33236","localeAltName":null},{"geonameid":5166528,"name":"Perrysville","admin3":"31682","localeAltName":null}],"admin3":[{"geonameid":5146079,"name":"City of Ashland","admin3":"02568","localeAltName":null},{"geonameid":5150496,"name":"Township of Clear Creek","admin3":"15672"},{"geonameid":5156428,"name":"Township of Green","admin3":"31682","localeAltName":null},{"geonameid":5156799,"name":"Township of Hanover","admin3":"33236","localeAltName":null},{"geonameid":5158999,"name":"Township of Jackson","admin3":"37660"},{"geonameid":5160237,"name":"Township of Lake","admin3":"41272"},{"geonameid":5162912,"name":"Township of Mifflin","admin3":"50050"},{"geonameid":5163125,"name":"Township of Milton","admin3":"50610"},{"geonameid":5163274,"name":"Township of Mohican","admin3":"51086","localeAltName":null},{"geonameid":5165709,"name":"Township of Orange","admin3":"58562"},{"geonameid":5166497,"name":"Township of Perry","admin3":"61756"},{"geonameid":5168760,"name":"Township of Ruggles","admin3":"68966"},{"geonameid":5173365,"name":"Township of Sullivan","admin3":"75357"},{"geonameid":5174388,"name":"Township of Troy","admin3":"77532"},{"geonameid":5175083,"name":"Township of Vermillion","admin3":"79758"}],"alternateNames":[{"alternatenameId":2089549,"geonameid":5165418,"isoLanguage":"en","alternateName":"Ohio","isPreferredName":true,"isShortName":true,"isColloquial":false,"isHistoric":false}]},"__N_SSG":true}