{"pageProps":{"locale":"en","admin2":{"geonameid":5151190,"name":"Coshocton County","country":"US","admin1":"OH","admin2":"031","admin3":"","latitude":"40.3016400","longitude":"-81.9200100","localeAltName":null},"admin1":{"geonameid":5165418,"name":"Ohio","admin1":"OH","localeAltName":"Ohio"},"locations":[{"geonameid":5151186,"name":"Coshocton","admin3":"18868","localeAltName":null},{"geonameid":5175738,"name":"Warsaw","admin3":"38556","localeAltName":null},{"geonameid":5176283,"name":"West Lafayette","admin3":"41132","localeAltName":null}],"admin3":[{"geonameid":5145404,"name":"Township of Adams","admin3":"00240"},{"geonameid":5146850,"name":"Township of Bedford","admin3":"04864"},{"geonameid":5147338,"name":"Township of Bethlehem","admin3":"06152"},{"geonameid":5150439,"name":"Township of Clark","admin3":"15266"},{"geonameid":5151203,"name":"City of Coshocton","admin3":"18868","localeAltName":null},{"geonameid":5151390,"name":"Township of Crawford","admin3":"19218"},{"geonameid":5155105,"name":"Township of Franklin","admin3":"28252"},{"geonameid":5159002,"name":"Township of Jackson","admin3":"37730"},{"geonameid":5159124,"name":"Township of Jefferson","admin3":"38556","localeAltName":null},{"geonameid":5159445,"name":"Township of Keene","admin3":"39634"},{"geonameid":5160035,"name":"Township of Lafayette","admin3":"41132","localeAltName":null},{"geonameid":5160934,"name":"Township of Linton","admin3":"43960"},{"geonameid":5162990,"name":"Township of Mill Creek","admin3":"50274"},{"geonameid":5163333,"name":"Township of Monroe","admin3":"51352"},{"geonameid":5164498,"name":"Township of Newcastle","admin3":"54376"},{"geonameid":5165977,"name":"Township of Oxford","admin3":"59248"},{"geonameid":5166500,"name":"Township of Perry","admin3":"61812"},{"geonameid":5166681,"name":"Township of Pike","admin3":"62624"},{"geonameid":5174016,"name":"Township of Tiverton","admin3":"76953"},{"geonameid":5174515,"name":"Township of Tuscarawas","admin3":"77896"},{"geonameid":5175170,"name":"Township of Virginia","admin3":"80220"},{"geonameid":5175802,"name":"Township of Washington","admin3":"81172"},{"geonameid":5176687,"name":"Township of White Eyes","admin3":"84714"}],"alternateNames":[{"alternatenameId":2089549,"geonameid":5165418,"isoLanguage":"en","alternateName":"Ohio","isPreferredName":true,"isShortName":true,"isColloquial":false,"isHistoric":false}]},"__N_SSG":true}