{"pageProps":{"locale":"en","admin2":{"geonameid":4527624,"name":"Warren County","country":"US","admin1":"OH","admin2":"165","admin3":"","latitude":"39.4275800","longitude":"-84.1667600","localeAltName":null},"admin1":{"geonameid":5165418,"name":"Ohio","admin1":"OH","localeAltName":"Ohio"},"locations":[{"geonameid":4507937,"name":"Carlisle","admin3":"28490","localeAltName":null},{"geonameid":4511939,"name":"Five Points","admin3":"15700","localeAltName":null},{"geonameid":4512203,"name":"Franklin","admin3":"28490","localeAltName":null},{"geonameid":4513891,"name":"Harveysburg","admin3":"48216","localeAltName":null},{"geonameid":4514822,"name":"Hunter","admin3":"28490","localeAltName":null},{"geonameid":4515935,"name":"Kings Mills","admin3":"21238","localeAltName":null},{"geonameid":4516248,"name":"Landen","admin3":"21238","localeAltName":null},{"geonameid":4516412,"name":"Lebanon","admin3":"42364","localeAltName":null},{"geonameid":4517142,"name":"Loveland Park","admin3":"21238","localeAltName":null},{"geonameid":4517441,"name":"Maineville","admin3":"33068","localeAltName":null},{"geonameid":4517698,"name":"Mason","admin3":"48188","localeAltName":null},{"geonameid":4518737,"name":"Morrow","admin3":"69988","localeAltName":null},{"geonameid":4525084,"name":"South Lebanon","admin3":"78610","localeAltName":null},{"geonameid":4525304,"name":"Springboro","admin3":"15700","localeAltName":null},{"geonameid":4527805,"name":"Waynesville","admin3":"82306","localeAltName":null}],"admin3":[{"geonameid":4508903,"name":"Township of Clear Creek","admin3":"15700","localeAltName":null},{"geonameid":4510003,"name":"Township of Deerfield","admin3":"21238","localeAltName":null},{"geonameid":4512262,"name":"Township of Franklin","admin3":"28490","localeAltName":null},{"geonameid":4513625,"name":"Township of Hamilton","admin3":"33068","localeAltName":null},{"geonameid":4513727,"name":"Township of Harlan","admin3":"33474"},{"geonameid":4516429,"name":"City of Lebanon","admin3":"42364","localeAltName":null},{"geonameid":4517721,"name":"Township of Massie","admin3":"48216","localeAltName":null},{"geonameid":4523795,"name":"Township of Salem","admin3":"69988","localeAltName":null},{"geonameid":4526705,"name":"Township of Turtlecreek","admin3":"77868"},{"geonameid":4526904,"name":"Township of Union","admin3":"78610","localeAltName":null},{"geonameid":4527711,"name":"Township of Washington","admin3":"81690"},{"geonameid":4527804,"name":"Township of Wayne","admin3":"82306","localeAltName":null},{"geonameid":7163719,"name":"City of Mason","admin3":"48188","localeAltName":null}],"alternateNames":[{"alternatenameId":2089549,"geonameid":5165418,"isoLanguage":"en","alternateName":"Ohio","isPreferredName":true,"isShortName":true,"isColloquial":false,"isHistoric":false}]},"__N_SSG":true}