{"pageProps":{"locale":"en","admin2":{"geonameid":5969424,"name":"Halifax Regional Municipality","country":"CA","admin1":"07","admin2":"1209","admin3":"","latitude":"44.8668500","longitude":"-63.7154100","localeAltName":null},"admin1":{"geonameid":6091530,"name":"Nova Scotia","admin1":"07","localeAltName":null},"locations":[{"geonameid":11126345,"name":"Brookside","admin3":"","localeAltName":null},{"geonameid":12076998,"name":"Downtown Halifax","admin3":"","localeAltName":null},{"geonameid":11184642,"name":"East Lawrencetown","admin3":"","localeAltName":null},{"geonameid":5963012,"name":"Goodwood","admin3":"","localeAltName":null},{"geonameid":6324729,"name":"Halifax","admin3":"","localeAltName":"Halifax"},{"geonameid":5971903,"name":"Hatchet Lake","admin3":"","localeAltName":null}],"admin3":[],"alternateNames":[{"alternatenameId":2729654,"geonameid":6324729,"isoLanguage":"en","alternateName":"Halifax","isPreferredName":true,"isShortName":true,"isColloquial":false,"isHistoric":false}]},"__N_SSG":true}