{"pageProps":{"locale":"en","admin2":{"geonameid":5290270,"name":"Cochise County","country":"US","admin1":"AZ","admin2":"003","admin3":"","latitude":"31.8795700","longitude":"-109.7511400","localeAltName":null},"admin1":{"geonameid":5551752,"name":"Arizona","admin1":"AZ","localeAltName":"Arizona"},"locations":[{"geonameid":5553284,"name":"Benson","admin3":"","localeAltName":null},{"geonameid":5284905,"name":"Bisbee","admin3":"","localeAltName":null},{"geonameid":5293083,"name":"Douglas","admin3":"","localeAltName":null},{"geonameid":5298978,"name":"Huachuca City","admin3":"","localeAltName":null},{"geonameid":5304488,"name":"Mescal","admin3":"","localeAltName":null},{"geonameid":5305102,"name":"Miracle Valley","admin3":"","localeAltName":null},{"geonameid":5306112,"name":"Naco","admin3":"","localeAltName":null},{"geonameid":5309291,"name":"Pirtleville","admin3":"","localeAltName":null},{"geonameid":5312572,"name":"Saint David","admin3":"","localeAltName":null},{"geonameid":5314328,"name":"Sierra Vista","admin3":"","localeAltName":null},{"geonameid":7261785,"name":"Sierra Vista Southeast","admin3":"","localeAltName":null},{"geonameid":5317714,"name":"Tombstone","admin3":"","localeAltName":null},{"geonameid":7262527,"name":"Whetstone","admin3":"","localeAltName":null},{"geonameid":5320513,"name":"Whetstone","admin3":"","localeAltName":null},{"geonameid":5321088,"name":"Willcox","admin3":"","localeAltName":null}],"admin3":[{"geonameid":11788341,"name":"City of Sierra Vista","admin3":"11788341"},{"geonameid":11788377,"name":"City of Benson","admin3":"11788377"},{"geonameid":11788496,"name":"City of Tombstone","admin3":"11788496"},{"geonameid":11788504,"name":"City of Bisbee","admin3":"11788504"},{"geonameid":11788917,"name":"City of Willcox","admin3":"11788917"}],"alternateNames":[{"alternatenameId":1979309,"geonameid":5551752,"isoLanguage":"en","alternateName":"Arizona","isPreferredName":true,"isShortName":true,"isColloquial":false,"isHistoric":false}]},"__N_SSG":true}