{"pageProps":{"locale":"en","admin2":{"geonameid":5226973,"name":"Clay County","country":"US","admin1":"SD","admin2":"027","admin3":"","latitude":"42.9146500","longitude":"-96.9756600","localeAltName":null},"admin1":{"geonameid":5769223,"name":"South Dakota","admin1":"SD","localeAltName":"South Dakota"},"locations":[{"geonameid":5232592,"name":"Vermillion","admin3":"66700","localeAltName":null}],"admin3":[{"geonameid":5226305,"name":"Township of Bethel","admin3":"05100"},{"geonameid":5227724,"name":"Township of Fairview","admin3":"20580"},{"geonameid":5227989,"name":"Township of Garfield","admin3":"23580"},{"geonameid":5228086,"name":"Township of Glenwood","admin3":"24660"},{"geonameid":5229662,"name":"Township of Meckling","admin3":"41740"},{"geonameid":5230104,"name":"Township of Norway","admin3":"45860"},{"geonameid":5230528,"name":"Township of Pleasant Valley","admin3":"50740"},{"geonameid":5230601,"name":"Township of Prairie Center","admin3":"51580"},{"geonameid":5230863,"name":"Township of Riverside","admin3":"55020"},{"geonameid":5232014,"name":"Township of Spirit Mound","admin3":"60260"},{"geonameid":5232109,"name":"Township of Star","admin3":"61340"},{"geonameid":5232597,"name":"Township of Vermillion","admin3":"66740"},{"geonameid":5232634,"name":"City of Vermillion","admin3":"66700","localeAltName":null},{"geonameid":5232675,"name":"Town of Wakonda","admin3":"68100"}],"alternateNames":[{"alternatenameId":2089551,"geonameid":5769223,"isoLanguage":"en","alternateName":"South Dakota","isPreferredName":true,"isShortName":true,"isColloquial":false,"isHistoric":false}]},"__N_SSG":true}