{"pageProps":{"locale":"en","admin2":{"geonameid":5231992,"name":"Spink County","country":"US","admin1":"SD","admin2":"115","admin3":"","latitude":"44.9380200","longitude":"-98.3461900","localeAltName":null},"admin1":{"geonameid":5769223,"name":"South Dakota","admin1":"SD","localeAltName":"South Dakota"},"locations":[{"geonameid":5230743,"name":"Redfield","admin3":"53460","localeAltName":null}],"admin3":[{"geonameid":5226015,"name":"Township of Antelope","admin3":"01700"},{"geonameid":5226071,"name":"City of Ashton","admin3":"02540"},{"geonameid":5226082,"name":"Township of Athol","admin3":"02700"},{"geonameid":5226217,"name":"Township of Belle Plaine","admin3":"04420"},{"geonameid":5226226,"name":"Township of Belmont","admin3":"04580"},{"geonameid":5226243,"name":"Township of Benton","admin3":"04900"},{"geonameid":5226247,"name":"Township of Beotia","admin3":"04940"},{"geonameid":5226507,"name":"Town of Brentford","admin3":"07060"},{"geonameid":5226603,"name":"Township of Buffalo","admin3":"08300"},{"geonameid":5226728,"name":"Township of Capitola","admin3":"09740"},{"geonameid":5226956,"name":"Township of Clifton","admin3":"12940"},{"geonameid":5227011,"name":"City of Conde","admin3":"13700"},{"geonameid":5227012,"name":"Township of Conde","admin3":"13740"},{"geonameid":5227042,"name":"Township of Cornwall","admin3":"13900"},{"geonameid":5227112,"name":"Township of Crandon","admin3":"14420"},{"geonameid":5227356,"name":"City of Doland","admin3":"16820"},{"geonameid":5227688,"name":"Township of Exline","admin3":"20260"},{"geonameid":5227881,"name":"City of Frankfort","admin3":"22580"},{"geonameid":5227882,"name":"Township of Frankfort","admin3":"22620"},{"geonameid":5227993,"name":"Township of Garfield","admin3":"23740"},{"geonameid":5228195,"name":"Township of Great Bend","admin3":"25780"},{"geonameid":5228251,"name":"Township of Groveland","admin3":"26460"},{"geonameid":5228334,"name":"Township of Harmony","admin3":"27180"},{"geonameid":5228346,"name":"Township of Harrison","admin3":"27380"},{"geonameid":5228809,"name":"Township of Jefferson","admin3":"32660"},{"geonameid":5229067,"name":"Township of La Prairie","admin3":"35980"},{"geonameid":5229205,"name":"Township of Lake","admin3":"35020"},{"geonameid":5229337,"name":"Township of Lincoln","admin3":"37660"},{"geonameid":5229374,"name":"Township of Lodi","admin3":"38140"},{"geonameid":5229689,"name":"City of Mellette","admin3":"41860"},{"geonameid":5229690,"name":"Township of Mellette","admin3":"41900"},{"geonameid":5230093,"name":"Town of Northville","admin3":"45740"},{"geonameid":5230094,"name":"Township of Northville","admin3":"45780"},{"geonameid":5230211,"name":"Township of Olean","admin3":"46860"},{"geonameid":5230602,"name":"Township of Prairie Center","admin3":"51620"},{"geonameid":5230749,"name":"City of Redfield","admin3":"53460","localeAltName":null},{"geonameid":5230750,"name":"Township of Redfield","admin3":"53500"},{"geonameid":5230813,"name":"Township of Richfield","admin3":"54380"},{"geonameid":5232070,"name":"Township of Spring","admin3":"60420"},{"geonameid":5232216,"name":"Township of Sumner","admin3":"62300"},{"geonameid":5232330,"name":"Township of Tetonka","admin3":"63260"},{"geonameid":5232350,"name":"Township of Three Rivers","admin3":"63420"},{"geonameid":5232445,"name":"Town of Tulare","admin3":"64300"},{"geonameid":5232446,"name":"Township of Tulare","admin3":"64340"},{"geonameid":5232466,"name":"Town of Turton","admin3":"64540"},{"geonameid":5232467,"name":"Township of Turton","admin3":"64580"},{"geonameid":5232530,"name":"Township of Union","admin3":"65500"}],"alternateNames":[{"alternatenameId":2089551,"geonameid":5769223,"isoLanguage":"en","alternateName":"South Dakota","isPreferredName":true,"isShortName":true,"isColloquial":false,"isHistoric":false}]},"__N_SSG":true}