{"pageProps":{"locale":"en","admin2":{"geonameid":5023752,"name":"Dakota County","country":"US","admin1":"MN","admin2":"037","admin3":"","latitude":"44.6718900","longitude":"-93.0654400","localeAltName":null},"admin1":{"geonameid":5037779,"name":"Minnesota","admin1":"MN","localeAltName":"Minnesota"},"locations":[{"geonameid":5016494,"name":"Apple Valley","admin3":"01900","localeAltName":null},{"geonameid":5019767,"name":"Burnsville","admin3":"08794","localeAltName":null},{"geonameid":5024825,"name":"Eagan","admin3":"17288","localeAltName":null},{"geonameid":5026321,"name":"Farmington","admin3":"20618","localeAltName":null},{"geonameid":5029224,"name":"Hampton","admin3":"26864","localeAltName":null},{"geonameid":5029500,"name":"Hastings","admin3":"27530","localeAltName":null},{"geonameid":5031412,"name":"Inver Grove Heights","admin3":"31076","localeAltName":null},{"geonameid":5034059,"name":"Lakeville","admin3":"35180","localeAltName":null},{"geonameid":5034617,"name":"Lilydale","admin3":"37016","localeAltName":null},{"geonameid":5037280,"name":"Mendota Heights","admin3":"41696","localeAltName":null},{"geonameid":5043779,"name":"Rosemount","admin3":"55726","localeAltName":null},{"geonameid":5048033,"name":"South Saint Paul","admin3":"61492","localeAltName":null},{"geonameid":5049221,"name":"Sunfish Lake","admin3":"63544","localeAltName":null},{"geonameid":5052467,"name":"West Saint Paul","admin3":"69700","localeAltName":null}],"admin3":[{"geonameid":5016495,"name":"City of Apple Valley","admin3":"01900","localeAltName":null},{"geonameid":5019771,"name":"City of Burnsville","admin3":"08794","localeAltName":null},{"geonameid":5020562,"name":"Township of Castle Rock","admin3":"10306"},{"geonameid":5021692,"name":"City of Coates","admin3":"12376"},{"geonameid":5024560,"name":"Township of Douglas","admin3":"16228"},{"geonameid":5024826,"name":"City of Eagan","admin3":"17288","localeAltName":null},{"geonameid":5025743,"name":"Township of Empire","admin3":"19376"},{"geonameid":5025909,"name":"Township of Eureka","admin3":"19871"},{"geonameid":5026322,"name":"City of Farmington","admin3":"20618","localeAltName":null},{"geonameid":5028830,"name":"Township of Greenvale","admin3":"25802"},{"geonameid":5029227,"name":"City of Hampton","admin3":"26864","localeAltName":null},{"geonameid":5029228,"name":"Township of Hampton","admin3":"26882"},{"geonameid":5029501,"name":"City of Hastings","admin3":"27530","localeAltName":null},{"geonameid":5031413,"name":"City of Inver Grove Heights","admin3":"31076","localeAltName":null},{"geonameid":5034061,"name":"City of Lakeville","admin3":"35180","localeAltName":null},{"geonameid":5034618,"name":"City of Lilydale","admin3":"37016","localeAltName":null},{"geonameid":5036757,"name":"Township of Marshan","admin3":"40724"},{"geonameid":5037281,"name":"City of Mendota Heights","admin3":"41696","localeAltName":null},{"geonameid":5037283,"name":"City of Mendota","admin3":"41678"},{"geonameid":5037448,"name":"City of Miesville","admin3":"42092"},{"geonameid":5039171,"name":"City of New Trier","admin3":"46024"},{"geonameid":5039305,"name":"Township of Nininger","admin3":"46330"},{"geonameid":5042599,"name":"City of Randolph","admin3":"53098"},{"geonameid":5042600,"name":"Township of Randolph","admin3":"53116"},{"geonameid":5042684,"name":"Township of Ravenna","admin3":"53260"},{"geonameid":5043780,"name":"City of Rosemount","admin3":"55726","localeAltName":null},{"geonameid":5046738,"name":"Township of Sciota","admin3":"59008"},{"geonameid":5048066,"name":"City of South Saint Paul","admin3":"61492","localeAltName":null},{"geonameid":5049228,"name":"City of Sunfish Lake","admin3":"63544","localeAltName":null},{"geonameid":5051319,"name":"City of Vermillion","admin3":"66802"},{"geonameid":5051324,"name":"Township of Vermillion","admin3":"66820"},{"geonameid":5052011,"name":"Township of Waterford","admin3":"68530"},{"geonameid":5052469,"name":"City of West Saint Paul","admin3":"69700","localeAltName":null}],"alternateNames":[{"alternatenameId":2089541,"geonameid":5037779,"isoLanguage":"en","alternateName":"Minnesota","isPreferredName":true,"isShortName":true,"isColloquial":false,"isHistoric":false}]},"__N_SSG":true}