{"pageProps":{"locale":"en","admin2":{"geonameid":5033353,"name":"Kittson County","country":"US","admin1":"MN","admin2":"069","admin3":"","latitude":"48.7766300","longitude":"-96.7828500","localeAltName":null},"admin1":{"geonameid":5037779,"name":"Minnesota","admin1":"MN","localeAltName":"Minnesota"},"locations":[{"geonameid":5029154,"name":"Hallock","admin3":"26576","localeAltName":null},{"geonameid":5032900,"name":"Karlstad","admin3":"32444","localeAltName":null}],"admin3":[{"geonameid":5016670,"name":"Township of Arveson","admin3":"02386"},{"geonameid":5020316,"name":"Township of Cannon","admin3":"09676"},{"geonameid":5020412,"name":"Township of Caribou","admin3":"09874"},{"geonameid":5021679,"name":"Township of Clow","admin3":"12340"},{"geonameid":5023928,"name":"Township of Davis","admin3":"14950"},{"geonameid":5024129,"name":"Township of Deerwood","admin3":"15382"},{"geonameid":5024495,"name":"City of Donaldson","admin3":"16030"},{"geonameid":5028631,"name":"Township of Granville","admin3":"25370"},{"geonameid":5029156,"name":"City of Hallock","admin3":"26576","localeAltName":null},{"geonameid":5029157,"name":"Township of Hallock","admin3":"26594"},{"geonameid":5029165,"name":"City of Halma","admin3":"26612"},{"geonameid":5029223,"name":"Township of Hampden","admin3":"26846"},{"geonameid":5029706,"name":"Township of Hazelton","admin3":"28070"},{"geonameid":5030150,"name":"Township of Hill","admin3":"29078"},{"geonameid":5030896,"name":"City of Humboldt","admin3":"30446"},{"geonameid":5032512,"name":"Township of Jupiter","admin3":"32228"},{"geonameid":5032902,"name":"City of Karlstad","admin3":"32444","localeAltName":null},{"geonameid":5033054,"name":"City of Kennedy","admin3":"32732"},{"geonameid":5033719,"name":"City of Lake Bronson","admin3":"34136"},{"geonameid":5034108,"name":"City of Lancaster","admin3":"35378"},{"geonameid":5039771,"name":"Township of Norway","admin3":"47410"},{"geonameid":5041042,"name":"Township of Pelan","admin3":"50074"},{"geonameid":5041180,"name":"Township of Percy","admin3":"50452"},{"geonameid":5042109,"name":"Township of Poppleton","admin3":"52072"},{"geonameid":5043189,"name":"Township of Richardville","admin3":"54196"},{"geonameid":5044968,"name":"Township of Saint Joseph","admin3":"57112"},{"geonameid":5045704,"name":"City of Saint Vincent","admin3":"58144"},{"geonameid":5045705,"name":"Township of Saint Vincent","admin3":"58162"},{"geonameid":5047493,"name":"Township of Skane","admin3":"60646"},{"geonameid":5048025,"name":"Township of South Red River","admin3":"61456"},{"geonameid":5048258,"name":"Township of Spring Brook","admin3":"61744"},{"geonameid":5049354,"name":"Township of Svea","admin3":"63652"},{"geonameid":5049798,"name":"Township of Tegner","admin3":"64336"},{"geonameid":5049800,"name":"Township of Teien","admin3":"64354"},{"geonameid":5050016,"name":"Township of Thompson","admin3":"64642"},{"geonameid":7275437,"name":"Unorganized Territory of Klondike","admin3":"33495"},{"geonameid":7275438,"name":"Unorganized Territory of Peatland","admin3":"50062"}],"alternateNames":[{"alternatenameId":2089541,"geonameid":5037779,"isoLanguage":"en","alternateName":"Minnesota","isPreferredName":true,"isShortName":true,"isColloquial":false,"isHistoric":false}]},"__N_SSG":true}