{"pageProps":{"locale":"en","admin2":{"geonameid":5046749,"name":"Scott County","country":"US","admin1":"MN","admin2":"139","admin3":"","latitude":"44.6484600","longitude":"-93.5359300","localeAltName":null},"admin1":{"geonameid":5037779,"name":"Minnesota","admin1":"MN","localeAltName":"Minnesota"},"locations":[{"geonameid":5017761,"name":"Belle Plaine","admin3":"04834","localeAltName":null},{"geonameid":5025493,"name":"Elko","admin3":"18662","localeAltName":null},{"geonameid":7121608,"name":"Elko New Market","admin3":"18662","localeAltName":null},{"geonameid":5032106,"name":"Jordan","admin3":"32174","localeAltName":null},{"geonameid":5039122,"name":"New Market","admin3":"18662","localeAltName":null},{"geonameid":5042373,"name":"Prior Lake","admin3":"52594","localeAltName":null},{"geonameid":5046063,"name":"Savage","admin3":"58738","localeAltName":null},{"geonameid":5046997,"name":"Shakopee","admin3":"59350","localeAltName":null}],"admin3":[{"geonameid":5017763,"name":"City of Belle Plaine","admin3":"04834","localeAltName":null},{"geonameid":5017764,"name":"Township of Belle Plaine","admin3":"04852"},{"geonameid":5018661,"name":"Township of Blakeley","admin3":"06418"},{"geonameid":5020673,"name":"Township of Cedar Lake","admin3":"10450"},{"geonameid":5023374,"name":"Township of Credit River","admin3":"13726"},{"geonameid":5029817,"name":"Township of Helena","admin3":"28322"},{"geonameid":5031712,"name":"Township of Jackson","admin3":"31580"},{"geonameid":5032113,"name":"City of Jordan","admin3":"32174","localeAltName":null},{"geonameid":5035849,"name":"Township of Louisville","admin3":"38294"},{"geonameid":5039124,"name":"Township of New Market","admin3":"45754"},{"geonameid":5042375,"name":"City of Prior Lake","admin3":"52594","localeAltName":null},{"geonameid":5045001,"name":"Township of Saint Lawrence","admin3":"57184"},{"geonameid":5045836,"name":"Township of Sand Creek","admin3":"58324"},{"geonameid":5046065,"name":"City of Savage","admin3":"58738","localeAltName":null},{"geonameid":5047004,"name":"City of Shakopee","admin3":"59350","localeAltName":null},{"geonameid":5048367,"name":"Township of Spring Lake","admin3":"61978"},{"geonameid":7163522,"name":"City of Elko New Market","admin3":"18662","localeAltName":null}],"alternateNames":[{"alternatenameId":2089541,"geonameid":5037779,"isoLanguage":"en","alternateName":"Minnesota","isPreferredName":true,"isShortName":true,"isColloquial":false,"isHistoric":false}]},"__N_SSG":true}