{"pageProps":{"locale":"it","admin2":{"geonameid":3182649,"name":"Provincia di Avellino","country":"IT","admin1":"04","admin2":"AV","admin3":"","latitude":"40.9833300","longitude":"15.1500000","localeAltName":"Avellino"},"admin1":{"geonameid":3181042,"name":"Campania","admin1":"04","localeAltName":"Campania"},"locations":[{"geonameid":3183388,"name":"Aiello del Sabato","admin3":"064001","localeAltName":null},{"geonameid":3183171,"name":"Altavilla Irpina","admin3":"064002","localeAltName":null},{"geonameid":8949688,"name":"Alvanite","admin3":"064006","localeAltName":null},{"geonameid":3183073,"name":"Andretta-Mattinella","admin3":"064003","localeAltName":null},{"geonameid":3182939,"name":"Aquilonia","admin3":"064004","localeAltName":null},{"geonameid":3182854,"name":"Ariano Irpino-Martiri","admin3":"064005","localeAltName":null},{"geonameid":3182696,"name":"Atripalda","admin3":"064006","localeAltName":null},{"geonameid":3182651,"name":"Avella","admin3":"064007","localeAltName":null},{"geonameid":3182650,"name":"Avellino","admin3":"064008","localeAltName":null},{"geonameid":3182512,"name":"Bagnoli Irpino","admin3":"064009","localeAltName":null},{"geonameid":3182484,"name":"Baiano","admin3":"064010","localeAltName":null},{"geonameid":8948965,"name":"Banzano","admin3":"064121","localeAltName":null},{"geonameid":3182219,"name":"Bellizzi Irpino","admin3":"064008","localeAltName":null},{"geonameid":3182012,"name":"Bisaccia","admin3":"064011","localeAltName":null},{"geonameid":9036369,"name":"Bisaccia Nuova","admin3":"064011","localeAltName":null},{"geonameid":3181882,"name":"Bonito","admin3":"064012","localeAltName":null},{"geonameid":8949204,"name":"Borgo","admin3":"064121","localeAltName":null},{"geonameid":3181255,"name":"Calabritto","admin3":"064014","localeAltName":null},{"geonameid":3181187,"name":"Calitri","admin3":"064015","localeAltName":null},{"geonameid":3181047,"name":"Campanarello","admin3":"064116","localeAltName":null},{"geonameid":3180865,"name":"Candida","admin3":"064016","localeAltName":null},{"geonameid":3180670,"name":"Caposele","admin3":"064017","localeAltName":null},{"geonameid":8949987,"name":"Capriglia","admin3":"064018","localeAltName":null},{"geonameid":3180620,"name":"Capriglia Irpina","admin3":"064018","localeAltName":null},{"geonameid":3180517,"name":"Carife","admin3":"064019","localeAltName":null},{"geonameid":3180246,"name":"Casalbore","admin3":"064020","localeAltName":null},{"geonameid":3179797,"name":"Cassano","admin3":"064078","localeAltName":null},{"geonameid":3179740,"name":"Castel Baronia","admin3":"064022","localeAltName":null},{"geonameid":3179690,"name":"Castelfranci","admin3":"064023","localeAltName":null},{"geonameid":3179448,"name":"Castelvetere sul Calore","admin3":"064024","localeAltName":null},{"geonameid":6534229,"name":"Cervinara","admin3":"064025","localeAltName":null},{"geonameid":6535300,"name":"Cesinali","admin3":"064026","localeAltName":null},{"geonameid":3178758,"name":"Chiusano di San Domenico","admin3":"064028","localeAltName":null},{"geonameid":3178164,"name":"Contrada","admin3":"064029","localeAltName":null},{"geonameid":3177537,"name":"Domicella","admin3":"064031","localeAltName":null},{"geonameid":3176901,"name":"Flumeri","admin3":"064032","localeAltName":null},{"geonameid":3176818,"name":"Fontanarosa","admin3":"064033","localeAltName":null},{"geonameid":3176749,"name":"Forino","admin3":"064034","localeAltName":null},{"geonameid":3176533,"name":"Frigento","admin3":"064035","localeAltName":null},{"geonameid":3176178,"name":"Gesualdo","admin3":"064036","localeAltName":null},{"geonameid":3175849,"name":"Greci","admin3":"064037","localeAltName":null},{"geonameid":3175772,"name":"Grottaminarda","admin3":"064038","localeAltName":null},{"geonameid":3175759,"name":"Grottolella","admin3":"064039","localeAltName":null},{"geonameid":8950086,"name":"Labso","admin3":"064121","localeAltName":null},{"geonameid":3175334,"name":"Lacedonia","admin3":"064041","localeAltName":null},{"geonameid":3175128,"name":"Lapio","admin3":"064042","localeAltName":null},{"geonameid":3175030,"name":"Lauro","admin3":"064043","localeAltName":null},{"geonameid":3174697,"name":"Lioni","admin3":"064044","localeAltName":null},{"geonameid":3174452,"name":"Luogosano","admin3":"064045","localeAltName":null},{"geonameid":3174057,"name":"Manocalzati","admin3":"064046","localeAltName":null},{"geonameid":3173824,"name":"Marzano di Nola","admin3":"064047","localeAltName":null},{"geonameid":8950002,"name":"Materdomini","admin3":"064017","localeAltName":null},{"geonameid":3173613,"name":"Melito Irpino","admin3":"064048","localeAltName":null},{"geonameid":3173555,"name":"Mercogliano","admin3":"064049","localeAltName":null},{"geonameid":3173383,"name":"Mirabella Eclano","admin3":"064050","localeAltName":null},{"geonameid":8950381,"name":"Misciano","admin3":"064121","localeAltName":null},{"geonameid":8950164,"name":"Molinelle","admin3":"064054","localeAltName":null},{"geonameid":8949882,"name":"Montaperto","admin3":"064059","localeAltName":null},{"geonameid":3173014,"name":"Montecalvo Irpino","admin3":"064052","localeAltName":null},{"geonameid":3172942,"name":"Montefalcione","admin3":"064053","localeAltName":null},{"geonameid":3172921,"name":"Monteforte Irpino","admin3":"064054","localeAltName":null},{"geonameid":3172915,"name":"Montefredane","admin3":"064055","localeAltName":null},{"geonameid":3172913,"name":"Montefusco","admin3":"064056","localeAltName":null},{"geonameid":6535638,"name":"Montella","admin3":"064057","localeAltName":null},{"geonameid":3172847,"name":"Montemarano","admin3":"064058","localeAltName":null},{"geonameid":3172834,"name":"Montemiletto","admin3":"064059","localeAltName":null},{"geonameid":3172716,"name":"Monteverde","admin3":"064060","localeAltName":null},{"geonameid":6534231,"name":"Montoro Superiore","admin3":"064121","localeAltName":null},{"geonameid":3172577,"name":"Morra de Sanctis","admin3":"064063","localeAltName":null},{"geonameid":6535301,"name":"Moschiano","admin3":"064064","localeAltName":null},{"geonameid":3172473,"name":"Mugnano del Cardinale","admin3":"064065","localeAltName":null},{"geonameid":3178144,"name":"Nuova Conza della Campania","admin3":"064030","localeAltName":null},{"geonameid":3172134,"name":"Nusco","admin3":"064066","localeAltName":null},{"geonameid":3171830,"name":"Ospedaletto d'Alpinolo","admin3":"064067","localeAltName":null},{"geonameid":8949939,"name":"Pagliara","admin3":"064035","localeAltName":null},{"geonameid":6535639,"name":"Pago del Vallo di Lauro","admin3":"064068","localeAltName":null},{"geonameid":3171451,"name":"Parolise","admin3":"064069","localeAltName":null},{"geonameid":3171410,"name":"Passo di Mirabella-Pianopantano","admin3":"064050","localeAltName":null},{"geonameid":3171382,"name":"Paternopoli","admin3":"064070","localeAltName":null},{"geonameid":8949549,"name":"Petruro","admin3":"064034","localeAltName":null},{"geonameid":8949971,"name":"Piani","admin3":"064017","localeAltName":null},{"geonameid":3170957,"name":"Piano","admin3":"064121","localeAltName":null},{"geonameid":3170811,"name":"Pietradefusi","admin3":"064072","localeAltName":null},{"geonameid":3170776,"name":"Pietrastornina","admin3":"064073","localeAltName":null},{"geonameid":3169934,"name":"Prata di Principato Ultra","admin3":"064074","localeAltName":null},{"geonameid":3169907,"name":"Pratola Serra","admin3":"064075","localeAltName":null},{"geonameid":3169734,"name":"Quadrelle","admin3":"064076","localeAltName":null},{"geonameid":3169667,"name":"Quindici","admin3":"064077","localeAltName":null},{"geonameid":6535640,"name":"Roccabascerana","admin3":"064078","localeAltName":null},{"geonameid":3168894,"name":"Rotondi","admin3":"064080","localeAltName":null},{"geonameid":8950183,"name":"Sabina","admin3":"064001","localeAltName":null},{"geonameid":8948764,"name":"Sala","admin3":"064099","localeAltName":null},{"geonameid":3168602,"name":"Salza Irpina","admin3":"064081","localeAltName":null},{"geonameid":3168096,"name":"San Mango sul Calore","admin3":"064082","localeAltName":null},{"geonameid":3167998,"name":"San Martino Valle Caudina","admin3":"064083","localeAltName":null},{"geonameid":3167960,"name":"San Michele di Serino","admin3":"064084","localeAltName":null},{"geonameid":3167924,"name":"San Nicola Baronia","admin3":"064085","localeAltName":null},{"geonameid":8948877,"name":"San Pietro","admin3":"064121","localeAltName":null},{"geonameid":3167795,"name":"San Potito Ultra","admin3":"064086","localeAltName":null},{"geonameid":3167708,"name":"San Sossio Baronia","admin3":"064087","localeAltName":null},{"geonameid":3167482,"name":"Sant'Andrea di Conza","admin3":"064089","localeAltName":null},{"geonameid":3167453,"name":"Sant'Angelo A Scala","admin3":"064091","localeAltName":null},{"geonameid":6535302,"name":"Sant'Angelo All'Esca","admin3":"064090","localeAltName":null},{"geonameid":3167450,"name":"Sant'Angelo dei Lombardi","admin3":"064092","localeAltName":null},{"geonameid":8949716,"name":"Sant'Elena Irpina","admin3":"064072","localeAltName":null},{"geonameid":3167604,"name":"Santa Lucia di Serino","admin3":"064088","localeAltName":null},{"geonameid":3167383,"name":"Santa Paolina","admin3":"064093","localeAltName":null},{"geonameid":3167245,"name":"Santo Stefano del Sole","admin3":"064095","localeAltName":null},{"geonameid":3167032,"name":"Savignano Irpino","admin3":"064096","localeAltName":null},{"geonameid":3166993,"name":"Scampitella","admin3":"064097","localeAltName":null},{"geonameid":3166745,"name":"Senerchia","admin3":"064098","localeAltName":null},{"geonameid":3166702,"name":"Serino","admin3":"064099","localeAltName":null},{"geonameid":3166501,"name":"Sirignano","admin3":"064100","localeAltName":null},{"geonameid":3166420,"name":"Solofra","admin3":"064101","localeAltName":null},{"geonameid":6535303,"name":"Sperone","admin3":"064103","localeAltName":null},{"geonameid":3166056,"name":"Sturno","admin3":"064104","localeAltName":null},{"geonameid":3166031,"name":"Summonte","admin3":"064105","localeAltName":null},{"geonameid":3165901,"name":"Taurano","admin3":"064106","localeAltName":null},{"geonameid":3165900,"name":"Taurasi","admin3":"064107","localeAltName":null},{"geonameid":3165807,"name":"Teora","admin3":"064108","localeAltName":null},{"geonameid":8199399,"name":"Torchiati","admin3":"064121","localeAltName":null},{"geonameid":3165530,"name":"Torella dei Lombardi","admin3":"064109","localeAltName":null},{"geonameid":8948799,"name":"Torelli-Torrette","admin3":"064049","localeAltName":null},{"geonameid":3165436,"name":"Torre le Nocelle","admin3":"064110","localeAltName":null},{"geonameid":3165227,"name":"Trescine","admin3":"064025","localeAltName":null},{"geonameid":6535641,"name":"Tufo","admin3":"064113","localeAltName":null},{"geonameid":3164895,"name":"Vallata","admin3":"064114","localeAltName":null},{"geonameid":6535642,"name":"Vallesaccarda","admin3":"064115","localeAltName":null},{"geonameid":6534773,"name":"Venticano","admin3":"064116","localeAltName":null},{"geonameid":3164209,"name":"Villamaina","admin3":"064117","localeAltName":null},{"geonameid":3164182,"name":"Villanova del Battista","admin3":"064118","localeAltName":null},{"geonameid":3163955,"name":"Volturara Irpina","admin3":"064119","localeAltName":null},{"geonameid":3163834,"name":"Zungoli","admin3":"064120","localeAltName":null}],"admin3":[{"geonameid":3172866,"name":"Montella","admin3":"064057","localeAltName":null},{"geonameid":3178990,"name":"Cervinara","admin3":"064025","localeAltName":null},{"geonameid":6536389,"name":"Andretta","admin3":"064003","localeAltName":null},{"geonameid":6537354,"name":"Avella","admin3":"064007","localeAltName":null},{"geonameid":6537355,"name":"Bagnoli Irpino","admin3":"064009","localeAltName":null},{"geonameid":6537356,"name":"Bonito","admin3":"064012","localeAltName":null},{"geonameid":6537357,"name":"Calabritto","admin3":"064014","localeAltName":null},{"geonameid":6537358,"name":"Calitri","admin3":"064015","localeAltName":null},{"geonameid":6537359,"name":"Castel Baronia","admin3":"064022","localeAltName":null},{"geonameid":6537360,"name":"Castelvetere sul Calore","admin3":"064024","localeAltName":null},{"geonameid":6537361,"name":"Chianche","admin3":"064027"},{"geonameid":6537362,"name":"Domicella","admin3":"064031","localeAltName":null},{"geonameid":6537363,"name":"Flumeri","admin3":"064032","localeAltName":null},{"geonameid":6537364,"name":"Guardia Lombardi","admin3":"064040"},{"geonameid":6537365,"name":"Manocalzati","admin3":"064046","localeAltName":null},{"geonameid":6537366,"name":"Mercogliano","admin3":"064049","localeAltName":null},{"geonameid":6537367,"name":"Montefredane","admin3":"064055","localeAltName":null},{"geonameid":6537368,"name":"Morra De Sanctis","admin3":"064063","localeAltName":null},{"geonameid":6537369,"name":"Nusco","admin3":"064066","localeAltName":null},{"geonameid":6537370,"name":"Ospedaletto d'Alpinolo","admin3":"064067","localeAltName":null},{"geonameid":6537371,"name":"Parolise","admin3":"064069","localeAltName":null},{"geonameid":6537372,"name":"Paternopoli","admin3":"064070","localeAltName":null},{"geonameid":6537373,"name":"Prata di Principato Ultra","admin3":"064074","localeAltName":null},{"geonameid":6537374,"name":"Quindici","admin3":"064077","localeAltName":null},{"geonameid":6537375,"name":"Rocca San Felice","admin3":"064079"},{"geonameid":6537376,"name":"Rotondi","admin3":"064080","localeAltName":null},{"geonameid":6537377,"name":"San Nicola Baronia","admin3":"064085","localeAltName":null},{"geonameid":6537378,"name":"San Potito Ultra","admin3":"064086","localeAltName":null},{"geonameid":6537379,"name":"Sant'Andrea di Conza","admin3":"064089","localeAltName":null},{"geonameid":6537380,"name":"Sant'Angelo dei Lombardi","admin3":"064092","localeAltName":null},{"geonameid":6537381,"name":"Santa Paolina","admin3":"064093","localeAltName":null},{"geonameid":6537382,"name":"Santo Stefano del Sole","admin3":"064095","localeAltName":null},{"geonameid":6537383,"name":"Savignano Irpino","admin3":"064096","localeAltName":null},{"geonameid":6537384,"name":"Solofra","admin3":"064101","localeAltName":null},{"geonameid":6537385,"name":"Sorbo Serpico","admin3":"064102"},{"geonameid":6537386,"name":"Vallata","admin3":"064114","localeAltName":null},{"geonameid":6537387,"name":"Villanova del Battista","admin3":"064118","localeAltName":null},{"geonameid":6537388,"name":"Volturara Irpina","admin3":"064119","localeAltName":null},{"geonameid":6538771,"name":"Aiello del Sabato","admin3":"064001","localeAltName":null},{"geonameid":6538772,"name":"Altavilla Irpina","admin3":"064002","localeAltName":null},{"geonameid":6538773,"name":"Ariano Irpino","admin3":"064005","localeAltName":null},{"geonameid":6538774,"name":"Atripalda","admin3":"064006","localeAltName":null},{"geonameid":6538775,"name":"Cairano","admin3":"064013"},{"geonameid":6538776,"name":"Caposele","admin3":"064017","localeAltName":null},{"geonameid":6538777,"name":"Casalbore","admin3":"064020","localeAltName":null},{"geonameid":6538778,"name":"Castelfranci","admin3":"064023","localeAltName":null},{"geonameid":6538779,"name":"Chiusano di San Domenico","admin3":"064028","localeAltName":null},{"geonameid":6538780,"name":"Fontanarosa","admin3":"064033","localeAltName":null},{"geonameid":6538781,"name":"Forino","admin3":"064034","localeAltName":null},{"geonameid":6538782,"name":"Frigento","admin3":"064035","localeAltName":null},{"geonameid":6538783,"name":"Gesualdo","admin3":"064036","localeAltName":null},{"geonameid":6538784,"name":"Grottolella","admin3":"064039","localeAltName":null},{"geonameid":6538785,"name":"Lacedonia","admin3":"064041","localeAltName":null},{"geonameid":6538786,"name":"Luogosano","admin3":"064045","localeAltName":null},{"geonameid":6538787,"name":"Marzano di Nola","admin3":"064047","localeAltName":null},{"geonameid":6538788,"name":"Montaguto","admin3":"064051"},{"geonameid":6538789,"name":"Montefalcione","admin3":"064053","localeAltName":null},{"geonameid":6538790,"name":"Montemarano","admin3":"064058","localeAltName":null},{"geonameid":6538791,"name":"Montemiletto","admin3":"064059","localeAltName":null},{"geonameid":6538792,"name":"Pratola Serra","admin3":"064075","localeAltName":null},{"geonameid":6538793,"name":"Quadrelle","admin3":"064076","localeAltName":null},{"geonameid":6538794,"name":"Salza Irpina","admin3":"064081","localeAltName":null},{"geonameid":6538795,"name":"San Michele di Serino","admin3":"064084","localeAltName":null},{"geonameid":6538796,"name":"Santa Lucia di Serino","admin3":"064088","localeAltName":null},{"geonameid":6538797,"name":"Senerchia","admin3":"064098","localeAltName":null},{"geonameid":6538798,"name":"Sturno","admin3":"064104","localeAltName":null},{"geonameid":6538799,"name":"Summonte","admin3":"064105","localeAltName":null},{"geonameid":6538800,"name":"Taurano","admin3":"064106","localeAltName":null},{"geonameid":6538801,"name":"Villamaina","admin3":"064117","localeAltName":null},{"geonameid":6539595,"name":"Pietradefusi","admin3":"064072","localeAltName":null},{"geonameid":6539815,"name":"Baiano","admin3":"064010","localeAltName":null},{"geonameid":6539816,"name":"Contrada","admin3":"064029","localeAltName":null},{"geonameid":6539817,"name":"Montefusco","admin3":"064056","localeAltName":null},{"geonameid":6539818,"name":"Sirignano","admin3":"064100","localeAltName":null},{"geonameid":6539994,"name":"Bisaccia","admin3":"064011","localeAltName":null},{"geonameid":6539995,"name":"Greci","admin3":"064037","localeAltName":null},{"geonameid":6539996,"name":"Lapio","admin3":"064042","localeAltName":null},{"geonameid":6539997,"name":"Lauro","admin3":"064043","localeAltName":null},{"geonameid":6539998,"name":"Monteverde","admin3":"064060","localeAltName":null},{"geonameid":6539999,"name":"Teora","admin3":"064108","localeAltName":null},{"geonameid":6540688,"name":"Candida","admin3":"064016","localeAltName":null},{"geonameid":6540689,"name":"Carife","admin3":"064019","localeAltName":null},{"geonameid":6540690,"name":"Lioni","admin3":"064044","localeAltName":null},{"geonameid":6540691,"name":"Montecalvo Irpino","admin3":"064052","localeAltName":null},{"geonameid":6540692,"name":"Mugnano del Cardinale","admin3":"064065","localeAltName":null},{"geonameid":6540693,"name":"Scampitella","admin3":"064097","localeAltName":null},{"geonameid":6540694,"name":"Torrioni","admin3":"064111"},{"geonameid":6540695,"name":"Zungoli","admin3":"064120","localeAltName":null},{"geonameid":6541170,"name":"Pietrastornina","admin3":"064073","localeAltName":null},{"geonameid":6541171,"name":"San Mango sul Calore","admin3":"064082","localeAltName":null},{"geonameid":6541172,"name":"Sant'Angelo a Scala","admin3":"064091","localeAltName":null},{"geonameid":6541173,"name":"Taurasi","admin3":"064107","localeAltName":null},{"geonameid":6541174,"name":"Torre Le Nocelle","admin3":"064110","localeAltName":null},{"geonameid":6541175,"name":"Trevico","admin3":"064112"},{"geonameid":6541578,"name":"Serino","admin3":"064099","localeAltName":null},{"geonameid":6541684,"name":"Aquilonia","admin3":"064004","localeAltName":null},{"geonameid":6541685,"name":"Conza della Campania","admin3":"064030","localeAltName":null},{"geonameid":6541870,"name":"Avellino","admin3":"064008","localeAltName":null},{"geonameid":6541908,"name":"Grottaminarda","admin3":"064038","localeAltName":null},{"geonameid":6541909,"name":"Mirabella Eclano","admin3":"064050","localeAltName":null},{"geonameid":6541910,"name":"Monteforte Irpino","admin3":"064054","localeAltName":null},{"geonameid":6541911,"name":"San Martino Valle Caudina","admin3":"064083","localeAltName":null},{"geonameid":6541912,"name":"San Sossio Baronia","admin3":"064087","localeAltName":null},{"geonameid":6542063,"name":"Melito Irpino","admin3":"064048","localeAltName":null},{"geonameid":6542192,"name":"Capriglia Irpina","admin3":"064018","localeAltName":null},{"geonameid":6542225,"name":"Torella dei Lombardi","admin3":"064109","localeAltName":null},{"geonameid":6542263,"name":"Petruro Irpino","admin3":"064071"},{"geonameid":6542796,"name":"Venticano","admin3":"064116","localeAltName":null},{"geonameid":6543283,"name":"Cassano Irpino","admin3":"064021"},{"geonameid":6543284,"name":"Cesinali","admin3":"064026","localeAltName":null},{"geonameid":6543285,"name":"Moschiano","admin3":"064064","localeAltName":null},{"geonameid":6543286,"name":"Sant'Angelo all'Esca","admin3":"064090","localeAltName":null},{"geonameid":6543287,"name":"Sperone","admin3":"064103","localeAltName":null},{"geonameid":6543618,"name":"Pago del Vallo di Lauro","admin3":"064068","localeAltName":null},{"geonameid":6543619,"name":"Roccabascerana","admin3":"064078","localeAltName":null},{"geonameid":6543620,"name":"Tufo","admin3":"064113","localeAltName":null},{"geonameid":6543621,"name":"Vallesaccarda","admin3":"064115","localeAltName":null},{"geonameid":8659034,"name":"Montoro","admin3":"064121","localeAltName":null}],"alternateNames":[{"alternatenameId":1352304,"geonameid":3181042,"isoLanguage":"it","alternateName":"Campania","isPreferredName":true,"isShortName":true,"isColloquial":false,"isHistoric":false},{"alternatenameId":1352740,"geonameid":3182649,"isoLanguage":"it","alternateName":"Avellino","isPreferredName":true,"isShortName":true,"isColloquial":false,"isHistoric":false}]},"__N_SSG":true}