{"pageProps":{"locale":"en","admin2":{"geonameid":4269788,"name":"Coffey County","country":"US","admin1":"KS","admin2":"031","admin3":"","latitude":"38.2368400","longitude":"-95.7341100"},"admin1":{"geonameid":4273857,"name":"Kansas","admin1":"KS","localeAltName":"Kansas"},"locations":[{"geonameid":4268854,"name":"Burlington","admin3":"09400"}],"admin3":[{"geonameid":4267801,"name":"Township of Avon","admin3":"03550"},{"geonameid":4268858,"name":"City of Burlington","admin3":"09400"},{"geonameid":4268859,"name":"Township of Burlington","admin3":"09425"},{"geonameid":4272586,"name":"Township of Hampden","admin3":"29775"},{"geonameid":4273941,"name":"Township of Key West","admin3":"36650"},{"geonameid":4274297,"name":"Township of LeRoy","admin3":"39675"},{"geonameid":4274414,"name":"Township of Liberty","admin3":"39925"},{"geonameid":4274495,"name":"Township of Lincoln","admin3":"40550"},{"geonameid":4276154,"name":"Township of Neosho","admin3":"49750"},{"geonameid":4276856,"name":"Township of Ottumwa","admin3":"53700"},{"geonameid":4277474,"name":"Township of Pleasant","admin3":"56225"},{"geonameid":4277613,"name":"Township of Pottawatomie","admin3":"57200"},{"geonameid":4278221,"name":"Township of Rock Creek","admin3":"60500"},{"geonameid":4279836,"name":"Township of Spring Creek","admin3":"67375"},{"geonameid":4279952,"name":"Township of Star","admin3":"68000"}],"alternateNames":[{"alternatenameId":2080124,"geonameid":4273857,"isoLanguage":"en","alternateName":"Kansas","isPreferredName":true,"isShortName":true,"isColloquial":false,"isHistoric":false}]},"__N_SSG":true}