{"pageProps":{"locale":"en","admin2":{"geonameid":5445268,"name":"Decatur County","country":"US","admin1":"KS","admin2":"039","admin3":"","latitude":"39.7847600","longitude":"-100.4599000"},"admin1":{"geonameid":4273857,"name":"Kansas","admin1":"KS","localeAltName":"Kansas"},"locations":[{"geonameid":5446098,"name":"Oberlin","admin3":"52000"}],"admin3":[{"geonameid":5444965,"name":"Township of Allison","admin3":"01300"},{"geonameid":5444969,"name":"Township of Altory","admin3":"01650"},{"geonameid":5445016,"name":"Township of Bassettville","admin3":"04475"},{"geonameid":5445030,"name":"Township of Beaver","admin3":"05050"},{"geonameid":5445139,"name":"Township of Center","admin3":"11650"},{"geonameid":5445219,"name":"Township of Cook","admin3":"15375"},{"geonameid":5445259,"name":"Township of Custer","admin3":"16850"},{"geonameid":5445307,"name":"Township of Dresden","admin3":"18625"},{"geonameid":5445390,"name":"Township of Finley","admin3":"23425"},{"geonameid":5445452,"name":"Township of Garfield","admin3":"25525"},{"geonameid":5445508,"name":"Township of Grant","admin3":"27600"},{"geonameid":5445554,"name":"Township of Harlan","admin3":"30050"},{"geonameid":5445682,"name":"Township of Jennings","admin3":"35400"},{"geonameid":5445831,"name":"Township of Liberty","admin3":"39975"},{"geonameid":5445838,"name":"Township of Lincoln","admin3":"40600"},{"geonameid":5445862,"name":"Township of Logan","admin3":"41825"},{"geonameid":5445904,"name":"Township of Lyon","admin3":"43450"},{"geonameid":5446101,"name":"City of Oberlin","admin3":"52000"},{"geonameid":5446102,"name":"Township of Oberlin","admin3":"52025"},{"geonameid":5446113,"name":"Township of Olive","admin3":"52675"},{"geonameid":5446208,"name":"Township of Pleasant Valley","admin3":"56525"},{"geonameid":5446237,"name":"Township of Prairie Dog","admin3":"57475"},{"geonameid":5446317,"name":"Township of Roosevelt","admin3":"61025"},{"geonameid":5446414,"name":"Township of Sappa","admin3":"63050"},{"geonameid":5446474,"name":"Township of Sherman","admin3":"64900"},{"geonameid":5446596,"name":"Township of Summit","admin3":"69075"}],"alternateNames":[{"alternatenameId":2080124,"geonameid":4273857,"isoLanguage":"en","alternateName":"Kansas","isPreferredName":true,"isShortName":true,"isColloquial":false,"isHistoric":false}]},"__N_SSG":true}