{"pageProps":{"locale":"en","admin2":{"geonameid":4270394,"name":"Dickinson County","country":"US","admin1":"KS","admin2":"041","admin3":"","latitude":"38.8665000","longitude":"-97.1527000"},"admin1":{"geonameid":4273857,"name":"Kansas","admin1":"KS","localeAltName":"Kansas"},"locations":[{"geonameid":4267354,"name":"Abilene","admin3":"00125"},{"geonameid":4269401,"name":"Chapman","admin3":"50800"},{"geonameid":4279540,"name":"Solomon","admin3":"40625"}],"admin3":[{"geonameid":4267365,"name":"City of Abilene","admin3":"00125"},{"geonameid":4267889,"name":"Township of Banner","admin3":"03975"},{"geonameid":4268775,"name":"Township of Buckeye","admin3":"08925"},{"geonameid":4269279,"name":"Township of Center","admin3":"11675"},{"geonameid":4269438,"name":"Township of Cheever","admin3":"12700"},{"geonameid":4271620,"name":"Township of Flora","admin3":"23550"},{"geonameid":4271759,"name":"Township of Fragrant Hill","admin3":"24250"},{"geonameid":4271965,"name":"Township of Garfield","admin3":"25550"},{"geonameid":4272303,"name":"Township of Grant","admin3":"27625"},{"geonameid":4272774,"name":"Township of Hayes","admin3":"30900"},{"geonameid":4273075,"name":"Township of Holland","admin3":"32625"},{"geonameid":4273178,"name":"Township of Hope","admin3":"33100"},{"geonameid":4273578,"name":"Township of Jefferson","admin3":"35175"},{"geonameid":4274416,"name":"Township of Liberty","admin3":"40000"},{"geonameid":4274497,"name":"Township of Lincoln","admin3":"40625"},{"geonameid":4274702,"name":"Township of Logan","admin3":"41850"},{"geonameid":4274924,"name":"Township of Lyon","admin3":"43475"},{"geonameid":4276238,"name":"Township of Newbern","admin3":"50225"},{"geonameid":4276298,"name":"Township of Noble","admin3":"50800"},{"geonameid":4278044,"name":"Township of Ridge","admin3":"59800"},{"geonameid":4278075,"name":"Township of Rinehart","admin3":"59900"},{"geonameid":4279307,"name":"Township of Sherman","admin3":"64925"},{"geonameid":4280842,"name":"Township of Union","admin3":"72100"},{"geonameid":4281660,"name":"Township of Wheatland","admin3":"77625"},{"geonameid":4281835,"name":"Township of Willowdale","admin3":"79450"}],"alternateNames":[{"alternatenameId":2080124,"geonameid":4273857,"isoLanguage":"en","alternateName":"Kansas","isPreferredName":true,"isShortName":true,"isColloquial":false,"isHistoric":false}]},"__N_SSG":true}