{"pageProps":{"locale":"en","admin2":{"geonameid":4271771,"name":"Franklin County","country":"US","admin1":"KS","admin2":"059","admin3":"","latitude":"38.5645200","longitude":"-95.2859500"},"admin1":{"geonameid":4273857,"name":"Kansas","admin1":"KS","localeAltName":"Kansas"},"locations":[{"geonameid":4276816,"name":"Ottawa","admin3":"53550"},{"geonameid":4281412,"name":"Wellsville","admin3":"24375"}],"admin3":[{"geonameid":4267643,"name":"Township of Appanoose","admin3":"02075"},{"geonameid":4269373,"name":"Township of Centropolis","admin3":"12475"},{"geonameid":4270205,"name":"Township of Cutler","admin3":"16900"},{"geonameid":4271782,"name":"Township of Franklin","admin3":"24375"},{"geonameid":4272443,"name":"Township of Greenwood","admin3":"28750"},{"geonameid":4272685,"name":"Township of Harrison","admin3":"30300"},{"geonameid":4272775,"name":"Township of Hayes","admin3":"30925"},{"geonameid":4273142,"name":"Township of Homewood","admin3":"33000"},{"geonameid":4274500,"name":"Township of Lincoln","admin3":"40700"},{"geonameid":4276601,"name":"Township of Ohio","admin3":"52350"},{"geonameid":4276826,"name":"City of Ottawa","admin3":"53550"},{"geonameid":4276827,"name":"Township of Ottawa","admin3":"53575"},{"geonameid":4277126,"name":"Township of Peoria","admin3":"55425"},{"geonameid":4277560,"name":"Township of Pomona","admin3":"57025"},{"geonameid":4277614,"name":"Township of Pottawatomie","admin3":"57225"},{"geonameid":4278037,"name":"Township of Richmond","admin3":"59700"},{"geonameid":4281807,"name":"Township of Williamsburg","admin3":"79325"}],"alternateNames":[{"alternatenameId":2080124,"geonameid":4273857,"isoLanguage":"en","alternateName":"Kansas","isPreferredName":true,"isShortName":true,"isColloquial":false,"isHistoric":false}]},"__N_SSG":true}