{"pageProps":{"locale":"en","admin2":{"geonameid":4273980,"name":"Kingman County","country":"US","admin1":"KS","admin2":"095","admin3":"","latitude":"37.5588800","longitude":"-98.1363300"},"admin1":{"geonameid":4273857,"name":"Kansas","admin1":"KS","localeAltName":"Kansas"},"locations":[{"geonameid":4273978,"name":"Kingman","admin3":"36950"}],"admin3":[{"geonameid":4267504,"name":"Township of Allen","admin3":"01250"},{"geonameid":4268116,"name":"Township of Belmont","admin3":"05675"},{"geonameid":4268149,"name":"Township of Bennett","admin3":"06050"},{"geonameid":4269057,"name":"Township of Canton","admin3":"10450"},{"geonameid":4269521,"name":"Township of Chikaskia","admin3":"13125"},{"geonameid":4270217,"name":"Township of Dale","admin3":"16925"},{"geonameid":4270489,"name":"Township of Dresden","admin3":"18650"},{"geonameid":4270633,"name":"Township of Eagle","admin3":"19225"},{"geonameid":4271182,"name":"Township of Eureka","admin3":"21850"},{"geonameid":4271188,"name":"Township of Evan","admin3":"22000"},{"geonameid":4271908,"name":"Township of Galesburg","admin3":"25125"},{"geonameid":4273164,"name":"Township of Hoosier","admin3":"33050"},{"geonameid":4273986,"name":"City of Kingman","admin3":"36950"},{"geonameid":4273987,"name":"Township of Kingman","admin3":"36975"},{"geonameid":4274420,"name":"Township of Liberty","admin3":"40150"},{"geonameid":4276287,"name":"Township of Ninnescah","admin3":"50650"},{"geonameid":4277155,"name":"Township of Peters","admin3":"55550"},{"geonameid":4278027,"name":"Township of Richland","admin3":"59400"},{"geonameid":4278171,"name":"Township of Rochester","admin3":"60375"},{"geonameid":4278451,"name":"Township of Rural","admin3":"61725"},{"geonameid":4280845,"name":"Township of Union","admin3":"72175"},{"geonameid":4280941,"name":"Township of Valley","admin3":"72850"},{"geonameid":4281054,"name":"Township of Vinita","admin3":"73975"},{"geonameid":4281708,"name":"Township of White","admin3":"77775"}],"alternateNames":[{"alternatenameId":2080124,"geonameid":4273857,"isoLanguage":"en","alternateName":"Kansas","isPreferredName":true,"isShortName":true,"isColloquial":false,"isHistoric":false}]},"__N_SSG":true}