{"pageProps":{"locale":"en","admin2":{"geonameid":4275111,"name":"Marshall County","country":"US","admin1":"KS","admin2":"117","admin3":"","latitude":"39.7836200","longitude":"-96.5229400"},"admin1":{"geonameid":4273857,"name":"Kansas","admin1":"KS","localeAltName":"Kansas"},"locations":[{"geonameid":4275144,"name":"Marysville","admin3":"45050"}],"admin3":[{"geonameid":4267863,"name":"Township of Balderson","admin3":"03850"},{"geonameid":4268328,"name":"Township of Bigelow","admin3":"06725"},{"geonameid":4268456,"name":"Township of Blue Rapids City","admin3":"07700"},{"geonameid":4268457,"name":"Township of Blue Rapids","admin3":"07675"},{"geonameid":4269285,"name":"Township of Center","admin3":"11850"},{"geonameid":4269692,"name":"Township of Clear Fork","admin3":"13875"},{"geonameid":4269714,"name":"Township of Cleveland","admin3":"14100"},{"geonameid":4269972,"name":"Township of Cottage Hill","admin3":"15850"},{"geonameid":4270986,"name":"Township of Elm Creek","admin3":"20600"},{"geonameid":4271785,"name":"Township of Franklin","admin3":"24450"},{"geonameid":4272497,"name":"Township of Guittard","admin3":"29225"},{"geonameid":4272848,"name":"Township of Herkimer","admin3":"31450"},{"geonameid":4274503,"name":"Township of Lincoln","admin3":"40850"},{"geonameid":4274706,"name":"Township of Logan","admin3":"41975"},{"geonameid":4275149,"name":"City of Marysville","admin3":"45050"},{"geonameid":4275150,"name":"Township of Marysville","admin3":"45075"},{"geonameid":4276046,"name":"Township of Murray","admin3":"49275"},{"geonameid":4276300,"name":"Township of Noble","admin3":"50850"},{"geonameid":4276611,"name":"Township of Oketo","admin3":"52550"},{"geonameid":4278029,"name":"Township of Richland","admin3":"59450"},{"geonameid":4278240,"name":"Township of Rock","admin3":"60425"},{"geonameid":4278571,"name":"Township of Saint Bridget","admin3":"62100"},{"geonameid":4280986,"name":"Township of Vermillion","admin3":"73550"},{"geonameid":4281209,"name":"Township of Walnut","admin3":"75025"},{"geonameid":4281321,"name":"Township of Waterville","admin3":"75975"},{"geonameid":4281408,"name":"Township of Wells","admin3":"76525"}],"alternateNames":[{"alternatenameId":2080124,"geonameid":4273857,"isoLanguage":"en","alternateName":"Kansas","isPreferredName":true,"isShortName":true,"isColloquial":false,"isHistoric":false}]},"__N_SSG":true}