{"pageProps":{"locale":"en","admin2":{"geonameid":4275266,"name":"McPherson County","country":"US","admin1":"KS","admin2":"113","admin3":"","latitude":"38.3916700","longitude":"-97.6480800"},"admin1":{"geonameid":4273857,"name":"Kansas","admin1":"KS","localeAltName":"Kansas"},"locations":[{"geonameid":4273430,"name":"Inman","admin3":"69475"},{"geonameid":4274532,"name":"Lindsborg","admin3":"41375"},{"geonameid":4275261,"name":"McPherson","admin3":"43950"},{"geonameid":4275803,"name":"Moundridge","admin3":"48675"}],"admin3":[{"geonameid":4267970,"name":"Township of Battle Hill","admin3":"04550"},{"geonameid":4268530,"name":"Township of Bonaville","admin3":"07925"},{"geonameid":4269058,"name":"Township of Canton","admin3":"10500"},{"geonameid":4269136,"name":"Township of Castle","admin3":"10950"},{"geonameid":4270337,"name":"Township of Delmore","admin3":"17575"},{"geonameid":4271085,"name":"Township of Empire","admin3":"21200"},{"geonameid":4272487,"name":"Township of Groveland","admin3":"29150"},{"geonameid":4272511,"name":"Township of Gypsum Creek","admin3":"29325"},{"geonameid":4272669,"name":"Township of Harper","admin3":"30225"},{"geonameid":4272776,"name":"Township of Hayes","admin3":"30950"},{"geonameid":4273524,"name":"Township of Jackson","admin3":"34850"},{"geonameid":4273969,"name":"Township of King City","admin3":"36900"},{"geonameid":4274529,"name":"City of Lindsborg","admin3":"41375"},{"geonameid":4274660,"name":"Township of Little Valley","admin3":"41600"},{"geonameid":4274759,"name":"Township of Lone Tree","admin3":"42525"},{"geonameid":4275103,"name":"Township of Marquette","admin3":"44950"},{"geonameid":4275276,"name":"City of McPherson","admin3":"43950"},{"geonameid":4275277,"name":"Township of McPherson","admin3":"43975"},{"geonameid":4275391,"name":"Township of Meridian","admin3":"45975"},{"geonameid":4275800,"name":"Township of Mound","admin3":"48675"},{"geonameid":4276195,"name":"Township of New Gottland","admin3":"50350"},{"geonameid":4279498,"name":"Township of Smoky Hill","admin3":"66025"},{"geonameid":4279684,"name":"Township of South Sharps Creek","admin3":"67000"},{"geonameid":4279873,"name":"Township of Spring Valley","admin3":"67750"},{"geonameid":4280230,"name":"Township of Superior","admin3":"69475"},{"geonameid":4280712,"name":"Township of Turkey Creek","admin3":"71700"},{"geonameid":4280846,"name":"Township of Union","admin3":"72225"}],"alternateNames":[{"alternatenameId":2080124,"geonameid":4273857,"isoLanguage":"en","alternateName":"Kansas","isPreferredName":true,"isShortName":true,"isColloquial":false,"isHistoric":false}]},"__N_SSG":true}