{"pageProps":{"locale":"en","admin2":{"geonameid":5445955,"name":"Meade County","country":"US","admin1":"KS","admin2":"119","admin3":"","latitude":"37.2382000","longitude":"-100.3661800"},"admin1":{"geonameid":4273857,"name":"Kansas","admin1":"KS","localeAltName":"Kansas"},"locations":[{"geonameid":5445952,"name":"Meade","admin3":"45350"},{"geonameid":5446185,"name":"Plains","admin3":"77300"}],"admin3":[{"geonameid":5445178,"name":"Township of Cimarron","admin3":"13325"},{"geonameid":5445252,"name":"Township of Crooked Creek","admin3":"16450"},{"geonameid":5445424,"name":"Township of Fowler","admin3":"24200"},{"geonameid":5445864,"name":"Township of Logan","admin3":"42000"},{"geonameid":5445954,"name":"Township of Meade Center","admin3":"45350"},{"geonameid":5445972,"name":"Township of Mertilla","admin3":"46025"},{"geonameid":5446105,"name":"Township of Odee","admin3":"52075"},{"geonameid":5446400,"name":"Township of Sand Creek","admin3":"62925"},{"geonameid":5446751,"name":"Township of West Plains","admin3":"77300"}],"alternateNames":[{"alternatenameId":2080124,"geonameid":4273857,"isoLanguage":"en","alternateName":"Kansas","isPreferredName":true,"isShortName":true,"isColloquial":false,"isHistoric":false}]},"__N_SSG":true}