{"pageProps":{"locale":"en","admin2":{"geonameid":4278895,"name":"Saline County","country":"US","admin1":"KS","admin2":"169","admin3":"","latitude":"38.7838100","longitude":"-97.6499300"},"admin1":{"geonameid":4273857,"name":"Kansas","admin1":"KS","localeAltName":"Kansas"},"locations":[{"geonameid":4278890,"name":"Salina","admin3":"62700"}],"admin3":[{"geonameid":4268983,"name":"Township of Cambria","admin3":"10100"},{"geonameid":4270258,"name":"Township of Dayton","admin3":"17125"},{"geonameid":4270987,"name":"Township of Elm Creek","admin3":"20650"},{"geonameid":4271185,"name":"Township of Eureka","admin3":"21925"},{"geonameid":4271390,"name":"Township of Falun","admin3":"22925"},{"geonameid":4272105,"name":"Township of Glendale","admin3":"26475"},{"geonameid":4272355,"name":"Township of Greeley","admin3":"28375"},{"geonameid":4272514,"name":"Township of Gypsum","admin3":"29275"},{"geonameid":4274427,"name":"Township of Liberty","admin3":"40350"},{"geonameid":4276602,"name":"Township of Ohio","admin3":"52425"},{"geonameid":4277436,"name":"Township of Pleasant Valley","admin3":"56625"},{"geonameid":4278894,"name":"City of Salina","admin3":"62700"},{"geonameid":4279499,"name":"Township of Smoky Hill","admin3":"66050"},{"geonameid":4279501,"name":"Township of Smoky View","admin3":"66075"},{"geonameid":4279504,"name":"Township of Smolan","admin3":"66125"},{"geonameid":4279549,"name":"Township of Solomon","admin3":"66375"},{"geonameid":4279840,"name":"Township of Spring Creek","admin3":"67500"},{"geonameid":4281213,"name":"Township of Walnut","admin3":"75125"},{"geonameid":4281310,"name":"Township of Washington","admin3":"75725"}],"alternateNames":[{"alternatenameId":2080124,"geonameid":4273857,"isoLanguage":"en","alternateName":"Kansas","isPreferredName":true,"isShortName":true,"isColloquial":false,"isHistoric":false}]},"__N_SSG":true}