{"pageProps":{"locale":"en","admin2":{"geonameid":4279155,"name":"Sedgwick County","country":"US","admin1":"KS","admin2":"173","admin3":"","latitude":"37.6847600","longitude":"-97.4609700"},"admin1":{"geonameid":4273857,"name":"Kansas","admin1":"KS","localeAltName":"Kansas"},"locations":[{"geonameid":4268079,"name":"Bellaire","admin3":"05337"},{"geonameid":4269447,"name":"Cheney","admin3":"48550"},{"geonameid":4269690,"name":"Clearwater","admin3":"50725"},{"geonameid":4269847,"name":"Colwich","admin3":"72375"},{"geonameid":4270356,"name":"Derby","admin3":"60675"},{"geonameid":4272133,"name":"Goddard","admin3":"03125"},{"geonameid":4272788,"name":"Haysville","admin3":"60125"},{"geonameid":4273881,"name":"Kechi","admin3":"36250"},{"geonameid":4274980,"name":"Maize","admin3":"54425"},{"geonameid":7315256,"name":"McConnell AFB","admin3":"29300"},{"geonameid":4276974,"name":"Park City","admin3":"36250"},{"geonameid":4278742,"name":"Saint Marys","admin3":"25400"},{"geonameid":4280910,"name":"Valley Center","admin3":"73275"},{"geonameid":4281730,"name":"Wichita","admin3":"79000"}],"admin3":[{"geonameid":4267437,"name":"Township of Afton","admin3":"00425"},{"geonameid":4267763,"name":"Township of Attica","admin3":"03125"},{"geonameid":4268056,"name":"City of Bel Aire","admin3":"05337"},{"geonameid":4270316,"name":"Township of Delano","admin3":"17375"},{"geonameid":4270634,"name":"Township of Eagle","admin3":"19250"},{"geonameid":4271135,"name":"Township of Erie","admin3":"21550"},{"geonameid":4271927,"name":"Township of Garden Plain","admin3":"25400"},{"geonameid":4272252,"name":"Township of Grand River","admin3":"27300"},{"geonameid":4272319,"name":"Township of Grant","admin3":"28125"},{"geonameid":4272356,"name":"Township of Greeley","admin3":"28400"},{"geonameid":4272515,"name":"Township of Gypsum","admin3":"29300"},{"geonameid":4273339,"name":"Township of Illinois","admin3":"33775"},{"geonameid":4273884,"name":"Township of Kechi","admin3":"36250"},{"geonameid":4274513,"name":"Township of Lincoln","admin3":"41150"},{"geonameid":4275592,"name":"Township of Minneha","admin3":"47125"},{"geonameid":4275763,"name":"Township of Morton","admin3":"48550"},{"geonameid":4276289,"name":"Township of Ninnescah","admin3":"50725"},{"geonameid":4276603,"name":"Township of Ohio","admin3":"52450"},{"geonameid":4276986,"name":"Township of Park","admin3":"54425"},{"geonameid":4277077,"name":"Township of Payne","admin3":"55075"},{"geonameid":4278129,"name":"Township of Riverside","admin3":"60125"},{"geonameid":4278243,"name":"Township of Rockford","admin3":"60675"},{"geonameid":4278885,"name":"Township of Salem","admin3":"62675"},{"geonameid":4279313,"name":"Township of Sherman","admin3":"65100"},{"geonameid":4280851,"name":"Township of Union","admin3":"72375"},{"geonameid":4280914,"name":"Township of Valley Center","admin3":"73275"},{"geonameid":4281064,"name":"Township of Viola","admin3":"74050"},{"geonameid":4281094,"name":"Township of Waco","admin3":"74300"},{"geonameid":4281746,"name":"City of Wichita","admin3":"79000"}],"alternateNames":[{"alternatenameId":2080124,"geonameid":4273857,"isoLanguage":"en","alternateName":"Kansas","isPreferredName":true,"isShortName":true,"isColloquial":false,"isHistoric":false}]},"__N_SSG":true}