{"pageProps":{"locale":"en","admin2":{"geonameid":5026292,"name":"Faribault County","country":"US","admin1":"MN","admin2":"043","admin3":"","latitude":"43.6739300","longitude":"-93.9480000","localeAltName":null},"admin1":{"geonameid":5037779,"name":"Minnesota","admin1":"MN","localeAltName":"Minnesota"},"locations":[{"geonameid":5018751,"name":"Blue Earth","admin3":"06688","localeAltName":null},{"geonameid":5025599,"name":"Elmore","admin3":"18998","localeAltName":null},{"geonameid":5037717,"name":"Minnesota Lake","admin3":"43198","localeAltName":null},{"geonameid":5052239,"name":"Wells","admin3":"69106","localeAltName":null},{"geonameid":5053135,"name":"Winnebago","admin3":"70924","localeAltName":null}],"admin3":[{"geonameid":5017157,"name":"Township of Barber","admin3":"03520"},{"geonameid":5018754,"name":"Township of Blue Earth City","admin3":"06706"},{"geonameid":5018771,"name":"City of Blue Earth","admin3":"06688","localeAltName":null},{"geonameid":5019242,"name":"City of Bricelyn","admin3":"07678"},{"geonameid":5019498,"name":"Township of Brush Creek","admin3":"08380"},{"geonameid":5021401,"name":"Township of Clark","admin3":"11638"},{"geonameid":5024155,"name":"City of Delavan","admin3":"15472"},{"geonameid":5024156,"name":"Township of Delavan","admin3":"15490"},{"geonameid":5024752,"name":"Township of Dunbar","admin3":"17108"},{"geonameid":5025132,"name":"City of Easton","admin3":"17738"},{"geonameid":5025604,"name":"City of Elmore","admin3":"18998","localeAltName":null},{"geonameid":5025605,"name":"Township of Elmore","admin3":"19016"},{"geonameid":5025672,"name":"Township of Emerald","admin3":"19268"},{"geonameid":5027204,"name":"Township of Foster","admin3":"22076"},{"geonameid":5027544,"name":"City of Frost","admin3":"22940"},{"geonameid":5031947,"name":"Township of Jo Daviess","admin3":"31976"},{"geonameid":5033198,"name":"City of Kiester","admin3":"33056"},{"geonameid":5033199,"name":"Township of Kiester","admin3":"33074"},{"geonameid":5036030,"name":"Township of Lura","admin3":"38528"},{"geonameid":5037721,"name":"City of Minnesota Lake","admin3":"43198","localeAltName":null},{"geonameid":5037722,"name":"Township of Minnesota Lake","admin3":"43216"},{"geonameid":5041506,"name":"Township of Pilot Grove","admin3":"50974"},{"geonameid":5042326,"name":"Township of Prescott","admin3":"52432"},{"geonameid":5043650,"name":"Township of Rome","admin3":"55348"},{"geonameid":5046863,"name":"Township of Seely","admin3":"59206"},{"geonameid":5051345,"name":"Township of Verona","admin3":"66946"},{"geonameid":5051775,"name":"Township of Walnut Lake","admin3":"67864"},{"geonameid":5051790,"name":"City of Walters","admin3":"67900"},{"geonameid":5052254,"name":"City of Wells","admin3":"69106","localeAltName":null},{"geonameid":5053138,"name":"Township of Winnebago City","admin3":"70978"},{"geonameid":5053145,"name":"City of Winnebago","admin3":"70924","localeAltName":null}],"alternateNames":[{"alternatenameId":2089541,"geonameid":5037779,"isoLanguage":"en","alternateName":"Minnesota","isPreferredName":true,"isShortName":true,"isColloquial":false,"isHistoric":false}]},"__N_SSG":true}