{"pageProps":{"locale":"de","admin2":{"geonameid":6458825,"name":"Boudry District","country":"CH","admin1":"NE","admin2":"2401","admin3":"","latitude":"46.9459400","longitude":"6.8284200"},"admin1":{"geonameid":2659495,"name":"Neuchâtel","admin1":"NE"},"locations":[{"geonameid":2661664,"name":"Auvernier","admin3":"6416"},{"geonameid":2661531,"name":"Bevaix","admin3":"6417"},{"geonameid":2661429,"name":"Boudry","admin3":"6404"},{"geonameid":2661378,"name":"Brot-Dessous","admin3":"6413"},{"geonameid":2661143,"name":"Colombier","admin3":"6416"},{"geonameid":2661110,"name":"Cortaillod","admin3":"6408"},{"geonameid":2660557,"name":"Gorgier","admin3":"6417"},{"geonameid":2658880,"name":"Saint-Aubin-Sauges","admin3":"6417"}],"admin3":[{"geonameid":7285308,"name":"Boudry","admin3":"6404"},{"geonameid":7285568,"name":"Cortaillod","admin3":"6408"},{"geonameid":7286921,"name":"Rochefort","admin3":"6413"},{"geonameid":8740958,"name":"Milvignes","admin3":"6416"},{"geonameid":11980172,"name":"La Grande Béroche","admin3":"6417"}],"alternateNames":[]},"__N_SSG":true}