{"pageProps":{"locale":"en","admin2":{"geonameid":12022128,"name":"Altena","country":"NL","admin1":"06","admin2":"1959","admin3":"","latitude":"51.7656400","longitude":"4.9459200"},"admin1":{"geonameid":2749990,"name":"Provincie Noord-Brabant","admin1":"06"},"locations":[{"geonameid":2760144,"name":"Aalburg","admin3":""},{"geonameid":2759878,"name":"Almkerk","admin3":""},{"geonameid":2750453,"name":"Andel","admin3":""},{"geonameid":2759526,"name":"BabyloniÃ«nbroek","admin3":""},{"geonameid":6544830,"name":"Bronkhorst","admin3":""},{"geonameid":2758045,"name":"Buurtje","admin3":""},{"geonameid":2757814,"name":"De Baan","admin3":""},{"geonameid":6544851,"name":"De Hoef","admin3":""},{"geonameid":2756945,"name":"De Werken","admin3":""},{"geonameid":2756562,"name":"Drongelen","admin3":""},{"geonameid":2756496,"name":"Duizend Morgen","admin3":""},{"geonameid":2756483,"name":"Dussen","admin3":""},{"geonameid":2756318,"name":"Eethen","admin3":""},{"geonameid":2756121,"name":"Emmikhoven","admin3":""},{"geonameid":2755745,"name":"Gantelwijk","admin3":""},{"geonameid":2755601,"name":"Genderen","admin3":""},{"geonameid":2755535,"name":"Giessen","admin3":""},{"geonameid":2754956,"name":"Hagoord","admin3":""},{"geonameid":2754888,"name":"Hank","admin3":""},{"geonameid":2754210,"name":"Het Slot","admin3":""},{"geonameid":2754075,"name":"Hill","admin3":""},{"geonameid":2754023,"name":"Hoekeinde","admin3":""},{"geonameid":6544821,"name":"Kerkeinde","admin3":""},{"geonameid":2752832,"name":"Kille","admin3":""},{"geonameid":2752426,"name":"Korn","admin3":""},{"geonameid":2751021,"name":"Meeuwen","admin3":""},{"geonameid":6544822,"name":"Moleneind","admin3":""},{"geonameid":2750285,"name":"Nieuwendijk","admin3":""},{"geonameid":2749314,"name":"Op-Andel","admin3":""},{"geonameid":2749048,"name":"Oudendijk","admin3":""},{"geonameid":2748650,"name":"Peerenboom","admin3":""},{"geonameid":2748155,"name":"Rietdijk","admin3":""},{"geonameid":2748078,"name":"Rijswijk","admin3":""},{"geonameid":2747688,"name":"Schans","admin3":""},{"geonameid":2747178,"name":"Sleeuwijk","admin3":""},{"geonameid":2746939,"name":"Spijk","admin3":""},{"geonameid":2746737,"name":"Stenenheul","admin3":""},{"geonameid":2746719,"name":"Steurgat","admin3":""},{"geonameid":2746034,"name":"t Zand","admin3":""},{"geonameid":2745957,"name":"Uitwijk","admin3":""},{"geonameid":6544817,"name":"Uppel","admin3":""},{"geonameid":2745784,"name":"Veen","admin3":""},{"geonameid":2745572,"name":"Vierbannen","admin3":""},{"geonameid":2745543,"name":"Vijcie","admin3":""},{"geonameid":2745111,"name":"Waardhuizen","admin3":""},{"geonameid":2744827,"name":"Werkendam","admin3":""},{"geonameid":2744487,"name":"Wijk","admin3":""},{"geonameid":2744156,"name":"Woudrichem","admin3":""},{"geonameid":2744033,"name":"Zandwijk","admin3":""}],"admin3":[],"alternateNames":[{"alternatenameId":11907788,"geonameid":2749990,"isoLanguage":"de","alternateName":"Nordbrabant","isPreferredName":true,"isShortName":true,"isColloquial":false,"isHistoric":false}]},"__N_SSG":true}