{"pageProps":{"locale":"en","admin2":{"geonameid":2749779,"name":"Gemeente Nuenen, Gerwen en Nederwetten","country":"NL","admin1":"06","admin2":"0820","admin3":"","latitude":"51.4666700","longitude":"5.5333300"},"admin1":{"geonameid":2749990,"name":"Provincie Noord-Brabant","admin1":"06"},"locations":[{"geonameid":2759852,"name":"Alvershool","admin3":""},{"geonameid":2758634,"name":"Boord","admin3":""},{"geonameid":2756363,"name":"Eeneind","admin3":""},{"geonameid":2755564,"name":"Gerwen","admin3":""},{"geonameid":2754675,"name":"Heerendonk","admin3":""},{"geonameid":2753647,"name":"Hool","admin3":""},{"geonameid":2752082,"name":"Laar","admin3":""},{"geonameid":6544839,"name":"Langlaar","admin3":""},{"geonameid":2750464,"name":"Nederwetten","admin3":""},{"geonameid":2750334,"name":"Nieuwe Dijk","admin3":""},{"geonameid":2749780,"name":"Nuenen","admin3":""},{"geonameid":2749273,"name":"Opwetten","admin3":""},{"geonameid":2748275,"name":"Refeling","admin3":""},{"geonameid":2747813,"name":"Rullen","admin3":""},{"geonameid":2746954,"name":"Spekt","admin3":""},{"geonameid":2746854,"name":"Stad van Gerwen","admin3":""},{"geonameid":6544818,"name":"Vaarle","admin3":""}],"admin3":[],"alternateNames":[{"alternatenameId":11907788,"geonameid":2749990,"isoLanguage":"de","alternateName":"Nordbrabant","isPreferredName":true,"isShortName":true,"isColloquial":false,"isHistoric":false}]},"__N_SSG":true}