{"pageProps":{"locale":"en","admin2":{"geonameid":6544279,"name":"Gemeente Gemert-Bakel","country":"NL","admin1":"06","admin2":"1652","admin3":"","latitude":"51.5255400","longitude":"5.7280200"},"admin1":{"geonameid":2749990,"name":"Provincie Noord-Brabant","admin1":"06"},"locations":[{"geonameid":2759511,"name":"Bakel","admin3":""},{"geonameid":2759507,"name":"Bakelsebrug","admin3":""},{"geonameid":2759438,"name":"Bankert","admin3":""},{"geonameid":2759179,"name":"Benthem","admin3":""},{"geonameid":2758753,"name":"Boekend","admin3":""},{"geonameid":2750600,"name":"De Mortel","admin3":""},{"geonameid":2748049,"name":"De Rips","admin3":""},{"geonameid":2756931,"name":"De Wind","admin3":""},{"geonameid":2757662,"name":"Deelse Kampen","admin3":""},{"geonameid":2756688,"name":"Doonheide","admin3":""},{"geonameid":2756178,"name":"Elsendorp","admin3":""},{"geonameid":2756023,"name":"Esdonk","admin3":""},{"geonameid":2756020,"name":"Esp","admin3":""},{"geonameid":2755605,"name":"Gemert","admin3":""},{"geonameid":2755592,"name":"Geneneind","admin3":""},{"geonameid":2755268,"name":"Groeskuilen","admin3":""},{"geonameid":2755072,"name":"Grotel","admin3":""},{"geonameid":2754897,"name":"Handel","admin3":""},{"geonameid":6544743,"name":"Heidveld","admin3":""},{"geonameid":2754080,"name":"Hilakker","admin3":""},{"geonameid":2753983,"name":"Hoeven","admin3":""},{"geonameid":2753735,"name":"Hoogen-Aarle","admin3":""},{"geonameid":2753236,"name":"Jodenpeel","admin3":""},{"geonameid":2753001,"name":"Kaweide","admin3":""},{"geonameid":2752819,"name":"Kivitsbraak","admin3":""},{"geonameid":2752794,"name":"Klef","admin3":""},{"geonameid":2752541,"name":"Koks","admin3":""},{"geonameid":6544731,"name":"Kuundert","admin3":""},{"geonameid":2751094,"name":"Mathijseind","admin3":""},{"geonameid":2750803,"name":"Milheeze","admin3":""},{"geonameid":2750794,"name":"Milschot","admin3":""},{"geonameid":2750720,"name":"Molenbroek","admin3":""},{"geonameid":6544740,"name":"Muizenhol","admin3":""},{"geonameid":2750439,"name":"Neerstraat","admin3":""},{"geonameid":2749778,"name":"Nuijeneind","admin3":""},{"geonameid":2748823,"name":"Overschot","admin3":""},{"geonameid":2748748,"name":"Pandelaarse Kampen","admin3":""},{"geonameid":2748309,"name":"Ravensgat","admin3":""},{"geonameid":2748243,"name":"Ren","admin3":""},{"geonameid":6544749,"name":"Rootvlaas","admin3":""},{"geonameid":2747469,"name":"Schouw","admin3":""},{"geonameid":2747424,"name":"Schutsboom","admin3":""},{"geonameid":2746461,"name":"Tereyken","admin3":""},{"geonameid":2745656,"name":"Ven","admin3":""},{"geonameid":2745597,"name":"Verreheide","admin3":""},{"geonameid":2745229,"name":"Vossenberg","admin3":""},{"geonameid":2744209,"name":"Wolfsbosch","admin3":""},{"geonameid":2744111,"name":"Zaarvlaas","admin3":""},{"geonameid":2744100,"name":"Zand","admin3":""}],"admin3":[],"alternateNames":[{"alternatenameId":11907788,"geonameid":2749990,"isoLanguage":"de","alternateName":"Nordbrabant","isPreferredName":true,"isShortName":true,"isColloquial":false,"isHistoric":false}]},"__N_SSG":true}