{"pageProps":{"locale":"en","admin2":{"geonameid":2756341,"name":"Gemeente Eersel","country":"NL","admin1":"06","admin2":"0770","admin3":"","latitude":"51.3957900","longitude":"5.3195600"},"admin1":{"geonameid":2749990,"name":"Provincie Noord-Brabant","admin1":"06"},"locations":[{"geonameid":2758943,"name":"Bijsterveld","admin3":""},{"geonameid":2758703,"name":"Boksheide","admin3":""},{"geonameid":2757573,"name":"De Hees","admin3":""},{"geonameid":2757541,"name":"De Hoef","admin3":""},{"geonameid":2756707,"name":"Donk","admin3":""},{"geonameid":2756600,"name":"Driehuis","admin3":""},{"geonameid":2756597,"name":"Driehuizen","admin3":""},{"geonameid":2756500,"name":"Duizel","admin3":""},{"geonameid":2756342,"name":"Eersel","admin3":""},{"geonameid":6954213,"name":"Groenstraat","admin3":""},{"geonameid":6544866,"name":"Het Heike","admin3":""},{"geonameid":2754024,"name":"Hoekdries","admin3":""},{"geonameid":6544815,"name":"Hoogstraat","admin3":""},{"geonameid":2752591,"name":"Knegsel","admin3":""},{"geonameid":2752285,"name":"Kreielt","admin3":""},{"geonameid":2751290,"name":"Maaskant","admin3":""},{"geonameid":2751057,"name":"Meer","admin3":""},{"geonameid":2751028,"name":"Meerven","admin3":""},{"geonameid":2750654,"name":"Molenveld","admin3":""},{"geonameid":2750594,"name":"Mosik","admin3":""},{"geonameid":2750578,"name":"Mostheuvel","admin3":""},{"geonameid":2748134,"name":"Rietven","admin3":""},{"geonameid":2747731,"name":"Schadewijk","admin3":""},{"geonameid":2747611,"name":"Scherpenering","admin3":""},{"geonameid":2747058,"name":"Sneidershoek","admin3":""},{"geonameid":2746773,"name":"Steensel","admin3":""},{"geonameid":2746712,"name":"Stevert","admin3":""},{"geonameid":2746676,"name":"Stokkelen","admin3":""},{"geonameid":2745651,"name":"Veneind","admin3":""},{"geonameid":2745589,"name":"Vessem","admin3":""},{"geonameid":2744333,"name":"Wintelre","admin3":""},{"geonameid":2744208,"name":"Wolfshoek","admin3":""}],"admin3":[],"alternateNames":[{"alternatenameId":11907788,"geonameid":2749990,"isoLanguage":"de","alternateName":"Nordbrabant","isPreferredName":true,"isShortName":true,"isColloquial":false,"isHistoric":false}]},"__N_SSG":true}