{"pageProps":{"locale":"en","admin2":{"geonameid":2759619,"name":"Gemeente Asten","country":"NL","admin1":"06","admin2":"0743","admin3":"","latitude":"51.3923100","longitude":"5.7791000"},"admin1":{"geonameid":2749990,"name":"Provincie Noord-Brabant","admin1":"06"},"locations":[{"geonameid":2760046,"name":"Achterbosch","admin3":""},{"geonameid":2760011,"name":"Achterste Diesdonk","admin3":""},{"geonameid":2759621,"name":"Asten","admin3":""},{"geonameid":2759274,"name":"Behelp","admin3":""},{"geonameid":2758068,"name":"Bussel","admin3":""},{"geonameid":2757804,"name":"De Beek","admin3":""},{"geonameid":2757789,"name":"De Berken","admin3":""},{"geonameid":2756844,"name":"Dijk","admin3":""},{"geonameid":2754136,"name":"Heusden","admin3":""},{"geonameid":2752075,"name":"Laarbroek","admin3":""},{"geonameid":2749617,"name":"Ommel","admin3":""},{"geonameid":2749614,"name":"Ommelschebosch","admin3":""},{"geonameid":2749548,"name":"Oostappen","admin3":""},{"geonameid":2748054,"name":"Rinkveld","admin3":""},{"geonameid":2746757,"name":"Stegen","admin3":""},{"geonameid":2745317,"name":"Voordeldonk","admin3":""},{"geonameid":2745290,"name":"Voorste Diesdonk","admin3":""},{"geonameid":2745234,"name":"Vosselen","admin3":""},{"geonameid":2744211,"name":"Wolfsberg","admin3":""}],"admin3":[],"alternateNames":[{"alternatenameId":11907788,"geonameid":2749990,"isoLanguage":"de","alternateName":"Nordbrabant","isPreferredName":true,"isShortName":true,"isColloquial":false,"isHistoric":false}]},"__N_SSG":true}