{"pageProps":{"locale":"en","admin2":{"geonameid":2745859,"name":"Gemeente Valkenswaard","country":"NL","admin1":"06","admin2":"0858","admin3":"","latitude":"51.3257500","longitude":"5.4532300"},"admin1":{"geonameid":2749990,"name":"Provincie Noord-Brabant","admin1":"06"},"locations":[{"geonameid":2760013,"name":"Achterste Brug","admin3":""},{"geonameid":2758604,"name":"Borkel","admin3":""},{"geonameid":2757464,"name":"De Kapel","admin3":""},{"geonameid":2757661,"name":"Deelshurk","admin3":""},{"geonameid":2756739,"name":"Dommelen","admin3":""},{"geonameid":2755685,"name":"Geenhoven","admin3":""},{"geonameid":6544868,"name":"Hoek","admin3":""},{"geonameid":2753990,"name":"Hoeve","admin3":""},{"geonameid":2752990,"name":"Keersop","admin3":""},{"geonameid":2752784,"name":"Klein Borkel","admin3":""},{"geonameid":2747721,"name":"Schaft","admin3":""},{"geonameid":2745860,"name":"Valkenswaard","admin3":""},{"geonameid":2745292,"name":"Voorste Brug","admin3":""},{"geonameid":2744008,"name":"Zeelberg","admin3":""}],"admin3":[],"alternateNames":[{"alternatenameId":11907788,"geonameid":2749990,"isoLanguage":"de","alternateName":"Nordbrabant","isPreferredName":true,"isShortName":true,"isColloquial":false,"isHistoric":false}]},"__N_SSG":true}