{"pageProps":{"locale":"en","admin2":{"geonameid":5197522,"name":"Lebanon County","country":"US","admin1":"PA","admin2":"075","admin3":"","latitude":"40.3672300","longitude":"-76.4577100","localeAltName":null},"admin1":{"geonameid":6254927,"name":"Pennsylvania","admin1":"PA","localeAltName":"Pennsylvania"},"locations":[{"geonameid":5178351,"name":"Annville","admin3":"02600","localeAltName":null},{"geonameid":5178743,"name":"Avon","admin3":"72288","localeAltName":null},{"geonameid":5183096,"name":"Campbelltown","admin3":"72296","localeAltName":null},{"geonameid":5184584,"name":"Cleona","admin3":"14160","localeAltName":null},{"geonameid":5185465,"name":"Cornwall","admin3":"16256","localeAltName":null},{"geonameid":5190438,"name":"Fredericksburg","admin3":"06040","localeAltName":null},{"geonameid":5193056,"name":"Hebron","admin3":"72288","localeAltName":null},{"geonameid":5195606,"name":"Jonestown","admin3":"38400","localeAltName":null},{"geonameid":5197517,"name":"Lebanon","admin3":"42168","localeAltName":null},{"geonameid":7258847,"name":"Lebanon South","admin3":"72288","localeAltName":null},{"geonameid":5202820,"name":"Myerstown","admin3":"52488","localeAltName":null},{"geonameid":5203311,"name":"Newmanstown","admin3":"49560","localeAltName":null},{"geonameid":5204964,"name":"Palmyra","admin3":"57720","localeAltName":null},{"geonameid":5206487,"name":"Pleasant Hill","admin3":"54928","localeAltName":null},{"geonameid":5207440,"name":"Quentin","admin3":"82752","localeAltName":null},{"geonameid":5208177,"name":"Richland","admin3":"64560","localeAltName":null},{"geonameid":5208805,"name":"Rockwood","admin3":"55160","localeAltName":null},{"geonameid":5210779,"name":"Sand Hill","admin3":"55160","localeAltName":null},{"geonameid":5211072,"name":"Schaefferstown","admin3":"33608","localeAltName":null}],"admin3":[{"geonameid":5178353,"name":"Township of Annville","admin3":"02600","localeAltName":null},{"geonameid":5180212,"name":"Township of Bethel","admin3":"06040","localeAltName":null},{"geonameid":5184586,"name":"Borough of Cleona","admin3":"14160","localeAltName":null},{"geonameid":5184889,"name":"Township of Cold Spring","admin3":"14944"},{"geonameid":5185474,"name":"Borough of Cornwall","admin3":"16256","localeAltName":null},{"geonameid":5187934,"name":"Township of East Hanover","admin3":"21224"},{"geonameid":5193107,"name":"Township of Heidelberg","admin3":"33608","localeAltName":null},{"geonameid":5195166,"name":"Township of Jackson","admin3":"37392"},{"geonameid":5195610,"name":"Borough of Jonestown","admin3":"38400","localeAltName":null},{"geonameid":5197536,"name":"City of Lebanon","admin3":"42168","localeAltName":null},{"geonameid":5201315,"name":"Township of Millcreek","admin3":"49560","localeAltName":null},{"geonameid":5202156,"name":"Borough of Mount Gretna","admin3":"51568"},{"geonameid":5202824,"name":"Borough of Myerstown","admin3":"52488","localeAltName":null},{"geonameid":5203518,"name":"Township of North Annville","admin3":"54720"},{"geonameid":5203615,"name":"Township of North Cornwall","admin3":"54928","localeAltName":null},{"geonameid":5203702,"name":"Township of North Lebanon","admin3":"55160","localeAltName":null},{"geonameid":5203706,"name":"Township of North Londonderry","admin3":"55176"},{"geonameid":5204968,"name":"Borough of Palmyra","admin3":"57720","localeAltName":null},{"geonameid":5208192,"name":"Borough of Richland","admin3":"64560","localeAltName":null},{"geonameid":5212910,"name":"Township of South Annville","admin3":"71928"},{"geonameid":5213051,"name":"Township of South Lebanon","admin3":"72288","localeAltName":null},{"geonameid":5213052,"name":"Township of South Londonderry","admin3":"72296","localeAltName":null},{"geonameid":5215009,"name":"Township of Swatara","admin3":"75680"},{"geonameid":5216710,"name":"Township of Union","admin3":"78376"},{"geonameid":5218656,"name":"Township of West Cornwall","admin3":"82752","localeAltName":null},{"geonameid":5218772,"name":"Township of West Lebanon","admin3":"83312"}],"alternateNames":[{"alternatenameId":2186547,"geonameid":6254927,"isoLanguage":"en","alternateName":"Pennsylvania","isPreferredName":true,"isShortName":true,"isColloquial":false,"isHistoric":false}]},"__N_SSG":true}