{"pageProps":{"locale":"en","admin2":{"geonameid":4100581,"name":"Baxter County","country":"US","admin1":"AR","admin2":"005","admin3":"","latitude":"36.2871900","longitude":"-92.3369700"},"admin1":{"geonameid":4099753,"name":"Arkansas","admin1":"AR","localeAltName":"Arkansas"},"locations":[{"geonameid":4112110,"name":"Gassville","admin3":"94035"},{"geonameid":4121436,"name":"Midway","admin3":"91818"},{"geonameid":4123037,"name":"Mountain Home","admin3":"92616"}],"admin3":[{"geonameid":4100643,"name":"Township of Bayou","admin3":"90165"},{"geonameid":4101763,"name":"Township of Big Flat","admin3":"90288"},{"geonameid":4103548,"name":"Township of Buckhorn","admin3":"90525"},{"geonameid":4103652,"name":"Township of Buford","admin3":"90540"},{"geonameid":4113163,"name":"Township of Greenwood","admin3":"91524"},{"geonameid":4113258,"name":"Township of Grover","admin3":"91548"},{"geonameid":4115854,"name":"Township of Independence","admin3":"91818"},{"geonameid":4119599,"name":"Township of Logan","admin3":"92247"},{"geonameid":4119667,"name":"Township of Lone Rock","admin3":"92265"},{"geonameid":4120766,"name":"Township of Matney","admin3":"92424"},{"geonameid":4121656,"name":"Township of Mill","admin3":"92460"},{"geonameid":4122960,"name":"Township of Mountain Home","admin3":"92616"},{"geonameid":4124081,"name":"Township of North Fork","admin3":"92709"},{"geonameid":4126104,"name":"Township of Pigeon","admin3":"92877"},{"geonameid":4134447,"name":"Township of Union","admin3":"93669"},{"geonameid":4136355,"name":"Township of Whiteville","admin3":"94035"}],"alternateNames":[{"alternatenameId":1979420,"geonameid":4099753,"isoLanguage":"en","alternateName":"Arkansas","isPreferredName":true,"isShortName":true,"isColloquial":false,"isHistoric":false}]},"__N_SSG":true}