{"pageProps":{"locale":"en","admin2":{"geonameid":4106032,"name":"Cleveland County","country":"US","admin1":"AR","admin2":"025","admin3":"","latitude":"33.8983600","longitude":"-92.1851400"},"admin1":{"geonameid":4099753,"name":"Arkansas","admin1":"AR","localeAltName":"Arkansas"},"locations":[{"geonameid":4128469,"name":"Rison","admin3":"93183"}],"admin3":[{"geonameid":4102716,"name":"Township of Bowman","admin3":"90438"},{"geonameid":4113873,"name":"Township of Harper","admin3":"91611"},{"geonameid":4115545,"name":"Township of Hudgin","admin3":"91785"},{"geonameid":4115737,"name":"Township of Hurricane","admin3":"91800"},{"geonameid":4117558,"name":"Township of Kingsland","admin3":"92049"},{"geonameid":4118614,"name":"Township of Lee","admin3":"92136"},{"geonameid":4121712,"name":"Township of Miller","admin3":"92493"},{"geonameid":4123924,"name":"Township of Niven","admin3":"92691"},{"geonameid":4128110,"name":"Township of Redland","admin3":"93069"},{"geonameid":4128472,"name":"Township of Rison","admin3":"93183"},{"geonameid":4129260,"name":"Township of Rowell","admin3":"93243"},{"geonameid":4130050,"name":"Township of Saline","admin3":"93297"},{"geonameid":4131500,"name":"Township of Smith","admin3":"93405"},{"geonameid":4136260,"name":"Township of White Oak","admin3":"94002"},{"geonameid":4136356,"name":"Township of Whiteville","admin3":"94038"}],"alternateNames":[{"alternatenameId":1979420,"geonameid":4099753,"isoLanguage":"en","alternateName":"Arkansas","isPreferredName":true,"isShortName":true,"isColloquial":false,"isHistoric":false}]},"__N_SSG":true}