{"pageProps":{"locale":"en","admin2":{"geonameid":4111593,"name":"Franklin County","country":"US","admin1":"AR","admin2":"047","admin3":"","latitude":"35.5123500","longitude":"-93.8906200"},"admin1":{"geonameid":4099753,"name":"Arkansas","admin1":"AR","localeAltName":"Arkansas"},"locations":[{"geonameid":4105377,"name":"Charleston","admin3":"92988"},{"geonameid":4125181,"name":"Ozark","admin3":"94005"}],"admin3":[{"geonameid":4099229,"name":"Township of Alix","admin3":"90021"},{"geonameid":4100328,"name":"Township of Barham","admin3":"90111"},{"geonameid":4102080,"name":"Township of Black Oak","admin3":"90336"},{"geonameid":4102658,"name":"Township of Boston","admin3":"90411"},{"geonameid":4106139,"name":"Township of Cobb","admin3":"90885"},{"geonameid":4107044,"name":"Township of Cravens","admin3":"90954"},{"geonameid":4108848,"name":"Township of Donald","admin3":"91123"},{"geonameid":4113259,"name":"Township of Grover","admin3":"91551"},{"geonameid":4114883,"name":"Township of Hogan","admin3":"91740"},{"geonameid":4115738,"name":"Township of Hurricane","admin3":"91803"},{"geonameid":4116175,"name":"Township of Ivy","admin3":"91845"},{"geonameid":4118979,"name":"Township of Limestone","admin3":"92205"},{"geonameid":4121095,"name":"Township of McIlroy","admin3":"92316"},{"geonameid":4121420,"name":"Township of Middle","admin3":"92454"},{"geonameid":4121618,"name":"Township of Mill Creek","admin3":"92472"},{"geonameid":4121713,"name":"Township of Miller","admin3":"92496"},{"geonameid":4122156,"name":"Township of Morgan","admin3":"92559"},{"geonameid":4123010,"name":"Township of Mountain","admin3":"92592"},{"geonameid":4123130,"name":"Township of Mulberry","admin3":"92649"},{"geonameid":4127400,"name":"Township of Prairie","admin3":"92988"},{"geonameid":4131026,"name":"Township of Shores","admin3":"93369"},{"geonameid":4131221,"name":"Township of Six Mile","admin3":"93387"},{"geonameid":4135071,"name":"Township of Walker","admin3":"93828"},{"geonameid":4135102,"name":"Township of Wallace","admin3":"93840"},{"geonameid":4135438,"name":"Township of Watalula","admin3":"93936"},{"geonameid":4135565,"name":"Township of Weaver","admin3":"93954"},{"geonameid":4136261,"name":"Township of White Oak","admin3":"94005"},{"geonameid":4136294,"name":"Township of White Rock","admin3":"94032"},{"geonameid":4136868,"name":"Township of Wittich","admin3":"94107"}],"alternateNames":[{"alternatenameId":1979420,"geonameid":4099753,"isoLanguage":"en","alternateName":"Arkansas","isPreferredName":true,"isShortName":true,"isColloquial":false,"isHistoric":false}]},"__N_SSG":true}