{"pageProps":{"locale":"en","admin2":{"geonameid":4111857,"name":"Fulton County","country":"US","admin1":"AR","admin2":"049","admin3":"","latitude":"36.3816700","longitude":"-91.8182400"},"admin1":{"geonameid":4099753,"name":"Arkansas","admin1":"AR","localeAltName":"Arkansas"},"locations":[{"geonameid":4129962,"name":"Salem","admin3":"90243"}],"admin3":[{"geonameid":4099124,"name":"Township of Afton","admin3":"90006"},{"geonameid":4101259,"name":"Township of Benton","admin3":"90243"},{"geonameid":4101729,"name":"Township of Big Creek","admin3":"90258"},{"geonameid":4106039,"name":"Township of Cleveland","admin3":"90855"},{"geonameid":4111866,"name":"Township of Fulton","admin3":"91392"},{"geonameid":4120402,"name":"Township of Mammoth Spring","admin3":"92361"},{"geonameid":4122359,"name":"Township of Mount Calm","admin3":"92619"},{"geonameid":4123242,"name":"Township of Myatt","admin3":"92658"},{"geonameid":4126811,"name":"Township of Pleasant Ridge","admin3":"92922"},{"geonameid":4131720,"name":"Township of South Fork","admin3":"93429"},{"geonameid":4132573,"name":"Township of Strawberry","admin3":"93498"},{"geonameid":4134451,"name":"Township of Union","admin3":"93681"},{"geonameid":4134828,"name":"Township of Vidette","admin3":"93798"},{"geonameid":4135414,"name":"Township of Washington","admin3":"93909"},{"geonameid":4136758,"name":"Township of Wilson","admin3":"94086"}],"alternateNames":[{"alternatenameId":1979420,"geonameid":4099753,"isoLanguage":"en","alternateName":"Arkansas","isPreferredName":true,"isShortName":true,"isColloquial":false,"isHistoric":false}]},"__N_SSG":true}