{"pageProps":{"locale":"en","admin2":{"geonameid":4118984,"name":"Lincoln County","country":"US","admin1":"AR","admin2":"079","admin3":"","latitude":"33.9574700","longitude":"-91.7333200"},"admin1":{"geonameid":4099753,"name":"Arkansas","admin1":"AR","localeAltName":"Arkansas"},"locations":[{"geonameid":4132227,"name":"Star City","admin3":"90639"}],"admin3":[{"geonameid":4099947,"name":"Township of Auburn","admin3":"90075"},{"geonameid":4100442,"name":"Township of Bartholomew","admin3":"90135"},{"geonameid":4104379,"name":"Township of Cane Creek","admin3":"90639"},{"geonameid":4105585,"name":"Township of Choctaw","admin3":"90786"},{"geonameid":4112665,"name":"Township of Gould","admin3":"91488"},{"geonameid":4117449,"name":"Township of Kimbrough","admin3":"92043"},{"geonameid":4119662,"name":"Township of Lone Pine","admin3":"92262"},{"geonameid":4121620,"name":"Township of Mill Creek","admin3":"92478"},{"geonameid":4125127,"name":"Township of Owen","admin3":"92793"},{"geonameid":4131503,"name":"Township of Smith","admin3":"93414"},{"geonameid":4132091,"name":"Township of Spring","admin3":"93453"},{"geonameid":4135653,"name":"Township of Wells Bayou","admin3":"93963"}],"alternateNames":[{"alternatenameId":1979420,"geonameid":4099753,"isoLanguage":"en","alternateName":"Arkansas","isPreferredName":true,"isShortName":true,"isColloquial":false,"isHistoric":false}]},"__N_SSG":true}