{"pageProps":{"locale":"en","admin2":{"geonameid":4119581,"name":"Logan County","country":"US","admin1":"AR","admin2":"083","admin3":"","latitude":"35.2152700","longitude":"-93.7163100"},"admin1":{"geonameid":4099753,"name":"Arkansas","admin1":"AR","localeAltName":"Arkansas"},"locations":[{"geonameid":4102622,"name":"Booneville","admin3":"90405"},{"geonameid":4125402,"name":"Paris","admin3":"93372"}],"admin3":[{"geonameid":4100300,"name":"Township of Barber","admin3":"90108"},{"geonameid":4102345,"name":"Township of Blue Mountain","admin3":"90363"},{"geonameid":4102619,"name":"Township of Boone","admin3":"90405"},{"geonameid":4104380,"name":"Township of Cane Creek","admin3":"90642"},{"geonameid":4104842,"name":"Township of Cauthron","admin3":"90699"},{"geonameid":4105861,"name":"Township of Clark","admin3":"90807"},{"geonameid":4107993,"name":"Township of Delaware","admin3":"91053"},{"geonameid":4109004,"name":"Township of Driggs","admin3":"91140"},{"geonameid":4109903,"name":"Township of Ellsworth","admin3":"91230"},{"geonameid":4116734,"name":"Township of Johnson","admin3":"91977"},{"geonameid":4119602,"name":"Township of Logan","admin3":"92256"},{"geonameid":4123012,"name":"Township of Mountain","admin3":"92598"},{"geonameid":4125934,"name":"Township of Petit Jean","admin3":"92859"},{"geonameid":4128256,"name":"Township of Reveilee","admin3":"93114"},{"geonameid":4128503,"name":"Township of River","admin3":"93195"},{"geonameid":4129074,"name":"Township of Roseville","admin3":"93231"},{"geonameid":4130999,"name":"Township of Shoal Creek","admin3":"93366"},{"geonameid":4131058,"name":"Township of Short Mountain","admin3":"93372"},{"geonameid":4131222,"name":"Township of Six Mile","admin3":"93390"},{"geonameid":4132682,"name":"Township of Sugar Creek","admin3":"93519"},{"geonameid":4133693,"name":"Township of Tomlinson","admin3":"93619"},{"geonameid":4135384,"name":"Township of Washburn","admin3":"93894"}],"alternateNames":[{"alternatenameId":1979420,"geonameid":4099753,"isoLanguage":"en","alternateName":"Arkansas","isPreferredName":true,"isShortName":true,"isColloquial":false,"isHistoric":false}]},"__N_SSG":true}