{"pageProps":{"locale":"en","admin2":{"geonameid":4119825,"name":"Lonoke County","country":"US","admin1":"AR","admin2":"085","admin3":"","latitude":"34.7542700","longitude":"-91.8886700"},"admin1":{"geonameid":4099753,"name":"Arkansas","admin1":"AR","localeAltName":"Arkansas"},"locations":[{"geonameid":4099974,"name":"Austin","admin3":"90669"},{"geonameid":4103957,"name":"Cabot","admin3":"94131"},{"geonameid":4104602,"name":"Carlisle","admin3":"90663"},{"geonameid":4110001,"name":"England","admin3":"91569"},{"geonameid":4119817,"name":"Lonoke","admin3":"92283"},{"geonameid":4135279,"name":"Ward","admin3":"93879"}],"admin3":[{"geonameid":4103870,"name":"Township of Butler","admin3":"90561"},{"geonameid":4104608,"name":"Township of Carlisle","admin3":"90663"},{"geonameid":4104637,"name":"Township of Caroline","admin3":"90669"},{"geonameid":4106041,"name":"Township of Cleveland","admin3":"90861"},{"geonameid":4107116,"name":"Township of Crooked Creek","admin3":"90972"},{"geonameid":4108880,"name":"Township of Dortch","admin3":"91125"},{"geonameid":4109388,"name":"Township of Eagle","admin3":"91191"},{"geonameid":4111195,"name":"Township of Fletcher","admin3":"91305"},{"geonameid":4111869,"name":"Township of Furlow","admin3":"91398"},{"geonameid":4112579,"name":"Township of Goodrum","admin3":"91479"},{"geonameid":4112932,"name":"Township of Gray","admin3":"91503"},{"geonameid":4113386,"name":"Township of Gum Woods","admin3":"91569"},{"geonameid":4113622,"name":"Township of Hamilton","admin3":"91590"},{"geonameid":4115860,"name":"Township of Indian Bayou","admin3":"91827"},{"geonameid":4116139,"name":"Township of Isbell","admin3":"91839"},{"geonameid":4117781,"name":"Township of Lafayette","admin3":"92070"},{"geonameid":4119834,"name":"Township of Lonoke","admin3":"92283"},{"geonameid":4120314,"name":"Township of Magness","admin3":"92349"},{"geonameid":4124472,"name":"Township of Oak Grove","admin3":"92736"},{"geonameid":4125950,"name":"Township of Pettus","admin3":"92865"},{"geonameid":4127403,"name":"Township of Prairie","admin3":"92997"},{"geonameid":4127636,"name":"Township of Pulaski","admin3":"93042"},{"geonameid":4128370,"name":"Township of Richwoods","admin3":"93171"},{"geonameid":4130392,"name":"Township of Scott","admin3":"93327"},{"geonameid":4133718,"name":"Township of Totten","admin3":"93625"},{"geonameid":4135122,"name":"Township of Walls","admin3":"93852"},{"geonameid":4135313,"name":"Township of Ward","admin3":"93879"},{"geonameid":4136608,"name":"Township of Williams","admin3":"94065"},{"geonameid":4137319,"name":"Township of York","admin3":"94131"}],"alternateNames":[{"alternatenameId":1979420,"geonameid":4099753,"isoLanguage":"en","alternateName":"Arkansas","isPreferredName":true,"isShortName":true,"isColloquial":false,"isHistoric":false}]},"__N_SSG":true}