{"pageProps":{"locale":"en","admin2":{"geonameid":4121680,"name":"Miller County","country":"US","admin1":"AR","admin2":"091","admin3":"","latitude":"33.3121500","longitude":"-93.8915600"},"admin1":{"geonameid":4099753,"name":"Arkansas","admin1":"AR","localeAltName":"Arkansas"},"locations":[{"geonameid":4133367,"name":"Texarkana","admin3":"91434"}],"admin3":[{"geonameid":4101044,"name":"Township of Beech","admin3":"90207"},{"geonameid":4106042,"name":"Township of Cleveland","admin3":"90864"},{"geonameid":4107445,"name":"Township of Cut Off","admin3":"90996"},{"geonameid":4107787,"name":"Township of Days Creek","admin3":"91038"},{"geonameid":4112063,"name":"Township of Garland","admin3":"91434"},{"geonameid":4115122,"name":"Township of Homan","admin3":"91755"},{"geonameid":4128074,"name":"Township of Red River","admin3":"93084"},{"geonameid":4132800,"name":"Township of Sulphur","admin3":"93537"}],"alternateNames":[{"alternatenameId":1979420,"geonameid":4099753,"isoLanguage":"en","alternateName":"Arkansas","isPreferredName":true,"isShortName":true,"isColloquial":false,"isHistoric":false}]},"__N_SSG":true}