{"pageProps":{"locale":"en","admin2":{"geonameid":4121968,"name":"Monroe County","country":"US","admin1":"AR","admin2":"095","admin3":"","latitude":"34.6778400","longitude":"-91.2038900"},"admin1":{"geonameid":4099753,"name":"Arkansas","admin1":"AR","localeAltName":"Arkansas"},"locations":[{"geonameid":4103042,"name":"Brinkley","admin3":"90480"},{"geonameid":4105824,"name":"Clarendon","admin3":"90585"}],"admin3":[{"geonameid":4103054,"name":"Township of Brinkley","admin3":"90480"},{"geonameid":4103225,"name":"Township of Brown","admin3":"90495"},{"geonameid":4103981,"name":"Township of Cache","admin3":"90585"},{"geonameid":4106012,"name":"Township of Cleburne","admin3":"90846"},{"geonameid":4107524,"name":"Township of Cypress Ridge","admin3":"91008"},{"geonameid":4108747,"name":"Township of Dixon","admin3":"91118"},{"geonameid":4109271,"name":"Township of Duncan","admin3":"91158"},{"geonameid":4114800,"name":"Township of Hindman","admin3":"91734"},{"geonameid":4116303,"name":"Township of Jackson","admin3":"91866"},{"geonameid":4117283,"name":"Township of Keevil","admin3":"92019"},{"geonameid":4126383,"name":"Township of Pine Ridge","admin3":"92895"},{"geonameid":4127950,"name":"Township of Raymond","admin3":"93057"},{"geonameid":4128348,"name":"Township of Richland","admin3":"93147"},{"geonameid":4128655,"name":"Township of Roc Roe","admin3":"93216"},{"geonameid":7172172,"name":"Township of Greenfield","admin3":"91515"},{"geonameid":7172179,"name":"Township of Montgomery-Smalley","admin3":"92539"}],"alternateNames":[{"alternatenameId":1979420,"geonameid":4099753,"isoLanguage":"en","alternateName":"Arkansas","isPreferredName":true,"isShortName":true,"isColloquial":false,"isHistoric":false}]},"__N_SSG":true}