{"pageProps":{"locale":"en","admin2":{"geonameid":4127100,"name":"Pope County","country":"US","admin1":"AR","admin2":"115","admin3":"","latitude":"35.4476300","longitude":"-93.0341600"},"admin1":{"geonameid":4099753,"name":"Arkansas","admin1":"AR","localeAltName":"Arkansas"},"locations":[{"geonameid":4099932,"name":"Atkins","admin3":"94089"},{"geonameid":4108950,"name":"Dover","admin3":"91134"},{"geonameid":4119617,"name":"London","admin3":"90813"},{"geonameid":4127256,"name":"Pottsville","admin3":"91407"},{"geonameid":4129397,"name":"Russellville","admin3":"91812"}],"admin3":[{"geonameid":4100610,"name":"Township of Bayliss","admin3":"90159"},{"geonameid":4103759,"name":"Township of Burnett","admin3":"90558"},{"geonameid":4105160,"name":"Township of Center","admin3":"90735"},{"geonameid":4105863,"name":"Township of Clark","admin3":"90813"},{"geonameid":4106456,"name":"Township of Convenience","admin3":"90921"},{"geonameid":4108947,"name":"Township of Dover","admin3":"91134"},{"geonameid":4111687,"name":"Township of Freeman","admin3":"91377"},{"geonameid":4111942,"name":"Township of Galla","admin3":"91407"},{"geonameid":4113209,"name":"Township of Griffin","admin3":"91536"},{"geonameid":4113339,"name":"Township of Gum Log","admin3":"91560"},{"geonameid":4115793,"name":"Township of Illinois","admin3":"91812"},{"geonameid":4116306,"name":"Township of Jackson","admin3":"91875"},{"geonameid":4118873,"name":"Township of Liberty","admin3":"92181"},{"geonameid":4120670,"name":"Township of Martin","admin3":"92415"},{"geonameid":4122125,"name":"Township of Moreland","admin3":"92553"},{"geonameid":4126038,"name":"Township of Phoenix","admin3":"92871"},{"geonameid":4131546,"name":"Township of Smyrna","admin3":"93420"},{"geonameid":4134680,"name":"Township of Valley","admin3":"93765"},{"geonameid":4136759,"name":"Township of Wilson","admin3":"94089"}],"alternateNames":[{"alternatenameId":1979420,"geonameid":4099753,"isoLanguage":"en","alternateName":"Arkansas","isPreferredName":true,"isShortName":true,"isColloquial":false,"isHistoric":false}]},"__N_SSG":true}