{"pageProps":{"locale":"en","admin2":{"geonameid":4127330,"name":"Prairie County","country":"US","admin1":"AR","admin2":"117","admin3":"","latitude":"34.8297900","longitude":"-91.5527700"},"admin1":{"geonameid":4099753,"name":"Arkansas","admin1":"AR","localeAltName":"Arkansas"},"locations":[{"geonameid":4108091,"name":"Des Arc","admin3":"94023"},{"geonameid":4114220,"name":"Hazen","admin3":"91650"}],"admin3":[{"geonameid":4101071,"name":"Township of Belcher","admin3":"90216"},{"geonameid":4103691,"name":"Township of Bullard","admin3":"90543"},{"geonameid":4104071,"name":"Township of Calhoun","admin3":"90612"},{"geonameid":4105161,"name":"Township of Center","admin3":"90738"},{"geonameid":4108107,"name":"Township of Des Arc","admin3":"91083"},{"geonameid":4114198,"name":"Township of Hazen","admin3":"91650"},{"geonameid":4114545,"name":"Township of Hickory Plain","admin3":"91698"},{"geonameid":4120022,"name":"Township of Lower Surrounded Hill","admin3":"92289"},{"geonameid":4128656,"name":"Township of Roc Roe","admin3":"93219"},{"geonameid":4134219,"name":"Township of Tyler","admin3":"93654"},{"geonameid":4134463,"name":"Township of Union","admin3":"93717"},{"geonameid":4134585,"name":"Township of Upper Surrounded Hill","admin3":"93747"},{"geonameid":4135433,"name":"Township of Watensaw","admin3":"93939"},{"geonameid":4136280,"name":"Township of White River","admin3":"94023"}],"alternateNames":[{"alternatenameId":1979420,"geonameid":4099753,"isoLanguage":"en","alternateName":"Arkansas","isPreferredName":true,"isShortName":true,"isColloquial":false,"isHistoric":false}]},"__N_SSG":true}