{"pageProps":{"locale":"en","admin2":{"geonameid":4127619,"name":"Pulaski County","country":"US","admin1":"AR","admin2":"119","admin3":"","latitude":"34.7699300","longitude":"-92.3118000"},"admin1":{"geonameid":4099753,"name":"Arkansas","admin1":"AR","localeAltName":"Arkansas"},"locations":[{"geonameid":4099194,"name":"Alexander","admin3":"90300"},{"geonameid":4112254,"name":"Gibson","admin3":"91731"},{"geonameid":4112871,"name":"Gravel Ridge","admin3":"91731"},{"geonameid":4116315,"name":"Jacksonville","admin3":"91731"},{"geonameid":4118277,"name":"Landmark","admin3":"90300"},{"geonameid":4119403,"name":"Little Rock","admin3":"90300"},{"geonameid":8605043,"name":"Little Rock Air Force Base","admin3":"91731"},{"geonameid":4120792,"name":"Maumelle","admin3":"91731"},{"geonameid":4120886,"name":"McAlmont","admin3":"91731"},{"geonameid":4124112,"name":"North Little Rock","admin3":"91731"},{"geonameid":4828193,"name":"Sherwood","admin3":"91731"},{"geonameid":4137171,"name":"Wrightsville","admin3":"90300"}],"admin3":[{"geonameid":4101855,"name":"Township of Big Rock","admin3":"90300"},{"geonameid":4114746,"name":"Township of Hill","admin3":"91731"}],"alternateNames":[{"alternatenameId":1979420,"geonameid":4099753,"isoLanguage":"en","alternateName":"Arkansas","isPreferredName":true,"isShortName":true,"isColloquial":false,"isHistoric":false}]},"__N_SSG":true}