{"pageProps":{"locale":"de","admin2":{"geonameid":3214106,"name":"Tübingen Region","country":"DE","admin1":"01","admin2":"084","admin3":"","latitude":"48.1666700","longitude":"9.5000000","localeAltName":null},"admin1":{"geonameid":2953481,"name":"Baden-Württemberg","admin1":"01","localeAltName":"Baden-Württemberg"},"locations":[{"geonameid":2959659,"name":"Achstetten","admin3":"08426","localeAltName":null},{"geonameid":2958917,"name":"Aichstetten","admin3":"08436","localeAltName":null},{"geonameid":2958798,"name":"Aitrach","admin3":"08436","localeAltName":null},{"geonameid":2958595,"name":"Albstadt","admin3":"08417","localeAltName":null},{"geonameid":2958355,"name":"Alleshausen","admin3":"08426","localeAltName":null},{"geonameid":2958305,"name":"Allmannsweiler","admin3":"08426","localeAltName":null},{"geonameid":2958296,"name":"Allmendingen","admin3":"08425","localeAltName":null},{"geonameid":3206149,"name":"Altes Lager","admin3":"08415","localeAltName":null},{"geonameid":2956847,"name":"Altshausen","admin3":"08436","localeAltName":null},{"geonameid":2956310,"name":"Amstetten","admin3":"08425","localeAltName":null},{"geonameid":2956277,"name":"Amtzell","admin3":"08436","localeAltName":null},{"geonameid":2955025,"name":"Asselfingen","admin3":"08425","localeAltName":null},{"geonameid":2954906,"name":"Attenweiler","admin3":"08426","localeAltName":null},{"geonameid":2954065,"name":"Aulendorf","admin3":"08436","localeAltName":null},{"geonameid":2953534,"name":"Bad Buchau","admin3":"08426","localeAltName":null},{"geonameid":2841125,"name":"Bad Saulgau","admin3":"08437","localeAltName":null},{"geonameid":2835635,"name":"Bad Schussenried","admin3":"08426","localeAltName":null},{"geonameid":2818246,"name":"Bad Urach","admin3":"08415","localeAltName":null},{"geonameid":2953320,"name":"Bad Waldsee","admin3":"08436","localeAltName":null},{"geonameid":2953312,"name":"Bad Wurzach","admin3":"08436","localeAltName":null},{"geonameid":2953222,"name":"Baienfurt","admin3":"08436","localeAltName":null},{"geonameid":2953178,"name":"Baindt","admin3":"08436","localeAltName":null},{"geonameid":2953089,"name":"Balingen","admin3":"08417","localeAltName":null},{"geonameid":2953064,"name":"Ballendorf","admin3":"08425","localeAltName":null},{"geonameid":2951340,"name":"Beimerstetten","admin3":"08425","localeAltName":null},{"geonameid":2950686,"name":"Bergatreute","admin3":"08436","localeAltName":null},{"geonameid":2950361,"name":"Berghülen","admin3":"08425","localeAltName":null},{"geonameid":2950187,"name":"Berkheim","admin3":"08426","localeAltName":null},{"geonameid":2950130,"name":"Bermatingen","admin3":"08435","localeAltName":null},{"geonameid":2949950,"name":"Bernstadt","admin3":"08425","localeAltName":null},{"geonameid":2949653,"name":"Betzenweiler","admin3":"08426","localeAltName":null},{"geonameid":2949551,"name":"Beuron","admin3":"08437","localeAltName":null},{"geonameid":2949423,"name":"Biberach an der Riß","admin3":"08426","localeAltName":null},{"geonameid":2948826,"name":"Bingen","admin3":"08437","localeAltName":null},{"geonameid":2948246,"name":"Bisingen","admin3":"08417","localeAltName":null},{"geonameid":2948147,"name":"Bitz","admin3":"08417","localeAltName":null},{"geonameid":2947949,"name":"Blaubeuren","admin3":"08425","localeAltName":null},{"geonameid":2947172,"name":"Bodelshausen","admin3":"08416","localeAltName":null},{"geonameid":2947069,"name":"Bodnegg","admin3":"08436","localeAltName":null},{"geonameid":2946507,"name":"Boms","admin3":"08436","localeAltName":null},{"geonameid":2946008,"name":"Börslingen","admin3":"08425","localeAltName":null},{"geonameid":2944465,"name":"Breitingen","admin3":"08425","localeAltName":null},{"geonameid":2941173,"name":"Burgrieden","admin3":"08426","localeAltName":null},{"geonameid":2940977,"name":"Burladingen","admin3":"08417","localeAltName":null},{"geonameid":2939345,"name":"Daisendorf","admin3":"08435","localeAltName":null},{"geonameid":2938702,"name":"Dautmergen","admin3":"08417","localeAltName":null},{"geonameid":2937919,"name":"Dettenhausen","admin3":"08416","localeAltName":null},{"geonameid":2937904,"name":"Dettingen","admin3":"08425","localeAltName":null},{"geonameid":2937898,"name":"Dettingen an der Erms","admin3":"08415","localeAltName":null},{"geonameid":2937164,"name":"Dietenheim","admin3":"08425","localeAltName":null},{"geonameid":2935817,"name":"Dormettingen","admin3":"08417","localeAltName":null},{"geonameid":2935647,"name":"Dornstadt","admin3":"08425","localeAltName":null},{"geonameid":2935425,"name":"Dotternhausen","admin3":"08417","localeAltName":null},{"geonameid":2934464,"name":"Dürmentingen","admin3":"08426","localeAltName":null},{"geonameid":2934453,"name":"Dürnau","admin3":"08426","localeAltName":null},{"geonameid":2934235,"name":"Dußlingen","admin3":"08416","localeAltName":null},{"geonameid":2934023,"name":"Ebenweiler","admin3":"08436","localeAltName":null},{"geonameid":2934000,"name":"Eberhardzell","admin3":"08426","localeAltName":null},{"geonameid":3209313,"name":"Ebersbach-Musbach","admin3":"08436","localeAltName":null},{"geonameid":2932924,"name":"Ehingen","admin3":"08425","localeAltName":null},{"geonameid":2932066,"name":"Eichstegen","admin3":"08436","localeAltName":null},{"geonameid":2931129,"name":"Elitz","admin3":"08436","localeAltName":null},{"geonameid":2930581,"name":"Emeringen","admin3":"08425","localeAltName":null},{"geonameid":2930579,"name":"Emerkingen","admin3":"08425","localeAltName":null},{"geonameid":2930080,"name":"Eningen unter Achalm","admin3":"08415","localeAltName":null},{"geonameid":2930035,"name":"Ennetach","admin3":"08437","localeAltName":null},{"geonameid":2929804,"name":"Erbach","admin3":"08425","localeAltName":null},{"geonameid":2929626,"name":"Eriskirch","admin3":"08435","localeAltName":null},{"geonameid":2929452,"name":"Erlenmoos","admin3":"08426","localeAltName":null},{"geonameid":2929305,"name":"Erolzheim","admin3":"08426","localeAltName":null},{"geonameid":2929264,"name":"Ersingen","admin3":"08425","localeAltName":null},{"geonameid":2929252,"name":"Ertingen","admin3":"08426","localeAltName":null},{"geonameid":2927391,"name":"Feldhausen","admin3":"08437","localeAltName":null},{"geonameid":2926290,"name":"Fleischwangen","admin3":"08436","localeAltName":null},{"geonameid":2924826,"name":"Frickingen","admin3":"08435","localeAltName":null},{"geonameid":2924585,"name":"Friedrichshafen","admin3":"08435","localeAltName":null},{"geonameid":11670102,"name":"Fronreute","admin3":"08436","localeAltName":null},{"geonameid":2922747,"name":"Gammertingen","admin3":"08437","localeAltName":null},{"geonameid":2921656,"name":"Geislingen","admin3":"08417","localeAltName":null},{"geonameid":2919147,"name":"Gomadingen","admin3":"08415","localeAltName":null},{"geonameid":2919146,"name":"Gomaringen","admin3":"08416","localeAltName":null},{"geonameid":2918431,"name":"Grabenstetten","admin3":"08415","localeAltName":null},{"geonameid":2917404,"name":"Griesingen","admin3":"08425","localeAltName":null},{"geonameid":2916696,"name":"Grosselfingen","admin3":"08417","localeAltName":null},{"geonameid":2914316,"name":"Grundsheim","admin3":"08425","localeAltName":null},{"geonameid":2914137,"name":"Grünkraut","admin3":"08436","localeAltName":null},{"geonameid":2913847,"name":"Guggenhausen","admin3":"08436","localeAltName":null},{"geonameid":3206180,"name":"Gutenzell-Hürbel","admin3":"08426","localeAltName":null},{"geonameid":2912417,"name":"Hagnau","admin3":"08435","localeAltName":null},{"geonameid":2911960,"name":"Haigerloch","admin3":"08417","localeAltName":null},{"geonameid":2908575,"name":"Hayingen","admin3":"08415","localeAltName":null},{"geonameid":2908495,"name":"Hechingen","admin3":"08417","localeAltName":null},{"geonameid":2907616,"name":"Heiligenberg","admin3":"08435","localeAltName":null},{"geonameid":2906222,"name":"Herbertingen","admin3":"08437","localeAltName":null},{"geonameid":3205658,"name":"Herdwangen-Schönach","admin3":"08437","localeAltName":null},{"geonameid":2905215,"name":"Hettingen","admin3":"08437","localeAltName":null},{"geonameid":2903817,"name":"Hirrlingen","admin3":"08416","localeAltName":null},{"geonameid":2903295,"name":"Hochdorf","admin3":"08426","localeAltName":null},{"geonameid":2901405,"name":"Hohentengen","admin3":"08437","localeAltName":null},{"geonameid":2899677,"name":"Holzkirch","admin3":"08425","localeAltName":null},{"geonameid":2899040,"name":"Horgenzell","admin3":"08436","localeAltName":null},{"geonameid":2898458,"name":"Hoßkirch","admin3":"08436","localeAltName":null},{"geonameid":2897879,"name":"Hülben","admin3":"08415","localeAltName":null},{"geonameid":2896882,"name":"Hüttisheim","admin3":"08425","localeAltName":null},{"geonameid":2896547,"name":"Illerrieden","admin3":"08425","localeAltName":null},{"geonameid":2896530,"name":"Illmensee","admin3":"08437","localeAltName":null},{"geonameid":2896263,"name":"Immenstaad am Bodensee","admin3":"08435","localeAltName":null},{"geonameid":2895993,"name":"Ingoldingen","admin3":"08426","localeAltName":null},{"geonameid":2895891,"name":"Inzigkofen","admin3":"08437","localeAltName":null},{"geonameid":2895638,"name":"Isny","admin3":"08436","localeAltName":null},{"geonameid":2894476,"name":"Jungingen","admin3":"08417","localeAltName":null},{"geonameid":2893186,"name":"Kanzach","admin3":"08426","localeAltName":null},{"geonameid":2890647,"name":"Kirchberg an der Iller","admin3":"08426","localeAltName":null},{"geonameid":2890617,"name":"Kirchdorf","admin3":"08426","localeAltName":null},{"geonameid":2890527,"name":"Kirchentellinsfurt","admin3":"08416","localeAltName":null},{"geonameid":2890199,"name":"Kißlegg","admin3":"08436","localeAltName":null},{"geonameid":2887716,"name":"Klingenstein","admin3":"08425","localeAltName":null},{"geonameid":2885892,"name":"Königseggwald","admin3":"08436","localeAltName":null},{"geonameid":2884667,"name":"Krauchenwies","admin3":"08437","localeAltName":null},{"geonameid":2884344,"name":"Kressbronn am Bodensee","admin3":"08435","localeAltName":null},{"geonameid":2882237,"name":"Kusterdingen","admin3":"08416","localeAltName":null},{"geonameid":2881857,"name":"Laichingen","admin3":"08425","localeAltName":null},{"geonameid":2881263,"name":"Langenargen","admin3":"08435","localeAltName":null},{"geonameid":2881259,"name":"Langenau","admin3":"08425","localeAltName":null},{"geonameid":2881094,"name":"Langenenslingen","admin3":"08426","localeAltName":null},{"geonameid":2880077,"name":"Laupheim","admin3":"08426","localeAltName":null},{"geonameid":2879950,"name":"Lauterach","admin3":"08425","localeAltName":null},{"geonameid":2879335,"name":"Leibertingen","admin3":"08437","localeAltName":null},{"geonameid":2878270,"name":"Leutkirch","admin3":"08436","localeAltName":null},{"geonameid":2875978,"name":"Lonsee","admin3":"08425","localeAltName":null},{"geonameid":2873427,"name":"Markdorf","admin3":"08435","localeAltName":null},{"geonameid":2873022,"name":"Maselheim","admin3":"08426","localeAltName":null},{"geonameid":2872585,"name":"Meckenbeuren","admin3":"08435","localeAltName":null},{"geonameid":2872486,"name":"Meersburg","admin3":"08435","localeAltName":null},{"geonameid":2872362,"name":"Mehrstetten","admin3":"08415","localeAltName":null},{"geonameid":2871964,"name":"Mengen","admin3":"08437","localeAltName":null},{"geonameid":2871790,"name":"Merklingen","admin3":"08425","localeAltName":null},{"geonameid":2871609,"name":"Meßkirch","admin3":"08437","localeAltName":null},{"geonameid":2871601,"name":"Meßstetten","admin3":"08417","localeAltName":null},{"geonameid":2871486,"name":"Metzingen","admin3":"08415","localeAltName":null},{"geonameid":2871173,"name":"Mietingen","admin3":"08426","localeAltName":null},{"geonameid":2870795,"name":"Mittelbiberach","admin3":"08426","localeAltName":null},{"geonameid":2869019,"name":"Mössingen","admin3":"08416","localeAltName":null},{"geonameid":2867608,"name":"Munderkingen","admin3":"08425","localeAltName":null},{"geonameid":2867560,"name":"Münsingen","admin3":"08415","localeAltName":null},{"geonameid":2866705,"name":"Neenstetten","admin3":"08425","localeAltName":null},{"geonameid":2866632,"name":"Nehren","admin3":"08416","localeAltName":null},{"geonameid":2866561,"name":"Nellingen","admin3":"08425","localeAltName":null},{"geonameid":2866487,"name":"Nerenstetten","admin3":"08425","localeAltName":null},{"geonameid":2865332,"name":"Neufra","admin3":"08426","localeAltName":null},{"geonameid":2864774,"name":"Neukirch","admin3":"08435","localeAltName":null},{"geonameid":2862759,"name":"Niederwangen","admin3":"08436","localeAltName":null},{"geonameid":2861094,"name":"Oberdischingen","admin3":"08425","localeAltName":null},{"geonameid":2859826,"name":"Obermarchtal","admin3":"08425","localeAltName":null},{"geonameid":2859547,"name":"Obernheim","admin3":"08417","localeAltName":null},{"geonameid":2858976,"name":"Oberstadion","admin3":"08425","localeAltName":null},{"geonameid":2858811,"name":"Oberteuringen","admin3":"08435","localeAltName":null},{"geonameid":2858326,"name":"Ochsenhausen","admin3":"08426","localeAltName":null},{"geonameid":2857756,"name":"Ofterdingen","admin3":"08416","localeAltName":null},{"geonameid":2857741,"name":"Oggelshausen","admin3":"08426","localeAltName":null},{"geonameid":2857317,"name":"Öllingen","admin3":"08425","localeAltName":null},{"geonameid":2857197,"name":"Öpfingen","admin3":"08425","localeAltName":null},{"geonameid":2856222,"name":"Ostrach","admin3":"08437","localeAltName":null},{"geonameid":2855823,"name":"Owingen","admin3":"08435","localeAltName":null},{"geonameid":2853951,"name":"Pfronstetten","admin3":"08415","localeAltName":null},{"geonameid":2853930,"name":"Pfullendorf","admin3":"08437","localeAltName":null},{"geonameid":2853928,"name":"Pfullingen","admin3":"08415","localeAltName":null},{"geonameid":2853192,"name":"Pliezhausen","admin3":"08415","localeAltName":null},{"geonameid":2850636,"name":"Rammingen","admin3":"08425","localeAltName":null},{"geonameid":2850496,"name":"Rangendingen","admin3":"08417","localeAltName":null},{"geonameid":2850165,"name":"Ratshausen","admin3":"08417","localeAltName":null},{"geonameid":2849802,"name":"Ravensburg","admin3":"08436","localeAltName":null},{"geonameid":2849705,"name":"Rechtenstein","admin3":"08425","localeAltName":null},{"geonameid":2847736,"name":"Reutlingen","admin3":"08415","localeAltName":null},{"geonameid":2847198,"name":"Riederich","admin3":"08415","localeAltName":null},{"geonameid":2847156,"name":"Riedhausen","admin3":"08436","localeAltName":null},{"geonameid":2847080,"name":"Riedlingen","admin3":"08426","localeAltName":null},{"geonameid":2845027,"name":"Rosenfeld","admin3":"08417","localeAltName":null},{"geonameid":2844579,"name":"Rot","admin3":"08437","localeAltName":null},{"geonameid":2843747,"name":"Rottenacker","admin3":"08425","localeAltName":null},{"geonameid":2843729,"name":"Rottenburg","admin3":"08416","localeAltName":null},{"geonameid":6639586,"name":"Salem","admin3":"08435","localeAltName":null},{"geonameid":2841577,"name":"Sankt Johann","admin3":"08415","localeAltName":null},{"geonameid":2841128,"name":"Sauldorf","admin3":"08437","localeAltName":null},{"geonameid":2840086,"name":"Scheer","admin3":"08437","localeAltName":null},{"geonameid":2839888,"name":"Schelklingen","admin3":"08425","localeAltName":null},{"geonameid":2838531,"name":"Schlier","admin3":"08436","localeAltName":null},{"geonameid":2837250,"name":"Schnürpflingen","admin3":"08425","localeAltName":null},{"geonameid":2837117,"name":"Schömberg","admin3":"08417","localeAltName":null},{"geonameid":2834334,"name":"Schwendi","admin3":"08426","localeAltName":null},{"geonameid":2834313,"name":"Schwenningen","admin3":"08437","localeAltName":null},{"geonameid":2833732,"name":"Seekirch","admin3":"08426","localeAltName":null},{"geonameid":2832887,"name":"Setzingen","admin3":"08425","localeAltName":null},{"geonameid":2832778,"name":"Sickenhausen","admin3":"08415","localeAltName":null},{"geonameid":2832232,"name":"Sigmaringen","admin3":"08437","localeAltName":null},{"geonameid":2832231,"name":"Sigmaringendorf","admin3":"08437","localeAltName":null},{"geonameid":2831837,"name":"Sipplingen","admin3":"08435","localeAltName":null},{"geonameid":8062813,"name":"Sorgenhöfe","admin3":"08435","localeAltName":null},{"geonameid":2829644,"name":"Staig","admin3":"08425","localeAltName":null},{"geonameid":2828016,"name":"Steinhausen","admin3":"08426","localeAltName":null},{"geonameid":2827246,"name":"Stetten","admin3":"08435","localeAltName":null},{"geonameid":2827216,"name":"Stetten am Kalten Markt","admin3":"08437","localeAltName":null},{"geonameid":2826187,"name":"Straßberg","admin3":"08417","localeAltName":null},{"geonameid":2824053,"name":"Tannheim","admin3":"08426","localeAltName":null},{"geonameid":2823368,"name":"Tettnang","admin3":"08435","localeAltName":null},{"geonameid":2822447,"name":"Tiefenbach","admin3":"08426","localeAltName":null},{"geonameid":2821065,"name":"Trochtelfingen","admin3":"08415","localeAltName":null},{"geonameid":2820860,"name":"Tübingen","admin3":"08416","localeAltName":null},{"geonameid":2820577,"name":"Überlingen","admin3":"08435","localeAltName":null},{"geonameid":3205690,"name":"Uhldingen-Mühlhofen","admin3":"08435","localeAltName":null},{"geonameid":2820256,"name":"Ulm","admin3":"08421","localeAltName":null},{"geonameid":2820179,"name":"Ummendorf","admin3":"08426","localeAltName":null},{"geonameid":2820088,"name":"Unlingen","admin3":"08426","localeAltName":null},{"geonameid":2819399,"name":"Unterhausen","admin3":"08415","localeAltName":null},{"geonameid":2819103,"name":"Untermarchtal","admin3":"08425","localeAltName":null},{"geonameid":2818653,"name":"Unterstadion","admin3":"08425","localeAltName":null},{"geonameid":2818495,"name":"Unterwachingen","admin3":"08425","localeAltName":null},{"geonameid":2818025,"name":"Uttenweiler","admin3":"08426","localeAltName":null},{"geonameid":2817581,"name":"Veringenstadt","admin3":"08437","localeAltName":null},{"geonameid":2816796,"name":"Vogt","admin3":"08436","localeAltName":null},{"geonameid":2815300,"name":"Wain","admin3":"08426","localeAltName":null},{"geonameid":2815205,"name":"Wald","admin3":"08437","localeAltName":null},{"geonameid":2815128,"name":"Waldburg","admin3":"08436","localeAltName":null},{"geonameid":2814270,"name":"Wangen","admin3":"08436","localeAltName":null},{"geonameid":2814195,"name":"Wannweil","admin3":"08415","localeAltName":null},{"geonameid":2813914,"name":"Warthausen","admin3":"08426","localeAltName":null},{"geonameid":2812958,"name":"Weidenstetten","admin3":"08425","localeAltName":null},{"geonameid":2812617,"name":"Weilen unter den Rinnen","admin3":"08417","localeAltName":null},{"geonameid":2812204,"name":"Weingarten","admin3":"08436","localeAltName":null},{"geonameid":2810336,"name":"Westerheim","admin3":"08425","localeAltName":null},{"geonameid":2810184,"name":"Westerstetten","admin3":"08425","localeAltName":null},{"geonameid":2808746,"name":"Wilhelmsdorf","admin3":"08436","localeAltName":null},{"geonameid":2807736,"name":"Winterlingen","admin3":"08417","localeAltName":null},{"geonameid":2806923,"name":"Wolfegg","admin3":"08436","localeAltName":null},{"geonameid":2806322,"name":"Wolpertswende","admin3":"08436","localeAltName":null},{"geonameid":2804169,"name":"Zimmern","admin3":"08417","localeAltName":null},{"geonameid":2803545,"name":"Zwiefalten","admin3":"08415","localeAltName":null}],"admin3":[{"geonameid":2820859,"name":"Landkreis Tübingen","admin3":"08416","localeAltName":null},{"geonameid":2947109,"name":"Bodenseekreis","admin3":"08435","localeAltName":null},{"geonameid":3220786,"name":"Alb-Donau-Kreis","admin3":"08425","localeAltName":null},{"geonameid":3220787,"name":"Stadtkreis Ulm","admin3":"08421","localeAltName":null},{"geonameid":3220790,"name":"Landkreis Biberach","admin3":"08426","localeAltName":null},{"geonameid":3220791,"name":"Landkreis Ravensburg","admin3":"08436","localeAltName":null},{"geonameid":3220792,"name":"Landkreis Reutlingen","admin3":"08415","localeAltName":null},{"geonameid":3220793,"name":"Landkreis Sigmaringen","admin3":"08437","localeAltName":null},{"geonameid":3220794,"name":"Zollernalbkreis","admin3":"08417","localeAltName":null}],"alternateNames":[{"alternatenameId":2080248,"geonameid":2953481,"isoLanguage":"de","alternateName":"Baden-Württemberg","isPreferredName":true,"isShortName":true,"isColloquial":false,"isHistoric":false}]},"__N_SSG":true}