{"pageProps":{"locale":"en","admin2":{"geonameid":4726521,"name":"San Patricio County","country":"US","admin1":"TX","admin2":"409","admin3":"","latitude":"28.0087800","longitude":"-97.5182700","localeAltName":null},"admin1":{"geonameid":4736286,"name":"Texas","admin1":"TX","localeAltName":"Texas"},"locations":[{"geonameid":4671141,"name":"Aransas Pass","admin3":"","localeAltName":null},{"geonameid":4695155,"name":"Gregory","admin3":"","localeAltName":null},{"geonameid":4700033,"name":"Ingleside","admin3":"","localeAltName":null},{"geonameid":4700039,"name":"Ingleside On-the-Bay","admin3":"","localeAltName":null},{"geonameid":4704425,"name":"Lake City","admin3":"","localeAltName":null},{"geonameid":7261611,"name":"Lakeshore Gardens-Hidden Acres","admin3":"","localeAltName":null},{"geonameid":4709615,"name":"Mathis","admin3":"","localeAltName":null},{"geonameid":4716128,"name":"Odem","admin3":"","localeAltName":null},{"geonameid":4720131,"name":"Portland","admin3":"","localeAltName":null},{"geonameid":4725486,"name":"Saint Paul","admin3":"","localeAltName":null},{"geonameid":4728826,"name":"Sinton","admin3":"","localeAltName":null},{"geonameid":4735458,"name":"Taft","admin3":"","localeAltName":null},{"geonameid":4735467,"name":"Taft Southwest (historical)","admin3":"","localeAltName":null}],"admin3":[{"geonameid":7173143,"name":"City of Ingleside on the Bay","admin3":"7173143"},{"geonameid":7173549,"name":"City of Gregory","admin3":"7173549"},{"geonameid":7173819,"name":"City of Mathis","admin3":"7173819"},{"geonameid":7174002,"name":"City of Odem","admin3":"7174002"},{"geonameid":7174121,"name":"City of Portland","admin3":"7174121"},{"geonameid":7174372,"name":"City of San Patricio","admin3":"7174372"},{"geonameid":7174448,"name":"City of Sinton","admin3":"7174448"},{"geonameid":7175275,"name":"Town of Lake City","admin3":"7175275"},{"geonameid":7175277,"name":"Town of Lakeside","admin3":"7175277"},{"geonameid":11788799,"name":"City of Taft","admin3":"11788799"}],"alternateNames":[{"alternatenameId":1614423,"geonameid":4736286,"isoLanguage":"en","alternateName":"Texas","isPreferredName":true,"isShortName":true,"isColloquial":false,"isHistoric":false}]},"__N_SSG":true}