{"pageProps":{"locale":"en","admin2":{"geonameid":2755250,"name":"Gemeente Groningen","country":"NL","admin1":"04","admin2":"0014","admin3":"","latitude":"53.2236900","longitude":"6.5647900"},"admin1":{"geonameid":2755249,"name":"Provincie Groningen","admin1":"04"},"locations":[{"geonameid":2759998,"name":"Achter-Thesinge","admin3":""},{"geonameid":2759272,"name":"Beijum","admin3":""},{"geonameid":2758509,"name":"Bouwerschap","admin3":""},{"geonameid":2758484,"name":"Bovenrijge","admin3":""},{"geonameid":2757942,"name":"Coendersborg","admin3":""},{"geonameid":2756937,"name":"De Wijert","admin3":""},{"geonameid":2756665,"name":"Dorkwerd","admin3":""},{"geonameid":2756097,"name":"Engelbert","admin3":""},{"geonameid":2756007,"name":"Essen","admin3":""},{"geonameid":2755982,"name":"Euvelgunne","admin3":""},{"geonameid":2755922,"name":"Felland","admin3":""},{"geonameid":2755728,"name":"Garmerwolde","admin3":""},{"geonameid":2755495,"name":"Glimmen","admin3":""},{"geonameid":2755251,"name":"Groningen","admin3":""},{"geonameid":2754841,"name":"Haren","admin3":""},{"geonameid":2754839,"name":"Harenermolen","admin3":""},{"geonameid":12196234,"name":"Heidenschap","admin3":""},{"geonameid":2754444,"name":"Helpman","admin3":""},{"geonameid":2754425,"name":"Hemert","admin3":""},{"geonameid":2753688,"name":"Hoogkerk","admin3":""},{"geonameid":2753624,"name":"Hoornsedijk","admin3":""},{"geonameid":2752420,"name":"Korrewegwijk","admin3":""},{"geonameid":2752259,"name":"Kroddeburen","admin3":""},{"geonameid":2752015,"name":"Lageweg","admin3":""},{"geonameid":2751836,"name":"Leegkerk","admin3":""},{"geonameid":2751739,"name":"Lellens","admin3":""},{"geonameid":2751667,"name":"Lewenborg","admin3":""},{"geonameid":2751368,"name":"Lutjewolde","admin3":""},{"geonameid":2751362,"name":"Lutsborg","admin3":""},{"geonameid":2751091,"name":"Matsloot","admin3":""},{"geonameid":2750902,"name":"Middelbert","admin3":""},{"geonameid":2750188,"name":"Nieuwklap","admin3":""},{"geonameid":2749981,"name":"Noorddijk","admin3":""},{"geonameid":2749931,"name":"Noorderhoogebrug","admin3":""},{"geonameid":2749857,"name":"Noordlaren","admin3":""},{"geonameid":2749588,"name":"Onnen","admin3":""},{"geonameid":2749451,"name":"Oosterhoogebrug","admin3":""},{"geonameid":2749423,"name":"Oosterpark","admin3":""},{"geonameid":6544924,"name":"Oude Roodehaan","admin3":""},{"geonameid":2748773,"name":"Paddepoel","admin3":""},{"geonameid":2748774,"name":"Paddepoel","admin3":""},{"geonameid":2748667,"name":"Peizerweg","admin3":""},{"geonameid":6930031,"name":"Reitdiep","admin3":""},{"geonameid":2747961,"name":"Roodehaan","admin3":""},{"geonameid":2747825,"name":"Ruischerbrug","admin3":""},{"geonameid":2747392,"name":"Selwerd","admin3":""},{"geonameid":2747294,"name":"Sint Annen","admin3":""},{"geonameid":2747185,"name":"Slaperstil","admin3":""},{"geonameid":2746491,"name":"Ten Boer","admin3":""},{"geonameid":2746483,"name":"Ten Post","admin3":""},{"geonameid":2746361,"name":"Thesinge","admin3":""},{"geonameid":2746123,"name":"Tuindorp-Onnen","admin3":""},{"geonameid":11153070,"name":"Van Starkenborgh","admin3":""},{"geonameid":2745544,"name":"Vierverlaten","admin3":""},{"geonameid":2745491,"name":"Vinkhuizen","admin3":""},{"geonameid":2744345,"name":"Winneweer","admin3":""},{"geonameid":2744264,"name":"Wittewierum","admin3":""},{"geonameid":2744196,"name":"Woltersum","admin3":""},{"geonameid":2743924,"name":"Zevenhuizen","admin3":""}],"admin3":[],"alternateNames":[{"alternatenameId":11907791,"geonameid":2755249,"isoLanguage":"de","alternateName":"Groningen","isPreferredName":true,"isShortName":true,"isColloquial":false,"isHistoric":false}]},"__N_SSG":true}