{"pageProps":{"locale":"en","location":{"geonameid":6690823,"name":"Stockwell","country":"GB","admin1":"ENG","admin2":"GLA","admin3":"H1","latitude":"51.4739500","longitude":"-0.1168200","alternatenames":"Stockwell,Stokuel,si tuo ke wei er,سٹوکویل,斯托克韦尔"},"country":{"geonameid":2635167,"name":"United Kingdom of Great Britain and Northern Ireland","country":"GB"},"admin1":{"geonameid":6269131,"name":"England","admin1":"ENG","localeAltName":"England"},"admin2":{"geonameid":2648110,"name":"Greater London","admin1":"ENG","admin2":"GLA","localeAltName":"Greater London"},"admin3":{"geonameid":3333163,"name":"Lambeth","admin1":"ENG","admin2":"GLA","admin3":"H1","localeAltName":"Lambeth"},"alternateNames":[{"geonameid":2635167,"isoLanguage":"en","alternateName":"United Kingdom"},{"geonameid":2648110,"isoLanguage":"en","alternateName":"Greater London"},{"geonameid":3333163,"isoLanguage":"en","alternateName":"Lambeth"},{"geonameid":6269131,"isoLanguage":"en","alternateName":"England"},{"geonameid":6690823,"isoLanguage":"en","alternateName":"Stockwell"}]},"__N_SSG":true}