{"pageProps":{"locale":"ro","admin2":{"geonameid":673680,"name":"Comuna Mateeşti","country":"RO","admin1":"39","admin2":"171067","admin3":"","latitude":"45.0678400","longitude":"23.8549000"},"admin1":{"geonameid":662892,"name":"Vâlcea","admin1":"39"},"locations":[{"geonameid":686334,"name":"Angeleşti"},{"geonameid":685367,"name":"Bărbuleşti"},{"geonameid":684692,"name":"Biserica de Zid"},{"geonameid":683024,"name":"Călărăşeşti"},{"geonameid":681171,"name":"Codreşti"},{"geonameid":678047,"name":"Floreşti"},{"geonameid":676756,"name":"Greci"},{"geonameid":675498,"name":"Irişte"},{"geonameid":675344,"name":"Izvoru"},{"geonameid":674851,"name":"Lespedea"},{"geonameid":673683,"name":"Mateeşti"},{"geonameid":673621,"name":"Megeşti"},{"geonameid":673609,"name":"Meia"},{"geonameid":672971,"name":"Modreşti"},{"geonameid":670979,"name":"Petricani"},{"geonameid":668302,"name":"Sacoţi"},{"geonameid":667711,"name":"Scăuneşti"},{"geonameid":664471,"name":"Turcești"},{"geonameid":662574,"name":"Vlăduţeşti"}],"admin3":[],"alternateNames":[]},"__N_SSG":true}