{"pageProps":{"locale":"de","admin2":{"geonameid":6458886,"name":"Neuchâtel District","country":"CH","admin1":"NE","admin2":"2404","admin3":"","latitude":"47.0179900","longitude":"6.9933700"},"admin1":{"geonameid":2659495,"name":"Neuchâtel","admin1":"NE"},"locations":[{"geonameid":2661114,"name":"Cornaux","admin3":"6453"},{"geonameid":2659963,"name":"Le Landeron","admin3":"6455"},{"geonameid":2659889,"name":"Lignières","admin3":"6456"},{"geonameid":8468977,"name":"Marin-Epagnier","admin3":"6461"},{"geonameid":2659496,"name":"Neuchâtel","admin3":"6458"},{"geonameid":2659227,"name":"Peseux","admin3":"6458"},{"geonameid":2658878,"name":"Saint-Blaise","admin3":"6459"}],"admin3":[{"geonameid":7285560,"name":"Cornaux","admin3":"6451"},{"geonameid":7285592,"name":"Cressier (NE)","admin3":"6452"},{"geonameid":7285729,"name":"Enges","admin3":"6453"},{"geonameid":7286041,"name":"Hauterive (NE)","admin3":"6454"},{"geonameid":7286272,"name":"La Tène","admin3":"6461"},{"geonameid":7286307,"name":"Le Landeron","admin3":"6455"},{"geonameid":7286352,"name":"Lignières","admin3":"6456"},{"geonameid":7286622,"name":"Neuchâtel","admin3":"6458"},{"geonameid":7287022,"name":"Saint-Blaise","admin3":"6459"}],"alternateNames":[]},"__N_SSG":true}