{"pageProps":{"locale":"en","admin2":{"geonameid":5332191,"name":"Butte County","country":"US","admin1":"CA","admin2":"007","admin3":"","latitude":"39.6669300","longitude":"-121.6006700","localeAltName":null},"admin1":{"geonameid":5332921,"name":"California","admin1":"CA","localeAltName":"California"},"locations":[{"geonameid":5326001,"name":"Bangor","admin3":"","localeAltName":null},{"geonameid":5327760,"name":"Berry Creek","admin3":"","localeAltName":null},{"geonameid":5328629,"name":"Biggs","admin3":"","localeAltName":null},{"geonameid":5336269,"name":"Chico","admin3":"","localeAltName":null},{"geonameid":5338353,"name":"Cohasset","admin3":"","localeAltName":null},{"geonameid":5339108,"name":"Concow","admin3":"","localeAltName":null},{"geonameid":5344359,"name":"Durham","admin3":"","localeAltName":null},{"geonameid":5349956,"name":"Forest Ranch","admin3":"","localeAltName":null},{"geonameid":5354307,"name":"Gridley","admin3":"","localeAltName":null},{"geonameid":5369690,"name":"Magalia","admin3":"","localeAltName":null},{"geonameid":5379759,"name":"Oroville","admin3":"","localeAltName":null},{"geonameid":7262050,"name":"Oroville East","admin3":"","localeAltName":null},{"geonameid":5380571,"name":"Palermo","admin3":"","localeAltName":null},{"geonameid":5381002,"name":"Paradise","admin3":"","localeAltName":null},{"geonameid":5397700,"name":"South Oroville","admin3":"","localeAltName":null},{"geonameid":5402159,"name":"Thermalito","admin3":"","localeAltName":null}],"admin3":[{"geonameid":11788331,"name":"City of Biggs","admin3":"11788331"},{"geonameid":11788527,"name":"City of Gridley","admin3":"11788527"},{"geonameid":11788688,"name":"City of Chico","admin3":"11788688"},{"geonameid":11788955,"name":"City of Oroville","admin3":"11788955"}],"alternateNames":[{"alternatenameId":1632217,"geonameid":5332921,"isoLanguage":"en","alternateName":"California","isPreferredName":true,"isShortName":true,"isColloquial":false,"isHistoric":false}]},"__N_SSG":true}