{"pageProps":{"locale":"en","admin2":{"geonameid":5350964,"name":"Fresno County","country":"US","admin1":"CA","admin2":"019","admin3":"","latitude":"36.7581800","longitude":"-119.6493200","localeAltName":null},"admin1":{"geonameid":5332921,"name":"California","admin1":"CA","localeAltName":"California"},"locations":[{"geonameid":5325211,"name":"Auberry","admin3":"","localeAltName":null},{"geonameid":5328724,"name":"Biola","admin3":"","localeAltName":null},{"geonameid":5333174,"name":"Calwa","admin3":"","localeAltName":null},{"geonameid":5334575,"name":"Caruthers","admin3":"","localeAltName":null},{"geonameid":5338122,"name":"Clovis","admin3":"","localeAltName":null},{"geonameid":5338196,"name":"Coalinga","admin3":"","localeAltName":null},{"geonameid":5342434,"name":"Del Rey","admin3":"","localeAltName":null},{"geonameid":5345171,"name":"Easton","admin3":"","localeAltName":null},{"geonameid":5348299,"name":"Firebaugh","admin3":"","localeAltName":null},{"geonameid":5350351,"name":"Fowler","admin3":"","localeAltName":null},{"geonameid":5350937,"name":"Fresno","admin3":"","localeAltName":null},{"geonameid":5351016,"name":"Friant","admin3":"","localeAltName":null},{"geonameid":5358769,"name":"Huron","admin3":"","localeAltName":null},{"geonameid":5362909,"name":"Kerman","admin3":"","localeAltName":null},{"geonameid":5363429,"name":"Kingsburg","admin3":"","localeAltName":null},{"geonameid":5364937,"name":"Lanare","admin3":"","localeAltName":null},{"geonameid":5365442,"name":"Laton","admin3":"","localeAltName":null},{"geonameid":5369881,"name":"Malaga","admin3":"","localeAltName":null},{"geonameid":5372190,"name":"Mendota","admin3":"","localeAltName":null},{"geonameid":5373452,"name":"Minkler","admin3":"","localeAltName":null},{"geonameid":7315205,"name":"Old Fig Garden","admin3":"","localeAltName":null},{"geonameid":5379533,"name":"Orange Cove","admin3":"","localeAltName":null},{"geonameid":5381325,"name":"Parlier","admin3":"","localeAltName":null},{"geonameid":5386984,"name":"Reedley","admin3":"","localeAltName":null},{"geonameid":5387854,"name":"Riverdale","admin3":"","localeAltName":null},{"geonameid":5392114,"name":"San Joaquin","admin3":"","localeAltName":null},{"geonameid":5392868,"name":"Sanger","admin3":"","localeAltName":null},{"geonameid":5394329,"name":"Selma","admin3":"","localeAltName":null},{"geonameid":5394970,"name":"Shaver Lake","admin3":"","localeAltName":null},{"geonameid":5398440,"name":"Squaw Valley","admin3":"","localeAltName":null},{"geonameid":5400032,"name":"Sunnyside","admin3":"","localeAltName":null},{"geonameid":5401133,"name":"Tarpey Village","admin3":"","localeAltName":null},{"geonameid":5403269,"name":"Tranquillity","admin3":"","localeAltName":null},{"geonameid":5408166,"name":"West Park","admin3":"","localeAltName":null}],"admin3":[{"geonameid":11788310,"name":"City of Fresno","admin3":"11788310"},{"geonameid":11788315,"name":"City of Parlier","admin3":"11788315"},{"geonameid":11788333,"name":"City of Coalinga","admin3":"11788333"},{"geonameid":11788388,"name":"City of Mendota","admin3":"11788388"},{"geonameid":11788414,"name":"City of Kerman","admin3":"11788414"},{"geonameid":11788429,"name":"City of Orange Cove","admin3":"11788429"},{"geonameid":11788435,"name":"City of Kingsburg","admin3":"11788435"},{"geonameid":11788441,"name":"City of Reedley","admin3":"11788441"},{"geonameid":11788507,"name":"City of Firebaugh","admin3":"11788507"},{"geonameid":11788518,"name":"City of San Joaquin","admin3":"11788518"},{"geonameid":11788596,"name":"City of Huron","admin3":"11788596"},{"geonameid":11788620,"name":"City of Selma","admin3":"11788620"},{"geonameid":11789005,"name":"City of Fowler","admin3":"11789005"}],"alternateNames":[{"alternatenameId":1632217,"geonameid":5332921,"isoLanguage":"en","alternateName":"California","isPreferredName":true,"isShortName":true,"isColloquial":false,"isHistoric":false}]},"__N_SSG":true}