{"pageProps":{"locale":"en","admin2":{"geonameid":2743476,"name":"Gemeente Zwolle","country":"NL","admin1":"15","admin2":"0193","admin3":"","latitude":"52.5126400","longitude":"6.0935900"},"admin1":{"geonameid":2748838,"name":"Provincie Overijssel","admin1":"15"},"locations":[{"geonameid":2760146,"name":"Aalanden","admin3":""},{"geonameid":2759629,"name":"Assendorp","admin3":""},{"geonameid":2759064,"name":"Berkum","admin3":""},{"geonameid":2759063,"name":"Berkum-Bruggenhoek","admin3":""},{"geonameid":2758313,"name":"Brinkhoek","admin3":""},{"geonameid":2757305,"name":"De Marslanden","admin3":""},{"geonameid":2756850,"name":"Dieze","admin3":""},{"geonameid":2755840,"name":"Frankhuis","admin3":""},{"geonameid":2754969,"name":"Haerst","admin3":""},{"geonameid":2754865,"name":"Harculo","admin3":""},{"geonameid":2754360,"name":"Herfte","admin3":""},{"geonameid":2753871,"name":"Holtenbroek","admin3":""},{"geonameid":2753659,"name":"Hoog Zuthem","admin3":""},{"geonameid":2753298,"name":"Ittersum","admin3":""},{"geonameid":2753040,"name":"Katerveer","admin3":""},{"geonameid":2751928,"name":"Langenholte","admin3":""},{"geonameid":2751648,"name":"Lichtmis","admin3":""},{"geonameid":2749650,"name":"Oldeneel","admin3":""},{"geonameid":2748611,"name":"Pierik","admin3":""},{"geonameid":2747641,"name":"Schelle","admin3":""},{"geonameid":2747035,"name":"Soeslo","admin3":""},{"geonameid":2746909,"name":"Spoolde","admin3":""},{"geonameid":12212531,"name":"Stadshagen","admin3":""},{"geonameid":2744775,"name":"Westenholte","admin3":""},{"geonameid":2744451,"name":"Wijthmen","admin3":""},{"geonameid":2744361,"name":"Windesheim","admin3":""},{"geonameid":2744328,"name":"Wipstrik","admin3":""},{"geonameid":2744103,"name":"Zaln√©","admin3":""},{"geonameid":2743477,"name":"Zwolle","admin3":""}],"admin3":[],"alternateNames":[{"alternatenameId":11907794,"geonameid":2748838,"isoLanguage":"de","alternateName":"Overijssel","isPreferredName":true,"isShortName":true,"isColloquial":false,"isHistoric":false}]},"__N_SSG":true}