{"pageProps":{"locale":"en","admin2":{"geonameid":4496196,"name":"Union County","country":"US","admin1":"NC","admin2":"179","admin3":"","latitude":"34.9883700","longitude":"-80.5307300","localeAltName":null},"admin1":{"geonameid":4482348,"name":"North Carolina","admin1":"NC","localeAltName":"North Carolina"},"locations":[{"geonameid":4465711,"name":"Fairview","admin3":"91264","localeAltName":null},{"geonameid":4470545,"name":"Hemby Bridge","admin3":"93860","localeAltName":null},{"geonameid":4472687,"name":"Indian Trail","admin3":"93860","localeAltName":null},{"geonameid":4472957,"name":"Jaars","admin3":"91624","localeAltName":null},{"geonameid":4474845,"name":"Lake Park","admin3":"93860","localeAltName":null},{"geonameid":4478116,"name":"Marshville","admin3":"92004","localeAltName":null},{"geonameid":4478192,"name":"Marvin","admin3":"92836","localeAltName":null},{"geonameid":4479702,"name":"Mineral Springs","admin3":"92836","localeAltName":null},{"geonameid":4479946,"name":"Monroe","admin3":"92108","localeAltName":null},{"geonameid":4493186,"name":"Stallings","admin3":"93860","localeAltName":null},{"geonameid":4496304,"name":"Unionville","admin3":"91264","localeAltName":null},{"geonameid":4497833,"name":"Waxhaw","admin3":"91624","localeAltName":null},{"geonameid":4497956,"name":"Weddington","admin3":"92836","localeAltName":null},{"geonameid":4498075,"name":"Wesley Chapel","admin3":"92836","localeAltName":null},{"geonameid":4499573,"name":"Wingate","admin3":"92108","localeAltName":null}],"admin3":[{"geonameid":4049638,"name":"Township of Buford","admin3":"90432"},{"geonameid":4468346,"name":"Township of Goose Creek","admin3":"91264","localeAltName":null},{"geonameid":4473073,"name":"Township of Jackson","admin3":"91624","localeAltName":null},{"geonameid":4475089,"name":"Township of Lanes Creek","admin3":"91736"},{"geonameid":4478117,"name":"Township of Marshville","admin3":"92004","localeAltName":null},{"geonameid":4479960,"name":"Township of Monroe","admin3":"92108","localeAltName":null},{"geonameid":4482000,"name":"Township of New Salem","admin3":"92280"},{"geonameid":4490299,"name":"Township of Sandy Ridge","admin3":"92836","localeAltName":null},{"geonameid":4496566,"name":"Township of Vance","admin3":"93860","localeAltName":null}],"alternateNames":[{"alternatenameId":2089560,"geonameid":4482348,"isoLanguage":"en","alternateName":"North Carolina","isPreferredName":true,"isShortName":true,"isColloquial":false,"isHistoric":false}]},"__N_SSG":true}