{"pageProps":{"locale":"en","admin2":{"geonameid":5272272,"name":"Sawyer County","country":"US","admin1":"WI","admin2":"113","admin3":"","latitude":"45.8799700","longitude":"-91.1446700","localeAltName":null},"admin1":{"geonameid":5279468,"name":"Wisconsin","admin1":"WI","localeAltName":"Wisconsin"},"locations":[{"geonameid":5248457,"name":"Chief Lake","admin3":"33475","localeAltName":null},{"geonameid":5255882,"name":"Hayward","admin3":"33450","localeAltName":null},{"geonameid":5260521,"name":"Little Round Lake","admin3":"05200","localeAltName":null}],"admin3":[{"geonameid":5244888,"name":"Town of Bass Lake","admin3":"05200","localeAltName":null},{"geonameid":5249526,"name":"Village of Couderay","admin3":"17225"},{"geonameid":5249535,"name":"Town of Couderay","admin3":"17250"},{"geonameid":5250888,"name":"Town of Draper","admin3":"20825"},{"geonameid":5251540,"name":"Town of Edgewater","admin3":"22625"},{"geonameid":5252294,"name":"Village of Exeland","admin3":"24700"},{"geonameid":5255896,"name":"City of Hayward","admin3":"33450","localeAltName":null},{"geonameid":5255897,"name":"Town of Hayward","admin3":"33475","localeAltName":null},{"geonameid":5257150,"name":"Town of Hunter","admin3":"36450"},{"geonameid":5259784,"name":"Town of Lenroot","admin3":"43400"},{"geonameid":5262444,"name":"Town of Meadowbrook","admin3":"50300"},{"geonameid":5262731,"name":"Town of Meteor","admin3":"51425"},{"geonameid":5265582,"name":"Town of Ojibwa","admin3":"59600"},{"geonameid":5268277,"name":"Town of Radisson","admin3":"66075"},{"geonameid":5268278,"name":"Village of Radisson","admin3":"66050"},{"geonameid":5269647,"name":"Town of Round Lake","admin3":"69750"},{"geonameid":5272139,"name":"Town of Sand Lake","admin3":"71500"},{"geonameid":5273993,"name":"Town of Spider Lake","admin3":"75450"},{"geonameid":5278312,"name":"Town of Weirgor","admin3":"85100"},{"geonameid":5279383,"name":"Town of Winter","admin3":"88000"},{"geonameid":5279384,"name":"Village of Winter","admin3":"87975"}],"alternateNames":[{"alternatenameId":2089565,"geonameid":5279468,"isoLanguage":"en","alternateName":"Wisconsin","isPreferredName":true,"isShortName":true,"isColloquial":false,"isHistoric":false}]},"__N_SSG":true}