{"pageProps":{"locale":"en","admin2":{"geonameid":5445392,"name":"Finney County","country":"US","admin1":"KS","admin2":"055","admin3":"","latitude":"38.0443000","longitude":"-100.7369900","localeAltName":null},"admin1":{"geonameid":4273857,"name":"Kansas","admin1":"KS","localeAltName":"Kansas"},"locations":[{"geonameid":5445439,"name":"Garden City","admin3":"25325","localeAltName":null},{"geonameid":5445612,"name":"Holcomb","admin3":"64800","localeAltName":null}],"admin3":[{"geonameid":5445440,"name":"City of Garden City","admin3":"25325","localeAltName":null},{"geonameid":5445446,"name":"Township of Garden City","admin3":"25350"},{"geonameid":5445453,"name":"Township of Garfield","admin3":"25600"},{"geonameid":5445669,"name":"Township of Ivanhoe","admin3":"34675"},{"geonameid":5446181,"name":"Township of Pierceville","admin3":"55800"},{"geonameid":5446209,"name":"Township of Pleasant Valley","admin3":"56550"},{"geonameid":5446467,"name":"Township of Sherlock","admin3":"64800","localeAltName":null},{"geonameid":5446627,"name":"Township of Terry","admin3":"70225"}],"alternateNames":[{"alternatenameId":2080124,"geonameid":4273857,"isoLanguage":"en","alternateName":"Kansas","isPreferredName":true,"isShortName":true,"isColloquial":false,"isHistoric":false}]},"__N_SSG":true}