{"pageProps":{"locale":"en","admin2":{"geonameid":2758588,"name":"Gemeente Borsele","country":"NL","admin1":"10","admin2":"0654","admin3":"","latitude":"51.4419100","longitude":"3.8112700"},"admin1":{"geonameid":2744011,"name":"Provincie Zeeland","admin1":"10"},"locations":[{"geonameid":2759562,"name":"Baarland","admin3":""},{"geonameid":2759537,"name":"Baarsdorp","admin3":""},{"geonameid":2759504,"name":"Bakendorp","admin3":""},{"geonameid":2758587,"name":"Borssele","admin3":""},{"geonameid":2756572,"name":"Driewegen","admin3":""},{"geonameid":2756190,"name":"Ellewoutsdijk","admin3":""},{"geonameid":2755364,"name":"Graszode","admin3":""},{"geonameid":2754503,"name":"Heinkenszand","admin3":""},{"geonameid":2754224,"name":"Het Oudeland","admin3":""},{"geonameid":2754035,"name":"Hoedekenskerke","admin3":""},{"geonameid":2752594,"name":"Knaphof","admin3":""},{"geonameid":2752562,"name":"Koekoek","admin3":""},{"geonameid":2752141,"name":"Kwadendamme","admin3":""},{"geonameid":2751903,"name":"Langeweegje","admin3":""},{"geonameid":2751668,"name":"Lewedorp","admin3":""},{"geonameid":2750356,"name":"Nieuwdorp","admin3":""},{"geonameid":2750033,"name":"Nisse","admin3":""},{"geonameid":2749086,"name":"Oudelande","admin3":""},{"geonameid":2748803,"name":"Ovezande","admin3":""},{"geonameid":2748129,"name":"Rijkebuurt","admin3":""},{"geonameid":2747366,"name":"s-Gravenpolder","admin3":""},{"geonameid":2747359,"name":"s-Heer Abtskerke","admin3":""},{"geonameid":2747355,"name":"s-Heerenhoek","admin3":""},{"geonameid":2747646,"name":"Scheldeoord","admin3":""},{"geonameid":2747305,"name":"Sinoutskerke","admin3":""},{"geonameid":2746089,"name":"t Vlaandertje","admin3":""}],"admin3":[],"alternateNames":[{"alternatenameId":11907790,"geonameid":2744011,"isoLanguage":"de","alternateName":"Zeeland","isPreferredName":true,"isShortName":true,"isColloquial":false,"isHistoric":false}]},"__N_SSG":true}