{"pageProps":{"locale":"en","admin2":{"geonameid":2753437,"name":"Gemeente Hulst","country":"NL","admin1":"10","admin2":"0677","admin3":"","latitude":"51.3189700","longitude":"4.0869000"},"admin1":{"geonameid":2744011,"name":"Provincie Zeeland","admin1":"10"},"locations":[{"geonameid":2746356,"name":"â€™t Hoekje","admin3":""},{"geonameid":2760060,"name":"Absdale","admin3":""},{"geonameid":2759574,"name":"Baalhoek","admin3":""},{"geonameid":2757951,"name":"Clinge","admin3":""},{"geonameid":2757675,"name":"De Eeck","admin3":""},{"geonameid":2756609,"name":"Drie Hoefijzers","admin3":""},{"geonameid":2756503,"name":"Duivenhoek","admin3":""},{"geonameid":2756145,"name":"Emmadorp","admin3":""},{"geonameid":2755382,"name":"Graauw","admin3":""},{"geonameid":2755296,"name":"Groenendijk","admin3":""},{"geonameid":2754946,"name":"Halfeind","admin3":""},{"geonameid":2754550,"name":"Heikant","admin3":""},{"geonameid":2754385,"name":"Hengstdijk","admin3":""},{"geonameid":9883612,"name":"Hontenisse","admin3":""},{"geonameid":2753439,"name":"Hulst","admin3":""},{"geonameid":2753107,"name":"Kampen","admin3":""},{"geonameid":2753101,"name":"Kamperhoek","admin3":""},{"geonameid":2753067,"name":"Kapellebrug","admin3":""},{"geonameid":2752980,"name":"Keizerrijk","admin3":""},{"geonameid":2752611,"name":"Kloosterzande","admin3":""},{"geonameid":2752584,"name":"Knuitershoek","admin3":""},{"geonameid":2752328,"name":"Krabbenhoek","admin3":""},{"geonameid":2752276,"name":"Kreverhille","admin3":""},{"geonameid":2752199,"name":"Kruisdorp","admin3":""},{"geonameid":2752188,"name":"Kruispolderhaven","admin3":""},{"geonameid":2752157,"name":"Kuitaart","admin3":""},{"geonameid":2751993,"name":"Lamswaarde","admin3":""},{"geonameid":2751382,"name":"Luntershoek","admin3":""},{"geonameid":2750696,"name":"Molenhoek","admin3":""},{"geonameid":2750155,"name":"Nieuw-Namen","admin3":""},{"geonameid":2749824,"name":"Noordstraat","admin3":""},{"geonameid":2749218,"name":"Ossenisse","admin3":""},{"geonameid":2748999,"name":"Oude Stoof","admin3":""},{"geonameid":2748800,"name":"Paal","admin3":""},{"geonameid":2748699,"name":"Patrijzenhoek","admin3":""},{"geonameid":2748694,"name":"Pauluspolder","admin3":""},{"geonameid":2748648,"name":"Perkpolder","admin3":""},{"geonameid":2748423,"name":"Prosperdorp","admin3":""},{"geonameid":2747876,"name":"Roverberg","admin3":""},{"geonameid":2747826,"name":"Ruischendegat","admin3":""},{"geonameid":2747682,"name":"Schapershoek","admin3":""},{"geonameid":2747645,"name":"Scheldevaartshoek","admin3":""},{"geonameid":2747446,"name":"Schuddebeurs","admin3":""},{"geonameid":2747260,"name":"Sint Jansteen","admin3":""},{"geonameid":6544904,"name":"Sluis","admin3":""},{"geonameid":2746828,"name":"Statenboom","admin3":""},{"geonameid":2746654,"name":"Stoppeldijkveer","admin3":""},{"geonameid":2746582,"name":"Strooienstad","admin3":""},{"geonameid":2746276,"name":"t Jagertje","admin3":""},{"geonameid":2746517,"name":"Tasdijk","admin3":""},{"geonameid":2746452,"name":"Ter Hole","admin3":""},{"geonameid":2745537,"name":"Vijfhoek","admin3":""},{"geonameid":2745358,"name":"Vogelfort","admin3":""},{"geonameid":2745352,"name":"Vogelwaarde","admin3":""},{"geonameid":2745060,"name":"Walsoorden","admin3":""},{"geonameid":2744098,"name":"Zandberg","admin3":""},{"geonameid":2744024,"name":"Zeedorp","admin3":""},{"geonameid":2744022,"name":"Zeegat","admin3":""}],"admin3":[],"alternateNames":[{"alternatenameId":11907790,"geonameid":2744011,"isoLanguage":"de","alternateName":"Zeeland","isPreferredName":true,"isShortName":true,"isColloquial":false,"isHistoric":false}]},"__N_SSG":true}