{"pageProps":{"locale":"ro","admin2":{"geonameid":673599,"name":"Comuna Melineşti","country":"RO","admin1":"17","admin2":"73102","admin3":"","latitude":"44.5631000","longitude":"23.6953000"},"admin1":{"geonameid":679134,"name":"Dolj","admin1":"17"},"locations":[{"geonameid":684475,"name":"Bodăiești","admin3":""},{"geonameid":684474,"name":"Bodăieștii de Sus","admin3":""},{"geonameid":677006,"name":"Godeni","admin3":""},{"geonameid":673600,"name":"Melineşti","admin3":""},{"geonameid":672696,"name":"Muierușu","admin3":""},{"geonameid":672428,"name":"Negoiești","admin3":""},{"geonameid":671967,"name":"Odoleni","admin3":""},{"geonameid":671931,"name":"Ohaba","admin3":""},{"geonameid":670398,"name":"Ploștina","admin3":""},{"geonameid":669911,"name":"Popești","admin3":""},{"geonameid":666361,"name":"Spineni","admin3":""},{"geonameid":663635,"name":"Valea Mare","admin3":""},{"geonameid":663565,"name":"Valea Muierii de Jos","admin3":""},{"geonameid":663564,"name":"Valea Muierii de Sus","admin3":""}],"admin3":[],"alternateNames":[]},"__N_SSG":true}