{"pageProps":{"locale":"en","admin2":{"geonameid":5243062,"name":"Windsor County","country":"US","admin1":"VT","admin2":"027","admin3":"","latitude":"43.5800000","longitude":"-72.5862400","localeAltName":null},"admin1":{"geonameid":5242283,"name":"Vermont","admin1":"VT","localeAltName":"Vermont"},"locations":[{"geonameid":5233303,"name":"Ascutney","admin3":"77500","localeAltName":null},{"geonameid":5233794,"name":"Bethel","admin3":"05800","localeAltName":null},{"geonameid":5234827,"name":"Chester","admin3":"13675","localeAltName":null},{"geonameid":5236879,"name":"Hartford","admin3":"32275","localeAltName":null},{"geonameid":5238156,"name":"Ludlow","admin3":"41275","localeAltName":null},{"geonameid":5239244,"name":"North Springfield","admin3":"69550","localeAltName":null},{"geonameid":5239319,"name":"Norwich","admin3":"52900","localeAltName":null},{"geonameid":5240108,"name":"Quechee","admin3":"32275","localeAltName":null},{"geonameid":5241330,"name":"South Royalton","admin3":"60850","localeAltName":null},{"geonameid":5241423,"name":"Springfield","admin3":"69550","localeAltName":null},{"geonameid":5242821,"name":"Weston","admin3":"82000","localeAltName":null},{"geonameid":5242889,"name":"White River Junction","admin3":"32275","localeAltName":null},{"geonameid":5242952,"name":"Wilder","admin3":"32275","localeAltName":null},{"geonameid":5243059,"name":"Windsor","admin3":"84925","localeAltName":null},{"geonameid":5243145,"name":"Woodstock","admin3":"85975","localeAltName":null}],"admin3":[{"geonameid":5233263,"name":"Town of Andover","admin3":"01300"},{"geonameid":5233439,"name":"Town of Baltimore","admin3":"02575"},{"geonameid":5233476,"name":"Town of Barnard","admin3":"02725"},{"geonameid":5233801,"name":"Town of Bethel","admin3":"05800","localeAltName":null},{"geonameid":5234162,"name":"Town of Bridgewater","admin3":"08275"},{"geonameid":5234688,"name":"Town of Cavendish","admin3":"12250"},{"geonameid":5234834,"name":"Town of Chester","admin3":"13675","localeAltName":null},{"geonameid":5236866,"name":"Town of Hartford","admin3":"32275","localeAltName":null},{"geonameid":5236872,"name":"Town of Hartland","admin3":"32425"},{"geonameid":5238165,"name":"Town of Ludlow","admin3":"41275","localeAltName":null},{"geonameid":5239333,"name":"Town of Norwich","admin3":"52900","localeAltName":null},{"geonameid":5239912,"name":"Town of Plymouth","admin3":"56050"},{"geonameid":5239932,"name":"Town of Pomfret","admin3":"56350"},{"geonameid":5240194,"name":"Town of Reading","admin3":"58375"},{"geonameid":5240387,"name":"Town of Rochester","admin3":"60100"},{"geonameid":5240477,"name":"Town of Royalton","admin3":"60850","localeAltName":null},{"geonameid":5240977,"name":"Town of Sharon","admin3":"63775"},{"geonameid":5241444,"name":"Town of Springfield","admin3":"69550","localeAltName":null},{"geonameid":5241583,"name":"Town of Stockbridge","admin3":"70375"},{"geonameid":5242588,"name":"Town of Weathersfield","admin3":"77500","localeAltName":null},{"geonameid":5242794,"name":"Town of West Windsor","admin3":"83050"},{"geonameid":5242827,"name":"Town of Weston","admin3":"82000","localeAltName":null},{"geonameid":5243070,"name":"Town of Windsor","admin3":"84925","localeAltName":null},{"geonameid":5243159,"name":"Town of Woodstock","admin3":"85975","localeAltName":null}],"alternateNames":[{"alternatenameId":1979591,"geonameid":5242283,"isoLanguage":"en","alternateName":"Vermont","isPreferredName":true,"isShortName":true,"isColloquial":false,"isHistoric":false}]},"__N_SSG":true}