{"pageProps":{"locale":"de","admin2":{"geonameid":11611651,"name":"Region Plessur","country":"CH","admin1":"GR","admin2":"1848","admin3":"","latitude":"46.8181900","longitude":"9.6254200"},"admin1":{"geonameid":2660522,"name":"Kanton Graub√ºnden","admin1":"GR"},"locations":[{"geonameid":2661712,"name":"Arosa","admin3":"3921"},{"geonameid":2661252,"name":"Castiel","admin3":"3921"},{"geonameid":2661169,"name":"Chur","admin3":"3901"},{"geonameid":2661167,"name":"Churwalden","admin3":"3911"},{"geonameid":2660420,"name":"Haldenstein","admin3":"3901"},{"geonameid":2660027,"name":"Langwies","admin3":"3921"},{"geonameid":2659785,"name":"Maladers","admin3":"3901"},{"geonameid":2659782,"name":"Malix","admin3":"3911"},{"geonameid":2659250,"name":"Parpan","admin3":"3911"},{"geonameid":2659238,"name":"Peist","admin3":"3921"},{"geonameid":2659159,"name":"Praden","admin3":"3932"},{"geonameid":2658809,"name":"Sankt Peter","admin3":"3921"},{"geonameid":2658296,"name":"Tschiertschen","admin3":"3932"}],"admin3":[{"geonameid":7285102,"name":"Arosa","admin3":"3921"},{"geonameid":7285515,"name":"Chur","admin3":"3901"},{"geonameid":7285516,"name":"Churwalden","admin3":"3911"},{"geonameid":7287346,"name":"Tschiertschen-Praden","admin3":"3932"}],"alternateNames":[]},"__N_SSG":true}