{"pageProps":{"locale":"de","admin2":{"geonameid":11611655,"name":"Region Landquart","country":"CH","admin1":"GR","admin2":"1845","admin3":"","latitude":"46.9640300","longitude":"9.5636500"},"admin1":{"geonameid":2660522,"name":"Kanton Graubünden","admin1":"GR"},"locations":[{"geonameid":2660763,"name":"Fläsch","admin3":"3951"},{"geonameid":2660277,"name":"Igis","admin3":"3955"},{"geonameid":2660225,"name":"Jenins","admin3":"3952"},{"geonameid":2659787,"name":"Maienfeld","admin3":"3953"},{"geonameid":2659784,"name":"Malans","admin3":"3954"},{"geonameid":2659738,"name":"Mastrils","admin3":"3955"},{"geonameid":2658311,"name":"Trimmis","admin3":"3945"},{"geonameid":2658232,"name":"Untervaz","admin3":"3946"},{"geonameid":2657916,"name":"Zizers","admin3":"3947"}],"admin3":[{"geonameid":7285835,"name":"Fläsch","admin3":"3951"},{"geonameid":7286161,"name":"Jenins","admin3":"3952"},{"geonameid":7286419,"name":"Maienfeld","admin3":"3953"},{"geonameid":7286423,"name":"Malans","admin3":"3954"},{"geonameid":7287334,"name":"Trimmis","admin3":"3945"},{"geonameid":7287389,"name":"Untervaz","admin3":"3946"},{"geonameid":7287638,"name":"Zizers","admin3":"3947"},{"geonameid":8260352,"name":"Landquart","admin3":"3955"}],"alternateNames":[]},"__N_SSG":true}