{"pageProps":{"locale":"ro","admin2":{"geonameid":682547,"name":"Comuna Cătina","country":"RO","admin1":"11","admin2":"45959","admin3":"","latitude":"45.2874700","longitude":"26.2447900"},"admin1":{"geonameid":683121,"name":"Buzău","admin1":"11"},"locations":[{"geonameid":686020,"name":"Avrămeşti","admin3":""},{"geonameid":682549,"name":"Cătina","admin3":""},{"geonameid":682530,"name":"Cătunu","admin3":""},{"geonameid":682402,"name":"Cepturaşu","admin3":""},{"geonameid":680866,"name":"Corbu","admin3":""},{"geonameid":677795,"name":"Fundu Cătinei","admin3":""},{"geonameid":673006,"name":"Moara Enica","admin3":""},{"geonameid":672864,"name":"Mordana","admin3":""},{"geonameid":672754,"name":"Motruna","admin3":""},{"geonameid":671742,"name":"Orbari","admin3":""},{"geonameid":671298,"name":"Păsăroiu","admin3":""},{"geonameid":668736,"name":"Roma","admin3":""},{"geonameid":667896,"name":"Săticu","admin3":""},{"geonameid":666711,"name":"Slobozia","admin3":""},{"geonameid":666022,"name":"Străchineşti","admin3":""},{"geonameid":663845,"name":"Valea Cătinei","admin3":""},{"geonameid":662228,"name":"Zeletin","admin3":""}],"admin3":[],"alternateNames":[]},"__N_SSG":true}