{"pageProps":{"locale":"en","admin2":{"geonameid":12022129,"name":"Beekdaelen","country":"NL","admin1":"05","admin2":"1954","admin3":"","latitude":"50.9367300","longitude":"5.8971700","localeAltName":null},"admin1":{"geonameid":2751596,"name":"Provincie Limburg","admin1":"05","localeAltName":"Limburg"},"locations":[{"geonameid":2760145,"name":"Aalbeek","admin3":"","localeAltName":null},{"geonameid":2759796,"name":"Amstenrade","admin3":"","localeAltName":null},{"geonameid":2759676,"name":"Arensgenhout","admin3":"","localeAltName":null},{"geonameid":2758922,"name":"Bingelrade","admin3":"","localeAltName":null},{"geonameid":2758228,"name":"Brommelen","admin3":"","localeAltName":null},{"geonameid":2756774,"name":"Doenrade","admin3":"","localeAltName":null},{"geonameid":2756650,"name":"Douvergenhout","admin3":"","localeAltName":null},{"geonameid":2755993,"name":"Etzenrade","admin3":"","localeAltName":null},{"geonameid":2755379,"name":"Gracht","admin3":"","localeAltName":null},{"geonameid":2755313,"name":"Grijzegrubben","admin3":"","localeAltName":null},{"geonameid":2754980,"name":"Groot Haasdal","admin3":"","localeAltName":null},{"geonameid":2754610,"name":"Hegge","admin3":"","localeAltName":null},{"geonameid":2754496,"name":"Heisterbrug","admin3":"","localeAltName":null},{"geonameid":2754466,"name":"Helle","admin3":"","localeAltName":null},{"geonameid":2754465,"name":"Hellebroek","admin3":"","localeAltName":null},{"geonameid":2753835,"name":"Hommert","admin3":"","localeAltName":null},{"geonameid":2753452,"name":"Hulsberg","admin3":"","localeAltName":null},{"geonameid":2753418,"name":"Hunnecum","admin3":"","localeAltName":null},{"geonameid":2753293,"name":"Jabeek","admin3":"","localeAltName":null},{"geonameid":6544790,"name":"Kamp","admin3":"","localeAltName":null},{"geonameid":2753039,"name":"Kathagen","admin3":"","localeAltName":null},{"geonameid":2752691,"name":"Klein Haasdal","admin3":"","localeAltName":null},{"geonameid":2752777,"name":"Klein-Doenrade","admin3":"","localeAltName":null},{"geonameid":2752694,"name":"Kleingenhout","admin3":"","localeAltName":null},{"geonameid":2752209,"name":"Kruis","admin3":"","localeAltName":null},{"geonameid":6544719,"name":"Laar","admin3":"","localeAltName":null},{"geonameid":2750938,"name":"Merkelbeek","admin3":"","localeAltName":null},{"geonameid":2750511,"name":"Nagelbeek","admin3":"","localeAltName":null},{"geonameid":2750385,"name":"Nierhoven","admin3":"","localeAltName":null},{"geonameid":2750315,"name":"Nieuwe Heide","admin3":"","localeAltName":null},{"geonameid":2749774,"name":"Nuinhof","admin3":"","localeAltName":null},{"geonameid":2749753,"name":"Nuth","admin3":"","localeAltName":null},{"geonameid":2749707,"name":"Oensel","admin3":"","localeAltName":null},{"geonameid":2749685,"name":"Oirsbeek","admin3":"","localeAltName":null},{"geonameid":2749312,"name":"Op de Bies","admin3":"","localeAltName":null},{"geonameid":2749307,"name":"Op den Hering","admin3":"","localeAltName":null},{"geonameid":2748403,"name":"Puth","admin3":"","localeAltName":null},{"geonameid":2748386,"name":"Quabeek","admin3":"","localeAltName":null},{"geonameid":2748354,"name":"Raath","admin3":"","localeAltName":null},{"geonameid":2748259,"name":"Reijmersbeek","admin3":"","localeAltName":null},{"geonameid":2748219,"name":"Reuken","admin3":"","localeAltName":null},{"geonameid":2747561,"name":"Schimmert","admin3":"","localeAltName":null},{"geonameid":2747553,"name":"Schinnen","admin3":"","localeAltName":null},{"geonameid":2747550,"name":"Schinveld","admin3":"","localeAltName":null},{"geonameid":2746545,"name":"Sweikhuizen","admin3":"","localeAltName":null},{"geonameid":2746542,"name":"Swier","admin3":"","localeAltName":null},{"geonameid":2746405,"name":"Terstraten","admin3":"","localeAltName":null},{"geonameid":2746403,"name":"Tervoorst","admin3":"","localeAltName":null},{"geonameid":2746337,"name":"Thull","admin3":"","localeAltName":null},{"geonameid":2745888,"name":"Vaesrade","admin3":"","localeAltName":null},{"geonameid":2745576,"name":"Viel","admin3":"","localeAltName":null},{"geonameid":2745509,"name":"Vink","admin3":"","localeAltName":null},{"geonameid":2744471,"name":"Wijnandsrade","admin3":"","localeAltName":null},{"geonameid":2744220,"name":"Wolfhagen","admin3":"","localeAltName":null}],"admin3":[],"alternateNames":[{"alternatenameId":9073257,"geonameid":2751596,"isoLanguage":"en","alternateName":"Limburg","isPreferredName":true,"isShortName":true,"isColloquial":false,"isHistoric":false},{"alternatenameId":9073258,"geonameid":2751596,"isoLanguage":"de","alternateName":"Limburg","isPreferredName":true,"isShortName":true,"isColloquial":false,"isHistoric":false}]},"__N_SSG":true}