{"pageProps":{"locale":"en","admin2":{"geonameid":6544233,"name":"Gemeente Horst aan de Maas","country":"NL","admin1":"05","admin2":"1507","admin3":"","latitude":"51.4593100","longitude":"6.1025400","localeAltName":null},"admin1":{"geonameid":2751596,"name":"Provincie Limburg","admin1":"05","localeAltName":"Limburg"},"locations":[{"geonameid":2759941,"name":"Afhang","admin3":"","localeAltName":null},{"geonameid":2759831,"name":"America","admin3":"","localeAltName":null},{"geonameid":2757245,"name":"Broek","admin3":"","localeAltName":null},{"geonameid":2758298,"name":"Broek","admin3":"","localeAltName":null},{"geonameid":2758288,"name":"Broekeind","admin3":"","localeAltName":null},{"geonameid":2758266,"name":"Broekhuizen","admin3":"","localeAltName":null},{"geonameid":2758260,"name":"Broekhuizenvorst","admin3":"","localeAltName":null},{"geonameid":2758029,"name":"CaliforniÃ«","admin3":"","localeAltName":null},{"geonameid":2757572,"name":"De Hees","admin3":"","localeAltName":null},{"geonameid":2757569,"name":"De Hei","admin3":"","localeAltName":null},{"geonameid":6544725,"name":"De Steegh","admin3":"","localeAltName":null},{"geonameid":2756967,"name":"De Vorst","admin3":"","localeAltName":null},{"geonameid":2756278,"name":"Eikelenbosch","admin3":"","localeAltName":null},{"geonameid":2756173,"name":"Elshout","admin3":"","localeAltName":null},{"geonameid":2755961,"name":"Evertsoord","admin3":"","localeAltName":null},{"geonameid":6544723,"name":"Genenberg","admin3":"","localeAltName":null},{"geonameid":2755328,"name":"Griendtsveen","admin3":"","localeAltName":null},{"geonameid":2755051,"name":"Grubbenvorst","admin3":"","localeAltName":null},{"geonameid":2755042,"name":"Gun","admin3":"","localeAltName":null},{"geonameid":2754611,"name":"Hegelsom","admin3":"","localeAltName":null},{"geonameid":2754499,"name":"Hei-Oostenrijk","admin3":"","localeAltName":null},{"geonameid":2753840,"name":"Homberg","admin3":"","localeAltName":null},{"geonameid":2753591,"name":"Horst","admin3":"","localeAltName":null},{"geonameid":2753547,"name":"Houthuizen","admin3":"","localeAltName":null},{"geonameid":2752873,"name":"Keuter","admin3":"","localeAltName":null},{"geonameid":2752228,"name":"Kronenberg","admin3":"","localeAltName":null},{"geonameid":2751778,"name":"Legert","admin3":"","localeAltName":null},{"geonameid":2751422,"name":"Lottum","admin3":"","localeAltName":null},{"geonameid":2751414,"name":"Lovendaal","admin3":"","localeAltName":null},{"geonameid":2751042,"name":"Meerlo","admin3":"","localeAltName":null},{"geonameid":2751003,"name":"Megelsum","admin3":"","localeAltName":null},{"geonameid":2750979,"name":"Melderslo","admin3":"","localeAltName":null},{"geonameid":2750920,"name":"Meterik","admin3":"","localeAltName":null},{"geonameid":2750880,"name":"Middelijk","admin3":"","localeAltName":null},{"geonameid":2750713,"name":"Moleneind","admin3":"","localeAltName":null},{"geonameid":2750580,"name":"Most","admin3":"","localeAltName":null},{"geonameid":2750512,"name":"Nachtegaal","admin3":"","localeAltName":null},{"geonameid":2749566,"name":"Ooijen","admin3":"","localeAltName":null},{"geonameid":2749210,"name":"Osterbos","admin3":"","localeAltName":null},{"geonameid":2748374,"name":"Raaieind","admin3":"","localeAltName":null},{"geonameid":2747730,"name":"Schadijk","admin3":"","localeAltName":null},{"geonameid":2747382,"name":"Sevenum","admin3":"","localeAltName":null},{"geonameid":2746810,"name":"Steeg","admin3":"","localeAltName":null},{"geonameid":2746669,"name":"Stokt","admin3":"","localeAltName":null},{"geonameid":2746537,"name":"Swolgen","admin3":"","localeAltName":null},{"geonameid":2746314,"name":"Tienray","admin3":"","localeAltName":null},{"geonameid":2746205,"name":"Tongerlo","admin3":"","localeAltName":null},{"geonameid":2745952,"name":"Ulfterhoek","admin3":"","localeAltName":null},{"geonameid":2745693,"name":"Veld-Oostenrijk","admin3":"","localeAltName":null},{"geonameid":2745495,"name":"Vinkepas","admin3":"","localeAltName":null},{"geonameid":2744564,"name":"Wielder","admin3":"","localeAltName":null},{"geonameid":6544718,"name":"Zwaanenheike","admin3":"","localeAltName":null}],"admin3":[],"alternateNames":[{"alternatenameId":9073257,"geonameid":2751596,"isoLanguage":"en","alternateName":"Limburg","isPreferredName":true,"isShortName":true,"isColloquial":false,"isHistoric":false},{"alternatenameId":9073258,"geonameid":2751596,"isoLanguage":"de","alternateName":"Limburg","isPreferredName":true,"isShortName":true,"isColloquial":false,"isHistoric":false}]},"__N_SSG":true}