{"pageProps":{"locale":"en","admin2":{"geonameid":5798453,"name":"Island County","country":"US","admin1":"WA","admin2":"029","admin3":"","latitude":"48.2082000","longitude":"-122.6692200","localeAltName":null},"admin1":{"geonameid":5815135,"name":"Washington","admin1":"WA","localeAltName":"Washington"},"locations":[{"geonameid":7260833,"name":"Ault Field","admin3":"","localeAltName":null},{"geonameid":5788816,"name":"Camano","admin3":"","localeAltName":null},{"geonameid":5790344,"name":"Clinton","admin3":"","localeAltName":null},{"geonameid":5791132,"name":"Coupeville","admin3":"","localeAltName":null},{"geonameid":5795025,"name":"Freeland","admin3":"","localeAltName":null},{"geonameid":5800475,"name":"Langley","admin3":"","localeAltName":null},{"geonameid":5805441,"name":"Oak Harbor","admin3":"","localeAltName":null}],"admin3":[{"geonameid":7173991,"name":"City of Oak Harbor","admin3":"7173991"},{"geonameid":7174236,"name":"City of Langley","admin3":"7174236"},{"geonameid":7174801,"name":"Town of Coupeville","admin3":"7174801"}],"alternateNames":[{"alternatenameId":2089568,"geonameid":5815135,"isoLanguage":"en","alternateName":"Washington","isPreferredName":true,"isShortName":true,"isColloquial":false,"isHistoric":false}]},"__N_SSG":true}