{"pageProps":{"locale":"en","admin2":{"geonameid":5810608,"name":"Skagit County","country":"US","admin1":"WA","admin2":"057","admin3":"","latitude":"48.4821500","longitude":"-121.8022700","localeAltName":null},"admin1":{"geonameid":5815135,"name":"Washington","admin1":"WA","localeAltName":"Washington"},"locations":[{"geonameid":5785657,"name":"Anacortes","admin3":"","localeAltName":null},{"geonameid":5786500,"name":"Bay View","admin3":"","localeAltName":null},{"geonameid":5787215,"name":"Big Lake","admin3":"","localeAltName":null},{"geonameid":5788539,"name":"Burlington","admin3":"","localeAltName":null},{"geonameid":5790270,"name":"Clear Lake","admin3":"","localeAltName":null},{"geonameid":5790718,"name":"Concrete","admin3":"","localeAltName":null},{"geonameid":5800074,"name":"La Conner","admin3":"","localeAltName":null},{"geonameid":5804127,"name":"Mount Vernon","admin3":"","localeAltName":null},{"geonameid":5809902,"name":"Sedro-Woolley","admin3":"","localeAltName":null}],"admin3":[{"geonameid":7172926,"name":"City of Anacortes","admin3":"7172926"},{"geonameid":7173098,"name":"City of Burlington","admin3":"7173098"},{"geonameid":7173907,"name":"City of Mount Vernon","admin3":"7173907"},{"geonameid":7174410,"name":"City of Sedro-Woolley","admin3":"7174410"},{"geonameid":7175137,"name":"Town of Hamilton","admin3":"7175137"},{"geonameid":7175264,"name":"Town of La Conner","admin3":"7175264"},{"geonameid":7175337,"name":"Town of Lyman","admin3":"7175337"},{"geonameid":7175640,"name":"Town of Concrete","admin3":"7175640"}],"alternateNames":[{"alternatenameId":2089568,"geonameid":5815135,"isoLanguage":"en","alternateName":"Washington","isPreferredName":true,"isShortName":true,"isColloquial":false,"isHistoric":false}]},"__N_SSG":true}