{"pageProps":{"locale":"en","admin2":{"geonameid":5816597,"name":"Yakima County","country":"US","admin1":"WA","admin2":"077","admin3":"","latitude":"46.4568500","longitude":"-120.7387000","localeAltName":null},"admin1":{"geonameid":5815135,"name":"Washington","admin1":"WA","localeAltName":"Washington"},"locations":[{"geonameid":5785359,"name":"Ahtanum","admin3":"","localeAltName":null},{"geonameid":5788416,"name":"Buena","admin3":"","localeAltName":null},{"geonameid":5795542,"name":"Gleed","admin3":"","localeAltName":null},{"geonameid":5795969,"name":"Grandview","admin3":"","localeAltName":null},{"geonameid":5795972,"name":"Granger","admin3":"","localeAltName":null},{"geonameid":5796789,"name":"Harrah","admin3":"","localeAltName":null},{"geonameid":5802087,"name":"Mabton","admin3":"","localeAltName":null},{"geonameid":5804211,"name":"Moxee City","admin3":"","localeAltName":null},{"geonameid":5804430,"name":"Naches","admin3":"","localeAltName":null},{"geonameid":5809569,"name":"Satus","admin3":"","localeAltName":null},{"geonameid":5809928,"name":"Selah","admin3":"","localeAltName":null},{"geonameid":5812541,"name":"Summitview","admin3":"","localeAltName":null},{"geonameid":5812604,"name":"Sunnyside","admin3":"","localeAltName":null},{"geonameid":5813249,"name":"Terrace Heights","admin3":"","localeAltName":null},{"geonameid":5813532,"name":"Tieton","admin3":"","localeAltName":null},{"geonameid":5813747,"name":"Toppenish","admin3":"","localeAltName":null},{"geonameid":5814419,"name":"Union Gap","admin3":"","localeAltName":null},{"geonameid":5814992,"name":"Wapato","admin3":"","localeAltName":null},{"geonameid":5815605,"name":"West Valley","admin3":"","localeAltName":null},{"geonameid":5815850,"name":"White Swan","admin3":"","localeAltName":null},{"geonameid":5816605,"name":"Yakima","admin3":"","localeAltName":null},{"geonameid":5816719,"name":"Zillah","admin3":"","localeAltName":null}],"admin3":[{"geonameid":7173529,"name":"City of Grandview","admin3":"7173529"},{"geonameid":7173531,"name":"City of Granger","admin3":"7173531"},{"geonameid":7173722,"name":"City of Mabton","admin3":"7173722"},{"geonameid":7174413,"name":"City of Selah","admin3":"7174413"},{"geonameid":7174525,"name":"City of Sunnyside","admin3":"7174525"},{"geonameid":7174583,"name":"City of Toppenish","admin3":"7174583"},{"geonameid":7174614,"name":"City of Union Gap","admin3":"7174614"},{"geonameid":7174646,"name":"City of Wapato","admin3":"7174646"},{"geonameid":7174755,"name":"City of Zillah","admin3":"7174755"},{"geonameid":7175144,"name":"Town of Harrah","admin3":"7175144"},{"geonameid":7175440,"name":"Town of Naches","admin3":"7175440"},{"geonameid":7175789,"name":"City of Tieton","admin3":"7175789"},{"geonameid":11788996,"name":"City of Moxee","admin3":"11788996"}],"alternateNames":[{"alternatenameId":2089568,"geonameid":5815135,"isoLanguage":"en","alternateName":"Washington","isPreferredName":true,"isShortName":true,"isColloquial":false,"isHistoric":false}]},"__N_SSG":true}