{"pageProps":{"locale":"en","admin2":{"geonameid":5928473,"name":"Côte-Nord","country":"CA","admin1":"10","admin2":"09","admin3":"","latitude":"50.8668300","longitude":"-65.8154100"},"admin1":{"geonameid":6115047,"name":"Québec","admin1":"10"},"locations":[{"geonameid":5889745,"name":"Baie-Comeau","admin3":"96020"},{"geonameid":5890164,"name":"Baie-des-Ha! Ha!","admin3":"98014"},{"geonameid":5890173,"name":"Baie-des-Homards","admin3":"97022"},{"geonameid":5890788,"name":"Baie-Johan-Beetz","admin3":"98035"},{"geonameid":5891330,"name":"Baie-Rouge","admin3":"98014"},{"geonameid":5891356,"name":"Baie-Saint-Ludger","admin3":"96030"},{"geonameid":5891492,"name":"Baie-Trinité","admin3":"96005"},{"geonameid":5893956,"name":"Barrage-Sainte-Marguerite","admin3":"97007"},{"geonameid":6942176,"name":"Bergeronnes","admin3":"95018"},{"geonameid":6945992,"name":"Betsiamites","admin3":""},{"geonameid":5903664,"name":"Blanc-Sablon","admin3":"98005"},{"geonameid":5905538,"name":"Bonne-Espérance","admin3":"98010"},{"geonameid":5907238,"name":"Brador","admin3":"98005"},{"geonameid":5915158,"name":"Canton-Arnaud","admin3":"97007"},{"geonameid":5922281,"name":"Chute-aux-Outardes","admin3":"96035"},{"geonameid":5923168,"name":"Clarke City","admin3":"97007"},{"geonameid":5937400,"name":"De Grasse","admin3":"97007"},{"geonameid":5950844,"name":"Factory Point","admin3":"98010"},{"geonameid":5952316,"name":"Ferland","admin3":"97007"},{"geonameid":5952337,"name":"Fermont","admin3":"97035"},{"geonameid":6944112,"name":"Forestville","admin3":"95045"},{"geonameid":5957506,"name":"Franquelin","admin3":"96015"},{"geonameid":5959151,"name":"Gallix","admin3":"97007"},{"geonameid":5962422,"name":"Godbout","admin3":"96010"},{"geonameid":5964689,"name":"Grand-Ruisseau","admin3":"97022"},{"geonameid":6940505,"name":"Grandes-Bergeronnes","admin3":"95018"},{"geonameid":5967373,"name":"Gros-Mécatina","admin3":"98014"},{"geonameid":5971258,"name":"Harrington Harbour","admin3":"98015"},{"geonameid":12076633,"name":"Hauterive","admin3":"96020"},{"geonameid":5972221,"name":"Havre-Bayfield","admin3":"98012"},{"geonameid":5972291,"name":"Havre-Saint-Pierre","admin3":"98040"},{"geonameid":5989832,"name":"Kawawachikamach","admin3":""},{"geonameid":5990251,"name":"Kegaska","admin3":"98015"},{"geonameid":6049595,"name":"L'Anse-aux-Fraises","admin3":"98020"},{"geonameid":6049608,"name":"L'Anse-du-Portage","admin3":"98012"},{"geonameid":6053856,"name":"L'Île-d'Anticosti","admin3":"98020"},{"geonameid":6050054,"name":"La Romaine","admin3":"98015"},{"geonameid":6050325,"name":"La Tabatière","admin3":"98014"},{"geonameid":6006267,"name":"Lac-Daigle","admin3":""},{"geonameid":6028099,"name":"Lac-Labrie","admin3":"97007"},{"geonameid":6041158,"name":"Lac-Sainte-Anne","admin3":""},{"geonameid":6051364,"name":"Le Canton","admin3":"98020"},{"geonameid":6052756,"name":"Les Buissons","admin3":"96030"},{"geonameid":6955478,"name":"Les Escoumins","admin3":"95025"},{"geonameid":6052871,"name":"Les Islets-Caribou","admin3":"96005"},{"geonameid":6053025,"name":"Les Sept-Lacs","admin3":""},{"geonameid":6059890,"name":"Longue-Pointe-de-Mingan","admin3":"98045"},{"geonameid":6060893,"name":"Lourdes-de-Blanc-Sablon","admin3":"98005"},{"geonameid":6064189,"name":"Magpie","admin3":"98050"},{"geonameid":6945997,"name":"Maliotenam","admin3":"97007"},{"geonameid":6065127,"name":"Manic-Cinq","admin3":""},{"geonameid":6066705,"name":"Marquette","admin3":"96020"},{"geonameid":6067753,"name":"Matamec","admin3":"97007"},{"geonameid":6072810,"name":"Micoua","admin3":""},{"geonameid":6072857,"name":"Middle Bay","admin3":"98010"},{"geonameid":6074639,"name":"Mingan","admin3":"98040"},{"geonameid":6074640,"name":"Mingan","admin3":"96020"},{"geonameid":6076008,"name":"Moisie","admin3":"97007"},{"geonameid":6077481,"name":"Mont-Wright","admin3":"97035"},{"geonameid":6085252,"name":"Mutton Bay","admin3":"98014"},{"geonameid":6086225,"name":"Natashquan","admin3":"98025"},{"geonameid":6943810,"name":"Pakuashipi","admin3":"98012"},{"geonameid":6096656,"name":"Papinachois","admin3":""},{"geonameid":6099176,"name":"Passe-Gagnon","admin3":"98012"},{"geonameid":6103446,"name":"Petit-Mai","admin3":"96005"},{"geonameid":6106003,"name":"Plage-Ferguson","admin3":"97007"},{"geonameid":6106028,"name":"Plage-Levesque","admin3":"97007"},{"geonameid":6106038,"name":"Plage-Monaghan","admin3":"97007"},{"geonameid":6106065,"name":"Plage-Routhier","admin3":"97007"},{"geonameid":6106069,"name":"Plage-Sainte-Marguerite","admin3":"97007"},{"geonameid":6106880,"name":"Pointe-à-Maurier","admin3":"98015"},{"geonameid":6107070,"name":"Pointe-aux-Anglais","admin3":"97022"},{"geonameid":6107135,"name":"Pointe-aux-Outardes","admin3":"96030"},{"geonameid":6107564,"name":"Pointe-des-Monts","admin3":"96005"},{"geonameid":6108046,"name":"Pointe-Lebel","admin3":"96025"},{"geonameid":6108206,"name":"Pointe-Noire","admin3":"97007"},{"geonameid":6108252,"name":"Pointe-Ouest","admin3":"98020"},{"geonameid":6108263,"name":"Pointe-Parent","admin3":"98025"},{"geonameid":6108511,"name":"Pointe-Sud","admin3":"98020"},{"geonameid":6111696,"name":"Port-Cartier","admin3":"97022"},{"geonameid":6111698,"name":"Port-Cartier-Ouest","admin3":"97022"},{"geonameid":6111957,"name":"Port-Menier","admin3":"98020"},{"geonameid":6112015,"name":"Port-Saint-Servan","admin3":"98010"},{"geonameid":6119302,"name":"Relais-Gabriel","admin3":""},{"geonameid":6123007,"name":"Rivière-au-Tonnerre","admin3":"98055"},{"geonameid":6124776,"name":"Rivière-Pentecôte","admin3":"97022"},{"geonameid":6124815,"name":"Rivière-Pigou","admin3":"97007"},{"geonameid":6124982,"name":"Rivière-Saint-Jean","admin3":"98050"},{"geonameid":6125000,"name":"Rivière-Saint-Paul","admin3":"98010"},{"geonameid":6126138,"name":"Rochers-du-Cormoran","admin3":"98015"},{"geonameid":6136133,"name":"Ruisseau-Vert","admin3":"96040"},{"geonameid":6944111,"name":"Sacré-Coeur","admin3":"95010"},{"geonameid":6137462,"name":"Saint-Augustin","admin3":"98012"},{"geonameid":6138287,"name":"Saint-Georges","admin3":"96020"},{"geonameid":6139422,"name":"Salmon Bay","admin3":"98010"},{"geonameid":6142001,"name":"Schefferville","admin3":"97040"},{"geonameid":6144312,"name":"Sept-Îles","admin3":"97007"},{"geonameid":6145879,"name":"Shekatika","admin3":"98012"},{"geonameid":6145916,"name":"Sheldrake","admin3":"98055"},{"geonameid":6153213,"name":"Spar Mica","admin3":"98035"},{"geonameid":6156681,"name":"Stick Point","admin3":"98010"},{"geonameid":6639665,"name":"Tadoussac","admin3":"95005"},{"geonameid":6163125,"name":"Tête-à-la-Baleine","admin3":"98015"},{"geonameid":6174211,"name":"Vieux-Fort","admin3":"98010"},{"geonameid":6174215,"name":"Vieux-Poste","admin3":"98014"},{"geonameid":6174870,"name":"Waco","admin3":""},{"geonameid":6183618,"name":"Wolf Bay","admin3":"98015"}],"admin3":[{"geonameid":6074643,"name":"Minganie","admin3":"6074643"},{"geonameid":6086226,"name":"Natashquan","admin3":"98025"},{"geonameid":8672569,"name":"Schefferville","admin3":"97040"},{"geonameid":8672578,"name":"Portneuf-sur-Mer","admin3":"95040"},{"geonameid":8672603,"name":"Aguanish","admin3":"98030"},{"geonameid":8672620,"name":"Colombier","admin3":"95050"},{"geonameid":8672621,"name":"Les Bergeronnes","admin3":"95018"},{"geonameid":8672623,"name":"Côte-Nord-du-Golfe-du-Saint-Laurent","admin3":"98015"},{"geonameid":8672688,"name":"Longue-Rive","admin3":"95032"},{"geonameid":8672998,"name":"Franquelin","admin3":"96015"},{"geonameid":8673055,"name":"Baie-Comeau","admin3":"96020"},{"geonameid":8673231,"name":"Baie-Johan-Beetz","admin3":"98035"},{"geonameid":8673302,"name":"Blanc-Sablon","admin3":"98005"},{"geonameid":8673333,"name":"Sacré-Coeur","admin3":"95010"},{"geonameid":8673377,"name":"Saint-Augustin","admin3":"98012"},{"geonameid":8673393,"name":"Pointe-Lebel","admin3":"96025"},{"geonameid":8673432,"name":"L'Île-d'Anticosti","admin3":"98020"},{"geonameid":8673713,"name":"Port-Cartier","admin3":"97022"},{"geonameid":8673717,"name":"Havre-Saint-Pierre","admin3":"98040"},{"geonameid":8673766,"name":"Chute-aux-Outardes","admin3":"96035"},{"geonameid":8673854,"name":"Tadoussac","admin3":"95005"},{"geonameid":8673871,"name":"Rivière-au-Tonnerre","admin3":"98055"},{"geonameid":8673874,"name":"Godbout","admin3":"96010"},{"geonameid":8673886,"name":"Pointe-aux-Outardes","admin3":"96030"},{"geonameid":8673939,"name":"Baie-Trinité","admin3":"96005"},{"geonameid":8673993,"name":"Fermont","admin3":"97035"},{"geonameid":8674034,"name":"Forestville","admin3":"95045"},{"geonameid":8674038,"name":"Gros-Mécatina","admin3":"98014"},{"geonameid":8674094,"name":"Longue-Pointe-de-Mingan","admin3":"98045"},{"geonameid":8674131,"name":"Bonne-Espérance","admin3":"98010"},{"geonameid":8674138,"name":"Rivière-Saint-Jean","admin3":"98050"},{"geonameid":8674203,"name":"Sept-Îles","admin3":"97007"},{"geonameid":8674245,"name":"Les Escoumins","admin3":"95025"}],"alternateNames":[]},"__N_SSG":true}