{"pageProps":{"locale":"en","admin2":{"geonameid":2650328,"name":"East Sussex","country":"GB","admin1":"ENG","admin2":"E2","admin3":"","latitude":"50.9166700","longitude":"0.3333300"},"admin1":{"geonameid":6269131,"name":"England","admin1":"ENG"},"locations":[{"geonameid":2657507,"name":"Alfriston"},{"geonameid":2656978,"name":"Ashburnham"},{"geonameid":11887914,"name":"Ashdown Forest"},{"geonameid":2656161,"name":"Battle"},{"geonameid":2656054,"name":"Beckley"},{"geonameid":2656048,"name":"Beddingham"},{"geonameid":2655827,"name":"Berwick"},{"geonameid":10109486,"name":"Best Beech Hill"},{"geonameid":2655777,"name":"Bexhill-on-Sea"},{"geonameid":2655555,"name":"Bishopstone"},{"geonameid":6690820,"name":"Blackham"},{"geonameid":10109474,"name":"Boarshead"},{"geonameid":6943308,"name":"Bodiam"},{"geonameid":6697318,"name":"Bodle Street"},{"geonameid":2654813,"name":"Brede"},{"geonameid":2654712,"name":"Brightling"},{"geonameid":8581565,"name":"Broad Oak"},{"geonameid":9538904,"name":"Budletts"},{"geonameid":2654196,"name":"Burwash"},{"geonameid":8581563,"name":"Burwash Common"},{"geonameid":8581564,"name":"Burwash Weald"},{"geonameid":10375994,"name":"Buss's Green"},{"geonameid":2654143,"name":"Buxted"},{"geonameid":9538900,"name":"Cackle Street"},{"geonameid":11593124,"name":"Cade Street"},{"geonameid":6301901,"name":"Camber"},{"geonameid":2653503,"name":"Catsfield"},{"geonameid":2653407,"name":"Chailey"},{"geonameid":2653380,"name":"Chalvington"},{"geonameid":2653182,"name":"Chiddingly"},{"geonameid":7287961,"name":"Chiltington"},{"geonameid":10375997,"name":"Cliff End"},{"geonameid":2652420,"name":"Cooksbridge"},{"geonameid":9538905,"name":"Coopers Green"},{"geonameid":10377717,"name":"Cousley Wood"},{"geonameid":2651869,"name":"Cross in Hand"},{"geonameid":2651852,"name":"Crowborough"},{"geonameid":10109475,"name":"Crowborough Warren"},{"geonameid":2651845,"name":"Crowhurst"},{"geonameid":2651580,"name":"Dallington"},{"geonameid":8630036,"name":"Danehill"},{"geonameid":2651361,"name":"Denton"},{"geonameid":2651209,"name":"Ditchling"},{"geonameid":9538908,"name":"Duddleswell"},{"geonameid":11073413,"name":"East Chiltington"},{"geonameid":2650473,"name":"East Dean"},{"geonameid":2650434,"name":"East Guldeford"},{"geonameid":2650415,"name":"East Hoathly"},{"geonameid":2650497,"name":"Eastbourne"},{"geonameid":10109470,"name":"Eridge Green"},{"geonameid":2649881,"name":"Etchingham"},{"geonameid":2649737,"name":"Fairlight"},{"geonameid":10375998,"name":"Fairlight Cove"},{"geonameid":9538899,"name":"Fairwarp"},{"geonameid":2649716,"name":"Falmer"},{"geonameid":9538903,"name":"Five Ash Down"},{"geonameid":2649306,"name":"Fletching"},{"geonameid":11153068,"name":"Flimwell"},{"geonameid":2649210,"name":"Forest Row"},{"geonameid":2649106,"name":"Framfield"},{"geonameid":2649093,"name":"Frant"},{"geonameid":10109478,"name":"Friar's Gate"},{"geonameid":11550748,"name":"Friday Street"},{"geonameid":2649044,"name":"Friston"},{"geonameid":10109482,"name":"Gallypot Street"},{"geonameid":2648389,"name":"Glynde"},{"geonameid":2647843,"name":"Groombridge"},{"geonameid":2647797,"name":"Guestling"},{"geonameid":2647674,"name":"Hadlow Down"},{"geonameid":2647655,"name":"Hailsham"},{"geonameid":6693609,"name":"Halland"},{"geonameid":11550747,"name":"Hampden Park"},{"geonameid":11071742,"name":"Hamsey"},{"geonameid":2647411,"name":"Hartfield"},{"geonameid":10109481,"name":"Hartwell"},{"geonameid":2647356,"name":"Hastings"},{"geonameid":2647218,"name":"Heathfield"},{"geonameid":2647160,"name":"Hellingly"},{"geonameid":9538907,"name":"Herons Ghyll"},{"geonameid":2647048,"name":"Herstmonceux"},{"geonameid":9538906,"name":"High Hurstwood"},{"geonameid":2646747,"name":"Hollington"},{"geonameid":2646655,"name":"Hooe"},{"geonameid":2646615,"name":"Horam"},{"geonameid":9538901,"name":"Horney Common"},{"geonameid":2646574,"name":"Horsebridge"},{"geonameid":2646357,"name":"Hurst Green"},{"geonameid":2646304,"name":"Icklesham"},{"geonameid":2646294,"name":"Iden"},{"geonameid":2646284,"name":"Iford"},{"geonameid":2646023,"name":"Isfield"},{"geonameid":10109484,"name":"Jarvis Brook"},{"geonameid":2645958,"name":"Jevington"},{"geonameid":2645429,"name":"Kingston near Lewes"},{"geonameid":11550749,"name":"Langney"},{"geonameid":2644814,"name":"Laughton"},{"geonameid":2644559,"name":"Lewes"},{"geonameid":10377802,"name":"Lions Green"},{"geonameid":2644383,"name":"Litlington"},{"geonameid":6692986,"name":"Little Common"},{"geonameid":2644309,"name":"Little Horsted"},{"geonameid":10377803,"name":"Little London"},{"geonameid":10109479,"name":"Lye Green"},{"geonameid":11593335,"name":"Magham Down"},{"geonameid":10109477,"name":"Marden's Hill"},{"geonameid":2643051,"name":"Maresfield"},{"geonameid":2643031,"name":"Mark Cross"},{"geonameid":2642877,"name":"Mayfield"},{"geonameid":2642110,"name":"Mountfield"},{"geonameid":2641637,"name":"Newhaven"},{"geonameid":2641630,"name":"Newick"},{"geonameid":2641489,"name":"Ninfield"},{"geonameid":11073411,"name":"Norlington"},{"geonameid":2641331,"name":"Northiam"},{"geonameid":2641142,"name":"Nutley"},{"geonameid":2641070,"name":"Offham"},{"geonameid":7287958,"name":"Old Heathfield"},{"geonameid":2640987,"name":"Old Town"},{"geonameid":2640936,"name":"Ore"},{"geonameid":6544309,"name":"Palehouse Common"},{"geonameid":10109473,"name":"Park Corner"},{"geonameid":2640582,"name":"Patcham"},{"geonameid":8128721,"name":"Peacehaven"},{"geonameid":2640536,"name":"Peasmarsh"},{"geonameid":2640466,"name":"Penhurst"},{"geonameid":2640338,"name":"Pett"},{"geonameid":10375996,"name":"Pett Level"},{"geonameid":2640331,"name":"Pevensey"},{"geonameid":8224279,"name":"Pevensey Bay"},{"geonameid":2640222,"name":"Playden"},{"geonameid":2640206,"name":"Plumpton"},{"geonameid":2640204,"name":"Plumpton Green"},{"geonameid":2640175,"name":"Polegate"},{"geonameid":2639998,"name":"Portslade"},{"geonameid":2639827,"name":"Pyecombe"},{"geonameid":2639607,"name":"Ratton Village"},{"geonameid":2639343,"name":"Ringmer"},{"geonameid":2639328,"name":"Ripe"},{"geonameid":2639282,"name":"Robertsbridge"},{"geonameid":2639231,"name":"Rodmell"},{"geonameid":10377115,"name":"Roseland"},{"geonameid":10377804,"name":"Rosers Cross"},{"geonameid":2639095,"name":"Rotherfield"},{"geonameid":8199243,"name":"Rushlake Green"},{"geonameid":11073410,"name":"Rushy Green"},{"geonameid":2638909,"name":"Rye"},{"geonameid":2638905,"name":"Rye Harbour"},{"geonameid":2638756,"name":"Saint Leonards-on-Sea"},{"geonameid":2638311,"name":"Seaford"},{"geonameid":2638253,"name":"Sedlescombe"},{"geonameid":2638220,"name":"Selmeston"},{"geonameid":2637854,"name":"Sidley"},{"geonameid":6619957,"name":"South Chailey"},{"geonameid":11073407,"name":"South Malling"},{"geonameid":9884126,"name":"Southease"},{"geonameid":9884130,"name":"Southerham"},{"geonameid":10377119,"name":"St Anthony's Hill"},{"geonameid":10376000,"name":"St Helen's"},{"geonameid":10376001,"name":"St. Helen's"},{"geonameid":10109476,"name":"St. Johns"},{"geonameid":2637064,"name":"Stanmer"},{"geonameid":2637028,"name":"Staplecross"},{"geonameid":11073408,"name":"Stoneham"},{"geonameid":9884127,"name":"Swanborough"},{"geonameid":2636200,"name":"Tarring Neville"},{"geonameid":2635862,"name":"Ticehurst"},{"geonameid":10109485,"name":"Town Row"},{"geonameid":2635243,"name":"Uckfield"},{"geonameid":2635238,"name":"Udimore"},{"geonameid":10109483,"name":"Upper Hartfield"},{"geonameid":2634918,"name":"Wadhurst"},{"geonameid":2634896,"name":"Waldron"},{"geonameid":9884132,"name":"Wallands Park"},{"geonameid":2634798,"name":"Warbleton"},{"geonameid":2634729,"name":"Wartling"},{"geonameid":2634458,"name":"West Dean"},{"geonameid":2634416,"name":"West Firle"},{"geonameid":2634419,"name":"Westfield"},{"geonameid":2634344,"name":"Westmeston"},{"geonameid":2634177,"name":"Whatlington"},{"geonameid":2633901,"name":"Willingdon"},{"geonameid":2633886,"name":"Wilmington"},{"geonameid":2633859,"name":"Winchelsea"},{"geonameid":6301907,"name":"Winchelsea Beach"},{"geonameid":2633733,"name":"Withyham"},{"geonameid":2633719,"name":"Wivelsfield"},{"geonameid":2633718,"name":"Wivelsfield Green"},{"geonameid":2633465,"name":"Wych Cross"}],"admin3":[{"geonameid":2634637,"name":"Wealden District","admin3":"21UH"},{"geonameid":2639096,"name":"Rother District","admin3":"21UG"},{"geonameid":7290686,"name":"Eastbourne District","admin3":"21UC"},{"geonameid":7290687,"name":"Hastings District","admin3":"21UD"},{"geonameid":7290688,"name":"Lewes District","admin3":"21UF"}],"alternateNames":[]},"__N_SSG":true}