{"pageProps":{"locale":"it","admin2":{"geonameid":3171163,"name":"Provincia di Pescara","country":"IT","admin1":"01","admin2":"PE","admin3":"","latitude":"42.3333300","longitude":"13.9500000","localeAltName":"Pescara"},"admin1":{"geonameid":3183560,"name":"Abruzzo","admin1":"01","localeAltName":"Abruzzo"},"locations":[{"geonameid":3183367,"name":"Alanno","admin3":"068002","localeAltName":null},{"geonameid":8949258,"name":"Barberi","admin3":"068015","localeAltName":null},{"geonameid":3181361,"name":"Bussi sul Tirino","admin3":"068005","localeAltName":null},{"geonameid":3180659,"name":"Cappelle sul Tavo","admin3":"068006","localeAltName":null},{"geonameid":3180639,"name":"Caprara d'Abruzzo","admin3":"068041","localeAltName":null},{"geonameid":3180593,"name":"Caramanico Terme","admin3":"068007","localeAltName":null},{"geonameid":8949731,"name":"Castellana","admin3":"068030","localeAltName":null},{"geonameid":3179360,"name":"Catignano","admin3":"068010","localeAltName":null},{"geonameid":3179150,"name":"Cepagatti","admin3":"068011","localeAltName":null},{"geonameid":3179057,"name":"Cerratina","admin3":"068030","localeAltName":null},{"geonameid":3178613,"name":"Città Sant'Angelo","admin3":"068012","localeAltName":null},{"geonameid":3178415,"name":"Collecorvino","admin3":"068015","localeAltName":null},{"geonameid":8949747,"name":"Congiunti","admin3":"068015","localeAltName":null},{"geonameid":8949058,"name":"Fonte Umano-San Martino Alta","admin3":"068012","localeAltName":null},{"geonameid":3174812,"name":"Lettomanoppello","admin3":"068020","localeAltName":null},{"geonameid":3174565,"name":"Loreto Aprutino","admin3":"068021","localeAltName":null},{"geonameid":3174056,"name":"Manoppello","admin3":"068022","localeAltName":null},{"geonameid":8948832,"name":"Manoppello Scalo","admin3":"068022","localeAltName":null},{"geonameid":9036171,"name":"Montesilvano Colle","admin3":"068024","localeAltName":null},{"geonameid":3172729,"name":"Montesilvano Marina","admin3":"068024","localeAltName":null},{"geonameid":3172530,"name":"Moscufo","admin3":"068025","localeAltName":null},{"geonameid":3171247,"name":"Penne","admin3":"068027","localeAltName":null},{"geonameid":3171168,"name":"Pescara","admin3":"068028","localeAltName":null},{"geonameid":3170988,"name":"Pianella","admin3":"068030","localeAltName":null},{"geonameid":3170881,"name":"Picciano","admin3":"068031","localeAltName":null},{"geonameid":3170175,"name":"Popoli","admin3":"068033","localeAltName":null},{"geonameid":3168950,"name":"Rosciano","admin3":"068035","localeAltName":null},{"geonameid":8948791,"name":"San Martino Bassa","admin3":"068012","localeAltName":null},{"geonameid":3167220,"name":"San Valentino in Abruzzo Citeriore","admin3":"068038","localeAltName":null},{"geonameid":8948814,"name":"Santa Teresa","admin3":"068041","localeAltName":null},{"geonameid":3167012,"name":"Scafa","admin3":"068039","localeAltName":null},{"geonameid":3166235,"name":"Spoltore","admin3":"068041","localeAltName":null},{"geonameid":8949740,"name":"Ticchione","admin3":"068002","localeAltName":null},{"geonameid":3165615,"name":"Tocco da Casauria","admin3":"068042","localeAltName":null},{"geonameid":3165453,"name":"Torre de' Passeri","admin3":"068043","localeAltName":null},{"geonameid":8950161,"name":"Tre Croci","admin3":"068011","localeAltName":null},{"geonameid":8950339,"name":"Vallemare","admin3":"068011","localeAltName":null},{"geonameid":8950134,"name":"Villa Oliveti","admin3":"068035","localeAltName":null},{"geonameid":8948782,"name":"Villa Raspa","admin3":"068041","localeAltName":null},{"geonameid":8949147,"name":"Villanova","admin3":"068011","localeAltName":null}],"admin3":[{"geonameid":6537464,"name":"Brittoli","admin3":"068004"},{"geonameid":6537465,"name":"Carpineto della Nora","admin3":"068008"},{"geonameid":6537466,"name":"Castiglione a Casauria","admin3":"068009"},{"geonameid":6537467,"name":"Cepagatti","admin3":"068011","localeAltName":null},{"geonameid":6537468,"name":"Città Sant'Angelo","admin3":"068012","localeAltName":null},{"geonameid":6537469,"name":"Loreto Aprutino","admin3":"068021","localeAltName":null},{"geonameid":6537470,"name":"Montebello di Bertona","admin3":"068023"},{"geonameid":6537471,"name":"Villa Celiera","admin3":"068046"},{"geonameid":6538861,"name":"Bolognano","admin3":"068003"},{"geonameid":6538862,"name":"Cappelle sul Tavo","admin3":"068006","localeAltName":null},{"geonameid":6538863,"name":"Catignano","admin3":"068010","localeAltName":null},{"geonameid":6538864,"name":"Civitella Casanova","admin3":"068014"},{"geonameid":6538865,"name":"Cugnoli","admin3":"068017"},{"geonameid":6538866,"name":"San Valentino in Abruzzo Citeriore","admin3":"068038","localeAltName":null},{"geonameid":6538867,"name":"Serramonacesca","admin3":"068040"},{"geonameid":6538868,"name":"Spoltore","admin3":"068041","localeAltName":null},{"geonameid":6539596,"name":"Alanno","admin3":"068002","localeAltName":null},{"geonameid":6539828,"name":"Popoli","admin3":"068033","localeAltName":null},{"geonameid":6540013,"name":"Elice","admin3":"068018"},{"geonameid":6540108,"name":"Pescara","admin3":"068028","localeAltName":null},{"geonameid":6540724,"name":"Civitaquana","admin3":"068013"},{"geonameid":6540725,"name":"Farindola","admin3":"068019"},{"geonameid":6540726,"name":"Manoppello","admin3":"068022","localeAltName":null},{"geonameid":6540727,"name":"Moscufo","admin3":"068025","localeAltName":null},{"geonameid":6540728,"name":"Penne","admin3":"068027","localeAltName":null},{"geonameid":6540729,"name":"Pianella","admin3":"068030","localeAltName":null},{"geonameid":6540730,"name":"Pietranico","admin3":"068032"},{"geonameid":6540731,"name":"Scafa","admin3":"068039","localeAltName":null},{"geonameid":6541212,"name":"Abbateggio","admin3":"068001"},{"geonameid":6541213,"name":"Caramanico Terme","admin3":"068007","localeAltName":null},{"geonameid":6541214,"name":"Collecorvino","admin3":"068015","localeAltName":null},{"geonameid":6541215,"name":"Corvara","admin3":"068016"},{"geonameid":6541216,"name":"Lettomanoppello","admin3":"068020","localeAltName":null},{"geonameid":6541217,"name":"Picciano","admin3":"068031","localeAltName":null},{"geonameid":6541218,"name":"Rosciano","admin3":"068035","localeAltName":null},{"geonameid":6541219,"name":"Salle","admin3":"068036"},{"geonameid":6541220,"name":"Sant'Eufemia a Maiella","admin3":"068037"},{"geonameid":6541221,"name":"Tocco da Casauria","admin3":"068042","localeAltName":null},{"geonameid":6541222,"name":"Torre de' Passeri","admin3":"068043","localeAltName":null},{"geonameid":6541223,"name":"Vicoli","admin3":"068045"},{"geonameid":6541550,"name":"Montesilvano","admin3":"068024","localeAltName":null},{"geonameid":6541701,"name":"Nocciano","admin3":"068026"},{"geonameid":6541702,"name":"Turrivalignani","admin3":"068044"},{"geonameid":6541927,"name":"Bussi sul Tirino","admin3":"068005","localeAltName":null},{"geonameid":6542035,"name":"Pescosansonesco","admin3":"068029"},{"geonameid":6543627,"name":"Roccamorice","admin3":"068034"}],"alternateNames":[{"alternatenameId":1349253,"geonameid":3171163,"isoLanguage":"it","alternateName":"Pescara","isPreferredName":true,"isShortName":true,"isColloquial":false,"isHistoric":false},{"alternatenameId":2254448,"geonameid":3183560,"isoLanguage":"it","alternateName":"Abruzzo","isPreferredName":true,"isShortName":true,"isColloquial":false,"isHistoric":false}]},"__N_SSG":true}