{"pageProps":{"locale":"ro","admin2":{"geonameid":681870,"name":"Oraş Câmpeni","country":"RO","admin1":"01","admin2":"1455","admin3":"","latitude":"46.3849300","longitude":"23.0455300"},"admin1":{"geonameid":686581,"name":"Alba","admin1":"01"},"locations":[{"geonameid":684248,"name":"Bonceşti"},{"geonameid":684191,"name":"Borlești"},{"geonameid":684072,"name":"Botești"},{"geonameid":681876,"name":"Câmpeni"},{"geonameid":682289,"name":"Certege"},{"geonameid":681260,"name":"Coasta Vâscului"},{"geonameid":679766,"name":"Dănduț"},{"geonameid":679669,"name":"Dealu Bistrii"},{"geonameid":679663,"name":"Dealu Capsei"},{"geonameid":678834,"name":"Dric"},{"geonameid":678833,"name":"Dricu Certejii"},{"geonameid":678416,"name":"Fața Abrudului"},{"geonameid":678055,"name":"Florești"},{"geonameid":677763,"name":"Furduiești"},{"geonameid":673348,"name":"Mihoești"},{"geonameid":672762,"name":"Motorăști"},{"geonameid":671056,"name":"Peste Valea Bistrii"},{"geonameid":670275,"name":"Poduri"},{"geonameid":669706,"name":"Precupeşti"},{"geonameid":666422,"name":"Sorlița"},{"geonameid":664803,"name":"Tomușești"},{"geonameid":663902,"name":"Valea Bistrii"},{"geonameid":663852,"name":"Valea Caselor"},{"geonameid":662749,"name":"Vârși"}],"admin3":[],"alternateNames":[]},"__N_SSG":true}