{"pageProps":{"locale":"en","admin2":{"geonameid":3333209,"name":"Telford and Wrekin","country":"GB","admin1":"ENG","admin2":"O2","admin3":"","latitude":"52.7500000","longitude":"-2.5000000"},"admin1":{"geonameid":6269131,"name":"England","admin1":"ENG"},"locations":[{"geonameid":2657666,"name":"Admaston"},{"geonameid":2657468,"name":"Allscott"},{"geonameid":6640066,"name":"Bratton"},{"geonameid":2653245,"name":"Cherrington"},{"geonameid":2653207,"name":"Chetwynd"},{"geonameid":2653206,"name":"Chetwynd Aston"},{"geonameid":2652708,"name":"Coalbrookdale"},{"geonameid":2652701,"name":"Coalport"},{"geonameid":2651811,"name":"Crudgington"},{"geonameid":2651475,"name":"Dawley"},{"geonameid":2650230,"name":"Edgmond"},{"geonameid":2649768,"name":"Eyton upon the Weald Moors"},{"geonameid":2649173,"name":"Forton"},{"geonameid":2648155,"name":"Great Bolas"},{"geonameid":2647677,"name":"Hadley"},{"geonameid":2646967,"name":"High Ercall"},{"geonameid":2646570,"name":"Horsehay"},{"geonameid":2646039,"name":"Ironbridge"},{"geonameid":2645755,"name":"Ketley"},{"geonameid":2645373,"name":"Kinnersley"},{"geonameid":2644789,"name":"Lawley Bank"},{"geonameid":2644509,"name":"Lilleshall"},{"geonameid":2643694,"name":"Longford"},{"geonameid":2643235,"name":"Madeley"},{"geonameid":2643157,"name":"Malinslee"},{"geonameid":2641938,"name":"Muxton"},{"geonameid":2641595,"name":"Newport"},{"geonameid":2641130,"name":"Oakengates"},{"geonameid":2639900,"name":"Preston upon the Weald Moors"},{"geonameid":2639234,"name":"Rodington"},{"geonameid":2639035,"name":"Rowton"},{"geonameid":3345439,"name":"Telford"},{"geonameid":2635867,"name":"Tibberton"},{"geonameid":2635508,"name":"Trench"},{"geonameid":2634905,"name":"Walcot"},{"geonameid":2634573,"name":"Wellington"},{"geonameid":2633682,"name":"Wombridge"},{"geonameid":2633664,"name":"Woodcote"},{"geonameid":6947740,"name":"Wrekin"},{"geonameid":2633480,"name":"Wrockwardine"}],"admin3":[{"geonameid":7291854,"name":"Lawley and Overdale","admin3":"00GF013"},{"geonameid":7291962,"name":"Edgmond","admin3":"00GF005"},{"geonameid":7291963,"name":"Ercall Magna","admin3":"00GF006"},{"geonameid":7291966,"name":"Great Dawley","admin3":"00GF008"},{"geonameid":7291968,"name":"Wellington","admin3":"00GF026"},{"geonameid":7292646,"name":"Chetwynd","admin3":"00GF001"},{"geonameid":7292647,"name":"Church Aston","admin3":"00GF003"},{"geonameid":7292648,"name":"Hollinswood and Randlay","admin3":"00GF010"},{"geonameid":7292650,"name":"Madeley","admin3":"00GF016"},{"geonameid":7292763,"name":"Little Wenlock","admin3":"00GF015"},{"geonameid":7296017,"name":"Newport","admin3":"00GF017"},{"geonameid":7296056,"name":"Oakengates","admin3":"00GF018"},{"geonameid":7296057,"name":"Rodington","admin3":"00GF020"},{"geonameid":7296153,"name":"Preston upon the Weald Moors","admin3":"00GF019"},{"geonameid":7296155,"name":"Tibberton and Cherrington","admin3":"00GF024"},{"geonameid":7297369,"name":"Chetwynd Aston and Woodcote","admin3":"00GF002"},{"geonameid":7297370,"name":"Hadley & Leegomery","admin3":"00GF009"},{"geonameid":7297371,"name":"Kynnersley","admin3":"00GF012"},{"geonameid":7297372,"name":"Lilleshall and Donnington","admin3":"00GF014"},{"geonameid":7297373,"name":"St. Georges and Priorslee","admin3":"00GF021"},{"geonameid":7297374,"name":"Stirchley and Brookside","admin3":"00GF022"},{"geonameid":7297375,"name":"The Gorge","admin3":"00GF023"},{"geonameid":7297385,"name":"Wrockwardine","admin3":"00GF027"},{"geonameid":7297386,"name":"Wrockwardine Wood and Trench","admin3":"00GF028"},{"geonameid":7297775,"name":"Ketley","admin3":"00GF011"},{"geonameid":7297900,"name":"Waters Upton","admin3":"00GF025"},{"geonameid":7301450,"name":"Dawley Hamlets","admin3":"00GF004"},{"geonameid":7301451,"name":"Eyton upon the Weald Moors","admin3":"00GF007"}],"alternateNames":[]},"__N_SSG":true}