{"pageProps":{"locale":"en","admin2":{"geonameid":5257533,"name":"Iron County","country":"US","admin1":"WI","admin2":"051","admin3":"","latitude":"46.3170600","longitude":"-90.2644500"},"admin1":{"geonameid":5279468,"name":"Wisconsin","admin1":"WI","localeAltName":"Wisconsin"},"locations":[{"geonameid":5257163,"name":"Hurley","admin3":"36525"}],"admin3":[{"geonameid":4833838,"name":"Town of Carey","admin3":"12525"},{"geonameid":5243953,"name":"Town of Anderson","admin3":"01925"},{"geonameid":5255271,"name":"Town of Gurney","admin3":"31875"},{"geonameid":5257167,"name":"City of Hurley","admin3":"36525"},{"geonameid":5258572,"name":"Town of Kimball","admin3":"39625"},{"geonameid":5258781,"name":"Town of Knight","admin3":"40075"},{"geonameid":5262657,"name":"Town of Mercer","admin3":"51200"},{"geonameid":5263401,"name":"City of Montreal","admin3":"54075"},{"geonameid":5265688,"name":"Town of Oma","admin3":"59850"},{"geonameid":5266507,"name":"Town of Pence","admin3":"61825"},{"geonameid":5272297,"name":"Town of Saxon","admin3":"71875"},{"geonameid":5273010,"name":"Town of Sherman","admin3":"73400"}],"alternateNames":[{"alternatenameId":2089565,"geonameid":5279468,"isoLanguage":"en","alternateName":"Wisconsin","isPreferredName":true,"isShortName":true,"isColloquial":false,"isHistoric":false}]},"__N_SSG":true}