{"pageProps":{"locale":"en","admin2":{"geonameid":5258491,"name":"Kewaunee County","country":"US","admin1":"WI","admin2":"061","admin3":"","latitude":"44.4827900","longitude":"-87.5143400"},"admin1":{"geonameid":5279468,"name":"Wisconsin","admin1":"WI","localeAltName":"Wisconsin"},"locations":[{"geonameid":5243712,"name":"Algoma","admin3":"01000"},{"geonameid":5258490,"name":"Kewaunee","admin3":"39350"},{"geonameid":5261340,"name":"Luxemburg","admin3":"46400"}],"admin3":[{"geonameid":4833926,"name":"Town of Lincoln","admin3":"44425"},{"geonameid":5243628,"name":"Town of Ahnapee","admin3":"00600"},{"geonameid":5243720,"name":"City of Algoma","admin3":"01000"},{"geonameid":5247835,"name":"Town of Carlton","admin3":"12575"},{"geonameid":5247930,"name":"Town of Casco","admin3":"12875"},{"geonameid":5247931,"name":"Village of Casco","admin3":"12850"},{"geonameid":5253756,"name":"Town of Franklin","admin3":"27250"},{"geonameid":5258498,"name":"City of Kewaunee","admin3":"39350"},{"geonameid":5261343,"name":"Village of Luxemburg","admin3":"46400"},{"geonameid":5261352,"name":"Town of Luxemburg","admin3":"46425"},{"geonameid":5263396,"name":"Town of Montpelier","admin3":"54050"},{"geonameid":5266867,"name":"Town of Pierce","admin3":"62625"},{"geonameid":5268512,"name":"Town of Red River","admin3":"66700"},{"geonameid":5278550,"name":"Town of West Kewaunee","admin3":"85775"}],"alternateNames":[{"alternatenameId":2089565,"geonameid":5279468,"isoLanguage":"en","alternateName":"Wisconsin","isPreferredName":true,"isShortName":true,"isColloquial":false,"isHistoric":false}]},"__N_SSG":true}