{"pageProps":{"locale":"en","admin2":{"geonameid":5261587,"name":"Manitowoc County","country":"US","admin1":"WI","admin2":"071","admin3":"","latitude":"44.0905400","longitude":"-87.6997400"},"admin1":{"geonameid":5279468,"name":"Wisconsin","admin1":"WI","localeAltName":"Wisconsin"},"locations":[{"geonameid":5248044,"name":"Cato","admin3":"13237"},{"geonameid":5248933,"name":"Cleveland","admin3":"15400"},{"geonameid":5249423,"name":"Cooperstown","admin3":"16950"},{"geonameid":5258525,"name":"Kiel","admin3":"39525"},{"geonameid":5261585,"name":"Manitowoc","admin3":"48500"},{"geonameid":5263207,"name":"Mishicot","admin3":"53325"},{"geonameid":5268583,"name":"Reedsville","admin3":"66875"},{"geonameid":5276609,"name":"Two Rivers","admin3":"81325"}],"admin3":[{"geonameid":5248048,"name":"Town of Cato","admin3":"13237"},{"geonameid":5248214,"name":"Town of Centerville","admin3":"13750"},{"geonameid":5248952,"name":"Village of Cleveland","admin3":"15400"},{"geonameid":5249426,"name":"Town of Cooperstown","admin3":"16950"},{"geonameid":5251435,"name":"Town of Eaton","admin3":"22275"},{"geonameid":5253699,"name":"Village of Francis Creek","admin3":"27125"},{"geonameid":5253757,"name":"Town of Franklin","admin3":"27275"},{"geonameid":5254259,"name":"Town of Gibson","admin3":"28975"},{"geonameid":5258334,"name":"Village of Kellnersville","admin3":"39000"},{"geonameid":5258535,"name":"City of Kiel","admin3":"39525"},{"geonameid":5258884,"name":"Town of Kossuth","admin3":"40425"},{"geonameid":5259905,"name":"Town of Liberty","admin3":"43850"},{"geonameid":5261599,"name":"Town of Manitowoc Rapids","admin3":"48575"},{"geonameid":5261602,"name":"City of Manitowoc","admin3":"48500"},{"geonameid":5261603,"name":"Town of Manitowoc","admin3":"48525"},{"geonameid":5261704,"name":"Town of Maple Grove","admin3":"48875"},{"geonameid":5261843,"name":"Village of Maribel","admin3":"49250"},{"geonameid":5262509,"name":"Town of Meeme","admin3":"50625"},{"geonameid":5263210,"name":"Town of Mishicot","admin3":"53350"},{"geonameid":5263211,"name":"Village of Mishicot","admin3":"53325"},{"geonameid":5264579,"name":"Town of Newton","admin3":"57200"},{"geonameid":5268586,"name":"Village of Reedsville","admin3":"66875"},{"geonameid":5269323,"name":"Town of Rockland","admin3":"68925"},{"geonameid":5271417,"name":"Village of Saint Nazianz","admin3":"71025"},{"geonameid":5272347,"name":"Town of Schleswig","admin3":"72075"},{"geonameid":5276603,"name":"Town of Two Creeks","admin3":"81300"},{"geonameid":5276615,"name":"City of Two Rivers","admin3":"81325"},{"geonameid":5276616,"name":"Town of Two Rivers","admin3":"81350"},{"geonameid":5277006,"name":"Village of Valders","admin3":"82200"},{"geonameid":5278921,"name":"Village of Whitelaw","admin3":"86775"}],"alternateNames":[{"alternatenameId":2089565,"geonameid":5279468,"isoLanguage":"en","alternateName":"Wisconsin","isPreferredName":true,"isShortName":true,"isColloquial":false,"isHistoric":false}]},"__N_SSG":true}