{"pageProps":{"locale":"en","admin2":{"geonameid":5266044,"name":"Outagamie County","country":"US","admin1":"WI","admin2":"087","admin3":"","latitude":"44.4160900","longitude":"-88.4649300"},"admin1":{"geonameid":5279468,"name":"Wisconsin","admin1":"WI","localeAltName":"Wisconsin"},"locations":[{"geonameid":5244080,"name":"Appleton","admin3":"02375"},{"geonameid":5246049,"name":"Black Creek","admin3":"07725"},{"geonameid":5249224,"name":"Combined Locks","admin3":"16500"},{"geonameid":5257002,"name":"Hortonville","admin3":"35850"},{"geonameid":5258296,"name":"Kaukauna","admin3":"38800"},{"geonameid":5258575,"name":"Kimberly","admin3":"39650"},{"geonameid":5260262,"name":"Little Chute","admin3":"44950"},{"geonameid":5272776,"name":"Seymour","admin3":"72725"}],"admin3":[{"geonameid":5244091,"name":"City of Appleton","admin3":"02375"},{"geonameid":5245049,"name":"Village of Bear Creek","admin3":"05575"},{"geonameid":5246056,"name":"Town of Black Creek","admin3":"07750"},{"geonameid":5246057,"name":"Village of Black Creek","admin3":"07725"},{"geonameid":5246542,"name":"Town of Bovina","admin3":"08975"},{"geonameid":5247030,"name":"Town of Buchanan","admin3":"10750"},{"geonameid":5248203,"name":"Town of Center","admin3":"13600"},{"geonameid":5248737,"name":"Town of Cicero","admin3":"14750"},{"geonameid":5249227,"name":"Village of Combined Locks","admin3":"16500"},{"geonameid":5250035,"name":"Town of Dale","admin3":"18525"},{"geonameid":5250315,"name":"Town of Deer Creek","admin3":"19200"},{"geonameid":5251746,"name":"Town of Ellington","admin3":"23425"},{"geonameid":5253807,"name":"Town of Freedom","admin3":"27650"},{"geonameid":5254763,"name":"Town of Grand Chute","admin3":"30075"},{"geonameid":5255101,"name":"Town of Greenville","admin3":"31550"},{"geonameid":5257001,"name":"Town of Hortonia","admin3":"35825"},{"geonameid":5257006,"name":"Village of Hortonville","admin3":"35850"},{"geonameid":5258289,"name":"City of Kaukauna","admin3":"38800"},{"geonameid":5258290,"name":"Town of Kaukauna","admin3":"38825"},{"geonameid":5258585,"name":"Village of Kimberly","admin3":"39650"},{"geonameid":5259906,"name":"Town of Liberty","admin3":"43875"},{"geonameid":5260269,"name":"Village of Little Chute","admin3":"44950"},{"geonameid":5261520,"name":"Town of Maine","admin3":"48250"},{"geonameid":5261651,"name":"Town of Maple Creek","admin3":"48775"},{"geonameid":5264587,"name":"Village of Nichols","admin3":"57375"},{"geonameid":5265733,"name":"Town of Oneida","admin3":"60000"},{"geonameid":5265822,"name":"Town of Osborn","admin3":"60400"},{"geonameid":5272787,"name":"City of Seymour","admin3":"72725"},{"geonameid":5272790,"name":"Town of Seymour","admin3":"72750"},{"geonameid":5273058,"name":"Village of Shiocton","admin3":"73625"},{"geonameid":5277100,"name":"Town of Vandenbroek","admin3":"82400"}],"alternateNames":[{"alternatenameId":2089565,"geonameid":5279468,"isoLanguage":"en","alternateName":"Wisconsin","isPreferredName":true,"isShortName":true,"isColloquial":false,"isHistoric":false}]},"__N_SSG":true}