{"pageProps":{"locale":"en","admin2":{"geonameid":5267787,"name":"Portage County","country":"US","admin1":"WI","admin2":"097","admin3":"","latitude":"44.4760400","longitude":"-89.5014200"},"admin1":{"geonameid":5279468,"name":"Wisconsin","admin1":"WI","localeAltName":"Wisconsin"},"locations":[{"geonameid":5243883,"name":"Amherst","admin3":"01750"},{"geonameid":5267537,"name":"Plover","admin3":"63525"},{"geonameid":5274644,"name":"Stevens Point","admin3":"77200"},{"geonameid":5278948,"name":"Whiting","admin3":"86975"}],"admin3":[{"geonameid":5243652,"name":"Town of Alban","admin3":"00725"},{"geonameid":5243801,"name":"Town of Almond","admin3":"01425"},{"geonameid":5243802,"name":"Village of Almond","admin3":"01400"},{"geonameid":5243887,"name":"Village of Amherst Junction","admin3":"01800"},{"geonameid":5243889,"name":"Town of Amherst","admin3":"01775"},{"geonameid":5243890,"name":"Village of Amherst","admin3":"01750"},{"geonameid":5245385,"name":"Town of Belmont","admin3":"06475"},{"geonameid":5247099,"name":"Town of Buena Vista","admin3":"10925"},{"geonameid":5247893,"name":"Town of Carson","admin3":"12725"},{"geonameid":5250560,"name":"Town of Dewey","admin3":"19975"},{"geonameid":5251468,"name":"Town of Eau Pleine","admin3":"22450"},{"geonameid":5254872,"name":"Town of Grant","admin3":"30350"},{"geonameid":5257112,"name":"Town of Hull","admin3":"36350"},{"geonameid":5258184,"name":"Village of Junction City","admin3":"38650"},{"geonameid":5259447,"name":"Town of Lanark","admin3":"42225"},{"geonameid":5260159,"name":"Town of Linwood","admin3":"44800"},{"geonameid":5264305,"name":"Village of Nelsonville","admin3":"56000"},{"geonameid":5264442,"name":"Town of New Hope","admin3":"56850"},{"geonameid":5266252,"name":"Village of Park Ridge","admin3":"61325"},{"geonameid":5267053,"name":"Town of Pine Grove","admin3":"62825"},{"geonameid":5267541,"name":"Town of Plover","admin3":"63550"},{"geonameid":5267542,"name":"Village of Plover","admin3":"63525"},{"geonameid":5269558,"name":"Village of Rosholt","admin3":"69575"},{"geonameid":5272854,"name":"Town of Sharon","admin3":"72850"},{"geonameid":5274651,"name":"City of Stevens Point","admin3":"77200"},{"geonameid":5274707,"name":"Town of Stockton","admin3":"77537"},{"geonameid":5278953,"name":"Village of Whiting","admin3":"86975"}],"alternateNames":[{"alternatenameId":2089565,"geonameid":5279468,"isoLanguage":"en","alternateName":"Wisconsin","isPreferredName":true,"isShortName":true,"isColloquial":false,"isHistoric":false}]},"__N_SSG":true}