{"pageProps":{"locale":"en","admin2":{"geonameid":5269209,"name":"Rock County","country":"US","admin1":"WI","admin2":"105","admin3":"","latitude":"42.6712200","longitude":"-89.0715800"},"admin1":{"geonameid":5279468,"name":"Wisconsin","admin1":"WI","localeAltName":"Wisconsin"},"locations":[{"geonameid":5245387,"name":"Beloit","admin3":"06500"},{"geonameid":5248969,"name":"Clinton","admin3":"15625"},{"geonameid":5251524,"name":"Edgerton","admin3":"22575"},{"geonameid":5252182,"name":"Evansville","admin3":"24550"},{"geonameid":5257754,"name":"Janesville","admin3":"37825"},{"geonameid":5263023,"name":"Milton","admin3":"52200"},{"geonameid":5265792,"name":"Orfordville","admin3":"60250"}],"admin3":[{"geonameid":5244418,"name":"Town of Avon","admin3":"04100"},{"geonameid":5245403,"name":"City of Beloit","admin3":"06500"},{"geonameid":5245404,"name":"Town of Beloit","admin3":"06525"},{"geonameid":5246603,"name":"Town of Bradford","admin3":"09175"},{"geonameid":5248204,"name":"Town of Center","admin3":"13625"},{"geonameid":5248982,"name":"Town of Clinton","admin3":"15650"},{"geonameid":5248984,"name":"Village of Clinton","admin3":"15625"},{"geonameid":5251533,"name":"City of Edgerton","admin3":"22575"},{"geonameid":5252188,"name":"City of Evansville","admin3":"24550"},{"geonameid":5253381,"name":"Village of Footville","admin3":"26400"},{"geonameid":5253962,"name":"Town of Fulton","admin3":"28075"},{"geonameid":5255573,"name":"Town of Harmony","admin3":"32700"},{"geonameid":5257764,"name":"City of Janesville","admin3":"37825"},{"geonameid":5257765,"name":"Town of Janesville","admin3":"37850"},{"geonameid":5258072,"name":"Town of Johnstown","admin3":"38450"},{"geonameid":5258998,"name":"Town of La Prairie","admin3":"42575"},{"geonameid":5259967,"name":"Town of Lima","admin3":"44125"},{"geonameid":5261494,"name":"Town of Magnolia","admin3":"48150"},{"geonameid":5263041,"name":"City of Milton","admin3":"52200"},{"geonameid":5263043,"name":"Town of Milton","admin3":"52225"},{"geonameid":5264511,"name":"Town of Newark","admin3":"56325"},{"geonameid":5265794,"name":"Village of Orfordville","admin3":"60250"},{"geonameid":5267605,"name":"Town of Plymouth","admin3":"63675"},{"geonameid":5267809,"name":"Town of Porter","admin3":"64225"},{"geonameid":5269302,"name":"Town of Rock","admin3":"68600"},{"geonameid":5274314,"name":"Town of Spring Valley","admin3":"76325"},{"geonameid":5276461,"name":"Town of Turtle","admin3":"81050"},{"geonameid":5276763,"name":"Town of Union","admin3":"81650"}],"alternateNames":[{"alternatenameId":2089565,"geonameid":5279468,"isoLanguage":"en","alternateName":"Wisconsin","isPreferredName":true,"isShortName":true,"isColloquial":false,"isHistoric":false}]},"__N_SSG":true}