{"pageProps":{"locale":"en","admin2":{"geonameid":5272875,"name":"Shawano County","country":"US","admin1":"WI","admin2":"115","admin3":"","latitude":"44.7891500","longitude":"-88.7654400"},"admin1":{"geonameid":5279468,"name":"Wisconsin","admin1":"WI","localeAltName":"Wisconsin"},"locations":[{"geonameid":5245350,"name":"Belle Plaine","admin3":"06275"},{"geonameid":5246437,"name":"Bonduel","admin3":"08725"},{"geonameid":5267262,"name":"Pittsfield","admin3":"48900"},{"geonameid":5272873,"name":"Shawano","admin3":"72925"},{"geonameid":5279483,"name":"Wittenberg","admin3":"88325"}],"admin3":[{"geonameid":5243799,"name":"Town of Almon","admin3":"01375"},{"geonameid":5243966,"name":"Town of Angelica","admin3":"01975"},{"geonameid":5243985,"name":"Town of Aniwa","admin3":"02100"},{"geonameid":5243986,"name":"Village of Aniwa","admin3":"02075"},{"geonameid":5244770,"name":"Town of Bartelme","admin3":"05000"},{"geonameid":5245351,"name":"Town of Belle Plaine","admin3":"06275"},{"geonameid":5245991,"name":"Town of Birnamwood","admin3":"07625"},{"geonameid":5245992,"name":"Village of Birnamwood","admin3":"07600"},{"geonameid":5246438,"name":"Village of Bonduel","admin3":"08725"},{"geonameid":5246571,"name":"Village of Bowler","admin3":"09025"},{"geonameid":5248079,"name":"Village of Cecil","admin3":"13325"},{"geonameid":5251634,"name":"Village of Eland","admin3":"22975"},{"geonameid":5252465,"name":"Town of Fairbanks","admin3":"24775"},{"geonameid":5254215,"name":"Town of Germania","admin3":"28825"},{"geonameid":5254874,"name":"Town of Grant","admin3":"30400"},{"geonameid":5255048,"name":"Town of Green Valley","admin3":"31500"},{"geonameid":5255166,"name":"Village of Gresham","admin3":"31675"},{"geonameid":5255647,"name":"Town of Hartland","admin3":"33075"},{"geonameid":5256086,"name":"Town of Herman","admin3":"34025"},{"geonameid":5257192,"name":"Town of Hutchins","admin3":"36700"},{"geonameid":5259821,"name":"Town of Lessor","admin3":"43675"},{"geonameid":5261705,"name":"Town of Maple Grove","admin3":"48900"},{"geonameid":5262077,"name":"Village of Mattoon","admin3":"50000"},{"geonameid":5263526,"name":"Town of Morris","admin3":"54250"},{"geonameid":5264190,"name":"Town of Navarino","admin3":"55675"},{"geonameid":5266492,"name":"Town of Pella","admin3":"61700"},{"geonameid":5268525,"name":"Town of Red Springs","admin3":"66750"},{"geonameid":5268874,"name":"Town of Richmond","admin3":"67675"},{"geonameid":5272666,"name":"Town of Seneca","admin3":"72550"},{"geonameid":5272881,"name":"City of Shawano","admin3":"72925"},{"geonameid":5275787,"name":"Village of Tigerton","admin3":"79825"},{"geonameid":5277968,"name":"Town of Washington","admin3":"83725"},{"geonameid":5278051,"name":"Town of Waukechon","admin3":"84225"},{"geonameid":5278364,"name":"Town of Wescott","admin3":"85275"},{"geonameid":5279486,"name":"Town of Wittenberg","admin3":"88350"},{"geonameid":5279487,"name":"Village of Wittenberg","admin3":"88325"}],"alternateNames":[{"alternatenameId":2089565,"geonameid":5279468,"isoLanguage":"en","alternateName":"Wisconsin","isPreferredName":true,"isShortName":true,"isColloquial":false,"isHistoric":false}]},"__N_SSG":true}