{"pageProps":{"locale":"en","admin2":{"geonameid":6544251,"name":"Schouwen-Duiveland","country":"NL","admin1":"10","admin2":"1676","admin3":"","latitude":"51.6929400","longitude":"3.8867600"},"admin1":{"geonameid":2744011,"name":"Provincie Zeeland","admin1":"10"},"locations":[{"geonameid":2759506,"name":"Baken","admin3":""},{"geonameid":2759258,"name":"Beldert","admin3":""},{"geonameid":2758318,"name":"Brijdorpe","admin3":""},{"geonameid":2758213,"name":"Brouwershaven","admin3":""},{"geonameid":2758186,"name":"Bruinisse","admin3":""},{"geonameid":2758081,"name":"Burgh","admin3":""},{"geonameid":8335037,"name":"Burgh-Haamstede","admin3":""},{"geonameid":2758078,"name":"Burghsluis","admin3":""},{"geonameid":2757185,"name":"Den Osse","admin3":""},{"geonameid":2756836,"name":"Dijkhuisjes","admin3":""},{"geonameid":2756636,"name":"Dreischor","admin3":""},{"geonameid":2756203,"name":"Elkerzee","admin3":""},{"geonameid":2756198,"name":"Ellemeet","admin3":""},{"geonameid":2755023,"name":"Haamstede","admin3":""},{"geonameid":2753070,"name":"Kapelle","admin3":""},{"geonameid":2752918,"name":"Kerkwerve","admin3":""},{"geonameid":2751450,"name":"Looperskapelle","admin3":""},{"geonameid":2751227,"name":"Malta","admin3":""},{"geonameid":2750606,"name":"Moriaanshoofd","admin3":""},{"geonameid":2750196,"name":"Nieuw-Haamstede","admin3":""},{"geonameid":2750264,"name":"Nieuwerkerk","admin3":""},{"geonameid":2750261,"name":"Nieuwerkerke","admin3":""},{"geonameid":2749889,"name":"Noordgouwe","admin3":""},{"geonameid":2749819,"name":"Noordwelle","admin3":""},{"geonameid":2749440,"name":"Oosterland","admin3":""},{"geonameid":2748876,"name":"Ouwerkerk","admin3":""},{"geonameid":2748540,"name":"Plompetoren","admin3":""},{"geonameid":2748240,"name":"Renesse","admin3":""},{"geonameid":2747680,"name":"Scharendijke","admin3":""},{"geonameid":2747445,"name":"Schuddebeurs","admin3":""},{"geonameid":2747385,"name":"Serooskerke","admin3":""},{"geonameid":2747206,"name":"Sirjansland","admin3":""},{"geonameid":2745582,"name":"Vianen","admin3":""},{"geonameid":2744774,"name":"Westenschouwen","admin3":""},{"geonameid":2743913,"name":"Zierikzee","admin3":""},{"geonameid":2743883,"name":"Zijpe","admin3":""},{"geonameid":2743833,"name":"Zonnemaire","admin3":""}],"admin3":[],"alternateNames":[{"alternatenameId":11907790,"geonameid":2744011,"isoLanguage":"de","alternateName":"Zeeland","isPreferredName":true,"isShortName":true,"isColloquial":false,"isHistoric":false}]},"__N_SSG":true}