{"pageProps":{"locale":"en","admin2":{"geonameid":4838627,"name":"Middlesex County","country":"US","admin1":"CT","admin2":"007","admin3":"","latitude":"41.4353800","longitude":"-72.5231200"},"admin1":{"geonameid":4831725,"name":"Connecticut","admin1":"CT","localeAltName":"Connecticut"},"locations":[{"geonameid":7257806,"name":"Chester Center","admin3":"14300"},{"geonameid":5284202,"name":"Clinton","admin3":"15350"},{"geonameid":4832121,"name":"Cromwell","admin3":"18080"},{"geonameid":7257361,"name":"Deep River Center","admin3":"19130"},{"geonameid":4833123,"name":"Durham","admin3":"20810"},{"geonameid":4833363,"name":"East Haddam","admin3":"22280"},{"geonameid":4833387,"name":"East Hampton","admin3":"22490"},{"geonameid":7257367,"name":"Essex Village","admin3":"26270"},{"geonameid":4836058,"name":"Higganum","admin3":"35230"},{"geonameid":4837466,"name":"Lake Pocotopaug","admin3":"22490"},{"geonameid":4838633,"name":"Middletown","admin3":"47360"},{"geonameid":4838895,"name":"Moodus","admin3":"22280"},{"geonameid":4840035,"name":"Old Saybrook","admin3":"57320"},{"geonameid":7257394,"name":"Old Saybrook Center","admin3":"57320"},{"geonameid":4841001,"name":"Portland","admin3":"61800"},{"geonameid":4842642,"name":"Saybrook Manor","admin3":"57320"},{"geonameid":7257425,"name":"Westbrook Center","admin3":"81680"}],"admin3":[{"geonameid":4832141,"name":"Town of Cromwell","admin3":"18080"},{"geonameid":4832667,"name":"Town of Deep River","admin3":"19130"},{"geonameid":4833139,"name":"Town of Durham","admin3":"20810"},{"geonameid":4833401,"name":"Town of East Hampton","admin3":"22490"},{"geonameid":4834102,"name":"Town of Essex","admin3":"26270"},{"geonameid":4835580,"name":"Town of Haddam","admin3":"35230"},{"geonameid":4837293,"name":"Town of Killingworth","admin3":"40710"},{"geonameid":4838624,"name":"Town of Middlefield","admin3":"47080"},{"geonameid":4838640,"name":"Town of Middletown","admin3":"47360"},{"geonameid":4840049,"name":"Town of Old Saybrook","admin3":"57320"},{"geonameid":4841012,"name":"Town of Portland","admin3":"61800"},{"geonameid":4845543,"name":"Town of Westbrook","admin3":"81680"},{"geonameid":5283893,"name":"Town of Chester","admin3":"14300"},{"geonameid":5284221,"name":"Town of Clinton","admin3":"15350"},{"geonameid":7316464,"name":"Town of East Haddam","admin3":"22280"}],"alternateNames":[{"alternatenameId":1980080,"geonameid":4831725,"isoLanguage":"en","alternateName":"Connecticut","isPreferredName":true,"isShortName":true,"isColloquial":false,"isHistoric":false}]},"__N_SSG":true}