{"pageProps":{"locale":"en","admin2":{"geonameid":4839373,"name":"New Haven County","country":"US","admin1":"CT","admin2":"009","admin3":"","latitude":"41.3488200","longitude":"-72.8998600"},"admin1":{"geonameid":4831725,"name":"Connecticut","admin1":"CT","localeAltName":"Connecticut"},"locations":[{"geonameid":5281551,"name":"Ansonia","admin3":"01220"},{"geonameid":5283054,"name":"Branford","admin3":"07310"},{"geonameid":7257798,"name":"Branford Center","admin3":"07310"},{"geonameid":5283837,"name":"Cheshire","admin3":"14160"},{"geonameid":7257805,"name":"Cheshire Village","admin3":"14160"},{"geonameid":7160204,"name":"City of Milford (balance)","admin3":"47535"},{"geonameid":4832745,"name":"Derby","admin3":"19550"},{"geonameid":4833425,"name":"East Haven","admin3":"22910"},{"geonameid":4835512,"name":"Guilford","admin3":"34950"},{"geonameid":7257370,"name":"Guilford Center","admin3":"34950"},{"geonameid":4835654,"name":"Hamden","admin3":"35650"},{"geonameid":4836026,"name":"Heritage Village","admin3":"69640"},{"geonameid":4838116,"name":"Madison","admin3":"44560"},{"geonameid":7257377,"name":"Madison Center","admin3":"44560"},{"geonameid":4838524,"name":"Meriden","admin3":"46520"},{"geonameid":4838611,"name":"Middlebury","admin3":"46940"},{"geonameid":4838652,"name":"Milford","admin3":"47535"},{"geonameid":4839222,"name":"Naugatuck","admin3":"49950"},{"geonameid":4839366,"name":"New Haven","admin3":"52070"},{"geonameid":4839636,"name":"North Branford","admin3":"53890"},{"geonameid":4839704,"name":"North Haven","admin3":"54870"},{"geonameid":4840104,"name":"Orange","admin3":"57600"},{"geonameid":4840237,"name":"Oxford","admin3":"58300"},{"geonameid":4841089,"name":"Prospect","admin3":"62290"},{"geonameid":4842818,"name":"Seymour","admin3":"67610"},{"geonameid":4843362,"name":"Southbury","admin3":"69640"},{"geonameid":4845056,"name":"Wallingford","admin3":"78740"},{"geonameid":7257422,"name":"Wallingford Center","admin3":"78740"},{"geonameid":4845193,"name":"Waterbury","admin3":"80070"},{"geonameid":4845419,"name":"West Haven","admin3":"82870"},{"geonameid":4845984,"name":"Wolcott","admin3":"87560"},{"geonameid":4846022,"name":"Woodbridge","admin3":"87700"},{"geonameid":4846051,"name":"Woodmont","admin3":"47535"}],"admin3":[{"geonameid":4832759,"name":"Town of Derby","admin3":"19550"},{"geonameid":4833435,"name":"Town of East Haven","admin3":"22910"},{"geonameid":4835531,"name":"Town of Guilford","admin3":"34950"},{"geonameid":4835665,"name":"Town of Hamden","admin3":"35650"},{"geonameid":4838127,"name":"Town of Madison","admin3":"44560"},{"geonameid":4838533,"name":"Town of Meriden","admin3":"46520"},{"geonameid":4838620,"name":"Town of Middlebury","admin3":"46940"},{"geonameid":4838671,"name":"Town of Milford","admin3":"47535"},{"geonameid":4839242,"name":"Town of Naugatuck","admin3":"49950"},{"geonameid":4839398,"name":"Town of New Haven","admin3":"52070"},{"geonameid":4839641,"name":"Town of North Branford","admin3":"53890"},{"geonameid":4839712,"name":"Town of North Haven","admin3":"54870"},{"geonameid":4840118,"name":"Town of Orange","admin3":"57600"},{"geonameid":4840247,"name":"Town of Oxford","admin3":"58300"},{"geonameid":4841122,"name":"Town of Prospect","admin3":"62290"},{"geonameid":4842835,"name":"Town of Seymour","admin3":"67610"},{"geonameid":4843370,"name":"Town of Southbury","admin3":"69640"},{"geonameid":4845064,"name":"Town of Wallingford","admin3":"78740"},{"geonameid":4845214,"name":"Town of Waterbury","admin3":"80070"},{"geonameid":4845429,"name":"Town of West Haven","admin3":"82870"},{"geonameid":4845994,"name":"Town of Wolcott","admin3":"87560"},{"geonameid":4846027,"name":"Town of Woodbridge","admin3":"87700"},{"geonameid":5281596,"name":"Town of Ansonia","admin3":"01220"},{"geonameid":5282040,"name":"Town of Beacon Falls","admin3":"03250"},{"geonameid":5282296,"name":"Town of Bethany","admin3":"04580"},{"geonameid":5282760,"name":"Town of Branford","admin3":"07310"},{"geonameid":5283881,"name":"Town of Cheshire","admin3":"14160"}],"alternateNames":[{"alternatenameId":1980080,"geonameid":4831725,"isoLanguage":"en","alternateName":"Connecticut","isPreferredName":true,"isShortName":true,"isColloquial":false,"isHistoric":false}]},"__N_SSG":true}