{"pageProps":{"locale":"en","admin2":{"geonameid":2754146,"name":"Gemeente Heumen","country":"NL","admin1":"03","admin2":"0252","admin3":"","latitude":"51.7743800","longitude":"5.8131200"},"admin1":{"geonameid":2755634,"name":"Provincie Gelderland","admin1":"03"},"locations":[{"geonameid":6544780,"name":"Blankenberg","admin3":""},{"geonameid":2758252,"name":"Broekkant","admin3":""},{"geonameid":6544782,"name":"De Schatkuil","admin3":""},{"geonameid":2756568,"name":"Droge","admin3":""},{"geonameid":2756110,"name":"Eng","admin3":""},{"geonameid":2755957,"name":"Ewijk","admin3":""},{"geonameid":2754588,"name":"Heide","admin3":""},{"geonameid":2754147,"name":"Heumen","admin3":""},{"geonameid":2752604,"name":"Kluis","admin3":""},{"geonameid":2751242,"name":"Malden","admin3":""},{"geonameid":2750693,"name":"Molenhoek","admin3":""},{"geonameid":2750490,"name":"Nederasselt","admin3":""},{"geonameid":2748868,"name":"Overasselt","admin3":""},{"geonameid":2747511,"name":"Schoonenburg","admin3":""},{"geonameid":6544775,"name":"Sleeburg","admin3":""},{"geonameid":2745878,"name":"Valenberg","admin3":""},{"geonameid":6544771,"name":"Vogelzang","admin3":""},{"geonameid":2745223,"name":"Vosseneind","admin3":""},{"geonameid":6544768,"name":"Worsum","admin3":""}],"admin3":[],"alternateNames":[{"alternatenameId":11907787,"geonameid":2755634,"isoLanguage":"de","alternateName":"Gelderland","isPreferredName":true,"isShortName":true,"isColloquial":false,"isHistoric":false}]},"__N_SSG":true}