{"pageProps":{"locale":"en","admin2":{"geonameid":2754134,"name":"Gemeente Heusden","country":"NL","admin1":"06","admin2":"0797","admin3":"","latitude":"51.6997500","longitude":"5.1659800"},"admin1":{"geonameid":2749990,"name":"Provincie Noord-Brabant","admin1":"06"},"locations":[{"geonameid":2757529,"name":"De Hoeven","admin3":""},{"geonameid":2756764,"name":"Doeveren","admin3":""},{"geonameid":2756543,"name":"Drunen","admin3":""},{"geonameid":2756172,"name":"Elshout","admin3":""},{"geonameid":2755537,"name":"Giersbergen","admin3":""},{"geonameid":2754986,"name":"Haarsteeg","admin3":""},{"geonameid":2754717,"name":"Hedikhuizen","admin3":""},{"geonameid":2754638,"name":"Heesbeen","admin3":""},{"geonameid":2754337,"name":"Herpt","admin3":""},{"geonameid":2754135,"name":"Heusden","admin3":""},{"geonameid":2752174,"name":"Kuiksche Heide","admin3":""},{"geonameid":6544835,"name":"Luttelherpt","admin3":""},{"geonameid":2750975,"name":"Meliestraat","admin3":""},{"geonameid":2750180,"name":"Nieuwkuijk","admin3":""},{"geonameid":2749578,"name":"Onsenoort","admin3":""},{"geonameid":2748950,"name":"Oudheusden","admin3":""},{"geonameid":2745642,"name":"Venkant","admin3":""},{"geonameid":2745428,"name":"Vliedberg","admin3":""},{"geonameid":2745396,"name":"Vlijmen","admin3":""},{"geonameid":2745316,"name":"Voordijk","admin3":""}],"admin3":[],"alternateNames":[{"alternatenameId":11907788,"geonameid":2749990,"isoLanguage":"de","alternateName":"Nordbrabant","isPreferredName":true,"isShortName":true,"isColloquial":false,"isHistoric":false}]},"__N_SSG":true}