{"pageProps":{"locale":"en","admin2":{"geonameid":2759982,"name":"Gemeente Achtkarspelen","country":"NL","admin1":"02","admin2":"0059","admin3":"","latitude":"53.2116700","longitude":"6.1377600"},"admin1":{"geonameid":2755812,"name":"Provincie Friesland","admin1":"02"},"locations":[{"geonameid":2759611,"name":"Augustinusga","admin3":""},{"geonameid":2758849,"name":"Blauwverlaat","admin3":""},{"geonameid":2758748,"name":"Boelenslaan","admin3":""},{"geonameid":2758131,"name":"Buitenpost","admin3":""},{"geonameid":2758042,"name":"Buweklooster","admin3":""},{"geonameid":2756567,"name":"Drogeham","admin3":""},{"geonameid":2755574,"name":"Gerkesklooster","admin3":""},{"geonameid":2754900,"name":"Hamshorn","admin3":""},{"geonameid":2754821,"name":"Harkema","admin3":""},{"geonameid":2754260,"name":"Het Jachtveld","admin3":""},{"geonameid":2752447,"name":"Kooten","admin3":""},{"geonameid":2752444,"name":"Kootstertille","admin3":""},{"geonameid":2752390,"name":"Kortwoude","admin3":""},{"geonameid":2752176,"name":"Kuikhorne","admin3":""},{"geonameid":2751365,"name":"Lutkepost","admin3":""},{"geonameid":2749291,"name":"Ophuis","admin3":""},{"geonameid":2747983,"name":"Rohel","admin3":""},{"geonameid":2747954,"name":"Roodeschuur","admin3":""},{"geonameid":2746589,"name":"Stroobos","admin3":""},{"geonameid":2746558,"name":"Surhuisterveen","admin3":""},{"geonameid":2746557,"name":"Surhuizum","admin3":""},{"geonameid":2746556,"name":"Surhuizumermieden","admin3":""},{"geonameid":2746052,"name":"Twijzel","admin3":""},{"geonameid":2746051,"name":"Twijzelerheide","admin3":""},{"geonameid":2744939,"name":"Wedzeburen","admin3":""}],"admin3":[],"alternateNames":[{"alternatenameId":5463435,"geonameid":2755812,"isoLanguage":"de","alternateName":"Friesland","isPreferredName":true,"isShortName":true,"isColloquial":false,"isHistoric":false}]},"__N_SSG":true}