{"pageProps":{"locale":"en","admin2":{"geonameid":2751791,"name":"Gemeente Leeuwarden","country":"NL","admin1":"02","admin2":"0080","admin3":"","latitude":"53.1860200","longitude":"5.8111100"},"admin1":{"geonameid":2755812,"name":"Provincie Friesland","admin1":"02"},"locations":[{"geonameid":2760072,"name":"Abbenwier","admin3":""},{"geonameid":2749074,"name":"Alde Leie","admin3":""},{"geonameid":6946241,"name":"Aldlân-Oost","admin3":""},{"geonameid":2759909,"name":"Aldlan-West","admin3":""},{"geonameid":2759567,"name":"Baard","admin3":""},{"geonameid":2759566,"name":"Baardburen","admin3":""},{"geonameid":6946390,"name":"Bedrijfsterrein Middelsé","admin3":""},{"geonameid":2759308,"name":"Beers","admin3":""},{"geonameid":2758930,"name":"Bilgaard","admin3":""},{"geonameid":2758309,"name":"Britsum","admin3":""},{"geonameid":6324403,"name":"Camminghaburen","admin3":""},{"geonameid":2757554,"name":"De Hem","admin3":""},{"geonameid":2757555,"name":"De Hem","admin3":""},{"geonameid":2756735,"name":"Domwier","admin3":""},{"geonameid":2759956,"name":"Eagum","admin3":""},{"geonameid":2755907,"name":"Feinsum","admin3":""},{"geonameid":2755865,"name":"Fons","admin3":""},{"geonameid":2755820,"name":"Friens","admin3":""},{"geonameid":2755399,"name":"Goutum","admin3":""},{"geonameid":2755052,"name":"Grou","admin3":""},{"geonameid":2754713,"name":"Heechterp","admin3":""},{"geonameid":2754419,"name":"Hempens","admin3":""},{"geonameid":2754085,"name":"Hijum","admin3":""},{"geonameid":2754088,"name":"Hilaard","admin3":""},{"geonameid":2753601,"name":"Hoarnsterbuorren","admin3":""},{"geonameid":6697850,"name":"Hoek","admin3":""},{"geonameid":6639654,"name":"Hoptille","admin3":""},{"geonameid":2753470,"name":"Huizum","admin3":""},{"geonameid":2753516,"name":"Húns","admin3":""},{"geonameid":2753395,"name":"Idaerd","admin3":""},{"geonameid":2753257,"name":"Jellum","admin3":""},{"geonameid":2753256,"name":"Jelsum","admin3":""},{"geonameid":2753307,"name":"Jirnsum","admin3":""},{"geonameid":2753199,"name":"Jorwerd","admin3":""},{"geonameid":2757909,"name":"Koarnjum","admin3":""},{"geonameid":2751792,"name":"Leeuwarden","admin3":""},{"geonameid":2751741,"name":"Lekkum","admin3":""},{"geonameid":2751553,"name":"Leons","admin3":""},{"geonameid":2751212,"name":"Mantgum","admin3":""},{"geonameid":2750836,"name":"Midsburen","admin3":""},{"geonameid":2750824,"name":"Miedum","admin3":""},{"geonameid":2750519,"name":"Naarderbuorren","admin3":""},{"geonameid":6639671,"name":"Noardein","admin3":""},{"geonameid":2749749,"name":"Nylan","admin3":""},{"geonameid":2749434,"name":"Oosterlittens","admin3":""},{"geonameid":2747938,"name":"Reduzum","admin3":""},{"geonameid":2747567,"name":"Schillaard","admin3":""},{"geonameid":2747449,"name":"Schrins","admin3":""},{"geonameid":2747064,"name":"Snakkerburen","admin3":""},{"geonameid":2746890,"name":"Sprong","admin3":""},{"geonameid":2746705,"name":"Stiens","admin3":""},{"geonameid":6945788,"name":"Stiens-Aldlân","admin3":""},{"geonameid":6945790,"name":"Stiens-Heechhôf","admin3":""},{"geonameid":6945791,"name":"Stiens-It Skil","admin3":""},{"geonameid":6945787,"name":"Stiens-Oriënt","admin3":""},{"geonameid":6945786,"name":"Stiens-Zuid","admin3":""},{"geonameid":2743768,"name":"Suorein","admin3":""},{"geonameid":2746543,"name":"Swichum","admin3":""},{"geonameid":2746507,"name":"Teerns","admin3":""},{"geonameid":2746332,"name":"Tichelwerk","admin3":""},{"geonameid":2746281,"name":"Tjaard","admin3":""},{"geonameid":2746271,"name":"Tjeintgum","admin3":""},{"geonameid":6698450,"name":"Vierhuis","admin3":""},{"geonameid":2745052,"name":"Wammert","admin3":""},{"geonameid":2745018,"name":"Warga","admin3":""},{"geonameid":2745000,"name":"Warstiens","admin3":""},{"geonameid":2744998,"name":"Warten","admin3":""},{"geonameid":2744891,"name":"Weidum","admin3":""},{"geonameid":2744786,"name":"Westeinde","admin3":""},{"geonameid":2744453,"name":"Wijtgaard","admin3":""},{"geonameid":2744447,"name":"Wilaard","admin3":""},{"geonameid":2744327,"name":"Wirdum","admin3":""},{"geonameid":2743774,"name":"Zuiderburen","admin3":""}],"admin3":[],"alternateNames":[{"alternatenameId":5463435,"geonameid":2755812,"isoLanguage":"de","alternateName":"Friesland","isPreferredName":true,"isShortName":true,"isColloquial":false,"isHistoric":false}]},"__N_SSG":true}