{"pageProps":{"locale":"en","admin2":{"geonameid":5129995,"name":"Orleans County","country":"US","admin1":"NY","admin2":"073","admin3":"","latitude":"43.2507000","longitude":"-78.1890100","localeAltName":null},"admin1":{"geonameid":5128638,"name":"New York","admin1":"NY","localeAltName":"New York"},"locations":[{"geonameid":5106862,"name":"Albion","admin3":"01044","localeAltName":null},{"geonameid":5121016,"name":"Holley","admin3":"49286","localeAltName":null},{"geonameid":5125534,"name":"Lyndonville","admin3":"83448","localeAltName":null},{"geonameid":5126521,"name":"Medina","admin3":"61742","localeAltName":null}],"admin3":[{"geonameid":5106867,"name":"Town of Albion","admin3":"01044","localeAltName":null},{"geonameid":5107992,"name":"Town of Barre","admin3":"04572"},{"geonameid":5111553,"name":"Town of Carlton","admin3":"12496"},{"geonameid":5112779,"name":"Town of Clarendon","admin3":"15880"},{"geonameid":5118174,"name":"Town of Gaines","admin3":"27958"},{"geonameid":5123239,"name":"Town of Kendall","admin3":"39188"},{"geonameid":5128199,"name":"Town of Murray","admin3":"49286","localeAltName":null},{"geonameid":5133856,"name":"Town of Ridgeway","admin3":"61742","localeAltName":null},{"geonameid":5137860,"name":"Town of Shelby","admin3":"66751"},{"geonameid":5145194,"name":"Town of Yates","admin3":"83448","localeAltName":null}],"alternateNames":[{"alternatenameId":1980360,"geonameid":5128638,"isoLanguage":"de","alternateName":"New York","isPreferredName":true,"isShortName":true,"isColloquial":false,"isHistoric":false},{"alternatenameId":1980362,"geonameid":5128638,"isoLanguage":"en","alternateName":"New York","isPreferredName":true,"isShortName":true,"isColloquial":false,"isHistoric":false}]},"__N_SSG":true}