{"pageProps":{"locale":"en","admin2":{"geonameid":5139559,"name":"Richmond County","country":"US","admin1":"NY","admin2":"085","admin3":"","latitude":"40.5834400","longitude":"-74.1495900","localeAltName":null},"admin1":{"geonameid":5128638,"name":"New York","admin1":"NY","localeAltName":"New York"},"locations":[{"geonameid":5107374,"name":"Arrochar","admin3":"","localeAltName":null},{"geonameid":5109554,"name":"Bloomfield","admin3":"","localeAltName":null},{"geonameid":5112277,"name":"Charleston","admin3":"","localeAltName":null},{"geonameid":5112387,"name":"Chelsea","admin3":"","localeAltName":null},{"geonameid":5112956,"name":"Clifton","admin3":"","localeAltName":null},{"geonameid":5113460,"name":"Concord","admin3":"","localeAltName":null},{"geonameid":5115204,"name":"Dongan Hills","admin3":"","localeAltName":null},{"geonameid":5116546,"name":"Eltingville","admin3":"","localeAltName":null},{"geonameid":5116570,"name":"Emerson Hill","admin3":"","localeAltName":null},{"geonameid":5117714,"name":"Fort Wadsworth","admin3":"","localeAltName":null},{"geonameid":5119049,"name":"Graniteville","admin3":"","localeAltName":null},{"geonameid":5119059,"name":"Grant City","admin3":"","localeAltName":null},{"geonameid":5119211,"name":"Great Kills","admin3":"","localeAltName":null},{"geonameid":5119566,"name":"Grymes Hill","admin3":"","localeAltName":null},{"geonameid":5121549,"name":"Huguenot","admin3":"","localeAltName":null},{"geonameid":5126013,"name":"Mariners Harbor","admin3":"","localeAltName":null},{"geonameid":5126855,"name":"Midland Beach","admin3":"","localeAltName":null},{"geonameid":5128522,"name":"New Brighton","admin3":"","localeAltName":null},{"geonameid":5128490,"name":"New Dorp","admin3":"","localeAltName":null},{"geonameid":5128492,"name":"New Dorp Beach","admin3":"","localeAltName":null},{"geonameid":5128566,"name":"New Springville","admin3":"","localeAltName":null},{"geonameid":5129572,"name":"Oakwood","admin3":"","localeAltName":null},{"geonameid":5131715,"name":"Pleasant Plains","admin3":"","localeAltName":null},{"geonameid":5132028,"name":"Port Richmond","admin3":"","localeAltName":null},{"geonameid":5134391,"name":"Rosebank","admin3":"","localeAltName":null},{"geonameid":5134449,"name":"Rossville","admin3":"","localeAltName":null},{"geonameid":5138744,"name":"South Beach","admin3":"","localeAltName":null},{"geonameid":5139465,"name":"Stapleton","admin3":"","localeAltName":null},{"geonameid":5139568,"name":"Staten Island","admin3":"","localeAltName":"Staten Island"},{"geonameid":5141165,"name":"Tompkinsville","admin3":"","localeAltName":null},{"geonameid":5144070,"name":"Westerleigh","admin3":"","localeAltName":null},{"geonameid":5144658,"name":"Willowbrook","admin3":"","localeAltName":null},{"geonameid":5145034,"name":"Woodrow","admin3":"","localeAltName":null}],"admin3":[],"alternateNames":[{"alternatenameId":1980360,"geonameid":5128638,"isoLanguage":"de","alternateName":"New York","isPreferredName":true,"isShortName":true,"isColloquial":false,"isHistoric":false},{"alternatenameId":1980362,"geonameid":5128638,"isoLanguage":"en","alternateName":"New York","isPreferredName":true,"isShortName":true,"isColloquial":false,"isHistoric":false},{"alternatenameId":2728238,"geonameid":5139568,"isoLanguage":"en","alternateName":"Staten Island","isPreferredName":true,"isShortName":true,"isColloquial":false,"isHistoric":false}]},"__N_SSG":true}