{"pageProps":{"locale":"en","admin2":{"geonameid":4254165,"name":"Bartholomew County","country":"US","admin1":"IN","admin2":"005","admin3":"","latitude":"39.2059700","longitude":"-85.8976000","localeAltName":null},"admin1":{"geonameid":4921868,"name":"Indiana","admin1":"IN","localeAltName":"Indiana"},"locations":[{"geonameid":4256038,"name":"Columbus","admin3":"14752","localeAltName":null},{"geonameid":4257084,"name":"Elizabethtown","admin3":"67716","localeAltName":null},{"geonameid":4259115,"name":"Hope","admin3":"32530","localeAltName":null},{"geonameid":4265703,"name":"Taylorsville","admin3":"27432","localeAltName":null}],"admin3":[{"geonameid":4255869,"name":"Township of Clay","admin3":"12970"},{"geonameid":4255922,"name":"Township of Clifty","admin3":"13618"},{"geonameid":4256042,"name":"Township of Columbus","admin3":"14752","localeAltName":null},{"geonameid":4257529,"name":"Township of Flat Rock","admin3":"23548"},{"geonameid":4257937,"name":"Township of German","admin3":"27432","localeAltName":null},{"geonameid":4258605,"name":"Township of Harrison","admin3":"31612"},{"geonameid":4258681,"name":"Township of Haw Creek","admin3":"32530","localeAltName":null},{"geonameid":4259587,"name":"Township of Jackson","admin3":"36756"},{"geonameid":4262465,"name":"Township of Ohio","admin3":"56124"},{"geonameid":4263826,"name":"Township of Rock Creek","admin3":"65250"},{"geonameid":4264418,"name":"Township of Sand Creek","admin3":"67716","localeAltName":null},{"geonameid":4266675,"name":"Township of Wayne","admin3":"81656"},{"geonameid":7274915,"name":"Unorganized Territory of Camp Atterbury","admin3":"09937"}],"alternateNames":[{"alternatenameId":2124819,"geonameid":4921868,"isoLanguage":"en","alternateName":"Indiana","isPreferredName":true,"isShortName":true,"isColloquial":false,"isHistoric":false}]},"__N_SSG":true}