{"pageProps":{"locale":"en","admin2":{"geonameid":4921729,"name":"Huntington County","country":"US","admin1":"IN","admin2":"069","admin3":"","latitude":"40.8292400","longitude":"-85.4881700","localeAltName":null},"admin1":{"geonameid":4921868,"name":"Indiana","admin1":"IN","localeAltName":"Indiana"},"locations":[{"geonameid":4917606,"name":"Andrews","admin3":"16678","localeAltName":null},{"geonameid":4921725,"name":"Huntington","admin3":"35311","localeAltName":null},{"geonameid":4923226,"name":"Markle","admin3":"65304","localeAltName":null},{"geonameid":4925483,"name":"Roanoke","admin3":"37116","localeAltName":null},{"geonameid":4927844,"name":"Warren","admin3":"67320","localeAltName":null}],"admin3":[{"geonameid":4832572,"name":"Township of Clear Creek","admin3":"13384"},{"geonameid":4919494,"name":"Township of Dallas","admin3":"16678","localeAltName":null},{"geonameid":4921734,"name":"Township of Huntington","admin3":"35311","localeAltName":null},{"geonameid":4921957,"name":"Township of Jackson","admin3":"37116","localeAltName":null},{"geonameid":4922046,"name":"Township of Jefferson","admin3":"38016"},{"geonameid":4922603,"name":"Township of Lancaster","admin3":"41904"},{"geonameid":4924976,"name":"Township of Polk","admin3":"60948"},{"geonameid":4925528,"name":"Township of Rock Creek","admin3":"65304","localeAltName":null},{"geonameid":4926062,"name":"Township of Salamonie","admin3":"67320","localeAltName":null},{"geonameid":4927473,"name":"Township of Union","admin3":"77354"},{"geonameid":4927851,"name":"Township of Warren","admin3":"80126"},{"geonameid":4927956,"name":"Township of Wayne","admin3":"81746"}],"alternateNames":[{"alternatenameId":2124819,"geonameid":4921868,"isoLanguage":"en","alternateName":"Indiana","isPreferredName":true,"isShortName":true,"isColloquial":false,"isHistoric":false}]},"__N_SSG":true}