{"pageProps":{"locale":"en","admin2":{"geonameid":4922458,"name":"LaGrange County","country":"US","admin1":"IN","admin2":"087","admin3":"","latitude":"41.6426100","longitude":"-85.4265000","localeAltName":null},"admin1":{"geonameid":4921868,"name":"Indiana","admin1":"IN","localeAltName":"Indiana"},"locations":[{"geonameid":4921678,"name":"Howe","admin3":"43722","localeAltName":null},{"geonameid":4922472,"name":"Lagrange","admin3":"05752","localeAltName":null},{"geonameid":4926387,"name":"Shipshewana","admin3":"52686","localeAltName":null},{"geonameid":4927264,"name":"Topeka","admin3":"20206","localeAltName":null}],"admin3":[{"geonameid":4918208,"name":"Township of Bloomfield","admin3":"05752","localeAltName":null},{"geonameid":4919074,"name":"Township of Clay","admin3":"13132"},{"geonameid":4919101,"name":"Township of Clearspring","admin3":"13456"},{"geonameid":4919930,"name":"Township of Eden","admin3":"20206","localeAltName":null},{"geonameid":4920952,"name":"Township of Greenfield","admin3":"29538"},{"geonameid":4922128,"name":"Township of Johnson","admin3":"38718"},{"geonameid":4922783,"name":"Township of Lima","admin3":"43722","localeAltName":null},{"geonameid":4923575,"name":"Township of Milford","admin3":"49338"},{"geonameid":4924155,"name":"Township of Newbury","admin3":"52686","localeAltName":null},{"geonameid":4926721,"name":"Township of Springfield","admin3":"72152"},{"geonameid":4927560,"name":"Township of Van Buren","admin3":"78506"}],"alternateNames":[{"alternatenameId":2124819,"geonameid":4921868,"isoLanguage":"en","alternateName":"Indiana","isPreferredName":true,"isShortName":true,"isColloquial":false,"isHistoric":false}]},"__N_SSG":true}