{"pageProps":{"locale":"en","admin2":{"geonameid":4261020,"name":"Martin County","country":"US","admin1":"IN","admin2":"101","admin3":"","latitude":"38.7080100","longitude":"-86.8030700","localeAltName":null},"admin1":{"geonameid":4921868,"name":"Indiana","admin1":"IN","localeAltName":"Indiana"},"locations":[{"geonameid":4260711,"name":"Loogootee","admin3":"59076","localeAltName":null},{"geonameid":4264771,"name":"Shoals","admin3":"30420","localeAltName":null}],"admin3":[{"geonameid":4048364,"name":"Township of Lost River","admin3":"45036"},{"geonameid":4255616,"name":"Township of Center","admin3":"11548"},{"geonameid":4258427,"name":"Township of Halbert","admin3":"30420","localeAltName":null},{"geonameid":4261493,"name":"Township of Mitcheltree","admin3":"49995"},{"geonameid":4262945,"name":"Township of Perry","admin3":"59076","localeAltName":null},{"geonameid":4264006,"name":"Township of Rutherford","admin3":"66582"}],"alternateNames":[{"alternatenameId":2124819,"geonameid":4921868,"isoLanguage":"en","alternateName":"Indiana","isPreferredName":true,"isShortName":true,"isColloquial":false,"isHistoric":false}]},"__N_SSG":true}