{"pageProps":{"locale":"en","admin2":{"geonameid":4261526,"name":"Monroe County","country":"US","admin1":"IN","admin2":"105","admin3":"","latitude":"39.1609200","longitude":"-86.5231400","localeAltName":null},"admin1":{"geonameid":4921868,"name":"Indiana","admin1":"IN","localeAltName":"Indiana"},"locations":[{"geonameid":4254679,"name":"Bloomington","admin3":"05878","localeAltName":null},{"geonameid":4257110,"name":"Ellettsville","admin3":"64152","localeAltName":null},{"geonameid":4258623,"name":"Harrodsburg","admin3":"13420","localeAltName":null},{"geonameid":7315249,"name":"Smithville-Sanders","admin3":"13420","localeAltName":null}],"admin3":[{"geonameid":4254217,"name":"Township of Bean Blossom","admin3":"03808"},{"geonameid":4254400,"name":"Township of Benton","admin3":"04816"},{"geonameid":4254682,"name":"Township of Bloomington","admin3":"05878","localeAltName":null},{"geonameid":4255880,"name":"Township of Clear Creek","admin3":"13420","localeAltName":null},{"geonameid":4259366,"name":"Township of Indian Creek","admin3":"36072"},{"geonameid":4262946,"name":"Township of Perry","admin3":"59112"},{"geonameid":4263247,"name":"Township of Polk","admin3":"60984"},{"geonameid":4263679,"name":"Township of Richland","admin3":"64152","localeAltName":null},{"geonameid":4264381,"name":"Township of Salt Creek","admin3":"67590"},{"geonameid":4266220,"name":"Township of Van Buren","admin3":"78542"},{"geonameid":4266622,"name":"Township of Washington","admin3":"80828"}],"alternateNames":[{"alternatenameId":2124819,"geonameid":4921868,"isoLanguage":"en","alternateName":"Indiana","isPreferredName":true,"isShortName":true,"isColloquial":false,"isHistoric":false}]},"__N_SSG":true}