{"pageProps":{"locale":"en","admin2":{"geonameid":4925020,"name":"Porter County","country":"US","admin1":"IN","admin2":"127","admin3":"","latitude":"41.5088400","longitude":"-87.0733200","localeAltName":null},"admin1":{"geonameid":4921868,"name":"Indiana","admin1":"IN","localeAltName":"Indiana"},"locations":[{"geonameid":4917466,"name":"Aberdeen","admin3":"11566","localeAltName":null},{"geonameid":4918099,"name":"Beverly Shores","admin3":"59922","localeAltName":null},{"geonameid":4918559,"name":"Burns Harbor","admin3":"82484","localeAltName":null},{"geonameid":4918962,"name":"Chesterton","admin3":"82484","localeAltName":null},{"geonameid":4921298,"name":"Hebron","admin3":"06580","localeAltName":null},{"geonameid":4922412,"name":"Kouts","admin3":"60426","localeAltName":null},{"geonameid":4922562,"name":"Lakes of the Four Seasons","admin3":"61182","localeAltName":null},{"geonameid":4924412,"name":"Ogden Dunes","admin3":"61110","localeAltName":null},{"geonameid":4925006,"name":"Portage","admin3":"61110","localeAltName":null},{"geonameid":4925015,"name":"Porter","admin3":"82484","localeAltName":null},{"geonameid":7728581,"name":"Shorewood Forest","admin3":"77570","localeAltName":null},{"geonameid":4926613,"name":"South Haven","admin3":"61110","localeAltName":null},{"geonameid":4927276,"name":"Town of Pines","admin3":"59922","localeAltName":null},{"geonameid":4927537,"name":"Valparaiso","admin3":"11566","localeAltName":null}],"admin3":[{"geonameid":4918280,"name":"Township of Boone","admin3":"06580","localeAltName":null},{"geonameid":4918863,"name":"Township of Center","admin3":"11566","localeAltName":null},{"geonameid":4921963,"name":"Township of Jackson","admin3":"37314"},{"geonameid":4922764,"name":"Township of Liberty","admin3":"43362"},{"geonameid":4923790,"name":"Township of Morgan","admin3":"51066"},{"geonameid":4924827,"name":"Township of Pine","admin3":"59922","localeAltName":null},{"geonameid":4924940,"name":"Township of Pleasant","admin3":"60426","localeAltName":null},{"geonameid":4925012,"name":"Township of Portage","admin3":"61110","localeAltName":null},{"geonameid":4925036,"name":"Township of Porter","admin3":"61182","localeAltName":null},{"geonameid":4927480,"name":"Township of Union","admin3":"77570","localeAltName":null},{"geonameid":4927914,"name":"Township of Washington","admin3":"80954"},{"geonameid":4928112,"name":"Township of Westchester","admin3":"82484","localeAltName":null}],"alternateNames":[{"alternatenameId":2124819,"geonameid":4921868,"isoLanguage":"en","alternateName":"Indiana","isPreferredName":true,"isShortName":true,"isColloquial":false,"isHistoric":false}]},"__N_SSG":true}