{"pageProps":{"locale":"en","admin2":{"geonameid":4925848,"name":"Saint Joseph County","country":"US","admin1":"IN","admin2":"141","admin3":"","latitude":"41.6167200","longitude":"-86.2898600","localeAltName":null},"admin1":{"geonameid":4921868,"name":"Indiana","admin1":"IN","localeAltName":"Indiana"},"locations":[{"geonameid":4920683,"name":"Georgetown","admin3":"13222","localeAltName":null},{"geonameid":4920869,"name":"Granger","admin3":"31558","localeAltName":null},{"geonameid":4921034,"name":"Gulivoire Park","admin3":"11890","localeAltName":null},{"geonameid":4922585,"name":"Lakeville","admin3":"77624","localeAltName":null},{"geonameid":4923670,"name":"Mishawaka","admin3":"58734","localeAltName":null},{"geonameid":4924093,"name":"New Carlisle","admin3":"56556","localeAltName":null},{"geonameid":4924243,"name":"North Liberty","admin3":"43380","localeAltName":null},{"geonameid":8469294,"name":"Notre Dame","admin3":"61128","localeAltName":null},{"geonameid":4924538,"name":"Osceola","admin3":"58734","localeAltName":null},{"geonameid":4925589,"name":"Roseland","admin3":"13222","localeAltName":null},{"geonameid":4926563,"name":"South Bend","admin3":"61128","localeAltName":null},{"geonameid":4927788,"name":"Walkerton","admin3":"43848","localeAltName":null}],"admin3":[{"geonameid":4918888,"name":"Township of Centre","admin3":"11890","localeAltName":null},{"geonameid":4919076,"name":"Township of Clay","admin3":"13222","localeAltName":null},{"geonameid":4920695,"name":"Township of German","admin3":"27468"},{"geonameid":4920948,"name":"Township of Greene","admin3":"29502"},{"geonameid":4921191,"name":"Township of Harris","admin3":"31558","localeAltName":null},{"geonameid":4922765,"name":"Township of Liberty","admin3":"43380","localeAltName":null},{"geonameid":4922824,"name":"Township of Lincoln","admin3":"43848","localeAltName":null},{"geonameid":4923135,"name":"Township of Madison","admin3":"46098"},{"geonameid":4924479,"name":"Township of Olive","admin3":"56556","localeAltName":null},{"geonameid":4924697,"name":"Township of Penn","admin3":"58734","localeAltName":null},{"geonameid":4925013,"name":"Township of Portage","admin3":"61128","localeAltName":null},{"geonameid":4927482,"name":"Township of Union","admin3":"77624","localeAltName":null},{"geonameid":4927852,"name":"Township of Warren","admin3":"80180"}],"alternateNames":[{"alternatenameId":2124819,"geonameid":4921868,"isoLanguage":"en","alternateName":"Indiana","isPreferredName":true,"isShortName":true,"isColloquial":false,"isHistoric":false}]},"__N_SSG":true}