{"pageProps":{"locale":"en","admin2":{"geonameid":4926796,"name":"Steuben County","country":"US","admin1":"IN","admin2":"151","admin3":"","latitude":"41.6438700","longitude":"-85.0007700","localeAltName":null},"admin1":{"geonameid":4921868,"name":"Indiana","admin1":"IN","localeAltName":"Indiana"},"locations":[{"geonameid":4917614,"name":"Angola","admin3":"60444","localeAltName":null},{"geonameid":4920512,"name":"Fremont","admin3":"25891","localeAltName":null},{"geonameid":4921083,"name":"Hamilton","admin3":"57240","localeAltName":null},{"geonameid":4921686,"name":"Hudson","admin3":"67428","localeAltName":null}],"admin3":[{"geonameid":4919098,"name":"Township of Clear Lake","admin3":"13447"},{"geonameid":4920515,"name":"Township of Fremont","admin3":"25891","localeAltName":null},{"geonameid":4921966,"name":"Township of Jackson","admin3":"37458"},{"geonameid":4921998,"name":"Township of Jamestown","admin3":"37746"},{"geonameid":4923642,"name":"Township of Millgrove","admin3":"49644"},{"geonameid":4924553,"name":"Township of Otsego","admin3":"57240","localeAltName":null},{"geonameid":4924941,"name":"Township of Pleasant","admin3":"60444","localeAltName":null},{"geonameid":4925375,"name":"Township of Richland","admin3":"64224"},{"geonameid":4926099,"name":"Township of Salem","admin3":"67428","localeAltName":null},{"geonameid":4926231,"name":"Township of Scott","admin3":"68454"},{"geonameid":4926800,"name":"Township of Steuben","admin3":"73070"},{"geonameid":4928491,"name":"Township of York","admin3":"86030"}],"alternateNames":[{"alternatenameId":2124819,"geonameid":4921868,"isoLanguage":"en","alternateName":"Indiana","isPreferredName":true,"isShortName":true,"isColloquial":false,"isHistoric":false}]},"__N_SSG":true}