{"pageProps":{"locale":"en","admin2":{"geonameid":4928008,"name":"Wells County","country":"US","admin1":"IN","admin2":"179","admin3":"","latitude":"40.7291900","longitude":"-85.2212200","localeAltName":null},"admin1":{"geonameid":4921868,"name":"Indiana","admin1":"IN","localeAltName":"Indiana"},"locations":[{"geonameid":4918234,"name":"Bluffton","admin3":"32062","localeAltName":null},{"geonameid":4924543,"name":"Ossian","admin3":"38304","localeAltName":null}],"admin3":[{"geonameid":4918948,"name":"Township of Chester","admin3":"12358"},{"geonameid":4921213,"name":"Township of Harrison","admin3":"32062","localeAltName":null},{"geonameid":4921968,"name":"Township of Jackson","admin3":"37548"},{"geonameid":4922054,"name":"Township of Jefferson","admin3":"38304","localeAltName":null},{"geonameid":4922604,"name":"Township of Lancaster","admin3":"41958"},{"geonameid":4922769,"name":"Township of Liberty","admin3":"43506"},{"geonameid":4924314,"name":"Township of Nottingham","admin3":"55422"},{"geonameid":4925537,"name":"Township of Rockcreek","admin3":"65322"},{"geonameid":4927484,"name":"Township of Union","admin3":"77714"}],"alternateNames":[{"alternatenameId":2124819,"geonameid":4921868,"isoLanguage":"en","alternateName":"Indiana","isPreferredName":true,"isShortName":true,"isColloquial":false,"isHistoric":false}]},"__N_SSG":true}