{"pageProps":{"locale":"en","admin2":{"geonameid":4928184,"name":"White County","country":"US","admin1":"IN","admin2":"181","admin3":"","latitude":"40.7497700","longitude":"-86.8654700","localeAltName":null},"admin1":{"geonameid":4921868,"name":"Indiana","admin1":"IN","localeAltName":"Indiana"},"locations":[{"geonameid":4918417,"name":"Brookston","admin3":"61650","localeAltName":null},{"geonameid":4918508,"name":"Buffalo","admin3":"43524","localeAltName":null},{"geonameid":4918899,"name":"Chalmers","admin3":"05194","localeAltName":null},{"geonameid":4923711,"name":"Monon","admin3":"50166","localeAltName":null},{"geonameid":4923745,"name":"Monticello","admin3":"77732","localeAltName":null},{"geonameid":4925340,"name":"Reynolds","admin3":"34564","localeAltName":null},{"geonameid":4928360,"name":"Wolcott","admin3":"62064","localeAltName":null}],"admin3":[{"geonameid":4918121,"name":"Township of Big Creek","admin3":"05194","localeAltName":null},{"geonameid":4918776,"name":"Township of Cass","admin3":"10810"},{"geonameid":4921590,"name":"Township of Honey Creek","admin3":"34564","localeAltName":null},{"geonameid":4921969,"name":"Township of Jackson","admin3":"37566"},{"geonameid":4922770,"name":"Township of Liberty","admin3":"43524","localeAltName":null},{"geonameid":4922825,"name":"Township of Lincoln","admin3":"43866"},{"geonameid":4923716,"name":"Township of Monon","admin3":"50166","localeAltName":null},{"geonameid":4925102,"name":"Township of Prairie","admin3":"61650","localeAltName":null},{"geonameid":4925135,"name":"Township of Princeton","admin3":"62064","localeAltName":null},{"geonameid":4925622,"name":"Township of Round Grove","admin3":"66186"},{"geonameid":4927485,"name":"Township of Union","admin3":"77732","localeAltName":null},{"geonameid":4928094,"name":"Township of West Point","admin3":"83258"}],"alternateNames":[{"alternatenameId":2124819,"geonameid":4921868,"isoLanguage":"en","alternateName":"Indiana","isPreferredName":true,"isShortName":true,"isColloquial":false,"isHistoric":false}]},"__N_SSG":true}