{"pageProps":{"locale":"en","admin2":{"geonameid":3333177,"name":"North Somerset","country":"GB","admin1":"ENG","admin2":"J4","admin3":"","latitude":"51.3333300","longitude":"-2.8333300"},"admin1":{"geonameid":6269131,"name":"England","admin1":"ENG"},"locations":[{"geonameid":11593080,"name":"Abbots Leigh"},{"geonameid":2656378,"name":"Banwell"},{"geonameid":6695719,"name":"Banwell Castle"},{"geonameid":10377124,"name":"Barton"},{"geonameid":2655407,"name":"Blagdon"},{"geonameid":2655367,"name":"Bleadon"},{"geonameid":2654608,"name":"Brockley"},{"geonameid":2654234,"name":"Burrington"},{"geonameid":2654169,"name":"Butcombe"},{"geonameid":2653259,"name":"Chelvey"},{"geonameid":6619752,"name":"Christon"},{"geonameid":2653034,"name":"Churchill"},{"geonameid":2652947,"name":"Clapton in Gordano"},{"geonameid":2652861,"name":"Clevedon"},{"geonameid":2652463,"name":"Congresbury"},{"geonameid":6619757,"name":"Doleberrow"},{"geonameid":2650737,"name":"Dundry"},{"geonameid":9884032,"name":"East Dundry"},{"geonameid":3345403,"name":"Easton-in-Gordano"},{"geonameid":8063560,"name":"Failand"},{"geonameid":2649570,"name":"Felton"},{"geonameid":2649327,"name":"Flax Bourton"},{"geonameid":2646342,"name":"Hutton"},{"geonameid":2645815,"name":"Kenn"},{"geonameid":3345387,"name":"Kewstoke"},{"geonameid":2645426,"name":"Kingston Seymour"},{"geonameid":10377122,"name":"Langford Village"},{"geonameid":8063561,"name":"Leigh Woods"},{"geonameid":2643790,"name":"Locking"},{"geonameid":2643726,"name":"Long Ashton"},{"geonameid":2644940,"name":"Lower Langford"},{"geonameid":2643462,"name":"Loxton"},{"geonameid":2643400,"name":"Lulsgate Bottom"},{"geonameid":9884033,"name":"Maiden Head"},{"geonameid":2641913,"name":"Nailsea"},{"geonameid":11550751,"name":"Nailsea and Backwell"},{"geonameid":2640294,"name":"Pill"},{"geonameid":2640075,"name":"Portbury"},{"geonameid":2640037,"name":"Portishead"},{"geonameid":2639830,"name":"Puxton"},{"geonameid":2639544,"name":"Redhill"},{"geonameid":6619764,"name":"Rickford"},{"geonameid":2638593,"name":"Sandford"},{"geonameid":2637862,"name":"Sidcot"},{"geonameid":6693023,"name":"St. Georges"},{"geonameid":9538949,"name":"Tickenham"},{"geonameid":2635157,"name":"Uphill"},{"geonameid":10377121,"name":"Upper Langford"},{"geonameid":3345402,"name":"Walton Down"},{"geonameid":2634831,"name":"Walton in Gordano"},{"geonameid":8063559,"name":"West Town"},{"geonameid":3345401,"name":"Weston Down"},{"geonameid":2634316,"name":"Weston in Gordano"},{"geonameid":2634308,"name":"Weston-super-Mare"},{"geonameid":2633968,"name":"Wick Saint Lawrence"},{"geonameid":2633834,"name":"Winford"},{"geonameid":6695949,"name":"Winscombe"},{"geonameid":6619735,"name":"Winterhead"},{"geonameid":2633548,"name":"Worle"},{"geonameid":2633498,"name":"Wraxall"},{"geonameid":2633482,"name":"Wrington"},{"geonameid":2633404,"name":"Yatton"}],"admin3":[{"geonameid":2643727,"name":"Long Ashton","admin3":"00HC023"},{"geonameid":7291919,"name":"Brockley","admin3":"00HC007"},{"geonameid":7291920,"name":"Cleeve","admin3":"00HC012"},{"geonameid":7291921,"name":"Dundry","admin3":"00HC015"},{"geonameid":7291922,"name":"Hutton","admin3":"00HC018"},{"geonameid":7291923,"name":"Wraxall and Failand","admin3":"00HC035"},{"geonameid":7291926,"name":"Wrington","admin3":"00HC036"},{"geonameid":7293645,"name":"Burrington","admin3":"00HC008"},{"geonameid":7293646,"name":"Locking","admin3":"00HC022"},{"geonameid":7293647,"name":"Winscombe and Sandford","admin3":"00HC034"},{"geonameid":7293654,"name":"Backwell","admin3":"00HC002"},{"geonameid":7295036,"name":"Banwell","admin3":"00HC003"},{"geonameid":7295037,"name":"Clevedon","admin3":"00HC013"},{"geonameid":7295038,"name":"Flax Bourton","admin3":"00HC017"},{"geonameid":7295039,"name":"Loxton","admin3":"00HC024"},{"geonameid":7295040,"name":"Puxton","admin3":"00HC028"},{"geonameid":7295041,"name":"Weston-in-Gordano","admin3":"00HC031"},{"geonameid":7295042,"name":"Wick St. Lawrence","admin3":"00HC032"},{"geonameid":7295043,"name":"Yatton","admin3":"00HC037"},{"geonameid":7295044,"name":"Weston-Super-Mare","admin3":"00HC038"},{"geonameid":7296935,"name":"Kenn","admin3":"00HC019"},{"geonameid":7296936,"name":"Abbots Leigh","admin3":"00HC001"},{"geonameid":7296937,"name":"Barrow Gurney","admin3":"00HC004"},{"geonameid":7296938,"name":"Blagdon","admin3":"00HC005"},{"geonameid":7296939,"name":"Bleadon","admin3":"00HC006"},{"geonameid":7296940,"name":"Churchill","admin3":"00HC010"},{"geonameid":7296941,"name":"Clapton-in-Gordano","admin3":"00HC011"},{"geonameid":7296942,"name":"Congresbury","admin3":"00HC014"},{"geonameid":7296943,"name":"Easton-in-Gordano","admin3":"00HC016"},{"geonameid":7296944,"name":"Kingston Seymour","admin3":"00HC021"},{"geonameid":7296945,"name":"Portbury","admin3":"00HC026"},{"geonameid":7296946,"name":"Portishead and North Weston","admin3":"00HC027"},{"geonameid":7298886,"name":"Butcombe","admin3":"00HC009"},{"geonameid":7298887,"name":"Kewstoke","admin3":"00HC020"},{"geonameid":7298888,"name":"Nailsea","admin3":"00HC025"},{"geonameid":7298889,"name":"Walton-in-Gordano","admin3":"00HC030"},{"geonameid":7298890,"name":"Winford","admin3":"00HC033"},{"geonameid":7298891,"name":"St. Georges","admin3":"00HC039"},{"geonameid":7300982,"name":"Tickenham","admin3":"00HC029"}],"alternateNames":[]},"__N_SSG":true}