{"pageProps":{"locale":"ro","admin2":{"geonameid":685222,"name":"Comuna Beceni","country":"RO","admin1":"11","admin2":"45003","admin3":"","latitude":"45.3845600","longitude":"26.7697800"},"admin1":{"geonameid":683121,"name":"Buzău","admin1":"11"},"locations":[{"geonameid":10942258,"name":"Arbănași","admin3":""},{"geonameid":685223,"name":"Beceni","admin3":""},{"geonameid":682650,"name":"Cărpiniștea","admin3":""},{"geonameid":681222,"name":"Cociobeşti","admin3":""},{"geonameid":679161,"name":"Dogari","admin3":""},{"geonameid":678570,"name":"Enculeşti","admin3":""},{"geonameid":678061,"name":"Florești","admin3":""},{"geonameid":676542,"name":"Gura Dimienii","admin3":""},{"geonameid":676507,"name":"Gura Ocii","admin3":""},{"geonameid":675321,"name":"Izvoru Dulce","admin3":""},{"geonameid":674385,"name":"Lunca Murei","admin3":""},{"geonameid":673822,"name":"Mărgăriți","admin3":""},{"geonameid":663739,"name":"Valea Hotarului","admin3":""},{"geonameid":663531,"name":"Valea Părului","admin3":""}],"admin3":[],"alternateNames":[]},"__N_SSG":true}