{"pageProps":{"locale":"ro","admin2":{"geonameid":686166,"name":"Comuna Arieşeni","country":"RO","admin1":"01","admin2":"2381","admin3":"","latitude":"46.4765900","longitude":"22.7553500"},"admin1":{"geonameid":686581,"name":"Alba","admin1":"01"},"locations":[{"geonameid":686167,"name":"Arieşeni","admin3":""},{"geonameid":686023,"name":"Avrămești","admin3":""},{"geonameid":10861082,"name":"Bubești","admin3":""},{"geonameid":683440,"name":"Budeşti","admin3":""},{"geonameid":682625,"name":"Casa de Piatră","admin3":""},{"geonameid":681247,"name":"Cobleș","admin3":""},{"geonameid":679678,"name":"Dealu Avremeştilor","admin3":""},{"geonameid":679676,"name":"Dealu Bajului","admin3":""},{"geonameid":678410,"name":"Fața Cristesei","admin3":""},{"geonameid":678409,"name":"Fața Lăpușului","admin3":""},{"geonameid":678401,"name":"Faţa Pânteştilor","admin3":""},{"geonameid":677682,"name":"Galbena","admin3":""},{"geonameid":676107,"name":"Hodobana","admin3":""},{"geonameid":675400,"name":"Izlaz","admin3":""},{"geonameid":671375,"name":"Păntești","admin3":""},{"geonameid":671266,"name":"Pătrăhăițești","admin3":""},{"geonameid":669985,"name":"Poienița","admin3":""},{"geonameid":669942,"name":"Poniţa","admin3":""},{"geonameid":669091,"name":"Ravicești","admin3":""},{"geonameid":666206,"name":"Ștei-Arieșeni","admin3":""},{"geonameid":666202,"name":"Steiu","admin3":""},{"geonameid":665901,"name":"Stufu","admin3":""},{"geonameid":665882,"name":"Sturu","admin3":""},{"geonameid":663211,"name":"Vanvucești","admin3":""}],"admin3":[],"alternateNames":[]},"__N_SSG":true}