{"pageProps":{"locale":"en","admin2":{"geonameid":3333122,"name":"Barnsley","country":"GB","admin1":"ENG","admin2":"A3","admin3":"","latitude":"53.5333300","longitude":"-1.5000000","localeAltName":"Barnsley"},"admin1":{"geonameid":6269131,"name":"England","admin1":"ENG","localeAltName":"England"},"locations":[{"geonameid":2657118,"name":"Ardsley"},{"geonameid":2656284,"name":"Barnsley"},{"geonameid":2655618,"name":"Birdwell"},{"geonameid":2655230,"name":"Bolton upon Dearne"},{"geonameid":11593109,"name":"Brierley"},{"geonameid":7873949,"name":"Carlecotes"},{"geonameid":2653767,"name":"Carlton"},{"geonameid":2653463,"name":"Cawthorne"},{"geonameid":2652901,"name":"Clayton"},{"geonameid":2651778,"name":"Cudworth"},{"geonameid":8063648,"name":"Cundy Cross"},{"geonameid":2651520,"name":"Darfield"},{"geonameid":2651497,"name":"Darton"},{"geonameid":2651172,"name":"Dodworth"},{"geonameid":2650731,"name":"Dunford Bridge"},{"geonameid":2650060,"name":"Elsecar"},{"geonameid":6252061,"name":"Fullshaw Cross"},{"geonameid":2648074,"name":"Great Houghton"},{"geonameid":7302133,"name":"Grimethorpe"},{"geonameid":2647245,"name":"Hazelhead"},{"geonameid":2646471,"name":"Hoyland Nether"},{"geonameid":2646217,"name":"Ingbirchworth"},{"geonameid":8063649,"name":"Kexbrough"},{"geonameid":2644911,"name":"Langsett"},{"geonameid":2644307,"name":"Little Houghton"},{"geonameid":8063647,"name":"Lundwood"},{"geonameid":2640463,"name":"Penistone"},{"geonameid":6255145,"name":"Pogmoor"},{"geonameid":2639017,"name":"Royston"},{"geonameid":2638156,"name":"Shafton"},{"geonameid":2637841,"name":"Silkstone"},{"geonameid":2637132,"name":"Stainborough"},{"geonameid":2637129,"name":"Staincross"},{"geonameid":2636260,"name":"Tankersley"},{"geonameid":2635891,"name":"Thurlstone"},{"geonameid":8593757,"name":"Thurnscoe"},{"geonameid":2633681,"name":"Wombwell"},{"geonameid":2633531,"name":"Worsborough"},{"geonameid":2633530,"name":"Worsbrough Bridge"},{"geonameid":2633514,"name":"Wortley"}],"admin3":[{"geonameid":7291105,"name":"Dunford","admin3":"00CC004"},{"geonameid":7291582,"name":"Shafton","admin3":"00CC013"},{"geonameid":7291583,"name":"Silkstone","admin3":"00CC014"},{"geonameid":7292836,"name":"Cawthorne","admin3":"00CC003"},{"geonameid":7292837,"name":"High Hoyland","admin3":"00CC007"},{"geonameid":7292838,"name":"Hunshelf","admin3":"00CC008"},{"geonameid":7292839,"name":"Stainborough","admin3":"00CC015"},{"geonameid":7292909,"name":"Langsett","admin3":"00CC009"},{"geonameid":7296175,"name":"Brierley","admin3":"00CC002"},{"geonameid":7299735,"name":"Great Houghton","admin3":"00CC005"},{"geonameid":7299736,"name":"Gunthwaite and Ingbirchworth","admin3":"00CC006"},{"geonameid":7299737,"name":"Little Houghton","admin3":"00CC010"},{"geonameid":7299738,"name":"Penistone","admin3":"00CC012"},{"geonameid":7299739,"name":"Billingley","admin3":"00CC001"},{"geonameid":7301678,"name":"Oxspring","admin3":"00CC011"},{"geonameid":7301679,"name":"Tankersley","admin3":"00CC016"},{"geonameid":7301682,"name":"Thurgoland","admin3":"00CC017"},{"geonameid":7301683,"name":"Wortley","admin3":"00CC018"}],"alternateNames":[{"alternatenameId":8666549,"geonameid":3333122,"isoLanguage":"en","alternateName":"Barnsley","isPreferredName":true,"isShortName":true,"isColloquial":false,"isHistoric":false},{"alternatenameId":1626647,"geonameid":6269131,"isoLanguage":"en","alternateName":"England","isPreferredName":true,"isShortName":true,"isColloquial":false,"isHistoric":false}]},"__N_SSG":true}