{"pageProps":{"locale":"en","admin2":{"geonameid":4347094,"name":"Allegany County","country":"US","admin1":"MD","admin2":"001","admin3":"","latitude":"39.6214800","longitude":"-78.6989000","localeAltName":null},"admin1":{"geonameid":4361885,"name":"Maryland","admin1":"MD","localeAltName":"Maryland"},"locations":[{"geonameid":4348268,"name":"Bel Air","admin3":"","localeAltName":null},{"geonameid":4349180,"name":"Bowling Green","admin3":"","localeAltName":null},{"geonameid":4349183,"name":"Bowmans Addition","admin3":"","localeAltName":null},{"geonameid":4352502,"name":"Cresaptown","admin3":"","localeAltName":null},{"geonameid":4352681,"name":"Cumberland","admin3":"","localeAltName":null},{"geonameid":4354035,"name":"Eckhart Mines","admin3":"","localeAltName":null},{"geonameid":4354260,"name":"Ellerslie","admin3":"","localeAltName":null},{"geonameid":4355756,"name":"Frostburg","admin3":"","localeAltName":null},{"geonameid":4360113,"name":"La Vale","admin3":"","localeAltName":null},{"geonameid":4361085,"name":"Lonaconing","admin3":"","localeAltName":null},{"geonameid":4049046,"name":"McCoole","admin3":"","localeAltName":null},{"geonameid":4363141,"name":"Mount Savage","admin3":"","localeAltName":null},{"geonameid":4366030,"name":"Potomac Park","admin3":"","localeAltName":null},{"geonameid":4366516,"name":"Rawlings","admin3":"","localeAltName":null},{"geonameid":4373225,"name":"Westernport","admin3":"","localeAltName":null}],"admin3":[],"alternateNames":[{"alternatenameId":1979906,"geonameid":4361885,"isoLanguage":"en","alternateName":"Maryland","isPreferredName":true,"isShortName":true,"isColloquial":false,"isHistoric":false}]},"__N_SSG":true}