{"pageProps":{"locale":"en","admin2":{"geonameid":4366351,"name":"Queen Anne's County","country":"US","admin1":"MD","admin2":"035","admin3":"","latitude":"39.0376300","longitude":"-76.0850400","localeAltName":null},"admin1":{"geonameid":4361885,"name":"Maryland","admin1":"MD","localeAltName":"Maryland"},"locations":[{"geonameid":4350878,"name":"Centreville","admin3":"","localeAltName":null},{"geonameid":4351248,"name":"Chester","admin3":"","localeAltName":null},{"geonameid":4351521,"name":"Church Hill","admin3":"","localeAltName":null},{"geonameid":4356634,"name":"Grasonville","admin3":"","localeAltName":null},{"geonameid":4359798,"name":"Kent Narrows","admin3":"","localeAltName":null},{"geonameid":4359981,"name":"Kingstown","admin3":"","localeAltName":null},{"geonameid":4366379,"name":"Queenstown","admin3":"","localeAltName":null},{"geonameid":4370366,"name":"Stevensville","admin3":"","localeAltName":null}],"admin3":[],"alternateNames":[{"alternatenameId":1979906,"geonameid":4361885,"isoLanguage":"en","alternateName":"Maryland","isPreferredName":true,"isShortName":true,"isColloquial":false,"isHistoric":false}]},"__N_SSG":true}