{"pageProps":{"locale":"en","admin2":{"geonameid":5179633,"name":"Bedford County","country":"US","admin1":"PA","admin2":"009","admin3":"","latitude":"40.0065600","longitude":"-78.4903200","localeAltName":null},"admin1":{"geonameid":6254927,"name":"Pennsylvania","admin1":"PA","localeAltName":"Pennsylvania"},"locations":[{"geonameid":5179630,"name":"Bedford","admin3":"04944","localeAltName":null},{"geonameid":5187745,"name":"Earlston","admin3":"83920","localeAltName":null},{"geonameid":5188960,"name":"Everett","admin3":"24304","localeAltName":null},{"geonameid":4558752,"name":"Hyndman","admin3":"44448","localeAltName":null},{"geonameid":5211023,"name":"Saxton","admin3":"68072","localeAltName":null}],"admin3":[{"geonameid":4556474,"name":"Borough of Bedford","admin3":"04944","localeAltName":null},{"geonameid":4557281,"name":"Township of Colerain","admin3":"15032"},{"geonameid":4557465,"name":"Township of Cumberland Valley","admin3":"17664"},{"geonameid":4557709,"name":"Township of East Providence","admin3":"21736"},{"geonameid":4557830,"name":"Borough of Everett","admin3":"24304","localeAltName":null},{"geonameid":4558505,"name":"Township of Harrison","admin3":"32840"},{"geonameid":4558754,"name":"Borough of Hyndman","admin3":"36640"},{"geonameid":4558894,"name":"Township of Juniata","admin3":"38576"},{"geonameid":4559313,"name":"Township of Londonderry","admin3":"44448","localeAltName":null},{"geonameid":4559401,"name":"Township of Mann","admin3":"46928"},{"geonameid":4559403,"name":"Borough of Manns Choice","admin3":"46944"},{"geonameid":4559728,"name":"Township of Monroe","admin3":"50424"},{"geonameid":4560605,"name":"Borough of Rainsburg","admin3":"63312"},{"geonameid":4561313,"name":"Township of Snake Spring","admin3":"71544"},{"geonameid":4561369,"name":"Township of Southampton","admin3":"71888"},{"geonameid":4562166,"name":"Township of West Providence","admin3":"83920","localeAltName":null},{"geonameid":5179640,"name":"Township of Bedford","admin3":"04952"},{"geonameid":5180913,"name":"Township of Bloomfield","admin3":"07024"},{"geonameid":5181732,"name":"Township of Broad Top","admin3":"08880"},{"geonameid":5184749,"name":"Borough of Coaldale","admin3":"14584"},{"geonameid":5188045,"name":"Township of East Saint Clair","admin3":"21788"},{"geonameid":5194206,"name":"Borough of Hopewell","admin3":"35648"},{"geonameid":5194208,"name":"Township of Hopewell","admin3":"35656"},{"geonameid":5196174,"name":"Township of Kimmel","admin3":"39658"},{"geonameid":5196205,"name":"Township of King","admin3":"39720"},{"geonameid":5197896,"name":"Township of Liberty","admin3":"43072"},{"geonameid":5198123,"name":"Township of Lincoln","admin3":"43416"},{"geonameid":5202865,"name":"Township of Napier","admin3":"52648"},{"geonameid":5203245,"name":"Borough of New Paris","admin3":"53928"},{"geonameid":5206600,"name":"Borough of Pleasantville","admin3":"61496"},{"geonameid":5211027,"name":"Borough of Saxton","admin3":"68072","localeAltName":null},{"geonameid":5211093,"name":"Borough of Schellsburg","admin3":"68152"},{"geonameid":5213135,"name":"Township of South Woodbury","admin3":"72656"},{"geonameid":5216701,"name":"Township of Pavia","admin3":"58492"},{"geonameid":5218876,"name":"Township of West Saint Clair","admin3":"83972"},{"geonameid":5220003,"name":"Township of Woodbury","admin3":"86136"},{"geonameid":5220007,"name":"Borough of Woodbury","admin3":"86128"}],"alternateNames":[{"alternatenameId":2186547,"geonameid":6254927,"isoLanguage":"en","alternateName":"Pennsylvania","isPreferredName":true,"isShortName":true,"isColloquial":false,"isHistoric":false}]},"__N_SSG":true}