{"pageProps":{"locale":"en","admin2":{"geonameid":5216649,"name":"Union County","country":"US","admin1":"PA","admin2":"119","admin3":"","latitude":"40.9629700","longitude":"-77.0622500","localeAltName":null},"admin1":{"geonameid":6254927,"name":"Pennsylvania","admin1":"PA","localeAltName":"Pennsylvania"},"locations":[{"geonameid":5197842,"name":"Lewisburg","admin3":"42976","localeAltName":null},{"geonameid":5198192,"name":"Linntown","admin3":"20888","localeAltName":null},{"geonameid":5201080,"name":"Mifflinburg","admin3":"49288","localeAltName":null},{"geonameid":5203103,"name":"New Berlin","admin3":"53200","localeAltName":null},{"geonameid":5203143,"name":"New Columbia","admin3":"84496","localeAltName":null},{"geonameid":5218809,"name":"West Milton","admin3":"84496","localeAltName":null},{"geonameid":5219775,"name":"Winfield","admin3":"78424","localeAltName":null}],"admin3":[{"geonameid":5182279,"name":"Township of Buffalo","admin3":"10016"},{"geonameid":5187857,"name":"Township of East Buffalo","admin3":"20888","localeAltName":null},{"geonameid":5192095,"name":"Township of Gregg","admin3":"31480"},{"geonameid":5192787,"name":"Borough of Hartleton","admin3":"32936"},{"geonameid":5192791,"name":"Township of Hartley","admin3":"32952"},{"geonameid":5195940,"name":"Township of Kelly","admin3":"39136"},{"geonameid":5197839,"name":"Township of Lewis","admin3":"42960"},{"geonameid":5197848,"name":"Borough of Lewisburg","admin3":"42976","localeAltName":null},{"geonameid":5198058,"name":"Township of Limestone","admin3":"43368"},{"geonameid":5201084,"name":"Borough of Mifflinburg","admin3":"49288","localeAltName":null},{"geonameid":5203104,"name":"Borough of New Berlin","admin3":"53200","localeAltName":null},{"geonameid":5216716,"name":"Township of Union","admin3":"78424","localeAltName":null},{"geonameid":5218636,"name":"Township of West Buffalo","admin3":"82640"},{"geonameid":5219181,"name":"Township of White Deer","admin3":"84496","localeAltName":null}],"alternateNames":[{"alternatenameId":2186547,"geonameid":6254927,"isoLanguage":"en","alternateName":"Pennsylvania","isPreferredName":true,"isShortName":true,"isColloquial":false,"isHistoric":false}]},"__N_SSG":true}