{"pageProps":{"locale":"en","admin2":{"geonameid":4812863,"name":"Logan County","country":"US","admin1":"WV","admin2":"045","admin3":"","latitude":"37.8315300","longitude":"-81.9353400","localeAltName":null},"admin1":{"geonameid":4826850,"name":"West Virginia","admin1":"WV","localeAltName":"West Virginia"},"locations":[{"geonameid":4796917,"name":"Accoville","admin3":"","localeAltName":null},{"geonameid":4829271,"name":"Bruno","admin3":"","localeAltName":null},{"geonameid":4801828,"name":"Chapmanville","admin3":"","localeAltName":null},{"geonameid":4809052,"name":"Holden","admin3":"","localeAltName":null},{"geonameid":4811044,"name":"Kistler","admin3":"","localeAltName":null},{"geonameid":4812867,"name":"Logan","admin3":"","localeAltName":null},{"geonameid":4813648,"name":"Mallory","admin3":"","localeAltName":null},{"geonameid":4813635,"name":"Man","admin3":"","localeAltName":null},{"geonameid":4814118,"name":"McConnell","admin3":"","localeAltName":null},{"geonameid":7258310,"name":"Mount Gay-Shamrock","admin3":"","localeAltName":null},{"geonameid":4817246,"name":"Omar","admin3":"","localeAltName":null},{"geonameid":4820253,"name":"Robinette","admin3":"","localeAltName":null},{"geonameid":4824205,"name":"Switzer","admin3":"","localeAltName":null},{"geonameid":4825918,"name":"Verdunville","admin3":"","localeAltName":null}],"admin3":[],"alternateNames":[{"alternatenameId":2124822,"geonameid":4826850,"isoLanguage":"en","alternateName":"West Virginia","isPreferredName":true,"isShortName":true,"isColloquial":false,"isHistoric":false}]},"__N_SSG":true}