{"pageProps":{"locale":"it","admin2":{"geonameid":3182350,"name":"Bari","country":"IT","admin1":"13","admin2":"BA","admin3":"","latitude":"40.9333300","longitude":"16.6666700","localeAltName":"Bari"},"admin1":{"geonameid":3169778,"name":"Puglia","admin1":"13","localeAltName":null},"locations":[{"geonameid":3183494,"name":"Acquaviva delle Fonti","admin3":"072001","localeAltName":null},{"geonameid":3183472,"name":"Adelfia","admin3":"072002","localeAltName":null},{"geonameid":3183330,"name":"Alberobello","admin3":"072003","localeAltName":null},{"geonameid":8949792,"name":"Alcanterini","admin3":"072017","localeAltName":null},{"geonameid":3183178,"name":"Altamura","admin3":"072004","localeAltName":null},{"geonameid":8949854,"name":"Antonelli","admin3":"072030","localeAltName":null},{"geonameid":8949966,"name":"Auricarro","admin3":"072033","localeAltName":null},{"geonameid":3182351,"name":"Bari","admin3":"072006","localeAltName":null},{"geonameid":6535309,"name":"Binetto","admin3":"072008","localeAltName":null},{"geonameid":3181996,"name":"Bitetto","admin3":"072010","localeAltName":null},{"geonameid":3181995,"name":"Bitonto","admin3":"072011","localeAltName":null},{"geonameid":3181994,"name":"Bitritto","admin3":"072012","localeAltName":null},{"geonameid":8950297,"name":"Borgo Fra' Diavolo","admin3":"072016","localeAltName":null},{"geonameid":3180600,"name":"Capurso","admin3":"072014","localeAltName":null},{"geonameid":3180133,"name":"Casamassima","admin3":"072015","localeAltName":null},{"geonameid":3179794,"name":"Cassano delle Murge","admin3":"072016","localeAltName":null},{"geonameid":3179656,"name":"Castellana","admin3":"072017","localeAltName":null},{"geonameid":3179208,"name":"Cellamare","admin3":"072018","localeAltName":null},{"geonameid":3178147,"name":"Conversano","admin3":"072019","localeAltName":null},{"geonameid":3178131,"name":"Corato","admin3":"072020","localeAltName":null},{"geonameid":3175312,"name":"Coreggia","admin3":"072003","localeAltName":null},{"geonameid":3177863,"name":"Cozzana","admin3":"072030","localeAltName":null},{"geonameid":3176090,"name":"Gioia del Colle","admin3":"072021","localeAltName":null},{"geonameid":3176072,"name":"Giovinazzo","admin3":"072022","localeAltName":null},{"geonameid":8949798,"name":"Gorgofreddo","admin3":"072030","localeAltName":null},{"geonameid":3175860,"name":"Gravina in Puglia","admin3":"072023","localeAltName":null},{"geonameid":3175746,"name":"Grumo Appula","admin3":"072024","localeAltName":null},{"geonameid":3175535,"name":"Impalata","admin3":"072030","localeAltName":null},{"geonameid":8949083,"name":"Lamie","admin3":"072048","localeAltName":null},{"geonameid":3174641,"name":"Locorotondo","admin3":"072025","localeAltName":null},{"geonameid":3174555,"name":"Loseto","admin3":"072006","localeAltName":null},{"geonameid":3173908,"name":"Mariotto","admin3":"072011","localeAltName":null},{"geonameid":3173326,"name":"Modugno","admin3":"072027","localeAltName":null},{"geonameid":3173302,"name":"Mola di Bari","admin3":"072028","localeAltName":null},{"geonameid":3173287,"name":"Molfetta","admin3":"072029","localeAltName":null},{"geonameid":3173131,"name":"Monopoli","admin3":"072030","localeAltName":null},{"geonameid":3172240,"name":"Noci","admin3":"072031","localeAltName":null},{"geonameid":3172228,"name":"Noicattaro","admin3":"072032","localeAltName":null},{"geonameid":3171562,"name":"Palo del Colle","admin3":"072033","localeAltName":null},{"geonameid":3171560,"name":"Palombaio","admin3":"072011","localeAltName":null},{"geonameid":8950119,"name":"Parco Principi","admin3":"072015","localeAltName":null},{"geonameid":8948830,"name":"Parco Scizzo-Parchitello","admin3":"072032","localeAltName":null},{"geonameid":6535310,"name":"Poggiorsini","admin3":"072034","localeAltName":null},{"geonameid":3170382,"name":"Polignano a Mare","admin3":"072035","localeAltName":null},{"geonameid":3169742,"name":"Putignano","admin3":"072036","localeAltName":null},{"geonameid":3168775,"name":"Rutigliano","admin3":"072037","localeAltName":null},{"geonameid":3168770,"name":"Ruvo di Puglia","admin3":"072038","localeAltName":null},{"geonameid":3168583,"name":"Sammichele di Bari","admin3":"072039","localeAltName":null},{"geonameid":8948703,"name":"San Paolo","admin3":"072006","localeAltName":null},{"geonameid":8950157,"name":"San Pietro","admin3":"072014","localeAltName":null},{"geonameid":7287658,"name":"San Pietro Piturno","admin3":"072036","localeAltName":null},{"geonameid":3167941,"name":"Sannicandro di Bari","admin3":"072040","localeAltName":null},{"geonameid":8949719,"name":"Sant'Antonio d'Ascula","admin3":"072030","localeAltName":null},{"geonameid":3167616,"name":"Santa Lucia","admin3":"072030","localeAltName":null},{"geonameid":3167327,"name":"Santeramo in Colle","admin3":"072041","localeAltName":null},{"geonameid":3167267,"name":"Santo Spirito","admin3":"072006","localeAltName":null},{"geonameid":8949755,"name":"Superga","admin3":"072014","localeAltName":null},{"geonameid":3165788,"name":"Terlizzi","admin3":"072043","localeAltName":null},{"geonameid":3165513,"name":"Toritto","admin3":"072044","localeAltName":null},{"geonameid":3165179,"name":"Triggianello","admin3":"072019","localeAltName":null},{"geonameid":3165178,"name":"Triggiano","admin3":"072046","localeAltName":null},{"geonameid":3165094,"name":"Turi","admin3":"072047","localeAltName":null},{"geonameid":3164919,"name":"Valenzano","admin3":"072048","localeAltName":null}],"admin3":[{"geonameid":6536354,"name":"Toritto","admin3":"072044","localeAltName":null},{"geonameid":6536401,"name":"Castellana Grotte","admin3":"072017","localeAltName":null},{"geonameid":6537547,"name":"Bitetto","admin3":"072010","localeAltName":null},{"geonameid":6537548,"name":"Corato","admin3":"072020","localeAltName":null},{"geonameid":6537549,"name":"Gioia del Colle","admin3":"072021","localeAltName":null},{"geonameid":6537550,"name":"Giovinazzo","admin3":"072022","localeAltName":null},{"geonameid":6537551,"name":"Grumo Appula","admin3":"072024","localeAltName":null},{"geonameid":6537553,"name":"Molfetta","admin3":"072029","localeAltName":null},{"geonameid":6537554,"name":"Noicattaro","admin3":"072032","localeAltName":null},{"geonameid":6537555,"name":"Palo del Colle","admin3":"072033","localeAltName":null},{"geonameid":6537556,"name":"Polignano a Mare","admin3":"072035","localeAltName":null},{"geonameid":6537557,"name":"Ruvo di Puglia","admin3":"072038","localeAltName":null},{"geonameid":6537558,"name":"Sannicandro di Bari","admin3":"072040","localeAltName":null},{"geonameid":6537559,"name":"Santeramo in Colle","admin3":"072041","localeAltName":null},{"geonameid":6538937,"name":"Acquaviva delle Fonti","admin3":"072001","localeAltName":null},{"geonameid":6538938,"name":"Adelfia","admin3":"072002","localeAltName":null},{"geonameid":6538939,"name":"Bitritto","admin3":"072012","localeAltName":null},{"geonameid":6538941,"name":"Capurso","admin3":"072014","localeAltName":null},{"geonameid":6538942,"name":"Casamassima","admin3":"072015","localeAltName":null},{"geonameid":6538943,"name":"Gravina in Puglia","admin3":"072023","localeAltName":null},{"geonameid":6538944,"name":"Locorotondo","admin3":"072025","localeAltName":null},{"geonameid":6538945,"name":"Mola di Bari","admin3":"072028","localeAltName":null},{"geonameid":6538946,"name":"Putignano","admin3":"072036","localeAltName":null},{"geonameid":6538947,"name":"Rutigliano","admin3":"072037","localeAltName":null},{"geonameid":6538948,"name":"Sammichele di Bari","admin3":"072039","localeAltName":null},{"geonameid":6538949,"name":"Triggiano","admin3":"072046","localeAltName":null},{"geonameid":6538950,"name":"Turi","admin3":"072047","localeAltName":null},{"geonameid":6540023,"name":"Conversano","admin3":"072019","localeAltName":null},{"geonameid":6540749,"name":"Cassano delle Murge","admin3":"072016","localeAltName":null},{"geonameid":6541254,"name":"Altamura","admin3":"072004","localeAltName":null},{"geonameid":6541255,"name":"Bitonto","admin3":"072011","localeAltName":null},{"geonameid":6541256,"name":"Cellamare","admin3":"072018","localeAltName":null},{"geonameid":6541257,"name":"Monopoli","admin3":"072030","localeAltName":null},{"geonameid":6541258,"name":"Terlizzi","admin3":"072043","localeAltName":null},{"geonameid":6541260,"name":"Valenzano","admin3":"072048","localeAltName":null},{"geonameid":6541733,"name":"Alberobello","admin3":"072003","localeAltName":null},{"geonameid":6541734,"name":"Modugno","admin3":"072027","localeAltName":null},{"geonameid":6541938,"name":"Noci","admin3":"072031","localeAltName":null},{"geonameid":6542001,"name":"Bari","admin3":"072006","localeAltName":null},{"geonameid":6543293,"name":"Binetto","admin3":"072008","localeAltName":null},{"geonameid":6543294,"name":"Poggiorsini","admin3":"072034","localeAltName":null}],"alternateNames":[{"alternatenameId":1352642,"geonameid":3182350,"isoLanguage":"it","alternateName":"Bari","isPreferredName":true,"isShortName":true,"isColloquial":false,"isHistoric":false}]},"__N_SSG":true}