{"pageProps":{"locale":"ro","admin2":{"geonameid":8334667,"name":"Municipiul Constanţa","country":"RO","admin1":"14","admin2":"60419","admin3":"","latitude":"44.2141400","longitude":"28.6186200"},"admin1":{"geonameid":680962,"name":"Constanța","admin1":"14","localeAltName":"Constanța"},"locations":[{"geonameid":680963,"name":"Constanţa","admin3":""},{"geonameid":6691724,"name":"Faleza Constanta","admin3":""},{"geonameid":8643503,"name":"Faleza Nord","admin3":""},{"geonameid":675772,"name":"I.C. Brătianu","admin3":""},{"geonameid":673957,"name":"Mamaia","admin3":""},{"geonameid":671462,"name":"Palas","admin3":""},{"geonameid":671459,"name":"Palazu Mare","admin3":""},{"geonameid":664810,"name":"Tomis Nord","admin3":""},{"geonameid":662937,"name":"Viile Noi","admin3":""}],"admin3":[],"alternateNames":[{"alternatenameId":402149,"geonameid":680962,"isoLanguage":"ro","alternateName":"Constanța","isPreferredName":true,"isShortName":true,"isColloquial":false,"isHistoric":false}]},"__N_SSG":true}