{"pageProps":{"locale":"ro","admin2":{"geonameid":8334833,"name":"Municipiul Târgu Jiu","country":"RO","admin1":"19","admin2":"77812","admin3":"","latitude":"45.0527800","longitude":"23.2770800"},"admin1":{"geonameid":676898,"name":"Gorj","admin1":"19"},"locations":[{"geonameid":684752,"name":"Bârsești","admin3":""},{"geonameid":678950,"name":"Drăgoieni","admin3":""},{"geonameid":675713,"name":"Iezureni","admin3":""},{"geonameid":674091,"name":"Mahalaua Botorogi","admin3":""},{"geonameid":672885,"name":"Moneşti","admin3":""},{"geonameid":669965,"name":"Polata","admin3":""},{"geonameid":669711,"name":"Preajba Mare","admin3":""},{"geonameid":669710,"name":"Preajba Mică","admin3":""},{"geonameid":668703,"name":"Româneşti","admin3":""},{"geonameid":668729,"name":"Romanești","admin3":""},{"geonameid":666799,"name":"Siseşti","admin3":""},{"geonameid":666713,"name":"Slobozia","admin3":""},{"geonameid":665010,"name":"Târgu Jiu","admin3":""},{"geonameid":664340,"name":"Ulari","admin3":""},{"geonameid":664114,"name":"Ursați","admin3":""},{"geonameid":664017,"name":"Vădeni","admin3":""},{"geonameid":663149,"name":"Vărsături","admin3":""}],"admin3":[],"alternateNames":[]},"__N_SSG":true}