{"pageProps":{"locale":"en","admin2":{"geonameid":4569313,"name":"Anderson County","country":"US","admin1":"SC","admin2":"007","admin3":"","latitude":"34.5190900","longitude":"-82.6378800","localeAltName":null},"admin1":{"geonameid":4597040,"name":"South Carolina","admin1":"SC","localeAltName":"South Carolina"},"locations":[{"geonameid":4569298,"name":"Anderson","admin3":"","localeAltName":null},{"geonameid":4570579,"name":"Belton","admin3":"","localeAltName":null},{"geonameid":4574140,"name":"Centerville","admin3":"","localeAltName":null},{"geonameid":4582142,"name":"Homeland Park","admin3":"","localeAltName":null},{"geonameid":4582133,"name":"Honea Path","admin3":"","localeAltName":null},{"geonameid":4583127,"name":"Iva","admin3":"","localeAltName":null},{"geonameid":4589508,"name":"Northlake","admin3":"","localeAltName":null},{"geonameid":4590762,"name":"Pendleton","admin3":"","localeAltName":null},{"geonameid":4590980,"name":"Piedmont","admin3":"","localeAltName":null},{"geonameid":4591977,"name":"Powdersville","admin3":"","localeAltName":null},{"geonameid":4600598,"name":"West Pelzer","admin3":"","localeAltName":null},{"geonameid":4601167,"name":"Williamston","admin3":"","localeAltName":null}],"admin3":[{"geonameid":11788764,"name":"City of Anderson","admin3":"11788764"},{"geonameid":11788773,"name":"City of Belton","admin3":"11788773"}],"alternateNames":[{"alternatenameId":2089561,"geonameid":4597040,"isoLanguage":"en","alternateName":"South Carolina","isPreferredName":true,"isShortName":true,"isColloquial":false,"isHistoric":false}]},"__N_SSG":true}