{"pageProps":{"locale":"en","admin2":{"geonameid":4592843,"name":"Richland County","country":"US","admin1":"SC","admin2":"079","admin3":"","latitude":"34.0218000","longitude":"-80.9030400","localeAltName":null},"admin1":{"geonameid":4597040,"name":"South Carolina","admin1":"SC","localeAltName":"South Carolina"},"locations":[{"geonameid":4569544,"name":"Arcadia Lakes","admin3":"","localeAltName":null},{"geonameid":4571725,"name":"Blythewood","admin3":"","localeAltName":null},{"geonameid":4575352,"name":"Columbia","admin3":"","localeAltName":null},{"geonameid":4576573,"name":"Dentsville","admin3":"","localeAltName":null},{"geonameid":4577375,"name":"Eastover","admin3":"","localeAltName":null},{"geonameid":4578841,"name":"Forest Acres","admin3":"","localeAltName":null},{"geonameid":4579411,"name":"Gadsden","admin3":"","localeAltName":null},{"geonameid":4582263,"name":"Hopkins","admin3":"","localeAltName":null},{"geonameid":7260357,"name":"Lake Murray of Richland","admin3":"","localeAltName":null},{"geonameid":4601475,"name":"Woodfield","admin3":"","localeAltName":null}],"admin3":[],"alternateNames":[{"alternatenameId":2089561,"geonameid":4597040,"isoLanguage":"en","alternateName":"South Carolina","isPreferredName":true,"isShortName":true,"isColloquial":false,"isHistoric":false}]},"__N_SSG":true}