{"pageProps":{"locale":"en","admin2":{"geonameid":4597954,"name":"Sumter County","country":"US","admin1":"SC","admin2":"085","admin3":"","latitude":"33.9161700","longitude":"-80.3823200","localeAltName":null},"admin1":{"geonameid":4597040,"name":"South Carolina","admin1":"SC","localeAltName":"South Carolina"},"locations":[{"geonameid":4573502,"name":"Cane Savannah","admin3":"","localeAltName":null},{"geonameid":4574514,"name":"Cherryvale","admin3":"","localeAltName":null},{"geonameid":4576268,"name":"Dalzell","admin3":"","localeAltName":null},{"geonameid":4577347,"name":"East Sumter","admin3":"","localeAltName":null},{"geonameid":4584524,"name":"Lakewood","admin3":"","localeAltName":null},{"geonameid":4586530,"name":"Mayesville","admin3":"","localeAltName":null},{"geonameid":4587361,"name":"Millwood","admin3":"","localeAltName":null},{"geonameid":4588594,"name":"Mulberry","admin3":"","localeAltName":null},{"geonameid":4589786,"name":"Oakland","admin3":"","localeAltName":null},{"geonameid":4591328,"name":"Pinewood","admin3":"","localeAltName":null},{"geonameid":4592073,"name":"Privateer","admin3":"","localeAltName":null},{"geonameid":4597113,"name":"South Sumter","admin3":"","localeAltName":null},{"geonameid":4597573,"name":"Stateburg","admin3":"","localeAltName":null},{"geonameid":4597948,"name":"Sumter","admin3":"","localeAltName":null},{"geonameid":4600375,"name":"Wedgefield","admin3":"","localeAltName":null},{"geonameid":4600381,"name":"Wedgewood","admin3":"","localeAltName":null}],"admin3":[],"alternateNames":[{"alternatenameId":2089561,"geonameid":4597040,"isoLanguage":"en","alternateName":"South Carolina","isPreferredName":true,"isShortName":true,"isColloquial":false,"isHistoric":false}]},"__N_SSG":true}