{"pageProps":{"locale":"ro","admin1":{"geonameid":683121,"name":"Buzău","country":"RO","admin1":"11","latitude":"45.4166700","longitude":"26.7500000"},"admin2":[{"geonameid":686379,"name":"Comuna Amaru","admin2":"44863"},{"geonameid":685730,"name":"Comuna Bălăceanu","admin2":"44989"},{"geonameid":685573,"name":"Comuna Balta Albă","admin2":"44934"},{"geonameid":685222,"name":"Comuna Beceni","admin2":"45003"},{"geonameid":685079,"name":"Comuna Berca","admin2":"45101"},{"geonameid":684682,"name":"Comuna Bisoca","admin2":"45245"},{"geonameid":684609,"name":"Comuna Blăjani","admin2":"45334"},{"geonameid":684278,"name":"Comuna Boldu","admin2":"45361"},{"geonameid":8334830,"name":"Comuna Bozioru","admin2":"45389"},{"geonameid":683964,"name":"Comuna Brădeanu","admin2":"45496"},{"geonameid":683918,"name":"Comuna Brăeşti","admin2":"45539"},{"geonameid":683754,"name":"Comuna Breaza","admin2":"45619"},{"geonameid":683478,"name":"Comuna Buda","admin2":"45673"},{"geonameid":682678,"name":"Comuna C.A. Rosetti","admin2":"45815"},{"geonameid":682872,"name":"Comuna Calvini","admin2":"45753"},{"geonameid":682843,"name":"Comuna Căneşti","admin2":"45888"},{"geonameid":682547,"name":"Comuna Cătina","admin2":"45959"},{"geonameid":682326,"name":"Comuna Cernăteşti","admin2":"46019"},{"geonameid":682106,"name":"Comuna Chiliile","admin2":"46108"},{"geonameid":682075,"name":"Comuna Chiojdu","admin2":"46180"},{"geonameid":681911,"name":"Comuna Cilibia","admin2":"46251"},{"geonameid":681509,"name":"Comuna Cislău","admin2":"46313"},{"geonameid":681227,"name":"Comuna Cochirleanca","admin2":"46377"},{"geonameid":8334808,"name":"Comuna Colţi","admin2":"46439"},{"geonameid":680566,"name":"Comuna Costeşti","admin2":"46484"},{"geonameid":680403,"name":"Comuna Cozieni","admin2":"46554"},{"geonameid":678029,"name":"Comuna Florica","admin2":"50564"},{"geonameid":677670,"name":"Comuna Gălbinaşi","admin2":"46769"},{"geonameid":677451,"name":"Comuna Gherăseni","admin2":"46803"},{"geonameid":677440,"name":"Comuna Ghergheasa","admin2":"46830"},{"geonameid":677048,"name":"Comuna Glodeanu-Sărat","admin2":"46867"},{"geonameid":677046,"name":"Comuna Glodeanu-Siliştea","admin2":"46910"},{"geonameid":676777,"name":"Comuna Greabănu","admin2":"47006"},{"geonameid":676477,"name":"Comuna Gura Teghii","admin2":"47079"},{"geonameid":675015,"name":"Comuna Largu","admin2":"47159"},{"geonameid":674605,"name":"Comuna Lopătari","admin2":"47186"},{"geonameid":674554,"name":"Comuna Luciu","admin2":"47300"},{"geonameid":674131,"name":"Comuna Măgura","admin2":"47337"},{"geonameid":673174,"name":"Comuna Mânzăleşti","admin2":"47630"},{"geonameid":673891,"name":"Comuna Mărăcineni","admin2":"47373"},{"geonameid":673823,"name":"Comuna Mărgăriteşti","admin2":"47417"},{"geonameid":673584,"name":"Comuna Merei","admin2":"47453"},{"geonameid":673384,"name":"Comuna Mihăileşti","admin2":"47578"},{"geonameid":672745,"name":"Comuna Movila Banului","admin2":"47774"},{"geonameid":672607,"name":"Comuna Murgeşti","admin2":"47818"},{"geonameid":672539,"name":"Comuna Năeni","admin2":"47854"},{"geonameid":671982,"name":"Comuna Odăile","admin2":"48021"},{"geonameid":671553,"name":"Comuna Padina","admin2":"48138"},{"geonameid":671405,"name":"Comuna Pănătău","admin2":"48227"},{"geonameid":671343,"name":"Comuna Pardoşi","admin2":"48165"},{"geonameid":670685,"name":"Comuna Pârscov","admin2":"48557"},{"geonameid":670825,"name":"Comuna Pietroasele","admin2":"48487"},{"geonameid":8334780,"name":"Comuna Podgoria","admin2":"48682"},{"geonameid":8334964,"name":"Comuna Poşta Câlnãu","admin2":"48771"},{"geonameid":669510,"name":"Comuna Puieşti","admin2":"48842"},{"geonameid":669307,"name":"Comuna Racoviţeni","admin2":"48922"},{"geonameid":668880,"name":"Comuna Râmnicelu","admin2":"48968"},{"geonameid":668787,"name":"Comuna Robeasca","admin2":"49019"},{"geonameid":668393,"name":"Comuna Ruşeţu","admin2":"49046"},{"geonameid":668265,"name":"Comuna Săgeata","admin2":"49073"},{"geonameid":668256,"name":"Comuna Săhăteni","admin2":"49153"},{"geonameid":668072,"name":"Comuna Săpoca","admin2":"49206"},{"geonameid":667946,"name":"Comuna Săruleşti","admin2":"49233"},{"geonameid":667581,"name":"Comuna Scorţoasa","admin2":"49313"},{"geonameid":667547,"name":"Comuna Scutelnici","admin2":"49439"},{"geonameid":666812,"name":"Comuna Siriu","admin2":"49484"},{"geonameid":666640,"name":"Comuna Smeeni","admin2":"49545"},{"geonameid":666145,"name":"Comuna Stâlpu","admin2":"49625"},{"geonameid":665049,"name":"Comuna Ţinteşti","admin2":"49849"},{"geonameid":8334878,"name":"Comuna Tisãu","admin2":"49643"},{"geonameid":664754,"name":"Comuna Topliceni","admin2":"49769"},{"geonameid":664308,"name":"Comuna Ulmeni","admin2":"49894"},{"geonameid":664209,"name":"Comuna Unguriu","admin2":"50549"},{"geonameid":663995,"name":"Comuna Vadu Paşii","admin2":"49956"},{"geonameid":662864,"name":"Comuna Vâlcelele","admin2":"50399"},{"geonameid":8334971,"name":"Comuna Valea Râmnicului","admin2":"50022"},{"geonameid":663452,"name":"Comuna Valea Sălciei","admin2":"50068"},{"geonameid":663034,"name":"Comuna Verneşti","admin2":"50102"},{"geonameid":662800,"name":"Comuna Vintilă Vodă","admin2":"50228"},{"geonameid":662786,"name":"Comuna Vipereşti","admin2":"50326"},{"geonameid":662281,"name":"Comuna Zărneşti","admin2":"50415"},{"geonameid":662203,"name":"Comuna Ziduri","admin2":"50479"},{"geonameid":683120,"name":"Municipiul Buzău","admin2":"44818"},{"geonameid":8334994,"name":"Municipiul Râmnicu Sãrat","admin2":"44845"},{"geonameid":672330,"name":"Oraş Nehoiu","admin2":"47916"},{"geonameid":671270,"name":"Oraş Pãtârlagele","admin2":"48325"},{"geonameid":670165,"name":"Oraş Pogoanele","admin2":"48744"}],"country":{"geonameid":798549,"country":"RO","name":"România","localeAltName":"România"},"alternateNames":[{"alternatenameId":490801,"geonameid":798549,"isoLanguage":"ro","alternateName":"România","isPreferredName":true,"isShortName":true,"isColloquial":false,"isHistoric":false}]},"__N_SSG":true}