{"pageProps":{"locale":"en","admin2":{"geonameid":5926222,"name":"Columbia-Shuswap Regional District","country":"CA","admin1":"02","admin2":"5939","admin3":"","latitude":"51.4166000","longitude":"-117.6689500"},"admin1":{"geonameid":5909050,"name":"British Columbia","admin1":"02"},"locations":[{"geonameid":11550115,"name":"Anglemont","admin3":""},{"geonameid":5899894,"name":"Big Eddy","admin3":"5939019"},{"geonameid":5909231,"name":"Broadview","admin3":"5939032"},{"geonameid":5914977,"name":"Canoe","admin3":"5939032"},{"geonameid":5961921,"name":"Gleneden","admin3":"5939032"},{"geonameid":5962582,"name":"Golden","admin3":"5939007"},{"geonameid":6121621,"name":"Revelstoke","admin3":"5939019"},{"geonameid":6139417,"name":"Salmon Arm","admin3":"5939032"},{"geonameid":6147353,"name":"Sicamous","admin3":"5939045"},{"geonameid":6151776,"name":"South Canoe","admin3":"5939032"}],"admin3":[{"geonameid":12031895,"name":"Sicamous","admin3":"5939045"},{"geonameid":12031986,"name":"Golden","admin3":"5939007"},{"geonameid":12031987,"name":"Revelstoke","admin3":"5939019"},{"geonameid":12031989,"name":"Salmon Arm","admin3":"5939032"}],"alternateNames":[]},"__N_SSG":true}