{"pageProps":{"locale":"en","admin2":{"geonameid":6112609,"name":"Powell River Regional District","country":"CA","admin1":"02","admin2":"5927","admin3":"","latitude":"49.9996500","longitude":"-124.5028300"},"admin1":{"geonameid":5909050,"name":"British Columbia","admin1":"02"},"locations":[{"geonameid":5903881,"name":"Bliss Landing","admin3":""},{"geonameid":5904109,"name":"Blubber Bay","admin3":""},{"geonameid":5931605,"name":"Cranberry","admin3":"5927008"},{"geonameid":5951350,"name":"False Bay","admin3":""},{"geonameid":5961233,"name":"Gillies Bay","admin3":""},{"geonameid":5976484,"name":"Homfray Creek","admin3":""},{"geonameid":8617182,"name":"Lang Bay","admin3":""},{"geonameid":6050155,"name":"Larsons Landing","admin3":""},{"geonameid":6062033,"name":"Lund","admin3":""},{"geonameid":8617172,"name":"Myrtle Point","admin3":""},{"geonameid":6112608,"name":"Powell River","admin3":"5927008"},{"geonameid":6139732,"name":"Saltery Bay","admin3":""},{"geonameid":6149476,"name":"Sliammon","admin3":""},{"geonameid":8617179,"name":"Spanish Cave","admin3":""},{"geonameid":6156739,"name":"Stillwater","admin3":""},{"geonameid":6164448,"name":"Theodosia Arm","admin3":""},{"geonameid":6173290,"name":"Van Anda","admin3":""},{"geonameid":6179559,"name":"Westview","admin3":"5927008"},{"geonameid":8617171,"name":"Wildwood","admin3":"5927008"}],"admin3":[{"geonameid":12031975,"name":"Powell River","admin3":"5927008"},{"geonameid":12031976,"name":"Sechelt (Part)","admin3":"5927806"}],"alternateNames":[]},"__N_SSG":true}