{"pageProps":{"locale":"en","admin2":{"geonameid":8593707,"name":"Strathcona Regional District","country":"CA","admin1":"02","admin2":"5924","admin3":"","latitude":"50.2120600","longitude":"-125.5146800"},"admin1":{"geonameid":5909050,"name":"British Columbia","admin1":"02"},"locations":[{"geonameid":5899532,"name":"Big Bay","admin3":""},{"geonameid":5903804,"name":"Blind Channel","admin3":""},{"geonameid":5903933,"name":"Bloedel","admin3":""},{"geonameid":5905248,"name":"Bold Point","admin3":""},{"geonameid":5908408,"name":"Brem River","admin3":""},{"geonameid":5914132,"name":"Campbell River","admin3":"5924034"},{"geonameid":5914206,"name":"Campbellton","admin3":"5924034"},{"geonameid":5918943,"name":"Ceepeecee","admin3":""},{"geonameid":5919584,"name":"Chamiss Bay","admin3":""},{"geonameid":5922104,"name":"Church House","admin3":""},{"geonameid":5928196,"name":"Cortes Bay","admin3":""},{"geonameid":5928197,"name":"Cortes Island","admin3":""},{"geonameid":5943870,"name":"Duncan Bay","admin3":"5924034"},{"geonameid":5947696,"name":"Elk Bay","admin3":""},{"geonameid":5949497,"name":"Esperanza","admin3":""},{"geonameid":5950959,"name":"Fair Harbour","admin3":""},{"geonameid":5960443,"name":"George River","admin3":""},{"geonameid":5962735,"name":"Gold River","admin3":"5924025"},{"geonameid":8629428,"name":"Gorge Harbour","admin3":""},{"geonameid":5964764,"name":"Granite Bay","admin3":""},{"geonameid":5970765,"name":"Hardwicke Island","admin3":""},{"geonameid":5973304,"name":"Hecate","admin3":""},{"geonameid":5974149,"name":"Heriot Bay","admin3":""},{"geonameid":5975626,"name":"Hkusam","admin3":""},{"geonameid":5985240,"name":"Jackson Bay","admin3":""},{"geonameid":5990779,"name":"Kendrick Camp","admin3":""},{"geonameid":5994718,"name":"Kyuquot","admin3":""},{"geonameid":6065474,"name":"Mansons Landing","admin3":""},{"geonameid":8616963,"name":"Nootka","admin3":""},{"geonameid":6089575,"name":"North Campbell River","admin3":"5924034"},{"geonameid":6091599,"name":"Nuchatlitz","admin3":""},{"geonameid":6095601,"name":"Owen Bay","admin3":""},{"geonameid":6103814,"name":"Phillips Arm","admin3":""},{"geonameid":6111976,"name":"Port Neville","admin3":""},{"geonameid":7290266,"name":"Quathiaski Cove","admin3":""},{"geonameid":6115343,"name":"Quinsam","admin3":"5924034"},{"geonameid":6117787,"name":"Read Island","admin3":""},{"geonameid":6118978,"name":"Refuge Cove","admin3":""},{"geonameid":6128707,"name":"Roy","admin3":""},{"geonameid":6141822,"name":"Sayward","admin3":"5924039"},{"geonameid":6142915,"name":"Seaford","admin3":""},{"geonameid":6146029,"name":"Shelter Point","admin3":""},{"geonameid":6154815,"name":"Squirrel Cove","admin3":""},{"geonameid":6158388,"name":"Stuart Island","admin3":""},{"geonameid":6159840,"name":"Surge Narrows","admin3":""},{"geonameid":6161139,"name":"Tahsis","admin3":"5924030"},{"geonameid":6166218,"name":"Thurlow","admin3":""},{"geonameid":6179824,"name":"Whaletown","admin3":""},{"geonameid":6185068,"name":"Yaculta","admin3":""},{"geonameid":6185828,"name":"Yuquot","admin3":""},{"geonameid":6185911,"name":"Zeballos","admin3":"5924029"}],"admin3":[{"geonameid":12031866,"name":"Campbell River","admin3":"5924034"},{"geonameid":12031969,"name":"Gold River","admin3":"5924025"},{"geonameid":12031970,"name":"Sayward","admin3":"5924039"},{"geonameid":12031971,"name":"Tahsis","admin3":"5924030"},{"geonameid":12031972,"name":"Zeballos","admin3":"5924029"}],"alternateNames":[]},"__N_SSG":true}