{"pageProps":{"locale":"de","admin2":{"geonameid":8260139,"name":"Interlaken-Oberhasli District","country":"CH","admin1":"BE","admin2":"250","admin3":"","latitude":"46.6893100","longitude":"7.9886900"},"admin1":{"geonameid":2661551,"name":"Canton de Berne","admin1":"BE"},"locations":[{"geonameid":2661586,"name":"Beatenberg","admin3":"571"},{"geonameid":2661450,"name":"Bönigen","admin3":"572"},{"geonameid":2661398,"name":"Brienz","admin3":"573"},{"geonameid":2661395,"name":"Brienzwiler","admin3":"574"},{"geonameid":2661045,"name":"Därligen","admin3":"575"},{"geonameid":2660498,"name":"Grindelwald","admin3":"576"},{"geonameid":2660458,"name":"Gsteig","admin3":"587"},{"geonameid":2660430,"name":"Habkern","admin3":"579"},{"geonameid":2660253,"name":"Interlaken","admin3":"593"},{"geonameid":2660246,"name":"Iseltwald","admin3":"582"},{"geonameid":2659992,"name":"Lauterbrunnen","admin3":"584"},{"geonameid":2659964,"name":"Leissigen","admin3":"585"},{"geonameid":2659818,"name":"Lütschental","admin3":"573"},{"geonameid":2659731,"name":"Matten","admin3":"594"},{"geonameid":2659700,"name":"Meiringen","admin3":"785"},{"geonameid":2659530,"name":"Mürren","admin3":"584"},{"geonameid":2659021,"name":"Ringgenberg","admin3":"590"},{"geonameid":2658770,"name":"Saxeten","admin3":"591"},{"geonameid":2658496,"name":"Stechelberg","admin3":"584"},{"geonameid":2658240,"name":"Unterseen","admin3":"593"},{"geonameid":2657989,"name":"Wilderswil","admin3":"594"}],"admin3":[{"geonameid":7285173,"name":"Beatenberg","admin3":"571"},{"geonameid":7285290,"name":"Bönigen","admin3":"572"},{"geonameid":7285332,"name":"Brienz (BE)","admin3":"573"},{"geonameid":7285334,"name":"Brienzwiler","admin3":"574"},{"geonameid":7285625,"name":"Därligen","admin3":"575"},{"geonameid":7285984,"name":"Grindelwald","admin3":"576"},{"geonameid":7285999,"name":"Gsteigwiler","admin3":"577"},{"geonameid":7286003,"name":"Gündlischwand","admin3":"578"},{"geonameid":7286012,"name":"Guttannen","admin3":"782"},{"geonameid":7286016,"name":"Habkern","admin3":"579"},{"geonameid":7286034,"name":"Hasliberg","admin3":"783"},{"geonameid":7286096,"name":"Hofstetten bei Brienz","admin3":"580"},{"geonameid":7286141,"name":"Innertkirchen","admin3":"784"},{"geonameid":7286143,"name":"Interlaken","admin3":"581"},{"geonameid":7286148,"name":"Iseltwald","admin3":"582"},{"geonameid":7286285,"name":"Lauterbrunnen","admin3":"584"},{"geonameid":7286306,"name":"Leissigen","admin3":"585"},{"geonameid":7286404,"name":"Lütschental","admin3":"586"},{"geonameid":7286458,"name":"Matten bei Interlaken","admin3":"587"},{"geonameid":7286475,"name":"Meiringen","admin3":"785"},{"geonameid":7286648,"name":"Niederried bei Interlaken","admin3":"588"},{"geonameid":7286707,"name":"Oberried am Brienzersee","admin3":"589"},{"geonameid":7286914,"name":"Ringgenberg (BE)","admin3":"590"},{"geonameid":7287068,"name":"Saxeten","admin3":"591"},{"geonameid":7287078,"name":"Schattenhalb","admin3":"786"},{"geonameid":7287120,"name":"Schwanden bei Brienz","admin3":"592"},{"geonameid":7287385,"name":"Unterseen","admin3":"593"},{"geonameid":7287577,"name":"Wilderswil","admin3":"594"}],"alternateNames":[]},"__N_SSG":true}