{"pageProps":{"locale":"en","admin2":{"geonameid":3333212,"name":"City and Borough of Wakefield","country":"GB","admin1":"ENG","admin2":"O7","admin3":"","latitude":"53.6808500","longitude":"-1.4989500"},"admin1":{"geonameid":6269131,"name":"England","admin1":"ENG"},"locations":[{"geonameid":11593081,"name":"Ackworth Moor Top"},{"geonameid":6693723,"name":"Agbrigg"},{"geonameid":2657409,"name":"Altofts"},{"geonameid":2657390,"name":"Alverthorpe"},{"geonameid":2656641,"name":"Badsworth"},{"geonameid":6324505,"name":"Bottomboat"},{"geonameid":7279583,"name":"Bretton Country Park"},{"geonameid":2653781,"name":"Carleton"},{"geonameid":2653584,"name":"Castleford"},{"geonameid":2651980,"name":"Crigglestone"},{"geonameid":2651948,"name":"Crofton"},{"geonameid":8468718,"name":"Crofton West Yorks"},{"geonameid":2651503,"name":"Darrington"},{"geonameid":2657117,"name":"East Ardsley"},{"geonameid":2650425,"name":"East Hardwick"},{"geonameid":6324504,"name":"Eastmoor"},{"geonameid":2649593,"name":"Featherstone"},{"geonameid":2649518,"name":"Ferrybridge"},{"geonameid":2649349,"name":"Fitzwilliam"},{"geonameid":6324491,"name":"Flanshaw"},{"geonameid":6458916,"name":"Foulby"},{"geonameid":2647659,"name":"Haigh"},{"geonameid":6324500,"name":"Heath"},{"geonameid":2647120,"name":"Hemsworth"},{"geonameid":2646989,"name":"High Ackworth"},{"geonameid":2646883,"name":"Hill Top"},{"geonameid":2646613,"name":"Horbury"},{"geonameid":2645278,"name":"Kirkhamgate"},{"geonameid":6324501,"name":"Kirkthorpe"},{"geonameid":2645102,"name":"Knottingley"},{"geonameid":2643774,"name":"Lofthouse Gate"},{"geonameid":2643548,"name":"Low Ackworth"},{"geonameid":6324492,"name":"Lupset"},{"geonameid":2642603,"name":"Middlestown"},{"geonameid":2642271,"name":"Moorthorpe"},{"geonameid":6693722,"name":"New Sharlston"},{"geonameid":6324493,"name":"Newmillerdam"},{"geonameid":6693718,"name":"Newton Hill"},{"geonameid":2641443,"name":"Normanton"},{"geonameid":2641369,"name":"North Elmsall"},{"geonameid":2641167,"name":"Notton"},{"geonameid":2640869,"name":"Ossett"},{"geonameid":6693719,"name":"Outwood"},{"geonameid":6458914,"name":"Peacock"},{"geonameid":2640132,"name":"Pontefract"},{"geonameid":2639841,"name":"Purston Jaglin"},{"geonameid":2639279,"name":"Robin Hood"},{"geonameid":2638901,"name":"Ryhill"},{"geonameid":6693734,"name":"Sandal"},{"geonameid":6458917,"name":"Sharlston"},{"geonameid":2637435,"name":"South Elmsall"},{"geonameid":11593401,"name":"South Hiendley"},{"geonameid":2637072,"name":"Stanley"},{"geonameid":6458919,"name":"Streethouse"},{"geonameid":2635090,"name":"Upton"},{"geonameid":2634910,"name":"Wakefield"},{"geonameid":6693735,"name":"Walton"},{"geonameid":6324502,"name":"Warmfield"},{"geonameid":6269420,"name":"Wentbridge"},{"geonameid":2634494,"name":"West Bretton"},{"geonameid":2633598,"name":"Woolley"},{"geonameid":6458915,"name":"Wrenthorpe"}],"admin3":[{"geonameid":7291979,"name":"Crigglestone","admin3":"00DB004"},{"geonameid":7291982,"name":"Hessle and Hill Top","admin3":"00DB011"},{"geonameid":7291983,"name":"Notton","admin3":"00DB016"},{"geonameid":7291984,"name":"Ryhill","admin3":"00DB017"},{"geonameid":7291985,"name":"South Elmsall","admin3":"00DB020"},{"geonameid":7291986,"name":"Thorpe Audlin","admin3":"00DB023"},{"geonameid":7291987,"name":"West Bretton","admin3":"00DB027"},{"geonameid":7292654,"name":"Ackworth","admin3":"00DB001"},{"geonameid":7292655,"name":"Chevet","admin3":"00DB003"},{"geonameid":7292656,"name":"Darrington","admin3":"00DB006"},{"geonameid":7292660,"name":"Huntwick with Foulby and Nostell","admin3":"00DB012"},{"geonameid":7292661,"name":"Newland with Woodhouse Moor","admin3":"00DB013"},{"geonameid":7292662,"name":"Normanton","admin3":"00DB014"},{"geonameid":7292663,"name":"South Hiendley","admin3":"00DB021"},{"geonameid":7292664,"name":"Warmfield cum Heath","admin3":"00DB026"},{"geonameid":7292667,"name":"Woolley","admin3":"00DB030"},{"geonameid":7293957,"name":"Havercroft with Cold Hiendley","admin3":"00DB009"},{"geonameid":7294171,"name":"West Hardwick","admin3":"00DB028"},{"geonameid":7297387,"name":"Featherstone","admin3":"00DB008"},{"geonameid":7297388,"name":"Sharlston","admin3":"00DB018"},{"geonameid":7297389,"name":"Upton","admin3":"00DB024"},{"geonameid":7301463,"name":"East Hardwick","admin3":"00DB007"},{"geonameid":7301464,"name":"Hemsworth","admin3":"00DB010"},{"geonameid":7301465,"name":"North Elmsall","admin3":"00DB015"},{"geonameid":7301466,"name":"Sitlington","admin3":"00DB019"},{"geonameid":7301467,"name":"South Kirkby and Moorthorpe","admin3":"00DB022"},{"geonameid":7301470,"name":"Wintersett","admin3":"00DB029"},{"geonameid":7301604,"name":"Walton","admin3":"00DB025"},{"geonameid":7301608,"name":"Badsworth","admin3":"00DB002"},{"geonameid":7301609,"name":"Crofton","admin3":"00DB005"}],"alternateNames":[]},"__N_SSG":true}