{"pageProps":{"locale":"it","admin2":{"geonameid":3169560,"name":"Provincia di Ravenna","country":"IT","admin1":"05","admin2":"RA","admin3":"","latitude":"44.4166700","longitude":"11.9833300","localeAltName":"Ravenna"},"admin1":{"geonameid":3177401,"name":"Emilia-Romagna","admin1":"05","localeAltName":"Emilia-Romagna"},"locations":[{"geonameid":3174970,"name":"Alfonsine","admin3":"039014","localeAltName":null},{"geonameid":3183287,"name":"Alfonsine","admin3":"039001","localeAltName":null},{"geonameid":3182552,"name":"Bagnacavallo","admin3":"039002","localeAltName":null},{"geonameid":3182548,"name":"Bagnara di Romagna","admin3":"039003","localeAltName":null},{"geonameid":8949222,"name":"Barbiano","admin3":"039009","localeAltName":null},{"geonameid":3181521,"name":"Brisighella","admin3":"039004","localeAltName":null},{"geonameid":3181093,"name":"Camerlona","admin3":"039014","localeAltName":null},{"geonameid":3181020,"name":"Campiano","admin3":"039014","localeAltName":null},{"geonameid":3180797,"name":"Cannuzzo","admin3":"039007","localeAltName":null},{"geonameid":3180244,"name":"Casalborsetti","admin3":"039014","localeAltName":null},{"geonameid":3179830,"name":"Casola Valsenio","admin3":"039005","localeAltName":null},{"geonameid":3179735,"name":"Castel Bolognese","admin3":"039006","localeAltName":null},{"geonameid":3178998,"name":"Cervia","admin3":"039007","localeAltName":null},{"geonameid":3178555,"name":"Classe","admin3":"039014","localeAltName":null},{"geonameid":3178181,"name":"Conselice","admin3":"039008","localeAltName":null},{"geonameid":3177876,"name":"Cotignola","admin3":"039009","localeAltName":null},{"geonameid":3177300,"name":"Faenza","admin3":"039010","localeAltName":null},{"geonameid":3176865,"name":"Fognano","admin3":"039004","localeAltName":null},{"geonameid":3181848,"name":"Fornace Zarattini","admin3":"039014","localeAltName":null},{"geonameid":3181800,"name":"Fosso Ghiaia","admin3":"039014","localeAltName":null},{"geonameid":3176467,"name":"Fusignano","admin3":"039011","localeAltName":null},{"geonameid":3215467,"name":"Glorie","admin3":"039002","localeAltName":null},{"geonameid":3176018,"name":"Godo","admin3":"039016","localeAltName":null},{"geonameid":6694117,"name":"Granarolo","admin3":"039010","localeAltName":null},{"geonameid":3174996,"name":"Lavezzola","admin3":"039008","localeAltName":null},{"geonameid":3215340,"name":"Lido Adriano","admin3":"039014","localeAltName":null},{"geonameid":3215311,"name":"Lido di Classe","admin3":"039014","localeAltName":null},{"geonameid":3174744,"name":"Lido di Savio","admin3":"039014","localeAltName":null},{"geonameid":3174494,"name":"Lugo","admin3":"039012","localeAltName":null},{"geonameid":8949159,"name":"Madonna Dell'Albero","admin3":"039014","localeAltName":null},{"geonameid":3173926,"name":"Marina di Ravenna","admin3":"039014","localeAltName":null},{"geonameid":3215361,"name":"Marina Romea","admin3":"039014","localeAltName":null},{"geonameid":3173794,"name":"Masiera","admin3":"039002","localeAltName":null},{"geonameid":3173761,"name":"Massa Lombarda","admin3":"039013","localeAltName":null},{"geonameid":3173501,"name":"Mezzano","admin3":"039014","localeAltName":null},{"geonameid":3173428,"name":"Milano Marittima","admin3":"039007","localeAltName":null},{"geonameid":3170975,"name":"Piangipane","admin3":"039014","localeAltName":null},{"geonameid":3170698,"name":"Pinarella","admin3":"039007","localeAltName":null},{"geonameid":3215179,"name":"Pisignano","admin3":"039007","localeAltName":null},{"geonameid":3170098,"name":"Porto Corsini","admin3":"039014","localeAltName":null},{"geonameid":3170088,"name":"Porto Fuori","admin3":"039014","localeAltName":null},{"geonameid":3169755,"name":"Punta Marina","admin3":"039014","localeAltName":null},{"geonameid":3169561,"name":"Ravenna","admin3":"039014","localeAltName":null},{"geonameid":3169534,"name":"Reda","admin3":"039010","localeAltName":null},{"geonameid":3169336,"name":"Riolo Terme","admin3":"039015","localeAltName":null},{"geonameid":8949596,"name":"Romea Vecchia","admin3":"039014","localeAltName":null},{"geonameid":3215395,"name":"Roncalceci","admin3":"039014","localeAltName":null},{"geonameid":3168784,"name":"Russi","admin3":"039016","localeAltName":null},{"geonameid":3215401,"name":"San Bartolo","admin3":"039014","localeAltName":null},{"geonameid":3168537,"name":"San Bernardino","admin3":"039012","localeAltName":null},{"geonameid":3167971,"name":"San Michele","admin3":"039014","localeAltName":null},{"geonameid":3167909,"name":"San Pancrazio","admin3":"039016","localeAltName":null},{"geonameid":3167883,"name":"San Patrizio","admin3":"039008","localeAltName":null},{"geonameid":3167817,"name":"San Pietro in Trento","admin3":"039014","localeAltName":null},{"geonameid":3167814,"name":"San Pietro In Vincoli","admin3":"039014","localeAltName":null},{"geonameid":8949946,"name":"San Potito","admin3":"039012","localeAltName":null},{"geonameid":3215249,"name":"San Zaccaria","admin3":"039014","localeAltName":null},{"geonameid":3167643,"name":"Sant'Agata sul Santerno","admin3":"039017","localeAltName":null},{"geonameid":3167624,"name":"Sant'Alberto","admin3":"039014","localeAltName":null},{"geonameid":3167322,"name":"Santerno","admin3":"039014","localeAltName":null},{"geonameid":3215380,"name":"Santo Stefano-Carraie","admin3":"039014","localeAltName":null},{"geonameid":8949033,"name":"Savarna-Conventello","admin3":"039014","localeAltName":null},{"geonameid":3167027,"name":"Savio","admin3":"039014","localeAltName":null},{"geonameid":3166446,"name":"Solarolo","admin3":"039018","localeAltName":null},{"geonameid":3164226,"name":"Villa Inferno","admin3":"039007","localeAltName":null},{"geonameid":3164142,"name":"Villa San Martino","admin3":"039012","localeAltName":null},{"geonameid":3164192,"name":"Villanova","admin3":"039002","localeAltName":null},{"geonameid":3215417,"name":"Villanova","admin3":"039014","localeAltName":null},{"geonameid":3163964,"name":"Voltana","admin3":"039012","localeAltName":null}],"admin3":[{"geonameid":6536752,"name":"Fusignano","admin3":"039011","localeAltName":null},{"geonameid":6536753,"name":"Massa Lombarda","admin3":"039013","localeAltName":null},{"geonameid":6538483,"name":"Brisighella","admin3":"039004","localeAltName":null},{"geonameid":6538484,"name":"Castel Bolognese","admin3":"039006","localeAltName":null},{"geonameid":6538485,"name":"Cotignola","admin3":"039009","localeAltName":null},{"geonameid":6538486,"name":"Russi","admin3":"039016","localeAltName":null},{"geonameid":6540121,"name":"Ravenna","admin3":"039014","localeAltName":null},{"geonameid":6540432,"name":"Cervia","admin3":"039007","localeAltName":null},{"geonameid":6540433,"name":"Conselice","admin3":"039008","localeAltName":null},{"geonameid":6540434,"name":"Faenza","admin3":"039010","localeAltName":null},{"geonameid":6540435,"name":"Lugo","admin3":"039012","localeAltName":null},{"geonameid":6540436,"name":"Sant'Agata sul Santerno","admin3":"039017","localeAltName":null},{"geonameid":6540437,"name":"Solarolo","admin3":"039018","localeAltName":null},{"geonameid":6541041,"name":"Alfonsine","admin3":"039001","localeAltName":null},{"geonameid":6541042,"name":"Bagnara di Romagna","admin3":"039003","localeAltName":null},{"geonameid":6541043,"name":"Casola Valsenio","admin3":"039005","localeAltName":null},{"geonameid":6541044,"name":"Riolo Terme","admin3":"039015","localeAltName":null},{"geonameid":6541635,"name":"Bagnacavallo","admin3":"039002","localeAltName":null}],"alternateNames":[{"alternatenameId":1348798,"geonameid":3169560,"isoLanguage":"it","alternateName":"Ravenna","isPreferredName":true,"isShortName":true,"isColloquial":false,"isHistoric":false},{"alternatenameId":1351276,"geonameid":3177401,"isoLanguage":"it","alternateName":"Emilia-Romagna","isPreferredName":true,"isShortName":true,"isColloquial":false,"isHistoric":false}]},"__N_SSG":true}