{"pageProps":{"locale":"en","admin2":{"geonameid":4935951,"name":"Essex County","country":"US","admin1":"MA","admin2":"009","admin3":"","latitude":"42.6388700","longitude":"-70.8679200"},"admin1":{"geonameid":6254926,"name":"Massachusetts","admin1":"MA","localeAltName":"Massachusetts"},"locations":[{"geonameid":4929004,"name":"Amesbury","admin3":"01260"},{"geonameid":4929055,"name":"Andover","admin3":"01465"},{"geonameid":4930505,"name":"Beverly","admin3":"05595"},{"geonameid":4930511,"name":"Beverly Cove","admin3":"05595"},{"geonameid":4931108,"name":"Boxford","admin3":"07420"},{"geonameid":4934500,"name":"Danvers","admin3":"16250"},{"geonameid":4935946,"name":"Essex","admin3":"21850"},{"geonameid":4937829,"name":"Gloucester","admin3":"26150"},{"geonameid":4938501,"name":"Groveland","admin3":"27620"},{"geonameid":4939085,"name":"Haverhill","admin3":"29405"},{"geonameid":4940625,"name":"Ipswich","admin3":"32310"},{"geonameid":4941720,"name":"Lawrence","admin3":"34550"},{"geonameid":4942807,"name":"Lynn","admin3":"37490"},{"geonameid":4942821,"name":"Lynnfield","admin3":"37560"},{"geonameid":4942975,"name":"Manchester-by-the-Sea","admin3":"37995"},{"geonameid":4943097,"name":"Marblehead","admin3":"38400"},{"geonameid":4943784,"name":"Merrimac","admin3":"40430"},{"geonameid":4943828,"name":"Methuen","admin3":"40710"},{"geonameid":4943926,"name":"Middleton","admin3":"41095"},{"geonameid":4944875,"name":"Nahant","admin3":"43580"},{"geonameid":4945256,"name":"Newburyport","admin3":"45245"},{"geonameid":4832272,"name":"North Andover","admin3":"46365"},{"geonameid":4946863,"name":"Peabody","admin3":"52490"},{"geonameid":4948936,"name":"Rockport","admin3":"57880"},{"geonameid":4949144,"name":"Rowley","admin3":"58405"},{"geonameid":4950065,"name":"Salem","admin3":"59105"},{"geonameid":4950092,"name":"Salisbury","admin3":"59245"},{"geonameid":4950267,"name":"Saugus","admin3":"60015"},{"geonameid":4951473,"name":"South Peabody","admin3":"52490"},{"geonameid":4952468,"name":"Swampscott","admin3":"68645"},{"geonameid":4953127,"name":"Topsfield","admin3":"70150"},{"geonameid":4954801,"name":"Wenham","admin3":"74595"},{"geonameid":4955030,"name":"West Newbury","admin3":"77150"}],"admin3":[{"geonameid":4832330,"name":"Town of West Newbury","admin3":"77150"},{"geonameid":4929019,"name":"City of Amesbury Town","admin3":"01260"},{"geonameid":4929069,"name":"Town of Andover","admin3":"01465"},{"geonameid":4930533,"name":"City of Beverly","admin3":"05595"},{"geonameid":4931115,"name":"Town of Boxford","admin3":"07420"},{"geonameid":4934513,"name":"Town of Danvers","admin3":"16250"},{"geonameid":4935975,"name":"Town of Essex","admin3":"21850"},{"geonameid":4937693,"name":"Town of Georgetown","admin3":"25625"},{"geonameid":4937843,"name":"City of Gloucester","admin3":"26150"},{"geonameid":4938505,"name":"Town of Groveland","admin3":"27620"},{"geonameid":4938714,"name":"Town of Hamilton","admin3":"27900"},{"geonameid":4939098,"name":"City of Haverhill","admin3":"29405"},{"geonameid":4940647,"name":"Town of Ipswich","admin3":"32310"},{"geonameid":4941752,"name":"City of Lawrence","admin3":"34550"},{"geonameid":4942820,"name":"City of Lynn","admin3":"37490"},{"geonameid":4942829,"name":"Town of Lynnfield","admin3":"37560"},{"geonameid":4942977,"name":"Town of Manchester-by-the-Sea","admin3":"37995"},{"geonameid":4943104,"name":"Town of Marblehead","admin3":"38400"},{"geonameid":4943789,"name":"Town of Merrimac","admin3":"40430"},{"geonameid":4943830,"name":"City of Methuen Town","admin3":"40710"},{"geonameid":4943931,"name":"Town of Middleton","admin3":"41095"},{"geonameid":4945255,"name":"Town of Newbury","admin3":"45175"},{"geonameid":4945260,"name":"City of Newburyport","admin3":"45245"},{"geonameid":4945505,"name":"Town of North Andover","admin3":"46365"},{"geonameid":4946878,"name":"City of Peabody","admin3":"52490"},{"geonameid":4948944,"name":"Town of Rockport","admin3":"57880"},{"geonameid":4949170,"name":"Town of Rowley","admin3":"58405"},{"geonameid":4950085,"name":"City of Salem","admin3":"59105"},{"geonameid":4950103,"name":"Town of Salisbury","admin3":"59245"},{"geonameid":4950278,"name":"Town of Saugus","admin3":"60015"},{"geonameid":4952472,"name":"Town of Swampscott","admin3":"68645"},{"geonameid":4953129,"name":"Town of Topsfield","admin3":"70150"},{"geonameid":4954810,"name":"Town of Wenham","admin3":"74595"},{"geonameid":5281034,"name":"Town of Nahant","admin3":"43580"}],"alternateNames":[{"alternatenameId":6755490,"geonameid":6254926,"isoLanguage":"en","alternateName":"Massachusetts","isPreferredName":true,"isShortName":true,"isColloquial":false,"isHistoric":false}]},"__N_SSG":true}