{"pageProps":{"locale":"en","admin2":{"geonameid":4947607,"name":"Plymouth County","country":"US","admin1":"MA","admin2":"023","admin3":"","latitude":"41.9874300","longitude":"-70.7370700"},"admin1":{"geonameid":6254926,"name":"Massachusetts","admin1":"MA","localeAltName":"Massachusetts"},"locations":[{"geonameid":4928662,"name":"Abington","admin3":"00170"},{"geonameid":4931303,"name":"Bridgewater","admin3":"08085"},{"geonameid":4931429,"name":"Brockton","admin3":"09000"},{"geonameid":4932388,"name":"Carver","admin3":"11665"},{"geonameid":4935211,"name":"Duxbury","admin3":"17895"},{"geonameid":4935330,"name":"East Bridgewater","admin3":"18455"},{"geonameid":7257572,"name":"Green Harbor-Cedar Crest","admin3":"38855"},{"geonameid":4938652,"name":"Halifax","admin3":"27795"},{"geonameid":4938836,"name":"Hanover","admin3":"28285"},{"geonameid":4938829,"name":"Hanson","admin3":"28495"},{"geonameid":4939549,"name":"Hingham","admin3":"30210"},{"geonameid":4940134,"name":"Hull","admin3":"31645"},{"geonameid":4941383,"name":"Kingston","admin3":"33220"},{"geonameid":4943144,"name":"Marion","admin3":"38540"},{"geonameid":7257706,"name":"Marion Center","admin3":"38540"},{"geonameid":4943204,"name":"Marshfield","admin3":"38855"},{"geonameid":4943213,"name":"Marshfield Hills","admin3":"38855"},{"geonameid":4943432,"name":"Mattapoisett","admin3":"39450"},{"geonameid":7257710,"name":"Mattapoisett Center","admin3":"39450"},{"geonameid":4943888,"name":"Middleborough","admin3":"40850"},{"geonameid":7257713,"name":"Middleborough Center","admin3":"40850"},{"geonameid":4945659,"name":"North Lakeville","admin3":"33920"},{"geonameid":4945700,"name":"North Pembroke","admin3":"52630"},{"geonameid":4945707,"name":"North Plymouth","admin3":"54310"},{"geonameid":4945764,"name":"North Scituate","admin3":"60330"},{"geonameid":4945936,"name":"Norwell","admin3":"50145"},{"geonameid":7257741,"name":"Ocean Bluff-Brant Rock","admin3":"38855"},{"geonameid":4946372,"name":"Onset","admin3":"72985"},{"geonameid":4947597,"name":"Plymouth","admin3":"54310"},{"geonameid":4947641,"name":"Plympton","admin3":"54415"},{"geonameid":4948875,"name":"Rochester","admin3":"57600"},{"geonameid":4948924,"name":"Rockland","admin3":"57775"},{"geonameid":4950395,"name":"Scituate","admin3":"60330"},{"geonameid":5281007,"name":"South Duxbury","admin3":"17895"},{"geonameid":4954486,"name":"Wareham Center","admin3":"72985"},{"geonameid":4954886,"name":"West Bridgewater","admin3":"75260"},{"geonameid":4955132,"name":"West Wareham","admin3":"72985"},{"geonameid":4955332,"name":"Weweantic","admin3":"72985"},{"geonameid":4955472,"name":"White Island Shores","admin3":"72985"},{"geonameid":4955544,"name":"Whitman","admin3":"79530"}],"admin3":[{"geonameid":4928666,"name":"Town of Abington","admin3":"00170"},{"geonameid":4931312,"name":"Town of Bridgewater","admin3":"08085"},{"geonameid":4931451,"name":"City of Brockton","admin3":"09000"},{"geonameid":4932385,"name":"Town of Carver","admin3":"11665"},{"geonameid":4935227,"name":"Town of Duxbury","admin3":"17895"},{"geonameid":4935338,"name":"Town of East Bridgewater","admin3":"18455"},{"geonameid":4938663,"name":"Town of Halifax","admin3":"27795"},{"geonameid":4938822,"name":"Town of Hanover","admin3":"28285"},{"geonameid":4938832,"name":"Town of Hanson","admin3":"28495"},{"geonameid":4939560,"name":"Town of Hingham","admin3":"30210"},{"geonameid":4940121,"name":"Town of Hull","admin3":"31645"},{"geonameid":4941393,"name":"Town of Kingston","admin3":"33220"},{"geonameid":4941609,"name":"Town of Lakeville","admin3":"33920"},{"geonameid":4943149,"name":"Town of Marion","admin3":"38540"},{"geonameid":4943222,"name":"Town of Marshfield","admin3":"38855"},{"geonameid":4943447,"name":"Town of Mattapoisett","admin3":"39450"},{"geonameid":4943899,"name":"Town of Middleborough","admin3":"40850"},{"geonameid":4945944,"name":"Town of Norwell","admin3":"50145"},{"geonameid":4946964,"name":"Town of Pembroke","admin3":"52630"},{"geonameid":4947639,"name":"Town of Plymouth","admin3":"54310"},{"geonameid":4947654,"name":"Town of Plympton","admin3":"54415"},{"geonameid":4948883,"name":"Town of Rochester","admin3":"57600"},{"geonameid":4948934,"name":"Town of Rockland","admin3":"57775"},{"geonameid":4950415,"name":"Town of Scituate","admin3":"60330"},{"geonameid":4954498,"name":"Town of Wareham","admin3":"72985"},{"geonameid":4954883,"name":"Town of West Bridgewater","admin3":"75260"},{"geonameid":4955556,"name":"Town of Whitman","admin3":"79530"}],"alternateNames":[{"alternatenameId":6755490,"geonameid":6254926,"isoLanguage":"en","alternateName":"Massachusetts","isPreferredName":true,"isShortName":true,"isColloquial":false,"isHistoric":false}]},"__N_SSG":true}