{"pageProps":{"locale":"en","admin2":{"geonameid":4956199,"name":"Worcester County","country":"US","admin1":"MA","admin2":"027","admin3":"","latitude":"42.3514000","longitude":"-71.9077400"},"admin1":{"geonameid":6254926,"name":"Massachusetts","admin1":"MA","localeAltName":"Massachusetts"},"locations":[{"geonameid":4929256,"name":"Ashburnham","admin3":"01885"},{"geonameid":4929376,"name":"Athol","admin3":"02480"},{"geonameid":4929417,"name":"Auburn","admin3":"02760"},{"geonameid":4929657,"name":"Baldwinville","admin3":"69275"},{"geonameid":4929785,"name":"Barre","admin3":"03740"},{"geonameid":4930431,"name":"Berlin","admin3":"05490"},{"geonameid":4930738,"name":"Blackstone","admin3":"06015"},{"geonameid":4930907,"name":"Bolton","admin3":"06365"},{"geonameid":4931127,"name":"Boylston","admin3":"07525"},{"geonameid":4932823,"name":"Charlton","admin3":"12715"},{"geonameid":4933426,"name":"Clinton","admin3":"14395"},{"geonameid":4933937,"name":"Cordaville","admin3":"63165"},{"geonameid":8480032,"name":"Devens","admin3":"28950"},{"geonameid":4934999,"name":"Douglas","admin3":"17300"},{"geonameid":4935125,"name":"Dudley","admin3":"17685"},{"geonameid":4935347,"name":"East Brookfield","admin3":"18560"},{"geonameid":4935372,"name":"East Douglas","admin3":"17300"},{"geonameid":4936792,"name":"Fiskdale","admin3":"68155"},{"geonameid":4936812,"name":"Fitchburg","admin3":"23875"},{"geonameid":4937557,"name":"Gardner","admin3":"25485"},{"geonameid":4938048,"name":"Grafton","admin3":"26430"},{"geonameid":4938697,"name":"Hamilton Worcester","admin3":"82000"},{"geonameid":4938862,"name":"Hardwick","admin3":"28740"},{"geonameid":4938957,"name":"Harvard","admin3":"28950"},{"geonameid":4939647,"name":"Holden","admin3":"30560"},{"geonameid":4939862,"name":"Hopedale","admin3":"30945"},{"geonameid":4940075,"name":"Hubbardston","admin3":"31435"},{"geonameid":4941635,"name":"Lancaster","admin3":"34165"},{"geonameid":4941835,"name":"Leicester","admin3":"34795"},{"geonameid":4941873,"name":"Leominster","admin3":"35075"},{"geonameid":4942767,"name":"Lunenburg","admin3":"37420"},{"geonameid":4943746,"name":"Mendon","admin3":"40255"},{"geonameid":4943958,"name":"Milford","admin3":"41165"},{"geonameid":4944122,"name":"Millbury","admin3":"41340"},{"geonameid":4944189,"name":"Millville","admin3":"41585"},{"geonameid":4945548,"name":"North Brookfield","admin3":"47135"},{"geonameid":4945840,"name":"Northborough","admin3":"46820"},{"geonameid":4945848,"name":"Northbridge","admin3":"46925"},{"geonameid":4946136,"name":"Oakham","admin3":"50670"},{"geonameid":4946546,"name":"Oxford","admin3":"51825"},{"geonameid":4946853,"name":"Paxton","admin3":"52420"},{"geonameid":4947124,"name":"Phillipston","admin3":"53225"},{"geonameid":4947998,"name":"Princeton","admin3":"55395"},{"geonameid":4949161,"name":"Royalston","admin3":"58580"},{"geonameid":4949245,"name":"Rutland","admin3":"58825"},{"geonameid":4950898,"name":"Shrewsbury","admin3":"61800"},{"geonameid":4951282,"name":"South Ashburnham","admin3":"01885"},{"geonameid":4951431,"name":"South Lancaster","admin3":"34165"},{"geonameid":4951591,"name":"Southborough","admin3":"63165"},{"geonameid":4951594,"name":"Southbridge","admin3":"63345"},{"geonameid":4951699,"name":"Spencer","admin3":"66105"},{"geonameid":4952005,"name":"Sterling","admin3":"67385"},{"geonameid":4952292,"name":"Sturbridge","admin3":"68155"},{"geonameid":4952388,"name":"Sunderland","admin3":"82000"},{"geonameid":4952444,"name":"Sutton","admin3":"68610"},{"geonameid":4952731,"name":"Templeton","admin3":"69275"},{"geonameid":4953794,"name":"Upton","admin3":"71480"},{"geonameid":4953804,"name":"Uxbridge","admin3":"71620"},{"geonameid":4954511,"name":"Warren","admin3":"73090"},{"geonameid":4954677,"name":"Webster","admin3":"73895"},{"geonameid":4954850,"name":"West Boylston","admin3":"75155"},{"geonameid":4954927,"name":"West Brookfield","admin3":"75400"},{"geonameid":4955149,"name":"Westborough","admin3":"75015"},{"geonameid":4955247,"name":"Westminster","admin3":"77010"},{"geonameid":4955539,"name":"Whitinsville","admin3":"46925"},{"geonameid":4955873,"name":"Winchendon","admin3":"80405"},{"geonameid":4956184,"name":"Worcester","admin3":"82000"}],"admin3":[{"geonameid":4929261,"name":"Town of Ashburnham","admin3":"01885"},{"geonameid":4929383,"name":"Town of Athol","admin3":"02480"},{"geonameid":4929431,"name":"Town of Auburn","admin3":"02760"},{"geonameid":4929795,"name":"Town of Barre","admin3":"03740"},{"geonameid":4930436,"name":"Town of Berlin","admin3":"05490"},{"geonameid":4930754,"name":"Town of Blackstone","admin3":"06015"},{"geonameid":4930914,"name":"Town of Bolton","admin3":"06365"},{"geonameid":4931134,"name":"Town of Boylston","admin3":"07525"},{"geonameid":4931478,"name":"Town of Brookfield","admin3":"09105"},{"geonameid":4932831,"name":"Town of Charlton","admin3":"12715"},{"geonameid":4933437,"name":"Town of Clinton","admin3":"14395"},{"geonameid":4935008,"name":"Town of Douglas","admin3":"17300"},{"geonameid":4935144,"name":"Town of Dudley","admin3":"17685"},{"geonameid":4935350,"name":"Town of East Brookfield","admin3":"18560"},{"geonameid":4936825,"name":"City of Fitchburg","admin3":"23875"},{"geonameid":4937580,"name":"City of Gardner","admin3":"25485"},{"geonameid":4938057,"name":"Town of Grafton","admin3":"26430"},{"geonameid":4938865,"name":"Town of Hardwick","admin3":"28740"},{"geonameid":4938995,"name":"Town of Harvard","admin3":"28950"},{"geonameid":4939665,"name":"Town of Holden","admin3":"30560"},{"geonameid":4939871,"name":"Town of Hopedale","admin3":"30945"},{"geonameid":4940085,"name":"Town of Hubbardston","admin3":"31435"},{"geonameid":4941644,"name":"Town of Lancaster","admin3":"34165"},{"geonameid":4941843,"name":"Town of Leicester","admin3":"34795"},{"geonameid":4941884,"name":"City of Leominster","admin3":"35075"},{"geonameid":4942774,"name":"Town of Lunenburg","admin3":"37420"},{"geonameid":4943750,"name":"Town of Mendon","admin3":"40255"},{"geonameid":4943970,"name":"Town of Milford","admin3":"41165"},{"geonameid":4944130,"name":"Town of Millbury","admin3":"41340"},{"geonameid":4944191,"name":"Town of Millville","admin3":"41585"},{"geonameid":4945148,"name":"Town of New Braintree","admin3":"45105"},{"geonameid":4945551,"name":"Town of North Brookfield","admin3":"47135"},{"geonameid":4945847,"name":"Town of Northborough","admin3":"46820"},{"geonameid":4945854,"name":"Town of Northbridge","admin3":"46925"},{"geonameid":4946140,"name":"Town of Oakham","admin3":"50670"},{"geonameid":4946561,"name":"Town of Oxford","admin3":"51825"},{"geonameid":4946855,"name":"Town of Paxton","admin3":"52420"},{"geonameid":4947076,"name":"Town of Petersham","admin3":"53120"},{"geonameid":4947130,"name":"Town of Phillipston","admin3":"53225"},{"geonameid":4948005,"name":"Town of Princeton","admin3":"55395"},{"geonameid":4949167,"name":"Town of Royalston","admin3":"58580"},{"geonameid":4949250,"name":"Town of Rutland","admin3":"58825"},{"geonameid":4950909,"name":"Town of Shrewsbury","admin3":"61800"},{"geonameid":4951593,"name":"Town of Southborough","admin3":"63165"},{"geonameid":4951605,"name":"City of Southbridge Town","admin3":"63345"},{"geonameid":4951709,"name":"Town of Spencer","admin3":"66105"},{"geonameid":4952015,"name":"Town of Sterling","admin3":"67385"},{"geonameid":4952298,"name":"Town of Sturbridge","admin3":"68155"},{"geonameid":4952459,"name":"Town of Sutton","admin3":"68610"},{"geonameid":4952740,"name":"Town of Templeton","admin3":"69275"},{"geonameid":4953798,"name":"Town of Upton","admin3":"71480"},{"geonameid":4953810,"name":"Town of Uxbridge","admin3":"71620"},{"geonameid":4954534,"name":"Town of Warren","admin3":"73090"},{"geonameid":4954696,"name":"Town of Webster","admin3":"73895"},{"geonameid":4954855,"name":"Town of West Boylston","admin3":"75155"},{"geonameid":4954899,"name":"Town of West Brookfield","admin3":"75400"},{"geonameid":4955161,"name":"Town of Westborough","admin3":"75015"},{"geonameid":4955258,"name":"Town of Westminster","admin3":"77010"},{"geonameid":4955883,"name":"Town of Winchendon","admin3":"80405"},{"geonameid":4956233,"name":"City of Worcester","admin3":"82000"}],"alternateNames":[{"alternatenameId":6755490,"geonameid":6254926,"isoLanguage":"en","alternateName":"Massachusetts","isPreferredName":true,"isShortName":true,"isColloquial":false,"isHistoric":false}]},"__N_SSG":true}