{"pageProps":{"locale":"de","admin2":{"geonameid":2892513,"name":"Regierungsbezirk Kassel","country":"DE","admin1":"05","admin2":"066","admin3":"","latitude":"51.0833300","longitude":"9.4000000","localeAltName":null},"admin1":{"geonameid":2905330,"name":"Hessen","admin1":"05","localeAltName":"Hessen"},"locations":[{"geonameid":2958669,"name":"Albertshausen","admin3":"06635","localeAltName":null},{"geonameid":2958494,"name":"Alheim","admin3":"06632","localeAltName":null},{"geonameid":2958438,"name":"Allendorf","admin3":"06635","localeAltName":null},{"geonameid":2955421,"name":"Bad Arolsen","admin3":"06635","localeAltName":null},{"geonameid":2953439,"name":"Bad Hersfeld","admin3":"06632","localeAltName":null},{"geonameid":2892867,"name":"Bad Karlshafen","admin3":"06633","localeAltName":null},{"geonameid":2953359,"name":"Bad Salzschlirf","admin3":"06631","localeAltName":null},{"geonameid":2953336,"name":"Bad Sooden-Allendorf","admin3":"06636","localeAltName":null},{"geonameid":2953317,"name":"Bad Wildungen","admin3":"06635","localeAltName":null},{"geonameid":2952213,"name":"Battenberg","admin3":"06635","localeAltName":null},{"geonameid":2951923,"name":"Baunatal","admin3":"06633","localeAltName":null},{"geonameid":2951793,"name":"Bebra","admin3":"06632","localeAltName":null},{"geonameid":2946230,"name":"Borken","admin3":"06634","localeAltName":null},{"geonameid":2944707,"name":"Breitenbach","admin3":"06632","localeAltName":null},{"geonameid":2944169,"name":"Breuna","admin3":"06633","localeAltName":null},{"geonameid":2943783,"name":"Bromskirchen","admin3":"06635","localeAltName":null},{"geonameid":2941283,"name":"Burghaun","admin3":"06631","localeAltName":null},{"geonameid":2940412,"name":"Calden","admin3":"06633","localeAltName":null},{"geonameid":2940099,"name":"Christerode","admin3":"06634","localeAltName":null},{"geonameid":2939847,"name":"Cornberg","admin3":"06632","localeAltName":null},{"geonameid":2936845,"name":"Dipperz","admin3":"06631","localeAltName":null},{"geonameid":2932266,"name":"Eichenzell","admin3":"06631","localeAltName":null},{"geonameid":2931372,"name":"Eiterfeld","admin3":"06631","localeAltName":null},{"geonameid":2928967,"name":"Eschwege","admin3":"06636","localeAltName":null},{"geonameid":2928868,"name":"Espenau","admin3":"06633","localeAltName":null},{"geonameid":2927226,"name":"Felsberg","admin3":"06634","localeAltName":null},{"geonameid":2926226,"name":"Flieden","admin3":"06631","localeAltName":null},{"geonameid":2925651,"name":"Frankenau","admin3":"06635","localeAltName":null},{"geonameid":2925629,"name":"Frankenberg","admin3":"06635","localeAltName":null},{"geonameid":2924703,"name":"Friedewald","admin3":"06632","localeAltName":null},{"geonameid":2924428,"name":"Frielendorf","admin3":"06634","localeAltName":null},{"geonameid":2924326,"name":"Fritzlar","admin3":"06634","localeAltName":null},{"geonameid":2923822,"name":"Fulda","admin3":"06631","localeAltName":null},{"geonameid":2923815,"name":"Fuldatal","admin3":"06633","localeAltName":null},{"geonameid":2921375,"name":"Gemünden an der Wohra","admin3":"06635","localeAltName":null},{"geonameid":2920926,"name":"Gersfeld","admin3":"06631","localeAltName":null},{"geonameid":2920389,"name":"Gilserberg","admin3":"06634","localeAltName":null},{"geonameid":2917848,"name":"Grebenstein","admin3":"06633","localeAltName":null},{"geonameid":2917053,"name":"Großalmerode","admin3":"06636","localeAltName":null},{"geonameid":2916606,"name":"Großenlüder","admin3":"06631","localeAltName":null},{"geonameid":2913890,"name":"Gudensberg","admin3":"06634","localeAltName":null},{"geonameid":2913286,"name":"Guxhagen","admin3":"06634","localeAltName":null},{"geonameid":2911909,"name":"Haina","admin3":"06635","localeAltName":null},{"geonameid":2909194,"name":"Hatzfeld","admin3":"06635","localeAltName":null},{"geonameid":2909002,"name":"Hauptschwenda","admin3":"06634","localeAltName":null},{"geonameid":2906654,"name":"Helsa","admin3":"06633","localeAltName":null},{"geonameid":2906586,"name":"Hemfurth-Edersee","admin3":"06635","localeAltName":null},{"geonameid":2906088,"name":"Heringen","admin3":"06632","localeAltName":null},{"geonameid":2906050,"name":"Herleshausen","admin3":"06636","localeAltName":null},{"geonameid":2905293,"name":"Hessisch Lichtenau","admin3":"06636","localeAltName":null},{"geonameid":2904791,"name":"Hilders","admin3":"06631","localeAltName":null},{"geonameid":2902731,"name":"Hofbieber","admin3":"06631","localeAltName":null},{"geonameid":2902559,"name":"Hofgeismar","admin3":"06633","localeAltName":null},{"geonameid":2899478,"name":"Homberg","admin3":"06634","localeAltName":null},{"geonameid":2898483,"name":"Hosenfeld","admin3":"06631","localeAltName":null},{"geonameid":2897436,"name":"Hünfeld","admin3":"06631","localeAltName":null},{"geonameid":2896279,"name":"Immenhausen","admin3":"06633","localeAltName":null},{"geonameid":2894982,"name":"Jesberg","admin3":"06634","localeAltName":null},{"geonameid":2892518,"name":"Kassel","admin3":"06611","localeAltName":null},{"geonameid":3336895,"name":"Kaufungen","admin3":"06633","localeAltName":null},{"geonameid":2890485,"name":"Kirchheim","admin3":"06632","localeAltName":null},{"geonameid":2885536,"name":"Korbach","admin3":"06635","localeAltName":null},{"geonameid":2885479,"name":"Körle","admin3":"06634","localeAltName":null},{"geonameid":2882440,"name":"Künzell","admin3":"06631","localeAltName":null},{"geonameid":2877980,"name":"Liebenau","admin3":"06633","localeAltName":null},{"geonameid":2876282,"name":"Lohfelden","admin3":"06633","localeAltName":null},{"geonameid":2874039,"name":"Malsfeld","admin3":"06634","localeAltName":null},{"geonameid":2873144,"name":"Martinhagen","admin3":"06633","localeAltName":null},{"geonameid":2873060,"name":"Marzhausen","admin3":"06636","localeAltName":null},{"geonameid":2872028,"name":"Melsungen","admin3":"06634","localeAltName":null},{"geonameid":2866905,"name":"Naumburg","admin3":"06633","localeAltName":null},{"geonameid":2866846,"name":"Nausis","admin3":"06634","localeAltName":null},{"geonameid":2866511,"name":"Nentershausen","admin3":"06632","localeAltName":null},{"geonameid":2865553,"name":"Neuental","admin3":"06634","localeAltName":null},{"geonameid":2864936,"name":"Neuhof","admin3":"06631","localeAltName":null},{"geonameid":2864748,"name":"Neukirchen","admin3":"06634","localeAltName":null},{"geonameid":2863685,"name":"Niedenstein","admin3":"06634","localeAltName":null},{"geonameid":2863638,"name":"Niederaula","admin3":"06632","localeAltName":null},{"geonameid":2861358,"name":"Oberaula","admin3":"06634","localeAltName":null},{"geonameid":2855923,"name":"Ottrau","admin3":"06634","localeAltName":null},{"geonameid":2853900,"name":"Philippsthal","admin3":"06632","localeAltName":null},{"geonameid":2852656,"name":"Poppenhausen","admin3":"06631","localeAltName":null},{"geonameid":2850293,"name":"Rasdorf","admin3":"06631","localeAltName":null},{"geonameid":2848791,"name":"Reinhardshausen","admin3":"06635","localeAltName":null},{"geonameid":2847410,"name":"Riebelsdorf","admin3":"06634","localeAltName":null},{"geonameid":2845209,"name":"Ronshausen","admin3":"06632","localeAltName":null},{"geonameid":2844924,"name":"Rosenthal","admin3":"06635","localeAltName":null},{"geonameid":2844434,"name":"Rotenburg an der Fulda","admin3":"06632","localeAltName":null},{"geonameid":2843485,"name":"Rückershausen","admin3":"06634","localeAltName":null},{"geonameid":2842518,"name":"Sachsenhausen","admin3":"06635","localeAltName":null},{"geonameid":2839726,"name":"Schenklengsfeld","admin3":"06632","localeAltName":null},{"geonameid":2836143,"name":"Schrecksbach","admin3":"06634","localeAltName":null},{"geonameid":2835345,"name":"Schwalmstadt","admin3":"06634","localeAltName":null},{"geonameid":2834963,"name":"Schwarzenborn","admin3":"06634","localeAltName":null},{"geonameid":2833355,"name":"Seigertshausen","admin3":"06634","localeAltName":null},{"geonameid":2831083,"name":"Sontra","admin3":"06636","localeAltName":null},{"geonameid":2830829,"name":"Spangenberg","admin3":"06634","localeAltName":null},{"geonameid":2824229,"name":"Tann","admin3":"06631","localeAltName":null},{"geonameid":2821336,"name":"Trendelburg","admin3":"06633","localeAltName":null},{"geonameid":2820500,"name":"Udenhausen","admin3":"06633","localeAltName":null},{"geonameid":3207197,"name":"Vellmar","admin3":"06633","localeAltName":null},{"geonameid":2816769,"name":"Vöhl","admin3":"06635","localeAltName":null},{"geonameid":2816616,"name":"Volkmarsen","admin3":"06635","localeAltName":null},{"geonameid":2815784,"name":"Wabern","admin3":"06634","localeAltName":null},{"geonameid":2815101,"name":"Waldeck","admin3":"06635","localeAltName":null},{"geonameid":2814888,"name":"Waldkappel","admin3":"06636","localeAltName":null},{"geonameid":2814297,"name":"Wanfried","admin3":"06636","localeAltName":null},{"geonameid":2808544,"name":"Willingen","admin3":"06635","localeAltName":null},{"geonameid":2808533,"name":"Willingshausen","admin3":"06634","localeAltName":null},{"geonameid":2808309,"name":"Wincherode","admin3":"06634","localeAltName":null},{"geonameid":2807184,"name":"Witzenhausen","admin3":"06636","localeAltName":null},{"geonameid":2806799,"name":"Wolfhagen","admin3":"06633","localeAltName":null},{"geonameid":2804297,"name":"Zierenberg","admin3":"06633","localeAltName":null}],"admin3":[{"geonameid":2892514,"name":"Landkreis Kassel","admin3":"06633","localeAltName":null},{"geonameid":3220993,"name":"Landkreis Fulda","admin3":"06631","localeAltName":null},{"geonameid":3220994,"name":"Landkreis Hersfeld-Rotenburg","admin3":"06632","localeAltName":null},{"geonameid":3220995,"name":"Kreisfreie Stadt Kassel","admin3":"06611","localeAltName":null},{"geonameid":3220996,"name":"Schwalm-Eder-Kreis","admin3":"06634","localeAltName":null},{"geonameid":3220997,"name":"Landkreis Waldeck-Frankenberg","admin3":"06635","localeAltName":null},{"geonameid":3220999,"name":"Werra-Meißner-Kreis","admin3":"06636","localeAltName":null}],"alternateNames":[{"alternatenameId":2256571,"geonameid":2905330,"isoLanguage":"de","alternateName":"Hessen","isPreferredName":true,"isShortName":true,"isColloquial":false,"isHistoric":false}]},"__N_SSG":true}