{"pageProps":{"locale":"de","admin2":{"geonameid":2658380,"name":"Bezirk Thierstein","country":"CH","admin1":"SO","admin2":"1110","admin3":"","latitude":"47.3833300","longitude":"7.5500000"},"admin1":{"geonameid":2658563,"name":"Kanton Solothurn","admin1":"SO"},"locations":[{"geonameid":2661607,"name":"Bärschwil","admin3":"2611"},{"geonameid":2661576,"name":"Beinwil","admin3":"2612"},{"geonameid":2661412,"name":"Breitenbach","admin3":"2613"},{"geonameid":2661306,"name":"Büsserach","admin3":"2614"},{"geonameid":2660865,"name":"Erschwil","admin3":"2615"},{"geonameid":2660350,"name":"Himmelried","admin3":"2618"},{"geonameid":2660141,"name":"Kleinlützel","admin3":"2619"},{"geonameid":2659427,"name":"Nunningen","admin3":"2621"},{"geonameid":2657903,"name":"Zullwil","admin3":"2622"}],"admin3":[{"geonameid":7285159,"name":"Bärschwil","admin3":"2611"},{"geonameid":7285183,"name":"Beinwil (SO)","admin3":"2612"},{"geonameid":7285322,"name":"Breitenbach","admin3":"2613"},{"geonameid":7285401,"name":"Büsserach","admin3":"2614"},{"geonameid":7285762,"name":"Erschwil","admin3":"2615"},{"geonameid":7285801,"name":"Fehren","admin3":"2616"},{"geonameid":7285983,"name":"Grindel","admin3":"2617"},{"geonameid":7286084,"name":"Himmelried","admin3":"2618"},{"geonameid":7286207,"name":"Kleinlützel","admin3":"2619"},{"geonameid":7286482,"name":"Meltingen","admin3":"2620"},{"geonameid":7286667,"name":"Nunningen","admin3":"2621"},{"geonameid":7287645,"name":"Zullwil","admin3":"2622"}],"alternateNames":[]},"__N_SSG":true}