{"pageProps":{"locale":"de","admin2":{"geonameid":6458885,"name":"Bezirk Wasseramt","country":"CH","admin1":"SO","admin2":"1106","admin3":"","latitude":"47.1891100","longitude":"7.5915700"},"admin1":{"geonameid":2658563,"name":"Kanton Solothurn","admin1":"SO"},"locations":[{"geonameid":2661519,"name":"Biberist","admin3":"2513"},{"geonameid":2661036,"name":"Deitingen","admin3":"2516"},{"geonameid":2661030,"name":"Derendingen","admin3":"2517"},{"geonameid":2660637,"name":"Gerlafingen","admin3":"2519"},{"geonameid":2660105,"name":"Kriegstetten","admin3":"2525"},{"geonameid":2659822,"name":"Luterbach","admin3":"2527"},{"geonameid":2658464,"name":"Subingen","admin3":"2532"},{"geonameid":2657910,"name":"Zuchwil","admin3":"2534"}],"admin3":[{"geonameid":7285029,"name":"Aeschi (SO)","admin3":"2511"},{"geonameid":7285235,"name":"Biberist","admin3":"2513"},{"geonameid":7285282,"name":"Bolken","admin3":"2514"},{"geonameid":7285632,"name":"Deitingen","admin3":"2516"},{"geonameid":7285640,"name":"Derendingen","admin3":"2517"},{"geonameid":7285784,"name":"Etziken","admin3":"2518"},{"geonameid":7285905,"name":"Gerlafingen","admin3":"2519"},{"geonameid":7286029,"name":"Halten","admin3":"2520"},{"geonameid":7286114,"name":"Horriwil","admin3":"2523"},{"geonameid":7286122,"name":"Hüniken","admin3":"2524"},{"geonameid":7286224,"name":"Kriegstetten","admin3":"2525"},{"geonameid":7286363,"name":"Lohn-Ammannsegg","admin3":"2526"},{"geonameid":7286398,"name":"Luterbach","admin3":"2527"},{"geonameid":7286689,"name":"Obergerlafingen","admin3":"2528"},{"geonameid":7286727,"name":"Oekingen","admin3":"2529"},{"geonameid":7286865,"name":"Recherswil","admin3":"2530"},{"geonameid":7287254,"name":"Subingen","admin3":"2532"},{"geonameid":7287642,"name":"Zuchwil","admin3":"2534"},{"geonameid":8740963,"name":"Drei Höfe","admin3":"2535"}],"alternateNames":[]},"__N_SSG":true}