{"pageProps":{"locale":"en","admin2":{"geonameid":3333211,"name":"Trafford","country":"GB","admin1":"ENG","admin2":"O6","admin3":"","latitude":"53.4166700","longitude":"-2.3333300"},"admin1":{"geonameid":6269131,"name":"England","admin1":"ENG"},"locations":[{"geonameid":2657402,"name":"Altrincham"},{"geonameid":2655069,"name":"Bowdon"},{"geonameid":2654650,"name":"Broadheath"},{"geonameid":2653673,"name":"Carrington"},{"geonameid":2651477,"name":"Davyhulme"},{"geonameid":2649292,"name":"Flixton"},{"geonameid":6691246,"name":"Old Trafford"},{"geonameid":2640593,"name":"Partington"},{"geonameid":2638678,"name":"Sale"},{"geonameid":2636663,"name":"Stretford"},{"geonameid":2635803,"name":"Timperley"},{"geonameid":6691245,"name":"Trafford"},{"geonameid":7302140,"name":"Trafford Centre"},{"geonameid":2635571,"name":"Trafford Park"},{"geonameid":2635062,"name":"Urmston"},{"geonameid":2634794,"name":"Warburton"}],"admin3":[{"geonameid":7291975,"name":"Dunham Massey","admin3":"00BU002"},{"geonameid":7291976,"name":"Partington","admin3":"00BU003"},{"geonameid":7291977,"name":"Warburton","admin3":"00BU004"},{"geonameid":7301607,"name":"Carrington","admin3":"00BU001"}],"alternateNames":[]},"__N_SSG":true}