{"pageProps":{"locale":"it","admin2":{"geonameid":3175444,"name":"Provincia di Isernia","country":"IT","admin1":"11","admin2":"IS","admin3":"","latitude":"41.6666700","longitude":"14.2500000","localeAltName":"Isernia"},"admin1":{"geonameid":3173222,"name":"Molise","admin1":"11","localeAltName":null},"locations":[{"geonameid":3183424,"name":"Agnone","admin3":"094002","localeAltName":null},{"geonameid":3182514,"name":"Bagnoli del Trigno","admin3":"094003","localeAltName":null},{"geonameid":8949878,"name":"Campopino","admin3":"094050","localeAltName":null},{"geonameid":3180652,"name":"Capracotta","admin3":"094006","localeAltName":null},{"geonameid":3180461,"name":"Carovilli","admin3":"094007","localeAltName":null},{"geonameid":3180426,"name":"Carpinone","admin3":"094008","localeAltName":null},{"geonameid":3179497,"name":"Castelromano","admin3":"094023","localeAltName":null},{"geonameid":3179146,"name":"Ceppagna","admin3":"094052","localeAltName":null},{"geonameid":3178591,"name":"Civitanova del Sannio","admin3":"094016","localeAltName":null},{"geonameid":3178321,"name":"Colli a Volturno","admin3":"094017","localeAltName":null},{"geonameid":3176744,"name":"Forlì del Sannio","admin3":"094020","localeAltName":null},{"geonameid":3176707,"name":"Fornelli","admin3":"094021","localeAltName":null},{"geonameid":3176512,"name":"Frosolone","admin3":"094022","localeAltName":null},{"geonameid":3175522,"name":"Indiprete","admin3":"094010","localeAltName":null},{"geonameid":3175445,"name":"Isernia","admin3":"094023","localeAltName":null},{"geonameid":3174406,"name":"Macchia d'Isernia","admin3":"094025","localeAltName":null},{"geonameid":3173372,"name":"Miranda","admin3":"094027","localeAltName":null},{"geonameid":3173065,"name":"Montaquila","admin3":"094028","localeAltName":null},{"geonameid":3172817,"name":"Montenero Val Cocchiara","admin3":"094029","localeAltName":null},{"geonameid":3172779,"name":"Monteroduni","admin3":"094030","localeAltName":null},{"geonameid":3171158,"name":"Pesche","admin3":"094031","localeAltName":null},{"geonameid":3171131,"name":"Pescolanciano","admin3":"094032","localeAltName":null},{"geonameid":3170820,"name":"Pietrabbondante","admin3":"094035","localeAltName":null},{"geonameid":3170437,"name":"Poggio Sannita","admin3":"094037","localeAltName":null},{"geonameid":3170006,"name":"Pozzilli","admin3":"094038","localeAltName":null},{"geonameid":3169325,"name":"Rionero Sannitico","admin3":"094039","localeAltName":null},{"geonameid":3169167,"name":"Roccamandolfi","admin3":"094040","localeAltName":null},{"geonameid":3169132,"name":"Roccasicura","admin3":"094041","localeAltName":null},{"geonameid":3169113,"name":"Rocchetta a Volturno","admin3":"094042","localeAltName":null},{"geonameid":8950058,"name":"Rocchetta Nuova","admin3":"094042","localeAltName":null},{"geonameid":3167816,"name":"San Pietro in Valle","admin3":"094022","localeAltName":null},{"geonameid":3167653,"name":"Sant'Agapito","admin3":"094044","localeAltName":null},{"geonameid":8949891,"name":"Sant'Eusanio","admin3":"094030","localeAltName":null},{"geonameid":8949933,"name":"Selvotta","admin3":"094050","localeAltName":null},{"geonameid":3166612,"name":"Sessano del Molise","admin3":"094049","localeAltName":null},{"geonameid":3166603,"name":"Sesto Campano","admin3":"094050","localeAltName":null},{"geonameid":9036128,"name":"Taverna Ravindola","admin3":"094028","localeAltName":null},{"geonameid":3164621,"name":"Venafro","admin3":"094052","localeAltName":null}],"admin3":[{"geonameid":6537941,"name":"Acquaviva d'Isernia","admin3":"094001"},{"geonameid":6537942,"name":"Bagnoli del Trigno","admin3":"094003","localeAltName":null},{"geonameid":6537943,"name":"Capracotta","admin3":"094006","localeAltName":null},{"geonameid":6537944,"name":"Carpinone","admin3":"094008","localeAltName":null},{"geonameid":6537945,"name":"Castelpizzuto","admin3":"094011"},{"geonameid":6537946,"name":"Castel San Vincenzo","admin3":"094012"},{"geonameid":6537947,"name":"Civitanova del Sannio","admin3":"094016","localeAltName":null},{"geonameid":6537948,"name":"Frosolone","admin3":"094022","localeAltName":null},{"geonameid":6537949,"name":"Macchia d'Isernia","admin3":"094025","localeAltName":null},{"geonameid":6537950,"name":"Montaquila","admin3":"094028","localeAltName":null},{"geonameid":6537951,"name":"Montenero Val Cocchiara","admin3":"094029","localeAltName":null},{"geonameid":6537952,"name":"Pescolanciano","admin3":"094032","localeAltName":null},{"geonameid":6537953,"name":"Pietrabbondante","admin3":"094035","localeAltName":null},{"geonameid":6537954,"name":"Poggio Sannita","admin3":"094037","localeAltName":null},{"geonameid":6537955,"name":"San Pietro Avellana","admin3":"094043"},{"geonameid":6537956,"name":"Sant'Angelo del Pesco","admin3":"094046"},{"geonameid":6537957,"name":"Scapoli","admin3":"094048"},{"geonameid":6539338,"name":"Cantalupo nel Sannio","admin3":"094005"},{"geonameid":6539339,"name":"Castel del Giudice","admin3":"094009"},{"geonameid":6539340,"name":"Castelverrino","admin3":"094013"},{"geonameid":6539341,"name":"Cerro al Volturno","admin3":"094014"},{"geonameid":6539342,"name":"Chiauci","admin3":"094015"},{"geonameid":6539343,"name":"Colli a Volturno","admin3":"094017","localeAltName":null},{"geonameid":6539344,"name":"Forlì del Sannio","admin3":"094020","localeAltName":null},{"geonameid":6539345,"name":"Monteroduni","admin3":"094030","localeAltName":null},{"geonameid":6539346,"name":"Pescopennataro","admin3":"094033"},{"geonameid":6539347,"name":"Pettoranello del Molise","admin3":"094034"},{"geonameid":6539348,"name":"Pozzilli","admin3":"094038","localeAltName":null},{"geonameid":6539349,"name":"Roccasicura","admin3":"094041","localeAltName":null},{"geonameid":6539350,"name":"Sessano del Molise","admin3":"094049","localeAltName":null},{"geonameid":6539351,"name":"Venafro","admin3":"094052","localeAltName":null},{"geonameid":6539882,"name":"Longano","admin3":"094024"},{"geonameid":6540074,"name":"Fornelli","admin3":"094021","localeAltName":null},{"geonameid":6540075,"name":"Pizzone","admin3":"094036"},{"geonameid":6540076,"name":"Sant'Agapito","admin3":"094044","localeAltName":null},{"geonameid":6540113,"name":"Isernia","admin3":"094023","localeAltName":null},{"geonameid":6540872,"name":"Agnone","admin3":"094002","localeAltName":null},{"geonameid":6540873,"name":"Carovilli","admin3":"094007","localeAltName":null},{"geonameid":6540874,"name":"Conca Casale","admin3":"094018"},{"geonameid":6540875,"name":"Miranda","admin3":"094027","localeAltName":null},{"geonameid":6540876,"name":"Sesto Campano","admin3":"094050","localeAltName":null},{"geonameid":6540877,"name":"Vastogirardi","admin3":"094051"},{"geonameid":6541372,"name":"Castelpetroso","admin3":"094010","localeAltName":null},{"geonameid":6541373,"name":"Filignano","admin3":"094019"},{"geonameid":6541374,"name":"Macchiagodena","admin3":"094026"},{"geonameid":6541375,"name":"Pesche","admin3":"094031","localeAltName":null},{"geonameid":6541376,"name":"Rionero Sannitico","admin3":"094039","localeAltName":null},{"geonameid":6541377,"name":"Sant'Elena Sannita","admin3":"094047"},{"geonameid":6541553,"name":"Rocchetta a Volturno","admin3":"094042","localeAltName":null},{"geonameid":6541779,"name":"Roccamandolfi","admin3":"094040","localeAltName":null},{"geonameid":6541977,"name":"Santa Maria del Molise","admin3":"094045"},{"geonameid":6542071,"name":"Belmonte del Sannio","admin3":"094004"}],"alternateNames":[{"alternatenameId":2431315,"geonameid":3175444,"isoLanguage":"it","alternateName":"Isernia","isPreferredName":true,"isShortName":true,"isColloquial":false,"isHistoric":false}]},"__N_SSG":true}