{"pageProps":{"locale":"en","admin2":{"geonameid":2756668,"name":"Gemeente Dordrecht","country":"NL","admin1":"11","admin2":"0505","admin3":"","latitude":"51.7990100","longitude":"4.7415900"},"admin1":{"geonameid":2743698,"name":"Provincie Zuid-Holland","admin1":"11"},"locations":[{"geonameid":2758879,"name":"Blaasbalg","admin3":""},{"geonameid":2757892,"name":"Crabbehof","admin3":""},{"geonameid":2756669,"name":"Dordrecht","admin3":""},{"geonameid":2756537,"name":"Dubbeldam","admin3":""},{"geonameid":2752435,"name":"Kop van 't Land","admin3":""},{"geonameid":2752260,"name":"Krispijn","admin3":""},{"geonameid":2749049,"name":"Oudendijk","admin3":""},{"geonameid":2746721,"name":"Sterrenburg","admin3":""},{"geonameid":2746072,"name":"Tweede Tol","admin3":""},{"geonameid":2744563,"name":"Wieldrecht","admin3":""},{"geonameid":2744555,"name":"Wielwijk","admin3":""},{"geonameid":2744396,"name":"Willemsdorp","admin3":""},{"geonameid":2743690,"name":"Zuidhoven","admin3":""}],"admin3":[],"alternateNames":[{"alternatenameId":11907789,"geonameid":2743698,"isoLanguage":"de","alternateName":"SÃ¼dholland","isPreferredName":true,"isShortName":true,"isColloquial":false,"isHistoric":false}]},"__N_SSG":true}