{"pageProps":{"locale":"en","admin2":{"geonameid":10287324,"name":"Nissewaard","country":"NL","admin1":"11","admin2":"1930","admin3":"","latitude":"51.8371600","longitude":"4.2754000"},"admin1":{"geonameid":2743698,"name":"Provincie Zuid-Holland","admin1":"11"},"locations":[{"geonameid":2760075,"name":"Abbenbroek","admin3":""},{"geonameid":2759315,"name":"Beerenplaat","admin3":""},{"geonameid":2758984,"name":"Biert","admin3":""},{"geonameid":2758432,"name":"Braband","admin3":""},{"geonameid":2757536,"name":"De Hoek","admin3":""},{"geonameid":2755666,"name":"Geervliet","admin3":""},{"geonameid":2754687,"name":"Heenvliet","admin3":""},{"geonameid":2754491,"name":"Hekelingen","admin3":""},{"geonameid":2750709,"name":"Moleneind","admin3":""},{"geonameid":2747316,"name":"Simonshaven","admin3":""},{"geonameid":2746932,"name":"Spijkenisse","admin3":""},{"geonameid":2746070,"name":"Tweede Vlotbrug","admin3":""},{"geonameid":2744967,"name":"Waterland","admin3":""},{"geonameid":2743683,"name":"Zuidland","admin3":""}],"admin3":[],"alternateNames":[{"alternatenameId":11907789,"geonameid":2743698,"isoLanguage":"de","alternateName":"SÃ¼dholland","isPreferredName":true,"isShortName":true,"isColloquial":false,"isHistoric":false}]},"__N_SSG":true}