{"pageProps":{"locale":"en","admin2":{"geonameid":6049130,"name":"Lanark County","country":"CA","admin1":"08","admin2":"3509","admin3":"","latitude":"45.0834100","longitude":"-76.3326900"},"admin1":{"geonameid":6093943,"name":"Ontario","admin1":"08"},"locations":[{"geonameid":5881649,"name":"10th Line Shore","admin3":"3509024"},{"geonameid":5884244,"name":"Althorpe","admin3":"3509015"},{"geonameid":5885094,"name":"Andrewsville","admin3":"3509001"},{"geonameid":5886925,"name":"Arklan","admin3":"3509039"},{"geonameid":5887110,"name":"Armstrongs Corners","admin3":"3509010"},{"geonameid":5887630,"name":"Ashton","admin3":"3509024"},{"geonameid":5887638,"name":"Ashton Station","admin3":"3509024"},{"geonameid":5888028,"name":"Atironto","admin3":"3509001"},{"geonameid":5891984,"name":"Balderson","admin3":"3509010"},{"geonameid":5898069,"name":"Bells Corners","admin3":"3509015"},{"geonameid":5899288,"name":"Beveridge Locks","admin3":"3509010"},{"geonameid":5903314,"name":"Blacks Corners","admin3":"3509024"},{"geonameid":5905271,"name":"Bolingbroke","admin3":"3509015"},{"geonameid":5906973,"name":"Boyds","admin3":"3509039"},{"geonameid":5908854,"name":"Brightside","admin3":"3509039"},{"geonameid":5909451,"name":"Brooke","admin3":"3509015"},{"geonameid":5911147,"name":"Bullock","admin3":"3509039"},{"geonameid":5913503,"name":"California","admin3":"3509039"},{"geonameid":5918805,"name":"Cedardale","admin3":"3509039"},{"geonameid":5921846,"name":"Christie Lake","admin3":"3509015"},{"geonameid":5924357,"name":"Clydesville","admin3":"3509039"},{"geonameid":5925183,"name":"Coleman's Shore","admin3":"3509024"},{"geonameid":5927132,"name":"Cooke's Shore","admin3":"3509010"},{"geonameid":5931558,"name":"Craig Shore","admin3":"3509010"},{"geonameid":5934669,"name":"Dalhousie Lake","admin3":"3509039"},{"geonameid":5938891,"name":"DeWitts Corners","admin3":"3509015"},{"geonameid":5942828,"name":"Drummond Centre","admin3":"3509010"},{"geonameid":5946302,"name":"Ebbs Shore","admin3":"3509010"},{"geonameid":5948034,"name":"Elmgrove","admin3":"3509010"},{"geonameid":5948116,"name":"Elphin","admin3":"3509039"},{"geonameid":5951239,"name":"Fallbrook","admin3":"3509015"},{"geonameid":5952290,"name":"Fergusons Falls","admin3":"3509010"},{"geonameid":5954965,"name":"Flower Station","admin3":"3509039"},{"geonameid":5955200,"name":"Folger","admin3":"3509039"},{"geonameid":5957987,"name":"French Line","admin3":"3509039"},{"geonameid":5961236,"name":"Gillies Corners","admin3":"3509024"},{"geonameid":5962093,"name":"Glen Tay","admin3":"3509015"},{"geonameid":5962107,"name":"Glenview","admin3":"3509010"},{"geonameid":5969619,"name":"Halls Mills","admin3":"3509039"},{"geonameid":5969636,"name":"Halpenny","admin3":"3509039"},{"geonameid":5971154,"name":"Harper","admin3":"3509015"},{"geonameid":5972778,"name":"Hay's Shore","admin3":"3509024"},{"geonameid":5974374,"name":"Herrons Mills","admin3":"3509039"},{"geonameid":5974831,"name":"High Falls","admin3":"3509039"},{"geonameid":5976575,"name":"Hood","admin3":"3509039"},{"geonameid":5986942,"name":"Joes Lake","admin3":"3509039"},{"geonameid":5991986,"name":"Kilmarnock","admin3":"3509001"},{"geonameid":6048621,"name":"Lake Park","admin3":"3509024"},{"geonameid":6049038,"name":"Lammermoor","admin3":"3509039"},{"geonameid":8556292,"name":"Lanark","admin3":"3509039"},{"geonameid":6049128,"name":"Lanark","admin3":"3509039"},{"geonameid":6050653,"name":"Lavant","admin3":"3509039"},{"geonameid":6050659,"name":"Lavant Station","admin3":"3509039"},{"geonameid":6058000,"name":"Lloyd","admin3":"3509039"},{"geonameid":6062527,"name":"Maberly","admin3":"3509015"},{"geonameid":6068755,"name":"McCann's Shore","admin3":"3509024"},{"geonameid":6069095,"name":"McCreary's Shore","admin3":"3509010"},{"geonameid":6069159,"name":"McCulloughs Landing","admin3":"3509010"},{"geonameid":6069212,"name":"McDiarmid's Shore","admin3":"3509024"},{"geonameid":6070972,"name":"McNaughton Shore","admin3":"3509010"},{"geonameid":6088926,"name":"Nolans Corners","admin3":"3509001"},{"geonameid":6091709,"name":"Numogate","admin3":"3509001"},{"geonameid":6103566,"name":"Petrie Shore","admin3":"3509024"},{"geonameid":6104980,"name":"Pine Grove","admin3":"3509039"},{"geonameid":6106269,"name":"Playfairville","admin3":"3509015"},{"geonameid":6111749,"name":"Port Elmsley","admin3":"3509010"},{"geonameid":6113165,"name":"Prestonvale","admin3":"3509010"},{"geonameid":6113687,"name":"Prospect","admin3":"3509024"},{"geonameid":6115337,"name":"Quinn Settlement","admin3":"3509039"},{"geonameid":6117336,"name":"Rathwell's Shore","admin3":"3509024"},{"geonameid":6122171,"name":"Rideau Ferry","admin3":"3509010"},{"geonameid":6125639,"name":"Robertson's Shore","admin3":"3509010"},{"geonameid":6127583,"name":"Rosedale","admin3":"3509001"},{"geonameid":6127750,"name":"Rosetta","admin3":"3509039"},{"geonameid":6142414,"name":"Scotch Corners","admin3":"3509024"},{"geonameid":6142439,"name":"Scotch Line","admin3":"3509015"},{"geonameid":6148264,"name":"Sinclair Shore","admin3":"3509024"},{"geonameid":6150174,"name":"Smiths Falls","admin3":""},{"geonameid":6155272,"name":"Stanleyville","admin3":"3509015"},{"geonameid":6161929,"name":"Tatlock","admin3":"3509039"},{"geonameid":6162834,"name":"Tennyson","admin3":"3509024"},{"geonameid":6178049,"name":"Wemyss","admin3":"3509015"}],"admin3":[{"geonameid":5897288,"name":"Beckwith","admin3":"3509024"},{"geonameid":5942838,"name":"Drummond/North Elmsley","admin3":"3509010"},{"geonameid":6049131,"name":"Lanark Highlands","admin3":"3509039"},{"geonameid":6076692,"name":"Montague","admin3":"3509001"},{"geonameid":6162257,"name":"Tay Valley","admin3":"3509015"}],"alternateNames":[]},"__N_SSG":true}