{"pageProps":{"locale":"en","admin2":{"geonameid":5077708,"name":"Saunders County","country":"US","admin1":"NE","admin2":"155","admin3":"","latitude":"41.2263700","longitude":"-96.6374000","localeAltName":null},"admin1":{"geonameid":5073708,"name":"Nebraska","admin1":"NE","localeAltName":"Nebraska"},"locations":[{"geonameid":5063229,"name":"Ashland","admin3":"02340","localeAltName":null},{"geonameid":5065296,"name":"Cedar Bluffs","admin3":"34755","localeAltName":null},{"geonameid":5065484,"name":"Ceresco","admin3":"41392","localeAltName":null},{"geonameid":5072838,"name":"Mead","admin3":"30590","localeAltName":null},{"geonameid":5081041,"name":"Valparaiso","admin3":"35315","localeAltName":null},{"geonameid":5081245,"name":"Wahoo","admin3":"50965","localeAltName":null},{"geonameid":5082363,"name":"Yutan","admin3":"49810","localeAltName":null}],"admin3":[{"geonameid":5063238,"name":"Township of Ashland","admin3":"02340","localeAltName":null},{"geonameid":5064400,"name":"Township of Bohemia","admin3":"05770"},{"geonameid":5065417,"name":"Township of Center","admin3":"08430"},{"geonameid":5065532,"name":"Township of Chapman","admin3":"08850"},{"geonameid":5065571,"name":"Township of Chester","admin3":"09060"},{"geonameid":5065855,"name":"Township of Clear Creek","admin3":"09410"},{"geonameid":5067127,"name":"Township of Douglas","admin3":"13540"},{"geonameid":5067544,"name":"Township of Elk","admin3":"14870"},{"geonameid":5069422,"name":"Township of Green","admin3":"20085"},{"geonameid":5071893,"name":"Township of Leshara","admin3":"26665"},{"geonameid":5072657,"name":"Township of Marble","admin3":"30555"},{"geonameid":5072669,"name":"Township of Marietta","admin3":"30590","localeAltName":null},{"geonameid":5072673,"name":"Township of Mariposa","admin3":"30695"},{"geonameid":5073386,"name":"Township of Morse Bluff","admin3":"32900"},{"geonameid":5073890,"name":"Township of Newman","admin3":"34195"},{"geonameid":5074052,"name":"Township of North Cedar","admin3":"34755","localeAltName":null},{"geonameid":5074275,"name":"Township of Oak Creek","admin3":"35315","localeAltName":null},{"geonameid":5075594,"name":"Township of Pohocco","admin3":"39625"},{"geonameid":5076225,"name":"Township of Richland","admin3":"41392","localeAltName":null},{"geonameid":5076408,"name":"Township of Rock Creek","admin3":"41900"},{"geonameid":5079176,"name":"Township of South Cedar","admin3":"45750"},{"geonameid":5079673,"name":"Township of Stocking","admin3":"47255"},{"geonameid":5080670,"name":"Township of Union","admin3":"49810","localeAltName":null},{"geonameid":5081259,"name":"City of Wahoo","admin3":"50965","localeAltName":null},{"geonameid":5081260,"name":"Township of Wahoo","admin3":"51000"}],"alternateNames":[{"alternatenameId":2124821,"geonameid":5073708,"isoLanguage":"en","alternateName":"Nebraska","isPreferredName":true,"isShortName":true,"isColloquial":false,"isHistoric":false}]},"__N_SSG":true}