{"pageProps":{"locale":"en","admin2":{"geonameid":2649889,"name":"Essex","country":"GB","admin1":"ENG","admin2":"E4","admin3":"","latitude":"51.8333300","longitude":"0.5833300","localeAltName":"Essex"},"admin1":{"geonameid":6269131,"name":"England","admin1":"ENG","localeAltName":"England"},"locations":[{"geonameid":2657880,"name":"Abberton"},{"geonameid":2657878,"name":"Abbess Roding"},{"geonameid":9072588,"name":"Abridge"},{"geonameid":11962029,"name":"Alphamstone"},{"geonameid":2657433,"name":"Alresford"},{"geonameid":2657417,"name":"Althorne"},{"geonameid":2657168,"name":"Ardleigh"},{"geonameid":2657079,"name":"Arkesden"},{"geonameid":2656964,"name":"Ashdon"},{"geonameid":2656962,"name":"Asheldham"},{"geonameid":2656961,"name":"Ashen"},{"geonameid":2656319,"name":"Barling"},{"geonameid":2656279,"name":"Barnston"},{"geonameid":2656194,"name":"Basildon"},{"geonameid":2656159,"name":"Battlesbridge"},{"geonameid":11550760,"name":"Beacon End"},{"geonameid":2655991,"name":"Belchamp Otten"},{"geonameid":2655990,"name":"Belchamp Saint Paul"},{"geonameid":12022672,"name":"Belchamp Walter"},{"geonameid":2655866,"name":"Berden"},{"geonameid":2655718,"name":"Bicknacre"},{"geonameid":2655672,"name":"Billericay"},{"geonameid":2655633,"name":"Birch"},{"geonameid":2655630,"name":"Birchanger"},{"geonameid":2655623,"name":"Birdbrook"},{"geonameid":9884702,"name":"Birds Green"},{"geonameid":2655460,"name":"Black Notley"},{"geonameid":2655466,"name":"Blackmore"},{"geonameid":2655295,"name":"Bobbingworth"},{"geonameid":2655292,"name":"Bocking Churchstreet"},{"geonameid":2655187,"name":"Boreham"},{"geonameid":2655174,"name":"Borley"},{"geonameid":2655065,"name":"Bowers Gifford"},{"geonameid":2655038,"name":"Boxted"},{"geonameid":2654997,"name":"Bradfield"},{"geonameid":11593104,"name":"Bradfield Heath"},{"geonameid":2654975,"name":"Bradwell"},{"geonameid":2654972,"name":"Bradwell on Sea"},{"geonameid":2654938,"name":"Braintree"},{"geonameid":2654782,"name":"Brentwood"},{"geonameid":2654711,"name":"Brightlingsea"},{"geonameid":2654550,"name":"Broomfield"},{"geonameid":2654477,"name":"Broxted"},{"geonameid":2654412,"name":"Buckhurst Hill"},{"geonameid":2654341,"name":"Bulmer"},{"geonameid":11593117,"name":"Bumble's Green"},{"geonameid":11962028,"name":"Bures Hamlet"},{"geonameid":2654270,"name":"Burnham-on-Crouch"},{"geonameid":2653896,"name":"Canewdon"},{"geonameid":7911271,"name":"Canvey Island"},{"geonameid":2653579,"name":"Castle Hedingham"},{"geonameid":2653348,"name":"Chappel"},{"geonameid":2653302,"name":"Chatley"},{"geonameid":2653266,"name":"Chelmsford"},{"geonameid":2653186,"name":"Chickney"},{"geonameid":2653178,"name":"Chigwell"},{"geonameid":2653138,"name":"Chipping Ongar"},{"geonameid":11592608,"name":"Chrishall"},{"geonameid":2652974,"name":"Clacton-on-Sea"},{"geonameid":9884697,"name":"Clatterford End"},{"geonameid":2652919,"name":"Clavering"},{"geonameid":2652640,"name":"Coggeshall"},{"geonameid":2652618,"name":"Colchester"},{"geonameid":2652605,"name":"Cold Norton"},{"geonameid":11592714,"name":"Colne Engaine"},{"geonameid":2652403,"name":"Copford"},{"geonameid":2652012,"name":"Cressing"},{"geonameid":2651532,"name":"Danbury"},{"geonameid":2651438,"name":"Debden"},{"geonameid":2651434,"name":"Dedham"},{"geonameid":2651379,"name":"Dengie"},{"geonameid":11593169,"name":"Doddinghurst"},{"geonameid":2651047,"name":"Dovercourt"},{"geonameid":2650550,"name":"Earls Colne"},{"geonameid":2650426,"name":"East Hanningfield"},{"geonameid":2650412,"name":"East Horndon"},{"geonameid":10627497,"name":"East Mersea"},{"geonameid":6693626,"name":"Eight Ash Green"},{"geonameid":11593175,"name":"Elmdon"},{"geonameid":7535951,"name":"Elmstead Market"},{"geonameid":2650059,"name":"Elsenham"},{"geonameid":2649963,"name":"Epping"},{"geonameid":2649960,"name":"Epping Green"},{"geonameid":2649659,"name":"Farnham"},{"geonameid":2649623,"name":"Faulkbourne"},{"geonameid":2649588,"name":"Feering"},{"geonameid":2649574,"name":"Felsted"},{"geonameid":2649442,"name":"Finchingfield"},{"geonameid":2649418,"name":"Fingringhoe"},{"geonameid":7115533,"name":"Ford End"},{"geonameid":2649230,"name":"Fordham"},{"geonameid":10345360,"name":"Foster Street"},{"geonameid":2649144,"name":"Foulness"},{"geonameid":2649049,"name":"Frinton-on-Sea"},{"geonameid":2649060,"name":"Fryerning"},{"geonameid":2648971,"name":"Fyfield"},{"geonameid":2648918,"name":"Galleywood"},{"geonameid":2648711,"name":"Gestingthorpe"},{"geonameid":2648347,"name":"Goldhanger"},{"geonameid":2648335,"name":"Good Easter"},{"geonameid":2648278,"name":"Gosfield"},{"geonameid":6690801,"name":"Grange Hill"},{"geonameid":2648171,"name":"Great Baddow"},{"geonameid":2648169,"name":"Great Bardfield"},{"geonameid":2648162,"name":"Great Bentley"},{"geonameid":2648152,"name":"Great Braxted"},{"geonameid":2648146,"name":"Great Bromley"},{"geonameid":2648143,"name":"Great Burstead"},{"geonameid":2648142,"name":"Great Canfield"},{"geonameid":2648136,"name":"Great Chesterford"},{"geonameid":2648134,"name":"Great Clacton"},{"geonameid":2648117,"name":"Great Dunmow"},{"geonameid":2648116,"name":"Great Easton"},{"geonameid":2648091,"name":"Great Hallingbury"},{"geonameid":2648080,"name":"Great Holland"},{"geonameid":2648079,"name":"Great Horkesley"},{"geonameid":2648069,"name":"Great Leighs"},{"geonameid":2648062,"name":"Great Maplestead"},{"geonameid":2648049,"name":"Great Oakley"},{"geonameid":2648039,"name":"Great Parndon"},{"geonameid":2648029,"name":"Great Saling"},{"geonameid":2648027,"name":"Great Sampford"},{"geonameid":2648005,"name":"Great Tey"},{"geonameid":2648003,"name":"Great Totham"},{"geonameid":2648000,"name":"Great Wakering"},{"geonameid":2647998,"name":"Great Waltham"},{"geonameid":2647997,"name":"Great Warley Street"},{"geonameid":2647993,"name":"Great Wigborough"},{"geonameid":2647983,"name":"Great Yeldham"},{"geonameid":2647941,"name":"Greensted"},{"geonameid":2647679,"name":"Hadleigh"},{"geonameid":2647672,"name":"Hadstock"},{"geonameid":2647604,"name":"Halstead"},{"geonameid":2647461,"name":"Harlow"},{"geonameid":2647383,"name":"Harwich"},{"geonameid":8299274,"name":"Hastingwood"},{"geonameid":2647346,"name":"Hatfield Broad Oak"},{"geonameid":2647345,"name":"Hatfield Heath"},{"geonameid":2647343,"name":"Hatfield Peverel"},{"geonameid":2647282,"name":"Hawkwell"},{"geonameid":12031851,"name":"Hazeleigh"},{"geonameid":11550757,"name":"Heckfordbridge"},{"geonameid":2647173,"name":"Helion Bumpstead"},{"geonameid":2647125,"name":"Hempstead"},{"geonameid":2647106,"name":"Henham"},{"geonameid":8063658,"name":"Herongate"},{"geonameid":2647005,"name":"Heybridge"},{"geonameid":2646969,"name":"High Easter"},{"geonameid":2646936,"name":"High Ongar"},{"geonameid":2646931,"name":"High Roding"},{"geonameid":2646987,"name":"Higham"},{"geonameid":2646815,"name":"Hockley"},{"geonameid":2644312,"name":"Holland-on-Sea"},{"geonameid":12207128,"name":"Hullbridge"},{"geonameid":2646341,"name":"Hutton"},{"geonameid":2646219,"name":"Ingatestone"},{"geonameid":2646198,"name":"Ingrave"},{"geonameid":2646071,"name":"Inworth"},{"geonameid":11875837,"name":"Jaywick"},{"geonameid":2645841,"name":"Kelvedon"},{"geonameid":2645840,"name":"Kelvedon Hatch"},{"geonameid":2645340,"name":"Kirby Cross"},{"geonameid":11669855,"name":"Kirby-le-Soken"},{"geonameid":2645032,"name":"Laindon"},{"geonameid":2645012,"name":"Lamarsh"},{"geonameid":2644942,"name":"Langdon Hills"},{"geonameid":2644938,"name":"Langford"},{"geonameid":2644923,"name":"Langley"},{"geonameid":2644829,"name":"Latchingdon and Snoreham"},{"geonameid":2644791,"name":"Lawford"},{"geonameid":2644771,"name":"Layer de la Haye"},{"geonameid":2644770,"name":"Layer Marney"},{"geonameid":11593319,"name":"Leaden Roding"},{"geonameid":2644549,"name":"Lexden"},{"geonameid":2644474,"name":"Lindsell"},{"geonameid":2644394,"name":"Liston"},{"geonameid":2644379,"name":"Little Baddow"},{"geonameid":2644373,"name":"Little Bentley"},{"geonameid":12188584,"name":"Little Braxted"},{"geonameid":2644362,"name":"Little Bromley"},{"geonameid":2644360,"name":"Little Burstead"},{"geonameid":2644357,"name":"Little Canfield"},{"geonameid":2644351,"name":"Little Chesterford"},{"geonameid":2644350,"name":"Little Clacton"},{"geonameid":2644334,"name":"Little Dunmow"},{"geonameid":7280721,"name":"Little Easton"},{"geonameid":6693510,"name":"Little Hallingbury"},{"geonameid":2644278,"name":"Little Oakley"},{"geonameid":11550755,"name":"Little Parndon"},{"geonameid":11593327,"name":"Little Totham"},{"geonameid":2644232,"name":"Little Wakering"},{"geonameid":2644231,"name":"Little Walden"},{"geonameid":2644229,"name":"Little Waltham"},{"geonameid":2644228,"name":"Little Warley"},{"geonameid":2644221,"name":"Little Wigborough"},{"geonameid":2644359,"name":"Littlebury"},{"geonameid":2643558,"name":"Loughton"},{"geonameid":2643160,"name":"Maldon"},{"geonameid":2643107,"name":"Manningtree"},{"geonameid":2643088,"name":"Manuden"},{"geonameid":2643046,"name":"Margaret Roding"},{"geonameid":2643045,"name":"Margaretting"},{"geonameid":2643012,"name":"Marks Tey"},{"geonameid":2643013,"name":"Markshall"},{"geonameid":2642917,"name":"Matching"},{"geonameid":2642874,"name":"Mayland"},{"geonameid":2642698,"name":"Messing"},{"geonameid":2642602,"name":"Middle Street"},{"geonameid":2642600,"name":"Middleton"},{"geonameid":2642541,"name":"Mile End"},{"geonameid":9884701,"name":"Millers Green"},{"geonameid":2642416,"name":"Mistley"},{"geonameid":2642205,"name":"Moreton"},{"geonameid":2642112,"name":"Mount Bures"},{"geonameid":2642102,"name":"Mountnessing"},{"geonameid":2641964,"name":"Mundon"},{"geonameid":2641856,"name":"Navestock"},{"geonameid":2641847,"name":"Nazeing"},{"geonameid":2641748,"name":"Nevendon"},{"geonameid":2641597,"name":"Newport"},{"geonameid":2641357,"name":"North Fambridge"},{"geonameid":2641229,"name":"North Weald"},{"geonameid":2641188,"name":"Norton Heath"},{"geonameid":9973409,"name":"Norton Mandeville"},{"geonameid":11788280,"name":"Old Harlow"},{"geonameid":2640753,"name":"Ovington"},{"geonameid":2640655,"name":"Panfield"},{"geonameid":2640612,"name":"Parkeston"},{"geonameid":2640564,"name":"Pattiswick"},{"geonameid":2640532,"name":"Pebmarsh"},{"geonameid":2640513,"name":"Peldon"},{"geonameid":2640246,"name":"Pitsea"},{"geonameid":2640216,"name":"Pleshey"},{"geonameid":2639968,"name":"Potter Street"},{"geonameid":2639843,"name":"Purleigh"},{"geonameid":2639780,"name":"Quendon"},{"geonameid":2639711,"name":"Radwinter"},{"geonameid":2639665,"name":"Ramsey"},{"geonameid":2639587,"name":"Rawreth"},{"geonameid":2639583,"name":"Rayleigh"},{"geonameid":2639582,"name":"Rayne"},{"geonameid":2639477,"name":"Rettendon"},{"geonameid":6693237,"name":"Rickling Green"},{"geonameid":2639372,"name":"Ridgewell"},{"geonameid":2639302,"name":"Rivenhall"},{"geonameid":6693221,"name":"Rivenhall End"},{"geonameid":2639265,"name":"Rochford"},{"geonameid":2639045,"name":"Rowhedge"},{"geonameid":2639028,"name":"Roxwell"},{"geonameid":2639020,"name":"Roydon"},{"geonameid":2638878,"name":"Saffron Walden"},{"geonameid":2638760,"name":"Saint Lawrence"},{"geonameid":2638708,"name":"Saint Osyth"},{"geonameid":2638679,"name":"Salcott"},{"geonameid":11592731,"name":"Sewards End"},{"geonameid":2638149,"name":"Shalford"},{"geonameid":2638082,"name":"Sheering"},{"geonameid":9973411,"name":"Shelley"},{"geonameid":2638053,"name":"Shenfield"},{"geonameid":2637871,"name":"Sible Hedingham"},{"geonameid":6694284,"name":"Silver End"},{"geonameid":2637476,"name":"South Benfleet"},{"geonameid":2637413,"name":"South Hanningfield"},{"geonameid":11887254,"name":"South Weald"},{"geonameid":11592769,"name":"South Woodham Ferrers"},{"geonameid":2637374,"name":"Southminster"},{"geonameid":6693125,"name":"Springfield"},{"geonameid":2637105,"name":"Stambourne"},{"geonameid":2637083,"name":"Stanford Rivers"},{"geonameid":2637052,"name":"Stansted Mountfitchet"},{"geonameid":11550758,"name":"Stanway"},{"geonameid":2637020,"name":"Stapleford Abbots"},{"geonameid":2637019,"name":"Stapleford Tawney"},{"geonameid":2636981,"name":"Stebbing"},{"geonameid":2636971,"name":"Steeple"},{"geonameid":2636968,"name":"Steeple Bumpstead"},{"geonameid":2636908,"name":"Stisted"},{"geonameid":2636896,"name":"Stock"},{"geonameid":11593453,"name":"Stondon Massey"},{"geonameid":2636662,"name":"Strethall"},{"geonameid":2636585,"name":"Sturmer"},{"geonameid":2636502,"name":"Sutton"},{"geonameid":2636315,"name":"Takeley"},{"geonameid":11593465,"name":"Takeley Street"},{"geonameid":2636097,"name":"Terling"},{"geonameid":2636047,"name":"Thaxted"},{"geonameid":9257710,"name":"The Downs"},{"geonameid":9884700,"name":"The Village Willingale"},{"geonameid":2636031,"name":"Theydon Bois"},{"geonameid":2635950,"name":"Thorpe le Soken"},{"geonameid":2635940,"name":"Thorrington"},{"geonameid":2635902,"name":"Thundersley"},{"geonameid":2635835,"name":"Tilbury Juxta Clare"},{"geonameid":2635826,"name":"Tillingham"},{"geonameid":2635808,"name":"Tilty"},{"geonameid":2635783,"name":"Tiptree"},{"geonameid":10277746,"name":"Tiptree Heath"},{"geonameid":2635720,"name":"Tollesbury"},{"geonameid":2635719,"name":"Tolleshunt D’Arcy"},{"geonameid":2635718,"name":"Tolleshunt Knights"},{"geonameid":2635717,"name":"Tolleshunt Major"},{"geonameid":2635681,"name":"Toppesfield"},{"geonameid":2635223,"name":"Ugley"},{"geonameid":6690800,"name":"Upshire"},{"geonameid":2635015,"name":"Vange"},{"geonameid":2634949,"name":"Virley"},{"geonameid":2634843,"name":"Waltham Abbey"},{"geonameid":2634841,"name":"Waltham Holy Cross"},{"geonameid":2634826,"name":"Walton-on-the-Naze"},{"geonameid":2634608,"name":"Weeley"},{"geonameid":2634541,"name":"Wendens Ambo"},{"geonameid":2634499,"name":"West Bergholt"},{"geonameid":2634400,"name":"West Hanningfield"},{"geonameid":2634345,"name":"West Mersea"},{"geonameid":2634212,"name":"Wethersfield"},{"geonameid":2634066,"name":"White Notley"},{"geonameid":2634063,"name":"White Roding"},{"geonameid":2633979,"name":"Wicken Bonhunt"},{"geonameid":2633976,"name":"Wickford"},{"geonameid":2633973,"name":"Wickham Bishops"},{"geonameid":2633963,"name":"Widdington"},{"geonameid":2633957,"name":"Widford"},{"geonameid":2633902,"name":"Willingale Doe"},{"geonameid":2633867,"name":"Wimbish"},{"geonameid":2633749,"name":"Witham"},{"geonameid":9884699,"name":"Witney Green"},{"geonameid":2633717,"name":"Wivenhoe"},{"geonameid":2633715,"name":"Wix"},{"geonameid":2633649,"name":"Woodham Ferrers"},{"geonameid":2633647,"name":"Woodham Mortimer"},{"geonameid":2633541,"name":"Wormingford"},{"geonameid":2633506,"name":"Wrabness"},{"geonameid":2633481,"name":"Writtle"}],"admin3":[{"geonameid":2639266,"name":"Rochford","admin3":"22UL"},{"geonameid":7290541,"name":"Chelmsford District","admin3":"22UF"},{"geonameid":7290542,"name":"Colchester District","admin3":"22UG"},{"geonameid":7290543,"name":"Epping Forest District","admin3":"22UH"},{"geonameid":7290544,"name":"Harlow District","admin3":"22UJ"},{"geonameid":7290545,"name":"Maldon District","admin3":"22UK"},{"geonameid":7290546,"name":"Tendring District","admin3":"22UN"},{"geonameid":7290547,"name":"Uttlesford District","admin3":"22UQ"},{"geonameid":7290689,"name":"Basildon District","admin3":"22UB"},{"geonameid":7290690,"name":"Braintree District","admin3":"22UC"},{"geonameid":7290691,"name":"Brentwood District","admin3":"22UD"},{"geonameid":7290692,"name":"Castle Point District","admin3":"22UE"}],"alternateNames":[{"alternatenameId":2254279,"geonameid":2649889,"isoLanguage":"en","alternateName":"Essex","isPreferredName":true,"isShortName":true,"isColloquial":false,"isHistoric":false},{"alternatenameId":1626647,"geonameid":6269131,"isoLanguage":"en","alternateName":"England","isPreferredName":true,"isShortName":true,"isColloquial":false,"isHistoric":false}]},"__N_SSG":true}