{"pageProps":{"locale":"ro","admin2":{"geonameid":675815,"name":"Comuna Iara","country":"RO","admin1":"13","admin2":"58008","admin3":"","latitude":"46.5426800","longitude":"23.5274900"},"admin1":{"geonameid":681291,"name":"Cluj","admin1":"13"},"locations":[{"geonameid":686609,"name":"Agriș","admin3":""},{"geonameid":684166,"name":"Boroşoaia","admin3":""},{"geonameid":684133,"name":"Borzești","admin3":""},{"geonameid":683206,"name":"Buru","admin3":""},{"geonameid":683069,"name":"Cacova Ierii","admin3":""},{"geonameid":678470,"name":"Făgetu Ierii","admin3":""},{"geonameid":675817,"name":"Iara","admin3":""},{"geonameid":675103,"name":"La Curătură","admin3":""},{"geonameid":674448,"name":"Lunca","admin3":""},{"geonameid":674314,"name":"Lungeşti","admin3":""},{"geonameid":674312,"name":"Lungeştii Surducului","admin3":""},{"geonameid":674125,"name":"Măgura Ierii","admin3":""},{"geonameid":673710,"name":"Mașca","admin3":""},{"geonameid":672005,"name":"Ocolișel","admin3":""},{"geonameid":665731,"name":"Surduc","admin3":""},{"geonameid":663934,"name":"Valea Agrișului","admin3":""},{"geonameid":663324,"name":"Valea Vadului","admin3":""}],"admin3":[],"alternateNames":[]},"__N_SSG":true}