{"pageProps":{"locale":"en","admin2":{"geonameid":4276754,"name":"Osage County","country":"US","admin1":"KS","admin2":"139","admin3":"","latitude":"38.6523300","longitude":"-95.7269500","localeAltName":null},"admin1":{"geonameid":4273857,"name":"Kansas","admin1":"KS","localeAltName":"Kansas"},"locations":[{"geonameid":4268851,"name":"Burlingame","admin3":"09375","localeAltName":null},{"geonameid":4269076,"name":"Carbondale","admin3":"59825","localeAltName":null},{"geonameid":4274906,"name":"Lyndon","admin3":"73200","localeAltName":null},{"geonameid":4276747,"name":"Osage City","admin3":"53200","localeAltName":null},{"geonameid":4276871,"name":"Overbrook","admin3":"20175","localeAltName":null},{"geonameid":4279118,"name":"Scranton","admin3":"63700","localeAltName":null},{"geonameid":4280969,"name":"Vassar","admin3":"35725","localeAltName":null}],"admin3":[{"geonameid":4267408,"name":"Township of Agency","admin3":"00450"},{"geonameid":4267687,"name":"Township of Arvonia","admin3":"02550"},{"geonameid":4267909,"name":"Township of Barclay","admin3":"04175"},{"geonameid":4268853,"name":"Township of Burlingame","admin3":"09375","localeAltName":null},{"geonameid":4270484,"name":"Township of Dragoon","admin3":"18575"},{"geonameid":4270919,"name":"Township of Elk","admin3":"20175","localeAltName":null},{"geonameid":4271244,"name":"Township of Fairfax","admin3":"22150"},{"geonameid":4272310,"name":"Township of Grant","admin3":"27850"},{"geonameid":4273687,"name":"Township of Junction","admin3":"35725","localeAltName":null},{"geonameid":4274505,"name":"Township of Lincoln","admin3":"40925"},{"geonameid":4275336,"name":"Township of Melvern","admin3":"45725"},{"geonameid":4276675,"name":"Township of Olivet","admin3":"52725"},{"geonameid":4276746,"name":"City of Osage City","admin3":"53200","localeAltName":null},{"geonameid":4278052,"name":"Township of Ridgeway","admin3":"59825","localeAltName":null},{"geonameid":4279122,"name":"Township of Scranton","admin3":"63700","localeAltName":null},{"geonameid":4280231,"name":"Township of Superior","admin3":"69500"},{"geonameid":4280907,"name":"Township of Valley Brook","admin3":"73200","localeAltName":null}],"alternateNames":[{"alternatenameId":2080124,"geonameid":4273857,"isoLanguage":"en","alternateName":"Kansas","isPreferredName":true,"isShortName":true,"isColloquial":false,"isHistoric":false}]},"__N_SSG":true}