{"pageProps":{"locale":"en","admin2":{"geonameid":4501427,"name":"Cumberland County","country":"US","admin1":"NJ","admin2":"011","admin3":"","latitude":"39.3280700","longitude":"-75.1293400"},"admin1":{"geonameid":5101760,"name":"New Jersey","admin1":"NJ","localeAltName":"New Jersey"},"locations":[{"geonameid":4500942,"name":"Bridgeton","admin3":"07600"},{"geonameid":4501732,"name":"Fairton","admin3":"22350"},{"geonameid":4502621,"name":"Laurel Lake","admin3":"46680"},{"geonameid":4503078,"name":"Millville","admin3":"46680"},{"geonameid":4503681,"name":"Port Norris","admin3":"14710"},{"geonameid":4503816,"name":"Rosenhayn","admin3":"16900"},{"geonameid":4504007,"name":"Seabrook Farms","admin3":"74870"},{"geonameid":4504225,"name":"South Vineland","admin3":"76070"},{"geonameid":4504621,"name":"Vineland","admin3":"76070"}],"admin3":[{"geonameid":4500918,"name":"City of Bridgeton","admin3":"07600"},{"geonameid":4501330,"name":"Township of Commercial","admin3":"14710"},{"geonameid":4501485,"name":"Township of Deerfield","admin3":"16900"},{"geonameid":4501555,"name":"Township of Downe","admin3":"18220"},{"geonameid":4501745,"name":"Township of Fairfield","admin3":"22350"},{"geonameid":4502055,"name":"Township of Greenwich","admin3":"28170"},{"geonameid":4502298,"name":"Township of Hopewell","admin3":"33120"},{"geonameid":4502647,"name":"Township of Lawrence","admin3":"39450"},{"geonameid":4502956,"name":"Township of Maurice River","admin3":"44580"},{"geonameid":4503080,"name":"City of Millville","admin3":"46680"},{"geonameid":4504093,"name":"Borough of Shiloh","admin3":"67020"},{"geonameid":4504330,"name":"Township of Stow Creek","admin3":"71160"},{"geonameid":4504592,"name":"Township of Upper Deerfield","admin3":"74870"},{"geonameid":4504627,"name":"City of Vineland","admin3":"76070"}],"alternateNames":[{"alternatenameId":2089555,"geonameid":5101760,"isoLanguage":"en","alternateName":"New Jersey","isPreferredName":true,"isShortName":true,"isColloquial":false,"isHistoric":false}]},"__N_SSG":true}