{"pageProps":{"locale":"en","admin2":{"geonameid":5097707,"name":"Essex County","country":"US","admin1":"NJ","admin2":"013","admin3":"","latitude":"40.7870700","longitude":"-74.2468700"},"admin1":{"geonameid":5101760,"name":"New Jersey","admin1":"NJ","localeAltName":"New Jersey"},"locations":[{"geonameid":5095549,"name":"Belleville","admin3":"04695"},{"geonameid":5095779,"name":"Bloomfield","admin3":"06260"},{"geonameid":5096049,"name":"Brookdale","admin3":"06260"},{"geonameid":5096133,"name":"Caldwell","admin3":"09250"},{"geonameid":5096371,"name":"Cedar Grove","admin3":"11200"},{"geonameid":5097441,"name":"East Orange","admin3":"19390"},{"geonameid":5097718,"name":"Essex Fells","admin3":"21840"},{"geonameid":5097778,"name":"Fairfield","admin3":"22385"},{"geonameid":5098430,"name":"Glen Ridge","admin3":"26610"},{"geonameid":5099724,"name":"Irvington","admin3":"34450"},{"geonameid":5100572,"name":"Livingston","admin3":"40890"},{"geonameid":5100854,"name":"Maplewood","admin3":"43800"},{"geonameid":5101334,"name":"Montclair","admin3":"47500"},{"geonameid":5101798,"name":"Newark","admin3":"51000"},{"geonameid":5101901,"name":"North Caldwell","admin3":"52620"},{"geonameid":5101962,"name":"Northfield","admin3":"40890"},{"geonameid":5102076,"name":"Nutley","admin3":"53680"},{"geonameid":5102213,"name":"Orange","admin3":"13045"},{"geonameid":5103497,"name":"Roseland","admin3":"64590"},{"geonameid":5104630,"name":"Short Hills","admin3":"46380"},{"geonameid":5104836,"name":"South Orange","admin3":"69274"},{"geonameid":5105722,"name":"Upper Montclair","admin3":"47500"},{"geonameid":5105809,"name":"Verona","admin3":"75815"},{"geonameid":5106298,"name":"West Orange","admin3":"79800"},{"geonameid":5106350,"name":"Westville","admin3":"78510"}],"admin3":[{"geonameid":5095556,"name":"Township of Belleville","admin3":"04695"},{"geonameid":5095785,"name":"Township of Bloomfield","admin3":"06260"},{"geonameid":5096380,"name":"Township of Cedar Grove","admin3":"11200"},{"geonameid":5096639,"name":"Township of City of Orange","admin3":"13045"},{"geonameid":5097456,"name":"City of East Orange","admin3":"19390"},{"geonameid":5097782,"name":"Township of Fairfield","admin3":"22385"},{"geonameid":5099735,"name":"Township of Irvington","admin3":"34450"},{"geonameid":5100580,"name":"Township of Livingston","admin3":"40890"},{"geonameid":5100853,"name":"Township of Maplewood","admin3":"43800"},{"geonameid":5101222,"name":"Township of Millburn","admin3":"46380"},{"geonameid":5101348,"name":"Township of Montclair","admin3":"47500"},{"geonameid":5101815,"name":"City of Newark","admin3":"51000"},{"geonameid":5101902,"name":"Borough of North Caldwell","admin3":"52620"},{"geonameid":5102081,"name":"Township of Nutley","admin3":"53680"},{"geonameid":5103499,"name":"Borough of Roseland","admin3":"64590"},{"geonameid":5104840,"name":"Township of South Orange Village","admin3":"69274"},{"geonameid":5105815,"name":"Township of Verona","admin3":"75815"},{"geonameid":5106240,"name":"Township of West Caldwell","admin3":"78510"},{"geonameid":5106301,"name":"Township of West Orange","admin3":"79800"},{"geonameid":7161250,"name":"Borough of Caldwell","admin3":"09250"},{"geonameid":7161414,"name":"Borough of Essex Fells","admin3":"21840"},{"geonameid":7161415,"name":"Borough of Glen Ridge","admin3":"26610"}],"alternateNames":[{"alternatenameId":2089555,"geonameid":5101760,"isoLanguage":"en","alternateName":"New Jersey","isPreferredName":true,"isShortName":true,"isColloquial":false,"isHistoric":false}]},"__N_SSG":true}