{"pageProps":{"locale":"en","admin2":{"geonameid":5101405,"name":"Morris County","country":"US","admin1":"NJ","admin2":"027","admin3":"","latitude":"40.8620300","longitude":"-74.5444400"},"admin1":{"geonameid":5101760,"name":"New Jersey","admin1":"NJ","localeAltName":"New Jersey"},"locations":[{"geonameid":5095826,"name":"Boonton","admin3":"06610"},{"geonameid":5096057,"name":"Budd Lake","admin3":"49080"},{"geonameid":5096100,"name":"Butler","admin3":"09040"},{"geonameid":5096495,"name":"Chatham","admin3":"12100"},{"geonameid":5096523,"name":"Chester","admin3":"12580"},{"geonameid":5097239,"name":"Denville","admin3":"17650"},{"geonameid":5097315,"name":"Dover","admin3":"18070"},{"geonameid":5097421,"name":"East Hanover","admin3":"19210"},{"geonameid":5098095,"name":"Florham Park","admin3":"23910"},{"geonameid":5098805,"name":"Hanover","admin3":"19210"},{"geonameid":5100001,"name":"Kenvil","admin3":"64980"},{"geonameid":5100062,"name":"Kinnelon","admin3":"37110"},{"geonameid":5100155,"name":"Lake Hiawatha","admin3":"56460"},{"geonameid":5100158,"name":"Lake Hopatcong","admin3":"34980"},{"geonameid":5100246,"name":"Lake Telemark","admin3":"64080"},{"geonameid":5100308,"name":"Landing","admin3":"64980"},{"geonameid":5100477,"name":"Lincoln Park","admin3":"40290"},{"geonameid":5100640,"name":"Long Valley","admin3":"77240"},{"geonameid":5100748,"name":"Madison","admin3":"42510"},{"geonameid":5101073,"name":"Mendham","admin3":"45330"},{"geonameid":5101417,"name":"Morris Plains","admin3":"48090"},{"geonameid":5101427,"name":"Morristown","admin3":"48300"},{"geonameid":5101459,"name":"Mount Arlington","admin3":"48690"},{"geonameid":5101585,"name":"Mountain Lakes","admin3":"48480"},{"geonameid":5101701,"name":"Netcong","admin3":"50130"},{"geonameid":5102427,"name":"Parsippany","admin3":"56460"},{"geonameid":8469295,"name":"Randolph","admin3":"61890"},{"geonameid":5103313,"name":"Riverdale","admin3":"63300"},{"geonameid":5103396,"name":"Rockaway","admin3":"64050"},{"geonameid":5105113,"name":"Succasunna","admin3":"64980"},{"geonameid":5105831,"name":"Victory Gardens","admin3":"75890"},{"geonameid":5106361,"name":"Wharton","admin3":"80390"},{"geonameid":5106365,"name":"Whippany","admin3":"29550"},{"geonameid":5106379,"name":"White Meadow Lake","admin3":"64080"}],"admin3":[{"geonameid":4833062,"name":"Township of Mendham","admin3":"45360"},{"geonameid":5095830,"name":"Town of Boonton","admin3":"06610"},{"geonameid":5095831,"name":"Township of Boonton","admin3":"06640"},{"geonameid":5096107,"name":"Borough of Butler","admin3":"09040"},{"geonameid":5096502,"name":"Borough of Chatham","admin3":"12100"},{"geonameid":5096503,"name":"Township of Chatham","admin3":"12130"},{"geonameid":5096527,"name":"Borough of Chester","admin3":"12580"},{"geonameid":5096528,"name":"Township of Chester","admin3":"12610"},{"geonameid":5097240,"name":"Township of Denville","admin3":"17650"},{"geonameid":5097307,"name":"Town of Dover","admin3":"18070"},{"geonameid":5097423,"name":"Township of East Hanover","admin3":"19210"},{"geonameid":5098096,"name":"Borough of Florham Park","admin3":"23910"},{"geonameid":5098810,"name":"Township of Hanover","admin3":"29550"},{"geonameid":5098815,"name":"Township of Harding","admin3":"29700"},{"geonameid":5099826,"name":"Township of Jefferson","admin3":"34980"},{"geonameid":5100066,"name":"Borough of Kinnelon","admin3":"37110"},{"geonameid":5100483,"name":"Borough of Lincoln Park","admin3":"40290"},{"geonameid":5100625,"name":"Township of Long Hill","admin3":"41362"},{"geonameid":5100767,"name":"Borough of Madison","admin3":"42510"},{"geonameid":5101079,"name":"Borough of Mendham","admin3":"45330"},{"geonameid":5101267,"name":"Township of Mine Hill","admin3":"46860"},{"geonameid":5101369,"name":"Township of Montville","admin3":"47670"},{"geonameid":5101422,"name":"Borough of Morris Plains","admin3":"48210"},{"geonameid":5101425,"name":"Township of Morris","admin3":"48090"},{"geonameid":5101436,"name":"Town of Morristown","admin3":"48300"},{"geonameid":5101461,"name":"Borough of Mount Arlington","admin3":"48690"},{"geonameid":5101527,"name":"Township of Mount Olive","admin3":"49080"},{"geonameid":5101587,"name":"Borough of Mountain Lakes","admin3":"48480"},{"geonameid":5101703,"name":"Borough of Netcong","admin3":"50130"},{"geonameid":5102430,"name":"Township of Parsippany-Troy Hills","admin3":"56460"},{"geonameid":5102564,"name":"Township of Pequannock","admin3":"58110"},{"geonameid":5103111,"name":"Township of Randolph","admin3":"61890"},{"geonameid":5103317,"name":"Borough of Riverdale","admin3":"63300"},{"geonameid":5103407,"name":"Borough of Rockaway","admin3":"64050"},{"geonameid":5103408,"name":"Township of Rockaway","admin3":"64080"},{"geonameid":5103543,"name":"Township of Roxbury","admin3":"64980"},{"geonameid":5105832,"name":"Borough of Victory Gardens","admin3":"75890"},{"geonameid":5106124,"name":"Township of Washington","admin3":"77240"},{"geonameid":5106362,"name":"Borough of Wharton","admin3":"80390"}],"alternateNames":[{"alternatenameId":2089555,"geonameid":5101760,"isoLanguage":"en","alternateName":"New Jersey","isPreferredName":true,"isShortName":true,"isColloquial":false,"isHistoric":false}]},"__N_SSG":true}