{"pageProps":{"locale":"en","admin2":{"geonameid":5105168,"name":"Sussex County","country":"US","admin1":"NJ","admin2":"037","admin3":"","latitude":"41.1394600","longitude":"-74.6902300"},"admin1":{"geonameid":5101760,"name":"New Jersey","admin1":"NJ","localeAltName":"New Jersey"},"locations":[{"geonameid":5097014,"name":"Crandon Lakes","admin3":"29490"},{"geonameid":5098214,"name":"Franklin","admin3":"24930"},{"geonameid":5098760,"name":"Hamburg","admin3":"29220"},{"geonameid":5099052,"name":"Highland Lake","admin3":"75740"},{"geonameid":5099289,"name":"Hopatcong","admin3":"32910"},{"geonameid":5099292,"name":"Hopatcong Hills","admin3":"32910"},{"geonameid":5100190,"name":"Lake Mohawk","admin3":"69690"},{"geonameid":5101848,"name":"Newton","admin3":"51930"},{"geonameid":5102153,"name":"Ogdensburg","admin3":"54660"},{"geonameid":5104882,"name":"Sparta","admin3":"69690"},{"geonameid":5104986,"name":"Stanhope","admin3":"70380"},{"geonameid":5105164,"name":"Sussex","admin3":"71670"},{"geonameid":7315300,"name":"Vernon Center","admin3":"75740"},{"geonameid":5105867,"name":"Vernon Valley","admin3":"75740"}],"admin3":[{"geonameid":5095199,"name":"Borough of Andover","admin3":"01330"},{"geonameid":5095200,"name":"Township of Andover","admin3":"01360"},{"geonameid":5095917,"name":"Borough of Branchville","admin3":"07300"},{"geonameid":5096119,"name":"Township of Byram","admin3":"09160"},{"geonameid":5098209,"name":"Township of Frankford","admin3":"24810"},{"geonameid":5098260,"name":"Borough of Franklin","admin3":"24930"},{"geonameid":5098269,"name":"Township of Fredon","admin3":"25140"},{"geonameid":5098634,"name":"Township of Green","admin3":"27420"},{"geonameid":5098763,"name":"Borough of Hamburg","admin3":"29220"},{"geonameid":5098792,"name":"Township of Hampton","admin3":"29490"},{"geonameid":5098822,"name":"Township of Hardyston","admin3":"29850"},{"geonameid":5099295,"name":"Borough of Hopatcong","admin3":"32910"},{"geonameid":5100126,"name":"Township of Lafayette","admin3":"37440"},{"geonameid":5101331,"name":"Township of Montague","admin3":"47430"},{"geonameid":5101842,"name":"Town of Newton","admin3":"51930"},{"geonameid":5102155,"name":"Borough of Ogdensburg","admin3":"54660"},{"geonameid":5104387,"name":"Township of Sandyston","admin3":"65700"},{"geonameid":5104891,"name":"Township of Sparta","admin3":"69690"},{"geonameid":5104989,"name":"Borough of Stanhope","admin3":"70380"},{"geonameid":5105043,"name":"Township of Stillwater","admin3":"70890"},{"geonameid":5105171,"name":"Borough of Sussex","admin3":"71670"},{"geonameid":5105807,"name":"Township of Vernon","admin3":"75740"},{"geonameid":5106000,"name":"Township of Walpack","admin3":"76640"},{"geonameid":5106029,"name":"Township of Wantage","admin3":"76790"}],"alternateNames":[{"alternatenameId":2089555,"geonameid":5101760,"isoLanguage":"en","alternateName":"New Jersey","isPreferredName":true,"isShortName":true,"isColloquial":false,"isHistoric":false}]},"__N_SSG":true}