{"pageProps":{"locale":"ro","admin2":{"geonameid":684152,"name":"Oraş Borşa","country":"RO","admin1":"25","admin2":"106746","admin3":"","latitude":"47.6696500","longitude":"24.6884600"},"admin1":{"geonameid":673887,"name":"Maramureş","admin1":"25"},"locations":[{"geonameid":685802,"name":"Băile Borșa","admin3":""},{"geonameid":684740,"name":"Birt","admin3":""},{"geonameid":684540,"name":"Bobeica","admin3":""},{"geonameid":684156,"name":"Borşa","admin3":""},{"geonameid":684151,"name":"Borşa-Baia","admin3":""},{"geonameid":684148,"name":"Borşa-Handal","admin3":""},{"geonameid":684145,"name":"Borşa-Poeni","admin3":""},{"geonameid":684144,"name":"Borşa-Tăetura","admin3":""},{"geonameid":683610,"name":"Brusturi","admin3":""},{"geonameid":682373,"name":"Cercănel","admin3":""},{"geonameid":681511,"name":"Cisla","admin3":""},{"geonameid":679634,"name":"Dealu âtre Râuri","admin3":""},{"geonameid":678191,"name":"Fântâna","admin3":""},{"geonameid":678417,"name":"Faţa","admin3":""},{"geonameid":677956,"name":"Frasinel","admin3":""},{"geonameid":677866,"name":"Fruntea lui Birt","admin3":""},{"geonameid":677187,"name":"Gârla","admin3":""},{"geonameid":677071,"name":"Glâmboca","admin3":""},{"geonameid":677027,"name":"Glodu","admin3":""},{"geonameid":676609,"name":"Gruiu Lung","admin3":""},{"geonameid":675343,"name":"Izvoru","admin3":""},{"geonameid":672430,"name":"Negoescu","admin3":""},{"geonameid":670946,"name":"Petroasa","admin3":""},{"geonameid":670327,"name":"Podinac","admin3":""},{"geonameid":670114,"name":"Poiana","admin3":""},{"geonameid":668825,"name":"Râturi","admin3":""},{"geonameid":668962,"name":"Repedea","admin3":""},{"geonameid":668564,"name":"Rotunda","admin3":""},{"geonameid":668474,"name":"Runc","admin3":""},{"geonameid":668005,"name":"Sarca","admin3":""},{"geonameid":667332,"name":"Şesu","admin3":""},{"geonameid":665804,"name":"Suhorca","admin3":""},{"geonameid":663961,"name":"Văile","admin3":""},{"geonameid":663846,"name":"Valea Caselor","admin3":""},{"geonameid":663728,"name":"Valea Ilei","admin3":""},{"geonameid":663643,"name":"Valea Malului","admin3":""},{"geonameid":663510,"name":"Valea Poenii","admin3":""},{"geonameid":663354,"name":"Valea Tisei","admin3":""},{"geonameid":663210,"name":"Vaoturi","admin3":""}],"admin3":[],"alternateNames":[]},"__N_SSG":true}