{"pageProps":{"locale":"it","admin2":{"geonameid":3171179,"name":"Provincia di Perugia","country":"IT","admin1":"18","admin2":"PG","admin3":"","latitude":"43.0500000","longitude":"12.5500000","localeAltName":"Perugia"},"admin1":{"geonameid":3165048,"name":"Umbria","admin1":"18","localeAltName":null},"locations":[{"geonameid":3183448,"name":"Agello","admin3":"054026","localeAltName":null},{"geonameid":3182722,"name":"Assisi","admin3":"054001","localeAltName":null},{"geonameid":7910910,"name":"Bastardo","admin3":"054021","localeAltName":null},{"geonameid":3182289,"name":"Bastia umbra","admin3":"054002","localeAltName":null},{"geonameid":3182099,"name":"Bettona","admin3":"054003","localeAltName":null},{"geonameid":3182096,"name":"Bevagna","admin3":"054004","localeAltName":null},{"geonameid":3181613,"name":"Branca","admin3":"054024","localeAltName":null},{"geonameid":3181497,"name":"Brufa","admin3":"054053","localeAltName":null},{"geonameid":3181486,"name":"Bruna","admin3":"054008","localeAltName":null},{"geonameid":3181031,"name":"Campello sul Clitunno","admin3":"054005","localeAltName":null},{"geonameid":3180829,"name":"Cannaiola","admin3":"054054","localeAltName":null},{"geonameid":3180826,"name":"Cannara","admin3":"054006","localeAltName":null},{"geonameid":8949342,"name":"Capitan Loreto","admin3":"054050","localeAltName":null},{"geonameid":8949219,"name":"Casa del Diavolo","admin3":"054039","localeAltName":null},{"geonameid":3180323,"name":"Casacastalda","admin3":"054057","localeAltName":null},{"geonameid":8949648,"name":"Casanova di Torre","admin3":"054024","localeAltName":null},{"geonameid":3179980,"name":"Cascia","admin3":"054007","localeAltName":null},{"geonameid":8950007,"name":"Case Nuove","admin3":"054001","localeAltName":null},{"geonameid":3179498,"name":"Castel Ritaldi","admin3":"054008","localeAltName":null},{"geonameid":3179543,"name":"Castelnuovo","admin3":"054001","localeAltName":null},{"geonameid":3179419,"name":"Castiglione del Lago","admin3":"054009","localeAltName":null},{"geonameid":3179416,"name":"Castiglione della Valle","admin3":"054027","localeAltName":null},{"geonameid":8533092,"name":"Cerbara","admin3":"054013","localeAltName":null},{"geonameid":3179059,"name":"Cerqueto","admin3":"054027","localeAltName":null},{"geonameid":8949626,"name":"Cerqueto","admin3":"054023","localeAltName":null},{"geonameid":8948749,"name":"Chiugiana-La Commenda","admin3":"054015","localeAltName":null},{"geonameid":8949404,"name":"Cipolleto","admin3":"054024","localeAltName":null},{"geonameid":3178620,"name":"Città della Pieve","admin3":"054012","localeAltName":null},{"geonameid":3178619,"name":"Città di Castello","admin3":"054013","localeAltName":null},{"geonameid":3178359,"name":"Collepepe","admin3":"054014","localeAltName":null},{"geonameid":8948859,"name":"Colombella","admin3":"054039","localeAltName":null},{"geonameid":9036163,"name":"Colvalenza","admin3":"054052","localeAltName":null},{"geonameid":8950138,"name":"Comparati","admin3":"054015","localeAltName":null},{"geonameid":3178117,"name":"Corciano","admin3":"054015","localeAltName":null},{"geonameid":3170724,"name":"Corciano-Pigge","admin3":"054054","localeAltName":null},{"geonameid":8949757,"name":"Cortaccione","admin3":"054051","localeAltName":null},{"geonameid":3177909,"name":"Costacciaro","admin3":"054016","localeAltName":null},{"geonameid":3177895,"name":"Costano","admin3":"054002","localeAltName":null},{"geonameid":3177617,"name":"Deruta","admin3":"054017","localeAltName":null},{"geonameid":3177053,"name":"Fiamenga","admin3":"054018","localeAltName":null},{"geonameid":3177013,"name":"Fighille","admin3":"054011","localeAltName":null},{"geonameid":3176854,"name":"Foligno","admin3":"054018","localeAltName":null},{"geonameid":3176780,"name":"Fontignano","admin3":"054039","localeAltName":null},{"geonameid":8949728,"name":"Fornaci","admin3":"054053","localeAltName":null},{"geonameid":3176558,"name":"Fratta Todina","admin3":"054020","localeAltName":null},{"geonameid":3176554,"name":"Fratticiola Selvatica","admin3":"054039","localeAltName":null},{"geonameid":3176145,"name":"Giano dell'Umbria","admin3":"054021","localeAltName":null},{"geonameid":3175740,"name":"Grutti","admin3":"054022","localeAltName":null},{"geonameid":3175722,"name":"Gualdo Tadino","admin3":"054023","localeAltName":null},{"geonameid":3175687,"name":"Gubbio","admin3":"054024","localeAltName":null},{"geonameid":8950220,"name":"Il Rigo","admin3":"054015","localeAltName":null},{"geonameid":8950386,"name":"La Cinella","admin3":"054039","localeAltName":null},{"geonameid":8949283,"name":"Lacugnano","admin3":"054039","localeAltName":null},{"geonameid":7910909,"name":"Lerchi","admin3":"054013","localeAltName":null},{"geonameid":3174392,"name":"Macchie","admin3":"054009","localeAltName":null},{"geonameid":8949727,"name":"Maceratola","admin3":"054018","localeAltName":null},{"geonameid":3174273,"name":"Magione","admin3":"054026","localeAltName":null},{"geonameid":3174053,"name":"Mantignana","admin3":"054015","localeAltName":null},{"geonameid":3174007,"name":"Marcellano","admin3":"054022","localeAltName":null},{"geonameid":3173870,"name":"Marsciano","admin3":"054027","localeAltName":null},{"geonameid":3173757,"name":"Massa Martana","admin3":"054028","localeAltName":null},{"geonameid":8949736,"name":"Moiano","admin3":"054012","localeAltName":null},{"geonameid":3172999,"name":"Monte Castello di Vibio","admin3":"054029","localeAltName":null},{"geonameid":3172893,"name":"Monte Grimano","admin3":"054041","localeAltName":null},{"geonameid":3172941,"name":"Montefalco","admin3":"054030","localeAltName":null},{"geonameid":3172653,"name":"Montone","admin3":"054033","localeAltName":null},{"geonameid":3172474,"name":"Mugnano","admin3":"054039","localeAltName":null},{"geonameid":3172242,"name":"Nocera Umbra","admin3":"054034","localeAltName":null},{"geonameid":3172208,"name":"Norcia","admin3":"054035","localeAltName":null},{"geonameid":8354451,"name":"Oliveto","admin3":"054039","localeAltName":null},{"geonameid":6692316,"name":"Oscano","admin3":"054039","localeAltName":null},{"geonameid":3171828,"name":"Ospedalicchio","admin3":"054002","localeAltName":null},{"geonameid":8949180,"name":"Osteria del Gatto","admin3":"054019","localeAltName":null},{"geonameid":8581481,"name":"Osteria di Ramazzano","admin3":"054039","localeAltName":null},{"geonameid":3171752,"name":"Paciano","admin3":"054036","localeAltName":null},{"geonameid":9036358,"name":"Padule-San Marco","admin3":"054024","localeAltName":null},{"geonameid":3171644,"name":"Palazzo","admin3":"054001","localeAltName":null},{"geonameid":3171641,"name":"Palazzo Mancinelli-Vaccara","admin3":"054023","localeAltName":null},{"geonameid":3171523,"name":"Panicale","admin3":"054037","localeAltName":null},{"geonameid":3171521,"name":"Panicarola","admin3":"054009","localeAltName":null},{"geonameid":3171515,"name":"Pantalla","admin3":"054052","localeAltName":null},{"geonameid":8949346,"name":"Passaggio","admin3":"054003","localeAltName":null},{"geonameid":3171418,"name":"Passignano sul Trasimeno","admin3":"054038","localeAltName":null},{"geonameid":3171180,"name":"Perugia","admin3":"054039","localeAltName":null},{"geonameid":3171097,"name":"Petrignano","admin3":"054001","localeAltName":null},{"geonameid":3170878,"name":"Piccione","admin3":"054039","localeAltName":null},{"geonameid":3170837,"name":"Piegaro","admin3":"054040","localeAltName":null},{"geonameid":3170828,"name":"Pierantonio","admin3":"054056","localeAltName":null},{"geonameid":3170804,"name":"Pietrafitta","admin3":"054040","localeAltName":null},{"geonameid":3170795,"name":"Pietralunga","admin3":"054041","localeAltName":null},{"geonameid":3170711,"name":"Pila","admin3":"054039","localeAltName":null},{"geonameid":8950045,"name":"Piosina","admin3":"054013","localeAltName":null},{"geonameid":3170619,"name":"Pistrino","admin3":"054011","localeAltName":null},{"geonameid":8949443,"name":"Po' Bandino","admin3":"054012","localeAltName":null},{"geonameid":8950075,"name":"Ponte d'Assi","admin3":"054024","localeAltName":null},{"geonameid":8394121,"name":"Ponte Felcino","admin3":"054039","localeAltName":null},{"geonameid":8950059,"name":"Ponte Nuovo","admin3":"054017","localeAltName":null},{"geonameid":8659006,"name":"Ponte Pattoli","admin3":"054039","localeAltName":null},{"geonameid":8949163,"name":"Ponterio-Pian di Porto","admin3":"054052","localeAltName":null},{"geonameid":8950028,"name":"Ponticelli","admin3":"054012","localeAltName":null},{"geonameid":3169982,"name":"Pozzuolo","admin3":"054009","localeAltName":null},{"geonameid":8436262,"name":"Promano","admin3":"054013","localeAltName":null},{"geonameid":3169780,"name":"Pucciarelli","admin3":"054009","localeAltName":null},{"geonameid":3170144,"name":"Purello","admin3":"054019","localeAltName":null},{"geonameid":8950266,"name":"Resina I","admin3":"054039","localeAltName":null},{"geonameid":3169316,"name":"Ripabianca","admin3":"054017","localeAltName":null},{"geonameid":8949177,"name":"Rivotorto","admin3":"054001","localeAltName":null},{"geonameid":7647798,"name":"San Biagio della Valle","admin3":"054027","localeAltName":null},{"geonameid":3168405,"name":"San Fatucchio","admin3":"054009","localeAltName":null},{"geonameid":6615309,"name":"San Feliciano","admin3":"054026","localeAltName":null},{"geonameid":3168336,"name":"San Giacomo","admin3":"054051","localeAltName":null},{"geonameid":3168207,"name":"San Giustino","admin3":"054044","localeAltName":null},{"geonameid":3168015,"name":"San Martino in Campo","admin3":"054039","localeAltName":null},{"geonameid":8949112,"name":"San Martino in Trignano","admin3":"054051","localeAltName":null},{"geonameid":3167917,"name":"San Niccolò di Celle","admin3":"054017","localeAltName":null},{"geonameid":8949710,"name":"San Pietro","admin3":"054015","localeAltName":null},{"geonameid":3167749,"name":"San Savino","admin3":"054026","localeAltName":null},{"geonameid":3167739,"name":"San Secondo","admin3":"054013","localeAltName":null},{"geonameid":3167324,"name":"San Terenziano","admin3":"054022","localeAltName":null},{"geonameid":3167203,"name":"San Vitale","admin3":"054001","localeAltName":null},{"geonameid":9036139,"name":"Sant'Angelo di Celle","admin3":"054017","localeAltName":null},{"geonameid":6544011,"name":"Sant'Arcangelo","admin3":"054026","localeAltName":null},{"geonameid":3167349,"name":"Sant'Egidio","admin3":"054039","localeAltName":null},{"geonameid":8261473,"name":"Sant'Enea","admin3":"054039","localeAltName":null},{"geonameid":3167559,"name":"Santa Maria degli Angeli","admin3":"054001","localeAltName":null},{"geonameid":3167532,"name":"Santa Maria in Valle","admin3":"054054","localeAltName":null},{"geonameid":3166942,"name":"Scheggia","admin3":"054046","localeAltName":null},{"geonameid":3175224,"name":"Selci-Lama","admin3":"054044","localeAltName":null},{"geonameid":3180115,"name":"Semonte-Casamorcia","admin3":"054024","localeAltName":null},{"geonameid":3166541,"name":"Sigillo","admin3":"054049","localeAltName":null},{"geonameid":8949545,"name":"Soccorso","admin3":"054026","localeAltName":null},{"geonameid":3166287,"name":"Spello","admin3":"054050","localeAltName":null},{"geonameid":3166260,"name":"Spina","admin3":"054027","localeAltName":null},{"geonameid":3166236,"name":"Spoleto","admin3":"054051","localeAltName":null},{"geonameid":3171717,"name":"Stazione di Padule","admin3":"054024","localeAltName":null},{"geonameid":8949613,"name":"Stazione di Parlesca e Solfagnano","admin3":"054039","localeAltName":null},{"geonameid":3165881,"name":"Tavernelle","admin3":"054037","localeAltName":null},{"geonameid":3165612,"name":"Todi","admin3":"054052","localeAltName":null},{"geonameid":3165537,"name":"Torchiagina","admin3":"054001","localeAltName":null},{"geonameid":3165534,"name":"Tordandrea","admin3":"054001","localeAltName":null},{"geonameid":3165527,"name":"Torgiano","admin3":"054053","localeAltName":null},{"geonameid":8394393,"name":"Trestina","admin3":"054013","localeAltName":null},{"geonameid":3165209,"name":"Trevi","admin3":"054054","localeAltName":null},{"geonameid":3165106,"name":"Tuoro sul Trasimeno","admin3":"054055","localeAltName":null},{"geonameid":3165052,"name":"Umbertide","admin3":"054056","localeAltName":null},{"geonameid":3164915,"name":"Valfabbrica","admin3":"054057","localeAltName":null},{"geonameid":6535042,"name":"Valtopina","admin3":"054059","localeAltName":null},{"geonameid":8949906,"name":"Verna","admin3":"054056","localeAltName":null},{"geonameid":8949136,"name":"Via Lippia","admin3":"054039","localeAltName":null}],"admin3":[{"geonameid":3164916,"name":"Valfabbrica","admin3":"054057","localeAltName":null},{"geonameid":6536357,"name":"Giano dell'Umbria","admin3":"054021","localeAltName":null},{"geonameid":6536358,"name":"Scheggia e Pascelupo","admin3":"054046","localeAltName":null},{"geonameid":6536864,"name":"Bevagna","admin3":"054004","localeAltName":null},{"geonameid":6536865,"name":"Cannara","admin3":"054006","localeAltName":null},{"geonameid":6536866,"name":"Castel Ritaldi","admin3":"054008","localeAltName":null},{"geonameid":6536867,"name":"Citerna","admin3":"054011","localeAltName":null},{"geonameid":6536868,"name":"Città della Pieve","admin3":"054012","localeAltName":null},{"geonameid":6536869,"name":"Collazzone","admin3":"054014","localeAltName":null},{"geonameid":6536870,"name":"Corciano","admin3":"054015","localeAltName":null},{"geonameid":6536871,"name":"Deruta","admin3":"054017","localeAltName":null},{"geonameid":6536872,"name":"Fossato di Vico","admin3":"054019","localeAltName":null},{"geonameid":6536873,"name":"Gualdo Tadino","admin3":"054023","localeAltName":null},{"geonameid":6536874,"name":"Marsciano","admin3":"054027","localeAltName":null},{"geonameid":6536875,"name":"Massa Martana","admin3":"054028","localeAltName":null},{"geonameid":6536876,"name":"Monte Castello di Vibio","admin3":"054029","localeAltName":null},{"geonameid":6536877,"name":"Paciano","admin3":"054036","localeAltName":null},{"geonameid":6536878,"name":"Panicale","admin3":"054037","localeAltName":null},{"geonameid":6536879,"name":"Piegaro","admin3":"054040","localeAltName":null},{"geonameid":6536880,"name":"Poggiodomo","admin3":"054042"},{"geonameid":6536881,"name":"Sant'Anatolia di Narco","admin3":"054045"},{"geonameid":6536882,"name":"Scheggino","admin3":"054047"},{"geonameid":6536883,"name":"Todi","admin3":"054052","localeAltName":null},{"geonameid":6536884,"name":"Tuoro sul Trasimeno","admin3":"054055","localeAltName":null},{"geonameid":6538612,"name":"Assisi","admin3":"054001","localeAltName":null},{"geonameid":6538613,"name":"Bettona","admin3":"054003","localeAltName":null},{"geonameid":6538614,"name":"Cascia","admin3":"054007","localeAltName":null},{"geonameid":6538615,"name":"Cerreto di Spoleto","admin3":"054010"},{"geonameid":6538616,"name":"Foligno","admin3":"054018","localeAltName":null},{"geonameid":6538617,"name":"Preci","admin3":"054043"},{"geonameid":6538618,"name":"Umbertide","admin3":"054056","localeAltName":null},{"geonameid":6539592,"name":"Vallo di Nera","admin3":"054058"},{"geonameid":6539744,"name":"Pietralunga","admin3":"054041","localeAltName":null},{"geonameid":6539969,"name":"Montone","admin3":"054033","localeAltName":null},{"geonameid":6539970,"name":"San Giustino","admin3":"054044","localeAltName":null},{"geonameid":6539971,"name":"Sigillo","admin3":"054049","localeAltName":null},{"geonameid":6540489,"name":"Campello sul Clitunno","admin3":"054005","localeAltName":null},{"geonameid":6540490,"name":"Magione","admin3":"054026","localeAltName":null},{"geonameid":6540491,"name":"Norcia","admin3":"054035","localeAltName":null},{"geonameid":6540492,"name":"Spello","admin3":"054050","localeAltName":null},{"geonameid":6540493,"name":"Trevi","admin3":"054054","localeAltName":null},{"geonameid":6541109,"name":"Castiglione del Lago","admin3":"054009","localeAltName":null},{"geonameid":6541110,"name":"Fratta Todina","admin3":"054020","localeAltName":null},{"geonameid":6541111,"name":"Gubbio","admin3":"054024","localeAltName":null},{"geonameid":6541112,"name":"Montefalco","admin3":"054030","localeAltName":null},{"geonameid":6541113,"name":"Monteleone di Spoleto","admin3":"054031"},{"geonameid":6541114,"name":"Monte Santa Maria Tiberina","admin3":"054032"},{"geonameid":6541115,"name":"Passignano sul Trasimeno","admin3":"054038","localeAltName":null},{"geonameid":6541116,"name":"Spoleto","admin3":"054051","localeAltName":null},{"geonameid":6541117,"name":"Torgiano","admin3":"054053","localeAltName":null},{"geonameid":6541612,"name":"Costacciaro","admin3":"054016","localeAltName":null},{"geonameid":6541649,"name":"Città di Castello","admin3":"054013","localeAltName":null},{"geonameid":6541886,"name":"Gualdo Cattaneo","admin3":"054022","localeAltName":null},{"geonameid":6541887,"name":"Sellano","admin3":"054048"},{"geonameid":6542042,"name":"Nocera Umbra","admin3":"054034","localeAltName":null},{"geonameid":6542125,"name":"Perugia","admin3":"054039","localeAltName":null},{"geonameid":6542181,"name":"Bastia Umbra","admin3":"054002","localeAltName":null},{"geonameid":6543028,"name":"Valtopina","admin3":"054059","localeAltName":null},{"geonameid":6543600,"name":"Lisciano Niccone","admin3":"054025"}],"alternateNames":[{"alternatenameId":1349265,"geonameid":3171179,"isoLanguage":"it","alternateName":"Perugia","isPreferredName":true,"isShortName":true,"isColloquial":false,"isHistoric":false}]},"__N_SSG":true}