{"pageProps":{"locale":"en","admin2":{"geonameid":5391726,"name":"San Bernardino County","country":"US","admin1":"CA","admin2":"071","admin3":"","latitude":"34.8414300","longitude":"-116.1784600","localeAltName":null},"admin1":{"geonameid":5332921,"name":"California","admin1":"CA","localeAltName":"California"},"locations":[{"geonameid":5322400,"name":"Adelanto","admin3":"","localeAltName":null},{"geonameid":5324363,"name":"Apple Valley","admin3":"","localeAltName":null},{"geonameid":5325626,"name":"Baker","admin3":"","localeAltName":null},{"geonameid":5326297,"name":"Barstow","admin3":"","localeAltName":null},{"geonameid":5326305,"name":"Barstow Heights","admin3":"","localeAltName":null},{"geonameid":5328152,"name":"Big Bear City","admin3":"","localeAltName":null},{"geonameid":5328163,"name":"Big Bear Lake","admin3":"","localeAltName":null},{"geonameid":5328486,"name":"Big River","admin3":"","localeAltName":null},{"geonameid":5329408,"name":"Bloomington","admin3":"","localeAltName":null},{"geonameid":5336537,"name":"Chino","admin3":"","localeAltName":null},{"geonameid":5336545,"name":"Chino Hills","admin3":"","localeAltName":null},{"geonameid":5338783,"name":"Colton","admin3":"","localeAltName":null},{"geonameid":5340674,"name":"Crestline","admin3":"","localeAltName":null},{"geonameid":5349755,"name":"Fontana","admin3":"","localeAltName":null},{"geonameid":5350057,"name":"Fort Irwin","admin3":"","localeAltName":null},{"geonameid":5353484,"name":"Grand Terrace","admin3":"","localeAltName":null},{"geonameid":5356576,"name":"Hesperia","admin3":"","localeAltName":null},{"geonameid":5356868,"name":"Highland","admin3":"","localeAltName":null},{"geonameid":5361298,"name":"Joshua Tree","admin3":"","localeAltName":null},{"geonameid":5364414,"name":"Lake Arrowhead","admin3":"","localeAltName":null},{"geonameid":5365945,"name":"Lenwood","admin3":"","localeAltName":null},{"geonameid":5367696,"name":"Loma Linda","admin3":"","localeAltName":null},{"geonameid":5368618,"name":"Los Serranos","admin3":"","localeAltName":null},{"geonameid":5369150,"name":"Lucerne Valley","admin3":"","localeAltName":null},{"geonameid":5369413,"name":"Lytle Creek","admin3":"","localeAltName":null},{"geonameid":5372242,"name":"Mentone","admin3":"","localeAltName":null},{"geonameid":5374232,"name":"Montclair","admin3":"","localeAltName":null},{"geonameid":5374871,"name":"Morongo Valley","admin3":"","localeAltName":null},{"geonameid":5375482,"name":"Mountain View Acres","admin3":"","localeAltName":null},{"geonameid":5375938,"name":"Muscoy","admin3":"","localeAltName":null},{"geonameid":5376358,"name":"Needles","admin3":"","localeAltName":null},{"geonameid":5378298,"name":"Oak Glen","admin3":"","localeAltName":null},{"geonameid":5378354,"name":"Oak Hills","admin3":"","localeAltName":null},{"geonameid":5379439,"name":"Ontario","admin3":"","localeAltName":null},{"geonameid":5382362,"name":"Phelan","admin3":"","localeAltName":null},{"geonameid":5383526,"name":"Pi√±on Hills","admin3":"","localeAltName":null},{"geonameid":5385955,"name":"Rancho Cucamonga","admin3":"","localeAltName":null},{"geonameid":5386754,"name":"Redlands","admin3":"","localeAltName":null},{"geonameid":5387288,"name":"Rialto","admin3":"","localeAltName":null},{"geonameid":5389288,"name":"Running Springs","admin3":"","localeAltName":null},{"geonameid":5391648,"name":"San Antonio Heights","admin3":"","localeAltName":null},{"geonameid":5391710,"name":"San Bernardino","admin3":"","localeAltName":null},{"geonameid":5394124,"name":"Searles Valley","admin3":"","localeAltName":null},{"geonameid":8481841,"name":"Silver Lakes","admin3":"","localeAltName":null},{"geonameid":8481842,"name":"Spring Valley Lake","admin3":"","localeAltName":null},{"geonameid":5404198,"name":"Twentynine Palms","admin3":"","localeAltName":null},{"geonameid":5404915,"name":"Upland","admin3":"","localeAltName":null},{"geonameid":5406222,"name":"Victorville","admin3":"","localeAltName":null},{"geonameid":5410682,"name":"Wrightwood","admin3":"","localeAltName":null},{"geonameid":5411046,"name":"Yucaipa","admin3":"","localeAltName":null},{"geonameid":5411079,"name":"Yucca Valley","admin3":"","localeAltName":null}],"admin3":[{"geonameid":11788287,"name":"City of Fontana","admin3":"11788287"},{"geonameid":11788398,"name":"City of Upland","admin3":"11788398"},{"geonameid":11788411,"name":"City of Yucaipa","admin3":"11788411"},{"geonameid":11788439,"name":"City of Hesperia","admin3":"11788439"},{"geonameid":11788505,"name":"City of Highland","admin3":"11788505"},{"geonameid":11788665,"name":"City of Barstow","admin3":"11788665"},{"geonameid":11788671,"name":"City of Montclair","admin3":"11788671"},{"geonameid":11788793,"name":"City of Redlands","admin3":"11788793"},{"geonameid":11788865,"name":"City of Ontario","admin3":"11788865"}],"alternateNames":[{"alternatenameId":1632217,"geonameid":5332921,"isoLanguage":"en","alternateName":"California","isPreferredName":true,"isShortName":true,"isColloquial":false,"isHistoric":false}]},"__N_SSG":true}