{"pageProps":{"locale":"en","admin2":{"geonameid":3333199,"name":"South Tyneside","country":"GB","admin1":"ENG","admin2":"M7","admin3":"","latitude":"54.9500000","longitude":"-1.4166700","localeAltName":"South Tyneside"},"admin1":{"geonameid":6269131,"name":"England","admin1":"ENG","localeAltName":"England"},"locations":[{"geonameid":8299842,"name":"Boldon Colliery"},{"geonameid":11549388,"name":"Cleadon"},{"geonameid":2650498,"name":"East Boldon"},{"geonameid":2647394,"name":"Harton"},{"geonameid":2647209,"name":"Hebburn"},{"geonameid":2645972,"name":"Jarrow"},{"geonameid":2642991,"name":"Marsden"},{"geonameid":2637329,"name":"South Shields"},{"geonameid":2655250,"name":"The Boldons"},{"geonameid":2634498,"name":"West Boldon"},{"geonameid":2634328,"name":"Westoe"},{"geonameid":2634138,"name":"Whitburn"}],"admin3":[],"alternateNames":[{"alternatenameId":8666525,"geonameid":3333199,"isoLanguage":"en","alternateName":"South Tyneside","isPreferredName":true,"isShortName":true,"isColloquial":false,"isHistoric":false},{"alternatenameId":1626647,"geonameid":6269131,"isoLanguage":"en","alternateName":"England","isPreferredName":true,"isShortName":true,"isColloquial":false,"isHistoric":false}]},"__N_SSG":true}