{"pageProps":{"locale":"en","admin2":{"geonameid":4462716,"name":"Cumberland County","country":"US","admin1":"NC","admin2":"051","admin3":"","latitude":"35.0485900","longitude":"-78.8274400","localeAltName":null},"admin1":{"geonameid":4482348,"name":"North Carolina","admin1":"NC","localeAltName":"North Carolina"},"locations":[{"geonameid":4464750,"name":"Eastover","admin3":"90968","localeAltName":null},{"geonameid":4466033,"name":"Fayetteville","admin3":"90832","localeAltName":null},{"geonameid":6941080,"name":"Fort Bragg","admin3":"91964","localeAltName":null},{"geonameid":4471851,"name":"Hope Mills","admin3":"92724","localeAltName":null},{"geonameid":4493035,"name":"Spring Lake","admin3":"91964","localeAltName":null},{"geonameid":4493343,"name":"Stedman","admin3":"90572","localeAltName":null},{"geonameid":4496582,"name":"Vander","admin3":"90968","localeAltName":null},{"geonameid":4497231,"name":"Wade","admin3":"90968","localeAltName":null}],"admin3":[{"geonameid":4454458,"name":"Township of Beaver Dam","admin3":"90192"},{"geonameid":4456154,"name":"Township of Black River","admin3":"90288"},{"geonameid":4459462,"name":"Township of Carvers Creek","admin3":"90532"},{"geonameid":4459757,"name":"Township of Cedar Creek","admin3":"90572","localeAltName":null},{"geonameid":4462572,"name":"Township of Cross Creek","admin3":"90832","localeAltName":null},{"geonameid":4464756,"name":"Township of Eastover","admin3":"90968","localeAltName":null},{"geonameid":4468824,"name":"Township of Grays Creek","admin3":"91296"},{"geonameid":4477851,"name":"Township of Manchester","admin3":"91964","localeAltName":null},{"geonameid":4484402,"name":"Township of Pearces Mill","admin3":"92460"},{"geonameid":4488543,"name":"Township of Rockfish","admin3":"92724","localeAltName":null},{"geonameid":4490871,"name":"Township of Seventy-First","admin3":"92892"}],"alternateNames":[{"alternatenameId":2089560,"geonameid":4482348,"isoLanguage":"en","alternateName":"North Carolina","isPreferredName":true,"isShortName":true,"isColloquial":false,"isHistoric":false}]},"__N_SSG":true}