{"pageProps":{"locale":"en","admin2":{"geonameid":2640500,"name":"Pembrokeshire","country":"GB","admin1":"WLS","admin2":"Y7","admin3":"","latitude":"51.8333300","longitude":"-4.9166700","localeAltName":null},"admin1":{"geonameid":2634895,"name":"Wales","admin1":"WLS","localeAltName":"Wales"},"locations":[{"geonameid":2657843,"name":"Abercastle","admin3":"00NS043","localeAltName":null},{"geonameid":7931880,"name":"Abercych","admin3":"00NS040","localeAltName":null},{"geonameid":2657823,"name":"Abereiddy","admin3":"00NS035","localeAltName":null},{"geonameid":3345250,"name":"Ambleston","admin3":"00NS001","localeAltName":null},{"geonameid":2657336,"name":"Amroth","admin3":"00NS002","localeAltName":null},{"geonameid":2657312,"name":"Angle","admin3":"00NS003","localeAltName":null},{"geonameid":2656004,"name":"Begelly","admin3":"00NS028","localeAltName":null},{"geonameid":3345143,"name":"Bethesda","admin3":"00NS037","localeAltName":null},{"geonameid":2655350,"name":"Bletherston","admin3":"00NS049","localeAltName":null},{"geonameid":2655220,"name":"Boncath","admin3":"00NS004","localeAltName":null},{"geonameid":2655142,"name":"Bosherston","admin3":"00NS070","localeAltName":null},{"geonameid":2655105,"name":"Boulston","admin3":"00NS076","localeAltName":null},{"geonameid":2654855,"name":"Brawdy","admin3":"00NS005","localeAltName":null},{"geonameid":2654764,"name":"Bridell","admin3":"00NS011","localeAltName":null},{"geonameid":2654651,"name":"Broad Haven","admin3":"00NS073","localeAltName":null},{"geonameid":3345137,"name":"Broadmoor","admin3":"00NS018","localeAltName":null},{"geonameid":3345246,"name":"Brynberian","admin3":"00NS019","localeAltName":null},{"geonameid":2654218,"name":"Burton","admin3":"00NS006","localeAltName":null},{"geonameid":3345154,"name":"Bwlchygroes","admin3":"00NS012","localeAltName":null},{"geonameid":2653901,"name":"Camrose","admin3":"00NS008","localeAltName":null},{"geonameid":2653800,"name":"Carew","admin3":"00NS009","localeAltName":null},{"geonameid":3345130,"name":"Carew Newton","admin3":"00NS009","localeAltName":null},{"geonameid":3345105,"name":"Carnhedryn","admin3":"00NS060","localeAltName":null},{"geonameid":2653568,"name":"Castlemartin","admin3":"00NS010","localeAltName":null},{"geonameid":3345101,"name":"Castlemorris","admin3":"00NS043","localeAltName":null},{"geonameid":2653248,"name":"Cheriton","admin3":"00NS070","localeAltName":null},{"geonameid":2653003,"name":"Cilgerran","admin3":"00NS011","localeAltName":null},{"geonameid":2653002,"name":"Cilgwyn","admin3":"00NS048","localeAltName":null},{"geonameid":2634470,"name":"Cilrhedyn","admin3":"00NS012","localeAltName":null},{"geonameid":2652944,"name":"Clarbeston","admin3":"00NS078","localeAltName":null},{"geonameid":2652943,"name":"Clarbeston Road","admin3":"00NS078","localeAltName":null},{"geonameid":2652725,"name":"Clunderwen","admin3":"00NS083","localeAltName":null},{"geonameid":2652727,"name":"Clydey","admin3":"00NS012","localeAltName":null},{"geonameid":2652293,"name":"Cosheston","admin3":"00NS013","localeAltName":null},{"geonameid":3345131,"name":"Cresselly","admin3":"00NS026","localeAltName":null},{"geonameid":3345132,"name":"Cresswell Quay","admin3":"00NS026","localeAltName":null},{"geonameid":3345140,"name":"Crinow","admin3":"00NS047","localeAltName":null},{"geonameid":2651956,"name":"Croes-goch","admin3":"00NS035","localeAltName":null},{"geonameid":3345247,"name":"Crosswell","admin3":"00NS019","localeAltName":null},{"geonameid":3345260,"name":"Crundale","admin3":"00NS059","localeAltName":null},{"geonameid":2651796,"name":"Crymych","admin3":"00NS014","localeAltName":null},{"geonameid":2651600,"name":"Dale","admin3":"00NS016","localeAltName":null},{"geonameid":3345147,"name":"Dandderwen","admin3":"00NS046","localeAltName":null},{"geonameid":2651253,"name":"Dinas","admin3":"00NS017","localeAltName":null},{"geonameid":2650313,"name":"East Williamston","admin3":"00NS018","localeAltName":null},{"geonameid":2650176,"name":"Eglwyswrw","admin3":"00NS019","localeAltName":null},{"geonameid":2649372,"name":"Fishguard","admin3":"00NS020","localeAltName":null},{"geonameid":2649303,"name":"Flimston","admin3":"00NS010","localeAltName":null},{"geonameid":3345133,"name":"Freshwater East","admin3":"00NS030","localeAltName":null},{"geonameid":2649059,"name":"Freystrop","admin3":"00NS021","localeAltName":null},{"geonameid":3345142,"name":"Gelli","admin3":"00NS049","localeAltName":null},{"geonameid":3345150,"name":"Glandwr","admin3":"00NS014","localeAltName":null},{"geonameid":8316280,"name":"Glogue","admin3":"00NS012","localeAltName":null},{"geonameid":2648325,"name":"Goodwick","admin3":"00NS020","localeAltName":null},{"geonameid":2648209,"name":"Granston","admin3":"00NS056","localeAltName":null},{"geonameid":2647767,"name":"Gumfreston","admin3":"00NS062","localeAltName":null},{"geonameid":2647457,"name":"Haroldston West","admin3":"00NS073","localeAltName":null},{"geonameid":2647311,"name":"Haverfordwest","admin3":"00NS022","localeAltName":null},{"geonameid":2647253,"name":"Hayscastle","admin3":"00NS023","localeAltName":null},{"geonameid":2647252,"name":"Hayscastle Cross","admin3":"00NS023","localeAltName":null},{"geonameid":2647094,"name":"Henryâ€™s Moat","admin3":"00NS057","localeAltName":null},{"geonameid":2647075,"name":"Herbrandston","admin3":"00NS024","localeAltName":null},{"geonameid":2647059,"name":"Hermon","admin3":"00NS014","localeAltName":null},{"geonameid":3345126,"name":"Hill Mountain","admin3":"00NS006","localeAltName":null},{"geonameid":2646805,"name":"Hodgeston","admin3":"00NS030","localeAltName":null},{"geonameid":3345259,"name":"Hook","admin3":"00NS082","localeAltName":null},{"geonameid":3345125,"name":"Houghton","admin3":"00NS006","localeAltName":null},{"geonameid":2646466,"name":"Hubberston","admin3":"00NS045","localeAltName":null},{"geonameid":3345123,"name":"Hundleton","admin3":"00NS025","localeAltName":null},{"geonameid":3345135,"name":"Jameston","admin3":"00NS039","localeAltName":null},{"geonameid":2645967,"name":"Jeffreyston","admin3":"00NS026","localeAltName":null},{"geonameid":2645952,"name":"Johnston","admin3":"00NS027","localeAltName":null},{"geonameid":2645945,"name":"Jordanston","admin3":"00NS066","localeAltName":null},{"geonameid":3345113,"name":"Keeston","admin3":"00NS008","localeAltName":null},{"geonameid":2645663,"name":"Kilgetty","admin3":"00NS028","localeAltName":null},{"geonameid":3345115,"name":"Lambston","admin3":"00NS008","localeAltName":null},{"geonameid":2644980,"name":"Lampeter Velfrey","admin3":"00NS029","localeAltName":null},{"geonameid":2644979,"name":"Lamphey","admin3":"00NS030","localeAltName":null},{"geonameid":2644960,"name":"Landshipping","admin3":"00NS042","localeAltName":null},{"geonameid":2644786,"name":"Lawrenny","admin3":"00NS042","localeAltName":null},{"geonameid":2644584,"name":"Letterston","admin3":"00NS031","localeAltName":null},{"geonameid":3345111,"name":"Leweston","admin3":"00NS008","localeAltName":null},{"geonameid":2644315,"name":"Little Haven","admin3":"00NS073","localeAltName":null},{"geonameid":2644281,"name":"Little Newcastle","admin3":"00NS057","localeAltName":null},{"geonameid":3345141,"name":"Llanddewi Velfrey","admin3":"00NS032","localeAltName":null},{"geonameid":2644133,"name":"Llandeloy","admin3":"00NS005","localeAltName":null},{"geonameid":2644130,"name":"Llandissilio","admin3":"00NS033","localeAltName":null},{"geonameid":2644051,"name":"Llanfyrnach","admin3":"00NS014","localeAltName":null},{"geonameid":3345145,"name":"Llangolman","admin3":"00NS046","localeAltName":null},{"geonameid":2644892,"name":"Llangwm","admin3":"00NS081","localeAltName":null},{"geonameid":2643992,"name":"Llanhowell","admin3":"00NS035","localeAltName":null},{"geonameid":2643983,"name":"Llanllawer","admin3":"00NS015","localeAltName":null},{"geonameid":2643968,"name":"Llanreithan","admin3":"00NS005","localeAltName":null},{"geonameid":2643960,"name":"Llanrhian","admin3":"00NS035","localeAltName":null},{"geonameid":2643943,"name":"Llanstadwell","admin3":"00NS036","localeAltName":null},{"geonameid":3345156,"name":"Llanteg","admin3":"00NS002","localeAltName":null},{"geonameid":2643938,"name":"Llantood","admin3":"00NS019","localeAltName":null},{"geonameid":2643914,"name":"Llanwnda","admin3":"00NS056","localeAltName":null},{"geonameid":2643901,"name":"Llanycefn","admin3":"00NS038","localeAltName":null},{"geonameid":2643900,"name":"Llanychaer","admin3":"00NS015","localeAltName":null},{"geonameid":2643892,"name":"Llawhaden","admin3":"00NS037","localeAltName":null},{"geonameid":2643891,"name":"Llechryd","admin3":"00NS040","localeAltName":null},{"geonameid":3345138,"name":"Loveston","admin3":"00NS026","localeAltName":null},{"geonameid":2643438,"name":"Ludchurch","admin3":"00NS029","localeAltName":null},{"geonameid":2643317,"name":"Lydstep","admin3":"00NS039","localeAltName":null},{"geonameid":2643227,"name":"Maenclochog","admin3":"00NS038","localeAltName":null},{"geonameid":2643104,"name":"Manorbier","admin3":"00NS039","localeAltName":null},{"geonameid":2643103,"name":"Manordeifi","admin3":"00NS040","localeAltName":null},{"geonameid":2643102,"name":"Manorowen","admin3":"00NS066","localeAltName":null},{"geonameid":2643004,"name":"Marloes","admin3":"00NS041","localeAltName":null},{"geonameid":3345128,"name":"Martletwy","admin3":"00NS042","localeAltName":null},{"geonameid":2642911,"name":"Mathry","admin3":"00NS043","localeAltName":null},{"geonameid":3345121,"name":"Merrion","admin3":"00NS010","localeAltName":null},{"geonameid":2642612,"name":"Middle Mill","admin3":"00NS068","localeAltName":null},{"geonameid":2642534,"name":"Milford Haven","admin3":"00NS045","localeAltName":null},{"geonameid":3345129,"name":"Milton","admin3":"00NS009","localeAltName":null},{"geonameid":2642427,"name":"Minwear","admin3":"00NS042","localeAltName":null},{"geonameid":2642337,"name":"Monington","admin3":"00NS048","localeAltName":null},{"geonameid":2642196,"name":"Morfa","admin3":"00NS050","localeAltName":null},{"geonameid":2642154,"name":"Morvil","admin3":"00NS057","localeAltName":null},{"geonameid":2642066,"name":"Moylgrove","admin3":"00NS048","localeAltName":null},{"geonameid":2641928,"name":"Mynachlogddu","admin3":"00NS046","localeAltName":null},{"geonameid":2641885,"name":"Narberth","admin3":"00NS047","localeAltName":null},{"geonameid":2641747,"name":"Nevern","admin3":"00NS048","localeAltName":null},{"geonameid":2641636,"name":"New Hedges","admin3":"00NS064","localeAltName":null},{"geonameid":2641608,"name":"New Moat","admin3":"00NS049","localeAltName":null},{"geonameid":3345127,"name":"New Park","admin3":"00NS042","localeAltName":null},{"geonameid":2641670,"name":"Newchapel","admin3":"00NS040","localeAltName":null},{"geonameid":2641646,"name":"Newgale","admin3":"00NS005","localeAltName":null},{"geonameid":2641596,"name":"Newport","admin3":"00NS050","localeAltName":null},{"geonameid":2641506,"name":"Neyland","admin3":"00NS051","localeAltName":null},{"geonameid":2641472,"name":"Nolton","admin3":"00NS052","localeAltName":null},{"geonameid":9409281,"name":"Norchard","admin3":"00NS039","localeAltName":null},{"geonameid":2640644,"name":"Panteg","admin3":"00NS066","localeAltName":null},{"geonameid":2640514,"name":"Pelcomb Cross","admin3":"00NS008","localeAltName":null},{"geonameid":2640503,"name":"Pembroke","admin3":"00NS053","localeAltName":null},{"geonameid":2640502,"name":"Pembroke Dock","admin3":"00NS054","localeAltName":null},{"geonameid":2640497,"name":"Penally","admin3":"00NS055","localeAltName":null},{"geonameid":2640471,"name":"Penffordd","admin3":"00NS049","localeAltName":null},{"geonameid":2640414,"name":"Penrydd","admin3":"00NS004","localeAltName":null},{"geonameid":3345149,"name":"Pentre Galar","admin3":"00NS014","localeAltName":null},{"geonameid":2640383,"name":"Penycwm","admin3":"00NS005","localeAltName":null},{"geonameid":2640128,"name":"Pontfaen","admin3":"00NS015","localeAltName":null},{"geonameid":3345116,"name":"Portfield Gate","admin3":"00NS008","localeAltName":null},{"geonameid":2640048,"name":"Porthgain","admin3":"00NS035","localeAltName":null},{"geonameid":2639850,"name":"Puncheston","admin3":"00NS057","localeAltName":null},{"geonameid":3345124,"name":"Pwllcrochan","admin3":"00NS025","localeAltName":null},{"geonameid":2639568,"name":"Redberth","admin3":"00NS009","localeAltName":null},{"geonameid":2639473,"name":"Reynalton","admin3":"00NS028","localeAltName":null},{"geonameid":2639443,"name":"Rhos-Bayvil","admin3":"00NS048","localeAltName":null},{"geonameid":2639437,"name":"Rhos-hill","admin3":"00NS011","localeAltName":null},{"geonameid":2639440,"name":"Rhoscrowther","admin3":"00NS025","localeAltName":null},{"geonameid":3345251,"name":"Rinaston","admin3":"00NS001","localeAltName":null},{"geonameid":2639280,"name":"Robeston Wathen","admin3":"00NS037","localeAltName":null},{"geonameid":2639274,"name":"Roch","admin3":"00NS052","localeAltName":null},{"geonameid":2639149,"name":"Rosebush","admin3":"00NS038","localeAltName":null},{"geonameid":2639143,"name":"Rosemarket","admin3":"00NS058","localeAltName":null},{"geonameid":2638997,"name":"Rudbaxton","admin3":"00NS059","localeAltName":null},{"geonameid":12166512,"name":"Sageston","admin3":"00NS009","localeAltName":null},{"geonameid":2638843,"name":"Saint Brides","admin3":"00NS041","localeAltName":null},{"geonameid":2638822,"name":"Saint Davids","admin3":"00NS060","localeAltName":null},{"geonameid":2638813,"name":"Saint Dogwells","admin3":"00NS057","localeAltName":null},{"geonameid":2638797,"name":"Saint Florence","admin3":"00NS062","localeAltName":null},{"geonameid":2638781,"name":"Saint Ishmaelâ€™s","admin3":"00NS063","localeAltName":null},{"geonameid":2638759,"name":"Saint Lawrence","admin3":"00NS023","localeAltName":null},{"geonameid":2638715,"name":"Saint Nicholas","admin3":"00NS056","localeAltName":null},{"geonameid":3345122,"name":"Saint Petrox","admin3":"00NS070","localeAltName":null},{"geonameid":2638690,"name":"Saint Twynnells","admin3":"00NS070","localeAltName":null},{"geonameid":2638490,"name":"Saundersfoot","admin3":"00NS065","localeAltName":null},{"geonameid":3345252,"name":"Scleddau","admin3":"00NS066","localeAltName":null},{"geonameid":3345114,"name":"Simpson Cross","admin3":"00NS008","localeAltName":null},{"geonameid":2637543,"name":"Solva","admin3":"00NS068","localeAltName":null},{"geonameid":2637218,"name":"Spittal","admin3":"00NS069","localeAltName":null},{"geonameid":3345102,"name":"Square and Compass","admin3":"00NS035","localeAltName":null},{"geonameid":2638814,"name":"St. Dogmaels","admin3":"00NS061","localeAltName":null},{"geonameid":2637151,"name":"Stackpole","admin3":"00NS070","localeAltName":null},{"geonameid":3345152,"name":"Star","admin3":"00NS012","localeAltName":null},{"geonameid":2636950,"name":"Stepaside","admin3":"00NS065","localeAltName":null},{"geonameid":3345119,"name":"Steynton","admin3":"00NS045","localeAltName":null},{"geonameid":2636310,"name":"Talbenny","admin3":"00NS073","localeAltName":null},{"geonameid":2636175,"name":"Tavernspite","admin3":"00NS029","localeAltName":null},{"geonameid":3345153,"name":"Tegryn","admin3":"00NS012","localeAltName":null},{"geonameid":2636110,"name":"Templeton","admin3":"00NS071","localeAltName":null},{"geonameid":2636104,"name":"Tenby","admin3":"00NS072","localeAltName":null},{"geonameid":3345139,"name":"Thomas Chapel","admin3":"00NS028","localeAltName":null},{"geonameid":3345118,"name":"Tiers Cross","admin3":"00NS074","localeAltName":null},{"geonameid":2635548,"name":"Trecwn","admin3":"00NS075","localeAltName":null},{"geonameid":2635537,"name":"Treffgarne","admin3":"00NS079","localeAltName":null},{"geonameid":3345104,"name":"Treffynnon","admin3":"00NS005","localeAltName":null},{"geonameid":2635476,"name":"Trefin","admin3":"00NS035","localeAltName":null},{"geonameid":3345103,"name":"Treglemais","admin3":"00NS035","localeAltName":null},{"geonameid":3345107,"name":"Treleddyd-fawr","admin3":"00NS060","localeAltName":null},{"geonameid":3345106,"name":"Tretio","admin3":"00NS060","localeAltName":null},{"geonameid":3345248,"name":"Tufton","admin3":"00NS057","localeAltName":null},{"geonameid":9409290,"name":"Twycross","admin3":"00NS064","localeAltName":null},{"geonameid":2635036,"name":"Uzmaston","admin3":"00NS076","localeAltName":null},{"geonameid":2634995,"name":"Velindre-farchog","admin3":"00NS048","localeAltName":null},{"geonameid":3345249,"name":"Wallis","admin3":"00NS001","localeAltName":null},{"geonameid":2634832,"name":"Walton East","admin3":"00NS078","localeAltName":null},{"geonameid":2634823,"name":"Walton West","admin3":"00NS073","localeAltName":null},{"geonameid":3345117,"name":"Walwynâ€™s Castle","admin3":"00NS077","localeAltName":null},{"geonameid":2634746,"name":"Warren","admin3":"00NS010","localeAltName":null},{"geonameid":3345257,"name":"Waterston","admin3":"00NS036","localeAltName":null},{"geonameid":3345254,"name":"Welsh Hook","admin3":"00NS079","localeAltName":null},{"geonameid":2634110,"name":"Whitechurch","admin3":"00NS014","localeAltName":null},{"geonameid":2633757,"name":"Wiston","admin3":"00NS078","localeAltName":null},{"geonameid":3345253,"name":"Wolfâ€™s Castle","admin3":"00NS079","localeAltName":null},{"geonameid":6693665,"name":"Wolfscastle","admin3":"00NS079","localeAltName":null},{"geonameid":3345112,"name":"Wolfsdale","admin3":"00NS008","localeAltName":null},{"geonameid":2633370,"name":"Yerbeston","admin3":"00NS026","localeAltName":null}],"admin3":[{"geonameid":7291002,"name":"Letterston","admin3":"00NS031","localeAltName":null},{"geonameid":7291003,"name":"Manordeifi","admin3":"00NS040","localeAltName":null},{"geonameid":7291004,"name":"Marloes and St. Brides","admin3":"00NS041","localeAltName":null},{"geonameid":7291005,"name":"Martletwy","admin3":"00NS042","localeAltName":null},{"geonameid":7291006,"name":"Nolton and Roch","admin3":"00NS052","localeAltName":null},{"geonameid":7291007,"name":"Puncheston","admin3":"00NS057","localeAltName":null},{"geonameid":7291008,"name":"Rudbaxton","admin3":"00NS059","localeAltName":null},{"geonameid":7291009,"name":"St. Ishmael's","admin3":"00NS063","localeAltName":null},{"geonameid":7291010,"name":"Spittal","admin3":"00NS069","localeAltName":null},{"geonameid":7291011,"name":"Stackpole","admin3":"00NS070","localeAltName":null},{"geonameid":7291012,"name":"Llangwm","admin3":"00NS081","localeAltName":null},{"geonameid":7292298,"name":"Burton","admin3":"00NS006","localeAltName":null},{"geonameid":7292299,"name":"Camrose","admin3":"00NS008","localeAltName":null},{"geonameid":7292300,"name":"Castlemartin","admin3":"00NS010","localeAltName":null},{"geonameid":7292301,"name":"Crymych","admin3":"00NS014","localeAltName":null},{"geonameid":7292302,"name":"Fishguard and Goodwick","admin3":"00NS020","localeAltName":null},{"geonameid":7292303,"name":"Haverfordwest","admin3":"00NS022","localeAltName":null},{"geonameid":7292304,"name":"Kilgetty/Begelly","admin3":"00NS028","localeAltName":null},{"geonameid":7292305,"name":"Lampeter Velfrey","admin3":"00NS029","localeAltName":null},{"geonameid":7292306,"name":"Llanddewi Velfrey","admin3":"00NS032","localeAltName":null},{"geonameid":7292307,"name":"Llandissilio West","admin3":"00NS033","localeAltName":null},{"geonameid":7292308,"name":"Manorbier","admin3":"00NS039","localeAltName":null},{"geonameid":7292309,"name":"Mynachlog-Ddu","admin3":"00NS046","localeAltName":null},{"geonameid":7292310,"name":"Rosemarket","admin3":"00NS058","localeAltName":null},{"geonameid":7292311,"name":"St Florence","admin3":"00NS062","localeAltName":null},{"geonameid":7292312,"name":"Scleddau","admin3":"00NS066","localeAltName":null},{"geonameid":7292313,"name":"Solva","admin3":"00NS068","localeAltName":null},{"geonameid":7292314,"name":"Tiers Cross","admin3":"00NS074","localeAltName":null},{"geonameid":7292315,"name":"Uzmaston and Boulston","admin3":"00NS076","localeAltName":null},{"geonameid":7292316,"name":"Wiston","admin3":"00NS078","localeAltName":null},{"geonameid":7292317,"name":"Wolfscastle","admin3":"00NS079","localeAltName":null},{"geonameid":7292318,"name":"Hook","admin3":"00NS082","localeAltName":null},{"geonameid":7292319,"name":"Clynderwen","admin3":"00NS083","localeAltName":null},{"geonameid":7293113,"name":"Boncath","admin3":"00NS004","localeAltName":null},{"geonameid":7293114,"name":"Brawdy","admin3":"00NS005","localeAltName":null},{"geonameid":7293275,"name":"Cosheston","admin3":"00NS013","localeAltName":null},{"geonameid":7293508,"name":"Dale","admin3":"00NS016","localeAltName":null},{"geonameid":7293575,"name":"Hayscastle","admin3":"00NS023","localeAltName":null},{"geonameid":7293739,"name":"Nevern","admin3":"00NS048","localeAltName":null},{"geonameid":7293806,"name":"Neyland","admin3":"00NS051","localeAltName":null},{"geonameid":7294004,"name":"Amroth","admin3":"00NS002","localeAltName":null},{"geonameid":7294030,"name":"Templeton","admin3":"00NS071","localeAltName":null},{"geonameid":7294031,"name":"Tenby","admin3":"00NS072","localeAltName":null},{"geonameid":7295998,"name":"Newport","admin3":"00NS050","localeAltName":null},{"geonameid":7296026,"name":"Pembroke","admin3":"00NS053","localeAltName":null},{"geonameid":7296244,"name":"Herbrandston","admin3":"00NS024","localeAltName":null},{"geonameid":7296245,"name":"Lamphey","admin3":"00NS030","localeAltName":null},{"geonameid":7296246,"name":"Llawhaden","admin3":"00NS037","localeAltName":null},{"geonameid":7296247,"name":"Mathry","admin3":"00NS043","localeAltName":null},{"geonameid":7296248,"name":"Merlin's Bridge","admin3":"00NS044"},{"geonameid":7296308,"name":"Milford Haven","admin3":"00NS045","localeAltName":null},{"geonameid":7296309,"name":"New Moat","admin3":"00NS049","localeAltName":null},{"geonameid":7296334,"name":"St. Dogmaels","admin3":"00NS061","localeAltName":null},{"geonameid":7296335,"name":"St. Mary Out Liberty","admin3":"00NS064","localeAltName":null},{"geonameid":7296336,"name":"Slebech","admin3":"00NS067"},{"geonameid":7297123,"name":"Ambleston","admin3":"00NS001","localeAltName":null},{"geonameid":7297124,"name":"Angle","admin3":"00NS003","localeAltName":null},{"geonameid":7297125,"name":"Carew","admin3":"00NS009","localeAltName":null},{"geonameid":7297126,"name":"Clydau","admin3":"00NS012","localeAltName":null},{"geonameid":7297127,"name":"Cwm Gwaun","admin3":"00NS015","localeAltName":null},{"geonameid":7297128,"name":"East Williamston","admin3":"00NS018","localeAltName":null},{"geonameid":7297129,"name":"Eglwyswrw","admin3":"00NS019","localeAltName":null},{"geonameid":7297130,"name":"Johnston","admin3":"00NS027","localeAltName":null},{"geonameid":7297741,"name":"Pembroke Dock","admin3":"00NS054","localeAltName":null},{"geonameid":7297863,"name":"Pencaer","admin3":"00NS056","localeAltName":null},{"geonameid":7297871,"name":"Cilgerran","admin3":"00NS011","localeAltName":null},{"geonameid":7301099,"name":"Dinas Cross","admin3":"00NS017","localeAltName":null},{"geonameid":7301100,"name":"Freystrop","admin3":"00NS021","localeAltName":null},{"geonameid":7301101,"name":"Hundleton","admin3":"00NS025","localeAltName":null},{"geonameid":7301102,"name":"Jeffreyston","admin3":"00NS026","localeAltName":null},{"geonameid":7301103,"name":"Maenclochog","admin3":"00NS038","localeAltName":null},{"geonameid":7301104,"name":"Narberth","admin3":"00NS047","localeAltName":null},{"geonameid":7301105,"name":"Penally","admin3":"00NS055","localeAltName":null},{"geonameid":7301106,"name":"St. David's and the Cathedral Close","admin3":"00NS060","localeAltName":null},{"geonameid":7301107,"name":"Saundersfoot","admin3":"00NS065","localeAltName":null},{"geonameid":7301108,"name":"The Havens","admin3":"00NS073","localeAltName":null},{"geonameid":7301109,"name":"Trecwn","admin3":"00NS075","localeAltName":null},{"geonameid":7301110,"name":"Walwyn's Castle","admin3":"00NS077","localeAltName":null},{"geonameid":7301631,"name":"Llanrhian","admin3":"00NS035","localeAltName":null},{"geonameid":7301632,"name":"Llanstadwell","admin3":"00NS036","localeAltName":null}],"alternateNames":[{"alternatenameId":1626654,"geonameid":2634895,"isoLanguage":"en","alternateName":"Wales","isPreferredName":true,"isShortName":true,"isColloquial":false,"isHistoric":false}]},"__N_SSG":true}