{"pageProps":{"locale":"en","admin2":{"geonameid":2648110,"name":"Greater London","country":"GB","admin1":"ENG","admin2":"GLA","admin3":"","latitude":"51.5000000","longitude":"-0.1666700","localeAltName":"Greater London"},"admin1":{"geonameid":6269131,"name":"England","admin1":"ENG","localeAltName":"England"},"locations":[{"geonameid":12048007,"name":"Abbey","admin3":"I4","localeAltName":null},{"geonameid":12048352,"name":"Abbey","admin3":"A1","localeAltName":null},{"geonameid":12048423,"name":"Abbey Road","admin3":"P5","localeAltName":null},{"geonameid":7302135,"name":"Abbey Wood","admin3":"E7","localeAltName":null},{"geonameid":12048178,"name":"Abingdon","admin3":"G4","localeAltName":null},{"geonameid":2657697,"name":"Acton","admin3":"D9","localeAltName":null},{"geonameid":12047983,"name":"Acton Central","admin3":"D9","localeAltName":null},{"geonameid":2657678,"name":"Addington","admin3":"C8","localeAltName":null},{"geonameid":12047937,"name":"Addiscombe","admin3":"C8","localeAltName":null},{"geonameid":12048267,"name":"Addison","admin3":"F1","localeAltName":null},{"geonameid":12048204,"name":"Aldborough","admin3":"K8","localeAltName":null},{"geonameid":11550771,"name":"Aldersbrook","admin3":"K8","localeAltName":null},{"geonameid":12048321,"name":"Aldersgate","admin3":"H9","localeAltName":null},{"geonameid":11550773,"name":"Aldgate","admin3":"H9","localeAltName":null},{"geonameid":12048407,"name":"Alexandra","admin3":"F3","localeAltName":null},{"geonameid":12047910,"name":"Alexandra","admin3":"G7","localeAltName":null},{"geonameid":12048280,"name":"Alibon","admin3":"A1","localeAltName":null},{"geonameid":12048118,"name":"Alperton","admin3":"B5","localeAltName":null},{"geonameid":7289509,"name":"Anerley","admin3":"B8","localeAltName":null},{"geonameid":11777624,"name":"Archway","admin3":"G3","localeAltName":null},{"geonameid":9072593,"name":"Arkley","admin3":"A2","localeAltName":null},{"geonameid":12047932,"name":"Ashburton","admin3":"C8","localeAltName":null},{"geonameid":12048263,"name":"Askew","admin3":"F1","localeAltName":null},{"geonameid":12048262,"name":"Avonmore and Brook Green","admin3":"F1","localeAltName":null},{"geonameid":6691486,"name":"Baker Street","admin3":"P5","localeAltName":null},{"geonameid":2656580,"name":"Balham","admin3":"H1","localeAltName":null},{"geonameid":12048203,"name":"Balham","admin3":"P1","localeAltName":null},{"geonameid":11550785,"name":"Bank","admin3":"H9","localeAltName":null},{"geonameid":6690593,"name":"Barbican","admin3":"H9","localeAltName":null},{"geonameid":2656333,"name":"Barking","admin3":"A1","localeAltName":null},{"geonameid":2656330,"name":"Barkingside","admin3":"K8","localeAltName":null},{"geonameid":12048339,"name":"Barkingside","admin3":"K8","localeAltName":null},{"geonameid":12048148,"name":"Barnehurst","admin3":"A6","localeAltName":null},{"geonameid":2656296,"name":"Barnes","admin3":"L1","localeAltName":null},{"geonameid":2656295,"name":"Barnet","admin3":"A2","localeAltName":null},{"geonameid":12048001,"name":"Barnhill","admin3":"F9","localeAltName":null},{"geonameid":12048062,"name":"Barnhill","admin3":"B5","localeAltName":null},{"geonameid":6690590,"name":"Barnsbury","admin3":"G3","localeAltName":null},{"geonameid":12048296,"name":"Barnsbury","admin3":"G3","localeAltName":null},{"geonameid":8199317,"name":"Barons Court","admin3":"F1","localeAltName":null},{"geonameid":12047931,"name":"Bassishaw","admin3":"H9","localeAltName":null},{"geonameid":6690602,"name":"Battersea","admin3":"P1","localeAltName":null},{"geonameid":12048430,"name":"Bayswater","admin3":"P5","localeAltName":null},{"geonameid":6545243,"name":"Bayswater","admin3":"P5","localeAltName":null},{"geonameid":2656065,"name":"Beckenham","admin3":"B8","localeAltName":null},{"geonameid":2656052,"name":"Beckton","admin3":"I8","localeAltName":null},{"geonameid":6690870,"name":"Becontree","admin3":"A1","localeAltName":null},{"geonameid":12048350,"name":"Becontree","admin3":"A1","localeAltName":null},{"geonameid":6690872,"name":"Becontree Heath","admin3":"A1","localeAltName":null},{"geonameid":6547120,"name":"Beddington Corner","admin3":"N8","localeAltName":null},{"geonameid":10104037,"name":"Beddington Hill","admin3":"N8","localeAltName":null},{"geonameid":12048227,"name":"Beddington North","admin3":"N8","localeAltName":null},{"geonameid":12048215,"name":"Beddington South","admin3":"N8","localeAltName":null},{"geonameid":12047956,"name":"Bedfont","admin3":"G1","localeAltName":null},{"geonameid":12048201,"name":"Bedford","admin3":"P1","localeAltName":null},{"geonameid":6545247,"name":"Belgravia","admin3":"P5","localeAltName":null},{"geonameid":12048100,"name":"Bellingham","admin3":"H6","localeAltName":null},{"geonameid":12048041,"name":"Belmont","admin3":"F4","localeAltName":null},{"geonameid":10104034,"name":"Belmont","admin3":"N8","localeAltName":null},{"geonameid":12048394,"name":"Belsize","admin3":"C4","localeAltName":null},{"geonameid":6690581,"name":"Belsize Park","admin3":"C4","localeAltName":null},{"geonameid":2655929,"name":"Belvedere","admin3":"A6","localeAltName":null},{"geonameid":12047927,"name":"Bensham Manor","admin3":"C8","localeAltName":null},{"geonameid":2655853,"name":"Bermondsey","admin3":"M8","localeAltName":null},{"geonameid":6690818,"name":"Berry's Green","admin3":"B8","localeAltName":null},{"geonameid":12047907,"name":"Berrylands","admin3":"G7","localeAltName":null},{"geonameid":6690989,"name":"Bethnal Green","admin3":"O5","localeAltName":null},{"geonameid":12048288,"name":"Bethnal Green North","admin3":"O5","localeAltName":null},{"geonameid":12048391,"name":"Bethnal Green South","admin3":"O5","localeAltName":null},{"geonameid":12047911,"name":"Beverley","admin3":"G7","localeAltName":null},{"geonameid":2655775,"name":"Bexley","admin3":"A6","localeAltName":"Bexley"},{"geonameid":2655774,"name":"Bexleyheath","admin3":"A6","localeAltName":null},{"geonameid":2655721,"name":"Bickley","admin3":"B8","localeAltName":null},{"geonameid":2655690,"name":"Biggin Hill","admin3":"B8","localeAltName":null},{"geonameid":11550776,"name":"Billingsgate","admin3":"H9","localeAltName":null},{"geonameid":12048026,"name":"Billingsgate","admin3":"H9","localeAltName":null},{"geonameid":12048081,"name":"Bishop's","admin3":"H1","localeAltName":null},{"geonameid":12048367,"name":"Bishopsgate","admin3":"H9","localeAltName":null},{"geonameid":12048131,"name":"Blackfen and Lamorbey","admin3":"A6","localeAltName":null},{"geonameid":11550821,"name":"Blackfriars","admin3":"H9","localeAltName":null},{"geonameid":6947041,"name":"Blackheath","admin3":"H6","localeAltName":null},{"geonameid":12048119,"name":"Blackheath Westcombe","admin3":"E7","localeAltName":null},{"geonameid":2655438,"name":"Blackwall","admin3":"O5","localeAltName":null},{"geonameid":12048286,"name":"Blackwall and Cubitt Town","admin3":"O5","localeAltName":null},{"geonameid":12048140,"name":"Blendon and Penhill","admin3":"A6","localeAltName":null},{"geonameid":2655333,"name":"Bloomsbury","admin3":"C4","localeAltName":null},{"geonameid":12048275,"name":"Bloomsbury","admin3":"C4","localeAltName":null},{"geonameid":12048333,"name":"Boleyn","admin3":"I8","localeAltName":null},{"geonameid":12048023,"name":"Botwell","admin3":"F9","localeAltName":null},{"geonameid":12048404,"name":"Bounds Green","admin3":"F3","localeAltName":null},{"geonameid":2655076,"name":"Bow","admin3":"I8","localeAltName":null},{"geonameid":12048297,"name":"Bow East","admin3":"O5","localeAltName":null},{"geonameid":12048295,"name":"Bow West","admin3":"O5","localeAltName":null},{"geonameid":12048170,"name":"Bowes","admin3":"E3","localeAltName":null},{"geonameid":12048144,"name":"Brampton","admin3":"A6","localeAltName":null},{"geonameid":12048415,"name":"Bread Street","admin3":"H9","localeAltName":null},{"geonameid":2654789,"name":"Brent","admin3":"B5","localeAltName":null},{"geonameid":2654787,"name":"Brentford","admin3":"D9","localeAltName":null},{"geonameid":12047967,"name":"Brentford","admin3":"G1","localeAltName":null},{"geonameid":7302129,"name":"Brick Lane","admin3":"O5","localeAltName":null},{"geonameid":12048206,"name":"Bridge","admin3":"K8","localeAltName":null},{"geonameid":12048324,"name":"Bridge","admin3":"H9","localeAltName":null},{"geonameid":6690877,"name":"Brixton","admin3":"H1","localeAltName":null},{"geonameid":6692466,"name":"Brixton Hill","admin3":"H1","localeAltName":null},{"geonameid":12047924,"name":"Broad Green","admin3":"C8","localeAltName":null},{"geonameid":12048416,"name":"Broad Street","admin3":"H9","localeAltName":null},{"geonameid":11551040,"name":"Brockley","admin3":"H6","localeAltName":null},{"geonameid":6697033,"name":"Brockley Hill","admin3":"F4","localeAltName":null},{"geonameid":2654588,"name":"Bromley","admin3":"B8","localeAltName":null},{"geonameid":12047952,"name":"Bromley Common and Keston","admin3":"B8","localeAltName":null},{"geonameid":12047942,"name":"Bromley Town","admin3":"B8","localeAltName":null},{"geonameid":12048291,"name":"Bromley-by-Bow","admin3":"O5","localeAltName":null},{"geonameid":12048236,"name":"Brompton","admin3":"G4","localeAltName":null},{"geonameid":12048046,"name":"Brondesbury Park","admin3":"B5","localeAltName":null},{"geonameid":6615602,"name":"Brook Green","admin3":"F1","localeAltName":null},{"geonameid":12047987,"name":"Brooklands","admin3":"F6","localeAltName":null},{"geonameid":12048013,"name":"Brownswood","admin3":"E8","localeAltName":null},{"geonameid":12048399,"name":"Bruce Grove","admin3":"F3","localeAltName":null},{"geonameid":12048019,"name":"Brunel","admin3":"F9","localeAltName":null},{"geonameid":12048074,"name":"Brunswick Park","admin3":"A2","localeAltName":null},{"geonameid":12048089,"name":"Brunswick Park","admin3":"M8","localeAltName":null},{"geonameid":12047929,"name":"Bryanston and Dorset Square","admin3":"P5","localeAltName":null},{"geonameid":12048298,"name":"Bunhill","admin3":"G3","localeAltName":null},{"geonameid":8394363,"name":"Burnt Oak","admin3":"A2","localeAltName":null},{"geonameid":12048173,"name":"Bush Hill Park","admin3":"E3","localeAltName":null},{"geonameid":10104887,"name":"Bushey Mead","admin3":"I4","localeAltName":null},{"geonameid":12048395,"name":"Caledonian","admin3":"G3","localeAltName":null},{"geonameid":3345438,"name":"Camberwell","admin3":"M8","localeAltName":null},{"geonameid":12048087,"name":"Camberwell Green","admin3":"M8","localeAltName":null},{"geonameid":11875492,"name":"Camden Area","admin3":"C4","localeAltName":null},{"geonameid":3345437,"name":"Camden Town","admin3":"C4","localeAltName":null},{"geonameid":12048277,"name":"Camden Town with Primrose Hill","admin3":"C4","localeAltName":null},{"geonameid":12048384,"name":"Campden","admin3":"G4","localeAltName":null},{"geonameid":6692280,"name":"Canary Wharf","admin3":"O5","localeAltName":null},{"geonameid":12047909,"name":"Canbury","admin3":"G7","localeAltName":null},{"geonameid":12048436,"name":"Candlewick","admin3":"H9","localeAltName":null},{"geonameid":12048190,"name":"Cann Hall","admin3":"O9","localeAltName":null},{"geonameid":11549407,"name":"Canning Town","admin3":"I8","localeAltName":null},{"geonameid":12048411,"name":"Canning Town North","admin3":"I8","localeAltName":null},{"geonameid":12048331,"name":"Canning Town South","admin3":"I8","localeAltName":null},{"geonameid":12048373,"name":"Cannon Hill","admin3":"I4","localeAltName":null},{"geonameid":11552742,"name":"Cannon Street","admin3":"H9","localeAltName":null},{"geonameid":12048301,"name":"Canonbury","admin3":"G3","localeAltName":null},{"geonameid":12048037,"name":"Canons","admin3":"F4","localeAltName":null},{"geonameid":8394364,"name":"Canons Park","admin3":"F4","localeAltName":null},{"geonameid":12048278,"name":"Cantelowes","admin3":"C4","localeAltName":null},{"geonameid":2653646,"name":"Carshalton","admin3":"N8","localeAltName":null},{"geonameid":10104036,"name":"Carshalton Beeches","admin3":"N8","localeAltName":null},{"geonameid":12048222,"name":"Carshalton Central","admin3":"N8","localeAltName":null},{"geonameid":10104035,"name":"Carshalton on the Hill","admin3":"N8","localeAltName":null},{"geonameid":12048213,"name":"Carshalton South and Clockhouse","admin3":"N8","localeAltName":null},{"geonameid":6690797,"name":"Castelnau","admin3":"L1","localeAltName":null},{"geonameid":12048363,"name":"Castle Baynard","admin3":"H9","localeAltName":null},{"geonameid":2653516,"name":"Catford","admin3":"H6","localeAltName":null},{"geonameid":12048195,"name":"Catford South","admin3":"H6","localeAltName":null},{"geonameid":12048171,"name":"Cathall","admin3":"O9","localeAltName":null},{"geonameid":12048093,"name":"Cathedrals","admin3":"M8","localeAltName":null},{"geonameid":12047985,"name":"Cavendish","admin3":"F9","localeAltName":null},{"geonameid":12048310,"name":"Cazenove","admin3":"E8","localeAltName":null},{"geonameid":12048344,"name":"Chadwell","admin3":"K8","localeAltName":null},{"geonameid":6690869,"name":"Chadwell Heath","admin3":"A1","localeAltName":null},{"geonameid":12048357,"name":"Chadwell Heath","admin3":"A1","localeAltName":null},{"geonameid":6690583,"name":"Chalk Farm","admin3":"C4","localeAltName":null},{"geonameid":12048187,"name":"Chapel End","admin3":"O9","localeAltName":null},{"geonameid":2653341,"name":"Charing Cross","admin3":"P5","localeAltName":null},{"geonameid":8741036,"name":"Charlton","admin3":"E7","localeAltName":null},{"geonameid":12048031,"name":"Charville","admin3":"F9","localeAltName":null},{"geonameid":12048248,"name":"Chase","admin3":"E3","localeAltName":null},{"geonameid":12048313,"name":"Chatham","admin3":"E8","localeAltName":null},{"geonameid":12048096,"name":"Chaucer","admin3":"M8","localeAltName":null},{"geonameid":2653289,"name":"Cheam","admin3":"N8","localeAltName":null},{"geonameid":12047943,"name":"Cheap","admin3":"H9","localeAltName":null},{"geonameid":2653265,"name":"Chelsea","admin3":"G4","localeAltName":null},{"geonameid":8531799,"name":"Chelsea Embankment","admin3":"P5","localeAltName":null},{"geonameid":2653264,"name":"Chelsfield","admin3":"B8","localeAltName":null},{"geonameid":12047955,"name":"Chelsfield and Pratts Bottom","admin3":"B8","localeAltName":null},{"geonameid":2653229,"name":"Chessington","admin3":"G7","localeAltName":null},{"geonameid":12048434,"name":"Chessington North and Hook","admin3":"G7","localeAltName":null},{"geonameid":12047905,"name":"Chessington South","admin3":"G7","localeAltName":null},{"geonameid":12048066,"name":"Childs Hill","admin3":"A2","localeAltName":null},{"geonameid":2653148,"name":"Chingford","admin3":"O9","localeAltName":null},{"geonameid":12048183,"name":"Chingford Green","admin3":"O9","localeAltName":null},{"geonameid":2653123,"name":"Chislehurst","admin3":"B8","localeAltName":null},{"geonameid":2653121,"name":"Chiswick","admin3":"G1","localeAltName":null},{"geonameid":12047969,"name":"Chiswick Homefields","admin3":"G1","localeAltName":null},{"geonameid":12048003,"name":"Chiswick Riverside","admin3":"G1","localeAltName":null},{"geonameid":12048136,"name":"Christchurch","admin3":"A6","localeAltName":null},{"geonameid":12048209,"name":"Church End","admin3":"K8","localeAltName":null},{"geonameid":12048390,"name":"Church Street","admin3":"P5","localeAltName":null},{"geonameid":12048020,"name":"Churchill","admin3":"P5","localeAltName":null},{"geonameid":2643741,"name":"City of London","admin3":"H9","localeAltName":null},{"geonameid":2634341,"name":"City of Westminster","admin3":"P5","localeAltName":null},{"geonameid":2652951,"name":"Clapham","admin3":"H1","localeAltName":null},{"geonameid":12048151,"name":"Clapham Common","admin3":"H1","localeAltName":null},{"geonameid":6929936,"name":"Clapham Junction","admin3":"P1","localeAltName":null},{"geonameid":8224902,"name":"Clapham North","admin3":"H1","localeAltName":null},{"geonameid":12048075,"name":"Clapham Town","admin3":"H1","localeAltName":null},{"geonameid":12048340,"name":"Clayhall","admin3":"K8","localeAltName":null},{"geonameid":12048334,"name":"Clementswood","admin3":"K8","localeAltName":null},{"geonameid":6690574,"name":"Clerkenwell","admin3":"G3","localeAltName":null},{"geonameid":12047981,"name":"Cleveland","admin3":"D9","localeAltName":null},{"geonameid":12047988,"name":"Clissold","admin3":"E8","localeAltName":null},{"geonameid":12047938,"name":"Clock House","admin3":"B8","localeAltName":null},{"geonameid":2652672,"name":"Cockfosters","admin3":"E3","localeAltName":null},{"geonameid":11552485,"name":"Coldblow","admin3":"A6","localeAltName":null},{"geonameid":12048154,"name":"Coldharbour","admin3":"H1","localeAltName":null},{"geonameid":12048113,"name":"Coldharbour and New Eltham","admin3":"E7","localeAltName":null},{"geonameid":12048175,"name":"Coleman Street","admin3":"H9","localeAltName":null},{"geonameid":8394367,"name":"Colindale","admin3":"A2","localeAltName":null},{"geonameid":12048082,"name":"College","admin3":"M8","localeAltName":null},{"geonameid":12048266,"name":"College Park and Old Oak","admin3":"F1","localeAltName":null},{"geonameid":6690802,"name":"Collier Row","admin3":"F6","localeAltName":null},{"geonameid":6691837,"name":"Colliers Wood","admin3":"I4","localeAltName":null},{"geonameid":12048264,"name":"Colville","admin3":"G4","localeAltName":null},{"geonameid":12048150,"name":"Colyers","admin3":"A6","localeAltName":null},{"geonameid":12047915,"name":"Coombe Hill","admin3":"G7","localeAltName":null},{"geonameid":12048428,"name":"Coombe Vale","admin3":"G7","localeAltName":null},{"geonameid":12047949,"name":"Copers Cope","admin3":"B8","localeAltName":null},{"geonameid":12048139,"name":"Coppetts","admin3":"A2","localeAltName":null},{"geonameid":12048015,"name":"Cordwainer","admin3":"H9","localeAltName":null},{"geonameid":12048351,"name":"Cornhill","admin3":"H9","localeAltName":null},{"geonameid":2652249,"name":"Coulsdon","admin3":"C8","localeAltName":null},{"geonameid":12047918,"name":"Coulsdon East","admin3":"C8","localeAltName":null},{"geonameid":12047920,"name":"Coulsdon West","admin3":"C8","localeAltName":null},{"geonameid":12048226,"name":"Courtfield","admin3":"G4","localeAltName":null},{"geonameid":2652222,"name":"Covent Garden","admin3":"C4","localeAltName":null},{"geonameid":2652192,"name":"Cowley","admin3":"F9","localeAltName":null},{"geonameid":12048197,"name":"Cranbrook","admin3":"K8","localeAltName":null},{"geonameid":2652085,"name":"Cranford","admin3":"G1","localeAltName":null},{"geonameid":6690806,"name":"Cranham","admin3":"F6","localeAltName":null},{"geonameid":12048221,"name":"Cray Meadows","admin3":"A6","localeAltName":null},{"geonameid":12047917,"name":"Cray Valley East","admin3":"B8","localeAltName":null},{"geonameid":12047960,"name":"Cray Valley West","admin3":"B8","localeAltName":null},{"geonameid":12048133,"name":"Crayford","admin3":"A6","localeAltName":null},{"geonameid":12048358,"name":"Cremorne","admin3":"G4","localeAltName":null},{"geonameid":12048241,"name":"Cricket Green","admin3":"I4","localeAltName":null},{"geonameid":2651984,"name":"Cricklewood","admin3":"B5","localeAltName":null},{"geonameid":12048365,"name":"Cripplegate","admin3":"H9","localeAltName":null},{"geonameid":11551042,"name":"Crofton Park","admin3":"H6","localeAltName":null},{"geonameid":12047930,"name":"Croham","admin3":"C8","localeAltName":null},{"geonameid":6690565,"name":"Crouch End","admin3":"F3","localeAltName":null},{"geonameid":2651817,"name":"Croydon","admin3":"C8","localeAltName":null},{"geonameid":6693937,"name":"Crystal Palace","admin3":"B8","localeAltName":null},{"geonameid":2651790,"name":"Cubitt Town","admin3":"O5","localeAltName":null},{"geonameid":2651779,"name":"Cudham","admin3":"B8","localeAltName":null},{"geonameid":12048335,"name":"Custom House","admin3":"I8","localeAltName":null},{"geonameid":2651621,"name":"Dagenham","admin3":"A1","localeAltName":null},{"geonameid":12048306,"name":"Dalston","admin3":"E8","localeAltName":null},{"geonameid":6695926,"name":"Dalston","admin3":"E8","localeAltName":null},{"geonameid":12048141,"name":"Danson Park","admin3":"A6","localeAltName":null},{"geonameid":12047941,"name":"Darwin","admin3":"B8","localeAltName":null},{"geonameid":12048403,"name":"De Beauvoir","admin3":"E8","localeAltName":null},{"geonameid":2651349,"name":"Deptford","admin3":"H6","localeAltName":null},{"geonameid":2651149,"name":"Dollis Hill","admin3":"B5","localeAltName":null},{"geonameid":12047947,"name":"Dormers Wells","admin3":"D9","localeAltName":null},{"geonameid":12048323,"name":"Dowgate","admin3":"H9","localeAltName":null},{"geonameid":2651033,"name":"Downe","admin3":"B8","localeAltName":null},{"geonameid":12048102,"name":"Downham","admin3":"H6","localeAltName":null},{"geonameid":12048065,"name":"Dudden Hill","admin3":"B5","localeAltName":null},{"geonameid":2650803,"name":"Dulwich","admin3":"M8","localeAltName":null},{"geonameid":12048167,"name":"Dundonald","admin3":"I4","localeAltName":null},{"geonameid":2650567,"name":"Ealing","admin3":"D9","localeAltName":null},{"geonameid":12047989,"name":"Ealing Broadway","admin3":"D9","localeAltName":null},{"geonameid":9409254,"name":"Ealing Broadway","admin3":"D9","localeAltName":null},{"geonameid":12047925,"name":"Ealing Common","admin3":"D9","localeAltName":null},{"geonameid":2650549,"name":"Earls Court","admin3":"G4","localeAltName":null},{"geonameid":8063096,"name":"Earlsfield","admin3":"P1","localeAltName":null},{"geonameid":12048251,"name":"Earlsfield","admin3":"P1","localeAltName":null},{"geonameid":8259942,"name":"East Acton","admin3":"D9","localeAltName":null},{"geonameid":12048142,"name":"East Barnet","admin3":"A2","localeAltName":null},{"geonameid":2650502,"name":"East Barnet","admin3":"A2","localeAltName":null},{"geonameid":10345365,"name":"East Bedfont","admin3":"G1","localeAltName":null},{"geonameid":2650467,"name":"East Dulwich","admin3":"M8","localeAltName":null},{"geonameid":12047975,"name":"East Dulwich","admin3":"M8","localeAltName":null},{"geonameid":2650444,"name":"East Finchley","admin3":"A2","localeAltName":null},{"geonameid":2650430,"name":"East Ham","admin3":"I8","localeAltName":null},{"geonameid":12048412,"name":"East Ham Central","admin3":"I8","localeAltName":null},{"geonameid":12048317,"name":"East Ham North","admin3":"I8","localeAltName":null},{"geonameid":12048320,"name":"East Ham South","admin3":"I8","localeAltName":null},{"geonameid":12048290,"name":"East India and Lansbury","admin3":"O5","localeAltName":null},{"geonameid":6692464,"name":"East London","admin3":"O5","localeAltName":null},{"geonameid":12048149,"name":"East Putney","admin3":"P1","localeAltName":null},{"geonameid":11551053,"name":"East Sheen","admin3":"L1","localeAltName":null},{"geonameid":12048172,"name":"East Walworth","admin3":"M8","localeAltName":null},{"geonameid":12048237,"name":"East Wickham","admin3":"A6","localeAltName":null},{"geonameid":12048359,"name":"Eastbrook","admin3":"A1","localeAltName":null},{"geonameid":12048137,"name":"Eastbury","admin3":"A1","localeAltName":null},{"geonameid":2650479,"name":"Eastcote","admin3":"F9","localeAltName":null},{"geonameid":12048028,"name":"Eastcote and East Ruislip","admin3":"F9","localeAltName":null},{"geonameid":2650228,"name":"Edgware","admin3":"A2","localeAltName":null},{"geonameid":12048054,"name":"Edgware","admin3":"F4","localeAltName":null},{"geonameid":2650209,"name":"Edmonton","admin3":"F3","localeAltName":null},{"geonameid":12048158,"name":"Edmonton Green","admin3":"E3","localeAltName":null},{"geonameid":6691964,"name":"Elephant & Castle","admin3":"M8","localeAltName":null},{"geonameid":12047986,"name":"Elm Park","admin3":"F6","localeAltName":null},{"geonameid":6690805,"name":"Elm Park","admin3":"F6","localeAltName":null},{"geonameid":2650077,"name":"Elmers End","admin3":"B8","localeAltName":null},{"geonameid":2650042,"name":"Eltham","admin3":"E7","localeAltName":null},{"geonameid":12048116,"name":"Eltham North","admin3":"E7","localeAltName":null},{"geonameid":12048114,"name":"Eltham South","admin3":"E7","localeAltName":null},{"geonameid":12048117,"name":"Eltham West","admin3":"E7","localeAltName":null},{"geonameid":12047957,"name":"Elthorne","admin3":"D9","localeAltName":null},{"geonameid":12048035,"name":"Emerson Park","admin3":"F6","localeAltName":null},{"geonameid":12048192,"name":"Endlebury","admin3":"O9","localeAltName":null},{"geonameid":12048168,"name":"Enfield Highway","admin3":"E3","localeAltName":null},{"geonameid":2649996,"name":"Enfield Lock","admin3":"E3","localeAltName":null},{"geonameid":2649997,"name":"Enfield Town","admin3":"E3","localeAltName":"Enfield"},{"geonameid":2649937,"name":"Erith","admin3":"A6","localeAltName":null},{"geonameid":6690576,"name":"Euston","admin3":"C4","localeAltName":null},{"geonameid":12048196,"name":"Evelyn","admin3":"H6","localeAltName":null},{"geonameid":12047926,"name":"Fairfield","admin3":"C8","localeAltName":null},{"geonameid":12048254,"name":"Fairfield","admin3":"P1","localeAltName":null},{"geonameid":12048202,"name":"Fairlop","admin3":"K8","localeAltName":null},{"geonameid":11550851,"name":"Fairlop Waters","admin3":"K8","localeAltName":null},{"geonameid":12048135,"name":"Falconwood and Welling","admin3":"A6","localeAltName":null},{"geonameid":12047966,"name":"Faraday","admin3":"M8","localeAltName":null},{"geonameid":2649671,"name":"Farnborough","admin3":"B8","localeAltName":null},{"geonameid":12047940,"name":"Farnborough and Crofton","admin3":"B8","localeAltName":null},{"geonameid":6690573,"name":"Farringdon","admin3":"G3","localeAltName":null},{"geonameid":12048360,"name":"Farringdon Within","admin3":"H9","localeAltName":null},{"geonameid":12048364,"name":"Farringdon Without","admin3":"H9","localeAltName":null},{"geonameid":2649571,"name":"Feltham","admin3":"G1","localeAltName":null},{"geonameid":12047972,"name":"Feltham North","admin3":"G1","localeAltName":null},{"geonameid":12047970,"name":"Feltham West","admin3":"G1","localeAltName":null},{"geonameid":11552736,"name":"Fenchurch Street","admin3":"H9","localeAltName":null},{"geonameid":12048067,"name":"Ferndale","admin3":"H1","localeAltName":null},{"geonameid":12047936,"name":"Fieldway","admin3":"C8","localeAltName":null},{"geonameid":12048244,"name":"Figge's Marsh","admin3":"I4","localeAltName":null},{"geonameid":2649441,"name":"Finchley","admin3":"A2","localeAltName":null},{"geonameid":12048070,"name":"Finchley Church End","admin3":"A2","localeAltName":null},{"geonameid":2649400,"name":"Finsbury","admin3":"G3","localeAltName":null},{"geonameid":6690588,"name":"Finsbury Park","admin3":"F3","localeAltName":null},{"geonameid":12048078,"name":"Finsbury Park","admin3":"G3","localeAltName":null},{"geonameid":6545172,"name":"Fitzrovia","admin3":"C4","localeAltName":null},{"geonameid":11552741,"name":"Fleet Street","admin3":"H9","localeAltName":null},{"geonameid":2649244,"name":"Foots Cray","admin3":"B8","localeAltName":null},{"geonameid":12048159,"name":"Forest","admin3":"O9","localeAltName":null},{"geonameid":6690991,"name":"Forest Gate","admin3":"I8","localeAltName":null},{"geonameid":12048101,"name":"Forest Gate North","admin3":"I8","localeAltName":null},{"geonameid":12048337,"name":"Forest Gate South","admin3":"I8","localeAltName":null},{"geonameid":12048157,"name":"Forest Hill","admin3":"H6","localeAltName":null},{"geonameid":2649216,"name":"Forest Hill","admin3":"H6","localeAltName":null},{"geonameid":12048322,"name":"Fortis Green","admin3":"F3","localeAltName":null},{"geonameid":12048281,"name":"Fortune Green","admin3":"C4","localeAltName":null},{"geonameid":2649055,"name":"Friern Barnet","admin3":"A2","localeAltName":null},{"geonameid":12048283,"name":"Frognal and Fitzjohns","admin3":"C4","localeAltName":null},{"geonameid":12048058,"name":"Fryent","admin3":"B5","localeAltName":null},{"geonameid":2648997,"name":"Fulham","admin3":"F1","localeAltName":null},{"geonameid":12048258,"name":"Fulham Broadway","admin3":"F1","localeAltName":null},{"geonameid":12048214,"name":"Fulham Reach","admin3":"F1","localeAltName":null},{"geonameid":12048210,"name":"Fullwell","admin3":"K8","localeAltName":null},{"geonameid":12048234,"name":"Fulwell and Hampton Hill","admin3":"L1","localeAltName":null},{"geonameid":12048252,"name":"Furzedown","admin3":"P1","localeAltName":null},{"geonameid":11550603,"name":"Furzedown","admin3":"P1","localeAltName":null},{"geonameid":11777627,"name":"Gants Hill","admin3":"K8","localeAltName":null},{"geonameid":12048068,"name":"Garden Suburb","admin3":"A2","localeAltName":null},{"geonameid":12048345,"name":"Gascoigne","admin3":"A1","localeAltName":null},{"geonameid":6690864,"name":"Gidea Park","admin3":"F6","localeAltName":null},{"geonameid":12048071,"name":"Gipsy Hill","admin3":"H1","localeAltName":null},{"geonameid":12048126,"name":"Glyndon","admin3":"E7","localeAltName":null},{"geonameid":12048270,"name":"Golborne","admin3":"G4","localeAltName":null},{"geonameid":7535506,"name":"Golders Green","admin3":"A2","localeAltName":null},{"geonameid":12048125,"name":"Golders Green","admin3":"A2","localeAltName":null},{"geonameid":2648330,"name":"Goodmayes","admin3":"K8","localeAltName":null},{"geonameid":12048008,"name":"Gooshays","admin3":"F6","localeAltName":null},{"geonameid":12048342,"name":"Goresbrook","admin3":"A1","localeAltName":null},{"geonameid":12048387,"name":"Gospel Oak","admin3":"C4","localeAltName":null},{"geonameid":12048164,"name":"Grange","admin3":"E3","localeAltName":null},{"geonameid":12048094,"name":"Grange","admin3":"M8","localeAltName":null},{"geonameid":12048161,"name":"Graveney","admin3":"P1","localeAltName":null},{"geonameid":12048188,"name":"Graveney","admin3":"I4","localeAltName":null},{"geonameid":12048057,"name":"Green Street East","admin3":"I8","localeAltName":null},{"geonameid":12048044,"name":"Green Street West","admin3":"I8","localeAltName":null},{"geonameid":2647972,"name":"Greenford","admin3":"D9","localeAltName":null},{"geonameid":12047976,"name":"Greenford Broadway","admin3":"D9","localeAltName":null},{"geonameid":12047982,"name":"Greenford Green","admin3":"D9","localeAltName":null},{"geonameid":6693776,"name":"Greenhill","admin3":"F4","localeAltName":null},{"geonameid":2647937,"name":"Greenwich","admin3":"E7","localeAltName":null},{"geonameid":12048120,"name":"Greenwich West","admin3":"E7","localeAltName":null},{"geonameid":12048427,"name":"Grove","admin3":"G7","localeAltName":null},{"geonameid":12048129,"name":"Grove Green","admin3":"O9","localeAltName":null},{"geonameid":12048097,"name":"Grove Park","admin3":"H6","localeAltName":null},{"geonameid":9884146,"name":"Grove Park","admin3":"G1","localeAltName":null},{"geonameid":10272879,"name":"Gunnersbury","admin3":"G1","localeAltName":null},{"geonameid":2647703,"name":"Hackbridge","admin3":"N8","localeAltName":null},{"geonameid":2647694,"name":"Hackney","admin3":"E8","localeAltName":null},{"geonameid":12048312,"name":"Hackney Central","admin3":"E8","localeAltName":null},{"geonameid":12047964,"name":"Hackney Downs","admin3":"E8","localeAltName":null},{"geonameid":12047994,"name":"Hacton","admin3":"F6","localeAltName":null},{"geonameid":6693771,"name":"Hadley Wood","admin3":"E3","localeAltName":null},{"geonameid":12048294,"name":"Haggerston","admin3":"E8","localeAltName":null},{"geonameid":6690865,"name":"Hainault","admin3":"K8","localeAltName":null},{"geonameid":12048435,"name":"Hale","admin3":"A2","localeAltName":null},{"geonameid":10104879,"name":"Hale End","admin3":"O9","localeAltName":null},{"geonameid":12048189,"name":"Hale End and Highams Park","admin3":"O9","localeAltName":null},{"geonameid":6949212,"name":"Ham","admin3":"L1","localeAltName":null},{"geonameid":12048231,"name":"Ham, Petersham and Richmond Riverside","admin3":"L1","localeAltName":null},{"geonameid":2647567,"name":"Hammersmith","admin3":"F1","localeAltName":null},{"geonameid":12048260,"name":"Hammersmith Broadway","admin3":"F1","localeAltName":null},{"geonameid":2647553,"name":"Hampstead","admin3":"C4","localeAltName":null},{"geonameid":12048285,"name":"Hampstead Town","admin3":"C4","localeAltName":null},{"geonameid":2647550,"name":"Hampton","admin3":"L1","localeAltName":null},{"geonameid":6620446,"name":"Hampton Court","admin3":"L1","localeAltName":null},{"geonameid":2647547,"name":"Hampton Hill","admin3":"L1","localeAltName":null},{"geonameid":12048165,"name":"Hampton North","admin3":"L1","localeAltName":null},{"geonameid":12048229,"name":"Hampton Wick","admin3":"L1","localeAltName":null},{"geonameid":9613008,"name":"Hampton Wick","admin3":"L1","localeAltName":null},{"geonameid":10104883,"name":"Hamsey Green","admin3":"C8","localeAltName":null},{"geonameid":12047984,"name":"Hanger Hill","admin3":"D9","localeAltName":null},{"geonameid":12048402,"name":"Hans Town","admin3":"G4","localeAltName":null},{"geonameid":2647516,"name":"Hanwell","admin3":"D9","localeAltName":null},{"geonameid":2647514,"name":"Hanworth","admin3":"G1","localeAltName":null},{"geonameid":12047990,"name":"Hanworth Park","admin3":"G1","localeAltName":null},{"geonameid":2647487,"name":"Harefield","admin3":"F9","localeAltName":null},{"geonameid":2647476,"name":"Haringey","admin3":"F3","localeAltName":null},{"geonameid":2647468,"name":"Harlesden","admin3":"B5","localeAltName":null},{"geonameid":7522532,"name":"Harlington","admin3":"F9","localeAltName":null},{"geonameid":6951076,"name":"Harmondsworth","admin3":"F9","localeAltName":null},{"geonameid":6690868,"name":"Harold Wood","admin3":"F6","localeAltName":null},{"geonameid":8581595,"name":"Harringay","admin3":"F3","localeAltName":null},{"geonameid":2647425,"name":"Harrow","admin3":"F4","localeAltName":null},{"geonameid":2647421,"name":"Harrow on the Hill","admin3":"F4","localeAltName":null},{"geonameid":12048417,"name":"Harrow Road","admin3":"P5","localeAltName":null},{"geonameid":2647420,"name":"Harrow Weald","admin3":"F4","localeAltName":null},{"geonameid":12048105,"name":"Haselbury","admin3":"E3","localeAltName":null},{"geonameid":2647351,"name":"Hatch End","admin3":"F4","localeAltName":null},{"geonameid":12048194,"name":"Hatch Lane","admin3":"O9","localeAltName":null},{"geonameid":2647307,"name":"Havering atte Bower","admin3":"F6","localeAltName":null},{"geonameid":12048005,"name":"Havering Park","admin3":"F6","localeAltName":null},{"geonameid":12048388,"name":"Haverstock","admin3":"C4","localeAltName":null},{"geonameid":2647261,"name":"Hayes","admin3":"F9","localeAltName":null},{"geonameid":2647262,"name":"Hayes","admin3":"B8","localeAltName":null},{"geonameid":12047951,"name":"Hayes and Coney Hall","admin3":"B8","localeAltName":null},{"geonameid":10345364,"name":"Headstone","admin3":"F4","localeAltName":null},{"geonameid":12048088,"name":"Headstone North","admin3":"F4","localeAltName":null},{"geonameid":12048022,"name":"Headstone South","admin3":"F4","localeAltName":null},{"geonameid":12048355,"name":"Heath","admin3":"A1","localeAltName":null},{"geonameid":12047935,"name":"Heathfield","admin3":"C8","localeAltName":null},{"geonameid":12048230,"name":"Heathfield","admin3":"L1","localeAltName":null},{"geonameid":7284876,"name":"Heathrow","admin3":"F9","localeAltName":null},{"geonameid":12048047,"name":"Heathrow Villages","admin3":"F9","localeAltName":null},{"geonameid":12048006,"name":"Heaton","admin3":"F6","localeAltName":null},{"geonameid":12048143,"name":"Hendon","admin3":"A2","localeAltName":null},{"geonameid":2647116,"name":"Hendon","admin3":"A2","localeAltName":null},{"geonameid":6941035,"name":"Herne Hill","admin3":"M8","localeAltName":null},{"geonameid":12048080,"name":"Herne Hill","admin3":"H1","localeAltName":null},{"geonameid":2647027,"name":"Heston","admin3":"G1","localeAltName":null},{"geonameid":12047973,"name":"Heston Central","admin3":"G1","localeAltName":null},{"geonameid":12047963,"name":"Heston East","admin3":"G1","localeAltName":null},{"geonameid":12047962,"name":"Heston West","admin3":"G1","localeAltName":null},{"geonameid":6941037,"name":"High Barnet","admin3":"A2","localeAltName":null},{"geonameid":12048179,"name":"High Street","admin3":"O9","localeAltName":null},{"geonameid":9883957,"name":"Higham Hill","admin3":"O9","localeAltName":null},{"geonameid":10104878,"name":"Highams Park","admin3":"O9","localeAltName":null},{"geonameid":2646976,"name":"Highbury","admin3":"G3","localeAltName":null},{"geonameid":12048299,"name":"Highbury East","admin3":"G3","localeAltName":null},{"geonameid":12047933,"name":"Highbury West","admin3":"G3","localeAltName":null},{"geonameid":2646958,"name":"Highgate","admin3":"C4","localeAltName":null},{"geonameid":12048318,"name":"Highgate","admin3":"F3","localeAltName":null},{"geonameid":12048160,"name":"Highlands","admin3":"E3","localeAltName":null},{"geonameid":2646895,"name":"Hillingdon","admin3":"F9","localeAltName":null},{"geonameid":12048021,"name":"Hillingdon East","admin3":"F9","localeAltName":null},{"geonameid":12048303,"name":"Hillrise","admin3":"G3","localeAltName":null},{"geonameid":12048247,"name":"Hillside","admin3":"I4","localeAltName":null},{"geonameid":11611173,"name":"Hither Green","admin3":"H6","localeAltName":null},{"geonameid":12047979,"name":"Hobbayne","admin3":"D9","localeAltName":null},{"geonameid":12048180,"name":"Hoe Street","admin3":"O9","localeAltName":null},{"geonameid":2646781,"name":"Holborn","admin3":"C4","localeAltName":null},{"geonameid":12048276,"name":"Holborn and Covent Garden","admin3":"C4","localeAltName":null},{"geonameid":12048268,"name":"Holland","admin3":"G4","localeAltName":null},{"geonameid":8315400,"name":"Holloway","admin3":"G3","localeAltName":null},{"geonameid":6940958,"name":"Honor Oak Park","admin3":"H6","localeAltName":null},{"geonameid":2646653,"name":"Hook","admin3":"G7","localeAltName":null},{"geonameid":6690863,"name":"Hornchurch","admin3":"F6","localeAltName":null},{"geonameid":2646580,"name":"Hornsey","admin3":"F3","localeAltName":null},{"geonameid":2646517,"name":"Hounslow","admin3":"G1","localeAltName":null},{"geonameid":12048421,"name":"Hounslow Central","admin3":"G1","localeAltName":null},{"geonameid":6690874,"name":"Hounslow East","admin3":"G1","localeAltName":null},{"geonameid":12047971,"name":"Hounslow Heath","admin3":"G1","localeAltName":null},{"geonameid":12047950,"name":"Hounslow South","admin3":"G1","localeAltName":null},{"geonameid":6690873,"name":"Hounslow West","admin3":"G1","localeAltName":null},{"geonameid":2646476,"name":"Hoxton","admin3":"E8","localeAltName":null},{"geonameid":12048386,"name":"Hyde Park","admin3":"P5","localeAltName":null},{"geonameid":12048009,"name":"Hylands","admin3":"F6","localeAltName":null},{"geonameid":2646306,"name":"Ickenham","admin3":"F9","localeAltName":null},{"geonameid":2646277,"name":"Ilford","admin3":"K8","localeAltName":null},{"geonameid":12048002,"name":"Isleworth","admin3":"G1","localeAltName":null},{"geonameid":2646004,"name":"Isleworth","admin3":"G1","localeAltName":null},{"geonameid":2646003,"name":"Islington","admin3":"G3","localeAltName":null},{"geonameid":12048166,"name":"Jubilee","admin3":"E3","localeAltName":null},{"geonameid":12048289,"name":"Junction","admin3":"G3","localeAltName":null},{"geonameid":12047958,"name":"Kelsey and Eden Park","admin3":"B8","localeAltName":null},{"geonameid":2645821,"name":"Kenley","admin3":"C8","localeAltName":null},{"geonameid":6545174,"name":"Kennington","admin3":"M8","localeAltName":null},{"geonameid":6941039,"name":"Kensal Green","admin3":"B5","localeAltName":null},{"geonameid":2645801,"name":"Kensington","admin3":"G4","localeAltName":null},{"geonameid":6690587,"name":"Kentish Town","admin3":"C4","localeAltName":null},{"geonameid":2645788,"name":"Kenton","admin3":"F4","localeAltName":null},{"geonameid":12048064,"name":"Kenton","admin3":"B5","localeAltName":null},{"geonameid":12048098,"name":"Kenton East","admin3":"F4","localeAltName":null},{"geonameid":12048034,"name":"Kenton West","admin3":"F4","localeAltName":null},{"geonameid":2645758,"name":"Keston","admin3":"B8","localeAltName":null},{"geonameid":2645740,"name":"Kew","admin3":"L1","localeAltName":null},{"geonameid":2645738,"name":"Kew Gardens","admin3":"L1","localeAltName":null},{"geonameid":2645737,"name":"Kew Green","admin3":"L1","localeAltName":null},{"geonameid":2645726,"name":"Kidbrooke","admin3":"E7","localeAltName":null},{"geonameid":12048122,"name":"Kidbrooke with Hornfair","admin3":"E7","localeAltName":null},{"geonameid":6690572,"name":"Kilburn","admin3":"C4","localeAltName":null},{"geonameid":12048274,"name":"Kilburn","admin3":"C4","localeAltName":null},{"geonameid":12048052,"name":"Kilburn","admin3":"B5","localeAltName":null},{"geonameid":6690589,"name":"King's Cross","admin3":"C4","localeAltName":null},{"geonameid":12048279,"name":"King's Cross","admin3":"C4","localeAltName":null},{"geonameid":12048308,"name":"King's Park","admin3":"E8","localeAltName":null},{"geonameid":7302144,"name":"Kings Cross","admin3":"C4","localeAltName":null},{"geonameid":8394366,"name":"Kingsbury","admin3":"B5","localeAltName":null},{"geonameid":9257619,"name":"Kingsland","admin3":"E8","localeAltName":null},{"geonameid":6690829,"name":"Kingston upon Thames","admin3":"G7","localeAltName":null},{"geonameid":12048121,"name":"Knight's Hill","admin3":"H1","localeAltName":null},{"geonameid":6690580,"name":"Knightsbridge","admin3":"P5","localeAltName":null},{"geonameid":12048010,"name":"Knightsbridge and Belgravia","admin3":"P5","localeAltName":null},{"geonameid":12047923,"name":"Lady Margaret","admin3":"D9","localeAltName":null},{"geonameid":11551041,"name":"Ladywell","admin3":"H6","localeAltName":null},{"geonameid":6545250,"name":"Lambeth","admin3":"H1","localeAltName":null},{"geonameid":12048385,"name":"Lancaster Gate","admin3":"P5","localeAltName":null},{"geonameid":12048414,"name":"Langbourn","admin3":"H9","localeAltName":null},{"geonameid":12048156,"name":"Larkhall","admin3":"H1","localeAltName":null},{"geonameid":12048191,"name":"Larkswood","admin3":"O9","localeAltName":null},{"geonameid":12048372,"name":"Latchmere","admin3":"P1","localeAltName":null},{"geonameid":12048207,"name":"Lavender Fields","admin3":"I4","localeAltName":null},{"geonameid":12048185,"name":"Lea Bridge","admin3":"O9","localeAltName":null},{"geonameid":12048307,"name":"Leabridge","admin3":"E8","localeAltName":null},{"geonameid":10104060,"name":"Leaves Green","admin3":"B8","localeAltName":null},{"geonameid":9730993,"name":"Lee","admin3":"H6","localeAltName":null},{"geonameid":12048024,"name":"Lee Green","admin3":"H6","localeAltName":null},{"geonameid":12048153,"name":"Lesnes Abbey","admin3":"A6","localeAltName":null},{"geonameid":2644556,"name":"Lewisham","admin3":"H6","localeAltName":null},{"geonameid":12048108,"name":"Lewisham Central","admin3":"H6","localeAltName":null},{"geonameid":2644542,"name":"Leyton","admin3":"O9","localeAltName":null},{"geonameid":12048292,"name":"Leyton","admin3":"O9","localeAltName":null},{"geonameid":6692921,"name":"Leytonstone","admin3":"O9","localeAltName":null},{"geonameid":12048147,"name":"Lime Street","admin3":"H9","localeAltName":null},{"geonameid":2644497,"name":"Limehouse","admin3":"O5","localeAltName":null},{"geonameid":12048343,"name":"Little Ilford","admin3":"I8","localeAltName":null},{"geonameid":12048389,"name":"Little Venice","admin3":"P5","localeAltName":null},{"geonameid":12048091,"name":"Livesey","admin3":"M8","localeAltName":null},{"geonameid":9072609,"name":"Locksbottom","admin3":"B8","localeAltName":null},{"geonameid":2643743,"name":"London","admin3":"","localeAltName":null},{"geonameid":12048354,"name":"Longbridge","admin3":"A1","localeAltName":null},{"geonameid":12048128,"name":"Longlands","admin3":"A6","localeAltName":null},{"geonameid":12048246,"name":"Longthornton","admin3":"I4","localeAltName":null},{"geonameid":12048314,"name":"Lordship","admin3":"E8","localeAltName":null},{"geonameid":6691845,"name":"Lower Clapton","admin3":"E8","localeAltName":null},{"geonameid":12048162,"name":"Lower Edmonton","admin3":"E3","localeAltName":null},{"geonameid":8128644,"name":"Lower Edmonton","admin3":"E3","localeAltName":null},{"geonameid":2643516,"name":"Lower Holloway","admin3":"G3","localeAltName":null},{"geonameid":12048374,"name":"Lower Morden","admin3":"I4","localeAltName":null},{"geonameid":12048169,"name":"Loxford","admin3":"K8","localeAltName":null},{"geonameid":11552738,"name":"Ludgate Hill","admin3":"H9","localeAltName":null},{"geonameid":6690798,"name":"Maida Hill","admin3":"P5","localeAltName":null},{"geonameid":2643190,"name":"Maida Vale","admin3":"P5","localeAltName":null},{"geonameid":2643162,"name":"Malden","admin3":"G7","localeAltName":null},{"geonameid":12047977,"name":"Manor","admin3":"F9","localeAltName":null},{"geonameid":11550772,"name":"Manor Park","admin3":"I8","localeAltName":null},{"geonameid":11550791,"name":"Mansion House","admin3":"H9","localeAltName":null},{"geonameid":12048053,"name":"Mapesbury","admin3":"B5","localeAltName":null},{"geonameid":7536164,"name":"Marble Arch","admin3":"P5","localeAltName":null},{"geonameid":12048186,"name":"Markhouse","admin3":"O9","localeAltName":null},{"geonameid":11591731,"name":"Marks Gate","admin3":"A1","localeAltName":null},{"geonameid":12048039,"name":"Marlborough","admin3":"F4","localeAltName":null},{"geonameid":6545170,"name":"Marylebone","admin3":"P5","localeAltName":null},{"geonameid":12048425,"name":"Marylebone High Street","admin3":"P5","localeAltName":null},{"geonameid":6690803,"name":"Mawneys","admin3":"F6","localeAltName":null},{"geonameid":12048347,"name":"Mayesbrook","admin3":"A1","localeAltName":null},{"geonameid":2642878,"name":"Mayfair","admin3":"P5","localeAltName":null},{"geonameid":12048182,"name":"Mayfield","admin3":"K8","localeAltName":null},{"geonameid":6544930,"name":"Merton Park","admin3":"I4","localeAltName":null},{"geonameid":12048112,"name":"Middle Park and Sutcliffe","admin3":"E7","localeAltName":null},{"geonameid":10177320,"name":"Middlesex","admin3":"B5","localeAltName":null},{"geonameid":12048304,"name":"Mildmay","admin3":"G3","localeAltName":null},{"geonameid":6690990,"name":"Mile End","admin3":"O5","localeAltName":null},{"geonameid":12048392,"name":"Mile End and Globe Town","admin3":"O5","localeAltName":null},{"geonameid":12048396,"name":"Mile End East","admin3":"O5","localeAltName":null},{"geonameid":2642514,"name":"Mill Hill","admin3":"A2","localeAltName":null},{"geonameid":8394365,"name":"Mill Hill East","admin3":"A2","localeAltName":null},{"geonameid":2642487,"name":"Millwall","admin3":"O5","localeAltName":null},{"geonameid":2642414,"name":"Mitcham","admin3":"I4","localeAltName":null},{"geonameid":12048212,"name":"Monkhams","admin3":"K8","localeAltName":null},{"geonameid":11550790,"name":"Monument","admin3":"H9","localeAltName":null},{"geonameid":2642233,"name":"Morden","admin3":"I4","localeAltName":null},{"geonameid":11551058,"name":"Mortlake","admin3":"L1","localeAltName":null},{"geonameid":12048233,"name":"Mortlake and Barnes Common","admin3":"L1","localeAltName":null},{"geonameid":6690816,"name":"Mottingham","admin3":"H6","localeAltName":"Mottingham"},{"geonameid":12047959,"name":"Mottingham and Chislehurst North","admin3":"B8","localeAltName":null},{"geonameid":6690175,"name":"Mount Pleasant","admin3":"C4","localeAltName":null},{"geonameid":12048382,"name":"Munster","admin3":"F1","localeAltName":null},{"geonameid":6694222,"name":"Muswell Hill","admin3":"F3","localeAltName":null},{"geonameid":2641844,"name":"Neasden","admin3":"B5","localeAltName":null},{"geonameid":12047928,"name":"New Addington","admin3":"C8","localeAltName":null},{"geonameid":2641727,"name":"New Barnet","admin3":"A2","localeAltName":null},{"geonameid":2641725,"name":"New Bedfont","admin3":"G1","localeAltName":null},{"geonameid":12048110,"name":"New Cross","admin3":"H6","localeAltName":null},{"geonameid":2641661,"name":"New Cross","admin3":"H6","localeAltName":null},{"geonameid":6690817,"name":"New Eltham","admin3":"E7","localeAltName":"New Eltham"},{"geonameid":2641617,"name":"New Malden","admin3":"G7","localeAltName":null},{"geonameid":12048309,"name":"New River","admin3":"E8","localeAltName":null},{"geonameid":2641569,"name":"New Southgate","admin3":"E3","localeAltName":null},{"geonameid":12048198,"name":"Newbury","admin3":"K8","localeAltName":null},{"geonameid":12047995,"name":"Newington","admin3":"M8","localeAltName":null},{"geonameid":12047968,"name":"Nightingale","admin3":"P1","localeAltName":null},{"geonameid":6690821,"name":"Nine Elms","admin3":"P1","localeAltName":"Nine Elms"},{"geonameid":12048408,"name":"Noel Park","admin3":"F3","localeAltName":null},{"geonameid":12048211,"name":"Nonsuch","admin3":"N8","localeAltName":null},{"geonameid":9409273,"name":"Norbiton","admin3":"G7","localeAltName":null},{"geonameid":2641462,"name":"Norbury","admin3":"C8","localeAltName":null},{"geonameid":12048269,"name":"Norland","admin3":"G4","localeAltName":null},{"geonameid":2641437,"name":"North Acton","admin3":"D9","localeAltName":null},{"geonameid":10377793,"name":"North Cheam","admin3":"N8","localeAltName":null},{"geonameid":12048228,"name":"North End","admin3":"F1","localeAltName":null},{"geonameid":12048127,"name":"North End","admin3":"A6","localeAltName":null},{"geonameid":6694203,"name":"North Finchley","admin3":"A2","localeAltName":null},{"geonameid":12047978,"name":"North Greenford","admin3":"D9","localeAltName":null},{"geonameid":2641326,"name":"North Kensington","admin3":"G4","localeAltName":null},{"geonameid":6692461,"name":"North London","admin3":"G3","localeAltName":null},{"geonameid":2641291,"name":"North Ockendon","admin3":"F6","localeAltName":null},{"geonameid":12048232,"name":"North Richmond","admin3":"L1","localeAltName":null},{"geonameid":6692462,"name":"North West London","admin3":"B5","localeAltName":null},{"geonameid":2641215,"name":"North Woolwich","admin3":"I8","localeAltName":null},{"geonameid":12048255,"name":"Northcote","admin3":"P1","localeAltName":null},{"geonameid":12048011,"name":"Northfield","admin3":"D9","localeAltName":null},{"geonameid":2641290,"name":"Northolt","admin3":"D9","localeAltName":null},{"geonameid":12048012,"name":"Northolt Mandeville","admin3":"D9","localeAltName":null},{"geonameid":12047974,"name":"Northolt West End","admin3":"D9","localeAltName":null},{"geonameid":12048146,"name":"Northumberland Heath","admin3":"A6","localeAltName":null},{"geonameid":12048329,"name":"Northumberland Park","admin3":"F3","localeAltName":null},{"geonameid":12048055,"name":"Northwick Park","admin3":"B5","localeAltName":null},{"geonameid":2641216,"name":"Northwood","admin3":"F9","localeAltName":null},{"geonameid":12048029,"name":"Northwood Hills","admin3":"F9","localeAltName":null},{"geonameid":2641179,"name":"Norwood","admin3":"C8","localeAltName":null},{"geonameid":6690875,"name":"Norwood Green","admin3":"D9","localeAltName":null},{"geonameid":12048261,"name":"Notting Barns","admin3":"G4","localeAltName":null},{"geonameid":2641168,"name":"Notting Hill","admin3":"G4","localeAltName":null},{"geonameid":8199010,"name":"Notting Hill Gate","admin3":"G4","localeAltName":null},{"geonameid":6941034,"name":"Nunhead","admin3":"M8","localeAltName":null},{"geonameid":12048072,"name":"Oakleigh","admin3":"A2","localeAltName":null},{"geonameid":6690783,"name":"Oakwood","admin3":"E3","localeAltName":null},{"geonameid":6619881,"name":"Old Bailey","admin3":"H9","localeAltName":null},{"geonameid":8030214,"name":"Old Coulsdon","admin3":"C8","localeAltName":null},{"geonameid":7302128,"name":"Old Kent Road","admin3":"M8","localeAltName":null},{"geonameid":12047912,"name":"Old Malden","admin3":"G7","localeAltName":null},{"geonameid":8449549,"name":"Old Oak Common","admin3":"F1","localeAltName":null},{"geonameid":6690594,"name":"Old Street","admin3":"E8","localeAltName":null},{"geonameid":2640894,"name":"Orpington","admin3":"B8","localeAltName":null},{"geonameid":8604716,"name":"Osterley","admin3":"G1","localeAltName":null},{"geonameid":12047965,"name":"Osterley and Spring Grove","admin3":"G1","localeAltName":null},{"geonameid":6690601,"name":"Oval","admin3":"H1","localeAltName":null},{"geonameid":6691484,"name":"Oxford Circus","admin3":"P5","localeAltName":null},{"geonameid":2640692,"name":"Paddington","admin3":"P5","localeAltName":null},{"geonameid":12048381,"name":"Palace Riverside","admin3":"F1","localeAltName":null},{"geonameid":2640667,"name":"Palmers Green","admin3":"E3","localeAltName":null},{"geonameid":11669856,"name":"Park Royal","admin3":"B5","localeAltName":null},{"geonameid":12048362,"name":"Parsloes","admin3":"A1","localeAltName":null},{"geonameid":12048378,"name":"Parsons Green and Walham","admin3":"F1","localeAltName":null},{"geonameid":8224580,"name":"Peckham","admin3":"M8","localeAltName":null},{"geonameid":12048086,"name":"Peckham Rye","admin3":"M8","localeAltName":null},{"geonameid":12048193,"name":"Pembridge","admin3":"G4","localeAltName":null},{"geonameid":6941038,"name":"Penge","admin3":"B8","localeAltName":null},{"geonameid":12047944,"name":"Penge and Cator","admin3":"B8","localeAltName":null},{"geonameid":12048115,"name":"Peninsula","admin3":"E7","localeAltName":null},{"geonameid":2640368,"name":"Perivale","admin3":"D9","localeAltName":null},{"geonameid":12048177,"name":"Perry Vale","admin3":"H6","localeAltName":null},{"geonameid":12047993,"name":"Pettits","admin3":"F6","localeAltName":null},{"geonameid":12047946,"name":"Petts Wood and Knoll","admin3":"B8","localeAltName":null},{"geonameid":6545249,"name":"Pimlico","admin3":"P5","localeAltName":null},{"geonameid":12048030,"name":"Pinkwell","admin3":"F9","localeAltName":null},{"geonameid":2640275,"name":"Pinner","admin3":"F4","localeAltName":null},{"geonameid":12048036,"name":"Pinner South","admin3":"F4","localeAltName":null},{"geonameid":8128646,"name":"Plaistow","admin3":"I8","localeAltName":null},{"geonameid":12047953,"name":"Plaistow and Sundridge","admin3":"B8","localeAltName":null},{"geonameid":12048376,"name":"Plaistow North","admin3":"I8","localeAltName":null},{"geonameid":12048336,"name":"Plaistow South","admin3":"I8","localeAltName":null},{"geonameid":2640201,"name":"Plumstead","admin3":"E7","localeAltName":null},{"geonameid":12048124,"name":"Plumstead","admin3":"E7","localeAltName":null},{"geonameid":12048245,"name":"Pollards Hill","admin3":"I4","localeAltName":null},{"geonameid":2640140,"name":"Ponders End","admin3":"E3","localeAltName":null},{"geonameid":2640091,"name":"Poplar","admin3":"O5","localeAltName":null},{"geonameid":12048155,"name":"Portsoken","admin3":"H9","localeAltName":null},{"geonameid":2639919,"name":"Preston","admin3":"B5","localeAltName":null},{"geonameid":6690582,"name":"Primrose Hill","admin3":"C4","localeAltName":null},{"geonameid":12047939,"name":"Prince's","admin3":"H1","localeAltName":null},{"geonameid":2639868,"name":"Puddle Dock","admin3":"H9","localeAltName":null},{"geonameid":2639842,"name":"Purley","admin3":"C8","localeAltName":null},{"geonameid":7281588,"name":"Purley Way","admin3":"C8","localeAltName":null},{"geonameid":2639835,"name":"Putney","admin3":"P1","localeAltName":null},{"geonameid":9884533,"name":"Putney Village","admin3":"P1","localeAltName":null},{"geonameid":12048253,"name":"Queen's Gate","admin3":"G4","localeAltName":null},{"geonameid":12048426,"name":"Queen's Park","admin3":"P5","localeAltName":null},{"geonameid":12048413,"name":"Queenhithe","admin3":"H9","localeAltName":null},{"geonameid":6940959,"name":"Queens Park","admin3":"B5","localeAltName":null},{"geonameid":12048410,"name":"Queensbridge","admin3":"E8","localeAltName":null},{"geonameid":12048040,"name":"Queensbury","admin3":"B5","localeAltName":null},{"geonameid":12048050,"name":"Queensbury","admin3":"F4","localeAltName":null},{"geonameid":12048257,"name":"Queenstown","admin3":"P1","localeAltName":null},{"geonameid":2639690,"name":"Rainham","admin3":"F6","localeAltName":null},{"geonameid":12048017,"name":"Rainham and Wennington","admin3":"F6","localeAltName":null},{"geonameid":12048371,"name":"Ravensbury","admin3":"I4","localeAltName":null},{"geonameid":12048259,"name":"Ravenscourt Park","admin3":"F1","localeAltName":null},{"geonameid":12048045,"name":"Rayners Lane","admin3":"F4","localeAltName":null},{"geonameid":2639581,"name":"Raynes Park","admin3":"I4","localeAltName":null},{"geonameid":11550852,"name":"Redbridge","admin3":"K8","localeAltName":null},{"geonameid":12048271,"name":"Redcliffe","admin3":"G4","localeAltName":null},{"geonameid":12048393,"name":"Regent's Park","admin3":"C4","localeAltName":null},{"geonameid":12048420,"name":"Regent's Park","admin3":"P5","localeAltName":null},{"geonameid":2639389,"name":"Richmond","admin3":"L1","localeAltName":null},{"geonameid":12048348,"name":"River","admin3":"A1","localeAltName":null},{"geonameid":11591737,"name":"Riverside","admin3":"F1","localeAltName":null},{"geonameid":12048083,"name":"Riverside","admin3":"M8","localeAltName":null},{"geonameid":12048200,"name":"Roding","admin3":"K8","localeAltName":null},{"geonameid":2639223,"name":"Roehampton","admin3":"P1","localeAltName":null},{"geonameid":12048249,"name":"Roehampton and Putney Heath","admin3":"P1","localeAltName":null},{"geonameid":2639192,"name":"Romford","admin3":"F6","localeAltName":null},{"geonameid":12047991,"name":"Romford Town","admin3":"F6","localeAltName":null},{"geonameid":2639091,"name":"Rotherhithe","admin3":"M8","localeAltName":null},{"geonameid":12048048,"name":"Roxbourne","admin3":"F4","localeAltName":null},{"geonameid":12048033,"name":"Roxeth","admin3":"F4","localeAltName":null},{"geonameid":12048330,"name":"Royal Docks","admin3":"I8","localeAltName":null},{"geonameid":12048273,"name":"Royal Hospital","admin3":"G4","localeAltName":null},{"geonameid":2638976,"name":"Ruislip","admin3":"F9","localeAltName":null},{"geonameid":6690804,"name":"Rush Green","admin3":"A1","localeAltName":"Rush Green"},{"geonameid":12048106,"name":"Rushey Green","admin3":"H6","localeAltName":null},{"geonameid":10858976,"name":"Russell Square","admin3":"C4","localeAltName":null},{"geonameid":2638707,"name":"Saint Pancras","admin3":"C4","localeAltName":null},{"geonameid":2638595,"name":"Sanderstead","admin3":"C8","localeAltName":null},{"geonameid":9353159,"name":"Sands End","admin3":"F1","localeAltName":null},{"geonameid":12048419,"name":"Selhurst","admin3":"C8","localeAltName":null},{"geonameid":10104884,"name":"Selsdon","admin3":"C8","localeAltName":null},{"geonameid":12047919,"name":"Selsdon and Ballards","admin3":"C8","localeAltName":null},{"geonameid":2638188,"name":"Seven Kings","admin3":"K8","localeAltName":null},{"geonameid":8199318,"name":"Seven Sisters","admin3":"F3","localeAltName":null},{"geonameid":12048325,"name":"Seven Sisters","admin3":"F3","localeAltName":null},{"geonameid":6690595,"name":"Shadwell","admin3":"O5","localeAltName":null},{"geonameid":12048375,"name":"Shaftesbury","admin3":"P1","localeAltName":null},{"geonameid":12048265,"name":"Shepherd's Bush Green","admin3":"F1","localeAltName":null},{"geonameid":2638043,"name":"Shepherds Bush","admin3":"F1","localeAltName":null},{"geonameid":2637935,"name":"Shirley","admin3":"C8","localeAltName":null},{"geonameid":2637920,"name":"Shooters Hill","admin3":"E7","localeAltName":null},{"geonameid":2637918,"name":"Shoreditch","admin3":"E8","localeAltName":null},{"geonameid":10793747,"name":"Shortlands","admin3":"B8","localeAltName":null},{"geonameid":2637861,"name":"Sidcup","admin3":"A6","localeAltName":null},{"geonameid":2637825,"name":"Silvertown","admin3":"I8","localeAltName":null},{"geonameid":10377777,"name":"Single Street","admin3":"B8","localeAltName":null},{"geonameid":2637678,"name":"Slade Green","admin3":"A6","localeAltName":null},{"geonameid":2637595,"name":"Snaresbrook","admin3":"K8","localeAltName":null},{"geonameid":6545173,"name":"Soho","admin3":"P5","localeAltName":null},{"geonameid":12047948,"name":"South Acton","admin3":"D9","localeAltName":null},{"geonameid":6545251,"name":"South Bank","admin3":"H1","localeAltName":null},{"geonameid":6692465,"name":"South Bermondsey","admin3":"M8","localeAltName":null},{"geonameid":12048085,"name":"South Camberwell","admin3":"M8","localeAltName":null},{"geonameid":6690862,"name":"South Croydon","admin3":"C8","localeAltName":null},{"geonameid":6690988,"name":"South Hackney","admin3":"E8","localeAltName":null},{"geonameid":8299557,"name":"South Hampstead","admin3":"C4","localeAltName":null},{"geonameid":12048018,"name":"South Hornchurch","admin3":"F6","localeAltName":null},{"geonameid":2637395,"name":"South Kensington","admin3":"G4","localeAltName":null},{"geonameid":6690822,"name":"South Lambeth","admin3":"H1","localeAltName":"South Lambeth"},{"geonameid":2637357,"name":"South Norwood","admin3":"C8","localeAltName":null},{"geonameid":12048239,"name":"South Richmond","admin3":"L1","localeAltName":null},{"geonameid":12048027,"name":"South Ruislip","admin3":"F9","localeAltName":null},{"geonameid":12048356,"name":"South Twickenham","admin3":"L1","localeAltName":null},{"geonameid":6692463,"name":"South West London","admin3":"P1","localeAltName":null},{"geonameid":6691840,"name":"South Wimbledon","admin3":"I4","localeAltName":null},{"geonameid":6696365,"name":"South Woodford","admin3":"K8","localeAltName":null},{"geonameid":2637490,"name":"Southall","admin3":"D9","localeAltName":null},{"geonameid":12047954,"name":"Southall Broadway","admin3":"D9","localeAltName":null},{"geonameid":12048004,"name":"Southall Green","admin3":"D9","localeAltName":null},{"geonameid":12048109,"name":"Southbury","admin3":"E3","localeAltName":null},{"geonameid":12047921,"name":"Southfield","admin3":"D9","localeAltName":null},{"geonameid":6941032,"name":"Southfields","admin3":"P1","localeAltName":null},{"geonameid":12048174,"name":"Southgate","admin3":"E3","localeAltName":null},{"geonameid":2637418,"name":"Southgate","admin3":"E3","localeAltName":null},{"geonameid":12048282,"name":"Southgate Green","admin3":"E3","localeAltName":null},{"geonameid":2637299,"name":"Southwark","admin3":"M8","localeAltName":null},{"geonameid":2637221,"name":"Spitalfields","admin3":"O5","localeAltName":null},{"geonameid":12048397,"name":"Spitalfields and Banglatown","admin3":"O5","localeAltName":null},{"geonameid":12048315,"name":"Springfield","admin3":"E8","localeAltName":null},{"geonameid":12047998,"name":"Squirrel's Heath","admin3":"F6","localeAltName":null},{"geonameid":6615507,"name":"St James's","admin3":"P5","localeAltName":null},{"geonameid":2638768,"name":"St John's Wood","admin3":"P5","localeAltName":null},{"geonameid":2638739,"name":"St Mary Cray","admin3":"B8","localeAltName":null},{"geonameid":11550783,"name":"St Paul's","admin3":"H9","localeAltName":null},{"geonameid":12047996,"name":"St. Andrew's","admin3":"F6","localeAltName":null},{"geonameid":12048409,"name":"St. Ann's","admin3":"F3","localeAltName":null},{"geonameid":12048383,"name":"St. Charles","admin3":"G4","localeAltName":null},{"geonameid":12048433,"name":"St. Dunstan's and Stepney Green","admin3":"O5","localeAltName":null},{"geonameid":12048302,"name":"St. George's","admin3":"G3","localeAltName":null},{"geonameid":12048238,"name":"St. Helier","admin3":"I4","localeAltName":null},{"geonameid":12048353,"name":"St. Helier","admin3":"N8","localeAltName":null},{"geonameid":12048429,"name":"St. James","admin3":"G7","localeAltName":null},{"geonameid":12048284,"name":"St. Katharine's and Wapping","admin3":"O5","localeAltName":null},{"geonameid":12048042,"name":"St. Leonard's","admin3":"H1","localeAltName":null},{"geonameid":12048370,"name":"St. Margarets and North Twickenham","admin3":"L1","localeAltName":null},{"geonameid":12047916,"name":"St. Mark's","admin3":"G7","localeAltName":null},{"geonameid":12048134,"name":"St. Mary's","admin3":"A6","localeAltName":null},{"geonameid":12048380,"name":"St. Mary's","admin3":"G3","localeAltName":null},{"geonameid":12048256,"name":"St. Mary's Park","admin3":"P1","localeAltName":null},{"geonameid":12048092,"name":"St. Michael's","admin3":"A6","localeAltName":null},{"geonameid":12048079,"name":"St. Pancras and Somers Town","admin3":"C4","localeAltName":null},{"geonameid":12048398,"name":"St. Peter's","admin3":"G3","localeAltName":null},{"geonameid":11669854,"name":"Stamford Hill","admin3":"E8","localeAltName":null},{"geonameid":12048272,"name":"Stanley","admin3":"G4","localeAltName":null},{"geonameid":2637063,"name":"Stanmore","admin3":"F4","localeAltName":null},{"geonameid":12048043,"name":"Stanmore Park","admin3":"F4","localeAltName":null},{"geonameid":2636948,"name":"Stepney","admin3":"O5","localeAltName":null},{"geonameid":6690823,"name":"Stockwell","admin3":"H1","localeAltName":"Stockwell"},{"geonameid":12048424,"name":"Stockwell","admin3":"H1","localeAltName":null},{"geonameid":2636843,"name":"Stoke Newington","admin3":"E8","localeAltName":null},{"geonameid":12048400,"name":"Stoke Newington Central","admin3":"E8","localeAltName":null},{"geonameid":12048056,"name":"Stonebridge","admin3":"B5","localeAltName":null},{"geonameid":12048223,"name":"Stonecot","admin3":"N8","localeAltName":null},{"geonameid":2636714,"name":"Stratford","admin3":"I8","localeAltName":null},{"geonameid":12048332,"name":"Stratford and New Town","admin3":"I8","localeAltName":null},{"geonameid":2636677,"name":"Strawberry Hill","admin3":"L1","localeAltName":null},{"geonameid":2636675,"name":"Streatham","admin3":"H1","localeAltName":null},{"geonameid":6691950,"name":"Streatham Hill","admin3":"H1","localeAltName":null},{"geonameid":12048077,"name":"Streatham South","admin3":"H1","localeAltName":null},{"geonameid":12048051,"name":"Streatham Wells","admin3":"H1","localeAltName":null},{"geonameid":12048405,"name":"Stroud Green","admin3":"F3","localeAltName":null},{"geonameid":2636565,"name":"Sudbury","admin3":"D9","localeAltName":null},{"geonameid":11551080,"name":"Summerstown","admin3":"I4","localeAltName":null},{"geonameid":6690866,"name":"Surbiton","admin3":"G7","localeAltName":null},{"geonameid":12047913,"name":"Surbiton Hill","admin3":"G7","localeAltName":null},{"geonameid":12048095,"name":"Surrey Docks","admin3":"M8","localeAltName":null},{"geonameid":6941040,"name":"Surrey Quays","admin3":"M8","localeAltName":null},{"geonameid":2636503,"name":"Sutton","admin3":"N8","localeAltName":null},{"geonameid":12048361,"name":"Sutton Central","admin3":"N8","localeAltName":null},{"geonameid":12048220,"name":"Sutton North","admin3":"N8","localeAltName":null},{"geonameid":12048145,"name":"Sutton South","admin3":"N8","localeAltName":null},{"geonameid":12048219,"name":"Sutton West","admin3":"N8","localeAltName":null},{"geonameid":6941041,"name":"Swiss Cottage","admin3":"C4","localeAltName":null},{"geonameid":6693031,"name":"Sydenham","admin3":"H6","localeAltName":null},{"geonameid":12047961,"name":"Syon","admin3":"G1","localeAltName":null},{"geonameid":12048401,"name":"Tachbrook","admin3":"P5","localeAltName":null},{"geonameid":2636147,"name":"Teddington","admin3":"L1","localeAltName":null},{"geonameid":12047980,"name":"Telegraph Hill","admin3":"H6","localeAltName":null},{"geonameid":12048346,"name":"Thames","admin3":"A1","localeAltName":null},{"geonameid":12048250,"name":"Thamesfield","admin3":"P1","localeAltName":null},{"geonameid":11551039,"name":"Thamesmead","admin3":"E7","localeAltName":null},{"geonameid":12047999,"name":"Thamesmead East","admin3":"A6","localeAltName":null},{"geonameid":12048152,"name":"Thamesmead Moorings","admin3":"E7","localeAltName":null},{"geonameid":2636038,"name":"The Hyde","admin3":"A2","localeAltName":null},{"geonameid":12048090,"name":"The Lane","admin3":"M8","localeAltName":null},{"geonameid":6690799,"name":"The Ridgeway","admin3":"E3","localeAltName":null},{"geonameid":12048224,"name":"The Wrythe","admin3":"N8","localeAltName":null},{"geonameid":12048061,"name":"Thornton","admin3":"H1","localeAltName":null},{"geonameid":2635963,"name":"Thornton Heath","admin3":"C8","localeAltName":null},{"geonameid":12048073,"name":"Thurlow Park","admin3":"H1","localeAltName":null},{"geonameid":12048059,"name":"Tokyngton","admin3":"B5","localeAltName":null},{"geonameid":12048300,"name":"Tollington","admin3":"G3","localeAltName":null},{"geonameid":6690827,"name":"Tolworth","admin3":"G7","localeAltName":null},{"geonameid":12047908,"name":"Tolworth and Hook Rise","admin3":"G7","localeAltName":null},{"geonameid":6690824,"name":"Tooting","admin3":"P1","localeAltName":null},{"geonameid":12048184,"name":"Tooting","admin3":"P1","localeAltName":null},{"geonameid":11551072,"name":"Tooting Bec","admin3":"P1","localeAltName":null},{"geonameid":11551079,"name":"Tooting Broadway","admin3":"P1","localeAltName":null},{"geonameid":11551078,"name":"Tooting Graveney","admin3":"P1","localeAltName":null},{"geonameid":2635608,"name":"Tottenham","admin3":"F3","localeAltName":null},{"geonameid":6691483,"name":"Tottenham Court Road","admin3":"P5","localeAltName":null},{"geonameid":12048326,"name":"Tottenham Green","admin3":"F3","localeAltName":null},{"geonameid":12048327,"name":"Tottenham Hale","admin3":"F3","localeAltName":null},{"geonameid":2635607,"name":"Totteridge","admin3":"A2","localeAltName":null},{"geonameid":12048366,"name":"Tower","admin3":"H9","localeAltName":null},{"geonameid":11552734,"name":"Tower Hamlets","admin3":"O5","localeAltName":null},{"geonameid":11550787,"name":"Tower Hill","admin3":"H9","localeAltName":null},{"geonameid":11591743,"name":"Tower of London","admin3":"O5","localeAltName":null},{"geonameid":12048176,"name":"Town","admin3":"E3","localeAltName":null},{"geonameid":12048205,"name":"Town","admin3":"F1","localeAltName":null},{"geonameid":12047997,"name":"Townfield","admin3":"F9","localeAltName":null},{"geonameid":12048377,"name":"Trinity","admin3":"I4","localeAltName":null},{"geonameid":12048418,"name":"Tudor","admin3":"G7","localeAltName":null},{"geonameid":6690586,"name":"Tufnell Park","admin3":"G3","localeAltName":null},{"geonameid":12048063,"name":"Tulse Hill","admin3":"H1","localeAltName":null},{"geonameid":12048111,"name":"Turkey Street","admin3":"E3","localeAltName":null},{"geonameid":12047945,"name":"Turnham Green","admin3":"G1","localeAltName":null},{"geonameid":2635308,"name":"Twickenham","admin3":"L1","localeAltName":null},{"geonameid":12048369,"name":"Twickenham Riverside","admin3":"L1","localeAltName":null},{"geonameid":12048130,"name":"Underhill","admin3":"A2","localeAltName":null},{"geonameid":2635150,"name":"Upminster","admin3":"F6","localeAltName":null},{"geonameid":2635138,"name":"Upper Clapton","admin3":"E8","localeAltName":null},{"geonameid":8128645,"name":"Upper Edmonton","admin3":"E3","localeAltName":null},{"geonameid":2635123,"name":"Upper Holloway","admin3":"G3","localeAltName":null},{"geonameid":2635113,"name":"Upper Norwood","admin3":"C8","localeAltName":null},{"geonameid":11551076,"name":"Upper Tooting","admin3":"P1","localeAltName":null},{"geonameid":6690992,"name":"Upton Park","admin3":"I8","localeAltName":null},{"geonameid":2635042,"name":"Uxbridge","admin3":"F9","localeAltName":null},{"geonameid":7645989,"name":"Uxbridge","admin3":"F9","localeAltName":null},{"geonameid":12048000,"name":"Uxbridge North","admin3":"F9","localeAltName":null},{"geonameid":12048016,"name":"Uxbridge South","admin3":"F9","localeAltName":null},{"geonameid":12048287,"name":"Valence","admin3":"A1","localeAltName":null},{"geonameid":12048208,"name":"Valentines","admin3":"K8","localeAltName":null},{"geonameid":12048181,"name":"Valley","admin3":"O9","localeAltName":null},{"geonameid":12048069,"name":"Vassall","admin3":"H1","localeAltName":null},{"geonameid":6545171,"name":"Vauxhall","admin3":"H1","localeAltName":null},{"geonameid":6690579,"name":"Victoria","admin3":"P5","localeAltName":null},{"geonameid":12048311,"name":"Victoria","admin3":"E8","localeAltName":null},{"geonameid":2634960,"name":"Victoria Park","admin3":"O5","localeAltName":null},{"geonameid":12048243,"name":"Village","admin3":"I4","localeAltName":null},{"geonameid":12048084,"name":"Village","admin3":"M8","localeAltName":null},{"geonameid":12048349,"name":"Village","admin3":"A1","localeAltName":null},{"geonameid":12048032,"name":"Vincent Square","admin3":"P5","localeAltName":null},{"geonameid":12047992,"name":"Vintry","admin3":"H9","localeAltName":null},{"geonameid":12047922,"name":"Waddon","admin3":"C8","localeAltName":null},{"geonameid":12047906,"name":"Walbrook","admin3":"H9","localeAltName":null},{"geonameid":12048341,"name":"Wall End","admin3":"I8","localeAltName":null},{"geonameid":2634867,"name":"Wallington","admin3":"N8","localeAltName":null},{"geonameid":12048368,"name":"Wallington North","admin3":"N8","localeAltName":null},{"geonameid":12048225,"name":"Wallington South","admin3":"N8","localeAltName":null},{"geonameid":12047914,"name":"Walpole","admin3":"D9","localeAltName":null},{"geonameid":2634838,"name":"Walthamstow","admin3":"O9","localeAltName":null},{"geonameid":2634821,"name":"Walworth","admin3":"M8","localeAltName":null},{"geonameid":12048217,"name":"Wandle Valley","admin3":"N8","localeAltName":null},{"geonameid":2634812,"name":"Wandsworth","admin3":"P1","localeAltName":null},{"geonameid":12048218,"name":"Wandsworth Common","admin3":"P1","localeAltName":null},{"geonameid":2634803,"name":"Wanstead","admin3":"K8","localeAltName":null},{"geonameid":12048316,"name":"Wanstead","admin3":"K8","localeAltName":null},{"geonameid":6941036,"name":"Wapping","admin3":"O5","localeAltName":null},{"geonameid":12048431,"name":"Warwick","admin3":"P5","localeAltName":null},{"geonameid":6931001,"name":"Waterloo","admin3":"H1","localeAltName":null},{"geonameid":2634636,"name":"Wealdstone","admin3":"F4","localeAltName":null},{"geonameid":12048038,"name":"Wealdstone","admin3":"F4","localeAltName":null},{"geonameid":12048293,"name":"Weavers","admin3":"O5","localeAltName":null},{"geonameid":2634579,"name":"Welling","admin3":"A6","localeAltName":null},{"geonameid":12048060,"name":"Welsh Harp","admin3":"B5","localeAltName":null},{"geonameid":2634549,"name":"Wembley","admin3":"B5","localeAltName":null},{"geonameid":12048099,"name":"Wembley Central","admin3":"B5","localeAltName":null},{"geonameid":10104888,"name":"West Barnes","admin3":"I4","localeAltName":null},{"geonameid":2634492,"name":"West Brompton","admin3":"G4","localeAltName":null},{"geonameid":12048014,"name":"West Drayton","admin3":"F9","localeAltName":null},{"geonameid":2634451,"name":"West Drayton","admin3":"F9","localeAltName":null},{"geonameid":2634449,"name":"West Dulwich","admin3":"H1","localeAltName":null},{"geonameid":7302137,"name":"West Ealing","admin3":"D9","localeAltName":null},{"geonameid":12048199,"name":"West End","admin3":"P5","localeAltName":null},{"geonameid":6615338,"name":"West End of London","admin3":"P5","localeAltName":null},{"geonameid":12048076,"name":"West Finchley","admin3":"A2","localeAltName":null},{"geonameid":12048406,"name":"West Green","admin3":"F3","localeAltName":null},{"geonameid":2634403,"name":"West Ham","admin3":"I8","localeAltName":null},{"geonameid":6615314,"name":"West Hampstead","admin3":"C4","localeAltName":null},{"geonameid":12048049,"name":"West Harrow","admin3":"F4","localeAltName":null},{"geonameid":12048132,"name":"West Hendon","admin3":"A2","localeAltName":null},{"geonameid":12048240,"name":"West Hill","admin3":"P1","localeAltName":null},{"geonameid":6615603,"name":"West Holland Park","admin3":"G4","localeAltName":null},{"geonameid":2634380,"name":"West Kensington","admin3":"F1","localeAltName":null},{"geonameid":2634330,"name":"West Norwood","admin3":"H1","localeAltName":null},{"geonameid":12048242,"name":"West Putney","admin3":"P1","localeAltName":null},{"geonameid":12048025,"name":"West Ruislip","admin3":"F9","localeAltName":null},{"geonameid":12047934,"name":"West Thornton","admin3":"C8","localeAltName":null},{"geonameid":12048235,"name":"West Twickenham","admin3":"L1","localeAltName":null},{"geonameid":2634234,"name":"West Wickham","admin3":"B8","localeAltName":null},{"geonameid":6690825,"name":"West Wimbledon","admin3":"I4","localeAltName":"West Wimbledon"},{"geonameid":12048432,"name":"Westbourne","admin3":"P5","localeAltName":null},{"geonameid":11591738,"name":"Westminster Abbey","admin3":"P5","localeAltName":null},{"geonameid":12048338,"name":"Whalebone","admin3":"A1","localeAltName":null},{"geonameid":2634157,"name":"Whetstone","admin3":"A2","localeAltName":null},{"geonameid":12048328,"name":"White Hart Lane","admin3":"F3","localeAltName":null},{"geonameid":2634112,"name":"Whitechapel","admin3":"O5","localeAltName":null},{"geonameid":12048104,"name":"Whitefoot","admin3":"H6","localeAltName":null},{"geonameid":2634004,"name":"Whitton","admin3":"L1","localeAltName":null},{"geonameid":12048305,"name":"Wick","admin3":"E8","localeAltName":null},{"geonameid":2633907,"name":"Willesden","admin3":"B5","localeAltName":null},{"geonameid":2633906,"name":"Willesden Green","admin3":"B5","localeAltName":null},{"geonameid":12048107,"name":"William Morris","admin3":"O9","localeAltName":null},{"geonameid":2633866,"name":"Wimbledon","admin3":"I4","localeAltName":"Wimbledon"},{"geonameid":6691839,"name":"Wimbledon Park","admin3":"I4","localeAltName":null},{"geonameid":2633856,"name":"Winchmore Hill","admin3":"E3","localeAltName":null},{"geonameid":2633653,"name":"Wood Green","admin3":"F3","localeAltName":null},{"geonameid":12048163,"name":"Wood Street","admin3":"O9","localeAltName":null},{"geonameid":2633658,"name":"Woodford","admin3":"K8","localeAltName":null},{"geonameid":2633655,"name":"Woodford Green","admin3":"K8","localeAltName":null},{"geonameid":12048138,"name":"Woodhouse","admin3":"A2","localeAltName":null},{"geonameid":12048422,"name":"Woodside","admin3":"C8","localeAltName":null},{"geonameid":12048319,"name":"Woodside","admin3":"F3","localeAltName":null},{"geonameid":2633583,"name":"Woolwich","admin3":"E7","localeAltName":null},{"geonameid":12048123,"name":"Woolwich Common","admin3":"E7","localeAltName":null},{"geonameid":12048103,"name":"Woolwich Riverside","admin3":"E7","localeAltName":null},{"geonameid":12048216,"name":"Worcester Park","admin3":"N8","localeAltName":null},{"geonameid":2633561,"name":"Worcester Park","admin3":"N8","localeAltName":null},{"geonameid":12048379,"name":"Wormholt and White City","admin3":"F1","localeAltName":null},{"geonameid":6690876,"name":"Yeading","admin3":"F9","localeAltName":null},{"geonameid":2633363,"name":"Yiewsley","admin3":"F9","localeAltName":null}],"admin3":[{"geonameid":2635594,"name":"Tower Hamlets","admin3":"O5","localeAltName":"Tower Hamlets"},{"geonameid":2641639,"name":"Newham","admin3":"I8","localeAltName":"Newham"},{"geonameid":2643744,"name":"City of London","admin3":"H9","localeAltName":"City of London"},{"geonameid":3333120,"name":"Barking and Dagenham","admin3":"A1","localeAltName":"Barking and Dagenham"},{"geonameid":3333121,"name":"Barnet","admin3":"A2","localeAltName":"Barnet"},{"geonameid":3333124,"name":"Bexley","admin3":"A6","localeAltName":"Bexley"},{"geonameid":3333132,"name":"Brent","admin3":"B5","localeAltName":"Brent"},{"geonameid":3333135,"name":"Bromley","admin3":"B8","localeAltName":"Bromley"},{"geonameid":3333138,"name":"Camden","admin3":"C4","localeAltName":"Camden"},{"geonameid":3333140,"name":"Croydon","admin3":"C8","localeAltName":"Croydon"},{"geonameid":3333145,"name":"Ealing","admin3":"D9","localeAltName":"Ealing"},{"geonameid":3333146,"name":"Enfield","admin3":"E3","localeAltName":"Enfield"},{"geonameid":3333147,"name":"Greenwich","admin3":"E7","localeAltName":"Greenwich"},{"geonameid":3333148,"name":"Hackney","admin3":"E8","localeAltName":"Hackney"},{"geonameid":3333149,"name":"Hammersmith and Fulham","admin3":"F1","localeAltName":"Hammersmith and Fulham"},{"geonameid":3333150,"name":"Haringey","admin3":"F3","localeAltName":"Haringey"},{"geonameid":3333151,"name":"Harrow","admin3":"F4","localeAltName":"Harrow"},{"geonameid":3333153,"name":"Havering","admin3":"F6","localeAltName":"Havering"},{"geonameid":3333154,"name":"Hillingdon","admin3":"F9","localeAltName":"Hillingdon"},{"geonameid":3333155,"name":"Hounslow","admin3":"G1","localeAltName":"Hounslow"},{"geonameid":3333156,"name":"Islington","admin3":"G3","localeAltName":"Islington"},{"geonameid":3333157,"name":"Royal Kensington and Chelsea","admin3":"G4","localeAltName":"Royal Kensington and Chelsea"},{"geonameid":3333160,"name":"Royal Kingston upon Thames","admin3":"G7","localeAltName":"Kingston upon Thames"},{"geonameid":3333163,"name":"Lambeth","admin3":"H1","localeAltName":"Lambeth"},{"geonameid":3333166,"name":"Lewisham","admin3":"H6","localeAltName":"Lewisham"},{"geonameid":3333171,"name":"Merton","admin3":"I4","localeAltName":"Merton"},{"geonameid":3333185,"name":"Redbridge","admin3":"K8","localeAltName":"Redbridge"},{"geonameid":3333187,"name":"Richmond upon Thames","admin3":"L1","localeAltName":"Richmond upon Thames"},{"geonameid":3333200,"name":"Southwark","admin3":"M8","localeAltName":null},{"geonameid":3333206,"name":"Sutton","admin3":"N8","localeAltName":"Sutton"},{"geonameid":3333214,"name":"Waltham Forest","admin3":"O9","localeAltName":"Waltham Forest"},{"geonameid":3333215,"name":"Wandsworth","admin3":"P1","localeAltName":"Wandsworth"},{"geonameid":3333218,"name":"City of Westminster","admin3":"P5","localeAltName":null}],"alternateNames":[{"alternatenameId":1626647,"geonameid":6269131,"isoLanguage":"en","alternateName":"England","isPreferredName":true,"isShortName":true,"isColloquial":false,"isHistoric":false},{"alternatenameId":3074748,"geonameid":2648110,"isoLanguage":"en","alternateName":"Greater London","isPreferredName":true,"isShortName":true,"isColloquial":false,"isHistoric":false},{"alternatenameId":11015751,"geonameid":2648110,"isoLanguage":"it","alternateName":"Londra","isPreferredName":true,"isShortName":true,"isColloquial":false,"isHistoric":false},{"alternatenameId":2254237,"geonameid":2635594,"isoLanguage":"en","alternateName":"Tower Hamlets","isPreferredName":true,"isShortName":true,"isColloquial":false,"isHistoric":false},{"alternatenameId":2254257,"geonameid":2641639,"isoLanguage":"en","alternateName":"Newham","isPreferredName":true,"isShortName":true,"isColloquial":false,"isHistoric":false},{"alternatenameId":2254261,"geonameid":2643744,"isoLanguage":"en","alternateName":"City of London","isPreferredName":true,"isShortName":true,"isColloquial":false,"isHistoric":false},{"alternatenameId":3074719,"geonameid":3333120,"isoLanguage":"en","alternateName":"Barking and Dagenham","isPreferredName":true,"isShortName":true,"isColloquial":false,"isHistoric":false},{"alternatenameId":3074732,"geonameid":3333121,"isoLanguage":"en","alternateName":"Barnet","isPreferredName":true,"isShortName":true,"isColloquial":false,"isHistoric":false},{"alternatenameId":3074731,"geonameid":3333124,"isoLanguage":"en","alternateName":"Bexley","isPreferredName":true,"isShortName":true,"isColloquial":false,"isHistoric":false},{"alternatenameId":3074723,"geonameid":3333132,"isoLanguage":"en","alternateName":"Brent","isPreferredName":true,"isShortName":true,"isColloquial":false,"isHistoric":false},{"alternatenameId":3074713,"geonameid":3333135,"isoLanguage":"en","alternateName":"Bromley","isPreferredName":true,"isShortName":true,"isColloquial":false,"isHistoric":false},{"alternatenameId":3074700,"geonameid":3333138,"isoLanguage":"en","alternateName":"Camden","isPreferredName":true,"isShortName":true,"isColloquial":false,"isHistoric":false},{"alternatenameId":3074702,"geonameid":3333140,"isoLanguage":"en","alternateName":"Croydon","isPreferredName":true,"isShortName":true,"isColloquial":false,"isHistoric":false},{"alternatenameId":3074726,"geonameid":3333145,"isoLanguage":"en","alternateName":"Ealing","isPreferredName":true,"isShortName":true,"isColloquial":false,"isHistoric":false},{"alternatenameId":3074699,"geonameid":3333146,"isoLanguage":"en","alternateName":"Enfield","isPreferredName":true,"isShortName":true,"isColloquial":false,"isHistoric":false},{"alternatenameId":3074741,"geonameid":3333147,"isoLanguage":"en","alternateName":"Greenwich","isPreferredName":true,"isShortName":true,"isColloquial":false,"isHistoric":false},{"alternatenameId":3074721,"geonameid":3333148,"isoLanguage":"en","alternateName":"Hackney","isPreferredName":true,"isShortName":true,"isColloquial":false,"isHistoric":false},{"alternatenameId":3074714,"geonameid":3333149,"isoLanguage":"en","alternateName":"Hammersmith and Fulham","isPreferredName":true,"isShortName":true,"isColloquial":false,"isHistoric":false},{"alternatenameId":3074704,"geonameid":3333150,"isoLanguage":"en","alternateName":"Haringey","isPreferredName":true,"isShortName":true,"isColloquial":false,"isHistoric":false},{"alternatenameId":3074717,"geonameid":3333151,"isoLanguage":"en","alternateName":"Harrow","isPreferredName":true,"isShortName":true,"isColloquial":false,"isHistoric":false},{"alternatenameId":3074724,"geonameid":3333153,"isoLanguage":"en","alternateName":"Havering","isPreferredName":true,"isShortName":true,"isColloquial":false,"isHistoric":false},{"alternatenameId":3074711,"geonameid":3333154,"isoLanguage":"en","alternateName":"Hillingdon","isPreferredName":true,"isShortName":true,"isColloquial":false,"isHistoric":false},{"alternatenameId":3074709,"geonameid":3333155,"isoLanguage":"en","alternateName":"Hounslow","isPreferredName":true,"isShortName":true,"isColloquial":false,"isHistoric":false},{"alternatenameId":3074737,"geonameid":3333156,"isoLanguage":"en","alternateName":"Islington","isPreferredName":true,"isShortName":true,"isColloquial":false,"isHistoric":false},{"alternatenameId":3074736,"geonameid":3333157,"isoLanguage":"en","alternateName":"Royal Kensington and Chelsea","isPreferredName":true,"isShortName":true,"isColloquial":false,"isHistoric":false},{"alternatenameId":2184581,"geonameid":3333160,"isoLanguage":"en","alternateName":"Kingston upon Thames","isPreferredName":true,"isShortName":true,"isColloquial":false,"isHistoric":false},{"alternatenameId":3074742,"geonameid":3333163,"isoLanguage":"en","alternateName":"Lambeth","isPreferredName":true,"isShortName":true,"isColloquial":false,"isHistoric":false},{"alternatenameId":3074740,"geonameid":3333166,"isoLanguage":"en","alternateName":"Lewisham","isPreferredName":true,"isShortName":true,"isColloquial":false,"isHistoric":false},{"alternatenameId":3074718,"geonameid":3333171,"isoLanguage":"en","alternateName":"Merton","isPreferredName":true,"isShortName":true,"isColloquial":false,"isHistoric":false},{"alternatenameId":3074720,"geonameid":3333185,"isoLanguage":"en","alternateName":"Redbridge","isPreferredName":true,"isShortName":true,"isColloquial":false,"isHistoric":false},{"alternatenameId":3074705,"geonameid":3333187,"isoLanguage":"en","alternateName":"Richmond upon Thames","isPreferredName":true,"isShortName":true,"isColloquial":false,"isHistoric":false},{"alternatenameId":3074729,"geonameid":3333206,"isoLanguage":"en","alternateName":"Sutton","isPreferredName":true,"isShortName":true,"isColloquial":false,"isHistoric":false},{"alternatenameId":3074715,"geonameid":3333214,"isoLanguage":"en","alternateName":"Waltham Forest","isPreferredName":true,"isShortName":true,"isColloquial":false,"isHistoric":false},{"alternatenameId":3074734,"geonameid":3333215,"isoLanguage":"en","alternateName":"Wandsworth","isPreferredName":true,"isShortName":true,"isColloquial":false,"isHistoric":false},{"alternatenameId":3242053,"geonameid":2655775,"isoLanguage":"en","alternateName":"Bexley","isPreferredName":true,"isShortName":true,"isColloquial":false,"isHistoric":false},{"alternatenameId":11107501,"geonameid":2649997,"isoLanguage":"en","alternateName":"Enfield","isPreferredName":true,"isShortName":true,"isColloquial":false,"isHistoric":false},{"alternatenameId":8666612,"geonameid":6690816,"isoLanguage":"en","alternateName":"Mottingham","isPreferredName":true,"isShortName":true,"isColloquial":false,"isHistoric":false},{"alternatenameId":8666613,"geonameid":6690817,"isoLanguage":"en","alternateName":"New Eltham","isPreferredName":true,"isShortName":true,"isColloquial":false,"isHistoric":false},{"alternatenameId":8666615,"geonameid":6690821,"isoLanguage":"en","alternateName":"Nine Elms","isPreferredName":true,"isShortName":true,"isColloquial":false,"isHistoric":false},{"alternatenameId":8666608,"geonameid":6690804,"isoLanguage":"en","alternateName":"Rush Green","isPreferredName":true,"isShortName":true,"isColloquial":false,"isHistoric":false},{"alternatenameId":8666616,"geonameid":6690822,"isoLanguage":"en","alternateName":"South Lambeth","isPreferredName":true,"isShortName":true,"isColloquial":false,"isHistoric":false},{"alternatenameId":8666617,"geonameid":6690823,"isoLanguage":"en","alternateName":"Stockwell","isPreferredName":true,"isShortName":true,"isColloquial":false,"isHistoric":false},{"alternatenameId":8666618,"geonameid":6690825,"isoLanguage":"en","alternateName":"West Wimbledon","isPreferredName":true,"isShortName":true,"isColloquial":false,"isHistoric":false},{"alternatenameId":2254516,"geonameid":2633866,"isoLanguage":"en","alternateName":"Wimbledon","isPreferredName":true,"isShortName":true,"isColloquial":false,"isHistoric":false},{"alternatenameId":2254804,"geonameid":2633866,"isoLanguage":"it","alternateName":"Wimbledon","isPreferredName":true,"isShortName":true,"isColloquial":false,"isHistoric":false},{"alternatenameId":2254806,"geonameid":2633866,"isoLanguage":"de","alternateName":"Wimbledon","isPreferredName":true,"isShortName":true,"isColloquial":false,"isHistoric":false}]},"__N_SSG":true}