{"pageProps":{"locale":"en","admin2":{"geonameid":3333181,"name":"Plymouth","country":"GB","admin1":"ENG","admin2":"K4","admin3":"","latitude":"50.3833300","longitude":"-4.1333300","localeAltName":"Plymouth"},"admin1":{"geonameid":6269131,"name":"England","admin1":"ENG","localeAltName":"England"},"locations":[{"geonameid":10295323,"name":"Barbican","admin3":"","localeAltName":null},{"geonameid":10295382,"name":"Beaumont","admin3":"","localeAltName":null},{"geonameid":11551031,"name":"Crabtree","admin3":"","localeAltName":null},{"geonameid":2651289,"name":"Devonport","admin3":"00HE081","localeAltName":null},{"geonameid":2650132,"name":"Elburton","admin3":"18UG","localeAltName":null},{"geonameid":10295383,"name":"Greenbank","admin3":"","localeAltName":null},{"geonameid":2643128,"name":"Manadon","admin3":"18UG","localeAltName":null},{"geonameid":2643112,"name":"Mannamead","admin3":"","localeAltName":null},{"geonameid":2640194,"name":"Plymouth","admin3":"","localeAltName":null},{"geonameid":2640191,"name":"Plympton Erle","admin3":"18UG","localeAltName":null},{"geonameid":2640190,"name":"Plymstock","admin3":"18UG","localeAltName":null},{"geonameid":9166267,"name":"Stoke","admin3":"","localeAltName":null},{"geonameid":12111168,"name":"Stonehouse","admin3":"","localeAltName":null},{"geonameid":2636281,"name":"Tamerton Foliot","admin3":"18UG","localeAltName":null},{"geonameid":2635340,"name":"Turnchapel","admin3":"18UG","localeAltName":null}],"admin3":[],"alternateNames":[{"alternatenameId":8666511,"geonameid":3333181,"isoLanguage":"en","alternateName":"Plymouth","isPreferredName":true,"isShortName":true,"isColloquial":false,"isHistoric":false},{"alternatenameId":1626647,"geonameid":6269131,"isoLanguage":"en","alternateName":"England","isPreferredName":true,"isShortName":true,"isColloquial":false,"isHistoric":false}]},"__N_SSG":true}