{"pageProps":{"locale":"en","admin2":{"geonameid":4267572,"name":"Anderson County","country":"US","admin1":"KS","admin2":"003","admin3":"","latitude":"38.2142000","longitude":"-95.2933300"},"admin1":{"geonameid":4273857,"name":"Kansas","admin1":"KS","localeAltName":"Kansas"},"locations":[{"geonameid":4271974,"name":"Garnett","admin3":"25925"}],"admin3":[{"geonameid":4271979,"name":"City of Garnett","admin3":"25925"},{"geonameid":4273404,"name":"Township of Indian Creek","admin3":"34050"},{"geonameid":4273519,"name":"Township of Jackson","admin3":"34725"},{"geonameid":4274492,"name":"Township of Lincoln","admin3":"40475"},{"geonameid":4274734,"name":"Township of Lone Elm","admin3":"42450"},{"geonameid":4275669,"name":"Township of Monroe","admin3":"47725"},{"geonameid":4276907,"name":"Township of Ozark","admin3":"53900"},{"geonameid":4277809,"name":"Township of Putnam","admin3":"58000"},{"geonameid":4277979,"name":"Township of Reeder","admin3":"58825"},{"geonameid":4278002,"name":"Township of Rich","admin3":"59175"},{"geonameid":4281136,"name":"Township of Walker","admin3":"74650"},{"geonameid":4281301,"name":"Township of Washington","admin3":"75500"},{"geonameid":4281385,"name":"Township of Welda","admin3":"76450"},{"geonameid":4281623,"name":"Township of Westphalia","admin3":"77275"}],"alternateNames":[{"alternatenameId":2080124,"geonameid":4273857,"isoLanguage":"en","alternateName":"Kansas","isPreferredName":true,"isShortName":true,"isColloquial":false,"isHistoric":false}]},"__N_SSG":true}