{"pageProps":{"locale":"en","admin2":{"geonameid":4268899,"name":"Butler County","country":"US","admin1":"KS","admin2":"015","admin3":"","latitude":"37.7812700","longitude":"-96.8390700"},"admin1":{"geonameid":4273857,"name":"Kansas","admin1":"KS","localeAltName":"Kansas"},"locations":[{"geonameid":4267594,"name":"Andover","admin3":"08825"},{"geonameid":4267773,"name":"Augusta","admin3":"03300"},{"geonameid":4269641,"name":"Clay Center","admin3":"13575"},{"geonameid":4270460,"name":"Douglass","admin3":"18425"},{"geonameid":4270863,"name":"El Dorado","admin3":"20075"},{"geonameid":4278340,"name":"Rose Hill","admin3":"59250"},{"geonameid":4280531,"name":"Towanda","admin3":"71150"}],"admin3":[{"geonameid":4267782,"name":"City of Augusta","admin3":"03300"},{"geonameid":4267783,"name":"Township of Augusta","admin3":"03325"},{"geonameid":4268165,"name":"Township of Benton","admin3":"06200"},{"geonameid":4268432,"name":"Township of Bloomington","admin3":"07500"},{"geonameid":4268726,"name":"Township of Bruno","admin3":"08825"},{"geonameid":4269472,"name":"Township of Chelsea","admin3":"12750"},{"geonameid":4269654,"name":"Township of Clay","admin3":"13575"},{"geonameid":4269722,"name":"Township of Clifford","admin3":"14175"},{"geonameid":4270465,"name":"Township of Douglass","admin3":"18425"},{"geonameid":4270873,"name":"City of El Dorado","admin3":"20075"},{"geonameid":4270874,"name":"Township of El Dorado","admin3":"20100"},{"geonameid":4271268,"name":"Township of Fairmount","admin3":"22275"},{"geonameid":4271350,"name":"Township of Fairview","admin3":"22450"},{"geonameid":4272091,"name":"Township of Glencoe","admin3":"26400"},{"geonameid":4272893,"name":"Township of Hickory","admin3":"31750"},{"geonameid":4274493,"name":"Township of Lincoln","admin3":"40500"},{"geonameid":4274668,"name":"Township of Little Walnut","admin3":"41625"},{"geonameid":4274701,"name":"Township of Logan","admin3":"41775"},{"geonameid":4275560,"name":"Township of Milton","admin3":"46875"},{"geonameid":4276037,"name":"Township of Murdock","admin3":"49225"},{"geonameid":4277473,"name":"Township of Pleasant","admin3":"56200"},{"geonameid":4277523,"name":"Township of Plum Grove","admin3":"56850"},{"geonameid":4277779,"name":"Township of Prospect","admin3":"57775"},{"geonameid":4278023,"name":"Township of Richland","admin3":"59250"},{"geonameid":4278220,"name":"Township of Rock Creek","admin3":"60475"},{"geonameid":4278329,"name":"Township of Rosalia","admin3":"61125"},{"geonameid":4279874,"name":"Township of Spring","admin3":"67275"},{"geonameid":4280288,"name":"Township of Sycamore","admin3":"69700"},{"geonameid":4280534,"name":"Township of Towanda","admin3":"71150"},{"geonameid":4280840,"name":"Township of Union","admin3":"72050"},{"geonameid":4281205,"name":"Township of Walnut","admin3":"74900"}],"alternateNames":[{"alternatenameId":2080124,"geonameid":4273857,"isoLanguage":"en","alternateName":"Kansas","isPreferredName":true,"isShortName":true,"isColloquial":false,"isHistoric":false}]},"__N_SSG":true}