{"pageProps":{"locale":"en","admin2":{"geonameid":4269459,"name":"Cherokee County","country":"US","admin1":"KS","admin2":"021","admin3":"","latitude":"37.1693100","longitude":"-94.8462700"},"admin1":{"geonameid":4273857,"name":"Kansas","admin1":"KS","localeAltName":"Kansas"},"locations":[{"geonameid":4267978,"name":"Baxter Springs","admin3":"04625"},{"geonameid":4269841,"name":"Columbus","admin3":"15075"},{"geonameid":4271901,"name":"Galena","admin3":"25100"}],"admin3":[{"geonameid":4267982,"name":"City of Baxter Springs","admin3":"04625"},{"geonameid":4269468,"name":"Township of Cherokee","admin3":"12800"},{"geonameid":4269846,"name":"City of Columbus","admin3":"15075"},{"geonameid":4270095,"name":"Township of Crawford","admin3":"16225"},{"geonameid":4271905,"name":"City of Galena","admin3":"25100"},{"geonameid":4271930,"name":"Township of Garden","admin3":"25250"},{"geonameid":4274717,"name":"Township of Lola","admin3":"42350"},{"geonameid":4274856,"name":"Township of Lowell","admin3":"43075"},{"geonameid":4274942,"name":"Township of Lyon","admin3":"43400"},{"geonameid":4275573,"name":"Township of Mineral","admin3":"47000"},{"geonameid":4276153,"name":"Township of Neosho","admin3":"49725"},{"geonameid":4277471,"name":"Township of Pleasant View","admin3":"56675"},{"geonameid":4278391,"name":"Township of Ross","admin3":"61350"},{"geonameid":4278865,"name":"Township of Salamanca","admin3":"62575"},{"geonameid":4279033,"name":"City of Scammon","admin3":"63325"},{"geonameid":4279275,"name":"Township of Shawnee","admin3":"64475"},{"geonameid":4279292,"name":"Township of Sheridan","admin3":"64625"},{"geonameid":4279872,"name":"Township of Spring Valley","admin3":"67725"},{"geonameid":4281374,"name":"City of Weir","admin3":"76350"}],"alternateNames":[{"alternatenameId":2080124,"geonameid":4273857,"isoLanguage":"en","alternateName":"Kansas","isPreferredName":true,"isShortName":true,"isColloquial":false,"isHistoric":false}]},"__N_SSG":true}