{"pageProps":{"locale":"en","admin2":{"geonameid":4269744,"name":"Cloud County","country":"US","admin1":"KS","admin2":"029","admin3":"","latitude":"39.4803000","longitude":"-97.6492800"},"admin1":{"geonameid":4273857,"name":"Kansas","admin1":"KS","localeAltName":"Kansas"},"locations":[{"geonameid":4269872,"name":"Concordia","admin3":"15200"}],"admin3":[{"geonameid":4267658,"name":"Township of Arion","admin3":"02275"},{"geonameid":4267789,"name":"Township of Aurora","admin3":"03450"},{"geonameid":4268804,"name":"Township of Buffalo","admin3":"09100"},{"geonameid":4269278,"name":"Township of Center","admin3":"11625"},{"geonameid":4269818,"name":"Township of Colfax","admin3":"14775"},{"geonameid":4269876,"name":"City of Concordia","admin3":"15200"},{"geonameid":4270918,"name":"Township of Elk","admin3":"20150"},{"geonameid":4272300,"name":"Township of Grant","admin3":"27525"},{"geonameid":4274288,"name":"Township of Lawrence","admin3":"38875"},{"geonameid":4274494,"name":"Township of Lincoln","admin3":"40525"},{"geonameid":4274923,"name":"Township of Lyon","admin3":"43425"},{"geonameid":4275384,"name":"Township of Meredith","admin3":"45925"},{"geonameid":4276119,"name":"Township of Nelson","admin3":"49600"},{"geonameid":4276554,"name":"Township of Oakland","admin3":"51750"},{"geonameid":4279341,"name":"Township of Shirley","admin3":"65375"},{"geonameid":4279365,"name":"Township of Sibley","admin3":"65425"},{"geonameid":4279547,"name":"Township of Solomon","admin3":"66250"},{"geonameid":4279958,"name":"Township of Starr","admin3":"68050"},{"geonameid":4280139,"name":"Township of Summit","admin3":"69050"}],"alternateNames":[{"alternatenameId":2080124,"geonameid":4273857,"isoLanguage":"en","alternateName":"Kansas","isPreferredName":true,"isShortName":true,"isColloquial":false,"isHistoric":false}]},"__N_SSG":true}