{"pageProps":{"locale":"en","admin2":{"geonameid":5445489,"name":"Gove County","country":"US","admin1":"KS","admin2":"063","admin3":"","latitude":"38.9161000","longitude":"-100.4829000"},"admin1":{"geonameid":4273857,"name":"Kansas","admin1":"KS","localeAltName":"Kansas"},"locations":[],"admin3":[{"geonameid":5445004,"name":"Township of Baker","admin3":"03775"},{"geonameid":5445435,"name":"Township of Gaeland","admin3":"25000"},{"geonameid":5445492,"name":"Township of Gove","admin3":"27075"},{"geonameid":5445501,"name":"Township of Grainfield","admin3":"27225"},{"geonameid":5445530,"name":"Township of Grinnell","admin3":"28925"},{"geonameid":5445684,"name":"Township of Jerome","admin3":"35425"},{"geonameid":5445796,"name":"Township of Larrabee","admin3":"38750"},{"geonameid":5445819,"name":"Township of Lewis","admin3":"39750"},{"geonameid":5446168,"name":"Township of Payne","admin3":"55050"}],"alternateNames":[{"alternatenameId":2080124,"geonameid":4273857,"isoLanguage":"en","alternateName":"Kansas","isPreferredName":true,"isShortName":true,"isColloquial":false,"isHistoric":false}]},"__N_SSG":true}