{"pageProps":{"locale":"en","admin2":{"geonameid":5445544,"name":"Hamilton County","country":"US","admin1":"KS","admin2":"075","admin3":"","latitude":"37.9991500","longitude":"-101.7912600"},"admin1":{"geonameid":4273857,"name":"Kansas","admin1":"KS","localeAltName":"Kansas"},"locations":[{"geonameid":5446613,"name":"Syracuse","admin3":"69875"}],"admin3":[{"geonameid":5445023,"name":"Township of Bear Creek","admin3":"04850"},{"geonameid":5445222,"name":"Township of Coolidge","admin3":"15425"},{"geonameid":5445738,"name":"Township of Kendall","admin3":"36425"},{"geonameid":5445788,"name":"Township of Lamont","admin3":"38275"},{"geonameid":5445832,"name":"Township of Liberty","admin3":"40075"},{"geonameid":5445963,"name":"Township of Medway","admin3":"45650"},{"geonameid":5446293,"name":"Township of Richland","admin3":"59325"},{"geonameid":5446618,"name":"Township of Syracuse","admin3":"69875"}],"alternateNames":[{"alternatenameId":2080124,"geonameid":4273857,"isoLanguage":"en","alternateName":"Kansas","isPreferredName":true,"isShortName":true,"isColloquial":false,"isHistoric":false}]},"__N_SSG":true}