{"pageProps":{"locale":"en","admin2":{"geonameid":4278472,"name":"Russell County","country":"US","admin1":"KS","admin2":"167","admin3":"","latitude":"38.9147800","longitude":"-98.7623500"},"admin1":{"geonameid":4273857,"name":"Kansas","admin1":"KS","localeAltName":"Kansas"},"locations":[{"geonameid":4278471,"name":"Russell","admin3":"61825"}],"admin3":[{"geonameid":4268293,"name":"Township of Big Creek","admin3":"06700"},{"geonameid":4269295,"name":"Township of Center","admin3":"12150"},{"geonameid":4271250,"name":"Township of Fairfield","admin3":"22200"},{"geonameid":4271356,"name":"Township of Fairview","admin3":"22650"},{"geonameid":4272318,"name":"Township of Grant","admin3":"28100"},{"geonameid":4274512,"name":"Township of Lincoln","admin3":"41125"},{"geonameid":4274887,"name":"Township of Luray","admin3":"43275"},{"geonameid":4276959,"name":"Township of Paradise","admin3":"54350"},{"geonameid":4277532,"name":"Township of Plymouth","admin3":"56925"},{"geonameid":4278476,"name":"City of Russell","admin3":"61825"},{"geonameid":4278477,"name":"Township of Russell","admin3":"61850"},{"geonameid":4281126,"name":"Township of Waldo","admin3":"74600"},{"geonameid":4281922,"name":"Township of Winterset","admin3":"80125"}],"alternateNames":[{"alternatenameId":2080124,"geonameid":4273857,"isoLanguage":"en","alternateName":"Kansas","isPreferredName":true,"isShortName":true,"isColloquial":false,"isHistoric":false}]},"__N_SSG":true}