{"pageProps":{"locale":"en","admin2":{"geonameid":4969555,"name":"Lincoln County","country":"US","admin1":"ME","admin2":"015","admin3":"","latitude":"43.9977900","longitude":"-69.5257600"},"admin1":{"geonameid":4971068,"name":"Maine","admin1":"ME"},"locations":[{"geonameid":4956671,"name":"Alna","admin3":"01010"},{"geonameid":4958954,"name":"Boothbay","admin3":"06050"},{"geonameid":4958958,"name":"Boothbay Harbor","admin3":"06120"},{"geonameid":4959223,"name":"Bremen","admin3":"06855"},{"geonameid":4959312,"name":"Bristol","admin3":"07485"},{"geonameid":4962066,"name":"Damariscotta","admin3":"16235"},{"geonameid":4963559,"name":"Edgecomb","admin3":"22675"},{"geonameid":4968246,"name":"Jefferson","admin3":"35695"},{"geonameid":4973311,"name":"Newcastle","admin3":"48645"},{"geonameid":4973402,"name":"Nobleboro","admin3":"49660"},{"geonameid":4978976,"name":"Somerville","admin3":"69645"},{"geonameid":4979123,"name":"South Bristol","admin3":"70240"},{"geonameid":4979328,"name":"Southport","admin3":"71955"},{"geonameid":4982044,"name":"Waldoboro","admin3":"79550"},{"geonameid":4982835,"name":"Westport","admin3":"84140"},{"geonameid":4982975,"name":"Whitefield","admin3":"85010"},{"geonameid":4983359,"name":"Wiscasset","admin3":"87075"}],"admin3":[{"geonameid":4956676,"name":"Town of Alna","admin3":"01010"},{"geonameid":4958964,"name":"Town of Boothbay Harbor","admin3":"06120"},{"geonameid":4958973,"name":"Town of Boothbay","admin3":"06050"},{"geonameid":4959227,"name":"Town of Bremen","admin3":"06855"},{"geonameid":4959315,"name":"Town of Bristol","admin3":"07485"},{"geonameid":4962086,"name":"Town of Damariscotta","admin3":"16235"},{"geonameid":4962833,"name":"Town of Dresden","admin3":"18475"},{"geonameid":4963568,"name":"Town of Edgecomb","admin3":"22675"},{"geonameid":4968250,"name":"Town of Jefferson","admin3":"35695"},{"geonameid":4970611,"name":"Unorganized Territory of Louds Island","admin3":"41280"},{"geonameid":4972362,"name":"Plantation of Monhegan","admin3":"46335"},{"geonameid":4973313,"name":"Town of Newcastle","admin3":"48645"},{"geonameid":4973404,"name":"Town of Nobleboro","admin3":"49660"},{"geonameid":4978978,"name":"Town of Somerville","admin3":"69645"},{"geonameid":4979126,"name":"Town of South Bristol","admin3":"70240"},{"geonameid":4979337,"name":"Town of Southport","admin3":"71955"},{"geonameid":4982047,"name":"Town of Waldoboro","admin3":"79550"},{"geonameid":4982838,"name":"Town of Westport Island","admin3":"84140"},{"geonameid":4982979,"name":"Town of Whitefield","admin3":"85010"},{"geonameid":4983366,"name":"Town of Wiscasset","admin3":"87075"}],"alternateNames":[]},"__N_SSG":true}