{"pageProps":{"locale":"de","admin2":{"geonameid":6458806,"name":"Bezirk Lenzburg","country":"CH","admin1":"AG","admin2":"1907","admin3":"","latitude":"47.3718400","longitude":"8.1891000"},"admin1":{"geonameid":2661876,"name":"Kanton Aargau","admin1":"AG"},"locations":[{"geonameid":2661449,"name":"Boniswil","admin3":"4192"},{"geonameid":2660962,"name":"Dürrenäsch","admin3":"4209"},{"geonameid":2660933,"name":"Egliswil","admin3":"4195"},{"geonameid":2660377,"name":"Hendschiken","admin3":"4198"},{"geonameid":2659952,"name":"Lenzburg","admin3":"4201"},{"geonameid":2659699,"name":"Meisterschwanden","admin3":"4202"},{"geonameid":2659461,"name":"Niederlenz","admin3":"4204"},{"geonameid":2659267,"name":"Othmarsingen","admin3":"4205"},{"geonameid":2658759,"name":"Schafisheim","admin3":"4207"},{"geonameid":2658649,"name":"Seengen","admin3":"4208"},{"geonameid":2658623,"name":"Seon","admin3":"4209"},{"geonameid":2658498,"name":"Staufen","admin3":"4210"}],"admin3":[{"geonameid":7285072,"name":"Ammerswil","admin3":"4191"},{"geonameid":7285292,"name":"Boniswil","admin3":"4192"},{"geonameid":7285351,"name":"Brunegg","admin3":"4193"},{"geonameid":7285655,"name":"Dintikon","admin3":"4194"},{"geonameid":7285708,"name":"Egliswil","admin3":"4195"},{"geonameid":7285789,"name":"Fahrwangen","admin3":"4196"},{"geonameid":7286028,"name":"Hallwil","admin3":"4197"},{"geonameid":7286059,"name":"Hendschiken","admin3":"4198"},{"geonameid":7286101,"name":"Holderbank","admin3":"4199"},{"geonameid":7286124,"name":"Hunzenschwil","admin3":"4200"},{"geonameid":7286318,"name":"Lenzburg","admin3":"4201"},{"geonameid":7286476,"name":"Meisterschwanden","admin3":"4202"},{"geonameid":7286556,"name":"Möriken-Wildegg","admin3":"4203"},{"geonameid":7286644,"name":"Niederlenz","admin3":"4204"},{"geonameid":7286763,"name":"Othmarsingen","admin3":"4205"},{"geonameid":7286987,"name":"Rupperswil","admin3":"4206"},{"geonameid":7287071,"name":"Schafisheim","admin3":"4207"},{"geonameid":7287137,"name":"Seengen","admin3":"4208"},{"geonameid":7287154,"name":"Seon","admin3":"4209"},{"geonameid":7287222,"name":"Staufen","admin3":"4210"}],"alternateNames":[]},"__N_SSG":true}