{"pageProps":{"locale":"ro","admin2":{"geonameid":674065,"name":"Comuna Măicăneşti","country":"RO","admin1":"40","admin2":"176613","admin3":"","latitude":"45.5006700","longitude":"27.4612100","localeAltName":null},"admin1":{"geonameid":662447,"name":"Vrancea","admin1":"40","localeAltName":"Vrancea"},"locations":[{"geonameid":685149,"name":"Belciug-Râmnic","admin3":"","localeAltName":null},{"geonameid":685151,"name":"Belciugele","admin3":"","localeAltName":null},{"geonameid":684076,"name":"Boteşti","admin3":"","localeAltName":null},{"geonameid":676824,"name":"Grădinele","admin3":"","localeAltName":null},{"geonameid":674066,"name":"Măicăneşti","admin3":"","localeAltName":null},{"geonameid":668879,"name":"Râmniceni","admin3":"","localeAltName":null},{"geonameid":666677,"name":"Slobozia Botești","admin3":"","localeAltName":null},{"geonameid":665891,"name":"Stupina","admin3":"","localeAltName":null},{"geonameid":665433,"name":"Tătaru","admin3":"","localeAltName":null},{"geonameid":665426,"name":"Tătăruş","admin3":"","localeAltName":null}],"admin3":[],"alternateNames":[{"alternatenameId":391637,"geonameid":662447,"isoLanguage":"ro","alternateName":"Vrancea","isPreferredName":true,"isShortName":true,"isColloquial":false,"isHistoric":false}]},"__N_SSG":true}