{"pageProps":{"locale":"en","admin2":{"geonameid":2759898,"name":"Gemeente Alkmaar","country":"NL","admin1":"07","admin2":"0361","admin3":"","latitude":"52.6289000","longitude":"4.7440300"},"admin1":{"geonameid":2749879,"name":"Provincie Noord-Holland","admin1":"07"},"locations":[{"geonameid":2759899,"name":"Alkmaar","admin3":""},{"geonameid":2757538,"name":"De Hoef","admin3":""},{"geonameid":2757095,"name":"De Rijp","admin3":""},{"geonameid":2756594,"name":"Driehuizen","admin3":""},{"geonameid":2755375,"name":"Graft","admin3":""},{"geonameid":2755106,"name":"Grootschermer","admin3":""},{"geonameid":2753478,"name":"Huiswaard","admin3":""},{"geonameid":2751155,"name":"Markenbinnen","admin3":""},{"geonameid":2750016,"name":"Nollen","admin3":""},{"geonameid":2749973,"name":"Noordeinde","admin3":""},{"geonameid":2749603,"name":"Omval","admin3":""},{"geonameid":2749374,"name":"Oost-Graftdijk","admin3":""},{"geonameid":2749207,"name":"Oterleek","admin3":""},{"geonameid":2748917,"name":"Oudorp","admin3":""},{"geonameid":2748854,"name":"Overdie","admin3":""},{"geonameid":2747617,"name":"Schermerhorn","admin3":""},{"geonameid":11395748,"name":"Starnmeer","admin3":""},{"geonameid":2746661,"name":"Stompetoren","admin3":""},{"geonameid":11746707,"name":"Ursem gem. S","admin3":""},{"geonameid":2744650,"name":"West-Graftdijk","admin3":""},{"geonameid":2743657,"name":"Zuidschermer","admin3":""}],"admin3":[],"alternateNames":[]},"__N_SSG":true}