{"pageProps":{"locale":"en","admin2":{"geonameid":2759793,"name":"Gemeente Amsterdam","country":"NL","admin1":"07","admin2":"0363","admin3":"","latitude":"52.3730200","longitude":"4.8985600"},"admin1":{"geonameid":2749879,"name":"Provincie Noord-Holland","admin1":"07"},"locations":[{"geonameid":2746241,"name":"'t Nopeind","admin3":""},{"geonameid":2759794,"name":"Amsterdam","admin3":""},{"geonameid":6544881,"name":"Amsterdam-Zuidoost","admin3":""},{"geonameid":2758946,"name":"Bijlmermeer","admin3":""},{"geonameid":8199406,"name":"Binnenstad","admin3":""},{"geonameid":2758564,"name":"Bos en Lommer","admin3":""},{"geonameid":2758159,"name":"Buiksloot","admin3":""},{"geonameid":2758158,"name":"Buikslotermeer","admin3":""},{"geonameid":2758125,"name":"Buitenveldert","admin3":""},{"geonameid":6951635,"name":"De Aker","admin3":""},{"geonameid":7648381,"name":"De Pijp","admin3":""},{"geonameid":7648385,"name":"De Wallen","admin3":""},{"geonameid":7733397,"name":"Disteldorp","admin3":""},{"geonameid":2756584,"name":"Driemond","admin3":""},{"geonameid":2756485,"name":"Durgerdam","admin3":""},{"geonameid":2755553,"name":"Geuzenveld","admin3":""},{"geonameid":2753843,"name":"Holysloot","admin3":""},{"geonameid":7118108,"name":"IJburg","admin3":""},{"geonameid":2753201,"name":"Jordaan","admin3":""},{"geonameid":2753148,"name":"Kadoelen","admin3":""},{"geonameid":2750287,"name":"Nieuwendam","admin3":""},{"geonameid":7648384,"name":"Noord","admin3":""},{"geonameid":2749242,"name":"Osdorp","admin3":""},{"geonameid":7648380,"name":"Oud West","admin3":""},{"geonameid":7648383,"name":"Oud Zuid","admin3":""},{"geonameid":2748817,"name":"Overtoomseveld","admin3":""},{"geonameid":2748327,"name":"Ransdorp","admin3":""},{"geonameid":6544872,"name":"Ruigoord","admin3":""},{"geonameid":2747640,"name":"Schellingwoude","admin3":""},{"geonameid":2747132,"name":"Sloten","admin3":""},{"geonameid":2747129,"name":"Sloterdijk","admin3":""},{"geonameid":2747127,"name":"Slotermeer","admin3":""},{"geonameid":2747125,"name":"Slotervaart","admin3":""},{"geonameid":2746122,"name":"Tuindorp Oostzaan","admin3":""},{"geonameid":2744976,"name":"Watergraafsmeer","admin3":""},{"geonameid":7648382,"name":"Weesperzijde","admin3":""},{"geonameid":9539136,"name":"Westpoort","admin3":""},{"geonameid":2743620,"name":"Zunderdorp","admin3":""}],"admin3":[{"geonameid":11525045,"name":"Noord","admin3":"N"},{"geonameid":11525046,"name":"Centrum","admin3":"A"},{"geonameid":11525047,"name":"Westpoort","admin3":"B"},{"geonameid":11525048,"name":"West","admin3":"E"},{"geonameid":11525049,"name":"Nieuw-West","admin3":"F"},{"geonameid":11525050,"name":"Zuid","admin3":"K"},{"geonameid":11525051,"name":"Oost","admin3":"M"},{"geonameid":11525052,"name":"Zuidoost","admin3":"T"}],"alternateNames":[]},"__N_SSG":true}