{"pageProps":{"locale":"en","admin1":{"geonameid":2634895,"name":"Wales","country":"GB","admin1":"WLS","latitude":"52.5000000","longitude":"-3.5000000","localeAltName":"Wales"},"admin2":[{"geonameid":2657311,"name":"Anglesey","admin2":"X1","localeAltName":"Anglesey"},{"geonameid":3333238,"name":"Blaenau Gwent","admin2":"X2"},{"geonameid":3333239,"name":"Bridgend county borough","admin2":"X3"},{"geonameid":3333240,"name":"Caerphilly County Borough","admin2":"X4"},{"geonameid":3333241,"name":"Cardiff","admin2":"X5","localeAltName":"Cardiff"},{"geonameid":2653753,"name":"Carmarthenshire","admin2":"X7","localeAltName":"Carmarthenshire"},{"geonameid":3333248,"name":"City and County of Swansea","admin2":"Z1"},{"geonameid":3333242,"name":"Conwy","admin2":"X8"},{"geonameid":2653814,"name":"County of Ceredigion","admin2":"X6","localeAltName":"Ceredigion"},{"geonameid":2649298,"name":"County of Flintshire","admin2":"Y1","localeAltName":"Flintshire"},{"geonameid":2651385,"name":"Denbighshire","admin2":"X9","localeAltName":"Denbighshire"},{"geonameid":2647716,"name":"Gwynedd","admin2":"Y2"},{"geonameid":3333243,"name":"Merthyr Tydfil County Borough","admin2":"Y3","localeAltName":"Merthyr Tydfil"},{"geonameid":3333244,"name":"Monmouthshire","admin2":"Y4","localeAltName":"Monmouthshire"},{"geonameid":3333245,"name":"Neath Port Talbot","admin2":"Y5"},{"geonameid":3333246,"name":"Newport","admin2":"Y6"},{"geonameid":2640500,"name":"Pembrokeshire","admin2":"Y7"},{"geonameid":3333247,"name":"Rhondda Cynon Taf","admin2":"Y9"},{"geonameid":2639944,"name":"Sir Powys","admin2":"Y8","localeAltName":"Powys"},{"geonameid":3333249,"name":"Torfaen County Borough","admin2":"Z2"},{"geonameid":2635028,"name":"Vale of Glamorgan","admin2":"Z3","localeAltName":"Vale of Glamorgan"},{"geonameid":2633484,"name":"Wrexham","admin2":"Z4","localeAltName":"Wrexham"}],"country":{"geonameid":2635167,"country":"GB","name":"United Kingdom of Great Britain and Northern Ireland","localeAltName":"United Kingdom"},"alternateNames":[{"alternatenameId":2254229,"geonameid":2633484,"isoLanguage":"en","alternateName":"Wrexham","isPreferredName":true,"isShortName":true,"isColloquial":false,"isHistoric":false},{"alternatenameId":1626654,"geonameid":2634895,"isoLanguage":"en","alternateName":"Wales","isPreferredName":true,"isShortName":true,"isColloquial":false,"isHistoric":false},{"alternatenameId":2254236,"geonameid":2635028,"isoLanguage":"en","alternateName":"Vale of Glamorgan","isPreferredName":true,"isShortName":true,"isColloquial":false,"isHistoric":false},{"alternatenameId":1555690,"geonameid":2635167,"isoLanguage":"en","alternateName":"United Kingdom","isPreferredName":true,"isShortName":true,"isColloquial":false,"isHistoric":false},{"alternatenameId":2254247,"geonameid":2639944,"isoLanguage":"en","alternateName":"Powys","isPreferredName":true,"isShortName":true,"isColloquial":false,"isHistoric":false},{"alternatenameId":1224024,"geonameid":2649298,"isoLanguage":"en","alternateName":"Flintshire","isPreferredName":true,"isShortName":true,"isColloquial":false,"isHistoric":false},{"alternatenameId":1224554,"geonameid":2651385,"isoLanguage":"en","alternateName":"Denbighshire","isPreferredName":true,"isShortName":true,"isColloquial":false,"isHistoric":false},{"alternatenameId":2254298,"geonameid":2653753,"isoLanguage":"en","alternateName":"Carmarthenshire","isPreferredName":true,"isShortName":true,"isColloquial":false,"isHistoric":false},{"alternatenameId":3059132,"geonameid":2653814,"isoLanguage":"en","alternateName":"Ceredigion","isPreferredName":true,"isShortName":true,"isColloquial":false,"isHistoric":false},{"alternatenameId":1226079,"geonameid":2657311,"isoLanguage":"en","alternateName":"Anglesey","isPreferredName":true,"isShortName":true,"isColloquial":false,"isHistoric":false},{"alternatenameId":8666553,"geonameid":3333241,"isoLanguage":"en","alternateName":"Cardiff","isPreferredName":true,"isShortName":true,"isColloquial":false,"isHistoric":false},{"alternatenameId":2184823,"geonameid":3333243,"isoLanguage":"en","alternateName":"Merthyr Tydfil","isPreferredName":true,"isShortName":true,"isColloquial":false,"isHistoric":false},{"alternatenameId":2184821,"geonameid":3333244,"isoLanguage":"en","alternateName":"Monmouthshire","isPreferredName":true,"isShortName":true,"isColloquial":false,"isHistoric":false}]},"__N_SSG":true}