{"pageProps":{"locale":"en","admin2":{"geonameid":4076607,"name":"Mobile County","country":"US","admin1":"AL","admin2":"097","admin3":"","latitude":"30.6851500","longitude":"-88.1975300","localeAltName":null},"admin1":{"geonameid":4829764,"name":"Alabama","admin1":"AL","localeAltName":"Alabama"},"locations":[{"geonameid":4830894,"name":"Axis","admin3":"","localeAltName":null},{"geonameid":4046319,"name":"Bayou La Batre","admin3":"","localeAltName":null},{"geonameid":4047357,"name":"Bellefontaine","admin3":"","localeAltName":null},{"geonameid":4054996,"name":"Chickasaw","admin3":"","localeAltName":null},{"geonameid":4055535,"name":"Citronelle","admin3":"","localeAltName":null},{"geonameid":4057531,"name":"Creola","admin3":"","localeAltName":null},{"geonameid":4058262,"name":"Dauphin Island","admin3":"","localeAltName":null},{"geonameid":4064840,"name":"Grand Bay","admin3":"","localeAltName":null},{"geonameid":4076598,"name":"Mobile","admin3":"","localeAltName":null},{"geonameid":4078348,"name":"Mount Vernon","admin3":"","localeAltName":null},{"geonameid":4084888,"name":"Prichard","admin3":"","localeAltName":null},{"geonameid":4088628,"name":"Saraland","admin3":"","localeAltName":null},{"geonameid":4088737,"name":"Satsuma","admin3":"","localeAltName":null},{"geonameid":4089148,"name":"Semmes","admin3":"","localeAltName":null},{"geonameid":4093399,"name":"Theodore","admin3":"","localeAltName":null},{"geonameid":4093753,"name":"Tillmans Corner","admin3":"","localeAltName":null},{"geonameid":4098005,"name":"Wilmer","admin3":"","localeAltName":null}],"admin3":[{"geonameid":11788721,"name":"City of Semmes","admin3":"11788721"}],"alternateNames":[{"alternatenameId":1632834,"geonameid":4829764,"isoLanguage":"en","alternateName":"Alabama","isPreferredName":true,"isShortName":true,"isColloquial":false,"isHistoric":false}]},"__N_SSG":true}