{"pageProps":{"locale":"en","admin2":{"geonameid":2651385,"name":"Denbighshire","country":"GB","admin1":"WLS","admin2":"X9","admin3":"","latitude":"53.0833300","longitude":"-3.3333300","localeAltName":"Denbighshire"},"admin1":{"geonameid":2634895,"name":"Wales","admin1":"WLS","localeAltName":"Wales"},"locations":[{"geonameid":2655794,"name":"Bettws Gwerfil Goch","admin3":"00NG002","localeAltName":null},{"geonameid":2655283,"name":"Bodelwyddan","admin3":"00NG003","localeAltName":null},{"geonameid":2655277,"name":"Bodfari","admin3":"00NG004","localeAltName":null},{"geonameid":2654444,"name":"Bryneglwys","admin3":"00NG005","localeAltName":null},{"geonameid":2653670,"name":"Carrog","admin3":"00NG008","localeAltName":null},{"geonameid":2652917,"name":"Clawdd-newydd","admin3":"00NG013","localeAltName":null},{"geonameid":2652813,"name":"Clocaenog","admin3":"00NG007","localeAltName":null},{"geonameid":2652302,"name":"Corwen","admin3":"00NG008","localeAltName":null},{"geonameid":2651658,"name":"Cwm","admin3":"00NG009","localeAltName":null},{"geonameid":2651638,"name":"Cyffylliog","admin3":"00NG010","localeAltName":null},{"geonameid":2651630,"name":"Cynwyd","admin3":"00NG011","localeAltName":null},{"geonameid":2651386,"name":"Denbigh","admin3":"00NG012","localeAltName":null},{"geonameid":2651321,"name":"Derwen","admin3":"00NG013","localeAltName":null},{"geonameid":2650584,"name":"Dyserth","admin3":"00NG014","localeAltName":null},{"geonameid":2650196,"name":"Efenechtyd","admin3":"00NG015","localeAltName":null},{"geonameid":9883941,"name":"Ffrith","admin3":"00NG033","localeAltName":null},{"geonameid":2648387,"name":"Glyn-Dyfrdwy","admin3":"00NG008","localeAltName":null},{"geonameid":9883945,"name":"Groesffordd Marli","admin3":"00NG006","localeAltName":null},{"geonameid":2647737,"name":"Gwaynynog","admin3":"00NG012","localeAltName":null},{"geonameid":2647723,"name":"Gwyddelwern","admin3":"00NG016","localeAltName":null},{"geonameid":2647099,"name":"Henllan","admin3":"00NG017","localeAltName":null},{"geonameid":2644198,"name":"Llanbedr-Dyffryn-Clwyd","admin3":"00NG019","localeAltName":null},{"geonameid":2644138,"name":"Llandegla","admin3":"00NG020","localeAltName":null},{"geonameid":2644124,"name":"Llandrillo","admin3":"00NG021","localeAltName":null},{"geonameid":2644112,"name":"Llandyrnog","admin3":"00NG022","localeAltName":null},{"geonameid":2644102,"name":"Llanelidan","admin3":"00NG023","localeAltName":null},{"geonameid":2644082,"name":"Llanfair-Dyffryn-Clwyd","admin3":"00NG024","localeAltName":null},{"geonameid":2644073,"name":"Llanferres","admin3":"00NG025","localeAltName":null},{"geonameid":2644021,"name":"Llangollen","admin3":"00NG026","localeAltName":null},{"geonameid":2644004,"name":"Llangynhafal","admin3":"00NG028","localeAltName":null},{"geonameid":2643967,"name":"Llanrhaiadr","admin3":"00NG029","localeAltName":null},{"geonameid":2643932,"name":"Llantysilio","admin3":"00NG030","localeAltName":null},{"geonameid":2642787,"name":"Meliden","admin3":"00NG033","localeAltName":null},{"geonameid":2641897,"name":"Nantglyn","admin3":"00NG032","localeAltName":null},{"geonameid":2641615,"name":"Newmarket","admin3":"00NG009","localeAltName":null},{"geonameid":9883947,"name":"Pengwern","admin3":"00NG003","localeAltName":null},{"geonameid":2640229,"name":"Pl√¢s-Llanrhydd","admin3":"00NG024","localeAltName":null},{"geonameid":2639926,"name":"Prestatyn","admin3":"00NG033","localeAltName":null},{"geonameid":2639466,"name":"Rhewl","admin3":"00NG031","localeAltName":null},{"geonameid":9409811,"name":"Rhuallt","admin3":"00NG039","localeAltName":null},{"geonameid":2639425,"name":"Rhuddlan","admin3":"00NG034","localeAltName":null},{"geonameid":2639409,"name":"Rhyl","admin3":"00NG035","localeAltName":null},{"geonameid":2638979,"name":"Rug","admin3":"00NG008","localeAltName":null},{"geonameid":2638925,"name":"Ruthin","admin3":"00NG036","localeAltName":null},{"geonameid":2638855,"name":"Saint Asaph","admin3":"00NG037","localeAltName":null},{"geonameid":2635535,"name":"Trefnant","admin3":"00NG038","localeAltName":null},{"geonameid":2635510,"name":"Tremeirchion","admin3":"00NG039","localeAltName":null}],"admin3":[{"geonameid":7291924,"name":"Rhyl","admin3":"00NG035","localeAltName":null},{"geonameid":7292335,"name":"Aberwheeler","admin3":"00NG001"},{"geonameid":7292336,"name":"Bryneglwys","admin3":"00NG005","localeAltName":null},{"geonameid":7292337,"name":"Cefnmeiriadog","admin3":"00NG006","localeAltName":null},{"geonameid":7292338,"name":"Cwm","admin3":"00NG009","localeAltName":null},{"geonameid":7292339,"name":"Llanarmon-yn-Ial","admin3":"00NG018"},{"geonameid":7292340,"name":"Llandegla","admin3":"00NG020","localeAltName":null},{"geonameid":7293939,"name":"Llanrhaeadr-Yng-Nghinmeirch","admin3":"00NG029","localeAltName":null},{"geonameid":7294044,"name":"Corwen","admin3":"00NG008","localeAltName":null},{"geonameid":7294045,"name":"Henllan","admin3":"00NG017","localeAltName":null},{"geonameid":7294046,"name":"Llanfair Dyffryn Clwyd","admin3":"00NG024","localeAltName":null},{"geonameid":7294047,"name":"Llantysilio","admin3":"00NG030","localeAltName":null},{"geonameid":7294048,"name":"Prestatyn","admin3":"00NG033","localeAltName":null},{"geonameid":7294049,"name":"Rhuddlan","admin3":"00NG034","localeAltName":null},{"geonameid":7294050,"name":"Trefnant","admin3":"00NG038","localeAltName":null},{"geonameid":7294051,"name":"Tremeirchion","admin3":"00NG039","localeAltName":null},{"geonameid":7296139,"name":"Llandrillo","admin3":"00NG021","localeAltName":null},{"geonameid":7297133,"name":"Betws Gwerfil Goch","admin3":"00NG002","localeAltName":null},{"geonameid":7297134,"name":"Bodfari","admin3":"00NG004","localeAltName":null},{"geonameid":7297135,"name":"Clocaenog","admin3":"00NG007","localeAltName":null},{"geonameid":7297136,"name":"Cyffylliog","admin3":"00NG010","localeAltName":null},{"geonameid":7297137,"name":"Dyserth","admin3":"00NG014","localeAltName":null},{"geonameid":7297138,"name":"Llanferres","admin3":"00NG025","localeAltName":null},{"geonameid":7297139,"name":"Llangollen","admin3":"00NG026","localeAltName":null},{"geonameid":7297140,"name":"Llangynhafal","admin3":"00NG028","localeAltName":null},{"geonameid":7297742,"name":"Denbigh","admin3":"00NG012","localeAltName":null},{"geonameid":7297865,"name":"Cynwyd","admin3":"00NG011","localeAltName":null},{"geonameid":7297866,"name":"St. Asaph","admin3":"00NG037","localeAltName":null},{"geonameid":7298107,"name":"Llanynys","admin3":"00NG031","localeAltName":null},{"geonameid":7301118,"name":"Bodelwyddan","admin3":"00NG003","localeAltName":null},{"geonameid":7301119,"name":"Derwen","admin3":"00NG013","localeAltName":null},{"geonameid":7301120,"name":"Efenechtyd","admin3":"00NG015","localeAltName":null},{"geonameid":7301121,"name":"Gwyddelwern","admin3":"00NG016","localeAltName":null},{"geonameid":7301122,"name":"Llanbedr Dyffryn Clwyd","admin3":"00NG019","localeAltName":null},{"geonameid":7301123,"name":"Llandyrnog","admin3":"00NG022","localeAltName":null},{"geonameid":7301124,"name":"Llanelidan","admin3":"00NG023","localeAltName":null},{"geonameid":7301125,"name":"Nantglyn","admin3":"00NG032","localeAltName":null},{"geonameid":7301126,"name":"Ruthin","admin3":"00NG036","localeAltName":null},{"geonameid":7301127,"name":"Waen","admin3":"00NG040"}],"alternateNames":[{"alternatenameId":1626654,"geonameid":2634895,"isoLanguage":"en","alternateName":"Wales","isPreferredName":true,"isShortName":true,"isColloquial":false,"isHistoric":false},{"alternatenameId":1224554,"geonameid":2651385,"isoLanguage":"en","alternateName":"Denbighshire","isPreferredName":true,"isShortName":true,"isColloquial":false,"isHistoric":false}]},"__N_SSG":true}