{"pageProps":{"locale":"en","admin2":{"geonameid":4500994,"name":"Burlington County","country":"US","admin1":"NJ","admin2":"005","admin3":"","latitude":"39.8776900","longitude":"-74.6682000"},"admin1":{"geonameid":5101760,"name":"New Jersey","admin1":"NJ","localeAltName":"New Jersey"},"locations":[{"geonameid":5095691,"name":"Beverly","admin3":"05740"},{"geonameid":5095847,"name":"Bordentown","admin3":"06670"},{"geonameid":4500959,"name":"Browns Mills","admin3":"57510"},{"geonameid":5096075,"name":"Burlington","admin3":"08920"},{"geonameid":4501234,"name":"Cinnaminson","admin3":"12940"},{"geonameid":5096832,"name":"Columbus","admin3":"43290"},{"geonameid":4501360,"name":"Country Lake Estates","admin3":"57510"},{"geonameid":5097206,"name":"Delanco","admin3":"17080"},{"geonameid":5097521,"name":"Edgewater Park","admin3":"20050"},{"geonameid":5098086,"name":"Florence","admin3":"23850"},{"geonameid":5098132,"name":"Fort Dix","admin3":"51510"},{"geonameid":4502667,"name":"Leisuretowne","admin3":"68610"},{"geonameid":4502832,"name":"Magnolia","admin3":"57510"},{"geonameid":4502901,"name":"Maple Shade","admin3":"43740"},{"geonameid":4502911,"name":"Marlton","admin3":"22110"},{"geonameid":7258259,"name":"McGuire AFB","admin3":"51510"},{"geonameid":4502986,"name":"Medford Lakes","admin3":"45120"},{"geonameid":7258303,"name":"Moorestown-Lenola","admin3":"47880"},{"geonameid":4503134,"name":"Mount Holly","admin3":"48900"},{"geonameid":4503136,"name":"Mount Laurel","admin3":"49020"},{"geonameid":5102378,"name":"Palmyra","admin3":"55800"},{"geonameid":4503532,"name":"Pemberton","admin3":"57480"},{"geonameid":4503534,"name":"Pemberton Heights","admin3":"57510"},{"geonameid":4503698,"name":"Presidential Lakes Estates","admin3":"57510"},{"geonameid":4503736,"name":"Ramblewood","admin3":"49020"},{"geonameid":5103335,"name":"Riverton","admin3":"63660"},{"geonameid":5103431,"name":"Roebling","admin3":"23850"},{"geonameid":4504618,"name":"Vincentown","admin3":"68610"},{"geonameid":5106453,"name":"Willingboro","admin3":"81440"}],"admin3":[{"geonameid":4500664,"name":"Township of Bass River","admin3":"03370"},{"geonameid":4501723,"name":"Township of Evesham","admin3":"22110"},{"geonameid":4502112,"name":"Township of Hainesport","admin3":"29010"},{"geonameid":4502821,"name":"Township of Lumberton","admin3":"42060"},{"geonameid":4502899,"name":"Township of Maple Shade","admin3":"43740"},{"geonameid":4502988,"name":"Borough of Medford Lakes","admin3":"45210"},{"geonameid":4502990,"name":"Township of Medford","admin3":"45120"},{"geonameid":4503108,"name":"Township of Moorestown","admin3":"47880"},{"geonameid":4503139,"name":"Township of Mount Laurel","admin3":"49020"},{"geonameid":4503535,"name":"Borough of Pemberton","admin3":"57480"},{"geonameid":4503536,"name":"Township of Pemberton","admin3":"57510"},{"geonameid":4504051,"name":"Township of Shamong","admin3":"66810"},{"geonameid":4504228,"name":"Township of Southampton","admin3":"68610"},{"geonameid":4504399,"name":"Township of Tabernacle","admin3":"72060"},{"geonameid":4504732,"name":"Township of Washington","admin3":"77150"},{"geonameid":4504934,"name":"Township of Woodland","admin3":"82420"},{"geonameid":5095695,"name":"City of Beverly","admin3":"05740"},{"geonameid":5095837,"name":"City of Bordentown","admin3":"06670"},{"geonameid":5095838,"name":"Township of Bordentown","admin3":"06700"},{"geonameid":5096080,"name":"City of Burlington","admin3":"08920"},{"geonameid":5096081,"name":"Township of Burlington","admin3":"08950"},{"geonameid":5096530,"name":"Township of Chesterfield","admin3":"12670"},{"geonameid":5096636,"name":"Township of Cinnaminson","admin3":"12940"},{"geonameid":5097208,"name":"Township of Delanco","admin3":"17080"},{"geonameid":5097222,"name":"Township of Delran","admin3":"17440"},{"geonameid":5097471,"name":"Township of Eastampton","admin3":"18790"},{"geonameid":5097523,"name":"Township of Edgewater Park","admin3":"20050"},{"geonameid":5097891,"name":"Borough of Fieldsboro","admin3":"23250"},{"geonameid":5098094,"name":"Township of Florence","admin3":"23850"},{"geonameid":5100820,"name":"Township of Mansfield","admin3":"43290"},{"geonameid":5101494,"name":"Township of Mount Holly","admin3":"48900"},{"geonameid":5101740,"name":"Township of New Hanover","admin3":"51510"},{"geonameid":5101925,"name":"Township of North Hanover","admin3":"53070"},{"geonameid":5102380,"name":"Borough of Palmyra","admin3":"55800"},{"geonameid":5103333,"name":"Township of Riverside","admin3":"63510"},{"geonameid":5103338,"name":"Borough of Riverton","admin3":"63660"},{"geonameid":5104955,"name":"Township of Springfield","admin3":"69990"},{"geonameid":5106325,"name":"Township of Westampton","admin3":"78200"},{"geonameid":5106455,"name":"Township of Willingboro","admin3":"81440"},{"geonameid":5106613,"name":"Borough of Wrightstown","admin3":"82960"}],"alternateNames":[{"alternatenameId":2089555,"geonameid":5101760,"isoLanguage":"en","alternateName":"New Jersey","isPreferredName":true,"isShortName":true,"isColloquial":false,"isHistoric":false}]},"__N_SSG":true}