{"pageProps":{"locale":"en","admin2":{"geonameid":4503949,"name":"Salem County","country":"US","admin1":"NJ","admin2":"033","admin3":"","latitude":"39.5765800","longitude":"-75.3579100"},"admin1":{"geonameid":5101760,"name":"New Jersey","admin1":"NJ","localeAltName":"New Jersey"},"locations":[{"geonameid":4500491,"name":"Alloway","admin3":"00880"},{"geonameid":4501073,"name":"Carneys Point","admin3":"10610"},{"geonameid":4501678,"name":"Elmer","admin3":"21240"},{"geonameid":4503401,"name":"Olivet","admin3":"59130"},{"geonameid":4503544,"name":"Penns Grove","admin3":"57750"},{"geonameid":4503555,"name":"Pennsville","admin3":"57870"},{"geonameid":4503944,"name":"Salem","admin3":"65490"},{"geonameid":4504946,"name":"Woodstown","admin3":"82720"}],"admin3":[{"geonameid":4500498,"name":"Township of Alloway","admin3":"00880"},{"geonameid":4501074,"name":"Township of Carneys Point","admin3":"10610"},{"geonameid":4501681,"name":"Borough of Elmer","admin3":"21240"},{"geonameid":4501686,"name":"Township of Elsinboro","admin3":"21330"},{"geonameid":4502794,"name":"Township of Lower Alloways Creek","admin3":"41640"},{"geonameid":4502878,"name":"Township of Mannington","admin3":"43200"},{"geonameid":4503397,"name":"Township of Oldmans","admin3":"54810"},{"geonameid":4503545,"name":"Borough of Penns Grove","admin3":"57750"},{"geonameid":4503557,"name":"Township of Pennsville","admin3":"57870"},{"geonameid":4503601,"name":"Township of Pilesgrove","admin3":"58530"},{"geonameid":4503638,"name":"Township of Pittsgrove","admin3":"59130"},{"geonameid":4503717,"name":"Township of Quinton","admin3":"61470"},{"geonameid":4503954,"name":"City of Salem","admin3":"65490"},{"geonameid":4504585,"name":"Township of Upper Pittsgrove","admin3":"75110"},{"geonameid":4504947,"name":"Borough of Woodstown","admin3":"82720"}],"alternateNames":[{"alternatenameId":2089555,"geonameid":5101760,"isoLanguage":"en","alternateName":"New Jersey","isPreferredName":true,"isShortName":true,"isColloquial":false,"isHistoric":false}]},"__N_SSG":true}