{"pageProps":{"locale":"en","admin2":{"geonameid":5104759,"name":"Somerset County","country":"US","admin1":"NJ","admin2":"035","admin3":"","latitude":"40.5635100","longitude":"-74.6163100"},"admin1":{"geonameid":5101760,"name":"New Jersey","admin1":"NJ","localeAltName":"New Jersey"},"locations":[{"geonameid":5095409,"name":"Basking Ridge","admin3":""},{"geonameid":5095528,"name":"Bedminster","admin3":"04450"},{"geonameid":5095626,"name":"Bernardsville","admin3":"05590"},{"geonameid":5095787,"name":"Bloomingdale","admin3":"31890"},{"geonameid":5095860,"name":"Bound Brook","admin3":"06790"},{"geonameid":5095887,"name":"Bradley Gardens","admin3":"07720"},{"geonameid":8299576,"name":"Bridgewater","admin3":"07720"},{"geonameid":7315293,"name":"East Franklin","admin3":"24900"},{"geonameid":5097900,"name":"Finderne","admin3":"07720"},{"geonameid":7315295,"name":"Franklin Center","admin3":"24900"},{"geonameid":5098418,"name":"Gladstone","admin3":"57300"},{"geonameid":5098617,"name":"Green Knoll","admin3":"07720"},{"geonameid":5099079,"name":"Hillsborough","admin3":"31890"},{"geonameid":5100830,"name":"Manville","admin3":"43620"},{"geonameid":5100924,"name":"Martinsville","admin3":"07720"},{"geonameid":5101156,"name":"Middlebush","admin3":"24900"},{"geonameid":5101938,"name":"North Plainfield","admin3":"53280"},{"geonameid":5102515,"name":"Peapack","admin3":"57300"},{"geonameid":5103116,"name":"Raritan","admin3":"61980"},{"geonameid":5104696,"name":"Sixmile Run","admin3":"24900"},{"geonameid":5104755,"name":"Somerset","admin3":"24900"},{"geonameid":5104774,"name":"Somerville","admin3":"68460"},{"geonameid":5104798,"name":"South Bound Brook","admin3":"68730"},{"geonameid":5105296,"name":"Ten Mile Run","admin3":"24900"},{"geonameid":5105860,"name":"Voorhees","admin3":"24900"},{"geonameid":8299577,"name":"Warren Township","admin3":""},{"geonameid":5106129,"name":"Watchung","admin3":"77600"},{"geonameid":5106341,"name":"Weston","admin3":"43620"}],"admin3":[{"geonameid":5095522,"name":"Township of Bedminster","admin3":"04450"},{"geonameid":5095630,"name":"Borough of Bernardsville","admin3":"05590"},{"geonameid":5095858,"name":"Borough of Bound Brook","admin3":"06790"},{"geonameid":5095907,"name":"Township of Branchburg","admin3":"07180"},{"geonameid":5095957,"name":"Township of Bridgewater","admin3":"07720"},{"geonameid":5098262,"name":"Township of Franklin","admin3":"24900"},{"geonameid":5098605,"name":"Township of Green Brook","admin3":"27510"},{"geonameid":5099090,"name":"Township of Hillsborough","admin3":"31890"},{"geonameid":5100834,"name":"Borough of Manville","admin3":"43620"},{"geonameid":5101241,"name":"Borough of Millstone","admin3":"46590"},{"geonameid":5101358,"name":"Township of Montgomery","admin3":"47580"},{"geonameid":5101942,"name":"Borough of North Plainfield","admin3":"53280"},{"geonameid":5102517,"name":"Borough of Peapack and Gladstone","admin3":"57300"},{"geonameid":5103137,"name":"Borough of Raritan","admin3":"61980"},{"geonameid":5103426,"name":"Borough of Rocky Hill","admin3":"64320"},{"geonameid":5104779,"name":"Borough of Somerville","admin3":"68460"},{"geonameid":5104802,"name":"Borough of South Bound Brook","admin3":"68730"},{"geonameid":5106140,"name":"Borough of Watchung","admin3":"77600"}],"alternateNames":[{"alternatenameId":2089555,"geonameid":5101760,"isoLanguage":"en","alternateName":"New Jersey","isPreferredName":true,"isShortName":true,"isColloquial":false,"isHistoric":false}]},"__N_SSG":true}