{"pageProps":{"locale":"en","admin2":{"geonameid":5106044,"name":"Warren County","country":"US","admin1":"NJ","admin2":"041","admin3":"","latitude":"40.8572500","longitude":"-74.9970200"},"admin1":{"geonameid":5101760,"name":"New Jersey","admin1":"NJ","localeAltName":"New Jersey"},"locations":[{"geonameid":5095171,"name":"Alpha","admin3":"01030"},{"geonameid":5095500,"name":"Beattystown","admin3":"43320"},{"geonameid":5095571,"name":"Belvidere","admin3":"04990"},{"geonameid":5095920,"name":"Brass Castle","admin3":"77300"},{"geonameid":5098745,"name":"Hackettstown","admin3":"28710"},{"geonameid":5098817,"name":"Hardwick","admin3":"29820"},{"geonameid":5102339,"name":"Oxford","admin3":"55530"},{"geonameid":5102615,"name":"Phillipsburg","admin3":"58350"},{"geonameid":7315298,"name":"Upper Pohatcong","admin3":"59820"},{"geonameid":5106057,"name":"Washington","admin3":"77270"}],"admin3":[{"geonameid":5095120,"name":"Township of Allamuchy","admin3":"00670"},{"geonameid":5095151,"name":"Borough of Alpha","admin3":"01030"},{"geonameid":5095572,"name":"Town of Belvidere","admin3":"04990"},{"geonameid":5095758,"name":"Township of Blairstown","admin3":"06160"},{"geonameid":5098263,"name":"Township of Franklin","admin3":"24960"},{"geonameid":5098296,"name":"Township of Frelinghuysen","admin3":"25320"},{"geonameid":5098651,"name":"Township of Greenwich","admin3":"28260"},{"geonameid":5098731,"name":"Town of Hackettstown","admin3":"28710"},{"geonameid":5098819,"name":"Township of Hardwick","admin3":"29820"},{"geonameid":5098837,"name":"Township of Harmony","admin3":"30090"},{"geonameid":5099310,"name":"Township of Hope","admin3":"33060"},{"geonameid":5099460,"name":"Township of Independence","admin3":"33930"},{"geonameid":5100091,"name":"Township of Knowlton","admin3":"37320"},{"geonameid":5100435,"name":"Township of Liberty","admin3":"40110"},{"geonameid":5100656,"name":"Township of Lopatcong","admin3":"41490"},{"geonameid":5100821,"name":"Township of Mansfield","admin3":"43320"},{"geonameid":5102341,"name":"Township of Oxford","admin3":"55530"},{"geonameid":5102616,"name":"Town of Phillipsburg","admin3":"58350"},{"geonameid":5102819,"name":"Township of Pohatcong","admin3":"59820"},{"geonameid":5106121,"name":"Borough of Washington","admin3":"77270"},{"geonameid":5106125,"name":"Township of Washington","admin3":"77300"},{"geonameid":5106390,"name":"Township of White","admin3":"80570"}],"alternateNames":[{"alternatenameId":2089555,"geonameid":5101760,"isoLanguage":"en","alternateName":"New Jersey","isPreferredName":true,"isShortName":true,"isColloquial":false,"isHistoric":false}]},"__N_SSG":true}