{"pageProps":{"locale":"ro","admin2":{"geonameid":8335003,"name":"Municipiul Bucureşti","country":"RO","admin1":"10","admin2":"179132","admin3":"","latitude":"44.4320000","longitude":"26.1060000"},"admin1":{"geonameid":683504,"name":"București","admin1":"10"},"locations":[{"geonameid":686283,"name":"Apărătorii Patriei","admin3":"11055042"},{"geonameid":10176278,"name":"Aviatiei","admin3":"11055040"},{"geonameid":685574,"name":"Balta Albă","admin3":"11055044"},{"geonameid":685473,"name":"Băneasa","admin3":"11055041"},{"geonameid":684713,"name":"Bârzeşti","admin3":"11055042"},{"geonameid":8643500,"name":"Berceni","admin3":"11055042"},{"geonameid":683506,"name":"Bucharest","admin3":"11055044"},{"geonameid":6691781,"name":"Bucuresti","admin3":"11055042"},{"geonameid":683503,"name":"Bucureştii Noi","admin3":"11055041"},{"geonameid":10942938,"name":"Cartier Militari","admin3":"11055039"},{"geonameid":681382,"name":"Ciurel","admin3":"11055039"},{"geonameid":681117,"name":"Colentina","admin3":"11055040"},{"geonameid":681060,"name":"Colonişti","admin3":"11055040"},{"geonameid":680593,"name":"Costeasca","admin3":"11055041"},{"geonameid":663099,"name":"Cotroceni","admin3":"11055043"},{"geonameid":680230,"name":"Crângaşi","admin3":"11055039"},{"geonameid":679791,"name":"Dămăroaia","admin3":"11055041"},{"geonameid":10176279,"name":"Dorobanti","admin3":"11055041"},{"geonameid":10176282,"name":"Dristor","admin3":"11055044"},{"geonameid":8643501,"name":"Drumul Taberei","admin3":"11055039"},{"geonameid":678785,"name":"Dudeşti","admin3":"11055044"},{"geonameid":678072,"name":"Floreasca","admin3":"11055041"},{"geonameid":677473,"name":"Ghencea","admin3":"11055039"},{"geonameid":677142,"name":"Giuleşti","admin3":"11055039"},{"geonameid":676704,"name":"Griviţa","admin3":"11055041"},{"geonameid":676241,"name":"Herăstrău","admin3":"11055041"},{"geonameid":674297,"name":"Lupeasca","admin3":"11055043"},{"geonameid":673847,"name":"Mărcuţa","admin3":"11055040"},{"geonameid":673302,"name":"Militari","admin3":"11055039"},{"geonameid":9034798,"name":"Odăi","admin3":"11055043"},{"geonameid":7117285,"name":"Piata Unirii","admin3":"11055044"},{"geonameid":670385,"name":"Plumbuita","admin3":"11055040"},{"geonameid":669865,"name":"Popeşti-Români","admin3":"11055042"},{"geonameid":667905,"name":"Şasesprezece Februarie","admin3":"11055039"},{"geonameid":11048317,"name":"Sector 1","admin3":"11055041"},{"geonameid":11048318,"name":"Sector 2","admin3":"11055040"},{"geonameid":11048319,"name":"Sector 3","admin3":"11055044"},{"geonameid":11048320,"name":"Sector 4","admin3":"11055042"},{"geonameid":11048322,"name":"Sector 5","admin3":"11055043"},{"geonameid":11048323,"name":"Sector 6","admin3":"11055039"},{"geonameid":667361,"name":"Şerban Vodă","admin3":"11055043"},{"geonameid":10176280,"name":"Soseaua Oltenitei","admin3":"11055042"},{"geonameid":9034799,"name":"Străulești","admin3":"11055041"},{"geonameid":9034797,"name":"Vatra Noua","admin3":"11055041"}],"admin3":[{"geonameid":11055039,"name":"Sector 6","admin3":"11055039"},{"geonameid":11055040,"name":"Sector 2","admin3":"11055040"},{"geonameid":11055041,"name":"Sector 1","admin3":"11055041"},{"geonameid":11055042,"name":"Sector 4","admin3":"11055042"},{"geonameid":11055043,"name":"Sector 5","admin3":"11055043"},{"geonameid":11055044,"name":"Sector 3","admin3":"11055044"}],"alternateNames":[]},"__N_SSG":true}