{"pageProps":{"locale":"en","admin2":{"geonameid":5049534,"name":"Swift County","country":"US","admin1":"MN","admin2":"151","admin3":"","latitude":"45.2827100","longitude":"-95.6814300","localeAltName":null},"admin1":{"geonameid":5037779,"name":"Minnesota","admin1":"MN","localeAltName":"Minnesota"},"locations":[{"geonameid":5016496,"name":"Appleton","admin3":"01864","localeAltName":null},{"geonameid":5017882,"name":"Benson","admin3":"05212","localeAltName":null},{"geonameid":5033113,"name":"Kerkhoven","admin3":"32876","localeAltName":null}],"admin3":[{"geonameid":5016519,"name":"City of Appleton","admin3":"01864","localeAltName":null},{"geonameid":5016520,"name":"Township of Appleton","admin3":"01882"},{"geonameid":5017910,"name":"City of Benson","admin3":"05212","localeAltName":null},{"geonameid":5017911,"name":"Township of Benson","admin3":"05230"},{"geonameid":5020162,"name":"Township of Camp Lake","admin3":"09532"},{"geonameid":5020541,"name":"Township of Cashel","admin3":"10216"},{"geonameid":5021630,"name":"City of Clontarf","admin3":"12124"},{"geonameid":5021631,"name":"Township of Clontarf","admin3":"12142"},{"geonameid":5023848,"name":"City of Danvers","admin3":"14734"},{"geonameid":5023981,"name":"City of De Graff","admin3":"15418"},{"geonameid":5024662,"name":"Township of Dublin","admin3":"16444"},{"geonameid":5025273,"name":"Township of Edison","admin3":"18206"},{"geonameid":5026106,"name":"Township of Fairfield","admin3":"20258"},{"geonameid":5029656,"name":"Township of Hayes","admin3":"27854"},{"geonameid":5029774,"name":"Township of Hegbert","admin3":"28160"},{"geonameid":5030446,"name":"City of Holloway","admin3":"29672"},{"geonameid":5033126,"name":"City of Kerkhoven","admin3":"32876","localeAltName":null},{"geonameid":5033127,"name":"Township of Kerkhoven","admin3":"32894"},{"geonameid":5033201,"name":"Township of Kildare","admin3":"33092"},{"geonameid":5036828,"name":"Township of Marysland","admin3":"40904"},{"geonameid":5038465,"name":"Township of Moyer","admin3":"44674"},{"geonameid":5038776,"name":"City of Murdock","admin3":"44818"},{"geonameid":5041501,"name":"Township of Pillsbury","admin3":"50920"},{"geonameid":5047180,"name":"Township of Shible","admin3":"59818"},{"geonameid":5047465,"name":"Township of Six Mile Grove","admin3":"60592"},{"geonameid":5049516,"name":"Township of Swenoda","admin3":"63904"},{"geonameid":5049727,"name":"Township of Tara","admin3":"64228"},{"geonameid":5050242,"name":"Township of Torning","admin3":"65236"},{"geonameid":5052307,"name":"Township of West Bank","admin3":"69214"}],"alternateNames":[{"alternatenameId":2089541,"geonameid":5037779,"isoLanguage":"en","alternateName":"Minnesota","isPreferredName":true,"isShortName":true,"isColloquial":false,"isHistoric":false}]},"__N_SSG":true}