{"pageProps":{"locale":"en","admin2":{"geonameid":5051601,"name":"Wabasha County","country":"US","admin1":"MN","admin2":"157","admin3":"","latitude":"44.2842800","longitude":"-92.2302700","localeAltName":null},"admin1":{"geonameid":5037779,"name":"Minnesota","admin1":"MN","localeAltName":"Minnesota"},"locations":[{"geonameid":5025420,"name":"Elgin","admin3":"18530","localeAltName":null},{"geonameid":5033727,"name":"Lake City","admin3":"34172","localeAltName":null},{"geonameid":5036952,"name":"Mazeppa","admin3":"41282","localeAltName":null},{"geonameid":5041791,"name":"Plainview","admin3":"51424","localeAltName":null},{"geonameid":5051594,"name":"Wabasha","admin3":"67378","localeAltName":null}],"admin3":[{"geonameid":5020998,"name":"Township of Chester","admin3":"11242"},{"geonameid":5025426,"name":"City of Elgin","admin3":"18530","localeAltName":null},{"geonameid":5025427,"name":"Township of Elgin","admin3":"18548"},{"geonameid":5027977,"name":"Township of Gillford","admin3":"23786"},{"geonameid":5028021,"name":"Township of Glasgow","admin3":"23894"},{"geonameid":5028803,"name":"Township of Greenfield","admin3":"25640"},{"geonameid":5029219,"name":"City of Hammond","admin3":"26828"},{"geonameid":5030096,"name":"Township of Highland","admin3":"28952"},{"geonameid":5031007,"name":"Township of Hyde Park","admin3":"30680"},{"geonameid":5033001,"name":"City of Kellogg","admin3":"32642"},{"geonameid":5033729,"name":"City of Lake City","admin3":"34172","localeAltName":null},{"geonameid":5033958,"name":"Township of Lake","admin3":"34028"},{"geonameid":5036958,"name":"City of Mazeppa","admin3":"41282","localeAltName":null},{"geonameid":5036959,"name":"Township of Mazeppa","admin3":"41300"},{"geonameid":5037580,"name":"City of Millville","admin3":"42290"},{"geonameid":5037669,"name":"Township of Minneiska","admin3":"43054"},{"geonameid":5038420,"name":"Township of Mount Pleasant","admin3":"44620"},{"geonameid":5040032,"name":"Township of Oakwood","admin3":"48022"},{"geonameid":5041138,"name":"Township of Pepin","admin3":"50362"},{"geonameid":5041802,"name":"City of Plainview","admin3":"51424","localeAltName":null},{"geonameid":5041803,"name":"Township of Plainview","admin3":"51442"},{"geonameid":5051611,"name":"City of Wabasha","admin3":"67378","localeAltName":null},{"geonameid":5052068,"name":"Township of Watopa","admin3":"68638"},{"geonameid":5052298,"name":"Township of West Albany","admin3":"69178"},{"geonameid":5053797,"name":"City of Zumbro Falls","admin3":"72310"},{"geonameid":5053811,"name":"Township of Zumbro","admin3":"72292"}],"alternateNames":[{"alternatenameId":2089541,"geonameid":5037779,"isoLanguage":"en","alternateName":"Minnesota","isPreferredName":true,"isShortName":true,"isColloquial":false,"isHistoric":false}]},"__N_SSG":true}