{"pageProps":{"locale":"de","admin2":{"geonameid":6458862,"name":"Veveyse District","country":"CH","admin1":"FR","admin2":"1007","admin3":"","latitude":"46.5508300","longitude":"6.9108500"},"admin1":{"geonameid":2660717,"name":"Canton de Fribourg","admin1":"FR"},"locations":[{"geonameid":2661694,"name":"Attalens","admin3":"2321"},{"geonameid":2661202,"name":"Châtel-Saint-Denis","admin3":"2325"},{"geonameid":2659971,"name":"Le Crêt-près-Semsales","admin3":"2338"},{"geonameid":2659170,"name":"Porsel","admin3":"2337"},{"geonameid":2658629,"name":"Semsales","admin3":"2336"}],"admin3":[{"geonameid":7285110,"name":"Attalens","admin3":"2321"},{"geonameid":7285300,"name":"Bossonnens","admin3":"2323"},{"geonameid":7285479,"name":"Châtel-Saint-Denis","admin3":"2325"},{"geonameid":7285967,"name":"Granges (Veveyse)","admin3":"2328"},{"geonameid":7286287,"name":"La Verrerie","admin3":"2338"},{"geonameid":7286299,"name":"Le Flon","admin3":"2337"},{"geonameid":7286881,"name":"Remaufens","admin3":"2333"},{"geonameid":7287033,"name":"Saint-Martin (FR)","admin3":"2335"},{"geonameid":7287149,"name":"Semsales","admin3":"2336"}],"alternateNames":[]},"__N_SSG":true}