{"pageProps":{"locale":"en","admin2":{"geonameid":4235992,"name":"Clay County","country":"US","admin1":"IL","admin2":"025","admin3":"","latitude":"38.7541600","longitude":"-88.4901900","localeAltName":null},"admin1":{"geonameid":4896861,"name":"Illinois","admin1":"IL","localeAltName":"Illinois"},"locations":[{"geonameid":4235980,"name":"Clay City","admin3":"14728","localeAltName":null},{"geonameid":4238777,"name":"Flora","admin3":"33266","localeAltName":null},{"geonameid":4243551,"name":"Louisville","admin3":"44940","localeAltName":null}],"admin3":[{"geonameid":4233831,"name":"Township of Bible Grove","admin3":"05807"},{"geonameid":4234026,"name":"Township of Blair","admin3":"06392"},{"geonameid":4235991,"name":"Township of Clay City","admin3":"14728","localeAltName":null},{"geonameid":4240318,"name":"Township of Harter","admin3":"33266","localeAltName":null},{"geonameid":4240957,"name":"Township of Hoosier","admin3":"36087"},{"geonameid":4242735,"name":"Township of Larkinsburg","admin3":"42158"},{"geonameid":4243555,"name":"Township of Louisville","admin3":"44940","localeAltName":null},{"geonameid":4246471,"name":"Township of Oskaloosa","admin3":"56835"},{"geonameid":4247069,"name":"Township of Pixley","admin3":"60261"},{"geonameid":4250273,"name":"Township of Songer","admin3":"70486"},{"geonameid":4250579,"name":"Township of Stanford","admin3":"72247"},{"geonameid":4253514,"name":"Township of Xenia","admin3":"83752"}],"alternateNames":[{"alternatenameId":2089562,"geonameid":4896861,"isoLanguage":"en","alternateName":"Illinois","isPreferredName":true,"isShortName":true,"isColloquial":false,"isHistoric":false}]},"__N_SSG":true}