{"pageProps":{"locale":"en","admin2":{"geonameid":4984076,"name":"Alpena County","country":"US","admin1":"MI","admin2":"007","admin3":"","latitude":"45.0635000","longitude":"-83.4603900","localeAltName":null},"admin1":{"geonameid":5001836,"name":"Michigan","admin1":"MI","localeAltName":"Michigan"},"locations":[{"geonameid":4984075,"name":"Alpena","admin3":"01740","localeAltName":null},{"geonameid":5004644,"name":"Ossineke","admin3":"71240","localeAltName":null}],"admin3":[{"geonameid":4984083,"name":"Township of Alpena","admin3":"01760"},{"geonameid":4994688,"name":"Township of Green","admin3":"34740"},{"geonameid":5000039,"name":"Township of Long Rapids","admin3":"49360"},{"geonameid":5000783,"name":"Township of Maple Ridge","admin3":"51220"},{"geonameid":5004647,"name":"Township of Ossineke","admin3":"61520"},{"geonameid":5008821,"name":"Township of Sanborn","admin3":"71240","localeAltName":null},{"geonameid":5014356,"name":"Township of Wellington","admin3":"85180"},{"geonameid":5015244,"name":"Township of Wilson","admin3":"87680"},{"geonameid":5281088,"name":"City of Alpena","admin3":"01740","localeAltName":null}],"alternateNames":[{"alternatenameId":2124820,"geonameid":5001836,"isoLanguage":"en","alternateName":"Michigan","isPreferredName":true,"isShortName":true,"isColloquial":false,"isHistoric":false}]},"__N_SSG":true}