{"pageProps":{"locale":"en","admin2":{"geonameid":4985733,"name":"Benzie County","country":"US","admin1":"MI","admin2":"019","admin3":"","latitude":"44.6168700","longitude":"-86.1389900","localeAltName":null},"admin1":{"geonameid":5001836,"name":"Michigan","admin1":"MI","localeAltName":"Michigan"},"locations":[{"geonameid":4993326,"name":"Frankfort","admin3":"30260","localeAltName":null}],"admin3":[{"geonameid":4984066,"name":"Township of Almira","admin3":"01640"},{"geonameid":4985728,"name":"Township of Benzonia","admin3":"07600"},{"geonameid":4986345,"name":"Township of Blaine","admin3":"08840"},{"geonameid":4989319,"name":"Township of Colfax","admin3":"17120"},{"geonameid":4990123,"name":"Township of Crystal Lake","admin3":"19180"},{"geonameid":4993332,"name":"City of Frankfort","admin3":"30260","localeAltName":null},{"geonameid":4993955,"name":"Township of Gilmore","admin3":"32180"},{"geonameid":4996386,"name":"Township of Homestead","admin3":"39000"},{"geonameid":4997145,"name":"Township of Inland","admin3":"40700"},{"geonameid":4997735,"name":"Township of Joyfield","admin3":"42000"},{"geonameid":4998635,"name":"Township of Lake","admin3":"44240"},{"geonameid":5005973,"name":"Township of Platte","admin3":"64760"},{"geonameid":5014353,"name":"Township of Weldon","admin3":"85160"}],"alternateNames":[{"alternatenameId":2124820,"geonameid":5001836,"isoLanguage":"en","alternateName":"Michigan","isPreferredName":true,"isShortName":true,"isColloquial":false,"isHistoric":false}]},"__N_SSG":true}