{"pageProps":{"locale":"en","admin2":{"geonameid":4988619,"name":"Cheboygan County","country":"US","admin1":"MI","admin2":"031","admin3":"","latitude":"45.4729400","longitude":"-84.4920600","localeAltName":null},"admin1":{"geonameid":5001836,"name":"Michigan","admin1":"MI","localeAltName":"Michigan"},"locations":[{"geonameid":4988617,"name":"Cheboygan","admin3":"15000","localeAltName":null},{"geonameid":4997086,"name":"Indian River","admin3":"80880","localeAltName":null},{"geonameid":5000460,"name":"Mackinaw City","admin3":"50300","localeAltName":null}],"admin3":[{"geonameid":4984074,"name":"Township of Aloha","admin3":"01720"},{"geonameid":4985360,"name":"Township of Beaugrand","admin3":"06500"},{"geonameid":4985719,"name":"Township of Benton","admin3":"07420"},{"geonameid":4987478,"name":"Township of Burt","admin3":"11980"},{"geonameid":4988624,"name":"City of Cheboygan","admin3":"15000","localeAltName":null},{"geonameid":4992010,"name":"Township of Ellis","admin3":"25400"},{"geonameid":4993153,"name":"Township of Forest","admin3":"29400"},{"geonameid":4994441,"name":"Township of Grant","admin3":"34200"},{"geonameid":4995708,"name":"Township of Hebron","admin3":"37480"},{"geonameid":4997189,"name":"Township of Inverness","admin3":"40820"},{"geonameid":4998356,"name":"Township of Koehler","admin3":"43820"},{"geonameid":5000466,"name":"Township of Mackinaw","admin3":"50300","localeAltName":null},{"geonameid":5001679,"name":"Township of Mentor","admin3":"53100"},{"geonameid":5003045,"name":"Township of Mullett","admin3":"56100"},{"geonameid":5003079,"name":"Township of Munro","admin3":"56280"},{"geonameid":5004089,"name":"Township of Nunda","admin3":"59500"},{"geonameid":5012745,"name":"Township of Tuscarora","admin3":"80880","localeAltName":null},{"geonameid":5013939,"name":"Township of Walker","admin3":"82940"},{"geonameid":5014214,"name":"Township of Waverly","admin3":"84760"},{"geonameid":5015180,"name":"Township of Wilmot","admin3":"87640"}],"alternateNames":[{"alternatenameId":2124820,"geonameid":5001836,"isoLanguage":"en","alternateName":"Michigan","isPreferredName":true,"isShortName":true,"isColloquial":false,"isHistoric":false}]},"__N_SSG":true}