{"pageProps":{"locale":"en","admin2":{"geonameid":4990845,"name":"Dickinson County","country":"US","admin1":"MI","admin2":"043","admin3":"","latitude":"46.0093500","longitude":"-87.8702100","localeAltName":null},"admin1":{"geonameid":5001836,"name":"Michigan","admin1":"MI","localeAltName":"Michigan"},"locations":[{"geonameid":4997232,"name":"Iron Mountain","admin3":"40960","localeAltName":null},{"geonameid":4998189,"name":"Kingsford","admin3":"43300","localeAltName":null},{"geonameid":5004016,"name":"Norway","admin3":"59220","localeAltName":null},{"geonameid":5006658,"name":"Quinnesec","admin3":"10220","localeAltName":null}],"admin3":[{"geonameid":4986898,"name":"Charter Township of Breitung","admin3":"10220","localeAltName":null},{"geonameid":4986903,"name":"Township of Breen","admin3":"10200"},{"geonameid":4992577,"name":"Township of Felch","admin3":"27660"},{"geonameid":4997234,"name":"City of Iron Mountain","admin3":"40960","localeAltName":null},{"geonameid":4998191,"name":"City of Kingsford","admin3":"43300","localeAltName":null},{"geonameid":5004032,"name":"City of Norway","admin3":"59220","localeAltName":null},{"geonameid":5004033,"name":"Township of Norway","admin3":"59240"},{"geonameid":5008008,"name":"Township of Sagola","admin3":"70600"},{"geonameid":5014200,"name":"Township of Waucedah","admin3":"84700"},{"geonameid":5014541,"name":"Township of West Branch","admin3":"85520"}],"alternateNames":[{"alternatenameId":2124820,"geonameid":5001836,"isoLanguage":"en","alternateName":"Michigan","isPreferredName":true,"isShortName":true,"isColloquial":false,"isHistoric":false}]},"__N_SSG":true}