{"pageProps":{"locale":"en","admin2":{"geonameid":4991746,"name":"Eaton County","country":"US","admin1":"MI","admin2":"045","admin3":"","latitude":"42.5960700","longitude":"-84.8383100","localeAltName":null},"admin1":{"geonameid":5001836,"name":"Michigan","admin1":"MI","localeAltName":"Michigan"},"locations":[{"geonameid":4985607,"name":"Bellevue","admin3":"07080","localeAltName":null},{"geonameid":4988584,"name":"Charlotte","admin3":"14820","localeAltName":null},{"geonameid":4990875,"name":"Dimondale","admin3":"87840","localeAltName":null},{"geonameid":4991753,"name":"Eaton Rapids","admin3":"24540","localeAltName":null},{"geonameid":4994344,"name":"Grand Ledge","admin3":"33420","localeAltName":null},{"geonameid":5003052,"name":"Mulliken","admin3":"70020","localeAltName":null},{"geonameid":5004454,"name":"Olivet","admin3":"60580","localeAltName":null},{"geonameid":5006376,"name":"Potterville","admin3":"66100","localeAltName":null},{"geonameid":5011569,"name":"Sunfield","admin3":"77440","localeAltName":null},{"geonameid":5013210,"name":"Vermontville","admin3":"81980","localeAltName":null},{"geonameid":5014208,"name":"Waverly","admin3":"21520","localeAltName":null}],"admin3":[{"geonameid":4985612,"name":"Township of Bellevue","admin3":"07080","localeAltName":null},{"geonameid":4985720,"name":"Township of Benton","admin3":"07440"},{"geonameid":4987059,"name":"Township of Brookfield","admin3":"10920"},{"geonameid":4988052,"name":"Township of Carmel","admin3":"13380"},{"geonameid":4988615,"name":"City of Charlotte","admin3":"14820","localeAltName":null},{"geonameid":4988678,"name":"Township of Chester","admin3":"15260"},{"geonameid":4990667,"name":"Charter Township of Delta","admin3":"21520","localeAltName":null},{"geonameid":4991754,"name":"City of Eaton Rapids","admin3":"24540","localeAltName":null},{"geonameid":4991755,"name":"Township of Eaton Rapids","admin3":"24560"},{"geonameid":4991756,"name":"Township of Eaton","admin3":"24520"},{"geonameid":4994346,"name":"City of Grand Ledge","admin3":"33420","localeAltName":null},{"geonameid":4995169,"name":"Township of Hamlin","admin3":"36200"},{"geonameid":4997803,"name":"Township of Kalamo","admin3":"42220"},{"geonameid":5004455,"name":"City of Olivet","admin3":"60580","localeAltName":null},{"geonameid":5004496,"name":"Charter Township of Oneida","admin3":"60700"},{"geonameid":5006378,"name":"City of Potterville","admin3":"66100","localeAltName":null},{"geonameid":5007798,"name":"Township of Roxand","admin3":"70020","localeAltName":null},{"geonameid":5011571,"name":"Township of Sunfield","admin3":"77440","localeAltName":null},{"geonameid":5013211,"name":"Township of Vermontville","admin3":"81980","localeAltName":null},{"geonameid":5014011,"name":"Township of Walton","admin3":"83180"},{"geonameid":5015266,"name":"Charter Township of Windsor","admin3":"87840","localeAltName":null}],"alternateNames":[{"alternatenameId":2124820,"geonameid":5001836,"isoLanguage":"en","alternateName":"Michigan","isPreferredName":true,"isShortName":true,"isColloquial":false,"isHistoric":false}]},"__N_SSG":true}