{"pageProps":{"locale":"en","admin2":{"geonameid":4992137,"name":"Emmet County","country":"US","admin1":"MI","admin2":"047","admin3":"","latitude":"45.5875400","longitude":"-84.9814700","localeAltName":null},"admin1":{"geonameid":5001836,"name":"Michigan","admin1":"MI","localeAltName":"Michigan"},"locations":[{"geonameid":4983886,"name":"Alanson","admin3":"48020","localeAltName":null},{"geonameid":11669119,"name":"Bay Harbor","admin3":"63820","localeAltName":null},{"geonameid":4995285,"name":"Harbor Springs","admin3":"36560","localeAltName":null},{"geonameid":5005247,"name":"Pellston","admin3":"50340","localeAltName":null},{"geonameid":5005484,"name":"Petoskey","admin3":"63820","localeAltName":null}],"admin3":[{"geonameid":4985287,"name":"Township of Bear Creek","admin3":"06380"},{"geonameid":4986397,"name":"Township of Bliss","admin3":"08980"},{"geonameid":4988073,"name":"Township of Carp Lake","admin3":"13500"},{"geonameid":4988407,"name":"Township of Center","admin3":"14300"},{"geonameid":4990035,"name":"Township of Cross Village","admin3":"18900"},{"geonameid":4993467,"name":"Township of Friendship","admin3":"30860"},{"geonameid":4995287,"name":"City of Harbor Springs","admin3":"36560","localeAltName":null},{"geonameid":4999777,"name":"Township of Little Traverse","admin3":"48080"},{"geonameid":4999819,"name":"Township of Littlefield","admin3":"48020","localeAltName":null},{"geonameid":5000791,"name":"Township of Maple River","admin3":"51280"},{"geonameid":5001457,"name":"Township of McKinley","admin3":"50340","localeAltName":null},{"geonameid":5005488,"name":"City of Petoskey","admin3":"63820","localeAltName":null},{"geonameid":5006030,"name":"Township of Pleasantview","admin3":"64960"},{"geonameid":5006853,"name":"Township of Readmond","admin3":"67540"},{"geonameid":5007023,"name":"Township of Resort","admin3":"68060"},{"geonameid":5010902,"name":"Township of Springvale","admin3":"75900"},{"geonameid":5014216,"name":"Township of Wawatam","admin3":"84840"},{"geonameid":5014650,"name":"Township of West Traverse","admin3":"86300"}],"alternateNames":[{"alternatenameId":2124820,"geonameid":5001836,"isoLanguage":"en","alternateName":"Michigan","isPreferredName":true,"isShortName":true,"isColloquial":false,"isHistoric":false}]},"__N_SSG":true}