{"pageProps":{"locale":"en","admin2":{"geonameid":4997220,"name":"Iron County","country":"US","admin1":"MI","admin2":"071","admin3":"","latitude":"46.2086900","longitude":"-88.5305300","localeAltName":null},"admin1":{"geonameid":5001836,"name":"Michigan","admin1":"MI","localeAltName":"Michigan"},"locations":[{"geonameid":4988212,"name":"Caspian","admin3":"13860","localeAltName":null},{"geonameid":4990121,"name":"Crystal Falls","admin3":"19140","localeAltName":null},{"geonameid":4997238,"name":"Iron River","admin3":"40980","localeAltName":null},{"geonameid":5011005,"name":"Stambaugh, Iron River","admin3":"40980","localeAltName":null}],"admin3":[{"geonameid":4985138,"name":"Township of Bates","admin3":"05860"},{"geonameid":4988213,"name":"City of Caspian","admin3":"13860","localeAltName":null},{"geonameid":4990100,"name":"City of Crystal Falls","admin3":"19140","localeAltName":null},{"geonameid":4990101,"name":"Township of Crystal Falls","admin3":"19150"},{"geonameid":4993577,"name":"City of Gaastra","admin3":"31160"},{"geonameid":4995752,"name":"Township of Hematite","admin3":"37580"},{"geonameid":4997242,"name":"Township of Iron River","admin3":"41000"},{"geonameid":4997343,"name":"City of Iron River","admin3":"40980","localeAltName":null},{"geonameid":5000675,"name":"Township of Mansfield","admin3":"50860"},{"geonameid":5001142,"name":"Township of Mastodon","admin3":"52300"},{"geonameid":5011008,"name":"Township of Stambaugh","admin3":"76080"}],"alternateNames":[{"alternatenameId":2124820,"geonameid":5001836,"isoLanguage":"en","alternateName":"Michigan","isPreferredName":true,"isShortName":true,"isColloquial":false,"isHistoric":false}]},"__N_SSG":true}