{"pageProps":{"locale":"en","admin2":{"geonameid":4997807,"name":"Kalkaska County","country":"US","admin1":"MI","admin2":"079","admin3":"","latitude":"44.6846600","longitude":"-85.0902300","localeAltName":null},"admin1":{"geonameid":5001836,"name":"Michigan","admin1":"MI","localeAltName":"Michigan"},"locations":[{"geonameid":4997805,"name":"Kalkaska","admin3":"42280","localeAltName":null},{"geonameid":5006776,"name":"Rapid City","admin3":"16340","localeAltName":null},{"geonameid":5010377,"name":"South Boardman","admin3":"09440","localeAltName":null}],"admin3":[{"geonameid":4985322,"name":"Township of Bear Lake","admin3":"06440"},{"geonameid":4986468,"name":"Township of Blue Lake","admin3":"09320"},{"geonameid":4986526,"name":"Township of Boardman","admin3":"09440","localeAltName":null},{"geonameid":4989084,"name":"Township of Clearwater","admin3":"16340","localeAltName":null},{"geonameid":4989264,"name":"Township of Coldsprings","admin3":"17000"},{"geonameid":4992367,"name":"Township of Excelsior","admin3":"26860"},{"geonameid":4993709,"name":"Township of Garfield","admin3":"31600"},{"geonameid":4997809,"name":"Township of Kalkaska","admin3":"42280","localeAltName":null},{"geonameid":5004451,"name":"Township of Oliver","admin3":"60540"},{"geonameid":5004535,"name":"Township of Orange","admin3":"60940"},{"geonameid":5006786,"name":"Township of Rapid River","admin3":"67180"},{"geonameid":5010894,"name":"Township of Springfield","admin3":"75720"}],"alternateNames":[{"alternatenameId":2124820,"geonameid":5001836,"isoLanguage":"en","alternateName":"Michigan","isPreferredName":true,"isShortName":true,"isColloquial":false,"isHistoric":false}]},"__N_SSG":true}