{"pageProps":{"locale":"en","admin2":{"geonameid":4999829,"name":"Livingston County","country":"US","admin1":"MI","admin2":"093","admin3":"","latitude":"42.6029200","longitude":"-83.9115300","localeAltName":null},"admin1":{"geonameid":5001836,"name":"Michigan","admin1":"MI","localeAltName":"Michigan"},"locations":[{"geonameid":4986994,"name":"Brighton","admin3":"10620","localeAltName":null},{"geonameid":4993272,"name":"Fowlerville","admin3":"36340","localeAltName":null},{"geonameid":4996655,"name":"Howell","admin3":"39540","localeAltName":null},{"geonameid":5005703,"name":"Pinckney","admin3":"66540","localeAltName":null},{"geonameid":5014946,"name":"Whitmore Lake","admin3":"35060","localeAltName":null}],"admin3":[{"geonameid":4987004,"name":"City of Brighton","admin3":"10620","localeAltName":null},{"geonameid":4987005,"name":"Township of Brighton","admin3":"10640"},{"geonameid":4989240,"name":"Township of Cohoctah","admin3":"16920"},{"geonameid":4989506,"name":"Township of Conway","admin3":"17920"},{"geonameid":4990609,"name":"Township of Deerfield","admin3":"21220"},{"geonameid":4993805,"name":"Township of Genoa","admin3":"31860"},{"geonameid":4994663,"name":"Township of Green Oak","admin3":"35060","localeAltName":null},{"geonameid":4995143,"name":"Township of Hamburg","admin3":"36100"},{"geonameid":4995223,"name":"Township of Handy","admin3":"36340","localeAltName":null},{"geonameid":4995460,"name":"Township of Hartland","admin3":"37040"},{"geonameid":4996660,"name":"City of Howell","admin3":"39540","localeAltName":null},{"geonameid":4996661,"name":"Township of Howell","admin3":"39560"},{"geonameid":4997205,"name":"Township of Iosco","admin3":"40900"},{"geonameid":5000894,"name":"Township of Marion","admin3":"51640"},{"geonameid":5004296,"name":"Township of Oceola","admin3":"60120"},{"geonameid":5006602,"name":"Township of Putnam","admin3":"66540","localeAltName":null},{"geonameid":5012890,"name":"Township of Tyrone","admin3":"81160"},{"geonameid":5012908,"name":"Township of Unadilla","admin3":"81240"}],"alternateNames":[{"alternatenameId":2124820,"geonameid":5001836,"isoLanguage":"en","alternateName":"Michigan","isPreferredName":true,"isShortName":true,"isColloquial":false,"isHistoric":false}]},"__N_SSG":true}