{"pageProps":{"locale":"en","admin2":{"geonameid":5000447,"name":"Mackinac County","country":"US","admin1":"MI","admin2":"097","admin3":"","latitude":"45.8718400","longitude":"-84.7622700","localeAltName":null},"admin1":{"geonameid":5001836,"name":"Michigan","admin1":"MI","localeAltName":"Michigan"},"locations":[{"geonameid":5008224,"name":"Saint Ignace","admin3":"70840","localeAltName":null}],"admin3":[{"geonameid":4986566,"name":"Township of Bois Blanc","admin3":"09500"},{"geonameid":4986929,"name":"Township of Brevort","admin3":"10360"},{"geonameid":4988981,"name":"Township of Clark","admin3":"16060"},{"geonameid":4993710,"name":"Township of Garfield","admin3":"31620"},{"geonameid":4995795,"name":"Township of Hendricks","admin3":"37660"},{"geonameid":4996735,"name":"Township of Hudson","admin3":"39760"},{"geonameid":5000456,"name":"City of Mackinac Island","admin3":"50280"},{"geonameid":5000963,"name":"Township of Marquette","admin3":"51880"},{"geonameid":5002490,"name":"Township of Moran","admin3":"55480"},{"geonameid":5003482,"name":"Township of Newton","admin3":"57640"},{"geonameid":5006284,"name":"Township of Portage","admin3":"65600"},{"geonameid":5008226,"name":"City of Saint Ignace","admin3":"70840","localeAltName":null},{"geonameid":5008228,"name":"Township of Saint Ignace","admin3":"70860"}],"alternateNames":[{"alternatenameId":2124820,"geonameid":5001836,"isoLanguage":"en","alternateName":"Michigan","isPreferredName":true,"isShortName":true,"isColloquial":false,"isHistoric":false}]},"__N_SSG":true}