{"pageProps":{"locale":"en","admin2":{"geonameid":5000477,"name":"Macomb County","country":"US","admin1":"MI","admin2":"099","admin3":"","latitude":"42.6727900","longitude":"-82.9101600","localeAltName":null},"admin1":{"geonameid":5001836,"name":"Michigan","admin1":"MI","localeAltName":"Michigan"},"locations":[{"geonameid":4984379,"name":"Armada","admin3":"03540","localeAltName":null},{"geonameid":4988400,"name":"Center Line","admin3":"14320","localeAltName":null},{"geonameid":4989133,"name":"Clinton Township","admin3":"","localeAltName":null},{"geonameid":4991735,"name":"Eastpointe","admin3":"24290","localeAltName":null},{"geonameid":4993369,"name":"Fraser","admin3":"30420","localeAltName":null},{"geonameid":5001644,"name":"Memphis","admin3":"52960","localeAltName":null},{"geonameid":5002656,"name":"Mount Clemens","admin3":"5002657","localeAltName":null},{"geonameid":5003369,"name":"New Baltimore","admin3":"57100","localeAltName":null},{"geonameid":5003383,"name":"New Haven","admin3":"46900","localeAltName":null},{"geonameid":5007141,"name":"Richmond","admin3":"68380","localeAltName":null},{"geonameid":5007525,"name":"Romeo","admin3":"11300","localeAltName":null},{"geonameid":5007655,"name":"Roseville","admin3":"69800","localeAltName":null},{"geonameid":5010978,"name":"Saint Clair Shores","admin3":"70760","localeAltName":null},{"geonameid":5009586,"name":"Shelby","admin3":"72820","localeAltName":null},{"geonameid":5011148,"name":"Sterling Heights","admin3":"76460","localeAltName":null},{"geonameid":5013061,"name":"Utica","admin3":"81540","localeAltName":null},{"geonameid":5014051,"name":"Warren","admin3":"84000","localeAltName":null}],"admin3":[{"geonameid":4984383,"name":"Township of Armada","admin3":"03540","localeAltName":null},{"geonameid":4987185,"name":"Township of Bruce","admin3":"11300","localeAltName":null},{"geonameid":4988401,"name":"City of Center Line","admin3":"14320","localeAltName":null},{"geonameid":4988684,"name":"Township of Chesterfield","admin3":"15340"},{"geonameid":4989148,"name":"Charter Township of Clinton","admin3":"4989148"},{"geonameid":4991584,"name":"City of Eastpointe","admin3":"24290","localeAltName":null},{"geonameid":4993375,"name":"City of Fraser","admin3":"30420","localeAltName":null},{"geonameid":4995423,"name":"Charter Township of Harrison","admin3":"36820"},{"geonameid":4999093,"name":"Township of Lenox","admin3":"46900","localeAltName":null},{"geonameid":5000487,"name":"Township of Macomb","admin3":"50480"},{"geonameid":5001646,"name":"City of Memphis","admin3":"52960","localeAltName":null},{"geonameid":5002657,"name":"City of Mount Clemens","admin3":"5002657","localeAltName":null},{"geonameid":5003370,"name":"City of New Baltimore","admin3":"57100","localeAltName":null},{"geonameid":5006833,"name":"Township of Ray","admin3":"67420"},{"geonameid":5007134,"name":"City of Richmond","admin3":"68380","localeAltName":null},{"geonameid":5007135,"name":"Township of Richmond","admin3":"68400"},{"geonameid":5007658,"name":"City of Roseville","admin3":"69800","localeAltName":null},{"geonameid":5008130,"name":"City of Saint Clair Shores","admin3":"70760","localeAltName":null},{"geonameid":5009590,"name":"Charter Township of Shelby","admin3":"72820","localeAltName":null},{"geonameid":5011149,"name":"City of Sterling Heights","admin3":"76460","localeAltName":null},{"geonameid":5013064,"name":"City of Utica","admin3":"81540","localeAltName":null},{"geonameid":5014063,"name":"City of Warren","admin3":"84000","localeAltName":null},{"geonameid":5014117,"name":"Township of Washington","admin3":"84120"}],"alternateNames":[{"alternatenameId":2124820,"geonameid":5001836,"isoLanguage":"en","alternateName":"Michigan","isPreferredName":true,"isShortName":true,"isColloquial":false,"isHistoric":false}]},"__N_SSG":true}