{"pageProps":{"locale":"en","admin2":{"geonameid":5001594,"name":"Mecosta County","country":"US","admin1":"MI","admin2":"107","admin3":"","latitude":"43.6408000","longitude":"-85.3246200","localeAltName":null},"admin1":{"geonameid":5001836,"name":"Michigan","admin1":"MI","localeAltName":"Michigan"},"locations":[{"geonameid":4986020,"name":"Big Rapids","admin3":"08300","localeAltName":null},{"geonameid":4987963,"name":"Canadian Lakes","admin3":"55600","localeAltName":null}],"admin3":[{"geonameid":4983857,"name":"Township of Aetna","admin3":"00500"},{"geonameid":4984610,"name":"Township of Austin","admin3":"04380"},{"geonameid":4986021,"name":"City of Big Rapids","admin3":"08300","localeAltName":null},{"geonameid":4986022,"name":"Charter Township of Big Rapids","admin3":"08320"},{"geonameid":4988780,"name":"Township of Chippewa","admin3":"15600"},{"geonameid":4989321,"name":"Township of Colfax","admin3":"17160"},{"geonameid":4990610,"name":"Township of Deerfield","admin3":"21240"},{"geonameid":4993166,"name":"Township of Fork","admin3":"29680"},{"geonameid":4994448,"name":"Township of Grant","admin3":"34340"},{"geonameid":4994689,"name":"Charter Township of Green","admin3":"34760"},{"geonameid":4996148,"name":"Township of Hinton","admin3":"38540"},{"geonameid":5001072,"name":"Township of Martiny","admin3":"52060"},{"geonameid":5001599,"name":"Township of Mecosta","admin3":"52780"},{"geonameid":5002026,"name":"Township of Millbrook","admin3":"54020"},{"geonameid":5002581,"name":"Township of Morton","admin3":"55600","localeAltName":null},{"geonameid":5009651,"name":"Township of Sheridan","admin3":"73080"},{"geonameid":5014747,"name":"Township of Wheatland","admin3":"86560"}],"alternateNames":[{"alternatenameId":2124820,"geonameid":5001836,"isoLanguage":"en","alternateName":"Michigan","isPreferredName":true,"isShortName":true,"isColloquial":false,"isHistoric":false}]},"__N_SSG":true}