{"pageProps":{"locale":"en","admin2":{"geonameid":5002348,"name":"Monroe County","country":"US","admin1":"MI","admin2":"115","admin3":"","latitude":"41.9214000","longitude":"-83.4942600","localeAltName":null},"admin1":{"geonameid":5001836,"name":"Michigan","admin1":"MI","localeAltName":"Michigan"},"locations":[{"geonameid":4988024,"name":"Carleton","admin3":"03680","localeAltName":null},{"geonameid":4990730,"name":"Detroit Beach","admin3":"30820","localeAltName":null},{"geonameid":4991330,"name":"Dundee","admin3":"23400","localeAltName":null},{"geonameid":4998769,"name":"Lambertville","admin3":"06740","localeAltName":null},{"geonameid":5000334,"name":"Luna Pier","admin3":"49700","localeAltName":null},{"geonameid":5001199,"name":"Maybee","admin3":"26880","localeAltName":null},{"geonameid":5001962,"name":"Milan","admin3":"53920","localeAltName":null},{"geonameid":5002344,"name":"Monroe","admin3":"55020","localeAltName":null},{"geonameid":5005450,"name":"Petersburg","admin3":"63800","localeAltName":null},{"geonameid":5010569,"name":"South Monroe","admin3":"55040","localeAltName":null},{"geonameid":5010595,"name":"South Rockwood","admin3":"07720","localeAltName":null},{"geonameid":5011323,"name":"Stony Point","admin3":"30820","localeAltName":null},{"geonameid":5011989,"name":"Temperance","admin3":"06740","localeAltName":null},{"geonameid":5014645,"name":"West Monroe","admin3":"55040","localeAltName":null},{"geonameid":5015464,"name":"Woodland Beach","admin3":"30820","localeAltName":null}],"admin3":[{"geonameid":4984450,"name":"Township of Ash","admin3":"03680","localeAltName":null},{"geonameid":4985504,"name":"Township of Bedford","admin3":"06740","localeAltName":null},{"geonameid":4985751,"name":"Charter Township of Berlin","admin3":"07720","localeAltName":null},{"geonameid":4991332,"name":"Township of Dundee","admin3":"23400","localeAltName":null},{"geonameid":4992217,"name":"Township of Erie","admin3":"26320"},{"geonameid":4992371,"name":"Township of Exeter","admin3":"26880","localeAltName":null},{"geonameid":4993451,"name":"Township of Frenchtown","admin3":"30820","localeAltName":null},{"geonameid":4996942,"name":"Township of Ida","admin3":"40260"},{"geonameid":4998447,"name":"Township of La Salle","admin3":"46260"},{"geonameid":4999916,"name":"Township of London","admin3":"49180"},{"geonameid":5000363,"name":"City of Luna Pier","admin3":"49700","localeAltName":null},{"geonameid":5001958,"name":"City of Milan","admin3":"53920","localeAltName":null},{"geonameid":5001959,"name":"Township of Milan","admin3":"53900"},{"geonameid":5002363,"name":"City of Monroe","admin3":"55020","localeAltName":null},{"geonameid":5002364,"name":"Charter Township of Monroe","admin3":"55040","localeAltName":null},{"geonameid":5005454,"name":"City of Petersburg","admin3":"63800","localeAltName":null},{"geonameid":5006726,"name":"Township of Raisinville","admin3":"66900"},{"geonameid":5011532,"name":"Township of Summerfield","admin3":"77140"},{"geonameid":5014912,"name":"Township of Whiteford","admin3":"86740"}],"alternateNames":[{"alternatenameId":2124820,"geonameid":5001836,"isoLanguage":"en","alternateName":"Michigan","isPreferredName":true,"isShortName":true,"isColloquial":false,"isHistoric":false}]},"__N_SSG":true}