{"pageProps":{"locale":"en","admin2":{"geonameid":5002394,"name":"Montmorency County","country":"US","admin1":"MI","admin2":"119","admin3":"","latitude":"45.0275500","longitude":"-84.1272100","localeAltName":null},"admin1":{"geonameid":5001836,"name":"Michigan","admin1":"MI","localeAltName":"Michigan"},"locations":[{"geonameid":4984500,"name":"Atlanta","admin3":"10660","localeAltName":null},{"geonameid":4996098,"name":"Hillman","admin3":"38400","localeAltName":null},{"geonameid":4999167,"name":"Lewiston","admin3":"00940","localeAltName":null}],"admin3":[{"geonameid":4983902,"name":"Township of Albert","admin3":"00940","localeAltName":null},{"geonameid":4984638,"name":"Township of Avery","admin3":"04580"},{"geonameid":4987007,"name":"Township of Briley","admin3":"10660","localeAltName":null},{"geonameid":4996103,"name":"Township of Hillman","admin3":"38400","localeAltName":null},{"geonameid":5000207,"name":"Township of Loud","admin3":"49480"},{"geonameid":5002395,"name":"Township of Montmorency","admin3":"55240"},{"geonameid":5007892,"name":"Township of Rust","admin3":"70380"},{"geonameid":5013275,"name":"Township of Vienna","admin3":"82420"}],"alternateNames":[{"alternatenameId":2124820,"geonameid":5001836,"isoLanguage":"en","alternateName":"Michigan","isPreferredName":true,"isShortName":true,"isColloquial":false,"isHistoric":false}]},"__N_SSG":true}