{"pageProps":{"locale":"en","admin2":{"geonameid":5004294,"name":"Oceana County","country":"US","admin1":"MI","admin2":"127","admin3":"","latitude":"43.6817800","longitude":"-86.3168300","localeAltName":null},"admin1":{"geonameid":5001836,"name":"Michigan","admin1":"MI","localeAltName":"Michigan"},"locations":[{"geonameid":4995436,"name":"Hart","admin3":"36920","localeAltName":null},{"geonameid":5005318,"name":"Pentwater","admin3":"63560","localeAltName":null},{"geonameid":5009587,"name":"Shelby","admin3":"72860","localeAltName":null}],"admin3":[{"geonameid":4985686,"name":"Township of Benona","admin3":"07300"},{"geonameid":4989018,"name":"Township of Claybanks","admin3":"16200"},{"geonameid":4989322,"name":"Township of Colfax","admin3":"17180"},{"geonameid":4990134,"name":"Township of Crystal","admin3":"19100"},{"geonameid":4991927,"name":"Township of Elbridge","admin3":"25200"},{"geonameid":4992658,"name":"Township of Ferry","admin3":"27940"},{"geonameid":4994115,"name":"Township of Golden","admin3":"32780"},{"geonameid":4994450,"name":"Township of Grant","admin3":"34400"},{"geonameid":4994775,"name":"Township of Greenwood","admin3":"35160"},{"geonameid":4995449,"name":"City of Hart","admin3":"36920","localeAltName":null},{"geonameid":4995450,"name":"Township of Hart","admin3":"36940"},{"geonameid":4998990,"name":"Township of Leavitt","admin3":"46560"},{"geonameid":5003448,"name":"Township of Newfield","admin3":"57300"},{"geonameid":5004725,"name":"Township of Otto","admin3":"61780"},{"geonameid":5005323,"name":"Township of Pentwater","admin3":"63560","localeAltName":null},{"geonameid":5009591,"name":"Township of Shelby","admin3":"72860","localeAltName":null},{"geonameid":5014246,"name":"Township of Weare","admin3":"85040"}],"alternateNames":[{"alternatenameId":2124820,"geonameid":5001836,"isoLanguage":"en","alternateName":"Michigan","isPreferredName":true,"isShortName":true,"isColloquial":false,"isHistoric":false}]},"__N_SSG":true}