{"pageProps":{"locale":"en","admin2":{"geonameid":5004611,"name":"Osceola County","country":"US","admin1":"MI","admin2":"133","admin3":"","latitude":"43.9898700","longitude":"-85.3252800","localeAltName":null},"admin1":{"geonameid":5001836,"name":"Michigan","admin1":"MI","localeAltName":"Michigan"},"locations":[{"geonameid":4992304,"name":"Evart","admin3":"26640","localeAltName":null},{"geonameid":5000879,"name":"Marion","admin3":"51680","localeAltName":null},{"geonameid":5006946,"name":"Reed City","admin3":"67820","localeAltName":null}],"admin3":[{"geonameid":4987381,"name":"Township of Burdell","admin3":"11680"},{"geonameid":4988371,"name":"Township of Cedar","admin3":"14040"},{"geonameid":4992306,"name":"City of Evart","admin3":"26640","localeAltName":null},{"geonameid":4992307,"name":"Township of Evart","admin3":"26660"},{"geonameid":4995481,"name":"Township of Hartwick","admin3":"37060"},{"geonameid":4995862,"name":"Township of Hersey","admin3":"37840"},{"geonameid":4996026,"name":"Township of Highland","admin3":"38100"},{"geonameid":4998971,"name":"Township of Le Roy","admin3":"47120"},{"geonameid":4999355,"name":"Township of Lincoln","admin3":"47720"},{"geonameid":5000895,"name":"Township of Marion","admin3":"51680","localeAltName":null},{"geonameid":5001872,"name":"Township of Middle Branch","admin3":"53660"},{"geonameid":5004569,"name":"Township of Orient","admin3":"61080"},{"geonameid":5004614,"name":"Township of Osceola","admin3":"61280"},{"geonameid":5006944,"name":"City of Reed City","admin3":"67820","localeAltName":null},{"geonameid":5007137,"name":"Township of Richmond","admin3":"68440"},{"geonameid":5007618,"name":"Township of Rose Lake","admin3":"69760"},{"geonameid":5009684,"name":"Township of Sherman","admin3":"73280"},{"geonameid":5011767,"name":"Township of Sylvan","admin3":"77760"}],"alternateNames":[{"alternatenameId":2124820,"geonameid":5001836,"isoLanguage":"en","alternateName":"Michigan","isPreferredName":true,"isShortName":true,"isColloquial":false,"isHistoric":false}]},"__N_SSG":true}