{"pageProps":{"locale":"en","admin2":{"geonameid":5012748,"name":"Tuscola County","country":"US","admin1":"MI","admin2":"157","admin3":"","latitude":"43.4913400","longitude":"-83.4398700","localeAltName":null},"admin1":{"geonameid":5001836,"name":"Michigan","admin1":"MI","localeAltName":"Michigan"},"locations":[{"geonameid":4988059,"name":"Caro","admin3":"13420","localeAltName":null},{"geonameid":4988215,"name":"Cass City","admin3":"25300","localeAltName":null},{"geonameid":4992410,"name":"Fairgrove","admin3":"27100","localeAltName":null},{"geonameid":4993213,"name":"Fostoria","admin3":"84460","localeAltName":null},{"geonameid":5001222,"name":"Mayville","admin3":"30760","localeAltName":null},{"geonameid":5002100,"name":"Millington","admin3":"54240","localeAltName":null},{"geonameid":5006969,"name":"Reese","admin3":"21600","localeAltName":null},{"geonameid":5013174,"name":"Vassar","admin3":"81840","localeAltName":null}],"admin3":[{"geonameid":4983870,"name":"Township of Akron","admin3":"00720"},{"geonameid":4984062,"name":"Township of Almer","admin3":"01620"},{"geonameid":4984328,"name":"Township of Arbela","admin3":"03220"},{"geonameid":4989371,"name":"Township of Columbia","admin3":"17420"},{"geonameid":4990443,"name":"Township of Dayton","admin3":"19980"},{"geonameid":4990683,"name":"Township of Denmark","admin3":"21600","localeAltName":null},{"geonameid":4991977,"name":"Township of Elkland","admin3":"25300","localeAltName":null},{"geonameid":4991991,"name":"Township of Ellington","admin3":"25380"},{"geonameid":4992076,"name":"Township of Elmwood","admin3":"25720"},{"geonameid":4992412,"name":"Township of Fairgrove","admin3":"27100","localeAltName":null},{"geonameid":4993431,"name":"Township of Fremont","admin3":"30760","localeAltName":null},{"geonameid":4993928,"name":"Township of Gilford","admin3":"32160"},{"geonameid":4997112,"name":"Township of Indianfields","admin3":"40440"},{"geonameid":4997764,"name":"Township of Juniata","admin3":"42140"},{"geonameid":4998202,"name":"Township of Kingston","admin3":"43400"},{"geonameid":4998383,"name":"Township of Koylton","admin3":"43880"},{"geonameid":5002106,"name":"Township of Millington","admin3":"54240","localeAltName":null},{"geonameid":5004061,"name":"Township of Novesta","admin3":"59420"},{"geonameid":5012751,"name":"Township of Tuscola","admin3":"80940"},{"geonameid":5013179,"name":"City of Vassar","admin3":"81840","localeAltName":null},{"geonameid":5013180,"name":"Township of Vassar","admin3":"81860"},{"geonameid":5014163,"name":"Township of Watertown","admin3":"84460","localeAltName":null},{"geonameid":5014367,"name":"Township of Wells","admin3":"85280"},{"geonameid":5015335,"name":"Township of Wisner","admin3":"88080"},{"geonameid":7165320,"name":"City of Caro","admin3":"13420","localeAltName":null}],"alternateNames":[{"alternatenameId":2124820,"geonameid":5001836,"isoLanguage":"en","alternateName":"Michigan","isPreferredName":true,"isShortName":true,"isColloquial":false,"isHistoric":false}]},"__N_SSG":true}