{"pageProps":{"locale":"en","admin2":{"geonameid":5013104,"name":"Van Buren County","country":"US","admin1":"MI","admin2":"159","admin3":"","latitude":"42.2851100","longitude":"-86.3064200","localeAltName":null},"admin1":{"geonameid":5001836,"name":"Michigan","admin1":"MI","localeAltName":"Michigan"},"locations":[{"geonameid":4984863,"name":"Bangor","admin3":"05140","localeAltName":null},{"geonameid":4990524,"name":"Decatur","admin3":"21060","localeAltName":null},{"geonameid":4994073,"name":"Gobles","admin3":"32640","localeAltName":null},{"geonameid":4995468,"name":"Hartford","admin3":"36960","localeAltName":null},{"geonameid":4998937,"name":"Lawrence","admin3":"46460","localeAltName":null},{"geonameid":4998956,"name":"Lawton","admin3":"03140","localeAltName":null},{"geonameid":5001159,"name":"Mattawan","admin3":"03140","localeAltName":null},{"geonameid":5005126,"name":"Paw Paw","admin3":"63000","localeAltName":null},{"geonameid":5010517,"name":"South Haven","admin3":"74980","localeAltName":null}],"admin3":[{"geonameid":4984059,"name":"Township of Almena","admin3":"01600"},{"geonameid":4984290,"name":"Township of Antwerp","admin3":"03140","localeAltName":null},{"geonameid":4984378,"name":"Township of Arlington","admin3":"03500"},{"geonameid":4984870,"name":"City of Bangor","admin3":"05140","localeAltName":null},{"geonameid":4984872,"name":"Township of Bangor","admin3":"05160"},{"geonameid":4986443,"name":"Township of Bloomingdale","admin3":"09240"},{"geonameid":4989372,"name":"Township of Columbia","admin3":"17440"},{"geonameid":4989774,"name":"Township of Covert","admin3":"18560"},{"geonameid":4990520,"name":"Township of Decatur","admin3":"21060","localeAltName":null},{"geonameid":4993804,"name":"Township of Geneva","admin3":"31840"},{"geonameid":4994074,"name":"City of Gobles","admin3":"32640","localeAltName":null},{"geonameid":4995161,"name":"Township of Hamilton","admin3":"36180"},{"geonameid":4995455,"name":"City of Hartford","admin3":"36960","localeAltName":null},{"geonameid":4995456,"name":"Township of Hartford","admin3":"36980"},{"geonameid":4997875,"name":"Township of Keeler","admin3":"42500"},{"geonameid":4998947,"name":"Township of Lawrence","admin3":"46460","localeAltName":null},{"geonameid":5005141,"name":"Township of Paw Paw","admin3":"63000","localeAltName":null},{"geonameid":5005764,"name":"Township of Pine Grove","admin3":"64280"},{"geonameid":5006309,"name":"Township of Porter","admin3":"65760"},{"geonameid":5010527,"name":"City of South Haven","admin3":"74980","localeAltName":null},{"geonameid":5010528,"name":"Charter Township of South Haven","admin3":"75000"},{"geonameid":5014215,"name":"Township of Waverly","admin3":"84820"}],"alternateNames":[{"alternatenameId":2124820,"geonameid":5001836,"isoLanguage":"en","alternateName":"Michigan","isPreferredName":true,"isShortName":true,"isColloquial":false,"isHistoric":false}]},"__N_SSG":true}