{"pageProps":{"locale":"en","admin2":{"geonameid":5014120,"name":"Washtenaw County","country":"US","admin1":"MI","admin2":"161","admin3":"","latitude":"42.2532300","longitude":"-83.8387700","localeAltName":null},"admin1":{"geonameid":5001836,"name":"Michigan","admin1":"MI","localeAltName":"Michigan"},"locations":[{"geonameid":4984247,"name":"Ann Arbor","admin3":"03000","localeAltName":null},{"geonameid":4988628,"name":"Chelsea","admin3":"15020","localeAltName":null},{"geonameid":4990797,"name":"Dexter","admin3":"22160","localeAltName":null},{"geonameid":5000598,"name":"Manchester","admin3":"50680","localeAltName":null},{"geonameid":5008768,"name":"Saline","admin3":"71140","localeAltName":null},{"geonameid":5015688,"name":"Ypsilanti","admin3":"89140","localeAltName":null}],"admin3":[{"geonameid":4984250,"name":"City of Ann Arbor","admin3":"03000","localeAltName":null},{"geonameid":4984578,"name":"Charter Township of Augusta","admin3":"04180"},{"geonameid":4986975,"name":"Township of Bridgewater","admin3":"10560"},{"geonameid":4990803,"name":"Township of Dexter","admin3":"22180"},{"geonameid":4993400,"name":"Township of Freedom","admin3":"30520"},{"geonameid":4999245,"name":"Township of Lima","admin3":"47460"},{"geonameid":4999884,"name":"Township of Lodi","admin3":"49120"},{"geonameid":5000371,"name":"Township of Lyndon","admin3":"49780"},{"geonameid":5000600,"name":"Township of Manchester","admin3":"50680","localeAltName":null},{"geonameid":5003933,"name":"Township of Northfield","admin3":"58280"},{"geonameid":5005931,"name":"Charter Township of Pittsfield","admin3":"64560"},{"geonameid":5008762,"name":"Township of Salem","admin3":"71130"},{"geonameid":5008770,"name":"City of Saline","admin3":"71140","localeAltName":null},{"geonameid":5008771,"name":"Township of Saline","admin3":"71160"},{"geonameid":5009229,"name":"Township of Scio","admin3":"71940"},{"geonameid":5009531,"name":"Township of Sharon","admin3":"72760"},{"geonameid":5011629,"name":"Charter Township of Superior","admin3":"77560"},{"geonameid":5011768,"name":"Township of Sylvan","admin3":"77800"},{"geonameid":5014308,"name":"Township of Webster","admin3":"85100"},{"geonameid":5015669,"name":"Charter Township of York","admin3":"89100"},{"geonameid":5015691,"name":"City of Ypsilanti","admin3":"89140","localeAltName":null},{"geonameid":5015692,"name":"Charter Township of Ypsilanti","admin3":"89160"},{"geonameid":7163115,"name":"City of Chelsea","admin3":"15020","localeAltName":null},{"geonameid":7166424,"name":"Village of Dexter","admin3":"22160","localeAltName":null}],"alternateNames":[{"alternatenameId":2124820,"geonameid":5001836,"isoLanguage":"en","alternateName":"Michigan","isPreferredName":true,"isShortName":true,"isColloquial":false,"isHistoric":false}]},"__N_SSG":true}