{"pageProps":{"locale":"en","admin2":{"geonameid":5053940,"name":"Atchison County","country":"US","admin1":"MO","admin2":"005","admin3":"","latitude":"40.4308500","longitude":"-95.4280900"},"admin1":{"geonameid":4398678,"name":"Missouri","admin1":"MO","localeAltName":"Missouri"},"locations":[{"geonameid":5057058,"name":"Rock Port","admin3":"14284"},{"geonameid":5057486,"name":"Tarkio","admin3":"72358"}],"admin3":[{"geonameid":5054059,"name":"Township of Benton","admin3":"04582"},{"geonameid":5054282,"name":"Township of Buchanan","admin3":"09244"},{"geonameid":5054487,"name":"Township of Clark","admin3":"13996"},{"geonameid":5054492,"name":"Township of Clay","admin3":"14284"},{"geonameid":5054531,"name":"Township of Colfax","admin3":"15454"},{"geonameid":5054662,"name":"Township of Dale","admin3":"18028"},{"geonameid":5055951,"name":"Township of Lincoln","admin3":"42590"},{"geonameid":5056543,"name":"Township of Nishnabotna","admin3":"52598"},{"geonameid":5056891,"name":"Township of Polk","admin3":"58700"},{"geonameid":5057494,"name":"Township of Tarkio","admin3":"72358"},{"geonameid":5057505,"name":"Township of Templeton","admin3":"72646"}],"alternateNames":[{"alternatenameId":2089572,"geonameid":4398678,"isoLanguage":"en","alternateName":"Missouri","isPreferredName":true,"isShortName":true,"isColloquial":false,"isHistoric":false}]},"__N_SSG":true}