{"pageProps":{"locale":"en","admin2":{"geonameid":4375904,"name":"Barton County","country":"US","admin1":"MO","admin2":"011","admin3":"","latitude":"37.5023000","longitude":"-94.3471100"},"admin1":{"geonameid":4398678,"name":"Missouri","admin1":"MO","localeAltName":"Missouri"},"locations":[{"geonameid":4394487,"name":"Lamar","admin3":"13897"}],"admin3":[{"geonameid":4375903,"name":"Township of Barton City","admin3":"03502"},{"geonameid":4380843,"name":"Township of Central","admin3":"12736"},{"geonameid":4381317,"name":"Township of City","admin3":"13897"},{"geonameid":4384428,"name":"Township of Doylesport","admin3":"20026"},{"geonameid":4388141,"name":"Township of Golden City","admin3":"27694"},{"geonameid":4394495,"name":"Township of Lamar","admin3":"40394"},{"geonameid":4394946,"name":"Township of Leroy","admin3":"41618"},{"geonameid":4398239,"name":"Township of Milford","admin3":"48116"},{"geonameid":4400048,"name":"Township of Nashville","admin3":"51248"},{"geonameid":4400555,"name":"Township of Newport","admin3":"52238"},{"geonameid":4400939,"name":"Township of Northfork","admin3":"53048"},{"geonameid":4402283,"name":"Township of Ozark","admin3":"55748"},{"geonameid":4405576,"name":"Township of Richland","admin3":"61454"},{"geonameid":4409528,"name":"Township of South West","admin3":"69194"},{"geonameid":4412643,"name":"Township of Union","admin3":"74482"}],"alternateNames":[{"alternatenameId":2089572,"geonameid":4398678,"isoLanguage":"en","alternateName":"Missouri","isPreferredName":true,"isShortName":true,"isColloquial":false,"isHistoric":false}]},"__N_SSG":true}