{"pageProps":{"locale":"en","admin2":{"geonameid":4380138,"name":"Carroll County","country":"US","admin1":"MO","admin2":"033","admin3":"","latitude":"39.4269800","longitude":"-93.5051800"},"admin1":{"geonameid":4398678,"name":"Missouri","admin1":"MO","localeAltName":"Missouri"},"locations":[{"geonameid":4380145,"name":"Carrollton","admin3":"11584"}],"admin3":[{"geonameid":4380149,"name":"Township of Carrollton","admin3":"11584"},{"geonameid":4381060,"name":"Township of Cherry Valley","admin3":"13510"},{"geonameid":4382024,"name":"Township of Combs","admin3":"15742"},{"geonameid":4383511,"name":"Township of De Witt","admin3":"19360"},{"geonameid":4385290,"name":"Township of Egypt","admin3":"21412"},{"geonameid":4385832,"name":"Township of Eugene","admin3":"22780"},{"geonameid":4386040,"name":"Township of Fairfield","admin3":"23302"},{"geonameid":4390678,"name":"Township of Hill","admin3":"32176"},{"geonameid":4391678,"name":"Township of Hurricane","admin3":"34012"},{"geonameid":4394952,"name":"Township of Leslie","admin3":"41672"},{"geonameid":4399174,"name":"Township of Moss Creek","admin3":"50276"},{"geonameid":4404602,"name":"Township of Prairie","admin3":"59510"},{"geonameid":4405637,"name":"Township of Ridge","admin3":"61832"},{"geonameid":4406124,"name":"Township of Rockford","admin3":"62642"},{"geonameid":4410309,"name":"Township of Stokes Mound","admin3":"70882"},{"geonameid":4410663,"name":"Township of Sugartree","admin3":"71422"},{"geonameid":4412073,"name":"Township of Trotter","admin3":"73906"},{"geonameid":4412863,"name":"Township of Van Horn","admin3":"75742"},{"geonameid":4413291,"name":"Township of Wakenda","admin3":"76552"},{"geonameid":4413682,"name":"Township of Washington","admin3":"77254"}],"alternateNames":[{"alternatenameId":2089572,"geonameid":4398678,"isoLanguage":"en","alternateName":"Missouri","isPreferredName":true,"isShortName":true,"isColloquial":false,"isHistoric":false}]},"__N_SSG":true}