{"pageProps":{"locale":"en","admin2":{"geonameid":5054481,"name":"Clark County","country":"US","admin1":"MO","admin2":"045","admin3":"","latitude":"40.4103600","longitude":"-91.7384000"},"admin1":{"geonameid":4398678,"name":"Missouri","admin1":"MO","localeAltName":"Missouri"},"locations":[{"geonameid":5055742,"name":"Kahoka","admin3":"42662"}],"admin3":[{"geonameid":5054493,"name":"Township of Clay","admin3":"14302"},{"geonameid":5054710,"name":"Township of Des Moines","admin3":"19234"},{"geonameid":5055025,"name":"Township of Folker","admin3":"24922"},{"geonameid":5055203,"name":"Township of Grant","admin3":"28414"},{"geonameid":5055643,"name":"Township of Jackson","admin3":"35684"},{"geonameid":5055674,"name":"Township of Jefferson","admin3":"36746"},{"geonameid":5055952,"name":"Township of Lincoln","admin3":"42662"},{"geonameid":5056122,"name":"Township of Madison","admin3":"45362"},{"geonameid":5057472,"name":"Township of Sweet Home","admin3":"71872"},{"geonameid":5057646,"name":"Township of Union","admin3":"74554"},{"geonameid":5057677,"name":"Township of Vernon","admin3":"75868"},{"geonameid":5057735,"name":"Township of Washington","admin3":"77290"},{"geonameid":5057977,"name":"Township of Wyaconda","admin3":"81160"}],"alternateNames":[{"alternatenameId":2089572,"geonameid":4398678,"isoLanguage":"en","alternateName":"Missouri","isPreferredName":true,"isShortName":true,"isColloquial":false,"isHistoric":false}]},"__N_SSG":true}