{"pageProps":{"locale":"en","admin2":{"geonameid":4381646,"name":"Clinton County","country":"US","admin1":"MO","admin2":"049","admin3":"","latitude":"39.6017800","longitude":"-94.4045900"},"admin1":{"geonameid":4398678,"name":"Missouri","admin1":"MO","localeAltName":"Missouri"},"locations":[{"geonameid":4379644,"name":"Cameron","admin3":"67592"},{"geonameid":4388353,"name":"Gower","admin3":"02332"},{"geonameid":4394655,"name":"Lathrop","admin3":"40844"},{"geonameid":4403615,"name":"Plattsburg","admin3":"15976"}],"admin3":[{"geonameid":4375270,"name":"Township of Atchison","admin3":"02332"},{"geonameid":4381652,"name":"Township of Clinton","admin3":"14950"},{"geonameid":4382115,"name":"Township of Concord","admin3":"15976"},{"geonameid":4389490,"name":"Township of Hardin","admin3":"30304"},{"geonameid":4392224,"name":"Township of Jackson","admin3":"35702"},{"geonameid":4394075,"name":"Township of Lafayette","admin3":"39674"},{"geonameid":4394660,"name":"Township of Lathrop","admin3":"40844"},{"geonameid":4403609,"name":"Township of Platte","admin3":"58160"},{"geonameid":4408551,"name":"Township of Shoal","admin3":"67592"}],"alternateNames":[{"alternatenameId":2089572,"geonameid":4398678,"isoLanguage":"en","alternateName":"Missouri","isPreferredName":true,"isShortName":true,"isColloquial":false,"isHistoric":false}]},"__N_SSG":true}