{"pageProps":{"locale":"en","admin2":{"geonameid":4392606,"name":"Johnson County","country":"US","admin1":"MO","admin2":"101","admin3":"","latitude":"38.7440900","longitude":"-93.8063700"},"admin1":{"geonameid":4398678,"name":"Missouri","admin1":"MO","localeAltName":"Missouri"},"locations":[{"geonameid":4390914,"name":"Holden","admin3":"45434"},{"geonameid":4393816,"name":"Knob Noster","admin3":"77524"},{"geonameid":4413595,"name":"Warrensburg","admin3":"77110"},{"geonameid":7259637,"name":"Whiteman Air Force Base","admin3":"77524"}],"admin3":[{"geonameid":4380774,"name":"Township of Centerview","admin3":"12700"},{"geonameid":4381103,"name":"Township of Chilhowee","admin3":"13672"},{"geonameid":4382007,"name":"Township of Columbus","admin3":"15724"},{"geonameid":4389010,"name":"Township of Grover","admin3":"29620"},{"geonameid":4389952,"name":"Township of Hazel Hill","admin3":"31240"},{"geonameid":4392230,"name":"Township of Jackson","admin3":"35846"},{"geonameid":4392415,"name":"Township of Jefferson","admin3":"36836"},{"geonameid":4393694,"name":"Township of Kingsville","admin3":"38936"},{"geonameid":4396805,"name":"Township of Madison","admin3":"45434"},{"geonameid":4398924,"name":"Township of Montserrat","admin3":"49700"},{"geonameid":4404334,"name":"Township of Post Oak","admin3":"59312"},{"geonameid":4406383,"name":"Township of Rose Hill","admin3":"63146"},{"geonameid":4408805,"name":"Township of Simpson","admin3":"68006"},{"geonameid":4413597,"name":"Township of Warrensburg","admin3":"77110"},{"geonameid":4413692,"name":"Township of Washington","admin3":"77524"}],"alternateNames":[{"alternatenameId":2089572,"geonameid":4398678,"isoLanguage":"en","alternateName":"Missouri","isPreferredName":true,"isShortName":true,"isColloquial":false,"isHistoric":false}]},"__N_SSG":true}