{"pageProps":{"locale":"en","admin2":{"geonameid":4394029,"name":"Laclede County","country":"US","admin1":"MO","admin2":"105","admin3":"","latitude":"37.6583200","longitude":"-92.5903500"},"admin1":{"geonameid":4398678,"name":"Missouri","admin1":"MO","localeAltName":"Missouri"},"locations":[{"geonameid":4394794,"name":"Lebanon","admin3":"41186"}],"admin3":[{"geonameid":4375317,"name":"Township of Auglaize","admin3":"02494"},{"geonameid":4385355,"name":"Township of Eldridge","admin3":"21556"},{"geonameid":4387211,"name":"Township of Franklin","admin3":"25660"},{"geonameid":4387716,"name":"Township of Gasconade","admin3":"26596"},{"geonameid":4394808,"name":"Township of Lebanon","admin3":"41186"},{"geonameid":4402073,"name":"Township of Osage","admin3":"55154"},{"geonameid":4403157,"name":"Township of Phillipsburg","admin3":"57386"},{"geonameid":4409857,"name":"Township of Spring Hollow","admin3":"70072"},{"geonameid":4412653,"name":"Township of Union","admin3":"74734"},{"geonameid":4413693,"name":"Township of Washington","admin3":"77542"},{"geonameid":7165586,"name":"Township of May/Smith","admin3":"46937"}],"alternateNames":[{"alternatenameId":2089572,"geonameid":4398678,"isoLanguage":"en","alternateName":"Missouri","isPreferredName":true,"isShortName":true,"isColloquial":false,"isHistoric":false}]},"__N_SSG":true}