{"pageProps":{"locale":"en","admin2":{"geonameid":4395428,"name":"Linn County","country":"US","admin1":"MO","admin2":"115","admin3":"","latitude":"39.8702100","longitude":"-93.1071800"},"admin1":{"geonameid":4398678,"name":"Missouri","admin1":"MO","localeAltName":"Missouri"},"locations":[{"geonameid":4378488,"name":"Brookfield","admin3":"08668"},{"geonameid":4397071,"name":"Marceline","admin3":"45884"}],"admin3":[{"geonameid":4375585,"name":"Township of Baker","admin3":"03016"},{"geonameid":4376603,"name":"Township of Benton","admin3":"04726"},{"geonameid":4378497,"name":"Township of Brookfield","admin3":"08668"},{"geonameid":4378986,"name":"Township of Bucklin","admin3":"09406"},{"geonameid":4381462,"name":"Township of Clay","admin3":"14446"},{"geonameid":4388508,"name":"Township of Grantsville","admin3":"28612"},{"geonameid":4392231,"name":"Township of Jackson","admin3":"35864"},{"geonameid":4392416,"name":"Township of Jefferson","admin3":"36854"},{"geonameid":4395943,"name":"Township of Locust Creek","admin3":"43526"},{"geonameid":4397077,"name":"Township of Marceline","admin3":"45884"},{"geonameid":4400901,"name":"Township of North Salem","admin3":"53300"},{"geonameid":4402568,"name":"Township of Parson Creek","admin3":"56378"},{"geonameid":4415606,"name":"Township of Yellow Creek","admin3":"81304"},{"geonameid":5054907,"name":"Township of Enterprise","admin3":"22438"}],"alternateNames":[{"alternatenameId":2089572,"geonameid":4398678,"isoLanguage":"en","alternateName":"Missouri","isPreferredName":true,"isShortName":true,"isColloquial":false,"isHistoric":false}]},"__N_SSG":true}