{"pageProps":{"locale":"en","admin2":{"geonameid":4397698,"name":"McDonald County","country":"US","admin1":"MO","admin2":"119","admin3":"","latitude":"36.6286700","longitude":"-94.3483600"},"admin1":{"geonameid":4398678,"name":"Missouri","admin1":"MO","localeAltName":"Missouri"},"locations":[{"geonameid":4374798,"name":"Anderson","admin3":"01236"},{"geonameid":4388216,"name":"Goodman","admin3":"22550"},{"geonameid":4400673,"name":"Noel","admin3":"21792"}],"admin3":[{"geonameid":4374813,"name":"Township of Anderson East","admin3":"01236"},{"geonameid":4374843,"name":"Township of Anderson West","admin3":"01237"},{"geonameid":4379039,"name":"Township of Buffalo Hart","admin3":"09613"},{"geonameid":4379046,"name":"Township of Buffalo May","admin3":"09617"},{"geonameid":4380763,"name":"Township of Center","admin3":"12574"},{"geonameid":4385402,"name":"Township of Elk Horn","admin3":"21700"},{"geonameid":4385408,"name":"Township of Elk River East","admin3":"21792"},{"geonameid":4385409,"name":"Township of Elk River West","admin3":"21794"},{"geonameid":4385765,"name":"Township of Erie Goodman","admin3":"22550"},{"geonameid":4385766,"name":"Township of Erie McNatt","admin3":"22554"},{"geonameid":4397854,"name":"Township of McMillen Coy","admin3":"45240"},{"geonameid":4397860,"name":"Township of McMillen Tiff","admin3":"45246"},{"geonameid":4399756,"name":"Township of Mountain","admin3":"50384"},{"geonameid":4403443,"name":"Township of Pineville Lanagan","admin3":"57840"},{"geonameid":4403444,"name":"Township of Pineville North","admin3":"57843"},{"geonameid":4403446,"name":"Township of Pineville South","admin3":"57846"},{"geonameid":4404607,"name":"Township of Prairie","admin3":"59600"},{"geonameid":4405605,"name":"Township of Richwood","admin3":"61760"},{"geonameid":4414541,"name":"Township of White Rock","admin3":"79540"}],"alternateNames":[{"alternatenameId":2089572,"geonameid":4398678,"isoLanguage":"en","alternateName":"Missouri","isPreferredName":true,"isShortName":true,"isColloquial":false,"isHistoric":false}]},"__N_SSG":true}