{"pageProps":{"locale":"en","admin2":{"geonameid":4402864,"name":"Pemiscot County","country":"US","admin1":"MO","admin2":"155","admin3":"","latitude":"36.2114500","longitude":"-89.7853800"},"admin1":{"geonameid":4398678,"name":"Missouri","admin1":"MO","localeAltName":"Missouri"},"locations":[{"geonameid":4380211,"name":"Caruthersville","admin3":"43382"},{"geonameid":4389910,"name":"Hayti","admin3":"31150"},{"geonameid":4410101,"name":"Steele","admin3":"16354"}],"admin3":[{"geonameid":4378187,"name":"Township of Braggadocio","admin3":"07858"},{"geonameid":4379353,"name":"Township of Butler","admin3":"10090"},{"geonameid":4382116,"name":"Township of Concord","admin3":"16012"},{"geonameid":4382330,"name":"Township of Cooter","admin3":"16354"},{"geonameid":4388111,"name":"Township of Godair","admin3":"27622"},{"geonameid":4389912,"name":"Township of Hayti","admin3":"31150"},{"geonameid":4390949,"name":"Township of Holland","admin3":"32608"},{"geonameid":4395755,"name":"Township of Little Prairie","admin3":"43382"},{"geonameid":4395765,"name":"Township of Little River","admin3":"43400"},{"geonameid":4402579,"name":"Township of Pascola","admin3":"56450"},{"geonameid":4402869,"name":"Township of Pemiscot","admin3":"56846"},{"geonameid":4413169,"name":"Township of Virginia","admin3":"76372"}],"alternateNames":[{"alternatenameId":2089572,"geonameid":4398678,"isoLanguage":"en","alternateName":"Missouri","isPreferredName":true,"isShortName":true,"isColloquial":false,"isHistoric":false}]},"__N_SSG":true}