{"pageProps":{"locale":"en","admin2":{"geonameid":4404128,"name":"Polk County","country":"US","admin1":"MO","admin2":"167","admin3":"","latitude":"37.6164800","longitude":"-93.4005300"},"admin1":{"geonameid":4398678,"name":"Missouri","admin1":"MO","localeAltName":"Missouri"},"locations":[{"geonameid":4377835,"name":"Bolivar","admin3":"53018"},{"geonameid":4391564,"name":"Humansville","admin3":"37430"}],"admin3":[{"geonameid":4379828,"name":"Township of Campbell","admin3":"10900"},{"geonameid":4381666,"name":"Township of Cliquot","admin3":"15058"},{"geonameid":4385040,"name":"Township of East Madison","admin3":"20995"},{"geonameid":4386736,"name":"Township of Flemington","admin3":"24598"},{"geonameid":4392238,"name":"Township of Jackson","admin3":"36008"},{"geonameid":4392420,"name":"Township of Jefferson","admin3":"36944"},{"geonameid":4392679,"name":"Township of Johnson","admin3":"37430"},{"geonameid":4397828,"name":"Township of McKinley","admin3":"45164"},{"geonameid":4398939,"name":"Township of Mooney","admin3":"49736"},{"geonameid":4400760,"name":"Township of North Benton","admin3":"52894"},{"geonameid":4400846,"name":"Township of North Green","admin3":"53073"},{"geonameid":4400931,"name":"Township of Northeast Marion","admin3":"53018"},{"geonameid":4400953,"name":"Township of Northwest Marion","admin3":"53366"},{"geonameid":4409338,"name":"Township of South Benton","admin3":"68640"},{"geonameid":4409444,"name":"Township of South Green","admin3":"68874"},{"geonameid":4409536,"name":"Township of Southeast Marion","admin3":"68696"},{"geonameid":4409568,"name":"Township of Southwest Marion","admin3":"69236"},{"geonameid":4412658,"name":"Township of Union","admin3":"74860"},{"geonameid":4414166,"name":"Township of West Madison","admin3":"78846"},{"geonameid":4414175,"name":"Township of West Looney","admin3":"78842"},{"geonameid":4415173,"name":"Township of Wishart","admin3":"80602"},{"geonameid":4828660,"name":"Township of East Looney","admin3":"20972"}],"alternateNames":[{"alternatenameId":2089572,"geonameid":4398678,"isoLanguage":"en","alternateName":"Missouri","isPreferredName":true,"isShortName":true,"isColloquial":false,"isHistoric":false}]},"__N_SSG":true}