{"pageProps":{"locale":"en","admin2":{"geonameid":5057190,"name":"Scotland County","country":"US","admin1":"MO","admin2":"199","admin3":"","latitude":"40.4526000","longitude":"-92.1470500"},"admin1":{"geonameid":4398678,"name":"Missouri","admin1":"MO","localeAltName":"Missouri"},"locations":[{"geonameid":5056241,"name":"Memphis","admin3":"36980"}],"admin3":[{"geonameid":4832842,"name":"Township of Thomson","admin3":"73060"},{"geonameid":5055365,"name":"Township of Harrison","admin3":"30574"},{"geonameid":5055671,"name":"Township of Jefferson","admin3":"36980"},{"geonameid":5055702,"name":"Township of Johnson","admin3":"37466"},{"geonameid":5056306,"name":"Township of Miller","admin3":"48314"},{"geonameid":5056421,"name":"Township of Mount Pleasant","admin3":"50618"},{"geonameid":5057163,"name":"Township of Sand Hill","admin3":"65828"},{"geonameid":5057543,"name":"Township of Tobin","admin3":"73492"},{"geonameid":5057652,"name":"Township of Union","admin3":"74986"},{"geonameid":5057678,"name":"Township of Vest","admin3":"75958"}],"alternateNames":[{"alternatenameId":2089572,"geonameid":4398678,"isoLanguage":"en","alternateName":"Missouri","isPreferredName":true,"isShortName":true,"isColloquial":false,"isHistoric":false}]},"__N_SSG":true}