{"pageProps":{"locale":"en","admin2":{"geonameid":4410325,"name":"Stone County","country":"US","admin1":"MO","admin2":"209","admin3":"","latitude":"36.7469400","longitude":"-93.4560000"},"admin1":{"geonameid":4398678,"name":"Missouri","admin1":"MO","localeAltName":"Missouri"},"locations":[{"geonameid":4382741,"name":"Crane","admin3":"57458"},{"geonameid":4393581,"name":"Kimberling City","admin3":"63763"}],"admin3":[{"geonameid":4374711,"name":"Township of Alpine","admin3":"00892"},{"geonameid":4380271,"name":"Township of Cass","admin3":"11836"},{"geonameid":4386671,"name":"Township of Flat Creek A","admin3":"24478"},{"geonameid":4386679,"name":"Township of Flat Creek B","admin3":"24482"},{"geonameid":4388501,"name":"Township of Grant","admin3":"28558"},{"geonameid":4391647,"name":"Township of Hurley","admin3":"33940"},{"geonameid":4395359,"name":"Township of Lincoln","admin3":"42878"},{"geonameid":4397829,"name":"Township of McKinley","admin3":"45182"},{"geonameid":4403196,"name":"Township of Pierce","admin3":"57458"},{"geonameid":4403313,"name":"Township of Pine A","admin3":"57749"},{"geonameid":4403314,"name":"Township of Pine B","admin3":"57751"},{"geonameid":4404166,"name":"Township of Ponce de Leon","admin3":"58988"},{"geonameid":4406683,"name":"Township of Ruth A","admin3":"63761"},{"geonameid":4406685,"name":"Township of Ruth C","admin3":"63766"},{"geonameid":4412663,"name":"Township of Union","admin3":"75004"},{"geonameid":4413700,"name":"Township of Washington","admin3":"77722"},{"geonameid":4414892,"name":"Township of Williams","admin3":"79954"},{"geonameid":6326740,"name":"Township of Sunset Cove","admin3":"71736"},{"geonameid":7165619,"name":"Township of Ruth B City","admin3":"63763"},{"geonameid":7165620,"name":"Township of Ruth B Rural","admin3":"63764"},{"geonameid":7165621,"name":"Township of Ruth C Rural","admin3":"63770"}],"alternateNames":[{"alternatenameId":2089572,"geonameid":4398678,"isoLanguage":"en","alternateName":"Missouri","isPreferredName":true,"isShortName":true,"isColloquial":false,"isHistoric":false}]},"__N_SSG":true}