{"pageProps":{"locale":"en","admin2":{"geonameid":4930396,"name":"Berkshire County","country":"US","admin1":"MA","admin2":"003","admin3":"","latitude":"42.3706700","longitude":"-73.2064000","localeAltName":null},"admin1":{"geonameid":6254926,"name":"Massachusetts","admin1":"MA","localeAltName":"Massachusetts"},"locations":[{"geonameid":4928733,"name":"Adams","admin3":"00555","localeAltName":null},{"geonameid":4930173,"name":"Becket","admin3":"04545","localeAltName":null},{"geonameid":4932915,"name":"Cheshire","admin3":"13345","localeAltName":null},{"geonameid":4934429,"name":"Dalton","admin3":"16180","localeAltName":null},{"geonameid":4936937,"name":"Florida","admin3":"24120","localeAltName":null},{"geonameid":4938157,"name":"Great Barrington","admin3":"26815","localeAltName":null},{"geonameid":4938777,"name":"Hancock","admin3":"28180","localeAltName":null},{"geonameid":4939561,"name":"Hinsdale","admin3":"30315","localeAltName":null},{"geonameid":4939991,"name":"Housatonic","admin3":"26815","localeAltName":null},{"geonameid":4941659,"name":"Lanesborough","admin3":"34340","localeAltName":null},{"geonameid":4941797,"name":"Lee","admin3":"34655","localeAltName":null},{"geonameid":4941853,"name":"Lenox","admin3":"34970","localeAltName":null},{"geonameid":4944383,"name":"Monterey","admin3":"42460","localeAltName":null},{"geonameid":4945217,"name":"New Marlborough","admin3":"45420","localeAltName":null},{"geonameid":4945486,"name":"North Adams","admin3":"46225","localeAltName":null},{"geonameid":4946445,"name":"Otis","admin3":"51580","localeAltName":null},{"geonameid":4947043,"name":"Peru","admin3":"53050","localeAltName":null},{"geonameid":4947459,"name":"Pittsfield","admin3":"53960","localeAltName":null},{"geonameid":4948667,"name":"Richmond","admin3":"56795","localeAltName":null},{"geonameid":4950205,"name":"Sandisfield","admin3":"59665","localeAltName":null},{"geonameid":4950301,"name":"Savoy","admin3":"60225","localeAltName":null},{"geonameid":5281031,"name":"Sheffield","admin3":"61065","localeAltName":null},{"geonameid":4952078,"name":"Stockbridge","admin3":"67595","localeAltName":null},{"geonameid":4954553,"name":"Washington","admin3":"73335","localeAltName":null},{"geonameid":4955098,"name":"West Stockbridge","admin3":"77990","localeAltName":null},{"geonameid":4955786,"name":"Williamstown","admin3":"79985","localeAltName":null},{"geonameid":4955914,"name":"Windsor","admin3":"80685","localeAltName":null}],"admin3":[{"geonameid":4928764,"name":"Town of Adams","admin3":"00555","localeAltName":null},{"geonameid":4928872,"name":"Town of Alford","admin3":"00975"},{"geonameid":4930182,"name":"Town of Becket","admin3":"04545","localeAltName":null},{"geonameid":4932927,"name":"Town of Cheshire","admin3":"13345","localeAltName":null},{"geonameid":4933360,"name":"Town of Clarksburg","admin3":"14010"},{"geonameid":4934439,"name":"Town of Dalton","admin3":"16180","localeAltName":null},{"geonameid":4935727,"name":"Town of Egremont","admin3":"21360"},{"geonameid":4936943,"name":"Town of Florida","admin3":"24120","localeAltName":null},{"geonameid":4938162,"name":"Town of Great Barrington","admin3":"26815","localeAltName":null},{"geonameid":4938790,"name":"Town of Hancock","admin3":"28180","localeAltName":null},{"geonameid":4939567,"name":"Town of Hinsdale","admin3":"30315","localeAltName":null},{"geonameid":4941663,"name":"Town of Lanesborough","admin3":"34340","localeAltName":null},{"geonameid":4941818,"name":"Town of Lee","admin3":"34655","localeAltName":null},{"geonameid":4941869,"name":"Town of Lenox","admin3":"34970","localeAltName":null},{"geonameid":4944388,"name":"Town of Monterey","admin3":"42460","localeAltName":null},{"geonameid":4944662,"name":"Town of Mount Washington","admin3":"43300"},{"geonameid":4945120,"name":"Town of New Ashford","admin3":"44385"},{"geonameid":4945219,"name":"Town of New Marlborough","admin3":"45420","localeAltName":null},{"geonameid":4945495,"name":"City of North Adams","admin3":"46225","localeAltName":null},{"geonameid":4946459,"name":"Town of Otis","admin3":"51580","localeAltName":null},{"geonameid":4947049,"name":"Town of Peru","admin3":"53050","localeAltName":null},{"geonameid":4947471,"name":"City of Pittsfield","admin3":"53960","localeAltName":null},{"geonameid":4948677,"name":"Town of Richmond","admin3":"56795","localeAltName":null},{"geonameid":4950188,"name":"Town of Sandisfield","admin3":"59665","localeAltName":null},{"geonameid":4950307,"name":"Town of Savoy","admin3":"60225","localeAltName":null},{"geonameid":4950746,"name":"Town of Sheffield","admin3":"61065","localeAltName":null},{"geonameid":4952088,"name":"Town of Stockbridge","admin3":"67595","localeAltName":null},{"geonameid":4953556,"name":"Town of Tyringham","admin3":"71095"},{"geonameid":4954587,"name":"Town of Washington","admin3":"73335","localeAltName":null},{"geonameid":4955106,"name":"Town of West Stockbridge","admin3":"77990","localeAltName":null},{"geonameid":4955794,"name":"Town of Williamstown","admin3":"79985","localeAltName":null},{"geonameid":4955933,"name":"Town of Windsor","admin3":"80685","localeAltName":null}],"alternateNames":[{"alternatenameId":6755490,"geonameid":6254926,"isoLanguage":"en","alternateName":"Massachusetts","isPreferredName":true,"isShortName":true,"isColloquial":false,"isHistoric":false}]},"__N_SSG":true}