{"pageProps":{"locale":"en","admin2":{"geonameid":4931378,"name":"Bristol County","country":"US","admin1":"MA","admin2":"005","admin3":"","latitude":"41.7570900","longitude":"-71.0885200","localeAltName":null},"admin1":{"geonameid":6254926,"name":"Massachusetts","admin1":"MA","localeAltName":"Massachusetts"},"locations":[{"geonameid":4928720,"name":"Acushnet","admin3":"00520","localeAltName":null},{"geonameid":7257523,"name":"Acushnet Center","admin3":"00520","localeAltName":null},{"geonameid":4929356,"name":"Assonet","admin3":"","localeAltName":null},{"geonameid":4929399,"name":"Attleboro","admin3":"02690","localeAltName":null},{"geonameid":4930385,"name":"Berkley","admin3":"05280","localeAltName":null},{"geonameid":4930804,"name":"Bliss Corner","admin3":"16425","localeAltName":null},{"geonameid":4934827,"name":"Dighton","admin3":"16950","localeAltName":null},{"geonameid":4935623,"name":"Easton","admin3":"20100","localeAltName":null},{"geonameid":4936087,"name":"Fairhaven","admin3":"22130","localeAltName":null},{"geonameid":4936159,"name":"Fall River","admin3":"23000","localeAltName":null},{"geonameid":4937355,"name":"Freetown","admin3":"","localeAltName":null},{"geonameid":4939191,"name":"Head of Westport","admin3":"77570","localeAltName":null},{"geonameid":4943021,"name":"Mansfield","admin3":"38225","localeAltName":null},{"geonameid":7257704,"name":"Mansfield Center","admin3":"38225","localeAltName":null},{"geonameid":4945121,"name":"New Bedford","admin3":"45000","localeAltName":null},{"geonameid":7257726,"name":"North Attleborough Center","admin3":"46575","localeAltName":null},{"geonameid":4945769,"name":"North Seekonk","admin3":"60645","localeAltName":null},{"geonameid":4945808,"name":"North Westport","admin3":"77570","localeAltName":null},{"geonameid":4945911,"name":"Norton","admin3":"49970","localeAltName":null},{"geonameid":7257739,"name":"Norton Center","admin3":"49970","localeAltName":null},{"geonameid":4946160,"name":"Ocean Grove","admin3":"68750","localeAltName":null},{"geonameid":4948449,"name":"Raynham","admin3":"56060","localeAltName":null},{"geonameid":4948451,"name":"Raynham Center","admin3":"56060","localeAltName":null},{"geonameid":4948545,"name":"Rehoboth","admin3":"56375","localeAltName":null},{"geonameid":4950541,"name":"Seekonk","admin3":"60645","localeAltName":null},{"geonameid":4951133,"name":"Smith Mills","admin3":"16425","localeAltName":null},{"geonameid":4951248,"name":"Somerset","admin3":"62430","localeAltName":null},{"geonameid":4952487,"name":"Swansea","admin3":"68750","localeAltName":null},{"geonameid":4952629,"name":"Taunton","admin3":"69170","localeAltName":null}],"admin3":[{"geonameid":4928730,"name":"Town of Acushnet","admin3":"00520","localeAltName":null},{"geonameid":4929405,"name":"City of Attleboro","admin3":"02690","localeAltName":null},{"geonameid":4930389,"name":"Town of Berkley","admin3":"05280","localeAltName":null},{"geonameid":4934536,"name":"Town of Dartmouth","admin3":"16425","localeAltName":null},{"geonameid":4934831,"name":"Town of Dighton","admin3":"16950","localeAltName":null},{"geonameid":4935605,"name":"Town of Easton","admin3":"20100","localeAltName":null},{"geonameid":4936093,"name":"Town of Fairhaven","admin3":"22130","localeAltName":null},{"geonameid":4936167,"name":"City of Fall River","admin3":"23000","localeAltName":null},{"geonameid":4943030,"name":"Town of Mansfield","admin3":"38225","localeAltName":null},{"geonameid":4945134,"name":"City of New Bedford","admin3":"45000","localeAltName":null},{"geonameid":4945510,"name":"Town of North Attleborough","admin3":"46575","localeAltName":null},{"geonameid":4945928,"name":"Town of Norton","admin3":"49970","localeAltName":null},{"geonameid":4948458,"name":"Town of Raynham","admin3":"56060","localeAltName":null},{"geonameid":4948549,"name":"Town of Rehoboth","admin3":"56375","localeAltName":null},{"geonameid":4950547,"name":"Town of Seekonk","admin3":"60645","localeAltName":null},{"geonameid":4951256,"name":"Town of Somerset","admin3":"62430","localeAltName":null},{"geonameid":4952493,"name":"Town of Swansea","admin3":"68750","localeAltName":null},{"geonameid":4952638,"name":"City of Taunton","admin3":"69170","localeAltName":null},{"geonameid":4955304,"name":"Town of Westport","admin3":"77570","localeAltName":null}],"alternateNames":[{"alternatenameId":6755490,"geonameid":6254926,"isoLanguage":"en","alternateName":"Massachusetts","isPreferredName":true,"isShortName":true,"isColloquial":false,"isHistoric":false}]},"__N_SSG":true}