{"pageProps":{"locale":"ro","admin2":{"geonameid":672330,"name":"Oraş Nehoiu","country":"RO","admin1":"11","admin2":"47916","admin3":"","latitude":"45.4153800","longitude":"26.3208900"},"admin1":{"geonameid":683121,"name":"Buzău","admin1":"11"},"locations":[{"geonameid":686530,"name":"Albinari"},{"geonameid":686121,"name":"Arsele"},{"geonameid":685890,"name":"Bădârlegiu"},{"geonameid":685889,"name":"Bădârlegiu Mare"},{"geonameid":685888,"name":"Bădârlegiu Mic"},{"geonameid":684700,"name":"Bâsca Rozilei"},{"geonameid":684086,"name":"Botele"},{"geonameid":682552,"name":"Cătiaşu-Pleşcari"},{"geonameid":682039,"name":"Chirlești"},{"geonameid":681082,"name":"Colonia Fabricii"},{"geonameid":679923,"name":"Curmătura"},{"geonameid":678613,"name":"După Piatră"},{"geonameid":677821,"name":"Fundătura"},{"geonameid":677786,"name":"Fundu Nehoiului"},{"geonameid":677239,"name":"Gârboiu"},{"geonameid":676991,"name":"Goetz"},{"geonameid":676552,"name":"Gura Cătiaşului"},{"geonameid":676305,"name":"Harhadău"},{"geonameid":675273,"name":"Jeţu"},{"geonameid":674393,"name":"Lunca Marameşti"},{"geonameid":674389,"name":"Lunca Mare"},{"geonameid":674365,"name":"Lunca Priporului"},{"geonameid":673026,"name":"Mlăjet"},{"geonameid":672593,"name":"Muşcani"},{"geonameid":672333,"name":"Nehoiașu"},{"geonameid":672331,"name":"Nehoiu"},{"geonameid":672141,"name":"Nucet"},{"geonameid":671437,"name":"Păltineni"},{"geonameid":670619,"name":"Pâslari"},{"geonameid":670909,"name":"Piatra"},{"geonameid":669542,"name":"Prundu"},{"geonameid":669465,"name":"Puricoasa"},{"geonameid":668439,"name":"Ruptura"},{"geonameid":667324,"name":"Şeţu"},{"geonameid":666288,"name":"Stănila"},{"geonameid":664765,"name":"Topilele"},{"geonameid":664617,"name":"Trestioara"},{"geonameid":663473,"name":"Valea Rea"},{"geonameid":662812,"name":"Vinețișu"}],"admin3":[],"alternateNames":[]},"__N_SSG":true}