{"pageProps":{"locale":"en","admin2":{"geonameid":3333221,"name":"Wokingham","country":"GB","admin1":"ENG","admin2":"Q2","admin3":"","latitude":"51.4166700","longitude":"-0.9166700"},"admin1":{"geonameid":6269131,"name":"England","admin1":"ENG"},"locations":[{"geonameid":2657216,"name":"Arborfield"},{"geonameid":6692377,"name":"Aston"},{"geonameid":2656334,"name":"Barkham"},{"geonameid":6693236,"name":"Charvil"},{"geonameid":2650555,"name":"Earley"},{"geonameid":2649445,"name":"Finchampstead"},{"geonameid":2646361,"name":"Hurst"},{"geonameid":6693612,"name":"Knowl Hill"},{"geonameid":7290015,"name":"Lower Earley"},{"geonameid":2639500,"name":"Remenham"},{"geonameid":2637968,"name":"Shinfield"},{"geonameid":6620304,"name":"Sindlesham"},{"geonameid":2637522,"name":"Sonning"},{"geonameid":2636448,"name":"Swallowfield"},{"geonameid":2635294,"name":"Twyford"},{"geonameid":2634772,"name":"Wargrave"},{"geonameid":2633814,"name":"Winnersh"},{"geonameid":2633708,"name":"Wokingham"},{"geonameid":2633633,"name":"Woodley"}],"admin3":[{"geonameid":7290771,"name":"St. Nicholas, Hurst","admin3":"00MF008"},{"geonameid":7290900,"name":"Earley","admin3":"00MF004"},{"geonameid":7291700,"name":"Charvil","admin3":"00MF003"},{"geonameid":7291701,"name":"Remenham","admin3":"00MF006"},{"geonameid":7292769,"name":"Barkham","admin3":"00MF002"},{"geonameid":7292770,"name":"Finchampstead","admin3":"00MF005"},{"geonameid":7292771,"name":"Woodley","admin3":"00MF017"},{"geonameid":7293972,"name":"Swallowfield","admin3":"00MF011"},{"geonameid":7296028,"name":"Wokingham","admin3":"00MF015"},{"geonameid":7297500,"name":"Arborfield and Newland","admin3":"00MF001"},{"geonameid":7297501,"name":"Shinfield","admin3":"00MF009"},{"geonameid":7297502,"name":"Sonning","admin3":"00MF010"},{"geonameid":7297505,"name":"Wargrave","admin3":"00MF013"},{"geonameid":7297506,"name":"Winnersh","admin3":"00MF014"},{"geonameid":7297787,"name":"Wokingham Without","admin3":"00MF016"},{"geonameid":7297921,"name":"Twyford","admin3":"00MF012"},{"geonameid":7299659,"name":"Ruscombe","admin3":"00MF007"}],"alternateNames":[]},"__N_SSG":true}