{"pageProps":{"locale":"de","admin2":{"geonameid":6458770,"name":"Wahlkreis St. Gallen","country":"CH","admin1":"SG","admin2":"1721","admin3":"","latitude":"47.4634200","longitude":"9.3905200"},"admin1":{"geonameid":2658821,"name":"Kanton St. Gallen","admin1":"SG"},"locations":[{"geonameid":2661871,"name":"Abtwil","admin3":"3442"},{"geonameid":2661748,"name":"Andwil","admin3":"3441"},{"geonameid":2660937,"name":"Eggersriet","admin3":"3212"},{"geonameid":2660549,"name":"Gossau","admin3":"3443"},{"geonameid":2660425,"name":"Häggenschwil","admin3":"3201"},{"geonameid":2659540,"name":"Muolen","admin3":"3202"},{"geonameid":2658822,"name":"Sankt Gallen","admin3":"3203"},{"geonameid":2658067,"name":"Waldkirch","admin3":"3444"},{"geonameid":2657968,"name":"Wittenbach","admin3":"3204"}],"admin3":[{"geonameid":2660680,"name":"Gaiserwald","admin3":"3442"},{"geonameid":7285079,"name":"Andwil (SG)","admin3":"3441"},{"geonameid":7285705,"name":"Eggersriet","admin3":"3212"},{"geonameid":7285945,"name":"Gossau (SG)","admin3":"3443"},{"geonameid":7286023,"name":"Häggenschwil","admin3":"3201"},{"geonameid":7286595,"name":"Muolen","admin3":"3202"},{"geonameid":7287240,"name":"St. Gallen","admin3":"3203"},{"geonameid":7287522,"name":"Waldkirch","admin3":"3444"},{"geonameid":7287596,"name":"Wittenbach","admin3":"3204"}],"alternateNames":[]},"__N_SSG":true}