{"pageProps":{"locale":"ro","admin2":{"geonameid":8334726,"name":"Comuna Vultureşti","country":"RO","admin1":"34","admin2":"151157","admin3":"","latitude":"47.5204100","longitude":"26.4096100"},"admin1":{"geonameid":665849,"name":"Suceava","admin1":"34"},"locations":[{"geonameid":679517,"name":"Deleni","admin3":""},{"geonameid":677113,"name":"Giurgești","admin3":""},{"geonameid":675952,"name":"Hreațca","admin3":""},{"geonameid":675299,"name":"Jacota","admin3":""},{"geonameid":673570,"name":"Merești","admin3":""},{"geonameid":671647,"name":"Osoi","admin3":""},{"geonameid":670506,"name":"Pleșești","admin3":""},{"geonameid":670500,"name":"Pleşeşti-Gane","admin3":""},{"geonameid":663753,"name":"Valea Glodului","admin3":""},{"geonameid":662394,"name":"Vultureşti","admin3":""}],"admin3":[],"alternateNames":[{"alternatenameId":393492,"geonameid":665849,"isoLanguage":"en","alternateName":"Suceava","isPreferredName":true,"isShortName":true,"isColloquial":false,"isHistoric":false}]},"__N_SSG":true}