{"pageProps":{"locale":"ro","admin2":{"geonameid":670027,"name":"Comuna Poiana Stampei","country":"RO","admin1":"34","admin2":"149851","admin3":"","latitude":"47.3111800","longitude":"25.1293200"},"admin1":{"geonameid":665849,"name":"Suceava","admin1":"34"},"locations":[{"geonameid":686484,"name":"Alexeni","admin3":""},{"geonameid":686335,"name":"Androneşti","admin3":""},{"geonameid":682595,"name":"Căsoi","admin3":""},{"geonameid":679590,"name":"Dealu Prajului","admin3":""},{"geonameid":679082,"name":"Dornișoara","admin3":""},{"geonameid":672688,"name":"Muncel","admin3":""},{"geonameid":670799,"name":"Pilugani","admin3":""},{"geonameid":670567,"name":"Plaiul Bârgăului","admin3":""},{"geonameid":670028,"name":"Poiana Stampei","admin3":""},{"geonameid":669720,"name":"Prăleni","admin3":""},{"geonameid":668458,"name":"Runcu","admin3":""},{"geonameid":665432,"name":"Tătaru","admin3":""},{"geonameid":665214,"name":"Teșna","admin3":""}],"admin3":[],"alternateNames":[{"alternatenameId":393492,"geonameid":665849,"isoLanguage":"en","alternateName":"Suceava","isPreferredName":true,"isShortName":true,"isColloquial":false,"isHistoric":false}]},"__N_SSG":true}