{"pageProps":{"locale":"ro","admin2":{"geonameid":667951,"name":"Comuna Şaru Dornei","country":"RO","admin1":"34","admin2":"150445","admin3":"","latitude":"47.2647100","longitude":"25.3332400"},"admin1":{"geonameid":665849,"name":"Suceava","admin1":"34"},"locations":[{"geonameid":679754,"name":"Dăneşti","admin3":""},{"geonameid":676532,"name":"Gura Haitii","admin3":""},{"geonameid":674752,"name":"Liniştea","admin3":""},{"geonameid":672844,"name":"Moroşeni","admin3":""},{"geonameid":672466,"name":"Neagra Șarului","admin3":""},{"geonameid":670712,"name":"Pârâu Rusului","admin3":""},{"geonameid":670560,"name":"Plaiu Șarului","admin3":""},{"geonameid":667977,"name":"Sărișor","admin3":""},{"geonameid":667975,"name":"Sărișoru Mare","admin3":""},{"geonameid":667974,"name":"Sărişoru Mic","admin3":""},{"geonameid":667953,"name":"Șaru Bucovinei","admin3":""},{"geonameid":667952,"name":"Şaru Dornei","admin3":""}],"admin3":[],"alternateNames":[{"alternatenameId":393492,"geonameid":665849,"isoLanguage":"en","alternateName":"Suceava","isPreferredName":true,"isShortName":true,"isColloquial":false,"isHistoric":false}]},"__N_SSG":true}