{"pageProps":{"locale":"ro","admin2":{"geonameid":681568,"name":"Comuna Cârlibaba","country":"RO","admin1":"34","admin2":"147713","admin3":"","latitude":"47.5854600","longitude":"25.0942500"},"admin1":{"geonameid":665849,"name":"Suceava","admin1":"34"},"locations":[{"geonameid":681569,"name":"Cârlibaba","admin3":""},{"geonameid":681567,"name":"Cârlibaba Nouă","admin3":""},{"geonameid":678019,"name":"Fluturica","admin3":""},{"geonameid":675737,"name":"Iedu","admin3":""},{"geonameid":675134,"name":"Juravlea","admin3":""},{"geonameid":674134,"name":"Măgura","admin3":""},{"geonameid":670487,"name":"Pleta","admin3":""},{"geonameid":667329,"name":"Șesuri","admin3":""},{"geonameid":665441,"name":"Tătarca","admin3":""},{"geonameid":665189,"name":"Țibău","admin3":""},{"geonameid":663901,"name":"Valea Bistriţei","admin3":""},{"geonameid":663377,"name":"Valea Stânei","admin3":""}],"admin3":[],"alternateNames":[{"alternatenameId":393492,"geonameid":665849,"isoLanguage":"en","alternateName":"Suceava","isPreferredName":true,"isShortName":true,"isColloquial":false,"isHistoric":false}]},"__N_SSG":true}