{"pageProps":{"locale":"ro","admin2":{"geonameid":677980,"name":"Comuna Forăşti","country":"RO","admin1":"34","admin2":"148514","admin3":"","latitude":"47.3638600","longitude":"26.4617400"},"admin1":{"geonameid":665849,"name":"Suceava","admin1":"34"},"locations":[{"geonameid":686300,"name":"Antoceni","admin3":""},{"geonameid":684018,"name":"Boura","admin3":""},{"geonameid":677982,"name":"Forăşti","admin3":""},{"geonameid":673909,"name":"Manolea","admin3":""},{"geonameid":671799,"name":"Oniceni","admin3":""},{"geonameid":671470,"name":"Palanca","admin3":""},{"geonameid":668615,"name":"Roșiori","admin3":""},{"geonameid":668388,"name":"Ruși","admin3":""},{"geonameid":665141,"name":"Ţigănea","admin3":""},{"geonameid":664830,"name":"Țolești","admin3":""},{"geonameid":664357,"name":"Uidești","admin3":""},{"geonameid":662916,"name":"Viişoara","admin3":""}],"admin3":[],"alternateNames":[{"alternatenameId":393492,"geonameid":665849,"isoLanguage":"en","alternateName":"Suceava","isPreferredName":true,"isShortName":true,"isColloquial":false,"isHistoric":false}]},"__N_SSG":true}