{"pageProps":{"locale":"ro","admin2":{"geonameid":677787,"name":"Comuna Fundu Moldovei","country":"RO","admin1":"34","admin2":"148765","admin3":"","latitude":"47.5549600","longitude":"25.3334600"},"admin1":{"geonameid":665849,"name":"Suceava","admin1":"34"},"locations":[{"geonameid":686120,"name":"Arseneasca","admin3":""},{"geonameid":684028,"name":"Botuș","admin3":""},{"geonameid":684026,"name":"Botușel","admin3":""},{"geonameid":683858,"name":"Braniștea","admin3":""},{"geonameid":681131,"name":"Colacu","admin3":""},{"geonameid":681132,"name":"Colacu","admin3":""},{"geonameid":679493,"name":"Delnița","admin3":""},{"geonameid":679485,"name":"Deluț","admin3":""},{"geonameid":677788,"name":"Fundu Moldovei","admin3":""},{"geonameid":674925,"name":"Lefe","admin3":""},{"geonameid":672098,"name":"Obcina","admin3":""},{"geonameid":670728,"name":"Pârâu Floarei","admin3":""},{"geonameid":670576,"name":"Plai","admin3":""},{"geonameid":669368,"name":"Răchitiş","admin3":""},{"geonameid":666632,"name":"Smida Ungurenilor","admin3":""},{"geonameid":665442,"name":"Tătarca","admin3":""},{"geonameid":662774,"name":"Vârfu Plaiului","admin3":""}],"admin3":[],"alternateNames":[{"alternatenameId":393492,"geonameid":665849,"isoLanguage":"en","alternateName":"Suceava","isPreferredName":true,"isShortName":true,"isColloquial":false,"isHistoric":false}]},"__N_SSG":true}