{"pageProps":{"locale":"ro","admin2":{"geonameid":683660,"name":"Comuna Brodina","country":"RO","admin1":"34","admin2":"147241","admin3":"","latitude":"47.8514700","longitude":"25.3926200"},"admin1":{"geonameid":665849,"name":"Suceava","admin1":"34"},"locations":[{"geonameid":683662,"name":"Brodina","admin3":""},{"geonameid":683659,"name":"Brodina de Jos","admin3":""},{"geonameid":680727,"name":"Cornu","admin3":""},{"geonameid":679954,"name":"Cununschi","admin3":""},{"geonameid":678798,"name":"Dubiușca","admin3":""},{"geonameid":678584,"name":"Ehrește","admin3":""},{"geonameid":678467,"name":"Falcău","admin3":""},{"geonameid":677963,"name":"Frasin","admin3":""},{"geonameid":676246,"name":"Hepa","admin3":""},{"geonameid":672169,"name":"Norocu","admin3":""},{"geonameid":671442,"name":"Paltin","admin3":""},{"geonameid":668591,"name":"Roşusnei","admin3":""},{"geonameid":668289,"name":"Sadău","admin3":""},{"geonameid":664576,"name":"Tubinsca","admin3":""},{"geonameid":666494,"name":"Zalomestra","admin3":""}],"admin3":[],"alternateNames":[{"alternatenameId":393492,"geonameid":665849,"isoLanguage":"en","alternateName":"Suceava","isPreferredName":true,"isShortName":true,"isColloquial":false,"isHistoric":false}]},"__N_SSG":true}