{"pageProps":{"locale":"ro","admin2":{"geonameid":8334957,"name":"Municipiul Vatra Dornei","country":"RO","admin1":"34","admin2":"146744","admin3":"","latitude":"47.3444300","longitude":"25.3339100"},"admin1":{"geonameid":665849,"name":"Suceava","admin1":"34"},"locations":[{"geonameid":686188,"name":"Argestru","admin3":""},{"geonameid":683315,"name":"Buliceni","admin3":""},{"geonameid":682949,"name":"Călineşti","admin3":""},{"geonameid":682122,"name":"Chilia","admin3":""},{"geonameid":681126,"name":"Colbu","admin3":""},{"geonameid":668597,"name":"Roșu","admin3":""},{"geonameid":667976,"name":"Sărişor","admin3":""},{"geonameid":667954,"name":"Saru","admin3":""},{"geonameid":665769,"name":"Sunători","admin3":""},{"geonameid":664864,"name":"Todireni","admin3":""},{"geonameid":663100,"name":"Vatra Dornei","admin3":""},{"geonameid":662564,"name":"Vlăjeni","admin3":""}],"admin3":[],"alternateNames":[{"alternatenameId":393492,"geonameid":665849,"isoLanguage":"en","alternateName":"Suceava","isPreferredName":true,"isShortName":true,"isColloquial":false,"isHistoric":false}]},"__N_SSG":true}