{"pageProps":{"locale":"ro","admin2":{"geonameid":8334923,"name":"Municipiul Câmpulung Moldovenesc","country":"RO","admin1":"34","admin2":"146502","admin3":"","latitude":"47.5298100","longitude":"25.5597500"},"admin1":{"geonameid":665849,"name":"Suceava","admin1":"34"},"locations":[{"geonameid":684472,"name":"Bodea","admin3":""},{"geonameid":681845,"name":"Câmpulung Moldovenesc","admin3":""},{"geonameid":682755,"name":"Capu Satului","admin3":""},{"geonameid":675338,"name":"Izvoru Alb","admin3":""},{"geonameid":670723,"name":"Pârâu Malului","admin3":""},{"geonameid":670721,"name":"Pârâu Mesteacănului","admin3":""},{"geonameid":670720,"name":"Pârâu Morii","admin3":""},{"geonameid":663847,"name":"Valea Caselor","admin3":""},{"geonameid":663415,"name":"Valea Seacă","admin3":""},{"geonameid":663374,"name":"Valea Stânii","admin3":""}],"admin3":[],"alternateNames":[{"alternatenameId":393492,"geonameid":665849,"isoLanguage":"en","alternateName":"Suceava","isPreferredName":true,"isShortName":true,"isColloquial":false,"isHistoric":false}]},"__N_SSG":true}