{"pageProps":{"locale":"ro","admin2":{"geonameid":679145,"name":"Oraş Dolhasca","country":"RO","admin1":"34","admin2":"148006","admin3":"","latitude":"47.4179000","longitude":"26.6108300"},"admin1":{"geonameid":665849,"name":"Suceava","admin1":"34"},"locations":[{"geonameid":683449,"name":"Budeni","admin3":""},{"geonameid":679146,"name":"Dolhasca","admin3":""},{"geonameid":676577,"name":"Gulia","admin3":""},{"geonameid":670126,"name":"Poiana","admin3":""},{"geonameid":670007,"name":"Poienari","admin3":""},{"geonameid":669586,"name":"Probota","admin3":""},{"geonameid":668110,"name":"Săndeni","admin3":""},{"geonameid":667167,"name":"Siliștea Nouă","admin3":""},{"geonameid":666446,"name":"Somuz","admin3":""},{"geonameid":663512,"name":"Valea Poienei","admin3":""},{"geonameid":663215,"name":"Vămei","admin3":""}],"admin3":[],"alternateNames":[{"alternatenameId":393492,"geonameid":665849,"isoLanguage":"en","alternateName":"Suceava","isPreferredName":true,"isShortName":true,"isColloquial":false,"isHistoric":false}]},"__N_SSG":true}