{"pageProps":{"locale":"en","admin2":{"geonameid":5151896,"name":"Delaware County","country":"US","admin1":"OH","admin2":"041","admin3":"","latitude":"40.2783900","longitude":"-83.0048900"},"admin1":{"geonameid":5165418,"name":"Ohio","admin1":"OH","localeAltName":"Ohio"},"locations":[{"geonameid":5146080,"name":"Ashley","admin3":"02582"},{"geonameid":5151891,"name":"Delaware","admin3":"21469"},{"geonameid":5160622,"name":"Lewis Center","admin3":"58618"},{"geonameid":5167350,"name":"Powell","admin3":"43106"},{"geonameid":5173412,"name":"Sunbury","admin3":""}],"admin3":[{"geonameid":5146086,"name":"Village of Ashley","admin3":"02582"},{"geonameid":5147131,"name":"Township of Berkshire","admin3":"05774"},{"geonameid":5147152,"name":"Township of Berlin","admin3":"05788"},{"geonameid":5148424,"name":"Township of Brown","admin3":"09428"},{"geonameid":5150947,"name":"Township of Concord","admin3":"18140"},{"geonameid":5151921,"name":"Township of Delaware","admin3":"21448"},{"geonameid":5155597,"name":"Township of Genoa","admin3":"29694"},{"geonameid":5156899,"name":"Township of Harlem","admin3":"33516"},{"geonameid":5159765,"name":"Township of Kingston","admin3":"40362"},{"geonameid":5160711,"name":"Township of Liberty","admin3":"43106"},{"geonameid":5161975,"name":"Township of Marlboro","admin3":"47908"},{"geonameid":5165711,"name":"Township of Orange","admin3":"58618"},{"geonameid":5165978,"name":"Township of Oxford","admin3":"59262"},{"geonameid":5167312,"name":"Township of Porter","admin3":"64178"},{"geonameid":5167657,"name":"Township of Radnor","admin3":"65312"},{"geonameid":5171488,"name":"Township of Scioto","admin3":"70842"},{"geonameid":5173894,"name":"Township of Thompson","admin3":"76617"},{"geonameid":5174198,"name":"Township of Trenton","admin3":"77336"},{"geonameid":5174389,"name":"Township of Troy","admin3":"77560"},{"geonameid":7317596,"name":"Village of Shawnee Hills","admin3":"71976"}],"alternateNames":[{"alternatenameId":2089549,"geonameid":5165418,"isoLanguage":"en","alternateName":"Ohio","isPreferredName":true,"isShortName":true,"isColloquial":false,"isHistoric":false}]},"__N_SSG":true}