{"pageProps":{"locale":"en","admin2":{"geonameid":5161156,"name":"Logan County","country":"US","admin1":"OH","admin2":"091","admin3":"","latitude":"40.3884500","longitude":"-83.7658700"},"admin1":{"geonameid":5165418,"name":"Ohio","admin1":"OH","localeAltName":"Ohio"},"locations":[{"geonameid":5146965,"name":"Bellefontaine","admin3":"41286"},{"geonameid":5151775,"name":"De Graff","admin3":"49378"},{"geonameid":5160288,"name":"Lakeview","admin3":"74780"},{"geonameid":5165067,"name":"Northwood","admin3":"45682"},{"geonameid":5168837,"name":"Russells Point","admin3":"81424"},{"geonameid":5176304,"name":"West Liberty","admin3":"43246"}],"admin3":[{"geonameid":5147699,"name":"Township of Bloomfield","admin3":"07118"},{"geonameid":5147836,"name":"Township of Bokescreek","admin3":"07552"},{"geonameid":5156999,"name":"Township of Harrison","admin3":"33908"},{"geonameid":5159129,"name":"Township of Jefferson","admin3":"38682"},{"geonameid":5160238,"name":"Township of Lake","admin3":"41286"},{"geonameid":5160718,"name":"Township of Liberty","admin3":"43246"},{"geonameid":5162222,"name":"Township of McArthur","admin3":"45682"},{"geonameid":5162789,"name":"Township of Miami","admin3":"49378"},{"geonameid":5163340,"name":"Township of Monroe","admin3":"51464"},{"geonameid":5166504,"name":"Township of Perry","admin3":"61938"},{"geonameid":5167122,"name":"Township of Pleasant","admin3":"63324"},{"geonameid":5168053,"name":"Township of Richland","admin3":"66740"},{"geonameid":5168810,"name":"Township of Rushcreek","admin3":"69134"},{"geonameid":5173112,"name":"Township of Stokes","admin3":"74780"},{"geonameid":5174736,"name":"Township of Union","admin3":"78414"},{"geonameid":5175813,"name":"Township of Washington","admin3":"81424"},{"geonameid":5177590,"name":"Township of Zane","admin3":"88042"}],"alternateNames":[{"alternatenameId":2089549,"geonameid":5165418,"isoLanguage":"en","alternateName":"Ohio","isPreferredName":true,"isShortName":true,"isColloquial":false,"isHistoric":false}]},"__N_SSG":true}