{"pageProps":{"locale":"en","admin2":{"geonameid":5163509,"name":"Morrow County","country":"US","admin1":"OH","admin2":"117","admin3":"","latitude":"40.5240900","longitude":"-82.7940700"},"admin1":{"geonameid":5165418,"name":"Ohio","admin1":"OH","localeAltName":"Ohio"},"locations":[{"geonameid":5149253,"name":"Cardington","admin3":"12098"},{"geonameid":5163631,"name":"Mount Gilead","admin3":"30128"}],"admin3":[{"geonameid":5147079,"name":"Township of Bennington","admin3":"05508"},{"geonameid":5149185,"name":"Township of Canaan","admin3":"11248"},{"geonameid":5149256,"name":"Township of Cardington","admin3":"12098"},{"geonameid":5149931,"name":"Township of Chester","admin3":"14030"},{"geonameid":5150991,"name":"Township of Congress","admin3":"18294"},{"geonameid":5155110,"name":"Township of Franklin","admin3":"28378"},{"geonameid":5155735,"name":"Township of Gilead","admin3":"30128"},{"geonameid":5156933,"name":"Township of Harmony","admin3":"33600"},{"geonameid":5160889,"name":"Township of Lincoln","admin3":"43680"},{"geonameid":5164679,"name":"Township of North Bloomfield","admin3":"56224"},{"geonameid":5166505,"name":"Township of Perry","admin3":"61980"},{"geonameid":5166548,"name":"Township of Peru","admin3":"62260"},{"geonameid":5172437,"name":"Township of South Bloomfield","admin3":"73061"},{"geonameid":5174391,"name":"Township of Troy","admin3":"77602"},{"geonameid":5175817,"name":"Township of Washington","admin3":"81508"},{"geonameid":5176499,"name":"Township of Westfield","admin3":"83454"}],"alternateNames":[{"alternatenameId":2089549,"geonameid":5165418,"isoLanguage":"en","alternateName":"Ohio","isPreferredName":true,"isShortName":true,"isColloquial":false,"isHistoric":false}]},"__N_SSG":true}