{"pageProps":{"locale":"en","admin2":{"geonameid":4519300,"name":"Muskingum County","country":"US","admin1":"OH","admin2":"119","admin3":"","latitude":"39.9654200","longitude":"-81.9443800"},"admin1":{"geonameid":5165418,"name":"Ohio","admin1":"OH","localeAltName":"Ohio"},"locations":[{"geonameid":5152291,"name":"Dresden","admin3":"38752"},{"geonameid":5155125,"name":"Frazeysburg","admin3":"37926"},{"geonameid":4519510,"name":"New Concord","admin3":"78498"},{"geonameid":4519923,"name":"North Zanesville","admin3":"26502"},{"geonameid":4521465,"name":"Pleasant Grove","admin3":"81522"},{"geonameid":4522898,"name":"Roseville","admin3":"15532"},{"geonameid":4525137,"name":"South Zanesville","admin3":"74125"},{"geonameid":4528923,"name":"Zanesville","admin3":"88084"}],"admin3":[{"geonameid":4506800,"name":"Township of Blue Rock","admin3":"07398"},{"geonameid":4507282,"name":"Township of Brush Creek","admin3":"09757"},{"geonameid":4508867,"name":"Township of Clay","admin3":"15532"},{"geonameid":4511489,"name":"Township of Falls","admin3":"26502"},{"geonameid":4513835,"name":"Township of Harrison","admin3":"33936"},{"geonameid":4514643,"name":"Township of Hopewell","admin3":"36372"},{"geonameid":4518048,"name":"Township of Meigs","admin3":"48916"},{"geonameid":4519756,"name":"Township of Newton","admin3":"55608"},{"geonameid":4521123,"name":"Township of Perry","admin3":"61994"},{"geonameid":4522434,"name":"Township of Rich Hill","admin3":"66600"},{"geonameid":4523819,"name":"Township of Salt Creek","admin3":"70170"},{"geonameid":4525345,"name":"Township of Springfield","admin3":"74125"},{"geonameid":4526900,"name":"Township of Union","admin3":"78498"},{"geonameid":4527707,"name":"Township of Washington","admin3":"81522"},{"geonameid":4527801,"name":"Township of Wayne","admin3":"82236"},{"geonameid":4528933,"name":"City of Zanesville","admin3":"88084"},{"geonameid":5145408,"name":"Township of Adams","admin3":"00310"},{"geonameid":5149381,"name":"Township of Cass","admin3":"12406"},{"geonameid":5157524,"name":"Township of Highland","admin3":"35238"},{"geonameid":5159009,"name":"Township of Jackson","admin3":"37926"},{"geonameid":5159131,"name":"Township of Jefferson","admin3":"38752"},{"geonameid":5160754,"name":"Township of Licking","admin3":"43470"},{"geonameid":5161604,"name":"Township of Madison","admin3":"46536"},{"geonameid":5163342,"name":"Township of Monroe","admin3":"51506"},{"geonameid":5164009,"name":"Township of Muskingum","admin3":"53438"},{"geonameid":5170600,"name":"Township of Salem","admin3":"69932"}],"alternateNames":[{"alternatenameId":2089549,"geonameid":5165418,"isoLanguage":"en","alternateName":"Ohio","isPreferredName":true,"isShortName":true,"isColloquial":false,"isHistoric":false}]},"__N_SSG":true}