{"pageProps":{"locale":"en","admin2":{"geonameid":5173386,"name":"Summit County","country":"US","admin1":"OH","admin2":"153","admin3":"","latitude":"41.1259800","longitude":"-81.5321700"},"admin1":{"geonameid":5165418,"name":"Ohio","admin1":"OH","localeAltName":"Ohio"},"locations":[{"geonameid":5145476,"name":"Akron","admin3":"01000"},{"geonameid":5146491,"name":"Barberton","admin3":"03828"},{"geonameid":5147904,"name":"Boston Heights","admin3":"07790"},{"geonameid":5150600,"name":"Clinton","admin3":"16182"},{"geonameid":5151117,"name":"Copley","admin3":"18658"},{"geonameid":5151613,"name":"Cuyahoga Falls","admin3":"19778"},{"geonameid":5153592,"name":"Fairlawn","admin3":"26166"},{"geonameid":5156371,"name":"Green","admin3":""},{"geonameid":5156478,"name":"Greensburg","admin3":""},{"geonameid":5158164,"name":"Hudson","admin3":""},{"geonameid":5160260,"name":"Lakemore","admin3":"41454"},{"geonameid":5161539,"name":"Macedonia","admin3":"45976"},{"geonameid":5161693,"name":"Manchester","admin3":"54562"},{"geonameid":5163244,"name":"Mogadore","admin3":"51058"},{"geonameid":7259400,"name":"Montrose-Ghent","admin3":"04248"},{"geonameid":5163968,"name":"Munroe Falls","admin3":"53312"},{"geonameid":5164274,"name":"New Franklin","admin3":"54562"},{"geonameid":5164998,"name":"Northfield","admin3":"56448"},{"geonameid":5165087,"name":"Norton","admin3":"57260"},{"geonameid":5167293,"name":"Portage Lakes","admin3":"19036"},{"geonameid":5167903,"name":"Reminderville","admin3":"66152"},{"geonameid":5168025,"name":"Richfield","admin3":"66544"},{"geonameid":5170795,"name":"Sawyerwood","admin3":"74130"},{"geonameid":5172120,"name":"Silver Lake","admin3":"72494"},{"geonameid":5173171,"name":"Stow","admin3":"74944"},{"geonameid":5173623,"name":"Tallmadge","admin3":"76106"},{"geonameid":5174550,"name":"Twinsburg","admin3":"78050"}],"admin3":[{"geonameid":5145502,"name":"City of Akron","admin3":"01000"},{"geonameid":5146508,"name":"City of Barberton","admin3":"03828"},{"geonameid":5146620,"name":"Township of Bath","admin3":"04248"},{"geonameid":5147905,"name":"Village of Boston Heights","admin3":"07790"},{"geonameid":5147913,"name":"Township of Boston","admin3":"07776"},{"geonameid":5150620,"name":"Village of Clinton","admin3":"16182"},{"geonameid":5151124,"name":"Township of Copley","admin3":"18658"},{"geonameid":5151276,"name":"Township of Coventry","admin3":"19036"},{"geonameid":5151621,"name":"City of Cuyahoga Falls","admin3":"19778"},{"geonameid":5160268,"name":"Village of Lakemore","admin3":"41454"},{"geonameid":5161545,"name":"City of Macedonia","admin3":"45976"},{"geonameid":5163249,"name":"Village of Mogadore","admin3":"51058"},{"geonameid":5163971,"name":"City of Munroe Falls","admin3":"53312"},{"geonameid":5165001,"name":"Township of Northfield Center","admin3":"56490"},{"geonameid":5165007,"name":"Village of Northfield","admin3":"56448"},{"geonameid":5165104,"name":"City of Norton","admin3":"57260"},{"geonameid":5167905,"name":"Village of Reminderville","admin3":"66152"},{"geonameid":5168035,"name":"Township of Richfield","admin3":"66544"},{"geonameid":5168920,"name":"Township of Sagamore Hills","admin3":"69428"},{"geonameid":5172123,"name":"Village of Silver Lake","admin3":"72494"},{"geonameid":5172840,"name":"Township of Springfield","admin3":"74130"},{"geonameid":5173174,"name":"City of Stow","admin3":"74944"},{"geonameid":5173631,"name":"City of Tallmadge","admin3":"76106"},{"geonameid":5174559,"name":"City of Twinsburg","admin3":"78050"},{"geonameid":5174560,"name":"Township of Twinsburg","admin3":"78064"},{"geonameid":7163809,"name":"City of New Franklin","admin3":"54562"},{"geonameid":7316951,"name":"City of Fairlawn","admin3":"26166"}],"alternateNames":[{"alternatenameId":2089549,"geonameid":5165418,"isoLanguage":"en","alternateName":"Ohio","isPreferredName":true,"isShortName":true,"isColloquial":false,"isHistoric":false}]},"__N_SSG":true}