{"pageProps":{"locale":"en","admin2":{"geonameid":3333235,"name":"South Ayrshire","country":"GB","admin1":"SCT","admin2":"W4","admin3":"","latitude":"55.2500000","longitude":"-4.6666700"},"admin1":{"geonameid":2638360,"name":"Scotland","admin1":"SCT"},"locations":[{"geonameid":8063580,"name":"Alloway","admin3":""},{"geonameid":2657406,"name":"Alton Albany","admin3":""},{"geonameid":2657287,"name":"Annbank","admin3":""},{"geonameid":2656708,"name":"Ayr","admin3":""},{"geonameid":2656572,"name":"Balkissock","admin3":""},{"geonameid":2656567,"name":"Ballantrae","admin3":""},{"geonameid":2656371,"name":"Barassie","admin3":""},{"geonameid":2656342,"name":"Bargany","admin3":""},{"geonameid":2656269,"name":"Barr","admin3":""},{"geonameid":2656257,"name":"Barrhill","admin3":""},{"geonameid":2652549,"name":"Colmonell","admin3":""},{"geonameid":2652176,"name":"Coylton","admin3":""},{"geonameid":2652135,"name":"Craigie","admin3":""},{"geonameid":2651871,"name":"Crosshill","admin3":""},{"geonameid":2641657,"name":"Dailly","admin3":""},{"geonameid":2651588,"name":"Daljarrock","admin3":""},{"geonameid":2651061,"name":"Doularg","admin3":""},{"geonameid":2650748,"name":"Dundonald","admin3":""},{"geonameid":2650644,"name":"Dunure","admin3":""},{"geonameid":2648626,"name":"Girvan","admin3":""},{"geonameid":11592167,"name":"Hillhead","admin3":""},{"geonameid":2645656,"name":"Kilkerran","admin3":""},{"geonameid":2645245,"name":"Kirkmichael","admin3":""},{"geonameid":2645236,"name":"Kirkoswald","admin3":""},{"geonameid":2644625,"name":"Lendalfoot","admin3":""},{"geonameid":2643861,"name":"Loans","admin3":""},{"geonameid":2643183,"name":"Maidens","admin3":""},{"geonameid":2642882,"name":"Maybole","admin3":""},{"geonameid":2642318,"name":"Monkton","admin3":""},{"geonameid":11592195,"name":"Mossblown","admin3":""},{"geonameid":11550893,"name":"New Prestwick","admin3":""},{"geonameid":2640276,"name":"Pinmore","admin3":""},{"geonameid":9409851,"name":"Pinwherry","admin3":""},{"geonameid":2639896,"name":"Prestwick","admin3":""},{"geonameid":2639526,"name":"Redrea","admin3":""},{"geonameid":2639051,"name":"Rowantree","admin3":""},{"geonameid":2636729,"name":"Straiton","admin3":""},{"geonameid":2636350,"name":"Symington","admin3":""},{"geonameid":2636231,"name":"Tarbolton","admin3":""},{"geonameid":2635442,"name":"Troon","admin3":""},{"geonameid":2635342,"name":"Turnberry","admin3":""},{"geonameid":2634680,"name":"Waterside","admin3":""},{"geonameid":11550890,"name":"Whitletts","admin3":""}],"admin3":[{"geonameid":2656700,"name":"Ayrshire","admin3":"2656700"}],"alternateNames":[]},"__N_SSG":true}