{"pageProps":{"locale":"en","admin2":{"geonameid":4144895,"name":"Sussex County","country":"US","admin1":"DE","admin2":"005","admin3":"","latitude":"38.6833000","longitude":"-75.3395400","localeAltName":null},"admin1":{"geonameid":4142224,"name":"Delaware","admin1":"DE","localeAltName":"Delaware"},"locations":[{"geonameid":4141435,"name":"Bethany Beach","admin3":"","localeAltName":null},{"geonameid":4141541,"name":"Blades","admin3":"","localeAltName":null},{"geonameid":4141632,"name":"Bridgeville","admin3":"","localeAltName":null},{"geonameid":4142137,"name":"Dagsboro","admin3":"","localeAltName":null},{"geonameid":4142226,"name":"Delmar","admin3":"","localeAltName":null},{"geonameid":4142601,"name":"Frankford","admin3":"","localeAltName":null},{"geonameid":4142643,"name":"Georgetown","admin3":"","localeAltName":null},{"geonameid":4142770,"name":"Greenwood","admin3":"","localeAltName":null},{"geonameid":4143319,"name":"Laurel","admin3":"","localeAltName":null},{"geonameid":4143354,"name":"Lewes","admin3":"","localeAltName":null},{"geonameid":4143459,"name":"Long Neck","admin3":"","localeAltName":null},{"geonameid":4143658,"name":"Milford","admin3":"","localeAltName":null},{"geonameid":4143690,"name":"Millsboro","admin3":"","localeAltName":null},{"geonameid":4143696,"name":"Millville","admin3":"","localeAltName":null},{"geonameid":4143698,"name":"Milton","admin3":"","localeAltName":null},{"geonameid":4047734,"name":"Ocean View","admin3":"","localeAltName":null},{"geonameid":4144284,"name":"Rehoboth Beach","admin3":"","localeAltName":null},{"geonameid":4144600,"name":"Seaford","admin3":"","localeAltName":null},{"geonameid":4144620,"name":"Selbyville","admin3":"","localeAltName":null}],"admin3":[{"geonameid":7161317,"name":"Town of Dewey Beach","admin3":"7161317"},{"geonameid":7161337,"name":"Town of Ellendale","admin3":"7161337"},{"geonameid":7161349,"name":"Town of Fenwick Island","admin3":"7161349"},{"geonameid":7161356,"name":"Town of Frankford","admin3":"7161356"},{"geonameid":7161367,"name":"Town of Georgetown","admin3":"7161367"},{"geonameid":7161381,"name":"Town of Greenwood","admin3":"7161381"},{"geonameid":7161402,"name":"Town of Henlopen Acres","admin3":"7161402"},{"geonameid":7161439,"name":"City of Lewes","admin3":"7161439"},{"geonameid":7161443,"name":"City of Milford","admin3":"7161443"},{"geonameid":7161456,"name":"City of Rehoboth Beach","admin3":"7161456"},{"geonameid":7161461,"name":"City of Seaford","admin3":"7161461"},{"geonameid":7161516,"name":"Town of Bethany Beach","admin3":"7161516"},{"geonameid":7161517,"name":"Town of Bethel","admin3":"7161517"},{"geonameid":7161524,"name":"Town of Blades","admin3":"7161524"},{"geonameid":7161539,"name":"Town of Bridgeville","admin3":"7161539"},{"geonameid":7161598,"name":"Town of Dagsboro","admin3":"7161598"},{"geonameid":7161605,"name":"Town of Delmar","admin3":"7161605"},{"geonameid":7161991,"name":"Town of Laurel","admin3":"7161991"},{"geonameid":7162030,"name":"Town of Millsboro","admin3":"7162030"},{"geonameid":7162031,"name":"Town of Millville","admin3":"7162031"},{"geonameid":7162032,"name":"Town of Milton","admin3":"7162032"},{"geonameid":7162065,"name":"Town of Ocean View","admin3":"7162065"},{"geonameid":7162123,"name":"Town of Selbyville","admin3":"7162123"},{"geonameid":7162127,"name":"Town of Slaughter Beach","admin3":"7162127"},{"geonameid":7162132,"name":"Town of South Bethany","admin3":"7162132"}],"alternateNames":[{"alternatenameId":1979725,"geonameid":4142224,"isoLanguage":"en","alternateName":"Delaware","isPreferredName":true,"isShortName":true,"isColloquial":false,"isHistoric":false}]},"__N_SSG":true}