{"pageProps":{"locale":"en","admin2":{"geonameid":4671673,"name":"Austin County","country":"US","admin1":"TX","admin2":"015","admin3":"","latitude":"29.8870200","longitude":"-96.2779100"},"admin1":{"geonameid":4736286,"name":"Texas","admin1":"TX","localeAltName":"Texas"},"locations":[{"geonameid":4673398,"name":"Bellville","admin3":""},{"geonameid":4727629,"name":"Sealy","admin3":""},{"geonameid":4829243,"name":"Wallis","admin3":""}],"admin3":[{"geonameid":7173057,"name":"City of Brazos Country","admin3":"7173057"},{"geonameid":7173142,"name":"City of Industry","admin3":"7173142"},{"geonameid":7174405,"name":"City of Sealy","admin3":"7174405"},{"geonameid":7174642,"name":"City of Wallis","admin3":"7174642"},{"geonameid":7175653,"name":"Town of San Felipe","admin3":"7175653"},{"geonameid":11788368,"name":"City of Bellville","admin3":"11788368"}],"alternateNames":[{"alternatenameId":1614423,"geonameid":4736286,"isoLanguage":"en","alternateName":"Texas","isPreferredName":true,"isShortName":true,"isColloquial":false,"isHistoric":false}]},"__N_SSG":true}