{"pageProps":{"locale":"en","admin2":{"geonameid":4676137,"name":"Brazoria County","country":"US","admin1":"TX","admin2":"039","admin3":"","latitude":"29.1678300","longitude":"-95.4342600"},"admin1":{"geonameid":4736286,"name":"Texas","admin1":"TX","localeAltName":"Texas"},"locations":[{"geonameid":4670592,"name":"Alvin","admin3":""},{"geonameid":4670866,"name":"Angleton","admin3":""},{"geonameid":4676131,"name":"Brazoria","admin3":""},{"geonameid":4676580,"name":"Brookside Village","admin3":""},{"geonameid":4682163,"name":"Clute","admin3":""},{"geonameid":4685160,"name":"Danbury","admin3":""},{"geonameid":4692355,"name":"Freeport","admin3":""},{"geonameid":4698241,"name":"Holiday Lakes","admin3":""},{"geonameid":4700120,"name":"Iowa Colony","admin3":""},{"geonameid":4701510,"name":"Jones Creek","admin3":""},{"geonameid":4704628,"name":"Lake Jackson","admin3":""},{"geonameid":4709027,"name":"Manvel","admin3":""},{"geonameid":4717084,"name":"Oyster Creek","admin3":""},{"geonameid":4718097,"name":"Pearland","admin3":""},{"geonameid":4722697,"name":"Richwood","admin3":""},{"geonameid":4723944,"name":"Rosharon","admin3":""},{"geonameid":4735190,"name":"Sweeny","admin3":""},{"geonameid":4740759,"name":"West Columbia","admin3":""},{"geonameid":4741838,"name":"Wild Peach Village","admin3":""}],"admin3":[{"geonameid":7172917,"name":"City of Alvin","admin3":"7172917"},{"geonameid":7172932,"name":"City of Angleton","admin3":"7172932"},{"geonameid":7173074,"name":"City of Brookside Village","admin3":"7173074"},{"geonameid":7173279,"name":"City of Danbury","admin3":"7173279"},{"geonameid":7173455,"name":"City of Freeport","admin3":"7173455"},{"geonameid":7173681,"name":"City of Liverpool","admin3":"7173681"},{"geonameid":7173747,"name":"City of Richwood","admin3":"7173747"},{"geonameid":7173804,"name":"City of Manvel","admin3":"7173804"},{"geonameid":7174036,"name":"City of Oyster Creek","admin3":"7174036"},{"geonameid":7174065,"name":"City of Pearland","admin3":"7174065"},{"geonameid":7174222,"name":"City of Lake Jackson","admin3":"7174222"},{"geonameid":7174531,"name":"City of Surfside Beach","admin3":"7174531"},{"geonameid":7174534,"name":"City of Sweeny","admin3":"7174534"},{"geonameid":7174678,"name":"City of West Columbia","admin3":"7174678"},{"geonameid":7174939,"name":"Town of Quintana","admin3":"7174939"},{"geonameid":7175177,"name":"Town of Holiday Lakes","admin3":"7175177"},{"geonameid":7175926,"name":"Village of Bailey's Prairie","admin3":"7175926"},{"geonameid":7175929,"name":"Village of Bonney","admin3":"7175929"},{"geonameid":7175953,"name":"Village of Hillcrest","admin3":"7175953"},{"geonameid":7175956,"name":"Village of Iowa Colony","admin3":"7175956"},{"geonameid":7175958,"name":"Village of Jones Creek","admin3":"7175958"},{"geonameid":11788389,"name":"City of Clute","admin3":"11788389"},{"geonameid":11788933,"name":"City of Sandy Point","admin3":"11788933"}],"alternateNames":[{"alternatenameId":1614423,"geonameid":4736286,"isoLanguage":"en","alternateName":"Texas","isPreferredName":true,"isShortName":true,"isColloquial":false,"isHistoric":false}]},"__N_SSG":true}