{"pageProps":{"locale":"en","admin2":{"geonameid":4680611,"name":"Cherokee County","country":"US","admin1":"TX","admin2":"073","admin3":"","latitude":"31.8369500","longitude":"-95.1651800"},"admin1":{"geonameid":4736286,"name":"Texas","admin1":"TX","localeAltName":"Texas"},"locations":[{"geonameid":4670527,"name":"Alto","admin3":""},{"geonameid":4700550,"name":"Jacksonville","admin3":""},{"geonameid":4714570,"name":"New Summerfield","admin3":""},{"geonameid":4724359,"name":"Rusk","admin3":""}],"admin3":[{"geonameid":7173159,"name":"City of Jacksonville","admin3":"7173159"},{"geonameid":7173470,"name":"City of Gallatin","admin3":"7173470"},{"geonameid":7173949,"name":"City of New Summerfield","admin3":"7173949"},{"geonameid":7174780,"name":"Town of Alto","admin3":"7174780"},{"geonameid":7174819,"name":"Town of Cuney","admin3":"7174819"},{"geonameid":7175864,"name":"Town of Wells","admin3":"7175864"}],"alternateNames":[{"alternatenameId":1614423,"geonameid":4736286,"isoLanguage":"en","alternateName":"Texas","isPreferredName":true,"isShortName":true,"isColloquial":false,"isHistoric":false}]},"__N_SSG":true}