{"pageProps":{"locale":"en","admin2":{"geonameid":4691851,"name":"Fort Bend County","country":"US","admin1":"TX","admin2":"157","admin3":"","latitude":"29.5274900","longitude":"-95.7708900"},"admin1":{"geonameid":4736286,"name":"Texas","admin1":"TX","localeAltName":"Texas"},"locations":[{"geonameid":4671193,"name":"Arcola","admin3":""},{"geonameid":4681485,"name":"Cinco Ranch","admin3":""},{"geonameid":4689831,"name":"Fairchilds","admin3":""},{"geonameid":4690506,"name":"Fifth Street","admin3":""},{"geonameid":4692051,"name":"Four Corners","admin3":""},{"geonameid":4692400,"name":"Fresno","admin3":""},{"geonameid":4692658,"name":"Fulshear","admin3":""},{"geonameid":4694896,"name":"Greatwood","admin3":""},{"geonameid":4710433,"name":"Meadows Place","admin3":""},{"geonameid":4711729,"name":"Mission Bend","admin3":""},{"geonameid":4711801,"name":"Missouri City","admin3":""},{"geonameid":4713946,"name":"Needville","admin3":""},{"geonameid":4714582,"name":"New Territory","admin3":""},{"geonameid":4718209,"name":"Pecan Grove","admin3":""},{"geonameid":4719481,"name":"Pleak","admin3":""},{"geonameid":4722684,"name":"Richmond","admin3":""},{"geonameid":4723914,"name":"Rosenberg","admin3":""},{"geonameid":4728608,"name":"Sienna Plantation","admin3":""},{"geonameid":4734005,"name":"Stafford","admin3":""},{"geonameid":4734825,"name":"Sugar Land","admin3":""},{"geonameid":7238057,"name":"Weston Lakes","admin3":""}],"admin3":[{"geonameid":7172944,"name":"City of Arcola","admin3":"7172944"},{"geonameid":7172994,"name":"City of Beasley","admin3":"7172994"},{"geonameid":7173197,"name":"City of Kendleton","admin3":"7173197"},{"geonameid":7173466,"name":"City of Fulshear","admin3":"7173466"},{"geonameid":7173787,"name":"City of Rosenberg","admin3":"7173787"},{"geonameid":7173834,"name":"City of Meadows Place","admin3":"7173834"},{"geonameid":7173937,"name":"City of Needville","admin3":"7173937"},{"geonameid":7174023,"name":"City of Orchard","admin3":"7174023"},{"geonameid":7174447,"name":"City of Simonton","admin3":"7174447"},{"geonameid":7174490,"name":"City of Stafford","admin3":"7174490"},{"geonameid":7174513,"name":"City of Sugar Land","admin3":"7174513"},{"geonameid":7175784,"name":"Town of Thompsons","admin3":"7175784"},{"geonameid":7175945,"name":"Village of Fairchilds","admin3":"7175945"},{"geonameid":7175973,"name":"Village of Pleak","admin3":"7175973"},{"geonameid":7238056,"name":"City of Weston Lakes","admin3":"7238056"},{"geonameid":11788302,"name":"City of Richmond","admin3":"11788302"},{"geonameid":11788905,"name":"City of Missouri City","admin3":"11788905"}],"alternateNames":[{"alternatenameId":1614423,"geonameid":4736286,"isoLanguage":"en","alternateName":"Texas","isPreferredName":true,"isShortName":true,"isColloquial":false,"isHistoric":false}]},"__N_SSG":true}