{"pageProps":{"locale":"en","admin2":{"geonameid":4700821,"name":"Jefferson County","country":"US","admin1":"TX","admin2":"245","admin3":"","latitude":"29.8537300","longitude":"-94.1534400"},"admin1":{"geonameid":4736286,"name":"Texas","admin1":"TX","localeAltName":"Texas"},"locations":[{"geonameid":4672989,"name":"Beaumont","admin3":""},{"geonameid":4674015,"name":"Bevil Oaks","admin3":""},{"geonameid":4680165,"name":"Central Gardens","admin3":""},{"geonameid":4680774,"name":"China","admin3":""},{"geonameid":4690136,"name":"Fannett","admin3":""},{"geonameid":4695317,"name":"Groves","admin3":""},{"geonameid":4713932,"name":"Nederland","admin3":""},{"geonameid":4720039,"name":"Port Arthur","admin3":""},{"geonameid":4720072,"name":"Port Neches","admin3":""}],"admin3":[{"geonameid":7172850,"name":"City of China","admin3":"7172850"},{"geonameid":7172995,"name":"City of Beaumont","admin3":"7172995"},{"geonameid":7173018,"name":"City of Bevil Oaks","admin3":"7173018"},{"geonameid":7173935,"name":"City of Nederland","admin3":"7173935"},{"geonameid":7173974,"name":"City of Nome","admin3":"7173974"},{"geonameid":7174113,"name":"City of Port Arthur","admin3":"7174113"},{"geonameid":7174116,"name":"City of Port Neches","admin3":"7174116"},{"geonameid":7174546,"name":"City of Taylor Landing","admin3":"7174546"},{"geonameid":11788373,"name":"City of Groves","admin3":"11788373"}],"alternateNames":[{"alternatenameId":1614423,"geonameid":4736286,"isoLanguage":"en","alternateName":"Texas","isPreferredName":true,"isShortName":true,"isColloquial":false,"isHistoric":false}]},"__N_SSG":true}