{"pageProps":{"locale":"en","admin2":{"geonameid":4701348,"name":"Johnson County","country":"US","admin1":"TX","admin2":"251","admin3":"","latitude":"32.3790100","longitude":"-97.3663300"},"admin1":{"geonameid":4736286,"name":"Texas","admin1":"TX","localeAltName":"Texas"},"locations":[{"geonameid":4670582,"name":"Alvarado","admin3":""},{"geonameid":4677551,"name":"Burleson","admin3":""},{"geonameid":4681976,"name":"Cleburne","admin3":""},{"geonameid":4693832,"name":"Godley","admin3":""},{"geonameid":4694503,"name":"Grandview","admin3":""},{"geonameid":4701659,"name":"Joshua","admin3":""},{"geonameid":4702785,"name":"Keene","admin3":""},{"geonameid":4739052,"name":"Venus","admin3":""}],"admin3":[{"geonameid":7172870,"name":"City of Cleburne","admin3":"7172870"},{"geonameid":7172916,"name":"City of Alvarado","admin3":"7172916"},{"geonameid":7173063,"name":"City of Briaroaks","admin3":"7173063"},{"geonameid":7173094,"name":"City of Burleson","admin3":"7173094"},{"geonameid":7173178,"name":"City of Joshua","admin3":"7173178"},{"geonameid":7173189,"name":"City of Keene","admin3":"7173189"},{"geonameid":7173259,"name":"City of Cresson","admin3":"7173259"},{"geonameid":7173503,"name":"City of Godley","admin3":"7173503"},{"geonameid":7173528,"name":"City of Grandview","admin3":"7173528"},{"geonameid":7173758,"name":"City of Rio Vista","admin3":"7173758"},{"geonameid":7174815,"name":"Town of Cross Timber","admin3":"7174815"},{"geonameid":7175825,"name":"Town of Venus","admin3":"7175825"},{"geonameid":11788404,"name":"City of Coyote Flats","admin3":"11788404"}],"alternateNames":[{"alternatenameId":1614423,"geonameid":4736286,"isoLanguage":"en","alternateName":"Texas","isPreferredName":true,"isShortName":true,"isColloquial":false,"isHistoric":false}]},"__N_SSG":true}