{"pageProps":{"locale":"en","admin2":{"geonameid":4705086,"name":"Lamar County","country":"US","admin1":"TX","admin2":"277","admin3":"","latitude":"33.6672600","longitude":"-95.5712000"},"admin1":{"geonameid":4736286,"name":"Texas","admin1":"TX","localeAltName":"Texas"},"locations":[{"geonameid":4675059,"name":"Blossom","admin3":""},{"geonameid":4707478,"name":"Lone Star","admin3":""},{"geonameid":4717560,"name":"Paris","admin3":""},{"geonameid":4720327,"name":"Powderly","admin3":""},{"geonameid":4722241,"name":"Reno","admin3":""}],"admin3":[{"geonameid":7173036,"name":"City of Blossom","admin3":"7173036"},{"geonameid":7173302,"name":"City of Deport","admin3":"7173302"},{"geonameid":7173735,"name":"City of Reno","admin3":"7173735"},{"geonameid":7173794,"name":"City of Roxton","admin3":"7173794"},{"geonameid":7174050,"name":"City of Paris","admin3":"7174050"},{"geonameid":7174521,"name":"City of Sun Valley","admin3":"7174521"},{"geonameid":7174573,"name":"City of Toco","admin3":"7174573"}],"alternateNames":[{"alternatenameId":1614423,"geonameid":4736286,"isoLanguage":"en","alternateName":"Texas","isPreferredName":true,"isShortName":true,"isColloquial":false,"isHistoric":false}]},"__N_SSG":true}