{"pageProps":{"locale":"en","admin2":{"geonameid":4710490,"name":"Medina County","country":"US","admin1":"TX","admin2":"325","admin3":"","latitude":"29.3557000","longitude":"-99.1101300"},"admin1":{"geonameid":4736286,"name":"Texas","admin1":"TX","localeAltName":"Texas"},"locations":[{"geonameid":4679459,"name":"Castroville","admin3":""},{"geonameid":4829208,"name":"Devine","admin3":""},{"geonameid":4698562,"name":"Hondo","admin3":""},{"geonameid":4703925,"name":"La Coste","admin3":""},{"geonameid":4046430,"name":"Natalia","admin3":""}],"admin3":[{"geonameid":7172819,"name":"City of Castroville","admin3":"7172819"},{"geonameid":7173932,"name":"City of Natalia","admin3":"7173932"},{"geonameid":7174210,"name":"City of LaCoste","admin3":"7174210"},{"geonameid":11788537,"name":"City of Hondo","admin3":"11788537"},{"geonameid":11788856,"name":"City of Devine","admin3":"11788856"}],"alternateNames":[{"alternatenameId":1614423,"geonameid":4736286,"isoLanguage":"en","alternateName":"Texas","isPreferredName":true,"isShortName":true,"isColloquial":false,"isHistoric":false}]},"__N_SSG":true}