{"pageProps":{"locale":"en","admin2":{"geonameid":4712041,"name":"Montgomery County","country":"US","admin1":"TX","admin2":"339","admin3":"","latitude":"30.3002100","longitude":"-95.5030100"},"admin1":{"geonameid":4736286,"name":"Texas","admin1":"TX","localeAltName":"Texas"},"locations":[{"geonameid":4682991,"name":"Conroe","admin3":""},{"geonameid":4684698,"name":"Cut and Shoot","admin3":""},{"geonameid":4708747,"name":"Magnolia","admin3":""},{"geonameid":4715944,"name":"Oak Ridge North","admin3":""},{"geonameid":4717446,"name":"Panorama Village","admin3":""},{"geonameid":4717929,"name":"Patton Village","admin3":""},{"geonameid":4719246,"name":"Pinehurst","admin3":""},{"geonameid":4720105,"name":"Porter Heights","admin3":""},{"geonameid":4723755,"name":"Roman Forest","admin3":""},{"geonameid":4728287,"name":"Shenandoah","admin3":""},{"geonameid":4733593,"name":"Splendora","admin3":""},{"geonameid":4736476,"name":"The Woodlands","admin3":""},{"geonameid":4742170,"name":"Willis","admin3":""},{"geonameid":4742897,"name":"Woodbranch","admin3":""}],"admin3":[{"geonameid":7173224,"name":"City of Conroe","admin3":"7173224"},{"geonameid":7173725,"name":"City of Magnolia","admin3":"7173725"},{"geonameid":7173885,"name":"City of Montgomery","admin3":"7173885"},{"geonameid":7173994,"name":"City of Oak Ridge North","admin3":"7173994"},{"geonameid":7174047,"name":"City of Panorama Village","admin3":"7174047"},{"geonameid":7174059,"name":"City of Patton Village","admin3":"7174059"},{"geonameid":7174431,"name":"City of Shenandoah","admin3":"7174431"},{"geonameid":7174483,"name":"City of Splendora","admin3":"7174483"},{"geonameid":7174710,"name":"City of Willis","admin3":"7174710"},{"geonameid":7174729,"name":"City of Woodbranch","admin3":"7174729"},{"geonameid":7174822,"name":"City of Cut and Shoot","admin3":"7174822"},{"geonameid":7174991,"name":"Town of Roman Forest","admin3":"7174991"},{"geonameid":7175727,"name":"Town of Stagecoach","admin3":"7175727"},{"geonameid":7175902,"name":"Town of Woodloch","admin3":"7175902"}],"alternateNames":[{"alternatenameId":1614423,"geonameid":4736286,"isoLanguage":"en","alternateName":"Texas","isPreferredName":true,"isShortName":true,"isColloquial":false,"isHistoric":false}]},"__N_SSG":true}