{"pageProps":{"locale":"de","admin2":{"geonameid":6458835,"name":"Val-de-Travers District","country":"CH","admin1":"NE","admin2":"2406","admin3":"","latitude":"46.9035700","longitude":"6.5631000"},"admin1":{"geonameid":2659495,"name":"Neuchâtel","admin1":"NE"},"locations":[{"geonameid":2661301,"name":"Buttes","admin3":"6512"},{"geonameid":2661086,"name":"Couvet","admin3":"6512"},{"geonameid":2660758,"name":"Fleurier","admin3":"6512"},{"geonameid":2660071,"name":"La Côte-aux-Fées","admin3":"6504"},{"geonameid":2659940,"name":"Les Bayards","admin3":"6512"},{"geonameid":2659912,"name":"Les Verrières","admin3":"6511"},{"geonameid":2659572,"name":"Môtiers","admin3":"6512"},{"geonameid":2659442,"name":"Noiraigue","admin3":"6512"},{"geonameid":2658859,"name":"Saint-Sulpice","admin3":"6512"},{"geonameid":2658328,"name":"Travers","admin3":"6512"}],"admin3":[{"geonameid":7286245,"name":"La Côte-aux-Fées","admin3":"6504"},{"geonameid":7286336,"name":"Les Verrières","admin3":"6511"},{"geonameid":7287406,"name":"Val-de-Travers","admin3":"6512"}],"alternateNames":[]},"__N_SSG":true}