{"pageProps":{"locale":"en","admin2":{"geonameid":2634723,"name":"Warwickshire","country":"GB","admin1":"ENG","admin2":"P3","admin3":"","latitude":"52.3333300","longitude":"-1.5833300","localeAltName":"Warwickshire"},"admin1":{"geonameid":6269131,"name":"England","admin1":"ENG","localeAltName":"England"},"locations":[{"geonameid":9072589,"name":"Abbot's Salford","admin3":"44UE","localeAltName":null},{"geonameid":2657665,"name":"Admington","admin3":"44UE","localeAltName":null},{"geonameid":2657566,"name":"Alcester","admin3":"44UE","localeAltName":null},{"geonameid":2657542,"name":"Alderminster","admin3":"44UE","localeAltName":null},{"geonameid":2657387,"name":"Alveston","admin3":"44UE","localeAltName":null},{"geonameid":11593082,"name":"Ansley","admin3":"44UB","localeAltName":null},{"geonameid":2657264,"name":"Ansty","admin3":"44UD","localeAltName":null},{"geonameid":2657072,"name":"Arley","admin3":"44UB","localeAltName":null},{"geonameid":8224905,"name":"Armscote","admin3":"44UE","localeAltName":null},{"geonameid":6620346,"name":"Ashorne","admin3":"44UE","localeAltName":null},{"geonameid":2656929,"name":"Ashow","admin3":"44UF","localeAltName":null},{"geonameid":2656879,"name":"Astley","admin3":"44UB","localeAltName":null},{"geonameid":2656865,"name":"Aston Cantlow","admin3":"44UE","localeAltName":null},{"geonameid":2656848,"name":"Atherstone","admin3":"44UB","localeAltName":null},{"geonameid":2656837,"name":"Attleborough","admin3":"44UC","localeAltName":null},{"geonameid":2656763,"name":"Austrey","admin3":"44UB","localeAltName":null},{"geonameid":2656738,"name":"Avon Dassett","admin3":"44UE","localeAltName":null},{"geonameid":11593089,"name":"Baddesley Ensor","admin3":"44UB","localeAltName":null},{"geonameid":2656635,"name":"Baginton","admin3":"44UF","localeAltName":null},{"geonameid":2656363,"name":"Barcheston","admin3":"44UE","localeAltName":null},{"geonameid":2656348,"name":"Barford","admin3":"44UF","localeAltName":null},{"geonameid":2656219,"name":"Barton","admin3":"44UE","localeAltName":null},{"geonameid":2656142,"name":"Baxterley","admin3":"44UB","localeAltName":null},{"geonameid":2656089,"name":"Bearley","admin3":"44UE","localeAltName":null},{"geonameid":2656031,"name":"Bedworth","admin3":"44UC","localeAltName":null},{"geonameid":6640065,"name":"Bidford-on-avon","admin3":"44UE","localeAltName":null},{"geonameid":2655705,"name":"Bidford-on-Avon","admin3":"44UE","localeAltName":null},{"geonameid":2655670,"name":"Billesley","admin3":"44UE","localeAltName":null},{"geonameid":2655653,"name":"Bilton","admin3":"44UD","localeAltName":null},{"geonameid":9883984,"name":"Binley Woods","admin3":"44UD","localeAltName":null},{"geonameid":2655635,"name":"Binton","admin3":"44UE","localeAltName":null},{"geonameid":2655621,"name":"Birdingbury","admin3":"44UD","localeAltName":null},{"geonameid":2655565,"name":"Bishops Itchington","admin3":"44UE","localeAltName":null},{"geonameid":2655560,"name":"Bishops Tachbrook","admin3":"44UF","localeAltName":null},{"geonameid":6693202,"name":"Bodymoor Heath","admin3":"44UB","localeAltName":null},{"geonameid":2655089,"name":"Bourton on Dunsmore","admin3":"44UD","localeAltName":null},{"geonameid":2654897,"name":"Brandon","admin3":"44UD","localeAltName":null},{"geonameid":2654683,"name":"Brinklow","admin3":"44UD","localeAltName":null},{"geonameid":2654625,"name":"Broadwell","admin3":"44UD","localeAltName":null},{"geonameid":2654557,"name":"Broom","admin3":"44UE","localeAltName":null},{"geonameid":2654431,"name":"Bubbenhall","admin3":"44UF","localeAltName":null},{"geonameid":2654355,"name":"Bulkington","admin3":"44UC","localeAltName":null},{"geonameid":2654030,"name":"Caldecote","admin3":"44UB","localeAltName":null},{"geonameid":10377762,"name":"Camp Hill","admin3":"44UC","localeAltName":null},{"geonameid":10104828,"name":"Castle End","admin3":"44UF","localeAltName":null},{"geonameid":8593700,"name":"Cathiron","admin3":"44UD","localeAltName":null},{"geonameid":2653410,"name":"Chadshunt","admin3":"44UE","localeAltName":null},{"geonameid":8126014,"name":"Chapel End","admin3":"44UC","localeAltName":null},{"geonameid":2653338,"name":"Charlecote","admin3":"44UE","localeAltName":null},{"geonameid":2653251,"name":"Cherington","admin3":"44UE","localeAltName":null},{"geonameid":8126013,"name":"Church End","admin3":"44UB","localeAltName":null},{"geonameid":2653027,"name":"Churchover","admin3":"44UD","localeAltName":null},{"geonameid":2652920,"name":"Claverdon","admin3":"44UE","localeAltName":null},{"geonameid":2652830,"name":"Clifton upon Dunsmore","admin3":"44UD","localeAltName":null},{"geonameid":2652582,"name":"Coleshill","admin3":"44UB","localeAltName":null},{"geonameid":2652499,"name":"Combrook","admin3":"44UE","localeAltName":null},{"geonameid":2652480,"name":"Compton Verney","admin3":"44UE","localeAltName":null},{"geonameid":2652479,"name":"Compton Wynyates","admin3":"44UE","localeAltName":null},{"geonameid":2652365,"name":"Corley","admin3":"44UB","localeAltName":null},{"geonameid":2652296,"name":"Cosford","admin3":"44UD","localeAltName":null},{"geonameid":2652260,"name":"Coughton","admin3":"44UE","localeAltName":null},{"geonameid":6693491,"name":"Curdworth","admin3":"44UB","localeAltName":null},{"geonameid":11593170,"name":"Dordon","admin3":"44UB","localeAltName":null},{"geonameid":2650761,"name":"Dunchurch","admin3":"44UD","localeAltName":null},{"geonameid":10104836,"name":"Earlswood","admin3":"44UE","localeAltName":null},{"geonameid":2650301,"name":"Eattington","admin3":"44UE","localeAltName":null},{"geonameid":2649805,"name":"Exhall","admin3":"44UC","localeAltName":null},{"geonameid":2649669,"name":"Farnborough","admin3":"44UE","localeAltName":null},{"geonameid":2649553,"name":"Fenny Compton","admin3":"44UE","localeAltName":null},{"geonameid":2649454,"name":"Fillongley","admin3":"44UB","localeAltName":null},{"geonameid":7288003,"name":"Flecknoe","admin3":"44UD","localeAltName":null},{"geonameid":2649095,"name":"Frankton","admin3":"44UD","localeAltName":null},{"geonameid":2648759,"name":"Gaydon","admin3":"44UE","localeAltName":null},{"geonameid":2648223,"name":"Grandborough","admin3":"44UD","localeAltName":null},{"geonameid":2648177,"name":"Great Alne","admin3":"44UE","localeAltName":null},{"geonameid":2648041,"name":"Great Packington","admin3":"44UB","localeAltName":null},{"geonameid":2633699,"name":"Great Wolford","admin3":"44UE","localeAltName":null},{"geonameid":2647923,"name":"Grendon","admin3":"44UB","localeAltName":null},{"geonameid":10377761,"name":"Guys Cliffe","admin3":"44UF","localeAltName":null},{"geonameid":2647636,"name":"Halford","admin3":"44UE","localeAltName":null},{"geonameid":2647545,"name":"Hampton Lucy","admin3":"44UE","localeAltName":null},{"geonameid":2647507,"name":"Harborough Magna","admin3":"44UD","localeAltName":null},{"geonameid":2647502,"name":"Harbury","admin3":"44UE","localeAltName":null},{"geonameid":2647391,"name":"Hartshill","admin3":"44UB","localeAltName":null},{"geonameid":6693238,"name":"Haseley","admin3":"44UF","localeAltName":null},{"geonameid":2647335,"name":"Hatton","admin3":"44UF","localeAltName":null},{"geonameid":2647102,"name":"Henley in Arden","admin3":"44UE","localeAltName":null},{"geonameid":10377760,"name":"Hill Wootton","admin3":"44UF","localeAltName":null},{"geonameid":2646892,"name":"Hillmorton","admin3":"44UD","localeAltName":null},{"geonameid":2646665,"name":"Honiley","admin3":"44UF","localeAltName":null},{"geonameid":2646662,"name":"Honington","admin3":"44UE","localeAltName":null},{"geonameid":2646368,"name":"Hurley","admin3":"44UB","localeAltName":null},{"geonameid":2646266,"name":"Ilmington","admin3":"44UE","localeAltName":null},{"geonameid":2645822,"name":"Kenilworth","admin3":"44UF","localeAltName":null},{"geonameid":2645510,"name":"Kineton","admin3":"44UE","localeAltName":null},{"geonameid":2645483,"name":"Kingsbury","admin3":"44UB","localeAltName":null},{"geonameid":2645416,"name":"Kingswood","admin3":"44UF","localeAltName":null},{"geonameid":11125867,"name":"Kites Hardwick","admin3":"44UD","localeAltName":null},{"geonameid":2645070,"name":"Ladbroke","admin3":"44UE","localeAltName":null},{"geonameid":2644922,"name":"Langley","admin3":"44UE","localeAltName":null},{"geonameid":2644868,"name":"Lapworth","admin3":"44UF","localeAltName":null},{"geonameid":6947755,"name":"Lark Stoke","admin3":"44UE","localeAltName":null},{"geonameid":2644738,"name":"Lea Marston","admin3":"44UB","localeAltName":null},{"geonameid":2644683,"name":"Leek Wootton","admin3":"44UF","localeAltName":null},{"geonameid":2644513,"name":"Lighthorne","admin3":"44UE","localeAltName":null},{"geonameid":2644504,"name":"Lillington","admin3":"44UF","localeAltName":null},{"geonameid":2644346,"name":"Little Compton","admin3":"44UE","localeAltName":null},{"geonameid":2644272,"name":"Little Packington","admin3":"44UB","localeAltName":null},{"geonameid":2643711,"name":"Long Compton","admin3":"44UE","localeAltName":null},{"geonameid":2643674,"name":"Long Itchington","admin3":"44UE","localeAltName":null},{"geonameid":2643673,"name":"Long Lawford","admin3":"44UD","localeAltName":null},{"geonameid":2643665,"name":"Long Marston","admin3":"44UE","localeAltName":null},{"geonameid":2643534,"name":"Lower Brailes","admin3":"44UE","localeAltName":null},{"geonameid":2643502,"name":"Lower Shuckburgh","admin3":"44UE","localeAltName":null},{"geonameid":2643464,"name":"Loxley","admin3":"44UE","localeAltName":null},{"geonameid":2643124,"name":"Mancetter","admin3":"44UB","localeAltName":null},{"geonameid":2642946,"name":"Marton","admin3":"44UD","localeAltName":null},{"geonameid":2642890,"name":"Maxstoke","admin3":"44UB","localeAltName":null},{"geonameid":2642576,"name":"Middle Tysoe","admin3":"44UE","localeAltName":null},{"geonameid":2642597,"name":"Middleton","admin3":"44UB","localeAltName":null},{"geonameid":2642426,"name":"Minworth","admin3":"","localeAltName":null},{"geonameid":2641888,"name":"Napton on the Hill","admin3":"44UE","localeAltName":null},{"geonameid":2641770,"name":"Nether Whitacre","admin3":"44UB","localeAltName":null},{"geonameid":2641714,"name":"New Bilton","admin3":"44UD","localeAltName":null},{"geonameid":2641712,"name":"Newbold on Avon","admin3":"44UD","localeAltName":null},{"geonameid":2641711,"name":"Newbold on Stour","admin3":"44UE","localeAltName":null},{"geonameid":2641535,"name":"Newton Regis","admin3":"44UB","localeAltName":null},{"geonameid":2641185,"name":"Norton Lindsey","admin3":"44UF","localeAltName":null},{"geonameid":2641157,"name":"Nuneaton","admin3":"44UC","localeAltName":null},{"geonameid":2641072,"name":"Offchurch","admin3":"44UF","localeAltName":null},{"geonameid":2641006,"name":"Old Milverton","admin3":"44UF","localeAltName":null},{"geonameid":2641035,"name":"Oldbury","admin3":"44UB","localeAltName":null},{"geonameid":2640760,"name":"Over Whitacre","admin3":"44UB","localeAltName":null},{"geonameid":2640725,"name":"Oxhill","admin3":"44UE","localeAltName":null},{"geonameid":2640695,"name":"Packwood","admin3":"44UF","localeAltName":null},{"geonameid":2640680,"name":"Pailton","admin3":"44UD","localeAltName":null},{"geonameid":2640173,"name":"Polesworth","admin3":"44UB","localeAltName":null},{"geonameid":2639910,"name":"Preston Bagot","admin3":"44UE","localeAltName":null},{"geonameid":2639886,"name":"Princethorpe","admin3":"44UD","localeAltName":null},{"geonameid":2639884,"name":"Priors Marston","admin3":"44UE","localeAltName":null},{"geonameid":2639763,"name":"Quinton","admin3":"44UE","localeAltName":null},{"geonameid":11592619,"name":"Radway","admin3":"44UE","localeAltName":null},{"geonameid":2639611,"name":"Ratley","admin3":"44UE","localeAltName":null},{"geonameid":6693712,"name":"Redhill","admin3":"44UE","localeAltName":null},{"geonameid":2639044,"name":"Rowington","admin3":"44UF","localeAltName":null},{"geonameid":2644737,"name":"Royal Leamington Spa","admin3":"44UF","localeAltName":"Royal Leamington Spa"},{"geonameid":2638978,"name":"Rugby","admin3":"44UD","localeAltName":null},{"geonameid":2638892,"name":"Ryton on Dunsmore","admin3":"44UD","localeAltName":null},{"geonameid":2638670,"name":"Salford Priors","admin3":"44UE","localeAltName":null},{"geonameid":11593385,"name":"Sambourne","admin3":"44UE","localeAltName":null},{"geonameid":2637975,"name":"Shilton","admin3":"44UD","localeAltName":null},{"geonameid":2637954,"name":"Shipston on Stour","admin3":"44UE","localeAltName":null},{"geonameid":2637904,"name":"Shottery","admin3":"44UE","localeAltName":null},{"geonameid":2637903,"name":"Shotteswell","admin3":"44UE","localeAltName":null},{"geonameid":2637892,"name":"Shrewley","admin3":"44UF","localeAltName":null},{"geonameid":2637876,"name":"Shustoke","admin3":"44UB","localeAltName":null},{"geonameid":2637874,"name":"Shuttington","admin3":"44UB","localeAltName":null},{"geonameid":2637575,"name":"Snitterfield","admin3":"44UE","localeAltName":null},{"geonameid":2637488,"name":"Southam","admin3":"44UE","localeAltName":null},{"geonameid":2636890,"name":"Stockingford","admin3":"44UC","localeAltName":null},{"geonameid":2636878,"name":"Stockton","admin3":"44UE","localeAltName":null},{"geonameid":2636809,"name":"Stoneleigh","admin3":"44UF","localeAltName":null},{"geonameid":6695672,"name":"Stratford","admin3":"44UE","localeAltName":null},{"geonameid":2636713,"name":"Stratford-upon-Avon","admin3":"44UE","localeAltName":null},{"geonameid":2636657,"name":"Stretton on Fosse","admin3":"44UE","localeAltName":null},{"geonameid":2636656,"name":"Stretton under Fosse","admin3":"44UD","localeAltName":null},{"geonameid":11592752,"name":"Stretton-on-Dunsmore","admin3":"44UD","localeAltName":null},{"geonameid":2636594,"name":"Studley","admin3":"44UE","localeAltName":null},{"geonameid":2636469,"name":"Sutton under Brailes","admin3":"44UE","localeAltName":null},{"geonameid":2636253,"name":"Tanworth","admin3":"44UE","localeAltName":null},{"geonameid":2636118,"name":"Temple Grafton","admin3":"44UE","localeAltName":null},{"geonameid":10104839,"name":"Terry's Green","admin3":"44UE","localeAltName":null},{"geonameid":2635897,"name":"Thurlaston","admin3":"44UD","localeAltName":null},{"geonameid":2635834,"name":"Tile Hill","admin3":"44UF","localeAltName":null},{"geonameid":2635229,"name":"Ufton","admin3":"44UE","localeAltName":null},{"geonameid":2635197,"name":"Ullenhall","admin3":"44UE","localeAltName":null},{"geonameid":2635142,"name":"Upper Brailes","admin3":"44UE","localeAltName":null},{"geonameid":2634850,"name":"Walsgrave on Sowe","admin3":"","localeAltName":null},{"geonameid":6620457,"name":"Walton","admin3":"44UE","localeAltName":null},{"geonameid":2634757,"name":"Warmington","admin3":"44UE","localeAltName":null},{"geonameid":2634725,"name":"Warwick","admin3":"44UF","localeAltName":null},{"geonameid":2634710,"name":"Wasperton","admin3":"44UF","localeAltName":null},{"geonameid":2634682,"name":"Water Orton","admin3":"44UB","localeAltName":null},{"geonameid":2634604,"name":"Weethley","admin3":"44UE","localeAltName":null},{"geonameid":11593067,"name":"Welford-on-Avon","admin3":"44UE","localeAltName":null},{"geonameid":2634582,"name":"Wellesbourne","admin3":"44UE","localeAltName":null},{"geonameid":2634581,"name":"Wellesbourne Mountford","admin3":"44UE","localeAltName":null},{"geonameid":2634314,"name":"Weston on Avon","admin3":"44UE","localeAltName":null},{"geonameid":2634179,"name":"Whatcote","admin3":"44UE","localeAltName":null},{"geonameid":2634131,"name":"Whitchurch","admin3":"44UE","localeAltName":null},{"geonameid":2634026,"name":"Whitnash","admin3":"44UF","localeAltName":null},{"geonameid":2633905,"name":"Willey","admin3":"44UD","localeAltName":null},{"geonameid":2633893,"name":"Willoughby","admin3":"44UD","localeAltName":null},{"geonameid":2633887,"name":"Wilmcote","admin3":"44UE","localeAltName":null},{"geonameid":11054843,"name":"Winderton","admin3":"44UE","localeAltName":null},{"geonameid":2633766,"name":"Wishaw","admin3":"44UB","localeAltName":null},{"geonameid":2633735,"name":"Withybrook","admin3":"44UD","localeAltName":null},{"geonameid":2633714,"name":"Wixford","admin3":"44UE","localeAltName":null},{"geonameid":2633700,"name":"Wolfhamcote","admin3":"44UD","localeAltName":null},{"geonameid":2633692,"name":"Wolston","admin3":"44UD","localeAltName":null},{"geonameid":2633687,"name":"Wolverton","admin3":"44UE","localeAltName":null},{"geonameid":2633685,"name":"Wolvey","admin3":"44UD","localeAltName":null},{"geonameid":2633565,"name":"Wootton Wawen","admin3":"44UE","localeAltName":null},{"geonameid":2633536,"name":"Wormleighton","admin3":"44UE","localeAltName":null},{"geonameid":2633474,"name":"Wroxall","admin3":"44UF","localeAltName":null}],"admin3":[{"geonameid":7290540,"name":"Warwick District","admin3":"44UF","localeAltName":null},{"geonameid":7290646,"name":"North Warwickshire District","admin3":"44UB","localeAltName":null},{"geonameid":7290647,"name":"Nuneaton and Bedworth District","admin3":"44UC","localeAltName":null},{"geonameid":7290648,"name":"Rugby District","admin3":"44UD","localeAltName":null},{"geonameid":7290649,"name":"Stratford-on-Avon District","admin3":"44UE","localeAltName":null}],"alternateNames":[{"alternatenameId":2254235,"geonameid":2634723,"isoLanguage":"en","alternateName":"Warwickshire","isPreferredName":true,"isShortName":true,"isColloquial":false,"isHistoric":false},{"alternatenameId":8666575,"geonameid":2644737,"isoLanguage":"en","alternateName":"Royal Leamington Spa","isPreferredName":true,"isShortName":true,"isColloquial":false,"isHistoric":false},{"alternatenameId":1626647,"geonameid":6269131,"isoLanguage":"en","alternateName":"England","isPreferredName":true,"isShortName":true,"isColloquial":false,"isHistoric":false}]},"__N_SSG":true}