{"pageProps":{"locale":"de","admin2":{"geonameid":2938912,"name":"Regierungsbezirk Darmstadt","country":"DE","admin1":"05","admin2":"064","admin3":"","latitude":"50.0000000","longitude":"8.7500000","localeAltName":null},"admin1":{"geonameid":2905330,"name":"Hessen","admin1":"05","localeAltName":"Hessen"},"locations":[{"geonameid":3272934,"name":"Alsbach-Hähnlein","admin3":"06432","localeAltName":null},{"geonameid":2957463,"name":"Altenstadt","admin3":"06440","localeAltName":null},{"geonameid":2953770,"name":"Babenhausen","admin3":"06432","localeAltName":null},{"geonameid":2953436,"name":"Bad Homburg vor der Höhe","admin3":"06434","localeAltName":null},{"geonameid":2953419,"name":"Bad König","admin3":"06437","localeAltName":null},{"geonameid":2953395,"name":"Bad Nauheim","admin3":"06440","localeAltName":null},{"geonameid":2953384,"name":"Bad Orb","admin3":"06435","localeAltName":null},{"geonameid":2953348,"name":"Bad Schwalbach","admin3":"06439","localeAltName":null},{"geonameid":2953339,"name":"Bad Soden am Taunus","admin3":"06436","localeAltName":null},{"geonameid":2953338,"name":"Bad Soden-Salmünster","admin3":"06435","localeAltName":null},{"geonameid":2953321,"name":"Bad Vilbel","admin3":"06440","localeAltName":null},{"geonameid":2951556,"name":"Beerfelden","admin3":"06437","localeAltName":null},{"geonameid":2950978,"name":"Bensheim","admin3":"06431","localeAltName":null},{"geonameid":2949901,"name":"Berstadt","admin3":"06440","localeAltName":null},{"geonameid":2949367,"name":"Biblis","admin3":"06431","localeAltName":null},{"geonameid":2949296,"name":"Bickenbach","admin3":"06432","localeAltName":null},{"geonameid":2949240,"name":"Biebesheim","admin3":"06433","localeAltName":null},{"geonameid":2948652,"name":"Birkenau","admin3":"06431","localeAltName":null},{"geonameid":2948351,"name":"Birstein","admin3":"06435","localeAltName":null},{"geonameid":2948290,"name":"Bischofsheim","admin3":"06433","localeAltName":null},{"geonameid":2944254,"name":"Brensbach","admin3":"06437","localeAltName":null},{"geonameid":2943573,"name":"Bruchköbel","admin3":"06435","localeAltName":null},{"geonameid":2942073,"name":"Büdingen","admin3":"06440","localeAltName":null},{"geonameid":2941828,"name":"Bullau","admin3":"06437","localeAltName":null},{"geonameid":3209911,"name":"Burg Hohenstein","admin3":"06439","localeAltName":null},{"geonameid":2940938,"name":"Bürstadt","admin3":"06431","localeAltName":null},{"geonameid":2940633,"name":"Büttelborn","admin3":"06433","localeAltName":null},{"geonameid":2940512,"name":"Butzbach","admin3":"06440","localeAltName":null},{"geonameid":2938913,"name":"Darmstadt","admin3":"06411","localeAltName":null},{"geonameid":2937591,"name":"Dieburg","admin3":"06432","localeAltName":null},{"geonameid":2937040,"name":"Dietzenbach","admin3":"06438","localeAltName":null},{"geonameid":2935220,"name":"Dreieich","admin3":"06438","localeAltName":null},{"geonameid":2933772,"name":"Echzell","admin3":"06440","localeAltName":null},{"geonameid":2933246,"name":"Egelsbach","admin3":"06438","localeAltName":null},{"geonameid":2931753,"name":"Einhausen","admin3":"06431","localeAltName":null},{"geonameid":2930646,"name":"Eltville","admin3":"06439","localeAltName":null},{"geonameid":2929837,"name":"Eppertshausen","admin3":"06432","localeAltName":null},{"geonameid":2929817,"name":"Eppstein","admin3":"06436","localeAltName":null},{"geonameid":2929802,"name":"Erbach","admin3":"06437","localeAltName":null},{"geonameid":2929451,"name":"Erlensee","admin3":"06435","localeAltName":null},{"geonameid":2929224,"name":"Erzhausen","admin3":"06432","localeAltName":null},{"geonameid":2929134,"name":"Eschborn","admin3":"06436","localeAltName":null},{"geonameid":2926120,"name":"Flörsheim","admin3":"06436","localeAltName":null},{"geonameid":3208053,"name":"Florstadt","admin3":"06440","localeAltName":null},{"geonameid":2925533,"name":"Frankfurt am Main","admin3":"06412","localeAltName":null},{"geonameid":2925507,"name":"Fränkisch-Crumbach","admin3":"06437","localeAltName":null},{"geonameid":2924802,"name":"Friedberg","admin3":"06440","localeAltName":null},{"geonameid":2924625,"name":"Friedrichsdorf","admin3":"06434","localeAltName":null},{"geonameid":2923543,"name":"Fürth","admin3":"06431","localeAltName":null},{"geonameid":7118093,"name":"Gallus","admin3":"06412","localeAltName":null},{"geonameid":2922124,"name":"Gedern","admin3":"06440","localeAltName":null},{"geonameid":2921707,"name":"Geisenheim","admin3":"06439","localeAltName":null},{"geonameid":2921473,"name":"Gelnhausen","admin3":"06435","localeAltName":null},{"geonameid":2920994,"name":"Gernsheim","admin3":"06433","localeAltName":null},{"geonameid":2920329,"name":"Ginsheim-Gustavsburg","admin3":"06433","localeAltName":null},{"geonameid":2920085,"name":"Glashütten","admin3":"06434","localeAltName":null},{"geonameid":2920024,"name":"Glauburg","admin3":"06440","localeAltName":null},{"geonameid":2917868,"name":"Grävenwiesbach","admin3":"06434","localeAltName":null},{"geonameid":2917412,"name":"Griesheim","admin3":"06432","localeAltName":null},{"geonameid":2916966,"name":"Groß-Bieberau","admin3":"06432","localeAltName":null},{"geonameid":2915613,"name":"Groß-Gerau","admin3":"06433","localeAltName":null},{"geonameid":2915128,"name":"Groß-Rohrheim","admin3":"06431","localeAltName":null},{"geonameid":2914929,"name":"Groß-Umstadt","admin3":"06432","localeAltName":null},{"geonameid":2914801,"name":"Groß-Zimmern","admin3":"06432","localeAltName":null},{"geonameid":2915372,"name":"Großkrotzenburg","admin3":"06435","localeAltName":null},{"geonameid":2911825,"name":"Hain-Gründau","admin3":"06435","localeAltName":null},{"geonameid":2911099,"name":"Hammersbach","admin3":"06435","localeAltName":null},{"geonameid":2911007,"name":"Hanau am Main","admin3":"06435","localeAltName":null},{"geonameid":2909240,"name":"Hattersheim","admin3":"06436","localeAltName":null},{"geonameid":2906268,"name":"Heppenheim an der Bergstrasse","admin3":"06431","localeAltName":null},{"geonameid":3274969,"name":"Hesseneck","admin3":"06437","localeAltName":null},{"geonameid":2904992,"name":"Heusenstamm","admin3":"06438","localeAltName":null},{"geonameid":2903625,"name":"Hirschhorn","admin3":"06431","localeAltName":null},{"geonameid":2903504,"name":"Hirzenhain","admin3":"06440","localeAltName":null},{"geonameid":2903175,"name":"Hochheim am Main","admin3":"06436","localeAltName":null},{"geonameid":2902951,"name":"Höchst im Odenwald","admin3":"06437","localeAltName":null},{"geonameid":2902533,"name":"Hofheim am Taunus","admin3":"06436","localeAltName":null},{"geonameid":2896736,"name":"Idstein","admin3":"06439","localeAltName":null},{"geonameid":2892980,"name":"Karben","admin3":"06440","localeAltName":null},{"geonameid":2891973,"name":"Kefenrod","admin3":"06440","localeAltName":null},{"geonameid":2891832,"name":"Kelkheim (Taunus)","admin3":"06436","localeAltName":null},{"geonameid":2891742,"name":"Kelsterbach","admin3":"06433","localeAltName":null},{"geonameid":2891205,"name":"Kiedrich","admin3":"06439","localeAltName":null},{"geonameid":2885760,"name":"Königstein im Taunus","admin3":"06434","localeAltName":null},{"geonameid":2883920,"name":"Kriftel","admin3":"06436","localeAltName":null},{"geonameid":2883754,"name":"Kronberg","admin3":"06434","localeAltName":null},{"geonameid":12035575,"name":"Kronberg Tal","admin3":"06434","localeAltName":null},{"geonameid":2881695,"name":"Lampertheim","admin3":"06431","localeAltName":null},{"geonameid":2881279,"name":"Langen","admin3":"06438","localeAltName":null},{"geonameid":2880913,"name":"Langenselbold","admin3":"06435","localeAltName":null},{"geonameid":3208086,"name":"Liederbach","admin3":"06436","localeAltName":null},{"geonameid":2877315,"name":"Lindenfels","admin3":"06431","localeAltName":null},{"geonameid":2875877,"name":"Lorsch","admin3":"06431","localeAltName":null},{"geonameid":2874768,"name":"Lützelbach","admin3":"06432","localeAltName":null},{"geonameid":2874230,"name":"Maintal","admin3":"06435","localeAltName":null},{"geonameid":2872119,"name":"Melbach","admin3":"06440","localeAltName":null},{"geonameid":2871636,"name":"Messel","admin3":"06432","localeAltName":null},{"geonameid":2871284,"name":"Michelstadt","admin3":"06437","localeAltName":null},{"geonameid":3272460,"name":"Mörfelden-Walldorf","admin3":"06433","localeAltName":null},{"geonameid":2869221,"name":"Mörlenbach","admin3":"06431","localeAltName":null},{"geonameid":2867985,"name":"Mühlheim am Main","admin3":"06438","localeAltName":null},{"geonameid":2867548,"name":"Münster","admin3":"06432","localeAltName":null},{"geonameid":2867492,"name":"Münzenberg","admin3":"06440","localeAltName":null},{"geonameid":2866759,"name":"Neckarsteinach","admin3":"06431","localeAltName":null},{"geonameid":2866280,"name":"Neu-Anspach","admin3":"06434","localeAltName":null},{"geonameid":2864820,"name":"Neu-Isenburg","admin3":"06438","localeAltName":null},{"geonameid":2863716,"name":"Nidda","admin3":"06440","localeAltName":null},{"geonameid":2863712,"name":"Nidderau","admin3":"06435","localeAltName":null},{"geonameid":2863438,"name":"Nieder-Florstadt","admin3":"06440","localeAltName":null},{"geonameid":2863393,"name":"Nieder-Gründau","admin3":"06435","localeAltName":null},{"geonameid":2863517,"name":"Niederdorfelden","admin3":"06435","localeAltName":null},{"geonameid":2863046,"name":"Niedernhausen","admin3":"06439","localeAltName":null},{"geonameid":7290401,"name":"Niederrad","admin3":"06412","localeAltName":null},{"geonameid":2859739,"name":"Ober-Mörlen","admin3":"06440","localeAltName":null},{"geonameid":2859380,"name":"Ober-Ramstadt","admin3":"06432","localeAltName":null},{"geonameid":2860917,"name":"Oberems","admin3":"06434","localeAltName":null},{"geonameid":2858763,"name":"Obertshausen","admin3":"06438","localeAltName":null},{"geonameid":2858738,"name":"Oberursel","admin3":"06434","localeAltName":null},{"geonameid":2857807,"name":"Offenbach","admin3":"06413","localeAltName":null},{"geonameid":2857012,"name":"Ortenberg","admin3":"06440","localeAltName":null},{"geonameid":2853924,"name":"Pfungstadt","admin3":"06432","localeAltName":null},{"geonameid":2850425,"name":"Ranstadt","admin3":"06440","localeAltName":null},{"geonameid":2849913,"name":"Raunheim","admin3":"06433","localeAltName":null},{"geonameid":2849197,"name":"Reichelsheim","admin3":"06440","localeAltName":null},{"geonameid":2849198,"name":"Reichelsheim","admin3":"06437","localeAltName":null},{"geonameid":2848762,"name":"Reinheim","admin3":"06432","localeAltName":null},{"geonameid":3272941,"name":"Riedstadt","admin3":"06433","localeAltName":null},{"geonameid":2846754,"name":"Rimbach","admin3":"06431","localeAltName":null},{"geonameid":2846235,"name":"Rockenberg","admin3":"06440","localeAltName":null},{"geonameid":2846063,"name":"Rodenbach","admin3":"06435","localeAltName":null},{"geonameid":3336893,"name":"Rodgau","admin3":"06438","localeAltName":null},{"geonameid":2845160,"name":"Rosbach vor der Höhe","admin3":"06440","localeAltName":null},{"geonameid":2844756,"name":"Roßdorf","admin3":"06432","localeAltName":null},{"geonameid":2844089,"name":"Rothenberg","admin3":"06437","localeAltName":null},{"geonameid":2843395,"name":"Rüdesheim am Rhein","admin3":"06439","localeAltName":null},{"geonameid":2842884,"name":"Rüsselsheim","admin3":"06433","localeAltName":null},{"geonameid":2841039,"name":"Schaafheim","admin3":"06432","localeAltName":null},{"geonameid":2838918,"name":"Schlangenbad","admin3":"06439","localeAltName":null},{"geonameid":2838201,"name":"Schlüchtern","admin3":"06435","localeAltName":null},{"geonameid":2837706,"name":"Schmitten","admin3":"06434","localeAltName":null},{"geonameid":2835381,"name":"Schwalbach am Taunus","admin3":"06436","localeAltName":null},{"geonameid":3337504,"name":"Seeheim-Jugenheim","admin3":"06432","localeAltName":null},{"geonameid":2833242,"name":"Seligenstadt","admin3":"06438","localeAltName":null},{"geonameid":2831727,"name":"Södel","admin3":"06440","localeAltName":null},{"geonameid":2828871,"name":"Steinau an der Straße","admin3":"06435","localeAltName":null},{"geonameid":2828737,"name":"Steinbach am Taunus","admin3":"06434","localeAltName":null},{"geonameid":2826671,"name":"Stockstadt am Rhein","admin3":"06433","localeAltName":null},{"geonameid":2824837,"name":"Sulzbach","admin3":"06436","localeAltName":null},{"geonameid":2823799,"name":"Taunusstein","admin3":"06439","localeAltName":null},{"geonameid":2821416,"name":"Trebur","admin3":"06433","localeAltName":null},{"geonameid":2820058,"name":"Unter-Abtsteinach","admin3":"06431","localeAltName":null},{"geonameid":2818097,"name":"Usingen","admin3":"06434","localeAltName":null},{"geonameid":2817324,"name":"Viernheim","admin3":"06431","localeAltName":null},{"geonameid":2815642,"name":"Wächtersbach","admin3":"06435","localeAltName":null},{"geonameid":2814853,"name":"Wald-Michelbach","admin3":"06431","localeAltName":null},{"geonameid":3208130,"name":"Waldems","admin3":"06439","localeAltName":null},{"geonameid":3208134,"name":"Walluf","admin3":"06439","localeAltName":null},{"geonameid":2813216,"name":"Wehrheim","admin3":"06434","localeAltName":null},{"geonameid":2811666,"name":"Weiten-Gesäß","admin3":"06437","localeAltName":null},{"geonameid":2811644,"name":"Weiterstadt","admin3":"06432","localeAltName":null},{"geonameid":2809346,"name":"Wiesbaden","admin3":"06414","localeAltName":null},{"geonameid":2807020,"name":"Wohnbach","admin3":"06440","localeAltName":null},{"geonameid":2806852,"name":"Wölfersheim","admin3":"06440","localeAltName":null},{"geonameid":2803515,"name":"Zwingenberg","admin3":"06431","localeAltName":null}],"admin3":[{"geonameid":2809976,"name":"Wetteraukreis","admin3":"06440","localeAltName":null},{"geonameid":2874229,"name":"Main-Taunus-Kreis","admin3":"06436","localeAltName":null},{"geonameid":2874242,"name":"Main-Kinzig-Kreis","admin3":"06435","localeAltName":null},{"geonameid":2950257,"name":"Landkreis Bergstraße","admin3":"06431","localeAltName":null},{"geonameid":3220962,"name":"Kreisfreie Stadt Darmstadt","admin3":"06411","localeAltName":null},{"geonameid":3220966,"name":"Landkreis Darmstadt-Dieburg","admin3":"06432","localeAltName":null},{"geonameid":3220968,"name":"Frankfurt am Main","admin3":"06412","localeAltName":null},{"geonameid":3220969,"name":"Landkreis Groß-Gerau","admin3":"06433","localeAltName":null},{"geonameid":3220970,"name":"Hochtaunuskreis","admin3":"06434","localeAltName":null},{"geonameid":3220971,"name":"Odenwaldkreis","admin3":"06437","localeAltName":null},{"geonameid":3220975,"name":"Kreisfreie Stadt Offenbach am Main","admin3":"06413","localeAltName":null},{"geonameid":3220978,"name":"Landkreis Offenbach","admin3":"06438","localeAltName":null},{"geonameid":3220989,"name":"Rheingau-Taunus-Kreis","admin3":"06439","localeAltName":null},{"geonameid":3220990,"name":"Kreisfreie Stadt Wiesbaden","admin3":"06414","localeAltName":null}],"alternateNames":[{"alternatenameId":2256571,"geonameid":2905330,"isoLanguage":"de","alternateName":"Hessen","isPreferredName":true,"isShortName":true,"isColloquial":false,"isHistoric":false}]},"__N_SSG":true}