{"pageProps":{"locale":"de","admin2":{"geonameid":8260140,"name":"Jura bernois","country":"CH","admin1":"BE","admin2":"241","admin3":"","latitude":"47.2189200","longitude":"7.2198100"},"admin1":{"geonameid":2661551,"name":"Canton de Berne","admin1":"BE"},"locations":[{"geonameid":2661528,"name":"Bévilard","admin3":"717"},{"geonameid":2661117,"name":"Corgémont","admin3":"431"},{"geonameid":2661094,"name":"Court","admin3":"690"},{"geonameid":2661092,"name":"Courtelary","admin3":"434"},{"geonameid":2661079,"name":"Crémines","admin3":"694"},{"geonameid":2661017,"name":"Diesse","admin3":"726"},{"geonameid":2660528,"name":"Grandval","admin3":"694"},{"geonameid":2660054,"name":"La Heutte","admin3":"450"},{"geonameid":2660038,"name":"La Neuveville","admin3":"723"},{"geonameid":2660049,"name":"Lamboing","admin3":"726"},{"geonameid":2659781,"name":"Malleray","admin3":"717"},{"geonameid":2659568,"name":"Moutier","admin3":"700"},{"geonameid":2659444,"name":"Nods","admin3":"724"},{"geonameid":2659277,"name":"Orvin","admin3":"438"},{"geonameid":2659232,"name":"Perrefitte","admin3":"701"},{"geonameid":2659228,"name":"Péry","admin3":"450"},{"geonameid":2659085,"name":"Reconvilier","admin3":"703"},{"geonameid":2659001,"name":"Roches","admin3":"704"},{"geonameid":2658883,"name":"Saicourt","admin3":"706"},{"geonameid":2658871,"name":"Saint-Imier","admin3":"443"},{"geonameid":2658745,"name":"Schelten","admin3":"708"},{"geonameid":2658546,"name":"Sornetan","admin3":"716"},{"geonameid":2658415,"name":"Tavannes","admin3":"713"},{"geonameid":2658331,"name":"Tramelan","admin3":"446"},{"geonameid":2658180,"name":"Vauffelin","admin3":"449"},{"geonameid":2658122,"name":"Villeret","admin3":"448"}],"admin3":[{"geonameid":7285196,"name":"Belprahon","admin3":"681"},{"geonameid":7285467,"name":"Champoz","admin3":"683"},{"geonameid":7285550,"name":"Corcelles (BE)","admin3":"687"},{"geonameid":7285556,"name":"Corgémont","admin3":"431"},{"geonameid":7285559,"name":"Cormoret","admin3":"432"},{"geonameid":7285569,"name":"Cortébert","admin3":"433"},{"geonameid":7285581,"name":"Court","admin3":"690"},{"geonameid":7285583,"name":"Courtelary","admin3":"434"},{"geonameid":7285589,"name":"Crémines","admin3":"691"},{"geonameid":7285769,"name":"Eschert","admin3":"692"},{"geonameid":7285962,"name":"Grandval","admin3":"694"},{"geonameid":7286247,"name":"La Ferrière","admin3":"435"},{"geonameid":7286256,"name":"La Neuveville","admin3":"723"},{"geonameid":7286377,"name":"Loveresse","admin3":"696"},{"geonameid":7286546,"name":"Mont-Tramelan","admin3":"437"},{"geonameid":7286566,"name":"Moutier","admin3":"700"},{"geonameid":7286657,"name":"Nods","admin3":"724"},{"geonameid":7286756,"name":"Orvin","admin3":"438"},{"geonameid":7286781,"name":"Perrefitte","admin3":"701"},{"geonameid":7286863,"name":"Rebévelier","admin3":"715"},{"geonameid":7286868,"name":"Reconvilier","admin3":"703"},{"geonameid":7286884,"name":"Renan (BE)","admin3":"441"},{"geonameid":7286922,"name":"Roches (BE)","admin3":"704"},{"geonameid":7286942,"name":"Romont (BE)","admin3":"442"},{"geonameid":7287016,"name":"Saicourt","admin3":"706"},{"geonameid":7287029,"name":"Saint-Imier","admin3":"443"},{"geonameid":7287063,"name":"Saules (BE)","admin3":"707"},{"geonameid":7287079,"name":"Schelten","admin3":"708"},{"geonameid":7287135,"name":"Seehof","admin3":"709"},{"geonameid":7287188,"name":"Sonceboz-Sombeval","admin3":"444"},{"geonameid":7287191,"name":"Sonvilier","admin3":"445"},{"geonameid":7287197,"name":"Sorvilier","admin3":"711"},{"geonameid":7287284,"name":"Tavannes","admin3":"713"},{"geonameid":7287322,"name":"Tramelan","admin3":"446"},{"geonameid":7287475,"name":"Villeret","admin3":"448"},{"geonameid":8740952,"name":"Sauge","admin3":"449"},{"geonameid":8740962,"name":"Plateau de Diesse","admin3":"726"},{"geonameid":11611708,"name":"Péry-La Heutte","admin3":"450"},{"geonameid":11611709,"name":"Petit-Val","admin3":"716"},{"geonameid":11611710,"name":"Valbirse","admin3":"717"}],"alternateNames":[]},"__N_SSG":true}