{"pageProps":{"locale":"en","admin2":{"geonameid":4845904,"name":"Windham County","country":"US","admin1":"CT","admin2":"015","admin3":"","latitude":"41.8300300","longitude":"-71.9874900","localeAltName":null},"admin1":{"geonameid":4831725,"name":"Connecticut","admin1":"CT","localeAltName":"Connecticut"},"locations":[{"geonameid":5282922,"name":"Brooklyn","admin3":"09190","localeAltName":null},{"geonameid":4832411,"name":"Danielson","admin3":"40500","localeAltName":null},{"geonameid":4833279,"name":"East Brooklyn","admin3":"09190","localeAltName":null},{"geonameid":4837278,"name":"Killingly Center","admin3":"40500","localeAltName":null},{"geonameid":4838928,"name":"Moosup","admin3":"59980","localeAltName":null},{"geonameid":4839697,"name":"North Grosvenor Dale","admin3":"75870","localeAltName":null},{"geonameid":4840755,"name":"Plainfield","admin3":"59980","localeAltName":null},{"geonameid":7257398,"name":"Plainfield Village","admin3":"59980","localeAltName":null},{"geonameid":4841187,"name":"Putnam","admin3":"62710","localeAltName":null},{"geonameid":4841217,"name":"Quinebaug","admin3":"75870","localeAltName":null},{"geonameid":4843350,"name":"South Windham","admin3":"86790","localeAltName":null},{"geonameid":4843359,"name":"South Woodstock","admin3":"88190","localeAltName":null},{"geonameid":4844184,"name":"Thompson","admin3":"75870","localeAltName":null},{"geonameid":4845261,"name":"Wauregan","admin3":"59980","localeAltName":null},{"geonameid":4845823,"name":"Willimantic","admin3":"86790","localeAltName":null},{"geonameid":4845898,"name":"Windham","admin3":"86790","localeAltName":null}],"admin3":[{"geonameid":4833657,"name":"Town of Eastford","admin3":"21860"},{"geonameid":4835707,"name":"Town of Hampton","admin3":"36000"},{"geonameid":4837288,"name":"Town of Killingly","admin3":"40500","localeAltName":null},{"geonameid":4840763,"name":"Town of Plainfield","admin3":"59980","localeAltName":null},{"geonameid":4840914,"name":"Town of Pomfret","admin3":"61030"},{"geonameid":4841177,"name":"Town of Putnam","admin3":"62710","localeAltName":null},{"geonameid":4842720,"name":"Town of Scotland","admin3":"67400"},{"geonameid":4843675,"name":"Town of Sterling","admin3":"73420"},{"geonameid":4844199,"name":"Town of Thompson","admin3":"75870","localeAltName":null},{"geonameid":4845916,"name":"Town of Windham","admin3":"86790","localeAltName":null},{"geonameid":4846088,"name":"Town of Woodstock","admin3":"88190","localeAltName":null},{"geonameid":5281630,"name":"Town of Ashford","admin3":"01430"},{"geonameid":5282931,"name":"Town of Brooklyn","admin3":"09190","localeAltName":null},{"geonameid":5283446,"name":"Town of Canterbury","admin3":"12130"},{"geonameid":5283765,"name":"Town of Chaplin","admin3":"13810"}],"alternateNames":[{"alternatenameId":1980080,"geonameid":4831725,"isoLanguage":"en","alternateName":"Connecticut","isPreferredName":true,"isShortName":true,"isColloquial":false,"isHistoric":false}]},"__N_SSG":true}