{"pageProps":{"locale":"en","admin2":{"geonameid":4126942,"name":"Poinsett County","country":"US","admin1":"AR","admin2":"111","admin3":"","latitude":"35.5740400","longitude":"-90.6629300","localeAltName":null},"admin1":{"geonameid":4099753,"name":"Arkansas","admin1":"AR","localeAltName":"Arkansas"},"locations":[{"geonameid":4113951,"name":"Harrisburg","admin3":"90402","localeAltName":null},{"geonameid":4118687,"name":"Lepanto","admin3":"91527","localeAltName":null},{"geonameid":4120544,"name":"Marked Tree","admin3":"92229","localeAltName":null},{"geonameid":4133933,"name":"Trumann","admin3":"94068","localeAltName":null},{"geonameid":4134232,"name":"Tyronza","admin3":"93660","localeAltName":null},{"geonameid":4135648,"name":"Weiner","admin3":"93973","localeAltName":null}],"admin3":[{"geonameid":4102546,"name":"Township of Bolivar","admin3":"90402","localeAltName":null},{"geonameid":4108756,"name":"Township of Dobson","admin3":"91119"},{"geonameid":4113101,"name":"Township of Greenfield","admin3":"91518"},{"geonameid":4113164,"name":"Township of Greenwood","admin3":"91527","localeAltName":null},{"geonameid":4119383,"name":"Township of Little River","admin3":"92229","localeAltName":null},{"geonameid":4120084,"name":"Township of Lunsford","admin3":"92304"},{"geonameid":4125128,"name":"Township of Owen","admin3":"92796"},{"geonameid":4130394,"name":"Township of Scott","admin3":"93333"},{"geonameid":4134242,"name":"Township of Tyronza","admin3":"93660","localeAltName":null},{"geonameid":4135889,"name":"Township of West Prairie","admin3":"93973","localeAltName":null},{"geonameid":4136654,"name":"Township of Willis","admin3":"94068","localeAltName":null}],"alternateNames":[{"alternatenameId":1979420,"geonameid":4099753,"isoLanguage":"en","alternateName":"Arkansas","isPreferredName":true,"isShortName":true,"isColloquial":false,"isHistoric":false}]},"__N_SSG":true}