{"pageProps":{"locale":"it","admin1":{"geonameid":3176525,"name":"Friuli Venezia Giulia","country":"IT","admin1":"06","latitude":"46.0000000","longitude":"13.0000000","localeAltName":"Friuli Venezia Giulia"},"admin2":[{"geonameid":3175985,"name":"Gorizia","admin2":"GO","localeAltName":"Gorizia"},{"geonameid":3170146,"name":"Pordenone","admin2":"PN","localeAltName":"Pordenone"},{"geonameid":3165184,"name":"Trieste","admin2":"TS","localeAltName":"Trieste"},{"geonameid":3165071,"name":"Udine","admin2":"UD","localeAltName":"Udine"}],"admin3":[],"country":{"geonameid":3175395,"country":"IT","name":"Italian Republic","localeAltName":"Italia"},"alternateNames":[{"alternatenameId":1347384,"geonameid":3165071,"isoLanguage":"it","alternateName":"Udine","isPreferredName":true,"isShortName":true,"isColloquial":false,"isHistoric":false},{"alternatenameId":2431288,"geonameid":3165184,"isoLanguage":"de","alternateName":"Triest","isPreferredName":true,"isShortName":true,"isColloquial":false,"isHistoric":false},{"alternatenameId":2431289,"geonameid":3165184,"isoLanguage":"it","alternateName":"Trieste","isPreferredName":true,"isShortName":true,"isColloquial":false,"isHistoric":false},{"alternatenameId":1970634,"geonameid":3170146,"isoLanguage":"it","alternateName":"Pordenone","isPreferredName":true,"isShortName":true,"isColloquial":false,"isHistoric":false},{"alternatenameId":1563662,"geonameid":3175395,"isoLanguage":"it","alternateName":"Italia","isPreferredName":true,"isShortName":true,"isColloquial":false,"isHistoric":false},{"alternatenameId":1350827,"geonameid":3175985,"isoLanguage":"it","alternateName":"Gorizia","isPreferredName":true,"isShortName":true,"isColloquial":false,"isHistoric":false},{"alternatenameId":1351012,"geonameid":3176525,"isoLanguage":"it","alternateName":"Friuli Venezia Giulia","isPreferredName":true,"isShortName":true,"isColloquial":false,"isHistoric":false}]},"__N_SSG":true}