{"pageProps":{"locale":"it","admin1":{"geonameid":3169778,"name":"Puglia","country":"IT","admin1":"13","latitude":"41.0016400","longitude":"16.7337800","localeAltName":null},"admin2":[{"geonameid":3182350,"name":"Bari","admin2":"BA","localeAltName":"Bari"},{"geonameid":6955699,"name":"Provincia di Barletta - Andria - Trani","admin2":"BT","localeAltName":"Barletta - Andria - Trani"},{"geonameid":3181526,"name":"Provincia di Brindisi","admin2":"BR","localeAltName":"Brindisi"},{"geonameid":3176884,"name":"Provincia di Foggia","admin2":"FG","localeAltName":"Foggia"},{"geonameid":3174952,"name":"Provincia di Lecce","admin2":"LE","localeAltName":"Lecce"},{"geonameid":3165924,"name":"Provincia di Taranto","admin2":"TA","localeAltName":"Taranto"}],"admin3":[],"country":{"geonameid":3175395,"country":"IT","name":"Italian Republic","localeAltName":"Italia"},"alternateNames":[{"alternatenameId":1347674,"geonameid":3165924,"isoLanguage":"it","alternateName":"Taranto","isPreferredName":true,"isShortName":true,"isColloquial":false,"isHistoric":false},{"alternatenameId":2431330,"geonameid":3165924,"isoLanguage":"de","alternateName":"Tarent","isPreferredName":true,"isShortName":true,"isColloquial":false,"isHistoric":false},{"alternatenameId":1350454,"geonameid":3174952,"isoLanguage":"it","alternateName":"Lecce","isPreferredName":true,"isShortName":true,"isColloquial":false,"isHistoric":false},{"alternatenameId":1563662,"geonameid":3175395,"isoLanguage":"it","alternateName":"Italia","isPreferredName":true,"isShortName":true,"isColloquial":false,"isHistoric":false},{"alternatenameId":1351104,"geonameid":3176884,"isoLanguage":"it","alternateName":"Foggia","isPreferredName":true,"isShortName":true,"isColloquial":false,"isHistoric":false},{"alternatenameId":1352414,"geonameid":3181526,"isoLanguage":"it","alternateName":"Brindisi","isPreferredName":true,"isShortName":true,"isColloquial":false,"isHistoric":false},{"alternatenameId":1352642,"geonameid":3182350,"isoLanguage":"it","alternateName":"Bari","isPreferredName":true,"isShortName":true,"isColloquial":false,"isHistoric":false},{"alternatenameId":2730334,"geonameid":6955699,"isoLanguage":"it","alternateName":"Barletta - Andria - Trani","isPreferredName":true,"isShortName":true,"isColloquial":false,"isHistoric":false}]},"__N_SSG":true}