{"pageProps":{"locale":"en","admin2":{"geonameid":4110465,"name":"Faulkner County","country":"US","admin1":"AR","admin2":"045","admin3":"","latitude":"35.1469800","longitude":"-92.3320400"},"admin1":{"geonameid":4099753,"name":"Arkansas","admin1":"AR","localeAltName":"Arkansas"},"locations":[{"geonameid":4106458,"name":"Conway","admin3":"90600"},{"geonameid":4113067,"name":"Greenbrier","admin3":"91599"},{"geonameid":4120843,"name":"Mayflower","admin3":"91014"},{"geonameid":4134871,"name":"Vilonia","admin3":"91002"}],"admin3":[{"geonameid":4101208,"name":"Township of Benedict","admin3":"90225"},{"geonameid":4101258,"name":"Township of Benton","admin3":"90240"},{"geonameid":4103062,"name":"Township of Bristol","admin3":"90483"},{"geonameid":4104013,"name":"Township of Cadron","admin3":"90600"},{"geonameid":4104087,"name":"Township of California","admin3":"90618"},{"geonameid":4106058,"name":"Township of Clifton","admin3":"90876"},{"geonameid":4107535,"name":"Township of Cypress","admin3":"91002"},{"geonameid":4107624,"name":"Township of Danley","admin3":"91014"},{"geonameid":4109387,"name":"Township of Eagle","admin3":"91188"},{"geonameid":4109514,"name":"Township of East Fork","admin3":"91199"},{"geonameid":4110028,"name":"Township of Enola","admin3":"91251"},{"geonameid":4113764,"name":"Township of Hardin","admin3":"91599"},{"geonameid":4114022,"name":"Township of Harve","admin3":"91635"},{"geonameid":4120779,"name":"Township of Matthews","admin3":"92427"},{"geonameid":4122787,"name":"Township of Mount Vernon","admin3":"92637"},{"geonameid":4123009,"name":"Township of Mountain","admin3":"92589"},{"geonameid":4123871,"name":"Township of Newton","admin3":"92685"},{"geonameid":4125261,"name":"Township of Palarm","admin3":"92814"},{"geonameid":4126360,"name":"Township of Pine Mountain","admin3":"92892"},{"geonameid":4134450,"name":"Township of Union","admin3":"93678"},{"geonameid":4135070,"name":"Township of Walker","admin3":"93825"},{"geonameid":4136757,"name":"Township of Wilson","admin3":"94083"}],"alternateNames":[{"alternatenameId":1979420,"geonameid":4099753,"isoLanguage":"en","alternateName":"Arkansas","isPreferredName":true,"isShortName":true,"isColloquial":false,"isHistoric":false}]},"__N_SSG":true}