{"pageProps":{"locale":"en","admin2":{"geonameid":4115406,"name":"Hot Spring County","country":"US","admin1":"AR","admin2":"059","admin3":"","latitude":"34.3176300","longitude":"-92.9460100"},"admin1":{"geonameid":4099753,"name":"Arkansas","admin1":"AR","localeAltName":"Arkansas"},"locations":[{"geonameid":4120388,"name":"Malvern","admin3":"91290"}],"admin3":[{"geonameid":4099571,"name":"Township of Antioch","admin3":"90039"},{"geonameid":4101730,"name":"Township of Big Creek","admin3":"90261"},{"geonameid":4102002,"name":"Township of Bismarck","admin3":"90318"},{"geonameid":4103224,"name":"Township of Brown Springs","admin3":"90498"},{"geonameid":4103887,"name":"Township of Butterfield","admin3":"90567"},{"geonameid":4105952,"name":"Township of Clear Creek","admin3":"90837"},{"geonameid":4107835,"name":"Township of De Roche","admin3":"91080"},{"geonameid":4108946,"name":"Township of Dover","admin3":"91131"},{"geonameid":4110533,"name":"Township of Fenter","admin3":"91290"},{"geonameid":4112279,"name":"Township of Gifford","admin3":"91455"},{"geonameid":4113976,"name":"Township of Harrison","admin3":"91617"},{"geonameid":4114332,"name":"Township of Henderson","admin3":"91662"},{"geonameid":4119640,"name":"Township of Lone Hill","admin3":"92259"},{"geonameid":4120321,"name":"Township of Magnet","admin3":"92352"},{"geonameid":4121483,"name":"Township of Midway","admin3":"92457"},{"geonameid":4122012,"name":"Township of Montgomery","admin3":"92535"},{"geonameid":4125082,"name":"Township of Ouachita","admin3":"92781"},{"geonameid":4127401,"name":"Township of Prairie","admin3":"92991"},{"geonameid":4130053,"name":"Township of Saline","admin3":"93306"},{"geonameid":4134677,"name":"Township of Valley","admin3":"93756"}],"alternateNames":[{"alternatenameId":1979420,"geonameid":4099753,"isoLanguage":"en","alternateName":"Arkansas","isPreferredName":true,"isShortName":true,"isColloquial":false,"isHistoric":false}]},"__N_SSG":true}