{"pageProps":{"locale":"en","admin2":{"geonameid":4118467,"name":"Lawrence County","country":"US","admin1":"AR","admin2":"075","admin3":"","latitude":"36.0412500","longitude":"-91.1070800"},"admin1":{"geonameid":4099753,"name":"Arkansas","admin1":"AR","localeAltName":"Arkansas"},"locations":[{"geonameid":4115508,"name":"Hoxie","admin3":"90381"},{"geonameid":4135205,"name":"Walnut Ridge","admin3":"90627"}],"admin3":[{"geonameid":4099471,"name":"Township of Annieville","admin3":"90033"},{"geonameid":4099865,"name":"Township of Ashland","admin3":"90066"},{"geonameid":4102087,"name":"Township of Black River","admin3":"90342"},{"geonameid":4102091,"name":"Township of Black Rock","admin3":"90345"},{"geonameid":4102436,"name":"Township of Boas","admin3":"90381"},{"geonameid":4103980,"name":"Township of Cache","admin3":"90582"},{"geonameid":4104299,"name":"Township of Campbell","admin3":"90627"},{"geonameid":4108059,"name":"Township of Dent","admin3":"91065"},{"geonameid":4108980,"name":"Township of Dowell","admin3":"91137"},{"geonameid":4109328,"name":"Township of Duty","admin3":"91173"},{"geonameid":4109628,"name":"Township of Eaton","admin3":"91206"},{"geonameid":4111124,"name":"Township of Flat Creek","admin3":"91299"},{"geonameid":4116564,"name":"Township of Jesup","admin3":"91959"},{"geonameid":4118487,"name":"Township of Lawrence","admin3":"92127"},{"geonameid":4120537,"name":"Township of Marion","admin3":"92385"},{"geonameid":4122157,"name":"Township of Morgan","admin3":"92562"},{"geonameid":4127536,"name":"Township of Promised Land","admin3":"93039"},{"geonameid":4128171,"name":"Township of Reeds Creek","admin3":"93108"},{"geonameid":4128369,"name":"Township of Richwoods","admin3":"93168"},{"geonameid":4132072,"name":"Township of Spring River","admin3":"93477"},{"geonameid":4132559,"name":"Township of Strawberry","admin3":"93504"},{"geonameid":4133375,"name":"Township of Thacker","admin3":"93603"}],"alternateNames":[{"alternatenameId":1979420,"geonameid":4099753,"isoLanguage":"en","alternateName":"Arkansas","isPreferredName":true,"isShortName":true,"isColloquial":false,"isHistoric":false}]},"__N_SSG":true}