{"pageProps":{"locale":"en","admin2":{"geonameid":4130035,"name":"Saline County","country":"US","admin1":"AR","admin2":"125","admin3":"","latitude":"34.6466200","longitude":"-92.6765700"},"admin1":{"geonameid":4099753,"name":"Arkansas","admin1":"AR","localeAltName":"Arkansas"},"locations":[{"geonameid":4101241,"name":"Benton","admin3":"90153"},{"geonameid":4103448,"name":"Bryant","admin3":"90522"},{"geonameid":4109452,"name":"East End","admin3":"90105"},{"geonameid":4114047,"name":"Haskell","admin3":"91638"},{"geonameid":4129965,"name":"Salem","admin3":"93291"},{"geonameid":4130703,"name":"Shannon Hills","admin3":"92775"}],"admin3":[{"geonameid":4100271,"name":"Township of Banner","admin3":"90105"},{"geonameid":4100578,"name":"Township of Bauxite","admin3":"90153"},{"geonameid":4100908,"name":"Township of Beaver","admin3":"90198"},{"geonameid":4103471,"name":"Township of Bryant","admin3":"90522"},{"geonameid":4109344,"name":"Township of Dyer","admin3":"91179"},{"geonameid":4110253,"name":"Township of Fairplay","admin3":"91269"},{"geonameid":4114049,"name":"Township of Haskell","admin3":"91638"},{"geonameid":4114950,"name":"Township of Holland","admin3":"91743"},{"geonameid":4115740,"name":"Township of Hurricane","admin3":"91809"},{"geonameid":4116461,"name":"Township of Jefferson","admin3":"91947"},{"geonameid":4117372,"name":"Township of Kentucky","admin3":"92034"},{"geonameid":4118874,"name":"Township of Liberty","admin3":"92184"},{"geonameid":4120495,"name":"Township of Marble","admin3":"92370"},{"geonameid":4123812,"name":"Township of Newcomb","admin3":"92676"},{"geonameid":4125048,"name":"Township of Otter","admin3":"92775"},{"geonameid":4125129,"name":"Township of Owen","admin3":"92799"},{"geonameid":4130022,"name":"Township of Salem","admin3":"93291"},{"geonameid":4130764,"name":"Township of Shaw","admin3":"93354"},{"geonameid":4131504,"name":"Township of Smith","admin3":"93417"},{"geonameid":4133807,"name":"Township of Traskwood","admin3":"93648"},{"geonameid":4134465,"name":"Township of Union","admin3":"93723"}],"alternateNames":[{"alternatenameId":1979420,"geonameid":4099753,"isoLanguage":"en","alternateName":"Arkansas","isPreferredName":true,"isShortName":true,"isColloquial":false,"isHistoric":false}]},"__N_SSG":true}