{"pageProps":{"locale":"en","admin2":{"geonameid":4130730,"name":"Sharp County","country":"US","admin1":"AR","admin2":"135","admin3":"","latitude":"36.1611600","longitude":"-91.4798600"},"admin1":{"geonameid":4099753,"name":"Arkansas","admin1":"AR","localeAltName":"Arkansas"},"locations":[{"geonameid":4099837,"name":"Ash Flat","admin3":"93174"},{"geonameid":4104857,"name":"Cave City","admin3":"90705"},{"geonameid":4105435,"name":"Cherokee Village","admin3":"90768"},{"geonameid":4114673,"name":"Highland","admin3":"91719"}],"admin3":[{"geonameid":4101737,"name":"Township of Big Creek","admin3":"90282"},{"geonameid":4104891,"name":"Township of Cave","admin3":"90705"},{"geonameid":4105439,"name":"Township of Cherokee","admin3":"90768"},{"geonameid":4107704,"name":"Township of Davidson","admin3":"91029"},{"geonameid":4109580,"name":"Township of East Sullivan","admin3":"91205"},{"geonameid":4113773,"name":"Township of Hardy","admin3":"91605"},{"geonameid":4114689,"name":"Township of Highland","admin3":"91719"},{"geonameid":4116308,"name":"Township of Jackson","admin3":"91881"},{"geonameid":4118458,"name":"Township of Lave Creek","admin3":"92124"},{"geonameid":4120031,"name":"Township of Lower North","admin3":"92286"},{"geonameid":4122158,"name":"Township of Morgan","admin3":"92565"},{"geonameid":4124021,"name":"Township of North Big Rock","admin3":"92706"},{"geonameid":4124126,"name":"Township of North Lebanon","admin3":"92718"},{"geonameid":4124171,"name":"Township of North Union","admin3":"92721"},{"geonameid":4125219,"name":"Township of Ozark","admin3":"92808"},{"geonameid":4126445,"name":"Township of Piney Fork","admin3":"92907"},{"geonameid":4128371,"name":"Township of Richwoods","admin3":"93174"},{"geonameid":4130395,"name":"Township of Scott","admin3":"93336"},{"geonameid":4131677,"name":"Township of South Big Rock","admin3":"93426"},{"geonameid":4131753,"name":"Township of South Lebanon","admin3":"93438"},{"geonameid":4131783,"name":"Township of South Union","admin3":"93441"},{"geonameid":4132560,"name":"Township of Strawberry","admin3":"93507"},{"geonameid":4134567,"name":"Township of Upper North","admin3":"93744"},{"geonameid":4135420,"name":"Township of Washington","admin3":"93927"},{"geonameid":4135924,"name":"Township of West Sullivan","admin3":"93975"}],"alternateNames":[{"alternatenameId":1979420,"geonameid":4099753,"isoLanguage":"en","alternateName":"Arkansas","isPreferredName":true,"isShortName":true,"isColloquial":false,"isHistoric":false}]},"__N_SSG":true}