{"pageProps":{"locale":"it","admin2":{"geonameid":6955699,"name":"Provincia di Barletta - Andria - Trani","country":"IT","admin1":"13","admin2":"BT","admin3":"","latitude":"41.2509700","longitude":"16.1759900","localeAltName":"Barletta - Andria - Trani"},"admin1":{"geonameid":3169778,"name":"Puglia","admin1":"13","localeAltName":null},"locations":[{"geonameid":3183072,"name":"Andria","admin3":"110001","localeAltName":null},{"geonameid":3182340,"name":"Barletta","admin3":"110002","localeAltName":null},{"geonameid":3182007,"name":"Bisceglie","admin3":"110003","localeAltName":null},{"geonameid":3180792,"name":"Canosa di Puglia","admin3":"110004","localeAltName":null},{"geonameid":8949354,"name":"Capirro","admin3":"110009","localeAltName":null},{"geonameid":3173958,"name":"Margherita di Savoia","admin3":"110005","localeAltName":null},{"geonameid":3173404,"name":"Minervino Murge","admin3":"110006","localeAltName":null},{"geonameid":3168388,"name":"San Ferdinando di Puglia","admin3":"110007","localeAltName":null},{"geonameid":3166253,"name":"Spinazzola","admin3":"110008","localeAltName":null},{"geonameid":3165322,"name":"Trani","admin3":"110009","localeAltName":null},{"geonameid":3165166,"name":"Trinitapoli","admin3":"110010","localeAltName":null}],"admin3":[{"geonameid":6537544,"name":"Trinitapoli","admin3":"110010","localeAltName":null},{"geonameid":6537546,"name":"Barletta","admin3":"110002","localeAltName":null},{"geonameid":6537552,"name":"Minervino Murge","admin3":"110006","localeAltName":null},{"geonameid":6537560,"name":"Spinazzola","admin3":"110008","localeAltName":null},{"geonameid":6538927,"name":"Margherita di Savoia","admin3":"110005","localeAltName":null},{"geonameid":6538930,"name":"San Ferdinando di Puglia","admin3":"110007","localeAltName":null},{"geonameid":6538940,"name":"Canosa di Puglia","admin3":"110004","localeAltName":null},{"geonameid":6540748,"name":"Bisceglie","admin3":"110003","localeAltName":null},{"geonameid":6541259,"name":"Trani","admin3":"110009","localeAltName":null},{"geonameid":6541937,"name":"Andria","admin3":"110001","localeAltName":null}],"alternateNames":[{"alternatenameId":2730334,"geonameid":6955699,"isoLanguage":"it","alternateName":"Barletta - Andria - Trani","isPreferredName":true,"isShortName":true,"isColloquial":false,"isHistoric":false}]},"__N_SSG":true}