{"pageProps":{"locale":"en","admin2":{"geonameid":4151245,"name":"Clay County","country":"US","admin1":"FL","admin2":"019","admin3":"","latitude":"29.9830700","longitude":"-81.8578900","localeAltName":null},"admin1":{"geonameid":4155751,"name":"Florida","admin1":"FL","localeAltName":"Florida"},"locations":[{"geonameid":4146302,"name":"Asbury Lake","admin3":"","localeAltName":null},{"geonameid":7259949,"name":"Bellair-Meadowbrook Terrace","admin3":"","localeAltName":null},{"geonameid":4155594,"name":"Fleming Island","admin3":"","localeAltName":null},{"geonameid":4157427,"name":"Green Cove Springs","admin3":"","localeAltName":null},{"geonameid":4160830,"name":"Keystone Heights","admin3":"","localeAltName":null},{"geonameid":4161461,"name":"Lakeside","admin3":"","localeAltName":null},{"geonameid":4164387,"name":"Middleburg","admin3":"","localeAltName":null},{"geonameid":7315237,"name":"Oakleaf Plantation","admin3":"","localeAltName":null},{"geonameid":4167102,"name":"Orange Park","admin3":"","localeAltName":null},{"geonameid":4168161,"name":"Penney Farms","admin3":"","localeAltName":null}],"admin3":[{"geonameid":7169534,"name":"City of Green Cove Springs","admin3":"7169534"},{"geonameid":7170279,"name":"City of Keystone Heights","admin3":"7170279"},{"geonameid":7172269,"name":"Town of Orange Park","admin3":"7172269"},{"geonameid":7172314,"name":"Town of Penney Farms","admin3":"7172314"}],"alternateNames":[{"alternatenameId":2080779,"geonameid":4155751,"isoLanguage":"en","alternateName":"Florida","isPreferredName":true,"isShortName":true,"isColloquial":false,"isHistoric":false}]},"__N_SSG":true}