{"pageProps":{"locale":"de","admin2":{"geonameid":6458902,"name":"Bezirk Muri","country":"CH","admin1":"AG","admin2":"1908","admin3":"","latitude":"47.2523300","longitude":"8.3536200"},"admin1":{"geonameid":2661876,"name":"Kanton Aargau","admin1":"AG"},"locations":[{"geonameid":2661720,"name":"Aristau","admin3":"4222"},{"geonameid":2661663,"name":"Auw","admin3":"4223"},{"geonameid":2661299,"name":"Buttwil","admin3":"4230"},{"geonameid":2661013,"name":"Dietwil","admin3":"4231"},{"geonameid":2659683,"name":"Merenschwand","admin3":"4234"},{"geonameid":2659563,"name":"Mühlau","admin3":"4235"},{"geonameid":2659531,"name":"Muri","admin3":"4236"},{"geonameid":2659355,"name":"Oberrüti","admin3":"4237"},{"geonameid":2658577,"name":"Sins","admin3":"4239"},{"geonameid":2658058,"name":"Waltenschwil","admin3":"4240"}],"admin3":[{"geonameid":7285017,"name":"Abtwil","admin3":"4221"},{"geonameid":7285095,"name":"Aristau","admin3":"4222"},{"geonameid":7285124,"name":"Auw","admin3":"4223"},{"geonameid":7285182,"name":"Beinwil (Freiamt)","admin3":"4224"},{"geonameid":7285219,"name":"Besenbüren","admin3":"4226"},{"geonameid":7285227,"name":"Bettwil","admin3":"4227"},{"geonameid":7285301,"name":"Boswil","admin3":"4228"},{"geonameid":7285383,"name":"Bünzen","admin3":"4229"},{"geonameid":7285414,"name":"Buttwil","admin3":"4230"},{"geonameid":7285654,"name":"Dietwil","admin3":"4231"},{"geonameid":7285898,"name":"Geltwil","admin3":"4232"},{"geonameid":7286173,"name":"Kallern","admin3":"4233"},{"geonameid":7286488,"name":"Merenschwand","admin3":"4234"},{"geonameid":7286570,"name":"Mühlau","admin3":"4235"},{"geonameid":7286599,"name":"Muri","admin3":"4236"},{"geonameid":7286711,"name":"Oberrüti","admin3":"4237"},{"geonameid":7286963,"name":"Rottenschwil","admin3":"4238"},{"geonameid":7287175,"name":"Sins","admin3":"4239"},{"geonameid":7287535,"name":"Waltenschwil","admin3":"4240"}],"alternateNames":[]},"__N_SSG":true}