{"pageProps":{"locale":"en","admin2":{"geonameid":5018364,"name":"Big Stone County","country":"US","admin1":"MN","admin2":"011","admin3":"","latitude":"45.4261000","longitude":"-96.4109200","localeAltName":null},"admin1":{"geonameid":5037779,"name":"Minnesota","admin1":"MN","localeAltName":"Minnesota"},"locations":[{"geonameid":5028454,"name":"Graceville","admin3":"24758","localeAltName":null},{"geonameid":5040365,"name":"Ortonville","admin3":"48706","localeAltName":null}],"admin3":[{"geonameid":5015991,"name":"Township of Akron","admin3":"00532"},{"geonameid":5016196,"name":"Township of Almond","admin3":"01126"},{"geonameid":5016683,"name":"Township of Artichoke","admin3":"02350"},{"geonameid":5017222,"name":"City of Barry","admin3":"03718"},{"geonameid":5018376,"name":"Township of Big Stone","admin3":"05788"},{"geonameid":5019444,"name":"Township of Browns Valley","admin3":"08182"},{"geonameid":5021617,"name":"City of Clinton","admin3":"11980"},{"geonameid":5022105,"name":"City of Correll","admin3":"13384"},{"geonameid":5027203,"name":"Township of Foster","admin3":"22058"},{"geonameid":5028464,"name":"City of Graceville","admin3":"24758","localeAltName":null},{"geonameid":5028465,"name":"Township of Graceville","admin3":"24776"},{"geonameid":5036369,"name":"Township of Malta","admin3":"39608"},{"geonameid":5038093,"name":"Township of Moonshine","admin3":"43828"},{"geonameid":5040052,"name":"City of Odessa","admin3":"48058"},{"geonameid":5040053,"name":"Township of Odessa","admin3":"48076"},{"geonameid":5040375,"name":"Township of Ortonville","admin3":"48724"},{"geonameid":5040476,"name":"Township of Otrey","admin3":"49120"},{"geonameid":5042376,"name":"Township of Prior","admin3":"52576"},{"geonameid":5050229,"name":"Township of Toqua","admin3":"65200"},{"geonameid":7163240,"name":"City of Beardsley","admin3":"04204"},{"geonameid":7163952,"name":"City of Johnson","admin3":"32012"},{"geonameid":7317252,"name":"City of Ortonville","admin3":"48706","localeAltName":null}],"alternateNames":[{"alternatenameId":2089541,"geonameid":5037779,"isoLanguage":"en","alternateName":"Minnesota","isPreferredName":true,"isShortName":true,"isColloquial":false,"isHistoric":false}]},"__N_SSG":true}