{"pageProps":{"locale":"en","admin2":{"geonameid":5028615,"name":"Grant County","country":"US","admin1":"MN","admin2":"051","admin3":"","latitude":"45.9340500","longitude":"-96.0121800","localeAltName":null},"admin1":{"geonameid":5037779,"name":"Minnesota","admin1":"MN","localeAltName":"Minnesota"},"locations":[{"geonameid":5025381,"name":"Elbow Lake","admin3":"18458","localeAltName":null},{"geonameid":5030319,"name":"Hoffman","admin3":"29474","localeAltName":null}],"admin3":[{"geonameid":5016706,"name":"City of Ashby","admin3":"02422"},{"geonameid":5017211,"name":"City of Barrett","admin3":"03682"},{"geonameid":5024157,"name":"Township of Delaware","admin3":"15508"},{"geonameid":5025400,"name":"City of Elbow Lake","admin3":"18458","localeAltName":null},{"geonameid":5025401,"name":"Township of Elbow Lake","admin3":"18476"},{"geonameid":5025467,"name":"Township of Elk Lake","admin3":"18620"},{"geonameid":5025805,"name":"Township of Erdahl","admin3":"19538"},{"geonameid":5028353,"name":"Township of Gorton","admin3":"24650"},{"geonameid":5029949,"name":"City of Herman","admin3":"28646"},{"geonameid":5030330,"name":"City of Hoffman","admin3":"29474","localeAltName":null},{"geonameid":5034114,"name":"Township of Land","admin3":"35396"},{"geonameid":5034288,"name":"Township of Lawrence","admin3":"35882"},{"geonameid":5034583,"name":"Township of Lien","admin3":"36998"},{"geonameid":5035423,"name":"Township of Logan","admin3":"37862"},{"geonameid":5036184,"name":"Township of Macsville","admin3":"39194"},{"geonameid":5039359,"name":"City of Norcross","admin3":"46492"},{"geonameid":5039558,"name":"Township of North Ottawa","admin3":"47140"},{"geonameid":5041070,"name":"Township of Pelican Lake","admin3":"50128"},{"geonameid":5041995,"name":"Township of Pomme de Terre","admin3":"51838"},{"geonameid":5043804,"name":"Township of Roseville","admin3":"55816"},{"geonameid":5045955,"name":"Township of Sanford","admin3":"58468"},{"geonameid":5048895,"name":"Township of Stony Brook","admin3":"62986"},{"geonameid":5052267,"name":"City of Wendell","admin3":"69142"}],"alternateNames":[{"alternatenameId":2089541,"geonameid":5037779,"isoLanguage":"en","alternateName":"Minnesota","isPreferredName":true,"isShortName":true,"isColloquial":false,"isHistoric":false}]},"__N_SSG":true}