{"pageProps":{"locale":"en","admin2":{"geonameid":5032855,"name":"Kanabec County","country":"US","admin1":"MN","admin2":"065","admin3":"","latitude":"45.9452200","longitude":"-93.2934300","localeAltName":null},"admin1":{"geonameid":5037779,"name":"Minnesota","admin1":"MN","localeAltName":"Minnesota"},"locations":[{"geonameid":5038195,"name":"Mora","admin3":"44044","localeAltName":null}],"admin3":[{"geonameid":5016414,"name":"Township of Ann Lake","admin3":"01702"},{"geonameid":5016654,"name":"Township of Arthur","admin3":"02296"},{"geonameid":5019493,"name":"Township of Brunswick","admin3":"08344"},{"geonameid":5021837,"name":"Township of Comfort","admin3":"12754"},{"geonameid":5027091,"name":"Township of Ford","admin3":"21644"},{"geonameid":5028669,"name":"Township of Grass Lake","admin3":"25406"},{"geonameid":5028673,"name":"City of Grasston","admin3":"25424"},{"geonameid":5029583,"name":"Township of Hay Brook","admin3":"27782"},{"geonameid":5030177,"name":"Township of Hillman","admin3":"29132"},{"geonameid":5032857,"name":"Township of Kanabec","admin3":"32300"},{"geonameid":5033398,"name":"Township of Knife Lake","admin3":"33560"},{"geonameid":5033533,"name":"Township of Kroschel","admin3":"33776"},{"geonameid":5038200,"name":"City of Mora","admin3":"44044","localeAltName":null},{"geonameid":5040077,"name":"City of Ogilvie","admin3":"48166"},{"geonameid":5040990,"name":"Township of Peace","admin3":"50002"},{"geonameid":5042002,"name":"Township of Pomroy","admin3":"51874"},{"geonameid":5042448,"name":"City of Quamba","admin3":"52756"},{"geonameid":5047958,"name":"Township of South Fork","admin3":"61348"},{"geonameid":5052722,"name":"Township of Whited","admin3":"69988"}],"alternateNames":[{"alternatenameId":2089541,"geonameid":5037779,"isoLanguage":"en","alternateName":"Minnesota","isPreferredName":true,"isShortName":true,"isColloquial":false,"isHistoric":false}]},"__N_SSG":true}