{"pageProps":{"locale":"en","admin2":{"geonameid":5033463,"name":"Koochiching County","country":"US","admin1":"MN","admin2":"071","admin3":"","latitude":"48.2452700","longitude":"-93.7833700","localeAltName":null},"admin1":{"geonameid":5037779,"name":"Minnesota","admin1":"MN","localeAltName":"Minnesota"},"locations":[{"geonameid":5031404,"name":"International Falls","admin3":"31040","localeAltName":null},{"geonameid":5035348,"name":"Littlefork","admin3":"37592","localeAltName":null},{"geonameid":5042608,"name":"Ranier","admin3":"53134","localeAltName":null}],"admin3":[{"geonameid":5018254,"name":"City of Big Falls","admin3":"05680"},{"geonameid":5025053,"name":"Unorganized Territory of East Koochiching","admin3":"17660"},{"geonameid":5031406,"name":"City of International Falls","admin3":"31040","localeAltName":null},{"geonameid":5035351,"name":"City of Littlefork","admin3":"37592","localeAltName":null},{"geonameid":5037930,"name":"City of Mizpah","admin3":"43540"},{"geonameid":5039196,"name":"Unorganized Territory of Nett Lake","admin3":"45277"},{"geonameid":5039690,"name":"City of Northome","admin3":"47122"},{"geonameid":5039691,"name":"Unorganized Territory of Northome","admin3":"47131"},{"geonameid":5039727,"name":"Unorganized Territory of Northwest Koochiching","admin3":"47352"},{"geonameid":5042547,"name":"Unorganized Territory of Rainy Lake","admin3":"52990"},{"geonameid":5042610,"name":"City of Ranier","admin3":"53134","localeAltName":null},{"geonameid":5047994,"name":"Unorganized Territory of South Koochiching","admin3":"61433"}],"alternateNames":[{"alternatenameId":2089541,"geonameid":5037779,"isoLanguage":"en","alternateName":"Minnesota","isPreferredName":true,"isShortName":true,"isColloquial":false,"isHistoric":false}]},"__N_SSG":true}