{"pageProps":{"locale":"en","admin2":{"geonameid":5036131,"name":"Lyon County","country":"US","admin1":"MN","admin2":"083","admin3":"","latitude":"44.4134900","longitude":"-95.8389700","localeAltName":null},"admin1":{"geonameid":5037779,"name":"Minnesota","admin1":"MN","localeAltName":"Minnesota"},"locations":[{"geonameid":5017036,"name":"Balaton","admin3":"03250","localeAltName":null},{"geonameid":5022148,"name":"Cottonwood","admin3":"13564","localeAltName":null},{"geonameid":5036727,"name":"Marshall","admin3":"40688","localeAltName":null},{"geonameid":5037680,"name":"Minneota","admin3":"43126","localeAltName":null},{"geonameid":5050290,"name":"Tracy","admin3":"65308","localeAltName":null}],"admin3":[{"geonameid":5016303,"name":"Township of Amiret","admin3":"01432"},{"geonameid":5017045,"name":"City of Balaton","admin3":"03250","localeAltName":null},{"geonameid":5021598,"name":"Township of Clifton","admin3":"11926"},{"geonameid":5022032,"name":"Township of Coon Creek","admin3":"13078"},{"geonameid":5023288,"name":"City of Cottonwood","admin3":"13564","localeAltName":null},{"geonameid":5023672,"name":"Township of Custer","admin3":"14392"},{"geonameid":5025332,"name":"Township of Eidsvold","admin3":"18332"},{"geonameid":5026166,"name":"Township of Fairview","admin3":"20384"},{"geonameid":5026978,"name":"City of Florence","admin3":"21410"},{"geonameid":5027725,"name":"City of Garvin","admin3":"23228"},{"geonameid":5027918,"name":"City of Ghent","admin3":"23660"},{"geonameid":5028556,"name":"Township of Grandview","admin3":"25154"},{"geonameid":5031571,"name":"Township of Island Lake","admin3":"31400"},{"geonameid":5033864,"name":"Township of Lake Marshall","admin3":"34712"},{"geonameid":5035964,"name":"Township of Lucas","admin3":"38438"},{"geonameid":5036117,"name":"City of Lynd","admin3":"38708"},{"geonameid":5036118,"name":"Township of Lynd","admin3":"38726"},{"geonameid":5036140,"name":"Township of Lyons","admin3":"38834"},{"geonameid":5036753,"name":"City of Marshall","admin3":"40688","localeAltName":null},{"geonameid":5037688,"name":"City of Minneota","admin3":"43126","localeAltName":null},{"geonameid":5037999,"name":"Township of Monroe","admin3":"43666"},{"geonameid":5039375,"name":"Township of Nordland","admin3":"46564"},{"geonameid":5043596,"name":"Township of Rock Lake","admin3":"55042"},{"geonameid":5044093,"name":"City of Russell","admin3":"56428"},{"geonameid":5047069,"name":"Township of Shelburne","admin3":"59440"},{"geonameid":5047785,"name":"Township of Sodus","admin3":"61042"},{"geonameid":5048548,"name":"Township of Stanley","admin3":"62392"},{"geonameid":5049741,"name":"City of Taunton","admin3":"64264"},{"geonameid":5050304,"name":"City of Tracy","admin3":"65308","localeAltName":null},{"geonameid":5051194,"name":"Township of Vallers","admin3":"66496"},{"geonameid":5052537,"name":"Township of Westerheim","admin3":"69412"}],"alternateNames":[{"alternatenameId":2089541,"geonameid":5037779,"isoLanguage":"en","alternateName":"Minnesota","isPreferredName":true,"isShortName":true,"isColloquial":false,"isHistoric":false}]},"__N_SSG":true}