{"pageProps":{"locale":"en","admin2":{"geonameid":5039381,"name":"Norman County","country":"US","admin1":"MN","admin2":"107","admin3":"","latitude":"47.3264800","longitude":"-96.4552800","localeAltName":null},"admin1":{"geonameid":5037779,"name":"Minnesota","admin1":"MN","localeAltName":"Minnesota"},"locations":[{"geonameid":5015844,"name":"Ada","admin3":"00172","localeAltName":null},{"geonameid":5029167,"name":"Halstad","admin3":"26630","localeAltName":null},{"geonameid":5050808,"name":"Twin Valley","admin3":"65938","localeAltName":null}],"admin3":[{"geonameid":5015847,"name":"City of Ada","admin3":"00172","localeAltName":null},{"geonameid":5016466,"name":"Township of Anthony","admin3":"01774"},{"geonameid":5017503,"name":"Township of Bear Park","admin3":"04222"},{"geonameid":5018992,"name":"City of Borup","admin3":"07030"},{"geonameid":5026956,"name":"Township of Flom","admin3":"21320"},{"geonameid":5027195,"name":"Township of Fossum","admin3":"22022"},{"geonameid":5027731,"name":"City of Gary","admin3":"23246"},{"geonameid":5028183,"name":"Township of Good Hope","admin3":"24380"},{"geonameid":5028767,"name":"Township of Green Meadow","admin3":"25766"},{"geonameid":5029168,"name":"City of Halstad","admin3":"26630","localeAltName":null},{"geonameid":5029169,"name":"Township of Halstad","admin3":"26648"},{"geonameid":5029779,"name":"Township of Hegne","admin3":"28178"},{"geonameid":5029875,"name":"City of Hendrum","admin3":"28484"},{"geonameid":5029876,"name":"Township of Hendrum","admin3":"28502"},{"geonameid":5030574,"name":"Township of Home Lake","admin3":"29996"},{"geonameid":5033820,"name":"Township of Lake Ida","admin3":"34532"},{"geonameid":5034400,"name":"Township of Lee","admin3":"36188"},{"geonameid":5035407,"name":"Township of Lockhart","admin3":"37790"},{"geonameid":5036825,"name":"Township of Mary","admin3":"40868"},{"geonameid":5037019,"name":"Township of McDonaldsville","admin3":"38978"},{"geonameid":5041201,"name":"City of Perley","admin3":"50506"},{"geonameid":5041895,"name":"Township of Pleasant View","admin3":"51658"},{"geonameid":5043581,"name":"Township of Rockwell","admin3":"55114"},{"geonameid":5047093,"name":"City of Shelly","admin3":"59566"},{"geonameid":5047094,"name":"Township of Shelly","admin3":"59584"},{"geonameid":5048293,"name":"Township of Spring Creek","admin3":"61780"},{"geonameid":5048978,"name":"Township of Strand","admin3":"63094"},{"geonameid":5049202,"name":"Township of Sundal","admin3":"63508"},{"geonameid":5050810,"name":"City of Twin Valley","admin3":"65938","localeAltName":null},{"geonameid":5052101,"name":"Township of Waukon","admin3":"68728"},{"geonameid":5052816,"name":"Township of Wild Rice","admin3":"70276"},{"geonameid":5053073,"name":"Township of Winchester","admin3":"70762"}],"alternateNames":[{"alternatenameId":2089541,"geonameid":5037779,"isoLanguage":"en","alternateName":"Minnesota","isPreferredName":true,"isShortName":true,"isColloquial":false,"isHistoric":false}]},"__N_SSG":true}