{"pageProps":{"locale":"en","admin2":{"geonameid":5040211,"name":"Olmsted County","country":"US","admin1":"MN","admin2":"109","admin3":"","latitude":"44.0037500","longitude":"-92.4017700","localeAltName":null},"admin1":{"geonameid":5037779,"name":"Minnesota","admin1":"MN","localeAltName":"Minnesota"},"locations":[{"geonameid":5019890,"name":"Byron","admin3":"09154","localeAltName":null},{"geonameid":5024566,"name":"Dover","admin3":"16264","localeAltName":null},{"geonameid":5026059,"name":"Eyota","admin3":"20114","localeAltName":null},{"geonameid":5040339,"name":"Oronoco","admin3":"48598","localeAltName":null},{"geonameid":5043473,"name":"Rochester","admin3":"54880","localeAltName":null},{"geonameid":5048796,"name":"Stewartville","admin3":"62806","localeAltName":null}],"admin3":[{"geonameid":5019899,"name":"City of Byron","admin3":"09154","localeAltName":null},{"geonameid":5020520,"name":"Township of Cascade","admin3":"10180"},{"geonameid":5024571,"name":"City of Dover","admin3":"16264","localeAltName":null},{"geonameid":5024572,"name":"Township of Dover","admin3":"16282"},{"geonameid":5025594,"name":"Township of Elmira","admin3":"18962"},{"geonameid":5026063,"name":"City of Eyota","admin3":"20114","localeAltName":null},{"geonameid":5026064,"name":"Township of Eyota","admin3":"20132"},{"geonameid":5026323,"name":"Township of Farmington","admin3":"20636"},{"geonameid":5029553,"name":"Township of Haverhill","admin3":"27692"},{"geonameid":5030049,"name":"Township of High Forest","admin3":"28880"},{"geonameid":5032850,"name":"Township of Kalmar","admin3":"32282"},{"geonameid":5036683,"name":"Township of Marion","admin3":"40616"},{"geonameid":5039093,"name":"Township of New Haven","admin3":"45610"},{"geonameid":5040325,"name":"Township of Orion","admin3":"48526"},{"geonameid":5040347,"name":"City of Oronoco","admin3":"48598","localeAltName":null},{"geonameid":5040348,"name":"Township of Oronoco","admin3":"48616"},{"geonameid":5041834,"name":"Township of Pleasant Grove","admin3":"51550"},{"geonameid":5042470,"name":"Township of Quincy","admin3":"52792"},{"geonameid":5043499,"name":"City of Rochester","admin3":"54880","localeAltName":null},{"geonameid":5043500,"name":"Township of Rochester","admin3":"54898"},{"geonameid":5043522,"name":"Township of Rock Dell","admin3":"54988"},{"geonameid":5045775,"name":"Township of Salem","admin3":"58234"},{"geonameid":5048806,"name":"City of Stewartville","admin3":"62806","localeAltName":null},{"geonameid":5051461,"name":"Township of Viola","admin3":"67270"}],"alternateNames":[{"alternatenameId":2089541,"geonameid":5037779,"isoLanguage":"en","alternateName":"Minnesota","isPreferredName":true,"isShortName":true,"isColloquial":false,"isHistoric":false}]},"__N_SSG":true}