{"pageProps":{"locale":"en","admin2":{"geonameid":5040515,"name":"Otter Tail County","country":"US","admin1":"MN","admin2":"111","admin3":"","latitude":"46.4088000","longitude":"-95.7080000","localeAltName":null},"admin1":{"geonameid":5037779,"name":"Minnesota","admin1":"MN","localeAltName":"Minnesota"},"locations":[{"geonameid":5017366,"name":"Battle Lake","admin3":"03970","localeAltName":null},{"geonameid":5026416,"name":"Fergus Falls","admin3":"20906","localeAltName":null},{"geonameid":5029884,"name":"Henning","admin3":"28520","localeAltName":null},{"geonameid":5039192,"name":"New York Mills","admin3":"46060","localeAltName":null},{"geonameid":5040527,"name":"Ottertail","admin3":"49210","localeAltName":null},{"geonameid":5040846,"name":"Parkers Prairie","admin3":"49732","localeAltName":null},{"geonameid":5041072,"name":"Pelican Rapids","admin3":"50164","localeAltName":null},{"geonameid":5041188,"name":"Perham","admin3":"50470","localeAltName":null}],"admin3":[{"geonameid":5015792,"name":"Township of Aastad","admin3":"00100"},{"geonameid":5016315,"name":"Township of Amor","admin3":"01468"},{"geonameid":5016874,"name":"Township of Aurdal","admin3":"02836"},{"geonameid":5017369,"name":"City of Battle Lake","admin3":"03970","localeAltName":null},{"geonameid":5018745,"name":"Township of Blowers","admin3":"06652"},{"geonameid":5018837,"name":"City of Bluffton","admin3":"06778"},{"geonameid":5018838,"name":"Township of Bluffton","admin3":"06796"},{"geonameid":5019818,"name":"Township of Buse","admin3":"08938"},{"geonameid":5019844,"name":"Township of Butler","admin3":"08974"},{"geonameid":5020264,"name":"Township of Candor","admin3":"09622"},{"geonameid":5020400,"name":"Township of Carlisle","admin3":"09946"},{"geonameid":5021622,"name":"City of Clitherall","admin3":"12088"},{"geonameid":5021623,"name":"Township of Clitherall","admin3":"12106"},{"geonameid":5021890,"name":"Township of Compton","admin3":"12844"},{"geonameid":5022067,"name":"Township of Corliss","admin3":"13240"},{"geonameid":5023790,"name":"City of Dalton","admin3":"14626"},{"geonameid":5023809,"name":"Township of Dane Prairie","admin3":"14644"},{"geonameid":5024003,"name":"Township of Dead Lake","admin3":"15076"},{"geonameid":5024065,"name":"City of Deer Creek","admin3":"15184"},{"geonameid":5024066,"name":"Township of Deer Creek","admin3":"15202"},{"geonameid":5024214,"name":"City of Dent","admin3":"15724"},{"geonameid":5024516,"name":"Township of Dora","admin3":"16120"},{"geonameid":5024770,"name":"Township of Dunn","admin3":"17162"},{"geonameid":5024889,"name":"Township of Eagle Lake","admin3":"17396"},{"geonameid":5025117,"name":"Township of Eastern","admin3":"17576"},{"geonameid":5025282,"name":"Township of Edna","admin3":"18224"},{"geonameid":5025300,"name":"Township of Effington","admin3":"18278"},{"geonameid":5025452,"name":"City of Elizabeth","admin3":"18566"},{"geonameid":5025455,"name":"Township of Elizabeth","admin3":"18584"},{"geonameid":5025598,"name":"Township of Elmo","admin3":"18980"},{"geonameid":5025808,"name":"City of Erhard","admin3":"19556"},{"geonameid":5025810,"name":"Township of Erhards Grove","admin3":"19574"},{"geonameid":5026058,"name":"Township of Everts","admin3":"20024"},{"geonameid":5026421,"name":"City of Fergus Falls","admin3":"20906","localeAltName":null},{"geonameid":5026422,"name":"Township of Fergus Falls","admin3":"20924"},{"geonameid":5027024,"name":"Township of Folden","admin3":"21518"},{"geonameid":5027476,"name":"Township of Friberg","admin3":"22796"},{"geonameid":5028001,"name":"Township of Girard","admin3":"23840"},{"geonameid":5028351,"name":"Township of Gorman","admin3":"24632"},{"geonameid":5029886,"name":"City of Henning","admin3":"28520","localeAltName":null},{"geonameid":5029887,"name":"Township of Henning","admin3":"28538"},{"geonameid":5030299,"name":"Township of Hobart","admin3":"29420"},{"geonameid":5030597,"name":"Township of Homestead","admin3":"30050"},{"geonameid":5031281,"name":"Township of Inman","admin3":"31004"},{"geonameid":5034359,"name":"Township of Leaf Lake","admin3":"35990"},{"geonameid":5034361,"name":"Township of Leaf Mountain","admin3":"36008"},{"geonameid":5034581,"name":"Township of Lida","admin3":"36980"},{"geonameid":5036314,"name":"Township of Maine","admin3":"39500"},{"geonameid":5036597,"name":"Township of Maplewood","admin3":"40364"},{"geonameid":5039194,"name":"City of New York Mills","admin3":"46060","localeAltName":null},{"geonameid":5039222,"name":"Township of Newton","admin3":"46006"},{"geonameid":5039266,"name":"Township of Nidaros","admin3":"46240"},{"geonameid":5039784,"name":"Township of Norwegian Grove","admin3":"47482"},{"geonameid":5039972,"name":"Township of Oak Valley","admin3":"48004"},{"geonameid":5040384,"name":"Township of Orwell","admin3":"48742"},{"geonameid":5040411,"name":"Township of Oscar","admin3":"48850"},{"geonameid":5040525,"name":"Township of Otter Tail","admin3":"49228"},{"geonameid":5040531,"name":"City of Ottertail","admin3":"49210","localeAltName":null},{"geonameid":5040538,"name":"Township of Otto","admin3":"49264"},{"geonameid":5040708,"name":"Township of Paddock","admin3":"49408"},{"geonameid":5040848,"name":"City of Parkers Prairie","admin3":"49732","localeAltName":null},{"geonameid":5040849,"name":"Township of Parkers Prairie","admin3":"49750"},{"geonameid":5041075,"name":"City of Pelican Rapids","admin3":"50164","localeAltName":null},{"geonameid":5041082,"name":"Township of Pelican","admin3":"50110"},{"geonameid":5041193,"name":"City of Perham","admin3":"50470","localeAltName":null},{"geonameid":5041194,"name":"Township of Perham","admin3":"50488"},{"geonameid":5041635,"name":"Township of Pine Lake","admin3":"51208"},{"geonameid":5043219,"name":"City of Richville","admin3":"54340"},{"geonameid":5044044,"name":"Township of Rush Lake","admin3":"56320"},{"geonameid":5045330,"name":"Township of Saint Olaf","admin3":"57382"},{"geonameid":5046097,"name":"Township of Scambler","admin3":"58864"},{"geonameid":5048584,"name":"Township of Star Lake","admin3":"62554"},{"geonameid":5049360,"name":"Township of Sverdrup","admin3":"63688"},{"geonameid":5050235,"name":"Township of Tordenskjold","admin3":"65218"},{"geonameid":5050552,"name":"Township of Trondhjem","admin3":"65524"},{"geonameid":5050630,"name":"Township of Tumuli","admin3":"65686"},{"geonameid":5050884,"name":"City of Underwood","admin3":"66172"},{"geonameid":5051158,"name":"City of Urbank","admin3":"66388"},{"geonameid":5051302,"name":"City of Vergas","admin3":"66766"},{"geonameid":5051455,"name":"City of Vining","admin3":"67216"},{"geonameid":5052541,"name":"Township of Western","admin3":"69430"},{"geonameid":5053430,"name":"Township of Woodside","admin3":"71644"}],"alternateNames":[{"alternatenameId":2089541,"geonameid":5037779,"isoLanguage":"en","alternateName":"Minnesota","isPreferredName":true,"isShortName":true,"isColloquial":false,"isHistoric":false}]},"__N_SSG":true}