{"pageProps":{"locale":"en","admin2":{"geonameid":5042563,"name":"Ramsey County","country":"US","admin1":"MN","admin2":"123","admin3":"","latitude":"45.0170600","longitude":"-93.0996100","localeAltName":null},"admin1":{"geonameid":5037779,"name":"Minnesota","admin1":"MN","localeAltName":"Minnesota"},"locations":[{"geonameid":5016553,"name":"Arden Hills","admin3":"02026","localeAltName":null},{"geonameid":5026251,"name":"Falcon Heights","admin3":"20420","localeAltName":null},{"geonameid":5034239,"name":"Lauderdale","admin3":"35738","localeAltName":null},{"geonameid":5034905,"name":"Little Canada","admin3":"37502","localeAltName":null},{"geonameid":5036588,"name":"Maplewood","admin3":"40382","localeAltName":null},{"geonameid":5038373,"name":"Mounds View","admin3":"44530","localeAltName":null},{"geonameid":5039080,"name":"New Brighton","admin3":"45430","localeAltName":null},{"geonameid":5039554,"name":"North Oaks","admin3":"47104","localeAltName":null},{"geonameid":5039587,"name":"North Saint Paul","admin3":"47221","localeAltName":null},{"geonameid":5043799,"name":"Roseville","admin3":"55852","localeAltName":null},{"geonameid":5045360,"name":"Saint Paul","admin3":"58000","localeAltName":null},{"geonameid":5047234,"name":"Shoreview","admin3":"59998","localeAltName":null},{"geonameid":5051197,"name":"Vadnais Heights","admin3":"66460","localeAltName":null},{"geonameid":5052658,"name":"White Bear Lake","admin3":"69970","localeAltName":null}],"admin3":[{"geonameid":5016555,"name":"City of Arden Hills","admin3":"02026","localeAltName":null},{"geonameid":5026253,"name":"City of Falcon Heights","admin3":"20420","localeAltName":null},{"geonameid":5027775,"name":"City of Gem Lake","admin3":"23318"},{"geonameid":5034240,"name":"City of Lauderdale","admin3":"35738","localeAltName":null},{"geonameid":5034906,"name":"City of Little Canada","admin3":"37502","localeAltName":null},{"geonameid":5036596,"name":"City of Maplewood","admin3":"40382","localeAltName":null},{"geonameid":5038375,"name":"City of Mounds View","admin3":"44530","localeAltName":null},{"geonameid":5039081,"name":"City of New Brighton","admin3":"45430","localeAltName":null},{"geonameid":5039556,"name":"City of North Oaks","admin3":"47104","localeAltName":null},{"geonameid":5039588,"name":"City of North Saint Paul","admin3":"47221","localeAltName":null},{"geonameid":5043803,"name":"City of Roseville","admin3":"55852","localeAltName":null},{"geonameid":5045473,"name":"City of Saint Paul","admin3":"58000","localeAltName":null},{"geonameid":5047235,"name":"City of Shoreview","admin3":"59998","localeAltName":null},{"geonameid":5048364,"name":"City of Spring Lake Park","admin3":"61996"},{"geonameid":5051175,"name":"City of Vadnais Heights","admin3":"66460","localeAltName":null},{"geonameid":5052661,"name":"City of White Bear Lake","admin3":"69970","localeAltName":null},{"geonameid":5052664,"name":"Township of White Bear","admin3":"69916"}],"alternateNames":[{"alternatenameId":2089541,"geonameid":5037779,"isoLanguage":"en","alternateName":"Minnesota","isPreferredName":true,"isShortName":true,"isColloquial":false,"isHistoric":false}]},"__N_SSG":true}