{"pageProps":{"locale":"en","admin2":{"geonameid":5042847,"name":"Redwood County","country":"US","admin1":"MN","admin2":"127","admin3":"","latitude":"44.4036600","longitude":"-95.2538300","localeAltName":null},"admin1":{"geonameid":5037779,"name":"Minnesota","admin1":"MN","localeAltName":"Minnesota"},"locations":[{"geonameid":5034084,"name":"Lamberton","admin3":"35288","localeAltName":null},{"geonameid":5038221,"name":"Morgan","admin3":"44116","localeAltName":null},{"geonameid":5042832,"name":"Redwood Falls","admin3":"53656","localeAltName":null},{"geonameid":5051612,"name":"Wabasso","admin3":"67396","localeAltName":null},{"geonameid":5051760,"name":"Walnut Grove","admin3":"67846","localeAltName":null}],"admin3":[{"geonameid":5017821,"name":"City of Belview","admin3":"05050"},{"geonameid":5019358,"name":"Township of Brookville","admin3":"08074"},{"geonameid":5020903,"name":"Township of Charlestown","admin3":"10936"},{"geonameid":5021574,"name":"City of Clements","admin3":"11836"},{"geonameid":5024170,"name":"City of Delhi","admin3":"15544"},{"geonameid":5024171,"name":"Township of Delhi","admin3":"15562"},{"geonameid":5027640,"name":"Township of Gales","admin3":"23048"},{"geonameid":5028606,"name":"Township of Granite Rock","admin3":"25316"},{"geonameid":5030610,"name":"Township of Honner","admin3":"30068"},{"geonameid":5032081,"name":"Township of Johnsonville","admin3":"32048"},{"geonameid":5033331,"name":"Township of Kintire","admin3":"33434"},{"geonameid":5034093,"name":"City of Lamberton","admin3":"35288","localeAltName":null},{"geonameid":5034094,"name":"Township of Lamberton","admin3":"35306"},{"geonameid":5035962,"name":"City of Lucan","admin3":"38420"},{"geonameid":5037596,"name":"City of Milroy","admin3":"42362"},{"geonameid":5038235,"name":"City of Morgan","admin3":"44116","localeAltName":null},{"geonameid":5038236,"name":"Township of Morgan","admin3":"44134"},{"geonameid":5039079,"name":"Township of New Avon","admin3":"45412"},{"geonameid":5039510,"name":"Township of North Hero","admin3":"46996"},{"geonameid":5040931,"name":"Township of Paxton","admin3":"49894"},{"geonameid":5042842,"name":"City of Redwood Falls","admin3":"53656","localeAltName":null},{"geonameid":5042843,"name":"Township of Redwood Falls","admin3":"53674"},{"geonameid":5042977,"name":"City of Revere","admin3":"53908"},{"geonameid":5045816,"name":"City of Sanborn","admin3":"58306"},{"geonameid":5046790,"name":"City of Seaforth","admin3":"59098"},{"geonameid":5047144,"name":"Township of Sheridan","admin3":"59656"},{"geonameid":5047157,"name":"Township of Sherman","admin3":"59692"},{"geonameid":5048390,"name":"Township of Springdale","admin3":"61798"},{"geonameid":5049216,"name":"Township of Sundown","admin3":"63526"},{"geonameid":5049475,"name":"Township of Swedes Forest","admin3":"63868"},{"geonameid":5050058,"name":"Township of Three Lakes","admin3":"64822"},{"geonameid":5050885,"name":"Township of Underwood","admin3":"66190"},{"geonameid":5051179,"name":"Township of Vail","admin3":"66478"},{"geonameid":5051357,"name":"City of Vesta","admin3":"66982"},{"geonameid":5051358,"name":"Township of Vesta","admin3":"67000"},{"geonameid":5051620,"name":"City of Wabasso","admin3":"67396","localeAltName":null},{"geonameid":5051769,"name":"City of Walnut Grove","admin3":"67846","localeAltName":null},{"geonameid":5051822,"name":"City of Wanda","admin3":"68008"},{"geonameid":5052007,"name":"Township of Waterbury","admin3":"68494"},{"geonameid":5052554,"name":"Township of Westline","admin3":"69538"},{"geonameid":5052960,"name":"Township of Willow Lake","admin3":"70474"}],"alternateNames":[{"alternatenameId":2089541,"geonameid":5037779,"isoLanguage":"en","alternateName":"Minnesota","isPreferredName":true,"isShortName":true,"isColloquial":false,"isHistoric":false}]},"__N_SSG":true}