{"pageProps":{"locale":"en","admin2":{"geonameid":5051936,"name":"Washington County","country":"US","admin1":"MN","admin2":"163","admin3":"","latitude":"45.0387300","longitude":"-92.8839600","localeAltName":null},"admin1":{"geonameid":5037779,"name":"Minnesota","admin1":"MN","localeAltName":"Minnesota"},"locations":[{"geonameid":5015924,"name":"Afton","admin3":"00316","localeAltName":null},{"geonameid":5017416,"name":"Bayport","admin3":"04114","localeAltName":null},{"geonameid":5018508,"name":"Birchwood","admin3":"06058","localeAltName":null},{"geonameid":5022134,"name":"Cottage Grove","admin3":"13456","localeAltName":null},{"geonameid":5024181,"name":"Dellwood","admin3":"15616","localeAltName":null},{"geonameid":5027117,"name":"Forest Lake","admin3":"21770","localeAltName":null},{"geonameid":5028612,"name":"Grant","admin3":"25334","localeAltName":null},{"geonameid":5030884,"name":"Hugo","admin3":"30392","localeAltName":null},{"geonameid":5033762,"name":"Lake Elmo","admin3":"34244","localeAltName":null},{"geonameid":5033910,"name":"Lake Saint Croix Beach","admin3":"34865","localeAltName":null},{"geonameid":5033970,"name":"Lakeland","admin3":"","localeAltName":null},{"geonameid":5034117,"name":"Landfall","admin3":"35414","localeAltName":null},{"geonameid":5036295,"name":"Mahtomedi","admin3":"39428","localeAltName":null},{"geonameid":5036663,"name":"Marine on Saint Croix","admin3":"40562","localeAltName":null},{"geonameid":5039211,"name":"Newport","admin3":"45790","localeAltName":null},{"geonameid":5039949,"name":"Oak Park Heights","admin3":"47914","localeAltName":null},{"geonameid":5039978,"name":"Oakdale","admin3":"47680","localeAltName":null},{"geonameid":5045403,"name":"Saint Paul Park","admin3":"58018","localeAltName":null},{"geonameid":5046098,"name":"Scandia","admin3":"58900","localeAltName":null},{"geonameid":5048814,"name":"Stillwater","admin3":"62824","localeAltName":null},{"geonameid":5053358,"name":"Woodbury","admin3":"71428","localeAltName":null}],"admin3":[{"geonameid":5015927,"name":"City of Afton","admin3":"00316","localeAltName":null},{"geonameid":5017417,"name":"City of Bayport","admin3":"04114","localeAltName":null},{"geonameid":5017418,"name":"Township of Baytown","admin3":"04132"},{"geonameid":5022136,"name":"City of Cottage Grove","admin3":"13456","localeAltName":null},{"geonameid":5024182,"name":"City of Dellwood","admin3":"15616","localeAltName":null},{"geonameid":5024203,"name":"Township of Denmark","admin3":"15688"},{"geonameid":5027121,"name":"City of Forest Lake","admin3":"21770","localeAltName":null},{"geonameid":5028888,"name":"Township of Grey Cloud Island","admin3":"25982"},{"geonameid":5030885,"name":"City of Hugo","admin3":"30392","localeAltName":null},{"geonameid":5033765,"name":"City of Lake Elmo","admin3":"34244","localeAltName":null},{"geonameid":5033972,"name":"City of Lakeland Shores","admin3":"34658"},{"geonameid":5034118,"name":"City of Landfall","admin3":"35414","localeAltName":null},{"geonameid":5036296,"name":"City of Mahtomedi","admin3":"39428","localeAltName":null},{"geonameid":5036664,"name":"City of Marine on Saint Croix","admin3":"40562","localeAltName":null},{"geonameid":5036894,"name":"Township of May","admin3":"41120"},{"geonameid":5039214,"name":"City of Newport","admin3":"45790","localeAltName":null},{"geonameid":5039951,"name":"City of Oak Park Heights","admin3":"47914","localeAltName":null},{"geonameid":5039984,"name":"City of Oakdale","admin3":"47680","localeAltName":null},{"geonameid":5041677,"name":"City of Pine Springs","admin3":"51316"},{"geonameid":5045211,"name":"City of Saint Marys Point","admin3":"57292"},{"geonameid":5045405,"name":"City of Saint Paul Park","admin3":"58018","localeAltName":null},{"geonameid":5048815,"name":"City of Stillwater","admin3":"62824","localeAltName":null},{"geonameid":5048816,"name":"Township of Stillwater","admin3":"62842"},{"geonameid":5052421,"name":"Township of West Lakeland","admin3":"69520"},{"geonameid":5052876,"name":"City of Willernie","admin3":"70366"},{"geonameid":5053365,"name":"City of Woodbury","admin3":"71428","localeAltName":null},{"geonameid":7163282,"name":"City of Birchwood Village","admin3":"06058","localeAltName":null},{"geonameid":7163674,"name":"City of Grant","admin3":"25334","localeAltName":null},{"geonameid":7164531,"name":"City of Scandia","admin3":"58900","localeAltName":null},{"geonameid":7317142,"name":"City of Lake Saint Croix Beach","admin3":"34865","localeAltName":null}],"alternateNames":[{"alternatenameId":2089541,"geonameid":5037779,"isoLanguage":"en","alternateName":"Minnesota","isPreferredName":true,"isShortName":true,"isColloquial":false,"isHistoric":false}]},"__N_SSG":true}