{"pageProps":{"locale":"en","admin2":{"geonameid":5052059,"name":"Watonwan County","country":"US","admin1":"MN","admin2":"165","admin3":"","latitude":"43.9784300","longitude":"-94.6140600","localeAltName":null},"admin1":{"geonameid":5037779,"name":"Minnesota","admin1":"MN","localeAltName":"Minnesota"},"locations":[{"geonameid":5019847,"name":"Butterfield","admin3":"08992","localeAltName":null},{"geonameid":5036191,"name":"Madelia","admin3":"39230","localeAltName":null},{"geonameid":5044563,"name":"Saint James","admin3":"57040","localeAltName":null}],"admin3":[{"geonameid":5015896,"name":"Township of Adrian","admin3":"00280"},{"geonameid":5016472,"name":"Township of Antrim","admin3":"01810"},{"geonameid":5019861,"name":"City of Butterfield","admin3":"08992","localeAltName":null},{"geonameid":5019862,"name":"Township of Butterfield","admin3":"09010"},{"geonameid":5023859,"name":"City of Darfur","admin3":"14770"},{"geonameid":5026458,"name":"Township of Fieldon","admin3":"21014"},{"geonameid":5033609,"name":"City of La Salle","admin3":"35702"},{"geonameid":5034561,"name":"City of Lewisville","admin3":"36818"},{"geonameid":5035626,"name":"Township of Long Lake","admin3":"38024"},{"geonameid":5036206,"name":"City of Madelia","admin3":"39230","localeAltName":null},{"geonameid":5036207,"name":"Township of Madelia","admin3":"39248"},{"geonameid":5039008,"name":"Township of Nelson","admin3":"45124"},{"geonameid":5040059,"name":"City of Odin","admin3":"48094"},{"geonameid":5040060,"name":"Township of Odin","admin3":"48112"},{"geonameid":5043322,"name":"Township of Riverdale","admin3":"54556"},{"geonameid":5043796,"name":"Township of Rosendale","admin3":"55780"},{"geonameid":5044605,"name":"City of Saint James","admin3":"57040","localeAltName":null},{"geonameid":5044606,"name":"Township of Saint James","admin3":"57058"},{"geonameid":5047915,"name":"Township of South Branch","admin3":"61276"}],"alternateNames":[{"alternatenameId":2089541,"geonameid":5037779,"isoLanguage":"en","alternateName":"Minnesota","isPreferredName":true,"isShortName":true,"isColloquial":false,"isHistoric":false}]},"__N_SSG":true}