{"pageProps":{"locale":"en","admin2":{"geonameid":5052862,"name":"Wilkin County","country":"US","admin1":"MN","admin2":"167","admin3":"","latitude":"46.3570800","longitude":"-96.4683500","localeAltName":null},"admin1":{"geonameid":5037779,"name":"Minnesota","admin1":"MN","localeAltName":"Minnesota"},"locations":[{"geonameid":5019168,"name":"Breckenridge","admin3":"07462","localeAltName":null}],"admin3":[{"geonameid":5015992,"name":"Township of Akron","admin3":"00550"},{"geonameid":5016378,"name":"Township of Andrea","admin3":"01522"},{"geonameid":5016801,"name":"Township of Atherton","admin3":"02620"},{"geonameid":5019095,"name":"Township of Bradford","admin3":"07264"},{"geonameid":5019145,"name":"Township of Brandrup","admin3":"07372"},{"geonameid":5019180,"name":"City of Breckenridge","admin3":"07462","localeAltName":null},{"geonameid":5019181,"name":"Township of Breckenridge","admin3":"07480"},{"geonameid":5020229,"name":"Township of Campbell","admin3":"09514"},{"geonameid":5020242,"name":"City of Campbell","admin3":"09496"},{"geonameid":5020858,"name":"Township of Champion","admin3":"10828"},{"geonameid":5021953,"name":"Township of Connelly","admin3":"12970"},{"geonameid":5024122,"name":"Township of Deerhorn","admin3":"15274"},{"geonameid":5024523,"name":"City of Doran","admin3":"16156"},{"geonameid":5027288,"name":"City of Foxhome","admin3":"22202"},{"geonameid":5027289,"name":"Township of Foxhome","admin3":"22220"},{"geonameid":5033085,"name":"City of Kent","admin3":"32786"},{"geonameid":5036459,"name":"Township of Manston","admin3":"39968"},{"geonameid":5036984,"name":"Township of McCauleyville","admin3":"38924"},{"geonameid":5037152,"name":"Township of Meadows","admin3":"41408"},{"geonameid":5037924,"name":"Township of Mitchell","admin3":"43522"},{"geonameid":5038912,"name":"City of Nashua","admin3":"44944"},{"geonameid":5039288,"name":"Township of Nilsen","admin3":"46276"},{"geonameid":5039369,"name":"Township of Nordick","admin3":"46528"},{"geonameid":5042282,"name":"Township of Prairie View","admin3":"52324"},{"geonameid":5043452,"name":"Township of Roberts","admin3":"54826"},{"geonameid":5043844,"name":"City of Rothsay","admin3":"56014"},{"geonameid":5049253,"name":"Township of Sunnyside","admin3":"63562"},{"geonameid":5049704,"name":"Township of Tanberg","admin3":"64174"},{"geonameid":5053325,"name":"City of Wolverton","admin3":"71392"},{"geonameid":5053326,"name":"Township of Wolverton","admin3":"71410"}],"alternateNames":[{"alternatenameId":2089541,"geonameid":5037779,"isoLanguage":"en","alternateName":"Minnesota","isPreferredName":true,"isShortName":true,"isColloquial":false,"isHistoric":false}]},"__N_SSG":true}