{"pageProps":{"locale":"en","admin2":{"geonameid":4810630,"name":"Kanawha County","country":"US","admin1":"WV","admin2":"039","admin3":"","latitude":"38.3365700","longitude":"-81.5281200","localeAltName":null},"admin1":{"geonameid":4826850,"name":"West Virginia","admin1":"WV","localeAltName":"West Virginia"},"locations":[{"geonameid":4797174,"name":"Alum Creek","admin3":"","localeAltName":null},{"geonameid":4798559,"name":"Belle","admin3":"","localeAltName":null},{"geonameid":4798993,"name":"Big Chimney","admin3":"","localeAltName":null},{"geonameid":4801641,"name":"Cedar Grove","admin3":"","localeAltName":null},{"geonameid":4801859,"name":"Charleston","admin3":"","localeAltName":null},{"geonameid":4801904,"name":"Chelyan","admin3":"","localeAltName":null},{"geonameid":4801966,"name":"Chesapeake","admin3":"","localeAltName":null},{"geonameid":4802417,"name":"Clendenin","admin3":"","localeAltName":null},{"geonameid":4802527,"name":"Coal Fork","admin3":"","localeAltName":null},{"geonameid":4803372,"name":"Cross Lanes","admin3":"","localeAltName":null},{"geonameid":4804563,"name":"Dunbar","admin3":"","localeAltName":null},{"geonameid":4804700,"name":"East Bank","admin3":"","localeAltName":null},{"geonameid":4805077,"name":"Elkview","admin3":"","localeAltName":null},{"geonameid":4807054,"name":"Glasgow","admin3":"","localeAltName":null},{"geonameid":4810160,"name":"Jefferson","admin3":"","localeAltName":null},{"geonameid":4813783,"name":"Marmet","admin3":"","localeAltName":null},{"geonameid":4815241,"name":"Montgomery","admin3":"","localeAltName":null},{"geonameid":4816665,"name":"Nitro","admin3":"","localeAltName":null},{"geonameid":4818227,"name":"Pinch","admin3":"","localeAltName":null},{"geonameid":4819000,"name":"Pratt","admin3":"","localeAltName":null},{"geonameid":4819360,"name":"Rand","admin3":"","localeAltName":null},{"geonameid":4820938,"name":"Saint Albans","admin3":"","localeAltName":null},{"geonameid":4822136,"name":"Shrewsbury","admin3":"","localeAltName":null},{"geonameid":4822310,"name":"Sissonville","admin3":"","localeAltName":null},{"geonameid":4822764,"name":"South Charleston","admin3":"","localeAltName":null},{"geonameid":4825617,"name":"Tornado","admin3":"","localeAltName":null}],"admin3":[{"geonameid":11788557,"name":"City of Charleston","admin3":"11788557"}],"alternateNames":[{"alternatenameId":2124822,"geonameid":4826850,"isoLanguage":"en","alternateName":"West Virginia","isPreferredName":true,"isShortName":true,"isColloquial":false,"isHistoric":false}]},"__N_SSG":true}