{"pageProps":{"locale":"de","admin2":{"geonameid":6458896,"name":"Aigle District","country":"CH","admin1":"VD","admin2":"2221","admin3":"","latitude":"46.3057700","longitude":"7.0297400"},"admin1":{"geonameid":2658182,"name":"Canton de Vaud","admin1":"VD"},"locations":[{"geonameid":2661834,"name":"Aigle","admin3":"5401"},{"geonameid":2661527,"name":"Bex","admin3":"5402"},{"geonameid":2661123,"name":"Corbeyrier","admin3":"5404"},{"geonameid":2660462,"name":"Gryon","admin3":"5405"},{"geonameid":2659900,"name":"Leysin","admin3":"5407"},{"geonameid":2659298,"name":"Ollon","admin3":"5409"},{"geonameid":2659003,"name":"Roche","admin3":"5413"},{"geonameid":2658126,"name":"Villars-sur-Ollon","admin3":"5409"},{"geonameid":2658123,"name":"Villeneuve","admin3":"5414"},{"geonameid":2657939,"name":"Yvorne","admin3":"5415"}],"admin3":[{"geonameid":2659284,"name":"Ormont-Dessus","admin3":"5411"},{"geonameid":2659285,"name":"Ormont-Dessous","admin3":"5410"},{"geonameid":2659299,"name":"Ollon","admin3":"5409"},{"geonameid":7285042,"name":"Aigle","admin3":"5401"},{"geonameid":7285233,"name":"Bex","admin3":"5402"},{"geonameid":7285504,"name":"Chessel","admin3":"5403"},{"geonameid":7285547,"name":"Corbeyrier","admin3":"5404"},{"geonameid":7285997,"name":"Gryon","admin3":"5405"},{"geonameid":7286289,"name":"Lavey-Morcles","admin3":"5406"},{"geonameid":7286343,"name":"Leysin","admin3":"5407"},{"geonameid":7286664,"name":"Noville","admin3":"5408"},{"geonameid":7286886,"name":"Rennaz","admin3":"5412"},{"geonameid":7286923,"name":"Roche (VD)","admin3":"5413"},{"geonameid":7287474,"name":"Villeneuve (VD)","admin3":"5414"},{"geonameid":7287622,"name":"Yvorne","admin3":"5415"}],"alternateNames":[]},"__N_SSG":true}