{"pageProps":{"locale":"ro","admin2":{"geonameid":667719,"name":"Comuna Scărişoara","country":"RO","admin1":"01","admin2":"7197","admin3":"","latitude":"46.4607200","longitude":"22.8816600"},"admin1":{"geonameid":686581,"name":"Alba","admin1":"01"},"locations":[{"geonameid":684794,"name":"Bârleşti","admin3":""},{"geonameid":684463,"name":"Botești","admin3":""},{"geonameid":680488,"name":"Coţoci","admin3":""},{"geonameid":679596,"name":"Dealu Ordâncuşii","admin3":""},{"geonameid":679250,"name":"Dobreşti","admin3":""},{"geonameid":678612,"name":"După Pleşe","admin3":""},{"geonameid":678408,"name":"Fața-Lăzești","admin3":""},{"geonameid":678054,"name":"Florești","admin3":""},{"geonameid":674963,"name":"Lăzeşti","admin3":""},{"geonameid":674846,"name":"Lespezea","admin3":""},{"geonameid":673679,"name":"Maței","admin3":""},{"geonameid":672376,"name":"Negești","admin3":""},{"geonameid":669760,"name":"Potionci","admin3":""},{"geonameid":669683,"name":"Prelucă","admin3":""},{"geonameid":668477,"name":"Runc","admin3":""},{"geonameid":667721,"name":"Scărişoara","admin3":""},{"geonameid":667287,"name":"Sfoartea","admin3":""},{"geonameid":666080,"name":"Știuleți","admin3":""},{"geonameid":665034,"name":"Trâncești","admin3":""},{"geonameid":664612,"name":"Trifeşti","admin3":""}],"admin3":[],"alternateNames":[]},"__N_SSG":true}