{"pageProps":{"locale":"en","admin2":{"geonameid":2749277,"name":"Gemeente Opsterland","country":"NL","admin1":"02","admin2":"0086","admin3":"","latitude":"53.0484900","longitude":"6.1212800"},"admin1":{"geonameid":2755812,"name":"Provincie Friesland","admin1":"02"},"locations":[{"geonameid":2759896,"name":"Allardsoog","admin3":""},{"geonameid":2759486,"name":"Bakkeveen","admin3":""},{"geonameid":2759275,"name":"Beetsterzwaag","admin3":""},{"geonameid":2758891,"name":"Bisschop","admin3":""},{"geonameid":11746708,"name":"Drachten-Azeven","admin3":""},{"geonameid":2755819,"name":"Frieschepalen","admin3":""},{"geonameid":2755429,"name":"Gorredijk","admin3":""},{"geonameid":2755095,"name":"Grootwijngaarden","admin3":""},{"geonameid":2754896,"name":"Haneburen","admin3":""},{"geonameid":2754581,"name":"Heidehuizen","admin3":""},{"geonameid":2754417,"name":"Hemrik","admin3":""},{"geonameid":2754416,"name":"Hemrikerverlaat","admin3":""},{"geonameid":2753271,"name":"Janssenstichting","admin3":""},{"geonameid":2753210,"name":"Jonkersland","admin3":""},{"geonameid":2752692,"name":"Klein Groningen","admin3":""},{"geonameid":2752649,"name":"Klidse","admin3":""},{"geonameid":2752400,"name":"Kortezwaag","admin3":""},{"geonameid":2751894,"name":"Langezwaag","admin3":""},{"geonameid":2751551,"name":"Lippenhuizen","admin3":""},{"geonameid":2751348,"name":"Luxterhoek","admin3":""},{"geonameid":2751347,"name":"Luxwoude","admin3":""},{"geonameid":2750226,"name":"Nieuwe Vaart","admin3":""},{"geonameid":2750103,"name":"Nij Beets","admin3":""},{"geonameid":2749622,"name":"Olterterp","admin3":""},{"geonameid":2749476,"name":"Oosterend","admin3":""},{"geonameid":2749283,"name":"Opperburen","admin3":""},{"geonameid":2749184,"name":"Oud-Beets","admin3":""},{"geonameid":2747395,"name":"Selmien","admin3":""},{"geonameid":2747339,"name":"Siegerswoude","admin3":""},{"geonameid":2746970,"name":"Sparjebird","admin3":""},{"geonameid":2746398,"name":"Terwispel","admin3":""},{"geonameid":2746304,"name":"Tijnje","admin3":""},{"geonameid":2745991,"name":"Uilesprong","admin3":""},{"geonameid":2745936,"name":"Ureterp","admin3":""},{"geonameid":2745935,"name":"Ureterp aan de Vaart","admin3":""},{"geonameid":2745235,"name":"Vosseburen","admin3":""},{"geonameid":2744460,"name":"Wijnjeterpverlaat","admin3":""},{"geonameid":2744459,"name":"Wijnjewoude","admin3":""}],"admin3":[],"alternateNames":[{"alternatenameId":5463435,"geonameid":2755812,"isoLanguage":"de","alternateName":"Friesland","isPreferredName":true,"isShortName":true,"isColloquial":false,"isHistoric":false}]},"__N_SSG":true}