{"pageProps":{"locale":"en","admin2":{"geonameid":4125858,"name":"Perry County","country":"US","admin1":"AR","admin2":"105","admin3":"","latitude":"34.9473700","longitude":"-92.9314700","localeAltName":null},"admin1":{"geonameid":4099753,"name":"Arkansas","admin1":"AR","localeAltName":"Arkansas"},"locations":[{"geonameid":4125875,"name":"Perryville","admin3":"91326","localeAltName":null}],"admin3":[{"geonameid":4099582,"name":"Township of Aplin","admin3":"90048"},{"geonameid":4104738,"name":"Township of Casa","admin3":"90690"},{"geonameid":4105463,"name":"Township of Cherry Hill","admin3":"90771"},{"geonameid":4111521,"name":"Township of Fourche Lafave","admin3":"91326","localeAltName":null},{"geonameid":4115456,"name":"Township of Houston","admin3":"91776"},{"geonameid":4117355,"name":"Township of Kenney","admin3":"92022"},{"geonameid":4118158,"name":"Township of Lake","admin3":"92091"},{"geonameid":4120805,"name":"Township of Maumelle","admin3":"92436"},{"geonameid":4123776,"name":"Township of New Tennessee","admin3":"92682"},{"geonameid":4125868,"name":"Township of Perry","admin3":"92850"},{"geonameid":4125935,"name":"Township of Petit Jean","admin3":"92862"},{"geonameid":4127871,"name":"Township of Rankin","admin3":"93054"},{"geonameid":4129016,"name":"Township of Rose Creek","admin3":"93228"},{"geonameid":4134218,"name":"Township of Tyler","admin3":"93653"},{"geonameid":4134445,"name":"Township of Union Valley","admin3":"93735"},{"geonameid":4134462,"name":"Township of Union","admin3":"93714"},{"geonameid":4137195,"name":"Township of Wye","admin3":"94119"}],"alternateNames":[{"alternatenameId":1979420,"geonameid":4099753,"isoLanguage":"en","alternateName":"Arkansas","isPreferredName":true,"isShortName":true,"isColloquial":false,"isHistoric":false}]},"__N_SSG":true}