{"pageProps":{"locale":"en","admin2":{"geonameid":5856194,"name":"Honolulu County","country":"US","admin1":"HI","admin2":"003","admin3":"","latitude":"21.4554300","longitude":"-157.9613800","localeAltName":null},"admin1":{"geonameid":5855797,"name":"Hawaii","admin1":"HI","localeAltName":"Hawaii"},"locations":[{"geonameid":5856516,"name":"‘Āhuimanu","admin3":"","localeAltName":null},{"geonameid":5856430,"name":"‘Aiea","admin3":"","localeAltName":null},{"geonameid":5855051,"name":"‘Ewa Beach","admin3":"","localeAltName":null},{"geonameid":5855070,"name":"‘Ewa Gentry","admin3":"","localeAltName":null},{"geonameid":5855073,"name":"‘Ewa Villages","admin3":"","localeAltName":null},{"geonameid":7315245,"name":"East Honolulu","admin3":"","localeAltName":null},{"geonameid":5855319,"name":"Hālawa","admin3":"","localeAltName":null},{"geonameid":5855327,"name":"Hālawa Heights","admin3":"","localeAltName":null},{"geonameid":5855420,"name":"Hale‘iwa","admin3":"","localeAltName":null},{"geonameid":5855741,"name":"Hau‘ula","admin3":"","localeAltName":null},{"geonameid":5855847,"name":"He‘eia","admin3":"","localeAltName":null},{"geonameid":7262713,"name":"Hickam Field","admin3":"","localeAltName":null},{"geonameid":5856195,"name":"Honolulu","admin3":"","localeAltName":null},{"geonameid":5856563,"name":"Iroquois Point","admin3":"","localeAltName":null},{"geonameid":5856759,"name":"Ka‘a‘awa","admin3":"","localeAltName":null},{"geonameid":5847207,"name":"Kahalu‘u","admin3":"","localeAltName":null},{"geonameid":5847387,"name":"Kahuku","admin3":"","localeAltName":null},{"geonameid":5847486,"name":"Kailua","admin3":"","localeAltName":null},{"geonameid":5848189,"name":"Kaneohe","admin3":"","localeAltName":null},{"geonameid":6957263,"name":"Kapolei","admin3":"","localeAltName":null},{"geonameid":5850027,"name":"Lā‘ie","admin3":"","localeAltName":null},{"geonameid":5850492,"name":"Mā‘ili","admin3":"","localeAltName":null},{"geonameid":5850511,"name":"Mākaha","admin3":"","localeAltName":null},{"geonameid":5850522,"name":"Mākaha Valley","admin3":"","localeAltName":null},{"geonameid":7262761,"name":"Makakilo","admin3":"","localeAltName":null},{"geonameid":5850554,"name":"Makakilo City","admin3":"","localeAltName":null},{"geonameid":7262734,"name":"Marine Corps Base Hawaii - MCBH","admin3":"","localeAltName":null},{"geonameid":5850966,"name":"Maunawili","admin3":"","localeAltName":null},{"geonameid":5851030,"name":"Mililani Town","admin3":"","localeAltName":null},{"geonameid":5851156,"name":"Mokulēia","admin3":"","localeAltName":null},{"geonameid":5851349,"name":"Nānākuli","admin3":"","localeAltName":null},{"geonameid":7315246,"name":"Ocean Pointe","admin3":"","localeAltName":null},{"geonameid":5852275,"name":"Pearl City","admin3":"7306149","localeAltName":null},{"geonameid":5852773,"name":"Punalu‘u","admin3":"","localeAltName":null},{"geonameid":5852774,"name":"Punaluu","admin3":"","localeAltName":null},{"geonameid":5852824,"name":"Pupukea","admin3":"","localeAltName":null},{"geonameid":7262791,"name":"Royal Kunia","admin3":"","localeAltName":null},{"geonameid":7262790,"name":"Schofield Barracks","admin3":"","localeAltName":null},{"geonameid":5853965,"name":"Village Park","admin3":"","localeAltName":null},{"geonameid":5853992,"name":"Wahiawā","admin3":"","localeAltName":null},{"geonameid":5854171,"name":"Waialua","admin3":"","localeAltName":null},{"geonameid":5854189,"name":"Waianae","admin3":"","localeAltName":null},{"geonameid":5854345,"name":"Waikane","admin3":"","localeAltName":null},{"geonameid":5854530,"name":"Waimalu","admin3":"","localeAltName":null},{"geonameid":5854532,"name":"Waimanalo","admin3":"","localeAltName":null},{"geonameid":5854535,"name":"Waimānalo Beach","admin3":"","localeAltName":null},{"geonameid":5854686,"name":"Waipahu","admin3":"","localeAltName":null},{"geonameid":5854718,"name":"Waipi‘o Acres","admin3":"","localeAltName":null},{"geonameid":5854717,"name":"Waipio","admin3":"","localeAltName":null},{"geonameid":5854857,"name":"Whitmore Village","admin3":"","localeAltName":null}],"admin3":[],"alternateNames":[{"alternatenameId":1632575,"geonameid":5855797,"isoLanguage":"en","alternateName":"Hawaii","isPreferredName":true,"isShortName":true,"isColloquial":false,"isHistoric":false}]},"__N_SSG":true}