{"pageProps":{"locale":"en","admin2":{"geonameid":5848514,"name":"Kauai County","country":"US","admin1":"HI","admin2":"007","admin3":"","latitude":"22.0110800","longitude":"-159.7054400","localeAltName":null},"admin1":{"geonameid":5855797,"name":"Hawaii","admin1":"HI","localeAltName":"Hawaii"},"locations":[{"geonameid":5855028,"name":"‘Ele‘ele","admin3":"","localeAltName":null},{"geonameid":5851719,"name":"‘Ōma‘o","admin3":"","localeAltName":null},{"geonameid":5857121,"name":"Anahola","admin3":"","localeAltName":null},{"geonameid":5855629,"name":"Hanamā‘ulu","admin3":"","localeAltName":null},{"geonameid":5855631,"name":"Hanapēpē","admin3":"","localeAltName":null},{"geonameid":5855644,"name":"Hanapēpē Heights","admin3":"","localeAltName":null},{"geonameid":5847662,"name":"Kalāheo","admin3":"","localeAltName":null},{"geonameid":5848280,"name":"Kapa‘a","admin3":"","localeAltName":null},{"geonameid":5848621,"name":"Kaumakani","admin3":"","localeAltName":null},{"geonameid":5849164,"name":"Kekaha","admin3":"","localeAltName":null},{"geonameid":5849346,"name":"Kīlauea","admin3":"","localeAltName":null},{"geonameid":5849616,"name":"Koloa","admin3":"","localeAltName":null},{"geonameid":5850181,"name":"Lawai","admin3":"","localeAltName":null},{"geonameid":5850248,"name":"Lihue","admin3":"","localeAltName":null},{"geonameid":5852508,"name":"Po‘ipū","admin3":"","localeAltName":null},{"geonameid":5852602,"name":"Princeville","admin3":"","localeAltName":null},{"geonameid":5852676,"name":"Puhi","admin3":"","localeAltName":null},{"geonameid":5854469,"name":"Wailua","admin3":"","localeAltName":null},{"geonameid":7262802,"name":"Wailua Homesteads","admin3":"","localeAltName":null},{"geonameid":5854564,"name":"Waimea","admin3":"","localeAltName":null}],"admin3":[{"geonameid":5855598,"name":"Hanalei (CDP)","admin3":"5855598"}],"alternateNames":[{"alternatenameId":1632575,"geonameid":5855797,"isoLanguage":"en","alternateName":"Hawaii","isPreferredName":true,"isShortName":true,"isColloquial":false,"isHistoric":false}]},"__N_SSG":true}