{"pageProps":{"locale":"it","admin2":{"geonameid":3182163,"name":"Provincia di Bergamo","country":"IT","admin1":"09","admin2":"BG","admin3":"","latitude":"45.8333300","longitude":"9.8000000","localeAltName":"Bergamo"},"admin1":{"geonameid":3174618,"name":"Lombardia","admin1":"09","localeAltName":"Lombardia"},"locations":[{"geonameid":8949114,"name":"Abbazia","admin3":"016004","localeAltName":null},{"geonameid":6535155,"name":"Adrara San Martino","admin3":"016001","localeAltName":null},{"geonameid":6534952,"name":"Adrara San Rocco","admin3":"016002","localeAltName":null},{"geonameid":3183355,"name":"Albano Sant'Alessandro","admin3":"016003","localeAltName":null},{"geonameid":3183316,"name":"Albino","admin3":"016004","localeAltName":null},{"geonameid":3183260,"name":"Almè","admin3":"016005","localeAltName":null},{"geonameid":3183259,"name":"Almenno San Bartolomeo","admin3":"016006","localeAltName":null},{"geonameid":3183258,"name":"Almenno San Salvatore","admin3":"016007","localeAltName":null},{"geonameid":3183135,"name":"Alzano Lombardo","admin3":"016008","localeAltName":null},{"geonameid":6534953,"name":"Ambivere","admin3":"016009","localeAltName":null},{"geonameid":8949615,"name":"Ambria-Spino","admin3":"016246","localeAltName":null},{"geonameid":3183041,"name":"Antegnate","admin3":"016010","localeAltName":null},{"geonameid":3182919,"name":"Arcene","admin3":"016011","localeAltName":null},{"geonameid":3182893,"name":"Ardesio","admin3":"016012","localeAltName":null},{"geonameid":6535156,"name":"Arzago d'Adda","admin3":"016013","localeAltName":null},{"geonameid":6535157,"name":"Azzano San Paolo","admin3":"016016","localeAltName":null},{"geonameid":8949365,"name":"Badalasco","admin3":"016096","localeAltName":null},{"geonameid":6535158,"name":"Bagnatica","admin3":"016018","localeAltName":null},{"geonameid":6534955,"name":"Barbata","admin3":"016019","localeAltName":null},{"geonameid":6535159,"name":"Bariano","admin3":"016020","localeAltName":null},{"geonameid":3182327,"name":"Barzana","admin3":"016021","localeAltName":null},{"geonameid":8949446,"name":"Basella","admin3":"016222","localeAltName":null},{"geonameid":6534491,"name":"Bedulita","admin3":"016022","localeAltName":null},{"geonameid":6535160,"name":"Berbenno","admin3":"016023","localeAltName":null},{"geonameid":3182164,"name":"Bergamo","admin3":"016024","localeAltName":null},{"geonameid":6535161,"name":"Berzo San Fermo","admin3":"016025","localeAltName":null},{"geonameid":6535162,"name":"Bolgare","admin3":"016028","localeAltName":null},{"geonameid":6534957,"name":"Boltiere","admin3":"016029","localeAltName":null},{"geonameid":3181896,"name":"Bonate Sopra","admin3":"016030","localeAltName":null},{"geonameid":6534958,"name":"Bonate Sotto","admin3":"016031","localeAltName":null},{"geonameid":3164960,"name":"Bondione","admin3":"016223","localeAltName":null},{"geonameid":3181804,"name":"Borgo di Terzo","admin3":"016032","localeAltName":null},{"geonameid":6534959,"name":"Bossico","admin3":"016033","localeAltName":null},{"geonameid":3181669,"name":"Botta","admin3":"016196","localeAltName":null},{"geonameid":9036161,"name":"Botta","admin3":"016127","localeAltName":null},{"geonameid":3181668,"name":"Bottanuco","admin3":"016034","localeAltName":null},{"geonameid":6535774,"name":"Branzi","admin3":"016036","localeAltName":null},{"geonameid":3181577,"name":"Brembate","admin3":"016037","localeAltName":null},{"geonameid":6535775,"name":"Brembate di Sopra","admin3":"016038","localeAltName":null},{"geonameid":3181576,"name":"Brembilla","admin3":"016253","localeAltName":null},{"geonameid":3181532,"name":"Brignano Gera d'Adda","admin3":"016040","localeAltName":null},{"geonameid":6301942,"name":"Brusaporto","admin3":"016042","localeAltName":null},{"geonameid":8949614,"name":"Calchera-Frontale","admin3":"016186","localeAltName":null},{"geonameid":3181224,"name":"Calcinate","admin3":"016043","localeAltName":null},{"geonameid":3181220,"name":"Calcio","admin3":"016044","localeAltName":null},{"geonameid":3181165,"name":"Calusco d'Adda","admin3":"016046","localeAltName":null},{"geonameid":3181150,"name":"Calvenzano","admin3":"016047","localeAltName":null},{"geonameid":3181100,"name":"Camerata Cornello","admin3":"016048","localeAltName":null},{"geonameid":8949868,"name":"Camoneone","admin3":"016050","localeAltName":null},{"geonameid":6534492,"name":"Canonica d'Adda","admin3":"016049","localeAltName":null},{"geonameid":3180626,"name":"Capriate San Gervasio","admin3":"016051","localeAltName":null},{"geonameid":3180612,"name":"Caprino","admin3":"016052","localeAltName":null},{"geonameid":3180580,"name":"Caravaggio","admin3":"016053","localeAltName":null},{"geonameid":8948806,"name":"Carobbio","admin3":"016055","localeAltName":null},{"geonameid":6534493,"name":"Carobbio degli Angeli","admin3":"016055","localeAltName":null},{"geonameid":3180381,"name":"Carvico","admin3":"016057","localeAltName":null},{"geonameid":3179984,"name":"Casazza","admin3":"016058","localeAltName":null},{"geonameid":8949000,"name":"Casco","admin3":"016068","localeAltName":null},{"geonameid":3179837,"name":"Casirate d'Adda","admin3":"016059","localeAltName":null},{"geonameid":3179835,"name":"Casnigo","admin3":"016060","localeAltName":null},{"geonameid":6535776,"name":"Castel Rozzone","admin3":"016063","localeAltName":null},{"geonameid":3179625,"name":"Castelli Calepio","admin3":"016062","localeAltName":null},{"geonameid":3179390,"name":"Castione della Presolana","admin3":"016064","localeAltName":null},{"geonameid":3179380,"name":"Castro","admin3":"016065","localeAltName":null},{"geonameid":6535163,"name":"Cavernago","admin3":"016066","localeAltName":null},{"geonameid":3179247,"name":"Cazzano Sant'Andrea","admin3":"016067","localeAltName":null},{"geonameid":8949749,"name":"Celatica-Tolari","admin3":"016109","localeAltName":null},{"geonameid":6534495,"name":"Cenate di Sotto","admin3":"016069","localeAltName":null},{"geonameid":6534494,"name":"Cenate Sopra","admin3":"016068","localeAltName":null},{"geonameid":3179175,"name":"Cene","admin3":"016070","localeAltName":null},{"geonameid":9036142,"name":"Cerete Basso","admin3":"016071","localeAltName":null},{"geonameid":8948869,"name":"Chiesa","admin3":"016104","localeAltName":null},{"geonameid":6534960,"name":"Chignolo d'Isola","admin3":"016072","localeAltName":null},{"geonameid":6535164,"name":"Chiuduno","admin3":"016073","localeAltName":null},{"geonameid":3178644,"name":"Cisano Bergamasco","admin3":"016074","localeAltName":null},{"geonameid":3178642,"name":"Ciserano","admin3":"016075","localeAltName":null},{"geonameid":3178603,"name":"Cividate al Piano","admin3":"016076","localeAltName":null},{"geonameid":3178541,"name":"Clusone","admin3":"016077","localeAltName":null},{"geonameid":3178455,"name":"Colere","admin3":"016078","localeAltName":null},{"geonameid":8950311,"name":"Colla-Muggiasca","admin3":"016191","localeAltName":null},{"geonameid":3178285,"name":"Cologno al Serio","admin3":"016079","localeAltName":null},{"geonameid":6534961,"name":"Colzate","admin3":"016080","localeAltName":null},{"geonameid":3178218,"name":"Comun Nuovo","admin3":"016081","localeAltName":null},{"geonameid":6535165,"name":"Cortenuova","admin3":"016083","localeAltName":null},{"geonameid":9036198,"name":"Cortenuova di Sopra","admin3":"016133","localeAltName":null},{"geonameid":3177906,"name":"Costa di Mezzate","admin3":"016084","localeAltName":null},{"geonameid":3177887,"name":"Costa Valle Imagna","admin3":"016085","localeAltName":null},{"geonameid":3177885,"name":"Costa Volpino","admin3":"016086","localeAltName":null},{"geonameid":3177866,"name":"Covo","admin3":"016087","localeAltName":null},{"geonameid":6535166,"name":"Credaro","admin3":"016088","localeAltName":null},{"geonameid":3177672,"name":"Curno","admin3":"016089","localeAltName":null},{"geonameid":3177650,"name":"Dalmine","admin3":"016091","localeAltName":null},{"geonameid":6535167,"name":"Dossena","admin3":"016092","localeAltName":null},{"geonameid":3177393,"name":"Endine","admin3":"016093","localeAltName":null},{"geonameid":6534963,"name":"Entratico","admin3":"016094","localeAltName":null},{"geonameid":3177209,"name":"Fara Gera d'Adda","admin3":"016096","localeAltName":null},{"geonameid":8949790,"name":"Favirano","admin3":"016215","localeAltName":null},{"geonameid":6534964,"name":"Filago","admin3":"016098","localeAltName":null},{"geonameid":6535168,"name":"Fino del Monte","admin3":"016099","localeAltName":null},{"geonameid":6534965,"name":"Fiorano al Serio","admin3":"016100","localeAltName":null},{"geonameid":3176809,"name":"Fontanella","admin3":"016101","localeAltName":null},{"geonameid":6534966,"name":"Fonteno","admin3":"016102","localeAltName":null},{"geonameid":6534507,"name":"Foresto Sparso","admin3":"016104","localeAltName":null},{"geonameid":3176680,"name":"Fornovo San Giovanni","admin3":"016105","localeAltName":null},{"geonameid":3176330,"name":"Gandino","admin3":"016108","localeAltName":null},{"geonameid":8949305,"name":"Gavarno Rinnovata","admin3":"016144","localeAltName":null},{"geonameid":8949071,"name":"Gavarno-Tribulina","admin3":"016194","localeAltName":null},{"geonameid":3176254,"name":"Gazzaniga","admin3":"016111","localeAltName":null},{"geonameid":8948979,"name":"Geromina","admin3":"016219","localeAltName":null},{"geonameid":9035282,"name":"Ghiaie","admin3":"016030","localeAltName":null},{"geonameid":3176163,"name":"Ghisalba","admin3":"016113","localeAltName":null},{"geonameid":6534970,"name":"Gorlago","admin3":"016114","localeAltName":null},{"geonameid":3175983,"name":"Gorle","admin3":"016115","localeAltName":null},{"geonameid":3175981,"name":"Gorno","admin3":"016116","localeAltName":null},{"geonameid":6535170,"name":"Grassobbio","admin3":"016117","localeAltName":null},{"geonameid":8949075,"name":"Grignano","admin3":"016037","localeAltName":null},{"geonameid":3175804,"name":"Gromlongo","admin3":"016156","localeAltName":null},{"geonameid":3175803,"name":"Gromo","admin3":"016118","localeAltName":null},{"geonameid":6535171,"name":"Grone","admin3":"016119","localeAltName":null},{"geonameid":3175752,"name":"Grumello del Monte","admin3":"016120","localeAltName":null},{"geonameid":3175230,"name":"Lallio","admin3":"016123","localeAltName":null},{"geonameid":8949407,"name":"Laxolo","admin3":"016253","localeAltName":null},{"geonameid":3174928,"name":"Leffe","admin3":"016124","localeAltName":null},{"geonameid":3174894,"name":"Lenna","admin3":"016125","localeAltName":null},{"geonameid":6535173,"name":"Levate","admin3":"016126","localeAltName":null},{"geonameid":6534509,"name":"Locatello","admin3":"016127","localeAltName":null},{"geonameid":3174543,"name":"Lovere","admin3":"016128","localeAltName":null},{"geonameid":6535174,"name":"Lurano","admin3":"016129","localeAltName":null},{"geonameid":3174418,"name":"Luzzana","admin3":"016130","localeAltName":null},{"geonameid":6534971,"name":"Madone","admin3":"016131","localeAltName":null},{"geonameid":3174038,"name":"Mapello","admin3":"016132","localeAltName":null},{"geonameid":8950175,"name":"Marne","admin3":"016098","localeAltName":null},{"geonameid":3173839,"name":"Martinengo","admin3":"016133","localeAltName":null},{"geonameid":7910962,"name":"Masano","admin3":"016053","localeAltName":null},{"geonameid":8949985,"name":"Masserini","admin3":"016111","localeAltName":null},{"geonameid":3173658,"name":"Medolago","admin3":"016250","localeAltName":null},{"geonameid":3173362,"name":"Misano di Gera d'Adda","admin3":"016135","localeAltName":null},{"geonameid":8950279,"name":"Monasterolo","admin3":"016137","localeAltName":null},{"geonameid":3173183,"name":"Monasterolo del Castello","admin3":"016137","localeAltName":null},{"geonameid":6535175,"name":"Montello","admin3":"016139","localeAltName":null},{"geonameid":6535176,"name":"Morengo","admin3":"016140","localeAltName":null},{"geonameid":6535177,"name":"Mornico al Serio","admin3":"016141","localeAltName":null},{"geonameid":3172496,"name":"Mozzanica","admin3":"016142","localeAltName":null},{"geonameid":6534497,"name":"Mozzo","admin3":"016143","localeAltName":null},{"geonameid":8949175,"name":"Negrone","admin3":"016194","localeAltName":null},{"geonameid":3172330,"name":"Nembro","admin3":"016144","localeAltName":null},{"geonameid":3172033,"name":"Oltre Il Colle","admin3":"016146","localeAltName":null},{"geonameid":3172012,"name":"Oneta","admin3":"016148","localeAltName":null},{"geonameid":6535778,"name":"Onore","admin3":"016149","localeAltName":null},{"geonameid":3171969,"name":"Orezzo","admin3":"016111","localeAltName":null},{"geonameid":3171953,"name":"Orio al Serio","admin3":"016150","localeAltName":null},{"geonameid":6535779,"name":"Osio Sopra","admin3":"016152","localeAltName":null},{"geonameid":6534213,"name":"Osio Sotto","admin3":"016153","localeAltName":null},{"geonameid":6535780,"name":"Pagazzano","admin3":"016154","localeAltName":null},{"geonameid":6535781,"name":"Paladina","admin3":"016155","localeAltName":null},{"geonameid":6534498,"name":"Palazzago","admin3":"016156","localeAltName":null},{"geonameid":3171550,"name":"Palosco","admin3":"016157","localeAltName":null},{"geonameid":3171445,"name":"Parre","admin3":"016158","localeAltName":null},{"geonameid":6534499,"name":"Pedrengo","admin3":"016160","localeAltName":null},{"geonameid":6534500,"name":"Peia","admin3":"016161","localeAltName":null},{"geonameid":8949121,"name":"Piangaiano","admin3":"016093","localeAltName":null},{"geonameid":6534501,"name":"Pianico","admin3":"016162","localeAltName":null},{"geonameid":6534502,"name":"Piario","admin3":"016163","localeAltName":null},{"geonameid":3170895,"name":"Piazza Brembana","admin3":"016164","localeAltName":null},{"geonameid":8948838,"name":"Piazza Caduti","admin3":"016203","localeAltName":null},{"geonameid":6534504,"name":"Pognano","admin3":"016167","localeAltName":null},{"geonameid":3170237,"name":"Ponte Nossa","admin3":"016168","localeAltName":null},{"geonameid":3170218,"name":"Ponte San Pietro","admin3":"016170","localeAltName":null},{"geonameid":6534505,"name":"Ponteranica","admin3":"016169","localeAltName":null},{"geonameid":3170198,"name":"Pontida","admin3":"016171","localeAltName":null},{"geonameid":6535783,"name":"Pontirolo Nuovo","admin3":"016172","localeAltName":null},{"geonameid":8950099,"name":"Poscante","admin3":"016246","localeAltName":null},{"geonameid":6535784,"name":"Pradalunga","admin3":"016173","localeAltName":null},{"geonameid":8950330,"name":"Pratolongo","admin3":"016203","localeAltName":null},{"geonameid":3169872,"name":"Predore","admin3":"016174","localeAltName":null},{"geonameid":6534972,"name":"Premolo","admin3":"016175","localeAltName":null},{"geonameid":6534973,"name":"Presezzo","admin3":"016176","localeAltName":null},{"geonameid":3169759,"name":"Pumenengo","admin3":"016177","localeAltName":null},{"geonameid":6535785,"name":"Ranica","admin3":"016178","localeAltName":null},{"geonameid":6534974,"name":"Riva di Solto","admin3":"016180","localeAltName":null},{"geonameid":6535179,"name":"Rogno","admin3":"016182","localeAltName":null},{"geonameid":3169056,"name":"Romano di Lombardia","admin3":"016183","localeAltName":null},{"geonameid":8949541,"name":"Roncola","admin3":"016220","localeAltName":null},{"geonameid":6534513,"name":"Rota d'Imagna","admin3":"016186","localeAltName":null},{"geonameid":3168848,"name":"Rovetta","admin3":"016187","localeAltName":null},{"geonameid":3168255,"name":"San Giovanni Bianco","admin3":"016188","localeAltName":null},{"geonameid":9036116,"name":"San Lorenzo di Rovetta","admin3":"016187","localeAltName":null},{"geonameid":6534511,"name":"San Paolo d'Argon","admin3":"016189","localeAltName":null},{"geonameid":3167875,"name":"San Pellegrino Terme","admin3":"016190","localeAltName":null},{"geonameid":8950131,"name":"Sant'Antonio","admin3":"016052","localeAltName":null},{"geonameid":6534514,"name":"Sant'Omobono Terme","admin3":"016252","localeAltName":null},{"geonameid":3167700,"name":"Santa Brigida","admin3":"016191","localeAltName":null},{"geonameid":3167117,"name":"Sarnico","admin3":"016193","localeAltName":null},{"geonameid":6534517,"name":"Scano al Brembo","admin3":"016224","localeAltName":null},{"geonameid":6534214,"name":"Scanzo-Rosciate","admin3":"016194","localeAltName":null},{"geonameid":3166919,"name":"Schilpario","admin3":"016195","localeAltName":null},{"geonameid":3166821,"name":"Sedrina","admin3":"016196","localeAltName":null},{"geonameid":8948940,"name":"Selino Basso","admin3":"016252","localeAltName":null},{"geonameid":3166763,"name":"Selvino","admin3":"016197","localeAltName":null},{"geonameid":3166706,"name":"Seriate","admin3":"016198","localeAltName":null},{"geonameid":3166704,"name":"Serina","admin3":"016199","localeAltName":null},{"geonameid":3166413,"name":"Solto Collina","admin3":"016200","localeAltName":null},{"geonameid":6535786,"name":"Solza","admin3":"016251","localeAltName":null},{"geonameid":6535182,"name":"Songavazzo","admin3":"016201","localeAltName":null},{"geonameid":3166356,"name":"Sorisole","admin3":"016202","localeAltName":null},{"geonameid":3166330,"name":"Sotto il Monte Giovanni XXIII","admin3":"016203","localeAltName":null},{"geonameid":3166321,"name":"Sovere","admin3":"016204","localeAltName":null},{"geonameid":6534512,"name":"Spinone al Lago","admin3":"016205","localeAltName":null},{"geonameid":3166238,"name":"Spirano","admin3":"016206","localeAltName":null},{"geonameid":3166151,"name":"Stezzano","admin3":"016207","localeAltName":null},{"geonameid":3166076,"name":"Strozza","admin3":"016208","localeAltName":null},{"geonameid":6535183,"name":"Suisio","admin3":"016209","localeAltName":null},{"geonameid":6534515,"name":"Taleggio","admin3":"016210","localeAltName":null},{"geonameid":3165874,"name":"Tavernola Bergamasca","admin3":"016211","localeAltName":null},{"geonameid":3165840,"name":"Telgate","admin3":"016212","localeAltName":null},{"geonameid":6535184,"name":"Terno d'Isola","admin3":"016213","localeAltName":null},{"geonameid":3165471,"name":"Torre Boldone","admin3":"016214","localeAltName":null},{"geonameid":6534519,"name":"Torre de' Roveri","admin3":"016216","localeAltName":null},{"geonameid":6535777,"name":"Torre Pallavicina","admin3":"016217","localeAltName":null},{"geonameid":3165226,"name":"Trescore Balneario","admin3":"016218","localeAltName":null},{"geonameid":3165207,"name":"Treviglio","admin3":"016219","localeAltName":null},{"geonameid":6534248,"name":"Treviolo","admin3":"016220","localeAltName":null},{"geonameid":9036153,"name":"Ubiale","admin3":"016221","localeAltName":null},{"geonameid":6534516,"name":"Ubiale Clanezzo","admin3":"016221","localeAltName":null},{"geonameid":3165031,"name":"Urgnano","admin3":"016222","localeAltName":null},{"geonameid":3164901,"name":"Vall'Alta","admin3":"016004","localeAltName":null},{"geonameid":8949934,"name":"Valtrighe","admin3":"016132","localeAltName":null},{"geonameid":6534524,"name":"Verdellino","admin3":"016232","localeAltName":null},{"geonameid":3164557,"name":"Verdello","admin3":"016233","localeAltName":null},{"geonameid":3164504,"name":"Vertova","admin3":"016234","localeAltName":null},{"geonameid":6534525,"name":"Viadanica","admin3":"016235","localeAltName":null},{"geonameid":7910960,"name":"Vidalengo","admin3":"016053","localeAltName":null},{"geonameid":6534526,"name":"Vigano San Martino","admin3":"016236","localeAltName":null},{"geonameid":6535185,"name":"Villa d'Adda","admin3":"016238","localeAltName":null},{"geonameid":3164270,"name":"Villa d'Almè","admin3":"016239","localeAltName":null},{"geonameid":6535186,"name":"Villa d'Ogna","admin3":"016241","localeAltName":null},{"geonameid":3164258,"name":"Villa di Serio","admin3":"016240","localeAltName":null},{"geonameid":8949349,"name":"Villassio","admin3":"016116","localeAltName":null},{"geonameid":3164092,"name":"Villongo","admin3":"016242","localeAltName":null},{"geonameid":9036173,"name":"Vilminore","admin3":"016243","localeAltName":null},{"geonameid":6534521,"name":"Vilminore di Scalve","admin3":"016243","localeAltName":null},{"geonameid":3163917,"name":"Zandobbio","admin3":"016244","localeAltName":null},{"geonameid":3163911,"name":"Zanica","admin3":"016245","localeAltName":null},{"geonameid":3163854,"name":"Zogno","admin3":"016246","localeAltName":null}],"admin3":[{"geonameid":3172492,"name":"Mozzo","admin3":"016143","localeAltName":null},{"geonameid":6536141,"name":"Capizzone","admin3":"016050","localeAltName":null},{"geonameid":6536142,"name":"Caprino Bergamasco","admin3":"016052","localeAltName":null},{"geonameid":6536143,"name":"Cerete","admin3":"016071","localeAltName":null},{"geonameid":6536144,"name":"Mezzoldo","admin3":"016134"},{"geonameid":6536145,"name":"Misano di Gera d'Adda","admin3":"016135","localeAltName":null},{"geonameid":6536146,"name":"Palosco","admin3":"016157","localeAltName":null},{"geonameid":6536147,"name":"Parzanica","admin3":"016159"},{"geonameid":6536148,"name":"Ponte Nossa","admin3":"016168","localeAltName":null},{"geonameid":6536149,"name":"Gorno","admin3":"016116","localeAltName":null},{"geonameid":6536150,"name":"Monasterolo del Castello","admin3":"016137","localeAltName":null},{"geonameid":6536151,"name":"Oneta","admin3":"016148","localeAltName":null},{"geonameid":6536152,"name":"San Pellegrino Terme","admin3":"016190","localeAltName":null},{"geonameid":6536153,"name":"Seriate","admin3":"016198","localeAltName":null},{"geonameid":6536154,"name":"Serina","admin3":"016199","localeAltName":null},{"geonameid":6536155,"name":"Sovere","admin3":"016204","localeAltName":null},{"geonameid":6536156,"name":"Telgate","admin3":"016212","localeAltName":null},{"geonameid":6536157,"name":"Santa Brigida","admin3":"016191","localeAltName":null},{"geonameid":6536158,"name":"Valbondione","admin3":"016223","localeAltName":null},{"geonameid":6536159,"name":"Torre Boldone","admin3":"016214","localeAltName":null},{"geonameid":6536160,"name":"Treviglio","admin3":"016219","localeAltName":null},{"geonameid":6536161,"name":"Valnegra","admin3":"016227"},{"geonameid":6536162,"name":"Valtorta","admin3":"016229"},{"geonameid":6536163,"name":"Villa d'Almè","admin3":"016239","localeAltName":null},{"geonameid":6536164,"name":"Villa di Serio","admin3":"016240","localeAltName":null},{"geonameid":6536165,"name":"Zanica","admin3":"016245","localeAltName":null},{"geonameid":6536528,"name":"Alzano Lombardo","admin3":"016008","localeAltName":null},{"geonameid":6536529,"name":"Azzone","admin3":"016017"},{"geonameid":6536530,"name":"Borgo di Terzo","admin3":"016032","localeAltName":null},{"geonameid":6536531,"name":"Bottanuco","admin3":"016034","localeAltName":null},{"geonameid":6536533,"name":"Brusaporto","admin3":"016042","localeAltName":null},{"geonameid":6536534,"name":"Casazza","admin3":"016058","localeAltName":null},{"geonameid":6536535,"name":"Castelli Calepio","admin3":"016062","localeAltName":null},{"geonameid":6536536,"name":"Ciserano","admin3":"016075","localeAltName":null},{"geonameid":6536537,"name":"Cividate al Piano","admin3":"016076","localeAltName":null},{"geonameid":6536538,"name":"Costa di Mezzate","admin3":"016084","localeAltName":null},{"geonameid":6536539,"name":"Curno","admin3":"016089","localeAltName":null},{"geonameid":6536540,"name":"Cusio","admin3":"016090"},{"geonameid":6536541,"name":"Dalmine","admin3":"016091","localeAltName":null},{"geonameid":6536542,"name":"Fornovo San Giovanni","admin3":"016105","localeAltName":null},{"geonameid":6536543,"name":"Gazzaniga","admin3":"016111","localeAltName":null},{"geonameid":6536545,"name":"Gromo","admin3":"016118","localeAltName":null},{"geonameid":6536546,"name":"Grumello del Monte","admin3":"016120","localeAltName":null},{"geonameid":6536547,"name":"Leffe","admin3":"016124","localeAltName":null},{"geonameid":6536548,"name":"Lovere","admin3":"016128","localeAltName":null},{"geonameid":6536549,"name":"San Giovanni Bianco","admin3":"016188","localeAltName":null},{"geonameid":6537143,"name":"Albano Sant'Alessandro","admin3":"016003","localeAltName":null},{"geonameid":6537144,"name":"Antegnate","admin3":"016010","localeAltName":null},{"geonameid":6537145,"name":"Ardesio","admin3":"016012","localeAltName":null},{"geonameid":6537146,"name":"Averara","admin3":"016014"},{"geonameid":6537147,"name":"Barzana","admin3":"016021","localeAltName":null},{"geonameid":6537148,"name":"Cene","admin3":"016070","localeAltName":null},{"geonameid":6537149,"name":"Clusone","admin3":"016077","localeAltName":null},{"geonameid":6537150,"name":"Cologno al Serio","admin3":"016079","localeAltName":null},{"geonameid":6537151,"name":"Costa Valle Imagna","admin3":"016085","localeAltName":null},{"geonameid":6537152,"name":"Gorle","admin3":"016115","localeAltName":null},{"geonameid":6537153,"name":"Martinengo","admin3":"016133","localeAltName":null},{"geonameid":6537154,"name":"Mozzanica","admin3":"016142","localeAltName":null},{"geonameid":6537155,"name":"Romano di Lombardia","admin3":"016183","localeAltName":null},{"geonameid":6537156,"name":"Sedrina","admin3":"016196","localeAltName":null},{"geonameid":6537158,"name":"Villongo","admin3":"016242","localeAltName":null},{"geonameid":6537159,"name":"Zandobbio","admin3":"016244","localeAltName":null},{"geonameid":6537160,"name":"Cornalba","admin3":"016249"},{"geonameid":6538007,"name":"Torre de' Busi","admin3":"016215","localeAltName":null},{"geonameid":6539486,"name":"Bonate Sopra","admin3":"016030","localeAltName":null},{"geonameid":6539487,"name":"Camerata Cornello","admin3":"016048","localeAltName":null},{"geonameid":6539488,"name":"Caravaggio","admin3":"016053","localeAltName":null},{"geonameid":6539489,"name":"Cassiglio","admin3":"016061"},{"geonameid":6539490,"name":"Olmo al Brembo","admin3":"016145"},{"geonameid":6539491,"name":"Piazza Brembana","admin3":"016164","localeAltName":null},{"geonameid":6539492,"name":"Medolago","admin3":"016250","localeAltName":null},{"geonameid":6539620,"name":"Capriate San Gervasio","admin3":"016051","localeAltName":null},{"geonameid":6539621,"name":"Carona","admin3":"016056"},{"geonameid":6539622,"name":"Ponte San Pietro","admin3":"016170","localeAltName":null},{"geonameid":6539782,"name":"Almè","admin3":"016005","localeAltName":null},{"geonameid":6539783,"name":"Castro","admin3":"016065","localeAltName":null},{"geonameid":6539784,"name":"Vigolo","admin3":"016237"},{"geonameid":6540172,"name":"Calusco d'Adda","admin3":"016046","localeAltName":null},{"geonameid":6540173,"name":"Calvenzano","admin3":"016047","localeAltName":null},{"geonameid":6540174,"name":"Carvico","admin3":"016057","localeAltName":null},{"geonameid":6540175,"name":"Oltre il Colle","admin3":"016146","localeAltName":null},{"geonameid":6540176,"name":"Ornica","admin3":"016151"},{"geonameid":6540177,"name":"Endine Gaiano","admin3":"016093","localeAltName":null},{"geonameid":6540178,"name":"Sarnico","admin3":"016193","localeAltName":null},{"geonameid":6540179,"name":"Strozza","admin3":"016208","localeAltName":null},{"geonameid":6540180,"name":"Tavernola Bergamasca","admin3":"016211","localeAltName":null},{"geonameid":6540342,"name":"Albino","admin3":"016004","localeAltName":null},{"geonameid":6540343,"name":"Almenno San Bartolomeo","admin3":"016006","localeAltName":null},{"geonameid":6540344,"name":"Brumano","admin3":"016041"},{"geonameid":6540345,"name":"Cazzano Sant'Andrea","admin3":"016067","localeAltName":null},{"geonameid":6540346,"name":"Foppolo","admin3":"016103"},{"geonameid":6540347,"name":"Ghisalba","admin3":"016113","localeAltName":null},{"geonameid":6540348,"name":"Lenna","admin3":"016125","localeAltName":null},{"geonameid":6540593,"name":"Almenno San Salvatore","admin3":"016007","localeAltName":null},{"geonameid":6540594,"name":"Arcene","admin3":"016011","localeAltName":null},{"geonameid":6540595,"name":"Cisano Bergamasco","admin3":"016074","localeAltName":null},{"geonameid":6540596,"name":"Gandino","admin3":"016108","localeAltName":null},{"geonameid":6540597,"name":"Luzzana","admin3":"016130","localeAltName":null},{"geonameid":6540598,"name":"Nembro","admin3":"016144","localeAltName":null},{"geonameid":6540599,"name":"Rovetta","admin3":"016187","localeAltName":null},{"geonameid":6540600,"name":"Schilpario","admin3":"016195","localeAltName":null},{"geonameid":6540601,"name":"Vedeseta","admin3":"016230"},{"geonameid":6540602,"name":"Verdello","admin3":"016233","localeAltName":null},{"geonameid":6540603,"name":"Zogno","admin3":"016246","localeAltName":null},{"geonameid":6541420,"name":"Calcinate","admin3":"016043","localeAltName":null},{"geonameid":6541421,"name":"Casirate d'Adda","admin3":"016059","localeAltName":null},{"geonameid":6541422,"name":"Orio al Serio","admin3":"016150","localeAltName":null},{"geonameid":6541423,"name":"Pumenengo","admin3":"016177","localeAltName":null},{"geonameid":6541493,"name":"Calcio","admin3":"016044","localeAltName":null},{"geonameid":6541494,"name":"Piazzatorre","admin3":"016165"},{"geonameid":6541495,"name":"Predore","admin3":"016174","localeAltName":null},{"geonameid":6541523,"name":"Vertova","admin3":"016234","localeAltName":null},{"geonameid":6541563,"name":"Fara Gera d'Adda","admin3":"016096","localeAltName":null},{"geonameid":6541564,"name":"Lallio","admin3":"016123","localeAltName":null},{"geonameid":6541588,"name":"Colere","admin3":"016078","localeAltName":null},{"geonameid":6541589,"name":"Covo","admin3":"016087","localeAltName":null},{"geonameid":6541590,"name":"Mapello","admin3":"016132","localeAltName":null},{"geonameid":6541665,"name":"Costa Volpino","admin3":"016086","localeAltName":null},{"geonameid":6541666,"name":"Fontanella","admin3":"016101","localeAltName":null},{"geonameid":6541667,"name":"Selvino","admin3":"016197","localeAltName":null},{"geonameid":6541668,"name":"Solto Collina","admin3":"016200","localeAltName":null},{"geonameid":6541669,"name":"Sorisole","admin3":"016202","localeAltName":null},{"geonameid":6541670,"name":"Spirano","admin3":"016206","localeAltName":null},{"geonameid":6541671,"name":"Stezzano","admin3":"016207","localeAltName":null},{"geonameid":6541672,"name":"Urgnano","admin3":"016222","localeAltName":null},{"geonameid":6541708,"name":"Trescore Balneario","admin3":"016218","localeAltName":null},{"geonameid":6541991,"name":"Brignano Gera d'Adda","admin3":"016040","localeAltName":null},{"geonameid":6541992,"name":"Casnigo","admin3":"016060","localeAltName":null},{"geonameid":6541993,"name":"Castione della Presolana","admin3":"016064","localeAltName":null},{"geonameid":6541994,"name":"Pontida","admin3":"016171","localeAltName":null},{"geonameid":6542038,"name":"Comun Nuovo","admin3":"016081","localeAltName":null},{"geonameid":6542111,"name":"Brembate","admin3":"016037","localeAltName":null},{"geonameid":6542116,"name":"Bergamo","admin3":"016024","localeAltName":null},{"geonameid":6542163,"name":"Sotto il Monte Giovanni XXIII","admin3":"016203","localeAltName":null},{"geonameid":6542295,"name":"Osio Sotto","admin3":"016153","localeAltName":null},{"geonameid":6542296,"name":"Scanzorosciate","admin3":"016194","localeAltName":null},{"geonameid":6542322,"name":"Treviolo","admin3":"016220","localeAltName":null},{"geonameid":6542552,"name":"Bedulita","admin3":"016022","localeAltName":null},{"geonameid":6542553,"name":"Canonica d'Adda","admin3":"016049","localeAltName":null},{"geonameid":6542554,"name":"Carobbio degli Angeli","admin3":"016055","localeAltName":null},{"geonameid":6542555,"name":"Cenate Sopra","admin3":"016068","localeAltName":null},{"geonameid":6542556,"name":"Cenate Sotto","admin3":"016069","localeAltName":null},{"geonameid":6542557,"name":"Moio de' Calvi","admin3":"016136"},{"geonameid":6542558,"name":"Palazzago","admin3":"016156","localeAltName":null},{"geonameid":6542559,"name":"Pedrengo","admin3":"016160","localeAltName":null},{"geonameid":6542560,"name":"Peia","admin3":"016161","localeAltName":null},{"geonameid":6542561,"name":"Pianico","admin3":"016162","localeAltName":null},{"geonameid":6542562,"name":"Piario","admin3":"016163","localeAltName":null},{"geonameid":6542563,"name":"Piazzolo","admin3":"016166"},{"geonameid":6542564,"name":"Pognano","admin3":"016167","localeAltName":null},{"geonameid":6542565,"name":"Ponteranica","admin3":"016169","localeAltName":null},{"geonameid":6542566,"name":"Fara Olivana con Sola","admin3":"016097"},{"geonameid":6542567,"name":"Foresto Sparso","admin3":"016104","localeAltName":null},{"geonameid":6542568,"name":"Isola di Fondra","admin3":"016121"},{"geonameid":6542569,"name":"Locatello","admin3":"016127","localeAltName":null},{"geonameid":6542570,"name":"Oltressenda Alta","admin3":"016147"},{"geonameid":6542571,"name":"San Paolo d'Argon","admin3":"016189","localeAltName":null},{"geonameid":6542572,"name":"Spinone al Lago","admin3":"016205","localeAltName":null},{"geonameid":6542573,"name":"Rota d'Imagna","admin3":"016186","localeAltName":null},{"geonameid":6542574,"name":"Sant'Omobono Terme","admin3":"016252","localeAltName":null},{"geonameid":6542575,"name":"Taleggio","admin3":"016210","localeAltName":null},{"geonameid":6542576,"name":"Ubiale Clanezzo","admin3":"016221","localeAltName":null},{"geonameid":6542577,"name":"Valbrembo","admin3":"016224","localeAltName":null},{"geonameid":6542578,"name":"Valgoglio","admin3":"016225"},{"geonameid":6542579,"name":"Torre de' Roveri","admin3":"016216","localeAltName":null},{"geonameid":6542580,"name":"Valleve","admin3":"016226"},{"geonameid":6542581,"name":"Vilminore di Scalve","admin3":"016243","localeAltName":null},{"geonameid":6542584,"name":"Verdellino","admin3":"016232","localeAltName":null},{"geonameid":6542585,"name":"Viadanica","admin3":"016235","localeAltName":null},{"geonameid":6542586,"name":"Vigano San Martino","admin3":"016236","localeAltName":null},{"geonameid":6542587,"name":"Costa Serina","admin3":"016247"},{"geonameid":6542588,"name":"Algua","admin3":"016248"},{"geonameid":6542938,"name":"Adrara San Rocco","admin3":"016002","localeAltName":null},{"geonameid":6542939,"name":"Ambivere","admin3":"016009","localeAltName":null},{"geonameid":6542940,"name":"Aviatico","admin3":"016015"},{"geonameid":6542941,"name":"Barbata","admin3":"016019","localeAltName":null},{"geonameid":6542942,"name":"Bianzano","admin3":"016026"},{"geonameid":6542943,"name":"Boltiere","admin3":"016029","localeAltName":null},{"geonameid":6542944,"name":"Bonate Sotto","admin3":"016031","localeAltName":null},{"geonameid":6542945,"name":"Bossico","admin3":"016033","localeAltName":null},{"geonameid":6542946,"name":"Chignolo d'Isola","admin3":"016072","localeAltName":null},{"geonameid":6542947,"name":"Colzate","admin3":"016080","localeAltName":null},{"geonameid":6542948,"name":"Corna Imagna","admin3":"016082"},{"geonameid":6542949,"name":"Entratico","admin3":"016094","localeAltName":null},{"geonameid":6542950,"name":"Filago","admin3":"016098","localeAltName":null},{"geonameid":6542951,"name":"Fiorano al Serio","admin3":"016100","localeAltName":null},{"geonameid":6542952,"name":"Fonteno","admin3":"016102","localeAltName":null},{"geonameid":6542953,"name":"Fuipiano Valle Imagna","admin3":"016106"},{"geonameid":6542954,"name":"Gandellino","admin3":"016107"},{"geonameid":6542955,"name":"Gaverina Terme","admin3":"016110"},{"geonameid":6542956,"name":"Gorlago","admin3":"016114","localeAltName":null},{"geonameid":6542957,"name":"Madone","admin3":"016131","localeAltName":null},{"geonameid":6542958,"name":"Premolo","admin3":"016175","localeAltName":null},{"geonameid":6542959,"name":"Presezzo","admin3":"016176","localeAltName":null},{"geonameid":6542960,"name":"Riva di Solto","admin3":"016180","localeAltName":null},{"geonameid":6543140,"name":"Adrara San Martino","admin3":"016001","localeAltName":null},{"geonameid":6543141,"name":"Arzago d'Adda","admin3":"016013","localeAltName":null},{"geonameid":6543142,"name":"Azzano San Paolo","admin3":"016016","localeAltName":null},{"geonameid":6543143,"name":"Bagnatica","admin3":"016018","localeAltName":null},{"geonameid":6543144,"name":"Bariano","admin3":"016020","localeAltName":null},{"geonameid":6543145,"name":"Berbenno","admin3":"016023","localeAltName":null},{"geonameid":6543146,"name":"Berzo San Fermo","admin3":"016025","localeAltName":null},{"geonameid":6543147,"name":"Bolgare","admin3":"016028","localeAltName":null},{"geonameid":6543148,"name":"Cavernago","admin3":"016066","localeAltName":null},{"geonameid":6543149,"name":"Chiuduno","admin3":"016073","localeAltName":null},{"geonameid":6543150,"name":"Cortenuova","admin3":"016083","localeAltName":null},{"geonameid":6543151,"name":"Credaro","admin3":"016088","localeAltName":null},{"geonameid":6543152,"name":"Dossena","admin3":"016092","localeAltName":null},{"geonameid":6543153,"name":"Fino del Monte","admin3":"016099","localeAltName":null},{"geonameid":6543154,"name":"Gandosso","admin3":"016109","localeAltName":null},{"geonameid":6543155,"name":"Grassobbio","admin3":"016117","localeAltName":null},{"geonameid":6543156,"name":"Grone","admin3":"016119","localeAltName":null},{"geonameid":6543157,"name":"Isso","admin3":"016122"},{"geonameid":6543158,"name":"Levate","admin3":"016126","localeAltName":null},{"geonameid":6543159,"name":"Lurano","admin3":"016129","localeAltName":null},{"geonameid":6543160,"name":"Montello","admin3":"016139","localeAltName":null},{"geonameid":6543161,"name":"Morengo","admin3":"016140","localeAltName":null},{"geonameid":6543162,"name":"Mornico al Serio","admin3":"016141","localeAltName":null},{"geonameid":6543163,"name":"Ranzanico","admin3":"016179"},{"geonameid":6543164,"name":"Rogno","admin3":"016182","localeAltName":null},{"geonameid":6543165,"name":"Roncobello","admin3":"016184"},{"geonameid":6543166,"name":"Roncola","admin3":"016185"},{"geonameid":6543167,"name":"Songavazzo","admin3":"016201","localeAltName":null},{"geonameid":6543168,"name":"Suisio","admin3":"016209","localeAltName":null},{"geonameid":6543169,"name":"Terno d'Isola","admin3":"016213","localeAltName":null},{"geonameid":6543170,"name":"Villa d'Adda","admin3":"016238","localeAltName":null},{"geonameid":6543171,"name":"Villa d'Ogna","admin3":"016241","localeAltName":null},{"geonameid":6543743,"name":"Blello","admin3":"016027"},{"geonameid":6543745,"name":"Bracca","admin3":"016035"},{"geonameid":6543746,"name":"Branzi","admin3":"016036","localeAltName":null},{"geonameid":6543747,"name":"Brembate di Sopra","admin3":"016038","localeAltName":null},{"geonameid":6543748,"name":"Castel Rozzone","admin3":"016063","localeAltName":null},{"geonameid":6543749,"name":"Torre Pallavicina","admin3":"016217","localeAltName":null},{"geonameid":6543750,"name":"Onore","admin3":"016149","localeAltName":null},{"geonameid":6543751,"name":"Osio Sopra","admin3":"016152","localeAltName":null},{"geonameid":6543752,"name":"Pagazzano","admin3":"016154","localeAltName":null},{"geonameid":6543753,"name":"Paladina","admin3":"016155","localeAltName":null},{"geonameid":6543754,"name":"Parre","admin3":"016158","localeAltName":null},{"geonameid":6543755,"name":"Pontirolo Nuovo","admin3":"016172","localeAltName":null},{"geonameid":6543756,"name":"Pradalunga","admin3":"016173","localeAltName":null},{"geonameid":6543757,"name":"Ranica","admin3":"016178","localeAltName":null},{"geonameid":6543758,"name":"Solza","admin3":"016251","localeAltName":null},{"geonameid":11287660,"name":"Val Brembilla","admin3":"016253","localeAltName":null}],"alternateNames":[{"alternatenameId":1350323,"geonameid":3174618,"isoLanguage":"it","alternateName":"Lombardia","isPreferredName":true,"isShortName":true,"isColloquial":false,"isHistoric":false},{"alternatenameId":1352592,"geonameid":3182163,"isoLanguage":"it","alternateName":"Bergamo","isPreferredName":true,"isShortName":true,"isColloquial":false,"isHistoric":false}]},"__N_SSG":true}