{"pageProps":{"locale":"de","locations":[{"geonameid":2959571,"name":"Adamshoffnung","admin3":"13071","localeAltName":null},{"geonameid":3209174,"name":"Admannshagen-Bargeshagen","admin3":"13072","localeAltName":null},{"geonameid":2959244,"name":"Ahlbeck","admin3":"13075","localeAltName":null},{"geonameid":2958048,"name":"Alt Bukow","admin3":"13072","localeAltName":null},{"geonameid":2957080,"name":"Alt Kätwin","admin3":"13072","localeAltName":null},{"geonameid":2957061,"name":"Alt Krenzlin","admin3":"13076","localeAltName":null},{"geonameid":2956988,"name":"Alt Meteln","admin3":"13074","localeAltName":null},{"geonameid":2956912,"name":"Alt Rehse","admin3":"13071","localeAltName":null},{"geonameid":2956860,"name":"Alt Schönau","admin3":"13071","localeAltName":null},{"geonameid":2956853,"name":"Alt Schwerin","admin3":"13071","localeAltName":null},{"geonameid":2956808,"name":"Alt Sührkow","admin3":"13072","localeAltName":null},{"geonameid":2956801,"name":"Alt Tellin","admin3":"13075","localeAltName":null},{"geonameid":2956747,"name":"Alt Zachun","admin3":"13076","localeAltName":null},{"geonameid":2841684,"name":"Alt-Sanitz","admin3":"13075","localeAltName":null},{"geonameid":2957949,"name":"Altefähr","admin3":"13073","localeAltName":null},{"geonameid":2957658,"name":"Altenhagen","admin3":"13071","localeAltName":null},{"geonameid":2957600,"name":"Altenhof","admin3":"13071","localeAltName":null},{"geonameid":2957566,"name":"Altenkirchen","admin3":"13073","localeAltName":null},{"geonameid":2957516,"name":"Altenpleen","admin3":"13073","localeAltName":null},{"geonameid":2957437,"name":"Altentreptow","admin3":"13071","localeAltName":null},{"geonameid":2957087,"name":"Altkalen","admin3":"13072","localeAltName":null},{"geonameid":7284137,"name":"Altstadt","admin3":"13004","localeAltName":null},{"geonameid":2956778,"name":"Altwarp","admin3":"13075","localeAltName":null},{"geonameid":2956757,"name":"Altwigshagen","admin3":"13075","localeAltName":null},{"geonameid":2956019,"name":"Ankershagen","admin3":"13071","localeAltName":null},{"geonameid":2956018,"name":"Anklam","admin3":"13075","localeAltName":null},{"geonameid":2953528,"name":"Bad Doberan","admin3":"13072","localeAltName":null},{"geonameid":2953422,"name":"Bad Kleinen","admin3":"13074","localeAltName":null},{"geonameid":2953327,"name":"Bad Sülze","admin3":"13073","localeAltName":null},{"geonameid":2953381,"name":"Badow","admin3":"13074","localeAltName":null},{"geonameid":2953028,"name":"Balow","admin3":"13076","localeAltName":null},{"geonameid":2952964,"name":"Bandelin","admin3":"13075","localeAltName":null},{"geonameid":2952960,"name":"Bandenitz","admin3":"13076","localeAltName":null},{"geonameid":2952881,"name":"Bantin","admin3":"13076","localeAltName":null},{"geonameid":2952858,"name":"Banzin","admin3":"13076","localeAltName":null},{"geonameid":2952857,"name":"Banzkow","admin3":"13076","localeAltName":null},{"geonameid":2952644,"name":"Bargischow","admin3":"13075","localeAltName":null},{"geonameid":2952579,"name":"Barkow","admin3":"13076","localeAltName":null},{"geonameid":2952511,"name":"Barnekow","admin3":"13074","localeAltName":null},{"geonameid":2952485,"name":"Barnin","admin3":"13076","localeAltName":null},{"geonameid":2952385,"name":"Bartelshagen","admin3":"13072","localeAltName":null},{"geonameid":3209175,"name":"Bartenshagen-Parkentin","admin3":"13072","localeAltName":null},{"geonameid":2952372,"name":"Barth","admin3":"13073","localeAltName":null},{"geonameid":2952345,"name":"Bartow","admin3":"13071","localeAltName":null},{"geonameid":2952295,"name":"Basedow","admin3":"13071","localeAltName":null},{"geonameid":2952235,"name":"Bastorf","admin3":"13072","localeAltName":null},{"geonameid":2951510,"name":"Beggerow","admin3":"13071","localeAltName":null},{"geonameid":2951482,"name":"Behnkendorf","admin3":"13073","localeAltName":null},{"geonameid":2951468,"name":"Behren-Lübchin","admin3":"13072","localeAltName":null},{"geonameid":2951469,"name":"Behrenhoff","admin3":"13075","localeAltName":null},{"geonameid":2951436,"name":"Beidendorf","admin3":"13074","localeAltName":null},{"geonameid":2951202,"name":"Bellin","admin3":"13072","localeAltName":null},{"geonameid":2951164,"name":"Belsch","admin3":"13076","localeAltName":null},{"geonameid":2951081,"name":"Benitz","admin3":"13072","localeAltName":null},{"geonameid":2951018,"name":"Bennin","admin3":"13076","localeAltName":null},{"geonameid":2950934,"name":"Bentwisch","admin3":"13072","localeAltName":null},{"geonameid":2950933,"name":"Bentzin","admin3":"13075","localeAltName":null},{"geonameid":2950930,"name":"Benz","admin3":"13075","localeAltName":null},{"geonameid":2950931,"name":"Benz","admin3":"13074","localeAltName":null},{"geonameid":2950620,"name":"Bergen auf Rügen","admin3":"13073","localeAltName":null},{"geonameid":2950365,"name":"Bergholz","admin3":"13075","localeAltName":null},{"geonameid":2950003,"name":"Bernitt","admin3":"13072","localeAltName":null},{"geonameid":2949941,"name":"Bernstorf","admin3":"13074","localeAltName":null},{"geonameid":2949806,"name":"Beseritz","admin3":"13071","localeAltName":null},{"geonameid":2949802,"name":"Besitz","admin3":"13076","localeAltName":null},{"geonameid":2949366,"name":"Bibow","admin3":"13074","localeAltName":null},{"geonameid":2949160,"name":"Biendorf","admin3":"13072","localeAltName":null},{"geonameid":2948228,"name":"Bismark","admin3":"13075","localeAltName":null},{"geonameid":2948079,"name":"Blankenberg","admin3":"13076","localeAltName":null},{"geonameid":2948061,"name":"Blankenhagen","admin3":"13072","localeAltName":null},{"geonameid":2948052,"name":"Blankenhof","admin3":"13071","localeAltName":null},{"geonameid":2948037,"name":"Blankensee","admin3":"13075","localeAltName":null},{"geonameid":2948038,"name":"Blankensee","admin3":"13071","localeAltName":null},{"geonameid":2947802,"name":"Blesewitz","admin3":"13075","localeAltName":null},{"geonameid":2947733,"name":"Blievenstorf","admin3":"13076","localeAltName":null},{"geonameid":2947604,"name":"Blowatz","admin3":"13074","localeAltName":null},{"geonameid":2947552,"name":"Blumenhagen","admin3":"13075","localeAltName":null},{"geonameid":2947541,"name":"Blumenholz","admin3":"13071","localeAltName":null},{"geonameid":2947447,"name":"Bobitz","admin3":"13074","localeAltName":null},{"geonameid":2947430,"name":"Bobzin","admin3":"13076","localeAltName":null},{"geonameid":2947185,"name":"Boddin","admin3":"13072","localeAltName":null},{"geonameid":2946973,"name":"Böhlendorf","admin3":"13073","localeAltName":null},{"geonameid":2946852,"name":"Boiensdorf","admin3":"13074","localeAltName":null},{"geonameid":2946821,"name":"Boizenburg","admin3":"13076","localeAltName":null},{"geonameid":2946779,"name":"Böken","admin3":"13074","localeAltName":null},{"geonameid":2946727,"name":"Boldekow","admin3":"13075","localeAltName":null},{"geonameid":2946630,"name":"Bollewick","admin3":"13071","localeAltName":null},{"geonameid":2946396,"name":"Boock","admin3":"13075","localeAltName":null},{"geonameid":3209176,"name":"Börgerende-Rethwisch","admin3":"13072","localeAltName":null},{"geonameid":2946210,"name":"Borkow","admin3":"13076","localeAltName":null},{"geonameid":2946176,"name":"Born","admin3":"13073","localeAltName":null},{"geonameid":2946034,"name":"Borrentin","admin3":"13071","localeAltName":null},{"geonameid":2945948,"name":"Börzow","admin3":"13074","localeAltName":null},{"geonameid":2945565,"name":"Brahlstorf","admin3":"13076","localeAltName":null},{"geonameid":2945209,"name":"Brandshagen","admin3":"13073","localeAltName":null},{"geonameid":2944898,"name":"Bredenfelde","admin3":"13071","localeAltName":null},{"geonameid":2944873,"name":"Breechen","admin3":"13075","localeAltName":null},{"geonameid":2944869,"name":"Breege","admin3":"13073","localeAltName":null},{"geonameid":2944855,"name":"Breesen","admin3":"13073","localeAltName":null},{"geonameid":2944858,"name":"Breesen","admin3":"13071","localeAltName":null},{"geonameid":2944852,"name":"Breest","admin3":"13071","localeAltName":null},{"geonameid":2944237,"name":"Brenz","admin3":"13076","localeAltName":null},{"geonameid":2944226,"name":"Bresegard","admin3":"13076","localeAltName":null},{"geonameid":2944087,"name":"Briggow","admin3":"13071","localeAltName":null},{"geonameid":2944034,"name":"Bristow","admin3":"13072","localeAltName":null},{"geonameid":2944024,"name":"Bröbberow","admin3":"13072","localeAltName":null},{"geonameid":2943919,"name":"Broderstorf","admin3":"13072","localeAltName":null},{"geonameid":2943890,"name":"Brohm","admin3":"13071","localeAltName":null},{"geonameid":2943750,"name":"Broock","admin3":"13076","localeAltName":null},{"geonameid":2943368,"name":"Brudersdorf","admin3":"13071","localeAltName":null},{"geonameid":2943362,"name":"Brüel","admin3":"13076","localeAltName":null},{"geonameid":2943203,"name":"Brunn","admin3":"13071","localeAltName":null},{"geonameid":2943064,"name":"Brunow","admin3":"13076","localeAltName":null},{"geonameid":2943001,"name":"Brünzow","admin3":"13075","localeAltName":null},{"geonameid":2942992,"name":"Brüsewitz","admin3":"13074","localeAltName":null},{"geonameid":2942350,"name":"Buchholz","admin3":"13071","localeAltName":null},{"geonameid":2942095,"name":"Buddenhagen","admin3":"13075","localeAltName":null},{"geonameid":2942024,"name":"Bugewitz","admin3":"13075","localeAltName":null},{"geonameid":2942022,"name":"Buggenhagen","admin3":"13075","localeAltName":null},{"geonameid":2941758,"name":"Bülow","admin3":"13076","localeAltName":null},{"geonameid":2941107,"name":"Burg Stargard","admin3":"13071","localeAltName":null},{"geonameid":2940959,"name":"Burow","admin3":"13071","localeAltName":null},{"geonameid":2940747,"name":"Buschvitz","admin3":"13073","localeAltName":null},{"geonameid":2940649,"name":"Bütow","admin3":"13071","localeAltName":null},{"geonameid":2940476,"name":"Bützow","admin3":"13072","localeAltName":null},{"geonameid":2940477,"name":"Butzow","admin3":"13075","localeAltName":null},{"geonameid":2940379,"name":"Cambs","admin3":"13076","localeAltName":null},{"geonameid":2940375,"name":"Camin","admin3":"13076","localeAltName":null},{"geonameid":2940363,"name":"Cammin","admin3":"13072","localeAltName":null},{"geonameid":2940364,"name":"Cammin","admin3":"13071","localeAltName":null},{"geonameid":2940311,"name":"Carlow","admin3":"13074","localeAltName":null},{"geonameid":2940259,"name":"Carpin","admin3":"13071","localeAltName":null},{"geonameid":2939896,"name":"Cölpin","admin3":"13071","localeAltName":null},{"geonameid":2939782,"name":"Cramonshagen","admin3":"13074","localeAltName":null},{"geonameid":2939739,"name":"Crivitz","admin3":"13076","localeAltName":null},{"geonameid":2939645,"name":"Dabel","admin3":"13076","localeAltName":null},{"geonameid":2939634,"name":"Daberkow","admin3":"13075","localeAltName":null},{"geonameid":2939498,"name":"Dadow","admin3":"13076","localeAltName":null},{"geonameid":2939385,"name":"Dahmen","admin3":"13072","localeAltName":null},{"geonameid":2939307,"name":"Dalkendorf","admin3":"13072","localeAltName":null},{"geonameid":2939246,"name":"Dambeck","admin3":"13071","localeAltName":null},{"geonameid":2939224,"name":"Damerow","admin3":"13075","localeAltName":null},{"geonameid":2939193,"name":"Damm","admin3":"13072","localeAltName":null},{"geonameid":2939195,"name":"Damm","admin3":"13076","localeAltName":null},{"geonameid":2939074,"name":"Damshagen","admin3":"13074","localeAltName":null},{"geonameid":2938933,"name":"Dargelin","admin3":"13075","localeAltName":null},{"geonameid":2938931,"name":"Dargen","admin3":"13075","localeAltName":null},{"geonameid":2938924,"name":"Dargun","admin3":"13071","localeAltName":null},{"geonameid":2938798,"name":"Dassow","admin3":"13074","localeAltName":null},{"geonameid":2938646,"name":"Dechow","admin3":"13074","localeAltName":null},{"geonameid":2938304,"name":"Demen","admin3":"13076","localeAltName":null},{"geonameid":2938300,"name":"Demern","admin3":"13074","localeAltName":null},{"geonameid":2938284,"name":"Demmin","admin3":"13071","localeAltName":null},{"geonameid":2938019,"name":"Dersekow","admin3":"13075","localeAltName":null},{"geonameid":2938018,"name":"Dersenow","admin3":"13076","localeAltName":null},{"geonameid":2937764,"name":"Deyelsdorf","admin3":"13073","localeAltName":null},{"geonameid":2937547,"name":"Diedrichshagen","admin3":"13075","localeAltName":null},{"geonameid":2937451,"name":"Diekhof","admin3":"13072","localeAltName":null},{"geonameid":2937371,"name":"Diemitz","admin3":"13071","localeAltName":null},{"geonameid":9222696,"name":"Dierkow-Neu","admin3":"13003","localeAltName":null},{"geonameid":9222697,"name":"Dierkow-West","admin3":"13003","localeAltName":null},{"geonameid":2937201,"name":"Diestelow","admin3":"13076","localeAltName":null},{"geonameid":2936683,"name":"Dobbertin","admin3":"13076","localeAltName":null},{"geonameid":2936412,"name":"Dolgen","admin3":"13072","localeAltName":null},{"geonameid":2936292,"name":"Dömitz","admin3":"13076","localeAltName":null},{"geonameid":2936271,"name":"Domsühl","admin3":"13076","localeAltName":null},{"geonameid":2935365,"name":"Dragun","admin3":"13074","localeAltName":null},{"geonameid":2935325,"name":"Dranske","admin3":"13073","localeAltName":null},{"geonameid":2935293,"name":"Drechow","admin3":"13073","localeAltName":null},{"geonameid":2935265,"name":"Dreetz","admin3":"13072","localeAltName":null},{"geonameid":2935023,"name":"Dreschvitz","admin3":"13073","localeAltName":null},{"geonameid":2934994,"name":"Drewelow","admin3":"13075","localeAltName":null},{"geonameid":2934766,"name":"Ducherow","admin3":"13075","localeAltName":null},{"geonameid":2934756,"name":"Duckow","admin3":"13071","localeAltName":null},{"geonameid":2934643,"name":"Dümmer","admin3":"13076","localeAltName":null},{"geonameid":2934635,"name":"Dummerstorf","admin3":"13072","localeAltName":null},{"geonameid":2934158,"name":"Düvier","admin3":"13075","localeAltName":null},{"geonameid":2933042,"name":"Eggesin","admin3":"13075","localeAltName":null},{"geonameid":2932131,"name":"Eichhorst","admin3":"13071","localeAltName":null},{"geonameid":2931333,"name":"Eixen","admin3":"13073","localeAltName":null},{"geonameid":2931217,"name":"Eldena","admin3":"13076","localeAltName":null},{"geonameid":2930850,"name":"Elmenhorst","admin3":"13072","localeAltName":null},{"geonameid":2930851,"name":"Elmenhorst","admin3":"13074","localeAltName":null},{"geonameid":2930855,"name":"Elmenhorst","admin3":"13073","localeAltName":null},{"geonameid":2928175,"name":"Fahrbinde","admin3":"13076","localeAltName":null},{"geonameid":2928118,"name":"Fahrenwalde","admin3":"13075","localeAltName":null},{"geonameid":2927692,"name":"Faulenrost","admin3":"13071","localeAltName":null},{"geonameid":7284138,"name":"Feldstadt","admin3":"13004","localeAltName":null},{"geonameid":2927142,"name":"Ferdinandshof","admin3":"13075","localeAltName":null},{"geonameid":2926834,"name":"Fincken","admin3":"13071","localeAltName":null},{"geonameid":2926737,"name":"Finkenthal","admin3":"13072","localeAltName":null},{"geonameid":2925488,"name":"Franzburg","admin3":"13073","localeAltName":null},{"geonameid":2924679,"name":"Friedland","admin3":"13071","localeAltName":null},{"geonameid":2924483,"name":"Friedrichsruhe","admin3":"13076","localeAltName":null},{"geonameid":2923861,"name":"Fuhlendorf","admin3":"13073","localeAltName":null},{"geonameid":2923410,"name":"Gadebusch","admin3":"13074","localeAltName":null},{"geonameid":2923371,"name":"Gägelow","admin3":"13076","localeAltName":null},{"geonameid":2923369,"name":"Gager","admin3":"13073","localeAltName":null},{"geonameid":2922815,"name":"Gallin","admin3":"13076","localeAltName":null},{"geonameid":2922761,"name":"Gammelin","admin3":"13076","localeAltName":null},{"geonameid":2922610,"name":"Ganzlin","admin3":"13076","localeAltName":null},{"geonameid":2922544,"name":"Garlitz","admin3":"13076","localeAltName":null},{"geonameid":2922419,"name":"Garz","admin3":"13073","localeAltName":null},{"geonameid":2922420,"name":"Garz","admin3":"13075","localeAltName":null},{"geonameid":2921547,"name":"Gelbensande","admin3":"13072","localeAltName":null},{"geonameid":2921305,"name":"Genzkow","admin3":"13071","localeAltName":null},{"geonameid":2920628,"name":"Gielow","admin3":"13071","localeAltName":null},{"geonameid":2920342,"name":"Gingst","admin3":"13073","localeAltName":null},{"geonameid":2920285,"name":"Gischow","admin3":"13076","localeAltName":null},{"geonameid":2920223,"name":"Glaisin","admin3":"13076","localeAltName":null},{"geonameid":2920138,"name":"Glasewitz","admin3":"13072","localeAltName":null},{"geonameid":2920074,"name":"Glasin","admin3":"13074","localeAltName":null},{"geonameid":2920063,"name":"Glasow","admin3":"13075","localeAltName":null},{"geonameid":2919926,"name":"Glewitz","admin3":"13073","localeAltName":null},{"geonameid":2919899,"name":"Glienke","admin3":"13071","localeAltName":null},{"geonameid":2919782,"name":"Glowe","admin3":"13073","localeAltName":null},{"geonameid":2919677,"name":"Gneven","admin3":"13076","localeAltName":null},{"geonameid":2919672,"name":"Gnevkow","admin3":"13071","localeAltName":null},{"geonameid":2919670,"name":"Gnevsdorf","admin3":"13076","localeAltName":null},{"geonameid":2919667,"name":"Gnewitz","admin3":"13072","localeAltName":null},{"geonameid":2919657,"name":"Gnoien","admin3":"13072","localeAltName":null},{"geonameid":2919582,"name":"Godendorf","admin3":"13071","localeAltName":null},{"geonameid":2919565,"name":"Godern","admin3":"13076","localeAltName":null},{"geonameid":2919508,"name":"Göhlen","admin3":"13076","localeAltName":null},{"geonameid":2919474,"name":"Göhren","admin3":"13076","localeAltName":null},{"geonameid":2919470,"name":"Göhren-Lebbin","admin3":"13071","localeAltName":null},{"geonameid":2919452,"name":"Golchen","admin3":"13071","localeAltName":null},{"geonameid":2919366,"name":"Goldberg","admin3":"13076","localeAltName":null},{"geonameid":2919311,"name":"Goldenstädt","admin3":"13076","localeAltName":null},{"geonameid":2918981,"name":"Gorlosen","admin3":"13076","localeAltName":null},{"geonameid":2918974,"name":"Görmin","admin3":"13075","localeAltName":null},{"geonameid":2918782,"name":"Gößlow","admin3":"13076","localeAltName":null},{"geonameid":2918679,"name":"Gottesgabe","admin3":"13074","localeAltName":null},{"geonameid":2918646,"name":"Gotthun","admin3":"13071","localeAltName":null},{"geonameid":2918405,"name":"Grabow","admin3":"13076","localeAltName":null},{"geonameid":2918398,"name":"Grabowhöfe","admin3":"13071","localeAltName":null},{"geonameid":2918183,"name":"Grambin","admin3":"13075","localeAltName":null},{"geonameid":2918180,"name":"Grambow","admin3":"13076","localeAltName":null},{"geonameid":2918181,"name":"Grambow","admin3":"13075","localeAltName":null},{"geonameid":2918168,"name":"Gramkow","admin3":"13074","localeAltName":null},{"geonameid":2918160,"name":"Grammendorf","admin3":"13073","localeAltName":null},{"geonameid":2918159,"name":"Grammentin","admin3":"13071","localeAltName":null},{"geonameid":2918149,"name":"Grammow","admin3":"13072","localeAltName":null},{"geonameid":2918090,"name":"Gransebieth","admin3":"13073","localeAltName":null},{"geonameid":2918072,"name":"Granzin","admin3":"13076","localeAltName":null},{"geonameid":2918057,"name":"Grapzow","admin3":"13071","localeAltName":null},{"geonameid":2917860,"name":"Grebbin","admin3":"13076","localeAltName":null},{"geonameid":2917838,"name":"Grebs","admin3":"13076","localeAltName":null},{"geonameid":2917788,"name":"Greifswald","admin3":"13075","localeAltName":null},{"geonameid":2917618,"name":"Gresse","admin3":"13076","localeAltName":null},{"geonameid":2917541,"name":"Greven","admin3":"13076","localeAltName":null},{"geonameid":2917520,"name":"Grevesmühlen","admin3":"13074","localeAltName":null},{"geonameid":2917509,"name":"Gribow","admin3":"13075","localeAltName":null},{"geonameid":2917502,"name":"Grieben","admin3":"13074","localeAltName":null},{"geonameid":2917309,"name":"Grimmen","admin3":"13073","localeAltName":null},{"geonameid":2917266,"name":"Grischow","admin3":"13071","localeAltName":null},{"geonameid":2916878,"name":"Groß Daberkow","admin3":"13071","localeAltName":null},{"geonameid":2916846,"name":"Groß Dratow","admin3":"13071","localeAltName":null},{"geonameid":2916146,"name":"Groß Ernsthof","admin3":"13075","localeAltName":null},{"geonameid":2915639,"name":"Groß Flotow","admin3":"13071","localeAltName":null},{"geonameid":2915604,"name":"Groß Gievitz","admin3":"13071","localeAltName":null},{"geonameid":2915595,"name":"Groß Godems","admin3":"13076","localeAltName":null},{"geonameid":2915432,"name":"Groß Kelle","admin3":"13071","localeAltName":null},{"geonameid":2915427,"name":"Groß Kiesow","admin3":"13075","localeAltName":null},{"geonameid":2915391,"name":"Groß Kordshagen","admin3":"13073","localeAltName":null},{"geonameid":2915382,"name":"Groß Krams","admin3":"13076","localeAltName":null},{"geonameid":2915381,"name":"Groß Krankow","admin3":"13074","localeAltName":null},{"geonameid":2915357,"name":"Groß Laasch","admin3":"13076","localeAltName":null},{"geonameid":2915356,"name":"Groß Labenz","admin3":"13074","localeAltName":null},{"geonameid":2915306,"name":"Groß Luckow","admin3":"13075","localeAltName":null},{"geonameid":2871071,"name":"Groß Miltzow","admin3":"13071","localeAltName":null},{"geonameid":2915256,"name":"Groß Mohrdorf","admin3":"13073","localeAltName":null},{"geonameid":2915254,"name":"Groß Molzahn","admin3":"13074","localeAltName":null},{"geonameid":2915236,"name":"Groß Nemerow","admin3":"13071","localeAltName":null},{"geonameid":2915224,"name":"Groß Niendorf","admin3":"13076","localeAltName":null},{"geonameid":2915178,"name":"Groß Plasten","admin3":"13071","localeAltName":null},{"geonameid":2915176,"name":"Groß Polzin","admin3":"13075","localeAltName":null},{"geonameid":2915129,"name":"Groß Roge","admin3":"13072","localeAltName":null},{"geonameid":2915105,"name":"Groß Rünz","admin3":"13074","localeAltName":null},{"geonameid":2915045,"name":"Groß Schwiesow","admin3":"13072","localeAltName":null},{"geonameid":2915032,"name":"Groß Siemz","admin3":"13074","localeAltName":null},{"geonameid":2914999,"name":"Groß Stieten","admin3":"13074","localeAltName":null},{"geonameid":2914974,"name":"Groß Teetzleben","admin3":"13071","localeAltName":null},{"geonameid":2914913,"name":"Groß Vielen","admin3":"13071","localeAltName":null},{"geonameid":2914889,"name":"Groß Walmstorf","admin3":"13074","localeAltName":null},{"geonameid":2914833,"name":"Groß Wokern","admin3":"13072","localeAltName":null},{"geonameid":2914816,"name":"Groß Wüstenfelde","admin3":"13072","localeAltName":null},{"geonameid":2914121,"name":"Grünow","admin3":"13071","localeAltName":null},{"geonameid":2914032,"name":"Grüssow","admin3":"13071","localeAltName":null},{"geonameid":2913788,"name":"Gültz","admin3":"13071","localeAltName":null},{"geonameid":2913781,"name":"Gülzow","admin3":"13072","localeAltName":null},{"geonameid":2913782,"name":"Gülzow","admin3":"13071","localeAltName":null},{"geonameid":2913438,"name":"Güstow","admin3":"13074","localeAltName":null},{"geonameid":2913433,"name":"Güstrow","admin3":"13072","localeAltName":null},{"geonameid":2913335,"name":"Gutow","admin3":"13072","localeAltName":null},{"geonameid":2913290,"name":"Gützkow","admin3":"13071","localeAltName":null},{"geonameid":2912481,"name":"Hagenow","admin3":"13076","localeAltName":null},{"geonameid":2911173,"name":"Hammer","admin3":"13075","localeAltName":null},{"geonameid":2910775,"name":"Hanshagen","admin3":"13072","localeAltName":null},{"geonameid":2910776,"name":"Hanshagen","admin3":"13075","localeAltName":null},{"geonameid":2910465,"name":"Harkensee","admin3":"13074","localeAltName":null},{"geonameid":2907769,"name":"Heidhof","admin3":"13076","localeAltName":null},{"geonameid":2907588,"name":"Heiligenhagen","admin3":"13072","localeAltName":null},{"geonameid":2907213,"name":"Heinrichsruh","admin3":"13075","localeAltName":null},{"geonameid":2907207,"name":"Heinrichswalde","admin3":"13075","localeAltName":null},{"geonameid":2906659,"name":"Helpt","admin3":"13071","localeAltName":null},{"geonameid":2905501,"name":"Herzberg","admin3":"13076","localeAltName":null},{"geonameid":2905480,"name":"Herzfeld","admin3":"13076","localeAltName":null},{"geonameid":3209281,"name":"Hiddensee","admin3":"13073","localeAltName":null},{"geonameid":2904418,"name":"Hinrichshagen","admin3":"13071","localeAltName":null},{"geonameid":2904415,"name":"Hinrichshagen Hof","admin3":"13075","localeAltName":null},{"geonameid":2903975,"name":"Hintersee","admin3":"13075","localeAltName":null},{"geonameid":2902143,"name":"Hohe Düne","admin3":"13003","localeAltName":null},{"geonameid":2901842,"name":"Hohen Demzin","admin3":"13072","localeAltName":null},{"geonameid":2901564,"name":"Hohen Pritz","admin3":"13076","localeAltName":null},{"geonameid":2901471,"name":"Hohen Sprenz","admin3":"13072","localeAltName":null},{"geonameid":2901386,"name":"Hohen Viecheln","admin3":"13074","localeAltName":null},{"geonameid":2901378,"name":"Hohen Wangelin","admin3":"13071","localeAltName":null},{"geonameid":2901885,"name":"Hohenbollentin","admin3":"13071","localeAltName":null},{"geonameid":2901870,"name":"Hohenbrünzow","admin3":"13071","localeAltName":null},{"geonameid":2901832,"name":"Hohendorf","admin3":"13075","localeAltName":null},{"geonameid":2901602,"name":"Hohenmocker","admin3":"13071","localeAltName":null},{"geonameid":2901324,"name":"Hohenzieritz","admin3":"13071","localeAltName":null},{"geonameid":2900738,"name":"Holdorf","admin3":"13076","localeAltName":null},{"geonameid":2900639,"name":"Holldorf","admin3":"13071","localeAltName":null},{"geonameid":2900126,"name":"Holthusen","admin3":"13076","localeAltName":null},{"geonameid":2899278,"name":"Hoort","admin3":"13076","localeAltName":null},{"geonameid":2899158,"name":"Hoppenrade","admin3":"13072","localeAltName":null},{"geonameid":2898763,"name":"Hornstorf","admin3":"13074","localeAltName":null},{"geonameid":2898639,"name":"Horst","admin3":"13072","localeAltName":null},{"geonameid":2897986,"name":"Hugoldsdorf","admin3":"13073","localeAltName":null},{"geonameid":2897801,"name":"Hülseburg","admin3":"13076","localeAltName":null},{"geonameid":2895546,"name":"Iven","admin3":"13075","localeAltName":null},{"geonameid":2895545,"name":"Ivenack","admin3":"13071","localeAltName":null},{"geonameid":2895524,"name":"Jabel","admin3":"13071","localeAltName":null},{"geonameid":2895466,"name":"Jaebetz","admin3":"13071","localeAltName":null},{"geonameid":2895246,"name":"Jakobsdorf","admin3":"13073","localeAltName":null},{"geonameid":2895181,"name":"Japenzin","admin3":"13075","localeAltName":null},{"geonameid":2895162,"name":"Jarmen","admin3":"13075","localeAltName":null},{"geonameid":2895131,"name":"Jatznick","admin3":"13075","localeAltName":null},{"geonameid":2895025,"name":"Jennewitz","admin3":"13072","localeAltName":null},{"geonameid":2894979,"name":"Jesendorf","admin3":"13074","localeAltName":null},{"geonameid":2894958,"name":"Jessenitz","admin3":"13076","localeAltName":null},{"geonameid":2894707,"name":"Jördenstorf","admin3":"13072","localeAltName":null},{"geonameid":2894415,"name":"Jürgenshagen","admin3":"13072","localeAltName":null},{"geonameid":2894409,"name":"Jürgenstorf","admin3":"13071","localeAltName":null},{"geonameid":2893792,"name":"Kalkhorst","admin3":"13074","localeAltName":null},{"geonameid":2893442,"name":"Kambs","admin3":"13072","localeAltName":null},{"geonameid":2893416,"name":"Kamin","admin3":"13072","localeAltName":null},{"geonameid":2893323,"name":"Kammin","admin3":"13075","localeAltName":null},{"geonameid":2893322,"name":"Kamminke","admin3":"13075","localeAltName":null},{"geonameid":2892961,"name":"Karenz","admin3":"13076","localeAltName":null},{"geonameid":2892951,"name":"Kargow","admin3":"13071","localeAltName":null},{"geonameid":2892865,"name":"Karlshagen","admin3":"13075","localeAltName":null},{"geonameid":2892748,"name":"Karnin","admin3":"13073","localeAltName":null},{"geonameid":2892745,"name":"Karnitz","admin3":"13071","localeAltName":null},{"geonameid":2892668,"name":"Karrenzin","admin3":"13076","localeAltName":null},{"geonameid":2892647,"name":"Karstädt","admin3":"13076","localeAltName":null},{"geonameid":2892498,"name":"Kassow","admin3":"13072","localeAltName":null},{"geonameid":2892112,"name":"Katzow","admin3":"13075","localeAltName":null},{"geonameid":2892008,"name":"Kavelstorf","admin3":"13072","localeAltName":null},{"geonameid":2891653,"name":"Kemnitz","admin3":"13075","localeAltName":null},{"geonameid":2891368,"name":"Kessin","admin3":"13071","localeAltName":null},{"geonameid":2890943,"name":"Kieve","admin3":"13071","localeAltName":null},{"geonameid":2890439,"name":"Kirch Jesar","admin3":"13076","localeAltName":null},{"geonameid":2890407,"name":"Kirch Mulsow","admin3":"13072","localeAltName":null},{"geonameid":2890604,"name":"Kirchdorf","admin3":"13073","localeAltName":null},{"geonameid":2890187,"name":"Kittendorf","admin3":"13071","localeAltName":null},{"geonameid":2889989,"name":"Klausdorf","admin3":"13073","localeAltName":null},{"geonameid":2889750,"name":"Klein Belitz","admin3":"13072","localeAltName":null},{"geonameid":2889747,"name":"Klein Bengerstorf","admin3":"13076","localeAltName":null},{"geonameid":2889642,"name":"Klein Bünzow","admin3":"13075","localeAltName":null},{"geonameid":2888594,"name":"Klein Kussewitz","admin3":"13072","localeAltName":null},{"geonameid":2888532,"name":"Klein Luckow","admin3":"13075","localeAltName":null},{"geonameid":2888527,"name":"Klein Lukow","admin3":"13071","localeAltName":null},{"geonameid":2888316,"name":"Klein Rogahn","admin3":"13076","localeAltName":null},{"geonameid":2888112,"name":"Klein Trebbow","admin3":"13074","localeAltName":null},{"geonameid":2888097,"name":"Klein Upahl","admin3":"13072","localeAltName":null},{"geonameid":2888078,"name":"Klein Vielen","admin3":"13071","localeAltName":null},{"geonameid":2887843,"name":"Kletzin","admin3":"13071","localeAltName":null},{"geonameid":2887686,"name":"Klink","admin3":"13071","localeAltName":null},{"geonameid":2887679,"name":"Klinken","admin3":"13076","localeAltName":null},{"geonameid":2887601,"name":"Klocksin","admin3":"13071","localeAltName":null},{"geonameid":2887600,"name":"Kloddram","admin3":"13076","localeAltName":null},{"geonameid":2887342,"name":"Kluis","admin3":"13073","localeAltName":null},{"geonameid":2887290,"name":"Klütz","admin3":"13074","localeAltName":null},{"geonameid":2887220,"name":"Kneese Dorf","admin3":"13074","localeAltName":null},{"geonameid":2887051,"name":"Knorrendorf","admin3":"13071","localeAltName":null},{"geonameid":2886947,"name":"Koblentz","admin3":"13075","localeAltName":null},{"geonameid":2886934,"name":"Kobrow","admin3":"13076","localeAltName":null},{"geonameid":2886918,"name":"Köchelstorf","admin3":"13074","localeAltName":null},{"geonameid":2886821,"name":"Kogel","admin3":"13076","localeAltName":null},{"geonameid":2886822,"name":"Kogel","admin3":"13071","localeAltName":null},{"geonameid":2886059,"name":"Kölzin","admin3":"13075","localeAltName":null},{"geonameid":2885499,"name":"Körchow","admin3":"13076","localeAltName":null},{"geonameid":2885386,"name":"Korswandt","admin3":"13075","localeAltName":null},{"geonameid":2885338,"name":"Koserow","admin3":"13075","localeAltName":null},{"geonameid":2885027,"name":"Krackow","admin3":"13075","localeAltName":null},{"geonameid":2884850,"name":"Krakow am See","admin3":"13072","localeAltName":null},{"geonameid":2884823,"name":"Kramerhof","admin3":"13073","localeAltName":null},{"geonameid":2884680,"name":"Kratzeburg","admin3":"13071","localeAltName":null},{"geonameid":2884490,"name":"Kreien","admin3":"13076","localeAltName":null},{"geonameid":2884415,"name":"Krembz","admin3":"13074","localeAltName":null},{"geonameid":2884396,"name":"Kremmin","admin3":"13076","localeAltName":null},{"geonameid":2884375,"name":"Krempin","admin3":"13072","localeAltName":null},{"geonameid":2883942,"name":"Krien","admin3":"13075","localeAltName":null},{"geonameid":2883927,"name":"Kriesow","admin3":"13071","localeAltName":null},{"geonameid":2883885,"name":"Krinitz","admin3":"13076","localeAltName":null},{"geonameid":2883860,"name":"Kritzmow","admin3":"13072","localeAltName":null},{"geonameid":2883602,"name":"Kröpelin","admin3":"13072","localeAltName":null},{"geonameid":2883560,"name":"Kröslin","admin3":"13075","localeAltName":null},{"geonameid":2883477,"name":"Kruckow","admin3":"13075","localeAltName":null},{"geonameid":2883444,"name":"Krugsdorf","admin3":"13075","localeAltName":null},{"geonameid":2883431,"name":"Krukow","admin3":"13071","localeAltName":null},{"geonameid":2883260,"name":"Krummin","admin3":"13075","localeAltName":null},{"geonameid":2883212,"name":"Krusenfelde","admin3":"13075","localeAltName":null},{"geonameid":2883211,"name":"Krusenhagen","admin3":"13074","localeAltName":null},{"geonameid":2883175,"name":"Kublank","admin3":"13071","localeAltName":null},{"geonameid":2883156,"name":"Kuchelmiß","admin3":"13072","localeAltName":null},{"geonameid":2882804,"name":"Kuhlen","admin3":"13076","localeAltName":null},{"geonameid":2882675,"name":"Kuhs","admin3":"13072","localeAltName":null},{"geonameid":2882660,"name":"Kuhstorf","admin3":"13076","localeAltName":null},{"geonameid":2882548,"name":"Kummer","admin3":"13076","localeAltName":null},{"geonameid":2882533,"name":"Kummerow","admin3":"13071","localeAltName":null},{"geonameid":2882141,"name":"Laage","admin3":"13072","localeAltName":null},{"geonameid":2881789,"name":"Lalendorf","admin3":"13072","localeAltName":null},{"geonameid":2881770,"name":"Lambrechtshagen","admin3":"13072","localeAltName":null},{"geonameid":2881654,"name":"Lancken-Granitz","admin3":"13073","localeAltName":null},{"geonameid":2881130,"name":"Langen Brütz","admin3":"13076","localeAltName":null},{"geonameid":2881000,"name":"Langen Jarchow","admin3":"13076","localeAltName":null},{"geonameid":2881061,"name":"Langenhagen","admin3":"13076","localeAltName":null},{"geonameid":2880666,"name":"Langhagen","admin3":"13072","localeAltName":null},{"geonameid":2880580,"name":"Langsdorf","admin3":"13073","localeAltName":null},{"geonameid":2880503,"name":"Lankow","admin3":"13004","localeAltName":null},{"geonameid":2880490,"name":"Lansen","admin3":"13071","localeAltName":null},{"geonameid":2880441,"name":"Lapitz","admin3":"13071","localeAltName":null},{"geonameid":2880404,"name":"Lärz","admin3":"13071","localeAltName":null},{"geonameid":2880378,"name":"Lassahn","admin3":"13076","localeAltName":null},{"geonameid":2880375,"name":"Lassan","admin3":"13075","localeAltName":null},{"geonameid":2879822,"name":"Lebehn","admin3":"13075","localeAltName":null},{"geonameid":2879667,"name":"Leezen","admin3":"13076","localeAltName":null},{"geonameid":2879360,"name":"Lehsen","admin3":"13076","localeAltName":null},{"geonameid":2878979,"name":"Leizen","admin3":"13071","localeAltName":null},{"geonameid":2878974,"name":"Lelkendorf","admin3":"13072","localeAltName":null},{"geonameid":2878675,"name":"Leopoldshagen","admin3":"13075","localeAltName":null},{"geonameid":2878325,"name":"Leussow","admin3":"13076","localeAltName":null},{"geonameid":2878244,"name":"Levenhagen","admin3":"13075","localeAltName":null},{"geonameid":2878218,"name":"Levitzow","admin3":"13072","localeAltName":null},{"geonameid":7284172,"name":"Lewenberg","admin3":"13004","localeAltName":null},{"geonameid":2878202,"name":"Lexow","admin3":"13071","localeAltName":null},{"geonameid":2877905,"name":"Lieblingshof","admin3":"13072","localeAltName":null},{"geonameid":2877815,"name":"Liepen","admin3":"13075","localeAltName":null},{"geonameid":2877803,"name":"Liepgarten","admin3":"13075","localeAltName":null},{"geonameid":2877754,"name":"Liessow","admin3":"13072","localeAltName":null},{"geonameid":2877728,"name":"Lietzow","admin3":"13073","localeAltName":null},{"geonameid":2877342,"name":"Lindenberg","admin3":"13071","localeAltName":null},{"geonameid":2876697,"name":"Löbnitz","admin3":"13073","localeAltName":null},{"geonameid":2876539,"name":"Löcknitz","admin3":"13076","localeAltName":null},{"geonameid":2876523,"name":"Lockwisch","admin3":"13074","localeAltName":null},{"geonameid":2876510,"name":"Loddin","admin3":"13075","localeAltName":null},{"geonameid":2876215,"name":"Lohme","admin3":"13073","localeAltName":null},{"geonameid":2876211,"name":"Lohmen","admin3":"13072","localeAltName":null},{"geonameid":2876065,"name":"Loissin","admin3":"13075","localeAltName":null},{"geonameid":2876044,"name":"Loitz","admin3":"13071","localeAltName":null},{"geonameid":2875649,"name":"Löwitz","admin3":"13074","localeAltName":null},{"geonameid":2875650,"name":"Löwitz","admin3":"13075","localeAltName":null},{"geonameid":2875606,"name":"Lübberstorf","admin3":"13074","localeAltName":null},{"geonameid":2875594,"name":"Lübesse","admin3":"13076","localeAltName":null},{"geonameid":2875586,"name":"Lüblow","admin3":"13076","localeAltName":null},{"geonameid":2875585,"name":"Lubmin","admin3":"13075","localeAltName":null},{"geonameid":2875577,"name":"Lübow","admin3":"13074","localeAltName":null},{"geonameid":2875571,"name":"Lübs","admin3":"13075","localeAltName":null},{"geonameid":2875561,"name":"Lübstorf","admin3":"13074","localeAltName":null},{"geonameid":2875559,"name":"Lübtheen","admin3":"13076","localeAltName":null},{"geonameid":2875558,"name":"Lübz","admin3":"13076","localeAltName":null},{"geonameid":2875473,"name":"Luckow","admin3":"13075","localeAltName":null},{"geonameid":2875430,"name":"Lüdersdorf","admin3":"13074","localeAltName":null},{"geonameid":2875426,"name":"Lüdershagen","admin3":"13072","localeAltName":null},{"geonameid":2875405,"name":"Ludorf","admin3":"13071","localeAltName":null},{"geonameid":2875343,"name":"Ludwigslust","admin3":"13076","localeAltName":null},{"geonameid":2875251,"name":"Lühburg","admin3":"13072","localeAltName":null},{"geonameid":2875233,"name":"Lühmannsdorf","admin3":"13075","localeAltName":null},{"geonameid":2875057,"name":"Lupendorf","admin3":"13071","localeAltName":null},{"geonameid":2874984,"name":"Lüssow","admin3":"13073","localeAltName":null},{"geonameid":2874986,"name":"Lüssow","admin3":"13075","localeAltName":null},{"geonameid":2874987,"name":"Lüssow","admin3":"13072","localeAltName":null},{"geonameid":2874936,"name":"Lutheran","admin3":"13076","localeAltName":null},{"geonameid":2874877,"name":"Lütow","admin3":"13075","localeAltName":null},{"geonameid":2874790,"name":"Lüttow","admin3":"13076","localeAltName":null},{"geonameid":2874710,"name":"Lützow","admin3":"13074","localeAltName":null},{"geonameid":2874131,"name":"Malchin","admin3":"13071","localeAltName":null},{"geonameid":2874122,"name":"Malchow","admin3":"13071","localeAltName":null},{"geonameid":2874082,"name":"Mallentin","admin3":"13074","localeAltName":null},{"geonameid":2874076,"name":"Mallin","admin3":"13071","localeAltName":null},{"geonameid":2874070,"name":"Malliß","admin3":"13076","localeAltName":null},{"geonameid":2873980,"name":"Mandelshagen","admin3":"13072","localeAltName":null},{"geonameid":2873462,"name":"Marihn","admin3":"13071","localeAltName":null},{"geonameid":2873250,"name":"Marlow","admin3":"13073","localeAltName":null},{"geonameid":2873233,"name":"Marnitz","admin3":"13076","localeAltName":null},{"geonameid":2872966,"name":"Massow","admin3":"13071","localeAltName":null},{"geonameid":2872948,"name":"Matgendorf","admin3":"13072","localeAltName":null},{"geonameid":3209099,"name":"Matzlow-Garwitz","admin3":"13076","localeAltName":null},{"geonameid":2872571,"name":"Mecklenburg","admin3":"13074","localeAltName":null},{"geonameid":2872529,"name":"Medow","admin3":"13075","localeAltName":null},{"geonameid":2872475,"name":"Meesiger","admin3":"13071","localeAltName":null},{"geonameid":2872305,"name":"Meiersberg","admin3":"13075","localeAltName":null},{"geonameid":2872085,"name":"Melkof","admin3":"13076","localeAltName":null},{"geonameid":2872064,"name":"Mellenthin","admin3":"13075","localeAltName":null},{"geonameid":2872019,"name":"Melz","admin3":"13071","localeAltName":null},{"geonameid":2871864,"name":"Menzendorf","admin3":"13074","localeAltName":null},{"geonameid":2871654,"name":"Mesekenhagen","admin3":"13075","localeAltName":null},{"geonameid":2871596,"name":"Mestlin","admin3":"13076","localeAltName":null},{"geonameid":2871589,"name":"Metelsdorf","admin3":"13074","localeAltName":null},{"geonameid":2871423,"name":"Mewegen","admin3":"13075","localeAltName":null},{"geonameid":2871138,"name":"Mildenitz","admin3":"13071","localeAltName":null},{"geonameid":2871096,"name":"Milow","admin3":"13076","localeAltName":null},{"geonameid":2870994,"name":"Minzow","admin3":"13071","localeAltName":null},{"geonameid":2870986,"name":"Mirow","admin3":"13076","localeAltName":null},{"geonameid":2870926,"name":"Mistorf","admin3":"13072","localeAltName":null},{"geonameid":2870043,"name":"Möllenbeck","admin3":"13071","localeAltName":null},{"geonameid":2870044,"name":"Möllenbeck","admin3":"13076","localeAltName":null},{"geonameid":2870025,"name":"Möllenhagen","admin3":"13071","localeAltName":null},{"geonameid":2870015,"name":"Mollenstorf","admin3":"13071","localeAltName":null},{"geonameid":2869995,"name":"Mölln","admin3":"13071","localeAltName":null},{"geonameid":2869963,"name":"Mölschow","admin3":"13075","localeAltName":null},{"geonameid":2869950,"name":"Moltzow","admin3":"13071","localeAltName":null},{"geonameid":2869882,"name":"Mönchhagen","admin3":"13072","localeAltName":null},{"geonameid":2869782,"name":"Mönkebude","admin3":"13075","localeAltName":null},{"geonameid":3209100,"name":"Moraas","admin3":"13076","localeAltName":null},{"geonameid":2869277,"name":"Morgenitz","admin3":"13075","localeAltName":null},{"geonameid":2868926,"name":"Muchow","admin3":"13076","localeAltName":null},{"geonameid":2867929,"name":"Mühl Rosin","admin3":"13072","localeAltName":null},{"geonameid":2868222,"name":"Mühlen Eichsen","admin3":"13074","localeAltName":null},{"geonameid":2867471,"name":"Murchin","admin3":"13075","localeAltName":null},{"geonameid":2867345,"name":"Mustin","admin3":"13076","localeAltName":null},{"geonameid":2867206,"name":"Nadrensee","admin3":"13075","localeAltName":null},{"geonameid":2866739,"name":"Neddemin","admin3":"13071","localeAltName":null},{"geonameid":2866678,"name":"Neetzka","admin3":"13071","localeAltName":null},{"geonameid":2866677,"name":"Neetzow","admin3":"13075","localeAltName":null},{"geonameid":2866499,"name":"Neppermin","admin3":"13075","localeAltName":null},{"geonameid":2866489,"name":"Nerdin","admin3":"13075","localeAltName":null},{"geonameid":2866460,"name":"Nesow-Hof","admin3":"13074","localeAltName":null},{"geonameid":2866253,"name":"Neu Bartelshagen","admin3":"13073","localeAltName":null},{"geonameid":2866152,"name":"Neu Boltenhagen","admin3":"13075","localeAltName":null},{"geonameid":2865314,"name":"Neu Gaarz","admin3":"13071","localeAltName":null},{"geonameid":2865247,"name":"Neu Gülze","admin3":"13076","localeAltName":null},{"geonameid":2865040,"name":"Neu Heinde","admin3":"13072","localeAltName":null},{"geonameid":2864807,"name":"Neu Käbelich","admin3":"13071","localeAltName":null},{"geonameid":2864804,"name":"Neu Kaliß","admin3":"13076","localeAltName":null},{"geonameid":2864679,"name":"Neu Kosenow","admin3":"13075","localeAltName":null},{"geonameid":2864357,"name":"Neu Poserin","admin3":"13076","localeAltName":null},{"geonameid":2866135,"name":"Neubrandenburg","admin3":"13071","localeAltName":null},{"geonameid":2866087,"name":"Neubukow","admin3":"13072","localeAltName":null},{"geonameid":2866072,"name":"Neuburg","admin3":"13076","localeAltName":null},{"geonameid":2865774,"name":"Neuendorf","admin3":"13072","localeAltName":null},{"geonameid":2865777,"name":"Neuendorf A","admin3":"13075","localeAltName":null},{"geonameid":2865627,"name":"Neuenkirchen","admin3":"13073","localeAltName":null},{"geonameid":2865631,"name":"Neuenkirchen","admin3":"13075","localeAltName":null},{"geonameid":2865633,"name":"Neuenkirchen","admin3":"13071","localeAltName":null},{"geonameid":2864907,"name":"Neuhof","admin3":"13076","localeAltName":null},{"geonameid":2864806,"name":"Neukalen","admin3":"13071","localeAltName":null},{"geonameid":2864705,"name":"Neukloster","admin3":"13074","localeAltName":null},{"geonameid":2864502,"name":"Neumühle","admin3":"13004","localeAltName":null},{"geonameid":2864036,"name":"Neustadt-Glewe","admin3":"13076","localeAltName":null},{"geonameid":2864005,"name":"Neustrelitz","admin3":"13071","localeAltName":null},{"geonameid":2863765,"name":"Neverin","admin3":"13071","localeAltName":null},{"geonameid":2863686,"name":"Nieden","admin3":"13075","localeAltName":null},{"geonameid":2862602,"name":"Niendorf","admin3":"13074","localeAltName":null},{"geonameid":2862603,"name":"Niendorf","admin3":"13072","localeAltName":null},{"geonameid":2862571,"name":"Nienhagen","admin3":"13003","localeAltName":null},{"geonameid":2862525,"name":"Niepars","admin3":"13073","localeAltName":null},{"geonameid":2861787,"name":"Nossendorf","admin3":"13071","localeAltName":null},{"geonameid":2861784,"name":"Nossentiner Hütte","admin3":"13071","localeAltName":null},{"geonameid":2861774,"name":"Nostorf","admin3":"13076","localeAltName":null},{"geonameid":2861569,"name":"Nustrow","admin3":"13072","localeAltName":null},{"geonameid":2856200,"name":"Ostseebad Ahrenshoop","admin3":"13073","localeAltName":null},{"geonameid":2856199,"name":"Ostseebad Baabe","admin3":"13073","localeAltName":null},{"geonameid":2856198,"name":"Ostseebad Binz","admin3":"13073","localeAltName":null},{"geonameid":2856197,"name":"Ostseebad Boltenhagen","admin3":"13074","localeAltName":null},{"geonameid":2856196,"name":"Ostseebad Dierhagen","admin3":"13073","localeAltName":null},{"geonameid":2856195,"name":"Ostseebad Göhren","admin3":"13073","localeAltName":null},{"geonameid":2856193,"name":"Ostseebad Kühlungsborn","admin3":"13072","localeAltName":null},{"geonameid":2856191,"name":"Ostseebad Prerow","admin3":"13073","localeAltName":null},{"geonameid":2856189,"name":"Ostseebad Sellin","admin3":"13073","localeAltName":null},{"geonameid":2804109,"name":"Ostseebad Zinnowitz","admin3":"13075","localeAltName":null},{"geonameid":2855623,"name":"Pampow","admin3":"13072","localeAltName":null},{"geonameid":2855624,"name":"Pampow","admin3":"13076","localeAltName":null},{"geonameid":2855565,"name":"Pantelitz","admin3":"13073","localeAltName":null},{"geonameid":2855518,"name":"Papendorf","admin3":"13072","localeAltName":null},{"geonameid":2855521,"name":"Papendorf","admin3":"13075","localeAltName":null},{"geonameid":2855504,"name":"Papenhusen","admin3":"13074","localeAltName":null},{"geonameid":2855441,"name":"Parchim","admin3":"13076","localeAltName":null},{"geonameid":2855436,"name":"Parchtitz","admin3":"13073","localeAltName":null},{"geonameid":2855337,"name":"Pasewalk","admin3":"13075","localeAltName":null},{"geonameid":2855317,"name":"Passee","admin3":"13074","localeAltName":null},{"geonameid":2855300,"name":"Passow","admin3":"13076","localeAltName":null},{"geonameid":2855226,"name":"Patzig","admin3":"13073","localeAltName":null},{"geonameid":7284168,"name":"Paulsstadt","admin3":"13004","localeAltName":null},{"geonameid":2855091,"name":"Peenemünde","admin3":"13075","localeAltName":null},{"geonameid":2854990,"name":"Pelsin","admin3":"13075","localeAltName":null},{"geonameid":2854958,"name":"Penkow","admin3":"13071","localeAltName":null},{"geonameid":2854957,"name":"Penkun","admin3":"13075","localeAltName":null},{"geonameid":2854913,"name":"Penzin","admin3":"13076","localeAltName":null},{"geonameid":2854906,"name":"Penzlin","admin3":"13071","localeAltName":null},{"geonameid":2854900,"name":"Pepelow","admin3":"13072","localeAltName":null},{"geonameid":2854835,"name":"Perlin","admin3":"13074","localeAltName":null},{"geonameid":2854676,"name":"Petersdorf","admin3":"13071","localeAltName":null},{"geonameid":2853889,"name":"Picher","admin3":"13076","localeAltName":null},{"geonameid":2853668,"name":"Pingelshagen","admin3":"13074","localeAltName":null},{"geonameid":2853647,"name":"Pinnow","admin3":"13076","localeAltName":null},{"geonameid":2853494,"name":"Plaaz","admin3":"13072","localeAltName":null},{"geonameid":2853406,"name":"Plate","admin3":"13076","localeAltName":null},{"geonameid":2853297,"name":"Plau am See","admin3":"13076","localeAltName":null},{"geonameid":2853288,"name":"Plauerhagen","admin3":"13076","localeAltName":null},{"geonameid":2853130,"name":"Plötz","admin3":"13075","localeAltName":null},{"geonameid":2853111,"name":"Plöwen","admin3":"13075","localeAltName":null},{"geonameid":2853093,"name":"Plüschow","admin3":"13074","localeAltName":null},{"geonameid":2853034,"name":"Poggelow","admin3":"13072","localeAltName":null},{"geonameid":2852914,"name":"Pokrent","admin3":"13074","localeAltName":null},{"geonameid":2852876,"name":"Pölitz","admin3":"13072","localeAltName":null},{"geonameid":2852793,"name":"Polz","admin3":"13076","localeAltName":null},{"geonameid":2852785,"name":"Polzow","admin3":"13075","localeAltName":null},{"geonameid":2852541,"name":"Poseritz","admin3":"13073","localeAltName":null},{"geonameid":2852485,"name":"Postlow","admin3":"13075","localeAltName":null},{"geonameid":2852472,"name":"Pötenitz","admin3":"13074","localeAltName":null},{"geonameid":2852358,"name":"Pragsdorf","admin3":"13071","localeAltName":null},{"geonameid":2852303,"name":"Prebberede","admin3":"13072","localeAltName":null},{"geonameid":2852279,"name":"Preetz","admin3":"13073","localeAltName":null},{"geonameid":2852131,"name":"Priborn","admin3":"13071","localeAltName":null},{"geonameid":2852097,"name":"Priepert","admin3":"13071","localeAltName":null},{"geonameid":2851997,"name":"Pripsleben","admin3":"13071","localeAltName":null},{"geonameid":2851996,"name":"Prisannewitz","admin3":"13072","localeAltName":null},{"geonameid":2851992,"name":"Prislich","admin3":"13076","localeAltName":null},{"geonameid":2851968,"name":"Pritzier","admin3":"13076","localeAltName":null},{"geonameid":2851916,"name":"Prohn","admin3":"13073","localeAltName":null},{"geonameid":2851841,"name":"Pruchten","admin3":"13073","localeAltName":null},{"geonameid":2851796,"name":"Prüzen","admin3":"13072","localeAltName":null},{"geonameid":2851777,"name":"Puchow","admin3":"13071","localeAltName":null},{"geonameid":2851774,"name":"Pudagla","admin3":"13075","localeAltName":null},{"geonameid":2851728,"name":"Pulow","admin3":"13075","localeAltName":null},{"geonameid":2851615,"name":"Putbus","admin3":"13073","localeAltName":null},{"geonameid":2851613,"name":"Putgarten","admin3":"13073","localeAltName":null},{"geonameid":2851575,"name":"Putzar","admin3":"13075","localeAltName":null},{"geonameid":2851307,"name":"Quitzerow","admin3":"13071","localeAltName":null},{"geonameid":2851175,"name":"Raben Steinfeld","admin3":"13076","localeAltName":null},{"geonameid":2850946,"name":"Raduhn","admin3":"13076","localeAltName":null},{"geonameid":2850744,"name":"Rakow","admin3":"13072","localeAltName":null},{"geonameid":2850735,"name":"Ralswiek","admin3":"13073","localeAltName":null},{"geonameid":2850718,"name":"Rambin","admin3":"13073","localeAltName":null},{"geonameid":2850685,"name":"Ramin","admin3":"13075","localeAltName":null},{"geonameid":2850468,"name":"Rankwitz","admin3":"13075","localeAltName":null},{"geonameid":2850403,"name":"Ranzin","admin3":"13075","localeAltName":null},{"geonameid":2850330,"name":"Rappin","admin3":"13073","localeAltName":null},{"geonameid":2850238,"name":"Rastow","admin3":"13076","localeAltName":null},{"geonameid":2850219,"name":"Rathebur","admin3":"13075","localeAltName":null},{"geonameid":2849806,"name":"Ravensberg","admin3":"13072","localeAltName":null},{"geonameid":2849717,"name":"Rechlin","admin3":"13071","localeAltName":null},{"geonameid":2849637,"name":"Recknitz","admin3":"13072","localeAltName":null},{"geonameid":2849624,"name":"Reddelich","admin3":"13072","localeAltName":null},{"geonameid":2849601,"name":"Redefin","admin3":"13076","localeAltName":null},{"geonameid":2849263,"name":"Rehna","admin3":"13074","localeAltName":null},{"geonameid":2848855,"name":"Reimershagen","admin3":"13072","localeAltName":null},{"geonameid":2848841,"name":"Reinberg","admin3":"13071","localeAltName":null},{"geonameid":2848310,"name":"Remlin","admin3":"13072","localeAltName":null},{"geonameid":2848280,"name":"Remplin","admin3":"13071","localeAltName":null},{"geonameid":2848127,"name":"Renzow","admin3":"13074","localeAltName":null},{"geonameid":2848054,"name":"Retgendorf","admin3":"13076","localeAltName":null},{"geonameid":2848017,"name":"Retschow","admin3":"13072","localeAltName":null},{"geonameid":2847943,"name":"Retzow","admin3":"13076","localeAltName":null},{"geonameid":2847524,"name":"Ribnitz-Damgarten","admin3":"13073","localeAltName":null},{"geonameid":2847490,"name":"Richtenberg","admin3":"13073","localeAltName":null},{"geonameid":2846947,"name":"Rieps","admin3":"13074","localeAltName":null},{"geonameid":2846329,"name":"Ritzerow","admin3":"13071","localeAltName":null},{"geonameid":2846286,"name":"Röbel","admin3":"13071","localeAltName":null},{"geonameid":2846182,"name":"Röckwitz","admin3":"13071","localeAltName":null},{"geonameid":2846023,"name":"Rodenwalde","admin3":"13076","localeAltName":null},{"geonameid":2845899,"name":"Roduchelstorf","admin3":"13074","localeAltName":null},{"geonameid":2845883,"name":"Rogeez","admin3":"13071","localeAltName":null},{"geonameid":2845858,"name":"Roggendorf","admin3":"13074","localeAltName":null},{"geonameid":2845845,"name":"Roggenstorf","admin3":"13074","localeAltName":null},{"geonameid":2845840,"name":"Roggentin","admin3":"13072","localeAltName":null},{"geonameid":2845842,"name":"Roggentin","admin3":"13071","localeAltName":null},{"geonameid":2845823,"name":"Rögnitz","admin3":"13074","localeAltName":null},{"geonameid":2845383,"name":"Rollwitz","admin3":"13075","localeAltName":null},{"geonameid":2845371,"name":"Rom","admin3":"13076","localeAltName":null},{"geonameid":2844947,"name":"Rosenow","admin3":"13071","localeAltName":null},{"geonameid":2844689,"name":"Rossin","admin3":"13075","localeAltName":null},{"geonameid":2844633,"name":"Rossow","admin3":"13071","localeAltName":null},{"geonameid":2844588,"name":"Rostock","admin3":"13003","localeAltName":null},{"geonameid":2844163,"name":"Rothemühl","admin3":"13075","localeAltName":null},{"geonameid":2844008,"name":"Rothenklempenow","admin3":"13075","localeAltName":null},{"geonameid":2843603,"name":"Rövershagen","admin3":"13072","localeAltName":null},{"geonameid":2843554,"name":"Rubenow","admin3":"13075","localeAltName":null},{"geonameid":2843535,"name":"Rubkow","admin3":"13075","localeAltName":null},{"geonameid":2843527,"name":"Rubow","admin3":"13076","localeAltName":null},{"geonameid":2843214,"name":"Rühn","admin3":"13072","localeAltName":null},{"geonameid":2843166,"name":"Rukieten","admin3":"13072","localeAltName":null},{"geonameid":2842826,"name":"Rüterberg","admin3":"13076","localeAltName":null},{"geonameid":2842814,"name":"Ruthenbeck","admin3":"13076","localeAltName":null},{"geonameid":2842795,"name":"Rüting","admin3":"13074","localeAltName":null},{"geonameid":2842725,"name":"Saal","admin3":"13073","localeAltName":null},{"geonameid":2842434,"name":"Sagard","admin3":"13073","localeAltName":null},{"geonameid":2842059,"name":"Samtens","admin3":"13073","localeAltName":null},{"geonameid":2841431,"name":"Sanzkow","admin3":"13071","localeAltName":null},{"geonameid":2841402,"name":"Sarmstorf","admin3":"13072","localeAltName":null},{"geonameid":2841393,"name":"Sarnow","admin3":"13075","localeAltName":null},{"geonameid":2841391,"name":"Sarow","admin3":"13071","localeAltName":null},{"geonameid":2841356,"name":"Sassen","admin3":"13075","localeAltName":null},{"geonameid":2841333,"name":"Sassnitz","admin3":"13073","localeAltName":null},{"geonameid":2841325,"name":"Satow","admin3":"13071","localeAltName":null},{"geonameid":2841321,"name":"Satow-Oberhagen","admin3":"13072","localeAltName":null},{"geonameid":2841061,"name":"Sauzin","admin3":"13075","localeAltName":null},{"geonameid":2840403,"name":"Schaprode","admin3":"13073","localeAltName":null},{"geonameid":7284134,"name":"Schelfstadt","admin3":"13004","localeAltName":null},{"geonameid":2839184,"name":"Schimm","admin3":"13074","localeAltName":null},{"geonameid":2838955,"name":"Schlagsdorf","admin3":"13074","localeAltName":null},{"geonameid":2838665,"name":"Schlemmin","admin3":"13073","localeAltName":null},{"geonameid":2838442,"name":"Schloen","admin3":"13071","localeAltName":null},{"geonameid":2838131,"name":"Schmadebeck","admin3":"13072","localeAltName":null},{"geonameid":2837999,"name":"Schmarsow","admin3":"13075","localeAltName":null},{"geonameid":2837995,"name":"Schmatzin","admin3":"13075","localeAltName":null},{"geonameid":2837012,"name":"Schönbeck","admin3":"13071","localeAltName":null},{"geonameid":2836648,"name":"Schönfeld","admin3":"13071","localeAltName":null},{"geonameid":2836586,"name":"Schönhausen","admin3":"13071","localeAltName":null},{"geonameid":2836442,"name":"Schönwalde","admin3":"13075","localeAltName":null},{"geonameid":2836271,"name":"Schossin","admin3":"13076","localeAltName":null},{"geonameid":2835983,"name":"Schulenberg","admin3":"13073","localeAltName":null},{"geonameid":2835542,"name":"Schwaan","admin3":"13072","localeAltName":null},{"geonameid":2835332,"name":"Schwanbeck","admin3":"13071","localeAltName":null},{"geonameid":2835249,"name":"Schwanheide","admin3":"13076","localeAltName":null},{"geonameid":2835196,"name":"Schwarz","admin3":"13071","localeAltName":null},{"geonameid":2834282,"name":"Schwerin","admin3":"13004","localeAltName":null},{"geonameid":2834272,"name":"Schwerinsburg","admin3":"13075","localeAltName":null},{"geonameid":2834165,"name":"Schwinkendorf","admin3":"13071","localeAltName":null},{"geonameid":2833989,"name":"Seebad Bansin","admin3":"13075","localeAltName":null},{"geonameid":2833988,"name":"Seebad Heringsdorf","admin3":"13075","localeAltName":null},{"geonameid":2856194,"name":"Seeheilbad Graal-Müritz","admin3":"13072","localeAltName":null},{"geonameid":2833754,"name":"Seehof","admin3":"13074","localeAltName":null},{"geonameid":2833488,"name":"Sehlen","admin3":"13073","localeAltName":null},{"geonameid":2833184,"name":"Sellin","admin3":"13074","localeAltName":null},{"geonameid":2833163,"name":"Selmsdorf","admin3":"13074","localeAltName":null},{"geonameid":2833160,"name":"Selpin","admin3":"13072","localeAltName":null},{"geonameid":2833110,"name":"Semlow","admin3":"13073","localeAltName":null},{"geonameid":2832888,"name":"Setzin","admin3":"13076","localeAltName":null},{"geonameid":2832851,"name":"Severin","admin3":"13076","localeAltName":null},{"geonameid":2832599,"name":"Siedenbollentin","admin3":"13071","localeAltName":null},{"geonameid":2832598,"name":"Siedenbrünzow","admin3":"13071","localeAltName":null},{"geonameid":2832312,"name":"Sietow","admin3":"13071","localeAltName":null},{"geonameid":2832264,"name":"Siggelkow","admin3":"13076","localeAltName":null},{"geonameid":2832052,"name":"Silz","admin3":"13071","localeAltName":null},{"geonameid":2831342,"name":"Sommersdorf","admin3":"13071","localeAltName":null},{"geonameid":2830807,"name":"Spantekow","admin3":"13075","localeAltName":null},{"geonameid":2830193,"name":"Splietsdorf","admin3":"13073","localeAltName":null},{"geonameid":2830166,"name":"Sponholz","admin3":"13071","localeAltName":null},{"geonameid":2830146,"name":"Spornitz","admin3":"13076","localeAltName":null},{"geonameid":2829943,"name":"Stäbelow","admin3":"13072","localeAltName":null},{"geonameid":2829291,"name":"Staven","admin3":"13071","localeAltName":null},{"geonameid":2829168,"name":"Steesow","admin3":"13076","localeAltName":null},{"geonameid":2829154,"name":"Steffenshagen","admin3":"13072","localeAltName":null},{"geonameid":2828045,"name":"Steinhagen","admin3":"13073","localeAltName":null},{"geonameid":2827336,"name":"Sternberg","admin3":"13076","localeAltName":null},{"geonameid":2826540,"name":"Stolpe","admin3":"13076","localeAltName":null},{"geonameid":2826538,"name":"Stolpe an der Peene","admin3":"13075","localeAltName":null},{"geonameid":2826510,"name":"Stoltenhagen","admin3":"13073","localeAltName":null},{"geonameid":2826290,"name":"Stralendorf","admin3":"13076","localeAltName":null},{"geonameid":2826291,"name":"Stralendorf","admin3":"13076","localeAltName":null},{"geonameid":2826287,"name":"Stralsund","admin3":"13073","localeAltName":null},{"geonameid":2826258,"name":"Strasburg","admin3":"13075","localeAltName":null},{"geonameid":2825740,"name":"Strohkirchen","admin3":"13076","localeAltName":null},{"geonameid":2825552,"name":"Stubbendorf","admin3":"13071","localeAltName":null},{"geonameid":2825460,"name":"Stuer","admin3":"13071","localeAltName":null},{"geonameid":2824926,"name":"Sukow","admin3":"13076","localeAltName":null},{"geonameid":2824937,"name":"Sülstorf","admin3":"13076","localeAltName":null},{"geonameid":2823981,"name":"Tarnow","admin3":"13072","localeAltName":null},{"geonameid":2823737,"name":"Techentin","admin3":"13076","localeAltName":null},{"geonameid":2823444,"name":"Teschendorf","admin3":"13071","localeAltName":null},{"geonameid":2823423,"name":"Tessenow","admin3":"13072","localeAltName":null},{"geonameid":2823418,"name":"Tessin","admin3":"13072","localeAltName":null},{"geonameid":2823419,"name":"Tessin","admin3":"13076","localeAltName":null},{"geonameid":2823407,"name":"Testorf-Steinfort","admin3":"13074","localeAltName":null},{"geonameid":2823398,"name":"Teterow","admin3":"13072","localeAltName":null},{"geonameid":2823242,"name":"Teusin","admin3":"13071","localeAltName":null},{"geonameid":2823221,"name":"Tewswoos","admin3":"13076","localeAltName":null},{"geonameid":2823024,"name":"Thandorf","admin3":"13074","localeAltName":null},{"geonameid":2822870,"name":"Thelkow","admin3":"13072","localeAltName":null},{"geonameid":2822837,"name":"Thesenvitz","admin3":"13073","localeAltName":null},{"geonameid":2822725,"name":"Thiessow","admin3":"13073","localeAltName":null},{"geonameid":2822599,"name":"Thulendorf","admin3":"13072","localeAltName":null},{"geonameid":2822536,"name":"Thürkow","admin3":"13072","localeAltName":null},{"geonameid":2822031,"name":"Toddin","admin3":"13076","localeAltName":null},{"geonameid":2821802,"name":"Torgelow","admin3":"13075","localeAltName":null},{"geonameid":2821803,"name":"Torgelow","admin3":"13071","localeAltName":null},{"geonameid":2821799,"name":"Torgelow-Holländerei","admin3":"13075","localeAltName":null},{"geonameid":2821606,"name":"Tramm","admin3":"13076","localeAltName":null},{"geonameid":2821574,"name":"Trantow","admin3":"13075","localeAltName":null},{"geonameid":2821546,"name":"Trassenheide","admin3":"13075","localeAltName":null},{"geonameid":2821319,"name":"Trent","admin3":"13073","localeAltName":null},{"geonameid":2821211,"name":"Tribsees","admin3":"13073","localeAltName":null},{"geonameid":2821106,"name":"Trinwillershagen","admin3":"13073","localeAltName":null},{"geonameid":2821022,"name":"Trollenhagen","admin3":"13071","localeAltName":null},{"geonameid":2820704,"name":"Tutow","admin3":"13075","localeAltName":null},{"geonameid":2820691,"name":"Tützpatz","admin3":"13071","localeAltName":null},{"geonameid":2820522,"name":"Ückeritz","admin3":"13071","localeAltName":null},{"geonameid":2820471,"name":"Ueckermünde","admin3":"13075","localeAltName":null},{"geonameid":2820460,"name":"Uelitz","admin3":"13076","localeAltName":null},{"geonameid":2820186,"name":"Ummanz","admin3":"13073","localeAltName":null},{"geonameid":2818309,"name":"Upahl","admin3":"13074","localeAltName":null},{"geonameid":2818107,"name":"Usedom","admin3":"13075","localeAltName":null},{"geonameid":2818099,"name":"Userin","admin3":"13071","localeAltName":null},{"geonameid":2818079,"name":"Utecht","admin3":"13074","localeAltName":null},{"geonameid":2818000,"name":"Utzedel","admin3":"13071","localeAltName":null},{"geonameid":2817901,"name":"Valluhn","admin3":"13076","localeAltName":null},{"geonameid":2817881,"name":"Varchentin","admin3":"13071","localeAltName":null},{"geonameid":2817798,"name":"Veelböken","admin3":"13074","localeAltName":null},{"geonameid":2817703,"name":"Velgast","admin3":"13073","localeAltName":null},{"geonameid":2817696,"name":"Vellahn","admin3":"13076","localeAltName":null},{"geonameid":2817620,"name":"Ventschow","admin3":"13074","localeAltName":null},{"geonameid":2817600,"name":"Verchen","admin3":"13071","localeAltName":null},{"geonameid":2817412,"name":"Vielank","admin3":"13076","localeAltName":null},{"geonameid":2817404,"name":"Vielist","admin3":"13071","localeAltName":null},{"geonameid":2817375,"name":"Viereck","admin3":"13075","localeAltName":null},{"geonameid":2817148,"name":"Vipperow","admin3":"13071","localeAltName":null},{"geonameid":2817126,"name":"Vitense","admin3":"13075","localeAltName":null},{"geonameid":2816744,"name":"Voigtsdorf","admin3":"13071","localeAltName":null},{"geonameid":2816548,"name":"Vollrathsruhe","admin3":"13071","localeAltName":null},{"geonameid":2816531,"name":"Völschow","admin3":"13075","localeAltName":null},{"geonameid":2816494,"name":"Vorbeck","admin3":"13072","localeAltName":null},{"geonameid":2815604,"name":"Wackerow","admin3":"13071","localeAltName":null},{"geonameid":2815463,"name":"Wagun","admin3":"13071","localeAltName":null},{"geonameid":2815391,"name":"Wahlstorf","admin3":"13076","localeAltName":null},{"geonameid":2814738,"name":"Walkendorf","admin3":"13072","localeAltName":null},{"geonameid":2814502,"name":"Walow","admin3":"13071","localeAltName":null},{"geonameid":2814133,"name":"Wardow","admin3":"13072","localeAltName":null},{"geonameid":2814131,"name":"Waren","admin3":"13071","localeAltName":null},{"geonameid":2814107,"name":"Warin","admin3":"13074","localeAltName":null},{"geonameid":2814097,"name":"Warlin","admin3":"13071","localeAltName":null},{"geonameid":2814096,"name":"Warlitz","admin3":"13076","localeAltName":null},{"geonameid":2814095,"name":"Warlow","admin3":"13076","localeAltName":null},{"geonameid":2814055,"name":"Warnemünde","admin3":"13003","localeAltName":null},{"geonameid":2814047,"name":"Warnkenhagen","admin3":"13072","localeAltName":null},{"geonameid":2814043,"name":"Warnow","admin3":"13072","localeAltName":null},{"geonameid":2814025,"name":"Warrenzin","admin3":"13071","localeAltName":null},{"geonameid":2814010,"name":"Warsow","admin3":"13071","localeAltName":null},{"geonameid":2813828,"name":"Wasdow","admin3":"13072","localeAltName":null},{"geonameid":2813624,"name":"Wattmannshagen","admin3":"13072","localeAltName":null},{"geonameid":2813598,"name":"Watzkendorf","admin3":"13071","localeAltName":null},{"geonameid":2813455,"name":"Wedendorf","admin3":"13074","localeAltName":null},{"geonameid":2811674,"name":"Weitendorf","admin3":"13074","localeAltName":null},{"geonameid":2811664,"name":"Weitenhagen","admin3":"13073","localeAltName":null},{"geonameid":2811665,"name":"Weitenhagen","admin3":"13075","localeAltName":null},{"geonameid":2811236,"name":"Wendisch Baggendorf","admin3":"13073","localeAltName":null},{"geonameid":2811220,"name":"Wendisch Priborn","admin3":"13076","localeAltName":null},{"geonameid":2811216,"name":"Wendisch Waren","admin3":"13076","localeAltName":null},{"geonameid":2811187,"name":"Wendorf","admin3":"13073","localeAltName":null},{"geonameid":2811194,"name":"Wendorf","admin3":"13076","localeAltName":null},{"geonameid":2810937,"name":"Werder","admin3":"13076","localeAltName":null},{"geonameid":7284135,"name":"Werdervorstadt","admin3":"13004","localeAltName":null},{"geonameid":2810868,"name":"Werle","admin3":"13072","localeAltName":null},{"geonameid":2810662,"name":"Wesenberg","admin3":"13071","localeAltName":null},{"geonameid":2810590,"name":"Wessin","admin3":"13076","localeAltName":null},{"geonameid":2810540,"name":"Westenbrügge","admin3":"13072","localeAltName":null},{"geonameid":7284171,"name":"Weststadt","admin3":"13004","localeAltName":null},{"geonameid":2809672,"name":"Wiebendorf","admin3":"13076","localeAltName":null},{"geonameid":2809651,"name":"Wieck","admin3":"13073","localeAltName":null},{"geonameid":2809509,"name":"Wiek","admin3":"13073","localeAltName":null},{"geonameid":2809449,"name":"Wiendorf","admin3":"13072","localeAltName":null},{"geonameid":2809093,"name":"Wietstock","admin3":"13075","localeAltName":null},{"geonameid":2809009,"name":"Wildberg","admin3":"13071","localeAltName":null},{"geonameid":2808748,"name":"Wilhelmsburg","admin3":"13075","localeAltName":null},{"geonameid":2808466,"name":"Wilmshagen","admin3":"13073","localeAltName":null},{"geonameid":2807465,"name":"Wismar","admin3":"13074","localeAltName":null},{"geonameid":2807355,"name":"Wittenbeck","admin3":"13072","localeAltName":null},{"geonameid":2807335,"name":"Wittenburg","admin3":"13076","localeAltName":null},{"geonameid":2807327,"name":"Wittenförden","admin3":"13076","localeAltName":null},{"geonameid":2807325,"name":"Wittenhagen","admin3":"13073","localeAltName":null},{"geonameid":2807171,"name":"Witzin","admin3":"13076","localeAltName":null},{"geonameid":2807138,"name":"Wöbbelin","admin3":"13076","localeAltName":null},{"geonameid":2807098,"name":"Woggersin","admin3":"13071","localeAltName":null},{"geonameid":2806968,"name":"Wolde","admin3":"13071","localeAltName":null},{"geonameid":2806963,"name":"Woldegk","admin3":"13071","localeAltName":null},{"geonameid":2806501,"name":"Wolgast","admin3":"13075","localeAltName":null},{"geonameid":2806221,"name":"Woosmer","admin3":"13076","localeAltName":null},{"geonameid":2806050,"name":"Wotenick","admin3":"13071","localeAltName":null},{"geonameid":2806023,"name":"Wrangelsburg","admin3":"13075","localeAltName":null},{"geonameid":2806015,"name":"Wredenhagen","admin3":"13071","localeAltName":null},{"geonameid":2805865,"name":"Wulkenzin","admin3":"13071","localeAltName":null},{"geonameid":2805522,"name":"Wüstenfelde","admin3":"13075","localeAltName":null},{"geonameid":2805481,"name":"Wusterhusen","admin3":"13075","localeAltName":null},{"geonameid":2805448,"name":"Wustrow","admin3":"13071","localeAltName":null},{"geonameid":2805303,"name":"Zahrensdorf","admin3":"13076","localeAltName":null},{"geonameid":2805231,"name":"Zapel","admin3":"13076","localeAltName":null},{"geonameid":2805213,"name":"Zarnekow","admin3":"13071","localeAltName":null},{"geonameid":2805208,"name":"Zarnewanz","admin3":"13072","localeAltName":null},{"geonameid":2805195,"name":"Zarrendorf","admin3":"13073","localeAltName":null},{"geonameid":2805193,"name":"Zarrentin","admin3":"13076","localeAltName":null},{"geonameid":2805050,"name":"Zehna","admin3":"13072","localeAltName":null},{"geonameid":2804792,"name":"Zemitz","admin3":"13075","localeAltName":null},{"geonameid":2804787,"name":"Zempin","admin3":"13075","localeAltName":null},{"geonameid":2804761,"name":"Zepelin","admin3":"13072","localeAltName":null},{"geonameid":2804756,"name":"Zepkow","admin3":"13071","localeAltName":null},{"geonameid":2804715,"name":"Zerrenthin","admin3":"13075","localeAltName":null},{"geonameid":2804686,"name":"Zettemin","admin3":"13071","localeAltName":null},{"geonameid":2804616,"name":"Zickhusen","admin3":"13074","localeAltName":null},{"geonameid":2804399,"name":"Ziegendorf","admin3":"13076","localeAltName":null},{"geonameid":2804285,"name":"Zierow","admin3":"13074","localeAltName":null},{"geonameid":2804281,"name":"Zierzow","admin3":"13071","localeAltName":null},{"geonameid":2804268,"name":"Ziesendorf","admin3":"13072","localeAltName":null},{"geonameid":2804254,"name":"Ziethen","admin3":"13075","localeAltName":null},{"geonameid":2804135,"name":"Zingst","admin3":"13073","localeAltName":null},{"geonameid":2804051,"name":"Zirchow","admin3":"13075","localeAltName":null},{"geonameid":2804022,"name":"Zirzow","admin3":"13071","localeAltName":null},{"geonameid":2804018,"name":"Zislow","admin3":"13071","localeAltName":null},{"geonameid":2803953,"name":"Zölkow","admin3":"13076","localeAltName":null},{"geonameid":2803758,"name":"Zudar","admin3":"13073","localeAltName":null},{"geonameid":2803726,"name":"Zülow","admin3":"13076","localeAltName":null},{"geonameid":2803670,"name":"Zurow","admin3":"13074","localeAltName":null},{"geonameid":2803657,"name":"Züsedom","admin3":"13075","localeAltName":null},{"geonameid":2803654,"name":"Züsow","admin3":"13074","localeAltName":null},{"geonameid":2803651,"name":"Züssow","admin3":"13075","localeAltName":null}],"admin1":{"geonameid":2872567,"name":"Mecklenburg-Western Pomerania","admin1":"12","localeAltName":"Mecklenburg-Vorpommern"},"admin2":"no-adm2","admin3":{"geonameid":2843324,"name":"Vorpommern-Rügen","country":"DE","admin1":"12","admin2":"00","admin3":"13073","latitude":"54.4550000","longitude":"13.3936100","localeAltName":null},"admin4":[{"geonameid":2830192,"name":"Splietsdorf","admin3":"13073","localeAltName":null},{"geonameid":2841326,"name":"Satow","admin3":"13072","localeAltName":null},{"geonameid":2887223,"name":"Kneese","admin3":"13074","localeAltName":null},{"geonameid":2895919,"name":"Insel Poel","admin3":"13074","localeAltName":null},{"geonameid":6547398,"name":"Klocksin","admin3":"13071","localeAltName":null},{"geonameid":6547403,"name":"Silz","admin3":"13071","localeAltName":null},{"geonameid":6547408,"name":"Bülow","admin3":"13076","localeAltName":null},{"geonameid":6547411,"name":"Warnow","admin3":"13072","localeAltName":null},{"geonameid":6547463,"name":"Demen","admin3":"13076","localeAltName":null},{"geonameid":6547756,"name":"Neubrandenburg","admin3":"13071","localeAltName":null},{"geonameid":6547757,"name":"Admannshagen-Bargeshagen","admin3":"13072","localeAltName":null},{"geonameid":6547758,"name":"Alt Bukow","admin3":"13072","localeAltName":null},{"geonameid":6547759,"name":"Bartenshagen-Parkentin","admin3":"13072","localeAltName":null},{"geonameid":6547760,"name":"Bastorf","admin3":"13072","localeAltName":null},{"geonameid":6547761,"name":"Benitz","admin3":"13072","localeAltName":null},{"geonameid":6547762,"name":"Bentwisch","admin3":"13072","localeAltName":null},{"geonameid":6547763,"name":"Blankenhagen","admin3":"13072","localeAltName":null},{"geonameid":6547764,"name":"Börgerende-Rethwisch","admin3":"13072","localeAltName":null},{"geonameid":6547765,"name":"Bröbberow","admin3":"13072","localeAltName":null},{"geonameid":6547766,"name":"Broderstorf","admin3":"13072","localeAltName":null},{"geonameid":6547767,"name":"Cammin","admin3":"13072","localeAltName":null},{"geonameid":6547769,"name":"Dummerstorf","admin3":"13072","localeAltName":null},{"geonameid":6547770,"name":"Elmenhorst/Lichtenhagen","admin3":"13072","localeAltName":null},{"geonameid":6547771,"name":"Gelbensande","admin3":"13072","localeAltName":null},{"geonameid":6547772,"name":"Gnewitz","admin3":"13072","localeAltName":null},{"geonameid":6547773,"name":"Graal-Müritz","admin3":"13072","localeAltName":null},{"geonameid":6547774,"name":"Grammow","admin3":"13072","localeAltName":null},{"geonameid":6547775,"name":"Kassow","admin3":"13072","localeAltName":null},{"geonameid":6547780,"name":"Kritzmow","admin3":"13072","localeAltName":null},{"geonameid":6547781,"name":"Lambrechtshagen","admin3":"13072","localeAltName":null},{"geonameid":6547784,"name":"Mönchhagen","admin3":"13072","localeAltName":null},{"geonameid":6547785,"name":"Nienhagen","admin3":"13072","localeAltName":null},{"geonameid":6547786,"name":"Nustrow","admin3":"13072","localeAltName":null},{"geonameid":6547787,"name":"Papendorf","admin3":"13072","localeAltName":null},{"geonameid":6547788,"name":"Pölchow","admin3":"13072","localeAltName":null},{"geonameid":6547789,"name":"Poppendorf","admin3":"13072","localeAltName":null},{"geonameid":6547791,"name":"Reddelich","admin3":"13072","localeAltName":null},{"geonameid":6547792,"name":"Roggentin","admin3":"13072","localeAltName":null},{"geonameid":6547793,"name":"Rövershagen","admin3":"13072","localeAltName":null},{"geonameid":6547794,"name":"Rukieten","admin3":"13072","localeAltName":null},{"geonameid":6547795,"name":"Sanitz","admin3":"13072","localeAltName":null},{"geonameid":6547796,"name":"Selpin","admin3":"13072","localeAltName":null},{"geonameid":6547797,"name":"Stäbelow","admin3":"13072","localeAltName":null},{"geonameid":6547798,"name":"Steffenshagen","admin3":"13072","localeAltName":null},{"geonameid":6547800,"name":"Stubbendorf","admin3":"13072","localeAltName":null},{"geonameid":6547801,"name":"Thelkow","admin3":"13072","localeAltName":null},{"geonameid":6547802,"name":"Thulendorf","admin3":"13072","localeAltName":null},{"geonameid":6547803,"name":"Vorbeck","admin3":"13072","localeAltName":null},{"geonameid":6547804,"name":"Wiendorf","admin3":"13072","localeAltName":null},{"geonameid":6547805,"name":"Wittenbeck","admin3":"13072","localeAltName":null},{"geonameid":6547806,"name":"Zarnewanz","admin3":"13072","localeAltName":null},{"geonameid":6547807,"name":"Ziesendorf","admin3":"13072","localeAltName":null},{"geonameid":6547808,"name":"Alt Tellin","admin3":"13075","localeAltName":null},{"geonameid":6547809,"name":"Altenhagen","admin3":"13071","localeAltName":null},{"geonameid":6547810,"name":"Bartow","admin3":"13071","localeAltName":null},{"geonameid":6547811,"name":"Basedow","admin3":"13071","localeAltName":null},{"geonameid":6547812,"name":"Beggerow","admin3":"13071","localeAltName":null},{"geonameid":6547813,"name":"Bentzin","admin3":"13075","localeAltName":null},{"geonameid":6547814,"name":"Bredenfelde","admin3":"13071","localeAltName":null},{"geonameid":6547815,"name":"Breesen","admin3":"13071","localeAltName":null},{"geonameid":6547816,"name":"Breest","admin3":"13071","localeAltName":null},{"geonameid":6547817,"name":"Briggow","admin3":"13071","localeAltName":null},{"geonameid":6547818,"name":"Burow","admin3":"13071","localeAltName":null},{"geonameid":6547819,"name":"Daberkow","admin3":"13075","localeAltName":null},{"geonameid":6547822,"name":"Faulenrost","admin3":"13071","localeAltName":null},{"geonameid":6547823,"name":"Gielow","admin3":"13071","localeAltName":null},{"geonameid":6547824,"name":"Gnevkow","admin3":"13071","localeAltName":null},{"geonameid":6547825,"name":"Golchen","admin3":"13071","localeAltName":null},{"geonameid":6547826,"name":"Görmin","admin3":"13075","localeAltName":null},{"geonameid":6547827,"name":"Grammentin","admin3":"13071","localeAltName":null},{"geonameid":6547828,"name":"Grapzow","admin3":"13071","localeAltName":null},{"geonameid":6547829,"name":"Grischow","admin3":"13071","localeAltName":null},{"geonameid":6547830,"name":"Groß Teetzleben","admin3":"13071","localeAltName":null},{"geonameid":6547831,"name":"Gültz","admin3":"13071","localeAltName":null},{"geonameid":6547832,"name":"Gülzow","admin3":"13071","localeAltName":null},{"geonameid":6547833,"name":"Hohenbollentin","admin3":"13071","localeAltName":null},{"geonameid":6547834,"name":"Ivenack","admin3":"13071","localeAltName":null},{"geonameid":6547835,"name":"Jürgenstorf","admin3":"13071","localeAltName":null},{"geonameid":6547836,"name":"Kittendorf","admin3":"13071","localeAltName":null},{"geonameid":6547837,"name":"Knorrendorf","admin3":"13071","localeAltName":null},{"geonameid":6547838,"name":"Kriesow","admin3":"13071","localeAltName":null},{"geonameid":6547839,"name":"Kruckow","admin3":"13075","localeAltName":null},{"geonameid":6547840,"name":"Kummerow","admin3":"13071","localeAltName":null},{"geonameid":6547841,"name":"Lindenberg","admin3":"13071","localeAltName":null},{"geonameid":6547842,"name":"Meesiger","admin3":"13071","localeAltName":null},{"geonameid":6547843,"name":"Mölln","admin3":"13071","localeAltName":null},{"geonameid":6547844,"name":"Kentzlin","admin3":"13071","localeAltName":null},{"geonameid":6547845,"name":"Nossendorf","admin3":"13071","localeAltName":null},{"geonameid":6547846,"name":"Pripsleben","admin3":"13071","localeAltName":null},{"geonameid":6547848,"name":"Ritzerow","admin3":"13071","localeAltName":null},{"geonameid":6547849,"name":"Röckwitz","admin3":"13071","localeAltName":null},{"geonameid":6547850,"name":"Rosenow","admin3":"13071","localeAltName":null},{"geonameid":6547851,"name":"Sarow","admin3":"13071","localeAltName":null},{"geonameid":6547852,"name":"Schönfeld","admin3":"13071","localeAltName":null},{"geonameid":6547853,"name":"Siedenbollentin","admin3":"13071","localeAltName":null},{"geonameid":6547854,"name":"Sommersdorf","admin3":"13071","localeAltName":null},{"geonameid":6547855,"name":"Tutow","admin3":"13075","localeAltName":null},{"geonameid":6547856,"name":"Tützpatz","admin3":"13071","localeAltName":null},{"geonameid":6547857,"name":"Völschow","admin3":"13075","localeAltName":null},{"geonameid":6547858,"name":"Warrenzin","admin3":"13071","localeAltName":null},{"geonameid":6547859,"name":"Werder","admin3":"13071","localeAltName":null},{"geonameid":6547860,"name":"Wildberg","admin3":"13071","localeAltName":null},{"geonameid":6547861,"name":"Wolde","admin3":"13071","localeAltName":null},{"geonameid":6547862,"name":"Zettemin","admin3":"13071","localeAltName":null},{"geonameid":6547863,"name":"Borrentin","admin3":"13071","localeAltName":null},{"geonameid":6547864,"name":"Hohenmocker","admin3":"13071","localeAltName":null},{"geonameid":6547865,"name":"Kletzin","admin3":"13071","localeAltName":null},{"geonameid":6547866,"name":"Siedenbrünzow","admin3":"13071","localeAltName":null},{"geonameid":6547867,"name":"Utzedel","admin3":"13071","localeAltName":null},{"geonameid":6547868,"name":"Alt Sührkow","admin3":"13072","localeAltName":null},{"geonameid":6547869,"name":"Altkalen","admin3":"13072","localeAltName":null},{"geonameid":6547870,"name":"Behren-Lübchin","admin3":"13072","localeAltName":null},{"geonameid":6547873,"name":"Dahmen","admin3":"13072","localeAltName":null},{"geonameid":6547874,"name":"Dalkendorf","admin3":"13072","localeAltName":null},{"geonameid":6547876,"name":"Dreetz","admin3":"13072","localeAltName":null},{"geonameid":6547877,"name":"Finkenthal","admin3":"13072","localeAltName":null},{"geonameid":6547878,"name":"Glasewitz","admin3":"13072","localeAltName":null},{"geonameid":6547879,"name":"Groß Roge","admin3":"13072","localeAltName":null},{"geonameid":6547880,"name":"Groß Schwiesow","admin3":"13072","localeAltName":null},{"geonameid":6547881,"name":"Groß Wokern","admin3":"13072","localeAltName":null},{"geonameid":6547882,"name":"Groß Wüstenfelde","admin3":"13072","localeAltName":null},{"geonameid":6547883,"name":"Gutow","admin3":"13072","localeAltName":null},{"geonameid":6547884,"name":"Hohen Demzin","admin3":"13072","localeAltName":null},{"geonameid":6547885,"name":"Hohen Sprenz","admin3":"13072","localeAltName":null},{"geonameid":6547886,"name":"Hoppenrade","admin3":"13072","localeAltName":null},{"geonameid":6547887,"name":"Jördenstorf","admin3":"13072","localeAltName":null},{"geonameid":6547888,"name":"Jürgenshagen","admin3":"13072","localeAltName":null},{"geonameid":6547889,"name":"Klein Belitz","admin3":"13072","localeAltName":null},{"geonameid":6547890,"name":"Klein Upahl","admin3":"13072","localeAltName":null},{"geonameid":6547891,"name":"Kuchelmiß","admin3":"13072","localeAltName":null},{"geonameid":6547892,"name":"Kuhs","admin3":"13072","localeAltName":null},{"geonameid":6547893,"name":"Lalendorf","admin3":"13072","localeAltName":null},{"geonameid":6547895,"name":"Lelkendorf","admin3":"13072","localeAltName":null},{"geonameid":6547896,"name":"Lohmen","admin3":"13072","localeAltName":null},{"geonameid":6547898,"name":"Lüssow","admin3":"13072","localeAltName":null},{"geonameid":6547899,"name":"Mistorf","admin3":"13072","localeAltName":null},{"geonameid":6547900,"name":"Mühl Rosin","admin3":"13072","localeAltName":null},{"geonameid":6547902,"name":"Penzin","admin3":"13072","localeAltName":null},{"geonameid":6547904,"name":"Reimershagen","admin3":"13072","localeAltName":null},{"geonameid":6547905,"name":"Rühn","admin3":"13072","localeAltName":null},{"geonameid":6547906,"name":"Steinhagen","admin3":"13072","localeAltName":null},{"geonameid":6547907,"name":"Tarnow","admin3":"13072","localeAltName":null},{"geonameid":6547908,"name":"Thürkow","admin3":"13072","localeAltName":null},{"geonameid":6547909,"name":"Walkendorf","admin3":"13072","localeAltName":null},{"geonameid":6547910,"name":"Wardow","admin3":"13072","localeAltName":null},{"geonameid":6547911,"name":"Warnkenhagen","admin3":"13072","localeAltName":null},{"geonameid":6547913,"name":"Zehna","admin3":"13072","localeAltName":null},{"geonameid":6547914,"name":"Zepelin","admin3":"13072","localeAltName":null},{"geonameid":6547915,"name":"Prebberede","admin3":"13072","localeAltName":null},{"geonameid":6547916,"name":"Alt Krenzlin","admin3":"13076","localeAltName":null},{"geonameid":6547917,"name":"Alt Zachun","admin3":"13076","localeAltName":null},{"geonameid":6547918,"name":"Balow","admin3":"13076","localeAltName":null},{"geonameid":6547919,"name":"Bandenitz","admin3":"13076","localeAltName":null},{"geonameid":6547920,"name":"Belsch","admin3":"13076","localeAltName":null},{"geonameid":6547921,"name":"Besitz","admin3":"13076","localeAltName":null},{"geonameid":6547922,"name":"Blievenstorf","admin3":"13076","localeAltName":null},{"geonameid":6547923,"name":"Bobzin","admin3":"13076","localeAltName":null},{"geonameid":6547924,"name":"Brahlstorf","admin3":"13076","localeAltName":null},{"geonameid":6547925,"name":"Brenz","admin3":"13076","localeAltName":null},{"geonameid":6547926,"name":"Dambeck","admin3":"13076","localeAltName":null},{"geonameid":6547927,"name":"Dersenow","admin3":"13076","localeAltName":null},{"geonameid":6547928,"name":"Dümmer","admin3":"13076","localeAltName":null},{"geonameid":6547929,"name":"Eldena","admin3":"13076","localeAltName":null},{"geonameid":6547931,"name":"Gallin","admin3":"13076","localeAltName":null},{"geonameid":6547932,"name":"Gammelin","admin3":"13076","localeAltName":null},{"geonameid":6547934,"name":"Göhlen","admin3":"13076","localeAltName":null},{"geonameid":6547935,"name":"Gorlosen","admin3":"13076","localeAltName":null},{"geonameid":6547936,"name":"Gresse","admin3":"13076","localeAltName":null},{"geonameid":6547937,"name":"Greven","admin3":"13076","localeAltName":null},{"geonameid":6547938,"name":"Groß Krams","admin3":"13076","localeAltName":null},{"geonameid":6547939,"name":"Groß Laasch","admin3":"13076","localeAltName":null},{"geonameid":6547940,"name":"Holthusen","admin3":"13076","localeAltName":null},{"geonameid":6547941,"name":"Hoort","admin3":"13076","localeAltName":null},{"geonameid":6547942,"name":"Hülseburg","admin3":"13076","localeAltName":null},{"geonameid":6547943,"name":"Karenz","admin3":"13076","localeAltName":null},{"geonameid":6547944,"name":"Karstädt","admin3":"13076","localeAltName":null},{"geonameid":6547945,"name":"Kirch Jesar","admin3":"13076","localeAltName":null},{"geonameid":6547946,"name":"Bengerstorf","admin3":"13076","localeAltName":null},{"geonameid":6547947,"name":"Klein Rogahn","admin3":"13076","localeAltName":null},{"geonameid":6547948,"name":"Kogel","admin3":"13076","localeAltName":null},{"geonameid":6547950,"name":"Kremmin","admin3":"13076","localeAltName":null},{"geonameid":6547951,"name":"Kuhstorf","admin3":"13076","localeAltName":null},{"geonameid":6547955,"name":"Lübesse","admin3":"13076","localeAltName":null},{"geonameid":6547956,"name":"Lüblow","admin3":"13076","localeAltName":null},{"geonameid":6547957,"name":"Malliß","admin3":"13076","localeAltName":null},{"geonameid":6547958,"name":"Milow","admin3":"13076","localeAltName":null},{"geonameid":6547959,"name":"Möllenbeck","admin3":"13076","localeAltName":null},{"geonameid":6547960,"name":"Moraas","admin3":"13076","localeAltName":null},{"geonameid":6547961,"name":"Muchow","admin3":"13076","localeAltName":null},{"geonameid":6547962,"name":"Neu Gülze","admin3":"13076","localeAltName":null},{"geonameid":6547963,"name":"Neu Kaliß","admin3":"13076","localeAltName":null},{"geonameid":6547964,"name":"Nostorf","admin3":"13076","localeAltName":null},{"geonameid":6547965,"name":"Pampow","admin3":"13076","localeAltName":null},{"geonameid":6547966,"name":"Picher","admin3":"13076","localeAltName":null},{"geonameid":6547967,"name":"Prislich","admin3":"13076","localeAltName":null},{"geonameid":6547968,"name":"Pritzier","admin3":"13076","localeAltName":null},{"geonameid":6547969,"name":"Rastow","admin3":"13076","localeAltName":null},{"geonameid":6547970,"name":"Redefin","admin3":"13076","localeAltName":null},{"geonameid":6547971,"name":"Schossin","admin3":"13076","localeAltName":null},{"geonameid":6547972,"name":"Schwanheide","admin3":"13076","localeAltName":null},{"geonameid":6547975,"name":"Stralendorf","admin3":"13076","localeAltName":null},{"geonameid":6547976,"name":"Strohkirchen","admin3":"13076","localeAltName":null},{"geonameid":6547977,"name":"Sülstorf","admin3":"13076","localeAltName":null},{"geonameid":6547978,"name":"Teldau","admin3":"13076","localeAltName":null},{"geonameid":6547980,"name":"Uelitz","admin3":"13076","localeAltName":null},{"geonameid":6547981,"name":"Vellahn","admin3":"13076","localeAltName":null},{"geonameid":6547982,"name":"Vielank","admin3":"13076","localeAltName":null},{"geonameid":6547983,"name":"Warlitz","admin3":"13076","localeAltName":null},{"geonameid":6547984,"name":"Warlow","admin3":"13076","localeAltName":null},{"geonameid":6547985,"name":"Warsow","admin3":"13076","localeAltName":null},{"geonameid":6547987,"name":"Wittenförden","admin3":"13076","localeAltName":null},{"geonameid":6547988,"name":"Wöbbelin","admin3":"13076","localeAltName":null},{"geonameid":6547989,"name":"Zierzow","admin3":"13076","localeAltName":null},{"geonameid":6547990,"name":"Zülow","admin3":"13076","localeAltName":null},{"geonameid":6547991,"name":"Beseritz","admin3":"13071","localeAltName":null},{"geonameid":6547992,"name":"Blankenhof","admin3":"13071","localeAltName":null},{"geonameid":6547993,"name":"Blankensee","admin3":"13071","localeAltName":null},{"geonameid":6547994,"name":"Blumenholz","admin3":"13071","localeAltName":null},{"geonameid":6547995,"name":"Brunn","admin3":"13071","localeAltName":null},{"geonameid":6547997,"name":"Carpin","admin3":"13071","localeAltName":null},{"geonameid":6547998,"name":"Cölpin","admin3":"13071","localeAltName":null},{"geonameid":6548001,"name":"Godendorf","admin3":"13071","localeAltName":null},{"geonameid":6548003,"name":"Groß Nemerow","admin3":"13071","localeAltName":null},{"geonameid":6548004,"name":"Grünow","admin3":"13071","localeAltName":null},{"geonameid":6548005,"name":"Hohenzieritz","admin3":"13071","localeAltName":null},{"geonameid":6548006,"name":"Holldorf","admin3":"13071","localeAltName":null},{"geonameid":6548007,"name":"Klein Vielen","admin3":"13071","localeAltName":null},{"geonameid":6548008,"name":"Kratzeburg","admin3":"13071","localeAltName":null},{"geonameid":6548009,"name":"Kublank","admin3":"13071","localeAltName":null},{"geonameid":6548011,"name":"Möllenbeck","admin3":"13071","localeAltName":null},{"geonameid":6548012,"name":"Neddemin","admin3":"13071","localeAltName":null},{"geonameid":6548013,"name":"Neetzka","admin3":"13071","localeAltName":null},{"geonameid":6548014,"name":"Neuenkirchen","admin3":"13071","localeAltName":null},{"geonameid":6548015,"name":"Neverin","admin3":"13071","localeAltName":null},{"geonameid":6548017,"name":"Pragsdorf","admin3":"13071","localeAltName":null},{"geonameid":6548018,"name":"Priepert","admin3":"13071","localeAltName":null},{"geonameid":6548020,"name":"Schönbeck","admin3":"13071","localeAltName":null},{"geonameid":6548021,"name":"Schönhausen","admin3":"13071","localeAltName":null},{"geonameid":6548022,"name":"Staven","admin3":"13071","localeAltName":null},{"geonameid":6548024,"name":"Trollenhagen","admin3":"13071","localeAltName":null},{"geonameid":6548025,"name":"Userin","admin3":"13071","localeAltName":null},{"geonameid":6548026,"name":"Voigtsdorf","admin3":"13071","localeAltName":null},{"geonameid":6548027,"name":"Woggersin","admin3":"13071","localeAltName":null},{"geonameid":6548028,"name":"Wulkenzin","admin3":"13071","localeAltName":null},{"geonameid":6548029,"name":"Wustrow","admin3":"13071","localeAltName":null},{"geonameid":6548030,"name":"Zirzow","admin3":"13071","localeAltName":null},{"geonameid":6548031,"name":"Feldberger Seenlandschaft","admin3":"13071","localeAltName":null},{"geonameid":6548032,"name":"Groß Miltzow","admin3":"13071","localeAltName":null},{"geonameid":6548035,"name":"Wokuhl-Dabelow","admin3":"13071","localeAltName":null},{"geonameid":6548036,"name":"Lindetal","admin3":"13071","localeAltName":null},{"geonameid":6548037,"name":"Datzetal","admin3":"13071","localeAltName":null},{"geonameid":6548038,"name":"Sponholz","admin3":"13071","localeAltName":null},{"geonameid":6548042,"name":"Alt Schwerin","admin3":"13071","localeAltName":null},{"geonameid":6548043,"name":"Altenhof","admin3":"13071","localeAltName":null},{"geonameid":6548044,"name":"Ankershagen","admin3":"13071","localeAltName":null},{"geonameid":6548045,"name":"Bollewick","admin3":"13071","localeAltName":null},{"geonameid":6548046,"name":"Buchholz","admin3":"13071","localeAltName":null},{"geonameid":6548047,"name":"Bütow","admin3":"13071","localeAltName":null},{"geonameid":6548048,"name":"Fincken","admin3":"13071","localeAltName":null},{"geonameid":6548049,"name":"Göhren-Lebbin","admin3":"13071","localeAltName":null},{"geonameid":6548050,"name":"Gotthun","admin3":"13071","localeAltName":null},{"geonameid":6548052,"name":"Grabowhöfe","admin3":"13071","localeAltName":null},{"geonameid":6548056,"name":"Groß Kelle","admin3":"13071","localeAltName":null},{"geonameid":6548057,"name":"Groß Plasten","admin3":"13071","localeAltName":null},{"geonameid":6548061,"name":"Hohen Wangelin","admin3":"13071","localeAltName":null},{"geonameid":6548062,"name":"Jabel","admin3":"13071","localeAltName":null},{"geonameid":6548065,"name":"Kargow","admin3":"13071","localeAltName":null},{"geonameid":6548066,"name":"Kieve","admin3":"13071","localeAltName":null},{"geonameid":6548068,"name":"Klink","admin3":"13071","localeAltName":null},{"geonameid":6548073,"name":"Lärz","admin3":"13071","localeAltName":null},{"geonameid":6548074,"name":"Leizen","admin3":"13071","localeAltName":null},{"geonameid":6548080,"name":"Melz","admin3":"13071","localeAltName":null},{"geonameid":6548081,"name":"Möllenhagen","admin3":"13071","localeAltName":null},{"geonameid":6548083,"name":"Moltzow","admin3":"13071","localeAltName":null},{"geonameid":6548085,"name":"Nossentiner Hütte","admin3":"13071","localeAltName":null},{"geonameid":6548086,"name":"Penkow","admin3":"13071","localeAltName":null},{"geonameid":6548087,"name":"Priborn","admin3":"13071","localeAltName":null},{"geonameid":6548089,"name":"Rechlin","admin3":"13071","localeAltName":null},{"geonameid":6548093,"name":"Schwarz","admin3":"13071","localeAltName":null},{"geonameid":6548095,"name":"Stuer","admin3":"13071","localeAltName":null},{"geonameid":6548096,"name":"Torgelow am See","admin3":"13071","localeAltName":null},{"geonameid":6548100,"name":"Vollrathsruhe","admin3":"13071","localeAltName":null},{"geonameid":6548101,"name":"Walow","admin3":"13071","localeAltName":null},{"geonameid":6548104,"name":"Zislow","admin3":"13071","localeAltName":null},{"geonameid":6548105,"name":"Ahrenshoop","admin3":"13073","localeAltName":null},{"geonameid":6548106,"name":"Altenpleen","admin3":"13073","localeAltName":null},{"geonameid":6548109,"name":"Deyelsdorf","admin3":"13073","localeAltName":null},{"geonameid":6548110,"name":"Dierhagen","admin3":"13073","localeAltName":null},{"geonameid":6548111,"name":"Drechow","admin3":"13073","localeAltName":null},{"geonameid":6548112,"name":"Eixen","admin3":"13073","localeAltName":null},{"geonameid":6548113,"name":"Elmenhorst","admin3":"13073","localeAltName":null},{"geonameid":6548114,"name":"Fuhlendorf","admin3":"13073","localeAltName":null},{"geonameid":6548115,"name":"Glewitz","admin3":"13073","localeAltName":null},{"geonameid":6548116,"name":"Grammendorf","admin3":"13073","localeAltName":null},{"geonameid":6548117,"name":"Gransebieth","admin3":"13073","localeAltName":null},{"geonameid":6548118,"name":"Groß Kordshagen","admin3":"13073","localeAltName":null},{"geonameid":6548119,"name":"Groß Mohrdorf","admin3":"13073","localeAltName":null},{"geonameid":6548121,"name":"Hugoldsdorf","admin3":"13073","localeAltName":null},{"geonameid":6548122,"name":"Jakobsdorf","admin3":"13073","localeAltName":null},{"geonameid":6548123,"name":"Karnin","admin3":"13073","localeAltName":null},{"geonameid":6548125,"name":"Klausdorf","admin3":"13073","localeAltName":null},{"geonameid":6548126,"name":"Kramerhof","admin3":"13073","localeAltName":null},{"geonameid":6548128,"name":"Lüdershagen","admin3":"13073","localeAltName":null},{"geonameid":6548129,"name":"Lüssow","admin3":"13073","localeAltName":null},{"geonameid":6548132,"name":"Niepars","admin3":"13073","localeAltName":null},{"geonameid":6548133,"name":"Pantelitz","admin3":"13073","localeAltName":null},{"geonameid":6548134,"name":"Papenhagen","admin3":"13073","localeAltName":null},{"geonameid":6548135,"name":"Preetz","admin3":"13073","localeAltName":null},{"geonameid":6548136,"name":"Prerow","admin3":"13073","localeAltName":null},{"geonameid":6548137,"name":"Prohn","admin3":"13073","localeAltName":null},{"geonameid":6548138,"name":"Pruchten","admin3":"13073","localeAltName":null},{"geonameid":6548140,"name":"Saal","admin3":"13073","localeAltName":null},{"geonameid":6548141,"name":"Schlemmin","admin3":"13073","localeAltName":null},{"geonameid":6548142,"name":"Semlow","admin3":"13073","localeAltName":null},{"geonameid":6548143,"name":"Steinhagen","admin3":"13073","localeAltName":null},{"geonameid":6548144,"name":"Trinwillershagen","admin3":"13073","localeAltName":null},{"geonameid":6548145,"name":"Velgast","admin3":"13073","localeAltName":null},{"geonameid":6548146,"name":"Weitenhagen","admin3":"13073","localeAltName":null},{"geonameid":6548147,"name":"Wendisch Baggendorf","admin3":"13073","localeAltName":null},{"geonameid":6548148,"name":"Wendorf","admin3":"13073","localeAltName":null},{"geonameid":6548150,"name":"Wittenhagen","admin3":"13073","localeAltName":null},{"geonameid":6548151,"name":"Wustrow","admin3":"13073","localeAltName":null},{"geonameid":6548152,"name":"Zarrendorf","admin3":"13073","localeAltName":null},{"geonameid":6548153,"name":"Zingst","admin3":"13073","localeAltName":null},{"geonameid":6548154,"name":"Süderholz","admin3":"13073","localeAltName":null},{"geonameid":6548155,"name":"Divitz-Spoldershagen","admin3":"13073","localeAltName":null},{"geonameid":6548156,"name":"Gremersdorf-Buchholz","admin3":"13073","localeAltName":null},{"geonameid":6548157,"name":"Millienhagen-Oebelitz","admin3":"13073","localeAltName":null},{"geonameid":6548158,"name":"Ahrenshagen-Daskow","admin3":"13073","localeAltName":null},{"geonameid":6548159,"name":"Alt Meteln","admin3":"13074","localeAltName":null},{"geonameid":6548160,"name":"Bad Kleinen","admin3":"13074","localeAltName":null},{"geonameid":6548162,"name":"Barnekow","admin3":"13074","localeAltName":null},{"geonameid":6548163,"name":"Benz","admin3":"13074","localeAltName":null},{"geonameid":6548164,"name":"Bernstorf","admin3":"13074","localeAltName":null},{"geonameid":6548165,"name":"Bibow","admin3":"13074","localeAltName":null},{"geonameid":6548166,"name":"Blowatz","admin3":"13074","localeAltName":null},{"geonameid":6548167,"name":"Boiensdorf","admin3":"13074","localeAltName":null},{"geonameid":6548169,"name":"Brüsewitz","admin3":"13074","localeAltName":null},{"geonameid":6548170,"name":"Carlow","admin3":"13074","localeAltName":null},{"geonameid":6548171,"name":"Cramonshagen","admin3":"13074","localeAltName":null},{"geonameid":6548172,"name":"Dalberg-Wendelstorf","admin3":"13074","localeAltName":null},{"geonameid":6548173,"name":"Damshagen","admin3":"13074","localeAltName":null},{"geonameid":6548174,"name":"Dechow","admin3":"13074","localeAltName":null},{"geonameid":6548175,"name":"Dorf Mecklenburg","admin3":"13074","localeAltName":null},{"geonameid":6548176,"name":"Dragun","admin3":"13074","localeAltName":null},{"geonameid":6548177,"name":"Gägelow","admin3":"13074","localeAltName":null},{"geonameid":6548178,"name":"Glasin","admin3":"13074","localeAltName":null},{"geonameid":6548179,"name":"Gottesgabe","admin3":"13074","localeAltName":null},{"geonameid":6548180,"name":"Grambow","admin3":"13074","localeAltName":null},{"geonameid":6548182,"name":"Grieben","admin3":"13074","localeAltName":null},{"geonameid":6548183,"name":"Groß Molzahn","admin3":"13074","localeAltName":null},{"geonameid":6548185,"name":"Groß Stieten","admin3":"13074","localeAltName":null},{"geonameid":6548188,"name":"Hohen Viecheln","admin3":"13074","localeAltName":null},{"geonameid":6548189,"name":"Holdorf","admin3":"13074","localeAltName":null},{"geonameid":6548190,"name":"Hornstorf","admin3":"13074","localeAltName":null},{"geonameid":6548191,"name":"Jesendorf","admin3":"13074","localeAltName":null},{"geonameid":6548192,"name":"Klein Trebbow","admin3":"13074","localeAltName":null},{"geonameid":6548194,"name":"Krembz","admin3":"13074","localeAltName":null},{"geonameid":6548195,"name":"Krusenhagen","admin3":"13074","localeAltName":null},{"geonameid":6548197,"name":"Lübberstorf","admin3":"13074","localeAltName":null},{"geonameid":6548198,"name":"Lübow","admin3":"13074","localeAltName":null},{"geonameid":6548199,"name":"Lüdersdorf","admin3":"13074","localeAltName":null},{"geonameid":6548200,"name":"Lützow","admin3":"13074","localeAltName":null},{"geonameid":6548202,"name":"Menzendorf","admin3":"13074","localeAltName":null},{"geonameid":6548203,"name":"Metelsdorf","admin3":"13074","localeAltName":null},{"geonameid":6548204,"name":"Mühlen Eichsen","admin3":"13074","localeAltName":null},{"geonameid":6548206,"name":"Neuburg","admin3":"13074","localeAltName":null},{"geonameid":6548208,"name":"Passee","admin3":"13074","localeAltName":null},{"geonameid":6548209,"name":"Perlin","admin3":"13074","localeAltName":null},{"geonameid":6548210,"name":"Pingelshagen","admin3":"13074","localeAltName":null},{"geonameid":6548212,"name":"Pokrent","admin3":"13074","localeAltName":null},{"geonameid":6548214,"name":"Rieps","admin3":"13074","localeAltName":null},{"geonameid":6548215,"name":"Roduchelstorf","admin3":"13074","localeAltName":null},{"geonameid":6548216,"name":"Roggendorf","admin3":"13074","localeAltName":null},{"geonameid":6548217,"name":"Roggenstorf","admin3":"13074","localeAltName":null},{"geonameid":6548218,"name":"Rögnitz","admin3":"13074","localeAltName":null},{"geonameid":6548219,"name":"Rüting","admin3":"13074","localeAltName":null},{"geonameid":6548221,"name":"Schlagsdorf","admin3":"13074","localeAltName":null},{"geonameid":6548222,"name":"Seehof","admin3":"13074","localeAltName":null},{"geonameid":6548223,"name":"Selmsdorf","admin3":"13074","localeAltName":null},{"geonameid":6548224,"name":"Testorf-Steinfort","admin3":"13074","localeAltName":null},{"geonameid":6548225,"name":"Thandorf","admin3":"13074","localeAltName":null},{"geonameid":6548226,"name":"Upahl","admin3":"13074","localeAltName":null},{"geonameid":6548227,"name":"Utecht","admin3":"13074","localeAltName":null},{"geonameid":6548228,"name":"Veelböken","admin3":"13074","localeAltName":null},{"geonameid":6548229,"name":"Ventschow","admin3":"13074","localeAltName":null},{"geonameid":6548231,"name":"Warnow","admin3":"13074","localeAltName":null},{"geonameid":6548233,"name":"Zickhusen","admin3":"13074","localeAltName":null},{"geonameid":6548234,"name":"Zierow","admin3":"13074","localeAltName":null},{"geonameid":6548235,"name":"Zurow","admin3":"13074","localeAltName":null},{"geonameid":6548236,"name":"Züsow","admin3":"13074","localeAltName":null},{"geonameid":6548238,"name":"Kalkhorst","admin3":"13074","localeAltName":null},{"geonameid":6548239,"name":"Bobitz","admin3":"13074","localeAltName":null},{"geonameid":6548241,"name":"Bandelin","admin3":"13075","localeAltName":null},{"geonameid":6548243,"name":"Bargischow","admin3":"13075","localeAltName":null},{"geonameid":6548244,"name":"Behrenhoff","admin3":"13075","localeAltName":null},{"geonameid":6548245,"name":"Benz","admin3":"13075","localeAltName":null},{"geonameid":6548246,"name":"Blesewitz","admin3":"13075","localeAltName":null},{"geonameid":6548247,"name":"Boldekow","admin3":"13075","localeAltName":null},{"geonameid":6548248,"name":"Brünzow","admin3":"13075","localeAltName":null},{"geonameid":6548250,"name":"Bugewitz","admin3":"13075","localeAltName":null},{"geonameid":6548251,"name":"Buggenhagen","admin3":"13075","localeAltName":null},{"geonameid":6548252,"name":"Butzow","admin3":"13075","localeAltName":null},{"geonameid":6548253,"name":"Dargelin","admin3":"13075","localeAltName":null},{"geonameid":6548254,"name":"Dargen","admin3":"13075","localeAltName":null},{"geonameid":6548255,"name":"Dersekow","admin3":"13075","localeAltName":null},{"geonameid":6548258,"name":"Ducherow","admin3":"13075","localeAltName":null},{"geonameid":6548259,"name":"Garz","admin3":"13075","localeAltName":null},{"geonameid":6548260,"name":"Gribow","admin3":"13075","localeAltName":null},{"geonameid":6548262,"name":"Groß Kiesow","admin3":"13075","localeAltName":null},{"geonameid":6548263,"name":"Groß Polzin","admin3":"13075","localeAltName":null},{"geonameid":6548264,"name":"Hanshagen","admin3":"13075","localeAltName":null},{"geonameid":6548265,"name":"Heringsdorf","admin3":"13075","localeAltName":null},{"geonameid":6548266,"name":"Hinrichshagen","admin3":"13075","localeAltName":null},{"geonameid":6548268,"name":"Iven","admin3":"13075","localeAltName":null},{"geonameid":6548271,"name":"Kamminke","admin3":"13075","localeAltName":null},{"geonameid":6548273,"name":"Karlshagen","admin3":"13075","localeAltName":null},{"geonameid":6548274,"name":"Katzow","admin3":"13075","localeAltName":null},{"geonameid":6548275,"name":"Kemnitz","admin3":"13075","localeAltName":null},{"geonameid":6548276,"name":"Klein Bünzow","admin3":"13075","localeAltName":null},{"geonameid":6548278,"name":"Korswandt","admin3":"13075","localeAltName":null},{"geonameid":6548279,"name":"Koserow","admin3":"13075","localeAltName":null},{"geonameid":6548280,"name":"Krien","admin3":"13075","localeAltName":null},{"geonameid":6548281,"name":"Kröslin","admin3":"13075","localeAltName":null},{"geonameid":6548282,"name":"Krummin","admin3":"13075","localeAltName":null},{"geonameid":6548283,"name":"Krusenfelde","admin3":"13075","localeAltName":null},{"geonameid":6548284,"name":"Levenhagen","admin3":"13075","localeAltName":null},{"geonameid":6548286,"name":"Loddin","admin3":"13075","localeAltName":null},{"geonameid":6548287,"name":"Loissin","admin3":"13075","localeAltName":null},{"geonameid":6548289,"name":"Lubmin","admin3":"13075","localeAltName":null},{"geonameid":6548292,"name":"Lütow","admin3":"13075","localeAltName":null},{"geonameid":6548293,"name":"Medow","admin3":"13075","localeAltName":null},{"geonameid":6548294,"name":"Mellenthin","admin3":"13075","localeAltName":null},{"geonameid":6548295,"name":"Mesekenhagen","admin3":"13075","localeAltName":null},{"geonameid":6548296,"name":"Mölschow","admin3":"13075","localeAltName":null},{"geonameid":6548298,"name":"Murchin","admin3":"13075","localeAltName":null},{"geonameid":6548300,"name":"Neu Boltenhagen","admin3":"13075","localeAltName":null},{"geonameid":6548301,"name":"Neu Kosenow","admin3":"13075","localeAltName":null},{"geonameid":6548304,"name":"Neuenkirchen","admin3":"13075","localeAltName":null},{"geonameid":6548305,"name":"Neuenkirchen","admin3":"13075","localeAltName":null},{"geonameid":6548306,"name":"Peenemünde","admin3":"13075","localeAltName":null},{"geonameid":6548308,"name":"Postlow","admin3":"13075","localeAltName":null},{"geonameid":6548309,"name":"Pudagla","admin3":"13075","localeAltName":null},{"geonameid":6548312,"name":"Rankwitz","admin3":"13075","localeAltName":null},{"geonameid":6548315,"name":"Rossin","admin3":"13075","localeAltName":null},{"geonameid":6548316,"name":"Rubenow","admin3":"13075","localeAltName":null},{"geonameid":6548317,"name":"Rubkow","admin3":"13075","localeAltName":null},{"geonameid":6548318,"name":"Sarnow","admin3":"13075","localeAltName":null},{"geonameid":6548319,"name":"Sauzin","admin3":"13075","localeAltName":null},{"geonameid":6548320,"name":"Schmatzin","admin3":"13075","localeAltName":null},{"geonameid":6548321,"name":"Spantekow","admin3":"13075","localeAltName":null},{"geonameid":6548322,"name":"Stolpe","admin3":"13075","localeAltName":null},{"geonameid":6548323,"name":"Stolpe auf Usedom","admin3":"13075","localeAltName":null},{"geonameid":6548324,"name":"Trassenheide","admin3":"13075","localeAltName":null},{"geonameid":6548325,"name":"Ückeritz","admin3":"13075","localeAltName":null},{"geonameid":6548326,"name":"Wackerow","admin3":"13075","localeAltName":null},{"geonameid":6548327,"name":"Weitenhagen","admin3":"13075","localeAltName":null},{"geonameid":6548329,"name":"Wrangelsburg","admin3":"13075","localeAltName":null},{"geonameid":6548330,"name":"Wusterhusen","admin3":"13075","localeAltName":null},{"geonameid":6548331,"name":"Zemitz","admin3":"13075","localeAltName":null},{"geonameid":6548332,"name":"Zempin","admin3":"13075","localeAltName":null},{"geonameid":6548333,"name":"Ziethen","admin3":"13075","localeAltName":null},{"geonameid":6548334,"name":"Zinnowitz","admin3":"13075","localeAltName":null},{"geonameid":6548335,"name":"Zirchow","admin3":"13075","localeAltName":null},{"geonameid":6548336,"name":"Züssow","admin3":"13075","localeAltName":null},{"geonameid":6548337,"name":"Banzkow","admin3":"13076","localeAltName":null},{"geonameid":6548338,"name":"Barnin","admin3":"13076","localeAltName":null},{"geonameid":6548339,"name":"Blankenberg","admin3":"13076","localeAltName":null},{"geonameid":6548340,"name":"Borkow","admin3":"13076","localeAltName":null},{"geonameid":6548341,"name":"Cambs","admin3":"13076","localeAltName":null},{"geonameid":6548342,"name":"Dabel","admin3":"13076","localeAltName":null},{"geonameid":6548345,"name":"Dobbertin","admin3":"13076","localeAltName":null},{"geonameid":6548346,"name":"Domsühl","admin3":"13076","localeAltName":null},{"geonameid":6548347,"name":"Friedrichsruhe","admin3":"13076","localeAltName":null},{"geonameid":6548350,"name":"Gneven","admin3":"13076","localeAltName":null},{"geonameid":6548354,"name":"Granzin","admin3":"13076","localeAltName":null},{"geonameid":6548356,"name":"Groß Godems","admin3":"13076","localeAltName":null},{"geonameid":6548359,"name":"Hohen Pritz","admin3":"13076","localeAltName":null},{"geonameid":6548362,"name":"Karrenzin","admin3":"13076","localeAltName":null},{"geonameid":6548364,"name":"Kobrow","admin3":"13076","localeAltName":null},{"geonameid":6548365,"name":"Kreien","admin3":"13076","localeAltName":null},{"geonameid":6548366,"name":"Kritzow","admin3":"13076","localeAltName":null},{"geonameid":6548367,"name":"Langen Brütz","admin3":"13076","localeAltName":null},{"geonameid":6548370,"name":"Leezen","admin3":"13076","localeAltName":null},{"geonameid":6548374,"name":"Mestlin","admin3":"13076","localeAltName":null},{"geonameid":6548375,"name":"Mustin","admin3":"13076","localeAltName":null},{"geonameid":6548376,"name":"Neu Poserin","admin3":"13076","localeAltName":null},{"geonameid":6548377,"name":"Passow","admin3":"13076","localeAltName":null},{"geonameid":6548378,"name":"Pinnow","admin3":"13076","localeAltName":null},{"geonameid":6548379,"name":"Plate","admin3":"13076","localeAltName":null},{"geonameid":6548380,"name":"Raben Steinfeld","admin3":"13076","localeAltName":null},{"geonameid":6548382,"name":"Rom","admin3":"13076","localeAltName":null},{"geonameid":6548384,"name":"Siggelkow","admin3":"13076","localeAltName":null},{"geonameid":6548385,"name":"Spornitz","admin3":"13076","localeAltName":null},{"geonameid":6548386,"name":"Stolpe","admin3":"13076","localeAltName":null},{"geonameid":6548388,"name":"Sukow","admin3":"13076","localeAltName":null},{"geonameid":6548389,"name":"Techentin","admin3":"13076","localeAltName":null},{"geonameid":6548391,"name":"Tramm","admin3":"13076","localeAltName":null},{"geonameid":6548393,"name":"Weitendorf","admin3":"13076","localeAltName":null},{"geonameid":6548396,"name":"Werder","admin3":"13076","localeAltName":null},{"geonameid":6548398,"name":"Witzin","admin3":"13076","localeAltName":null},{"geonameid":6548400,"name":"Zapel","admin3":"13076","localeAltName":null},{"geonameid":6548401,"name":"Ziegendorf","admin3":"13076","localeAltName":null},{"geonameid":6548402,"name":"Zölkow","admin3":"13076","localeAltName":null},{"geonameid":6548403,"name":"Gallin-Kuppentin","admin3":"13076","localeAltName":null},{"geonameid":6548404,"name":"Altefähr","admin3":"13073","localeAltName":null},{"geonameid":6548405,"name":"Altenkirchen","admin3":"13073","localeAltName":null},{"geonameid":6548406,"name":"Baabe","admin3":"13073","localeAltName":null},{"geonameid":6548407,"name":"Binz","admin3":"13073","localeAltName":null},{"geonameid":6548408,"name":"Breege","admin3":"13073","localeAltName":null},{"geonameid":6548409,"name":"Buschvitz","admin3":"13073","localeAltName":null},{"geonameid":6548410,"name":"Dranske","admin3":"13073","localeAltName":null},{"geonameid":6548411,"name":"Dreschvitz","admin3":"13073","localeAltName":null},{"geonameid":6548413,"name":"Gingst","admin3":"13073","localeAltName":null},{"geonameid":6548414,"name":"Glowe","admin3":"13073","localeAltName":null},{"geonameid":6548415,"name":"Göhren","admin3":"13073","localeAltName":null},{"geonameid":6548416,"name":"Gustow","admin3":"13073","localeAltName":null},{"geonameid":6548417,"name":"Insel Hiddensee","admin3":"13073","localeAltName":null},{"geonameid":6548418,"name":"Kluis","admin3":"13073","localeAltName":null},{"geonameid":6548419,"name":"Lancken-Granitz","admin3":"13073","localeAltName":null},{"geonameid":6548420,"name":"Lietzow","admin3":"13073","localeAltName":null},{"geonameid":6548421,"name":"Lohme","admin3":"13073","localeAltName":null},{"geonameid":6548423,"name":"Neuenkirchen","admin3":"13073","localeAltName":null},{"geonameid":6548424,"name":"Parchtitz","admin3":"13073","localeAltName":null},{"geonameid":6548425,"name":"Patzig","admin3":"13073","localeAltName":null},{"geonameid":6548426,"name":"Poseritz","admin3":"13073","localeAltName":null},{"geonameid":6548427,"name":"Putgarten","admin3":"13073","localeAltName":null},{"geonameid":6548428,"name":"Ralswiek","admin3":"13073","localeAltName":null},{"geonameid":6548429,"name":"Rambin","admin3":"13073","localeAltName":null},{"geonameid":6548430,"name":"Rappin","admin3":"13073","localeAltName":null},{"geonameid":6548431,"name":"Sagard","admin3":"13073","localeAltName":null},{"geonameid":6548432,"name":"Samtens","admin3":"13073","localeAltName":null},{"geonameid":6548433,"name":"Schaprode","admin3":"13073","localeAltName":null},{"geonameid":6548434,"name":"Sehlen","admin3":"13073","localeAltName":null},{"geonameid":6548435,"name":"Sellin","admin3":"13073","localeAltName":null},{"geonameid":6548438,"name":"Trent","admin3":"13073","localeAltName":null},{"geonameid":6548439,"name":"Ummanz","admin3":"13073","localeAltName":null},{"geonameid":6548440,"name":"Wiek","admin3":"13073","localeAltName":null},{"geonameid":6548441,"name":"Zirkow","admin3":"13073","localeAltName":null},{"geonameid":6548442,"name":"Ahlbeck","admin3":"13075","localeAltName":null},{"geonameid":6548443,"name":"Altwarp","admin3":"13075","localeAltName":null},{"geonameid":6548444,"name":"Altwigshagen","admin3":"13075","localeAltName":null},{"geonameid":6548445,"name":"Bergholz","admin3":"13075","localeAltName":null},{"geonameid":6548446,"name":"Blankensee","admin3":"13075","localeAltName":null},{"geonameid":6548448,"name":"Boock","admin3":"13075","localeAltName":null},{"geonameid":6548449,"name":"Brietzig","admin3":"13075","localeAltName":null},{"geonameid":6548451,"name":"Fahrenwalde","admin3":"13075","localeAltName":null},{"geonameid":6548452,"name":"Ferdinandshof","admin3":"13075","localeAltName":null},{"geonameid":6548453,"name":"Glasow","admin3":"13075","localeAltName":null},{"geonameid":6548454,"name":"Grambin","admin3":"13075","localeAltName":null},{"geonameid":6548455,"name":"Groß Luckow","admin3":"13075","localeAltName":null},{"geonameid":6548457,"name":"Heinrichswalde","admin3":"13075","localeAltName":null},{"geonameid":6548458,"name":"Hintersee","admin3":"13075","localeAltName":null},{"geonameid":6548459,"name":"Jatznick","admin3":"13075","localeAltName":null},{"geonameid":6548461,"name":"Koblentz","admin3":"13075","localeAltName":null},{"geonameid":6548462,"name":"Krugsdorf","admin3":"13075","localeAltName":null},{"geonameid":6548463,"name":"Leopoldshagen","admin3":"13075","localeAltName":null},{"geonameid":6548464,"name":"Liepgarten","admin3":"13075","localeAltName":null},{"geonameid":6548465,"name":"Löcknitz","admin3":"13075","localeAltName":null},{"geonameid":6548466,"name":"Luckow","admin3":"13075","localeAltName":null},{"geonameid":6548467,"name":"Meiersberg","admin3":"13075","localeAltName":null},{"geonameid":6548469,"name":"Mönkebude","admin3":"13075","localeAltName":null},{"geonameid":6548470,"name":"Nadrensee","admin3":"13075","localeAltName":null},{"geonameid":6548471,"name":"Nieden","admin3":"13075","localeAltName":null},{"geonameid":6548472,"name":"Papendorf","admin3":"13075","localeAltName":null},{"geonameid":6548473,"name":"Plöwen","admin3":"13075","localeAltName":null},{"geonameid":6548474,"name":"Polzow","admin3":"13075","localeAltName":null},{"geonameid":6548475,"name":"Ramin","admin3":"13075","localeAltName":null},{"geonameid":6548476,"name":"Rollwitz","admin3":"13075","localeAltName":null},{"geonameid":6548477,"name":"Rothemühl","admin3":"13075","localeAltName":null},{"geonameid":6548478,"name":"Rothenklempenow","admin3":"13075","localeAltName":null},{"geonameid":6548479,"name":"Schönwalde","admin3":"13075","localeAltName":null},{"geonameid":6548481,"name":"Viereck","admin3":"13075","localeAltName":null},{"geonameid":6548482,"name":"Vogelsang-Warsin","admin3":"13075","localeAltName":null},{"geonameid":6548483,"name":"Wilhelmsburg","admin3":"13075","localeAltName":null},{"geonameid":6548484,"name":"Zerrenthin","admin3":"13075","localeAltName":null},{"geonameid":6548486,"name":"Lübs","admin3":"13075","localeAltName":null},{"geonameid":6550672,"name":"Kröpelin","admin3":"13072","localeAltName":null},{"geonameid":6550673,"name":"Kühlungsborn","admin3":"13072","localeAltName":null},{"geonameid":6550674,"name":"Rerik","admin3":"13072","localeAltName":null},{"geonameid":6550675,"name":"Schwaan","admin3":"13072","localeAltName":null},{"geonameid":6550676,"name":"Tessin","admin3":"13072","localeAltName":null},{"geonameid":6550677,"name":"Altentreptow","admin3":"13071","localeAltName":null},{"geonameid":6550678,"name":"Dargun","admin3":"13071","localeAltName":null},{"geonameid":6550679,"name":"Jarmen","admin3":"13075","localeAltName":null},{"geonameid":6550680,"name":"Loitz","admin3":"13075","localeAltName":null},{"geonameid":6550681,"name":"Malchin","admin3":"13071","localeAltName":null},{"geonameid":6550682,"name":"Neukalen","admin3":"13071","localeAltName":null},{"geonameid":6550683,"name":"Stavenhagen, Reuterstadt","admin3":"13071","localeAltName":null},{"geonameid":6550684,"name":"Bützow","admin3":"13072","localeAltName":null},{"geonameid":6550685,"name":"Gnoien","admin3":"13072","localeAltName":null},{"geonameid":6550686,"name":"Güstrow","admin3":"13072","localeAltName":null},{"geonameid":6550687,"name":"Krakow am See","admin3":"13072","localeAltName":null},{"geonameid":6550688,"name":"Laage","admin3":"13072","localeAltName":null},{"geonameid":6550689,"name":"Teterow","admin3":"13072","localeAltName":null},{"geonameid":6550690,"name":"Dömitz","admin3":"13076","localeAltName":null},{"geonameid":6550691,"name":"Grabow","admin3":"13076","localeAltName":null},{"geonameid":6550692,"name":"Hagenow","admin3":"13076","localeAltName":null},{"geonameid":6550693,"name":"Lübtheen","admin3":"13076","localeAltName":null},{"geonameid":6550694,"name":"Neustadt-Glewe","admin3":"13076","localeAltName":null},{"geonameid":6550695,"name":"Burg Stargard","admin3":"13071","localeAltName":null},{"geonameid":6550696,"name":"Friedland","admin3":"13071","localeAltName":null},{"geonameid":6550697,"name":"Mirow","admin3":"13071","localeAltName":null},{"geonameid":6550698,"name":"Neustrelitz","admin3":"13071","localeAltName":null},{"geonameid":6550699,"name":"Wesenberg","admin3":"13071","localeAltName":null},{"geonameid":6550700,"name":"Woldegk","admin3":"13071","localeAltName":null},{"geonameid":6550701,"name":"Malchow","admin3":"13071","localeAltName":null},{"geonameid":6550702,"name":"Penzlin","admin3":"13071","localeAltName":null},{"geonameid":6550703,"name":"Waren (Müritz)","admin3":"13071","localeAltName":null},{"geonameid":6550704,"name":"Bad Sülze","admin3":"13073","localeAltName":null},{"geonameid":6550705,"name":"Barth","admin3":"13073","localeAltName":null},{"geonameid":6550706,"name":"Franzburg","admin3":"13073","localeAltName":null},{"geonameid":6550707,"name":"Grimmen","admin3":"13073","localeAltName":null},{"geonameid":6550708,"name":"Marlow","admin3":"13073","localeAltName":null},{"geonameid":6550709,"name":"Ribnitz-Damgarten","admin3":"13073","localeAltName":null},{"geonameid":6550710,"name":"Richtenberg","admin3":"13073","localeAltName":null},{"geonameid":6550711,"name":"Tribsees","admin3":"13073","localeAltName":null},{"geonameid":6550712,"name":"Dassow","admin3":"13074","localeAltName":null},{"geonameid":6550713,"name":"Gadebusch","admin3":"13074","localeAltName":null},{"geonameid":6550714,"name":"Grevesmühlen","admin3":"13074","localeAltName":null},{"geonameid":6550715,"name":"Klütz","admin3":"13074","localeAltName":null},{"geonameid":6550716,"name":"Neukloster","admin3":"13074","localeAltName":null},{"geonameid":6550717,"name":"Rehna","admin3":"13074","localeAltName":null},{"geonameid":6550718,"name":"Schönberg","admin3":"13074","localeAltName":null},{"geonameid":6550719,"name":"Warin","admin3":"13074","localeAltName":null},{"geonameid":6550720,"name":"Anklam","admin3":"13075","localeAltName":null},{"geonameid":6550721,"name":"Gützkow","admin3":"13075","localeAltName":null},{"geonameid":6550722,"name":"Lassan","admin3":"13075","localeAltName":null},{"geonameid":6550723,"name":"Wolgast","admin3":"13075","localeAltName":null},{"geonameid":6550724,"name":"Brüel","admin3":"13076","localeAltName":null},{"geonameid":6550725,"name":"Crivitz","admin3":"13076","localeAltName":null},{"geonameid":6550726,"name":"Goldberg","admin3":"13076","localeAltName":null},{"geonameid":6550727,"name":"Lübz","admin3":"13076","localeAltName":null},{"geonameid":6550728,"name":"Parchim","admin3":"13076","localeAltName":null},{"geonameid":6550729,"name":"Plau am See","admin3":"13076","localeAltName":null},{"geonameid":6550730,"name":"Sternberg","admin3":"13076","localeAltName":null},{"geonameid":6550731,"name":"Bergen auf Rügen","admin3":"13073","localeAltName":null},{"geonameid":6550732,"name":"Garz/Rügen","admin3":"13073","localeAltName":null},{"geonameid":6550733,"name":"Putbus","admin3":"13073","localeAltName":null},{"geonameid":6550734,"name":"Sassnitz","admin3":"13073","localeAltName":null},{"geonameid":6550735,"name":"Eggesin","admin3":"13075","localeAltName":null},{"geonameid":6550736,"name":"Pasewalk","admin3":"13075","localeAltName":null},{"geonameid":6550737,"name":"Penkun","admin3":"13075","localeAltName":null},{"geonameid":6550738,"name":"Ueckermünde","admin3":"13075","localeAltName":null},{"geonameid":6551113,"name":"Bad Doberan","admin3":"13072","localeAltName":null},{"geonameid":6551114,"name":"Dobbin-Linstow","admin3":"13072","localeAltName":null},{"geonameid":6551115,"name":"Ludwigslust","admin3":"13076","localeAltName":null},{"geonameid":6551116,"name":"Malk Göhren","admin3":"13076","localeAltName":null},{"geonameid":6551117,"name":"Wittenburg","admin3":"13076","localeAltName":null},{"geonameid":6551118,"name":"Usedom","admin3":"13075","localeAltName":null},{"geonameid":6551119,"name":"Torgelow","admin3":"13075","localeAltName":null},{"geonameid":6551180,"name":"Greifswald, Hansestadt","admin3":"13075","localeAltName":null},{"geonameid":6551181,"name":"Rostock, Hansestadt","admin3":"13003","localeAltName":null},{"geonameid":6551182,"name":"Schwerin, Landeshauptstadt","admin3":"13004","localeAltName":null},{"geonameid":6551183,"name":"Stralsund, Hansestadt","admin3":"13073","localeAltName":null},{"geonameid":6551184,"name":"Demmin, Hansestadt","admin3":"13071","localeAltName":null},{"geonameid":6551185,"name":"Sassen-Trantow","admin3":"13075","localeAltName":null},{"geonameid":6551186,"name":"Dolgen am See","admin3":"13072","localeAltName":null},{"geonameid":6551187,"name":"Gülzow-Prüzen","admin3":"13072","localeAltName":null},{"geonameid":6551188,"name":"Sukow-Levitzow","admin3":"13072","localeAltName":null},{"geonameid":6551189,"name":"Bresegard bei Picher","admin3":"13076","localeAltName":null},{"geonameid":6551190,"name":"Bresegard bei Eldena","admin3":"13076","localeAltName":null},{"geonameid":6551191,"name":"Pätow-Steegen","admin3":"13076","localeAltName":null},{"geonameid":6551192,"name":"Tessin b. Boizenburg","admin3":"13076","localeAltName":null},{"geonameid":6551193,"name":"Zarrentin am Schaalsee","admin3":"13076","localeAltName":null},{"geonameid":6551194,"name":"Grebs-Niendorf","admin3":"13076","localeAltName":null},{"geonameid":6551195,"name":"Lüttow-Valluhn","admin3":"13076","localeAltName":null},{"geonameid":6551196,"name":"Born a. Darß","admin3":"13073","localeAltName":null},{"geonameid":6551197,"name":"Wieck a. Darß","admin3":"13073","localeAltName":null},{"geonameid":6551198,"name":"Kuhlen-Wendorf","admin3":"13076","localeAltName":null},{"geonameid":6551199,"name":"Hammer a.d. Uecker","admin3":"13075","localeAltName":null},{"geonameid":6551200,"name":"Strasburg (Uckermark)","admin3":"13075","localeAltName":null},{"geonameid":6559249,"name":"Biendorf","admin3":"13072","localeAltName":null},{"geonameid":6559250,"name":"Hohenfelde","admin3":"13072","localeAltName":null},{"geonameid":6559251,"name":"Retschow","admin3":"13072","localeAltName":null},{"geonameid":6559252,"name":"Am Salzhaff","admin3":"13072","localeAltName":null},{"geonameid":6559253,"name":"Carinerland","admin3":"13072","localeAltName":null},{"geonameid":6559254,"name":"Verchen","admin3":"13071","localeAltName":null},{"geonameid":6559255,"name":"Baumgarten","admin3":"13072","localeAltName":null},{"geonameid":6559256,"name":"Bernitt","admin3":"13072","localeAltName":null},{"geonameid":6559257,"name":"Plaaz","admin3":"13072","localeAltName":null},{"geonameid":6559258,"name":"Sarmstorf","admin3":"13072","localeAltName":null},{"geonameid":6559259,"name":"Schorssow","admin3":"13072","localeAltName":null},{"geonameid":6559260,"name":"Schwasdorf","admin3":"13072","localeAltName":null},{"geonameid":6559261,"name":"Boizenburg/Elbe","admin3":"13076","localeAltName":null},{"geonameid":6559262,"name":"Dettmannsdorf","admin3":"13073","localeAltName":null},{"geonameid":6559263,"name":"Lindholz","admin3":"13073","localeAltName":null},{"geonameid":6559264,"name":"Lübstorf","admin3":"13074","localeAltName":null},{"geonameid":6559265,"name":"Königsfeld","admin3":"13074","localeAltName":null},{"geonameid":6559266,"name":"Barkhagen","admin3":"13076","localeAltName":null},{"geonameid":7602289,"name":"Boltenhagen","admin3":"13074","localeAltName":null},{"geonameid":7602398,"name":"Kenz-Küstrow","admin3":"13073","localeAltName":null},{"geonameid":7602416,"name":"Röbel/Müritz","admin3":"13071","localeAltName":null},{"geonameid":7602417,"name":"Sietow","admin3":"13071","localeAltName":null},{"geonameid":7602440,"name":"Löbnitz","admin3":"13073","localeAltName":null},{"geonameid":7602442,"name":"Hohenkirchen","admin3":"13074","localeAltName":null},{"geonameid":7602443,"name":"Rossow","admin3":"13075","localeAltName":null},{"geonameid":7602484,"name":"Wittendörp","admin3":"13076","localeAltName":null},{"geonameid":7602561,"name":"Wismar, Hansestadt","admin3":"13074","localeAltName":null},{"geonameid":7602569,"name":"Neubukow","admin3":"13072","localeAltName":null},{"geonameid":7602570,"name":"Brunow","admin3":"13076","localeAltName":null},{"geonameid":7602571,"name":"Galenbeck","admin3":"13071","localeAltName":null},{"geonameid":7602572,"name":"Grambow","admin3":"13075","localeAltName":null},{"geonameid":7602573,"name":"Krackow","admin3":"13075","localeAltName":null},{"geonameid":7602595,"name":"Fünfseen","admin3":"13071","localeAltName":null},{"geonameid":7602597,"name":"Sundhagen","admin3":"13073","localeAltName":null},{"geonameid":7602598,"name":"Schildetal","admin3":"13074","localeAltName":null},{"geonameid":7602599,"name":"Dobin am See","admin3":"13076","localeAltName":null},{"geonameid":7602600,"name":"Lewitzrand","admin3":"13076","localeAltName":null},{"geonameid":8658959,"name":"Peenehagen","admin3":"13071","localeAltName":null},{"geonameid":8658960,"name":"Kuckssee","admin3":"13071","localeAltName":null},{"geonameid":8658961,"name":"Dratow-Schloen","admin3":"13071","localeAltName":null},{"geonameid":8658967,"name":"Wedendorfersee","admin3":"13074","localeAltName":null},{"geonameid":8658973,"name":"Obere Warnow","admin3":"13076","localeAltName":null},{"geonameid":10942648,"name":"Stepenitztal","admin3":"13074","localeAltName":null},{"geonameid":10942649,"name":"Neetzow-Liepen","admin3":"13075","localeAltName":null},{"geonameid":10942650,"name":"Ganzlin","admin3":"13076","localeAltName":null},{"geonameid":10942658,"name":"Gehlsbach","admin3":"13076","localeAltName":null},{"geonameid":11789864,"name":"Mönchgut","admin3":"13073","localeAltName":null},{"geonameid":11856414,"name":"Kloster Tempzin","admin3":"13076","localeAltName":null},{"geonameid":12032334,"name":"Ruhner Berge","admin3":"13076","localeAltName":null},{"geonameid":12166100,"name":"Siemz-Niendorf","admin3":"13074","localeAltName":null},{"geonameid":12166101,"name":"Eldetal","admin3":"13071","localeAltName":null},{"geonameid":12166103,"name":"Südmüritz","admin3":"13071","localeAltName":null},{"geonameid":12166279,"name":"Karlsburg","admin3":"13075","localeAltName":null},{"geonameid":12166280,"name":"Toddin","admin3":"13076","localeAltName":null}]},"__N_SSG":true}