{"pageProps":{"locale":"en","admin2":{"geonameid":2637141,"name":"Staffordshire","country":"GB","admin1":"ENG","admin2":"M9","admin3":"","latitude":"52.8333300","longitude":"-2.0000000"},"admin1":{"geonameid":6269131,"name":"England","admin1":"ENG"},"locations":[{"geonameid":2657870,"name":"Abbots Bromley"},{"geonameid":2657689,"name":"Acton Trussell"},{"geonameid":2657687,"name":"Adbaston"},{"geonameid":2657432,"name":"Alrewas"},{"geonameid":2657426,"name":"Alstonefield"},{"geonameid":2657407,"name":"Alton"},{"geonameid":2657272,"name":"Anslow"},{"geonameid":2657054,"name":"Armitage"},{"geonameid":2656938,"name":"Ashley"},{"geonameid":2656792,"name":"Audley"},{"geonameid":11592606,"name":"Bagnall"},{"geonameid":9257711,"name":"Ball Haye Green"},{"geonameid":6284557,"name":"Bar Hill"},{"geonameid":2656325,"name":"Barlaston"},{"geonameid":2656207,"name":"Barton under Needwood"},{"geonameid":12123208,"name":"Basford, Stoke-on-Trent"},{"geonameid":11549424,"name":"Beamhurst"},{"geonameid":2656037,"name":"Bednall"},{"geonameid":2655802,"name":"Betley"},{"geonameid":2655724,"name":"Bickford"},{"geonameid":2655708,"name":"Biddulph"},{"geonameid":11593093,"name":"Biddulph Moor"},{"geonameid":2655332,"name":"Blore"},{"geonameid":2655317,"name":"Blymhill"},{"geonameid":2655310,"name":"Blythe Bridge"},{"geonameid":2655296,"name":"Bobbington"},{"geonameid":2654985,"name":"Bradley"},{"geonameid":2654981,"name":"Bradley in the Moors"},{"geonameid":2654911,"name":"Bramshall"},{"geonameid":2654767,"name":"Brewood"},{"geonameid":11593110,"name":"Brocton"},{"geonameid":2654508,"name":"Broughton"},{"geonameid":2654392,"name":"Bucknall"},{"geonameid":6693252,"name":"Burnhill Green"},{"geonameid":2654252,"name":"Burntwood"},{"geonameid":2654200,"name":"Burton upon Trent"},{"geonameid":2654150,"name":"Butterton"},{"geonameid":2653968,"name":"Calton"},{"geonameid":9256224,"name":"Calwich"},{"geonameid":2653883,"name":"Cannock"},{"geonameid":11592775,"name":"Cannock Wood"},{"geonameid":2653486,"name":"Cauldon"},{"geonameid":2653471,"name":"Caverswall"},{"geonameid":2653307,"name":"Chasetown"},{"geonameid":2653297,"name":"Chatterley"},{"geonameid":2653292,"name":"Cheadle"},{"geonameid":2653286,"name":"Chebsey"},{"geonameid":2653284,"name":"Checkley"},{"geonameid":2653279,"name":"Cheddleton"},{"geonameid":2653042,"name":"Church Eaton"},{"geonameid":2653030,"name":"Church Leigh"},{"geonameid":11494841,"name":"Claymills"},{"geonameid":2652836,"name":"Clifton Campville"},{"geonameid":2652653,"name":"Codsall"},{"geonameid":2652523,"name":"Colton"},{"geonameid":2652516,"name":"Colwich"},{"geonameid":8063853,"name":"Combridge"},{"geonameid":2652393,"name":"Coppenhall"},{"geonameid":11551146,"name":"Coven"},{"geonameid":2652010,"name":"Cresswell"},{"geonameid":2651830,"name":"Croxall"},{"geonameid":2651827,"name":"Croxden"},{"geonameid":2651822,"name":"Croxton"},{"geonameid":2651694,"name":"Curborough"},{"geonameid":2651363,"name":"Denstone"},{"geonameid":2651339,"name":"Derrington"},{"geonameid":2651258,"name":"Dilhorne"},{"geonameid":11593172,"name":"Draycott in the Clay"},{"geonameid":2651005,"name":"Draycott in the Moors"},{"geonameid":2650999,"name":"Drayton Bassett"},{"geonameid":2650656,"name":"Dunstall"},{"geonameid":2650652,"name":"Dunston"},{"geonameid":2650274,"name":"Eccleshall"},{"geonameid":2650222,"name":"Edingale"},{"geonameid":2650123,"name":"Elford"},{"geonameid":2650108,"name":"Ellastone"},{"geonameid":2650103,"name":"Ellenhall"},{"geonameid":2649999,"name":"Endon"},{"geonameid":2649973,"name":"Enville"},{"geonameid":6693239,"name":"Essington"},{"geonameid":2649690,"name":"Farewell"},{"geonameid":2649625,"name":"Fauld"},{"geonameid":2649609,"name":"Fazeley"},{"geonameid":6692918,"name":"Featherstone"},{"geonameid":2649331,"name":"Flash"},{"geonameid":2649231,"name":"Ford Green"},{"geonameid":2649134,"name":"Four Ashes"},{"geonameid":2649026,"name":"Froghall"},{"geonameid":2648999,"name":"Fulford"},{"geonameid":2648953,"name":"Gailey"},{"geonameid":2648586,"name":"Glascote"},{"geonameid":2648383,"name":"Gnosall"},{"geonameid":2648149,"name":"Great Bridgeford"},{"geonameid":2648137,"name":"Great Chatwell"},{"geonameid":11549422,"name":"Great Haywood"},{"geonameid":2647985,"name":"Great Wyrley"},{"geonameid":2647867,"name":"Grindley"},{"geonameid":2647866,"name":"Grindon"},{"geonameid":2647634,"name":"Halfpenny Green"},{"geonameid":2647566,"name":"Hammerwich"},{"geonameid":2647543,"name":"Hamstall Ridware"},{"geonameid":2647537,"name":"Hanbury"},{"geonameid":2647488,"name":"Harecastle"},{"geonameid":2647368,"name":"Haselour"},{"geonameid":2647325,"name":"Haughton"},{"geonameid":2647192,"name":"Hednesford"},{"geonameid":2646937,"name":"High Offley"},{"geonameid":2646904,"name":"Hilderstone"},{"geonameid":2646868,"name":"Himley"},{"geonameid":11592808,"name":"Hixon"},{"geonameid":2646743,"name":"Hollinsclough"},{"geonameid":2646619,"name":"Hopton"},{"geonameid":8063654,"name":"Hopwas"},{"geonameid":2646586,"name":"Horninglow"},{"geonameid":2646545,"name":"Horton"},{"geonameid":2646442,"name":"Hulme End"},{"geonameid":2646387,"name":"Huntington"},{"geonameid":2646280,"name":"Ilam"},{"geonameid":2646215,"name":"Ingestre"},{"geonameid":2646058,"name":"Ipstones"},{"geonameid":2645897,"name":"Keele"},{"geonameid":2645725,"name":"Kiddemore Green"},{"geonameid":2645721,"name":"Kidsgrove"},{"geonameid":2645485,"name":"Kings Bromley"},{"geonameid":2645458,"name":"Kingsley"},{"geonameid":2645433,"name":"Kingston"},{"geonameid":2645349,"name":"Kinvere"},{"geonameid":2644870,"name":"Lapley"},{"geonameid":2644684,"name":"Leek"},{"geonameid":2644531,"name":"Lichfield"},{"geonameid":2644363,"name":"Little Bridgeford"},{"geonameid":11592754,"name":"Loggerheads"},{"geonameid":2643699,"name":"Longdon"},{"geonameid":2643650,"name":"Longnor"},{"geonameid":11551149,"name":"Lower Green"},{"geonameid":2643508,"name":"Lower Penn"},{"geonameid":2643499,"name":"Lower Stonnall"},{"geonameid":2643234,"name":"Madeley"},{"geonameid":2643232,"name":"Madeley Heath"},{"geonameid":2643223,"name":"Maer"},{"geonameid":2643068,"name":"Marchington"},{"geonameid":2643067,"name":"Marchington Woodlands"},{"geonameid":2642876,"name":"Mayfield"},{"geonameid":2642828,"name":"Meerbrook"},{"geonameid":2642536,"name":"Milford"},{"geonameid":2642475,"name":"Milton"},{"geonameid":2642456,"name":"Milwich"},{"geonameid":2642408,"name":"Mitton"},{"geonameid":2642394,"name":"Moddershall"},{"geonameid":2642080,"name":"Mow Cop"},{"geonameid":2642030,"name":"Mucklestone"},{"geonameid":2641707,"name":"Newborough"},{"geonameid":2641674,"name":"Newcastle under Lyme"},{"geonameid":2641522,"name":"Newtown"},{"geonameid":2641464,"name":"Norbury"},{"geonameid":2641194,"name":"Norton Bridge"},{"geonameid":2641193,"name":"Norton Canes"},{"geonameid":2641132,"name":"Oakamoor"},{"geonameid":2641047,"name":"Okeover"},{"geonameid":2640963,"name":"Onecote"},{"geonameid":2640958,"name":"Onneley"},{"geonameid":8063281,"name":"Pasturefields"},{"geonameid":2640566,"name":"Pattingham"},{"geonameid":2640460,"name":"Penkridge"},{"geonameid":2640361,"name":"Pershall"},{"geonameid":2640271,"name":"Pipe Ridware"},{"geonameid":2639637,"name":"Ranton"},{"geonameid":2639275,"name":"Rocester"},{"geonameid":2639205,"name":"Rolleston"},{"geonameid":2639065,"name":"Rough Close"},{"geonameid":2638985,"name":"Rudyard"},{"geonameid":2638977,"name":"Rugeley"},{"geonameid":2638940,"name":"Rushton Spencer"},{"geonameid":2638653,"name":"Salt"},{"geonameid":2638569,"name":"Sandon"},{"geonameid":2638247,"name":"Seighford"},{"geonameid":2638239,"name":"Seisdon"},{"geonameid":2638126,"name":"Shareshill"},{"geonameid":2638094,"name":"Sheen"},{"geonameid":2638047,"name":"Shenstone"},{"geonameid":2637885,"name":"Shugborough"},{"geonameid":2637830,"name":"Silverdale"},{"geonameid":2637635,"name":"Slindon"},{"geonameid":2637142,"name":"Stafford"},{"geonameid":2637093,"name":"Standon"},{"geonameid":2637048,"name":"Stanton"},{"geonameid":2636822,"name":"Stone"},{"geonameid":2636799,"name":"Stonnall"},{"geonameid":2636755,"name":"Stowe"},{"geonameid":8063653,"name":"Streethay"},{"geonameid":2636660,"name":"Stretton"},{"geonameid":2636559,"name":"Sugnall"},{"geonameid":11592588,"name":"Swindon"},{"geonameid":2636363,"name":"Swynnerton"},{"geonameid":6620315,"name":"Talke"},{"geonameid":2636276,"name":"Tamworth"},{"geonameid":2636186,"name":"Tatenhill"},{"geonameid":11790778,"name":"Tean"},{"geonameid":2635952,"name":"Thorpe Constantine"},{"geonameid":2635758,"name":"Tixall"},{"geonameid":2635611,"name":"Totmonslow"},{"geonameid":2635494,"name":"Trescott"},{"geonameid":2635404,"name":"Trysull"},{"geonameid":11919597,"name":"Tunstall"},{"geonameid":2635323,"name":"Tutbury"},{"geonameid":2635131,"name":"Upper Elkstone"},{"geonameid":2635121,"name":"Upper Hulme"},{"geonameid":2635112,"name":"Upper Penn"},{"geonameid":2635043,"name":"Uttoxeter"},{"geonameid":2634737,"name":"Warslow"},{"geonameid":2634695,"name":"Waterfall"},{"geonameid":2634692,"name":"Waterhouses"},{"geonameid":2634612,"name":"Weeford"},{"geonameid":2634306,"name":"Weston under Lizard"},{"geonameid":2634301,"name":"Weston upon Trent"},{"geonameid":2634211,"name":"Wetleyrocks"},{"geonameid":2634210,"name":"Wetton"},{"geonameid":2634170,"name":"Wheaton Aston"},{"geonameid":7910871,"name":"Whiston"},{"geonameid":2634044,"name":"Whitgreave"},{"geonameid":2634027,"name":"Whitmore"},{"geonameid":2634015,"name":"Whittington"},{"geonameid":2633943,"name":"Wigginton"},{"geonameid":2633882,"name":"Wilnecote"},{"geonameid":2633693,"name":"Wolstanton"},{"geonameid":2633683,"name":"Wombourn"},{"geonameid":2633573,"name":"Wootton"},{"geonameid":2633483,"name":"Wrinehill"},{"geonameid":2633987,"name":"Wychnor"},{"geonameid":11695579,"name":"Yarnfield"},{"geonameid":2633345,"name":"Yoxall"}],"admin3":[{"geonameid":2637139,"name":"Staffordshire Moorlands","admin3":"41UH"},{"geonameid":2650337,"name":"East Staffordshire","admin3":"41UC"},{"geonameid":2653882,"name":"Cannock Chase","admin3":"41UB"},{"geonameid":7290628,"name":"Lichfield District","admin3":"41UD"},{"geonameid":7290629,"name":"Newcastle-under-Lyme District","admin3":"41UE"},{"geonameid":7290630,"name":"South Staffordshire District","admin3":"41UF"},{"geonameid":7290631,"name":"Stafford District","admin3":"41UG"},{"geonameid":7290632,"name":"Tamworth District","admin3":"41UK"}],"alternateNames":[]},"__N_SSG":true}