{"pageProps":{"locale":"en","admin2":{"geonameid":5064925,"name":"Burt County","country":"US","admin1":"NE","admin2":"021","admin3":"","latitude":"41.8515600","longitude":"-96.3286000"},"admin1":{"geonameid":5073708,"name":"Nebraska","admin1":"NE","localeAltName":"Nebraska"},"locations":[{"geonameid":5074329,"name":"Oakland","admin3":"35490"},{"geonameid":5080113,"name":"Tekamah","admin3":"48515"}],"admin3":[{"geonameid":5063169,"name":"Township of Arizona","admin3":"01955"},{"geonameid":5063790,"name":"Township of Bell Creek","admin3":"03845"},{"geonameid":5066386,"name":"Township of Craig","admin3":"11125"},{"geonameid":5066810,"name":"Township of Decatur","admin3":"12560"},{"geonameid":5067831,"name":"Township of Everett","admin3":"16200"},{"geonameid":5072231,"name":"Township of Logan","admin3":"28595"},{"geonameid":5074344,"name":"City of Oakland","admin3":"35490"},{"geonameid":5074345,"name":"Township of Oakland","admin3":"35525"},{"geonameid":5075013,"name":"Township of Pershing","admin3":"38925"},{"geonameid":5075938,"name":"Township of Quinnebaugh","admin3":"40500"},{"geonameid":5076297,"name":"Township of Riverside","admin3":"41585"},{"geonameid":5078995,"name":"Township of Silver Creek","admin3":"45330"},{"geonameid":5079804,"name":"Township of Summit","admin3":"47570"},{"geonameid":5080131,"name":"City of Tekamah","admin3":"48515"}],"alternateNames":[{"alternatenameId":2124821,"geonameid":5073708,"isoLanguage":"en","alternateName":"Nebraska","isPreferredName":true,"isShortName":true,"isColloquial":false,"isHistoric":false}]},"__N_SSG":true}