{"pageProps":{"locale":"en","admin2":{"geonameid":5064961,"name":"Butler County","country":"US","admin1":"NE","admin2":"023","admin3":"","latitude":"41.2260800","longitude":"-97.1317700"},"admin1":{"geonameid":5073708,"name":"Nebraska","admin1":"NE","localeAltName":"Nebraska"},"locations":[{"geonameid":5066700,"name":"David City","admin3":"12315"}],"admin3":[{"geonameid":5062862,"name":"Township of Alexis","admin3":"00765"},{"geonameid":5064423,"name":"Township of Bone Creek","admin3":"05805"},{"geonameid":5065411,"name":"Township of Center","admin3":"08290"},{"geonameid":5066699,"name":"City of David City","admin3":"12315"},{"geonameid":5068677,"name":"Township of Franklin","admin3":"17460"},{"geonameid":5072110,"name":"Township of Linwood","admin3":"28280"},{"geonameid":5074274,"name":"Township of Oak Creek","admin3":"35280"},{"geonameid":5074456,"name":"Township of Olive","admin3":"36120"},{"geonameid":5075337,"name":"Township of Platte","admin3":"39240"},{"geonameid":5075570,"name":"Township of Plum Creek","admin3":"39555"},{"geonameid":5076050,"name":"Township of Read","admin3":"40815"},{"geonameid":5076051,"name":"Township of Reading","admin3":"40850"},{"geonameid":5076199,"name":"Township of Richardson","admin3":"41250"},{"geonameid":5077720,"name":"Township of Savannah","admin3":"43860"},{"geonameid":5079050,"name":"Township of Skull Creek","admin3":"45540"},{"geonameid":5079805,"name":"Township of Summit","admin3":"47605"},{"geonameid":5080604,"name":"Township of Ulysses","admin3":"49495"},{"geonameid":5080662,"name":"Township of Union","admin3":"49600"}],"alternateNames":[{"alternatenameId":2124821,"geonameid":5073708,"isoLanguage":"en","alternateName":"Nebraska","isPreferredName":true,"isShortName":true,"isColloquial":false,"isHistoric":false}]},"__N_SSG":true}