{"pageProps":{"locale":"en","admin2":{"geonameid":5071364,"name":"Kearney County","country":"US","admin1":"NE","admin2":"099","admin3":"","latitude":"40.5067100","longitude":"-98.9480200"},"admin1":{"geonameid":5073708,"name":"Nebraska","admin1":"NE","localeAltName":"Nebraska"},"locations":[{"geonameid":5073225,"name":"Minden","admin3":"27295"}],"admin3":[{"geonameid":5064231,"name":"Township of Blaine","admin3":"05315"},{"geonameid":5066226,"name":"Township of Cosmo","admin3":"10670"},{"geonameid":5067407,"name":"Township of Eaton","admin3":"14345"},{"geonameid":5069363,"name":"Township of Grant","admin3":"19875"},{"geonameid":5069859,"name":"Township of Hayes","admin3":"21625"},{"geonameid":5071973,"name":"Township of Liberty","admin3":"27050"},{"geonameid":5072080,"name":"Township of Lincoln","admin3":"27295"},{"geonameid":5072241,"name":"Township of Logan","admin3":"28840"},{"geonameid":5072423,"name":"Township of Lowell","admin3":"29610"},{"geonameid":5072760,"name":"Township of May","admin3":"31255"},{"geonameid":5073247,"name":"Township of Mirage","admin3":"32375"},{"geonameid":5073868,"name":"Township of Newark","admin3":"34055"},{"geonameid":5074541,"name":"Township of Oneida","admin3":"37070"},{"geonameid":5078923,"name":"Township of Sherman","admin3":"44980"}],"alternateNames":[{"alternatenameId":2124821,"geonameid":5073708,"isoLanguage":"en","alternateName":"Nebraska","isPreferredName":true,"isShortName":true,"isColloquial":false,"isHistoric":false}]},"__N_SSG":true}