{"pageProps":{"locale":"en","admin2":{"geonameid":5072973,"name":"Merrick County","country":"US","admin1":"NE","admin2":"121","admin3":"","latitude":"41.1698200","longitude":"-98.0376500"},"admin1":{"geonameid":5073708,"name":"Nebraska","admin1":"NE","localeAltName":"Nebraska"},"locations":[{"geonameid":5065429,"name":"Central City","admin3":"08535"}],"admin3":[{"geonameid":5065428,"name":"City of Central City","admin3":"08535"},{"geonameid":5065480,"name":"Township of Central","admin3":"08500"},{"geonameid":5065531,"name":"Township of Chapman","admin3":"08815"},{"geonameid":5065792,"name":"Township of Clarksville","admin3":"09235"},{"geonameid":5072273,"name":"Township of Lone Tree","admin3":"29015"},{"geonameid":5072406,"name":"Township of Loup","admin3":"29400"},{"geonameid":5072847,"name":"Township of Mead","admin3":"31360"},{"geonameid":5073072,"name":"Township of Midland","admin3":"31955"},{"geonameid":5075719,"name":"Township of Prairie Creek","admin3":"40150"},{"geonameid":5075739,"name":"Township of Prairie Island","admin3":"40272"},{"geonameid":5078996,"name":"Township of Silver Creek","admin3":"45435"},{"geonameid":5081157,"name":"Township of Vieregg","admin3":"50720"}],"alternateNames":[{"alternatenameId":2124821,"geonameid":5073708,"isoLanguage":"en","alternateName":"Nebraska","isPreferredName":true,"isShortName":true,"isColloquial":false,"isHistoric":false}]},"__N_SSG":true}