{"pageProps":{"locale":"en","admin2":{"geonameid":5080274,"name":"Thurston County","country":"US","admin1":"NE","admin2":"173","admin3":"","latitude":"42.1581900","longitude":"-96.5441000"},"admin1":{"geonameid":5073708,"name":"Nebraska","admin1":"NE","localeAltName":"Nebraska"},"locations":[{"geonameid":5072528,"name":"Macy","admin3":"05122"},{"geonameid":5074969,"name":"Pender","admin3":"38767"}],"admin3":[{"geonameid":5062983,"name":"Township of Anderson","admin3":"01377"},{"geonameid":5064210,"name":"Township of Blackbird","admin3":"05122"},{"geonameid":5064794,"name":"Township of Bryan","admin3":"06907"},{"geonameid":5066736,"name":"Township of Dawes","admin3":"12402"},{"geonameid":5068521,"name":"Township of Flournoy","admin3":"17022"},{"geonameid":5072983,"name":"Township of Merry","admin3":"31832"},{"geonameid":5074534,"name":"Township of Omaha","admin3":"37017"},{"geonameid":5074980,"name":"Township of Pender","admin3":"38767"},{"geonameid":5075005,"name":"Township of Perry","admin3":"38907"},{"geonameid":5080174,"name":"Township of Thayer","admin3":"48672"},{"geonameid":5082112,"name":"Township of Winnebago","admin3":"53295"}],"alternateNames":[{"alternatenameId":2124821,"geonameid":5073708,"isoLanguage":"en","alternateName":"Nebraska","isPreferredName":true,"isShortName":true,"isColloquial":false,"isHistoric":false}]},"__N_SSG":true}