{"pageProps":{"locale":"it","admin2":{"geonameid":6955700,"name":"Provincia di Monza e della Brianza","country":"IT","admin1":"09","admin2":"MB","admin3":"","latitude":"45.5967400","longitude":"9.2161600","localeAltName":null},"admin1":{"geonameid":3174618,"name":"Lombardia","admin1":"09","localeAltName":"Lombardia"},"locations":[{"geonameid":6695517,"name":"Agliate","admin3":"108015","localeAltName":null},{"geonameid":3183417,"name":"Agrate Brianza","admin3":"108001","localeAltName":null},{"geonameid":6535142,"name":"Aicurzio","admin3":"108002","localeAltName":null},{"geonameid":3183321,"name":"Albiate","admin3":"108003","localeAltName":null},{"geonameid":3182904,"name":"Arcore","admin3":"108004","localeAltName":null},{"geonameid":3182341,"name":"Barlassina","admin3":"108005","localeAltName":null},{"geonameid":6534468,"name":"Bellusco","admin3":"108006","localeAltName":null},{"geonameid":6534286,"name":"Bernareggio","admin3":"108007","localeAltName":null},{"geonameid":3182119,"name":"Besana in Brianza","admin3":"108008","localeAltName":null},{"geonameid":3182066,"name":"Biassono","admin3":"108009","localeAltName":null},{"geonameid":3181641,"name":"Bovisio-Masciago","admin3":"108010","localeAltName":null},{"geonameid":6534935,"name":"Briosco","admin3":"108011","localeAltName":null},{"geonameid":3181495,"name":"Brugherio","admin3":"108012","localeAltName":null},{"geonameid":6535146,"name":"Burago di Molgora","admin3":"108013","localeAltName":null},{"geonameid":6535147,"name":"Busnago","admin3":"108051","localeAltName":null},{"geonameid":3181178,"name":"Calò","admin3":"108008","localeAltName":null},{"geonameid":3181040,"name":"Camparada","admin3":"108014","localeAltName":null},{"geonameid":8949032,"name":"Canonica","admin3":"108043","localeAltName":null},{"geonameid":6535768,"name":"Caponago","admin3":"108052","localeAltName":null},{"geonameid":8948943,"name":"Capriano","admin3":"108011","localeAltName":null},{"geonameid":3180581,"name":"Carate Brianza","admin3":"108015","localeAltName":null},{"geonameid":3180483,"name":"Carnate","admin3":"108016","localeAltName":null},{"geonameid":8949548,"name":"Cascina Nuova","admin3":"108032","localeAltName":null},{"geonameid":3179279,"name":"Cavenago di Brianza","admin3":"108017","localeAltName":null},{"geonameid":3179076,"name":"Ceriano Laghetto","admin3":"108018","localeAltName":null},{"geonameid":3178972,"name":"Cesano Maderno","admin3":"108019","localeAltName":null},{"geonameid":7931936,"name":"Cimnago","admin3":"108054","localeAltName":null},{"geonameid":6534937,"name":"Cogliate","admin3":"108020","localeAltName":null},{"geonameid":3178201,"name":"Concorezzo","admin3":"108021","localeAltName":null},{"geonameid":3178073,"name":"Cornate d'Adda","admin3":"108053","localeAltName":null},{"geonameid":6534938,"name":"Correzzana","admin3":"108022","localeAltName":null},{"geonameid":8949313,"name":"Costa Lambro","admin3":"108015","localeAltName":null},{"geonameid":8949800,"name":"Dal Pozzo","admin3":"108018","localeAltName":null},{"geonameid":3177608,"name":"Desio","admin3":"108023","localeAltName":null},{"geonameid":8950184,"name":"Fornaci","admin3":"108011","localeAltName":null},{"geonameid":3176041,"name":"Giussano","admin3":"108024","localeAltName":null},{"geonameid":6534942,"name":"Lazzate","admin3":"108025","localeAltName":null},{"geonameid":3174888,"name":"Lentate sul Seveso","admin3":"108054","localeAltName":null},{"geonameid":6534943,"name":"Lesmo","admin3":"108026","localeAltName":null},{"geonameid":3174719,"name":"Limbiate","admin3":"108027","localeAltName":null},{"geonameid":3174679,"name":"Lissone","admin3":"108028","localeAltName":null},{"geonameid":6534944,"name":"Macherio","admin3":"108029","localeAltName":null},{"geonameid":3173671,"name":"Meda","admin3":"108030","localeAltName":null},{"geonameid":6534947,"name":"Mezzago","admin3":"108031","localeAltName":null},{"geonameid":3173351,"name":"Misinto","admin3":"108032","localeAltName":null},{"geonameid":3172629,"name":"Monza","admin3":"108033","localeAltName":null},{"geonameid":3172479,"name":"Muggiò","admin3":"108034","localeAltName":null},{"geonameid":3172191,"name":"Nova Milanese","admin3":"108035","localeAltName":null},{"geonameid":3171939,"name":"Ornago","admin3":"108036","localeAltName":null},{"geonameid":8949387,"name":"Porto d'Adda","admin3":"108053","localeAltName":null},{"geonameid":6534489,"name":"Renate","admin3":"108037","localeAltName":null},{"geonameid":6534490,"name":"Roncello","admin3":"108055","localeAltName":null},{"geonameid":6535149,"name":"Ronco Briantino","admin3":"108038","localeAltName":null},{"geonameid":8948784,"name":"Santa Margherita","admin3":"108028","localeAltName":null},{"geonameid":3166711,"name":"Seregno","admin3":"108039","localeAltName":null},{"geonameid":3166574,"name":"Seveso","admin3":"108040","localeAltName":null},{"geonameid":6535152,"name":"Sovico","admin3":"108041","localeAltName":null},{"geonameid":6534949,"name":"Sulbiate","admin3":"108042","localeAltName":null},{"geonameid":8949008,"name":"Tregasio","admin3":"108043","localeAltName":null},{"geonameid":3165155,"name":"Triuggio","admin3":"108043","localeAltName":null},{"geonameid":3165018,"name":"Usmate-Velate","admin3":"108044","localeAltName":null},{"geonameid":3164702,"name":"Varedo","admin3":"108045","localeAltName":null},{"geonameid":6535153,"name":"Vedano al Lambro","admin3":"108046","localeAltName":null},{"geonameid":6534950,"name":"Veduggio Con Colzano","admin3":"108047","localeAltName":null},{"geonameid":8949076,"name":"Velasca","admin3":"108050","localeAltName":null},{"geonameid":6534247,"name":"Verano Brianza","admin3":"108048","localeAltName":null},{"geonameid":8948954,"name":"Villa Raverio","admin3":"108008","localeAltName":null},{"geonameid":8949156,"name":"Villaggio del Sole","admin3":"108027","localeAltName":null},{"geonameid":8949167,"name":"Villanova","admin3":"108007","localeAltName":null},{"geonameid":3164138,"name":"Villasanta","admin3":"108049","localeAltName":null},{"geonameid":3164083,"name":"Vimercate","admin3":"108050","localeAltName":null},{"geonameid":8948962,"name":"Zoccorino-Vergo","admin3":"108008","localeAltName":null}],"admin3":[{"geonameid":3166317,"name":"Sovico","admin3":"108041","localeAltName":null},{"geonameid":6535884,"name":"Bovisio-Masciago","admin3":"108010","localeAltName":null},{"geonameid":6536132,"name":"Albiate","admin3":"108003","localeAltName":null},{"geonameid":6536134,"name":"Barlassina","admin3":"108005","localeAltName":null},{"geonameid":6536140,"name":"Usmate Velate","admin3":"108044","localeAltName":null},{"geonameid":6536508,"name":"Cornate d'Adda","admin3":"108053","localeAltName":null},{"geonameid":6536514,"name":"Lentate sul Seveso","admin3":"108054","localeAltName":null},{"geonameid":6537109,"name":"Besana in Brianza","admin3":"108008","localeAltName":null},{"geonameid":6537112,"name":"Brugherio","admin3":"108012","localeAltName":null},{"geonameid":6537122,"name":"Monza","admin3":"108033","localeAltName":"Monza"},{"geonameid":6537124,"name":"Nova Milanese","admin3":"108035","localeAltName":null},{"geonameid":6537125,"name":"Ornago","admin3":"108036","localeAltName":null},{"geonameid":6537134,"name":"Seregno","admin3":"108039","localeAltName":null},{"geonameid":6537137,"name":"Varedo","admin3":"108045","localeAltName":null},{"geonameid":6537140,"name":"Vimercate","admin3":"108050","localeAltName":null},{"geonameid":6539475,"name":"Camparada","admin3":"108014","localeAltName":null},{"geonameid":6539476,"name":"Carnate","admin3":"108016","localeAltName":null},{"geonameid":6539479,"name":"Cavenago di Brianza","admin3":"108017","localeAltName":null},{"geonameid":6539480,"name":"Ceriano Laghetto","admin3":"108018","localeAltName":null},{"geonameid":6539482,"name":"Concorezzo","admin3":"108021","localeAltName":null},{"geonameid":6539675,"name":"Muggiò","admin3":"108034","localeAltName":null},{"geonameid":6540168,"name":"Agrate Brianza","admin3":"108001","localeAltName":null},{"geonameid":6540169,"name":"Arcore","admin3":"108004","localeAltName":null},{"geonameid":6540170,"name":"Biassono","admin3":"108009","localeAltName":null},{"geonameid":6540332,"name":"Carate Brianza","admin3":"108015","localeAltName":null},{"geonameid":6540335,"name":"Desio","admin3":"108023","localeAltName":null},{"geonameid":6540337,"name":"Limbiate","admin3":"108027","localeAltName":null},{"geonameid":6540338,"name":"Misinto","admin3":"108032","localeAltName":null},{"geonameid":6540584,"name":"Lissone","admin3":"108028","localeAltName":null},{"geonameid":6540586,"name":"Meda","admin3":"108030","localeAltName":null},{"geonameid":6540591,"name":"Villasanta","admin3":"108049","localeAltName":null},{"geonameid":6541561,"name":"Triuggio","admin3":"108043","localeAltName":null},{"geonameid":6541587,"name":"Seveso","admin3":"108040","localeAltName":null},{"geonameid":6541630,"name":"Giussano","admin3":"108024","localeAltName":null},{"geonameid":6541989,"name":"Cesano Maderno","admin3":"108019","localeAltName":null},{"geonameid":6542321,"name":"Verano Brianza","admin3":"108048","localeAltName":null},{"geonameid":6542357,"name":"Bernareggio","admin3":"108007","localeAltName":null},{"geonameid":6542531,"name":"Bellusco","admin3":"108006","localeAltName":null},{"geonameid":6542550,"name":"Renate","admin3":"108037","localeAltName":null},{"geonameid":6542551,"name":"Roncello","admin3":"108055","localeAltName":null},{"geonameid":6542921,"name":"Briosco","admin3":"108011","localeAltName":null},{"geonameid":6542923,"name":"Cogliate","admin3":"108020","localeAltName":null},{"geonameid":6542924,"name":"Correzzana","admin3":"108022","localeAltName":null},{"geonameid":6542928,"name":"Lazzate","admin3":"108025","localeAltName":null},{"geonameid":6542929,"name":"Lesmo","admin3":"108026","localeAltName":null},{"geonameid":6542930,"name":"Macherio","admin3":"108029","localeAltName":null},{"geonameid":6542933,"name":"Mezzago","admin3":"108031","localeAltName":null},{"geonameid":6542935,"name":"Sulbiate","admin3":"108042","localeAltName":null},{"geonameid":6542936,"name":"Veduggio con Colzano","admin3":"108047","localeAltName":null},{"geonameid":6543128,"name":"Aicurzio","admin3":"108002","localeAltName":null},{"geonameid":6543132,"name":"Burago di Molgora","admin3":"108013","localeAltName":null},{"geonameid":6543133,"name":"Busnago","admin3":"108051","localeAltName":null},{"geonameid":6543135,"name":"Ronco Briantino","admin3":"108038","localeAltName":null},{"geonameid":6543138,"name":"Vedano al Lambro","admin3":"108046","localeAltName":null},{"geonameid":6543740,"name":"Caponago","admin3":"108052","localeAltName":null}],"alternateNames":[{"alternatenameId":1350323,"geonameid":3174618,"isoLanguage":"it","alternateName":"Lombardia","isPreferredName":true,"isShortName":true,"isColloquial":false,"isHistoric":false},{"alternatenameId":2431306,"geonameid":6537122,"isoLanguage":"it","alternateName":"Monza","isPreferredName":true,"isShortName":true,"isColloquial":false,"isHistoric":false}]},"__N_SSG":true}