{"pageProps":{"locale":"en","admin2":{"geonameid":3333232,"name":"North Ayrshire","country":"GB","admin1":"SCT","admin2":"V7","admin3":"","latitude":"55.6969400","longitude":"-4.7337300"},"admin1":{"geonameid":2638360,"name":"Scotland","admin1":"SCT"},"locations":[{"geonameid":2657194,"name":"Ardeer Square"},{"geonameid":2657125,"name":"Ardrossan"},{"geonameid":2656252,"name":"Barrmill"},{"geonameid":2655994,"name":"Beith"},{"geonameid":2655424,"name":"Blackwaterfoot"},{"geonameid":2654604,"name":"Brodick"},{"geonameid":8335471,"name":"Burnhouse"},{"geonameid":2653525,"name":"Catacol"},{"geonameid":2652339,"name":"Corrie"},{"geonameid":2651561,"name":"Dalry"},{"geonameid":2651228,"name":"Dippin"},{"geonameid":2651062,"name":"Dougarie"},{"geonameid":2650996,"name":"Dreghorn"},{"geonameid":2649738,"name":"Fairlie"},{"geonameid":11903557,"name":"Girdle Toll"},{"geonameid":2648479,"name":"Glengarnock"},{"geonameid":2648464,"name":"Glenloig"},{"geonameid":2646262,"name":"Imachar"},{"geonameid":2646032,"name":"Irvine"},{"geonameid":8299836,"name":"Isle of Arran"},{"geonameid":8299852,"name":"Isle of Cumbrae"},{"geonameid":2645712,"name":"Kilbirnie"},{"geonameid":2645678,"name":"Kildonan"},{"geonameid":2645582,"name":"Kilmory"},{"geonameid":11239104,"name":"Kilpatrick"},{"geonameid":2645541,"name":"Kilwinning"},{"geonameid":2645048,"name":"Lagg"},{"geonameid":2644984,"name":"Lamlash"},{"geonameid":2644860,"name":"Largs"},{"geonameid":2644858,"name":"Largybeg"},{"geonameid":2643806,"name":"Lochranza"},{"geonameid":7302612,"name":"Machrie"},{"geonameid":2642503,"name":"Millport"},{"geonameid":2640268,"name":"Pirnmill"},{"geonameid":2640065,"name":"Portencross"},{"geonameid":2638648,"name":"Saltcoats"},{"geonameid":2638288,"name":"Seamill"},{"geonameid":2637930,"name":"Shiskine"},{"geonameid":2637751,"name":"Skelmorlie"},{"geonameid":2637647,"name":"Sliddery"},{"geonameid":2637189,"name":"Springside"},{"geonameid":2636938,"name":"Stevenston"},{"geonameid":2635903,"name":"Thundergay"},{"geonameid":2635678,"name":"Torbeg"},{"geonameid":2634378,"name":"West Kilbride"},{"geonameid":2634105,"name":"Whitefarland"},{"geonameid":7869916,"name":"Whiting Bay"}],"admin3":[],"alternateNames":[]},"__N_SSG":true}