{"pageProps":{"locale":"en","admin2":{"geonameid":4556228,"name":"Adams County","country":"US","admin1":"PA","admin2":"001","admin3":"","latitude":"39.8714500","longitude":"-77.2178900"},"admin1":{"geonameid":6254927,"name":"Pennsylvania","admin1":"PA","localeAltName":"Pennsylvania"},"locations":[{"geonameid":4556216,"name":"Abbottstown","admin3":"00116"},{"geonameid":4556595,"name":"Biglerville","admin3":"06296"},{"geonameid":4556694,"name":"Bonneauville","admin3":"07560"},{"geonameid":4557014,"name":"Carroll Valley","admin3":"11472"},{"geonameid":4557666,"name":"East Berlin","admin3":"20792"},{"geonameid":4558183,"name":"Gettysburg","admin3":"28960"},{"geonameid":4559042,"name":"Lake Heritage","admin3":"51640"},{"geonameid":4559053,"name":"Lake Meade","admin3":"63616"},{"geonameid":4559273,"name":"Littlestown","admin3":"43944"},{"geonameid":4559553,"name":"McSherrystown","admin3":"46376"},{"geonameid":4559639,"name":"Midway","admin3":"15632"},{"geonameid":4559831,"name":"Mount Pleasant","admin3":"28936"},{"geonameid":4559983,"name":"New Oxford","admin3":"53920"}],"admin3":[{"geonameid":4556217,"name":"Borough of Abbottstown","admin3":"00116"},{"geonameid":4556312,"name":"Borough of Arendtsville","admin3":"02928"},{"geonameid":4556504,"name":"Borough of Bendersville","admin3":"05536"},{"geonameid":4556523,"name":"Township of Berwick","admin3":"05880"},{"geonameid":4556596,"name":"Borough of Biglerville","admin3":"06296"},{"geonameid":4556695,"name":"Borough of Bonneauville","admin3":"07560"},{"geonameid":4557016,"name":"Borough of Carroll Valley","admin3":"11472"},{"geonameid":4557318,"name":"Township of Conewago","admin3":"15632"},{"geonameid":4557467,"name":"Township of Cumberland","admin3":"17640"},{"geonameid":4557667,"name":"Borough of East Berlin","admin3":"20792"},{"geonameid":4557861,"name":"Borough of Fairfield","admin3":"24560"},{"geonameid":4558069,"name":"Township of Franklin","admin3":"27320"},{"geonameid":4558075,"name":"Township of Freedom","admin3":"27704"},{"geonameid":4558181,"name":"Township of Germany","admin3":"28936"},{"geonameid":4558191,"name":"Borough of Gettysburg","admin3":"28960"},{"geonameid":4558463,"name":"Township of Hamiltonban","admin3":"32200"},{"geonameid":4558472,"name":"Township of Hamilton","admin3":"32144"},{"geonameid":4558610,"name":"Township of Highland","admin3":"34424"},{"geonameid":4558741,"name":"Township of Huntington","admin3":"36424"},{"geonameid":4559090,"name":"Township of Latimore","admin3":"41672"},{"geonameid":4559189,"name":"Township of Liberty","admin3":"43056"},{"geonameid":4559284,"name":"Borough of Littlestown","admin3":"43944"},{"geonameid":4559554,"name":"Borough of McSherrystown","admin3":"46376"},{"geonameid":4559592,"name":"Township of Menallen","admin3":"48608"},{"geonameid":4559805,"name":"Township of Mount Joy","admin3":"51640"},{"geonameid":4559842,"name":"Township of Mount Pleasant","admin3":"51776"},{"geonameid":4559984,"name":"Borough of New Oxford","admin3":"53920"},{"geonameid":4560191,"name":"Township of Oxford","admin3":"57472"},{"geonameid":4560632,"name":"Township of Reading","admin3":"63616"},{"geonameid":4561556,"name":"Township of Straban","admin3":"74680"},{"geonameid":4561829,"name":"Township of Tyrone","admin3":"78160"},{"geonameid":4561857,"name":"Township of Union","admin3":"78264"},{"geonameid":4830366,"name":"Township of Butler","admin3":"10456"},{"geonameid":5220370,"name":"Borough of York Springs","admin3":"87136"}],"alternateNames":[{"alternatenameId":2186547,"geonameid":6254927,"isoLanguage":"en","alternateName":"Pennsylvania","isPreferredName":true,"isShortName":true,"isColloquial":false,"isHistoric":false}]},"__N_SSG":true}