{"pageProps":{"locale":"en","admin2":{"geonameid":5179454,"name":"Beaver County","country":"US","admin1":"PA","admin2":"007","admin3":"","latitude":"40.6822600","longitude":"-80.3492900"},"admin1":{"geonameid":6254927,"name":"Pennsylvania","admin1":"PA","localeAltName":"Pennsylvania"},"locations":[{"geonameid":5178027,"name":"Aliquippa","admin3":"00820"},{"geonameid":5178228,"name":"Ambridge","admin3":"02288"},{"geonameid":5178806,"name":"Baden","admin3":"03736"},{"geonameid":5179446,"name":"Beaver","admin3":"04688"},{"geonameid":5179478,"name":"Beaver Falls","admin3":"04792"},{"geonameid":5180308,"name":"Big Beaver","admin3":"06240"},{"geonameid":5185284,"name":"Conway","admin3":"15872"},{"geonameid":5188236,"name":"Economy","admin3":"02288"},{"geonameid":5190462,"name":"Freedom","admin3":"27712"},{"geonameid":5194892,"name":"Industry","admin3":"36944"},{"geonameid":5201045,"name":"Midland","admin3":"49184"},{"geonameid":5201658,"name":"Monaca","admin3":"50320"},{"geonameid":5203116,"name":"New Brighton","admin3":"53288"},{"geonameid":5204273,"name":"Ohioville","admin3":"56432"},{"geonameid":5208641,"name":"Rochester","admin3":""},{"geonameid":5218793,"name":"West Mayfield","admin3":"83472"}],"admin3":[{"geonameid":5178016,"name":"City of Aliquippa","admin3":"00820"},{"geonameid":5178236,"name":"Borough of Ambridge","admin3":"02288"},{"geonameid":5178807,"name":"Borough of Baden","admin3":"03736"},{"geonameid":5179482,"name":"City of Beaver Falls","admin3":"04792"},{"geonameid":5179570,"name":"Borough of Beaver","admin3":"04688"},{"geonameid":5180309,"name":"Borough of Big Beaver","admin3":"06240"},{"geonameid":5181644,"name":"Borough of Bridgewater","admin3":"08632"},{"geonameid":5181658,"name":"Township of Brighton","admin3":"08680"},{"geonameid":5183671,"name":"Township of Center","admin3":"12016"},{"geonameid":5184239,"name":"Township of Chippewa","admin3":"13488"},{"geonameid":5185288,"name":"Borough of Conway","admin3":"15872"},{"geonameid":5186366,"name":"Borough of Darlington","admin3":"18192"},{"geonameid":5186367,"name":"Township of Darlington","admin3":"18200"},{"geonameid":5186402,"name":"Township of Daugherty","admin3":"18264"},{"geonameid":5188037,"name":"Borough of East Rochester","admin3":"21752"},{"geonameid":5188156,"name":"Borough of Eastvale","admin3":"21968"},{"geonameid":5188241,"name":"Borough of Economy","admin3":"22264"},{"geonameid":5189330,"name":"Borough of Fallston","admin3":"25152"},{"geonameid":5190321,"name":"Borough of Frankfort Springs","admin3":"27312"},{"geonameid":5190386,"name":"Township of Franklin","admin3":"27336"},{"geonameid":5190465,"name":"Borough of Freedom","admin3":"27712"},{"geonameid":5190993,"name":"Borough of Georgetown","admin3":"28824"},{"geonameid":5191218,"name":"Borough of Glasgow","admin3":"29392"},{"geonameid":5191964,"name":"Township of Greene","admin3":"30920"},{"geonameid":5192587,"name":"Township of Hanover","admin3":"32392"},{"geonameid":5192701,"name":"Township of Harmony","admin3":"32680"},{"geonameid":5194087,"name":"Borough of Homewood","admin3":"35488"},{"geonameid":5194135,"name":"Borough of Hookstown","admin3":"35576"},{"geonameid":5194207,"name":"Township of Hopewell","admin3":"35640"},{"geonameid":5194761,"name":"Township of Independence","admin3":"36776"},{"geonameid":5194894,"name":"Borough of Industry","admin3":"36944"},{"geonameid":5196517,"name":"Borough of Koppel","admin3":"40400"},{"geonameid":5199896,"name":"Township of Marion","admin3":"47432"},{"geonameid":5201049,"name":"Borough of Midland","admin3":"49184"},{"geonameid":5201660,"name":"Borough of Monaca","admin3":"50320"},{"geonameid":5203117,"name":"Borough of New Brighton","admin3":"53288"},{"geonameid":5203175,"name":"Borough of New Galilee","admin3":"53592"},{"geonameid":5203257,"name":"Township of New Sewickley","admin3":"54072"},{"geonameid":5203756,"name":"Township of North Sewickley","admin3":"55400"},{"geonameid":5204275,"name":"Borough of Ohioville","admin3":"56432"},{"geonameid":5205204,"name":"Borough of Patterson Heights","admin3":"58384"},{"geonameid":5205212,"name":"Township of Patterson","admin3":"58375"},{"geonameid":5207054,"name":"Township of Potter","admin3":"62352"},{"geonameid":5207295,"name":"Township of Pulaski","admin3":"62888"},{"geonameid":5207482,"name":"Township of Raccoon","admin3":"63224"},{"geonameid":5208643,"name":"Township of Rochester","admin3":"65400"},{"geonameid":5212031,"name":"Borough of Shippingport","admin3":"70376"},{"geonameid":5212913,"name":"Township of South Beaver","admin3":"71952"},{"geonameid":5213034,"name":"Borough of South Heights","admin3":"72216"},{"geonameid":5217121,"name":"Township of Vanport","admin3":"79856"},{"geonameid":5218794,"name":"Borough of West Mayfield","admin3":"83472"},{"geonameid":5219290,"name":"Township of White","admin3":"84444"}],"alternateNames":[{"alternatenameId":2186547,"geonameid":6254927,"isoLanguage":"en","alternateName":"Pennsylvania","isPreferredName":true,"isShortName":true,"isColloquial":false,"isHistoric":false}]},"__N_SSG":true}