{"pageProps":{"locale":"en","admin2":{"geonameid":5220239,"name":"Wyoming County","country":"US","admin1":"PA","admin2":"131","admin3":"","latitude":"41.5183300","longitude":"-76.0165500"},"admin1":{"geonameid":6254927,"name":"Pennsylvania","admin1":"PA","localeAltName":"Pennsylvania"},"locations":[{"geonameid":5189042,"name":"Factoryville","admin3":"24488"},{"geonameid":5216260,"name":"Tunkhannock","admin3":"77784"}],"admin3":[{"geonameid":5181470,"name":"Township of Braintrim","admin3":"08176"},{"geonameid":5184638,"name":"Township of Clinton","admin3":"14360"},{"geonameid":5188169,"name":"Township of Eaton","admin3":"22112"},{"geonameid":5189014,"name":"Township of Exeter","admin3":"24408"},{"geonameid":5189044,"name":"Borough of Factoryville","admin3":"24488"},{"geonameid":5189319,"name":"Township of Falls","admin3":"25128"},{"geonameid":5190043,"name":"Township of Forkston","admin3":"26752"},{"geonameid":5196671,"name":"Borough of Laceyville","admin3":"40744"},{"geonameid":5197722,"name":"Township of Lemon","admin3":"42616"},{"geonameid":5200704,"name":"Township of Mehoopany","admin3":"48528"},{"geonameid":5200855,"name":"Township of Meshoppen","admin3":"48864"},{"geonameid":5200858,"name":"Borough of Meshoppen","admin3":"48856"},{"geonameid":5201732,"name":"Township of Monroe","admin3":"50496"},{"geonameid":5203408,"name":"Township of Nicholson","admin3":"54408"},{"geonameid":5203410,"name":"Borough of Nicholson","admin3":"54400"},{"geonameid":5203595,"name":"Township of North Branch","admin3":"54824"},{"geonameid":5203853,"name":"Township of Northmoreland","admin3":"55232"},{"geonameid":5203918,"name":"Township of Noxen","admin3":"55736"},{"geonameid":5204726,"name":"Township of Overfield","admin3":"57408"},{"geonameid":5216265,"name":"Borough of Tunkhannock","admin3":"77784"},{"geonameid":5216267,"name":"Township of Tunkhannock","admin3":"77792"},{"geonameid":5218157,"name":"Township of Washington","admin3":"81344"},{"geonameid":5219752,"name":"Township of Windham","admin3":"85680"}],"alternateNames":[{"alternatenameId":2186547,"geonameid":6254927,"isoLanguage":"en","alternateName":"Pennsylvania","isPreferredName":true,"isShortName":true,"isColloquial":false,"isHistoric":false}]},"__N_SSG":true}