{"pageProps":{"locale":"en","admin2":{"geonameid":4395900,"name":"Livingston County","country":"US","admin1":"MO","admin2":"117","admin3":"","latitude":"39.7821100","longitude":"-93.5482800","localeAltName":null},"admin1":{"geonameid":4398678,"name":"Missouri","admin1":"MO","localeAltName":"Missouri"},"locations":[{"geonameid":4381104,"name":"Chillicothe","admin3":"13708","localeAltName":null}],"admin3":[{"geonameid":4377611,"name":"Township of Blue Mound","admin3":"06580"},{"geonameid":4381106,"name":"Township of Chillicothe","admin3":"13708","localeAltName":null},{"geonameid":4382793,"name":"Township of Cream Ridge","admin3":"17146"},{"geonameid":4386211,"name":"Township of Fairview","admin3":"23500"},{"geonameid":4388441,"name":"Township of Grand River","admin3":"28306"},{"geonameid":4388769,"name":"Township of Green","admin3":"28990"},{"geonameid":4392232,"name":"Township of Jackson","admin3":"35882"},{"geonameid":4397949,"name":"Township of Medicine","admin3":"47090"},{"geonameid":4398871,"name":"Township of Monroe","admin3":"49340"},{"geonameid":4399013,"name":"Township of Mooresville","admin3":"49808"},{"geonameid":4405523,"name":"Township of Rich Hill","admin3":"61436"},{"geonameid":4407487,"name":"Township of Sampsel","admin3":"65774"},{"geonameid":4414366,"name":"Township of Wheeling","admin3":"79198"}],"alternateNames":[{"alternatenameId":2089572,"geonameid":4398678,"isoLanguage":"en","alternateName":"Missouri","isPreferredName":true,"isShortName":true,"isColloquial":false,"isHistoric":false}]},"__N_SSG":true}