{"pageProps":{"locale":"en","admin2":{"geonameid":4398895,"name":"Montgomery County","country":"US","admin1":"MO","admin2":"139","admin3":"","latitude":"38.9414900","longitude":"-91.4702100","localeAltName":null},"admin1":{"geonameid":4398678,"name":"Missouri","admin1":"MO","localeAltName":"Missouri"},"locations":[{"geonameid":4392766,"name":"Jonesburg","admin3":"03754","localeAltName":null},{"geonameid":4398894,"name":"Montgomery City","admin3":"49520","localeAltName":null},{"geonameid":4400253,"name":"New Florence","admin3":"18208","localeAltName":null},{"geonameid":4413978,"name":"Wellsville","admin3":"75256","localeAltName":null}],"admin3":[{"geonameid":4376141,"name":"Township of Bear Creek","admin3":"03754","localeAltName":null},{"geonameid":4383293,"name":"Township of Danville","admin3":"18208","localeAltName":null},{"geonameid":4396449,"name":"Township of Loutre","admin3":"44228"},{"geonameid":4398909,"name":"Township of Montgomery","admin3":"49520","localeAltName":null},{"geonameid":4404608,"name":"Township of Prairie","admin3":"59618"},{"geonameid":4412733,"name":"Township of Upper Loutre","admin3":"75256","localeAltName":null}],"alternateNames":[{"alternatenameId":2089572,"geonameid":4398678,"isoLanguage":"en","alternateName":"Missouri","isPreferredName":true,"isShortName":true,"isColloquial":false,"isHistoric":false}]},"__N_SSG":true}