{"pageProps":{"locale":"en","admin1":{"geonameid":4921868,"name":"Indiana","country":"US","admin1":"IN","latitude":"40.0003200","longitude":"-86.2502700","localeAltName":"Indiana"},"admin2":[{"geonameid":4917487,"name":"Adams County","admin2":"001","localeAltName":null},{"geonameid":4917555,"name":"Allen County","admin2":"003","localeAltName":null},{"geonameid":4254165,"name":"Bartholomew County","admin2":"005","localeAltName":null},{"geonameid":4917993,"name":"Benton County","admin2":"007","localeAltName":null},{"geonameid":4918181,"name":"Blackford County","admin2":"009","localeAltName":null},{"geonameid":4918273,"name":"Boone County","admin2":"011","localeAltName":null},{"geonameid":4255024,"name":"Brown County","admin2":"013","localeAltName":null},{"geonameid":4918765,"name":"Carroll County","admin2":"015","localeAltName":null},{"geonameid":4918771,"name":"Cass County","admin2":"017","localeAltName":null},{"geonameid":4255818,"name":"Clark County","admin2":"019","localeAltName":null},{"geonameid":4255843,"name":"Clay County","admin2":"021","localeAltName":null},{"geonameid":4919127,"name":"Clinton County","admin2":"023","localeAltName":null},{"geonameid":4256259,"name":"Crawford County","admin2":"025","localeAltName":null},{"geonameid":4256468,"name":"Daviess County","admin2":"027","localeAltName":null},{"geonameid":4256524,"name":"Dearborn County","admin2":"029","localeAltName":null},{"geonameid":4256516,"name":"Decatur County","admin2":"031","localeAltName":null},{"geonameid":4919554,"name":"DeKalb County","admin2":"033","localeAltName":null},{"geonameid":4919615,"name":"Delaware County","admin2":"035","localeAltName":null},{"geonameid":4256808,"name":"Dubois County","admin2":"037","localeAltName":null},{"geonameid":4919988,"name":"Elkhart County","admin2":"039","localeAltName":null},{"geonameid":4257390,"name":"Fayette County","admin2":"041","localeAltName":null},{"geonameid":4257565,"name":"Floyd County","admin2":"043","localeAltName":null},{"geonameid":4920444,"name":"Fountain County","admin2":"045","localeAltName":null},{"geonameid":4257700,"name":"Franklin County","admin2":"047","localeAltName":null},{"geonameid":4920550,"name":"Fulton County","admin2":"049","localeAltName":null},{"geonameid":4257948,"name":"Gibson County","admin2":"051","localeAltName":null},{"geonameid":4920875,"name":"Grant County","admin2":"053","localeAltName":null},{"geonameid":4258280,"name":"Greene County","admin2":"055","localeAltName":null},{"geonameid":4921085,"name":"Hamilton County","admin2":"057","localeAltName":null},{"geonameid":4258477,"name":"Hancock County","admin2":"059","localeAltName":null},{"geonameid":4258587,"name":"Harrison County","admin2":"061","localeAltName":null},{"geonameid":4258778,"name":"Hendricks County","admin2":"063","localeAltName":null},{"geonameid":4258792,"name":"Henry County","admin2":"065","localeAltName":null},{"geonameid":4921670,"name":"Howard County","admin2":"067","localeAltName":null},{"geonameid":4921729,"name":"Huntington County","admin2":"069","localeAltName":null},{"geonameid":4259572,"name":"Jackson County","admin2":"071","localeAltName":null},{"geonameid":4922007,"name":"Jasper County","admin2":"073","localeAltName":null},{"geonameid":4922013,"name":"Jay County","admin2":"075","localeAltName":null},{"geonameid":4259654,"name":"Jefferson County","admin2":"077","localeAltName":null},{"geonameid":4259679,"name":"Jennings County","admin2":"079","localeAltName":null},{"geonameid":4259727,"name":"Johnson County","admin2":"081","localeAltName":null},{"geonameid":4259986,"name":"Knox County","admin2":"083","localeAltName":null},{"geonameid":4922408,"name":"Kosciusko County","admin2":"085","localeAltName":null},{"geonameid":4922458,"name":"LaGrange County","admin2":"087","localeAltName":null},{"geonameid":4922493,"name":"Lake County","admin2":"089","localeAltName":null},{"geonameid":4922460,"name":"LaPorte County","admin2":"091","localeAltName":null},{"geonameid":4260213,"name":"Lawrence County","admin2":"093","localeAltName":null},{"geonameid":4923124,"name":"Madison County","admin2":"095","localeAltName":null},{"geonameid":4260977,"name":"Marion County","admin2":"097","localeAltName":null},{"geonameid":4923252,"name":"Marshall County","admin2":"099","localeAltName":null},{"geonameid":4261020,"name":"Martin County","admin2":"101","localeAltName":null},{"geonameid":4923517,"name":"Miami County","admin2":"103","localeAltName":null},{"geonameid":4261526,"name":"Monroe County","admin2":"105","localeAltName":null},{"geonameid":4923741,"name":"Montgomery County","admin2":"107","localeAltName":null},{"geonameid":4261598,"name":"Morgan County","admin2":"109","localeAltName":null},{"geonameid":4924165,"name":"Newton County","admin2":"111","localeAltName":null},{"geonameid":4924192,"name":"Noble County","admin2":"113","localeAltName":null},{"geonameid":4262462,"name":"Ohio County","admin2":"115","localeAltName":null},{"geonameid":4262595,"name":"Orange County","admin2":"117","localeAltName":null},{"geonameid":4262691,"name":"Owen County","admin2":"119","localeAltName":null},{"geonameid":4262785,"name":"Parke County","admin2":"121","localeAltName":null},{"geonameid":4262934,"name":"Perry County","admin2":"123","localeAltName":null},{"geonameid":4263024,"name":"Pike County","admin2":"125","localeAltName":null},{"geonameid":4925020,"name":"Porter County","admin2":"127","localeAltName":null},{"geonameid":4263298,"name":"Posey County","admin2":"129","localeAltName":null},{"geonameid":4925155,"name":"Pulaski County","admin2":"131","localeAltName":null},{"geonameid":4263451,"name":"Putnam County","admin2":"133","localeAltName":null},{"geonameid":4925224,"name":"Randolph County","admin2":"135","localeAltName":null},{"geonameid":4263732,"name":"Ripley County","admin2":"137","localeAltName":null},{"geonameid":4263953,"name":"Rush County","admin2":"139","localeAltName":null},{"geonameid":4925848,"name":"Saint Joseph County","admin2":"141","localeAltName":null},{"geonameid":4264540,"name":"Scott County","admin2":"143","localeAltName":null},{"geonameid":4264684,"name":"Shelby County","admin2":"145","localeAltName":null},{"geonameid":4265152,"name":"Spencer County","admin2":"147","localeAltName":null},{"geonameid":4926760,"name":"Starke County","admin2":"149","localeAltName":null},{"geonameid":4926796,"name":"Steuben County","admin2":"151","localeAltName":null},{"geonameid":4265509,"name":"Sullivan County","admin2":"153","localeAltName":null},{"geonameid":4265618,"name":"Switzerland County","admin2":"155","localeAltName":null},{"geonameid":4927230,"name":"Tippecanoe County","admin2":"157","localeAltName":null},{"geonameid":4927243,"name":"Tipton County","admin2":"159","localeAltName":null},{"geonameid":4266110,"name":"Union County","admin2":"161","localeAltName":null},{"geonameid":4266235,"name":"Vanderburgh County","admin2":"163","localeAltName":null},{"geonameid":4266252,"name":"Vermillion County","admin2":"165","localeAltName":null},{"geonameid":4266295,"name":"Vigo County","admin2":"167","localeAltName":null},{"geonameid":4927751,"name":"Wabash County","admin2":"169","localeAltName":null},{"geonameid":4927846,"name":"Warren County","admin2":"171","localeAltName":null},{"geonameid":4266579,"name":"Warrick County","admin2":"173","localeAltName":null},{"geonameid":4266588,"name":"Washington County","admin2":"175","localeAltName":null},{"geonameid":4266673,"name":"Wayne County","admin2":"177","localeAltName":null},{"geonameid":4928008,"name":"Wells County","admin2":"179","localeAltName":null},{"geonameid":4928184,"name":"White County","admin2":"181","localeAltName":null},{"geonameid":4928215,"name":"Whitley County","admin2":"183","localeAltName":null}],"admin3":[],"country":{"geonameid":6252001,"country":"US","name":"United States","localeAltName":null},"alternateNames":[{"alternatenameId":2124819,"geonameid":4921868,"isoLanguage":"en","alternateName":"Indiana","isPreferredName":true,"isShortName":true,"isColloquial":false,"isHistoric":false},{"alternatenameId":2422318,"geonameid":6252001,"isoLanguage":"de","alternateName":"USA","isPreferredName":true,"isShortName":true,"isColloquial":false,"isHistoric":false}]},"__N_SSG":true}