{"pageProps":{"locale":"en","admin1":{"geonameid":4736286,"name":"Texas","country":"US","admin1":"TX","latitude":"31.2504400","longitude":"-99.2506100","localeAltName":"Texas"},"admin2":[{"geonameid":4670756,"name":"Anderson County","admin2":"001","localeAltName":null},{"geonameid":5516292,"name":"Andrews County","admin2":"003","localeAltName":null},{"geonameid":4670841,"name":"Angelina County","admin2":"005","localeAltName":null},{"geonameid":4671133,"name":"Aransas County","admin2":"007","localeAltName":null},{"geonameid":4671180,"name":"Archer County","admin2":"009","localeAltName":null},{"geonameid":5516441,"name":"Armstrong County","admin2":"011","localeAltName":null},{"geonameid":4671531,"name":"Atascosa County","admin2":"013","localeAltName":null},{"geonameid":4671673,"name":"Austin County","admin2":"015","localeAltName":null},{"geonameid":5516581,"name":"Bailey County","admin2":"017","localeAltName":null},{"geonameid":4672172,"name":"Bandera County","admin2":"019","localeAltName":null},{"geonameid":4672581,"name":"Bastrop County","admin2":"021","localeAltName":null},{"geonameid":4672691,"name":"Baylor County","admin2":"023","localeAltName":null},{"geonameid":4673147,"name":"Bee County","admin2":"025","localeAltName":null},{"geonameid":4673310,"name":"Bell County","admin2":"027","localeAltName":null},{"geonameid":4674023,"name":"Bexar County","admin2":"029","localeAltName":null},{"geonameid":4674915,"name":"Blanco County","admin2":"031","localeAltName":null},{"geonameid":5517459,"name":"Borden County","admin2":"033","localeAltName":null},{"geonameid":4675728,"name":"Bosque County","admin2":"035","localeAltName":null},{"geonameid":4675805,"name":"Bowie County","admin2":"037","localeAltName":null},{"geonameid":4676137,"name":"Brazoria County","admin2":"039","localeAltName":null},{"geonameid":4676153,"name":"Brazos County","admin2":"041","localeAltName":null},{"geonameid":5517580,"name":"Brewster County","admin2":"043","localeAltName":null},{"geonameid":5517598,"name":"Briscoe County","admin2":"045","localeAltName":null},{"geonameid":4676547,"name":"Brooks County","admin2":"047","localeAltName":null},{"geonameid":4676632,"name":"Brown County","admin2":"049","localeAltName":null},{"geonameid":4677558,"name":"Burleson County","admin2":"051","localeAltName":null},{"geonameid":4677612,"name":"Burnet County","admin2":"053","localeAltName":null},{"geonameid":4678113,"name":"Caldwell County","admin2":"055","localeAltName":null},{"geonameid":4678165,"name":"Calhoun County","admin2":"057","localeAltName":null},{"geonameid":4678206,"name":"Callahan County","admin2":"059","localeAltName":null},{"geonameid":4678364,"name":"Cameron County","admin2":"061","localeAltName":null},{"geonameid":4678446,"name":"Camp County","admin2":"063","localeAltName":null},{"geonameid":5518353,"name":"Carson County","admin2":"065","localeAltName":null},{"geonameid":4679435,"name":"Cass County","admin2":"067","localeAltName":null},{"geonameid":5518431,"name":"Castro County","admin2":"069","localeAltName":null},{"geonameid":4680335,"name":"Chambers County","admin2":"071","localeAltName":null},{"geonameid":4680611,"name":"Cherokee County","admin2":"073","localeAltName":null},{"geonameid":5518760,"name":"Childress County","admin2":"075","localeAltName":null},{"geonameid":4681782,"name":"Clay County","admin2":"077","localeAltName":null},{"geonameid":5519156,"name":"Cochran County","admin2":"079","localeAltName":null},{"geonameid":5519174,"name":"Coke County","admin2":"081","localeAltName":null},{"geonameid":4682392,"name":"Coleman County","admin2":"083","localeAltName":null},{"geonameid":4682500,"name":"Collin County","admin2":"085","localeAltName":null},{"geonameid":5519229,"name":"Collingsworth County","admin2":"087","localeAltName":null},{"geonameid":4682626,"name":"Colorado County","admin2":"089","localeAltName":null},{"geonameid":4682688,"name":"Comal County","admin2":"091","localeAltName":null},{"geonameid":4682707,"name":"Comanche County","admin2":"093","localeAltName":null},{"geonameid":4682862,"name":"Concho County","admin2":"095","localeAltName":null},{"geonameid":4683066,"name":"Cooke County","admin2":"097","localeAltName":null},{"geonameid":4683477,"name":"Coryell County","admin2":"099","localeAltName":null},{"geonameid":5519440,"name":"Cottle County","admin2":"101","localeAltName":null},{"geonameid":5519649,"name":"Crane County","admin2":"103","localeAltName":null},{"geonameid":5519699,"name":"Crockett County","admin2":"105","localeAltName":null},{"geonameid":5519715,"name":"Crosby County","admin2":"107","localeAltName":null},{"geonameid":5519788,"name":"Culberson County","admin2":"109","localeAltName":null},{"geonameid":5519868,"name":"Dallam County","admin2":"111","localeAltName":null},{"geonameid":4684904,"name":"Dallas County","admin2":"113","localeAltName":null},{"geonameid":5519946,"name":"Dawson County","admin2":"115","localeAltName":null},{"geonameid":5520004,"name":"Deaf Smith County","admin2":"117","localeAltName":null},{"geonameid":4685841,"name":"Delta County","admin2":"119","localeAltName":null},{"geonameid":4685912,"name":"Denton County","admin2":"121","localeAltName":null},{"geonameid":4685527,"name":"DeWitt County","admin2":"123","localeAltName":null},{"geonameid":5520187,"name":"Dickens County","admin2":"125","localeAltName":null},{"geonameid":4686231,"name":"Dimmit County","admin2":"127","localeAltName":null},{"geonameid":5520330,"name":"Donley County","admin2":"129","localeAltName":null},{"geonameid":4687437,"name":"Duval County","admin2":"131","localeAltName":null},{"geonameid":4688072,"name":"Eastland County","admin2":"133","localeAltName":null},{"geonameid":5520910,"name":"Ector County","admin2":"135","localeAltName":null},{"geonameid":5520940,"name":"Edwards County","admin2":"137","localeAltName":null},{"geonameid":5521001,"name":"El Paso County","admin2":"141","localeAltName":null},{"geonameid":4688864,"name":"Ellis County","admin2":"139","localeAltName":null},{"geonameid":4689391,"name":"Erath County","admin2":"143","localeAltName":null},{"geonameid":4690103,"name":"Falls County","admin2":"145","localeAltName":null},{"geonameid":4690140,"name":"Fannin County","admin2":"147","localeAltName":null},{"geonameid":4690287,"name":"Fayette County","admin2":"149","localeAltName":null},{"geonameid":5521544,"name":"Fisher County","admin2":"151","localeAltName":null},{"geonameid":5521640,"name":"Floyd County","admin2":"153","localeAltName":null},{"geonameid":4691668,"name":"Foard County","admin2":"155","localeAltName":null},{"geonameid":4691851,"name":"Fort Bend County","admin2":"157","localeAltName":null},{"geonameid":4692203,"name":"Franklin County","admin2":"159","localeAltName":null},{"geonameid":4692377,"name":"Freestone County","admin2":"161","localeAltName":null},{"geonameid":4692545,"name":"Frio County","admin2":"163","localeAltName":null},{"geonameid":5521974,"name":"Gaines County","admin2":"165","localeAltName":null},{"geonameid":4692856,"name":"Galveston County","admin2":"167","localeAltName":null},{"geonameid":5522043,"name":"Garza County","admin2":"169","localeAltName":null},{"geonameid":4693544,"name":"Gillespie County","admin2":"171","localeAltName":null},{"geonameid":5522162,"name":"Glasscock County","admin2":"173","localeAltName":null},{"geonameid":4693922,"name":"Goliad County","admin2":"175","localeAltName":null},{"geonameid":4693951,"name":"Gonzales County","admin2":"177","localeAltName":null},{"geonameid":5522430,"name":"Gray County","admin2":"179","localeAltName":null},{"geonameid":4694710,"name":"Grayson County","admin2":"181","localeAltName":null},{"geonameid":4695143,"name":"Gregg County","admin2":"183","localeAltName":null},{"geonameid":4695236,"name":"Grimes County","admin2":"185","localeAltName":null},{"geonameid":4695361,"name":"Guadalupe County","admin2":"187","localeAltName":null},{"geonameid":5522717,"name":"Hale County","admin2":"189","localeAltName":null},{"geonameid":5522740,"name":"Hall County","admin2":"191","localeAltName":null},{"geonameid":4695945,"name":"Hamilton County","admin2":"193","localeAltName":null},{"geonameid":5522806,"name":"Hansford County","admin2":"195","localeAltName":null},{"geonameid":4696131,"name":"Hardeman County","admin2":"197","localeAltName":null},{"geonameid":4696143,"name":"Hardin County","admin2":"199","localeAltName":null},{"geonameid":4696376,"name":"Harris County","admin2":"201","localeAltName":null},{"geonameid":4696450,"name":"Harrison County","admin2":"203","localeAltName":null},{"geonameid":5522887,"name":"Hartley County","admin2":"205","localeAltName":null},{"geonameid":4696596,"name":"Haskell County","admin2":"207","localeAltName":null},{"geonameid":4696788,"name":"Hays County","admin2":"209","localeAltName":null},{"geonameid":5523019,"name":"Hemphill County","admin2":"211","localeAltName":null},{"geonameid":4697070,"name":"Henderson County","admin2":"213","localeAltName":null},{"geonameid":4697444,"name":"Hidalgo County","admin2":"215","localeAltName":null},{"geonameid":4697746,"name":"Hill County","admin2":"217","localeAltName":null},{"geonameid":5523240,"name":"Hockley County","admin2":"219","localeAltName":null},{"geonameid":4698632,"name":"Hood County","admin2":"221","localeAltName":null},{"geonameid":4698747,"name":"Hopkins County","admin2":"223","localeAltName":null},{"geonameid":4699084,"name":"Houston County","admin2":"225","localeAltName":null},{"geonameid":5523520,"name":"Howard County","admin2":"227","localeAltName":null},{"geonameid":5523551,"name":"Hudspeth County","admin2":"229","localeAltName":null},{"geonameid":4699487,"name":"Hunt County","admin2":"231","localeAltName":null},{"geonameid":5523630,"name":"Hutchinson County","admin2":"233","localeAltName":null},{"geonameid":5523809,"name":"Irion County","admin2":"235","localeAltName":null},{"geonameid":4700414,"name":"Jack County","admin2":"237","localeAltName":null},{"geonameid":4700488,"name":"Jackson County","admin2":"239","localeAltName":null},{"geonameid":4700729,"name":"Jasper County","admin2":"241","localeAltName":null},{"geonameid":5523967,"name":"Jeff Davis County","admin2":"243","localeAltName":null},{"geonameid":4700821,"name":"Jefferson County","admin2":"245","localeAltName":null},{"geonameid":4701059,"name":"Jim Hogg County","admin2":"247","localeAltName":null},{"geonameid":4701084,"name":"Jim Wells County","admin2":"249","localeAltName":null},{"geonameid":4701348,"name":"Johnson County","admin2":"251","localeAltName":null},{"geonameid":4701505,"name":"Jones County","admin2":"253","localeAltName":null},{"geonameid":4702669,"name":"Karnes County","admin2":"255","localeAltName":null},{"geonameid":4702735,"name":"Kaufman County","admin2":"257","localeAltName":null},{"geonameid":4702947,"name":"Kendall County","admin2":"259","localeAltName":null},{"geonameid":4702968,"name":"Kenedy County","admin2":"261","localeAltName":null},{"geonameid":5524519,"name":"Kent County","admin2":"263","localeAltName":null},{"geonameid":4703071,"name":"Kerr County","admin2":"265","localeAltName":null},{"geonameid":4703256,"name":"Kimble County","admin2":"267","localeAltName":null},{"geonameid":5524574,"name":"King County","admin2":"269","localeAltName":null},{"geonameid":5524590,"name":"Kinney County","admin2":"271","localeAltName":null},{"geonameid":4703486,"name":"Kleberg County","admin2":"273","localeAltName":null},{"geonameid":4703582,"name":"Knox County","admin2":"275","localeAltName":null},{"geonameid":4704157,"name":"La Salle County","admin2":"283","localeAltName":null},{"geonameid":4705086,"name":"Lamar County","admin2":"277","localeAltName":null},{"geonameid":5524844,"name":"Lamb County","admin2":"279","localeAltName":null},{"geonameid":4705179,"name":"Lampasas County","admin2":"281","localeAltName":null},{"geonameid":4705575,"name":"Lavaca County","admin2":"285","localeAltName":null},{"geonameid":4705758,"name":"Lee County","admin2":"287","localeAltName":null},{"geonameid":4705899,"name":"Leon County","admin2":"289","localeAltName":null},{"geonameid":4706143,"name":"Liberty County","admin2":"291","localeAltName":null},{"geonameid":4706335,"name":"Limestone County","admin2":"293","localeAltName":null},{"geonameid":5525131,"name":"Lipscomb County","admin2":"295","localeAltName":null},{"geonameid":4707076,"name":"Live Oak County","admin2":"297","localeAltName":null},{"geonameid":4707196,"name":"Llano County","admin2":"299","localeAltName":null},{"geonameid":5525514,"name":"Loving County","admin2":"301","localeAltName":null},{"geonameid":5525584,"name":"Lubbock County","admin2":"303","localeAltName":null},{"geonameid":5525637,"name":"Lynn County","admin2":"305","localeAltName":null},{"geonameid":4708691,"name":"Madison County","admin2":"313","localeAltName":null},{"geonameid":4709165,"name":"Marion County","admin2":"315","localeAltName":null},{"geonameid":5525816,"name":"Martin County","admin2":"317","localeAltName":null},{"geonameid":4709509,"name":"Mason County","admin2":"319","localeAltName":null},{"geonameid":4709580,"name":"Matagorda County","admin2":"321","localeAltName":null},{"geonameid":5525886,"name":"Maverick County","admin2":"323","localeAltName":null},{"geonameid":4709977,"name":"McCulloch County","admin2":"307","localeAltName":null},{"geonameid":4710229,"name":"McLennan County","admin2":"309","localeAltName":null},{"geonameid":4710259,"name":"McMullen County","admin2":"311","localeAltName":null},{"geonameid":4710490,"name":"Medina County","admin2":"325","localeAltName":null},{"geonameid":4710698,"name":"Menard County","admin2":"327","localeAltName":null},{"geonameid":5526341,"name":"Midland County","admin2":"329","localeAltName":null},{"geonameid":4711286,"name":"Milam County","admin2":"331","localeAltName":null},{"geonameid":4711560,"name":"Mills County","admin2":"333","localeAltName":null},{"geonameid":5526473,"name":"Mitchell County","admin2":"335","localeAltName":null},{"geonameid":4711974,"name":"Montague County","admin2":"337","localeAltName":null},{"geonameid":4712041,"name":"Montgomery County","admin2":"339","localeAltName":null},{"geonameid":5526589,"name":"Moore County","admin2":"341","localeAltName":null},{"geonameid":4712390,"name":"Morris County","admin2":"343","localeAltName":null},{"geonameid":5526681,"name":"Motley County","admin2":"345","localeAltName":null},{"geonameid":4713738,"name":"Nacogdoches County","admin2":"347","localeAltName":null},{"geonameid":4713849,"name":"Navarro County","admin2":"349","localeAltName":null},{"geonameid":4714720,"name":"Newton County","admin2":"351","localeAltName":null},{"geonameid":5527151,"name":"Nolan County","admin2":"353","localeAltName":null},{"geonameid":4715635,"name":"Nueces County","admin2":"355","localeAltName":null},{"geonameid":5527543,"name":"Ochiltree County","admin2":"357","localeAltName":null},{"geonameid":5527746,"name":"Oldham County","admin2":"359","localeAltName":null},{"geonameid":4716826,"name":"Orange County","admin2":"361","localeAltName":null},{"geonameid":4717377,"name":"Palo Pinto County","admin2":"363","localeAltName":null},{"geonameid":4717434,"name":"Panola County","admin2":"365","localeAltName":null},{"geonameid":4717644,"name":"Parker County","admin2":"367","localeAltName":null},{"geonameid":5528077,"name":"Parmer County","admin2":"369","localeAltName":null},{"geonameid":5528185,"name":"Pecos County","admin2":"371","localeAltName":null},{"geonameid":4719903,"name":"Polk County","admin2":"373","localeAltName":null},{"geonameid":5528613,"name":"Potter County","admin2":"375","localeAltName":null},{"geonameid":5528673,"name":"Presidio County","admin2":"377","localeAltName":null},{"geonameid":4721307,"name":"Rains County","admin2":"379","localeAltName":null},{"geonameid":5528909,"name":"Randall County","admin2":"381","localeAltName":null},{"geonameid":5528987,"name":"Reagan County","admin2":"383","localeAltName":null},{"geonameid":4721747,"name":"Real County","admin2":"385","localeAltName":null},{"geonameid":4721949,"name":"Red River County","admin2":"387","localeAltName":null},{"geonameid":5529174,"name":"Reeves County","admin2":"389","localeAltName":null},{"geonameid":4722147,"name":"Refugio County","admin2":"391","localeAltName":null},{"geonameid":5529403,"name":"Roberts County","admin2":"393","localeAltName":null},{"geonameid":4723147,"name":"Robertson County","admin2":"395","localeAltName":null},{"geonameid":4723410,"name":"Rockwall County","admin2":"397","localeAltName":null},{"geonameid":4724312,"name":"Runnels County","admin2":"399","localeAltName":null},{"geonameid":4724363,"name":"Rusk County","admin2":"401","localeAltName":null},{"geonameid":4724540,"name":"Sabine County","admin2":"403","localeAltName":null},{"geonameid":4726259,"name":"San Augustine County","admin2":"405","localeAltName":null},{"geonameid":4726377,"name":"San Jacinto County","admin2":"407","localeAltName":null},{"geonameid":4726521,"name":"San Patricio County","admin2":"409","localeAltName":null},{"geonameid":4726585,"name":"San Saba County","admin2":"411","localeAltName":null},{"geonameid":5530333,"name":"Schleicher County","admin2":"413","localeAltName":null},{"geonameid":5530399,"name":"Scurry County","admin2":"415","localeAltName":null},{"geonameid":4727962,"name":"Shackelford County","admin2":"417","localeAltName":null},{"geonameid":4728231,"name":"Shelby County","admin2":"419","localeAltName":null},{"geonameid":5530618,"name":"Sherman County","admin2":"421","localeAltName":null},{"geonameid":4729130,"name":"Smith County","admin2":"423","localeAltName":null},{"geonameid":4732807,"name":"Somervell County","admin2":"425","localeAltName":null},{"geonameid":4734150,"name":"Starr County","admin2":"427","localeAltName":null},{"geonameid":4734326,"name":"Stephens County","admin2":"429","localeAltName":null},{"geonameid":5531748,"name":"Sterling County","admin2":"431","localeAltName":null},{"geonameid":5531802,"name":"Stonewall County","admin2":"433","localeAltName":null},{"geonameid":5531955,"name":"Sutton County","admin2":"435","localeAltName":null},{"geonameid":5531988,"name":"Swisher County","admin2":"437","localeAltName":null},{"geonameid":4735638,"name":"Tarrant County","admin2":"439","localeAltName":null},{"geonameid":4735729,"name":"Taylor County","admin2":"441","localeAltName":null},{"geonameid":5532186,"name":"Terrell County","admin2":"443","localeAltName":null},{"geonameid":5532197,"name":"Terry County","admin2":"445","localeAltName":null},{"geonameid":4736742,"name":"Throckmorton County","admin2":"447","localeAltName":null},{"geonameid":4736982,"name":"Titus County","admin2":"449","localeAltName":null},{"geonameid":5532405,"name":"Tom Green County","admin2":"451","localeAltName":null},{"geonameid":4737316,"name":"Travis County","admin2":"453","localeAltName":null},{"geonameid":4737562,"name":"Trinity County","admin2":"455","localeAltName":null},{"geonameid":4738216,"name":"Tyler County","admin2":"457","localeAltName":null},{"geonameid":4738689,"name":"Upshur County","admin2":"459","localeAltName":null},{"geonameid":5532876,"name":"Upton County","admin2":"461","localeAltName":null},{"geonameid":4738723,"name":"Uvalde County","admin2":"463","localeAltName":null},{"geonameid":5532889,"name":"Val Verde County","admin2":"465","localeAltName":null},{"geonameid":4738915,"name":"Van Zandt County","admin2":"467","localeAltName":null},{"geonameid":4739167,"name":"Victoria County","admin2":"469","localeAltName":null},{"geonameid":4739690,"name":"Walker County","admin2":"471","localeAltName":null},{"geonameid":4739804,"name":"Waller County","admin2":"473","localeAltName":null},{"geonameid":5533109,"name":"Ward County","admin2":"475","localeAltName":null},{"geonameid":4740157,"name":"Washington County","admin2":"477","localeAltName":null},{"geonameid":4740399,"name":"Webb County","admin2":"479","localeAltName":null},{"geonameid":4741328,"name":"Wharton County","admin2":"481","localeAltName":null},{"geonameid":5533544,"name":"Wheeler County","admin2":"483","localeAltName":null},{"geonameid":4741751,"name":"Wichita County","admin2":"485","localeAltName":null},{"geonameid":4741797,"name":"Wilbarger County","admin2":"487","localeAltName":null},{"geonameid":4741939,"name":"Willacy County","admin2":"489","localeAltName":null},{"geonameid":4742143,"name":"Williamson County","admin2":"491","localeAltName":null},{"geonameid":4742425,"name":"Wilson County","admin2":"493","localeAltName":null},{"geonameid":5534055,"name":"Winkler County","admin2":"495","localeAltName":null},{"geonameid":4742676,"name":"Wise County","admin2":"497","localeAltName":null},{"geonameid":4742850,"name":"Wood County","admin2":"499","localeAltName":null},{"geonameid":5534225,"name":"Yoakum County","admin2":"501","localeAltName":null},{"geonameid":4743474,"name":"Young County","admin2":"503","localeAltName":null},{"geonameid":4743577,"name":"Zapata County","admin2":"505","localeAltName":null},{"geonameid":4743595,"name":"Zavala County","admin2":"507","localeAltName":null}],"admin3":[],"country":{"geonameid":6252001,"country":"US","name":"United States","localeAltName":null},"alternateNames":[{"alternatenameId":1614423,"geonameid":4736286,"isoLanguage":"en","alternateName":"Texas","isPreferredName":true,"isShortName":true,"isColloquial":false,"isHistoric":false},{"alternatenameId":2422318,"geonameid":6252001,"isoLanguage":"de","alternateName":"USA","isPreferredName":true,"isShortName":true,"isColloquial":false,"isHistoric":false}]},"__N_SSG":true}