{"pageProps":{"locale":"en","admin2":{"geonameid":5233146,"name":"Addison County","country":"US","admin1":"VT","admin2":"001","admin3":"","latitude":"44.0309100","longitude":"-73.1409400"},"admin1":{"geonameid":5242283,"name":"Vermont","admin1":"VT","localeAltName":"Vermont"},"locations":[{"geonameid":5233143,"name":"Addison","admin3":"00325"},{"geonameid":5233864,"name":"Bridport","admin3":""},{"geonameid":5234183,"name":"Bristol","admin3":"09025"},{"geonameid":5236108,"name":"Ferrisburgh","admin3":"26300"},{"geonameid":5237906,"name":"Leicester","admin3":"39325"},{"geonameid":5237960,"name":"Lincoln","admin3":"40075"},{"geonameid":5238499,"name":"Middlebury (village)","admin3":"44350"},{"geonameid":5240760,"name":"Salisbury","admin3":"62575"},{"geonameid":5241507,"name":"Starksboro","admin3":"70075"},{"geonameid":5242224,"name":"Vergennes","admin3":"74650"}],"admin3":[{"geonameid":5233148,"name":"Town of Addison","admin3":"00325"},{"geonameid":5234196,"name":"Town of Bristol","admin3":"09025"},{"geonameid":5235181,"name":"Town of Cornwall","admin3":"16000"},{"geonameid":5236110,"name":"Town of Ferrisburgh","admin3":"26300"},{"geonameid":5236495,"name":"Town of Goshen","admin3":"28600"},{"geonameid":5236568,"name":"Town of Granville","admin3":"29575"},{"geonameid":5236798,"name":"Town of Hancock","admin3":"31525"},{"geonameid":5237914,"name":"Town of Leicester","admin3":"39325"},{"geonameid":5237977,"name":"Town of Lincoln","admin3":"40075"},{"geonameid":5238519,"name":"Town of Middlebury","admin3":"44350"},{"geonameid":5238669,"name":"Town of Monkton","admin3":"45550"},{"geonameid":5239028,"name":"Town of New Haven","admin3":"48700"},{"geonameid":5239537,"name":"Town of Orwell","admin3":"53725"},{"geonameid":5239609,"name":"Town of Panton","admin3":"53950"},{"geonameid":5240306,"name":"Town of Ripton","admin3":"59650"},{"geonameid":5240768,"name":"Town of Salisbury","admin3":"62575"},{"geonameid":5241082,"name":"Town of Shoreham","admin3":"65050"},{"geonameid":5241509,"name":"Town of Starksboro","admin3":"70075"},{"geonameid":5242237,"name":"City of Vergennes","admin3":"74650"},{"geonameid":5242479,"name":"Town of Waltham","admin3":"76075"},{"geonameid":5242840,"name":"Town of Weybridge","admin3":"83275"},{"geonameid":5242917,"name":"Town of Whiting","admin3":"83800"}],"alternateNames":[{"alternatenameId":1979591,"geonameid":5242283,"isoLanguage":"en","alternateName":"Vermont","isPreferredName":true,"isShortName":true,"isColloquial":false,"isHistoric":false}]},"__N_SSG":true}