{"pageProps":{"locale":"en","admin2":{"geonameid":5234861,"name":"Chittenden County","country":"US","admin1":"VT","admin2":"007","admin3":"","latitude":"44.4609800","longitude":"-73.0809200"},"admin1":{"geonameid":5242283,"name":"Vermont","admin1":"VT","localeAltName":"Vermont"},"locations":[{"geonameid":5234372,"name":"Burlington","admin3":"10675"},{"geonameid":5234793,"name":"Charlotte","admin3":"13300"},{"geonameid":5235024,"name":"Colchester","admin3":"14875"},{"geonameid":5235952,"name":"Essex Junction","admin3":"24175"},{"geonameid":5237056,"name":"Hinesburg","admin3":"33475"},{"geonameid":5237476,"name":"Jericho","admin3":"36700"},{"geonameid":5238609,"name":"Milton","admin3":"45250"},{"geonameid":5241248,"name":"South Burlington","admin3":"66175"},{"geonameid":5243008,"name":"Williston","admin3":"84475"},{"geonameid":5243081,"name":"Winooski","admin3":"85150"}],"admin3":[{"geonameid":5233998,"name":"Town of Bolton","admin3":"06550"},{"geonameid":5234386,"name":"City of Burlington","admin3":"10675"},{"geonameid":5234798,"name":"Town of Charlotte","admin3":"13300"},{"geonameid":5235036,"name":"Town of Colchester","admin3":"14875"},{"geonameid":5235959,"name":"Town of Essex","admin3":"24175"},{"geonameid":5237061,"name":"Town of Hinesburg","admin3":"33475"},{"geonameid":5237259,"name":"Town of Huntington","admin3":"34600"},{"geonameid":5237484,"name":"Town of Jericho","admin3":"36700"},{"geonameid":5238617,"name":"Town of Milton","admin3":"45250"},{"geonameid":5240282,"name":"Town of Richmond","admin3":"59275"},{"geonameid":5240634,"name":"Town of Saint George","admin3":"62050"},{"geonameid":5241027,"name":"Town of Shelburne","admin3":"64300"},{"geonameid":5241251,"name":"City of South Burlington","admin3":"66175"},{"geonameid":5242126,"name":"Town of Underhill","admin3":"73975"},{"geonameid":5242807,"name":"Town of Westford","admin3":"80350"},{"geonameid":5243014,"name":"Town of Williston","admin3":"84475"},{"geonameid":5243093,"name":"City of Winooski","admin3":"85150"}],"alternateNames":[{"alternatenameId":1979591,"geonameid":5242283,"isoLanguage":"en","alternateName":"Vermont","isPreferredName":true,"isShortName":true,"isColloquial":false,"isHistoric":false}]},"__N_SSG":true}