{"pageProps":{"locale":"en","admin2":{"geonameid":5239520,"name":"Orleans County","country":"US","admin1":"VT","admin2":"019","admin3":"","latitude":"44.8288100","longitude":"-72.2438100"},"admin1":{"geonameid":5242283,"name":"Vermont","admin1":"VT","localeAltName":"Vermont"},"locations":[{"geonameid":5239058,"name":"Newport","admin3":"48850"}],"admin3":[{"geonameid":5233171,"name":"Town of Albany","admin3":"00475"},{"geonameid":5233534,"name":"Town of Barton","admin3":"03550"},{"geonameid":5234272,"name":"Town of Brownington","admin3":"09850"},{"geonameid":5234792,"name":"Town of Charleston","admin3":"13150"},{"geonameid":5235200,"name":"Town of Coventry","admin3":"16150"},{"geonameid":5235231,"name":"Town of Craftsbury","admin3":"16300"},{"geonameid":5235449,"name":"Town of Derby","admin3":"17350"},{"geonameid":5236444,"name":"Town of Glover","admin3":"28075"},{"geonameid":5236650,"name":"Town of Greensboro","admin3":"30175"},{"geonameid":5237104,"name":"Town of Holland","admin3":"33775"},{"geonameid":5237389,"name":"Town of Irasburg","admin3":"35575"},{"geonameid":5237452,"name":"Town of Jay","admin3":"36325"},{"geonameid":5238127,"name":"Town of Lowell","admin3":"40525"},{"geonameid":5238739,"name":"Town of Morgan","admin3":"46450"},{"geonameid":5239068,"name":"City of Newport","admin3":"48850"},{"geonameid":5239069,"name":"Town of Newport","admin3":"48925"},{"geonameid":5242065,"name":"Town of Troy","admin3":"73525"},{"geonameid":5242801,"name":"Town of Westfield","admin3":"80200"},{"geonameid":5242820,"name":"Town of Westmore","admin3":"81700"}],"alternateNames":[{"alternatenameId":1979591,"geonameid":5242283,"isoLanguage":"en","alternateName":"Vermont","isPreferredName":true,"isShortName":true,"isColloquial":false,"isHistoric":false}]},"__N_SSG":true}