{"pageProps":{"locale":"en","admin2":{"geonameid":5243051,"name":"Windham County","country":"US","admin1":"VT","admin2":"025","admin3":"","latitude":"42.9905900","longitude":"-72.7138400"},"admin1":{"geonameid":5242283,"name":"Vermont","admin1":"VT","localeAltName":"Vermont"},"locations":[{"geonameid":5233738,"name":"Bellows Falls","admin3":"60250"},{"geonameid":5234141,"name":"Brattleboro","admin3":"07900"},{"geonameid":5235519,"name":"Dover","admin3":"17875"},{"geonameid":5237436,"name":"Jamaica","admin3":"36175"},{"geonameid":5238077,"name":"Londonderry","admin3":"40225"},{"geonameid":5240399,"name":"Rockingham","admin3":"60250"},{"geonameid":5242023,"name":"Townshend","admin3":"73300"},{"geonameid":5242657,"name":"West Brattleboro","admin3":"07900"}],"admin3":[{"geonameid":5233320,"name":"Town of Athens","admin3":"01900"},{"geonameid":5234135,"name":"Town of Brattleboro","admin3":"07900"},{"geonameid":5234231,"name":"Town of Brookline","admin3":"09475"},{"geonameid":5235528,"name":"Town of Dover","admin3":"17875"},{"geonameid":5235581,"name":"Town of Dummerston","admin3":"18325"},{"geonameid":5236528,"name":"Town of Grafton","admin3":"28900"},{"geonameid":5236709,"name":"Town of Guilford","admin3":"30925"},{"geonameid":5236754,"name":"Town of Halifax","admin3":"31150"},{"geonameid":5237440,"name":"Town of Jamaica","admin3":"36175"},{"geonameid":5238063,"name":"Town of Londonderry","admin3":"40225"},{"geonameid":5238336,"name":"Town of Marlboro","admin3":"43375"},{"geonameid":5239057,"name":"Town of Newfane","admin3":"48400"},{"geonameid":5240091,"name":"Town of Putney","admin3":"57700"},{"geonameid":5240405,"name":"Town of Rockingham","admin3":"60250"},{"geonameid":5241212,"name":"Town of Somerset","admin3":"65762"},{"geonameid":5241660,"name":"Town of Stratton","admin3":"70750"},{"geonameid":5242029,"name":"Town of Townshend","admin3":"73300"},{"geonameid":5242290,"name":"Town of Vernon","admin3":"74800"},{"geonameid":5242500,"name":"Town of Wardsboro","admin3":"76225"},{"geonameid":5242818,"name":"Town of Westminster","admin3":"81400"},{"geonameid":5242920,"name":"Town of Whitingham","admin3":"83950"},{"geonameid":5243037,"name":"Town of Wilmington","admin3":"84700"},{"geonameid":5243054,"name":"Town of Windham","admin3":"84850"}],"alternateNames":[{"alternatenameId":1979591,"geonameid":5242283,"isoLanguage":"en","alternateName":"Vermont","isPreferredName":true,"isShortName":true,"isColloquial":false,"isHistoric":false}]},"__N_SSG":true}