{"pageProps":{"locale":"en","admin1":{"geonameid":6254928,"name":"Virginia","country":"US","admin1":"VA","latitude":"37.5481200","longitude":"-77.4467500","localeAltName":"Virginia"},"admin2":[{"geonameid":4743865,"name":"Accomack County","admin2":"001","localeAltName":null},{"geonameid":4744031,"name":"Albemarle County","admin2":"003","localeAltName":null},{"geonameid":4744139,"name":"Alleghany County","admin2":"005","localeAltName":null},{"geonameid":4744308,"name":"Amelia County","admin2":"007","localeAltName":null},{"geonameid":4744328,"name":"Amherst County","admin2":"009","localeAltName":null},{"geonameid":4744616,"name":"Appomattox County","admin2":"011","localeAltName":null},{"geonameid":4744725,"name":"Arlington County","admin2":"013","localeAltName":null},{"geonameid":4745015,"name":"Augusta County","admin2":"015","localeAltName":null},{"geonameid":4745776,"name":"Bath County","admin2":"017","localeAltName":null},{"geonameid":4746270,"name":"Bedford County","admin2":"019","localeAltName":null},{"geonameid":4747931,"name":"Bland County","admin2":"021","localeAltName":null},{"geonameid":4748452,"name":"Botetourt County","admin2":"023","localeAltName":null},{"geonameid":4749396,"name":"Brunswick County","admin2":"025","localeAltName":null},{"geonameid":4749535,"name":"Buchanan County","admin2":"027","localeAltName":null},{"geonameid":4749657,"name":"Buckingham County","admin2":"029","localeAltName":null},{"geonameid":4750738,"name":"Campbell County","admin2":"031","localeAltName":null},{"geonameid":4751013,"name":"Caroline County","admin2":"033","localeAltName":null},{"geonameid":4751058,"name":"Carroll County","admin2":"035","localeAltName":null},{"geonameid":4752002,"name":"Charles City County","admin2":"036","localeAltName":null},{"geonameid":4752025,"name":"Charlotte County","admin2":"037","localeAltName":null},{"geonameid":4752255,"name":"Chesterfield County","admin2":"041","localeAltName":null},{"geonameid":4744106,"name":"City of Alexandria","admin2":"510","localeAltName":null},{"geonameid":4749005,"name":"City of Bristol","admin2":"520","localeAltName":null},{"geonameid":4749725,"name":"City of Buena Vista","admin2":"530","localeAltName":null},{"geonameid":4752046,"name":"City of Charlottesville","admin2":"540","localeAltName":null},{"geonameid":4752215,"name":"City of Chesapeake","admin2":"550","localeAltName":null},{"geonameid":4753684,"name":"City of Colonial Heights","admin2":"570","localeAltName":null},{"geonameid":4754373,"name":"City of Covington","admin2":"580","localeAltName":null},{"geonameid":4755298,"name":"City of Danville","admin2":"590","localeAltName":null},{"geonameid":4757688,"name":"City of Emporia","admin2":"595","localeAltName":null},{"geonameid":4758109,"name":"City of Fairfax","admin2":"600","localeAltName":null},{"geonameid":4758398,"name":"City of Falls Church","admin2":"610","localeAltName":null},{"geonameid":4760031,"name":"City of Franklin","admin2":"620","localeAltName":null},{"geonameid":4760084,"name":"City of Fredericksburg","admin2":"630","localeAltName":null},{"geonameid":4760382,"name":"City of Galax","admin2":"640","localeAltName":null},{"geonameid":4762929,"name":"City of Hampton","admin2":"650","localeAltName":null},{"geonameid":4763237,"name":"City of Harrisonburg","admin2":"660","localeAltName":null},{"geonameid":4764849,"name":"City of Hopewell","admin2":"670","localeAltName":null},{"geonameid":4769352,"name":"City of Lexington","admin2":"678","localeAltName":null},{"geonameid":4771099,"name":"City of Lynchburg","admin2":"680","localeAltName":null},{"geonameid":4771426,"name":"City of Manassas","admin2":"683","localeAltName":null},{"geonameid":4771421,"name":"City of Manassas Park","admin2":"685","localeAltName":"Manassas Park"},{"geonameid":4771819,"name":"City of Martinsville","admin2":"690","localeAltName":null},{"geonameid":4776037,"name":"City of Newport News","admin2":"700","localeAltName":null},{"geonameid":4776242,"name":"City of Norfolk","admin2":"710","localeAltName":null},{"geonameid":4776591,"name":"City of Norton","admin2":"720","localeAltName":null},{"geonameid":4778642,"name":"City of Petersburg","admin2":"730","localeAltName":null},{"geonameid":4779934,"name":"City of Poquoson","admin2":"735","localeAltName":null},{"geonameid":4780019,"name":"City of Portsmouth","admin2":"740","localeAltName":null},{"geonameid":4780851,"name":"City of Radford","admin2":"750","localeAltName":null},{"geonameid":4781756,"name":"City of Richmond","admin2":"760","localeAltName":null},{"geonameid":4782241,"name":"City of Roanoke","admin2":"770","localeAltName":null},{"geonameid":4784205,"name":"City of Salem","admin2":"775","localeAltName":null},{"geonameid":4787467,"name":"City of Staunton","admin2":"790","localeAltName":null},{"geonameid":4788160,"name":"City of Suffolk","admin2":"800","localeAltName":null},{"geonameid":4791271,"name":"City of Virginia Beach","admin2":"810","localeAltName":null},{"geonameid":4792534,"name":"City of Waynesboro","admin2":"820","localeAltName":null},{"geonameid":4793872,"name":"City of Williamsburg","admin2":"830","localeAltName":null},{"geonameid":4794134,"name":"City of Winchester","admin2":"840","localeAltName":null},{"geonameid":4752978,"name":"Clarke County","admin2":"043","localeAltName":null},{"geonameid":4754544,"name":"Craig County","admin2":"045","localeAltName":null},{"geonameid":4754972,"name":"Culpeper County","admin2":"047","localeAltName":null},{"geonameid":4754992,"name":"Cumberland County","admin2":"049","localeAltName":null},{"geonameid":4755865,"name":"Dickenson County","admin2":"051","localeAltName":null},{"geonameid":4755976,"name":"Dinwiddie County","admin2":"053","localeAltName":null},{"geonameid":4757844,"name":"Essex County","admin2":"057","localeAltName":null},{"geonameid":4758041,"name":"Fairfax County","admin2":"059","localeAltName":null},{"geonameid":4758541,"name":"Fauquier County","admin2":"061","localeAltName":null},{"geonameid":4759449,"name":"Floyd County","admin2":"063","localeAltName":null},{"geonameid":4759468,"name":"Fluvanna County","admin2":"065","localeAltName":null},{"geonameid":4759996,"name":"Franklin County","admin2":"067","localeAltName":null},{"geonameid":4760052,"name":"Frederick County","admin2":"069","localeAltName":null},{"geonameid":4760832,"name":"Giles County","admin2":"071","localeAltName":null},{"geonameid":4761164,"name":"Gloucester County","admin2":"073","localeAltName":null},{"geonameid":4761280,"name":"Goochland County","admin2":"075","localeAltName":null},{"geonameid":4761913,"name":"Grayson County","admin2":"077","localeAltName":null},{"geonameid":4762187,"name":"Greene County","admin2":"079","localeAltName":null},{"geonameid":4762246,"name":"Greensville County","admin2":"081","localeAltName":null},{"geonameid":4762757,"name":"Halifax County","admin2":"083","localeAltName":null},{"geonameid":4762988,"name":"Hanover County","admin2":"085","localeAltName":null},{"geonameid":4763688,"name":"Henrico County","admin2":"087","localeAltName":null},{"geonameid":4763710,"name":"Henry County","admin2":"089","localeAltName":null},{"geonameid":4764100,"name":"Highland County","admin2":"091","localeAltName":null},{"geonameid":4766205,"name":"Isle of Wight County","admin2":"093","localeAltName":null},{"geonameid":4766447,"name":"James City County","admin2":"095","localeAltName":null},{"geonameid":4767793,"name":"King and Queen County","admin2":"097","localeAltName":null},{"geonameid":4767772,"name":"King George County","admin2":"099","localeAltName":null},{"geonameid":4767790,"name":"King William County","admin2":"101","localeAltName":null},{"geonameid":4768515,"name":"Lancaster County","admin2":"103","localeAltName":null},{"geonameid":4769028,"name":"Lee County","admin2":"105","localeAltName":null},{"geonameid":4770746,"name":"Loudoun County","admin2":"107","localeAltName":null},{"geonameid":4770767,"name":"Louisa County","admin2":"109","localeAltName":null},{"geonameid":4771000,"name":"Lunenburg County","admin2":"111","localeAltName":null},{"geonameid":4771240,"name":"Madison County","admin2":"113","localeAltName":null},{"geonameid":4771977,"name":"Mathews County","admin2":"115","localeAltName":null},{"geonameid":4772586,"name":"Mecklenburg County","admin2":"117","localeAltName":null},{"geonameid":4772915,"name":"Middlesex County","admin2":"119","localeAltName":null},{"geonameid":4773711,"name":"Montgomery County","admin2":"121","localeAltName":null},{"geonameid":4775610,"name":"Nelson County","admin2":"125","localeAltName":null},{"geonameid":4775834,"name":"New Kent County","admin2":"127","localeAltName":null},{"geonameid":4776500,"name":"Northampton County","admin2":"131","localeAltName":null},{"geonameid":4776564,"name":"Northumberland County","admin2":"133","localeAltName":null},{"geonameid":4776629,"name":"Nottoway County","admin2":"135","localeAltName":null},{"geonameid":4777457,"name":"Orange County","admin2":"137","localeAltName":null},{"geonameid":4777756,"name":"Page County","admin2":"139","localeAltName":null},{"geonameid":4778096,"name":"Patrick County","admin2":"141","localeAltName":null},{"geonameid":4779336,"name":"Pittsylvania County","admin2":"143","localeAltName":null},{"geonameid":4780225,"name":"Powhatan County","admin2":"145","localeAltName":null},{"geonameid":4780362,"name":"Prince Edward County","admin2":"147","localeAltName":null},{"geonameid":4780374,"name":"Prince George County","admin2":"149","localeAltName":null},{"geonameid":4780384,"name":"Prince William County","admin2":"153","localeAltName":null},{"geonameid":4780581,"name":"Pulaski County","admin2":"155","localeAltName":null},{"geonameid":4781039,"name":"Rappahannock County","admin2":"157","localeAltName":null},{"geonameid":4781725,"name":"Richmond County","admin2":"159","localeAltName":null},{"geonameid":4782181,"name":"Roanoke County","admin2":"161","localeAltName":null},{"geonameid":4782531,"name":"Rockbridge County","admin2":"163","localeAltName":null},{"geonameid":4782579,"name":"Rockingham County","admin2":"165","localeAltName":null},{"geonameid":4783267,"name":"Russell County","admin2":"167","localeAltName":null},{"geonameid":4784660,"name":"Scott County","admin2":"169","localeAltName":null},{"geonameid":4785252,"name":"Shenandoah County","admin2":"171","localeAltName":null},{"geonameid":4786352,"name":"Smyth County","admin2":"173","localeAltName":null},{"geonameid":4786735,"name":"Southampton County","admin2":"175","localeAltName":null},{"geonameid":4786949,"name":"Spotsylvania County","admin2":"177","localeAltName":null},{"geonameid":4787248,"name":"Stafford County","admin2":"179","localeAltName":null},{"geonameid":4788433,"name":"Surry County","admin2":"181","localeAltName":null},{"geonameid":4788448,"name":"Sussex County","admin2":"183","localeAltName":null},{"geonameid":4788970,"name":"Tazewell County","admin2":"185","localeAltName":null},{"geonameid":4792238,"name":"Warren County","admin2":"187","localeAltName":null},{"geonameid":4792315,"name":"Washington County","admin2":"191","localeAltName":null},{"geonameid":4793032,"name":"Westmoreland County","admin2":"193","localeAltName":null},{"geonameid":4794277,"name":"Wise County","admin2":"195","localeAltName":null},{"geonameid":4794827,"name":"Wythe County","admin2":"197","localeAltName":null},{"geonameid":4794943,"name":"York County","admin2":"199","localeAltName":null}],"admin3":[],"country":{"geonameid":6252001,"country":"US","name":"United States","localeAltName":null},"alternateNames":[{"alternatenameId":13662677,"geonameid":4771421,"isoLanguage":"en","alternateName":"Manassas Park","isPreferredName":true,"isShortName":true,"isColloquial":false,"isHistoric":false},{"alternatenameId":2422318,"geonameid":6252001,"isoLanguage":"de","alternateName":"USA","isPreferredName":true,"isShortName":true,"isColloquial":false,"isHistoric":false},{"alternatenameId":6755491,"geonameid":6254928,"isoLanguage":"en","alternateName":"Virginia","isPreferredName":true,"isShortName":true,"isColloquial":false,"isHistoric":false}]},"__N_SSG":true}