{"pageProps":{"locale":"en","admin2":{"geonameid":11353078,"name":"Mid and East Antrim","country":"GB","admin1":"NIR","admin2":"N09000008","admin3":"","latitude":"54.8743600","longitude":"-6.1014100"},"admin1":{"geonameid":2641364,"name":"Northern Ireland","admin1":"NIR"},"locations":[{"geonameid":2657634,"name":"Ahoghill"},{"geonameid":2656533,"name":"Ballycarry"},{"geonameid":2656525,"name":"Ballycloghan"},{"geonameid":6620350,"name":"Ballygalley"},{"geonameid":6692247,"name":"Ballygally"},{"geonameid":2655973,"name":"Ballyhill"},{"geonameid":2656497,"name":"Ballylumford"},{"geonameid":2656490,"name":"Ballymena"},{"geonameid":2655931,"name":"Beltoy"},{"geonameid":2654515,"name":"Broughshane"},{"geonameid":2653797,"name":"Cargan"},{"geonameid":2653723,"name":"Carncastle"},{"geonameid":2653712,"name":"Carnlough"},{"geonameid":2653680,"name":"Carrickfergus"},{"geonameid":2652807,"name":"Clogh"},{"geonameid":2652445,"name":"Connor"},{"geonameid":2651738,"name":"Cullybackey"},{"geonameid":2650834,"name":"Duffstown"},{"geonameid":2650252,"name":"Eden"},{"geonameid":2648925,"name":"Galdanagh"},{"geonameid":2648923,"name":"Galgorm"},{"geonameid":2648536,"name":"Glenarm"},{"geonameid":2648450,"name":"Glenoe"},{"geonameid":2648386,"name":"Glynn"},{"geonameid":2648248,"name":"Gracehill"},{"geonameid":2648210,"name":"Gransha"},{"geonameid":2647957,"name":"Greenisland"},{"geonameid":2647233,"name":"Headwood"},{"geonameid":2646046,"name":"Irish Omerbane"},{"geonameid":2645862,"name":"Kells"},{"geonameid":2645553,"name":"Kilroot"},{"geonameid":2645137,"name":"Knockanully"},{"geonameid":2644849,"name":"Larne"},{"geonameid":2644399,"name":"Lisrodden"},{"geonameid":2643203,"name":"Magheramorne"},{"geonameid":2642282,"name":"Moorfields"},{"geonameid":2641516,"name":"Newtown Crommelin"},{"geonameid":2640059,"name":"Portglenone"},{"geonameid":2639619,"name":"Rathkenny"},{"geonameid":2639614,"name":"Rathsherry"},{"geonameid":2637190,"name":"Springmount"},{"geonameid":2636140,"name":"Teeshan"},{"geonameid":2638097,"name":"The Sheddings"},{"geonameid":2634095,"name":"Whitehead"},{"geonameid":2634059,"name":"Whitesides Corner"},{"geonameid":2633669,"name":"Woodburn"}],"admin3":[],"alternateNames":[]},"__N_SSG":true}