{"pageProps":{"locale":"ro","admin2":{"geonameid":685743,"name":"Comuna Bala","country":"RO","admin1":"26","admin2":"110296","admin3":"","latitude":"44.8947900","longitude":"22.8323500"},"admin1":{"geonameid":673612,"name":"Mehedinţi","admin1":"26"},"locations":[{"geonameid":685745,"name":"Bala","admin3":""},{"geonameid":685712,"name":"Bala de Sus","admin3":""},{"geonameid":683812,"name":"Brateșul","admin3":""},{"geonameid":683794,"name":"Brativoești","admin3":""},{"geonameid":681843,"name":"Câmpu Mare","admin3":""},{"geonameid":681525,"name":"Cârşu","admin3":""},{"geonameid":681988,"name":"Chiţimi","admin3":""},{"geonameid":681021,"name":"Comănești","admin3":""},{"geonameid":680337,"name":"Crainici","admin3":""},{"geonameid":679400,"name":"Dâlma","admin3":""},{"geonameid":677123,"name":"Giureşti","admin3":""},{"geonameid":675443,"name":"Iupca","admin3":""},{"geonameid":672917,"name":"Molani","admin3":""},{"geonameid":668519,"name":"Rudina","admin3":""},{"geonameid":668471,"name":"Runcușoru","admin3":""},{"geonameid":668001,"name":"Sărdănești","admin3":""},{"geonameid":668000,"name":"Sărdăneştii de Jos","admin3":""},{"geonameid":667998,"name":"Sărdăneştii de Sus","admin3":""},{"geonameid":662974,"name":"Vidimirești","admin3":""}],"admin3":[],"alternateNames":[]},"__N_SSG":true}