{"pageProps":{"locale":"ro","admin2":{"geonameid":669526,"name":"Comuna Prunişor","country":"RO","admin1":"26","admin2":"113233","admin3":"","latitude":"44.6003000","longitude":"22.9047600"},"admin1":{"geonameid":673612,"name":"Mehedinţi","admin1":"26"},"locations":[{"geonameid":686532,"name":"Albina","admin3":""},{"geonameid":686095,"name":"Arvătești","admin3":""},{"geonameid":11000948,"name":"Balota","admin3":""},{"geonameid":684846,"name":"Bâltanele","admin3":""},{"geonameid":682276,"name":"Cervenița","admin3":""},{"geonameid":678903,"name":"Dragotești","admin3":""},{"geonameid":678185,"name":"Fântâna Domnească","admin3":""},{"geonameid":677161,"name":"Gârnița","admin3":""},{"geonameid":677476,"name":"Ghelmegioaia","admin3":""},{"geonameid":676416,"name":"Gutu","admin3":""},{"geonameid":675699,"name":"Igiroasa","admin3":""},{"geonameid":674507,"name":"Lumnic","admin3":""},{"geonameid":674506,"name":"Lumnicu de Sus","admin3":""},{"geonameid":673342,"name":"Mijarca","admin3":""},{"geonameid":669550,"name":"Prunaru","admin3":""},{"geonameid":669528,"name":"Prunişor","admin3":""},{"geonameid":662233,"name":"Zegaia","admin3":""}],"admin3":[],"alternateNames":[]},"__N_SSG":true}