{"pageProps":{"locale":"en","admin2":{"geonameid":4431425,"name":"Jackson County","country":"US","admin1":"MS","admin2":"059","admin3":"","latitude":"30.4628900","longitude":"-88.6228400","localeAltName":null},"admin1":{"geonameid":4436296,"name":"Mississippi","admin1":"MS","localeAltName":"Mississippi"},"locations":[{"geonameid":4418347,"name":"Big Point","admin3":"","localeAltName":null},{"geonameid":4425816,"name":"Escatawpa","admin3":"","localeAltName":null},{"geonameid":4427569,"name":"Gautier","admin3":"","localeAltName":null},{"geonameid":4428654,"name":"Gulf Hills","admin3":"","localeAltName":null},{"geonameid":4428663,"name":"Gulf Park Estates","admin3":"","localeAltName":null},{"geonameid":4429484,"name":"Helena","admin3":"","localeAltName":null},{"geonameid":4429718,"name":"Hickory Hills","admin3":"","localeAltName":null},{"geonameid":4430749,"name":"Hurley","admin3":"","localeAltName":null},{"geonameid":4433016,"name":"Latimer","admin3":"","localeAltName":null},{"geonameid":4436743,"name":"Moss Point","admin3":"","localeAltName":null},{"geonameid":4439506,"name":"Ocean Springs","admin3":"","localeAltName":null},{"geonameid":4440397,"name":"Pascagoula","admin3":"","localeAltName":null},{"geonameid":4447069,"name":"Saint Martin","admin3":"","localeAltName":null},{"geonameid":4449532,"name":"Vancleave","admin3":"","localeAltName":null},{"geonameid":4449994,"name":"Wade","admin3":"","localeAltName":null}],"admin3":[],"alternateNames":[{"alternatenameId":2089554,"geonameid":4436296,"isoLanguage":"en","alternateName":"Mississippi","isPreferredName":true,"isShortName":true,"isColloquial":false,"isHistoric":false}]},"__N_SSG":true}