{"pageProps":{"locale":"en","admin2":{"geonameid":4988934,"name":"Clare County","country":"US","admin1":"MI","admin2":"035","admin3":"","latitude":"43.9878700","longitude":"-84.8478400","localeAltName":null},"admin1":{"geonameid":5001836,"name":"Michigan","admin1":"MI","localeAltName":"Michigan"},"locations":[{"geonameid":4988933,"name":"Clare","admin3":"15920","localeAltName":null},{"geonameid":4992541,"name":"Farwell","admin3":"77580","localeAltName":null},{"geonameid":4995403,"name":"Harrison","admin3":"36800","localeAltName":null}],"admin3":[{"geonameid":4984435,"name":"Township of Arthur","admin3":"03620"},{"geonameid":4988937,"name":"City of Clare","admin3":"15920","localeAltName":null},{"geonameid":4993361,"name":"Township of Franklin","admin3":"30280"},{"geonameid":4993414,"name":"Township of Freeman","admin3":"30560"},{"geonameid":4993512,"name":"Township of Frost","admin3":"30900"},{"geonameid":4993707,"name":"Township of Garfield","admin3":"31560"},{"geonameid":4994442,"name":"Township of Grant","admin3":"34220"},{"geonameid":4994774,"name":"Township of Greenwood","admin3":"35120"},{"geonameid":4995159,"name":"Township of Hamilton","admin3":"36140"},{"geonameid":4995422,"name":"City of Harrison","admin3":"36800","localeAltName":null},{"geonameid":4995549,"name":"Township of Hatton","admin3":"37160"},{"geonameid":4995622,"name":"Township of Hayes","admin3":"37340"},{"geonameid":4999350,"name":"Township of Lincoln","admin3":"47620"},{"geonameid":5006911,"name":"Township of Redding","admin3":"67600"},{"geonameid":5009648,"name":"Township of Sheridan","admin3":"73000"},{"geonameid":5011531,"name":"Township of Summerfield","admin3":"77120"},{"geonameid":5011632,"name":"Township of Surrey","admin3":"77580","localeAltName":null},{"geonameid":5015306,"name":"Township of Winterfield","admin3":"87980"}],"alternateNames":[{"alternatenameId":2124820,"geonameid":5001836,"isoLanguage":"en","alternateName":"Michigan","isPreferredName":true,"isShortName":true,"isColloquial":false,"isHistoric":false}]},"__N_SSG":true}