{"pageProps":{"locale":"en","admin1":{"geonameid":4829764,"name":"Alabama","country":"US","admin1":"AL","latitude":"32.7504100","longitude":"-86.7502600","localeAltName":"Alabama"},"admin2":[{"geonameid":4830868,"name":"Autauga County","admin2":"001"},{"geonameid":4831207,"name":"Baldwin County","admin2":"003"},{"geonameid":4831351,"name":"Barbour County","admin2":"005"},{"geonameid":4049189,"name":"Bibb County","admin2":"007"},{"geonameid":4050633,"name":"Blount County","admin2":"009"},{"geonameid":4052497,"name":"Bullock County","admin2":"011"},{"geonameid":4052744,"name":"Butler County","admin2":"013"},{"geonameid":4053062,"name":"Calhoun County","admin2":"015"},{"geonameid":4054621,"name":"Chambers County","admin2":"017"},{"geonameid":4054880,"name":"Cherokee County","admin2":"019"},{"geonameid":4055067,"name":"Chilton County","admin2":"021"},{"geonameid":4055170,"name":"Choctaw County","admin2":"023"},{"geonameid":4055624,"name":"Clarke County","admin2":"025"},{"geonameid":4055660,"name":"Clay County","admin2":"027"},{"geonameid":4055785,"name":"Cleburne County","admin2":"029"},{"geonameid":4056099,"name":"Coffee County","admin2":"031"},{"geonameid":4056165,"name":"Colbert County","admin2":"033"},{"geonameid":4056592,"name":"Conecuh County","admin2":"035"},{"geonameid":4056809,"name":"Coosa County","admin2":"037"},{"geonameid":4057296,"name":"Covington County","admin2":"039"},{"geonameid":4057517,"name":"Crenshaw County","admin2":"041"},{"geonameid":4057837,"name":"Cullman County","admin2":"043"},{"geonameid":4058052,"name":"Dale County","admin2":"045"},{"geonameid":4058076,"name":"Dallas County","admin2":"047"},{"geonameid":4058479,"name":"DeKalb County","admin2":"049"},{"geonameid":4060563,"name":"Elmore County","admin2":"051"},{"geonameid":4060870,"name":"Escambia County","admin2":"053"},{"geonameid":4060938,"name":"Etowah County","admin2":"055"},{"geonameid":4061590,"name":"Fayette County","admin2":"057"},{"geonameid":4063130,"name":"Franklin County","admin2":"059"},{"geonameid":4063931,"name":"Geneva County","admin2":"061"},{"geonameid":4065243,"name":"Greene County","admin2":"063"},{"geonameid":4065796,"name":"Hale County","admin2":"065"},{"geonameid":4066911,"name":"Henry County","admin2":"067"},{"geonameid":4068296,"name":"Houston County","admin2":"069"},{"geonameid":4069472,"name":"Jackson County","admin2":"071"},{"geonameid":4069696,"name":"Jefferson County","admin2":"073"},{"geonameid":4071676,"name":"Lamar County","admin2":"075"},{"geonameid":4071898,"name":"Lauderdale County","admin2":"077"},{"geonameid":4071959,"name":"Lawrence County","admin2":"079"},{"geonameid":4072098,"name":"Lee County","admin2":"081"},{"geonameid":4072707,"name":"Limestone County","admin2":"083"},{"geonameid":4073885,"name":"Lowndes County","admin2":"085"},{"geonameid":4074246,"name":"Macon County","admin2":"087"},{"geonameid":4074277,"name":"Madison County","admin2":"089"},{"geonameid":4074590,"name":"Marengo County","admin2":"091"},{"geonameid":4074636,"name":"Marion County","admin2":"093"},{"geonameid":4074736,"name":"Marshall County","admin2":"095"},{"geonameid":4076607,"name":"Mobile County","admin2":"097"},{"geonameid":4076706,"name":"Monroe County","admin2":"099"},{"geonameid":4076795,"name":"Montgomery County","admin2":"101"},{"geonameid":4077029,"name":"Morgan County","admin2":"103"},{"geonameid":4082741,"name":"Perry County","admin2":"105"},{"geonameid":4082974,"name":"Pickens County","admin2":"107"},{"geonameid":4083063,"name":"Pike County","admin2":"109"},{"geonameid":4085418,"name":"Randolph County","admin2":"111"},{"geonameid":4047434,"name":"Russell County","admin2":"113"},{"geonameid":4087481,"name":"Saint Clair County","admin2":"115"},{"geonameid":4089551,"name":"Shelby County","admin2":"117"},{"geonameid":4092386,"name":"Sumter County","admin2":"119"},{"geonameid":4092795,"name":"Talladega County","admin2":"121"},{"geonameid":4092827,"name":"Tallapoosa County","admin2":"123"},{"geonameid":4094463,"name":"Tuscaloosa County","admin2":"125"},{"geonameid":4096107,"name":"Walker County","admin2":"127"},{"geonameid":4096449,"name":"Washington County","admin2":"129"},{"geonameid":4097694,"name":"Wilcox County","admin2":"131"},{"geonameid":4098200,"name":"Winston County","admin2":"133"}],"country":{"geonameid":6252001,"country":"US","name":"United States"},"alternateNames":[{"alternatenameId":1632834,"geonameid":4829764,"isoLanguage":"en","alternateName":"Alabama","isPreferredName":true,"isShortName":true,"isColloquial":false,"isHistoric":false}]},"__N_SSG":true}