{"pageProps":{"locale":"en","admin1":{"geonameid":5417618,"name":"Colorado","country":"US","admin1":"CO","latitude":"39.0002700","longitude":"-105.5008300","localeAltName":"Colorado"},"admin2":[{"geonameid":5411363,"name":"Adams County","admin2":"001"},{"geonameid":5550375,"name":"Alamosa County","admin2":"003"},{"geonameid":5412056,"name":"Arapahoe County","admin2":"005"},{"geonameid":5412082,"name":"Archuleta County","admin2":"007"},{"geonameid":5412453,"name":"Baca County","admin2":"009"},{"geonameid":5413481,"name":"Bent County","admin2":"011"},{"geonameid":5574999,"name":"Boulder County","admin2":"013"},{"geonameid":5415040,"name":"Broomfield County","admin2":"014"},{"geonameid":5416621,"name":"Chaffee County","admin2":"015"},{"geonameid":5416840,"name":"Cheyenne County","admin2":"017"},{"geonameid":5417183,"name":"Clear Creek County","admin2":"019"},{"geonameid":5417799,"name":"Conejos County","admin2":"021"},{"geonameid":5418130,"name":"Costilla County","admin2":"023"},{"geonameid":5418687,"name":"Crowley County","admin2":"025"},{"geonameid":5418854,"name":"Custer County","admin2":"027"},{"geonameid":5419338,"name":"Delta County","admin2":"029"},{"geonameid":5419396,"name":"Denver County","admin2":"031"},{"geonameid":5419761,"name":"Dolores County","admin2":"033"},{"geonameid":5419891,"name":"Douglas County","admin2":"035"},{"geonameid":5420332,"name":"Eagle County","admin2":"037"},{"geonameid":5420926,"name":"El Paso County","admin2":"041"},{"geonameid":5420936,"name":"Elbert County","admin2":"039"},{"geonameid":5422448,"name":"Fremont County","admin2":"043"},{"geonameid":5422751,"name":"Garfield County","admin2":"045","localeAltName":"Garfield"},{"geonameid":5422987,"name":"Gilpin County","admin2":"047"},{"geonameid":5577529,"name":"Grand County","admin2":"049"},{"geonameid":5424092,"name":"Gunnison County","admin2":"051"},{"geonameid":5425136,"name":"Hinsdale County","admin2":"053"},{"geonameid":5425737,"name":"Huerfano County","admin2":"055"},{"geonameid":5578418,"name":"Jackson County","admin2":"057"},{"geonameid":5426503,"name":"Jefferson County","admin2":"059"},{"geonameid":5427500,"name":"Kiowa County","admin2":"061"},{"geonameid":5427526,"name":"Kit Carson County","admin2":"063"},{"geonameid":5427717,"name":"La Plata County","admin2":"067"},{"geonameid":5427799,"name":"Lake County","admin2":"065"},{"geonameid":5578884,"name":"Larimer County","admin2":"069"},{"geonameid":5428059,"name":"Las Animas County","admin2":"071"},{"geonameid":5428518,"name":"Lincoln County","admin2":"073"},{"geonameid":5579185,"name":"Logan County","admin2":"075"},{"geonameid":5430806,"name":"Mesa County","admin2":"077"},{"geonameid":5431333,"name":"Mineral County","admin2":"079"},{"geonameid":5579973,"name":"Moffat County","admin2":"081"},{"geonameid":5431680,"name":"Montezuma County","admin2":"083"},{"geonameid":5431716,"name":"Montrose County","admin2":"085"},{"geonameid":5580055,"name":"Morgan County","admin2":"087"},{"geonameid":5433658,"name":"Otero County","admin2":"089"},{"geonameid":5433677,"name":"Ouray County","admin2":"091"},{"geonameid":5433959,"name":"Park County","admin2":"093"},{"geonameid":5580855,"name":"Phillips County","admin2":"095"},{"geonameid":5434773,"name":"Pitkin County","admin2":"097"},{"geonameid":5435436,"name":"Prowers County","admin2":"099"},{"geonameid":5435465,"name":"Pueblo County","admin2":"101"},{"geonameid":5436472,"name":"Rio Blanco County","admin2":"103"},{"geonameid":5436477,"name":"Rio Grande County","admin2":"105"},{"geonameid":5581553,"name":"Routt County","admin2":"107"},{"geonameid":5437350,"name":"Saguache County","admin2":"109"},{"geonameid":5437668,"name":"San Juan County","admin2":"111"},{"geonameid":5437707,"name":"San Miguel County","admin2":"113"},{"geonameid":5581788,"name":"Sedgwick County","admin2":"115"},{"geonameid":5440680,"name":"Summit County","admin2":"117"},{"geonameid":5441188,"name":"Teller County","admin2":"119"},{"geonameid":5443305,"name":"Washington County","admin2":"121"},{"geonameid":5583239,"name":"Weld County","admin2":"123"},{"geonameid":5444907,"name":"Yuma County","admin2":"125"}],"country":{"geonameid":6252001,"country":"US","name":"United States"},"alternateNames":[{"alternatenameId":2089564,"geonameid":5417618,"isoLanguage":"en","alternateName":"Colorado","isPreferredName":true,"isShortName":true,"isColloquial":false,"isHistoric":false},{"alternatenameId":2728995,"geonameid":5422751,"isoLanguage":"en","alternateName":"Garfield","isPreferredName":true,"isShortName":true,"isColloquial":false,"isHistoric":false}]},"__N_SSG":true}