{"pageProps":{"locale":"en","admin1":{"geonameid":5090174,"name":"New Hampshire","country":"US","admin1":"NH","latitude":"43.6670200","longitude":"-71.4998000","localeAltName":"New Hampshire"},"admin2":[{"geonameid":5083273,"name":"Belknap County","admin2":"001"},{"geonameid":5084247,"name":"Carroll County","admin2":"003"},{"geonameid":5084505,"name":"Cheshire County","admin2":"005"},{"geonameid":5084973,"name":"Coos County","admin2":"007"},{"geonameid":5086767,"name":"Grafton County","admin2":"009"},{"geonameid":5087463,"name":"Hillsborough County","admin2":"011"},{"geonameid":5089480,"name":"Merrimack County","admin2":"013"},{"geonameid":5091860,"name":"Rockingham County","admin2":"015"},{"geonameid":5093237,"name":"Strafford County","admin2":"017"},{"geonameid":5093334,"name":"Sullivan County","admin2":"019"}],"country":{"geonameid":6252001,"country":"US","name":"United States"},"alternateNames":[{"alternatenameId":1980215,"geonameid":5090174,"isoLanguage":"en","alternateName":"New Hampshire","isPreferredName":true,"isShortName":true,"isColloquial":false,"isHistoric":false}]},"__N_SSG":true}