{"pageProps":{"locale":"en","admin1":{"geonameid":4662168,"name":"Tennessee","country":"US","admin1":"TN","latitude":"35.7503500","longitude":"-86.2502700","localeAltName":"Tennessee"},"admin2":[{"geonameid":4602643,"name":"Anderson County","admin2":"001"},{"geonameid":4829092,"name":"Bedford County","admin2":"003"},{"geonameid":4605583,"name":"Benton County","admin2":"005"},{"geonameid":4607097,"name":"Bledsoe County","admin2":"007"},{"geonameid":4607192,"name":"Blount County","admin2":"009"},{"geonameid":4608185,"name":"Bradley County","admin2":"011"},{"geonameid":4050506,"name":"Campbell County","admin2":"013"},{"geonameid":4611179,"name":"Cannon County","admin2":"015"},{"geonameid":4611490,"name":"Carroll County","admin2":"017"},{"geonameid":4611599,"name":"Carter County","admin2":"019"},{"geonameid":4612891,"name":"Cheatham County","admin2":"021"},{"geonameid":4613057,"name":"Chester County","admin2":"023"},{"geonameid":4613750,"name":"Claiborne County","admin2":"025"},{"geonameid":4613912,"name":"Clay County","admin2":"027"},{"geonameid":4614441,"name":"Cocke County","admin2":"029"},{"geonameid":4614466,"name":"Coffee County","admin2":"031"},{"geonameid":4616263,"name":"Crockett County","admin2":"033"},{"geonameid":4616678,"name":"Cumberland County","admin2":"035"},{"geonameid":4617305,"name":"Davidson County","admin2":"037"},{"geonameid":4617654,"name":"Decatur County","admin2":"039"},{"geonameid":4617573,"name":"DeKalb County","admin2":"041"},{"geonameid":4618068,"name":"Dickson County","admin2":"043"},{"geonameid":4619773,"name":"Dyer County","admin2":"045"},{"geonameid":4621908,"name":"Fayette County","admin2":"047"},{"geonameid":4621984,"name":"Fentress County","admin2":"049"},{"geonameid":4623574,"name":"Franklin County","admin2":"051"},{"geonameid":4624666,"name":"Gibson County","admin2":"053"},{"geonameid":4624737,"name":"Giles County","admin2":"055"},{"geonameid":4625620,"name":"Grainger County","admin2":"057"},{"geonameid":4626324,"name":"Greene County","admin2":"059"},{"geonameid":4626743,"name":"Grundy County","admin2":"061"},{"geonameid":4627251,"name":"Hamblen County","admin2":"063"},{"geonameid":4627306,"name":"Hamilton County","admin2":"065"},{"geonameid":4627427,"name":"Hancock County","admin2":"067"},{"geonameid":4627590,"name":"Hardeman County","admin2":"069"},{"geonameid":4627625,"name":"Hardin County","admin2":"071"},{"geonameid":4628325,"name":"Hawkins County","admin2":"073"},{"geonameid":4628456,"name":"Haywood County","admin2":"075"},{"geonameid":4628715,"name":"Henderson County","admin2":"077"},{"geonameid":4628829,"name":"Henry County","admin2":"079"},{"geonameid":4629047,"name":"Hickman County","admin2":"081"},{"geonameid":4630950,"name":"Houston County","admin2":"083"},{"geonameid":4631309,"name":"Humphreys County","admin2":"085"},{"geonameid":4632660,"name":"Jackson County","admin2":"087"},{"geonameid":4632934,"name":"Jefferson County","admin2":"089"},{"geonameid":4633430,"name":"Johnson County","admin2":"091"},{"geonameid":4634931,"name":"Knox County","admin2":"093"},{"geonameid":4635138,"name":"Lake County","admin2":"095"},{"geonameid":4635615,"name":"Lauderdale County","admin2":"097"},{"geonameid":4635830,"name":"Lawrence County","admin2":"099"},{"geonameid":4636403,"name":"Lewis County","admin2":"101"},{"geonameid":4636884,"name":"Lincoln County","admin2":"103"},{"geonameid":4638283,"name":"Loudon County","admin2":"105"},{"geonameid":4638991,"name":"Macon County","admin2":"111"},{"geonameid":4639045,"name":"Madison County","admin2":"113"},{"geonameid":4639514,"name":"Marion County","admin2":"115"},{"geonameid":4639630,"name":"Marshall County","admin2":"117"},{"geonameid":4640041,"name":"Maury County","admin2":"119"},{"geonameid":4640873,"name":"McMinn County","admin2":"107"},{"geonameid":4640921,"name":"McNairy County","admin2":"109"},{"geonameid":4641148,"name":"Meigs County","admin2":"121"},{"geonameid":4642365,"name":"Monroe County","admin2":"123"},{"geonameid":4642445,"name":"Montgomery County","admin2":"125"},{"geonameid":4642600,"name":"Moore County","admin2":"127"},{"geonameid":4642752,"name":"Morgan County","admin2":"129"},{"geonameid":4646779,"name":"Obion County","admin2":"131"},{"geonameid":4647552,"name":"Overton County","admin2":"133"},{"geonameid":4648830,"name":"Perry County","admin2":"135"},{"geonameid":4649175,"name":"Pickett County","admin2":"137"},{"geonameid":4650495,"name":"Polk County","admin2":"139"},{"geonameid":4651744,"name":"Putnam County","admin2":"141"},{"geonameid":4652809,"name":"Rhea County","admin2":"143"},{"geonameid":4653455,"name":"Roane County","admin2":"145"},{"geonameid":4653638,"name":"Robertson County","admin2":"147"},{"geonameid":4654962,"name":"Rutherford County","admin2":"149"},{"geonameid":4656214,"name":"Scott County","admin2":"151"},{"geonameid":4656461,"name":"Sequatchie County","admin2":"153"},{"geonameid":4656568,"name":"Sevier County","admin2":"155"},{"geonameid":4657046,"name":"Shelby County","admin2":"157"},{"geonameid":4658423,"name":"Smith County","admin2":"159"},{"geonameid":4660056,"name":"Stewart County","admin2":"161"},{"geonameid":4660813,"name":"Sullivan County","admin2":"163"},{"geonameid":4661017,"name":"Sumner County","admin2":"165"},{"geonameid":4662784,"name":"Tipton County","admin2":"167"},{"geonameid":4663355,"name":"Trousdale County","admin2":"169"},{"geonameid":4663934,"name":"Unicoi County","admin2":"171"},{"geonameid":4664043,"name":"Union County","admin2":"173"},{"geonameid":4664489,"name":"Van Buren County","admin2":"175"},{"geonameid":4665884,"name":"Warren County","admin2":"177"},{"geonameid":4665975,"name":"Washington County","admin2":"179"},{"geonameid":4666233,"name":"Wayne County","admin2":"181"},{"geonameid":4666265,"name":"Weakley County","admin2":"183"},{"geonameid":4667226,"name":"White County","admin2":"185"},{"geonameid":4668054,"name":"Williamson County","admin2":"187"},{"geonameid":4668271,"name":"Wilson County","admin2":"189"}],"country":{"geonameid":6252001,"country":"US","name":"United States"},"alternateNames":[{"alternatenameId":2089557,"geonameid":4662168,"isoLanguage":"en","alternateName":"Tennessee","isPreferredName":true,"isShortName":true,"isColloquial":false,"isHistoric":false}]},"__N_SSG":true}