{"pageProps":{"locale":"en","admin2":{"geonameid":5106997,"name":"Allegany County","country":"US","admin1":"NY","admin2":"003","admin3":"","latitude":"42.2573900","longitude":"-78.0275600","localeAltName":null},"admin1":{"geonameid":5128638,"name":"New York","admin1":"NY","localeAltName":"New York"},"locations":[{"geonameid":5106955,"name":"Alfred","admin3":"01209","localeAltName":null},{"geonameid":5107059,"name":"Alma","admin3":"01429","localeAltName":null},{"geonameid":5107176,"name":"Andover","admin3":"02154","localeAltName":null},{"geonameid":5107200,"name":"Angelica","admin3":"02187","localeAltName":null},{"geonameid":5108647,"name":"Belfast","admin3":"05573","localeAltName":null},{"geonameid":5108728,"name":"Belmont","admin3":"02011","localeAltName":null},{"geonameid":5109702,"name":"Bolivar","admin3":"07201","localeAltName":null},{"geonameid":5111425,"name":"Canaseraga","admin3":"11253","localeAltName":null},{"geonameid":5114325,"name":"Cuba","admin3":"19367","localeAltName":null},{"geonameid":5117100,"name":"Fillmore","admin3":"36112","localeAltName":null},{"geonameid":5118036,"name":"Friendship","admin3":"27705","localeAltName":null},{"geonameid":5121382,"name":"Houghton","admin3":"12243","localeAltName":null},{"geonameid":5137392,"name":"Scio","admin3":"65772","localeAltName":null},{"geonameid":5139450,"name":"Stannards","admin3":"79103","localeAltName":null},{"geonameid":5143586,"name":"Wellsville","admin3":"79103","localeAltName":null}],"admin3":[{"geonameid":5106961,"name":"Town of Alfred","admin3":"01209","localeAltName":null},{"geonameid":5107033,"name":"Town of Allen","admin3":"01319"},{"geonameid":5107061,"name":"Town of Alma","admin3":"01429","localeAltName":null},{"geonameid":5107064,"name":"Town of Almond","admin3":"01451"},{"geonameid":5107139,"name":"Town of Amity","admin3":"02011","localeAltName":null},{"geonameid":5107178,"name":"Town of Andover","admin3":"02154","localeAltName":null},{"geonameid":5107207,"name":"Town of Angelica","admin3":"02187","localeAltName":null},{"geonameid":5108648,"name":"Town of Belfast","admin3":"05573","localeAltName":null},{"geonameid":5109239,"name":"Town of Birdsall","admin3":"06717"},{"geonameid":5109713,"name":"Town of Bolivar","admin3":"07201","localeAltName":null},{"geonameid":5110812,"name":"Town of Burns","admin3":"11253","localeAltName":null},{"geonameid":5111443,"name":"Town of Caneadea","admin3":"12243","localeAltName":null},{"geonameid":5112048,"name":"Town of Centerville","admin3":"13475"},{"geonameid":5112848,"name":"Town of Clarksville","admin3":"15990"},{"geonameid":5114337,"name":"Town of Cuba","admin3":"19367","localeAltName":null},{"geonameid":5118038,"name":"Town of Friendship","admin3":"27705","localeAltName":null},{"geonameid":5118393,"name":"Town of Genesee","admin3":"28563"},{"geonameid":5119043,"name":"Town of Granger","admin3":"29905"},{"geonameid":5119538,"name":"Town of Grove","admin3":"30994"},{"geonameid":5121570,"name":"Town of Hume","admin3":"36112","localeAltName":null},{"geonameid":5121819,"name":"Town of Independence","admin3":"37297"},{"geonameid":5128512,"name":"Town of New Hudson","admin3":"50375"},{"geonameid":5134638,"name":"Town of Rushford","admin3":"64166"},{"geonameid":5137393,"name":"Town of Scio","admin3":"65772","localeAltName":null},{"geonameid":5143232,"name":"Town of Ward","admin3":"78201"},{"geonameid":5143589,"name":"Town of Wellsville","admin3":"79103","localeAltName":null},{"geonameid":5143625,"name":"Town of West Almond","admin3":"79202"},{"geonameid":5144591,"name":"Town of Willing","admin3":"82095"},{"geonameid":5144834,"name":"Town of Wirt","admin3":"82623"}],"alternateNames":[{"alternatenameId":1980360,"geonameid":5128638,"isoLanguage":"de","alternateName":"New York","isPreferredName":true,"isShortName":true,"isColloquial":false,"isHistoric":false},{"alternatenameId":1980362,"geonameid":5128638,"isoLanguage":"en","alternateName":"New York","isPreferredName":true,"isShortName":true,"isColloquial":false,"isHistoric":false}]},"__N_SSG":true}