{"pageProps":{"locale":"en","admin2":{"geonameid":5125630,"name":"Madison County","country":"US","admin1":"NY","admin2":"053","admin3":"","latitude":"42.9127700","longitude":"-75.6696700","localeAltName":null},"admin1":{"geonameid":5128638,"name":"New York","admin1":"NY","localeAltName":"New York"},"locations":[{"geonameid":5109703,"name":"Bolivar","admin3":"71993","localeAltName":null},{"geonameid":5110132,"name":"Bridgeport","admin3":"71993","localeAltName":null},{"geonameid":5111427,"name":"Canastota","admin3":"41905","localeAltName":null},{"geonameid":5111886,"name":"Cazenovia","admin3":"13156","localeAltName":null},{"geonameid":5112559,"name":"Chittenango","admin3":"71993","localeAltName":null},{"geonameid":5114611,"name":"DeRuyter","admin3":"20401","localeAltName":null},{"geonameid":5115687,"name":"Earlville","admin3":"31720","localeAltName":null},{"geonameid":5118429,"name":"Georgetown","admin3":"28695","localeAltName":null},{"geonameid":5119842,"name":"Hamilton","admin3":"31720","localeAltName":null},{"geonameid":5126836,"name":"Middleport","admin3":"41674","localeAltName":null},{"geonameid":5127561,"name":"Morrisville","admin3":"23305","localeAltName":null},{"geonameid":5129837,"name":"Oneida","admin3":"54837","localeAltName":null},{"geonameid":5143186,"name":"Wampsville","admin3":"41905","localeAltName":null}],"admin3":[{"geonameid":5110291,"name":"Town of Brookfield","admin3":"08587"},{"geonameid":5111890,"name":"Town of Cazenovia","admin3":"13156","localeAltName":null},{"geonameid":5114613,"name":"Town of DeRuyter","admin3":"20401","localeAltName":null},{"geonameid":5116168,"name":"Town of Eaton","admin3":"23305","localeAltName":null},{"geonameid":5117009,"name":"Town of Fenner","admin3":"25593"},{"geonameid":5118431,"name":"Town of Georgetown","admin3":"28695","localeAltName":null},{"geonameid":5119866,"name":"Town of Hamilton","admin3":"31720","localeAltName":null},{"geonameid":5124165,"name":"Town of Lebanon","admin3":"41674","localeAltName":null},{"geonameid":5124238,"name":"Town of Lenox","admin3":"41905","localeAltName":null},{"geonameid":5124481,"name":"Town of Lincoln","admin3":"42422"},{"geonameid":5125643,"name":"Town of Madison","admin3":"44435"},{"geonameid":5128424,"name":"Town of Nelson","admin3":"49770"},{"geonameid":5129845,"name":"City of Oneida","admin3":"54837","localeAltName":null},{"geonameid":5138530,"name":"Town of Smithfield","admin3":"67785"},{"geonameid":5139770,"name":"Town of Stockbridge","admin3":"71399"},{"geonameid":5140142,"name":"Town of Sullivan","admin3":"71993","localeAltName":null}],"alternateNames":[{"alternatenameId":1980360,"geonameid":5128638,"isoLanguage":"de","alternateName":"New York","isPreferredName":true,"isShortName":true,"isColloquial":false,"isHistoric":false},{"alternatenameId":1980362,"geonameid":5128638,"isoLanguage":"en","alternateName":"New York","isPreferredName":true,"isShortName":true,"isColloquial":false,"isHistoric":false}]},"__N_SSG":true}