{"pageProps":{"locale":"en","admin2":{"geonameid":5141045,"name":"Tioga County","country":"US","admin1":"NY","admin2":"107","admin3":"","latitude":"42.1703000","longitude":"-76.3063200","localeAltName":null},"admin1":{"geonameid":5128638,"name":"New York","admin1":"NY","localeAltName":"New York"},"locations":[{"geonameid":5107257,"name":"Apalachin","admin3":"55893","localeAltName":null},{"geonameid":5111436,"name":"Candor","admin3":"12221","localeAltName":null},{"geonameid":5128644,"name":"Newark Valley","admin3":"49913","localeAltName":null},{"geonameid":5130273,"name":"Owego","admin3":"55893","localeAltName":null},{"geonameid":5139142,"name":"Spencer","admin3":"70178","localeAltName":null},{"geonameid":5143435,"name":"Waverly","admin3":"04671","localeAltName":null}],"admin3":[{"geonameid":5108052,"name":"Town of Barton","admin3":"04671","localeAltName":null},{"geonameid":5108862,"name":"Town of Berkshire","admin3":"06145"},{"geonameid":5111438,"name":"Town of Candor","admin3":"12221","localeAltName":null},{"geonameid":5128645,"name":"Town of Newark Valley","admin3":"49913","localeAltName":null},{"geonameid":5128766,"name":"Town of Nichols","admin3":"51121"},{"geonameid":5130276,"name":"Town of Owego","admin3":"55893","localeAltName":null},{"geonameid":5133798,"name":"Town of Richford","admin3":"61511"},{"geonameid":5139151,"name":"Town of Spencer","admin3":"70178","localeAltName":null},{"geonameid":5141052,"name":"Town of Tioga","admin3":"73968"}],"alternateNames":[{"alternatenameId":1980360,"geonameid":5128638,"isoLanguage":"de","alternateName":"New York","isPreferredName":true,"isShortName":true,"isColloquial":false,"isHistoric":false},{"alternatenameId":1980362,"geonameid":5128638,"isoLanguage":"en","alternateName":"New York","isPreferredName":true,"isShortName":true,"isColloquial":false,"isHistoric":false}]},"__N_SSG":true}