{"pageProps":{"locale":"en","admin2":{"geonameid":4074277,"name":"Madison County","country":"US","admin1":"AL","admin2":"089","admin3":"","latitude":"34.7630900","longitude":"-86.5502100"},"admin1":{"geonameid":4829764,"name":"Alabama","admin1":"AL","localeAltName":"Alabama"},"locations":[{"geonameid":4066463,"name":"Harvest","admin3":""},{"geonameid":4066686,"name":"Hazel Green","admin3":""},{"geonameid":4068590,"name":"Huntsville","admin3":""},{"geonameid":4074267,"name":"Madison","admin3":""},{"geonameid":4075854,"name":"Meridianville","admin3":""},{"geonameid":4076982,"name":"Moores Mill","admin3":""},{"geonameid":4079630,"name":"New Hope","admin3":""},{"geonameid":4079916,"name":"New Market","admin3":""},{"geonameid":4081904,"name":"Owens Cross Roads","admin3":""},{"geonameid":7260623,"name":"Redstone Arsenal","admin3":""}],"admin3":[],"alternateNames":[{"alternatenameId":1632834,"geonameid":4829764,"isoLanguage":"en","alternateName":"Alabama","isPreferredName":true,"isShortName":true,"isColloquial":false,"isHistoric":false}]},"__N_SSG":true}