{"pageProps":{"locale":"en","admin2":{"geonameid":4922007,"name":"Jasper County","country":"US","admin1":"IN","admin2":"073","admin3":"","latitude":"41.0230000","longitude":"-87.1161200","localeAltName":null},"admin1":{"geonameid":4921868,"name":"Indiana","admin1":"IN","localeAltName":"Indiana"},"locations":[{"geonameid":4919555,"name":"DeMotte","admin3":"39222","localeAltName":null},{"geonameid":4925304,"name":"Remington","admin3":"10396","localeAltName":null},{"geonameid":4925311,"name":"Rensselaer","admin3":"46944","localeAltName":null},{"geonameid":4928156,"name":"Wheatfield","admin3":"83546","localeAltName":null}],"admin3":[{"geonameid":4917811,"name":"Township of Barkley","admin3":"03412"},{"geonameid":4918737,"name":"Township of Carpenter","admin3":"10396","localeAltName":null},{"geonameid":4920722,"name":"Township of Gillam","admin3":"27684"},{"geonameid":4921129,"name":"Township of Hanging Grove","admin3":"31144"},{"geonameid":4922161,"name":"Township of Jordan","admin3":"38970"},{"geonameid":4922201,"name":"Township of Kankakee","admin3":"39168"},{"geonameid":4922221,"name":"Township of Keener","admin3":"39222","localeAltName":null},{"geonameid":4923220,"name":"Township of Marion","admin3":"46944","localeAltName":null},{"geonameid":4923650,"name":"Township of Milroy","admin3":"49788"},{"geonameid":4924167,"name":"Township of Newton","admin3":"53622"},{"geonameid":4927474,"name":"Township of Union","admin3":"77372"},{"geonameid":4927786,"name":"Township of Walker","admin3":"79640"},{"geonameid":4928157,"name":"Township of Wheatfield","admin3":"83546","localeAltName":null}],"alternateNames":[{"alternatenameId":2124819,"geonameid":4921868,"isoLanguage":"en","alternateName":"Indiana","isPreferredName":true,"isShortName":true,"isColloquial":false,"isHistoric":false}]},"__N_SSG":true}