{"pageProps":{"locale":"en","admin2":{"geonameid":4923252,"name":"Marshall County","country":"US","admin1":"IN","admin2":"099","admin3":"","latitude":"41.3248500","longitude":"-86.2617600","localeAltName":null},"admin1":{"geonameid":4921868,"name":"Indiana","admin1":"IN","localeAltName":"Indiana"},"locations":[{"geonameid":4917661,"name":"Argos","admin3":"79820","localeAltName":null},{"geonameid":4918309,"name":"Bourbon","admin3":"06778","localeAltName":null},{"geonameid":4918363,"name":"Bremen","admin3":"27450","localeAltName":null},{"geonameid":4919466,"name":"Culver","admin3":"77444","localeAltName":null},{"geonameid":4922453,"name":"La Paz","admin3":"54432","localeAltName":null},{"geonameid":4924970,"name":"Plymouth","admin3":"11530","localeAltName":null}],"admin3":[{"geonameid":4918310,"name":"Township of Bourbon","admin3":"06778","localeAltName":null},{"geonameid":4918862,"name":"Township of Center","admin3":"11530","localeAltName":null},{"geonameid":4920694,"name":"Township of German","admin3":"27450","localeAltName":null},{"geonameid":4920940,"name":"Township of Green","admin3":"29178"},{"geonameid":4924280,"name":"Township of North","admin3":"54432","localeAltName":null},{"geonameid":4924977,"name":"Township of Polk","admin3":"60966"},{"geonameid":4927237,"name":"Township of Tippecanoe","admin3":"75878"},{"geonameid":4927477,"name":"Township of Union","admin3":"77444","localeAltName":null},{"geonameid":4927819,"name":"Township of Walnut","admin3":"79820","localeAltName":null},{"geonameid":4928107,"name":"Township of West","admin3":"82304"}],"alternateNames":[{"alternatenameId":2124819,"geonameid":4921868,"isoLanguage":"en","alternateName":"Indiana","isPreferredName":true,"isShortName":true,"isColloquial":false,"isHistoric":false}]},"__N_SSG":true}