{"pageProps":{"locale":"it","admin1":{"geonameid":3174618,"name":"Lombardia","country":"IT","admin1":"09","latitude":"45.6666700","longitude":"9.5000000","localeAltName":"Lombardia"},"admin2":[{"geonameid":3173434,"name":"Citt√† metropolitana di Milano","admin2":"MI","localeAltName":"Milano"},{"geonameid":3182163,"name":"Provincia di Bergamo","admin2":"BG","localeAltName":"Bergamo"},{"geonameid":3181553,"name":"Provincia di Brescia","admin2":"BS","localeAltName":"Brescia"},{"geonameid":3178227,"name":"Provincia di Como","admin2":"CO","localeAltName":"Como"},{"geonameid":3177837,"name":"Provincia di Cremona","admin2":"CR","localeAltName":"Cremona"},{"geonameid":6458616,"name":"Provincia di Lecco","admin2":"LC","localeAltName":"Lecco"},{"geonameid":6458617,"name":"Provincia di Lodi","admin2":"LO","localeAltName":"Lodi"},{"geonameid":3174050,"name":"Provincia di Mantova","admin2":"MN","localeAltName":"Mantova"},{"geonameid":6955700,"name":"Provincia di Monza e della Brianza","admin2":"MB","localeAltName":null},{"geonameid":3171364,"name":"Provincia di Pavia","admin2":"PV","localeAltName":"Pavia"},{"geonameid":3166396,"name":"Provincia di Sondrio","admin2":"SO","localeAltName":"Sondrio"},{"geonameid":3164697,"name":"Provincia di Varese","admin2":"VA","localeAltName":"Varese"}],"admin3":[],"country":{"geonameid":3175395,"country":"IT","name":"Italian Republic","localeAltName":"Italia"},"alternateNames":[{"alternatenameId":2431308,"geonameid":3164697,"isoLanguage":"it","alternateName":"Varese","isPreferredName":true,"isShortName":true,"isColloquial":false,"isHistoric":false},{"alternatenameId":1347793,"geonameid":3166396,"isoLanguage":"it","alternateName":"Sondrio","isPreferredName":true,"isShortName":true,"isColloquial":false,"isHistoric":false},{"alternatenameId":1349324,"geonameid":3171364,"isoLanguage":"it","alternateName":"Pavia","isPreferredName":true,"isShortName":true,"isColloquial":false,"isHistoric":false},{"alternatenameId":1349944,"geonameid":3173434,"isoLanguage":"de","alternateName":"Mailand","isPreferredName":true,"isShortName":true,"isColloquial":false,"isHistoric":false},{"alternatenameId":1349946,"geonameid":3173434,"isoLanguage":"it","alternateName":"Milano","isPreferredName":true,"isShortName":true,"isColloquial":false,"isHistoric":false},{"alternatenameId":1350143,"geonameid":3174050,"isoLanguage":"it","alternateName":"Mantova","isPreferredName":true,"isShortName":true,"isColloquial":false,"isHistoric":false},{"alternatenameId":1350145,"geonameid":3174050,"isoLanguage":"de","alternateName":"Mantua","isPreferredName":true,"isShortName":true,"isColloquial":false,"isHistoric":false},{"alternatenameId":1350323,"geonameid":3174618,"isoLanguage":"it","alternateName":"Lombardia","isPreferredName":true,"isShortName":true,"isColloquial":false,"isHistoric":false},{"alternatenameId":1563662,"geonameid":3175395,"isoLanguage":"it","alternateName":"Italia","isPreferredName":true,"isShortName":true,"isColloquial":false,"isHistoric":false},{"alternatenameId":1351422,"geonameid":3177837,"isoLanguage":"it","alternateName":"Cremona","isPreferredName":true,"isShortName":true,"isColloquial":false,"isHistoric":false},{"alternatenameId":1351516,"geonameid":3178227,"isoLanguage":"it","alternateName":"Como","isPreferredName":true,"isShortName":true,"isColloquial":false,"isHistoric":false},{"alternatenameId":1352420,"geonameid":3181553,"isoLanguage":"it","alternateName":"Brescia","isPreferredName":true,"isShortName":true,"isColloquial":false,"isHistoric":false},{"alternatenameId":1352592,"geonameid":3182163,"isoLanguage":"it","alternateName":"Bergamo","isPreferredName":true,"isShortName":true,"isColloquial":false,"isHistoric":false},{"alternatenameId":8411947,"geonameid":6458616,"isoLanguage":"it","alternateName":"Lecco","isPreferredName":true,"isShortName":true,"isColloquial":false,"isHistoric":false},{"alternatenameId":2431300,"geonameid":6458617,"isoLanguage":"it","alternateName":"Lodi","isPreferredName":true,"isShortName":true,"isColloquial":false,"isHistoric":false}]},"__N_SSG":true}