{"pageProps":{"locale":"en","admin2":{"geonameid":4176559,"name":"Volusia County","country":"US","admin1":"FL","admin2":"127","admin3":"","latitude":"29.0634500","longitude":"-81.1485700","localeAltName":null},"admin1":{"geonameid":4155751,"name":"Florida","admin1":"FL","localeAltName":"Florida"},"locations":[{"geonameid":4152872,"name":"Daytona Beach","admin3":"","localeAltName":null},{"geonameid":4152881,"name":"Daytona Beach Shores","admin3":"","localeAltName":null},{"geonameid":7259674,"name":"De Land Southwest","admin3":"","localeAltName":null},{"geonameid":4152898,"name":"De Leon Springs","admin3":"","localeAltName":null},{"geonameid":4152926,"name":"DeBary","admin3":"","localeAltName":null},{"geonameid":4152890,"name":"DeLand","admin3":"","localeAltName":null},{"geonameid":4153146,"name":"Deltona","admin3":"","localeAltName":null},{"geonameid":4154205,"name":"Edgewater","admin3":"","localeAltName":null},{"geonameid":4156844,"name":"Glencoe","admin3":"","localeAltName":null},{"geonameid":4158914,"name":"Holly Hill","admin3":"","localeAltName":null},{"geonameid":4161254,"name":"Lake Helen","admin3":"","localeAltName":null},{"geonameid":4165913,"name":"New Smyrna Beach","admin3":"","localeAltName":null},{"geonameid":4166154,"name":"North DeLand","admin3":"","localeAltName":null},{"geonameid":4166547,"name":"Oak Hill","admin3":"","localeAltName":null},{"geonameid":4167055,"name":"Orange City","admin3":"","localeAltName":null},{"geonameid":4167178,"name":"Ormond Beach","admin3":"","localeAltName":null},{"geonameid":4167190,"name":"Ormond-by-the-Sea","admin3":"","localeAltName":null},{"geonameid":4168371,"name":"Pierson","admin3":"","localeAltName":null},{"geonameid":4169033,"name":"Ponce Inlet","admin3":"","localeAltName":null},{"geonameid":4169156,"name":"Port Orange","admin3":"","localeAltName":null},{"geonameid":7260093,"name":"Samsula-Spruce Creek","admin3":"","localeAltName":null},{"geonameid":4172552,"name":"Seville","admin3":"","localeAltName":null},{"geonameid":4173431,"name":"South Daytona","admin3":"","localeAltName":null},{"geonameid":4177787,"name":"West DeLand","admin3":"","localeAltName":null}],"admin3":[{"geonameid":7169397,"name":"City of Edgewater","admin3":"7169397"},{"geonameid":7169847,"name":"City of Daytona Beach","admin3":"7169847"},{"geonameid":7169848,"name":"City of Daytona Beach Shores","admin3":"7169848"},{"geonameid":7169849,"name":"City of DeBary","admin3":"7169849"},{"geonameid":7169851,"name":"City of DeLand","admin3":"7169851"},{"geonameid":7169860,"name":"City of Deltona","admin3":"7169860"},{"geonameid":7169961,"name":"City of New Smyrna Beach","admin3":"7169961"},{"geonameid":7169985,"name":"City of Oak Hill","admin3":"7169985"},{"geonameid":7170010,"name":"City of Ormond Beach","admin3":"7170010"},{"geonameid":7170087,"name":"City of Port Orange","admin3":"7170087"},{"geonameid":7170207,"name":"City of Holly Hill","admin3":"7170207"},{"geonameid":7170300,"name":"City of Lake Helen","admin3":"7170300"},{"geonameid":7172325,"name":"Town of Pierson","admin3":"7172325"},{"geonameid":7172362,"name":"Town of Ponce Inlet","admin3":"7172362"},{"geonameid":7318124,"name":"City of South Daytona","admin3":"7318124"}],"alternateNames":[{"alternatenameId":2080779,"geonameid":4155751,"isoLanguage":"en","alternateName":"Florida","isPreferredName":true,"isShortName":true,"isColloquial":false,"isHistoric":false}]},"__N_SSG":true}