{"pageProps":{"locale":"it","admin2":{"geonameid":3168842,"name":"Provincia di Rovigo","country":"IT","admin1":"20","admin2":"RO","admin3":"","latitude":"45.0333300","longitude":"11.8333300","localeAltName":"Rovigo"},"admin1":{"geonameid":3164604,"name":"Veneto","admin1":"20","localeAltName":null},"locations":[{"geonameid":3183466,"name":"Adria","admin3":"029001","localeAltName":null},{"geonameid":3182852,"name":"Ariano","admin3":"029002","localeAltName":null},{"geonameid":6535022,"name":"Arquà Polesine","admin3":"029003","localeAltName":null},{"geonameid":3182576,"name":"Badia Polesine","admin3":"029004","localeAltName":null},{"geonameid":6535595,"name":"Bagnolo di Po","admin3":"029005","localeAltName":null},{"geonameid":8950043,"name":"Baricetta","admin3":"029001","localeAltName":null},{"geonameid":9036134,"name":"Baruchella","admin3":"029027","localeAltName":null},{"geonameid":3182162,"name":"Bergantino","admin3":"029006","localeAltName":null},{"geonameid":8950346,"name":"Beverare","admin3":"029044","localeAltName":null},{"geonameid":3181704,"name":"Bosaro","admin3":"029007","localeAltName":null},{"geonameid":3181658,"name":"Bottrighe","admin3":"029001","localeAltName":null},{"geonameid":8949552,"name":"Braglia","admin3":"029034","localeAltName":null},{"geonameid":8949379,"name":"Buso","admin3":"029041","localeAltName":null},{"geonameid":3179361,"name":"Ca' Tiepolo","admin3":"029039","localeAltName":null},{"geonameid":3181167,"name":"Calto","admin3":"029008","localeAltName":null},{"geonameid":3180886,"name":"Canaro","admin3":"029009","localeAltName":null},{"geonameid":6535596,"name":"Canda","admin3":"029010","localeAltName":null},{"geonameid":3179670,"name":"Castelguglielmo","admin3":"029011","localeAltName":null},{"geonameid":3179557,"name":"Castelmassa","admin3":"029012","localeAltName":null},{"geonameid":6535023,"name":"Castelnovo Bariano","admin3":"029013","localeAltName":null},{"geonameid":3179173,"name":"Ceneselli","admin3":"029014","localeAltName":null},{"geonameid":3179102,"name":"Ceregnano","admin3":"029015","localeAltName":null},{"geonameid":3178208,"name":"Concadirame","admin3":"029041","localeAltName":null},{"geonameid":3178121,"name":"Corbola","admin3":"029017","localeAltName":null},{"geonameid":3177905,"name":"Costa di Rovigo","admin3":"029018","localeAltName":null},{"geonameid":3177824,"name":"Crespino","admin3":"029019","localeAltName":null},{"geonameid":3177520,"name":"Donzella","admin3":"029039","localeAltName":null},{"geonameid":3177032,"name":"Ficarolo","admin3":"029021","localeAltName":null},{"geonameid":3177016,"name":"Fiesso Umbertiano","admin3":"029022","localeAltName":null},{"geonameid":3176559,"name":"Fratta Polesine","admin3":"029024","localeAltName":null},{"geonameid":3176418,"name":"Gaiba","admin3":"029025","localeAltName":null},{"geonameid":3176272,"name":"Gavello","admin3":"029026","localeAltName":null},{"geonameid":3182328,"name":"Giacciano con Baruchella","admin3":"029027","localeAltName":null},{"geonameid":8948893,"name":"Grignano Polesine","admin3":"029041","localeAltName":null},{"geonameid":3175715,"name":"Guarda Veneta","admin3":"029028","localeAltName":null},{"geonameid":3171062,"name":"Lama Pezzoli","admin3":"029015","localeAltName":null},{"geonameid":3174896,"name":"Lendinara","admin3":"029029","localeAltName":null},{"geonameid":3174570,"name":"Loreo","admin3":"029030","localeAltName":null},{"geonameid":3174427,"name":"Lusia","admin3":"029031","localeAltName":null},{"geonameid":3173980,"name":"Mardimago","admin3":"029041","localeAltName":null},{"geonameid":3173636,"name":"Melara","admin3":"029032","localeAltName":null},{"geonameid":3172128,"name":"Occhiobello","admin3":"029033","localeAltName":null},{"geonameid":3171486,"name":"Papozze","admin3":"029002","localeAltName":null},{"geonameid":6534627,"name":"Papozze","admin3":"029034","localeAltName":null},{"geonameid":3171076,"name":"Pettorazza Grimani","admin3":"029035","localeAltName":null},{"geonameid":3170696,"name":"Pincara","admin3":"029036","localeAltName":null},{"geonameid":3170397,"name":"Polesella","admin3":"029037","localeAltName":null},{"geonameid":3170289,"name":"Pontecchio Polesine","admin3":"029038","localeAltName":null},{"geonameid":3170070,"name":"Porto Tolle","admin3":"029039","localeAltName":null},{"geonameid":6534283,"name":"Porto Viro","admin3":"029052","localeAltName":null},{"geonameid":8949970,"name":"Ramodipalo Rasa","admin3":"029029","localeAltName":null},{"geonameid":3215858,"name":"Rivà","admin3":"029002","localeAltName":null},{"geonameid":3168927,"name":"Rosolina","admin3":"029040","localeAltName":null},{"geonameid":3168843,"name":"Rovigo","admin3":"029041","localeAltName":null},{"geonameid":8950155,"name":"Sabbioni-Zampine","admin3":"029045","localeAltName":null},{"geonameid":3168692,"name":"Salara","admin3":"029042","localeAltName":null},{"geonameid":3168557,"name":"San Bellino","admin3":"029043","localeAltName":null},{"geonameid":3168017,"name":"San Martino di Venezze","admin3":"029044","localeAltName":null},{"geonameid":8949188,"name":"Sant'Apollinare","admin3":"029041","localeAltName":null},{"geonameid":3167529,"name":"Santa Maria Maddalena","admin3":"029033","localeAltName":null},{"geonameid":3215796,"name":"Scardovari","admin3":"029039","localeAltName":null},{"geonameid":3166144,"name":"Stienta","admin3":"029045","localeAltName":null},{"geonameid":3165986,"name":"Taglio","admin3":"029052","localeAltName":null},{"geonameid":3165981,"name":"Taglio di Po","admin3":"029046","localeAltName":null},{"geonameid":3165273,"name":"Trecenta","admin3":"029047","localeAltName":null},{"geonameid":3219264,"name":"Valliera","admin3":"029001","localeAltName":null},{"geonameid":8949738,"name":"Villa d'Adige","admin3":"029004","localeAltName":null},{"geonameid":3164254,"name":"Villadose","admin3":"029048","localeAltName":null},{"geonameid":3164204,"name":"Villamarzana","admin3":"029049","localeAltName":null},{"geonameid":9036377,"name":"Villanova del Ghebbo Canton","admin3":"029050","localeAltName":null}],"admin3":[{"geonameid":6536679,"name":"Bergantino","admin3":"029006","localeAltName":null},{"geonameid":6536680,"name":"Bosaro","admin3":"029007","localeAltName":null},{"geonameid":6536681,"name":"Canaro","admin3":"029009","localeAltName":null},{"geonameid":6536682,"name":"Costa di Rovigo","admin3":"029018","localeAltName":null},{"geonameid":6536683,"name":"Polesella","admin3":"029037","localeAltName":null},{"geonameid":6536684,"name":"Pontecchio Polesine","admin3":"029038","localeAltName":null},{"geonameid":6536685,"name":"Taglio di Po","admin3":"029046","localeAltName":null},{"geonameid":6536686,"name":"Trecenta","admin3":"029047","localeAltName":null},{"geonameid":6537992,"name":"Occhiobello","admin3":"029033","localeAltName":null},{"geonameid":6538347,"name":"Castelguglielmo","admin3":"029011","localeAltName":null},{"geonameid":6538348,"name":"Ceneselli","admin3":"029014","localeAltName":null},{"geonameid":6538349,"name":"Ceregnano","admin3":"029015","localeAltName":null},{"geonameid":6538350,"name":"Corbola","admin3":"029017","localeAltName":null},{"geonameid":6538351,"name":"Ficarolo","admin3":"029021","localeAltName":null},{"geonameid":6538352,"name":"Guarda Veneta","admin3":"029028","localeAltName":null},{"geonameid":6538353,"name":"Lendinara","admin3":"029029","localeAltName":null},{"geonameid":6538354,"name":"Loreo","admin3":"029030","localeAltName":null},{"geonameid":6538355,"name":"Pettorazza Grimani","admin3":"029035","localeAltName":null},{"geonameid":6538356,"name":"Rosolina","admin3":"029040","localeAltName":null},{"geonameid":6538357,"name":"Salara","admin3":"029042","localeAltName":null},{"geonameid":6538358,"name":"San Bellino","admin3":"029043","localeAltName":null},{"geonameid":6538359,"name":"Villadose","admin3":"029048","localeAltName":null},{"geonameid":6539693,"name":"Crespino","admin3":"029019","localeAltName":null},{"geonameid":6539694,"name":"Gavello","admin3":"029026","localeAltName":null},{"geonameid":6539929,"name":"Adria","admin3":"029001","localeAltName":null},{"geonameid":6540229,"name":"Ariano nel Polesine","admin3":"029002","localeAltName":null},{"geonameid":6540400,"name":"Calto","admin3":"029008","localeAltName":null},{"geonameid":6540401,"name":"Castelmassa","admin3":"029012","localeAltName":null},{"geonameid":6540402,"name":"Fratta Polesine","admin3":"029024","localeAltName":null},{"geonameid":6540403,"name":"Pincara","admin3":"029036","localeAltName":null},{"geonameid":6541011,"name":"Gaiba","admin3":"029025","localeAltName":null},{"geonameid":6541012,"name":"Lusia","admin3":"029031","localeAltName":null},{"geonameid":6541013,"name":"San Martino di Venezze","admin3":"029044","localeAltName":null},{"geonameid":6541014,"name":"Stienta","admin3":"029045","localeAltName":null},{"geonameid":6541015,"name":"Villamarzana","admin3":"029049","localeAltName":null},{"geonameid":6541016,"name":"Villanova Marchesana","admin3":"029051"},{"geonameid":6541541,"name":"Villanova del Ghebbo","admin3":"029050","localeAltName":null},{"geonameid":6541571,"name":"Badia Polesine","admin3":"029004","localeAltName":null},{"geonameid":6541572,"name":"Melara","admin3":"029032","localeAltName":null},{"geonameid":6541852,"name":"Rovigo","admin3":"029041","localeAltName":null},{"geonameid":6542019,"name":"Porto Tolle","admin3":"029039","localeAltName":null},{"geonameid":6542136,"name":"Fiesso Umbertiano","admin3":"029022","localeAltName":null},{"geonameid":6542174,"name":"Giacciano con Baruchella","admin3":"029027","localeAltName":null},{"geonameid":6542354,"name":"Porto Viro","admin3":"029052","localeAltName":null},{"geonameid":6542675,"name":"Papozze","admin3":"029034","localeAltName":null},{"geonameid":6543008,"name":"Arquà Polesine","admin3":"029003","localeAltName":null},{"geonameid":6543009,"name":"Castelnovo Bariano","admin3":"029013","localeAltName":null},{"geonameid":6543010,"name":"Frassinelle Polesine","admin3":"029023"},{"geonameid":6543576,"name":"Bagnolo di Po","admin3":"029005","localeAltName":null},{"geonameid":6543577,"name":"Canda","admin3":"029010","localeAltName":null}],"alternateNames":[{"alternatenameId":1348571,"geonameid":3168842,"isoLanguage":"it","alternateName":"Rovigo","isPreferredName":true,"isShortName":true,"isColloquial":false,"isHistoric":false}]},"__N_SSG":true}