{"pageProps":{"locale":"en","admin2":{"geonameid":4849288,"name":"Bremer County","country":"US","admin1":"IA","admin2":"017","admin3":"","latitude":"42.7745900","longitude":"-92.3180500","localeAltName":null},"admin1":{"geonameid":4862182,"name":"Iowa","admin1":"IA","localeAltName":"Iowa"},"locations":[{"geonameid":4853799,"name":"Denver","admin3":"92205","localeAltName":null},{"geonameid":4862447,"name":"Janesville","admin3":"92097","localeAltName":null},{"geonameid":4872555,"name":"Readlyn","admin3":"92898","localeAltName":null},{"geonameid":4877907,"name":"Sumner","admin3":"94045","localeAltName":null},{"geonameid":4879018,"name":"Tripoli","admin3":"91458","localeAltName":null},{"geonameid":4881024,"name":"Waverly","admin3":"94607","localeAltName":null}],"admin3":[{"geonameid":4853524,"name":"Township of Dayton","admin3":"90900"},{"geonameid":4854270,"name":"Township of Douglas","admin3":"91032"},{"geonameid":4857692,"name":"Township of Franklin","admin3":"91389"},{"geonameid":4857747,"name":"Township of Frederika","admin3":"91440"},{"geonameid":4857822,"name":"Township of Fremont","admin3":"91458","localeAltName":null},{"geonameid":4862362,"name":"Township of Jackson","admin3":"92097","localeAltName":null},{"geonameid":4862541,"name":"Township of Jefferson","admin3":"92205","localeAltName":null},{"geonameid":4863881,"name":"Township of Lafayette","admin3":"92334"},{"geonameid":4864357,"name":"Township of Le Roy","admin3":"92424"},{"geonameid":4866531,"name":"Township of Maxfield","admin3":"92898","localeAltName":null},{"geonameid":4871787,"name":"Township of Polk","admin3":"93441"},{"geonameid":4877920,"name":"City of Sumner","admin3":"94045","localeAltName":null},{"geonameid":4880710,"name":"Township of Warren","admin3":"94425"},{"geonameid":4880826,"name":"Township of Washington","admin3":"94455"},{"geonameid":4881044,"name":"City of Waverly","admin3":"94607","localeAltName":null}],"alternateNames":[{"alternatenameId":1980290,"geonameid":4862182,"isoLanguage":"en","alternateName":"Iowa","isPreferredName":true,"isShortName":true,"isColloquial":false,"isHistoric":false}]},"__N_SSG":true}