{"pageProps":{"locale":"en","admin2":{"geonameid":5722958,"name":"Deschutes County","country":"US","admin1":"OR","admin2":"017","admin3":"","latitude":"43.9148800","longitude":"-121.2278900"},"admin1":{"geonameid":5744337,"name":"Oregon","admin1":"OR","localeAltName":"Oregon"},"locations":[{"geonameid":5713587,"name":"Bend","admin3":""},{"geonameid":5722960,"name":"Deschutes River Woods","admin3":""},{"geonameid":5735549,"name":"La Pine","admin3":""},{"geonameid":5747882,"name":"Redmond","admin3":""},{"geonameid":5752129,"name":"Sisters","admin3":""},{"geonameid":5755337,"name":"Sunriver","admin3":""},{"geonameid":5756260,"name":"Terrebonne","admin3":""},{"geonameid":5756628,"name":"Three Rivers","admin3":""}],"admin3":[{"geonameid":11788386,"name":"City of Sisters","admin3":"11788386"},{"geonameid":11788875,"name":"City of Redmond","admin3":"11788875"}],"alternateNames":[{"alternatenameId":1894740,"geonameid":5744337,"isoLanguage":"en","alternateName":"Oregon","isPreferredName":true,"isShortName":true,"isColloquial":false,"isHistoric":false}]},"__N_SSG":true}