{"pageProps":{"locale":"en","admin2":{"geonameid":6544276,"name":"Gemeente Overbetuwe","country":"NL","admin1":"03","admin2":"1734","admin3":"","latitude":"51.9184300","longitude":"5.7868600"},"admin1":{"geonameid":2755634,"name":"Provincie Gelderland","admin1":"03"},"locations":[{"geonameid":2760119,"name":"Aam","admin3":""},{"geonameid":2759781,"name":"Andelst","admin3":""},{"geonameid":2758397,"name":"Bredelaar","admin3":""},{"geonameid":2756591,"name":"Driel","admin3":""},{"geonameid":2756263,"name":"Eimeren","admin3":""},{"geonameid":2756161,"name":"Elst","admin3":""},{"geonameid":2754420,"name":"Hemmen","admin3":""},{"geonameid":2754322,"name":"Herveld","admin3":""},{"geonameid":6544705,"name":"Herveld-Noord","admin3":""},{"geonameid":6544706,"name":"Herveld-Zuid","admin3":""},{"geonameid":2754287,"name":"Heteren","admin3":""},{"geonameid":2753833,"name":"Homoet","admin3":""},{"geonameid":2753321,"name":"Indoornik","admin3":""},{"geonameid":2752883,"name":"Keulse Kamp","admin3":""},{"geonameid":2752006,"name":"Lakemond","admin3":""},{"geonameid":2751606,"name":"Lijnden","admin3":""},{"geonameid":2751525,"name":"Loenen","admin3":""},{"geonameid":2750935,"name":"Merm","admin3":""},{"geonameid":2749449,"name":"Oosterhout","admin3":""},{"geonameid":2748353,"name":"Raayen","admin3":""},{"geonameid":2748329,"name":"Randwijk","admin3":""},{"geonameid":2748281,"name":"Reeth","admin3":""},{"geonameid":2747162,"name":"Slijk-Ewijk","admin3":""},{"geonameid":2747045,"name":"Snodenhoek","admin3":""},{"geonameid":2745885,"name":"Valburg","admin3":""},{"geonameid":2743952,"name":"Zetten","admin3":""}],"admin3":[],"alternateNames":[{"alternatenameId":11907787,"geonameid":2755634,"isoLanguage":"de","alternateName":"Gelderland","isPreferredName":true,"isShortName":true,"isColloquial":false,"isHistoric":false}]},"__N_SSG":true}