{"pageProps":{"locale":"en","admin2":{"geonameid":2751295,"name":"Gemeente Maasdriel","country":"NL","admin1":"03","admin2":"0263","admin3":"","latitude":"51.7733700","longitude":"5.2971100"},"admin1":{"geonameid":2755634,"name":"Provincie Gelderland","admin1":"03"},"locations":[{"geonameid":2759906,"name":"Alem","admin3":""},{"geonameid":2759813,"name":"Ammerzoden","admin3":""},{"geonameid":2759054,"name":"Berm","admin3":""},{"geonameid":6544777,"name":"CaliforniÃ«","admin3":""},{"geonameid":2756679,"name":"Doorning","admin3":""},{"geonameid":2755684,"name":"Geenweide","admin3":""},{"geonameid":2754719,"name":"Hedel","admin3":""},{"geonameid":2754662,"name":"Heerewaarden","admin3":""},{"geonameid":2753994,"name":"Hoenzadriel","admin3":""},{"geonameid":2753617,"name":"Hoorzik","admin3":""},{"geonameid":2753404,"name":"Hurwenen","admin3":""},{"geonameid":2752947,"name":"Kerkdriel","admin3":""},{"geonameid":2747972,"name":"Rome","admin3":""},{"geonameid":2747908,"name":"Rossum","admin3":""},{"geonameid":2747302,"name":"Sint Andries","admin3":""},{"geonameid":2747158,"name":"Slijkwell","admin3":""},{"geonameid":2745719,"name":"Velddriel","admin3":""},{"geonameid":2745664,"name":"Veluwe","admin3":""},{"geonameid":2745306,"name":"Voorne","admin3":""},{"geonameid":2744864,"name":"Well","admin3":""},{"geonameid":2744852,"name":"Wellseind","admin3":""},{"geonameid":2744180,"name":"Wordragen","admin3":""}],"admin3":[],"alternateNames":[{"alternatenameId":11907787,"geonameid":2755634,"isoLanguage":"de","alternateName":"Gelderland","isPreferredName":true,"isShortName":true,"isColloquial":false,"isHistoric":false}]},"__N_SSG":true}