{"pageProps":{"locale":"en","admin2":{"geonameid":2759406,"name":"Gemeente Barneveld","country":"NL","admin1":"03","admin2":"0203","admin3":"","latitude":"52.1688000","longitude":"5.6398500"},"admin1":{"geonameid":2755634,"name":"Provincie Gelderland","admin1":"03"},"locations":[{"geonameid":11395893,"name":"Achterveld (Barneveld)","admin3":""},{"geonameid":2759407,"name":"Barneveld","admin3":""},{"geonameid":6544767,"name":"Boveneinde","admin3":""},{"geonameid":2755492,"name":"De Glind","admin3":""},{"geonameid":2756611,"name":"DrieÃ«nhuizen","admin3":""},{"geonameid":2756008,"name":"Essen","admin3":""},{"geonameid":2756001,"name":"Esveld","admin3":""},{"geonameid":2755734,"name":"Garderbroek","admin3":""},{"geonameid":2755732,"name":"Garderen","admin3":""},{"geonameid":2754807,"name":"Harselaar","admin3":""},{"geonameid":2753128,"name":"Kallenbroek","admin3":""},{"geonameid":2752816,"name":"Klaarwater","admin3":""},{"geonameid":2752443,"name":"Kootwijk","admin3":""},{"geonameid":2752441,"name":"Kootwijkerbroek","admin3":""},{"geonameid":2751949,"name":"Langelaar","admin3":""},{"geonameid":2748923,"name":"Oud-Milligen","admin3":""},{"geonameid":2748877,"name":"Ouwendorp","admin3":""},{"geonameid":2746596,"name":"Stroe","admin3":""},{"geonameid":2746407,"name":"Terschuur","admin3":""},{"geonameid":2745271,"name":"Voorthuizen","admin3":""},{"geonameid":2744817,"name":"Wessel","admin3":""},{"geonameid":2743951,"name":"Zeumeren","admin3":""},{"geonameid":2743561,"name":"Zwartebroek","admin3":""}],"admin3":[],"alternateNames":[{"alternatenameId":11907787,"geonameid":2755634,"isoLanguage":"de","alternateName":"Gelderland","isPreferredName":true,"isShortName":true,"isColloquial":false,"isHistoric":false}]},"__N_SSG":true}