{"pageProps":{"locale":"en","admin2":{"geonameid":2756038,"name":"Gemeente Ermelo","country":"NL","admin1":"03","admin2":"0233","admin3":"","latitude":"52.2882600","longitude":"5.6553800"},"admin1":{"geonameid":2755634,"name":"Provincie Gelderland","admin1":"03"},"locations":[{"geonameid":2757803,"name":"De Beek","admin3":""},{"geonameid":2756624,"name":"Drie","admin3":""},{"geonameid":2756039,"name":"Ermelo","admin3":""},{"geonameid":2753587,"name":"Horst","admin3":""},{"geonameid":2753560,"name":"Houtdorp","admin3":""},{"geonameid":2751674,"name":"Leuvenum","admin3":""},{"geonameid":2746950,"name":"Speuld","admin3":""},{"geonameid":2746818,"name":"Staverden","admin3":""},{"geonameid":2746498,"name":"Telgt","admin3":""},{"geonameid":2746200,"name":"Tonsel","admin3":""}],"admin3":[],"alternateNames":[{"alternatenameId":11907787,"geonameid":2755634,"isoLanguage":"de","alternateName":"Gelderland","isPreferredName":true,"isShortName":true,"isColloquial":false,"isHistoric":false}]},"__N_SSG":true}