{"pageProps":{"locale":"ro","admin1":{"geonameid":686253,"name":"Arad","country":"RO","admin1":"02","latitude":"46.3333300","longitude":"21.7500000"},"admin2":[{"geonameid":686453,"name":"Comuna Almaş"},{"geonameid":686276,"name":"Comuna Apateu"},{"geonameid":686225,"name":"Comuna Archiş"},{"geonameid":684772,"name":"Comuna Bârsa"},{"geonameid":684723,"name":"Comuna Bârzava"},{"geonameid":685285,"name":"Comuna Bata"},{"geonameid":685127,"name":"Comuna Beliu"},{"geonameid":684821,"name":"Comuna Birchiş"},{"geonameid":684480,"name":"Comuna Bocsig"},{"geonameid":683767,"name":"Comuna Brazii"},{"geonameid":683158,"name":"Comuna Buteni"},{"geonameid":682733,"name":"Comuna Cărand"},{"geonameid":682349,"name":"Comuna Cermei"},{"geonameid":682010,"name":"Comuna Chisindia"},{"geonameid":8305938,"name":"Comuna Conop"},{"geonameid":680431,"name":"Comuna Covăsinţ"},{"geonameid":680330,"name":"Comuna Craiva"},{"geonameid":679441,"name":"Comuna Dezna"},{"geonameid":679416,"name":"Comuna Dieci"},{"geonameid":679076,"name":"Comuna Dorobanți"},{"geonameid":678144,"name":"Comuna Fântânele"},{"geonameid":678347,"name":"Comuna Felnac"},{"geonameid":8306308,"name":"Comuna Frumuşeni"},{"geonameid":677332,"name":"Comuna Ghioroc"},{"geonameid":676790,"name":"Comuna Grăniceri"},{"geonameid":676529,"name":"Comuna Gurahonţ"},{"geonameid":676357,"name":"Comuna Hălmăgel"},{"geonameid":676355,"name":"Comuna Hălmagiu"},{"geonameid":676285,"name":"Comuna Hăşmaş"},{"geonameid":675693,"name":"Comuna Igneşti"},{"geonameid":675505,"name":"Comuna Iratoşu"},{"geonameid":674677,"name":"Comuna Livada"},{"geonameid":674243,"name":"Comuna Macea"},{"geonameid":673074,"name":"Comuna Mişca"},{"geonameid":672886,"name":"Comuna Moneasa"},{"geonameid":671872,"name":"Comuna Olari"},{"geonameid":671217,"name":"Comuna Păuliş"},{"geonameid":671152,"name":"Comuna Peregu Mare"},{"geonameid":670956,"name":"Comuna Petriş"},{"geonameid":670800,"name":"Comuna Pilu"},{"geonameid":670513,"name":"Comuna Pleşcuţa"},{"geonameid":668260,"name":"Comuna Şagu"},{"geonameid":667747,"name":"Comuna Săvârşin"},{"geonameid":667457,"name":"Comuna Secusigiu"},{"geonameid":667433,"name":"Comuna Şeitin"},{"geonameid":667422,"name":"Comuna Seleuş"},{"geonameid":667407,"name":"Comuna Semlac"},{"geonameid":667387,"name":"Comuna Şepreuş"},{"geonameid":667244,"name":"Comuna Şicula"},{"geonameid":667202,"name":"Comuna Şilindia"},{"geonameid":667147,"name":"Comuna Şimand"},{"geonameid":666921,"name":"Comuna Sintea Mare"},{"geonameid":666820,"name":"Comuna Şiria"},{"geonameid":666794,"name":"Comuna Şiştarovăţ"},{"geonameid":666581,"name":"Comuna Socodor"},{"geonameid":666564,"name":"Comuna Şofronea"},{"geonameid":664955,"name":"Comuna Târnova"},{"geonameid":665392,"name":"Comuna Tauţ"},{"geonameid":8305978,"name":"Comuna Ususău"},{"geonameid":663204,"name":"Comuna Vărădia de Mureş"},{"geonameid":662768,"name":"Comuna Vârfurile"},{"geonameid":662810,"name":"Comuna Vinga"},{"geonameid":662599,"name":"Comuna Vladimirescu"},{"geonameid":662365,"name":"Comuna Zăbrani"},{"geonameid":662360,"name":"Comuna Zădăreni"},{"geonameid":662292,"name":"Comuna Zărand"},{"geonameid":662221,"name":"Comuna Zerind"},{"geonameid":662196,"name":"Comuna Zimandu Nou"},{"geonameid":8305599,"name":"Municipiul Arad"},{"geonameid":682008,"name":"Oraş Chişineu-Criş"},{"geonameid":679900,"name":"Oraş Curtici"},{"geonameid":675603,"name":"Oraş Ineu"},{"geonameid":8306440,"name":"Oraş Lipova"},{"geonameid":672545,"name":"Oraş Nãdlac"},{"geonameid":670793,"name":"Oraş Pâncota"},{"geonameid":671185,"name":"Oraş Pecica"},{"geonameid":666935,"name":"Oraş Sântana"},{"geonameid":667512,"name":"Oraş Sebiş"}],"country":{"geonameid":798549,"country":"RO","localeAltName":"România"},"alternateNames":[{"alternatenameId":490801,"geonameid":798549,"isoLanguage":"ro","alternateName":"România","isPreferredName":true,"isShortName":true,"isColloquial":false,"isHistoric":false}]},"__N_SSG":true}