{"pageProps":{"locale":"ro","admin1":{"geonameid":684647,"name":"Bistriţa-Năsăud","country":"RO","admin1":"06","latitude":"47.1666700","longitude":"24.5833300"},"admin2":[{"geonameid":684648,"name":"Comuna Bistriţa Bârgăului"},{"geonameid":683852,"name":"Comuna Braniştea"},{"geonameid":683468,"name":"Comuna Budacu de Jos"},{"geonameid":683430,"name":"Comuna Budeşti"},{"geonameid":683053,"name":"Comuna Căianu"},{"geonameid":682084,"name":"Comuna Chiochiş"},{"geonameid":681976,"name":"Comuna Chiuza"},{"geonameid":681950,"name":"Comuna Ciceu-Giurgeşti"},{"geonameid":681948,"name":"Comuna Ciceu-Mihăieşti"},{"geonameid":680659,"name":"Comuna Coşbuc"},{"geonameid":678659,"name":"Comuna Dumitra"},{"geonameid":678645,"name":"Comuna Dumitriţa"},{"geonameid":678357,"name":"Comuna Feldru"},{"geonameid":677690,"name":"Comuna Galaţii Bistriţei"},{"geonameid":675631,"name":"Comuna Ilva Mare"},{"geonameid":675628,"name":"Comuna Ilva Mică"},{"geonameid":675167,"name":"Comuna Josenii Bârgăului"},{"geonameid":674930,"name":"Comuna Lechinţa"},{"geonameid":674840,"name":"Comuna Leşu"},{"geonameid":8334860,"name":"Comuna Livezile"},{"geonameid":674401,"name":"Comuna Lunca Ilvei"},{"geonameid":674123,"name":"Comuna Măgura Ilvei"},{"geonameid":674060,"name":"Comuna Măieru"},{"geonameid":673770,"name":"Comuna Mărişelu"},{"geonameid":673677,"name":"Comuna Matei"},{"geonameid":673476,"name":"Comuna Miceştii de Câmpie"},{"geonameid":673331,"name":"Comuna Milas"},{"geonameid":672882,"name":"Comuna Monor"},{"geonameid":672354,"name":"Comuna Negrileşti"},{"geonameid":672218,"name":"Comuna Nimigea"},{"geonameid":672124,"name":"Comuna Nuşeni"},{"geonameid":671310,"name":"Comuna Parva"},{"geonameid":8334782,"name":"Comuna Petru Rareş"},{"geonameid":8334821,"name":"Comuna Poiana  Ilvei"},{"geonameid":669539,"name":"Comuna Prundu Bârgăului"},{"geonameid":669084,"name":"Comuna Războeni-Cetate"},{"geonameid":669065,"name":"Comuna Rebra"},{"geonameid":669059,"name":"Comuna Rebrişoara"},{"geonameid":668771,"name":"Comuna Rodna"},{"geonameid":668686,"name":"Comuna Romuli"},{"geonameid":8334807,"name":"Comuna Runcu Salvei"},{"geonameid":668123,"name":"Comuna Salva"},{"geonameid":666986,"name":"Comuna Sânmihaiu de Câmpie"},{"geonameid":668090,"name":"Comuna Şanţ"},{"geonameid":667239,"name":"Comuna Şieu"},{"geonameid":667237,"name":"Comuna Şieu-Măgheruş"},{"geonameid":667234,"name":"Comuna Şieu-Odorhei"},{"geonameid":667231,"name":"Comuna Şieuţ"},{"geonameid":667151,"name":"Comuna Silivaşu De Câmpie"},{"geonameid":666915,"name":"Comuna Şintereag"},{"geonameid":666368,"name":"Comuna Spermezeu"},{"geonameid":664975,"name":"Comuna Târlişua"},{"geonameid":665369,"name":"Comuna Teaca"},{"geonameid":665303,"name":"Comuna Telciu"},{"geonameid":665109,"name":"Comuna Tiha Bârgăului"},{"geonameid":664151,"name":"Comuna Uriu"},{"geonameid":664125,"name":"Comuna Urmeniş"},{"geonameid":662347,"name":"Comuna Zagra"},{"geonameid":8334700,"name":"Municipiul Bistriţa"},{"geonameid":685201,"name":"Oraş Beclean"},{"geonameid":8334783,"name":"Oraş Nãsãud"},{"geonameid":667028,"name":"Oraş Sângeorz-Bãi"}],"country":{"geonameid":798549,"country":"RO","localeAltName":"România"},"alternateNames":[{"alternatenameId":490801,"geonameid":798549,"isoLanguage":"ro","alternateName":"România","isPreferredName":true,"isShortName":true,"isColloquial":false,"isHistoric":false}]},"__N_SSG":true}