{"pageProps":{"locale":"ro","admin1":{"geonameid":683901,"name":"Brăila","country":"RO","admin1":"08","latitude":"45.0833300","longitude":"27.6666700"},"admin2":[{"geonameid":685428,"name":"Comuna Bărăganul"},{"geonameid":684982,"name":"Comuna Berteştii de Jos"},{"geonameid":684215,"name":"Comuna Bordei Verde"},{"geonameid":682489,"name":"Comuna Cazasu"},{"geonameid":682019,"name":"Comuna Chiscani"},{"geonameid":681724,"name":"Comuna Ciocile"},{"geonameid":681590,"name":"Comuna Cireşu"},{"geonameid":683431,"name":"Comuna Dudeşti"},{"geonameid":8334754,"name":"Comuna Frecãţei"},{"geonameid":677675,"name":"Comuna Galbenu"},{"geonameid":677531,"name":"Comuna Gemenele"},{"geonameid":676807,"name":"Comuna Grădiştea"},{"geonameid":676676,"name":"Comuna Gropeni"},{"geonameid":675214,"name":"Comuna Jirlău"},{"geonameid":673872,"name":"Comuna Măraşu"},{"geonameid":673650,"name":"Comuna Măxineni"},{"geonameid":673146,"name":"Comuna Mircea Vodă"},{"geonameid":672743,"name":"Comuna Movila Miresii"},{"geonameid":669317,"name":"Comuna Racoviţa"},{"geonameid":668881,"name":"Comuna Râmnicelu"},{"geonameid":668722,"name":"Comuna Romanu"},{"geonameid":668610,"name":"Comuna Roşiori"},{"geonameid":668197,"name":"Comuna Salcia Tudor"},{"geonameid":667589,"name":"Comuna Scorţaru Nou"},{"geonameid":667174,"name":"Comuna Siliştea"},{"geonameid":666308,"name":"Comuna Stăncuţa"},{"geonameid":665737,"name":"Comuna Surdila-Găiseanca"},{"geonameid":665735,"name":"Comuna Surdila-Greci"},{"geonameid":665661,"name":"Comuna Şuţeşti"},{"geonameid":665174,"name":"Comuna Tichileşti"},{"geonameid":664668,"name":"Comuna Traian"},{"geonameid":664557,"name":"Comuna Tudor Vladimirescu"},{"geonameid":664537,"name":"Comuna Tufeşti"},{"geonameid":664284,"name":"Comuna Ulmu"},{"geonameid":8334644,"name":"Comuna Unirea"},{"geonameid":664016,"name":"Comuna Vădeni"},{"geonameid":662981,"name":"Comuna Victoria"},{"geonameid":662708,"name":"Comuna Vişani"},{"geonameid":662650,"name":"Comuna Viziru"},{"geonameid":662257,"name":"Comuna Zăvoaia"},{"geonameid":8334707,"name":"Municipiul Brãila"},{"geonameid":678391,"name":"Oraş Fãurei"},{"geonameid":675837,"name":"Oraş Ianca"},{"geonameid":675589,"name":"Oraş Însurãţei"}],"country":{"geonameid":798549,"country":"RO","localeAltName":"România"},"alternateNames":[{"alternatenameId":490801,"geonameid":798549,"isoLanguage":"ro","alternateName":"România","isPreferredName":true,"isShortName":true,"isColloquial":false,"isHistoric":false}]},"__N_SSG":true}