{"pageProps":{"locale":"ro","admin1":{"geonameid":682714,"name":"Caraş-Severin","country":"RO","admin1":"12","latitude":"45.0833300","longitude":"22.0833300"},"admin2":[{"geonameid":686135,"name":"Comuna Armeniş"},{"geonameid":685456,"name":"Comuna Bănia"},{"geonameid":685244,"name":"Comuna Băuţar"},{"geonameid":8334921,"name":"Comuna Berlişte"},{"geonameid":684974,"name":"Comuna Berzasca"},{"geonameid":684971,"name":"Comuna Berzovia"},{"geonameid":684250,"name":"Comuna Bolvaşniţa"},{"geonameid":683984,"name":"Comuna Bozovici"},{"geonameid":683728,"name":"Comuna Brebu"},{"geonameid":683723,"name":"Comuna Brebu Nou"},{"geonameid":683587,"name":"Comuna Buchin"},{"geonameid":683549,"name":"Comuna Bucoşniţa"},{"geonameid":682715,"name":"Comuna Caraşova"},{"geonameid":682696,"name":"Comuna Cărbunari"},{"geonameid":681937,"name":"Comuna Ciclova Română"},{"geonameid":681482,"name":"Comuna Ciuchici"},{"geonameid":681469,"name":"Comuna Ciudanoviţa"},{"geonameid":680960,"name":"Comuna Constantin Daicoviciu"},{"geonameid":680933,"name":"Comuna Copăcele"},{"geonameid":680789,"name":"Comuna Cornea"},{"geonameid":680785,"name":"Comuna Cornereva"},{"geonameid":679805,"name":"Comuna Dalboşeţ"},{"geonameid":679179,"name":"Comuna Doclin"},{"geonameid":679159,"name":"Comuna Dognecea"},{"geonameid":679122,"name":"Comuna Domaşnea"},{"geonameid":8334695,"name":"Comuna Eftimie Murgu"},{"geonameid":678518,"name":"Comuna Ezeriş"},{"geonameid":678119,"name":"Comuna Fârliug"},{"geonameid":677975,"name":"Comuna Forotic"},{"geonameid":677164,"name":"Comuna Gârnic"},{"geonameid":677070,"name":"Comuna Glimboca"},{"geonameid":8334889,"name":"Comuna Goruia"},{"geonameid":676827,"name":"Comuna Grădinari"},{"geonameid":675871,"name":"Comuna Iablaniţa"},{"geonameid":675034,"name":"Comuna Lăpuşnicel"},{"geonameid":675032,"name":"Comuna Lăpuşnicu Mare"},{"geonameid":674348,"name":"Comuna Luncaviţa"},{"geonameid":674303,"name":"Comuna Lupac"},{"geonameid":673828,"name":"Comuna Marga"},{"geonameid":673659,"name":"Comuna Măureni"},{"geonameid":673618,"name":"Comuna Mehadia"},{"geonameid":673615,"name":"Comuna Mehadica"},{"geonameid":672537,"name":"Comuna Naidaş"},{"geonameid":672048,"name":"Comuna Obreja"},{"geonameid":8334882,"name":"Comuna Ocna De Fier"},{"geonameid":8334873,"name":"Comuna Pãltiniş"},{"geonameid":671083,"name":"Comuna Pescari"},{"geonameid":669978,"name":"Comuna Pojejena"},{"geonameid":669645,"name":"Comuna Prigor"},{"geonameid":669397,"name":"Comuna Răcăşdia"},{"geonameid":669191,"name":"Comuna Ramna"},{"geonameid":668416,"name":"Comuna Rusca Montană"},{"geonameid":668299,"name":"Comuna Sacu"},{"geonameid":667926,"name":"Comuna Sasca Montană"},{"geonameid":667255,"name":"Comuna Sicheviţa"},{"geonameid":666758,"name":"Comuna Slatina-Timiş"},{"geonameid":666579,"name":"Comuna Socol"},{"geonameid":666432,"name":"Comuna Şopotu Nou"},{"geonameid":664956,"name":"Comuna Târnova"},{"geonameid":665233,"name":"Comuna Teregova"},{"geonameid":665154,"name":"Comuna Ticvaniu Mare"},{"geonameid":664758,"name":"Comuna Topleţ"},{"geonameid":664433,"name":"Comuna Turnu Rueni"},{"geonameid":663236,"name":"Comuna Văliug"},{"geonameid":663206,"name":"Comuna Vărădia"},{"geonameid":663039,"name":"Comuna Vermeş"},{"geonameid":662444,"name":"Comuna Vrani"},{"geonameid":662251,"name":"Comuna Zăvoi"},{"geonameid":662127,"name":"Comuna Zorlenţu Mare"},{"geonameid":8334729,"name":"Municipiul Caransebeş"},{"geonameid":8334917,"name":"Municipiul Reşiţa"},{"geonameid":8334763,"name":"Oraş Anina"},{"geonameid":8334866,"name":"Oraş Bãile Herculane"},{"geonameid":8334834,"name":"Oraş Bocşa"},{"geonameid":8334912,"name":"Oraş Moldova Nouã"},{"geonameid":8334697,"name":"Oraş Oraviţa"},{"geonameid":671602,"name":"Oraş Oţelu Roşu"}],"country":{"geonameid":798549,"country":"RO","localeAltName":"România"},"alternateNames":[{"alternatenameId":490801,"geonameid":798549,"isoLanguage":"ro","alternateName":"România","isPreferredName":true,"isShortName":true,"isColloquial":false,"isHistoric":false}]},"__N_SSG":true}