{"pageProps":{"locale":"ro","admin1":{"geonameid":680962,"name":"Constanța","country":"RO","admin1":"14","latitude":"44.2500000","longitude":"28.3333300","localeAltName":"Constanța"},"admin2":[{"geonameid":679030,"name":"Comuna 23 August"},{"geonameid":686687,"name":"Comuna Adamclisi"},{"geonameid":686625,"name":"Comuna Agigea"},{"geonameid":686554,"name":"Comuna Albeşti"},{"geonameid":686475,"name":"Comuna Aliman"},{"geonameid":8334892,"name":"Comuna Amzacea"},{"geonameid":685432,"name":"Comuna Bărăganu"},{"geonameid":682588,"name":"Comuna Castelu"},{"geonameid":682368,"name":"Comuna Cerchezu"},{"geonameid":682037,"name":"Comuna Chirnogeni"},{"geonameid":681774,"name":"Comuna Ciobanu"},{"geonameid":681717,"name":"Comuna Ciocârlia"},{"geonameid":681256,"name":"Comuna Cobadin"},{"geonameid":681159,"name":"Comuna Cogealac"},{"geonameid":681034,"name":"Comuna Comana"},{"geonameid":680858,"name":"Comuna Corbu"},{"geonameid":8334814,"name":"Comuna Costineşti"},{"geonameid":680088,"name":"Comuna Crucea"},{"geonameid":679965,"name":"Comuna Cumpăna"},{"geonameid":8334991,"name":"Comuna Cuza Voda"},{"geonameid":679515,"name":"Comuna Deleni"},{"geonameid":679216,"name":"Comună Dobromir"},{"geonameid":678698,"name":"Comuna Dumbrăveni"},{"geonameid":678146,"name":"Comuna Fântânele"},{"geonameid":677174,"name":"Comuna Gârliciu"},{"geonameid":677359,"name":"Comuna Ghindăreşti"},{"geonameid":676834,"name":"Comuna Grădina"},{"geonameid":676006,"name":"Comuna Horia"},{"geonameid":675611,"name":"Comuna Independenţa"},{"geonameid":675555,"name":"Comuna Ion Corvin"},{"geonameid":675470,"name":"Comuna Istria"},{"geonameid":674781,"name":"Comuna Limanu"},{"geonameid":674734,"name":"Comuna Lipniţa"},{"geonameid":8334751,"name":"Comuna Lumina"},{"geonameid":673576,"name":"Comuna Mereni"},{"geonameid":673363,"name":"Comuna Mihai Viteazu"},{"geonameid":673373,"name":"Comuna Mihail Kogălniceanu"},{"geonameid":673149,"name":"Comuna Mircea Vodă"},{"geonameid":672270,"name":"Comuna Nicolae Bălcescu"},{"geonameid":671822,"name":"Comuna Oltina"},{"geonameid":671631,"name":"Comuna Ostrov"},{"geonameid":671379,"name":"Comuna Pantelimon"},{"geonameid":671183,"name":"Comuna Pecineaga"},{"geonameid":671063,"name":"Comuna Peştera"},{"geonameid":670375,"name":"Comuna Poarta Albă"},{"geonameid":669145,"name":"Comuna Rasova"},{"geonameid":668313,"name":"Comuna Săcele"},{"geonameid":668156,"name":"Comuna Saligny"},{"geonameid":668061,"name":"Comuna Saraiu"},{"geonameid":667440,"name":"Comuna Seimeni"},{"geonameid":667176,"name":"Comuna Siliştea"},{"geonameid":664994,"name":"Comuna Târguşor"},{"geonameid":664773,"name":"Comuna Topalu"},{"geonameid":664721,"name":"Comuna Topraisar"},{"geonameid":664707,"name":"Comuna Tortoman"},{"geonameid":664395,"name":"Comuna Tuzla"},{"geonameid":663233,"name":"Comuna Valu lui Traian"},{"geonameid":662385,"name":"Comuna Vulturu"},{"geonameid":8334667,"name":"Municipiul Constanţa"},{"geonameid":8334941,"name":"Municipiul Mangalia"},{"geonameid":8334740,"name":"Municipiul Medgidia"},{"geonameid":685471,"name":"Oraş Bãneasa"},{"geonameid":8334733,"name":"Oraş Cernavodã"},{"geonameid":8334674,"name":"Oraş Eforie"},{"geonameid":8334909,"name":"Oraş Hârşova"},{"geonameid":8334675,"name":"Oraş Murfatlar"},{"geonameid":672485,"name":"Oraş Nãvodari"},{"geonameid":672342,"name":"Oraş Negru Vodã"},{"geonameid":671583,"name":"Oraş Ovidiu"},{"geonameid":8334676,"name":"Oraş Techirghiol"}],"country":{"geonameid":798549,"country":"RO","localeAltName":"România"},"alternateNames":[{"alternatenameId":402149,"geonameid":680962,"isoLanguage":"ro","alternateName":"Constanța","isPreferredName":true,"isShortName":true,"isColloquial":false,"isHistoric":false},{"alternatenameId":490801,"geonameid":798549,"isoLanguage":"ro","alternateName":"România","isPreferredName":true,"isShortName":true,"isColloquial":false,"isHistoric":false}]},"__N_SSG":true}