{"pageProps":{"locale":"ro","admin1":{"geonameid":673612,"name":"Mehedinţi","country":"RO","admin1":"26","latitude":"44.6666700","longitude":"22.8333300"},"admin2":[{"geonameid":684899,"name":"Comuna Bâcleş"},{"geonameid":685743,"name":"Comuna Bala"},{"geonameid":685719,"name":"Comuna Bălăciţa"},{"geonameid":685577,"name":"Comuna Balta"},{"geonameid":684841,"name":"Comuna Bâlvăneşti"},{"geonameid":683856,"name":"Comuna Braniştea"},{"geonameid":683700,"name":"Comuna Brezniţa Ocol"},{"geonameid":683702,"name":"Comuna Brezniţa-Motru"},{"geonameid":683631,"name":"Comuna Broşteni"},{"geonameid":683225,"name":"Comuna Burila Mare"},{"geonameid":683145,"name":"Comuna Butoieşti"},{"geonameid":682491,"name":"Comuna Căzăneşti"},{"geonameid":681591,"name":"Comuna Cireşu"},{"geonameid":680840,"name":"Comuna Corcova"},{"geonameid":680820,"name":"Comuna Corlăţel"},{"geonameid":679978,"name":"Comuna Cujmir"},{"geonameid":679316,"name":"Comuna Dârvari"},{"geonameid":679449,"name":"Comuna Devesel"},{"geonameid":8334692,"name":"Comuna Dubova"},{"geonameid":8334865,"name":"Comuna Dumbrava"},{"geonameid":8334960,"name":"Comuna Eşelniţa"},{"geonameid":678044,"name":"Comuna Floreşti"},{"geonameid":677185,"name":"Comuna Gârla Mare"},{"geonameid":677008,"name":"Comuna Godeanu"},{"geonameid":676974,"name":"Comuna Gogoşu"},{"geonameid":676753,"name":"Comuna Greci"},{"geonameid":676632,"name":"Comuna Grozeşti"},{"geonameid":676624,"name":"Comuna Gruia"},{"geonameid":676185,"name":"Comuna Hinova"},{"geonameid":675888,"name":"Comuna Husnicioara"},{"geonameid":675641,"name":"Comuna Ilovăt"},{"geonameid":8334791,"name":"Comuna Iloviţa"},{"geonameid":675461,"name":"Comuna Isverna"},{"geonameid":675330,"name":"Comuna Izvoru Bârzii"},{"geonameid":8334822,"name":"Comuna Jiana"},{"geonameid":8334665,"name":"Comuna Livezile"},{"geonameid":674002,"name":"Comuna Malovãţ"},{"geonameid":8334669,"name":"Comuna Obârşia De Câmp"},{"geonameid":672070,"name":"Comuna Obârşia-Cloşani"},{"geonameid":671774,"name":"Comuna Oprişor"},{"geonameid":671554,"name":"Comuna Padina"},{"geonameid":671247,"name":"Comuna Pătulele"},{"geonameid":670339,"name":"Comuna Podeni"},{"geonameid":669936,"name":"Comuna Ponoarele"},{"geonameid":669835,"name":"Comuna Poroina Mare"},{"geonameid":669589,"name":"Comuna Pristol"},{"geonameid":669526,"name":"Comuna Prunişor"},{"geonameid":669490,"name":"Comuna Punghina"},{"geonameid":668750,"name":"Comuna Rogova"},{"geonameid":668204,"name":"Comuna Salcia"},{"geonameid":667117,"name":"Comuna Simian"},{"geonameid":666797,"name":"Comuna Siseşti"},{"geonameid":666398,"name":"Comuna Sovarna"},{"geonameid":666114,"name":"Comuna Stângăceaua"},{"geonameid":665652,"name":"Comuna Sviniţa"},{"geonameid":665082,"name":"Comuna Tâmna"},{"geonameid":662833,"name":"Comuna Vânători"},{"geonameid":662806,"name":"Comuna Vânjuleţ"},{"geonameid":662644,"name":"Comuna Vlădaia"},{"geonameid":662485,"name":"Comuna Voloiac"},{"geonameid":662440,"name":"Comuna Vrata"},{"geonameid":8334738,"name":"Municipiul Drobeta-Turnu Severin"},{"geonameid":8335001,"name":"Municipiul Orşova"},{"geonameid":685835,"name":"Oraş Baia De Aramã"},{"geonameid":8334840,"name":"Oraş Strehaia"},{"geonameid":662804,"name":"Oraş Vânju Mare"}],"country":{"geonameid":798549,"country":"RO","localeAltName":"România"},"alternateNames":[{"alternatenameId":490801,"geonameid":798549,"isoLanguage":"ro","alternateName":"România","isPreferredName":true,"isShortName":true,"isColloquial":false,"isHistoric":false}]},"__N_SSG":true}