{"pageProps":{"locale":"ro","admin1":{"geonameid":662892,"name":"Vâlcea","country":"RO","admin1":"39","latitude":"45.0833300","longitude":"24.1666700"},"admin2":[{"geonameid":686400,"name":"Comuna Alunu"},{"geonameid":686387,"name":"Comuna Amărăşti"},{"geonameid":685381,"name":"Comuna Bărbăteşti"},{"geonameid":684996,"name":"Comuna Berislăveşti"},{"geonameid":684327,"name":"Comuna Boişoara"},{"geonameid":8334902,"name":"Comuna Budeşti"},{"geonameid":683345,"name":"Comuna Bujoreni"},{"geonameid":683273,"name":"Comuna Buneşti"},{"geonameid":681925,"name":"Comuna Câineni"},{"geonameid":8334930,"name":"Comuna Cernişoara"},{"geonameid":680923,"name":"Comuna Copăceni"},{"geonameid":680565,"name":"Comuna Costeşti"},{"geonameid":680278,"name":"Comuna Creţeni"},{"geonameid":679825,"name":"Comuna Dăeşti"},{"geonameid":679747,"name":"Comuna Dănicei"},{"geonameid":679421,"name":"Comuna Diculeşti"},{"geonameid":678940,"name":"Comuna Drăgoeşti"},{"geonameid":8334933,"name":"Comuna Fârtãţeşti"},{"geonameid":678382,"name":"Comuna Făureşti"},{"geonameid":677893,"name":"Comuna Frânceşti-Mânăstireni"},{"geonameid":677649,"name":"Comuna Galicea"},{"geonameid":677330,"name":"Comuna Ghioroiu"},{"geonameid":677081,"name":"Comuna Glăvile"},{"geonameid":676943,"name":"Comuna Goleşti"},{"geonameid":676809,"name":"Comuna Grădiştea"},{"geonameid":676425,"name":"Comuna Guşoeni"},{"geonameid":675538,"name":"Comuna Ioneşti"},{"geonameid":675091,"name":"Comuna Lăcusteni"},{"geonameid":675084,"name":"Comuna Lădeşti"},{"geonameid":675070,"name":"Comuna Laloşu"},{"geonameid":675042,"name":"Comuna Lăpuşata"},{"geonameid":8334967,"name":"Comuna Livezi"},{"geonameid":674313,"name":"Comuna Lungeşti"},{"geonameid":671585,"name":"Comuna Măciuca"},{"geonameid":674198,"name":"Comuna Mădulari-Beica"},{"geonameid":674037,"name":"Comuna Malaia"},{"geonameid":674022,"name":"Comuna Măldăreşti"},{"geonameid":673680,"name":"Comuna Mateeşti"},{"geonameid":673410,"name":"Comuna Mihăeşti"},{"geonameid":673327,"name":"Comuna Milcoiu"},{"geonameid":673044,"name":"Comuna Mitrofani"},{"geonameid":672703,"name":"Comuna Muereasca"},{"geonameid":8334802,"name":"Comuna Nicolae Bãlcescu"},{"geonameid":682621,"name":"Comuna Olanu"},{"geonameid":671704,"name":"Comuna Orleşti"},{"geonameid":671599,"name":"Comuna Oteşani"},{"geonameid":671197,"name":"Comuna Păuşeşti"},{"geonameid":671199,"name":"Comuna Păuşeşti-Măglaşi"},{"geonameid":671115,"name":"Comuna Perişani"},{"geonameid":671079,"name":"Comuna Pesceana"},{"geonameid":670859,"name":"Comuna Pietrari"},{"geonameid":8334823,"name":"Comuna Popeşti"},{"geonameid":669547,"name":"Comuna Prundeni"},{"geonameid":669316,"name":"Comuna Racoviţa"},{"geonameid":668765,"name":"Comuna Roeşti"},{"geonameid":668627,"name":"Comuna Roşiile"},{"geonameid":668455,"name":"Comuna Runcu"},{"geonameid":668228,"name":"Comuna Sălătrucel"},{"geonameid":667563,"name":"Comuna Scundu"},{"geonameid":667042,"name":"Comuna Sineşti"},{"geonameid":666818,"name":"Comuna Şirineasa"},{"geonameid":666746,"name":"Comuna Slătioara"},{"geonameid":666294,"name":"Comuna Stăneşti"},{"geonameid":666227,"name":"Comuna Ştefăneşti"},{"geonameid":666063,"name":"Comuna Stoeneşti"},{"geonameid":666049,"name":"Comuna Stoileşti"},{"geonameid":665929,"name":"Comuna Stroeşti"},{"geonameid":8334895,"name":"Comuna Şuşani"},{"geonameid":665662,"name":"Comuna Suteşti"},{"geonameid":665203,"name":"Comuna Tetoiu"},{"geonameid":664899,"name":"Comuna Titeşti"},{"geonameid":664794,"name":"Comuna Tomşani"},{"geonameid":663967,"name":"Comuna Vaideeni"},{"geonameid":8334800,"name":"Comuna Valea Mare"},{"geonameid":662616,"name":"Comuna Vlădeşti"},{"geonameid":662540,"name":"Comuna Voiceşti"},{"geonameid":662528,"name":"Comuna Voineasa"},{"geonameid":662273,"name":"Comuna Zătreni"},{"geonameid":8334928,"name":"Municipiul Drãgãşani"},{"geonameid":8334979,"name":"Municipiul Râmnicu Vâlcea"},{"geonameid":685978,"name":"Oraş Bãbeni"},{"geonameid":8334965,"name":"Oraş Bãile Govora"},{"geonameid":8334927,"name":"Oraş Bãile Olãneşti"},{"geonameid":685652,"name":"Oraş Bãlceşti"},{"geonameid":8334926,"name":"Oraş Berbeşti"},{"geonameid":683694,"name":"Oraş Brezoi"},{"geonameid":8334918,"name":"Oraş Cãlimãneşti"},{"geonameid":676024,"name":"Oraş Horezu"},{"geonameid":8334929,"name":"Oraş Ocnele Mari"}],"country":{"geonameid":798549,"country":"RO","localeAltName":"România"},"alternateNames":[{"alternatenameId":490801,"geonameid":798549,"isoLanguage":"ro","alternateName":"România","isPreferredName":true,"isShortName":true,"isColloquial":false,"isHistoric":false}]},"__N_SSG":true}