{"pageProps":{"locale":"en","admin2":{"geonameid":3333219,"name":"Borough of Wigan","country":"GB","admin1":"ENG","admin2":"P7","admin3":"","latitude":"53.5000000","longitude":"-2.5833300"},"admin1":{"geonameid":6269131,"name":"England","admin1":"ENG"},"locations":[{"geonameid":2657774,"name":"Abram"},{"geonameid":2656918,"name":"Ashton in Makerfield"},{"geonameid":11593086,"name":"Aspull"},{"geonameid":2656876,"name":"Astley"},{"geonameid":2656847,"name":"Atherton"},{"geonameid":2655726,"name":"Bickershaw"},{"geonameid":2654448,"name":"Bryn"},{"geonameid":2648356,"name":"Golborne"},{"geonameid":2647658,"name":"Haigh"},{"geonameid":2646862,"name":"Hindley"},{"geonameid":11549512,"name":"Hindley Green"},{"geonameid":2646253,"name":"Ince-in-Makerfield"},{"geonameid":10377175,"name":"Land Side"},{"geonameid":2644660,"name":"Leigh"},{"geonameid":2643469,"name":"Lowton"},{"geonameid":2640507,"name":"Pemberton"},{"geonameid":2638009,"name":"Shevington"},{"geonameid":2637096,"name":"Standish"},{"geonameid":2635281,"name":"Tyldesley"},{"geonameid":10377649,"name":"Westleigh"},{"geonameid":2633948,"name":"Wigan"}],"admin3":[{"geonameid":7292762,"name":"Worthington","admin3":"00BW003"},{"geonameid":7297911,"name":"Haigh","admin3":"00BW001"},{"geonameid":7301556,"name":"Shevington","admin3":"00BW002"}],"alternateNames":[]},"__N_SSG":true}