{"pageProps":{"locale":"en","admin2":{"geonameid":5290307,"name":"Coconino County","country":"US","admin1":"AZ","admin2":"005","admin3":"","latitude":"35.8387300","longitude":"-111.7705000"},"admin1":{"geonameid":5551752,"name":"Arizona","admin1":"AZ","localeAltName":"Arizona"},"locations":[{"geonameid":5294810,"name":"Flagstaff","admin3":""},{"geonameid":5295349,"name":"Fredonia","admin3":""},{"geonameid":5296391,"name":"Grand Canyon","admin3":""},{"geonameid":5296409,"name":"Grand Canyon Village","admin3":""},{"geonameid":5300735,"name":"Kachina Village","admin3":""},{"geonameid":5300756,"name":"Kaibito","admin3":""},{"geonameid":5301692,"name":"LeChee","admin3":""},{"geonameid":7261646,"name":"LeChee","admin3":""},{"geonameid":5305714,"name":"Mountainaire","admin3":""},{"geonameid":5307778,"name":"Page","admin3":""},{"geonameid":5308164,"name":"Parks","admin3":""},{"geonameid":5313667,"name":"Sedona","admin3":""},{"geonameid":5318279,"name":"Tuba City","admin3":""},{"geonameid":5321098,"name":"Williams","admin3":""}],"admin3":[{"geonameid":11788400,"name":"City of Flagstaff","admin3":"11788400"}],"alternateNames":[{"alternatenameId":1979309,"geonameid":5551752,"isoLanguage":"en","alternateName":"Arizona","isPreferredName":true,"isShortName":true,"isColloquial":false,"isHistoric":false}]},"__N_SSG":true}