{"pageProps":{"locale":"en","admin2":{"geonameid":5430806,"name":"Mesa County","country":"US","admin1":"CO","admin2":"077","admin3":"","latitude":"39.0182800","longitude":"-108.4664500","localeAltName":null},"admin1":{"geonameid":5417618,"name":"Colorado","admin1":"CO","localeAltName":"Colorado"},"locations":[{"geonameid":5417258,"name":"Clifton","admin3":"","localeAltName":null},{"geonameid":5417522,"name":"Collbran","admin3":"","localeAltName":null},{"geonameid":5422534,"name":"Fruita","admin3":"","localeAltName":null},{"geonameid":5422557,"name":"Fruitvale","admin3":"","localeAltName":null},{"geonameid":5423573,"name":"Grand Junction","admin3":"","localeAltName":null},{"geonameid":5429120,"name":"Loma","admin3":"","localeAltName":null},{"geonameid":5433549,"name":"Orchard Mesa","admin3":"","localeAltName":null},{"geonameid":5433806,"name":"Palisade","admin3":"","localeAltName":null},{"geonameid":5436099,"name":"Redlands","admin3":"","localeAltName":null}],"admin3":[],"alternateNames":[{"alternatenameId":2089564,"geonameid":5417618,"isoLanguage":"en","alternateName":"Colorado","isPreferredName":true,"isShortName":true,"isColloquial":false,"isHistoric":false}]},"__N_SSG":true}