{"pageProps":{"locale":"ro","admin2":{"geonameid":682084,"name":"Comuna Chiochiş","country":"RO","admin1":"06","admin2":"33015","admin3":"","latitude":"46.9838100","longitude":"24.1831800"},"admin1":{"geonameid":684647,"name":"Bistriţa-Năsăud","admin1":"06"},"locations":[{"geonameid":686275,"name":"Apatiu","admin3":""},{"geonameid":685964,"name":"Băboasa","admin3":""},{"geonameid":683994,"name":"Bozieș","admin3":""},{"geonameid":683127,"name":"Buza Cătun","admin3":""},{"geonameid":682169,"name":"Chețiu","admin3":""},{"geonameid":682085,"name":"Chiochiş","admin3":""},{"geonameid":678610,"name":"După Vale","admin3":""},{"geonameid":678217,"name":"Fânaţe","admin3":""},{"geonameid":678213,"name":"Fânaţele Manicului","admin3":""},{"geonameid":675221,"name":"Jimbor","admin3":""},{"geonameid":673915,"name":"Manic","admin3":""},{"geonameid":666979,"name":"Sânnicoară","admin3":""},{"geonameid":665916,"name":"Strugureni","admin3":""},{"geonameid":665256,"name":"Țentea","admin3":""}],"admin3":[],"alternateNames":[]},"__N_SSG":true}