{"pageProps":{"locale":"de","admin2":{"geonameid":6458748,"name":"Bezirk Waldenburg","country":"CH","admin1":"BL","admin2":"1305","admin3":"","latitude":"47.3936700","longitude":"7.7413700"},"admin1":{"geonameid":2661603,"name":"Kanton Basel-Landschaft","admin1":"BL"},"locations":[{"geonameid":6284995,"name":"Arboldswil","admin3":"2881"},{"geonameid":2661400,"name":"Bretzwil","admin3":"2883"},{"geonameid":2661025,"name":"Diegten","admin3":"2884"},{"geonameid":2660879,"name":"Eptingen","admin3":"2885"},{"geonameid":2660311,"name":"Hölstein","admin3":"2886"},{"geonameid":6255070,"name":"Lampenberg","admin3":"2887"},{"geonameid":2660036,"name":"Langenbruck","admin3":"2888"},{"geonameid":2659399,"name":"Oberdorf","admin3":"2892"},{"geonameid":2659077,"name":"Reigoldswil","admin3":"2893"},{"geonameid":2658356,"name":"Titterten","admin3":"2894"},{"geonameid":2658071,"name":"Waldenburg","admin3":"2895"}],"admin3":[{"geonameid":7285088,"name":"Arboldswil","admin3":"2881"},{"geonameid":7285199,"name":"Bennwil","admin3":"2882"},{"geonameid":7285331,"name":"Bretzwil","admin3":"2883"},{"geonameid":7285642,"name":"Diegten","admin3":"2884"},{"geonameid":7285744,"name":"Eptingen","admin3":"2885"},{"geonameid":7286103,"name":"Hölstein","admin3":"2886"},{"geonameid":7286254,"name":"Lampenberg","admin3":"2887"},{"geonameid":7286257,"name":"Langenbruck","admin3":"2888"},{"geonameid":7286286,"name":"Lauwil","admin3":"2889"},{"geonameid":7286347,"name":"Liedertswil","admin3":"2890"},{"geonameid":7286637,"name":"Niederdorf","admin3":"2891"},{"geonameid":7286680,"name":"Oberdorf (BL)","admin3":"2892"},{"geonameid":7286875,"name":"Reigoldswil","admin3":"2893"},{"geonameid":7287313,"name":"Titterten","admin3":"2894"},{"geonameid":7287520,"name":"Waldenburg","admin3":"2895"}],"alternateNames":[]},"__N_SSG":true}