{"pageProps":{"locale":"en","admin2":{"geonameid":2756558,"name":"Gemeente Dronten","country":"NL","admin1":"16","admin2":"0303","admin3":"","latitude":"52.5000000","longitude":"5.7166700","localeAltName":null},"admin1":{"geonameid":3319179,"name":"Provincie Flevoland","admin1":"16","localeAltName":"Flevoland"},"locations":[{"geonameid":2758992,"name":"Biddinghuizen","admin3":"","localeAltName":null},{"geonameid":2756559,"name":"Dronten","admin3":"","localeAltName":null},{"geonameid":2752894,"name":"Ketelhaven","admin3":"","localeAltName":null},{"geonameid":2747991,"name":"Roggebotsluis","admin3":"","localeAltName":null},{"geonameid":2746540,"name":"Swifterbant","admin3":"","localeAltName":null}],"admin3":[],"alternateNames":[{"alternatenameId":11907795,"geonameid":3319179,"isoLanguage":"de","alternateName":"Flevoland","isPreferredName":true,"isShortName":true,"isColloquial":false,"isHistoric":false},{"alternatenameId":16755539,"geonameid":3319179,"isoLanguage":"en","alternateName":"Flevoland","isPreferredName":true,"isShortName":true,"isColloquial":false,"isHistoric":false}]},"__N_SSG":true}