{"pageProps":{"locale":"ro","admin2":{"geonameid":668897,"name":"Comuna Râmeţ","country":"RO","admin1":"01","admin2":"6627","admin3":"","latitude":"46.3156400","longitude":"23.5260200"},"admin1":{"geonameid":686581,"name":"Alba","admin1":"01"},"locations":[{"geonameid":684911,"name":"Biceşti"},{"geonameid":684092,"name":"Boțani"},{"geonameid":668896,"name":"Brădești"},{"geonameid":683617,"name":"Brusturei"},{"geonameid":668895,"name":"Cheia"},{"geonameid":680476,"name":"Cotorăști"},{"geonameid":679920,"name":"Curmetea"},{"geonameid":679649,"name":"Dealu Doamnei"},{"geonameid":678056,"name":"Florești"},{"geonameid":668894,"name":"Olteni"},{"geonameid":668898,"name":"Râmeţ"},{"geonameid":10861181,"name":"Valea Făgetului"},{"geonameid":668892,"name":"Valea Inzelului"},{"geonameid":663641,"name":"Valea Mănăstirii"},{"geonameid":668893,"name":"Valea Poienii"},{"geonameid":663406,"name":"Valea Secăturii"},{"geonameid":668890,"name":"Valea Uzei"},{"geonameid":662619,"name":"Vlădești"}],"admin3":[],"alternateNames":[]},"__N_SSG":true}