{"pageProps":{"locale":"ro","admin2":{"geonameid":8334963,"name":"Comuna Miroslava","country":"RO","admin1":"23","admin2":"97919","admin3":"","latitude":"47.1304700","longitude":"27.5103900"},"admin1":{"geonameid":675809,"name":"Iaşi","admin1":"23"},"locations":[{"geonameid":685649,"name":"Balciu","admin3":""},{"geonameid":683784,"name":"Brătuleni","admin3":""},{"geonameid":681386,"name":"Ciurbești","admin3":""},{"geonameid":680773,"name":"Cornești","admin3":""},{"geonameid":679773,"name":"Dancaș","admin3":""},{"geonameid":678522,"name":"Ezăreni","admin3":""},{"geonameid":677572,"name":"Găureni","admin3":""},{"geonameid":675981,"name":"Horpaz","admin3":""},{"geonameid":673098,"name":"Miroslava","admin3":""},{"geonameid":669564,"name":"Proselnici","admin3":""},{"geonameid":664162,"name":"Uricani","admin3":""},{"geonameid":663935,"name":"Valea Adâncă","admin3":""},{"geonameid":663330,"name":"Valea Ursului","admin3":""},{"geonameid":662458,"name":"Vorovești","admin3":""}],"admin3":[],"alternateNames":[]},"__N_SSG":true}