{"pageProps":{"locale":"en","admin2":{"geonameid":4375882,"name":"Barry County","country":"US","admin1":"MO","admin2":"009","admin3":"","latitude":"36.7098700","longitude":"-93.8290700","localeAltName":null},"admin1":{"geonameid":4398678,"name":"Missouri","admin1":"MO","localeAltName":"Missouri"},"locations":[{"geonameid":4380284,"name":"Cassville","admin3":"24436","localeAltName":null},{"geonameid":4385974,"name":"Exeter","admin3":"23140","localeAltName":null},{"geonameid":4404848,"name":"Purdy","admin3":"60194","localeAltName":null},{"geonameid":4408023,"name":"Seligman","admin3":"71332","localeAltName":null},{"geonameid":4408358,"name":"Shell Knob","admin3":"67250","localeAltName":null},{"geonameid":4414343,"name":"Wheaton","admin3":"79144","localeAltName":null}],"admin3":[{"geonameid":4375198,"name":"Township of Ash","admin3":"02116"},{"geonameid":4379364,"name":"Township of Butterfield","admin3":"10162"},{"geonameid":4379992,"name":"Township of Capps Creek","admin3":"11332"},{"geonameid":4382454,"name":"Township of Corsicana","admin3":"16534"},{"geonameid":4382747,"name":"Township of Crane Creek","admin3":"17092"},{"geonameid":4385976,"name":"Township of Exeter","admin3":"23140","localeAltName":null},{"geonameid":4386674,"name":"Township of Flat Creek","admin3":"24436","localeAltName":null},{"geonameid":4392443,"name":"Township of Jenkins","admin3":"37142"},{"geonameid":4393679,"name":"Township of Kings Prairie","admin3":"38837"},{"geonameid":4395175,"name":"Township of Liberty","admin3":"41942"},{"geonameid":4397702,"name":"Township of McDonald","admin3":"44912"},{"geonameid":4397716,"name":"Township of McDowell","admin3":"44966"},{"geonameid":4398560,"name":"Township of Mineral","admin3":"48674"},{"geonameid":4398780,"name":"Township of Monett","admin3":"49214"},{"geonameid":4399755,"name":"Township of Mountain","admin3":"50366"},{"geonameid":4402282,"name":"Township of Ozark","admin3":"55730"},{"geonameid":4403517,"name":"Township of Pioneer","admin3":"57962"},{"geonameid":4403870,"name":"Township of Pleasant Ridge","admin3":"58484"},{"geonameid":4404850,"name":"Township of Purdy","admin3":"60194","localeAltName":null},{"geonameid":4405863,"name":"Township of Roaring River","admin3":"62318"},{"geonameid":4408363,"name":"Township of Shell Knob","admin3":"67250","localeAltName":null},{"geonameid":4410607,"name":"Township of Sugar Creek","admin3":"71332","localeAltName":null},{"geonameid":4413620,"name":"Township of Washburn","admin3":"77218"},{"geonameid":4414345,"name":"Township of Wheaton","admin3":"79144","localeAltName":null},{"geonameid":4414531,"name":"Township of White River","admin3":"79522"}],"alternateNames":[{"alternatenameId":2089572,"geonameid":4398678,"isoLanguage":"en","alternateName":"Missouri","isPreferredName":true,"isShortName":true,"isColloquial":false,"isHistoric":false}]},"__N_SSG":true}