{"pageProps":{"locale":"en","admin2":{"geonameid":2652355,"name":"Cornwall","country":"GB","admin1":"ENG","admin2":"C6","admin3":"","latitude":"50.4166700","longitude":"-4.7500000","localeAltName":null},"admin1":{"geonameid":6269131,"name":"England","admin1":"ENG","localeAltName":"England"},"locations":[{"geonameid":2657420,"name":"Altarnun","admin3":"00HE002","localeAltName":null},{"geonameid":10104001,"name":"Angarrick","admin3":"00HE096","localeAltName":null},{"geonameid":2657258,"name":"Antony","admin3":"00HE003","localeAltName":null},{"geonameid":2655342,"name":"Blisland","admin3":"00HE004","localeAltName":null},{"geonameid":2655273,"name":"Bodmin","admin3":"00HE006","localeAltName":null},{"geonameid":6621657,"name":"Boleigh","admin3":"00HE136","localeAltName":null},{"geonameid":2655148,"name":"Boscastle","admin3":"00HE037","localeAltName":null},{"geonameid":11496867,"name":"Boswinger","admin3":"00HE154","localeAltName":null},{"geonameid":2655135,"name":"Botallack","admin3":"00HE161","localeAltName":null},{"geonameid":2655028,"name":"Boyton","admin3":"00HE008","localeAltName":null},{"geonameid":2655000,"name":"Braddock","admin3":"00HE010","localeAltName":null},{"geonameid":6621655,"name":"Brane","admin3":"00HE122","localeAltName":null},{"geonameid":2654835,"name":"Breage","admin3":"00HE009","localeAltName":null},{"geonameid":9538921,"name":"Bridge","admin3":"00HE114","localeAltName":null},{"geonameid":2654380,"name":"Bude","admin3":"00HE011","localeAltName":null},{"geonameid":2654375,"name":"Budock Water","admin3":"00HE012","localeAltName":null},{"geonameid":2654371,"name":"Bugle","admin3":"00HE200","localeAltName":null},{"geonameid":2654110,"name":"Cadgwith","admin3":"00HE041","localeAltName":null},{"geonameid":2653981,"name":"Callington","admin3":"00HE013","localeAltName":null},{"geonameid":2653971,"name":"Calstock","admin3":"00HE014","localeAltName":null},{"geonameid":2653945,"name":"Camborne","admin3":"00HE015","localeAltName":null},{"geonameid":9538915,"name":"Cambrose","admin3":"00HE114","localeAltName":null},{"geonameid":2653927,"name":"Camelford","admin3":"00HE016","localeAltName":null},{"geonameid":2653833,"name":"Carbis Bay","admin3":"00HE158","localeAltName":null},{"geonameid":10104000,"name":"Carclew","admin3":"00HE096","localeAltName":null},{"geonameid":2653811,"name":"Cardinham","admin3":"00HE017","localeAltName":null},{"geonameid":10376369,"name":"Carines","admin3":"00HE026","localeAltName":null},{"geonameid":8129295,"name":"Carland Cross","admin3":"00HE179","localeAltName":null},{"geonameid":2653782,"name":"Carleen","admin3":"00HE009","localeAltName":null},{"geonameid":6950970,"name":"Carlyon Bay","admin3":"00HE019","localeAltName":null},{"geonameid":2653725,"name":"Carnbrea","admin3":"00HE118","localeAltName":null},{"geonameid":9538939,"name":"Carne","admin3":"00HE204","localeAltName":null},{"geonameid":11593127,"name":"Carnon Downs","admin3":"00HE036","localeAltName":null},{"geonameid":11072620,"name":"Carthew","admin3":"00HE200","localeAltName":null},{"geonameid":6621660,"name":"Castallack","admin3":"00HE103","localeAltName":null},{"geonameid":2653467,"name":"Cawsand","admin3":"00HE081","localeAltName":null},{"geonameid":10103993,"name":"Central Treviscoe","admin3":"00HE182","localeAltName":null},{"geonameid":2653417,"name":"Chacewater","admin3":"00HE021","localeAltName":null},{"geonameid":2653335,"name":"Charlestown","admin3":"00HE132","localeAltName":null},{"geonameid":2652434,"name":"Constantine","admin3":"00HE023","localeAltName":null},{"geonameid":10103972,"name":"Coombe","admin3":"00HE052","localeAltName":null},{"geonameid":10103987,"name":"Coombe","admin3":"00HE182","localeAltName":null},{"geonameid":2652218,"name":"Coverack","admin3":"00HE163","localeAltName":null},{"geonameid":7909853,"name":"Crackington Haven","admin3":"00HE151","localeAltName":null},{"geonameid":10794242,"name":"Crafthole","admin3":"00HE124","localeAltName":null},{"geonameid":2652076,"name":"Crantock","admin3":"00HE024","localeAltName":null},{"geonameid":2652029,"name":"Creed","admin3":"00HE042","localeAltName":null},{"geonameid":2651853,"name":"Crowan","admin3":"00HE025","localeAltName":null},{"geonameid":11593164,"name":"Crowlas","admin3":"00HE077","localeAltName":null},{"geonameid":6621654,"name":"Crows-an-Wra","admin3":"00HE136","localeAltName":null},{"geonameid":2651791,"name":"Cubert","admin3":"00HE026","localeAltName":null},{"geonameid":2651678,"name":"Cury","admin3":"00HE028","localeAltName":null},{"geonameid":2651483,"name":"Davidstow","admin3":"00HE029","localeAltName":null},{"geonameid":2651404,"name":"Delabole","admin3":"00HE184","localeAltName":null},{"geonameid":6697688,"name":"Devoran","admin3":"00HE036","localeAltName":null},{"geonameid":2651196,"name":"Dobwalls","admin3":"00HE031","localeAltName":null},{"geonameid":2651075,"name":"Doublebois","admin3":"00HE031","localeAltName":null},{"geonameid":11593054,"name":"Downderry","admin3":"00HE030","localeAltName":null},{"geonameid":11593171,"name":"Downgate","admin3":"00HE191","localeAltName":null},{"geonameid":7289302,"name":"Drakewalls","admin3":"00HE014","localeAltName":null},{"geonameid":2650806,"name":"Duloe","admin3":"00HE032","localeAltName":null},{"geonameid":9538914,"name":"East Cliff","admin3":"00HE128","localeAltName":null},{"geonameid":2650387,"name":"East Looe","admin3":"00HE093","localeAltName":null},{"geonameid":9166524,"name":"Edgcumbe","admin3":"00HE209","localeAltName":null},{"geonameid":2650181,"name":"Egloshayle","admin3":"00HE205","localeAltName":null},{"geonameid":2650180,"name":"Egloskerry","admin3":"00HE034","localeAltName":null},{"geonameid":2649715,"name":"Falmouth","admin3":"00HE035","localeAltName":null},{"geonameid":2649537,"name":"Feock","admin3":"00HE036","localeAltName":null},{"geonameid":3345096,"name":"Flexbury","admin3":"00HE011","localeAltName":null},{"geonameid":2649271,"name":"Flushing","admin3":"00HE096","localeAltName":null},{"geonameid":2649193,"name":"Forrabury","admin3":"00HE037","localeAltName":null},{"geonameid":8714312,"name":"Four Lanes","admin3":"00HE020","localeAltName":null},{"geonameid":2649126,"name":"Fowey","admin3":"00HE038","localeAltName":null},{"geonameid":11704110,"name":"Foxhole","admin3":"00HE182","localeAltName":null},{"geonameid":9409473,"name":"Frogpool","admin3":"00HE045","localeAltName":null},{"geonameid":8714347,"name":"Garras","admin3":"00HE085","localeAltName":null},{"geonameid":2648715,"name":"Germoe","admin3":"00HE039","localeAltName":null},{"geonameid":2648714,"name":"Gerrans","admin3":"00HE040","localeAltName":null},{"geonameid":2638699,"name":"Golant","admin3":"00HE181","localeAltName":null},{"geonameid":9538913,"name":"Goonbell","admin3":"00HE128","localeAltName":null},{"geonameid":9166460,"name":"Gorran Haven","admin3":"00HE154","localeAltName":null},{"geonameid":10103997,"name":"Goss Moor","admin3":"00HE145","localeAltName":null},{"geonameid":2648245,"name":"Grade","admin3":"00HE041","localeAltName":null},{"geonameid":2648227,"name":"Grampound","admin3":"00HE042","localeAltName":null},{"geonameid":10630386,"name":"Greenbottom","admin3":"00HE053","localeAltName":null},{"geonameid":2647768,"name":"Gulval","admin3":"00HE107","localeAltName":null},{"geonameid":2647759,"name":"Gunnislake","admin3":"00HE014","localeAltName":null},{"geonameid":2647753,"name":"Gunwalloe","admin3":"00HE043","localeAltName":null},{"geonameid":2647736,"name":"Gweek","admin3":"00HE044","localeAltName":null},{"geonameid":2647731,"name":"Gwennap","admin3":"00HE045","localeAltName":null},{"geonameid":2647728,"name":"Gwinear","admin3":"00HE046","localeAltName":null},{"geonameid":2647725,"name":"Gwithian","admin3":"00HE046","localeAltName":null},{"geonameid":2647258,"name":"Hayle","admin3":"00HE047","localeAltName":null},{"geonameid":2647176,"name":"Helford","admin3":"00HE082","localeAltName":null},{"geonameid":2647171,"name":"Helland","admin3":"00HE048","localeAltName":null},{"geonameid":2647143,"name":"Helston","admin3":"00HE049","localeAltName":null},{"geonameid":2647085,"name":"Henwood","admin3":"00HE073","localeAltName":null},{"geonameid":8199142,"name":"Herodsfoot","admin3":"00HE064","localeAltName":null},{"geonameid":10103988,"name":"High Street","admin3":"00HE182","localeAltName":null},{"geonameid":10103995,"name":"Higher Fraddon","admin3":"00HE145","localeAltName":null},{"geonameid":10376367,"name":"Holywell Bay","admin3":"00HE026","localeAltName":null},{"geonameid":2646268,"name":"Illogan","admin3":"00HE050","localeAltName":null},{"geonameid":2645979,"name":"Jacobstow","admin3":"00HE051","localeAltName":null},{"geonameid":2645919,"name":"Kea","admin3":"00HE052","localeAltName":null},{"geonameid":2645783,"name":"Kenwyn","admin3":"00HE202","localeAltName":null},{"geonameid":2645655,"name":"Kilkhampton","admin3":"00HE054","localeAltName":null},{"geonameid":10377870,"name":"Killigarth","admin3":"00HE065","localeAltName":null},{"geonameid":11593316,"name":"Kingsand","admin3":"00HE081","localeAltName":null},{"geonameid":2645066,"name":"Ladock","admin3":"00HE055","localeAltName":null},{"geonameid":10377871,"name":"Lamellion","admin3":"00HE074","localeAltName":null},{"geonameid":6621658,"name":"Lamorna","admin3":"00HE136","localeAltName":null},{"geonameid":10103971,"name":"Lamorran","admin3":"00HE174","localeAltName":null},{"geonameid":2644967,"name":"Landewednack","admin3":"00HE056","localeAltName":null},{"geonameid":2644962,"name":"Landrake","admin3":"00HE057","localeAltName":null},{"geonameid":10376345,"name":"Lanescot","admin3":"00HE203","localeAltName":null},{"geonameid":2644889,"name":"Lanivet","admin3":"00HE061","localeAltName":null},{"geonameid":2644888,"name":"Lanlivery","admin3":"00HE062","localeAltName":null},{"geonameid":2644884,"name":"Lanreath","admin3":"00HE064","localeAltName":null},{"geonameid":2644882,"name":"Lansallos","admin3":"00HE065","localeAltName":null},{"geonameid":2644880,"name":"Lanteglos","admin3":"00HE016","localeAltName":null},{"geonameid":2644881,"name":"Lanteglos","admin3":"00HE066","localeAltName":null},{"geonameid":2644811,"name":"Launceston","admin3":"00HE068","localeAltName":null},{"geonameid":2644790,"name":"Lawhitton","admin3":"00HE069","localeAltName":null},{"geonameid":2644686,"name":"Leedstown","admin3":"00HE025","localeAltName":null},{"geonameid":2644606,"name":"Lerryn","admin3":"00HE189","localeAltName":null},{"geonameid":2644560,"name":"Lewannick","admin3":"00HE071","localeAltName":null},{"geonameid":2644541,"name":"Lezant","admin3":"00HE072","localeAltName":null},{"geonameid":2644448,"name":"Linkinhorne","admin3":"00HE073","localeAltName":null},{"geonameid":2644409,"name":"Liskeard","admin3":"00HE074","localeAltName":null},{"geonameid":2644270,"name":"Little Petherick","admin3":"00HE156","localeAltName":null},{"geonameid":9538916,"name":"Little Sinns","admin3":"00HE118","localeAltName":null},{"geonameid":10103991,"name":"Little Treviscoe","admin3":"00HE182","localeAltName":null},{"geonameid":2644202,"name":"Lizard","admin3":"00HE056","localeAltName":null},{"geonameid":11593333,"name":"Longrock","admin3":"00HE077","localeAltName":null},{"geonameid":3345093,"name":"Looe","admin3":"00HE075","localeAltName":null},{"geonameid":2643583,"name":"Lostwithiel","admin3":"00HE076","localeAltName":null},{"geonameid":2643536,"name":"Lower Boscaswell","admin3":"00HE161","localeAltName":null},{"geonameid":2643427,"name":"Ludgvan","admin3":"00HE077","localeAltName":null},{"geonameid":2643333,"name":"Luxulian","admin3":"00HE062","localeAltName":null},{"geonameid":2643228,"name":"Madron","admin3":"00HE080","localeAltName":null},{"geonameid":10103974,"name":"Malpas","admin3":"00HE138","localeAltName":null},{"geonameid":2643131,"name":"Manaccan","admin3":"00HE082","localeAltName":null},{"geonameid":2643076,"name":"Marazion","admin3":"00HE083","localeAltName":null},{"geonameid":2643040,"name":"Marhamchurch","admin3":"00HE084","localeAltName":null},{"geonameid":9538919,"name":"Marys Well","admin3":"00HE050","localeAltName":null},{"geonameid":2642893,"name":"Mawgan","admin3":"00HE085","localeAltName":null},{"geonameid":2642892,"name":"Mawgan Porth","admin3":"00HE086","localeAltName":null},{"geonameid":2642891,"name":"Mawnan","admin3":"00HE087","localeAltName":null},{"geonameid":10103990,"name":"Meledor","admin3":"00HE182","localeAltName":null},{"geonameid":2642749,"name":"Menheniot","admin3":"00HE088","localeAltName":null},{"geonameid":2642718,"name":"Merrymeet","admin3":"00HE088","localeAltName":null},{"geonameid":2642687,"name":"Mevagissey","admin3":"00HE089","localeAltName":null},{"geonameid":2642651,"name":"Michaelstow","admin3":"00HE090","localeAltName":null},{"geonameid":2642614,"name":"Middlehill","admin3":"00HE157","localeAltName":null},{"geonameid":2642526,"name":"Millbrook","admin3":"00HE091","localeAltName":null},{"geonameid":2642411,"name":"Mitchell","admin3":"00HE179","localeAltName":null},{"geonameid":2642161,"name":"Morvah","admin3":"00HE092","localeAltName":null},{"geonameid":2642160,"name":"Morval","admin3":"00HE093","localeAltName":null},{"geonameid":2642152,"name":"Morwenstow","admin3":"00HE094","localeAltName":null},{"geonameid":9538911,"name":"Mount Hawke","admin3":"00HE128","localeAltName":null},{"geonameid":2642084,"name":"Mousehole","admin3":"00HE107","localeAltName":null},{"geonameid":2641976,"name":"Mullion","admin3":"00HE095","localeAltName":null},{"geonameid":2641931,"name":"Mylor Bridge","admin3":"00HE096","localeAltName":null},{"geonameid":2641906,"name":"Nancekuke","admin3":"00HE114","localeAltName":null},{"geonameid":7732702,"name":"Nanpean","admin3":"00HE182","localeAltName":null},{"geonameid":6324517,"name":"New Polzeath","admin3":"00HE176","localeAltName":null},{"geonameid":2641621,"name":"Newlyn","admin3":"00HE107","localeAltName":null},{"geonameid":2641620,"name":"Newlyn East","admin3":"00HE179","localeAltName":null},{"geonameid":2641589,"name":"Newquay","admin3":"00HE097","localeAltName":null},{"geonameid":10630496,"name":"No Mans Land Looe","admin3":"00HE168","localeAltName":null},{"geonameid":9538917,"name":"North Country","admin3":"00HE118","localeAltName":null},{"geonameid":2641337,"name":"North Hill","admin3":"00HE098","localeAltName":null},{"geonameid":2641283,"name":"North Petherwin","admin3":"00HE099","localeAltName":null},{"geonameid":2641246,"name":"North Tamerton","admin3":"00HE100","localeAltName":null},{"geonameid":10103973,"name":"Old Kea","admin3":"00HE052","localeAltName":null},{"geonameid":2640845,"name":"Otterham","admin3":"00HE101","localeAltName":null},{"geonameid":2640685,"name":"Padstow","admin3":"00HE102","localeAltName":null},{"geonameid":2640623,"name":"Par","admin3":"00HE133","localeAltName":null},{"geonameid":9538920,"name":"Park Bottom","admin3":"00HE050","localeAltName":null},{"geonameid":2640563,"name":"Paul","admin3":"00HE107","localeAltName":null},{"geonameid":9538918,"name":"Paynters Lane End","admin3":"00HE050","localeAltName":null},{"geonameid":2640508,"name":"Pelynt","admin3":"00HE104","localeAltName":null},{"geonameid":12104695,"name":"Penare","admin3":"00HE154","localeAltName":null},{"geonameid":9883559,"name":"Pendeen","admin3":"00HE161","localeAltName":null},{"geonameid":10376347,"name":"Penpillick","admin3":"00HE062","localeAltName":null},{"geonameid":10103977,"name":"Penpool","admin3":"00HE036","localeAltName":null},{"geonameid":2640413,"name":"Penryn","admin3":"00HE105","localeAltName":null},{"geonameid":3345095,"name":"Pensilva","admin3":"00HE157","localeAltName":null},{"geonameid":2640408,"name":"Pentewan","admin3":"00HE106","localeAltName":null},{"geonameid":10376365,"name":"Pentire","admin3":"00HE097","localeAltName":null},{"geonameid":2640377,"name":"Penzance","admin3":"00HE107","localeAltName":null},{"geonameid":9409472,"name":"Perranarworthal","admin3":"00HE108","localeAltName":null},{"geonameid":2640367,"name":"Perranporth","admin3":"00HE110","localeAltName":null},{"geonameid":2640366,"name":"Perranuthnoe","admin3":"00HE109","localeAltName":null},{"geonameid":2640365,"name":"Perranwell","admin3":"00HE108","localeAltName":null},{"geonameid":2640364,"name":"Perranzabuloe","admin3":"00HE110","localeAltName":null},{"geonameid":2640321,"name":"Phillack","admin3":"00HE047","localeAltName":null},{"geonameid":2640320,"name":"Philleigh","admin3":"00HE111","localeAltName":null},{"geonameid":2640291,"name":"Pillaton","admin3":"00HE112","localeAltName":null},{"geonameid":10103976,"name":"Point","admin3":"00HE036","localeAltName":null},{"geonameid":2640152,"name":"Polperro","admin3":"00HE065","localeAltName":null},{"geonameid":2640151,"name":"Polruan","admin3":"00HE066","localeAltName":null},{"geonameid":7289333,"name":"Polyphant","admin3":"00HE071","localeAltName":null},{"geonameid":6324514,"name":"Polzeath","admin3":"00HE177","localeAltName":null},{"geonameid":9409475,"name":"Ponsanooth","admin3":"00HE153","localeAltName":null},{"geonameid":2640103,"name":"Pool","admin3":"00HE020","localeAltName":null},{"geonameid":2640089,"name":"Porkellis","admin3":"00HE209","localeAltName":null},{"geonameid":11592792,"name":"Port Gaverne","admin3":"00HE144","localeAltName":null},{"geonameid":2640040,"name":"Port Isaac","admin3":"00HE144","localeAltName":null},{"geonameid":7290168,"name":"Porth","admin3":"00HE097","localeAltName":null},{"geonameid":2640055,"name":"Porthallow","admin3":"00HE163","localeAltName":null},{"geonameid":2640052,"name":"Porthcurno","admin3":"00HE166","localeAltName":null},{"geonameid":2640046,"name":"Porthleven","admin3":"00HE113","localeAltName":null},{"geonameid":11821205,"name":"Porthpean","admin3":"00HE132","localeAltName":null},{"geonameid":8714310,"name":"Porthtowan","admin3":"00HE128","localeAltName":null},{"geonameid":2640029,"name":"Portloe","admin3":"00HE204","localeAltName":null},{"geonameid":2640026,"name":"Portmellon","admin3":"00HE089","localeAltName":null},{"geonameid":2640007,"name":"Portreath","admin3":"00HE114","localeAltName":null},{"geonameid":2640044,"name":"Portscatho","admin3":"00HE040","localeAltName":null},{"geonameid":11496487,"name":"Portwrinkle","admin3":"00HE124","localeAltName":null},{"geonameid":2639961,"name":"Poughill","admin3":"00HE011","localeAltName":null},{"geonameid":2639954,"name":"Poundstock","admin3":"00HE115","localeAltName":null},{"geonameid":2639937,"name":"Praze an Beeble","admin3":"00HE046","localeAltName":null},{"geonameid":2639880,"name":"Probus","admin3":"00HE116","localeAltName":null},{"geonameid":2639777,"name":"Quethiock","admin3":"00HE117","localeAltName":null},{"geonameid":11593371,"name":"Quintrell Downs","admin3":"00HE022","localeAltName":null},{"geonameid":2639524,"name":"Redruth","admin3":"00HE118","localeAltName":null},{"geonameid":2639270,"name":"Roche","admin3":"00HE119","localeAltName":null},{"geonameid":6324516,"name":"Rock","admin3":"00HE177","localeAltName":null},{"geonameid":6621635,"name":"Rosudgeon","admin3":"00HE109","localeAltName":null},{"geonameid":10103970,"name":"Ruan Laniforne","admin3":"00HE120","localeAltName":null},{"geonameid":2639007,"name":"Ruan Lanihorne","admin3":"00HE120","localeAltName":null},{"geonameid":2639006,"name":"Ruan Major","admin3":"00HE041","localeAltName":null},{"geonameid":2639005,"name":"Ruan Minor","admin3":"00HE041","localeAltName":null},{"geonameid":2638870,"name":"Saint Agnes","admin3":"00HE128","localeAltName":null},{"geonameid":2638865,"name":"Saint Allen","admin3":"00HE053","localeAltName":null},{"geonameid":2638859,"name":"Saint Anthony","admin3":"00HE130","localeAltName":null},{"geonameid":2638849,"name":"Saint Blazey","admin3":"00HE133","localeAltName":null},{"geonameid":2638845,"name":"Saint Breward","admin3":"00HE135","localeAltName":null},{"geonameid":2638838,"name":"Saint Buryan","admin3":"00HE136","localeAltName":null},{"geonameid":2638832,"name":"Saint Cleer","admin3":"00HE137","localeAltName":null},{"geonameid":2638831,"name":"Saint Clement","admin3":"00HE138","localeAltName":null},{"geonameid":2638829,"name":"Saint Clether","admin3":"00HE139","localeAltName":null},{"geonameid":2638828,"name":"Saint Columb Major","admin3":"00HE140","localeAltName":null},{"geonameid":2638827,"name":"Saint Columb Minor","admin3":"00HE097","localeAltName":null},{"geonameid":2638817,"name":"Saint Dennis","admin3":"00HE142","localeAltName":null},{"geonameid":2638812,"name":"Saint Dominick","admin3":"00HE143","localeAltName":null},{"geonameid":2638810,"name":"Saint Endellion","admin3":"00HE144","localeAltName":null},{"geonameid":2638808,"name":"Saint Enoder","admin3":"00HE145","localeAltName":null},{"geonameid":2638807,"name":"Saint Erme","admin3":"00HE146","localeAltName":null},{"geonameid":2638806,"name":"Saint Erth","admin3":"00HE147","localeAltName":null},{"geonameid":2638805,"name":"Saint Ervan","admin3":"00HE149","localeAltName":null},{"geonameid":2638804,"name":"Saint Eval","admin3":"00HE086","localeAltName":null},{"geonameid":2638803,"name":"Saint Ewe","admin3":"00HE154","localeAltName":null},{"geonameid":2638795,"name":"Saint Gennys","admin3":"00HE151","localeAltName":null},{"geonameid":2638792,"name":"Saint Germans","admin3":"00HE057","localeAltName":null},{"geonameid":2638790,"name":"Saint Goran","admin3":"00HE154","localeAltName":null},{"geonameid":2638783,"name":"Saint Hilary","admin3":"00HE155","localeAltName":null},{"geonameid":2638780,"name":"Saint Issey","admin3":"00HE156","localeAltName":null},{"geonameid":2638779,"name":"Saint Ive","admin3":"00HE157","localeAltName":null},{"geonameid":2638766,"name":"Saint Just in Roseland","admin3":"00HE162","localeAltName":null},{"geonameid":2638765,"name":"Saint Keverne","admin3":"00HE163","localeAltName":null},{"geonameid":2638764,"name":"Saint Kew","admin3":"00HE164","localeAltName":null},{"geonameid":2638763,"name":"Saint Keyne","admin3":"00HE165","localeAltName":null},{"geonameid":2638754,"name":"Saint Levan","admin3":"00HE166","localeAltName":null},{"geonameid":2638752,"name":"Saint Mabyn","admin3":"00HE167","localeAltName":null},{"geonameid":2638744,"name":"Saint Martin","admin3":"00HE168","localeAltName":null},{"geonameid":2638741,"name":"Saint Martins Green","admin3":"00HE169","localeAltName":null},{"geonameid":2638728,"name":"Saint Mawes","admin3":"00HE162","localeAltName":null},{"geonameid":2638727,"name":"Saint Mawgan","admin3":"00HE086","localeAltName":null},{"geonameid":2638726,"name":"Saint Mellion","admin3":"00HE112","localeAltName":null},{"geonameid":2638724,"name":"Saint Merryn","admin3":"00HE171","localeAltName":null},{"geonameid":2638720,"name":"Saint Minver","admin3":"00HE176","localeAltName":null},{"geonameid":2638718,"name":"Saint Neot","admin3":"00HE178","localeAltName":null},{"geonameid":2638698,"name":"Saint Stephen","admin3":"00HE182","localeAltName":null},{"geonameid":2638697,"name":"Saint Teath","admin3":"00HE184","localeAltName":null},{"geonameid":2638691,"name":"Saint Tudy","admin3":"00HE186","localeAltName":null},{"geonameid":2638689,"name":"Saint Veep","admin3":"00HE187","localeAltName":null},{"geonameid":2638686,"name":"Saint Winnow","admin3":"00HE189","localeAltName":null},{"geonameid":2638651,"name":"Saltash","admin3":"00HE121","localeAltName":null},{"geonameid":2638613,"name":"Sancreed","admin3":"00HE122","localeAltName":null},{"geonameid":2638565,"name":"Sandplace","admin3":"00HE093","localeAltName":null},{"geonameid":10103989,"name":"Scarecewater","admin3":"00HE055","localeAltName":null},{"geonameid":2638368,"name":"Scorrier","admin3":"00HE141","localeAltName":null},{"geonameid":11593053,"name":"Seaton","admin3":"00HE030","localeAltName":null},{"geonameid":2638204,"name":"Sennen","admin3":"00HE123","localeAltName":null},{"geonameid":9538912,"name":"Sevenmilestone","admin3":"00HE128","localeAltName":null},{"geonameid":2638008,"name":"Sheviock","admin3":"00HE124","localeAltName":null},{"geonameid":7281149,"name":"Sladesbridge","admin3":"00HE033","localeAltName":null},{"geonameid":2637404,"name":"South Hill","admin3":"00HE126","localeAltName":null},{"geonameid":2637346,"name":"South Petherwin","admin3":"00HE127","localeAltName":null},{"geonameid":2638853,"name":"St Austell","admin3":"00HE131","localeAltName":null},{"geonameid":2638778,"name":"St Ives","admin3":"00HE158","localeAltName":null},{"geonameid":11001762,"name":"St Just","admin3":"00HE161","localeAltName":null},{"geonameid":6691952,"name":"St Mewan","admin3":"00HE172","localeAltName":null},{"geonameid":6621656,"name":"St. Buryan","admin3":"00HE136","localeAltName":null},{"geonameid":2638819,"name":"St. Day","admin3":"00HE141","localeAltName":null},{"geonameid":10103975,"name":"St. Michael Penkivel","admin3":"00HE174","localeAltName":null},{"geonameid":8224196,"name":"Stenalees","admin3":"00HE200","localeAltName":null},{"geonameid":2636907,"name":"Stithians","admin3":"00HE190","localeAltName":null},{"geonameid":10103999,"name":"Stockdale","admin3":"00HE096","localeAltName":null},{"geonameid":2636861,"name":"Stoke Climsland","admin3":"00HE191","localeAltName":null},{"geonameid":2636681,"name":"Stratton","admin3":"00HE011","localeAltName":null},{"geonameid":2636302,"name":"Talland","admin3":"00HE065","localeAltName":null},{"geonameid":2636125,"name":"Temple","admin3":"00HE004","localeAltName":null},{"geonameid":10377869,"name":"The Coombes","admin3":"00HE065","localeAltName":null},{"geonameid":8299848,"name":"Tintagel","admin3":"00HE192","localeAltName":null},{"geonameid":10103996,"name":"Toldish","admin3":"00HE145","localeAltName":null},{"geonameid":6269408,"name":"Tolgullow","admin3":"00HE141","localeAltName":null},{"geonameid":2635651,"name":"Torpoint","admin3":"00HE193","localeAltName":null},{"geonameid":9538910,"name":"Towan Cross","admin3":"00HE128","localeAltName":null},{"geonameid":2635596,"name":"Towednack","admin3":"00HE194","localeAltName":null},{"geonameid":6324518,"name":"Trebetherick","admin3":"00HE177","localeAltName":null},{"geonameid":2635542,"name":"Treen","admin3":"00HE213","localeAltName":null},{"geonameid":10376346,"name":"Treesmill","admin3":"00HE203","localeAltName":null},{"geonameid":2635529,"name":"Tregoney","admin3":"00HE195","localeAltName":null},{"geonameid":11054653,"name":"Tregorrick","admin3":"00HE106","localeAltName":null},{"geonameid":10794248,"name":"Trelash","admin3":"00HE206","localeAltName":null},{"geonameid":2635511,"name":"Tremaine","admin3":"00HE196","localeAltName":null},{"geonameid":10376362,"name":"Trencreek","admin3":"00HE097","localeAltName":null},{"geonameid":2635506,"name":"Treneglos","admin3":"00HE197","localeAltName":null},{"geonameid":10376368,"name":"Tresean","admin3":"00HE026","localeAltName":null},{"geonameid":2635491,"name":"Tresmeer","admin3":"00HE198","localeAltName":null},{"geonameid":10376363,"name":"Tretherras","admin3":"00HE097","localeAltName":null},{"geonameid":7289334,"name":"Trevadlock","admin3":"00HE071","localeAltName":null},{"geonameid":10103992,"name":"Treveiscoe","admin3":"00HE182","localeAltName":null},{"geonameid":2635478,"name":"Trevilley","admin3":"00HE123","localeAltName":null},{"geonameid":10103985,"name":"Trewarthenick","admin3":"00HE195","localeAltName":null},{"geonameid":2635470,"name":"Trewen","admin3":"00HE201","localeAltName":null},{"geonameid":9538942,"name":"Trewithian","admin3":"00HE040","localeAltName":null},{"geonameid":9538940,"name":"Treworlas","admin3":"00HE111","localeAltName":null},{"geonameid":2635412,"name":"Truro","admin3":"00HE202","localeAltName":null},{"geonameid":2635398,"name":"Tuckingmill","admin3":"00HE050","localeAltName":null},{"geonameid":2635254,"name":"Tywardreath","admin3":"00HE203","localeAltName":null},{"geonameid":2635163,"name":"Uny Lelant","admin3":"00HE047","localeAltName":null},{"geonameid":2635099,"name":"Upton","admin3":"00HE073","localeAltName":null},{"geonameid":2634974,"name":"Veryan","admin3":"00HE204","localeAltName":null},{"geonameid":9538938,"name":"Veryan Green","admin3":"00HE204","localeAltName":null},{"geonameid":6693240,"name":"Victoria","admin3":"00HE119","localeAltName":null},{"geonameid":2634920,"name":"Wadebridge","admin3":"00HE205","localeAltName":null},{"geonameid":2634795,"name":"Warbstow","admin3":"00HE206","localeAltName":null},{"geonameid":2634760,"name":"Warleggan","admin3":"00HE207","localeAltName":null},{"geonameid":6951035,"name":"Washaway","admin3":"00HE033","localeAltName":null},{"geonameid":2634609,"name":"Week Saint Mary","admin3":"00HE208","localeAltName":null},{"geonameid":2634537,"name":"Wendron","admin3":"00HE209","localeAltName":null},{"geonameid":2634521,"name":"Werrington","admin3":"00HE210","localeAltName":null},{"geonameid":2634355,"name":"West Looe","admin3":"00HE093","localeAltName":null},{"geonameid":10376366,"name":"West Pentire","admin3":"00HE024","localeAltName":null},{"geonameid":7910552,"name":"Whitecross","admin3":"00HE134","localeAltName":null},{"geonameid":2633741,"name":"Withiel","admin3":"00HE212","localeAltName":null},{"geonameid":7521852,"name":"Woolley","admin3":"00HE094","localeAltName":null},{"geonameid":2633325,"name":"Zelah","admin3":"00HE129","localeAltName":null},{"geonameid":2633324,"name":"Zennor","admin3":"00HE213","localeAltName":null}],"admin3":[{"geonameid":7291044,"name":"Tresmeer","admin3":"00HE198","localeAltName":null},{"geonameid":7291111,"name":"Breage","admin3":"00HE009","localeAltName":null},{"geonameid":7291119,"name":"Deviock","admin3":"00HE030","localeAltName":null},{"geonameid":7291120,"name":"Falmouth","admin3":"00HE035","localeAltName":null},{"geonameid":7291121,"name":"Millbrook","admin3":"00HE091","localeAltName":null},{"geonameid":7291401,"name":"Torpoint","admin3":"00HE193","localeAltName":null},{"geonameid":7291868,"name":"St. Winnow","admin3":"00HE189","localeAltName":null},{"geonameid":7292026,"name":"Tremaine","admin3":"00HE196","localeAltName":null},{"geonameid":7293052,"name":"Camelford","admin3":"00HE016","localeAltName":null},{"geonameid":7293053,"name":"Cardinham","admin3":"00HE017","localeAltName":null},{"geonameid":7293056,"name":"Altarnun","admin3":"00HE002","localeAltName":null},{"geonameid":7293057,"name":"Blisland","admin3":"00HE004","localeAltName":null},{"geonameid":7293066,"name":"Carn Brea","admin3":"00HE020","localeAltName":null},{"geonameid":7293067,"name":"Chacewater","admin3":"00HE021","localeAltName":null},{"geonameid":7293068,"name":"Cury","admin3":"00HE028","localeAltName":null},{"geonameid":7293069,"name":"Davidstow","admin3":"00HE029","localeAltName":null},{"geonameid":7293070,"name":"Gerrans","admin3":"00HE040","localeAltName":null},{"geonameid":7293071,"name":"Gwinear-Gwithian","admin3":"00HE046","localeAltName":null},{"geonameid":7293072,"name":"Kea","admin3":"00HE052","localeAltName":null},{"geonameid":7293073,"name":"Ladock","admin3":"00HE055","localeAltName":null},{"geonameid":7293074,"name":"Laneast","admin3":"00HE059"},{"geonameid":7293075,"name":"Lanhydrock","admin3":"00HE060"},{"geonameid":7293076,"name":"Lanivet","admin3":"00HE061","localeAltName":null},{"geonameid":7293077,"name":"Lanner","admin3":"00HE063"},{"geonameid":7293078,"name":"Lanteglos","admin3":"00HE066","localeAltName":null},{"geonameid":7293079,"name":"Lewannick","admin3":"00HE071","localeAltName":null},{"geonameid":7293080,"name":"Lezant","admin3":"00HE072","localeAltName":null},{"geonameid":7293081,"name":"Linkinhorne","admin3":"00HE073","localeAltName":null},{"geonameid":7293082,"name":"Ludgvan","admin3":"00HE077","localeAltName":null},{"geonameid":7293083,"name":"Luxulyan","admin3":"00HE078"},{"geonameid":7293084,"name":"Marazion","admin3":"00HE083","localeAltName":null},{"geonameid":7293085,"name":"Mawgan-in-Meneage","admin3":"00HE085","localeAltName":null},{"geonameid":7293086,"name":"Mawnan","admin3":"00HE087","localeAltName":null},{"geonameid":7293087,"name":"St. Austell Bay","admin3":"00HE132","localeAltName":null},{"geonameid":7293088,"name":"Mylor","admin3":"00HE096","localeAltName":null},{"geonameid":7293089,"name":"North Hill","admin3":"00HE098","localeAltName":null},{"geonameid":7293090,"name":"North Tamerton","admin3":"00HE100","localeAltName":null},{"geonameid":7293091,"name":"Padstow","admin3":"00HE102","localeAltName":null},{"geonameid":7293092,"name":"Pentewan Valley","admin3":"00HE106","localeAltName":null},{"geonameid":7293093,"name":"Perranzabuloe","admin3":"00HE110","localeAltName":null},{"geonameid":7293094,"name":"Pillaton","admin3":"00HE112","localeAltName":null},{"geonameid":7293095,"name":"Sheviock","admin3":"00HE124","localeAltName":null},{"geonameid":7293096,"name":"St. Allen","admin3":"00HE129","localeAltName":null},{"geonameid":7293097,"name":"St. Breward","admin3":"00HE135","localeAltName":null},{"geonameid":7293098,"name":"St. Endellion","admin3":"00HE144","localeAltName":null},{"geonameid":7293099,"name":"St. Ewe","admin3":"00HE150"},{"geonameid":7293100,"name":"St. Goran","admin3":"00HE154","localeAltName":null},{"geonameid":7293101,"name":"St. Hilary","admin3":"00HE155","localeAltName":null},{"geonameid":7293102,"name":"St. Ive","admin3":"00HE157","localeAltName":null},{"geonameid":7293103,"name":"St. Just-in-Roseland","admin3":"00HE162","localeAltName":null},{"geonameid":7293104,"name":"St. Kew","admin3":"00HE164","localeAltName":null},{"geonameid":7293105,"name":"St. Neot","admin3":"00HE178","localeAltName":null},{"geonameid":7293106,"name":"St. Wenn","admin3":"00HE188"},{"geonameid":7293107,"name":"Tintagel","admin3":"00HE192","localeAltName":null},{"geonameid":7293108,"name":"Treneglos","admin3":"00HE197","localeAltName":null},{"geonameid":7293109,"name":"Wadebridge","admin3":"00HE205","localeAltName":null},{"geonameid":7293110,"name":"Week St. Mary","admin3":"00HE208","localeAltName":null},{"geonameid":7294218,"name":"Carlyon","admin3":"00HE019","localeAltName":null},{"geonameid":7294219,"name":"Crowan","admin3":"00HE025","localeAltName":null},{"geonameid":7294220,"name":"Liskeard","admin3":"00HE074","localeAltName":null},{"geonameid":7294221,"name":"St. Enoder","admin3":"00HE145","localeAltName":null},{"geonameid":7294222,"name":"St. Michael's Mount","admin3":"00HE175"},{"geonameid":7294223,"name":"Trevalga","admin3":"00HE199"},{"geonameid":7294369,"name":"Boyton","admin3":"00HE008","localeAltName":null},{"geonameid":7294373,"name":"Budock","admin3":"00HE012","localeAltName":null},{"geonameid":7294376,"name":"Callington","admin3":"00HE013","localeAltName":null},{"geonameid":7294400,"name":"Calstock","admin3":"00HE014","localeAltName":null},{"geonameid":7294416,"name":"Antony","admin3":"00HE003","localeAltName":null},{"geonameid":7294417,"name":"Boconnoc","admin3":"00HE005"},{"geonameid":7294420,"name":"Botusfleming","admin3":"00HE007"},{"geonameid":7294427,"name":"Constantine","admin3":"00HE023","localeAltName":null},{"geonameid":7294428,"name":"Cubert","admin3":"00HE026","localeAltName":null},{"geonameid":7294430,"name":"Gweek","admin3":"00HE044","localeAltName":null},{"geonameid":7294431,"name":"Illogan","admin3":"00HE050","localeAltName":null},{"geonameid":7294432,"name":"Kenwyn","admin3":"00HE053","localeAltName":null},{"geonameid":7294433,"name":"Landrake with St. Erney","admin3":"00HE057","localeAltName":null},{"geonameid":7294434,"name":"Lanreath","admin3":"00HE064","localeAltName":null},{"geonameid":7294435,"name":"Mabe","admin3":"00HE079"},{"geonameid":7294436,"name":"Manaccan","admin3":"00HE082","localeAltName":null},{"geonameid":7294437,"name":"St. Austell","admin3":"00HE131","localeAltName":null},{"geonameid":7294438,"name":"Otterham","admin3":"00HE101","localeAltName":null},{"geonameid":7294440,"name":"Paul","admin3":"00HE103","localeAltName":null},{"geonameid":7294441,"name":"Poundstock","admin3":"00HE115","localeAltName":null},{"geonameid":7294442,"name":"Redruth","admin3":"00HE118","localeAltName":null},{"geonameid":7294443,"name":"Roche","admin3":"00HE119","localeAltName":null},{"geonameid":7294444,"name":"St. Breock","admin3":"00HE134","localeAltName":null},{"geonameid":7294445,"name":"St. Ervan","admin3":"00HE148"},{"geonameid":7294446,"name":"St. Eval","admin3":"00HE149","localeAltName":null},{"geonameid":7294447,"name":"St Keyne","admin3":"00HE165","localeAltName":null},{"geonameid":7294448,"name":"St. Martin-in-Meneage","admin3":"00HE169","localeAltName":null},{"geonameid":7294449,"name":"St. Merryn","admin3":"00HE171","localeAltName":null},{"geonameid":7294450,"name":"St. Newlyn East","admin3":"00HE179","localeAltName":null},{"geonameid":7294451,"name":"St. Pinnock","admin3":"00HE180"},{"geonameid":7294452,"name":"St. Stephens By Launceston Rural","admin3":"00HE183"},{"geonameid":7294453,"name":"St. Veep","admin3":"00HE187","localeAltName":null},{"geonameid":7294454,"name":"Towednack","admin3":"00HE194","localeAltName":null},{"geonameid":7294455,"name":"Treverbyn","admin3":"00HE200","localeAltName":null},{"geonameid":7294456,"name":"Whitstone","admin3":"00HE211"},{"geonameid":7294457,"name":"Zennor","admin3":"00HE213","localeAltName":null},{"geonameid":7294584,"name":"Bude-Stratton","admin3":"00HE011","localeAltName":null},{"geonameid":7294619,"name":"Colan","admin3":"00HE022","localeAltName":null},{"geonameid":7294620,"name":"Feock","admin3":"00HE036","localeAltName":null},{"geonameid":7294621,"name":"Fowey","admin3":"00HE038","localeAltName":null},{"geonameid":7294622,"name":"Germoe","admin3":"00HE039","localeAltName":null},{"geonameid":7294623,"name":"Grampound with Creed","admin3":"00HE042","localeAltName":null},{"geonameid":7294624,"name":"Gwennap","admin3":"00HE045","localeAltName":null},{"geonameid":7294625,"name":"Hayle","admin3":"00HE047","localeAltName":null},{"geonameid":7294626,"name":"Helston","admin3":"00HE049","localeAltName":null},{"geonameid":7294627,"name":"Lanlivery","admin3":"00HE062","localeAltName":null},{"geonameid":7294628,"name":"Launcells","admin3":"00HE067"},{"geonameid":7294629,"name":"Lostwithiel","admin3":"00HE076","localeAltName":null},{"geonameid":7294630,"name":"Maker-with-Rame","admin3":"00HE081","localeAltName":null},{"geonameid":7294631,"name":"Marhamchurch","admin3":"00HE084","localeAltName":null},{"geonameid":7294632,"name":"Menheniot","admin3":"00HE088","localeAltName":null},{"geonameid":7294633,"name":"Michaelstow","admin3":"00HE090","localeAltName":null},{"geonameid":7294634,"name":"Morvah","admin3":"00HE092","localeAltName":null},{"geonameid":7294635,"name":"Morwenstow","admin3":"00HE094","localeAltName":null},{"geonameid":7294636,"name":"Pelynt","admin3":"00HE104","localeAltName":null},{"geonameid":7294637,"name":"Penryn","admin3":"00HE105","localeAltName":null},{"geonameid":7294638,"name":"Penzance","admin3":"00HE107","localeAltName":null},{"geonameid":7294639,"name":"Perranarworthal","admin3":"00HE108","localeAltName":null},{"geonameid":7294640,"name":"Philleigh","admin3":"00HE111","localeAltName":null},{"geonameid":7294641,"name":"Probus","admin3":"00HE116","localeAltName":null},{"geonameid":7294642,"name":"Saltash","admin3":"00HE121","localeAltName":null},{"geonameid":7294643,"name":"South Petherwin","admin3":"00HE127","localeAltName":null},{"geonameid":7294644,"name":"St. Agnes","admin3":"00HE128","localeAltName":null},{"geonameid":7294645,"name":"St. Anthony-in-Meneage","admin3":"00HE130","localeAltName":null},{"geonameid":7294646,"name":"St. Clement","admin3":"00HE138","localeAltName":null},{"geonameid":7294647,"name":"St. Clether","admin3":"00HE139","localeAltName":null},{"geonameid":7294648,"name":"St. Dominick","admin3":"00HE143","localeAltName":null},{"geonameid":7294649,"name":"St. Germans","admin3":"00HE152"},{"geonameid":7294650,"name":"St. Issey","admin3":"00HE156","localeAltName":null},{"geonameid":7294651,"name":"St. Just","admin3":"00HE161","localeAltName":null},{"geonameid":7294652,"name":"St. Keverne","admin3":"00HE163","localeAltName":null},{"geonameid":7294653,"name":"St. Minver Lowlands","admin3":"00HE177","localeAltName":null},{"geonameid":7294654,"name":"St. Sampson","admin3":"00HE181","localeAltName":null},{"geonameid":7294655,"name":"St. Teath","admin3":"00HE184","localeAltName":null},{"geonameid":7294656,"name":"St. Tudy","admin3":"00HE186","localeAltName":null},{"geonameid":7294657,"name":"Trewen","admin3":"00HE201","localeAltName":null},{"geonameid":7294658,"name":"Veryan","admin3":"00HE204","localeAltName":null},{"geonameid":7294659,"name":"Warleggan","admin3":"00HE207","localeAltName":null},{"geonameid":7294660,"name":"Werrington","admin3":"00HE210","localeAltName":null},{"geonameid":7295217,"name":"Tregoney","admin3":"00HE195","localeAltName":null},{"geonameid":7296213,"name":"Withiel","admin3":"00HE212","localeAltName":null},{"geonameid":7296380,"name":"Forrabury and Minster","admin3":"00HE037","localeAltName":null},{"geonameid":7296381,"name":"Gunwalloe","admin3":"00HE043","localeAltName":null},{"geonameid":7296737,"name":"Wendron","admin3":"00HE209","localeAltName":null},{"geonameid":7297571,"name":"Kilkhampton","admin3":"00HE054","localeAltName":null},{"geonameid":7297572,"name":"Ruanlanihorne","admin3":"00HE120","localeAltName":null},{"geonameid":7297573,"name":"St. Stephen-in-Brannel","admin3":"00HE182","localeAltName":null},{"geonameid":7297574,"name":"Stithians","admin3":"00HE190","localeAltName":null},{"geonameid":7298048,"name":"Dobwalls and Trewidland","admin3":"00HE031","localeAltName":null},{"geonameid":7298049,"name":"Porthleven","admin3":"00HE113","localeAltName":null},{"geonameid":7298050,"name":"St. Buryan","admin3":"00HE136","localeAltName":null},{"geonameid":7298051,"name":"St. Dennis","admin3":"00HE142","localeAltName":null},{"geonameid":7298367,"name":"Broadoak","admin3":"00HE010","localeAltName":null},{"geonameid":7298372,"name":"Truro","admin3":"00HE202","localeAltName":null},{"geonameid":7298373,"name":"Tywardreath and Par","admin3":"00HE203","localeAltName":null},{"geonameid":7299022,"name":"St. Mabyn","admin3":"00HE167","localeAltName":null},{"geonameid":7299942,"name":"Camborne","admin3":"00HE015","localeAltName":null},{"geonameid":7299975,"name":"Advent","admin3":"00HE001"},{"geonameid":7299979,"name":"Bodmin","admin3":"00HE006","localeAltName":null},{"geonameid":7299989,"name":"Carharrack","admin3":"00HE018"},{"geonameid":7300005,"name":"Crantock","admin3":"00HE024","localeAltName":null},{"geonameid":7300006,"name":"Cuby","admin3":"00HE027"},{"geonameid":7300007,"name":"Duloe","admin3":"00HE032","localeAltName":null},{"geonameid":7300008,"name":"Egloshayle","admin3":"00HE033","localeAltName":null},{"geonameid":7300009,"name":"Egloskerry","admin3":"00HE034","localeAltName":null},{"geonameid":7300010,"name":"Grade-Ruan","admin3":"00HE041","localeAltName":null},{"geonameid":7300011,"name":"Helland","admin3":"00HE048","localeAltName":null},{"geonameid":7300012,"name":"Jacobstow","admin3":"00HE051","localeAltName":null},{"geonameid":7300013,"name":"Landewednack","admin3":"00HE056","localeAltName":null},{"geonameid":7300014,"name":"Landulph","admin3":"00HE058"},{"geonameid":7300015,"name":"Lansallos","admin3":"00HE065","localeAltName":null},{"geonameid":7300016,"name":"Launceston","admin3":"00HE068","localeAltName":null},{"geonameid":7300017,"name":"Lawhitton Rural","admin3":"00HE069","localeAltName":null},{"geonameid":7300018,"name":"Lesnewth","admin3":"00HE070"},{"geonameid":7300019,"name":"Looe","admin3":"00HE075","localeAltName":null},{"geonameid":7300020,"name":"Madron","admin3":"00HE080","localeAltName":null},{"geonameid":7300021,"name":"Mawgan-in-Pydar","admin3":"00HE086","localeAltName":null},{"geonameid":7300022,"name":"Mevagissey","admin3":"00HE089","localeAltName":null},{"geonameid":7300023,"name":"Morval","admin3":"00HE093","localeAltName":null},{"geonameid":7300024,"name":"Mullion","admin3":"00HE095","localeAltName":null},{"geonameid":7300025,"name":"Newquay","admin3":"00HE097","localeAltName":null},{"geonameid":7300026,"name":"North Petherwin","admin3":"00HE099","localeAltName":null},{"geonameid":7300027,"name":"Perranuthnoe","admin3":"00HE109","localeAltName":null},{"geonameid":7300028,"name":"Portreath","admin3":"00HE114","localeAltName":null},{"geonameid":7300029,"name":"Quethiock","admin3":"00HE117","localeAltName":null},{"geonameid":7300030,"name":"Sancreed","admin3":"00HE122","localeAltName":null},{"geonameid":7300031,"name":"Sennen","admin3":"00HE123","localeAltName":null},{"geonameid":7300032,"name":"Sithney","admin3":"00HE125"},{"geonameid":7300033,"name":"South Hill","admin3":"00HE126","localeAltName":null},{"geonameid":7300034,"name":"St. Blaise","admin3":"00HE133","localeAltName":null},{"geonameid":7300035,"name":"St. Cleer","admin3":"00HE137","localeAltName":null},{"geonameid":7300036,"name":"St. Columb Major","admin3":"00HE140","localeAltName":null},{"geonameid":7300037,"name":"St. Day","admin3":"00HE141","localeAltName":null},{"geonameid":7300038,"name":"St. Erme","admin3":"00HE146","localeAltName":null},{"geonameid":7300039,"name":"St. Erth","admin3":"00HE147","localeAltName":null},{"geonameid":7300040,"name":"St. Gennys","admin3":"00HE151","localeAltName":null},{"geonameid":7300041,"name":"St. Gluvias","admin3":"00HE153","localeAltName":null},{"geonameid":7300042,"name":"St. Ives","admin3":"00HE158","localeAltName":null},{"geonameid":7300043,"name":"St. John","admin3":"00HE159"},{"geonameid":7300044,"name":"St Juliot","admin3":"00HE160"},{"geonameid":7300045,"name":"St. Levan","admin3":"00HE166","localeAltName":null},{"geonameid":7300046,"name":"St. Martin-by-Looe","admin3":"00HE168","localeAltName":null},{"geonameid":7300047,"name":"St. Mellion","admin3":"00HE170"},{"geonameid":7300048,"name":"St. Mewan","admin3":"00HE172","localeAltName":null},{"geonameid":7300049,"name":"St. Michael Caerhays","admin3":"00HE173"},{"geonameid":7300050,"name":"St. Michael Penkevil","admin3":"00HE174","localeAltName":null},{"geonameid":7300051,"name":"St. Minver Highlands","admin3":"00HE176","localeAltName":null},{"geonameid":7300067,"name":"St. Thomas the Apostle Rural","admin3":"00HE185"},{"geonameid":7300068,"name":"Stokeclimsland","admin3":"00HE191","localeAltName":null},{"geonameid":7300069,"name":"Warbstow","admin3":"00HE206","localeAltName":null}],"alternateNames":[{"alternatenameId":1626647,"geonameid":6269131,"isoLanguage":"en","alternateName":"England","isPreferredName":true,"isShortName":true,"isColloquial":false,"isHistoric":false}]},"__N_SSG":true}