{"pageProps":{"locale":"en","admin2":{"geonameid":11995138,"name":"Sahtu Region","country":"CA","admin1":"13","admin2":"11995138","admin3":"","latitude":"65.2843500","longitude":"-126.8521300"},"admin1":{"geonameid":6091069,"name":"Northwest Territories","admin1":"13"},"locations":[{"geonameid":5926246,"name":"Colville Lake","admin3":"6102012"},{"geonameid":6943714,"name":"Deline","admin3":"6102003"},{"geonameid":6943715,"name":"Fort Franklin","admin3":"6102003"},{"geonameid":5955840,"name":"Fort Good Hope","admin3":"6102009"},{"geonameid":6089245,"name":"Norman Wells","admin3":"6102007"},{"geonameid":6170056,"name":"Tulita","admin3":"6102005"}],"admin3":[{"geonameid":11995148,"name":"Colville Lake","admin3":"6102012"},{"geonameid":11995151,"name":"Fort Good Hope","admin3":"6102009"},{"geonameid":11995159,"name":"DÃ©line","admin3":"6102003"},{"geonameid":11995163,"name":"Norman Wells","admin3":"6102007"},{"geonameid":11995172,"name":"Tulita","admin3":"6102005"}],"alternateNames":[]},"__N_SSG":true}