{"pageProps":{"locale":"en","admin2":{"geonameid":4229163,"name":"Walker County","country":"US","admin1":"GA","admin2":"295","admin3":"","latitude":"34.7356600","longitude":"-85.3009800"},"admin1":{"geonameid":4197000,"name":"Georgia","admin1":"GA","localeAltName":"Georgia"},"locations":[{"geonameid":4187446,"name":"Chattanooga Valley","admin3":""},{"geonameid":4187696,"name":"Chickamauga","admin3":""},{"geonameid":4194202,"name":"Fairview","admin3":""},{"geonameid":4204241,"name":"LaFayette","admin3":""},{"geonameid":4206783,"name":"Lookout Mountain","admin3":""},{"geonameid":4219964,"name":"Rossville","admin3":""}],"admin3":[{"geonameid":7170158,"name":"City of Rossville","admin3":"7170158"},{"geonameid":7317788,"name":"City of Chickamauga","admin3":"7317788"},{"geonameid":7318034,"name":"City of LaFayette","admin3":"7318034"},{"geonameid":7318061,"name":"City of Lookout Mountain","admin3":"7318061"}],"alternateNames":[{"alternatenameId":2089570,"geonameid":4197000,"isoLanguage":"en","alternateName":"Georgia","isPreferredName":true,"isShortName":true,"isColloquial":false,"isHistoric":false}]},"__N_SSG":true}