{"pageProps":{"locale":"ro","admin2":{"geonameid":669701,"name":"Comuna Predeal-Sărari","country":"RO","admin1":"30","admin2":"134755","admin3":"","latitude":"45.1889100","longitude":"26.1061300"},"admin1":{"geonameid":669737,"name":"Prahova","admin1":"30"},"locations":[{"geonameid":684534,"name":"Bobicești","admin3":""},{"geonameid":669999,"name":"Poienile","admin3":""},{"geonameid":669705,"name":"Predeal","admin3":""},{"geonameid":668058,"name":"Sărari","admin3":""},{"geonameid":668029,"name":"Sărățel","admin3":""},{"geonameid":668020,"name":"Sărăţile","admin3":""},{"geonameid":664523,"name":"Tulburea Văleni","admin3":""},{"geonameid":662659,"name":"Vitioara de Sus","admin3":""},{"geonameid":662643,"name":"Vlădari","admin3":""},{"geonameid":662324,"name":"Zâmbroaia","admin3":""}],"admin3":[],"alternateNames":[{"alternatenameId":8326236,"geonameid":669737,"isoLanguage":"en","alternateName":"Prahova","isPreferredName":true,"isShortName":true,"isColloquial":false,"isHistoric":false}]},"__N_SSG":true}