{"pageProps":{"locale":"ro","admin2":{"geonameid":668910,"name":"Comuna Râfov","country":"RO","admin1":"30","admin2":"135020","admin3":"","latitude":"44.8500100","longitude":"26.2057300"},"admin1":{"geonameid":669737,"name":"Prahova","admin1":"30"},"locations":[{"geonameid":686299,"name":"Antofiloaia","admin3":""},{"geonameid":683378,"name":"Buchilași","admin3":""},{"geonameid":683497,"name":"Buda","admin3":""},{"geonameid":681191,"name":"Cocoşei","admin3":""},{"geonameid":676990,"name":"Goga","admin3":""},{"geonameid":676958,"name":"Golăşei","admin3":""},{"geonameid":674048,"name":"Mălăiești","admin3":""},{"geonameid":673008,"name":"Moara Domnească","admin3":""},{"geonameid":671473,"name":"Palanca","admin3":""},{"geonameid":668911,"name":"Râfov","admin3":""},{"geonameid":667246,"name":"Sicrita","admin3":""}],"admin3":[],"alternateNames":[{"alternatenameId":8326236,"geonameid":669737,"isoLanguage":"en","alternateName":"Prahova","isPreferredName":true,"isShortName":true,"isColloquial":false,"isHistoric":false}]},"__N_SSG":true}