{"pageProps":{"locale":"ro","admin2":{"geonameid":670335,"name":"Comuna Podenii Noi","country":"RO","admin1":"30","admin2":"134443","admin3":"","latitude":"45.1042300","longitude":"26.1902300"},"admin1":{"geonameid":669737,"name":"Prahova","admin1":"30"},"locations":[{"geonameid":677345,"name":"Ghiocel","admin3":""},{"geonameid":673614,"name":"Mehedința","admin3":""},{"geonameid":672288,"name":"Nevesteasca","admin3":""},{"geonameid":670336,"name":"Podenii Noi","admin3":""},{"geonameid":670291,"name":"Podu lui Galben","admin3":""},{"geonameid":669894,"name":"Popești","admin3":""},{"geonameid":669207,"name":"Rahova","admin3":""},{"geonameid":668184,"name":"Sălcioara","admin3":""},{"geonameid":667316,"name":"Sfăcăru","admin3":""},{"geonameid":663775,"name":"Valea Dulce","admin3":""}],"admin3":[],"alternateNames":[{"alternatenameId":8326236,"geonameid":669737,"isoLanguage":"en","alternateName":"Prahova","isPreferredName":true,"isShortName":true,"isColloquial":false,"isHistoric":false}]},"__N_SSG":true}