{"pageProps":{"locale":"ro","admin2":{"geonameid":8334948,"name":"Oraş Breaza","country":"RO","admin1":"30","admin2":"131103","admin3":"","latitude":"45.1871000","longitude":"25.6585100"},"admin1":{"geonameid":669737,"name":"Prahova","admin1":"30"},"locations":[{"geonameid":685138,"name":"Belia","admin3":""},{"geonameid":683760,"name":"Breaza","admin3":""},{"geonameid":683751,"name":"Breaza de Jos","admin3":""},{"geonameid":683749,"name":"Breaza de Sus","admin3":""},{"geonameid":682775,"name":"Capu Câmpului","admin3":""},{"geonameid":678812,"name":"Drogu","admin3":""},{"geonameid":677951,"name":"Frăsinet","admin3":""},{"geonameid":676563,"name":"Gura Beliei","admin3":""},{"geonameid":675497,"name":"Irimești","admin3":""},{"geonameid":672191,"name":"Nistorești","admin3":""},{"geonameid":670309,"name":"Podu Corbului","admin3":""},{"geonameid":670254,"name":"Podu Vadului","admin3":""},{"geonameid":665739,"name":"Surdești","admin3":""},{"geonameid":663820,"name":"Valea Corbului","admin3":""},{"geonameid":663570,"name":"Valea Morii","admin3":""},{"geonameid":663355,"name":"Valea Târsei","admin3":""}],"admin3":[],"alternateNames":[{"alternatenameId":8326236,"geonameid":669737,"isoLanguage":"en","alternateName":"Prahova","isPreferredName":true,"isShortName":true,"isColloquial":false,"isHistoric":false}]},"__N_SSG":true}