{"pageProps":{"locale":"ro","admin2":{"geonameid":670020,"name":"Comuna Poiana Teiului","country":"RO","admin1":"28","admin2":"123790","admin3":"","latitude":"47.1140300","longitude":"25.9251700"},"admin1":{"geonameid":672460,"name":"Neamţ","admin1":"28"},"locations":[{"geonameid":683670,"name":"Brânzeni","admin3":""},{"geonameid":682901,"name":"Călugăreni","admin3":""},{"geonameid":680685,"name":"Coroiu","admin3":""},{"geonameid":678840,"name":"Dreptu","admin3":""},{"geonameid":678839,"name":"Dreptu de Jos","admin3":""},{"geonameid":677635,"name":"Galu","admin3":""},{"geonameid":675016,"name":"Largu","admin3":""},{"geonameid":670729,"name":"Pârâul Fagului","admin3":""},{"geonameid":670929,"name":"Petru Vodă","admin3":""},{"geonameid":670073,"name":"Poiana Largului","admin3":""},{"geonameid":670040,"name":"Poiana Răchiţii","admin3":""},{"geonameid":670021,"name":"Poiana Teiului","admin3":""},{"geonameid":668664,"name":"Roșeni","admin3":""},{"geonameid":668406,"name":"Ruseni","admin3":""},{"geonameid":667750,"name":"Săvinești","admin3":""},{"geonameid":664740,"name":"Topoliceni","admin3":""},{"geonameid":664741,"name":"Topoliceni","admin3":""}],"admin3":[],"alternateNames":[]},"__N_SSG":true}