{"pageProps":{"locale":"en","admin2":{"geonameid":5021038,"name":"Chippewa County","country":"US","admin1":"MN","admin2":"023","admin3":"","latitude":"45.0223400","longitude":"-95.5666900"},"admin1":{"geonameid":5037779,"name":"Minnesota","admin1":"MN","localeAltName":"Minnesota"},"locations":[{"geonameid":5021351,"name":"Clara City","admin3":"11548"},{"geonameid":5038018,"name":"Montevideo","admin3":"43720"}],"admin3":[{"geonameid":5018235,"name":"Township of Big Bend","admin3":"05608"},{"geonameid":5021353,"name":"City of Clara City","admin3":"11548"},{"geonameid":5023364,"name":"Township of Crate","admin3":"13672"},{"geonameid":5028445,"name":"Township of Grace","admin3":"24722"},{"geonameid":5028597,"name":"Township of Granite Falls","admin3":"25262"},{"geonameid":5029548,"name":"Township of Havelock","admin3":"27656"},{"geonameid":5033490,"name":"Township of Kragero","admin3":"33668"},{"geonameid":5034415,"name":"Township of Leenthrop","admin3":"36278"},{"geonameid":5035467,"name":"Township of Lone Tree","admin3":"37952"},{"geonameid":5035858,"name":"Township of Louriston","admin3":"38312"},{"geonameid":5036403,"name":"Township of Mandt","admin3":"39752"},{"geonameid":5036923,"name":"City of Maynard","admin3":"41210"},{"geonameid":5037477,"name":"City of Milan","admin3":"42146"},{"geonameid":5038032,"name":"City of Montevideo","admin3":"43720"},{"geonameid":5042988,"name":"Township of Rheiderland","admin3":"53962"},{"geonameid":5043808,"name":"Township of Rosewood","admin3":"55870"},{"geonameid":5048126,"name":"Township of Sparta","admin3":"61582"},{"geonameid":5048873,"name":"Township of Stoneham","admin3":"62950"},{"geonameid":5050633,"name":"Township of Tunsberg","admin3":"65704"},{"geonameid":5052167,"name":"City of Watson","admin3":"68656"},{"geonameid":5053427,"name":"Township of Woods","admin3":"71626"}],"alternateNames":[{"alternatenameId":2089541,"geonameid":5037779,"isoLanguage":"en","alternateName":"Minnesota","isPreferredName":true,"isShortName":true,"isColloquial":false,"isHistoric":false}]},"__N_SSG":true}