{"pageProps":{"locale":"en","admin2":{"geonameid":5024544,"name":"Douglas County","country":"US","admin1":"MN","admin2":"041","admin3":"","latitude":"45.9337200","longitude":"-95.4535200"},"admin1":{"geonameid":5037779,"name":"Minnesota","admin1":"MN","localeAltName":"Minnesota"},"locations":[{"geonameid":5016108,"name":"Alexandria","admin3":"00928"},{"geonameid":5040389,"name":"Osakis","admin3":"48796"}],"admin3":[{"geonameid":5016115,"name":"City of Alexandria","admin3":"00928"},{"geonameid":5016116,"name":"Township of Alexandria","admin3":"00946"},{"geonameid":5017770,"name":"Township of Belle River","admin3":"04924"},{"geonameid":5019143,"name":"City of Brandon","admin3":"07336"},{"geonameid":5019144,"name":"Township of Brandon","admin3":"07354"},{"geonameid":5020406,"name":"City of Carlos","admin3":"09964"},{"geonameid":5020408,"name":"Township of Carlos","admin3":"09982"},{"geonameid":5025968,"name":"City of Evansville","admin3":"19898"},{"geonameid":5025969,"name":"Township of Evansville","admin3":"19916"},{"geonameid":5027085,"name":"City of Forada","admin3":"21608"},{"geonameid":5027700,"name":"City of Garfield","admin3":"23120"},{"geonameid":5030463,"name":"Township of Holmes City","admin3":"29798"},{"geonameid":5030881,"name":"Township of Hudson","admin3":"30374"},{"geonameid":5031038,"name":"Township of Ida","admin3":"30716"},{"geonameid":5033079,"name":"City of Kensington","admin3":"32768"},{"geonameid":5033598,"name":"Township of La Grand","admin3":"33992"},{"geonameid":5033866,"name":"Township of Lake Mary","admin3":"34730"},{"geonameid":5034369,"name":"Township of Leaf Valley","admin3":"36062"},{"geonameid":5036008,"name":"Township of Lund","admin3":"38510"},{"geonameid":5037564,"name":"City of Millerville","admin3":"42254"},{"geonameid":5037565,"name":"Township of Millerville","admin3":"42272"},{"geonameid":5037605,"name":"City of Miltona","admin3":"42398"},{"geonameid":5037607,"name":"Township of Miltona","admin3":"42416"},{"geonameid":5037946,"name":"Township of Moe","admin3":"43558"},{"geonameid":5039007,"name":"City of Nelson","admin3":"45106"},{"geonameid":5040302,"name":"Township of Orange","admin3":"48472"},{"geonameid":5040401,"name":"City of Osakis","admin3":"48796"},{"geonameid":5040402,"name":"Township of Osakis","admin3":"48814"},{"geonameid":5047815,"name":"Township of Solem","admin3":"61078"},{"geonameid":5048437,"name":"Township of Spruce Hill","admin3":"62248"},{"geonameid":5051163,"name":"Township of Urness","admin3":"66406"}],"alternateNames":[{"alternatenameId":2089541,"geonameid":5037779,"isoLanguage":"en","alternateName":"Minnesota","isPreferredName":true,"isShortName":true,"isColloquial":false,"isHistoric":false}]},"__N_SSG":true}