{"pageProps":{"locale":"en","admin2":{"geonameid":5033738,"name":"Lake County","country":"US","admin1":"MN","admin2":"075","admin3":"","latitude":"47.5231700","longitude":"-91.4088500"},"admin1":{"geonameid":5037779,"name":"Minnesota","admin1":"MN","localeAltName":"Minnesota"},"locations":[{"geonameid":5047308,"name":"Silver Bay","admin3":"60250"},{"geonameid":5050817,"name":"Two Harbors","admin3":"65956"}],"admin3":[{"geonameid":5017574,"name":"City of Beaver Bay","admin3":"04456"},{"geonameid":5017575,"name":"Township of Beaver Bay","admin3":"04474"},{"geonameid":5023575,"name":"Township of Crystal Bay","admin3":"14194"},{"geonameid":5026262,"name":"Township of Fall Lake","admin3":"20456"},{"geonameid":5047311,"name":"City of Silver Bay","admin3":"60250"},{"geonameid":5047339,"name":"Township of Silver Creek","admin3":"60304"},{"geonameid":5048933,"name":"Township of Stony River","admin3":"62995"},{"geonameid":5050820,"name":"City of Two Harbors","admin3":"65956"}],"alternateNames":[{"alternatenameId":2089541,"geonameid":5037779,"isoLanguage":"en","alternateName":"Minnesota","isPreferredName":true,"isShortName":true,"isColloquial":false,"isHistoric":false}]},"__N_SSG":true}