{"pageProps":{"locale":"en","admin2":{"geonameid":5034652,"name":"Lincoln County","country":"US","admin1":"MN","admin2":"081","admin3":"","latitude":"44.4126000","longitude":"-96.2670900"},"admin1":{"geonameid":5037779,"name":"Minnesota","admin1":"MN","localeAltName":"Minnesota"},"locations":[{"geonameid":5050847,"name":"Tyler","admin3":"66046"}],"admin3":[{"geonameid":5016214,"name":"Township of Alta Vista","admin3":"01180"},{"geonameid":5016544,"name":"City of Arco","admin3":"01972"},{"geonameid":5016690,"name":"Township of Ash Lake","admin3":"02476"},{"geonameid":5024300,"name":"Township of Diamond Lake","admin3":"15940"},{"geonameid":5024602,"name":"Township of Drammen","admin3":"16372"},{"geonameid":5029322,"name":"Township of Hansonville","admin3":"27026"},{"geonameid":5029862,"name":"City of Hendricks","admin3":"28430"},{"geonameid":5029864,"name":"Township of Hendricks","admin3":"28448"},{"geonameid":5030669,"name":"Township of Hope","admin3":"30104"},{"geonameid":5031634,"name":"City of Ivanhoe","admin3":"31526"},{"geonameid":5033714,"name":"City of Lake Benton","admin3":"34100"},{"geonameid":5033715,"name":"Township of Lake Benton","admin3":"34118"},{"geonameid":5033926,"name":"Township of Lake Stay","admin3":"35054"},{"geonameid":5034640,"name":"Township of Limestone","admin3":"37106"},{"geonameid":5036614,"name":"Township of Marble","admin3":"40436"},{"geonameid":5036758,"name":"Township of Marshfield","admin3":"40760"},{"geonameid":5043977,"name":"Township of Royal","admin3":"56158"},{"geonameid":5047035,"name":"Township of Shaokatan","admin3":"59377"},{"geonameid":5050859,"name":"City of Tyler","admin3":"66046"},{"geonameid":5051297,"name":"Township of Verdi","admin3":"66730"}],"alternateNames":[{"alternatenameId":2089541,"geonameid":5037779,"isoLanguage":"en","alternateName":"Minnesota","isPreferredName":true,"isShortName":true,"isColloquial":false,"isHistoric":false}]},"__N_SSG":true}