{"pageProps":{"locale":"en","admin2":{"geonameid":5039323,"name":"Nobles County","country":"US","admin1":"MN","admin2":"105","admin3":"","latitude":"43.6742400","longitude":"-95.7533900"},"admin1":{"geonameid":5037779,"name":"Minnesota","admin1":"MN","localeAltName":"Minnesota"},"locations":[{"geonameid":5015882,"name":"Adrian","admin3":"00262"},{"geonameid":5053460,"name":"Worthington","admin3":"71734"}],"admin3":[{"geonameid":5015895,"name":"City of Adrian","admin3":"00262"},{"geonameid":5018409,"name":"City of Bigelow","admin3":"05644"},{"geonameid":5018410,"name":"Township of Bigelow","admin3":"05662"},{"geonameid":5018718,"name":"Township of Bloom","admin3":"06508"},{"geonameid":5019229,"name":"City of Brewster","admin3":"07660"},{"geonameid":5024267,"name":"Township of Dewald","admin3":"15850"},{"geonameid":5024763,"name":"City of Dundee","admin3":"17144"},{"geonameid":5025489,"name":"Township of Elk","admin3":"18602"},{"geonameid":5025552,"name":"City of Ellsworth","admin3":"18836"},{"geonameid":5028478,"name":"Township of Graham Lakes","admin3":"24848"},{"geonameid":5028536,"name":"Township of Grand Prairie","admin3":"25100"},{"geonameid":5029979,"name":"Township of Hersey","admin3":"28736"},{"geonameid":5031234,"name":"Township of Indian Lake","admin3":"30878"},{"geonameid":5033239,"name":"City of Kinbrae","admin3":"33236"},{"geonameid":5034186,"name":"Township of Larkin","admin3":"35666"},{"geonameid":5034498,"name":"Township of Leota","admin3":"36566"},{"geonameid":5034809,"name":"City of Lismore","admin3":"37412"},{"geonameid":5034810,"name":"Township of Lismore","admin3":"37430"},{"geonameid":5035226,"name":"Township of Little Rock","admin3":"37682"},{"geonameid":5035738,"name":"Township of Lorain","admin3":"38204"},{"geonameid":5040224,"name":"Township of Olney","admin3":"48274"},{"geonameid":5042616,"name":"Township of Ransom","admin3":"53152"},{"geonameid":5043929,"name":"City of Round Lake","admin3":"56086"},{"geonameid":5044078,"name":"City of Rushmore","admin3":"56338"},{"geonameid":5046953,"name":"Township of Seward","admin3":"59260"},{"geonameid":5049169,"name":"Township of Summit Lake","admin3":"63400"},{"geonameid":5052568,"name":"Township of Westside","admin3":"69718"},{"geonameid":5053012,"name":"City of Wilmont","admin3":"70582"},{"geonameid":5053013,"name":"Township of Wilmont","admin3":"70600"},{"geonameid":5053475,"name":"City of Worthington","admin3":"71734"},{"geonameid":5053476,"name":"Township of Worthington","admin3":"71752"}],"alternateNames":[{"alternatenameId":2089541,"geonameid":5037779,"isoLanguage":"en","alternateName":"Minnesota","isPreferredName":true,"isShortName":true,"isColloquial":false,"isHistoric":false}]},"__N_SSG":true}