{"pageProps":{"locale":"en","admin2":{"geonameid":5043753,"name":"Roseau County","country":"US","admin1":"MN","admin2":"135","admin3":"","latitude":"48.7751400","longitude":"-95.8108200"},"admin1":{"geonameid":5037779,"name":"Minnesota","admin1":"MN","localeAltName":"Minnesota"},"locations":[{"geonameid":5043752,"name":"Roseau","admin3":"55546"},{"geonameid":5051893,"name":"Warroad","admin3":"68224"}],"admin3":[{"geonameid":5017030,"name":"City of Badger","admin3":"03160"},{"geonameid":5017191,"name":"Township of Barnett","admin3":"03610"},{"geonameid":5017240,"name":"Township of Barto","admin3":"03808"},{"geonameid":5017651,"name":"Township of Beaver","admin3":"04420"},{"geonameid":5020707,"name":"Township of Cedarbend","admin3":"10414"},{"geonameid":5024108,"name":"Township of Deer","admin3":"15166"},{"geonameid":5024272,"name":"Township of Dewey","admin3":"15868"},{"geonameid":5024317,"name":"Township of Dieter","admin3":"15958"},{"geonameid":5025783,"name":"Township of Enstrom","admin3":"19466"},{"geonameid":5026274,"name":"Township of Falun","admin3":"20492"},{"geonameid":5028169,"name":"Township of Golden Valley","admin3":"24326"},{"geonameid":5028790,"name":"City of Greenbush","admin3":"25604"},{"geonameid":5028909,"name":"Township of Grimstad","admin3":"26036"},{"geonameid":5029927,"name":"Township of Hereim","admin3":"28628"},{"geonameid":5030969,"name":"Township of Huss","admin3":"30626"},{"geonameid":5031728,"name":"Township of Jadis","admin3":"31634"},{"geonameid":5033957,"name":"Township of Lake","admin3":"34010"},{"geonameid":5034174,"name":"Township of Laona","admin3":"35594"},{"geonameid":5034712,"name":"Township of Lind","admin3":"37196"},{"geonameid":5036374,"name":"Township of Malung","admin3":"39644"},{"geonameid":5037382,"name":"Township of Mickinock","admin3":"41894"},{"geonameid":5038187,"name":"Township of Moose","admin3":"43900"},{"geonameid":5038210,"name":"Township of Moranville","admin3":"44080"},{"geonameid":5039013,"name":"Township of Nereson","admin3":"45178"},{"geonameid":5039582,"name":"Unorganized Territory of North Roseau","admin3":"47216"},{"geonameid":5039732,"name":"Unorganized Territory of Northwest Roseau","admin3":"47357"},{"geonameid":5040764,"name":"Township of Palmville","admin3":"49588"},{"geonameid":5041942,"name":"Township of Pohlitz","admin3":"51748"},{"geonameid":5041977,"name":"Township of Polonia","admin3":"51820"},{"geonameid":5042081,"name":"Township of Poplar Grove","admin3":"51982"},{"geonameid":5042886,"name":"Township of Reine","admin3":"53728"},{"geonameid":5043680,"name":"City of Roosevelt","admin3":"55438"},{"geonameid":5043761,"name":"City of Roseau","admin3":"55546"},{"geonameid":5043821,"name":"Township of Ross","admin3":"55942"},{"geonameid":5047486,"name":"Township of Skagen","admin3":"60610"},{"geonameid":5047816,"name":"Township of Soler","admin3":"61096"},{"geonameid":5048083,"name":"Unorganized Territory of Southeast Roseau","admin3":"61330"},{"geonameid":5048456,"name":"Township of Spruce","admin3":"62158"},{"geonameid":5048506,"name":"Township of Stafford","admin3":"62338"},{"geonameid":5048850,"name":"Township of Stokes","admin3":"62932"},{"geonameid":5048985,"name":"City of Strathcona","admin3":"63130"},{"geonameid":5051923,"name":"City of Warroad","admin3":"68224"}],"alternateNames":[{"alternatenameId":2089541,"geonameid":5037779,"isoLanguage":"en","alternateName":"Minnesota","isPreferredName":true,"isShortName":true,"isColloquial":false,"isHistoric":false}]},"__N_SSG":true}