{"pageProps":{"locale":"en","admin2":{"geonameid":5048696,"name":"Steele County","country":"US","admin1":"MN","admin2":"147","admin3":"","latitude":"44.0223400","longitude":"-93.2260400"},"admin1":{"geonameid":5037779,"name":"Minnesota","admin1":"MN","localeAltName":"Minnesota"},"locations":[{"geonameid":5018727,"name":"Blooming Prairie","admin3":""},{"geonameid":5037164,"name":"Medford","admin3":"41426"},{"geonameid":5040647,"name":"Owatonna","admin3":"49300"}],"admin3":[{"geonameid":5016883,"name":"Township of Aurora","admin3":"02890"},{"geonameid":5017978,"name":"Township of Berlin","admin3":"05374"},{"geonameid":5018737,"name":"Township of Blooming Prairie","admin3":"06598"},{"geonameid":5021612,"name":"Township of Clinton Falls","admin3":"12052"},{"geonameid":5024115,"name":"Township of Deerfield","admin3":"15256"},{"geonameid":5025518,"name":"City of Ellendale","admin3":"18746"},{"geonameid":5029543,"name":"Township of Havana","admin3":"27638"},{"geonameid":5034453,"name":"Township of Lemond","admin3":"36386"},{"geonameid":5037173,"name":"City of Medford","admin3":"41426"},{"geonameid":5037174,"name":"Township of Medford","admin3":"41444"},{"geonameid":5037301,"name":"Township of Meriden","admin3":"41750"},{"geonameid":5037318,"name":"Township of Merton","admin3":"41840"},{"geonameid":5040664,"name":"City of Owatonna","admin3":"49300"},{"geonameid":5040665,"name":"Township of Owatonna","admin3":"49318"},{"geonameid":5047838,"name":"Township of Somerset","admin3":"61150"},{"geonameid":5049174,"name":"Township of Summit","admin3":"63364"}],"alternateNames":[{"alternatenameId":2089541,"geonameid":5037779,"isoLanguage":"en","alternateName":"Minnesota","isPreferredName":true,"isShortName":true,"isColloquial":false,"isHistoric":false}]},"__N_SSG":true}