{"pageProps":{"locale":"en","admin2":{"geonameid":5048759,"name":"Stevens County","country":"US","admin1":"MN","admin2":"149","admin3":"","latitude":"45.5861300","longitude":"-96.0003000"},"admin1":{"geonameid":5037779,"name":"Minnesota","admin1":"MN","localeAltName":"Minnesota"},"locations":[{"geonameid":5038252,"name":"Morris","admin3":"44242"}],"admin3":[{"geonameid":5016046,"name":"City of Alberta","admin3":"00676"},{"geonameid":5017049,"name":"Township of Baker","admin3":"03232"},{"geonameid":5021105,"name":"City of Chokio","admin3":"11440"},{"geonameid":5023873,"name":"Township of Darnen","admin3":"14824"},{"geonameid":5024502,"name":"City of Donnelly","admin3":"16084"},{"geonameid":5024504,"name":"Township of Donnelly","admin3":"16102"},{"geonameid":5025407,"name":"Township of Eldorado","admin3":"18494"},{"geonameid":5025992,"name":"Township of Everglade","admin3":"19970"},{"geonameid":5027294,"name":"Township of Framnas","admin3":"22274"},{"geonameid":5029243,"name":"City of Hancock","admin3":"26936"},{"geonameid":5030336,"name":"Township of Hodges","admin3":"29438"},{"geonameid":5030784,"name":"Township of Horton","admin3":"30212"},{"geonameid":5038107,"name":"Township of Moore","admin3":"43846"},{"geonameid":5038269,"name":"City of Morris","admin3":"44242"},{"geonameid":5038270,"name":"Township of Morris","admin3":"44260"},{"geonameid":5041142,"name":"Township of Pepperton","admin3":"50380"},{"geonameid":5042909,"name":"Township of Rendsville","admin3":"53818"},{"geonameid":5046762,"name":"Township of Scott","admin3":"59044"},{"geonameid":5048776,"name":"Township of Stevens","admin3":"62752"},{"geonameid":5049420,"name":"Township of Swan Lake","admin3":"63724"},{"geonameid":5049584,"name":"Township of Synnes","admin3":"63976"}],"alternateNames":[{"alternatenameId":2089541,"geonameid":5037779,"isoLanguage":"en","alternateName":"Minnesota","isPreferredName":true,"isShortName":true,"isColloquial":false,"isHistoric":false}]},"__N_SSG":true}