{"pageProps":{"locale":"en","admin2":{"geonameid":5051662,"name":"Wadena County","country":"US","admin1":"MN","admin2":"159","admin3":"","latitude":"46.5857600","longitude":"-94.9694100"},"admin1":{"geonameid":5037779,"name":"Minnesota","admin1":"MN","localeAltName":"Minnesota"},"locations":[{"geonameid":5037275,"name":"Menahga","admin3":"41660"},{"geonameid":5051659,"name":"Wadena","admin3":"67504"}],"admin3":[{"geonameid":5016098,"name":"City of Aldrich","admin3":"00892"},{"geonameid":5016099,"name":"Township of Aldrich","admin3":"00910"},{"geonameid":5018817,"name":"Township of Blueberry","admin3":"06670"},{"geonameid":5019681,"name":"Township of Bullard","admin3":"08542"},{"geonameid":5030941,"name":"Township of Huntersville","admin3":"30536"},{"geonameid":5034366,"name":"Township of Leaf River","admin3":"36026"},{"geonameid":5036141,"name":"Township of Lyons","admin3":"38852"},{"geonameid":5037137,"name":"Township of Meadow","admin3":"41336"},{"geonameid":5037277,"name":"City of Menahga","admin3":"41660"},{"geonameid":5039291,"name":"City of Nimrod","admin3":"46294"},{"geonameid":5039499,"name":"Township of North Germany","admin3":"46978"},{"geonameid":5040364,"name":"Township of Orton","admin3":"48688"},{"geonameid":5042724,"name":"Township of Red Eye","admin3":"53422"},{"geonameid":5043585,"name":"Township of Rockwood","admin3":"55150"},{"geonameid":5046803,"name":"City of Sebeka","admin3":"59152"},{"geonameid":5047190,"name":"Township of Shell River","admin3":"59530"},{"geonameid":5049988,"name":"Township of Thomastown","admin3":"64624"},{"geonameid":5051325,"name":"City of Verndale","admin3":"66874"},{"geonameid":5051665,"name":"City of Wadena","admin3":"67504"},{"geonameid":5051666,"name":"Township of Wadena","admin3":"67522"},{"geonameid":5053125,"name":"Township of Wing River","admin3":"70906"}],"alternateNames":[{"alternatenameId":2089541,"geonameid":5037779,"isoLanguage":"en","alternateName":"Minnesota","isPreferredName":true,"isShortName":true,"isColloquial":false,"isHistoric":false}]},"__N_SSG":true}