{"pageProps":{"locale":"en","admin2":{"geonameid":5053164,"name":"Winona County","country":"US","admin1":"MN","admin2":"169","admin3":"","latitude":"43.9868500","longitude":"-91.7791300"},"admin1":{"geonameid":5037779,"name":"Minnesota","admin1":"MN","localeAltName":"Minnesota"},"locations":[{"geonameid":5028259,"name":"Goodview","admin3":"24524"},{"geonameid":5034545,"name":"Lewiston","admin3":"36800"},{"geonameid":5044374,"name":"Saint Charles","admin3":"56788"},{"geonameid":5053156,"name":"Winona","admin3":"71032"}],"admin3":[{"geonameid":5016230,"name":"City of Altura","admin3":"01234"},{"geonameid":5023760,"name":"City of Dakota","admin3":"14518"},{"geonameid":5024615,"name":"Township of Dresbach","admin3":"16408"},{"geonameid":5025369,"name":"City of Elba","admin3":"18386"},{"geonameid":5025370,"name":"Township of Elba","admin3":"18404"},{"geonameid":5027449,"name":"Township of Fremont","admin3":"22688"},{"geonameid":5028265,"name":"City of Goodview","admin3":"24524"},{"geonameid":5029454,"name":"Township of Hart","admin3":"27350"},{"geonameid":5030187,"name":"Township of Hillsdale","admin3":"29222"},{"geonameid":5030589,"name":"Township of Homer","admin3":"30032"},{"geonameid":5034553,"name":"City of Lewiston","admin3":"36800"},{"geonameid":5037668,"name":"City of Minneiska","admin3":"43036"},{"geonameid":5037700,"name":"City of Minnesota City","admin3":"43144"},{"geonameid":5038427,"name":"Township of Mount Vernon","admin3":"44656"},{"geonameid":5039092,"name":"Township of New Hartford","admin3":"45592"},{"geonameid":5039742,"name":"Township of Norton","admin3":"47374"},{"geonameid":5041841,"name":"Township of Pleasant Hill","admin3":"51568"},{"geonameid":5043215,"name":"Township of Richmond","admin3":"54286"},{"geonameid":5043644,"name":"City of Rollingstone","admin3":"55276"},{"geonameid":5043645,"name":"Township of Rollingstone","admin3":"55294"},{"geonameid":5044390,"name":"City of Saint Charles","admin3":"56788"},{"geonameid":5044391,"name":"Township of Saint Charles","admin3":"56806"},{"geonameid":5045976,"name":"Township of Saratoga","admin3":"58558"},{"geonameid":5048847,"name":"City of Stockton","admin3":"62896"},{"geonameid":5051168,"name":"City of Utica","admin3":"66424"},{"geonameid":5051169,"name":"Township of Utica","admin3":"66442"},{"geonameid":5051890,"name":"Township of Warren","admin3":"68188"},{"geonameid":5052754,"name":"Township of Whitewater","admin3":"70168"},{"geonameid":5053054,"name":"Township of Wilson","admin3":"70690"},{"geonameid":5053180,"name":"City of Winona","admin3":"71032"},{"geonameid":5053235,"name":"Township of Wiscoy","admin3":"71230"}],"alternateNames":[{"alternatenameId":2089541,"geonameid":5037779,"isoLanguage":"en","alternateName":"Minnesota","isPreferredName":true,"isShortName":true,"isColloquial":false,"isHistoric":false}]},"__N_SSG":true}