{"pageProps":{"locale":"en","admin2":{"geonameid":6544227,"name":"Gemeente De Wolden","country":"NL","admin1":"01","admin2":"1690","admin3":"","latitude":"52.7010200","longitude":"6.3727700"},"admin1":{"geonameid":2756631,"name":"Provincie Drenthe","admin1":"01"},"locations":[{"geonameid":2759863,"name":"Alteveer","admin3":""},{"geonameid":2759760,"name":"Anholt","admin3":""},{"geonameid":2759716,"name":"Ansen","admin3":""},{"geonameid":2759666,"name":"Armweide","admin3":""},{"geonameid":2759368,"name":"Bazuin","admin3":""},{"geonameid":2759226,"name":"Benderse","admin3":""},{"geonameid":2759118,"name":"Berghuizen","admin3":""},{"geonameid":2758816,"name":"Blijdenstein","admin3":""},{"geonameid":2758807,"name":"Bloemberg","admin3":""},{"geonameid":2758439,"name":"Braamberg","admin3":""},{"geonameid":2758141,"name":"Buitenhuizen","admin3":""},{"geonameid":2758114,"name":"Bultinge","admin3":""},{"geonameid":2757043,"name":"De Stapel","admin3":""},{"geonameid":2757028,"name":"De Stuw","admin3":""},{"geonameid":2757022,"name":"De Tippe","admin3":""},{"geonameid":2756936,"name":"De Wijk","admin3":""},{"geonameid":2756833,"name":"Dijkhuizen","admin3":""},{"geonameid":2756565,"name":"Drogt","admin3":""},{"geonameid":2756564,"name":"Drogteropslagen","admin3":""},{"geonameid":2756440,"name":"Echten","admin3":""},{"geonameid":2756389,"name":"Eemten","admin3":""},{"geonameid":2756100,"name":"Engeland","admin3":""},{"geonameid":2755985,"name":"Eursinge","admin3":""},{"geonameid":2755862,"name":"Fort","admin3":""},{"geonameid":2755512,"name":"Gijsselte","admin3":""},{"geonameid":2755027,"name":"Haakswold","admin3":""},{"geonameid":6544695,"name":"Haalweide","admin3":""},{"geonameid":2754641,"name":"Hees","admin3":""},{"geonameid":6544697,"name":"Hoge Linthorst","admin3":""},{"geonameid":2752935,"name":"Kerkenbosch","admin3":""},{"geonameid":2752934,"name":"Kerkenveld","admin3":""},{"geonameid":2752568,"name":"Koekange","admin3":""},{"geonameid":2752566,"name":"Koekangerveld","admin3":""},{"geonameid":2752307,"name":"Kraloo","admin3":""},{"geonameid":2752308,"name":"Kraloo","admin3":""},{"geonameid":2760036,"name":"Leeuwte","admin3":""},{"geonameid":2751586,"name":"Linde","admin3":""},{"geonameid":2751576,"name":"Linderveld","admin3":""},{"geonameid":2751406,"name":"Lubbinge","admin3":""},{"geonameid":2751387,"name":"Lunssloten","admin3":""},{"geonameid":2750864,"name":"Middelveen","admin3":""},{"geonameid":2750021,"name":"Nolde","admin3":""},{"geonameid":2749817,"name":"Noordwijk","admin3":""},{"geonameid":2749648,"name":"Oldenhave","admin3":""},{"geonameid":2749523,"name":"Oosteinde","admin3":""},{"geonameid":2749396,"name":"Oosterwijk","admin3":""},{"geonameid":2749238,"name":"Oshaar","admin3":""},{"geonameid":2748895,"name":"Oud Veeningen","admin3":""},{"geonameid":2748795,"name":"Paardelanden","admin3":""},{"geonameid":2748616,"name":"Pieperij","admin3":""},{"geonameid":2748192,"name":"Rheebruggen","admin3":""},{"geonameid":2747835,"name":"Ruinen","admin3":""},{"geonameid":2747831,"name":"Ruinerdijk","admin3":""},{"geonameid":2747829,"name":"Ruinerweide","admin3":""},{"geonameid":2747828,"name":"Ruinerwold","admin3":""},{"geonameid":2747471,"name":"Schottershuizen","admin3":""},{"geonameid":2747454,"name":"Schrapveen","admin3":""},{"geonameid":2746803,"name":"Steenbergen","admin3":""},{"geonameid":2746576,"name":"Struikberg","admin3":""},{"geonameid":2746492,"name":"Ten Arlo","admin3":""},{"geonameid":2745757,"name":"Veeningen","admin3":""},{"geonameid":2745146,"name":"Vuile Riete","admin3":""},{"geonameid":2744906,"name":"Weerwille","admin3":""},{"geonameid":2744837,"name":"Wemmenhove","admin3":""},{"geonameid":2744441,"name":"Wildenberg","admin3":""},{"geonameid":2743637,"name":"Zuidwolde","admin3":""}],"admin3":[],"alternateNames":[{"alternatenameId":11907792,"geonameid":2756631,"isoLanguage":"de","alternateName":"Drenthe","isPreferredName":true,"isShortName":true,"isColloquial":false,"isHistoric":false}]},"__N_SSG":true}