{"pageProps":{"locale":"ro","admin2":{"geonameid":671335,"name":"Comuna Parincea","country":"RO","admin1":"04","admin2":"24089","admin3":"","latitude":"46.4784100","longitude":"27.1287700"},"admin1":{"geonameid":685947,"name":"Bacău","admin1":"04"},"locations":[{"geonameid":684836,"name":"Barna","admin3":""},{"geonameid":675792,"name":"Iazul","admin3":""},{"geonameid":673310,"name":"Mileştii de Jos","admin3":""},{"geonameid":673309,"name":"Mileștii de Sus","admin3":""},{"geonameid":672516,"name":"Nănești","admin3":""},{"geonameid":672513,"name":"Năneşti-Vale","admin3":""},{"geonameid":672495,"name":"Năstăseni","admin3":""},{"geonameid":671337,"name":"Parincea","admin3":""},{"geonameid":671334,"name":"Parincea-Sat","admin3":""},{"geonameid":670215,"name":"Poieni","admin3":""},{"geonameid":667822,"name":"Satu Nou","admin3":""},{"geonameid":663277,"name":"Văleni","admin3":""},{"geonameid":662761,"name":"Vârlăneşti","admin3":""},{"geonameid":662596,"name":"Vladnic","admin3":""}],"admin3":[],"alternateNames":[]},"__N_SSG":true}