{"pageProps":{"locale":"en","admin1":{"geonameid":5073708,"name":"Nebraska","country":"US","admin1":"NE","latitude":"41.5002800","longitude":"-99.7506700","localeAltName":"Nebraska"},"admin2":[{"geonameid":5062699,"name":"Adams County","admin2":"001","localeAltName":null},{"geonameid":5063023,"name":"Antelope County","admin2":"003","localeAltName":null},{"geonameid":5693299,"name":"Arthur County","admin2":"005","localeAltName":null},{"geonameid":5693402,"name":"Banner County","admin2":"007","localeAltName":null},{"geonameid":5064222,"name":"Blaine County","admin2":"009","localeAltName":null},{"geonameid":5064432,"name":"Boone County","admin2":"011","localeAltName":null},{"geonameid":5693772,"name":"Box Butte County","admin2":"013","localeAltName":null},{"geonameid":5064500,"name":"Boyd County","admin2":"015","localeAltName":null},{"geonameid":5064663,"name":"Brown County","admin2":"017","localeAltName":null},{"geonameid":5064837,"name":"Buffalo County","admin2":"019","localeAltName":null},{"geonameid":5064925,"name":"Burt County","admin2":"021","localeAltName":null},{"geonameid":5064961,"name":"Butler County","admin2":"023","localeAltName":null},{"geonameid":5065267,"name":"Cass County","admin2":"025","localeAltName":null},{"geonameid":5065306,"name":"Cedar County","admin2":"027","localeAltName":null},{"geonameid":5694236,"name":"Chase County","admin2":"029","localeAltName":null},{"geonameid":5694243,"name":"Cherry County","admin2":"031","localeAltName":null},{"geonameid":5694258,"name":"Cheyenne County","admin2":"033","localeAltName":null},{"geonameid":5065828,"name":"Clay County","admin2":"035","localeAltName":null},{"geonameid":5065953,"name":"Colfax County","admin2":"037","localeAltName":null},{"geonameid":5066574,"name":"Cuming County","admin2":"039","localeAltName":null},{"geonameid":5066605,"name":"Custer County","admin2":"041","localeAltName":null},{"geonameid":5066642,"name":"Dakota County","admin2":"043","localeAltName":null},{"geonameid":5694727,"name":"Dawes County","admin2":"045","localeAltName":null},{"geonameid":5066750,"name":"Dawson County","admin2":"047","localeAltName":null},{"geonameid":5694776,"name":"Deuel County","admin2":"049","localeAltName":null},{"geonameid":5067019,"name":"Dixon County","admin2":"051","localeAltName":null},{"geonameid":5067039,"name":"Dodge County","admin2":"053","localeAltName":null},{"geonameid":5067114,"name":"Douglas County","admin2":"055","localeAltName":null},{"geonameid":5694963,"name":"Dundy County","admin2":"057","localeAltName":null},{"geonameid":5068222,"name":"Fillmore County","admin2":"059","localeAltName":null},{"geonameid":5068649,"name":"Franklin County","admin2":"061","localeAltName":null},{"geonameid":5695504,"name":"Frontier County","admin2":"063","localeAltName":null},{"geonameid":5068841,"name":"Furnas County","admin2":"065","localeAltName":null},{"geonameid":5068853,"name":"Gage County","admin2":"067","localeAltName":null},{"geonameid":5695559,"name":"Garden County","admin2":"069","localeAltName":null},{"geonameid":5068888,"name":"Garfield County","admin2":"071","localeAltName":null},{"geonameid":5069211,"name":"Gosper County","admin2":"073","localeAltName":null},{"geonameid":5695796,"name":"Grant County","admin2":"075","localeAltName":null},{"geonameid":5069397,"name":"Greeley County","admin2":"077","localeAltName":null},{"geonameid":5069587,"name":"Hall County","admin2":"079","localeAltName":null},{"geonameid":5069604,"name":"Hamilton County","admin2":"081","localeAltName":null},{"geonameid":5069693,"name":"Harlan County","admin2":"083","localeAltName":null},{"geonameid":5696051,"name":"Hayes County","admin2":"085","localeAltName":null},{"geonameid":5696203,"name":"Hitchcock County","admin2":"087","localeAltName":null},{"geonameid":5070270,"name":"Holt County","admin2":"089","localeAltName":null},{"geonameid":5696254,"name":"Hooker County","admin2":"091","localeAltName":null},{"geonameid":5070443,"name":"Howard County","admin2":"093","localeAltName":null},{"geonameid":5070975,"name":"Jefferson County","admin2":"095","localeAltName":null},{"geonameid":5071072,"name":"Johnson County","admin2":"097","localeAltName":null},{"geonameid":5071364,"name":"Kearney County","admin2":"099","localeAltName":null},{"geonameid":5696644,"name":"Keith County","admin2":"101","localeAltName":null},{"geonameid":5696690,"name":"Keya Paha County","admin2":"103","localeAltName":null},{"geonameid":5696719,"name":"Kimball County","admin2":"105","localeAltName":null},{"geonameid":5071580,"name":"Knox County","admin2":"107","localeAltName":null},{"geonameid":5071741,"name":"Lancaster County","admin2":"109","localeAltName":null},{"geonameid":5697026,"name":"Lincoln County","admin2":"111","localeAltName":null},{"geonameid":5697135,"name":"Logan County","admin2":"113","localeAltName":null},{"geonameid":5072388,"name":"Loup County","admin2":"115","localeAltName":null},{"geonameid":5072535,"name":"Madison County","admin2":"119","localeAltName":null},{"geonameid":5697457,"name":"McPherson County","admin2":"117","localeAltName":null},{"geonameid":5072973,"name":"Merrick County","admin2":"121","localeAltName":null},{"geonameid":5697710,"name":"Morrill County","admin2":"123","localeAltName":null},{"geonameid":5073611,"name":"Nance County","admin2":"125","localeAltName":null},{"geonameid":5073780,"name":"Nemaha County","admin2":"127","localeAltName":null},{"geonameid":5074208,"name":"Nuckolls County","admin2":"129","localeAltName":null},{"geonameid":5074642,"name":"Otoe County","admin2":"131","localeAltName":null},{"geonameid":5074895,"name":"Pawnee County","admin2":"133","localeAltName":null},{"geonameid":5698262,"name":"Perkins County","admin2":"135","localeAltName":null},{"geonameid":5075078,"name":"Phelps County","admin2":"137","localeAltName":null},{"geonameid":5075153,"name":"Pierce County","admin2":"139","localeAltName":null},{"geonameid":5075315,"name":"Platte County","admin2":"141","localeAltName":null},{"geonameid":5075605,"name":"Polk County","admin2":"143","localeAltName":null},{"geonameid":5698593,"name":"Red Willow County","admin2":"145","localeAltName":null},{"geonameid":5076190,"name":"Richardson County","admin2":"147","localeAltName":null},{"geonameid":5076351,"name":"Rock County","admin2":"149","localeAltName":null},{"geonameid":5077506,"name":"Saline County","admin2":"151","localeAltName":null},{"geonameid":5077695,"name":"Sarpy County","admin2":"153","localeAltName":null},{"geonameid":5077708,"name":"Saunders County","admin2":"155","localeAltName":null},{"geonameid":5699397,"name":"Scotts Bluff County","admin2":"157","localeAltName":null},{"geonameid":5078798,"name":"Seward County","admin2":"159","localeAltName":null},{"geonameid":5699519,"name":"Sheridan County","admin2":"161","localeAltName":null},{"geonameid":5078904,"name":"Sherman County","admin2":"163","localeAltName":null},{"geonameid":5699598,"name":"Sioux County","admin2":"165","localeAltName":null},{"geonameid":5079543,"name":"Stanton County","admin2":"167","localeAltName":null},{"geonameid":5080164,"name":"Thayer County","admin2":"169","localeAltName":null},{"geonameid":5700112,"name":"Thomas County","admin2":"171","localeAltName":null},{"geonameid":5080274,"name":"Thurston County","admin2":"173","localeAltName":null},{"geonameid":5081000,"name":"Valley County","admin2":"175","localeAltName":null},{"geonameid":5081383,"name":"Washington County","admin2":"177","localeAltName":null},{"geonameid":5081458,"name":"Wayne County","admin2":"179","localeAltName":null},{"geonameid":5081496,"name":"Webster County","admin2":"181","localeAltName":null},{"geonameid":5081776,"name":"Wheeler County","admin2":"183","localeAltName":null},{"geonameid":5082335,"name":"York County","admin2":"185","localeAltName":null}],"admin3":[],"country":{"geonameid":6252001,"country":"US","name":"United States","localeAltName":null},"alternateNames":[{"alternatenameId":2124821,"geonameid":5073708,"isoLanguage":"en","alternateName":"Nebraska","isPreferredName":true,"isShortName":true,"isColloquial":false,"isHistoric":false},{"alternatenameId":2422318,"geonameid":6252001,"isoLanguage":"de","alternateName":"USA","isPreferredName":true,"isShortName":true,"isColloquial":false,"isHistoric":false}]},"__N_SSG":true}