{"pageProps":{"locale":"en","admin2":{"geonameid":2744247,"name":"Gemeente Woerden","country":"NL","admin1":"09","admin2":"0632","admin3":"","latitude":"52.1067500","longitude":"4.9006600"},"admin1":{"geonameid":2745909,"name":"Provincie Utrecht","admin1":"09"},"locations":[{"geonameid":2747362,"name":"â€™s-Gravesloot","admin3":""},{"geonameid":2759391,"name":"Barwoutswaarder","admin3":""},{"geonameid":2759261,"name":"Bekenes","admin3":""},{"geonameid":2758366,"name":"Breeveld","admin3":""},{"geonameid":2758338,"name":"Breudijk","admin3":""},{"geonameid":2757742,"name":"De Bree","admin3":""},{"geonameid":2755655,"name":"Geestdorp","admin3":""},{"geonameid":2755566,"name":"Gerverscop","admin3":""},{"geonameid":2755016,"name":"Haanwijk","admin3":""},{"geonameid":2754814,"name":"Harmelen","admin3":""},{"geonameid":2754812,"name":"Harmelerwaard","admin3":""},{"geonameid":2753561,"name":"Houtdijken","admin3":""},{"geonameid":2753117,"name":"Kamerik","admin3":""},{"geonameid":2750806,"name":"Kamerik-Mijzijde","admin3":""},{"geonameid":2753080,"name":"Kanis","admin3":""},{"geonameid":2752229,"name":"Kromwijk","admin3":""},{"geonameid":2752054,"name":"Lagebroek","admin3":""},{"geonameid":2748945,"name":"Oud-Kamerik","admin3":""},{"geonameid":2748524,"name":"Polanen","admin3":""},{"geonameid":2748400,"name":"Putkop","admin3":""},{"geonameid":2748261,"name":"Reijerscop","admin3":""},{"geonameid":2748141,"name":"Rietveld","admin3":""},{"geonameid":2746512,"name":"Teckop","admin3":""},{"geonameid":2744248,"name":"Woerden","admin3":""},{"geonameid":2743990,"name":"Zegveld","admin3":""}],"admin3":[],"alternateNames":[{"alternatenameId":11907793,"geonameid":2745909,"isoLanguage":"de","alternateName":"Utrecht","isPreferredName":true,"isShortName":true,"isColloquial":false,"isHistoric":false}]},"__N_SSG":true}