{"pageProps":{"locale":"en","admin2":{"geonameid":5024432,"name":"Dodge County","country":"US","admin1":"MN","admin2":"039","admin3":"","latitude":"44.0225900","longitude":"-92.8620500","localeAltName":null},"admin1":{"geonameid":5037779,"name":"Minnesota","admin1":"MN","localeAltName":"Minnesota"},"locations":[{"geonameid":5021372,"name":"Claremont","admin3":"11566","localeAltName":null},{"geonameid":5024423,"name":"Dodge Center","admin3":"15994","localeAltName":null},{"geonameid":5029658,"name":"Hayfield","admin3":"27872","localeAltName":null},{"geonameid":5032920,"name":"Kasson","admin3":"32498","localeAltName":null},{"geonameid":5036461,"name":"Mantorville","admin3":"39986","localeAltName":null},{"geonameid":5052352,"name":"West Concord","admin3":"69304","localeAltName":null}],"admin3":[{"geonameid":5016712,"name":"Township of Ashland","admin3":"02512"},{"geonameid":5018736,"name":"City of Blooming Prairie","admin3":"06580"},{"geonameid":5020276,"name":"Township of Canisteo","admin3":"09640"},{"geonameid":5021378,"name":"City of Claremont","admin3":"11566","localeAltName":null},{"geonameid":5021379,"name":"Township of Claremont","admin3":"11584"},{"geonameid":5021909,"name":"Township of Concord","admin3":"12934"},{"geonameid":5024431,"name":"City of Dodge Center","admin3":"15994","localeAltName":null},{"geonameid":5025525,"name":"Township of Ellington","admin3":"18764"},{"geonameid":5029665,"name":"City of Hayfield","admin3":"27872","localeAltName":null},{"geonameid":5029666,"name":"Township of Hayfield","admin3":"27890"},{"geonameid":5032926,"name":"City of Kasson","admin3":"32498","localeAltName":null},{"geonameid":5036469,"name":"City of Mantorville","admin3":"39986","localeAltName":null},{"geonameid":5036470,"name":"Township of Mantorville","admin3":"40004"},{"geonameid":5037598,"name":"Township of Milton","admin3":"42380"},{"geonameid":5043279,"name":"Township of Ripley","admin3":"54502"},{"geonameid":5051343,"name":"Township of Vernon","admin3":"66892"},{"geonameid":5051986,"name":"Township of Wasioja","admin3":"68404"},{"geonameid":5052359,"name":"City of West Concord","admin3":"69304","localeAltName":null},{"geonameid":5052547,"name":"Township of Westfield","admin3":"69448"}],"alternateNames":[{"alternatenameId":2089541,"geonameid":5037779,"isoLanguage":"en","alternateName":"Minnesota","isPreferredName":true,"isShortName":true,"isColloquial":false,"isHistoric":false}]},"__N_SSG":true}