{"pageProps":{"locale":"en","admin2":{"geonameid":5032867,"name":"Kandiyohi County","country":"US","admin1":"MN","admin2":"067","admin3":"","latitude":"45.1523800","longitude":"-95.0047400","localeAltName":null},"admin1":{"geonameid":5037779,"name":"Minnesota","admin1":"MN","localeAltName":"Minnesota"},"locations":[{"geonameid":5016813,"name":"Atwater","admin3":"02692","localeAltName":null},{"geonameid":5039111,"name":"New London","admin3":"45682","localeAltName":null},{"geonameid":5041124,"name":"Pennock","admin3":"50344","localeAltName":null},{"geonameid":5042696,"name":"Raymond","admin3":"53296","localeAltName":null},{"geonameid":5048161,"name":"Spicer","admin3":"61690","localeAltName":null},{"geonameid":5052916,"name":"Willmar","admin3":"70420","localeAltName":null}],"admin3":[{"geonameid":5016546,"name":"Township of Arctander","admin3":"01990"},{"geonameid":5016819,"name":"City of Atwater","admin3":"02692","localeAltName":null},{"geonameid":5018711,"name":"City of Blomkest","admin3":"06490"},{"geonameid":5019729,"name":"Township of Burbank","admin3":"08614"},{"geonameid":5021774,"name":"Township of Colfax","admin3":"12538"},{"geonameid":5024581,"name":"Township of Dovre","admin3":"16336"},{"geonameid":5025023,"name":"Township of East Lake Lillian","admin3":"17702"},{"geonameid":5025292,"name":"Township of Edwards","admin3":"18242"},{"geonameid":5026080,"name":"Township of Fahlun","admin3":"20150"},{"geonameid":5027794,"name":"Township of Gennessee","admin3":"23390"},{"geonameid":5028759,"name":"Township of Green Lake","admin3":"25694"},{"geonameid":5029437,"name":"Township of Harrison","admin3":"27314"},{"geonameid":5030418,"name":"Township of Holland","admin3":"29600"},{"geonameid":5031471,"name":"Township of Irving","admin3":"31292"},{"geonameid":5032877,"name":"City of Kandiyohi","admin3":"32372"},{"geonameid":5032878,"name":"Township of Kandiyohi","admin3":"32390"},{"geonameid":5033695,"name":"Township of Lake Andrew","admin3":"34064"},{"geonameid":5033761,"name":"Township of Lake Elizabeth","admin3":"34226"},{"geonameid":5033849,"name":"City of Lake Lillian","admin3":"34676"},{"geonameid":5033850,"name":"Township of Lake Lillian","admin3":"34694"},{"geonameid":5036379,"name":"Township of Mamre","admin3":"39662"},{"geonameid":5039119,"name":"City of New London","admin3":"45682","localeAltName":null},{"geonameid":5039120,"name":"Township of New London","admin3":"45700"},{"geonameid":5039762,"name":"Township of Norway Lake","admin3":"47464"},{"geonameid":5041128,"name":"City of Pennock","admin3":"50344","localeAltName":null},{"geonameid":5042372,"name":"City of Prinsburg","admin3":"52558"},{"geonameid":5042702,"name":"City of Raymond","admin3":"53296","localeAltName":null},{"geonameid":5042873,"name":"City of Regal","admin3":"53710"},{"geonameid":5043774,"name":"Township of Roseland","admin3":"55708"},{"geonameid":5043805,"name":"Township of Roseville","admin3":"55834"},{"geonameid":5044895,"name":"Township of Saint Johns","admin3":"57076"},{"geonameid":5048172,"name":"City of Spicer","admin3":"61690","localeAltName":null},{"geonameid":5049199,"name":"City of Sunburg","admin3":"63454"},{"geonameid":5052733,"name":"Township of Whitefield","admin3":"70078"},{"geonameid":5052929,"name":"City of Willmar","admin3":"70420","localeAltName":null},{"geonameid":5052930,"name":"Township of Willmar","admin3":"70438"}],"alternateNames":[{"alternatenameId":2089541,"geonameid":5037779,"isoLanguage":"en","alternateName":"Minnesota","isPreferredName":true,"isShortName":true,"isColloquial":false,"isHistoric":false}]},"__N_SSG":true}