{"pageProps":{"locale":"de","locations":[{"geonameid":2959908,"name":"Aasbüttel","admin3":"01061"},{"geonameid":2959628,"name":"Achterwehr","admin3":"01058"},{"geonameid":2959621,"name":"Achtrup","admin3":"01054"},{"geonameid":2959779,"name":"Aebtissinwisch","admin3":"01061"},{"geonameid":2959308,"name":"Agethorst","admin3":"01061"},{"geonameid":2959227,"name":"Ahlefeld","admin3":"01058"},{"geonameid":2959153,"name":"Ahneby","admin3":"01059"},{"geonameid":2959084,"name":"Ahrensbök","admin3":"01055"},{"geonameid":2959083,"name":"Ahrensburg","admin3":"01062"},{"geonameid":3208535,"name":"Ahrenshöft","admin3":"01054"},{"geonameid":2959053,"name":"Ahrenviöl","admin3":"01054"},{"geonameid":2959052,"name":"Ahrenviölfeld","admin3":"01054"},{"geonameid":2958710,"name":"Albersdorf","admin3":"01051"},{"geonameid":2958603,"name":"Albsfelde","admin3":"01053"},{"geonameid":2958479,"name":"Alkersum","admin3":"01054"},{"geonameid":2958251,"name":"Almdorf","admin3":"01054"},{"geonameid":2958066,"name":"Alt Bennebek","admin3":"01059"},{"geonameid":2958016,"name":"Alt Duvenstedt","admin3":"01058"},{"geonameid":2956985,"name":"Alt Mölln","admin3":"01053"},{"geonameid":2957599,"name":"Altenhof","admin3":"01058"},{"geonameid":2957588,"name":"Altenholz","admin3":"01058"},{"geonameid":2957557,"name":"Altenkrempe","admin3":"01055"},{"geonameid":2957532,"name":"Altenmoor","admin3":"01061"},{"geonameid":2956729,"name":"Alveslohe","admin3":"01060"},{"geonameid":2955745,"name":"Appen","admin3":"01056"},{"geonameid":2955592,"name":"Arkebek","admin3":"01051"},{"geonameid":2955570,"name":"Arlewatt","admin3":"01054"},{"geonameid":2955541,"name":"Armstedt","admin3":"01060"},{"geonameid":2955501,"name":"Arnis","admin3":"01059"},{"geonameid":2955415,"name":"Arpsdorf","admin3":"01058"},{"geonameid":2955223,"name":"Ascheberg","admin3":"01057"},{"geonameid":2955222,"name":"Ascheffel","admin3":"01058"},{"geonameid":3208536,"name":"Aukrug","admin3":"01058"},{"geonameid":2953989,"name":"Ausacker","admin3":"01059"},{"geonameid":2953897,"name":"Auufer","admin3":"01061"},{"geonameid":2953866,"name":"Aventoft","admin3":"01054"},{"geonameid":2953852,"name":"Averlak","admin3":"01051"},{"geonameid":2953537,"name":"Bad Bramstedt","admin3":"01060"},{"geonameid":2953385,"name":"Bad Oldesloe","admin3":"01062"},{"geonameid":2953347,"name":"Bad Schwartau","admin3":"01055"},{"geonameid":2953341,"name":"Bad Segeberg","admin3":"01060"},{"geonameid":2953498,"name":"Badendorf","admin3":"01062"},{"geonameid":2953234,"name":"Bahrenfleth","admin3":"01061"},{"geonameid":2953232,"name":"Bahrenhof","admin3":"01060"},{"geonameid":2953163,"name":"Bäk","admin3":"01053"},{"geonameid":2953134,"name":"Bälau","admin3":"01053"},{"geonameid":2952664,"name":"Bargenstedt","admin3":"01051"},{"geonameid":2952651,"name":"Bargfeld-Stegen","admin3":"01062"},{"geonameid":2952639,"name":"Bargstall","admin3":"01058"},{"geonameid":2952636,"name":"Bargstedt","admin3":"01058"},{"geonameid":2952633,"name":"Bargteheide","admin3":"01062"},{"geonameid":2952630,"name":"Bargum","admin3":"01054"},{"geonameid":2952611,"name":"Bark","admin3":"01060"},{"geonameid":2952605,"name":"Barkelsby","admin3":"01058"},{"geonameid":2952601,"name":"Barkenholm","admin3":"01051"},{"geonameid":2952552,"name":"Barlt","admin3":"01051"},{"geonameid":2952535,"name":"Barmissen","admin3":"01057"},{"geonameid":2952531,"name":"Barmstedt","admin3":"01056"},{"geonameid":2952419,"name":"Barsbek","admin3":"01057"},{"geonameid":2952415,"name":"Barsbüttel","admin3":"01062"},{"geonameid":2952296,"name":"Basedow","admin3":"01053"},{"geonameid":2952237,"name":"Basthorst","admin3":"01053"},{"geonameid":2951809,"name":"Bebensee","admin3":"01060"},{"geonameid":2951500,"name":"Behlendorf","admin3":"01053"},{"geonameid":2951472,"name":"Behrendorf","admin3":"01054"},{"geonameid":2951465,"name":"Behrensdorf","admin3":"01057"},{"geonameid":2951435,"name":"Beidenfleth","admin3":"01061"},{"geonameid":2951290,"name":"Bekdorf","admin3":"01061"},{"geonameid":2951276,"name":"Bekmünde","admin3":"01061"},{"geonameid":2951270,"name":"Belau","admin3":"01057"},{"geonameid":2951266,"name":"Beldorf","admin3":"01058"},{"geonameid":2951114,"name":"Bendfeld","admin3":"01057"},{"geonameid":2951110,"name":"Bendorf","admin3":"01058"},{"geonameid":2950607,"name":"Bergenhusen","admin3":"01059"},{"geonameid":2950564,"name":"Bergewöhrden","admin3":"01051"},{"geonameid":2950214,"name":"Beringstedt","admin3":"01058"},{"geonameid":2950189,"name":"Berkenthin","admin3":"01053"},{"geonameid":2949827,"name":"Beschendorf","admin3":"01055"},{"geonameid":2949823,"name":"Besdorf","admin3":"01061"},{"geonameid":2949808,"name":"Besenthal","admin3":"01053"},{"geonameid":2949486,"name":"Bevern","admin3":"01056"},{"geonameid":2948902,"name":"Bilsen","admin3":"01056"},{"geonameid":2948866,"name":"Bimöhlen","admin3":"01060"},{"geonameid":2948219,"name":"Bissee","admin3":"01058"},{"geonameid":2948192,"name":"Bistensee","admin3":"01058"},{"geonameid":2947813,"name":"Blekendorf","admin3":"01057"},{"geonameid":2947735,"name":"Bliestorf","admin3":"01053"},{"geonameid":2947636,"name":"Blomesche Wildnis","admin3":"01061"},{"geonameid":2947513,"name":"Blumenthal","admin3":"01058"},{"geonameid":2947490,"name":"Blunk","admin3":"01060"},{"geonameid":11668503,"name":"Böcklersiedlung-Bugenhagen","admin3":"01004"},{"geonameid":2947051,"name":"Böel","admin3":"01059"},{"geonameid":2946926,"name":"Bohmstedt","admin3":"01054"},{"geonameid":2946891,"name":"Böhnhusen","admin3":"01058"},{"geonameid":2946798,"name":"Bokel","admin3":"01058"},{"geonameid":2946799,"name":"Bokel","admin3":"01056"},{"geonameid":2946782,"name":"Bokelrehm","admin3":"01061"},{"geonameid":2946753,"name":"Bokholt-Hanredder","admin3":"01056"},{"geonameid":2946751,"name":"Bokhorst","admin3":"01057"},{"geonameid":2946740,"name":"Boksee","admin3":"01057"},{"geonameid":2946610,"name":"Bollingstedt","admin3":"01059"},{"geonameid":2946488,"name":"Bondelum","admin3":"01054"},{"geonameid":2946482,"name":"Bönebüttel","admin3":"01057"},{"geonameid":2946421,"name":"Bönningstedt","admin3":"01056"},{"geonameid":2946373,"name":"Boostedt","admin3":"01060"},{"geonameid":3208539,"name":"Bordelum","admin3":"01054"},{"geonameid":2946321,"name":"Bordesholm","admin3":"01058"},{"geonameid":2946316,"name":"Boren","admin3":"01059"},{"geonameid":2946296,"name":"Borgdorf-Seedorf","admin3":"01058"},{"geonameid":2946247,"name":"Borgstedt","admin3":"01058"},{"geonameid":2946244,"name":"Borgsum","admin3":"01054"},{"geonameid":2946238,"name":"Borgwedel","admin3":"01059"},{"geonameid":2946192,"name":"Börm","admin3":"01059"},{"geonameid":3208540,"name":"Bornholt","admin3":"01058"},{"geonameid":2946100,"name":"Bornhöved","admin3":"01060"},{"geonameid":2946060,"name":"Börnsen","admin3":"01053"},{"geonameid":2946015,"name":"Borsfleth","admin3":"01061"},{"geonameid":2945989,"name":"Borstel","admin3":"01060"},{"geonameid":2945982,"name":"Borstel-Hohenraden","admin3":"01056"},{"geonameid":2945973,"name":"Borstorf","admin3":"01053"},{"geonameid":2945945,"name":"Bosau","admin3":"01055"},{"geonameid":2945942,"name":"Bosbüll","admin3":"01054"},{"geonameid":2945911,"name":"Bösdorf","admin3":"01057"},{"geonameid":2945797,"name":"Bothkamp","admin3":"01057"},{"geonameid":2945729,"name":"Bovenau","admin3":"01058"},{"geonameid":2945668,"name":"Braak","admin3":"01062"},{"geonameid":12216686,"name":"Brachenfeld-Ruthenberg","admin3":"01004"},{"geonameid":2945581,"name":"Braderup","admin3":"01054"},{"geonameid":2945487,"name":"Brammer","admin3":"01058"},{"geonameid":2945465,"name":"Bramstedtlund","admin3":"01054"},{"geonameid":2945382,"name":"Brande-Hörnerkirchen","admin3":"01056"},{"geonameid":2944975,"name":"Brebel","admin3":"01059"},{"geonameid":2944915,"name":"Bredenbek","admin3":"01058"},{"geonameid":2944879,"name":"Bredstedt","admin3":"01054"},{"geonameid":2944812,"name":"Breiholz","admin3":"01058"},{"geonameid":2944654,"name":"Breitenberg","admin3":"01061"},{"geonameid":2944627,"name":"Breitenburg","admin3":"01061"},{"geonameid":2944608,"name":"Breitenfelde","admin3":"01053"},{"geonameid":2944431,"name":"Brekendorf","admin3":"01058"},{"geonameid":2944426,"name":"Breklum","admin3":"01054"},{"geonameid":2944149,"name":"Brickeln","admin3":"01051"},{"geonameid":2944071,"name":"Brinjahe","admin3":"01058"},{"geonameid":2943923,"name":"Brodersby","admin3":"01059"},{"geonameid":2943921,"name":"Brodersdorf","admin3":"01057"},{"geonameid":2943851,"name":"Brokdorf","admin3":"01061"},{"geonameid":2943829,"name":"Brokstedt","admin3":"01061"},{"geonameid":2943700,"name":"Bröthen","admin3":"01053"},{"geonameid":2943350,"name":"Brügge","admin3":"01058"},{"geonameid":2943049,"name":"Brunsbüttel","admin3":"01051"},{"geonameid":2943027,"name":"Brunsmark","admin3":"01053"},{"geonameid":2943008,"name":"Brunstorf","admin3":"01053"},{"geonameid":2942627,"name":"Büchen","admin3":"01053"},{"geonameid":2942345,"name":"Buchholz","admin3":"01051"},{"geonameid":2942349,"name":"Buchholz","admin3":"01053"},{"geonameid":2942305,"name":"Buchhorst","admin3":"01053"},{"geonameid":2942093,"name":"Büdelsdorf","admin3":"01058"},{"geonameid":2941885,"name":"Bühnsdorf","admin3":"01060"},{"geonameid":2941789,"name":"Bullenkuhlen","admin3":"01056"},{"geonameid":2941629,"name":"Bünsdorf","admin3":"01058"},{"geonameid":2941628,"name":"Bunsoh","admin3":"01051"},{"geonameid":2941497,"name":"Burg","admin3":"01051"},{"geonameid":2941496,"name":"Burg auf Fehmarn","admin3":"01055"},{"geonameid":2940743,"name":"Busdorf","admin3":"01057"},{"geonameid":2940721,"name":"Busenwurth","admin3":"01051"},{"geonameid":2940669,"name":"Büsum","admin3":"01051"},{"geonameid":2940668,"name":"Büsumer Deichhausen","admin3":"01051"},{"geonameid":2940636,"name":"Büttel","admin3":"01061"},{"geonameid":2940068,"name":"Christiansholm","admin3":"01058"},{"geonameid":2939489,"name":"Dagebüll","admin3":"01054"},{"geonameid":2939482,"name":"Dägeling","admin3":"01061"},{"geonameid":2939387,"name":"Dahme","admin3":"01055"},{"geonameid":2939375,"name":"Dahmker","admin3":"01053"},{"geonameid":2939330,"name":"Daldorf","admin3":"01060"},{"geonameid":2939293,"name":"Dalldorf","admin3":"01053"},{"geonameid":2939230,"name":"Damendorf","admin3":"01058"},{"geonameid":2939208,"name":"Damlos","admin3":"01055"},{"geonameid":2939134,"name":"Dammfleth","admin3":"01061"},{"geonameid":2939088,"name":"Damp","admin3":"01058"},{"geonameid":2939079,"name":"Damsdorf","admin3":"01060"},{"geonameid":2939032,"name":"Dänischenhagen","admin3":"01058"},{"geonameid":2939004,"name":"Dannau","admin3":"01057"},{"geonameid":2938976,"name":"Dannewerk","admin3":"01059"},{"geonameid":2938805,"name":"Dassendorf","admin3":"01053"},{"geonameid":2938787,"name":"Dätgen","admin3":"01058"},{"geonameid":2938379,"name":"Delingsdorf","admin3":"01062"},{"geonameid":2938332,"name":"Dellstedt","admin3":"01051"},{"geonameid":2938315,"name":"Delve","admin3":"01051"},{"geonameid":2938033,"name":"Dersau","admin3":"01057"},{"geonameid":3208294,"name":"Diekhusen-Fahrstedt","admin3":"01051"},{"geonameid":2936930,"name":"Dingen","admin3":"01051"},{"geonameid":2936613,"name":"Dobersdorf","admin3":"01057"},{"geonameid":2936366,"name":"Dollerup","admin3":"01059"},{"geonameid":2936335,"name":"Dollrottfeld","admin3":"01059"},{"geonameid":2935672,"name":"Dörnick","admin3":"01057"},{"geonameid":2935594,"name":"Dörphof","admin3":"01058"},{"geonameid":2935590,"name":"Dörpling","admin3":"01051"},{"geonameid":2935587,"name":"Dörpstedt","admin3":"01058"},{"geonameid":2935373,"name":"Drage","admin3":"01054"},{"geonameid":2935374,"name":"Drage","admin3":"01061"},{"geonameid":2935261,"name":"Dreggers","admin3":"01060"},{"geonameid":2935056,"name":"Drelsdorf","admin3":"01054"},{"geonameid":2934767,"name":"Düchelsdorf","admin3":"01053"},{"geonameid":2934543,"name":"Dunsum","admin3":"01054"},{"geonameid":2934167,"name":"Duvensee","admin3":"01053"},{"geonameid":2933627,"name":"Eckernförde","admin3":"01058"},{"geonameid":2933550,"name":"Ecklak","admin3":"01061"},{"geonameid":2933488,"name":"Eddelak","admin3":"01051"},{"geonameid":2933150,"name":"Eggebek","admin3":"01059"},{"geonameid":2933017,"name":"Eggstedt","admin3":"01051"},{"geonameid":2932887,"name":"Ehndorf","admin3":"01058"},{"geonameid":2931779,"name":"Einfeld","admin3":"01004"},{"geonameid":2931759,"name":"Einhaus","admin3":"01053"},{"geonameid":2931497,"name":"Eisendorf","admin3":"01058"},{"geonameid":2931314,"name":"Ekenis","admin3":"01059"},{"geonameid":2931152,"name":"Elisabeth-Sophien-Koog","admin3":"01054"},{"geonameid":2931038,"name":"Ellerau","admin3":"01060"},{"geonameid":2931024,"name":"Ellerbek","admin3":"01056"},{"geonameid":2931008,"name":"Ellerdorf","admin3":"01058"},{"geonameid":2931000,"name":"Ellerhoop","admin3":"01056"},{"geonameid":2930946,"name":"Ellhöft","admin3":"01054"},{"geonameid":2930914,"name":"Ellingstedt","admin3":"01059"},{"geonameid":2930852,"name":"Elmenhorst","admin3":"01062"},{"geonameid":2930853,"name":"Elmenhorst","admin3":"01053"},{"geonameid":2930821,"name":"Elmshorn","admin3":"01056"},{"geonameid":2930811,"name":"Elpersbüttel","admin3":"01051"},{"geonameid":2930771,"name":"Elsdorf-Westermühlen","admin3":"01058"},{"geonameid":2930715,"name":"Elskop","admin3":"01061"},{"geonameid":2930599,"name":"Embühren","admin3":"01058"},{"geonameid":2930550,"name":"Emkendorf","admin3":"01058"},{"geonameid":3208543,"name":"Emmelsbüll-Horsbüll","admin3":"01054"},{"geonameid":2929877,"name":"Epenwöhrden","admin3":"01051"},{"geonameid":2929685,"name":"Erfde","admin3":"01059"},{"geonameid":2929123,"name":"Escheburg","admin3":"01053"},{"geonameid":2928905,"name":"Esgrus","admin3":"01059"},{"geonameid":2928381,"name":"Eutin","admin3":"01055"},{"geonameid":2928170,"name":"Fahrdorf","admin3":"01059"},{"geonameid":2928165,"name":"Fahren","admin3":"01057"},{"geonameid":2928120,"name":"Fahrenkrug","admin3":"01060"},{"geonameid":11668501,"name":"Faldera","admin3":"01004"},{"geonameid":3209156,"name":"Fargau-Pratjau","admin3":"01057"},{"geonameid":2927628,"name":"Fedderingen","admin3":"01051"},{"geonameid":8051091,"name":"Fehmarn","admin3":"01055"},{"geonameid":2927430,"name":"Felde","admin3":"01058"},{"geonameid":2927236,"name":"Felm","admin3":"01058"},{"geonameid":2926912,"name":"Fiefbergen","admin3":"01057"},{"geonameid":2926448,"name":"Fitzbek","admin3":"01061"},{"geonameid":2926447,"name":"Fitzen","admin3":"01053"},{"geonameid":2926339,"name":"Fleckeby","admin3":"01058"},{"geonameid":2926271,"name":"Flensburg","admin3":"01001"},{"geonameid":2926178,"name":"Flintbek","admin3":"01058"},{"geonameid":2926017,"name":"Fockbek","admin3":"01058"},{"geonameid":2925980,"name":"Föhrden-Barl","admin3":"01060"},{"geonameid":2925239,"name":"Fredeburg","admin3":"01053"},{"geonameid":2925226,"name":"Fredesdorf","admin3":"01060"},{"geonameid":2925134,"name":"Freienwill","admin3":"01059"},{"geonameid":2924956,"name":"Fresendelf","admin3":"01054"},{"geonameid":2924947,"name":"Frestedt","admin3":"01051"},{"geonameid":2924434,"name":"Friedrich-Wilhelm-Lübke-Koog","admin3":"01054"},{"geonameid":2924595,"name":"Friedrichsgabekoog","admin3":"01051"},{"geonameid":2924593,"name":"Friedrichsgraben","admin3":"01058"},{"geonameid":2924515,"name":"Friedrichsholm","admin3":"01058"},{"geonameid":2924505,"name":"Friedrichskoog","admin3":"01051"},{"geonameid":2924477,"name":"Friedrichstadt","admin3":"01054"},{"geonameid":2923862,"name":"Fuhlendorf","admin3":"01060"},{"geonameid":2923860,"name":"Fuhlenhagen","admin3":"01053"},{"geonameid":2923407,"name":"Gadeland","admin3":"01004"},{"geonameid":3208545,"name":"Galmsbüll","admin3":"01054"},{"geonameid":2922768,"name":"Gammelby","admin3":"01058"},{"geonameid":2922571,"name":"Garding","admin3":"01054"},{"geonameid":11668502,"name":"Gartenstadt","admin3":"01004"},{"geonameid":2922237,"name":"Gaushorn","admin3":"01051"},{"geonameid":2922102,"name":"Geesthacht","admin3":"01053"},{"geonameid":2921444,"name":"Gelting","admin3":"01059"},{"geonameid":2921437,"name":"Geltorf","admin3":"01059"},{"geonameid":2920843,"name":"Geschendorf","admin3":"01060"},{"geonameid":2920776,"name":"Gettorf","admin3":"01058"},{"geonameid":2920634,"name":"Giekau","admin3":"01057"},{"geonameid":2920538,"name":"Giesensdorf","admin3":"01053"},{"geonameid":2920187,"name":"Glasau","admin3":"01060"},{"geonameid":2919880,"name":"Glinde","admin3":"01062"},{"geonameid":2919765,"name":"Glücksburg","admin3":"01059"},{"geonameid":2919763,"name":"Glückstadt","admin3":"01061"},{"geonameid":2919751,"name":"Glüsing","admin3":"01058"},{"geonameid":2919648,"name":"Gnutz","admin3":"01058"},{"geonameid":2919514,"name":"Göhl","admin3":"01055"},{"geonameid":2919460,"name":"Gokels","admin3":"01058"},{"geonameid":2919347,"name":"Goldebek","admin3":"01054"},{"geonameid":2919343,"name":"Goldelund","admin3":"01054"},{"geonameid":2919321,"name":"Göldenitz","admin3":"01053"},{"geonameid":2919170,"name":"Goltoft","admin3":"01059"},{"geonameid":2919112,"name":"Gönnebek","admin3":"01060"},{"geonameid":2919081,"name":"Goosefeld","admin3":"01058"},{"geonameid":2918642,"name":"Göttin","admin3":"01053"},{"geonameid":2918497,"name":"Grabau","admin3":"01062"},{"geonameid":2918498,"name":"Grabau","admin3":"01053"},{"geonameid":2918188,"name":"Grambek","admin3":"01053"},{"geonameid":2918121,"name":"Grande","admin3":"01062"},{"geonameid":2917936,"name":"Grauel","admin3":"01058"},{"geonameid":2917846,"name":"Grebin","admin3":"01057"},{"geonameid":2917724,"name":"Gremersdorf","admin3":"01055"},{"geonameid":2917532,"name":"Grevenkop","admin3":"01061"},{"geonameid":2917530,"name":"Grevenkrug","admin3":"01058"},{"geonameid":2917510,"name":"Gribbohm","admin3":"01061"},{"geonameid":2917287,"name":"Grinau","admin3":"01053"},{"geonameid":2917198,"name":"Gröde","admin3":"01054"},{"geonameid":2917190,"name":"Grödersby","admin3":"01059"},{"geonameid":2917150,"name":"Grömitz","admin3":"01055"},{"geonameid":2917098,"name":"Grönwohld","admin3":"01062"},{"geonameid":2916950,"name":"Groß Boden","admin3":"01053"},{"geonameid":2916903,"name":"Groß Buchwald","admin3":"01058"},{"geonameid":2916861,"name":"Groß Disnack","admin3":"01053"},{"geonameid":2915574,"name":"Groß Grönau","admin3":"01053"},{"geonameid":2915362,"name":"Groß Kummerfeld","admin3":"01060"},{"geonameid":2915223,"name":"Groß Niendorf","admin3":"01060"},{"geonameid":2915219,"name":"Groß Nordende","admin3":"01056"},{"geonameid":3208297,"name":"Groß Offenseth-Aspern","admin3":"01056"},{"geonameid":2915192,"name":"Groß Pampau","admin3":"01053"},{"geonameid":2915143,"name":"Groß Rheide","admin3":"01059"},{"geonameid":2915121,"name":"Groß Rönnau","admin3":"01060"},{"geonameid":2915094,"name":"Groß Sarau","admin3":"01053"},{"geonameid":2915081,"name":"Groß Schenkenberg","admin3":"01053"},{"geonameid":2914902,"name":"Groß Vollstedt","admin3":"01058"},{"geonameid":2914836,"name":"Groß Wittensee","admin3":"01058"},{"geonameid":2917011,"name":"Großbarkau","admin3":"01057"},{"geonameid":2916676,"name":"Großenaspe","admin3":"01060"},{"geonameid":2916655,"name":"Grossenbrode","admin3":"01055"},{"geonameid":2916596,"name":"Großenrade","admin3":"01051"},{"geonameid":2916585,"name":"Großensee","admin3":"01062"},{"geonameid":2916570,"name":"Großenwiehe","admin3":"01059"},{"geonameid":2915556,"name":"Großhansdorf","admin3":"01062"},{"geonameid":2915554,"name":"Großharrie","admin3":"01057"},{"geonameid":2915028,"name":"Großsolt","admin3":"01059"},{"geonameid":2914769,"name":"Grothusenkoog","admin3":"01054"},{"geonameid":2914746,"name":"Grove","admin3":"01053"},{"geonameid":2914741,"name":"Groven","admin3":"01051"},{"geonameid":2914642,"name":"Grube","admin3":"01055"},{"geonameid":2914347,"name":"Grundhof","admin3":"01059"},{"geonameid":2913913,"name":"Güby","admin3":"01058"},{"geonameid":2913892,"name":"Gudendorf","admin3":"01051"},{"geonameid":2913880,"name":"Gudow","admin3":"01053"},{"geonameid":2913783,"name":"Gülzow","admin3":"01053"},{"geonameid":2913446,"name":"Güster","admin3":"01053"},{"geonameid":2913200,"name":"Haale","admin3":"01058"},{"geonameid":2912943,"name":"Haby","admin3":"01058"},{"geonameid":2912810,"name":"Hadenfeld","admin3":"01061"},{"geonameid":2912604,"name":"Hägen","admin3":"01051"},{"geonameid":2912605,"name":"Hagen","admin3":"01060"},{"geonameid":2911408,"name":"Halstenbek","admin3":"01056"},{"geonameid":2911325,"name":"Hamberge","admin3":"01062"},{"geonameid":2911282,"name":"Hamdorf","admin3":"01058"},{"geonameid":2911251,"name":"Hamfelde in Lauenburg","admin3":"01053"},{"geonameid":2911044,"name":"Hammoor","admin3":"01062"},{"geonameid":2911013,"name":"Hamwarde","admin3":"01053"},{"geonameid":2911010,"name":"Hamweddel","admin3":"01058"},{"geonameid":2910986,"name":"Handewitt","admin3":"01059"},{"geonameid":2910949,"name":"Hanerau-Hademarschen","admin3":"01058"},{"geonameid":2910667,"name":"Hardebek","admin3":"01060"},{"geonameid":2910390,"name":"Harmsdorf","admin3":"01055"},{"geonameid":2910391,"name":"Harmsdorf","admin3":"01053"},{"geonameid":2910302,"name":"Harrislee","admin3":"01059"},{"geonameid":2910178,"name":"Hartenholm","admin3":"01060"},{"geonameid":2909886,"name":"Haselau","admin3":"01056"},{"geonameid":2909821,"name":"Haseldorf","admin3":"01056"},{"geonameid":2909762,"name":"Haselund","admin3":"01054"},{"geonameid":2909623,"name":"Hasenkrug","admin3":"01060"},{"geonameid":2909615,"name":"Hasenmoor","admin3":"01060"},{"geonameid":2909489,"name":"Hasloh","admin3":"01056"},{"geonameid":2909304,"name":"Haßmoor","admin3":"01058"},{"geonameid":2909222,"name":"Hattstedt","admin3":"01054"},{"geonameid":2909220,"name":"Hattstedtermarsch","admin3":"01054"},{"geonameid":2908649,"name":"Havekost","admin3":"01053"},{"geonameid":2908604,"name":"Havetoft","admin3":"01059"},{"geonameid":2908602,"name":"Havetoftloit","admin3":"01059"},{"geonameid":2908365,"name":"Hedwigenkoog","admin3":"01051"},{"geonameid":2908349,"name":"Heede","admin3":"01056"},{"geonameid":2908032,"name":"Heide","admin3":"01051"},{"geonameid":2907962,"name":"Heidekamp","admin3":"01062"},{"geonameid":2907780,"name":"Heidgraben","admin3":"01056"},{"geonameid":3208299,"name":"Heidmoor","admin3":"01060"},{"geonameid":2907722,"name":"Heidmühlen","admin3":"01060"},{"geonameid":2907685,"name":"Heikendorf","admin3":"01057"},{"geonameid":2907589,"name":"Heiligenhafen","admin3":"01055"},{"geonameid":2907542,"name":"Heiligenstedten","admin3":"01061"},{"geonameid":2907541,"name":"Heiligenstedtenerkamp","admin3":"01061"},{"geonameid":2907486,"name":"Heilshoop","admin3":"01062"},{"geonameid":2907270,"name":"Heinkenborstel","admin3":"01058"},{"geonameid":2907111,"name":"Heist","admin3":"01056"},{"geonameid":3208547,"name":"Helgoland","admin3":"01056"},{"geonameid":2906766,"name":"Hellschen-Heringsand-Unterschaar","admin3":"01051"},{"geonameid":2906670,"name":"Helmstorf","admin3":"01057"},{"geonameid":2906650,"name":"Helse","admin3":"01051"},{"geonameid":2906605,"name":"Hemdingen","admin3":"01056"},{"geonameid":2906572,"name":"Hemme","admin3":"01051"},{"geonameid":2906527,"name":"Hemmingstedt","admin3":"01051"},{"geonameid":2906316,"name":"Hennstedt","admin3":"01051"},{"geonameid":2906317,"name":"Hennstedt","admin3":"01061"},{"geonameid":2906078,"name":"Heringsdorf","admin3":"01055"},{"geonameid":2905468,"name":"Herzhorn","admin3":"01061"},{"geonameid":2905245,"name":"Hetlingen","admin3":"01056"},{"geonameid":2904687,"name":"Hillgroven","admin3":"01051"},{"geonameid":2904448,"name":"Hingstheide","admin3":"01061"},{"geonameid":2903445,"name":"Hitzhusen","admin3":"01060"},{"geonameid":2903298,"name":"Hochdonn","admin3":"01051"},{"geonameid":2902810,"name":"Hodorf","admin3":"01061"},{"geonameid":2902587,"name":"Hoffeld","admin3":"01058"},{"geonameid":2902316,"name":"Högel","admin3":"01054"},{"geonameid":2902297,"name":"Högersdorf","admin3":"01060"},{"geonameid":2902284,"name":"Högsdorf","admin3":"01057"},{"geonameid":2901984,"name":"Hohenaspe","admin3":"01061"},{"geonameid":2901783,"name":"Hohenfelde","admin3":"01057"},{"geonameid":2901787,"name":"Hohenfelde","admin3":"01061"},{"geonameid":2901790,"name":"Hohenfelde","admin3":"01062"},{"geonameid":2901691,"name":"Hohenhorn","admin3":"01053"},{"geonameid":2901621,"name":"Hohenlockstedt","admin3":"01061"},{"geonameid":2901348,"name":"Hohenwestedt","admin3":"01058"},{"geonameid":2900899,"name":"Hohn","admin3":"01058"},{"geonameid":2900884,"name":"Höhndorf","admin3":"01057"},{"geonameid":2900816,"name":"Hohwacht","admin3":"01057"},{"geonameid":2900787,"name":"Hoisdorf","admin3":"01062"},{"geonameid":2900578,"name":"Hollenbek","admin3":"01053"},{"geonameid":2900409,"name":"Hollingstedt","admin3":"01059"},{"geonameid":2900410,"name":"Hollingstedt","admin3":"01051"},{"geonameid":2900337,"name":"Holm","admin3":"01054"},{"geonameid":2900341,"name":"Holm","admin3":"01056"},{"geonameid":2900253,"name":"Holstenniendorf","admin3":"01061"},{"geonameid":2900240,"name":"Holt","admin3":"01059"},{"geonameid":2900079,"name":"Holtsee","admin3":"01058"},{"geonameid":2899970,"name":"Holzbunge","admin3":"01058"},{"geonameid":2899959,"name":"Holzdorf","admin3":"01058"},{"geonameid":2899352,"name":"Honigsee","admin3":"01057"},{"geonameid":3208549,"name":"Hooge","admin3":"01054"},{"geonameid":2898892,"name":"Hornbek","admin3":"01053"},{"geonameid":2898758,"name":"Hörnum","admin3":"01054"},{"geonameid":2898640,"name":"Horst","admin3":"01061"},{"geonameid":2898607,"name":"Horstedt","admin3":"01054"},{"geonameid":2898591,"name":"Hörsten","admin3":"01058"},{"geonameid":2898512,"name":"Hörup","admin3":"01059"},{"geonameid":2898372,"name":"Hövede","admin3":"01051"},{"geonameid":2898076,"name":"Hude","admin3":"01054"},{"geonameid":2897881,"name":"Huje","admin3":"01061"},{"geonameid":2897692,"name":"Hummelfeld","admin3":"01058"},{"geonameid":2897635,"name":"Humptrup","admin3":"01054"},{"geonameid":2897211,"name":"Hürup","admin3":"01059"},{"geonameid":2897132,"name":"Husum","admin3":"01054"},{"geonameid":2897054,"name":"Hüttblek","admin3":"01060"},{"geonameid":2897020,"name":"Hütten","admin3":"01058"},{"geonameid":2896739,"name":"Idstedt","admin3":"01059"},{"geonameid":2896259,"name":"Immenstedt","admin3":"01054"},{"geonameid":2896260,"name":"Immenstedt","admin3":"01051"},{"geonameid":2895569,"name":"Itzehoe","admin3":"01061"},{"geonameid":2895552,"name":"Itzstedt","admin3":"01060"},{"geonameid":2895445,"name":"Jagel","admin3":"01059"},{"geonameid":2895271,"name":"Jahrsdorf","admin3":"01058"},{"geonameid":2895200,"name":"Janneby","admin3":"01059"},{"geonameid":2895174,"name":"Jardelund","admin3":"01059"},{"geonameid":3208552,"name":"Jarplund-Weding","admin3":"01059"},{"geonameid":2895000,"name":"Jerrishoe","admin3":"01059"},{"geonameid":2894998,"name":"Jersbek","admin3":"01062"},{"geonameid":2894899,"name":"Jevenstedt","admin3":"01058"},{"geonameid":2894734,"name":"Joldelund","admin3":"01054"},{"geonameid":2894699,"name":"Jörl","admin3":"01059"},{"geonameid":2894644,"name":"Jübek","admin3":"01059"},{"geonameid":2894545,"name":"Juliusburg","admin3":"01053"},{"geonameid":2894384,"name":"Kaaks","admin3":"01061"},{"geonameid":2894366,"name":"Kabelhorst","admin3":"01055"},{"geonameid":2894048,"name":"Kaisborstel","admin3":"01061"},{"geonameid":2893988,"name":"Kaiser Wilhelm Koog","admin3":"01051"},{"geonameid":2893544,"name":"Kaltenkirchen","admin3":"01060"},{"geonameid":2893477,"name":"Kalübbe","admin3":"01057"},{"geonameid":2893295,"name":"Kampen","admin3":"01054"},{"geonameid":2893296,"name":"Kampen","admin3":"01060"},{"geonameid":2893214,"name":"Kankelau","admin3":"01053"},{"geonameid":2893023,"name":"Kappeln","admin3":"01059"},{"geonameid":2892974,"name":"Karby","admin3":"01058"},{"geonameid":2892774,"name":"Karlum","admin3":"01054"},{"geonameid":2892711,"name":"Karolinenkoog","admin3":"01051"},{"geonameid":2892521,"name":"Kasseburg","admin3":"01053"},{"geonameid":2892520,"name":"Kasseedorf","admin3":"01055"},{"geonameid":2892448,"name":"Kastorf","admin3":"01053"},{"geonameid":2892406,"name":"Katharinenheerd","admin3":"01054"},{"geonameid":2892325,"name":"Kattendorf","admin3":"01060"},{"geonameid":2891993,"name":"Kayhude","admin3":"01060"},{"geonameid":2891848,"name":"Keitum","admin3":"01054"},{"geonameid":2891814,"name":"Kellenhusen","admin3":"01055"},{"geonameid":2891750,"name":"Kellinghusen","admin3":"01061"},{"geonameid":2891212,"name":"Kiebitzreihe","admin3":"01061"},{"geonameid":2891122,"name":"Kiel","admin3":"01002"},{"geonameid":2890996,"name":"Kiesby","admin3":"01059"},{"geonameid":2890762,"name":"Kirchbarkau","admin3":"01057"},{"geonameid":2890405,"name":"Kirchnüchel","admin3":"01057"},{"geonameid":2890218,"name":"Kisdorf","admin3":"01060"},{"geonameid":2890178,"name":"Kittlitz","admin3":"01053"},{"geonameid":2890093,"name":"Klamp","admin3":"01057"},{"geonameid":2890086,"name":"Klanxbüll","admin3":"01054"},{"geonameid":2890066,"name":"Klappholz","admin3":"01059"},{"geonameid":2889990,"name":"Klausdorf","admin3":"01057"},{"geonameid":2889766,"name":"Klein Barkau","admin3":"01057"},{"geonameid":2889746,"name":"Klein Bennebek","admin3":"01059"},{"geonameid":2888853,"name":"Klein Gladebrügge","admin3":"01060"},{"geonameid":2888436,"name":"Klein Nordende","admin3":"01056"},{"geonameid":3208303,"name":"Klein Offenseth-Sparrieshoop","admin3":"01056"},{"geonameid":2888402,"name":"Klein Pampau","admin3":"01053"},{"geonameid":2888333,"name":"Klein Rheide","admin3":"01059"},{"geonameid":2888309,"name":"Klein Rönnau","admin3":"01060"},{"geonameid":2888242,"name":"Klein Schretstaken","admin3":"01053"},{"geonameid":2888007,"name":"Klein Wesenberg","admin3":"01062"},{"geonameid":2887981,"name":"Klein Wittensee","admin3":"01058"},{"geonameid":2887952,"name":"Klein Zecher","admin3":"01053"},{"geonameid":2887918,"name":"Klempau","admin3":"01053"},{"geonameid":2887858,"name":"Kletkamp","admin3":"01057"},{"geonameid":2887834,"name":"Kleve","admin3":"01061"},{"geonameid":2887666,"name":"Klinkrade","admin3":"01053"},{"geonameid":2887629,"name":"Klixbüll","admin3":"01054"},{"geonameid":2886971,"name":"Koberg","admin3":"01053"},{"geonameid":2886505,"name":"Köhn","admin3":"01057"},{"geonameid":2886419,"name":"Koldenbüttel","admin3":"01054"},{"geonameid":2886392,"name":"Kolkerheide","admin3":"01054"},{"geonameid":2886303,"name":"Kollmar","admin3":"01061"},{"geonameid":2886292,"name":"Kollmoor","admin3":"01061"},{"geonameid":2886281,"name":"Kölln-Reisiek","admin3":"01056"},{"geonameid":2886278,"name":"Kollow","admin3":"01053"},{"geonameid":2885350,"name":"Kosel","admin3":"01058"},{"geonameid":2885239,"name":"Köthel","admin3":"01053"},{"geonameid":2885092,"name":"Kotzenbüll","admin3":"01054"},{"geonameid":3208304,"name":"Krempdorf","admin3":"01061"},{"geonameid":2884393,"name":"Krempe","admin3":"01061"},{"geonameid":2884391,"name":"Krempel","admin3":"01051"},{"geonameid":2884380,"name":"Kremperheide","admin3":"01061"},{"geonameid":2884377,"name":"Krempermoor","admin3":"01061"},{"geonameid":2883827,"name":"Krogaspe","admin3":"01058"},{"geonameid":2883801,"name":"Krokau","admin3":"01057"},{"geonameid":2883683,"name":"Kronprinzenkoog","admin3":"01051"},{"geonameid":2883648,"name":"Kronsgaard","admin3":"01059"},{"geonameid":2883647,"name":"Kronshagen","admin3":"01058"},{"geonameid":2883640,"name":"Kronsmoor","admin3":"01061"},{"geonameid":2883591,"name":"Kropp","admin3":"01059"},{"geonameid":2883585,"name":"Kröppelshagen-Fahrendorf","admin3":"01053"},{"geonameid":2883432,"name":"Krukow","admin3":"01053"},{"geonameid":2883366,"name":"Krummbek","admin3":"01057"},{"geonameid":2883327,"name":"Krummendiek","admin3":"01056"},{"geonameid":2883270,"name":"Krummesse","admin3":"01053"},{"geonameid":2883247,"name":"Krummwisch","admin3":"01058"},{"geonameid":2883238,"name":"Krumstedt","admin3":"01051"},{"geonameid":2883191,"name":"Krüzen","admin3":"01053"},{"geonameid":2883066,"name":"Kuddewörde","admin3":"01053"},{"geonameid":2883065,"name":"Kuden","admin3":"01051"},{"geonameid":2883062,"name":"Kudensee","admin3":"01061"},{"geonameid":2882692,"name":"Kühren","admin3":"01057"},{"geonameid":2882670,"name":"Kühsen","admin3":"01053"},{"geonameid":2882630,"name":"Kükels","admin3":"01060"},{"geonameid":2882577,"name":"Kulpin","admin3":"01053"},{"geonameid":2882543,"name":"Kummerfeld","admin3":"01056"},{"geonameid":2882073,"name":"Labenz","admin3":"01053"},{"geonameid":2882059,"name":"Laboe","admin3":"01057"},{"geonameid":2881984,"name":"Ladelund","admin3":"01054"},{"geonameid":2881939,"name":"Lägerdorf","admin3":"01061"},{"geonameid":2881728,"name":"Lammershagen","admin3":"01057"},{"geonameid":2881519,"name":"Landrecht","admin3":"01061"},{"geonameid":2881402,"name":"Langballig","admin3":"01059"},{"geonameid":2881301,"name":"Langeln","admin3":"01056"},{"geonameid":2881091,"name":"Langeneß","admin3":"01054"},{"geonameid":2881019,"name":"Langenhorn","admin3":"01054"},{"geonameid":2880991,"name":"Langenlehsten","admin3":"01053"},{"geonameid":2880573,"name":"Langstedt","admin3":"01059"},{"geonameid":2880546,"name":"Langwedel","admin3":"01058"},{"geonameid":2880515,"name":"Lankau","admin3":"01053"},{"geonameid":2880483,"name":"Lanze","admin3":"01053"},{"geonameid":2880400,"name":"Lasbek","admin3":"01062"},{"geonameid":2880355,"name":"Latendorf","admin3":"01060"},{"geonameid":2880181,"name":"Lauenburg","admin3":"01053"},{"geonameid":2879797,"name":"Lebrade","admin3":"01057"},{"geonameid":2879758,"name":"Leck","admin3":"01054"},{"geonameid":2879666,"name":"Leezen","admin3":"01060"},{"geonameid":2879620,"name":"Lehe","admin3":"01051"},{"geonameid":2879464,"name":"Lehmkuhlen","admin3":"01057"},{"geonameid":2879461,"name":"Lehmrade","admin3":"01053"},{"geonameid":2878773,"name":"Lensahn","admin3":"01055"},{"geonameid":2878755,"name":"Lentföhrden","admin3":"01060"},{"geonameid":2878204,"name":"Lexgaard","admin3":"01054"},{"geonameid":2877748,"name":"Lieth","admin3":"01056"},{"geonameid":2877624,"name":"Linau","admin3":"01053"},{"geonameid":2877545,"name":"Lindau","admin3":"01058"},{"geonameid":2877441,"name":"Linden","admin3":"01051"},{"geonameid":2877204,"name":"Lindewitt","admin3":"01059"},{"geonameid":2876837,"name":"List","admin3":"01054"},{"geonameid":2876529,"name":"Lockstedt","admin3":"01061"},{"geonameid":2876388,"name":"Lohbarbek","admin3":"01061"},{"geonameid":2876306,"name":"Lohe-Föhrden","admin3":"01058"},{"geonameid":3208554,"name":"Lohe-Rickelshof","admin3":"01051"},{"geonameid":2876064,"name":"Loit","admin3":"01059"},{"geonameid":2875968,"name":"Looft","admin3":"01061"},{"geonameid":2875965,"name":"Loop","admin3":"01058"},{"geonameid":2875951,"name":"Loose","admin3":"01058"},{"geonameid":2875918,"name":"Löptin","admin3":"01057"},{"geonameid":2875742,"name":"Lottorf","admin3":"01059"},{"geonameid":2875659,"name":"Löwenstedt","admin3":"01054"},{"geonameid":2875601,"name":"Lübeck","admin3":"01003"},{"geonameid":2875541,"name":"Lüchow","admin3":"01053"},{"geonameid":2875221,"name":"Luhnstedt","admin3":"01058"},{"geonameid":2875130,"name":"Lunden","admin3":"01051"},{"geonameid":2875027,"name":"Lürschau","admin3":"01059"},{"geonameid":2874958,"name":"Lütau","admin3":"01053"},{"geonameid":2874919,"name":"Lütjenburg","admin3":"01057"},{"geonameid":2874911,"name":"Lütjenholm","admin3":"01054"},{"geonameid":2874902,"name":"Lütjensee","admin3":"01062"},{"geonameid":2874900,"name":"Lütjenwestedt","admin3":"01058"},{"geonameid":2874828,"name":"Lutterbek","admin3":"01057"},{"geonameid":2874721,"name":"Lutzhorn","admin3":"01056"},{"geonameid":2874674,"name":"Maasbüll","admin3":"01059"},{"geonameid":2874663,"name":"Maasholm","admin3":"01059"},{"geonameid":2874111,"name":"Malente","admin3":"01055"},{"geonameid":2873929,"name":"Manhagen","admin3":"01055"},{"geonameid":2873237,"name":"Marnerdeich","admin3":"01051"},{"geonameid":2873159,"name":"Martensrade","admin3":"01057"},{"geonameid":2872606,"name":"Mechow","admin3":"01053"},{"geonameid":2872558,"name":"Meddewade","admin3":"01062"},{"geonameid":2872553,"name":"Medelby","admin3":"01059"},{"geonameid":2872470,"name":"Meezen","admin3":"01058"},{"geonameid":2872463,"name":"Meggerdorf","admin3":"01059"},{"geonameid":2872447,"name":"Mehlbek","admin3":"01061"},{"geonameid":2872100,"name":"Meldorf","admin3":"01051"},{"geonameid":2872031,"name":"Melsdorf","admin3":"01058"},{"geonameid":2871394,"name":"Meyn","admin3":"01059"},{"geonameid":2871243,"name":"Midlum","admin3":"01054"},{"geonameid":2871213,"name":"Mielkendorf","admin3":"01058"},{"geonameid":2871130,"name":"Mildstedt","admin3":"01054"},{"geonameid":2870164,"name":"Möhnsen","admin3":"01053"},{"geonameid":3208557,"name":"Mohrkirch","admin3":"01059"},{"geonameid":2870079,"name":"Molfsee","admin3":"01058"},{"geonameid":2869994,"name":"Mölln","admin3":"01053"},{"geonameid":2869783,"name":"Mönkeberg","admin3":"01057"},{"geonameid":2869775,"name":"Mönkhagen","admin3":"01062"},{"geonameid":2869773,"name":"Mönkloh","admin3":"01060"},{"geonameid":2869694,"name":"Moordiek","admin3":"01061"},{"geonameid":2869688,"name":"Moordorf","admin3":"01061"},{"geonameid":2869652,"name":"Moorhusen","admin3":"01061"},{"geonameid":2869627,"name":"Moorrege","admin3":"01056"},{"geonameid":2869290,"name":"Mörel","admin3":"01058"},{"geonameid":2868941,"name":"Mözen","admin3":"01060"},{"geonameid":2868931,"name":"Mucheln","admin3":"01057"},{"geonameid":2868791,"name":"Mühbrook","admin3":"01058"},{"geonameid":2868368,"name":"Mühlenbarbek","admin3":"01061"},{"geonameid":2868134,"name":"Mühlenrade","admin3":"01053"},{"geonameid":2867582,"name":"Munkbrarup","admin3":"01059"},{"geonameid":2867527,"name":"Münsterdorf","admin3":"01061"},{"geonameid":2867361,"name":"Müssen","admin3":"01053"},{"geonameid":2867346,"name":"Mustin","admin3":"01053"},{"geonameid":2867160,"name":"Nahe","admin3":"01060"},{"geonameid":2866826,"name":"Nebel","admin3":"01054"},{"geonameid":2866663,"name":"Negenharrie","admin3":"01058"},{"geonameid":2866657,"name":"Negernbötel","admin3":"01060"},{"geonameid":2866637,"name":"Nehms","admin3":"01060"},{"geonameid":2866634,"name":"Nehmten","admin3":"01057"},{"geonameid":2866482,"name":"Neritz","admin3":"01062"},{"geonameid":2866345,"name":"Nettelsee","admin3":"01057"},{"geonameid":2865904,"name":"Neu Duvenstedt","admin3":"01058"},{"geonameid":2866208,"name":"Neuberend","admin3":"01059"},{"geonameid":2865945,"name":"Neudorf-Bornstein","admin3":"01058"},{"geonameid":2865820,"name":"Neuenbrook","admin3":"01061"},{"geonameid":2865799,"name":"Neuendeich","admin3":"01056"},{"geonameid":2865778,"name":"Neuendorf","admin3":"01061"},{"geonameid":2865721,"name":"Neuengörs","admin3":"01060"},{"geonameid":2865359,"name":"Neufeld","admin3":"01051"},{"geonameid":2865347,"name":"Neufelderkoog","admin3":"01051"},{"geonameid":2864735,"name":"Neukirchen","admin3":"01054"},{"geonameid":2864738,"name":"Neukirchen","admin3":"01055"},{"geonameid":2864475,"name":"Neumünster","admin3":"01004"},{"geonameid":2864034,"name":"Neustadt in Holstein","admin3":"01055"},{"geonameid":2863810,"name":"Neuwittenbek","admin3":"01058"},{"geonameid":2863762,"name":"Neversdorf","admin3":"01060"},{"geonameid":2863698,"name":"Nieblum","admin3":"01054"},{"geonameid":2863696,"name":"Niebüll","admin3":"01054"},{"geonameid":2862625,"name":"Nienborstel","admin3":"01058"},{"geonameid":2862615,"name":"Nienbüttel","admin3":"01061"},{"geonameid":2862604,"name":"Niendorf","admin3":"01053"},{"geonameid":3204977,"name":"Nienwohld","admin3":"01062"},{"geonameid":2862465,"name":"Niesgrau","admin3":"01059"},{"geonameid":2862388,"name":"Nindorf","admin3":"01058"},{"geonameid":2862389,"name":"Nindorf","admin3":"01051"},{"geonameid":2862304,"name":"Noer","admin3":"01058"},{"geonameid":2862135,"name":"Norddeich","admin3":"01051"},{"geonameid":2862131,"name":"Norddorf","admin3":"01054"},{"geonameid":2862093,"name":"Norderbrarup","admin3":"01059"},{"geonameid":2862074,"name":"Norderfriedrichskoog","admin3":"01054"},{"geonameid":2862065,"name":"Norderheistedt","admin3":"01051"},{"geonameid":2862027,"name":"Norderstapel","admin3":"01059"},{"geonameid":2862026,"name":"Norderstedt","admin3":"01060"},{"geonameid":2862011,"name":"Norderwöhrden","admin3":"01051"},{"geonameid":2861996,"name":"Nordhackstedt","admin3":"01059"},{"geonameid":2861988,"name":"Nordhastedt","admin3":"01051"},{"geonameid":2861820,"name":"Norstedt","admin3":"01054"},{"geonameid":2861804,"name":"Nortorf","admin3":"01058"},{"geonameid":2861739,"name":"Nottfeld","admin3":"01059"},{"geonameid":2861714,"name":"Nübbel","admin3":"01058"},{"geonameid":2861598,"name":"Nusse","admin3":"01053"},{"geonameid":2861549,"name":"Nutteln","admin3":"01061"},{"geonameid":2861537,"name":"Nützen","admin3":"01060"},{"geonameid":2858231,"name":"Ockholm","admin3":"01054"},{"geonameid":2858154,"name":"Odderade","admin3":"01051"},{"geonameid":2857347,"name":"Oelixdorf","admin3":"01061"},{"geonameid":2857047,"name":"Oersberg","admin3":"01059"},{"geonameid":2857042,"name":"Oersdorf","admin3":"01060"},{"geonameid":2856939,"name":"Oeschebüttel","admin3":"01061"},{"geonameid":2856619,"name":"Oesterdeichstrich","admin3":"01051"},{"geonameid":3208559,"name":"Oesterwurth","admin3":"01051"},{"geonameid":2855862,"name":"Oevenum","admin3":"01054"},{"geonameid":2855834,"name":"Oeversee","admin3":"01059"},{"geonameid":2857797,"name":"Offenbüttel","admin3":"01051"},{"geonameid":2857464,"name":"Oldenborstel","admin3":"01061"},{"geonameid":2857451,"name":"Oldenburg in Holstein","admin3":"01055"},{"geonameid":2857447,"name":"Oldenbüttel","admin3":"01058"},{"geonameid":2857429,"name":"Oldendorf","admin3":"01061"},{"geonameid":2857416,"name":"Oldenhütten","admin3":"01058"},{"geonameid":2857410,"name":"Oldenswort","admin3":"01054"},{"geonameid":2857407,"name":"Oldersbek","admin3":"01054"},{"geonameid":2857399,"name":"Olderup","admin3":"01054"},{"geonameid":3208561,"name":"Oldsum","admin3":"01054"},{"geonameid":2856917,"name":"Osdorf","admin3":"01058"},{"geonameid":2856765,"name":"Ostenfeld","admin3":"01054"},{"geonameid":2856766,"name":"Ostenfeld","admin3":"01058"},{"geonameid":2856398,"name":"Oster-Ohrstedt","admin3":"01054"},{"geonameid":2856636,"name":"Osterby","admin3":"01058"},{"geonameid":2856548,"name":"Osterhever","admin3":"01054"},{"geonameid":2856493,"name":"Osterhorn","admin3":"01056"},{"geonameid":2856395,"name":"Osterrade","admin3":"01058"},{"geonameid":2856390,"name":"Osterrönfeld","admin3":"01058"},{"geonameid":2856374,"name":"Osterstedt","admin3":"01058"},{"geonameid":2856203,"name":"Ostrohe","admin3":"01051"},{"geonameid":2856184,"name":"Oststeinbek","admin3":"01062"},{"geonameid":2856125,"name":"Ottenbüttel","admin3":"01061"},{"geonameid":2856110,"name":"Ottendorf","admin3":"01058"},{"geonameid":2855820,"name":"Owschlag","admin3":"01058"},{"geonameid":2855747,"name":"Padenstedt","admin3":"01058"},{"geonameid":2855704,"name":"Pahlen","admin3":"01051"},{"geonameid":2855602,"name":"Panker","admin3":"01057"},{"geonameid":2855564,"name":"Panten","admin3":"01053"},{"geonameid":2855331,"name":"Passade","admin3":"01057"},{"geonameid":2855030,"name":"Peissen","admin3":"01061"},{"geonameid":2854996,"name":"Pellworm","admin3":"01054"},{"geonameid":2853658,"name":"Pinneberg","admin3":"01056"},{"geonameid":2853162,"name":"Plön","admin3":"01057"},{"geonameid":2853037,"name":"Pogeez","admin3":"01053"},{"geonameid":2853009,"name":"Poggensee","admin3":"01053"},{"geonameid":2852957,"name":"Pohnsdorf","admin3":"01057"},{"geonameid":2852877,"name":"Pölitz","admin3":"01062"},{"geonameid":2852675,"name":"Poppenbüll","admin3":"01054"},{"geonameid":2852557,"name":"Pöschendorf","admin3":"01061"},{"geonameid":2852498,"name":"Postfeld","admin3":"01057"},{"geonameid":2852388,"name":"Poyenberg","admin3":"01061"},{"geonameid":2852326,"name":"Prasdorf","admin3":"01057"},{"geonameid":2852280,"name":"Preetz","admin3":"01057"},{"geonameid":2852019,"name":"Prinzenmoor","admin3":"01058"},{"geonameid":2851994,"name":"Prisdorf","admin3":"01056"},{"geonameid":2851946,"name":"Probsteierhagen","admin3":"01057"},{"geonameid":2851893,"name":"Pronstorf","admin3":"01060"},{"geonameid":2851727,"name":"Puls","admin3":"01061"},{"geonameid":2851502,"name":"Quarnbek","admin3":"01058"},{"geonameid":2851499,"name":"Quarnstedt","admin3":"01061"},{"geonameid":2851385,"name":"Quern","admin3":"01059"},{"geonameid":2851342,"name":"Quickborn","admin3":"01051"},{"geonameid":2851343,"name":"Quickborn","admin3":"01056"},{"geonameid":2851289,"name":"Raa-Besenbek","admin3":"01056"},{"geonameid":2851273,"name":"Rabel","admin3":"01059"},{"geonameid":2851231,"name":"Rabenholz","admin3":"01059"},{"geonameid":3208562,"name":"Rabenkirchen-Faulück","admin3":"01059"},{"geonameid":2851085,"name":"Rade","admin3":"01058"},{"geonameid":2851087,"name":"Rade","admin3":"01061"},{"geonameid":2850777,"name":"Raisdorf","admin3":"01057"},{"geonameid":2850686,"name":"Ramhusen","admin3":"01051"},{"geonameid":2850544,"name":"Ramstedt","admin3":"01054"},{"geonameid":2850422,"name":"Rantrum","admin3":"01054"},{"geonameid":2850420,"name":"Rantum","admin3":"01054"},{"geonameid":2850418,"name":"Rantzau","admin3":"01057"},{"geonameid":2850242,"name":"Rastorf","admin3":"01057"},{"geonameid":2850235,"name":"Ratekau","admin3":"01055"},{"geonameid":2850203,"name":"Rathjensdorf","admin3":"01057"},{"geonameid":2850132,"name":"Ratzeburg","admin3":"01053"},{"geonameid":2849854,"name":"Rausdorf","admin3":"01062"},{"geonameid":2849541,"name":"Reesdorf","admin3":"01058"},{"geonameid":2849355,"name":"Reher","admin3":"01061"},{"geonameid":2849273,"name":"Rehm-Flehde-Bargen","admin3":"01051"},{"geonameid":2848845,"name":"Reinbek","admin3":"01062"},{"geonameid":2848811,"name":"Reinfeld","admin3":"01062"},{"geonameid":2848729,"name":"Reinsbüttel","admin3":"01051"},{"geonameid":2848340,"name":"Rellingen","admin3":"01056"},{"geonameid":2848302,"name":"Remmels","admin3":"01058"},{"geonameid":2848245,"name":"Rendsburg","admin3":"01058"},{"geonameid":2848243,"name":"Rendswühren","admin3":"01057"},{"geonameid":2848029,"name":"Rethwisch","admin3":"01061"},{"geonameid":2847883,"name":"Reußenköge","admin3":"01054"},{"geonameid":2847433,"name":"Rickert","admin3":"01058"},{"geonameid":2847429,"name":"Rickling","admin3":"01060"},{"geonameid":2846946,"name":"Riepsdorf","admin3":"01055"},{"geonameid":2846922,"name":"Rieseby","admin3":"01058"},{"geonameid":2846590,"name":"Ringsberg","admin3":"01059"},{"geonameid":3208565,"name":"Risum-Lindholm","admin3":"01054"},{"geonameid":2846333,"name":"Ritzerau","admin3":"01053"},{"geonameid":2846069,"name":"Rodenäs","admin3":"01054"},{"geonameid":2846048,"name":"Rodenbek","admin3":"01058"},{"geonameid":2845270,"name":"Römnitz","admin3":"01053"},{"geonameid":2845258,"name":"Rondeshagen","admin3":"01053"},{"geonameid":2845130,"name":"Rosdorf","admin3":"01061"},{"geonameid":2845123,"name":"Roseburg","admin3":"01053"},{"geonameid":2843459,"name":"Rüde","admin3":"01059"},{"geonameid":2843302,"name":"Rügge","admin3":"01059"},{"geonameid":2843177,"name":"Ruhwinkel","admin3":"01057"},{"geonameid":2843097,"name":"Rumohr","admin3":"01058"},{"geonameid":2843094,"name":"Rümpel","admin3":"01062"},{"geonameid":2842372,"name":"Sahms","admin3":"01053"},{"geonameid":2842305,"name":"Salem","admin3":"01053"},{"geonameid":2841874,"name":"Sandesneben","admin3":"01053"},{"geonameid":2841682,"name":"Sankelmark","admin3":"01059"},{"geonameid":2841658,"name":"Sankt Annen-Neufeld","admin3":"01051"},{"geonameid":2841523,"name":"Sankt Margarethen","admin3":"01061"},{"geonameid":2841509,"name":"Sankt Michaelisdonn","admin3":"01051"},{"geonameid":2841484,"name":"Sankt Peter-Ording","admin3":"01054"},{"geonameid":2841406,"name":"Sarlhusen","admin3":"01061"},{"geonameid":2841383,"name":"Sarzbüttel","admin3":"01051"},{"geonameid":2841320,"name":"Satrup","admin3":"01059"},{"geonameid":2841074,"name":"Saustrup","admin3":"01059"},{"geonameid":2841027,"name":"Schaalby","admin3":"01059"},{"geonameid":2840936,"name":"Schacht-Audorf","admin3":"01058"},{"geonameid":2840903,"name":"Schackendorf","admin3":"01060"},{"geonameid":2840732,"name":"Schafflund","admin3":"01059"},{"geonameid":2840566,"name":"Schalkholz","admin3":"01051"},{"geonameid":2840393,"name":"Scharbeutz","admin3":"01055"},{"geonameid":2840232,"name":"Schashagen","admin3":"01055"},{"geonameid":2840058,"name":"Scheggerott","admin3":"01059"},{"geonameid":2839812,"name":"Schellhorn","admin3":"01057"},{"geonameid":2839763,"name":"Schenefeld","admin3":"01061"},{"geonameid":2839427,"name":"Schieren","admin3":"01060"},{"geonameid":2839413,"name":"Schierensee","admin3":"01058"},{"geonameid":2839203,"name":"Schillsdorf","admin3":"01057"},{"geonameid":2839102,"name":"Schiphorst","admin3":"01053"},{"geonameid":2838638,"name":"Schlesen","admin3":"01057"},{"geonameid":2838634,"name":"Schleswig","admin3":"01059"},{"geonameid":2838559,"name":"Schlichting","admin3":"01051"},{"geonameid":2838242,"name":"Schlotfeld","admin3":"01061"},{"geonameid":2838087,"name":"Schmalensee","admin3":"01060"},{"geonameid":2838075,"name":"Schmalfeld","admin3":"01060"},{"geonameid":2838040,"name":"Schmalstede","admin3":"01058"},{"geonameid":3213222,"name":"Schmedeswurth","admin3":"01051"},{"geonameid":2837732,"name":"Schmilau","admin3":"01053"},{"geonameid":2837566,"name":"Schnakenbek","admin3":"01053"},{"geonameid":3208567,"name":"Schnarup-Thumby","admin3":"01059"},{"geonameid":2837236,"name":"Schobüll","admin3":"01054"},{"geonameid":2837009,"name":"Schönbek","admin3":"01058"},{"geonameid":2836945,"name":"Schönberg","admin3":"01053"},{"geonameid":2836532,"name":"Schönkirchen","admin3":"01057"},{"geonameid":2836438,"name":"Schönwalde am Bungsberg","admin3":"01055"},{"geonameid":2836039,"name":"Schrum","admin3":"01051"},{"geonameid":2836031,"name":"Schuby","admin3":"01059"},{"geonameid":2835972,"name":"Schulendorf","admin3":"01053"},{"geonameid":2835953,"name":"Schülldorf","admin3":"01058"},{"geonameid":2835944,"name":"Schülp","admin3":"01058"},{"geonameid":2835945,"name":"Schülp","admin3":"01051"},{"geonameid":2835674,"name":"Schürensöhlen","admin3":"01053"},{"geonameid":2835467,"name":"Schwabstedt","admin3":"01054"},{"geonameid":2835216,"name":"Schwartbuck","admin3":"01057"},{"geonameid":2835013,"name":"Schwarzenbek","admin3":"01053"},{"geonameid":2834249,"name":"Schwesing","admin3":"01054"},{"geonameid":2834157,"name":"Schwissel","admin3":"01060"},{"geonameid":2833878,"name":"Seedorf","admin3":"01060"},{"geonameid":2833883,"name":"Seedorf","admin3":"01053"},{"geonameid":2833859,"name":"Seefeld","admin3":"01058"},{"geonameid":2833585,"name":"Seester","admin3":"01056"},{"geonameid":2833582,"name":"Seestermühe","admin3":"01056"},{"geonameid":2833576,"name":"Seeth","admin3":"01056"},{"geonameid":2833571,"name":"Seeth-Ekholt","admin3":"01056"},{"geonameid":2833500,"name":"Sehestedt","admin3":"01058"},{"geonameid":2833259,"name":"Selent","admin3":"01057"},{"geonameid":2833228,"name":"Selk","admin3":"01059"},{"geonameid":2832915,"name":"Seth","admin3":"01060"},{"geonameid":2832734,"name":"Siebenbäumen","admin3":"01053"},{"geonameid":2832714,"name":"Siebeneichen","admin3":"01053"},{"geonameid":2832406,"name":"Siek","admin3":"01062"},{"geonameid":2832338,"name":"Sierksdorf","admin3":"01055"},{"geonameid":2832337,"name":"Sierksrade","admin3":"01053"},{"geonameid":2832280,"name":"Sievershütten","admin3":"01060"},{"geonameid":2832276,"name":"Sieverstedt","admin3":"01059"},{"geonameid":2832271,"name":"Siezbüttel","admin3":"01061"},{"geonameid":2832114,"name":"Silberstedt","admin3":"01059"},{"geonameid":2832049,"name":"Silzen","admin3":"01061"},{"geonameid":2831985,"name":"Simonsberg","admin3":"01054"},{"geonameid":2831828,"name":"Sirksfelde","admin3":"01053"},{"geonameid":2831532,"name":"Sollerup","admin3":"01059"},{"geonameid":2831500,"name":"Sollwitt","admin3":"01054"},{"geonameid":2831369,"name":"Sommerland","admin3":"01061"},{"geonameid":2831240,"name":"Sönnebüll","admin3":"01054"},{"geonameid":2831058,"name":"Sophienhamm","admin3":"01058"},{"geonameid":2830998,"name":"Sören","admin3":"01058"},{"geonameid":2830919,"name":"Sörup","admin3":"01059"},{"geonameid":2830132,"name":"Sprakebüll","admin3":"01054"},{"geonameid":2829731,"name":"Stadum","admin3":"01054"},{"geonameid":2829693,"name":"Stafstedt","admin3":"01058"},{"geonameid":2829638,"name":"Stakendorf","admin3":"01057"},{"geonameid":2829534,"name":"Stangheck","admin3":"01059"},{"geonameid":2829509,"name":"Stapelfeld","admin3":"01062"},{"geonameid":2829219,"name":"Stedesand","admin3":"01054"},{"geonameid":2829183,"name":"Steenfeld","admin3":"01058"},{"geonameid":2828929,"name":"Stein","admin3":"01057"},{"geonameid":2828428,"name":"Steinberg","admin3":"01059"},{"geonameid":2828396,"name":"Steinbergkirche","admin3":"01059"},{"geonameid":2828124,"name":"Steinfeld","admin3":"01062"},{"geonameid":2827950,"name":"Steinhorst","admin3":"01053"},{"geonameid":2827559,"name":"Stelle-Wittenwurth","admin3":"01051"},{"geonameid":2827359,"name":"Sterley","admin3":"01053"},{"geonameid":2827284,"name":"Sterup","admin3":"01059"},{"geonameid":2826974,"name":"Stipsdorf","admin3":"01060"},{"geonameid":2826861,"name":"Stockelsdorf","admin3":"01055"},{"geonameid":2826679,"name":"Stocksee","admin3":"01060"},{"geonameid":2826591,"name":"Stolk","admin3":"01059"},{"geonameid":2826536,"name":"Stolpe","admin3":"01057"},{"geonameid":2826516,"name":"Stoltebüll","admin3":"01059"},{"geonameid":2826511,"name":"Stoltenberg","admin3":"01057"},{"geonameid":2826421,"name":"Stördorf","admin3":"01061"},{"geonameid":2826409,"name":"Störkathen","admin3":"01061"},{"geonameid":2826277,"name":"Strande","admin3":"01058"},{"geonameid":2825681,"name":"Strübbel","admin3":"01051"},{"geonameid":2825647,"name":"Struckum","admin3":"01054"},{"geonameid":2825641,"name":"Strukdorf","admin3":"01060"},{"geonameid":2825577,"name":"Struvenhütten","admin3":"01060"},{"geonameid":2825570,"name":"Struxdorf","admin3":"01059"},{"geonameid":2825558,"name":"Stubben","admin3":"01053"},{"geonameid":2825266,"name":"Stuvenborn","admin3":"01060"},{"geonameid":2825196,"name":"Süderau","admin3":"01061"},{"geonameid":2825186,"name":"Süderbrarup","admin3":"01059"},{"geonameid":3208569,"name":"Süderdorf","admin3":"01051"},{"geonameid":2825158,"name":"Süderende","admin3":"01054"},{"geonameid":2825156,"name":"Süderfahrenstedt","admin3":"01059"},{"geonameid":2825145,"name":"Süderhackstedt","admin3":"01059"},{"geonameid":2825142,"name":"Süderhastedt","admin3":"01051"},{"geonameid":2825137,"name":"Süderheistedt","admin3":"01051"},{"geonameid":2825108,"name":"Süderlügum","admin3":"01054"},{"geonameid":2825077,"name":"Süderstapel","admin3":"01059"},{"geonameid":2824907,"name":"Sülfeld","admin3":"01060"},{"geonameid":2824564,"name":"Süsel","admin3":"01055"},{"geonameid":2824441,"name":"Taarstedt","admin3":"01059"},{"geonameid":2824412,"name":"Tackesdorf","admin3":"01058"},{"geonameid":2824303,"name":"Talkau","admin3":"01053"},{"geonameid":2824245,"name":"Tangstedt","admin3":"01062"},{"geonameid":2824246,"name":"Tangstedt","admin3":"01056"},{"geonameid":2823997,"name":"Tappendorf","admin3":"01058"},{"geonameid":2823993,"name":"Tarbek","admin3":"01060"},{"geonameid":2823978,"name":"Tarp","admin3":"01059"},{"geonameid":2823956,"name":"Tasdorf","admin3":"01057"},{"geonameid":2823953,"name":"Tastrup","admin3":"01059"},{"geonameid":2823936,"name":"Tating","admin3":"01054"},{"geonameid":2823740,"name":"Techelsdorf","admin3":"01058"},{"geonameid":2823578,"name":"Tellingstedt","admin3":"01051"},{"geonameid":3208572,"name":"Tensbüttel-Röst","admin3":"01051"},{"geonameid":2823486,"name":"Tensfeld","admin3":"01060"},{"geonameid":2823403,"name":"Tetenbüll","admin3":"01054"},{"geonameid":2823401,"name":"Tetenhusen","admin3":"01059"},{"geonameid":2823218,"name":"Thaden","admin3":"01058"},{"geonameid":2822589,"name":"Thumby","admin3":"01058"},{"geonameid":2822269,"name":"Tielen","admin3":"01059"},{"geonameid":2822168,"name":"Timmaspe","admin3":"01058"},{"geonameid":2822160,"name":"Timmendorfer Strand","admin3":"01055"},{"geonameid":2822121,"name":"Tinningstedt","admin3":"01054"},{"geonameid":2822118,"name":"Tinnum","admin3":"01054"},{"geonameid":2822030,"name":"Todenbüttel","admin3":"01058"},{"geonameid":2822029,"name":"Todendorf","admin3":"01062"},{"geonameid":2822017,"name":"Todesfelde","admin3":"01060"},{"geonameid":2821956,"name":"Tolk","admin3":"01059"},{"geonameid":2821878,"name":"Tönning","admin3":"01054"},{"geonameid":2821779,"name":"Tornesch","admin3":"01056"},{"geonameid":2821605,"name":"Tramm","admin3":"01053"},{"geonameid":2821558,"name":"Trappenkamp","admin3":"01060"},{"geonameid":2821480,"name":"Travemünde","admin3":"01003"},{"geonameid":2821478,"name":"Travenhorst","admin3":"01060"},{"geonameid":3204980,"name":"Traventhal","admin3":"01060"},{"geonameid":2821389,"name":"Treia","admin3":"01059"},{"geonameid":2821342,"name":"Tremsbüttel","admin3":"01062"},{"geonameid":2821330,"name":"Trennewurth","admin3":"01051"},{"geonameid":2821085,"name":"Trittau","admin3":"01062"},{"geonameid":2821000,"name":"Tröndel","admin3":"01057"},{"geonameid":2820805,"name":"Tümlauer Koog","admin3":"01054"},{"geonameid":2820791,"name":"Tungendorf","admin3":"01004"},{"geonameid":2820697,"name":"Tüttendorf","admin3":"01058"},{"geonameid":2820687,"name":"Twedt","admin3":"01059"},{"geonameid":2820203,"name":"Uelvesbüll","admin3":"01054"},{"geonameid":2818067,"name":"Uetersen","admin3":"01056"},{"geonameid":2820214,"name":"Ülsby","admin3":"01059"},{"geonameid":2820210,"name":"Ulsnis","admin3":"01059"},{"geonameid":2818066,"name":"Utersum","admin3":"01054"},{"geonameid":2817976,"name":"Vaale","admin3":"01061"},{"geonameid":2817974,"name":"Vaalermoor","admin3":"01061"},{"geonameid":2817154,"name":"Viöl","admin3":"01054"},{"geonameid":2816576,"name":"Vollerwiek","admin3":"01054"},{"geonameid":2816547,"name":"Vollstedt","admin3":"01054"},{"geonameid":2815812,"name":"Waabs","admin3":"01058"},{"geonameid":2815623,"name":"Wacken","admin3":"01061"},{"geonameid":2815491,"name":"Wagersrott","admin3":"01059"},{"geonameid":2815392,"name":"Wahlstedt","admin3":"01060"},{"geonameid":2815390,"name":"Wahlstorf (Dorf)","admin3":"01057"},{"geonameid":2814707,"name":"Walksfelde","admin3":"01053"},{"geonameid":2814655,"name":"Wallen","admin3":"01051"},{"geonameid":2814526,"name":"Wallsbüll","admin3":"01059"},{"geonameid":2814312,"name":"Wanderup","admin3":"01059"},{"geonameid":2814292,"name":"Wangelau","admin3":"01053"},{"geonameid":2814287,"name":"Wangels","admin3":"01055"},{"geonameid":2814246,"name":"Wankendorf","admin3":"01057"},{"geonameid":2814174,"name":"Wapelfeld","admin3":"01058"},{"geonameid":2814142,"name":"Warder","admin3":"01058"},{"geonameid":2814062,"name":"Warnau","admin3":"01057"},{"geonameid":2814024,"name":"Warringholz","admin3":"01061"},{"geonameid":2813864,"name":"Wasbek","admin3":"01058"},{"geonameid":2813647,"name":"Wattenbek","admin3":"01058"},{"geonameid":2813493,"name":"Weddelbrook","admin3":"01060"},{"geonameid":2813468,"name":"Weddingstedt","admin3":"01051"},{"geonameid":2813464,"name":"Wedel","admin3":"01056"},{"geonameid":2813442,"name":"Weede","admin3":"01060"},{"geonameid":2813427,"name":"Wees","admin3":"01059"},{"geonameid":2813425,"name":"Weesby","admin3":"01059"},{"geonameid":2811439,"name":"Welmbüttel","admin3":"01051"},{"geonameid":2811384,"name":"Welt","admin3":"01054"},{"geonameid":2811173,"name":"Wendtorf","admin3":"01057"},{"geonameid":2811094,"name":"Wennbüttel","admin3":"01051"},{"geonameid":2811047,"name":"Wensin","admin3":"01060"},{"geonameid":2811034,"name":"Wentorf","admin3":"01053"},{"geonameid":2811031,"name":"Wentorf bei Hamburg","admin3":"01053"},{"geonameid":3209092,"name":"Wesenberg","admin3":"01062"},{"geonameid":2810619,"name":"Wesselburen","admin3":"01051"},{"geonameid":2810618,"name":"Wesselburener Deichhausen","admin3":"01051"},{"geonameid":2810617,"name":"Wesselburenerkoog","admin3":"01051"},{"geonameid":2810608,"name":"Wesseln","admin3":"01051"},{"geonameid":2810505,"name":"Westensee","admin3":"01058"},{"geonameid":2810214,"name":"Wester-Ohrstedt","admin3":"01054"},{"geonameid":2810493,"name":"Westerau","admin3":"01062"},{"geonameid":2810428,"name":"Westerborstel","admin3":"01051"},{"geonameid":2810399,"name":"Westerdeichstrich","admin3":"01051"},{"geonameid":2810335,"name":"Westerhever","admin3":"01054"},{"geonameid":2810306,"name":"Westerholz","admin3":"01054"},{"geonameid":2810300,"name":"Westerhorn","admin3":"01056"},{"geonameid":2810284,"name":"Westerland","admin3":"01054"},{"geonameid":2810254,"name":"Westermoor","admin3":"01061"},{"geonameid":2810208,"name":"Westerrade","admin3":"01060"},{"geonameid":2810204,"name":"Westerrönfeld","admin3":"01058"},{"geonameid":2810058,"name":"Westre","admin3":"01054"},{"geonameid":2809861,"name":"Wewelsfleth","admin3":"01061"},{"geonameid":2809608,"name":"Wiedenborstel","admin3":"01061"},{"geonameid":2809468,"name":"Wiemersdorf","admin3":"01060"},{"geonameid":2809463,"name":"Wiemerstedt","admin3":"01051"},{"geonameid":2809395,"name":"Wiershop","admin3":"01053"},{"geonameid":2808596,"name":"Willenscharen","admin3":"01061"},{"geonameid":2808413,"name":"Wilster","admin3":"01061"},{"geonameid":2808275,"name":"Windbergen","admin3":"01051"},{"geonameid":2808263,"name":"Windeby","admin3":"01058"},{"geonameid":2807877,"name":"Winnemark","admin3":"01058"},{"geonameid":2807864,"name":"Winnert","admin3":"01054"},{"geonameid":2807848,"name":"Winseldorf","admin3":"01061"},{"geonameid":2807844,"name":"Winsen","admin3":"01060"},{"geonameid":2807496,"name":"Wisch","admin3":"01057"},{"geonameid":2807395,"name":"Witsum","admin3":"01054"},{"geonameid":2807388,"name":"Wittbek","admin3":"01054"},{"geonameid":2807381,"name":"Wittdün","admin3":"01054"},{"geonameid":2807340,"name":"Wittenbergen","admin3":"01061"},{"geonameid":2807337,"name":"Wittenborn","admin3":"01060"},{"geonameid":2807224,"name":"Wittmoldt","admin3":"01057"},{"geonameid":2807212,"name":"Wittorf","admin3":"01004"},{"geonameid":2807194,"name":"Witzeeze","admin3":"01053"},{"geonameid":2807177,"name":"Witzhave","admin3":"01062"},{"geonameid":2807143,"name":"Witzwort","admin3":"01054"},{"geonameid":2807136,"name":"Wobbenbüll","admin3":"01054"},{"geonameid":2807075,"name":"Wohlde","admin3":"01059"},{"geonameid":2807025,"name":"Wohltorf","admin3":"01053"},{"geonameid":2807001,"name":"Wöhrden","admin3":"01051"},{"geonameid":2806346,"name":"Wolmersdorf","admin3":"01051"},{"geonameid":2806283,"name":"Woltersdorf","admin3":"01053"},{"geonameid":2806083,"name":"Worth","admin3":"01053"},{"geonameid":2805994,"name":"Wrist","admin3":"01061"},{"geonameid":2805992,"name":"Wrixum","admin3":"01054"},{"geonameid":2805988,"name":"Wrohm","admin3":"01051"},{"geonameid":2805877,"name":"Wulfsmoor","admin3":"01061"},{"geonameid":2805396,"name":"Wyk auf Föhr","admin3":"01054"},{"geonameid":2805198,"name":"Zarpen","admin3":"01062"},{"geonameid":2804255,"name":"Ziethen","admin3":"01053"}],"admin1":{"geonameid":2838632,"name":"Schleswig-Holstein","admin1":"10"},"admin2":"no-adm2","admin3":{"geonameid":3249077,"name":"Kreis Steinburg","country":"DE","admin1":"10","admin2":"00","admin3":"01061","latitude":"53.9330600","longitude":"9.5036100"},"admin4":[{"geonameid":2816530,"name":"Volsemenhusen","admin3":"01051"},{"geonameid":2821326,"name":"Trennewurth","admin3":"01051"},{"geonameid":2822264,"name":"Tielenhemme","admin3":"01051"},{"geonameid":2825106,"name":"Südermarsch","admin3":"01054"},{"geonameid":2834642,"name":"Schwedeneck","admin3":"01058"},{"geonameid":2836102,"name":"Schretstaken","admin3":"01053"},{"geonameid":2836550,"name":"Schönhorst","admin3":"01058"},{"geonameid":2837981,"name":"Schmedeswurth","admin3":"01051"},{"geonameid":2848034,"name":"Rethwisch","admin3":"01062"},{"geonameid":2861806,"name":"Nortorf","admin3":"01061"},{"geonameid":2861860,"name":"Nordstrand","admin3":"01054"},{"geonameid":2877203,"name":"Lindewitt","admin3":"01059"},{"geonameid":2880399,"name":"Lasbek","admin3":"01062"},{"geonameid":2898693,"name":"Horst","admin3":"01053"},{"geonameid":2906649,"name":"Helse","admin3":"01051"},{"geonameid":2922572,"name":"Garding","admin3":"01054"},{"geonameid":2930309,"name":"Engelbrechtsche Wildnis","admin3":"01061"},{"geonameid":2939090,"name":"Damp","admin3":"01058"},{"geonameid":2954038,"name":"Aumühle","admin3":"01053"},{"geonameid":3209080,"name":"Feldhorst","admin3":"01062"},{"geonameid":3209091,"name":"Travenbrück","admin3":"01062"},{"geonameid":3213720,"name":"Ammersbek","admin3":"01062"},{"geonameid":3213721,"name":"Brunsbek","admin3":"01062"},{"geonameid":3213722,"name":"Steinburg","admin3":"01062"},{"geonameid":6547412,"name":"Nortorf","admin3":"01058"},{"geonameid":6547413,"name":"Wilster","admin3":"01061"},{"geonameid":6547420,"name":"Tolk","admin3":"01059"},{"geonameid":6547421,"name":"Bark","admin3":"01060"},{"geonameid":6547477,"name":"Wedel","admin3":"01056"},{"geonameid":6551056,"name":"Köthel (Stormarn)","admin3":"01062"},{"geonameid":6551290,"name":"Braak","admin3":"01062"},{"geonameid":6551291,"name":"Siek","admin3":"01062"},{"geonameid":6551294,"name":"Pölitz","admin3":"01062"},{"geonameid":6551295,"name":"Flensburg","admin3":"01001"},{"geonameid":6551296,"name":"Neumünster","admin3":"01004"},{"geonameid":6551297,"name":"Albersdorf","admin3":"01051"},{"geonameid":6551298,"name":"Arkebek","admin3":"01051"},{"geonameid":6551299,"name":"Averlak","admin3":"01051"},{"geonameid":6551300,"name":"Bargenstedt","admin3":"01051"},{"geonameid":6551301,"name":"Barkenholm","admin3":"01051"},{"geonameid":6551302,"name":"Barlt","admin3":"01051"},{"geonameid":6551303,"name":"Bergewöhrden","admin3":"01051"},{"geonameid":6551304,"name":"Brickeln","admin3":"01051"},{"geonameid":6551305,"name":"Buchholz","admin3":"01051"},{"geonameid":6551306,"name":"Büsum","admin3":"01051"},{"geonameid":6551307,"name":"Büsumer Deichhausen","admin3":"01051"},{"geonameid":6551308,"name":"Bunsoh","admin3":"01051"},{"geonameid":6551309,"name":"Burg (Dithmarschen)","admin3":"01051"},{"geonameid":6551310,"name":"Busenwurth","admin3":"01051"},{"geonameid":6551311,"name":"Dellstedt","admin3":"01051"},{"geonameid":6551312,"name":"Delve","admin3":"01051"},{"geonameid":6551313,"name":"Diekhusen-Fahrstedt","admin3":"01051"},{"geonameid":6551314,"name":"Dingen","admin3":"01051"},{"geonameid":6551315,"name":"Dörpling","admin3":"01051"},{"geonameid":6551316,"name":"Eddelak","admin3":"01051"},{"geonameid":6551317,"name":"Eggstedt","admin3":"01051"},{"geonameid":6551318,"name":"Elpersbüttel","admin3":"01051"},{"geonameid":6551319,"name":"Epenwöhrden","admin3":"01051"},{"geonameid":6551320,"name":"Fedderingen","admin3":"01051"},{"geonameid":6551321,"name":"Frestedt","admin3":"01051"},{"geonameid":6551322,"name":"Friedrichsgabekoog","admin3":"01051"},{"geonameid":6551323,"name":"Friedrichskoog","admin3":"01051"},{"geonameid":6551324,"name":"Gaushorn","admin3":"01051"},{"geonameid":6551325,"name":"Glüsing","admin3":"01051"},{"geonameid":6551326,"name":"Großenrade","admin3":"01051"},{"geonameid":6551327,"name":"Groven","admin3":"01051"},{"geonameid":6551328,"name":"Gudendorf","admin3":"01051"},{"geonameid":6551330,"name":"Hedwigenkoog","admin3":"01051"},{"geonameid":6551331,"name":"Hellschen-Heringsand-Unterschaar","admin3":"01051"},{"geonameid":6551332,"name":"Hemme","admin3":"01051"},{"geonameid":6551333,"name":"Hemmingstedt","admin3":"01051"},{"geonameid":6551334,"name":"Hennstedt","admin3":"01051"},{"geonameid":6551335,"name":"Hillgroven","admin3":"01051"},{"geonameid":6551336,"name":"Hochdonn","admin3":"01051"},{"geonameid":6551337,"name":"Hövede","admin3":"01051"},{"geonameid":6551338,"name":"Hollingstedt","admin3":"01051"},{"geonameid":6551339,"name":"Kaiser-Wilhelm-Koog","admin3":"01051"},{"geonameid":6551340,"name":"Karolinenkoog","admin3":"01051"},{"geonameid":6551341,"name":"Kleve","admin3":"01051"},{"geonameid":6551342,"name":"Krempel","admin3":"01051"},{"geonameid":6551343,"name":"Kronprinzenkoog","admin3":"01051"},{"geonameid":6551344,"name":"Krumstedt","admin3":"01051"},{"geonameid":6551345,"name":"Kuden","admin3":"01051"},{"geonameid":6551346,"name":"Lehe","admin3":"01051"},{"geonameid":6551347,"name":"Lieth","admin3":"01051"},{"geonameid":6551348,"name":"Linden","admin3":"01051"},{"geonameid":6551349,"name":"Lohe-Rickelshof","admin3":"01051"},{"geonameid":6551350,"name":"Lunden","admin3":"01051"},{"geonameid":6551351,"name":"Marnerdeich","admin3":"01051"},{"geonameid":6551352,"name":"Neuenkirchen","admin3":"01051"},{"geonameid":6551353,"name":"Neufeld","admin3":"01051"},{"geonameid":6551354,"name":"Neufelderkoog","admin3":"01051"},{"geonameid":6551355,"name":"Nindorf","admin3":"01051"},{"geonameid":6551356,"name":"Norddeich","admin3":"01051"},{"geonameid":6551357,"name":"Norderheistedt","admin3":"01051"},{"geonameid":6551358,"name":"Norderwöhrden","admin3":"01051"},{"geonameid":6551359,"name":"Nordhastedt","admin3":"01051"},{"geonameid":6551360,"name":"Odderade","admin3":"01051"},{"geonameid":6551361,"name":"Oesterdeichstrich","admin3":"01051"},{"geonameid":6551362,"name":"Offenbüttel","admin3":"01051"},{"geonameid":6551363,"name":"Osterrade","admin3":"01051"},{"geonameid":6551364,"name":"Ostrohe","admin3":"01051"},{"geonameid":6551365,"name":"Pahlen","admin3":"01051"},{"geonameid":6551366,"name":"Quickborn","admin3":"01051"},{"geonameid":6551367,"name":"Ramhusen","admin3":"01051"},{"geonameid":6551368,"name":"Rehm-Flehde-Bargen","admin3":"01051"},{"geonameid":6551369,"name":"Reinsbüttel","admin3":"01051"},{"geonameid":6551370,"name":"Sankt Annen","admin3":"01051"},{"geonameid":6551371,"name":"Sankt Michaelisdonn","admin3":"01051"},{"geonameid":6551372,"name":"Sarzbüttel","admin3":"01051"},{"geonameid":6551373,"name":"Schafstedt","admin3":"01051"},{"geonameid":6551374,"name":"Schalkholz","admin3":"01051"},{"geonameid":6551375,"name":"Schlichting","admin3":"01051"},{"geonameid":6551376,"name":"Schrum","admin3":"01051"},{"geonameid":6551377,"name":"Schülp","admin3":"01051"},{"geonameid":6551378,"name":"Stelle-Wittenwurth","admin3":"01051"},{"geonameid":6551379,"name":"Strübbel","admin3":"01051"},{"geonameid":6551380,"name":"Süderdeich","admin3":"01051"},{"geonameid":6551381,"name":"Süderhastedt","admin3":"01051"},{"geonameid":6551382,"name":"Süderheistedt","admin3":"01051"},{"geonameid":6551383,"name":"Wöhrden","admin3":"01051"},{"geonameid":6551384,"name":"Tellingstedt","admin3":"01051"},{"geonameid":6551385,"name":"Wallen","admin3":"01051"},{"geonameid":6551386,"name":"Warwerort","admin3":"01051"},{"geonameid":6551387,"name":"Weddingstedt","admin3":"01051"},{"geonameid":6551388,"name":"Welmbüttel","admin3":"01051"},{"geonameid":6551389,"name":"Wennbüttel","admin3":"01051"},{"geonameid":6551390,"name":"Wesselburener Deichhausen","admin3":"01051"},{"geonameid":6551391,"name":"Wesselburenerkoog","admin3":"01051"},{"geonameid":6551392,"name":"Wesseln","admin3":"01051"},{"geonameid":6551393,"name":"Westerborstel","admin3":"01051"},{"geonameid":6551394,"name":"Westerdeichstrich","admin3":"01051"},{"geonameid":6551395,"name":"Wiemerstedt","admin3":"01051"},{"geonameid":6551396,"name":"Windbergen","admin3":"01051"},{"geonameid":6551397,"name":"Wolmersdorf","admin3":"01051"},{"geonameid":6551398,"name":"Wrohm","admin3":"01051"},{"geonameid":6551399,"name":"Nordermeldorf","admin3":"01051"},{"geonameid":6551400,"name":"Tensbüttel-Röst","admin3":"01051"},{"geonameid":6551401,"name":"Süderdorf","admin3":"01051"},{"geonameid":6551402,"name":"Oesterwurth","admin3":"01051"},{"geonameid":6551403,"name":"Albsfelde","admin3":"01053"},{"geonameid":6551404,"name":"Alt Mölln","admin3":"01053"},{"geonameid":6551405,"name":"Bäk","admin3":"01053"},{"geonameid":6551406,"name":"Bälau","admin3":"01053"},{"geonameid":6551407,"name":"Basedow","admin3":"01053"},{"geonameid":6551408,"name":"Basthorst","admin3":"01053"},{"geonameid":6551409,"name":"Behlendorf","admin3":"01053"},{"geonameid":6551410,"name":"Berkenthin","admin3":"01053"},{"geonameid":6551411,"name":"Besenthal","admin3":"01053"},{"geonameid":6551412,"name":"Bliestorf","admin3":"01053"},{"geonameid":6551413,"name":"Börnsen","admin3":"01053"},{"geonameid":6551414,"name":"Borstorf","admin3":"01053"},{"geonameid":6551415,"name":"Breitenfelde","admin3":"01053"},{"geonameid":6551416,"name":"Bröthen","admin3":"01053"},{"geonameid":6551417,"name":"Brunsmark","admin3":"01053"},{"geonameid":6551418,"name":"Brunstorf","admin3":"01053"},{"geonameid":6551419,"name":"Buchholz","admin3":"01053"},{"geonameid":6551420,"name":"Buchhorst","admin3":"01053"},{"geonameid":6551421,"name":"Büchen","admin3":"01053"},{"geonameid":6551422,"name":"Dahmker","admin3":"01053"},{"geonameid":6551423,"name":"Dalldorf","admin3":"01053"},{"geonameid":6551424,"name":"Dassendorf","admin3":"01053"},{"geonameid":6551425,"name":"Düchelsdorf","admin3":"01053"},{"geonameid":6551426,"name":"Duvensee","admin3":"01053"},{"geonameid":6551427,"name":"Einhaus","admin3":"01053"},{"geonameid":6551428,"name":"Elmenhorst","admin3":"01053"},{"geonameid":6551429,"name":"Escheburg","admin3":"01053"},{"geonameid":6551430,"name":"Fitzen","admin3":"01053"},{"geonameid":6551431,"name":"Fredeburg","admin3":"01053"},{"geonameid":6551432,"name":"Fuhlenhagen","admin3":"01053"},{"geonameid":6551433,"name":"Giesensdorf","admin3":"01053"},{"geonameid":6551434,"name":"Göldenitz","admin3":"01053"},{"geonameid":6551435,"name":"Göttin","admin3":"01053"},{"geonameid":6551436,"name":"Grabau","admin3":"01053"},{"geonameid":6551437,"name":"Grambek","admin3":"01053"},{"geonameid":6551438,"name":"Grinau","admin3":"01053"},{"geonameid":6551439,"name":"Groß Boden","admin3":"01053"},{"geonameid":6551440,"name":"Groß Disnack","admin3":"01053"},{"geonameid":6551441,"name":"Groß Grönau","admin3":"01053"},{"geonameid":6551442,"name":"Groß Pampau","admin3":"01053"},{"geonameid":6551443,"name":"Groß Sarau","admin3":"01053"},{"geonameid":6551444,"name":"Groß Schenkenberg","admin3":"01053"},{"geonameid":6551445,"name":"Grove","admin3":"01053"},{"geonameid":6551446,"name":"Gudow","admin3":"01053"},{"geonameid":6551447,"name":"Gülzow","admin3":"01053"},{"geonameid":6551448,"name":"Güster","admin3":"01053"},{"geonameid":6551449,"name":"Hamwarde","admin3":"01053"},{"geonameid":6551450,"name":"Harmsdorf","admin3":"01053"},{"geonameid":6551451,"name":"Havekost","admin3":"01053"},{"geonameid":6551452,"name":"Hohenhorn","admin3":"01053"},{"geonameid":6551453,"name":"Hollenbek","admin3":"01053"},{"geonameid":6551454,"name":"Hornbek","admin3":"01053"},{"geonameid":6551455,"name":"Juliusburg","admin3":"01053"},{"geonameid":6551456,"name":"Kankelau","admin3":"01053"},{"geonameid":6551457,"name":"Kasseburg","admin3":"01053"},{"geonameid":6551458,"name":"Kastorf","admin3":"01053"},{"geonameid":6551459,"name":"Kittlitz","admin3":"01053"},{"geonameid":6551460,"name":"Klein Pampau","admin3":"01053"},{"geonameid":6551461,"name":"Klein Zecher","admin3":"01053"},{"geonameid":6551462,"name":"Klempau","admin3":"01053"},{"geonameid":6551463,"name":"Klinkrade","admin3":"01053"},{"geonameid":6551464,"name":"Koberg","admin3":"01053"},{"geonameid":6551465,"name":"Kollow","admin3":"01053"},{"geonameid":6551466,"name":"Kröppelshagen-Fahrendorf","admin3":"01053"},{"geonameid":6551467,"name":"Krüzen","admin3":"01053"},{"geonameid":6551468,"name":"Krukow","admin3":"01053"},{"geonameid":6551469,"name":"Krummesse","admin3":"01053"},{"geonameid":6551470,"name":"Kuddewörde","admin3":"01053"},{"geonameid":6551471,"name":"Kühsen","admin3":"01053"},{"geonameid":6551472,"name":"Kulpin","admin3":"01053"},{"geonameid":6551473,"name":"Labenz","admin3":"01053"},{"geonameid":6551474,"name":"Langenlehsten","admin3":"01053"},{"geonameid":6551475,"name":"Lankau","admin3":"01053"},{"geonameid":6551476,"name":"Lanze","admin3":"01053"},{"geonameid":6551477,"name":"Lehmrade","admin3":"01053"},{"geonameid":6551478,"name":"Linau","admin3":"01053"},{"geonameid":6551479,"name":"Lüchow","admin3":"01053"},{"geonameid":6551480,"name":"Lütau","admin3":"01053"},{"geonameid":6551481,"name":"Mechow","admin3":"01053"},{"geonameid":6551482,"name":"Möhnsen","admin3":"01053"},{"geonameid":6551483,"name":"Mühlenrade","admin3":"01053"},{"geonameid":6551484,"name":"Müssen","admin3":"01053"},{"geonameid":6551485,"name":"Mustin","admin3":"01053"},{"geonameid":6551486,"name":"Niendorf/Stecknitz","admin3":"01053"},{"geonameid":6551487,"name":"Nusse","admin3":"01053"},{"geonameid":6551488,"name":"Panten","admin3":"01053"},{"geonameid":6551489,"name":"Ritzerau","admin3":"01053"},{"geonameid":6551490,"name":"Römnitz","admin3":"01053"},{"geonameid":6551491,"name":"Rondeshagen","admin3":"01053"},{"geonameid":6551492,"name":"Roseburg","admin3":"01053"},{"geonameid":6551493,"name":"Sahms","admin3":"01053"},{"geonameid":6551494,"name":"Salem","admin3":"01053"},{"geonameid":6551495,"name":"Sandesneben","admin3":"01053"},{"geonameid":6551496,"name":"Schiphorst","admin3":"01053"},{"geonameid":6551497,"name":"Schmilau","admin3":"01053"},{"geonameid":6551498,"name":"Schnakenbek","admin3":"01053"},{"geonameid":6551499,"name":"Schönberg","admin3":"01053"},{"geonameid":6551500,"name":"Schürensöhlen","admin3":"01053"},{"geonameid":6551501,"name":"Schulendorf","admin3":"01053"},{"geonameid":6551502,"name":"Seedorf","admin3":"01053"},{"geonameid":6551503,"name":"Siebenbäumen","admin3":"01053"},{"geonameid":6551504,"name":"Siebeneichen","admin3":"01053"},{"geonameid":6551505,"name":"Sierksrade","admin3":"01053"},{"geonameid":6551506,"name":"Sirksfelde","admin3":"01053"},{"geonameid":6551507,"name":"Steinhorst","admin3":"01053"},{"geonameid":6551508,"name":"Sterley","admin3":"01053"},{"geonameid":6551509,"name":"Stubben","admin3":"01053"},{"geonameid":6551510,"name":"Talkau","admin3":"01053"},{"geonameid":6551511,"name":"Tramm","admin3":"01053"},{"geonameid":6551512,"name":"Walksfelde","admin3":"01053"},{"geonameid":6551513,"name":"Wangelau","admin3":"01053"},{"geonameid":6551514,"name":"Wentorf bei Hamburg","admin3":"01053"},{"geonameid":6551515,"name":"Wiershop","admin3":"01053"},{"geonameid":6551516,"name":"Witzeeze","admin3":"01053"},{"geonameid":6551517,"name":"Wohltorf","admin3":"01053"},{"geonameid":6551518,"name":"Woltersdorf","admin3":"01053"},{"geonameid":6551519,"name":"Worth","admin3":"01053"},{"geonameid":6551520,"name":"Ziethen","admin3":"01053"},{"geonameid":6551521,"name":"Achtrup","admin3":"01054"},{"geonameid":6551522,"name":"Ahrenshöft","admin3":"01054"},{"geonameid":6551523,"name":"Ahrenviöl","admin3":"01054"},{"geonameid":6551524,"name":"Ahrenviölfeld","admin3":"01054"},{"geonameid":6551525,"name":"Alkersum","admin3":"01054"},{"geonameid":6551526,"name":"Almdorf","admin3":"01054"},{"geonameid":6551527,"name":"Arlewatt","admin3":"01054"},{"geonameid":6551528,"name":"Aventoft","admin3":"01054"},{"geonameid":6551529,"name":"Bargum","admin3":"01054"},{"geonameid":6551530,"name":"Behrendorf","admin3":"01054"},{"geonameid":6551531,"name":"Bohmstedt","admin3":"01054"},{"geonameid":6551532,"name":"Bondelum","admin3":"01054"},{"geonameid":6551533,"name":"Bordelum","admin3":"01054"},{"geonameid":6551534,"name":"Borgsum","admin3":"01054"},{"geonameid":6551535,"name":"Bosbüll","admin3":"01054"},{"geonameid":6551536,"name":"Braderup","admin3":"01054"},{"geonameid":6551537,"name":"Bramstedtlund","admin3":"01054"},{"geonameid":6551538,"name":"Breklum","admin3":"01054"},{"geonameid":6551539,"name":"Dagebüll","admin3":"01054"},{"geonameid":6551540,"name":"Drage","admin3":"01054"},{"geonameid":6551541,"name":"Drelsdorf","admin3":"01054"},{"geonameid":6551542,"name":"Dunsum","admin3":"01054"},{"geonameid":6551543,"name":"Elisabeth-Sophien-Koog","admin3":"01054"},{"geonameid":6551544,"name":"Ellhöft","admin3":"01054"},{"geonameid":6551545,"name":"Fresendelf","admin3":"01054"},{"geonameid":6551546,"name":"Friedrich-Wilhelm-Lübke-Koog","admin3":"01054"},{"geonameid":6551547,"name":"Goldebek","admin3":"01054"},{"geonameid":6551548,"name":"Goldelund","admin3":"01054"},{"geonameid":6551549,"name":"Gröde","admin3":"01054"},{"geonameid":6551550,"name":"Grothusenkoog","admin3":"01054"},{"geonameid":6551551,"name":"Haselund","admin3":"01054"},{"geonameid":6551552,"name":"Hattstedt","admin3":"01054"},{"geonameid":6551553,"name":"Hattstedtermarsch","admin3":"01054"},{"geonameid":6551554,"name":"Högel","admin3":"01054"},{"geonameid":6551555,"name":"Holm","admin3":"01054"},{"geonameid":6551556,"name":"Hooge","admin3":"01054"},{"geonameid":6551557,"name":"Horstedt","admin3":"01054"},{"geonameid":6551558,"name":"Hude","admin3":"01054"},{"geonameid":6551559,"name":"Humptrup","admin3":"01054"},{"geonameid":6551560,"name":"Joldelund","admin3":"01054"},{"geonameid":6551561,"name":"Karlum","admin3":"01054"},{"geonameid":6551562,"name":"Katharinenheerd","admin3":"01054"},{"geonameid":6551563,"name":"Klanxbüll","admin3":"01054"},{"geonameid":6551564,"name":"Klixbüll","admin3":"01054"},{"geonameid":6551565,"name":"Koldenbüttel","admin3":"01054"},{"geonameid":6551566,"name":"Kolkerheide","admin3":"01054"},{"geonameid":6551567,"name":"Kotzenbüll","admin3":"01054"},{"geonameid":6551568,"name":"Ladelund","admin3":"01054"},{"geonameid":6551569,"name":"Langeneß","admin3":"01054"},{"geonameid":6551570,"name":"Langenhorn","admin3":"01054"},{"geonameid":6551571,"name":"Leck","admin3":"01054"},{"geonameid":6551572,"name":"Lexgaard","admin3":"01054"},{"geonameid":6551573,"name":"List","admin3":"01054"},{"geonameid":6551574,"name":"Löwenstedt","admin3":"01054"},{"geonameid":6551575,"name":"Lütjenholm","admin3":"01054"},{"geonameid":6551576,"name":"Midlum","admin3":"01054"},{"geonameid":6551577,"name":"Mildstedt","admin3":"01054"},{"geonameid":6551578,"name":"Nebel","admin3":"01054"},{"geonameid":6551579,"name":"Neukirchen","admin3":"01054"},{"geonameid":6551580,"name":"Nieblum","admin3":"01054"},{"geonameid":6551581,"name":"Norddorf auf Amrum","admin3":"01054"},{"geonameid":6551582,"name":"Norderfriedrichskoog","admin3":"01054"},{"geonameid":6551583,"name":"Norstedt","admin3":"01054"},{"geonameid":6551584,"name":"Ockholm","admin3":"01054"},{"geonameid":6551585,"name":"Oevenum","admin3":"01054"},{"geonameid":6551586,"name":"Oldenswort","admin3":"01054"},{"geonameid":6551587,"name":"Oldersbek","admin3":"01054"},{"geonameid":6551588,"name":"Olderup","admin3":"01054"},{"geonameid":6551589,"name":"Oldsum","admin3":"01054"},{"geonameid":6551590,"name":"Osterhever","admin3":"01054"},{"geonameid":6551591,"name":"Oster-Ohrstedt","admin3":"01054"},{"geonameid":6551592,"name":"Pellworm","admin3":"01054"},{"geonameid":6551593,"name":"Poppenbüll","admin3":"01054"},{"geonameid":6551594,"name":"Ramstedt","admin3":"01054"},{"geonameid":6551595,"name":"Rantrum","admin3":"01054"},{"geonameid":6551596,"name":"Reußenköge","admin3":"01054"},{"geonameid":6551597,"name":"Risum-Lindholm","admin3":"01054"},{"geonameid":6551598,"name":"Rodenäs","admin3":"01054"},{"geonameid":6551599,"name":"Sankt Peter-Ording","admin3":"01054"},{"geonameid":6551601,"name":"Schwabstedt","admin3":"01054"},{"geonameid":6551602,"name":"Schwesing","admin3":"01054"},{"geonameid":6551603,"name":"Seeth","admin3":"01054"},{"geonameid":6551604,"name":"Simonsberg","admin3":"01054"},{"geonameid":6551605,"name":"Sönnebüll","admin3":"01054"},{"geonameid":6551606,"name":"Sollwitt","admin3":"01054"},{"geonameid":6551607,"name":"Sprakebüll","admin3":"01054"},{"geonameid":6551608,"name":"Stadum","admin3":"01054"},{"geonameid":6551609,"name":"Stedesand","admin3":"01054"},{"geonameid":6551610,"name":"Struckum","admin3":"01054"},{"geonameid":6551611,"name":"Süderende","admin3":"01054"},{"geonameid":6551612,"name":"Süderhöft","admin3":"01054"},{"geonameid":6551613,"name":"Süderlügum","admin3":"01054"},{"geonameid":6551615,"name":"Tating","admin3":"01054"},{"geonameid":6551616,"name":"Tetenbüll","admin3":"01054"},{"geonameid":6551617,"name":"Tinningstedt","admin3":"01054"},{"geonameid":6551618,"name":"Tümlauer Koog","admin3":"01054"},{"geonameid":6551619,"name":"Uelvesbüll","admin3":"01054"},{"geonameid":6551620,"name":"Uphusum","admin3":"01054"},{"geonameid":6551621,"name":"Utersum","admin3":"01054"},{"geonameid":6551622,"name":"Viöl","admin3":"01054"},{"geonameid":6551623,"name":"Vollerwiek","admin3":"01054"},{"geonameid":6551624,"name":"Vollstedt","admin3":"01054"},{"geonameid":6551625,"name":"Welt","admin3":"01054"},{"geonameid":6551626,"name":"Westerhever","admin3":"01054"},{"geonameid":6551627,"name":"Wester-Ohrstedt","admin3":"01054"},{"geonameid":6551628,"name":"Westre","admin3":"01054"},{"geonameid":6551629,"name":"Winnert","admin3":"01054"},{"geonameid":6551630,"name":"Wisch","admin3":"01054"},{"geonameid":6551631,"name":"Witsum","admin3":"01054"},{"geonameid":6551632,"name":"Wittbek","admin3":"01054"},{"geonameid":6551633,"name":"Wittdün auf Amrum","admin3":"01054"},{"geonameid":6551634,"name":"Witzwort","admin3":"01054"},{"geonameid":6551635,"name":"Wobbenbüll","admin3":"01054"},{"geonameid":6551636,"name":"Wrixum","admin3":"01054"},{"geonameid":6551637,"name":"Galmsbüll","admin3":"01054"},{"geonameid":6551638,"name":"Emmelsbüll-Horsbüll","admin3":"01054"},{"geonameid":6551639,"name":"Enge-Sande","admin3":"01054"},{"geonameid":6551640,"name":"Ahrensbök","admin3":"01055"},{"geonameid":6551641,"name":"Altenkrempe","admin3":"01055"},{"geonameid":6551642,"name":"Beschendorf","admin3":"01055"},{"geonameid":6551643,"name":"Bosau","admin3":"01055"},{"geonameid":6551644,"name":"Dahme","admin3":"01055"},{"geonameid":6551645,"name":"Damlos","admin3":"01055"},{"geonameid":6551646,"name":"Göhl","admin3":"01055"},{"geonameid":6551647,"name":"Gremersdorf","admin3":"01055"},{"geonameid":6551648,"name":"Grömitz","admin3":"01055"},{"geonameid":6551649,"name":"Großenbrode","admin3":"01055"},{"geonameid":6551650,"name":"Grube","admin3":"01055"},{"geonameid":6551651,"name":"Harmsdorf","admin3":"01055"},{"geonameid":6551652,"name":"Heringsdorf","admin3":"01055"},{"geonameid":6551653,"name":"Kabelhorst","admin3":"01055"},{"geonameid":6551654,"name":"Kasseedorf","admin3":"01055"},{"geonameid":6551655,"name":"Lensahn","admin3":"01055"},{"geonameid":6551656,"name":"Malente","admin3":"01055"},{"geonameid":6551657,"name":"Manhagen","admin3":"01055"},{"geonameid":6551658,"name":"Neukirchen","admin3":"01055"},{"geonameid":6551659,"name":"Ratekau","admin3":"01055"},{"geonameid":6551660,"name":"Riepsdorf","admin3":"01055"},{"geonameid":6551661,"name":"Schashagen","admin3":"01055"},{"geonameid":6551662,"name":"Schönwalde am Bungsberg","admin3":"01055"},{"geonameid":6551663,"name":"Sierksdorf","admin3":"01055"},{"geonameid":6551664,"name":"Stockelsdorf","admin3":"01055"},{"geonameid":6551665,"name":"Süsel","admin3":"01055"},{"geonameid":6551666,"name":"Timmendorfer Strand","admin3":"01055"},{"geonameid":6551667,"name":"Wangels","admin3":"01055"},{"geonameid":6551668,"name":"Scharbeutz","admin3":"01055"},{"geonameid":6551669,"name":"Appen","admin3":"01056"},{"geonameid":6551670,"name":"Bevern","admin3":"01056"},{"geonameid":6551671,"name":"Bilsen","admin3":"01056"},{"geonameid":6551672,"name":"Bönningstedt","admin3":"01056"},{"geonameid":6551673,"name":"Bokel","admin3":"01056"},{"geonameid":6551674,"name":"Bokholt-Hanredder","admin3":"01056"},{"geonameid":6551675,"name":"Borstel-Hohenraden","admin3":"01056"},{"geonameid":6551676,"name":"Brande-Hörnerkirchen","admin3":"01056"},{"geonameid":6551677,"name":"Bullenkuhlen","admin3":"01056"},{"geonameid":6551678,"name":"Ellerbek","admin3":"01056"},{"geonameid":6551679,"name":"Ellerhoop","admin3":"01056"},{"geonameid":6551680,"name":"Groß Nordende","admin3":"01056"},{"geonameid":6551681,"name":"Groß Offenseth-Aspern","admin3":"01056"},{"geonameid":6551682,"name":"Halstenbek","admin3":"01056"},{"geonameid":6551683,"name":"Haselau","admin3":"01056"},{"geonameid":6551684,"name":"Haseldorf","admin3":"01056"},{"geonameid":6551685,"name":"Hasloh","admin3":"01056"},{"geonameid":6551686,"name":"Heede","admin3":"01056"},{"geonameid":6551687,"name":"Heidgraben","admin3":"01056"},{"geonameid":6551688,"name":"Heist","admin3":"01056"},{"geonameid":6551689,"name":"Helgoland","admin3":"01056"},{"geonameid":6551690,"name":"Hemdingen","admin3":"01056"},{"geonameid":6551691,"name":"Hetlingen","admin3":"01056"},{"geonameid":6551692,"name":"Holm","admin3":"01056"},{"geonameid":6551693,"name":"Klein Nordende","admin3":"01056"},{"geonameid":6551694,"name":"Klein Offenseth-Sparrieshoop","admin3":"01056"},{"geonameid":6551695,"name":"Kölln-Reisiek","admin3":"01056"},{"geonameid":6551696,"name":"Kummerfeld","admin3":"01056"},{"geonameid":6551697,"name":"Seester","admin3":"01056"},{"geonameid":6551698,"name":"Langeln","admin3":"01056"},{"geonameid":6551699,"name":"Lutzhorn","admin3":"01056"},{"geonameid":6551700,"name":"Moorrege","admin3":"01056"},{"geonameid":6551701,"name":"Neuendeich","admin3":"01056"},{"geonameid":6551702,"name":"Osterhorn","admin3":"01056"},{"geonameid":6551703,"name":"Prisdorf","admin3":"01056"},{"geonameid":6551704,"name":"Raa-Besenbek","admin3":"01056"},{"geonameid":6551705,"name":"Rellingen","admin3":"01056"},{"geonameid":6551706,"name":"Seestermühe","admin3":"01056"},{"geonameid":6551707,"name":"Seeth-Ekholt","admin3":"01056"},{"geonameid":6551708,"name":"Tangstedt","admin3":"01056"},{"geonameid":6551709,"name":"Tornesch","admin3":"01056"},{"geonameid":6551710,"name":"Westerhorn","admin3":"01056"},{"geonameid":6551711,"name":"Barmissen","admin3":"01057"},{"geonameid":6551712,"name":"Barsbek","admin3":"01057"},{"geonameid":6551713,"name":"Belau","admin3":"01057"},{"geonameid":6551714,"name":"Bendfeld","admin3":"01057"},{"geonameid":6551715,"name":"Blekendorf","admin3":"01057"},{"geonameid":6551716,"name":"Bönebüttel","admin3":"01057"},{"geonameid":6551717,"name":"Bösdorf","admin3":"01057"},{"geonameid":6551718,"name":"Boksee","admin3":"01057"},{"geonameid":6551719,"name":"Bothkamp","admin3":"01057"},{"geonameid":6551720,"name":"Brodersdorf","admin3":"01057"},{"geonameid":6551721,"name":"Dannau","admin3":"01057"},{"geonameid":6551722,"name":"Dersau","admin3":"01057"},{"geonameid":6551723,"name":"Dobersdorf","admin3":"01057"},{"geonameid":6551724,"name":"Dörnick","admin3":"01057"},{"geonameid":6551725,"name":"Fahren","admin3":"01057"},{"geonameid":6551726,"name":"Fiefbergen","admin3":"01057"},{"geonameid":6551727,"name":"Giekau","admin3":"01057"},{"geonameid":6551728,"name":"Grebin","admin3":"01057"},{"geonameid":6551729,"name":"Großbarkau","admin3":"01057"},{"geonameid":6551730,"name":"Großharrie","admin3":"01057"},{"geonameid":6551731,"name":"Heikendorf","admin3":"01057"},{"geonameid":6551732,"name":"Helmstorf","admin3":"01057"},{"geonameid":6551733,"name":"Högsdorf","admin3":"01057"},{"geonameid":6551734,"name":"Höhndorf","admin3":"01057"},{"geonameid":6551735,"name":"Hohenfelde","admin3":"01057"},{"geonameid":6551736,"name":"Honigsee","admin3":"01057"},{"geonameid":6551737,"name":"Kalübbe","admin3":"01057"},{"geonameid":6551738,"name":"Kirchbarkau","admin3":"01057"},{"geonameid":6551739,"name":"Kirchnüchel","admin3":"01057"},{"geonameid":6551740,"name":"Klamp","admin3":"01057"},{"geonameid":6551742,"name":"Klein Barkau","admin3":"01057"},{"geonameid":6551743,"name":"Kletkamp","admin3":"01057"},{"geonameid":6551744,"name":"Köhn","admin3":"01057"},{"geonameid":6551745,"name":"Krokau","admin3":"01057"},{"geonameid":6551746,"name":"Krummbek","admin3":"01057"},{"geonameid":6551747,"name":"Kühren","admin3":"01057"},{"geonameid":6551748,"name":"Laboe","admin3":"01057"},{"geonameid":6551749,"name":"Lammershagen","admin3":"01057"},{"geonameid":6551750,"name":"Lebrade","admin3":"01057"},{"geonameid":6551751,"name":"Lehmkuhlen","admin3":"01057"},{"geonameid":6551752,"name":"Löptin","admin3":"01057"},{"geonameid":6551753,"name":"Lutterbek","admin3":"01057"},{"geonameid":6551754,"name":"Martensrade","admin3":"01057"},{"geonameid":6551755,"name":"Mönkeberg","admin3":"01057"},{"geonameid":6551756,"name":"Mucheln","admin3":"01057"},{"geonameid":6551757,"name":"Nehmten","admin3":"01057"},{"geonameid":6551758,"name":"Nettelsee","admin3":"01057"},{"geonameid":6551759,"name":"Panker","admin3":"01057"},{"geonameid":6551760,"name":"Passade","admin3":"01057"},{"geonameid":6551761,"name":"Pohnsdorf","admin3":"01057"},{"geonameid":6551762,"name":"Postfeld","admin3":"01057"},{"geonameid":6551763,"name":"Prasdorf","admin3":"01057"},{"geonameid":6551764,"name":"Probsteierhagen","admin3":"01057"},{"geonameid":6551766,"name":"Rastorf","admin3":"01057"},{"geonameid":6551767,"name":"Rathjensdorf","admin3":"01057"},{"geonameid":6551768,"name":"Rendswühren","admin3":"01057"},{"geonameid":6551769,"name":"Ruhwinkel","admin3":"01057"},{"geonameid":6551770,"name":"Schellhorn","admin3":"01057"},{"geonameid":6551771,"name":"Schillsdorf","admin3":"01057"},{"geonameid":6551772,"name":"Schlesen","admin3":"01057"},{"geonameid":6551773,"name":"Schönberg (Holstein)","admin3":"01057"},{"geonameid":6551774,"name":"Schönkirchen","admin3":"01057"},{"geonameid":6551775,"name":"Schwartbuck","admin3":"01057"},{"geonameid":6551776,"name":"Selent","admin3":"01057"},{"geonameid":6551777,"name":"Stakendorf","admin3":"01057"},{"geonameid":6551778,"name":"Stein","admin3":"01057"},{"geonameid":6551779,"name":"Stolpe","admin3":"01057"},{"geonameid":6551780,"name":"Stoltenberg","admin3":"01057"},{"geonameid":6551781,"name":"Tröndel","admin3":"01057"},{"geonameid":6551782,"name":"Tasdorf","admin3":"01057"},{"geonameid":6551783,"name":"Wahlstorf (Dorf)","admin3":"01057"},{"geonameid":6551784,"name":"Wankendorf","admin3":"01057"},{"geonameid":6551785,"name":"Warnau","admin3":"01057"},{"geonameid":6551786,"name":"Wendtorf","admin3":"01057"},{"geonameid":6551787,"name":"Wisch","admin3":"01057"},{"geonameid":6551788,"name":"Wittmoldt","admin3":"01057"},{"geonameid":6551789,"name":"Fargau-Pratjau","admin3":"01057"},{"geonameid":6551790,"name":"Achterwehr","admin3":"01058"},{"geonameid":6551791,"name":"Ahlefeld-Bistensee","admin3":"01058"},{"geonameid":6551792,"name":"Alt Duvenstedt","admin3":"01058"},{"geonameid":6551793,"name":"Altenhof","admin3":"01058"},{"geonameid":6551794,"name":"Altenholz","admin3":"01058"},{"geonameid":6551795,"name":"Arpsdorf","admin3":"01058"},{"geonameid":6551796,"name":"Ascheffel","admin3":"01058"},{"geonameid":6551797,"name":"Aukrug","admin3":"01058"},{"geonameid":6551798,"name":"Bargstall","admin3":"01058"},{"geonameid":6551799,"name":"Bargstedt","admin3":"01058"},{"geonameid":6551800,"name":"Barkelsby","admin3":"01058"},{"geonameid":6551801,"name":"Beldorf","admin3":"01058"},{"geonameid":6551802,"name":"Bendorf","admin3":"01058"},{"geonameid":6551803,"name":"Beringstedt","admin3":"01058"},{"geonameid":6551804,"name":"Bissee","admin3":"01058"},{"geonameid":6551806,"name":"Blumenthal","admin3":"01058"},{"geonameid":6551807,"name":"Böhnhusen","admin3":"01058"},{"geonameid":6551808,"name":"Bokel","admin3":"01058"},{"geonameid":6551809,"name":"Bordesholm","admin3":"01058"},{"geonameid":6551810,"name":"Borgdorf-Seedorf","admin3":"01058"},{"geonameid":6551811,"name":"Borgstedt","admin3":"01058"},{"geonameid":6551812,"name":"Bovenau","admin3":"01058"},{"geonameid":6551813,"name":"Brammer","admin3":"01058"},{"geonameid":6551814,"name":"Bredenbek","admin3":"01058"},{"geonameid":6551815,"name":"Breiholz","admin3":"01058"},{"geonameid":6551816,"name":"Brekendorf","admin3":"01058"},{"geonameid":6551817,"name":"Brinjahe","admin3":"01058"},{"geonameid":6551818,"name":"Brodersby","admin3":"01058"},{"geonameid":6551819,"name":"Brügge","admin3":"01058"},{"geonameid":6551820,"name":"Bünsdorf","admin3":"01058"},{"geonameid":6551821,"name":"Christiansholm","admin3":"01058"},{"geonameid":6551822,"name":"Dänischenhagen","admin3":"01058"},{"geonameid":6551823,"name":"Dätgen","admin3":"01058"},{"geonameid":6551824,"name":"Damendorf","admin3":"01058"},{"geonameid":6551825,"name":"Dörphof","admin3":"01058"},{"geonameid":6551826,"name":"Ehndorf","admin3":"01058"},{"geonameid":6551827,"name":"Eisendorf","admin3":"01058"},{"geonameid":6551828,"name":"Ellerdorf","admin3":"01058"},{"geonameid":6551829,"name":"Elsdorf-Westermühlen","admin3":"01058"},{"geonameid":6551830,"name":"Embühren","admin3":"01058"},{"geonameid":6551831,"name":"Emkendorf","admin3":"01058"},{"geonameid":6551832,"name":"Felde","admin3":"01058"},{"geonameid":6551833,"name":"Felm","admin3":"01058"},{"geonameid":6551834,"name":"Fleckeby","admin3":"01058"},{"geonameid":6551835,"name":"Flintbek","admin3":"01058"},{"geonameid":6551836,"name":"Fockbek","admin3":"01058"},{"geonameid":6551837,"name":"Friedrichsgraben","admin3":"01058"},{"geonameid":6551838,"name":"Friedrichsholm","admin3":"01058"},{"geonameid":6551839,"name":"Gammelby","admin3":"01058"},{"geonameid":6551840,"name":"Gettorf","admin3":"01058"},{"geonameid":6551841,"name":"Gnutz","admin3":"01058"},{"geonameid":6551842,"name":"Gokels","admin3":"01058"},{"geonameid":6551843,"name":"Grauel","admin3":"01058"},{"geonameid":6551844,"name":"Grevenkrug","admin3":"01058"},{"geonameid":6551845,"name":"Groß Buchwald","admin3":"01058"},{"geonameid":6551846,"name":"Groß Vollstedt","admin3":"01058"},{"geonameid":6551847,"name":"Groß Wittensee","admin3":"01058"},{"geonameid":6551848,"name":"Güby","admin3":"01058"},{"geonameid":6551849,"name":"Haale","admin3":"01058"},{"geonameid":6551850,"name":"Haby","admin3":"01058"},{"geonameid":6551851,"name":"Hamdorf","admin3":"01058"},{"geonameid":6551852,"name":"Hamweddel","admin3":"01058"},{"geonameid":6551853,"name":"Hanerau-Hademarschen","admin3":"01058"},{"geonameid":6551854,"name":"Haßmoor","admin3":"01058"},{"geonameid":6551855,"name":"Heinkenborstel","admin3":"01058"},{"geonameid":6551856,"name":"Hörsten","admin3":"01058"},{"geonameid":6551857,"name":"Hoffeld","admin3":"01058"},{"geonameid":6551858,"name":"Hohn","admin3":"01058"},{"geonameid":6551859,"name":"Holtsee","admin3":"01058"},{"geonameid":6551860,"name":"Holzbunge","admin3":"01058"},{"geonameid":6551861,"name":"Holzdorf","admin3":"01058"},{"geonameid":6551862,"name":"Hütten","admin3":"01058"},{"geonameid":6551863,"name":"Hummelfeld","admin3":"01058"},{"geonameid":6551864,"name":"Jahrsdorf","admin3":"01058"},{"geonameid":6551865,"name":"Jevenstedt","admin3":"01058"},{"geonameid":6551866,"name":"Karby","admin3":"01058"},{"geonameid":6551867,"name":"Klein Wittensee","admin3":"01058"},{"geonameid":6551868,"name":"Königshügel","admin3":"01058"},{"geonameid":6551869,"name":"Kosel","admin3":"01058"},{"geonameid":6551870,"name":"Krogaspe","admin3":"01058"},{"geonameid":6551871,"name":"Kronshagen","admin3":"01058"},{"geonameid":6551872,"name":"Krummwisch","admin3":"01058"},{"geonameid":6551873,"name":"Langwedel","admin3":"01058"},{"geonameid":6551874,"name":"Lindau","admin3":"01058"},{"geonameid":6551875,"name":"Lohe-Föhrden","admin3":"01058"},{"geonameid":6551876,"name":"Loop","admin3":"01058"},{"geonameid":6551877,"name":"Loose","admin3":"01058"},{"geonameid":6551878,"name":"Lütjenwestedt","admin3":"01058"},{"geonameid":6551879,"name":"Luhnstedt","admin3":"01058"},{"geonameid":6551880,"name":"Goosefeld","admin3":"01058"},{"geonameid":6551881,"name":"Meezen","admin3":"01058"},{"geonameid":6551882,"name":"Melsdorf","admin3":"01058"},{"geonameid":6551883,"name":"Mielkendorf","admin3":"01058"},{"geonameid":6551884,"name":"Mörel","admin3":"01058"},{"geonameid":6551885,"name":"Molfsee","admin3":"01058"},{"geonameid":6551886,"name":"Mühbrook","admin3":"01058"},{"geonameid":6551887,"name":"Negenharrie","admin3":"01058"},{"geonameid":6551888,"name":"Neudorf-Bornstein","admin3":"01058"},{"geonameid":6551889,"name":"Neu Duvenstedt","admin3":"01058"},{"geonameid":6551890,"name":"Neuwittenbek","admin3":"01058"},{"geonameid":6551891,"name":"Nienborstel","admin3":"01058"},{"geonameid":6551892,"name":"Nindorf","admin3":"01058"},{"geonameid":6551893,"name":"Noer","admin3":"01058"},{"geonameid":6551894,"name":"Nübbel","admin3":"01058"},{"geonameid":6551895,"name":"Oldenbüttel","admin3":"01058"},{"geonameid":6551896,"name":"Oldenhütten","admin3":"01058"},{"geonameid":6551897,"name":"Osdorf","admin3":"01058"},{"geonameid":6551898,"name":"Osterby","admin3":"01058"},{"geonameid":6551899,"name":"Osterrönfeld","admin3":"01058"},{"geonameid":6551900,"name":"Osterstedt","admin3":"01058"},{"geonameid":6551901,"name":"Ottendorf","admin3":"01058"},{"geonameid":6551902,"name":"Owschlag","admin3":"01058"},{"geonameid":6551903,"name":"Padenstedt","admin3":"01058"},{"geonameid":6551904,"name":"Prinzenmoor","admin3":"01058"},{"geonameid":6551905,"name":"Quarnbek","admin3":"01058"},{"geonameid":6551906,"name":"Reesdorf","admin3":"01058"},{"geonameid":6551907,"name":"Remmels","admin3":"01058"},{"geonameid":6551908,"name":"Rickert","admin3":"01058"},{"geonameid":6551909,"name":"Rieseby","admin3":"01058"},{"geonameid":6551910,"name":"Rodenbek","admin3":"01058"},{"geonameid":6551911,"name":"Rumohr","admin3":"01058"},{"geonameid":6551912,"name":"Schacht-Audorf","admin3":"01058"},{"geonameid":6551913,"name":"Schierensee","admin3":"01058"},{"geonameid":6551914,"name":"Schinkel","admin3":"01058"},{"geonameid":6551915,"name":"Schmalstede","admin3":"01058"},{"geonameid":6551916,"name":"Schönbek","admin3":"01058"},{"geonameid":6551917,"name":"Schülldorf","admin3":"01058"},{"geonameid":6551918,"name":"Seefeld","admin3":"01058"},{"geonameid":6551919,"name":"Sehestedt","admin3":"01058"},{"geonameid":6551920,"name":"Sören","admin3":"01058"},{"geonameid":6551921,"name":"Sophienhamm","admin3":"01058"},{"geonameid":6551922,"name":"Stafstedt","admin3":"01058"},{"geonameid":6551923,"name":"Steenfeld","admin3":"01058"},{"geonameid":6551924,"name":"Strande","admin3":"01058"},{"geonameid":6551925,"name":"Tackesdorf","admin3":"01058"},{"geonameid":6551926,"name":"Tappendorf","admin3":"01058"},{"geonameid":6551927,"name":"Techelsdorf","admin3":"01058"},{"geonameid":6551928,"name":"Thaden","admin3":"01058"},{"geonameid":6551929,"name":"Thumby","admin3":"01058"},{"geonameid":6551930,"name":"Timmaspe","admin3":"01058"},{"geonameid":6551931,"name":"Todenbüttel","admin3":"01058"},{"geonameid":6551932,"name":"Tüttendorf","admin3":"01058"},{"geonameid":6551933,"name":"Waabs","admin3":"01058"},{"geonameid":6551934,"name":"Wapelfeld","admin3":"01058"},{"geonameid":6551935,"name":"Warder","admin3":"01058"},{"geonameid":6551936,"name":"Wasbek","admin3":"01058"},{"geonameid":6551937,"name":"Wattenbek","admin3":"01058"},{"geonameid":6551938,"name":"Westensee","admin3":"01058"},{"geonameid":6551939,"name":"Westerrönfeld","admin3":"01058"},{"geonameid":6551940,"name":"Windeby","admin3":"01058"},{"geonameid":6551941,"name":"Winnemark","admin3":"01058"},{"geonameid":6551942,"name":"Alt Bennebek","admin3":"01059"},{"geonameid":6551943,"name":"Bergenhusen","admin3":"01059"},{"geonameid":6551944,"name":"Böel","admin3":"01059"},{"geonameid":6551945,"name":"Böklund","admin3":"01059"},{"geonameid":6551946,"name":"Börm","admin3":"01059"},{"geonameid":6551947,"name":"Bollingstedt","admin3":"01059"},{"geonameid":6551948,"name":"Boren","admin3":"01059"},{"geonameid":6551949,"name":"Borgwedel","admin3":"01059"},{"geonameid":6551952,"name":"Busdorf","admin3":"01059"},{"geonameid":6551953,"name":"Dannewerk","admin3":"01059"},{"geonameid":6551954,"name":"Dörpstedt","admin3":"01059"},{"geonameid":6551957,"name":"Ellingstedt","admin3":"01059"},{"geonameid":6551958,"name":"Erfde","admin3":"01059"},{"geonameid":6551959,"name":"Fahrdorf","admin3":"01059"},{"geonameid":6551960,"name":"Geltorf","admin3":"01059"},{"geonameid":6551962,"name":"Grödersby","admin3":"01059"},{"geonameid":6551963,"name":"Havetoft","admin3":"01059"},{"geonameid":6551965,"name":"Hollingstedt","admin3":"01059"},{"geonameid":6551966,"name":"Hüsby","admin3":"01059"},{"geonameid":6551967,"name":"Idstedt","admin3":"01059"},{"geonameid":6551968,"name":"Jagel","admin3":"01059"},{"geonameid":6551969,"name":"Jübek","admin3":"01059"},{"geonameid":6551971,"name":"Klappholz","admin3":"01059"},{"geonameid":6551972,"name":"Klein Bennebek","admin3":"01059"},{"geonameid":6551973,"name":"Klein Rheide","admin3":"01059"},{"geonameid":6551974,"name":"Kropp","admin3":"01059"},{"geonameid":6551975,"name":"Loit","admin3":"01059"},{"geonameid":6551976,"name":"Lottorf","admin3":"01059"},{"geonameid":6551977,"name":"Lürschau","admin3":"01059"},{"geonameid":6551978,"name":"Meggerdorf","admin3":"01059"},{"geonameid":6551979,"name":"Mohrkirch","admin3":"01059"},{"geonameid":6551980,"name":"Neuberend","admin3":"01059"},{"geonameid":6551981,"name":"Norderbrarup","admin3":"01059"},{"geonameid":6551983,"name":"Nottfeld","admin3":"01059"},{"geonameid":6551984,"name":"Oersberg","admin3":"01059"},{"geonameid":6551985,"name":"Rabenkirchen-Faulück","admin3":"01059"},{"geonameid":6551987,"name":"Rügge","admin3":"01059"},{"geonameid":6551989,"name":"Saustrup","admin3":"01059"},{"geonameid":6551990,"name":"Schaalby","admin3":"01059"},{"geonameid":6551991,"name":"Scheggerott","admin3":"01059"},{"geonameid":6551992,"name":"Schnarup-Thumby","admin3":"01059"},{"geonameid":6551993,"name":"Schuby","admin3":"01059"},{"geonameid":6551994,"name":"Selk","admin3":"01059"},{"geonameid":6551995,"name":"Silberstedt","admin3":"01059"},{"geonameid":6551996,"name":"Steinfeld","admin3":"01059"},{"geonameid":6551997,"name":"Stolk","admin3":"01059"},{"geonameid":6551998,"name":"Struxdorf","admin3":"01059"},{"geonameid":6551999,"name":"Süderbrarup","admin3":"01059"},{"geonameid":6552000,"name":"Süderfahrenstedt","admin3":"01059"},{"geonameid":6552002,"name":"Taarstedt","admin3":"01059"},{"geonameid":6552003,"name":"Tetenhusen","admin3":"01059"},{"geonameid":6552004,"name":"Tielen","admin3":"01059"},{"geonameid":6552005,"name":"Treia","admin3":"01059"},{"geonameid":6552006,"name":"Ulsnis","admin3":"01059"},{"geonameid":6552007,"name":"Wagersrott","admin3":"01059"},{"geonameid":6552008,"name":"Wohlde","admin3":"01059"},{"geonameid":6552009,"name":"Twedt","admin3":"01059"},{"geonameid":6552010,"name":"Nübel","admin3":"01059"},{"geonameid":6552011,"name":"Tastrup","admin3":"01059"},{"geonameid":6552012,"name":"Ahneby","admin3":"01059"},{"geonameid":6552013,"name":"Ausacker","admin3":"01059"},{"geonameid":6552014,"name":"Böxlund","admin3":"01059"},{"geonameid":6552015,"name":"Dollerup","admin3":"01059"},{"geonameid":6552016,"name":"Eggebek","admin3":"01059"},{"geonameid":6552017,"name":"Esgrus","admin3":"01059"},{"geonameid":6552018,"name":"Gelting","admin3":"01059"},{"geonameid":6552019,"name":"Großenwiehe","admin3":"01059"},{"geonameid":6552020,"name":"Großsolt","admin3":"01059"},{"geonameid":6552021,"name":"Grundhof","admin3":"01059"},{"geonameid":6552022,"name":"Handewitt","admin3":"01059"},{"geonameid":6552023,"name":"Harrislee","admin3":"01059"},{"geonameid":6552024,"name":"Hasselberg","admin3":"01059"},{"geonameid":6552025,"name":"Hörup","admin3":"01059"},{"geonameid":6552026,"name":"Holt","admin3":"01059"},{"geonameid":6552027,"name":"Hürup","admin3":"01059"},{"geonameid":6552028,"name":"Husby","admin3":"01059"},{"geonameid":6552029,"name":"Janneby","admin3":"01059"},{"geonameid":6552030,"name":"Jardelund","admin3":"01059"},{"geonameid":6552031,"name":"Jerrishoe","admin3":"01059"},{"geonameid":6552032,"name":"Jörl","admin3":"01059"},{"geonameid":6552033,"name":"Kronsgaard","admin3":"01059"},{"geonameid":6552034,"name":"Langballig","admin3":"01059"},{"geonameid":6552035,"name":"Langstedt","admin3":"01059"},{"geonameid":6552036,"name":"Maasbüll","admin3":"01059"},{"geonameid":6552037,"name":"Maasholm","admin3":"01059"},{"geonameid":6552038,"name":"Medelby","admin3":"01059"},{"geonameid":6552039,"name":"Meyn","admin3":"01059"},{"geonameid":6552040,"name":"Munkbrarup","admin3":"01059"},{"geonameid":6552041,"name":"Nieby","admin3":"01059"},{"geonameid":6552042,"name":"Niesgrau","admin3":"01059"},{"geonameid":6552043,"name":"Nordhackstedt","admin3":"01059"},{"geonameid":6552044,"name":"Oeversee","admin3":"01059"},{"geonameid":6552045,"name":"Osterby","admin3":"01059"},{"geonameid":6552046,"name":"Pommerby","admin3":"01059"},{"geonameid":6552048,"name":"Rabel","admin3":"01059"},{"geonameid":6552049,"name":"Rabenholz","admin3":"01059"},{"geonameid":6552050,"name":"Ringsberg","admin3":"01059"},{"geonameid":6552051,"name":"Schafflund","admin3":"01059"},{"geonameid":6552052,"name":"Sieverstedt","admin3":"01059"},{"geonameid":6552053,"name":"Sörup","admin3":"01059"},{"geonameid":6552054,"name":"Sollerup","admin3":"01059"},{"geonameid":6552055,"name":"Stangheck","admin3":"01059"},{"geonameid":6552056,"name":"Steinberg","admin3":"01059"},{"geonameid":6552057,"name":"Steinbergkirche","admin3":"01059"},{"geonameid":6552058,"name":"Sterup","admin3":"01059"},{"geonameid":6552059,"name":"Stoltebüll","admin3":"01059"},{"geonameid":6552060,"name":"Süderhackstedt","admin3":"01059"},{"geonameid":6552061,"name":"Tarp","admin3":"01059"},{"geonameid":6552062,"name":"Wallsbüll","admin3":"01059"},{"geonameid":6552063,"name":"Wanderup","admin3":"01059"},{"geonameid":6552064,"name":"Wees","admin3":"01059"},{"geonameid":6552065,"name":"Weesby","admin3":"01059"},{"geonameid":6552066,"name":"Westerholz","admin3":"01059"},{"geonameid":6552069,"name":"Freienwill","admin3":"01059"},{"geonameid":6552070,"name":"Alveslohe","admin3":"01060"},{"geonameid":6552071,"name":"Armstedt","admin3":"01060"},{"geonameid":6552072,"name":"Bahrenhof","admin3":"01060"},{"geonameid":6552073,"name":"Bebensee","admin3":"01060"},{"geonameid":6552074,"name":"Bimöhlen","admin3":"01060"},{"geonameid":6552075,"name":"Blunk","admin3":"01060"},{"geonameid":6552076,"name":"Boostedt","admin3":"01060"},{"geonameid":6552077,"name":"Bornhöved","admin3":"01060"},{"geonameid":6552078,"name":"Borstel","admin3":"01060"},{"geonameid":6552079,"name":"Bühnsdorf","admin3":"01060"},{"geonameid":6552080,"name":"Daldorf","admin3":"01060"},{"geonameid":6552081,"name":"Damsdorf","admin3":"01060"},{"geonameid":6552082,"name":"Dreggers","admin3":"01060"},{"geonameid":6552083,"name":"Ellerau","admin3":"01060"},{"geonameid":6552084,"name":"Fahrenkrug","admin3":"01060"},{"geonameid":6552085,"name":"Föhrden-Barl","admin3":"01060"},{"geonameid":6552086,"name":"Fredesdorf","admin3":"01060"},{"geonameid":6552087,"name":"Fuhlendorf","admin3":"01060"},{"geonameid":6552088,"name":"Geschendorf","admin3":"01060"},{"geonameid":6552089,"name":"Glasau","admin3":"01060"},{"geonameid":6552090,"name":"Gönnebek","admin3":"01060"},{"geonameid":6552091,"name":"Großenaspe","admin3":"01060"},{"geonameid":6552092,"name":"Groß Kummerfeld","admin3":"01060"},{"geonameid":6552093,"name":"Groß Niendorf","admin3":"01060"},{"geonameid":6552094,"name":"Groß Rönnau","admin3":"01060"},{"geonameid":6552095,"name":"Hagen","admin3":"01060"},{"geonameid":6552096,"name":"Hardebek","admin3":"01060"},{"geonameid":6552097,"name":"Hartenholm","admin3":"01060"},{"geonameid":6552098,"name":"Hasenkrug","admin3":"01060"},{"geonameid":6552099,"name":"Hasenmoor","admin3":"01060"},{"geonameid":6552100,"name":"Heidmoor","admin3":"01060"},{"geonameid":6552101,"name":"Heidmühlen","admin3":"01060"},{"geonameid":6552102,"name":"Henstedt-Ulzburg Municipality","admin3":"01060"},{"geonameid":6552103,"name":"Hitzhusen","admin3":"01060"},{"geonameid":6552104,"name":"Högersdorf","admin3":"01060"},{"geonameid":6552105,"name":"Hüttblek","admin3":"01060"},{"geonameid":6552106,"name":"Itzstedt","admin3":"01060"},{"geonameid":6552107,"name":"Kattendorf","admin3":"01060"},{"geonameid":6552108,"name":"Kayhude","admin3":"01060"},{"geonameid":6552109,"name":"Kisdorf","admin3":"01060"},{"geonameid":6552110,"name":"Klein Gladebrügge","admin3":"01060"},{"geonameid":6552111,"name":"Klein Rönnau","admin3":"01060"},{"geonameid":6552112,"name":"Krems II","admin3":"01060"},{"geonameid":6552113,"name":"Kükels","admin3":"01060"},{"geonameid":6552114,"name":"Latendorf","admin3":"01060"},{"geonameid":6552115,"name":"Leezen","admin3":"01060"},{"geonameid":6552116,"name":"Lentföhrden","admin3":"01060"},{"geonameid":6552117,"name":"Mönkloh","admin3":"01060"},{"geonameid":6552118,"name":"Mözen","admin3":"01060"},{"geonameid":6552119,"name":"Nahe","admin3":"01060"},{"geonameid":6552120,"name":"Negernbötel","admin3":"01060"},{"geonameid":6552121,"name":"Nehms","admin3":"01060"},{"geonameid":6552122,"name":"Neuengörs","admin3":"01060"},{"geonameid":6552123,"name":"Neversdorf","admin3":"01060"},{"geonameid":6552124,"name":"Nützen","admin3":"01060"},{"geonameid":6552125,"name":"Oering","admin3":"01060"},{"geonameid":6552126,"name":"Oersdorf","admin3":"01060"},{"geonameid":6552127,"name":"Pronstorf","admin3":"01060"},{"geonameid":6552128,"name":"Rickling","admin3":"01060"},{"geonameid":6552129,"name":"Rohlstorf","admin3":"01060"},{"geonameid":6552130,"name":"Schackendorf","admin3":"01060"},{"geonameid":6552131,"name":"Schieren","admin3":"01060"},{"geonameid":6552132,"name":"Schmalensee","admin3":"01060"},{"geonameid":6552133,"name":"Schmalfeld","admin3":"01060"},{"geonameid":6552134,"name":"Schwissel","admin3":"01060"},{"geonameid":6552135,"name":"Seedorf","admin3":"01060"},{"geonameid":6552136,"name":"Seth","admin3":"01060"},{"geonameid":6552137,"name":"Sievershütten","admin3":"01060"},{"geonameid":6552138,"name":"Stipsdorf","admin3":"01060"},{"geonameid":6552139,"name":"Stocksee","admin3":"01060"},{"geonameid":6552140,"name":"Strukdorf","admin3":"01060"},{"geonameid":6552141,"name":"Struvenhütten","admin3":"01060"},{"geonameid":6552142,"name":"Stuvenborn","admin3":"01060"},{"geonameid":6552143,"name":"Sülfeld","admin3":"01060"},{"geonameid":6552144,"name":"Tarbek","admin3":"01060"},{"geonameid":6552145,"name":"Tensfeld","admin3":"01060"},{"geonameid":6552146,"name":"Todesfelde","admin3":"01060"},{"geonameid":6552147,"name":"Trappenkamp","admin3":"01060"},{"geonameid":6552148,"name":"Travenhorst","admin3":"01060"},{"geonameid":6552149,"name":"Traventhal","admin3":"01060"},{"geonameid":6552150,"name":"Wakendorf I","admin3":"01060"},{"geonameid":6552151,"name":"Wakendorf II","admin3":"01060"},{"geonameid":6552152,"name":"Weddelbrook","admin3":"01060"},{"geonameid":6552153,"name":"Weede","admin3":"01060"},{"geonameid":6552154,"name":"Wensin","admin3":"01060"},{"geonameid":6552155,"name":"Westerrade","admin3":"01060"},{"geonameid":6552156,"name":"Wiemersdorf","admin3":"01060"},{"geonameid":6552157,"name":"Winsen","admin3":"01060"},{"geonameid":6552158,"name":"Wittenborn","admin3":"01060"},{"geonameid":6552159,"name":"Aasbüttel","admin3":"01061"},{"geonameid":6552160,"name":"Aebtissinwisch","admin3":"01061"},{"geonameid":6552161,"name":"Agethorst","admin3":"01061"},{"geonameid":6552162,"name":"Altenmoor","admin3":"01061"},{"geonameid":6552163,"name":"Auufer","admin3":"01061"},{"geonameid":6552164,"name":"Bahrenfleth","admin3":"01061"},{"geonameid":6552165,"name":"Beidenfleth","admin3":"01061"},{"geonameid":6552166,"name":"Bekdorf","admin3":"01061"},{"geonameid":6552167,"name":"Bekmünde","admin3":"01061"},{"geonameid":6552168,"name":"Besdorf","admin3":"01061"},{"geonameid":6552169,"name":"Blomesche Wildnis","admin3":"01061"},{"geonameid":6552170,"name":"Bokelrehm","admin3":"01061"},{"geonameid":6552171,"name":"Bokhorst","admin3":"01061"},{"geonameid":6552172,"name":"Borsfleth","admin3":"01061"},{"geonameid":6552173,"name":"Breitenberg","admin3":"01061"},{"geonameid":6552174,"name":"Breitenburg","admin3":"01061"},{"geonameid":6552175,"name":"Brokdorf","admin3":"01061"},{"geonameid":6552176,"name":"Brokstedt","admin3":"01061"},{"geonameid":6552177,"name":"Büttel","admin3":"01061"},{"geonameid":6552178,"name":"Christinenthal","admin3":"01061"},{"geonameid":6552179,"name":"Dägeling","admin3":"01061"},{"geonameid":6552180,"name":"Dammfleth","admin3":"01061"},{"geonameid":6552181,"name":"Drage","admin3":"01061"},{"geonameid":6552182,"name":"Ecklak","admin3":"01061"},{"geonameid":6552183,"name":"Elskop","admin3":"01061"},{"geonameid":6552184,"name":"Fitzbek","admin3":"01061"},{"geonameid":6552185,"name":"Grevenkop","admin3":"01061"},{"geonameid":6552186,"name":"Gribbohm","admin3":"01061"},{"geonameid":6552187,"name":"Hadenfeld","admin3":"01061"},{"geonameid":6552188,"name":"Heiligenstedten","admin3":"01061"},{"geonameid":6552189,"name":"Heiligenstedtenerkamp","admin3":"01061"},{"geonameid":6552190,"name":"Hennstedt","admin3":"01061"},{"geonameid":6552191,"name":"Herzhorn","admin3":"01061"},{"geonameid":6552192,"name":"Hingstheide","admin3":"01061"},{"geonameid":6552193,"name":"Hodorf","admin3":"01061"},{"geonameid":6552194,"name":"Hohenaspe","admin3":"01061"},{"geonameid":6552195,"name":"Hohenfelde","admin3":"01061"},{"geonameid":6552196,"name":"Hohenlockstedt","admin3":"01061"},{"geonameid":6552197,"name":"Holstenniendorf","admin3":"01061"},{"geonameid":6552198,"name":"Horst (Holstein)","admin3":"01061"},{"geonameid":6552199,"name":"Huje","admin3":"01061"},{"geonameid":6552200,"name":"Kaaks","admin3":"01061"},{"geonameid":6552201,"name":"Kaisborstel","admin3":"01061"},{"geonameid":6552202,"name":"Kiebitzreihe","admin3":"01061"},{"geonameid":6552203,"name":"Kleve","admin3":"01061"},{"geonameid":6552204,"name":"Kollmoor","admin3":"01061"},{"geonameid":6552205,"name":"Krempdorf","admin3":"01061"},{"geonameid":6552206,"name":"Kremperheide","admin3":"01061"},{"geonameid":6552207,"name":"Krempermoor","admin3":"01061"},{"geonameid":6552208,"name":"Kronsmoor","admin3":"01061"},{"geonameid":6552209,"name":"Krummendiek","admin3":"01061"},{"geonameid":6552210,"name":"Kudensee","admin3":"01061"},{"geonameid":6552211,"name":"Lägerdorf","admin3":"01061"},{"geonameid":6552212,"name":"Landrecht","admin3":"01061"},{"geonameid":6552213,"name":"Landscheide","admin3":"01061"},{"geonameid":6552214,"name":"Lockstedt","admin3":"01061"},{"geonameid":6552215,"name":"Lohbarbek","admin3":"01061"},{"geonameid":6552216,"name":"Looft","admin3":"01061"},{"geonameid":6552217,"name":"Mehlbek","admin3":"01061"},{"geonameid":6552218,"name":"Moordiek","admin3":"01061"},{"geonameid":6552220,"name":"Moorhusen","admin3":"01061"},{"geonameid":6552221,"name":"Mühlenbarbek","admin3":"01061"},{"geonameid":6552222,"name":"Münsterdorf","admin3":"01061"},{"geonameid":6552223,"name":"Neuenbrook","admin3":"01061"},{"geonameid":6552224,"name":"Nienbüttel","admin3":"01061"},{"geonameid":6552225,"name":"Nutteln","admin3":"01061"},{"geonameid":6552226,"name":"Oelixdorf","admin3":"01061"},{"geonameid":6552227,"name":"Oeschebüttel","admin3":"01061"},{"geonameid":6552228,"name":"Oldenborstel","admin3":"01061"},{"geonameid":6552229,"name":"Oldendorf","admin3":"01061"},{"geonameid":6552230,"name":"Ottenbüttel","admin3":"01061"},{"geonameid":6552231,"name":"Peissen","admin3":"01061"},{"geonameid":6552232,"name":"Poyenberg","admin3":"01061"},{"geonameid":6552233,"name":"Puls","admin3":"01061"},{"geonameid":6552234,"name":"Quarnstedt","admin3":"01061"},{"geonameid":6552235,"name":"Rade","admin3":"01061"},{"geonameid":6552236,"name":"Reher","admin3":"01061"},{"geonameid":6552237,"name":"Rethwisch","admin3":"01061"},{"geonameid":6552238,"name":"Rosdorf","admin3":"01061"},{"geonameid":6552239,"name":"Sankt Margarethen","admin3":"01061"},{"geonameid":6552240,"name":"Sarlhusen","admin3":"01061"},{"geonameid":6552241,"name":"Schenefeld","admin3":"01061"},{"geonameid":6552242,"name":"Schlotfeld","admin3":"01061"},{"geonameid":6552244,"name":"Silzen","admin3":"01061"},{"geonameid":6552245,"name":"Sommerland","admin3":"01061"},{"geonameid":6552246,"name":"Stördorf","admin3":"01061"},{"geonameid":6552247,"name":"Störkathen","admin3":"01061"},{"geonameid":6552248,"name":"Süderau","admin3":"01061"},{"geonameid":6552249,"name":"Vaale","admin3":"01061"},{"geonameid":6552250,"name":"Vaalermoor","admin3":"01061"},{"geonameid":6552251,"name":"Wacken","admin3":"01061"},{"geonameid":6552252,"name":"Warringholz","admin3":"01061"},{"geonameid":6552253,"name":"Westermoor","admin3":"01061"},{"geonameid":6552254,"name":"Wewelsfleth","admin3":"01061"},{"geonameid":6552255,"name":"Wiedenborstel","admin3":"01061"},{"geonameid":6552256,"name":"Willenscharen","admin3":"01061"},{"geonameid":6552257,"name":"Winseldorf","admin3":"01061"},{"geonameid":6552258,"name":"Wittenbergen","admin3":"01061"},{"geonameid":6552259,"name":"Wrist","admin3":"01061"},{"geonameid":6552260,"name":"Wulfsmoor","admin3":"01061"},{"geonameid":6552261,"name":"Kollmar","admin3":"01061"},{"geonameid":6552262,"name":"Badendorf","admin3":"01062"},{"geonameid":6552263,"name":"Bargfeld-Stegen","admin3":"01062"},{"geonameid":6552264,"name":"Barnitz","admin3":"01062"},{"geonameid":6552265,"name":"Barsbüttel","admin3":"01062"},{"geonameid":6552266,"name":"Elmenhorst","admin3":"01062"},{"geonameid":6552267,"name":"Grabau","admin3":"01062"},{"geonameid":6552268,"name":"Grande","admin3":"01062"},{"geonameid":6552269,"name":"Grönwohld","admin3":"01062"},{"geonameid":6552270,"name":"Großensee","admin3":"01062"},{"geonameid":6552271,"name":"Großhansdorf","admin3":"01062"},{"geonameid":6552272,"name":"Hamberge","admin3":"01062"},{"geonameid":6552273,"name":"Heidekamp","admin3":"01062"},{"geonameid":6552274,"name":"Heilshoop","admin3":"01062"},{"geonameid":6552275,"name":"Hohenfelde","admin3":"01062"},{"geonameid":6552276,"name":"Hoisdorf","admin3":"01062"},{"geonameid":6552277,"name":"Jersbek","admin3":"01062"},{"geonameid":6552278,"name":"Klein Wesenberg","admin3":"01062"},{"geonameid":6552279,"name":"Lütjensee","admin3":"01062"},{"geonameid":6552280,"name":"Meddewade","admin3":"01062"},{"geonameid":6552281,"name":"Mönkhagen","admin3":"01062"},{"geonameid":6552282,"name":"Neritz","admin3":"01062"},{"geonameid":6552283,"name":"Nienwohld","admin3":"01062"},{"geonameid":6552284,"name":"Oststeinbek","admin3":"01062"},{"geonameid":6552285,"name":"Rausdorf","admin3":"01062"},{"geonameid":6552286,"name":"Rehhorst","admin3":"01062"},{"geonameid":6552287,"name":"Rümpel","admin3":"01062"},{"geonameid":6552288,"name":"Stapelfeld","admin3":"01062"},{"geonameid":6552289,"name":"Tangstedt","admin3":"01062"},{"geonameid":6552290,"name":"Todendorf","admin3":"01062"},{"geonameid":6552291,"name":"Tremsbüttel","admin3":"01062"},{"geonameid":6552292,"name":"Trittau","admin3":"01062"},{"geonameid":6552293,"name":"Westerau","admin3":"01062"},{"geonameid":6552294,"name":"Witzhave","admin3":"01062"},{"geonameid":6552295,"name":"Zarpen","admin3":"01062"},{"geonameid":6552296,"name":"Wesenberg","admin3":"01062"},{"geonameid":6552474,"name":"Glinde","admin3":"01062"},{"geonameid":6554771,"name":"Reinbek","admin3":"01062"},{"geonameid":6555441,"name":"Immenstedt","admin3":"01054"},{"geonameid":6555442,"name":"Elmshorn","admin3":"01056"},{"geonameid":6555443,"name":"Plön","admin3":"01057"},{"geonameid":6555444,"name":"Eckernförde","admin3":"01058"},{"geonameid":6557320,"name":"Niebüll","admin3":"01054"},{"geonameid":6557324,"name":"Brunsbüttel","admin3":"01051"},{"geonameid":6557325,"name":"Heide","admin3":"01051"},{"geonameid":6557326,"name":"Marne","admin3":"01051"},{"geonameid":6557327,"name":"Meldorf","admin3":"01051"},{"geonameid":6557328,"name":"Wesselburen","admin3":"01051"},{"geonameid":6557329,"name":"Geesthacht","admin3":"01053"},{"geonameid":6557330,"name":"Mölln","admin3":"01053"},{"geonameid":6557331,"name":"Ratzeburg","admin3":"01053"},{"geonameid":6557332,"name":"Schwarzenbek","admin3":"01053"},{"geonameid":6557333,"name":"Bredstedt","admin3":"01054"},{"geonameid":6557334,"name":"Friedrichstadt","admin3":"01054"},{"geonameid":6557335,"name":"Husum","admin3":"01054"},{"geonameid":6557336,"name":"Tönning","admin3":"01054"},{"geonameid":6557338,"name":"Wyk auf Föhr","admin3":"01054"},{"geonameid":6557339,"name":"Bad Schwartau","admin3":"01055"},{"geonameid":6557340,"name":"Eutin","admin3":"01055"},{"geonameid":6557341,"name":"Heiligenhafen","admin3":"01055"},{"geonameid":6557342,"name":"Neustadt in Holstein","admin3":"01055"},{"geonameid":6557343,"name":"Oldenburg in Holstein","admin3":"01055"},{"geonameid":6557344,"name":"Fehmarn","admin3":"01055"},{"geonameid":6557345,"name":"Barmstedt","admin3":"01056"},{"geonameid":6557346,"name":"Pinneberg","admin3":"01056"},{"geonameid":6557347,"name":"Quickborn","admin3":"01056"},{"geonameid":6557348,"name":"Schenefeld","admin3":"01056"},{"geonameid":6557349,"name":"Uetersen","admin3":"01056"},{"geonameid":6557350,"name":"Lütjenburg","admin3":"01057"},{"geonameid":6557351,"name":"Preetz","admin3":"01057"},{"geonameid":6557352,"name":"Büdelsdorf","admin3":"01058"},{"geonameid":6557353,"name":"Rendsburg","admin3":"01058"},{"geonameid":6557354,"name":"Kappeln","admin3":"01059"},{"geonameid":6557355,"name":"Schleswig","admin3":"01059"},{"geonameid":6557356,"name":"Bad Bramstedt","admin3":"01060"},{"geonameid":6557357,"name":"Bad Segeberg","admin3":"01060"},{"geonameid":6557358,"name":"Kaltenkirchen","admin3":"01060"},{"geonameid":6557359,"name":"Norderstedt","admin3":"01060"},{"geonameid":6557360,"name":"Wahlstedt","admin3":"01060"},{"geonameid":6557361,"name":"Glückstadt","admin3":"01061"},{"geonameid":6557362,"name":"Itzehoe","admin3":"01061"},{"geonameid":6557363,"name":"Kellinghusen","admin3":"01061"},{"geonameid":6557364,"name":"Krempe","admin3":"01061"},{"geonameid":6557365,"name":"Ahrensburg","admin3":"01062"},{"geonameid":6557366,"name":"Bad Oldesloe","admin3":"01062"},{"geonameid":6557367,"name":"Bargteheide","admin3":"01062"},{"geonameid":6557368,"name":"Reinfeld (Holstein)","admin3":"01062"},{"geonameid":6558429,"name":"Hohenwestedt","admin3":"01058"},{"geonameid":6558430,"name":"Neuendorf-Sachsenbande","admin3":"01061"},{"geonameid":6558847,"name":"Niendorf bei Berkenthin","admin3":"01053"},{"geonameid":6558848,"name":"Wentorf (Amt Sandesneben)","admin3":"01053"},{"geonameid":6558849,"name":"Ostenfeld (Husum)","admin3":"01054"},{"geonameid":6558851,"name":"Ascheberg (Holstein)","admin3":"01057"},{"geonameid":6558852,"name":"Behrensdorf (Ostsee)","admin3":"01057"},{"geonameid":6558853,"name":"Hohwacht (Ostsee)","admin3":"01057"},{"geonameid":6558854,"name":"Ostenfeld (Rendsburg)","admin3":"01058"},{"geonameid":6558855,"name":"Rade b. Hohenwestedt","admin3":"01058"},{"geonameid":6558856,"name":"Rade b. Rendsburg","admin3":"01058"},{"geonameid":6558857,"name":"Schülp b. Nortorf","admin3":"01058"},{"geonameid":6558858,"name":"Glücksburg (Ostsee)","admin3":"01059"},{"geonameid":6558859,"name":"Neuendorf b. Elmshorn","admin3":"01061"},{"geonameid":6559052,"name":"Kiel, Landeshauptstadt","admin3":"01002"},{"geonameid":6559053,"name":"Hörnum (Sylt)","admin3":"01054"},{"geonameid":6559054,"name":"Kampen (Sylt)","admin3":"01054"},{"geonameid":6559055,"name":"Wenningstedt-Braderup (Sylt)","admin3":"01054"},{"geonameid":6559056,"name":"Kellenhusen (Ostsee)","admin3":"01055"},{"geonameid":6559057,"name":"Schülp b. Rendsburg","admin3":"01058"},{"geonameid":6559306,"name":"Immenstedt","admin3":"01051"},{"geonameid":6559307,"name":"Hamfelde","admin3":"01053"},{"geonameid":6559308,"name":"Lauenburg/Elbe","admin3":"01053"},{"geonameid":6559309,"name":"Bornholt","admin3":"01058"},{"geonameid":6559310,"name":"Delingsdorf","admin3":"01062"},{"geonameid":6559312,"name":"Hammoor","admin3":"01062"},{"geonameid":7602233,"name":"Köthel (Lauenburg)","admin3":"01053"},{"geonameid":7602243,"name":"Hamfelde","admin3":"01062"},{"geonameid":7602403,"name":"Ülsby","admin3":"01059"},{"geonameid":7602409,"name":"Poggensee","admin3":"01053"},{"geonameid":7602426,"name":"Rantzau","admin3":"01057"},{"geonameid":7602427,"name":"Pöschendorf","admin3":"01061"},{"geonameid":7602458,"name":"Pogeez","admin3":"01053"},{"geonameid":7602476,"name":"Arnis","admin3":"01059"},{"geonameid":7602477,"name":"Groß Rheide","admin3":"01059"},{"geonameid":7602489,"name":"Garding, Kirchspiel","admin3":"01054"},{"geonameid":7602559,"name":"Lübeck, Hansestadt","admin3":"01003"},{"geonameid":7602562,"name":"Sylt","admin3":"01054"},{"geonameid":7602586,"name":"Schwentinental","admin3":"01057"},{"geonameid":8659002,"name":"Mittelangeln","admin3":"01059"},{"geonameid":11856350,"name":"Stapel","admin3":"01059"},{"geonameid":11856353,"name":"Brodersby-Goltoft","admin3":"01059"}]},"__N_SSG":true}