{"pageProps":{"locale":"en","admin2":{"geonameid":5920264,"name":"Charlotte County","country":"CA","admin1":"04","admin2":"1302","admin3":"","latitude":"45.1668400","longitude":"-66.8321800"},"admin1":{"geonameid":6087430,"name":"New Brunswick/Nouveau-Brunswick","admin1":"04"},"locations":[{"geonameid":5903322,"name":"Blacks Harbour","admin3":""},{"geonameid":5946869,"name":"Edwards Corner","admin3":""},{"geonameid":12076643,"name":"Fundy Bay","admin3":""},{"geonameid":5964408,"name":"Grand Harbour","admin3":""},{"geonameid":5966615,"name":"Greens Point","admin3":""},{"geonameid":5982874,"name":"Indian Island","admin3":""},{"geonameid":6048974,"name":"Lamberts Cove","admin3":""},{"geonameid":6090129,"name":"North Head","admin3":""},{"geonameid":6090545,"name":"North Road","admin3":""},{"geonameid":6091949,"name":"Oak Haven","admin3":""},{"geonameid":6094903,"name":"Otter Cove","admin3":""},{"geonameid":6106570,"name":"Pocologan","admin3":""},{"geonameid":6121949,"name":"Richardson","admin3":""},{"geonameid":6137411,"name":"Saint Andrews","admin3":""},{"geonameid":6143045,"name":"Seal Cove","admin3":""},{"geonameid":6178025,"name":"Welshpool","admin3":""},{"geonameid":6184175,"name":"Woodland","admin3":""}],"admin3":[],"alternateNames":[]},"__N_SSG":true}