{"pageProps":{"locale":"de","admin2":{"geonameid":6458821,"name":"Brig District","country":"CH","admin1":"VS","admin2":"2301","admin3":"","latitude":"46.2825500","longitude":"8.0118500"},"admin1":{"geonameid":2658205,"name":"Canton du Valais","admin1":"VS"},"locations":[{"geonameid":2661485,"name":"Bitsch","admin3":"6007"},{"geonameid":2661394,"name":"Brig","admin3":"6002"},{"geonameid":2660938,"name":"Eggerberg","admin3":"6004"},{"geonameid":2659549,"name":"Mund","admin3":"6007"},{"geonameid":2659510,"name":"Naters","admin3":"6007"},{"geonameid":2658402,"name":"Termen","admin3":"6010"},{"geonameid":2657885,"name":"Zwischbergen","admin3":"6011"}],"admin3":[{"geonameid":7285336,"name":"Brig-Glis","admin3":"6002"},{"geonameid":7285704,"name":"Eggerberg","admin3":"6004"},{"geonameid":7286610,"name":"Naters","admin3":"6007"},{"geonameid":7286902,"name":"Ried-Brig","admin3":"6008"},{"geonameid":7287174,"name":"Simplon","admin3":"6009"},{"geonameid":7287292,"name":"Termen","admin3":"6010"},{"geonameid":7287657,"name":"Zwischbergen","admin3":"6011"}],"alternateNames":[]},"__N_SSG":true}