{"pageProps":{"locale":"en","admin2":{"geonameid":5258961,"name":"La Crosse County","country":"US","admin1":"WI","admin2":"063","admin3":"","latitude":"43.9065300","longitude":"-91.1152200","localeAltName":null},"admin1":{"geonameid":5279468,"name":"Wisconsin","admin1":"WI","localeAltName":"Wisconsin"},"locations":[{"geonameid":5244626,"name":"Bangor","admin3":"04550","localeAltName":null},{"geonameid":5246709,"name":"Brice Prairie","admin3":"59950","localeAltName":null},{"geonameid":5253845,"name":"French Island","admin3":"12300","localeAltName":null},{"geonameid":5256613,"name":"Holmen","admin3":"35450","localeAltName":null},{"geonameid":5258957,"name":"La Crosse","admin3":"40775","localeAltName":null},{"geonameid":5264870,"name":"North La Crosse","admin3":"40775","localeAltName":null},{"geonameid":5265702,"name":"Onalaska","admin3":"59925","localeAltName":null},{"geonameid":5269319,"name":"Rockland","admin3":"68900","localeAltName":null},{"geonameid":5270775,"name":"Saint Joseph","admin3":"31150","localeAltName":null},{"geonameid":5278608,"name":"West Salem","admin3":"86275","localeAltName":null}],"admin3":[{"geonameid":4833974,"name":"Village of Rockland","admin3":"68900","localeAltName":null},{"geonameid":5244627,"name":"Town of Bangor","admin3":"04575"},{"geonameid":5244628,"name":"Village of Bangor","admin3":"04550","localeAltName":null},{"geonameid":5244730,"name":"Town of Barre","admin3":"04825"},{"geonameid":5247259,"name":"Town of Burns","admin3":"11300"},{"geonameid":5247757,"name":"Town of Campbell","admin3":"12300","localeAltName":null},{"geonameid":5252534,"name":"Town of Farmington","admin3":"25325"},{"geonameid":5255081,"name":"Town of Greenfield","admin3":"31150","localeAltName":null},{"geonameid":5255414,"name":"Town of Hamilton","admin3":"32275"},{"geonameid":5256591,"name":"Town of Holland","admin3":"35350"},{"geonameid":5256611,"name":"Village of Holmen","admin3":"35450","localeAltName":null},{"geonameid":5258973,"name":"City of La Crosse","admin3":"40775","localeAltName":null},{"geonameid":5262473,"name":"Town of Medary","admin3":"50400"},{"geonameid":5265710,"name":"City of Onalaska","admin3":"59925","localeAltName":null},{"geonameid":5265711,"name":"Town of Onalaska","admin3":"59950","localeAltName":null},{"geonameid":5272940,"name":"Town of Shelby","admin3":"73125"},{"geonameid":5277965,"name":"Town of Washington","admin3":"83650"},{"geonameid":5278615,"name":"Village of West Salem","admin3":"86275","localeAltName":null}],"alternateNames":[{"alternatenameId":2089565,"geonameid":5279468,"isoLanguage":"en","alternateName":"Wisconsin","isPreferredName":true,"isShortName":true,"isColloquial":false,"isHistoric":false}]},"__N_SSG":true}