{"pageProps":{"locale":"en","admin2":{"geonameid":10287316,"name":"Krimpenerwaard","country":"NL","admin1":"11","admin2":"1931","admin3":"","latitude":"51.9817100","longitude":"4.7782800"},"admin1":{"geonameid":2743698,"name":"Provincie Zuid-Holland","admin1":"11"},"locations":[{"geonameid":2760043,"name":"Achterbroek","admin3":""},{"geonameid":2759815,"name":"Ammerstol","admin3":""},{"geonameid":2759219,"name":"Beneden-Haastrecht","admin3":""},{"geonameid":2759222,"name":"Benedenberg","admin3":""},{"geonameid":2759216,"name":"Benedenheul","admin3":""},{"geonameid":2759215,"name":"Benedenkerk","admin3":""},{"geonameid":2759158,"name":"Bergambacht","admin3":""},{"geonameid":2759105,"name":"Bergstoep","admin3":""},{"geonameid":2759078,"name":"Berkenwoude","admin3":""},{"geonameid":2758652,"name":"Bonrepas","admin3":""},{"geonameid":2758501,"name":"Boven-Haastrecht","admin3":""},{"geonameid":2758506,"name":"Bovenberg","admin3":""},{"geonameid":2758496,"name":"Bovenkerk","admin3":""},{"geonameid":2758477,"name":"Bovenstad","admin3":""},{"geonameid":2757556,"name":"De Hem","admin3":""},{"geonameid":2757535,"name":"De Hoek","admin3":""},{"geonameid":2755410,"name":"Gouderak","admin3":""},{"geonameid":2755402,"name":"Goudseweg","admin3":""},{"geonameid":2754978,"name":"Haastrecht","admin3":""},{"geonameid":2754304,"name":"Het Beijersche","admin3":""},{"geonameid":2753362,"name":"IJssellaan","admin3":""},{"geonameid":2753149,"name":"Kadijk","admin3":""},{"geonameid":2752450,"name":"Koolwijk","admin3":""},{"geonameid":2752267,"name":"Krimpen aan de Lek","admin3":""},{"geonameid":2752016,"name":"Lage Weg","admin3":""},{"geonameid":2751744,"name":"Lekkerkerk","admin3":""},{"geonameid":2751511,"name":"Loet","admin3":""},{"geonameid":2749279,"name":"Opperduit","admin3":""},{"geonameid":2749091,"name":"Oudeland","admin3":""},{"geonameid":2749016,"name":"Ouderkerk aan den IJssel","admin3":""},{"geonameid":2747866,"name":"Rozendaal","admin3":""},{"geonameid":2747506,"name":"Schoonhoven","admin3":""},{"geonameid":2747500,"name":"Schoonouwen","admin3":""},{"geonameid":2747413,"name":"Schuwacht","admin3":""},{"geonameid":2746747,"name":"Stein","admin3":""},{"geonameid":2746665,"name":"Stolwijk","admin3":""},{"geonameid":2746327,"name":"Tiendweg-West","admin3":""},{"geonameid":2746098,"name":"Tussenlanen","admin3":""},{"geonameid":2745388,"name":"Vlist","admin3":""},{"geonameid":2743801,"name":"Zuidbroek","admin3":""}],"admin3":[],"alternateNames":[{"alternatenameId":11907789,"geonameid":2743698,"isoLanguage":"de","alternateName":"SÃ¼dholland","isPreferredName":true,"isShortName":true,"isColloquial":false,"isHistoric":false}]},"__N_SSG":true}