{"pageProps":{"locale":"it","admin2":{"geonameid":2523629,"name":"Provincia di Reggio Calabria","country":"IT","admin1":"03","admin2":"RC","admin3":"","latitude":"38.3166700","longitude":"16.0833300","localeAltName":"Reggio Calabria"},"admin1":{"geonameid":2525468,"name":"Calabria","admin1":"03","localeAltName":"Calabria"},"locations":[{"geonameid":6534810,"name":"Africo Nuovo","admin3":"080001","localeAltName":null},{"geonameid":2525766,"name":"Agnana Calabra","admin3":"080002","localeAltName":null},{"geonameid":2525725,"name":"Amato","admin3":"080071","localeAltName":null},{"geonameid":8949362,"name":"Amato","admin3":"080093","localeAltName":null},{"geonameid":2525706,"name":"Anoia Inferiore","admin3":"080003","localeAltName":null},{"geonameid":2525705,"name":"Anoia Superiore","admin3":"080003","localeAltName":null},{"geonameid":2525700,"name":"Antonimina","admin3":"080004","localeAltName":null},{"geonameid":2525684,"name":"Ardore Marina","admin3":"080005","localeAltName":null},{"geonameid":2525629,"name":"Bagaladi","admin3":"080006","localeAltName":null},{"geonameid":2525616,"name":"Bagnara Calabra","admin3":"080007","localeAltName":null},{"geonameid":2525590,"name":"Barritteri","admin3":"080086","localeAltName":null},{"geonameid":2525564,"name":"Benestare","admin3":"080008","localeAltName":null},{"geonameid":2525558,"name":"Bianco","admin3":"080009","localeAltName":null},{"geonameid":2525543,"name":"Bivongi","admin3":"080010","localeAltName":null},{"geonameid":8949449,"name":"Bosco Sant'Ippolito","admin3":"080012","localeAltName":null},{"geonameid":8949438,"name":"Bosco-Belloro","admin3":"080008","localeAltName":null},{"geonameid":8949534,"name":"Bosco-Strisce","admin3":"080069","localeAltName":null},{"geonameid":2525511,"name":"Bova Marina","admin3":"080013","localeAltName":null},{"geonameid":2525513,"name":"Bovalino","admin3":"080012","localeAltName":null},{"geonameid":2525512,"name":"Bovalino Superiore","admin3":"080012","localeAltName":null},{"geonameid":2525505,"name":"Brancaleone","admin3":"080014","localeAltName":null},{"geonameid":2525506,"name":"Brancaleone-Marina","admin3":"080014","localeAltName":null},{"geonameid":2525493,"name":"Bruzzano Zeffirio","admin3":"080015","localeAltName":null},{"geonameid":6535655,"name":"Campo Calabro","admin3":"080018","localeAltName":null},{"geonameid":8949984,"name":"Canalello","admin3":"080033","localeAltName":null},{"geonameid":2525370,"name":"Caraffa del Bianco","admin3":"080021","localeAltName":null},{"geonameid":8949917,"name":"Caredia-Lacco","admin3":"080050","localeAltName":null},{"geonameid":2525357,"name":"Careri","admin3":"080023","localeAltName":null},{"geonameid":2525120,"name":"Casignana","admin3":"080024","localeAltName":null},{"geonameid":2525098,"name":"Castellace","admin3":"080055","localeAltName":null},{"geonameid":2525053,"name":"Caulonia","admin3":"080025","localeAltName":null},{"geonameid":8051464,"name":"Caulonia Marina","admin3":"080025","localeAltName":null},{"geonameid":2525030,"name":"Ceramida-Pellegrina","admin3":"080007","localeAltName":null},{"geonameid":2525002,"name":"Chorio","admin3":"080073","localeAltName":null},{"geonameid":2524990,"name":"Ciminà","admin3":"080026","localeAltName":null},{"geonameid":2524985,"name":"Cinque Frondi","admin3":"080027","localeAltName":null},{"geonameid":2524976,"name":"Cittanova","admin3":"080028","localeAltName":null},{"geonameid":8950106,"name":"Colelli","admin3":"080077","localeAltName":null},{"geonameid":2524861,"name":"Delianuova","admin3":"080031","localeAltName":null},{"geonameid":2524827,"name":"Drosi","admin3":"080065","localeAltName":null},{"geonameid":8950283,"name":"Favaco","admin3":"080091","localeAltName":null},{"geonameid":2524774,"name":"Feroleto della Chiesa","admin3":"080032","localeAltName":null},{"geonameid":6534811,"name":"Fiumara","admin3":"080034","localeAltName":null},{"geonameid":2524714,"name":"Fossato Ionico-Fossatello-San Luca Marcelluzzo","admin3":"080053","localeAltName":null},{"geonameid":2524677,"name":"Galatro","admin3":"080035","localeAltName":null},{"geonameid":2524643,"name":"Gerace","admin3":"080036","localeAltName":null},{"geonameid":2524613,"name":"Giffone","admin3":"080037","localeAltName":null},{"geonameid":2524606,"name":"Gioia Tauro","admin3":"080038","localeAltName":null},{"geonameid":2524605,"name":"Gioiosa Ionica","admin3":"080039","localeAltName":null},{"geonameid":2524560,"name":"Grotteria","admin3":"080040","localeAltName":null},{"geonameid":2524430,"name":"Laureana di Borrello","admin3":"080042","localeAltName":null},{"geonameid":2524421,"name":"Lazzaro","admin3":"080054","localeAltName":null},{"geonameid":2524371,"name":"Locri","admin3":"080043","localeAltName":null},{"geonameid":2524311,"name":"Mammola","admin3":"080044","localeAltName":null},{"geonameid":8950336,"name":"Mandorleto","admin3":"080043","localeAltName":null},{"geonameid":2524266,"name":"Marina di Gioiosa Ionica","admin3":"080045","localeAltName":null},{"geonameid":2524262,"name":"Marina di San Lorenzo","admin3":"080073","localeAltName":null},{"geonameid":9036194,"name":"Marina di Sant'Ilario dello Ionio","admin3":"080082","localeAltName":null},{"geonameid":6535656,"name":"Maropati","admin3":"080046","localeAltName":null},{"geonameid":2524241,"name":"Martone","admin3":"080047","localeAltName":null},{"geonameid":8950228,"name":"Masella","admin3":"080053","localeAltName":null},{"geonameid":2524190,"name":"Melicuccà","admin3":"080048","localeAltName":null},{"geonameid":2524188,"name":"Melicucco","admin3":"080049","localeAltName":null},{"geonameid":2524181,"name":"Melito di Porto Salvo","admin3":"080050","localeAltName":null},{"geonameid":2524171,"name":"Messignadi","admin3":"080055","localeAltName":null},{"geonameid":2524100,"name":"Molochio","admin3":"080051","localeAltName":null},{"geonameid":2524097,"name":"Monasterace","admin3":"080052","localeAltName":null},{"geonameid":2524265,"name":"Monasterace Marina","admin3":"080052","localeAltName":null},{"geonameid":2524046,"name":"Mosorrofa","admin3":"080063","localeAltName":null},{"geonameid":2524043,"name":"Motta San Giovanni","admin3":"080054","localeAltName":null},{"geonameid":9036121,"name":"Natile Nuovo","admin3":"080023","localeAltName":null},{"geonameid":6535657,"name":"Oppido Mamertina","admin3":"080055","localeAltName":null},{"geonameid":2523911,"name":"Palizzi Marina","admin3":"080056","localeAltName":null},{"geonameid":2523902,"name":"Palmi","admin3":"080057","localeAltName":null},{"geonameid":2523858,"name":"Pavigliana","admin3":"080063","localeAltName":null},{"geonameid":2523857,"name":"Pazzano","admin3":"080058","localeAltName":null},{"geonameid":2523845,"name":"Pellaro","admin3":"080063","localeAltName":null},{"geonameid":2523757,"name":"Placanica","admin3":"080059","localeAltName":null},{"geonameid":2523749,"name":"Platì","admin3":"080060","localeAltName":null},{"geonameid":2523738,"name":"Polistena","admin3":"080061","localeAltName":null},{"geonameid":2523676,"name":"Prunella","admin3":"080050","localeAltName":null},{"geonameid":2523630,"name":"Reggio Calabria","admin3":"080063","localeAltName":"Reggio Calabria"},{"geonameid":6535658,"name":"Riace","admin3":"080064","localeAltName":null},{"geonameid":2523620,"name":"Riace Marina","admin3":"080064","localeAltName":null},{"geonameid":2523608,"name":"Rizziconi","admin3":"080065","localeAltName":null},{"geonameid":2523602,"name":"Roccaforte del Greco","admin3":"080066","localeAltName":null},{"geonameid":2523595,"name":"Roccella Ionica","admin3":"080067","localeAltName":null},{"geonameid":6534812,"name":"Roghudi","admin3":"080068","localeAltName":null},{"geonameid":2523585,"name":"Rosarno","admin3":"080069","localeAltName":null},{"geonameid":2523547,"name":"Saline Ioniche","admin3":"080053","localeAltName":null},{"geonameid":8949841,"name":"Sambatello","admin3":"080063","localeAltName":null},{"geonameid":2523459,"name":"Samo","admin3":"080070","localeAltName":null},{"geonameid":2523514,"name":"San Carlo-Condofuri Marina","admin3":"080029","localeAltName":null},{"geonameid":2523498,"name":"San Ferdinando","admin3":"080097","localeAltName":null},{"geonameid":2523472,"name":"San Giorgio Morgeto","admin3":"080071","localeAltName":null},{"geonameid":2523463,"name":"San Giovanni di Gerace","admin3":"080072","localeAltName":null},{"geonameid":2523436,"name":"San Luca","admin3":"080074","localeAltName":null},{"geonameid":2523421,"name":"San Martino","admin3":"080093","localeAltName":null},{"geonameid":8949784,"name":"San Nicola","admin3":"080034","localeAltName":null},{"geonameid":2523402,"name":"San Pantaleone","admin3":"080073","localeAltName":null},{"geonameid":6535659,"name":"San Pietro di Caridà","admin3":"080075","localeAltName":null},{"geonameid":2523384,"name":"San Procopio","admin3":"080076","localeAltName":null},{"geonameid":6535660,"name":"Sant'Agata del Bianco","admin3":"080079","localeAltName":null},{"geonameid":2523266,"name":"Sant'Eufemia d'Aspromonte","admin3":"080081","localeAltName":null},{"geonameid":2523365,"name":"Santa Cristina d'Aspromonte","admin3":"080078","localeAltName":null},{"geonameid":2523248,"name":"Santo Stefano in Aspromonte","admin3":"080083","localeAltName":null},{"geonameid":2523190,"name":"Scido","admin3":"080084","localeAltName":null},{"geonameid":2523187,"name":"Scilla","admin3":"080085","localeAltName":null},{"geonameid":2523162,"name":"Seminara","admin3":"080086","localeAltName":null},{"geonameid":2523144,"name":"Serrata","admin3":"080087","localeAltName":null},{"geonameid":2523113,"name":"Siderno","admin3":"080088","localeAltName":null},{"geonameid":2523086,"name":"Sinopoli","admin3":"080089","localeAltName":null},{"geonameid":2523068,"name":"Solano Inferiore","admin3":"080007","localeAltName":null},{"geonameid":2523067,"name":"Solano Superiore","admin3":"080085","localeAltName":null},{"geonameid":8949807,"name":"Spina","admin3":"080065","localeAltName":null},{"geonameid":2522999,"name":"Stignano","admin3":"080091","localeAltName":null},{"geonameid":2522997,"name":"Stilo","admin3":"080092","localeAltName":null},{"geonameid":2522971,"name":"Taurianova","admin3":"080093","localeAltName":null},{"geonameid":2522947,"name":"Terreti","admin3":"080063","localeAltName":null},{"geonameid":2522852,"name":"Tritanti","admin3":"080046","localeAltName":null},{"geonameid":2522846,"name":"Trunca","admin3":"080063","localeAltName":null},{"geonameid":2522795,"name":"Varapodio","admin3":"080095","localeAltName":null},{"geonameid":8950249,"name":"Vasì","admin3":"080025","localeAltName":null},{"geonameid":2522730,"name":"Villa San Giovanni","admin3":"080096","localeAltName":null},{"geonameid":8693131,"name":"Weather Station","admin3":"080014","localeAltName":null}],"admin3":[{"geonameid":2523532,"name":"Samo","admin3":"080070","localeAltName":null},{"geonameid":2525507,"name":"Brancaleone","admin3":"080014","localeAltName":null},{"geonameid":2525514,"name":"Bovalino","admin3":"080012","localeAltName":null},{"geonameid":6537705,"name":"Antonimina","admin3":"080004","localeAltName":null},{"geonameid":6537706,"name":"Bova Marina","admin3":"080013","localeAltName":null},{"geonameid":6537707,"name":"Candidoni","admin3":"080019"},{"geonameid":6537708,"name":"Casignana","admin3":"080024","localeAltName":null},{"geonameid":6537709,"name":"Condofuri","admin3":"080029","localeAltName":null},{"geonameid":6537710,"name":"Delianuova","admin3":"080031","localeAltName":null},{"geonameid":6537711,"name":"Feroleto della Chiesa","admin3":"080032","localeAltName":null},{"geonameid":6537712,"name":"Ferruzzano","admin3":"080033","localeAltName":null},{"geonameid":6537713,"name":"Laureana di Borrello","admin3":"080042","localeAltName":null},{"geonameid":6537714,"name":"Melicucco","admin3":"080049","localeAltName":null},{"geonameid":6537715,"name":"Molochio","admin3":"080051","localeAltName":null},{"geonameid":6537716,"name":"Pazzano","admin3":"080058","localeAltName":null},{"geonameid":6537717,"name":"Placanica","admin3":"080059","localeAltName":null},{"geonameid":6537718,"name":"Platì","admin3":"080060","localeAltName":null},{"geonameid":6537719,"name":"Roccella Ionica","admin3":"080067","localeAltName":null},{"geonameid":6537720,"name":"San Giovanni di Gerace","admin3":"080072","localeAltName":null},{"geonameid":6537721,"name":"San Roberto","admin3":"080077","localeAltName":null},{"geonameid":6537722,"name":"Scilla","admin3":"080085","localeAltName":null},{"geonameid":6537723,"name":"Seminara","admin3":"080086","localeAltName":null},{"geonameid":6537724,"name":"Staiti","admin3":"080090"},{"geonameid":6537725,"name":"Stignano","admin3":"080091","localeAltName":null},{"geonameid":6537726,"name":"Stilo","admin3":"080092","localeAltName":null},{"geonameid":6537727,"name":"Taurianova","admin3":"080093","localeAltName":null},{"geonameid":6537728,"name":"Varapodio","admin3":"080095","localeAltName":null},{"geonameid":6539093,"name":"Agnana Calabra","admin3":"080002","localeAltName":null},{"geonameid":6539094,"name":"Bagnara Calabra","admin3":"080007","localeAltName":null},{"geonameid":6539095,"name":"Calanna","admin3":"080016"},{"geonameid":6539096,"name":"Camini","admin3":"080017"},{"geonameid":6539097,"name":"Cardeto","admin3":"080022"},{"geonameid":6539098,"name":"Caulonia","admin3":"080025","localeAltName":null},{"geonameid":6539099,"name":"Locri","admin3":"080043","localeAltName":null},{"geonameid":6539100,"name":"Mammola","admin3":"080044","localeAltName":null},{"geonameid":6539101,"name":"Martone","admin3":"080047","localeAltName":null},{"geonameid":6539102,"name":"Montebello Jonico","admin3":"080053","localeAltName":null},{"geonameid":6539103,"name":"Motta San Giovanni","admin3":"080054","localeAltName":null},{"geonameid":6539104,"name":"Rizziconi","admin3":"080065","localeAltName":null},{"geonameid":6539105,"name":"San Procopio","admin3":"080076","localeAltName":null},{"geonameid":6539106,"name":"Santa Cristina d'Aspromonte","admin3":"080078","localeAltName":null},{"geonameid":6539107,"name":"Serrata","admin3":"080087","localeAltName":null},{"geonameid":6539108,"name":"Sinopoli","admin3":"080089","localeAltName":null},{"geonameid":6539857,"name":"Ardore","admin3":"080005","localeAltName":null},{"geonameid":6539858,"name":"Bianco","admin3":"080009","localeAltName":null},{"geonameid":6539859,"name":"Gioia Tauro","admin3":"080038","localeAltName":null},{"geonameid":6539860,"name":"Melicuccà","admin3":"080048","localeAltName":null},{"geonameid":6539861,"name":"Monasterace","admin3":"080052","localeAltName":null},{"geonameid":6539862,"name":"San Lorenzo","admin3":"080073","localeAltName":null},{"geonameid":6539863,"name":"San Luca","admin3":"080074","localeAltName":null},{"geonameid":6540044,"name":"Canolo","admin3":"080020"},{"geonameid":6540045,"name":"Cittanova","admin3":"080028","localeAltName":null},{"geonameid":6540046,"name":"Gerace","admin3":"080036","localeAltName":null},{"geonameid":6540047,"name":"Palizzi","admin3":"080056","localeAltName":null},{"geonameid":6540048,"name":"San Ferdinando","admin3":"080097","localeAltName":null},{"geonameid":6540809,"name":"Bagaladi","admin3":"080006","localeAltName":null},{"geonameid":6540810,"name":"Benestare","admin3":"080008","localeAltName":null},{"geonameid":6540811,"name":"Careri","admin3":"080023","localeAltName":null},{"geonameid":6540812,"name":"Cinquefrondi","admin3":"080027","localeAltName":null},{"geonameid":6540813,"name":"Galatro","admin3":"080035","localeAltName":null},{"geonameid":6540814,"name":"Gioiosa Ionica","admin3":"080039","localeAltName":null},{"geonameid":6540815,"name":"Laganadi","admin3":"080041"},{"geonameid":6540816,"name":"Rosarno","admin3":"080069","localeAltName":null},{"geonameid":6540817,"name":"Sant'Eufemia d'Aspromonte","admin3":"080081","localeAltName":null},{"geonameid":6540818,"name":"Scido","admin3":"080084","localeAltName":null},{"geonameid":6540819,"name":"Siderno","admin3":"080088","localeAltName":null},{"geonameid":6540820,"name":"Villa San Giovanni","admin3":"080096","localeAltName":null},{"geonameid":6541311,"name":"Caraffa del Bianco","admin3":"080021","localeAltName":null},{"geonameid":6541312,"name":"Cosoleto","admin3":"080030"},{"geonameid":6541313,"name":"Marina di Gioiosa Ionica","admin3":"080045","localeAltName":null},{"geonameid":6541314,"name":"Melito di Porto Salvo","admin3":"080050","localeAltName":null},{"geonameid":6541315,"name":"Polistena","admin3":"080061","localeAltName":null},{"geonameid":6541316,"name":"Portigliola","admin3":"080062"},{"geonameid":6541317,"name":"San Giorgio Morgeto","admin3":"080071","localeAltName":null},{"geonameid":6541318,"name":"Sant'Alessio in Aspromonte","admin3":"080080"},{"geonameid":6541319,"name":"Terranova Sappo Minulio","admin3":"080094"},{"geonameid":6541580,"name":"Anoia","admin3":"080003","localeAltName":null},{"geonameid":6541754,"name":"Bivongi","admin3":"080010","localeAltName":null},{"geonameid":6541755,"name":"Ciminà","admin3":"080026","localeAltName":null},{"geonameid":6541756,"name":"Palmi","admin3":"080057","localeAltName":null},{"geonameid":6541757,"name":"Roccaforte del Greco","admin3":"080066","localeAltName":null},{"geonameid":6541758,"name":"Santo Stefano in Aspromonte","admin3":"080083","localeAltName":null},{"geonameid":6541955,"name":"Bruzzano Zeffirio","admin3":"080015","localeAltName":null},{"geonameid":6541956,"name":"Giffone","admin3":"080037","localeAltName":null},{"geonameid":6541957,"name":"Grotteria","admin3":"080040","localeAltName":null},{"geonameid":6542270,"name":"Sant'Ilario dello Ionio","admin3":"080082","localeAltName":null},{"geonameid":6542287,"name":"Reggio di Calabria","admin3":"080063","localeAltName":null},{"geonameid":6542804,"name":"Africo","admin3":"080001","localeAltName":null},{"geonameid":6542805,"name":"Fiumara","admin3":"080034","localeAltName":null},{"geonameid":6542806,"name":"Roghudi","admin3":"080068","localeAltName":null},{"geonameid":6543304,"name":"Bova","admin3":"080011"},{"geonameid":6543634,"name":"Campo Calabro","admin3":"080018","localeAltName":null},{"geonameid":6543635,"name":"Maropati","admin3":"080046","localeAltName":null},{"geonameid":6543636,"name":"Oppido Mamertina","admin3":"080055","localeAltName":null},{"geonameid":6543637,"name":"Riace","admin3":"080064","localeAltName":null},{"geonameid":6543638,"name":"San Pietro di Caridà","admin3":"080075","localeAltName":null},{"geonameid":6543639,"name":"Sant'Agata del Bianco","admin3":"080079","localeAltName":null}],"alternateNames":[{"alternatenameId":1182940,"geonameid":2523629,"isoLanguage":"it","alternateName":"Reggio Calabria","isPreferredName":true,"isShortName":true,"isColloquial":false,"isHistoric":false},{"alternatenameId":1638199,"geonameid":2523630,"isoLanguage":"it","alternateName":"Reggio Calabria","isPreferredName":true,"isShortName":true,"isColloquial":false,"isHistoric":false},{"alternatenameId":1621273,"geonameid":2525468,"isoLanguage":"it","alternateName":"Calabria","isPreferredName":true,"isShortName":true,"isColloquial":false,"isHistoric":false}]},"__N_SSG":true}