{"pageProps":{"locale":"en","admin2":{"geonameid":5773664,"name":"Davis County","country":"US","admin1":"UT","admin2":"011","admin3":"","latitude":"40.9906100","longitude":"-112.1112400","localeAltName":null},"admin1":{"geonameid":5549030,"name":"Utah","admin1":"UT","localeAltName":"Utah"},"locations":[{"geonameid":5771826,"name":"Bountiful","admin3":"","localeAltName":null},{"geonameid":5772654,"name":"Centerville","admin3":"","localeAltName":null},{"geonameid":5772959,"name":"Clearfield","admin3":"","localeAltName":null},{"geonameid":5773001,"name":"Clinton","admin3":"","localeAltName":null},{"geonameid":5774662,"name":"Farmington","admin3":"","localeAltName":null},{"geonameid":5775035,"name":"Fruit Heights","admin3":"","localeAltName":null},{"geonameid":8604999,"name":"Hill Air Force Base","admin3":"","localeAltName":null},{"geonameid":5776715,"name":"Kaysville","admin3":"","localeAltName":null},{"geonameid":5777107,"name":"Layton","admin3":"","localeAltName":null},{"geonameid":5779068,"name":"North Salt Lake","admin3":"","localeAltName":null},{"geonameid":5781809,"name":"South Weber","admin3":"","localeAltName":null},{"geonameid":5782320,"name":"Sunset","admin3":"","localeAltName":null},{"geonameid":5782391,"name":"Syracuse","admin3":"","localeAltName":null},{"geonameid":5784504,"name":"West Bountiful","admin3":"","localeAltName":null},{"geonameid":5784580,"name":"West Point","admin3":"","localeAltName":null},{"geonameid":5785116,"name":"Woods Cross","admin3":"","localeAltName":null}],"admin3":[{"geonameid":11788432,"name":"City of North Salt Lake","admin3":"11788432"},{"geonameid":11788578,"name":"City of West Point","admin3":"11788578"},{"geonameid":11788858,"name":"City of Layton","admin3":"11788858"},{"geonameid":11788894,"name":"City of Farmington","admin3":"11788894"},{"geonameid":11788925,"name":"City of Clearfield","admin3":"11788925"}],"alternateNames":[{"alternatenameId":2089567,"geonameid":5549030,"isoLanguage":"en","alternateName":"Utah","isPreferredName":true,"isShortName":true,"isColloquial":false,"isHistoric":false}]},"__N_SSG":true}