{"pageProps":{"locale":"en","admin2":{"geonameid":2641455,"name":"Norfolk","country":"GB","admin1":"ENG","admin2":"I9","admin3":"","latitude":"52.6666700","longitude":"1.0000000"},"admin1":{"geonameid":6269131,"name":"England","admin1":"ENG"},"locations":[{"geonameid":2657704,"name":"Acle"},{"geonameid":2657569,"name":"Alburgh"},{"geonameid":2657554,"name":"Aldeby"},{"geonameid":2657550,"name":"Alderford"},{"geonameid":2657435,"name":"Alpington"},{"geonameid":2657301,"name":"Anmer"},{"geonameid":2657260,"name":"Antingham"},{"geonameid":2657055,"name":"Arminghall"},{"geonameid":2656948,"name":"Ashill"},{"geonameid":2656936,"name":"Ashmanhaugh"},{"geonameid":2656909,"name":"Ashwellthorpe"},{"geonameid":2648756,"name":"Ashwicken"},{"geonameid":2656897,"name":"Aslacton"},{"geonameid":2656836,"name":"Attleborough"},{"geonameid":2656835,"name":"Attlebridge"},{"geonameid":2656714,"name":"Aylmerton"},{"geonameid":2656713,"name":"Aylsham"},{"geonameid":2656670,"name":"Baconsthorpe"},{"geonameid":2656667,"name":"Bacton"},{"geonameid":2656630,"name":"Bagthorpe"},{"geonameid":2656393,"name":"Banham"},{"geonameid":11592760,"name":"Barford"},{"geonameid":2656313,"name":"Barmer"},{"geonameid":10794241,"name":"Barney"},{"geonameid":10377098,"name":"Barton Bendish"},{"geonameid":10244592,"name":"Bastwick"},{"geonameid":2656150,"name":"Bawburgh"},{"geonameid":2656149,"name":"Bawdeswell"},{"geonameid":2656029,"name":"Beachamwell"},{"geonameid":2656040,"name":"Bedingham"},{"geonameid":2656015,"name":"Beeston"},{"geonameid":2656010,"name":"Beeston St Lawrence"},{"geonameid":2656007,"name":"Beetley"},{"geonameid":9884149,"name":"Belaugh Green"},{"geonameid":9884150,"name":"Belaugh Village"},{"geonameid":2655936,"name":"Belton"},{"geonameid":2655810,"name":"Besthorpe"},{"geonameid":10377349,"name":"Bexwell"},{"geonameid":2655665,"name":"Billingford"},{"geonameid":8223947,"name":"Billingford"},{"geonameid":2655641,"name":"Binham"},{"geonameid":2655634,"name":"Bintree"},{"geonameid":2655631,"name":"Bircham Newton"},{"geonameid":10377180,"name":"Blackborough"},{"geonameid":10377181,"name":"Blackborough End"},{"geonameid":2655384,"name":"Blakeney"},{"geonameid":2655347,"name":"Blickling"},{"geonameid":2655335,"name":"Blofield"},{"geonameid":2655275,"name":"Bodham"},{"geonameid":2655270,"name":"Bodney"},{"geonameid":11593102,"name":"Boughton"},{"geonameid":6620355,"name":"Bowthorpe"},{"geonameid":11919781,"name":"Bradwell"},{"geonameid":2654931,"name":"Bramerton"},{"geonameid":2654917,"name":"Brampton"},{"geonameid":2654903,"name":"Brancaster"},{"geonameid":8198688,"name":"Brancaster Staithe"},{"geonameid":2654893,"name":"Brandon Creek"},{"geonameid":2654820,"name":"Breckles"},{"geonameid":2654776,"name":"Bressingham"},{"geonameid":2654769,"name":"Brettenham"},{"geonameid":2654733,"name":"Bridgham"},{"geonameid":2654678,"name":"Brisley"},{"geonameid":2654673,"name":"Briston"},{"geonameid":2654616,"name":"Brockdish"},{"geonameid":2654567,"name":"Brooke"},{"geonameid":2654461,"name":"Brundall"},{"geonameid":2654417,"name":"Buckenham"},{"geonameid":2654322,"name":"Bunwell"},{"geonameid":2654297,"name":"Burgh next Aylsham"},{"geonameid":2654296,"name":"Burgh Saint Margaret"},{"geonameid":2654295,"name":"Burgh St Peter"},{"geonameid":2654273,"name":"Burnham Deepdale"},{"geonameid":2654271,"name":"Burnham Market"},{"geonameid":2654267,"name":"Burnham Thorpe"},{"geonameid":2654222,"name":"Burston"},{"geonameid":2654142,"name":"Buxton"},{"geonameid":2654044,"name":"Caister-on-Sea"},{"geonameid":2654042,"name":"Caistor Saint Edmunds"},{"geonameid":2653874,"name":"Cantley"},{"geonameid":2653828,"name":"Carbrooke"},{"geonameid":2653614,"name":"Castle Acre"},{"geonameid":2653556,"name":"Castle Rising"},{"geonameid":2653531,"name":"Caston"},{"geonameid":2653519,"name":"Catfield"},{"geonameid":2653465,"name":"Cawston"},{"geonameid":2653278,"name":"Chedgrave"},{"geonameid":2652914,"name":"Claxton"},{"geonameid":2652876,"name":"Clenchwarton"},{"geonameid":2652856,"name":"Cley next the Sea"},{"geonameid":2652824,"name":"Clippesby"},{"geonameid":2652667,"name":"Cockley Cley"},{"geonameid":9269720,"name":"Cockthorpe"},{"geonameid":2652575,"name":"Colkirk"},{"geonameid":2652540,"name":"Colney"},{"geonameid":2652525,"name":"Coltishall"},{"geonameid":2652524,"name":"Colton"},{"geonameid":10377092,"name":"Colveston"},{"geonameid":2652349,"name":"Corpusty"},{"geonameid":2652289,"name":"Costessey"},{"geonameid":2652074,"name":"Cranwich"},{"geonameid":2651971,"name":"Cringleford"},{"geonameid":2651930,"name":"Cromer"},{"geonameid":9883918,"name":"Crostwright"},{"geonameid":2651823,"name":"Croxton"},{"geonameid":2651824,"name":"Croxton"},{"geonameid":2651353,"name":"Denver"},{"geonameid":2651324,"name":"Dersingham"},{"geonameid":2651271,"name":"Dickleburgh"},{"geonameid":2651266,"name":"Didlington"},{"geonameid":2651259,"name":"Dilham"},{"geonameid":2651214,"name":"Diss"},{"geonameid":2651210,"name":"Ditchingham"},{"geonameid":2651188,"name":"Docking"},{"geonameid":2651030,"name":"Downham Market"},{"geonameid":2651001,"name":"Drayton"},{"geonameid":10377095,"name":"Drymere"},{"geonameid":2650554,"name":"Earlham"},{"geonameid":2650530,"name":"Earsham"},{"geonameid":2650500,"name":"East Barsham"},{"geonameid":2650486,"name":"East Carleton"},{"geonameid":2650470,"name":"East Dereham"},{"geonameid":2650424,"name":"East Harling"},{"geonameid":2650395,"name":"East Lexham"},{"geonameid":2650348,"name":"East Raynham"},{"geonameid":2650343,"name":"East Rudham"},{"geonameid":12047211,"name":"East Runton"},{"geonameid":9883901,"name":"East Ruston"},{"geonameid":11611148,"name":"East Somerton"},{"geonameid":2650323,"name":"East Tuddenham"},{"geonameid":2650318,"name":"East Walton"},{"geonameid":2650312,"name":"East Winch"},{"geonameid":2650303,"name":"East Wretham"},{"geonameid":11592772,"name":"Easton"},{"geonameid":2650279,"name":"Eccles"},{"geonameid":2650234,"name":"Edgefield"},{"geonameid":2650220,"name":"Edingthorpe"},{"geonameid":2650094,"name":"Ellingham"},{"geonameid":2650056,"name":"Elsing"},{"geonameid":2650007,"name":"Emneth"},{"geonameid":2649926,"name":"Erpingham"},{"geonameid":2649730,"name":"Fakenham"},{"geonameid":2649584,"name":"Felbrigg"},{"geonameid":2649577,"name":"Felmingham"},{"geonameid":11593190,"name":"Felthorpe"},{"geonameid":2649568,"name":"Feltwell"},{"geonameid":2649510,"name":"Fersfield"},{"geonameid":2649464,"name":"Filby"},{"geonameid":2649446,"name":"Fincham"},{"geonameid":2649297,"name":"Flitcham"},{"geonameid":2649278,"name":"Flordon"},{"geonameid":2649196,"name":"Forncett St Mary"},{"geonameid":2649149,"name":"Foulden"},{"geonameid":2649139,"name":"Foulsham"},{"geonameid":11592724,"name":"Foxley"},{"geonameid":2649080,"name":"Freethorpe"},{"geonameid":11593198,"name":"Frettenham"},{"geonameid":2649035,"name":"Fritton"},{"geonameid":2649036,"name":"Fritton"},{"geonameid":2648991,"name":"Fulmodeston"},{"geonameid":2648883,"name":"Garboldisham"},{"geonameid":2648794,"name":"Garveston"},{"geonameid":11593283,"name":"Garvestone"},{"geonameid":2648784,"name":"Gasthorpe"},{"geonameid":2648776,"name":"Gateley"},{"geonameid":11592632,"name":"Gayton"},{"geonameid":2648753,"name":"Gayton Thorpe"},{"geonameid":2648752,"name":"Gaywood"},{"geonameid":2648731,"name":"Geldeston"},{"geonameid":2648640,"name":"Gimingham"},{"geonameid":2648620,"name":"Gissing"},{"geonameid":2648334,"name":"Gooderstone"},{"geonameid":2648299,"name":"Gorleston-on-Sea"},{"geonameid":2648159,"name":"Great Bircham"},{"geonameid":2648128,"name":"Great Cressingham"},{"geonameid":2648118,"name":"Great Dunham"},{"geonameid":2648111,"name":"Great Ellingham"},{"geonameid":2648103,"name":"Great Fransham"},{"geonameid":2648061,"name":"Great Massingham"},{"geonameid":2648040,"name":"Great Palgrave"},{"geonameid":2648036,"name":"Great Plumstead"},{"geonameid":2648030,"name":"Great Ryburgh"},{"geonameid":2648019,"name":"Great Snoring"},{"geonameid":12047694,"name":"Great Walsingham"},{"geonameid":2647984,"name":"Great Yarmouth"},{"geonameid":11887923,"name":"Gresham"},{"geonameid":2647875,"name":"Grimston"},{"geonameid":2647854,"name":"Griston"},{"geonameid":2647796,"name":"Guestwick"},{"geonameid":2647685,"name":"Haddiscoe"},{"geonameid":2647653,"name":"Hainford"},{"geonameid":2647640,"name":"Hales"},{"geonameid":10244583,"name":"Hall Common"},{"geonameid":2647592,"name":"Halvergate"},{"geonameid":8714367,"name":"Hanworth"},{"geonameid":2647512,"name":"Happisburgh"},{"geonameid":9883909,"name":"Happisburgh Common"},{"geonameid":11593056,"name":"Hapton"},{"geonameid":2647498,"name":"Hardingham"},{"geonameid":2647490,"name":"Hardwick"},{"geonameid":2647467,"name":"Harleston"},{"geonameid":2647447,"name":"Harpley"},{"geonameid":2647242,"name":"Heacham"},{"geonameid":11593297,"name":"Hedenham"},{"geonameid":2647174,"name":"Helhoughton"},{"geonameid":2647170,"name":"Hellesdon"},{"geonameid":9884613,"name":"Hellington"},{"geonameid":2647129,"name":"Hempnall"},{"geonameid":2647124,"name":"Hempstead"},{"geonameid":2647123,"name":"Hemsby"},{"geonameid":2647023,"name":"Hethersett"},{"geonameid":2647013,"name":"Hevingham"},{"geonameid":2647003,"name":"Heydon"},{"geonameid":2646992,"name":"Hickling"},{"geonameid":10103796,"name":"High Green"},{"geonameid":2646912,"name":"Hilborough"},{"geonameid":2646903,"name":"Hilgay"},{"geonameid":2646894,"name":"Hillington"},{"geonameid":2646859,"name":"Hindolveston"},{"geonameid":2646857,"name":"Hindringham"},{"geonameid":2646856,"name":"Hingham"},{"geonameid":2646818,"name":"Hockering"},{"geonameid":2646816,"name":"Hockham"},{"geonameid":2646812,"name":"Hockwold cum Wilton"},{"geonameid":2646802,"name":"Hoe"},{"geonameid":2646759,"name":"Holkham"},{"geonameid":2646726,"name":"Holme Hale"},{"geonameid":2646722,"name":"Holme next the Sea"},{"geonameid":2646701,"name":"Holt"},{"geonameid":2646668,"name":"Homersfield"},{"geonameid":2646664,"name":"Honing"},{"geonameid":2646663,"name":"Honingham"},{"geonameid":2646620,"name":"Hopton on Sea"},{"geonameid":2646588,"name":"Horning"},{"geonameid":2646561,"name":"Horsey"},{"geonameid":2646559,"name":"Horsford"},{"geonameid":2646556,"name":"Horsham St Faith"},{"geonameid":2646551,"name":"Horstead"},{"geonameid":2646527,"name":"Houghton"},{"geonameid":2646522,"name":"Houghton Saint Giles"},{"geonameid":9884148,"name":"Hoveton"},{"geonameid":2646403,"name":"Hunstanton"},{"geonameid":2646375,"name":"Hunworth"},{"geonameid":2646307,"name":"Ickburgh"},{"geonameid":2646269,"name":"Illington"},{"geonameid":2646203,"name":"Ingoldisthorpe"},{"geonameid":2646196,"name":"Ingworth"},{"geonameid":2645995,"name":"Itteringham"},{"geonameid":9539001,"name":"Ivy Todd"},{"geonameid":2645865,"name":"Kelling"},{"geonameid":2645805,"name":"Kenninghall"},{"geonameid":2645757,"name":"Keswick"},{"geonameid":2645746,"name":"Kettlestone"},{"geonameid":2645544,"name":"Kilverstone"},{"geonameid":2645540,"name":"Kimberley"},{"geonameid":2645456,"name":"King's Lynn"},{"geonameid":2645165,"name":"Knapton"},{"geonameid":11551006,"name":"Lakenham"},{"geonameid":11072644,"name":"Lamas"},{"geonameid":2644931,"name":"Langham"},{"geonameid":2644851,"name":"Larling"},{"geonameid":2644617,"name":"Lenwade"},{"geonameid":2644599,"name":"Lessingham"},{"geonameid":2644591,"name":"Letheringsett"},{"geonameid":2644451,"name":"Lingwood"},{"geonameid":2644389,"name":"Litcham"},{"geonameid":2644377,"name":"Little Barningham"},{"geonameid":2644335,"name":"Little Dunham"},{"geonameid":10103797,"name":"Little Hale"},{"geonameid":2644316,"name":"Little Hautbois"},{"geonameid":2644290,"name":"Little Massingham"},{"geonameid":11593325,"name":"Little Melton"},{"geonameid":2644269,"name":"Little Plumstead"},{"geonameid":2644260,"name":"Little Ryburgh"},{"geonameid":2644250,"name":"Little Snoring"},{"geonameid":2644230,"name":"Little Walsingham"},{"geonameid":2643783,"name":"Loddon"},{"geonameid":2643628,"name":"Long Stratton"},{"geonameid":2643683,"name":"Longham"},{"geonameid":9883907,"name":"Low Street"},{"geonameid":2643426,"name":"Ludham"},{"geonameid":10377090,"name":"Lynford"},{"geonameid":2643293,"name":"Lyng"},{"geonameid":2643041,"name":"Marham"},{"geonameid":2643006,"name":"Marlingford"},{"geonameid":2642986,"name":"Marsham"},{"geonameid":2642959,"name":"Martham"},{"geonameid":2642905,"name":"Mattishall"},{"geonameid":2642898,"name":"Mautby"},{"geonameid":2642764,"name":"Melton Constable"},{"geonameid":2642702,"name":"Merton"},{"geonameid":2642689,"name":"Methwold"},{"geonameid":2642596,"name":"Middleton"},{"geonameid":2642540,"name":"Mileham"},{"geonameid":2642177,"name":"Morston"},{"geonameid":2642120,"name":"Moulton St Michael"},{"geonameid":2641997,"name":"Mulbarton"},{"geonameid":2641966,"name":"Mundesley"},{"geonameid":2641965,"name":"Mundford"},{"geonameid":12022017,"name":"Mundham"},{"geonameid":10244601,"name":"Mustard Hyrn"},{"geonameid":2641883,"name":"Narborough"},{"geonameid":2641880,"name":"Narford"},{"geonameid":2641840,"name":"Neatishead"},{"geonameid":2641839,"name":"Neaton"},{"geonameid":2641833,"name":"Necton"},{"geonameid":2641829,"name":"Needham"},{"geonameid":2641694,"name":"New Buckenham"},{"geonameid":2641631,"name":"New Hunstanton"},{"geonameid":11592627,"name":"Newton Flotman"},{"geonameid":2641459,"name":"Nordelph"},{"geonameid":2641424,"name":"North Barsham"},{"geonameid":2641411,"name":"North Burlingham"},{"geonameid":2641382,"name":"North Creake"},{"geonameid":2641370,"name":"North Elmham"},{"geonameid":2641312,"name":"North Lopham"},{"geonameid":2641282,"name":"North Pickenham"},{"geonameid":2641270,"name":"North Runcton"},{"geonameid":2641241,"name":"North Tuddenham"},{"geonameid":2641233,"name":"North Walsham"},{"geonameid":2641213,"name":"North Wootton"},{"geonameid":2641278,"name":"Northrepps"},{"geonameid":2641218,"name":"Northwold"},{"geonameid":2641181,"name":"Norwich"},{"geonameid":2641037,"name":"Old Buckenham"},{"geonameid":11611171,"name":"Old Catton"},{"geonameid":2640912,"name":"Ormesby St Margaret"},{"geonameid":2640828,"name":"Oulton"},{"geonameid":2640781,"name":"Outwell"},{"geonameid":2640766,"name":"Overstrand"},{"geonameid":2640752,"name":"Ovington"},{"geonameid":2640737,"name":"Oxborough"},{"geonameid":2640639,"name":"Panxworth"},{"geonameid":2640583,"name":"Paston"},{"geonameid":9883908,"name":"Pennygate"},{"geonameid":2640200,"name":"Plumstead"},{"geonameid":10103840,"name":"Plumstead Green"},{"geonameid":2640090,"name":"Poringland"},{"geonameid":6947736,"name":"Postwick"},{"geonameid":2639973,"name":"Potter Heigham"},{"geonameid":6930001,"name":"Pulham Market"},{"geonameid":2639859,"name":"Pulham Saint Mary Magdalene"},{"geonameid":2639861,"name":"Pulham St Mary"},{"geonameid":2639858,"name":"Pulham St Mary the Virgin"},{"geonameid":2639770,"name":"Quidenham"},{"geonameid":2639736,"name":"Rackheath"},{"geonameid":10103836,"name":"Rackheath Industrial Estate"},{"geonameid":2639636,"name":"Ranworth"},{"geonameid":2639519,"name":"Reedham"},{"geonameid":2639512,"name":"Reepham"},{"geonameid":10244594,"name":"Repps"},{"geonameid":8714336,"name":"Repps-with-Bastwick"},{"geonameid":9883920,"name":"Ridlington"},{"geonameid":9883904,"name":"Ridlkington Street"},{"geonameid":2639345,"name":"Ringland"},{"geonameid":2639336,"name":"Ringstead"},{"geonameid":11593382,"name":"Rockland All Saints"},{"geonameid":9884612,"name":"Rockland Saint Mary"},{"geonameid":2639245,"name":"Rockland St Peter"},{"geonameid":2639206,"name":"Rollesby"},{"geonameid":2639068,"name":"Roudham"},{"geonameid":2639066,"name":"Rougham"},{"geonameid":2639063,"name":"Roughton"},{"geonameid":2639019,"name":"Roydon"},{"geonameid":6693057,"name":"Roydon"},{"geonameid":2638959,"name":"Runcton Holme"},{"geonameid":2638958,"name":"Runham"},{"geonameid":2638945,"name":"Rushford"},{"geonameid":9538997,"name":"Saham Hills"},{"geonameid":6950995,"name":"Saham Toney"},{"geonameid":9538999,"name":"Saham Waite"},{"geonameid":2638667,"name":"Salhouse"},{"geonameid":2638661,"name":"Sall"},{"geonameid":2638638,"name":"Salthouse"},{"geonameid":2638559,"name":"Sandringham"},{"geonameid":10794240,"name":"Saxlingham"},{"geonameid":2638466,"name":"Saxlingham Nethergate"},{"geonameid":2638465,"name":"Saxlingham Thorpe"},{"geonameid":2638461,"name":"Saxthorpe"},{"geonameid":2638379,"name":"Scole"},{"geonameid":2638345,"name":"Scoulton"},{"geonameid":2638325,"name":"Sculthorpe"},{"geonameid":2640669,"name":"Sea Palling"},{"geonameid":2638257,"name":"Sedgeford"},{"geonameid":2638251,"name":"Seething"},{"geonameid":2638197,"name":"Setchey"},{"geonameid":10244595,"name":"Sharp Street"},{"geonameid":2638116,"name":"Sharrington"},{"geonameid":2638070,"name":"Shelfanger"},{"geonameid":2638056,"name":"Shelton"},{"geonameid":2638019,"name":"Sheringham"},{"geonameid":2638015,"name":"Shernborne"},{"geonameid":2637973,"name":"Shimpling"},{"geonameid":10377096,"name":"Shingham"},{"geonameid":2637962,"name":"Shipdham"},{"geonameid":2637910,"name":"Shotesham All Saints"},{"geonameid":2637909,"name":"Shotesham Saint Mary"},{"geonameid":2637897,"name":"Shouldham"},{"geonameid":2637896,"name":"Shouldham Thorpe"},{"geonameid":2637888,"name":"Shropham"},{"geonameid":2637857,"name":"Sidestrand"},{"geonameid":2637621,"name":"Smallburgh"},{"geonameid":2637582,"name":"Snetterton"},{"geonameid":2637580,"name":"Snettisham"},{"geonameid":2637491,"name":"South Acre"},{"geonameid":2637446,"name":"South Creake"},{"geonameid":2637381,"name":"South Lopham"},{"geonameid":2637345,"name":"South Pickenham"},{"geonameid":2637341,"name":"South Raynham"},{"geonameid":2637301,"name":"South Walsham"},{"geonameid":2637275,"name":"South Wootton"},{"geonameid":2637469,"name":"Southburgh"},{"geonameid":2637427,"name":"Southery"},{"geonameid":9613019,"name":"Southgate"},{"geonameid":11593415,"name":"Southrepps"},{"geonameid":2637309,"name":"Southtown"},{"geonameid":2637256,"name":"Sparham"},{"geonameid":2637214,"name":"Spixworth"},{"geonameid":2637207,"name":"Spooner Row"},{"geonameid":2637205,"name":"Sporle"},{"geonameid":2637181,"name":"Sprowston"},{"geonameid":7289871,"name":"St Johns Fen End"},{"geonameid":11152945,"name":"St Olaves"},{"geonameid":2637110,"name":"Stalham"},{"geonameid":6695271,"name":"Stalham Green"},{"geonameid":2637091,"name":"Stanford"},{"geonameid":2637079,"name":"Stanhoe"},{"geonameid":9884088,"name":"Starston"},{"geonameid":2636927,"name":"Stibbard"},{"geonameid":2636921,"name":"Stiffkey"},{"geonameid":2636877,"name":"Stockton"},{"geonameid":7280465,"name":"Stody"},{"geonameid":2636857,"name":"Stoke Ferry"},{"geonameid":2636849,"name":"Stoke Holy Cross"},{"geonameid":2636831,"name":"Stokesby"},{"geonameid":10377348,"name":"Stow Bardolph"},{"geonameid":2636758,"name":"Stow Bedon"},{"geonameid":2636757,"name":"Stowbridge"},{"geonameid":2636736,"name":"Stradsett"},{"geonameid":11126124,"name":"Stratton Strawless"},{"geonameid":9884606,"name":"Surlingham"},{"geonameid":2636496,"name":"Sutton"},{"geonameid":2636464,"name":"Swaffham"},{"geonameid":2636460,"name":"Swafield"},{"geonameid":2636458,"name":"Swainsthorpe"},{"geonameid":2636435,"name":"Swannington"},{"geonameid":2636430,"name":"Swanton Abbot"},{"geonameid":11593460,"name":"Swanton Morley"},{"geonameid":2636424,"name":"Swardeston"},{"geonameid":2636355,"name":"Syderstone"},{"geonameid":2636182,"name":"Tatterford"},{"geonameid":2636181,"name":"Tattersett"},{"geonameid":6693611,"name":"Taverham"},{"geonameid":2636091,"name":"Terrington Saint John"},{"geonameid":2636092,"name":"Terrington St Clement"},{"geonameid":12088961,"name":"Testerton"},{"geonameid":11821012,"name":"Thelveton"},{"geonameid":2636035,"name":"Themelthorpe"},{"geonameid":2636032,"name":"Thetford"},{"geonameid":2636013,"name":"Thompson"},{"geonameid":2635986,"name":"Thornham"},{"geonameid":10103841,"name":"Thorpe End"},{"geonameid":6615542,"name":"Thorpe Hamlet"},{"geonameid":6951043,"name":"Thorpe Market"},{"geonameid":2635946,"name":"Thorpe St Andrew"},{"geonameid":11071407,"name":"Three Score"},{"geonameid":2635920,"name":"Threxton"},{"geonameid":9538998,"name":"Threxton Hill"},{"geonameid":2635899,"name":"Thurgarton"},{"geonameid":2635890,"name":"Thurlton"},{"geonameid":10244586,"name":"Thurne"},{"geonameid":2635886,"name":"Thurning"},{"geonameid":2635883,"name":"Thursford"},{"geonameid":2635876,"name":"Thurton"},{"geonameid":2635875,"name":"Thuxton"},{"geonameid":2635873,"name":"Thwaite"},{"geonameid":2635865,"name":"Tibenham"},{"geonameid":2635817,"name":"Tilney Saint Lawrence"},{"geonameid":2635769,"name":"Titchwell"},{"geonameid":2635764,"name":"Tittleshall"},{"geonameid":2635759,"name":"Tivetshall St Margaret"},{"geonameid":2635738,"name":"Toft Monks"},{"geonameid":7289872,"name":"Tottenhill"},{"geonameid":2635605,"name":"Tottington"},{"geonameid":2635462,"name":"Trimingham"},{"geonameid":2635424,"name":"Trowse Newton"},{"geonameid":2635413,"name":"Trunch"},{"geonameid":2635322,"name":"Tuttington"},{"geonameid":10377099,"name":"Upper Marham"},{"geonameid":2635094,"name":"Upton"},{"geonameid":2635078,"name":"Upwell"},{"geonameid":2634929,"name":"Wacton"},{"geonameid":2634901,"name":"Walcott"},{"geonameid":2634857,"name":"Walpole"},{"geonameid":2634856,"name":"Walpole Saint Andrew"},{"geonameid":2634855,"name":"Walpole Saint Peter"},{"geonameid":2634848,"name":"Walsoken"},{"geonameid":2634771,"name":"Warham"},{"geonameid":2634696,"name":"Waterden"},{"geonameid":2634670,"name":"Watlington"},{"geonameid":2634662,"name":"Watton"},{"geonameid":2634643,"name":"Waxham"},{"geonameid":9883906,"name":"Wayford"},{"geonameid":2634629,"name":"Weasenham"},{"geonameid":2634603,"name":"Weeting"},{"geonameid":2634597,"name":"Welborne"},{"geonameid":2634577,"name":"Wellingham"},{"geonameid":2634567,"name":"Wells-next-the-Sea"},{"geonameid":2634564,"name":"Welney"},{"geonameid":2634539,"name":"Wendling"},{"geonameid":2634522,"name":"Wereham"},{"geonameid":2634517,"name":"West Acre"},{"geonameid":2634504,"name":"West Barsham"},{"geonameid":2634501,"name":"West Beckham"},{"geonameid":2634454,"name":"West Dereham"},{"geonameid":2634495,"name":"West End"},{"geonameid":2634364,"name":"West Lexham"},{"geonameid":6947737,"name":"West Lynn"},{"geonameid":2634283,"name":"West Raynham"},{"geonameid":2634278,"name":"West Rudham"},{"geonameid":2634276,"name":"West Runton"},{"geonameid":2637525,"name":"West Somerton"},{"geonameid":2634248,"name":"West Tofts"},{"geonameid":2634242,"name":"West Walton"},{"geonameid":11592734,"name":"West Winch"},{"geonameid":2634206,"name":"Weybourne"},{"geonameid":9883910,"name":"Whimpwell Green"},{"geonameid":2634146,"name":"Whissonsett"},{"geonameid":2634037,"name":"Whitington"},{"geonameid":2634000,"name":"Whitwell"},{"geonameid":2633970,"name":"Wickhampton"},{"geonameid":2633947,"name":"Wiggenhall Saint Germans"},{"geonameid":2633946,"name":"Wiggenhall St Peter"},{"geonameid":2633938,"name":"Wighton"},{"geonameid":2633922,"name":"Wilby"},{"geonameid":10377347,"name":"Wimbotsham"},{"geonameid":2633835,"name":"Winfarthing"},{"geonameid":2633787,"name":"Winterton-on-Sea"},{"geonameid":2633750,"name":"Witchingham"},{"geonameid":7522014,"name":"Witton"},{"geonameid":2633725,"name":"Witton"},{"geonameid":9883905,"name":"Witton Bridge"},{"geonameid":2633716,"name":"Wiveton"},{"geonameid":2633702,"name":"Wolferton"},{"geonameid":2633662,"name":"Wood Dalling"},{"geonameid":2633628,"name":"Wood Norton"},{"geonameid":2633626,"name":"Woodrising"},{"geonameid":2633617,"name":"Woodton"},{"geonameid":2633542,"name":"Wormegay"},{"geonameid":2633528,"name":"Worstead"},{"geonameid":2633520,"name":"Worthing"},{"geonameid":2633503,"name":"Wramplingham"},{"geonameid":11592761,"name":"Wreningham"},{"geonameid":2633472,"name":"Wroxham"},{"geonameid":2633446,"name":"Wymondham"},{"geonameid":2633401,"name":"Yaxham"},{"geonameid":2633381,"name":"Yelverton"}],"admin3":[{"geonameid":2654645,"name":"Broadland","admin3":"33UC"},{"geonameid":7290594,"name":"Breckland District","admin3":"33UB"},{"geonameid":7290595,"name":"Great Yarmouth District","admin3":"33UD"},{"geonameid":7290596,"name":"King's Lynn and West Norfolk District","admin3":"33UE"},{"geonameid":7290597,"name":"North Norfolk District","admin3":"33UF"},{"geonameid":7290598,"name":"Norwich District","admin3":"33UG"},{"geonameid":7290599,"name":"South Norfolk District","admin3":"33UH"}],"alternateNames":[]},"__N_SSG":true}