{"pageProps":{"locale":"de","locations":[{"geonameid":2959773,"name":"Abtsbessingen","admin3":"16065","localeAltName":null},{"geonameid":2959174,"name":"Ahlstädt","admin3":"16069","localeAltName":null},{"geonameid":2958713,"name":"Albersdorf","admin3":"16074","localeAltName":null},{"geonameid":2958480,"name":"Alkersleben","admin3":"16070","localeAltName":null},{"geonameid":2958443,"name":"Allendorf","admin3":"16073","localeAltName":null},{"geonameid":2958180,"name":"Alperstedt","admin3":"16068","localeAltName":null},{"geonameid":2957830,"name":"Altenberga","admin3":"16074","localeAltName":null},{"geonameid":2957823,"name":"Altenbeuthen","admin3":"16073","localeAltName":null},{"geonameid":2957773,"name":"Altenburg","admin3":"16077","localeAltName":null},{"geonameid":2957701,"name":"Altenfeld","admin3":"16070","localeAltName":null},{"geonameid":2957678,"name":"Altengottern","admin3":"16064","localeAltName":null},{"geonameid":2957327,"name":"Altersbach","admin3":"16066","localeAltName":null},{"geonameid":2957073,"name":"Altkirchen","admin3":"16077","localeAltName":null},{"geonameid":2956239,"name":"Andenhausen","admin3":"16066","localeAltName":null},{"geonameid":2956179,"name":"Andisleben","admin3":"16068","localeAltName":null},{"geonameid":2956143,"name":"Angelroda","admin3":"16070","localeAltName":null},{"geonameid":2955939,"name":"Anrode","admin3":"16064","localeAltName":null},{"geonameid":2955787,"name":"Apfelstädt","admin3":"16067","localeAltName":null},{"geonameid":2955770,"name":"Apolda","admin3":"16071","localeAltName":null},{"geonameid":2955633,"name":"Arenshausen","admin3":"16061","localeAltName":null},{"geonameid":2955451,"name":"Arnsgereuth","admin3":"16073","localeAltName":null},{"geonameid":2955439,"name":"Arnstadt","admin3":"16070","localeAltName":null},{"geonameid":2955394,"name":"Artern","admin3":"16065","localeAltName":null},{"geonameid":2955194,"name":"Aschenhausen","admin3":"16066","localeAltName":null},{"geonameid":2955095,"name":"Aspach","admin3":"16067","localeAltName":null},{"geonameid":2954539,"name":"Auerstedt","admin3":"16071","localeAltName":null},{"geonameid":2954069,"name":"Auleben","admin3":"16062","localeAltName":null},{"geonameid":2954048,"name":"Auma","admin3":"16076","localeAltName":null},{"geonameid":2953666,"name":"Bachfeld","admin3":"16072","localeAltName":null},{"geonameid":2953548,"name":"Bad Berka","admin3":"16071","localeAltName":null},{"geonameid":2953541,"name":"Bad Blankenburg","admin3":"16073","localeAltName":null},{"geonameid":2953459,"name":"Bad Frankenhausen","admin3":"16065","localeAltName":null},{"geonameid":2953421,"name":"Bad Klosterlausnitz","admin3":"16074","localeAltName":null},{"geonameid":2953417,"name":"Bad Köstritz","admin3":"16076","localeAltName":null},{"geonameid":2953413,"name":"Bad Langensalza","admin3":"16064","localeAltName":null},{"geonameid":2953409,"name":"Bad Liebenstein","admin3":"16063","localeAltName":null},{"geonameid":2876721,"name":"Bad Lobenstein","admin3":"16075","localeAltName":null},{"geonameid":2953357,"name":"Bad Salzungen","admin3":"16063","localeAltName":null},{"geonameid":2953330,"name":"Bad Sulza","admin3":"16071","localeAltName":null},{"geonameid":2953325,"name":"Bad Tennstedt","admin3":"16064","localeAltName":null},{"geonameid":2953377,"name":"Badra","admin3":"16065","localeAltName":null},{"geonameid":2953038,"name":"Ballstädt","admin3":"16067","localeAltName":null},{"geonameid":2953037,"name":"Ballstedt","admin3":"16071","localeAltName":null},{"geonameid":2952833,"name":"Barchfeld","admin3":"16071","localeAltName":null},{"geonameid":2952161,"name":"Bauerbach","admin3":"16066","localeAltName":null},{"geonameid":2951754,"name":"Bechstedt","admin3":"16073","localeAltName":null},{"geonameid":2951753,"name":"Bechstedtstraß","admin3":"16071","localeAltName":null},{"geonameid":2951454,"name":"Behringen","admin3":"16070","localeAltName":null},{"geonameid":2951447,"name":"Behrungen","admin3":"16066","localeAltName":null},{"geonameid":2951441,"name":"Beichlingen","admin3":"16068","localeAltName":null},{"geonameid":2951325,"name":"Beinerstadt","admin3":"16069","localeAltName":null},{"geonameid":2951177,"name":"Bellstedt","admin3":"16065","localeAltName":null},{"geonameid":2951165,"name":"Belrieth","admin3":"16066","localeAltName":null},{"geonameid":2951120,"name":"Bendeleben","admin3":"16065","localeAltName":null},{"geonameid":2950979,"name":"Benshausen","admin3":"16066","localeAltName":null},{"geonameid":2950697,"name":"Berga","admin3":"16076","localeAltName":null},{"geonameid":2950205,"name":"Berkach","admin3":"16066","localeAltName":null},{"geonameid":2950139,"name":"Berlingerode","admin3":"16061","localeAltName":null},{"geonameid":2950132,"name":"Berlstedt","admin3":"16071","localeAltName":null},{"geonameid":2950126,"name":"Bermbach","admin3":"16066","localeAltName":null},{"geonameid":2949762,"name":"Bethenhausen","admin3":"16076","localeAltName":null},{"geonameid":2949363,"name":"Bibra","admin3":"16074","localeAltName":null},{"geonameid":2949364,"name":"Bibra","admin3":"16066","localeAltName":null},{"geonameid":2949130,"name":"Bienstädt","admin3":"16067","localeAltName":null},{"geonameid":2948874,"name":"Bilzingsleben","admin3":"16068","localeAltName":null},{"geonameid":2948588,"name":"Birkenfelde","admin3":"16061","localeAltName":null},{"geonameid":2948422,"name":"Birkigt","admin3":"16073","localeAltName":null},{"geonameid":2948345,"name":"Birx","admin3":"16066","localeAltName":null},{"geonameid":2948305,"name":"Bischofferode","admin3":"16061","localeAltName":null},{"geonameid":2948301,"name":"Bischofrod","admin3":"16069","localeAltName":null},{"geonameid":2948300,"name":"Bischofroda","admin3":"16063","localeAltName":null},{"geonameid":2948072,"name":"Blankenburg","admin3":"16064","localeAltName":null},{"geonameid":2948058,"name":"Blankenhain","admin3":"16071","localeAltName":null},{"geonameid":2947837,"name":"Bleicherode","admin3":"16062","localeAltName":null},{"geonameid":2947471,"name":"Bobeck","admin3":"16074","localeAltName":null},{"geonameid":3207454,"name":"Bocka","admin3":"16076","localeAltName":null},{"geonameid":2947380,"name":"Bockelnhagen","admin3":"16061","localeAltName":null},{"geonameid":2947226,"name":"Bockstadt","admin3":"16069","localeAltName":null},{"geonameid":2947168,"name":"Bodelwitz","admin3":"16075","localeAltName":null},{"geonameid":2946982,"name":"Böhlen","admin3":"16070","localeAltName":null},{"geonameid":2946686,"name":"Bollberg","admin3":"16074","localeAltName":null},{"geonameid":2946117,"name":"Bornhagen","admin3":"16061","localeAltName":null},{"geonameid":2945952,"name":"Borxleben","admin3":"16065","localeAltName":null},{"geonameid":2945857,"name":"Bösleben-Wüllersleben","admin3":"16070","localeAltName":null},{"geonameid":2945800,"name":"Bothenheilingen","admin3":"16064","localeAltName":null},{"geonameid":2945561,"name":"Brahmenau","admin3":"16076","localeAltName":null},{"geonameid":2945060,"name":"Braunichswalde","admin3":"16076","localeAltName":null},{"geonameid":2945020,"name":"Braunsdorf","admin3":"16076","localeAltName":null},{"geonameid":2944834,"name":"Brehme","admin3":"16061","localeAltName":null},{"geonameid":2944710,"name":"Breitenbach","admin3":"16066","localeAltName":null},{"geonameid":2944596,"name":"Breitenhain","admin3":"16075","localeAltName":null},{"geonameid":2944516,"name":"Breitenworbis","admin3":"16061","localeAltName":null},{"geonameid":2944440,"name":"Breitungen","admin3":"16066","localeAltName":null},{"geonameid":2944323,"name":"Bremsnitz","admin3":"16074","localeAltName":null},{"geonameid":2944208,"name":"Bretleben","admin3":"16065","localeAltName":null},{"geonameid":2943697,"name":"Brotterode","admin3":"16066","localeAltName":null},{"geonameid":2943558,"name":"Bruchstedt","admin3":"16064","localeAltName":null},{"geonameid":2943322,"name":"Brüheim","admin3":"16067","localeAltName":null},{"geonameid":2943207,"name":"Brünn","admin3":"16069","localeAltName":null},{"geonameid":2942819,"name":"Bucha","admin3":"16074","localeAltName":null},{"geonameid":2942820,"name":"Bucha","admin3":"16075","localeAltName":null},{"geonameid":2942680,"name":"Büchel","admin3":"16068","localeAltName":null},{"geonameid":2942476,"name":"Buchfart","admin3":"16071","localeAltName":null},{"geonameid":2942048,"name":"Bufleben","admin3":"16067","localeAltName":null},{"geonameid":2941965,"name":"Buhla","admin3":"16061","localeAltName":null},{"geonameid":2941401,"name":"Bürgel","admin3":"16074","localeAltName":null},{"geonameid":2941226,"name":"Burgk","admin3":"16075","localeAltName":null},{"geonameid":2941078,"name":"Burgwalde","admin3":"16061","localeAltName":null},{"geonameid":2940622,"name":"Buttelstedt","admin3":"16071","localeAltName":null},{"geonameid":2940529,"name":"Buttlar","admin3":"16063","localeAltName":null},{"geonameid":2940518,"name":"Buttstädt","admin3":"16068","localeAltName":null},{"geonameid":2940516,"name":"Büttstedt","admin3":"16061","localeAltName":null},{"geonameid":2940436,"name":"Caaschwitz","admin3":"16076","localeAltName":null},{"geonameid":2940377,"name":"Camburg","admin3":"16074","localeAltName":null},{"geonameid":2940097,"name":"Christes","admin3":"16066","localeAltName":null},{"geonameid":2940033,"name":"Chursdorf","admin3":"16075","localeAltName":null},{"geonameid":2939972,"name":"Clingen","admin3":"16065","localeAltName":null},{"geonameid":2939770,"name":"Crawinkel","admin3":"16067","localeAltName":null},{"geonameid":2939754,"name":"Creuzburg","admin3":"16063","localeAltName":null},{"geonameid":2939748,"name":"Crimla","admin3":"16076","localeAltName":null},{"geonameid":2939742,"name":"Crispendorf","admin3":"16075","localeAltName":null},{"geonameid":2939665,"name":"Cursdorf","admin3":"16073","localeAltName":null},{"geonameid":2939649,"name":"Daasdorf","admin3":"16071","localeAltName":null},{"geonameid":2939510,"name":"Dachwig","admin3":"16067","localeAltName":null},{"geonameid":2939009,"name":"Dankmarshausen","admin3":"16063","localeAltName":null},{"geonameid":2938593,"name":"Deesbach","admin3":"16073","localeAltName":null},{"geonameid":2938075,"name":"Dermbach","admin3":"16063","localeAltName":null},{"geonameid":2937860,"name":"Deuna","admin3":"16061","localeAltName":null},{"geonameid":2937552,"name":"Diedorf","admin3":"16063","localeAltName":null},{"geonameid":2937155,"name":"Dieterode","admin3":"16061","localeAltName":null},{"geonameid":2937036,"name":"Dietzenrode","admin3":"16061","localeAltName":null},{"geonameid":2936966,"name":"Dillstädt","admin3":"16066","localeAltName":null},{"geonameid":2936933,"name":"Dingelstädt","admin3":"16061","localeAltName":null},{"geonameid":2936904,"name":"Dingsleben","admin3":"16069","localeAltName":null},{"geonameid":2936857,"name":"Dippach","admin3":"16063","localeAltName":null},{"geonameid":2936738,"name":"Dittersdorf","admin3":"16075","localeAltName":null},{"geonameid":2936600,"name":"Dobitschen","admin3":"16077","localeAltName":null},{"geonameid":2936552,"name":"Döbritschen","admin3":"16071","localeAltName":null},{"geonameid":2936550,"name":"Döbritz","admin3":"16075","localeAltName":null},{"geonameid":2936331,"name":"Döllstädt","admin3":"16067","localeAltName":null},{"geonameid":2936233,"name":"Donndorf","admin3":"16065","localeAltName":null},{"geonameid":2935741,"name":"Dornburg","admin3":"16074","localeAltName":null},{"geonameid":2935729,"name":"Dorndorf","admin3":"16063","localeAltName":null},{"geonameid":2935693,"name":"Dornheim","admin3":"16070","localeAltName":null},{"geonameid":2935485,"name":"Döschnitz","admin3":"16073","localeAltName":null},{"geonameid":2935369,"name":"Dragensdorf","admin3":"16075","localeAltName":null},{"geonameid":2935305,"name":"Dreba","admin3":"16075","localeAltName":null},{"geonameid":2935063,"name":"Dreitzsch","admin3":"16075","localeAltName":null},{"geonameid":2934921,"name":"Dröbischau","admin3":"16073","localeAltName":null},{"geonameid":2934907,"name":"Drogen","admin3":"16077","localeAltName":null},{"geonameid":2934895,"name":"Drognitz","admin3":"16073","localeAltName":null},{"geonameid":2934097,"name":"Ebeleben","admin3":"16065","localeAltName":null},{"geonameid":2934056,"name":"Ebenheim","admin3":"16067","localeAltName":null},{"geonameid":2934032,"name":"Ebenshausen","admin3":"16063","localeAltName":null},{"geonameid":2933889,"name":"Eberstedt","admin3":"16071","localeAltName":null},{"geonameid":2933543,"name":"Ecklingerode","admin3":"16061","localeAltName":null},{"geonameid":2933524,"name":"Eckstedt","admin3":"16068","localeAltName":null},{"geonameid":2933297,"name":"Effelder","admin3":"16061","localeAltName":null},{"geonameid":2932343,"name":"Eichenberg","admin3":"16074","localeAltName":null},{"geonameid":2932344,"name":"Eichenberg","admin3":"16069","localeAltName":null},{"geonameid":2932061,"name":"Eichstruth","admin3":"16061","localeAltName":null},{"geonameid":2931795,"name":"Eineborn","admin3":"16074","localeAltName":null},{"geonameid":2931752,"name":"Einhausen","admin3":"16066","localeAltName":null},{"geonameid":2931574,"name":"Eisenach","admin3":"16056","localeAltName":null},{"geonameid":2931521,"name":"Eisenberg","admin3":"16074","localeAltName":null},{"geonameid":2931433,"name":"Eisfeld","admin3":"16069","localeAltName":null},{"geonameid":2931171,"name":"Elgersburg","admin3":"16070","localeAltName":null},{"geonameid":2931098,"name":"Elleben","admin3":"16070","localeAltName":null},{"geonameid":2930968,"name":"Ellersleben","admin3":"16068","localeAltName":null},{"geonameid":2930916,"name":"Ellingshausen","admin3":"16066","localeAltName":null},{"geonameid":2930900,"name":"Ellrich","admin3":"16062","localeAltName":null},{"geonameid":2930630,"name":"Elxleben","admin3":"16068","localeAltName":null},{"geonameid":2930631,"name":"Elxleben","admin3":"16070","localeAltName":null},{"geonameid":2930547,"name":"Emleben","admin3":"16067","localeAltName":null},{"geonameid":2930463,"name":"Empfertshausen","admin3":"16063","localeAltName":null},{"geonameid":2930361,"name":"Endschütz","admin3":"16076","localeAltName":null},{"geonameid":2929781,"name":"Erbenhausen","admin3":"16066","localeAltName":null},{"geonameid":2929670,"name":"Erfurt","admin3":"16051","localeAltName":null},{"geonameid":2929314,"name":"Ernstroda","admin3":"16067","localeAltName":null},{"geonameid":2929063,"name":"Eschenbergen","admin3":"16067","localeAltName":null},{"geonameid":2928846,"name":"Esperstedt","admin3":"16065","localeAltName":null},{"geonameid":2928836,"name":"Eßbach","admin3":"16075","localeAltName":null},{"geonameid":2928661,"name":"Ettenhausen","admin3":"16063","localeAltName":null},{"geonameid":2928642,"name":"Ettersburg","admin3":"16071","localeAltName":null},{"geonameid":2928584,"name":"Etzelsrode","admin3":"16062","localeAltName":null},{"geonameid":2928553,"name":"Etzleben","admin3":"16065","localeAltName":null},{"geonameid":2928295,"name":"Exdorf","admin3":"16066","localeAltName":null},{"geonameid":2927850,"name":"Fambach","admin3":"16066","localeAltName":null},{"geonameid":2927125,"name":"Ferna","admin3":"16061","localeAltName":null},{"geonameid":2926688,"name":"Finsterbergen","admin3":"16067","localeAltName":null},{"geonameid":2926371,"name":"Flarchheim","admin3":"16064","localeAltName":null},{"geonameid":2926037,"name":"Flurstedt","admin3":"16071","localeAltName":null},{"geonameid":2926009,"name":"Fockendorf","admin3":"16077","localeAltName":null},{"geonameid":2925890,"name":"Föritz","admin3":"16072","localeAltName":null},{"geonameid":2925617,"name":"Frankendorf","admin3":"16071","localeAltName":null},{"geonameid":2925600,"name":"Frankenhain","admin3":"16070","localeAltName":null},{"geonameid":2925589,"name":"Frankenheim","admin3":"16066","localeAltName":null},{"geonameid":2925561,"name":"Frankenroda","admin3":"16063","localeAltName":null},{"geonameid":2925326,"name":"Frauenprießnitz","admin3":"16074","localeAltName":null},{"geonameid":2925313,"name":"Frauensee","admin3":"16063","localeAltName":null},{"geonameid":2925286,"name":"Frauenwald","admin3":"16070","localeAltName":null},{"geonameid":2925162,"name":"Freienbessingen","admin3":"16065","localeAltName":null},{"geonameid":2925153,"name":"Freienhagen","admin3":"16061","localeAltName":null},{"geonameid":2925147,"name":"Freienorla","admin3":"16074","localeAltName":null},{"geonameid":2924936,"name":"Fretterode","admin3":"16061","localeAltName":null},{"geonameid":2924775,"name":"Friedelshausen","admin3":"16066","localeAltName":null},{"geonameid":2924724,"name":"Friedersdorf","admin3":"16070","localeAltName":null},{"geonameid":2924656,"name":"Friedrichroda","admin3":"16067","localeAltName":null},{"geonameid":2924466,"name":"Friedrichsthal","admin3":"16062","localeAltName":null},{"geonameid":2924437,"name":"Friedrichswerth","admin3":"16067","localeAltName":null},{"geonameid":2924412,"name":"Friemar","admin3":"16067","localeAltName":null},{"geonameid":2924242,"name":"Frohnsdorf","admin3":"16077","localeAltName":null},{"geonameid":2924214,"name":"Frömmstedt","admin3":"16068","localeAltName":null},{"geonameid":2924128,"name":"Fröttstädt","admin3":"16067","localeAltName":null},{"geonameid":2922737,"name":"Gamstädt","admin3":"16067","localeAltName":null},{"geonameid":2922711,"name":"Gangloffsömmern","admin3":"16068","localeAltName":null},{"geonameid":2922284,"name":"Gauern","admin3":"16076","localeAltName":null},{"geonameid":2922177,"name":"Gebesee","admin3":"16068","localeAltName":null},{"geonameid":2922140,"name":"Gebstedt","admin3":"16071","localeAltName":null},{"geonameid":2922039,"name":"Gehlberg","admin3":"16054","localeAltName":null},{"geonameid":2922014,"name":"Gehofen","admin3":"16065","localeAltName":null},{"geonameid":2921996,"name":"Gehren","admin3":"16070","localeAltName":null},{"geonameid":2921816,"name":"Geisa","admin3":"16063","localeAltName":null},{"geonameid":2921711,"name":"Geisenhain","admin3":"16074","localeAltName":null},{"geonameid":2921664,"name":"Geisleden","admin3":"16061","localeAltName":null},{"geonameid":2921642,"name":"Geismar","admin3":"16061","localeAltName":null},{"geonameid":2921261,"name":"Georgenthal","admin3":"16067","localeAltName":null},{"geonameid":2921232,"name":"Gera","admin3":"16052","localeAltName":null},{"geonameid":2921228,"name":"Geraberg","admin3":"16070","localeAltName":null},{"geonameid":2921179,"name":"Gerbershausen","admin3":"16061","localeAltName":null},{"geonameid":2921000,"name":"Gernrode","admin3":"16061","localeAltName":null},{"geonameid":2920988,"name":"Geroda","admin3":"16075","localeAltName":null},{"geonameid":2920908,"name":"Gerstenberg","admin3":"16077","localeAltName":null},{"geonameid":2920903,"name":"Gerstengrund","admin3":"16066","localeAltName":null},{"geonameid":2920883,"name":"Gerstungen","admin3":"16063","localeAltName":null},{"geonameid":2920873,"name":"Gerterode","admin3":"16061","localeAltName":null},{"geonameid":2920872,"name":"Gertewitz","admin3":"16075","localeAltName":null},{"geonameid":2920837,"name":"Geschwenda","admin3":"16070","localeAltName":null},{"geonameid":2920581,"name":"Gierstädt","admin3":"16067","localeAltName":null},{"geonameid":2920410,"name":"Gillersdorf","admin3":"16070","localeAltName":null},{"geonameid":2920161,"name":"Glasehausen","admin3":"16061","localeAltName":null},{"geonameid":2920002,"name":"Gleichamberg","admin3":"16069","localeAltName":null},{"geonameid":3207470,"name":"Gneus","admin3":"16074","localeAltName":null},{"geonameid":2919480,"name":"Göhren","admin3":"16077","localeAltName":null},{"geonameid":2919473,"name":"Göhren-Döhlen","admin3":"16076","localeAltName":null},{"geonameid":2919436,"name":"Goldbach","admin3":"16071","localeAltName":null},{"geonameid":2919292,"name":"Goldisthal","admin3":"16072","localeAltName":null},{"geonameid":2919223,"name":"Göllingen","admin3":"16065","localeAltName":null},{"geonameid":2919210,"name":"Göllnitz","admin3":"16077","localeAltName":null},{"geonameid":2919189,"name":"Golmsdorf","admin3":"16074","localeAltName":null},{"geonameid":2919129,"name":"Gompertshausen","admin3":"16069","localeAltName":null},{"geonameid":2919073,"name":"Göpfersdorf","admin3":"16077","localeAltName":null},{"geonameid":2918990,"name":"Görkwitz","admin3":"16075","localeAltName":null},{"geonameid":2918942,"name":"Görsbach","admin3":"16062","localeAltName":null},{"geonameid":2918926,"name":"Gorsleben","admin3":"16065","localeAltName":null},{"geonameid":2918884,"name":"Göschitz","admin3":"16075","localeAltName":null},{"geonameid":2918858,"name":"Gösen","admin3":"16074","localeAltName":null},{"geonameid":2918818,"name":"Gossel","admin3":"16070","localeAltName":null},{"geonameid":2918787,"name":"Gössitz","admin3":"16075","localeAltName":null},{"geonameid":2918770,"name":"Gößnitz","admin3":"16077","localeAltName":null},{"geonameid":2918766,"name":"Goßwitz","admin3":"16073","localeAltName":null},{"geonameid":2918752,"name":"Gotha","admin3":"16067","localeAltName":null},{"geonameid":2918393,"name":"Grabsleben","admin3":"16067","localeAltName":null},{"geonameid":2918323,"name":"Gräfenhain","admin3":"16067","localeAltName":null},{"geonameid":2918282,"name":"Gräfenroda","admin3":"16070","localeAltName":null},{"geonameid":2918194,"name":"Graitschen","admin3":"16074","localeAltName":null},{"geonameid":2917737,"name":"Greiz","admin3":"16076","localeAltName":null},{"geonameid":2917579,"name":"Greußen","admin3":"16065","localeAltName":null},{"geonameid":2917484,"name":"Griefstedt","admin3":"16068","localeAltName":null},{"geonameid":2917312,"name":"Grimmelshausen","admin3":"16069","localeAltName":null},{"geonameid":2917226,"name":"Grobengereuth","admin3":"16075","localeAltName":null},{"geonameid":2917002,"name":"Großbartloff","admin3":"16061","localeAltName":null},{"geonameid":2916954,"name":"Großbockedra","admin3":"16074","localeAltName":null},{"geonameid":2916949,"name":"Großbodungen","admin3":"16061","localeAltName":null},{"geonameid":2916926,"name":"Großbreitenbach","admin3":"16070","localeAltName":null},{"geonameid":2916923,"name":"Großbrembach","admin3":"16068","localeAltName":null},{"geonameid":2916643,"name":"Großenehrich","admin3":"16065","localeAltName":null},{"geonameid":2916636,"name":"Großengottern","admin3":"16064","localeAltName":null},{"geonameid":2916586,"name":"Großensee","admin3":"16063","localeAltName":null},{"geonameid":2916581,"name":"Großenstein","admin3":"16076","localeAltName":null},{"geonameid":2915673,"name":"Großeutersdorf","admin3":"16074","localeAltName":null},{"geonameid":2915653,"name":"Großfahner","admin3":"16067","localeAltName":null},{"geonameid":2915520,"name":"Großheringen","admin3":"16071","localeAltName":null},{"geonameid":2915408,"name":"Großkochberg","admin3":"16073","localeAltName":null},{"geonameid":2915317,"name":"Großlöbichau","admin3":"16074","localeAltName":null},{"geonameid":2915255,"name":"Großmölsen","admin3":"16068","localeAltName":null},{"geonameid":2915252,"name":"Großmonra","admin3":"16068","localeAltName":null},{"geonameid":2915231,"name":"Großneuhausen","admin3":"16068","localeAltName":null},{"geonameid":2915213,"name":"Großobringen","admin3":"16071","localeAltName":null},{"geonameid":2915166,"name":"Großpürschütz","admin3":"16074","localeAltName":null},{"geonameid":2915134,"name":"Großröda","admin3":"16077","localeAltName":null},{"geonameid":2915107,"name":"Großrudestedt","admin3":"16068","localeAltName":null},{"geonameid":2915055,"name":"Großschwabhausen","admin3":"16071","localeAltName":null},{"geonameid":2914923,"name":"Großvargula","admin3":"16064","localeAltName":null},{"geonameid":2914660,"name":"Grub","admin3":"16069","localeAltName":null},{"geonameid":2913743,"name":"Gumperda","admin3":"16074","localeAltName":null},{"geonameid":2913627,"name":"Günserode","admin3":"16065","localeAltName":null},{"geonameid":2913625,"name":"Günstedt","admin3":"16068","localeAltName":null},{"geonameid":2913395,"name":"Gutendorf","admin3":"16071","localeAltName":null},{"geonameid":2913357,"name":"Guthmannshausen","admin3":"16068","localeAltName":null},{"geonameid":2912932,"name":"Hachelbich","admin3":"16065","localeAltName":null},{"geonameid":2911910,"name":"Haina","admin3":"16067","localeAltName":null},{"geonameid":2911794,"name":"Hainichen","admin3":"16074","localeAltName":null},{"geonameid":2911778,"name":"Hainrode","admin3":"16062","localeAltName":null},{"geonameid":2911767,"name":"Hainspitz","admin3":"16074","localeAltName":null},{"geonameid":2911461,"name":"Hallungen","admin3":"16063","localeAltName":null},{"geonameid":2911233,"name":"Hamma","admin3":"16062","localeAltName":null},{"geonameid":2911077,"name":"Hammerstedt","admin3":"16071","localeAltName":null},{"geonameid":2910624,"name":"Hardisleben","admin3":"16068","localeAltName":null},{"geonameid":2910047,"name":"Hartmannsdorf","admin3":"16074","localeAltName":null},{"geonameid":2909926,"name":"Harzungen","admin3":"16062","localeAltName":null},{"geonameid":2909325,"name":"Haßleben","admin3":"16068","localeAltName":null},{"geonameid":2908863,"name":"Hausen","admin3":"16061","localeAltName":null},{"geonameid":2908696,"name":"Haussömmern","admin3":"16064","localeAltName":null},{"geonameid":2908669,"name":"Hauteroda","admin3":"16065","localeAltName":null},{"geonameid":2908565,"name":"Haynrode","admin3":"16061","localeAltName":null},{"geonameid":2908149,"name":"Heichelheim","admin3":"16071","localeAltName":null},{"geonameid":2907545,"name":"Heilbad Heiligenstadt","admin3":"16061","localeAltName":null},{"geonameid":2906990,"name":"Heldrungen","admin3":"16065","localeAltName":null},{"geonameid":2906790,"name":"Hellingen","admin3":"16069","localeAltName":null},{"geonameid":2906693,"name":"Helmsdorf","admin3":"16061","localeAltName":null},{"geonameid":2906578,"name":"Hemleben","admin3":"16065","localeAltName":null},{"geonameid":2906488,"name":"Henfstädt","admin3":"16069","localeAltName":null},{"geonameid":2906379,"name":"Henneberg","admin3":"16066","localeAltName":null},{"geonameid":2906297,"name":"Henschleben","admin3":"16068","localeAltName":null},{"geonameid":2906185,"name":"Herbsleben","admin3":"16064","localeAltName":null},{"geonameid":2906087,"name":"Heringen","admin3":"16062","localeAltName":null},{"geonameid":2905916,"name":"Hermsdorf","admin3":"16074","localeAltName":null},{"geonameid":2905882,"name":"Heroldishausen","admin3":"16064","localeAltName":null},{"geonameid":2905857,"name":"Herpf","admin3":"16066","localeAltName":null},{"geonameid":2905798,"name":"Herrenhof","admin3":"16067","localeAltName":null},{"geonameid":2905682,"name":"Herrmannsacker","admin3":"16062","localeAltName":null},{"geonameid":2905602,"name":"Herrnschwende","admin3":"16068","localeAltName":null},{"geonameid":2905591,"name":"Herschdorf","admin3":"16075","localeAltName":null},{"geonameid":2905282,"name":"Heßles","admin3":"16066","localeAltName":null},{"geonameid":2905239,"name":"Hetschburg","admin3":"16071","localeAltName":null},{"geonameid":2905017,"name":"Heukewalde","admin3":"16077","localeAltName":null},{"geonameid":2904974,"name":"Heuthen","admin3":"16061","localeAltName":null},{"geonameid":2904909,"name":"Heyerode","admin3":"16064","localeAltName":null},{"geonameid":2904907,"name":"Heyersdorf","admin3":"16077","localeAltName":null},{"geonameid":2904904,"name":"Heygendorf","admin3":"16065","localeAltName":null},{"geonameid":2904817,"name":"Hilbersdorf","admin3":"16076","localeAltName":null},{"geonameid":2904804,"name":"Hildburghausen","admin3":"16069","localeAltName":null},{"geonameid":2904798,"name":"Hildebrandshausen","admin3":"16064","localeAltName":null},{"geonameid":2903662,"name":"Hirschfeld","admin3":"16076","localeAltName":null},{"geonameid":2903179,"name":"Hochheim","admin3":"16051","localeAltName":null},{"geonameid":2901781,"name":"Hohenfelden","admin3":"16071","localeAltName":null},{"geonameid":2901756,"name":"Hohengandern","admin3":"16061","localeAltName":null},{"geonameid":2901658,"name":"Hohenkirchen","admin3":"16067","localeAltName":null},{"geonameid":2901634,"name":"Hohenleuben","admin3":"16076","localeAltName":null},{"geonameid":2901577,"name":"Hohenölsen","admin3":"16076","localeAltName":null},{"geonameid":2901364,"name":"Hohenwarte","admin3":"16073","localeAltName":null},{"geonameid":2900925,"name":"Hohlstedt","admin3":"16071","localeAltName":null},{"geonameid":2900066,"name":"Holungen","admin3":"16061","localeAltName":null},{"geonameid":2899560,"name":"Holzsußra","admin3":"16065","localeAltName":null},{"geonameid":2899194,"name":"Hopfgarten","admin3":"16071","localeAltName":null},{"geonameid":2898771,"name":"Hornsömmern","admin3":"16064","localeAltName":null},{"geonameid":2898697,"name":"Hörselgau","admin3":"16067","localeAltName":null},{"geonameid":2898432,"name":"Hottelstedt","admin3":"16071","localeAltName":null},{"geonameid":2897673,"name":"Hummelshain","admin3":"16074","localeAltName":null},{"geonameid":2897639,"name":"Hümpfershausen","admin3":"16066","localeAltName":null},{"geonameid":2897583,"name":"Hundeshagen","admin3":"16061","localeAltName":null},{"geonameid":2897572,"name":"Hundhaupten","admin3":"16076","localeAltName":null},{"geonameid":2896772,"name":"Ichstedt","admin3":"16065","localeAltName":null},{"geonameid":2896768,"name":"Ichtershausen","admin3":"16070","localeAltName":null},{"geonameid":2896724,"name":"Ifta","admin3":"16063","localeAltName":null},{"geonameid":2896592,"name":"Ilfeld","admin3":"16062","localeAltName":null},{"geonameid":2896514,"name":"Ilmenau","admin3":"16070","localeAltName":null},{"geonameid":2896299,"name":"Immelborn","admin3":"16063","localeAltName":null},{"geonameid":2895995,"name":"Ingersleben","admin3":"16067","localeAltName":null},{"geonameid":2895623,"name":"Isseroda","admin3":"16071","localeAltName":null},{"geonameid":2895622,"name":"Issersheilingen","admin3":"16064","localeAltName":null},{"geonameid":2895044,"name":"Jena","admin3":"16053","localeAltName":null},{"geonameid":2895040,"name":"Jenalöbnitz","admin3":"16074","localeAltName":null},{"geonameid":2894724,"name":"Jonaswalde","admin3":"16077","localeAltName":null},{"geonameid":2894625,"name":"Jüchsen","admin3":"16066","localeAltName":null},{"geonameid":2894621,"name":"Jückelberg","admin3":"16077","localeAltName":null},{"geonameid":2894617,"name":"Judenbach","admin3":"16072","localeAltName":null},{"geonameid":2894390,"name":"Jützenbach","admin3":"16061","localeAltName":null},{"geonameid":2894247,"name":"Kahla","admin3":"16074","localeAltName":null},{"geonameid":2893884,"name":"Kalbsrieth","admin3":"16065","localeAltName":null},{"geonameid":2893723,"name":"Kallmerode","admin3":"16061","localeAltName":null},{"geonameid":2893542,"name":"Kaltenlengsfeld","admin3":"16066","localeAltName":null},{"geonameid":2893534,"name":"Kaltennordheim","admin3":"16066","localeAltName":null},{"geonameid":2893524,"name":"Kaltensundheim","admin3":"16066","localeAltName":null},{"geonameid":2893516,"name":"Kaltenwestheim","admin3":"16066","localeAltName":null},{"geonameid":2893378,"name":"Kammerforst","admin3":"16064","localeAltName":null},{"geonameid":2893255,"name":"Kamsdorf","admin3":"16073","localeAltName":null},{"geonameid":2893212,"name":"Kannawurf","admin3":"16068","localeAltName":null},{"geonameid":2893133,"name":"Kapellendorf","admin3":"16071","localeAltName":null},{"geonameid":2892879,"name":"Karlsdorf","admin3":"16074","localeAltName":null},{"geonameid":2892409,"name":"Katharinenberg","admin3":"16064","localeAltName":null},{"geonameid":2892118,"name":"Katzhütte","admin3":"16073","localeAltName":null},{"geonameid":2892052,"name":"Kaulsdorf","admin3":"16073","localeAltName":null},{"geonameid":2891968,"name":"Kefferhausen","admin3":"16061","localeAltName":null},{"geonameid":2891925,"name":"Kehmstedt","admin3":"16062","localeAltName":null},{"geonameid":2891887,"name":"Keila","admin3":"16075","localeAltName":null},{"geonameid":2891829,"name":"Kella","admin3":"16061","localeAltName":null},{"geonameid":2890919,"name":"Kiliansroda","admin3":"16071","localeAltName":null},{"geonameid":2890880,"name":"Kindelbrück","admin3":"16068","localeAltName":null},{"geonameid":2890513,"name":"Kirchgandern","admin3":"16061","localeAltName":null},{"geonameid":2890490,"name":"Kirchheilingen","admin3":"16064","localeAltName":null},{"geonameid":2890484,"name":"Kirchheim","admin3":"16070","localeAltName":null},{"geonameid":2890329,"name":"Kirchworbis","admin3":"16061","localeAltName":null},{"geonameid":2890235,"name":"Kirschkau","admin3":"16075","localeAltName":null},{"geonameid":2889756,"name":"Kleinbartloff","admin3":"16061","localeAltName":null},{"geonameid":2889704,"name":"Kleinbockedra","admin3":"16074","localeAltName":null},{"geonameid":2889701,"name":"Kleinbodungen","admin3":"16062","localeAltName":null},{"geonameid":2889673,"name":"Kleinbrembach","admin3":"16068","localeAltName":null},{"geonameid":2889572,"name":"Kleinebersdorf","admin3":"16074","localeAltName":null},{"geonameid":2888937,"name":"Kleineutersdorf","admin3":"16074","localeAltName":null},{"geonameid":2888890,"name":"Kleinfurra","admin3":"16062","localeAltName":null},{"geonameid":2888484,"name":"Kleinmölsen","admin3":"16068","localeAltName":null},{"geonameid":2888450,"name":"Kleinneuhausen","admin3":"16068","localeAltName":null},{"geonameid":2888432,"name":"Kleinobringen","admin3":"16071","localeAltName":null},{"geonameid":2855466,"name":"Kleinschmalkalden","admin3":"16066","localeAltName":null},{"geonameid":2888240,"name":"Kleinschwabhausen","admin3":"16071","localeAltName":null},{"geonameid":2888018,"name":"Kleinwelsbach","admin3":"16064","localeAltName":null},{"geonameid":2888015,"name":"Kleinwenden","admin3":"16062","localeAltName":null},{"geonameid":2887857,"name":"Klettbach","admin3":"16071","localeAltName":null},{"geonameid":2887847,"name":"Klettstedt","admin3":"16064","localeAltName":null},{"geonameid":2887691,"name":"Klings","admin3":"16066","localeAltName":null},{"geonameid":2887408,"name":"Kloster Veßra","admin3":"16069","localeAltName":null},{"geonameid":2887247,"name":"Knau","admin3":"16075","localeAltName":null},{"geonameid":2886850,"name":"Ködderitzsch","admin3":"16071","localeAltName":null},{"geonameid":2886363,"name":"Kölleda","admin3":"16068","localeAltName":null},{"geonameid":2885895,"name":"Königsee","admin3":"16073","localeAltName":null},{"geonameid":2885723,"name":"Könitz","admin3":"16073","localeAltName":null},{"geonameid":2885500,"name":"Korbußen","admin3":"16076","localeAltName":null},{"geonameid":2885436,"name":"Körner","admin3":"16064","localeAltName":null},{"geonameid":2885327,"name":"Kospoda","admin3":"16075","localeAltName":null},{"geonameid":2885016,"name":"Kraftsdorf","admin3":"16076","localeAltName":null},{"geonameid":2884868,"name":"Kraja","admin3":"16062","localeAltName":null},{"geonameid":2884761,"name":"Kranichfeld","admin3":"16071","localeAltName":null},{"geonameid":2884628,"name":"Krauthausen","admin3":"16063","localeAltName":null},{"geonameid":2884623,"name":"Krautheim","admin3":"16071","localeAltName":null},{"geonameid":2884141,"name":"Kreuzebra","admin3":"16061","localeAltName":null},{"geonameid":2883987,"name":"Kriebitzsch","admin3":"16077","localeAltName":null},{"geonameid":2883794,"name":"Krölpa","admin3":"16075","localeAltName":null},{"geonameid":2883791,"name":"Krombach","admin3":"16061","localeAltName":null},{"geonameid":3207130,"name":"Kromsdorf","admin3":"16071","localeAltName":null},{"geonameid":2882879,"name":"Kühdorf","admin3":"16076","localeAltName":null},{"geonameid":2882729,"name":"Kühndorf","admin3":"16066","localeAltName":null},{"geonameid":2882597,"name":"Küllstedt","admin3":"16061","localeAltName":null},{"geonameid":2882184,"name":"Kutzleben","admin3":"16064","localeAltName":null},{"geonameid":2882103,"name":"Laasdorf","admin3":"16074","localeAltName":null},{"geonameid":2880960,"name":"Langenorla","admin3":"16075","localeAltName":null},{"geonameid":2880871,"name":"Langenwetzendorf","admin3":"16076","localeAltName":null},{"geonameid":2880864,"name":"Langenwolschendorf","admin3":"16076","localeAltName":null},{"geonameid":2880684,"name":"Langewiesen","admin3":"16070","localeAltName":null},{"geonameid":2880564,"name":"Langula","admin3":"16064","localeAltName":null},{"geonameid":2880230,"name":"Laucha","admin3":"16067","localeAltName":null},{"geonameid":2880211,"name":"Lauchröden","admin3":"16063","localeAltName":null},{"geonameid":2880052,"name":"Lauscha","admin3":"16072","localeAltName":null},{"geonameid":2880005,"name":"Lausnitz","admin3":"16073","localeAltName":null},{"geonameid":2879926,"name":"Lauterbach","admin3":"16063","localeAltName":null},{"geonameid":2879728,"name":"Lederhose","admin3":"16076","localeAltName":null},{"geonameid":2879543,"name":"Lehesten","admin3":"16074","localeAltName":null},{"geonameid":2879391,"name":"Lehnstedt","admin3":"16071","localeAltName":null},{"geonameid":2879260,"name":"Leimbach","admin3":"16063","localeAltName":null},{"geonameid":2879193,"name":"Leinefelde-Worbis","admin3":"16061","localeAltName":null},{"geonameid":2878927,"name":"Lemnitz","admin3":"16075","localeAltName":null},{"geonameid":2878829,"name":"Lengfeld","admin3":"16069","localeAltName":null},{"geonameid":2878760,"name":"Lenterode","admin3":"16061","localeAltName":null},{"geonameid":2878308,"name":"Leutenberg","admin3":"16073","localeAltName":null},{"geonameid":2878298,"name":"Leutenthal","admin3":"16071","localeAltName":null},{"geonameid":2878291,"name":"Leutersdorf","admin3":"16066","localeAltName":null},{"geonameid":2878153,"name":"Lichte","admin3":"16072","localeAltName":null},{"geonameid":2878062,"name":"Lichtenhain","admin3":"16053","localeAltName":null},{"geonameid":2877948,"name":"Liebenstein","admin3":"16070","localeAltName":null},{"geonameid":2877889,"name":"Liebstedt","admin3":"16071","localeAltName":null},{"geonameid":2877607,"name":"Linda","admin3":"16071","localeAltName":null},{"geonameid":2877609,"name":"Linda","admin3":"16076","localeAltName":null},{"geonameid":2877259,"name":"Lindenkreuz","admin3":"16076","localeAltName":null},{"geonameid":2877205,"name":"Lindewerra","admin3":"16061","localeAltName":null},{"geonameid":2877158,"name":"Lindig","admin3":"16074","localeAltName":null},{"geonameid":2876870,"name":"Lipprechterode","admin3":"16062","localeAltName":null},{"geonameid":2876712,"name":"Löberschütz","admin3":"16074","localeAltName":null},{"geonameid":2876708,"name":"Löbichau","admin3":"16077","localeAltName":null},{"geonameid":2876489,"name":"Lödla","admin3":"16077","localeAltName":null},{"geonameid":3207484,"name":"Lohma","admin3":"16071","localeAltName":null},{"geonameid":2875512,"name":"Lucka","admin3":"16077","localeAltName":null},{"geonameid":2875183,"name":"Luisenthal","admin3":"16067","localeAltName":null},{"geonameid":2875138,"name":"Lumpzig","admin3":"16077","localeAltName":null},{"geonameid":2875063,"name":"Lunzig","admin3":"16076","localeAltName":null},{"geonameid":2874842,"name":"Lutter","admin3":"16061","localeAltName":null},{"geonameid":2874556,"name":"Magdala","admin3":"16071","localeAltName":null},{"geonameid":2873865,"name":"Mannstedt","admin3":"16068","localeAltName":null},{"geonameid":2873459,"name":"Marisfeld","admin3":"16069","localeAltName":null},{"geonameid":2873318,"name":"Marksuhl","admin3":"16063","localeAltName":null},{"geonameid":2873303,"name":"Marktgölitz","admin3":"16073","localeAltName":null},{"geonameid":2873276,"name":"Markvippach","admin3":"16068","localeAltName":null},{"geonameid":2873227,"name":"Marolterode","admin3":"16064","localeAltName":null},{"geonameid":2873150,"name":"Marth","admin3":"16061","localeAltName":null},{"geonameid":2873140,"name":"Martinroda","admin3":"16063","localeAltName":null},{"geonameid":2873141,"name":"Martinroda","admin3":"16070","localeAltName":null},{"geonameid":2872980,"name":"Masserberg","admin3":"16069","localeAltName":null},{"geonameid":2872892,"name":"Mattstedt","admin3":"16071","localeAltName":null},{"geonameid":2872617,"name":"Mechelroda","admin3":"16071","localeAltName":null},{"geonameid":2872600,"name":"Mechterstädt","admin3":"16067","localeAltName":null},{"geonameid":2872405,"name":"Mehmels","admin3":"16066","localeAltName":null},{"geonameid":2872403,"name":"Mehna","admin3":"16077","localeAltName":null},{"geonameid":2872225,"name":"Meiningen","admin3":"16066","localeAltName":null},{"geonameid":2872073,"name":"Mellenbach-Glasbach","admin3":"16073","localeAltName":null},{"geonameid":2872057,"name":"Mellingen","admin3":"16071","localeAltName":null},{"geonameid":2872036,"name":"Melpers","admin3":"16066","localeAltName":null},{"geonameid":2871980,"name":"Mendhausen","admin3":"16069","localeAltName":null},{"geonameid":2871958,"name":"Mengersgereuth-Hämmern","admin3":"16072","localeAltName":null},{"geonameid":2871884,"name":"Menteroda","admin3":"16064","localeAltName":null},{"geonameid":2871800,"name":"Merkendorf","admin3":"16076","localeAltName":null},{"geonameid":2871723,"name":"Mertendorf","admin3":"16074","localeAltName":null},{"geonameid":2871593,"name":"Metebach","admin3":"16067","localeAltName":null},{"geonameid":2871516,"name":"Metzels","admin3":"16066","localeAltName":null},{"geonameid":2871458,"name":"Meura","admin3":"16073","localeAltName":null},{"geonameid":2871444,"name":"Meusebach","admin3":"16074","localeAltName":null},{"geonameid":2871441,"name":"Meuselbach","admin3":"16073","localeAltName":null},{"geonameid":2871437,"name":"Meuselwitz","admin3":"16077","localeAltName":null},{"geonameid":2871186,"name":"Miesitz","admin3":"16075","localeAltName":null},{"geonameid":2871166,"name":"Mihla","admin3":"16063","localeAltName":null},{"geonameid":2871147,"name":"Milda","admin3":"16074","localeAltName":null},{"geonameid":2871067,"name":"Milz","admin3":"16069","localeAltName":null},{"geonameid":2870618,"name":"Mittelpöllnitz","admin3":"16075","localeAltName":null},{"geonameid":2870565,"name":"Mittelsömmern","admin3":"16064","localeAltName":null},{"geonameid":2870281,"name":"Möckern","admin3":"16074","localeAltName":null},{"geonameid":2870178,"name":"Mohlsdorf","admin3":"16076","localeAltName":null},{"geonameid":2870147,"name":"Möhrenbach","admin3":"16070","localeAltName":null},{"geonameid":2869964,"name":"Molschleben","admin3":"16067","localeAltName":null},{"geonameid":2869891,"name":"Mönchenholzhausen","admin3":"16071","localeAltName":null},{"geonameid":2869867,"name":"Mönchpfiffel-Nikolausrieth","admin3":"16065","localeAltName":null},{"geonameid":2869749,"name":"Monstab","admin3":"16077","localeAltName":null},{"geonameid":2869167,"name":"Mörsdorf","admin3":"16074","localeAltName":null},{"geonameid":2869025,"name":"Moßbach","admin3":"16075","localeAltName":null},{"geonameid":2868944,"name":"Moxa","admin3":"16075","localeAltName":null},{"geonameid":2867996,"name":"Mühlhausen","admin3":"16064","localeAltName":null},{"geonameid":2867741,"name":"Mülverstedt","admin3":"16064","localeAltName":null},{"geonameid":2867707,"name":"Münchenbernsdorf","admin3":"16076","localeAltName":null},{"geonameid":2866900,"name":"Naundorf","admin3":"16073","localeAltName":null},{"geonameid":2866843,"name":"Nausitz","admin3":"16065","localeAltName":null},{"geonameid":2866842,"name":"Nausnitz","admin3":"16074","localeAltName":null},{"geonameid":2866832,"name":"Nazza","admin3":"16063","localeAltName":null},{"geonameid":2866600,"name":"Neidhartshausen","admin3":"16063","localeAltName":null},{"geonameid":2866100,"name":"Neubrunn","admin3":"16066","localeAltName":null},{"geonameid":2866009,"name":"Neudietendorf","admin3":"16067","localeAltName":null},{"geonameid":2865722,"name":"Neuengönna","admin3":"16074","localeAltName":null},{"geonameid":2865294,"name":"Neugernsdorf","admin3":"16076","localeAltName":null},{"geonameid":2865155,"name":"Neuhaus","admin3":"16070","localeAltName":null},{"geonameid":2865133,"name":"Neuhaus am Rennweg","admin3":"16072","localeAltName":null},{"geonameid":2865053,"name":"Neuhaus-Schierschnitz","admin3":"16072","localeAltName":null},{"geonameid":2864557,"name":"Neumark","admin3":"16071","localeAltName":null},{"geonameid":2864506,"name":"Neumühle","admin3":"16076","localeAltName":null},{"geonameid":2864460,"name":"Neundorf","admin3":"16075","localeAltName":null},{"geonameid":2864446,"name":"Neunheilingen","admin3":"16064","localeAltName":null},{"geonameid":2864142,"name":"Neusiß","admin3":"16070","localeAltName":null},{"geonameid":2864088,"name":"Neustadt","admin3":"16061","localeAltName":null},{"geonameid":2864059,"name":"Neustadt am Rennsteig","admin3":"16070","localeAltName":null},{"geonameid":8354429,"name":"Neustadt an der Orla","admin3":"16075","localeAltName":null},{"geonameid":2863580,"name":"Niederbösa","admin3":"16065","localeAltName":null},{"geonameid":2863516,"name":"Niederdorla","admin3":"16064","localeAltName":null},{"geonameid":2863422,"name":"Niedergebra","admin3":"16062","localeAltName":null},{"geonameid":2863012,"name":"Niederorschel","admin3":"16061","localeAltName":null},{"geonameid":2862965,"name":"Niederreißen","admin3":"16071","localeAltName":null},{"geonameid":2862933,"name":"Niederroßla","admin3":"16071","localeAltName":null},{"geonameid":2862925,"name":"Niedersachswerfen","admin3":"16062","localeAltName":null},{"geonameid":2862697,"name":"Niederzimmern","admin3":"16071","localeAltName":null},{"geonameid":2862406,"name":"Nimritz","admin3":"16075","localeAltName":null},{"geonameid":2862372,"name":"Nirmsdorf","admin3":"16071","localeAltName":null},{"geonameid":2862326,"name":"Nöbdenitz","admin3":"16077","localeAltName":null},{"geonameid":2862322,"name":"Nobitz","admin3":"16077","localeAltName":null},{"geonameid":2862311,"name":"Nöda","admin3":"16068","localeAltName":null},{"geonameid":2862288,"name":"Nohra","admin3":"16062","localeAltName":null},{"geonameid":2862289,"name":"Nohra","admin3":"16071","localeAltName":null},{"geonameid":2861982,"name":"Nordhausen","admin3":"16062","localeAltName":null},{"geonameid":2861970,"name":"Nordheim","admin3":"16066","localeAltName":null},{"geonameid":2861736,"name":"Nottleben","admin3":"16067","localeAltName":null},{"geonameid":3207488,"name":"Oberbodnitz","admin3":"16074","localeAltName":null},{"geonameid":2861227,"name":"Oberbösa","admin3":"16065","localeAltName":null},{"geonameid":2861059,"name":"Oberdorla","admin3":"16064","localeAltName":null},{"geonameid":2860941,"name":"Oberellen","admin3":"16063","localeAltName":null},{"geonameid":2860648,"name":"Obergebra","admin3":"16062","localeAltName":null},{"geonameid":2860505,"name":"Oberhain","admin3":"16073","localeAltName":null},{"geonameid":2860359,"name":"Oberheldrungen","admin3":"16065","localeAltName":null},{"geonameid":2860282,"name":"Oberhof","admin3":"16066","localeAltName":null},{"geonameid":2860099,"name":"Oberkatz","admin3":"16066","localeAltName":null},{"geonameid":2859815,"name":"Obermaßfeld-Grimmenthal","admin3":"16066","localeAltName":null},{"geonameid":2859800,"name":"Obermehler","admin3":"16064","localeAltName":null},{"geonameid":2859473,"name":"Oberoppurg","admin3":"16075","localeAltName":null},{"geonameid":2859345,"name":"Oberreißen","admin3":"16071","localeAltName":null},{"geonameid":2859117,"name":"Oberschönau","admin3":"16066","localeAltName":null},{"geonameid":2858973,"name":"Oberstadt","admin3":"16069","localeAltName":null},{"geonameid":2858636,"name":"Oberweid","admin3":"16066","localeAltName":null},{"geonameid":2858586,"name":"Oberweißbach","admin3":"16073","localeAltName":null},{"geonameid":2857983,"name":"Oechsen","admin3":"16063","localeAltName":null},{"geonameid":2857908,"name":"Oepfershausen","admin3":"16066","localeAltName":null},{"geonameid":2857853,"name":"Oettern","admin3":"16071","localeAltName":null},{"geonameid":2857850,"name":"Oettersdorf","admin3":"16075","localeAltName":null},{"geonameid":2857479,"name":"Olbersleben","admin3":"16068","localeAltName":null},{"geonameid":2857388,"name":"Oldisleben","admin3":"16065","localeAltName":null},{"geonameid":2857328,"name":"Ollendorf","admin3":"16068","localeAltName":null},{"geonameid":2857151,"name":"Oppershausen","admin3":"16064","localeAltName":null},{"geonameid":2857134,"name":"Oppurg","admin3":"16075","localeAltName":null},{"geonameid":2857080,"name":"Orlamünde","admin3":"16074","localeAltName":null},{"geonameid":2856837,"name":"Oßmanstedt","admin3":"16071","localeAltName":null},{"geonameid":3207489,"name":"Osthausen-Wülfershausen","admin3":"16070","localeAltName":null},{"geonameid":2856220,"name":"Ostramondra","admin3":"16068","localeAltName":null},{"geonameid":2856119,"name":"Ottendorf","admin3":"16074","localeAltName":null},{"geonameid":2855681,"name":"Paitzdorf","admin3":"16076","localeAltName":null},{"geonameid":2855333,"name":"Paska","admin3":"16075","localeAltName":null},{"geonameid":2854953,"name":"Pennewitz","admin3":"16070","localeAltName":null},{"geonameid":2854704,"name":"Petersberg","admin3":"16074","localeAltName":null},{"geonameid":2854683,"name":"Petersdorf","admin3":"16062","localeAltName":null},{"geonameid":2854586,"name":"Petriroda","admin3":"16067","localeAltName":null},{"geonameid":2854518,"name":"Peuschen","admin3":"16075","localeAltName":null},{"geonameid":2854296,"name":"Pfaffschwende","admin3":"16061","localeAltName":null},{"geonameid":2854084,"name":"Pferdingsleben","admin3":"16067","localeAltName":null},{"geonameid":2854058,"name":"Pfiffelbach","admin3":"16071","localeAltName":null},{"geonameid":2853799,"name":"Piesau","admin3":"16072","localeAltName":null},{"geonameid":2853716,"name":"Pillingsdorf","admin3":"16075","localeAltName":null},{"geonameid":2853295,"name":"Plaue","admin3":"16070","localeAltName":null},{"geonameid":2853136,"name":"Plothen","admin3":"16075","localeAltName":null},{"geonameid":2852789,"name":"Pölzig","admin3":"16076","localeAltName":null},{"geonameid":2852729,"name":"Ponitz","admin3":"16077","localeAltName":null},{"geonameid":2852600,"name":"Pörmitz","admin3":"16075","localeAltName":null},{"geonameid":2852512,"name":"Pößneck","admin3":"16075","localeAltName":null},{"geonameid":2852499,"name":"Posterstein","admin3":"16077","localeAltName":null},{"geonameid":2852392,"name":"Poxdorf","admin3":"16074","localeAltName":null},{"geonameid":2851928,"name":"Probstzella","admin3":"16073","localeAltName":null},{"geonameid":2851493,"name":"Quaschwitz","admin3":"16075","localeAltName":null},{"geonameid":2851456,"name":"Queienfeld","admin3":"16066","localeAltName":null},{"geonameid":2851323,"name":"Quirla","admin3":"16074","localeAltName":null},{"geonameid":2850553,"name":"Ramsla","admin3":"16071","localeAltName":null},{"geonameid":2850484,"name":"Ranis","admin3":"16075","localeAltName":null},{"geonameid":2850447,"name":"Rannstedt","admin3":"16071","localeAltName":null},{"geonameid":2850248,"name":"Rastenberg","admin3":"16068","localeAltName":null},{"geonameid":2850160,"name":"Rattelsdorf","admin3":"16074","localeAltName":null},{"geonameid":2850067,"name":"Rauda","admin3":"16074","localeAltName":null},{"geonameid":2849857,"name":"Rauschwitz","admin3":"16074","localeAltName":null},{"geonameid":2849855,"name":"Rausdorf","admin3":"16074","localeAltName":null},{"geonameid":2849235,"name":"Rehungen","admin3":"16062","localeAltName":null},{"geonameid":2849155,"name":"Reichenbach","admin3":"16073","localeAltName":null},{"geonameid":2848994,"name":"Reichmannsdorf","admin3":"16073","localeAltName":null},{"geonameid":2848979,"name":"Reichstädt","admin3":"16076","localeAltName":null},{"geonameid":2848757,"name":"Reinholterode","admin3":"16061","localeAltName":null},{"geonameid":2848726,"name":"Reinsdorf","admin3":"16075","localeAltName":null},{"geonameid":2848699,"name":"Reinstädt","admin3":"16074","localeAltName":null},{"geonameid":2848591,"name":"Reisdorf","admin3":"16071","localeAltName":null},{"geonameid":2848277,"name":"Remptendorf","admin3":"16075","localeAltName":null},{"geonameid":2848259,"name":"Remstädt","admin3":"16067","localeAltName":null},{"geonameid":2848153,"name":"Renthendorf","admin3":"16074","localeAltName":null},{"geonameid":2848142,"name":"Rentwertshausen","admin3":"16066","localeAltName":null},{"geonameid":2847906,"name":"Reurieth","admin3":"16069","localeAltName":null},{"geonameid":2846815,"name":"Riethgen","admin3":"16068","localeAltName":null},{"geonameid":2846811,"name":"Riethnordhausen","admin3":"16068","localeAltName":null},{"geonameid":2846593,"name":"Ringleben","admin3":"16065","localeAltName":null},{"geonameid":2846594,"name":"Ringleben","admin3":"16068","localeAltName":null},{"geonameid":2846500,"name":"Rippershausen","admin3":"16066","localeAltName":null},{"geonameid":2846426,"name":"Ritschenhausen","admin3":"16066","localeAltName":null},{"geonameid":2846380,"name":"Rittersdorf","admin3":"16071","localeAltName":null},{"geonameid":2846206,"name":"Rockhausen","admin3":"16070","localeAltName":null},{"geonameid":2846186,"name":"Rockstedt","admin3":"16065","localeAltName":null},{"geonameid":2845918,"name":"Rodishain","admin3":"16062","localeAltName":null},{"geonameid":2845744,"name":"Rohr","admin3":"16066","localeAltName":null},{"geonameid":2845697,"name":"Rohrbach","admin3":"16071","localeAltName":null},{"geonameid":2845653,"name":"Rohrberg","admin3":"16061","localeAltName":null},{"geonameid":2845589,"name":"Röhrig","admin3":"16061","localeAltName":null},{"geonameid":2845304,"name":"Römhild","admin3":"16069","localeAltName":null},{"geonameid":2845229,"name":"Ronneburg","admin3":"16076","localeAltName":null},{"geonameid":2845171,"name":"Rosa","admin3":"16066","localeAltName":null},{"geonameid":2845033,"name":"Rosendorf","admin3":"16075","localeAltName":null},{"geonameid":2844883,"name":"Rositz","admin3":"16077","localeAltName":null},{"geonameid":2844753,"name":"Roßdorf","admin3":"16066","localeAltName":null},{"geonameid":2844651,"name":"Roßleben","admin3":"16065","localeAltName":null},{"geonameid":2843978,"name":"Rothenstein","admin3":"16074","localeAltName":null},{"geonameid":2843738,"name":"Rottenbach","admin3":"16073","localeAltName":null},{"geonameid":2843708,"name":"Rotterode","admin3":"16066","localeAltName":null},{"geonameid":2843668,"name":"Rottleben","admin3":"16065","localeAltName":null},{"geonameid":2843496,"name":"Rückersdorf","admin3":"16073","localeAltName":null},{"geonameid":2843409,"name":"Rudersdorf","admin3":"16068","localeAltName":null},{"geonameid":2843355,"name":"Rudolstadt","admin3":"16073","localeAltName":null},{"geonameid":2843258,"name":"Ruhla","admin3":"16063","localeAltName":null},{"geonameid":2842854,"name":"Rustenfelde","admin3":"16061","localeAltName":null},{"geonameid":3207490,"name":"Ruttersdorf-Lotschen","admin3":"16074","localeAltName":null},{"geonameid":2842688,"name":"Saalfeld","admin3":"16073","localeAltName":null},{"geonameid":2842656,"name":"Saara","admin3":"16077","localeAltName":null},{"geonameid":3207491,"name":"Saara","admin3":"16076","localeAltName":null},{"geonameid":2842519,"name":"Sachsenhausen","admin3":"16071","localeAltName":null},{"geonameid":2841645,"name":"Sankt Bernhard","admin3":"16069","localeAltName":null},{"geonameid":2841636,"name":"Sankt Gangloff","admin3":"16074","localeAltName":null},{"geonameid":2841546,"name":"Sankt Kilian","admin3":"16069","localeAltName":null},{"geonameid":2840933,"name":"Schachtebich","admin3":"16061","localeAltName":null},{"geonameid":2840590,"name":"Schalkau","admin3":"16072","localeAltName":null},{"geonameid":2840044,"name":"Scheibe-Alsbach","admin3":"16072","localeAltName":null},{"geonameid":2839949,"name":"Scheiditz","admin3":"16074","localeAltName":null},{"geonameid":2839658,"name":"Schernberg","admin3":"16065","localeAltName":null},{"geonameid":2839207,"name":"Schillingstedt","admin3":"16068","localeAltName":null},{"geonameid":2839049,"name":"Schkölen","admin3":"16074","localeAltName":null},{"geonameid":2838827,"name":"Schlechtsart","admin3":"16069","localeAltName":null},{"geonameid":2838749,"name":"Schleid","admin3":"16063","localeAltName":null},{"geonameid":2838707,"name":"Schleifreisen","admin3":"16074","localeAltName":null},{"geonameid":2838673,"name":"Schleiz","admin3":"16075","localeAltName":null},{"geonameid":2838600,"name":"Schleusingen","admin3":"16069","localeAltName":null},{"geonameid":2838453,"name":"Schlöben","admin3":"16074","localeAltName":null},{"geonameid":2838250,"name":"Schloßvippach","admin3":"16068","localeAltName":null},{"geonameid":2838240,"name":"Schlotheim","admin3":"16064","localeAltName":null},{"geonameid":2838059,"name":"Schmalkalden","admin3":"16066","localeAltName":null},{"geonameid":2837976,"name":"Schmeheim","admin3":"16069","localeAltName":null},{"geonameid":2837780,"name":"Schmiedefeld","admin3":"16073","localeAltName":null},{"geonameid":2837777,"name":"Schmiedefeld am Rennsteig","admin3":"16054","localeAltName":null},{"geonameid":2837776,"name":"Schmiedehausen","admin3":"16071","localeAltName":null},{"geonameid":2837738,"name":"Schmieritz","admin3":"16075","localeAltName":null},{"geonameid":2837652,"name":"Schmölln","admin3":"16077","localeAltName":null},{"geonameid":2837638,"name":"Schmorda","admin3":"16075","localeAltName":null},{"geonameid":2837114,"name":"Schömberg","admin3":"16076","localeAltName":null},{"geonameid":2836819,"name":"Schöndorf","admin3":"16055","localeAltName":null},{"geonameid":2836676,"name":"Schönewerda","admin3":"16065","localeAltName":null},{"geonameid":2836614,"name":"Schöngleina","admin3":"16074","localeAltName":null},{"geonameid":2836605,"name":"Schönhagen","admin3":"16061","localeAltName":null},{"geonameid":3207136,"name":"Schönstedt","admin3":"16064","localeAltName":null},{"geonameid":2836387,"name":"Schöps","admin3":"16074","localeAltName":null},{"geonameid":2835540,"name":"Schwaara","admin3":"16076","localeAltName":null},{"geonameid":2835494,"name":"Schwabhausen","admin3":"16067","localeAltName":null},{"geonameid":2835352,"name":"Schwallungen","admin3":"16066","localeAltName":null},{"geonameid":2835193,"name":"Schwarza","admin3":"16071","localeAltName":null},{"geonameid":2835152,"name":"Schwarzbach","admin3":"16076","localeAltName":null},{"geonameid":2835105,"name":"Schwarzburg","admin3":"16073","localeAltName":null},{"geonameid":2834591,"name":"Schweickershausen","admin3":"16069","localeAltName":null},{"geonameid":2834548,"name":"Schweina","admin3":"16063","localeAltName":null},{"geonameid":2834266,"name":"Schwerstedt","admin3":"16068","localeAltName":null},{"geonameid":2834267,"name":"Schwerstedt","admin3":"16071","localeAltName":null},{"geonameid":2834228,"name":"Schwickershausen","admin3":"16066","localeAltName":null},{"geonameid":2834146,"name":"Schwobfeld","admin3":"16061","localeAltName":null},{"geonameid":2834020,"name":"Seebach","admin3":"16064","localeAltName":null},{"geonameid":2833934,"name":"Seebergen","admin3":"16067","localeAltName":null},{"geonameid":2833848,"name":"Seega","admin3":"16065","localeAltName":null},{"geonameid":2833657,"name":"Seelingstädt","admin3":"16076","localeAltName":null},{"geonameid":2833403,"name":"Seifartsdorf","admin3":"16074","localeAltName":null},{"geonameid":2833326,"name":"Seisla","admin3":"16075","localeAltName":null},{"geonameid":2833313,"name":"Seitenroda","admin3":"16074","localeAltName":null},{"geonameid":2832968,"name":"Serba","admin3":"16074","localeAltName":null},{"geonameid":2832772,"name":"Sickerode","admin3":"16061","localeAltName":null},{"geonameid":2832433,"name":"Siegmundsburg","admin3":"16072","localeAltName":null},{"geonameid":2832154,"name":"Silberfeld","admin3":"16076","localeAltName":null},{"geonameid":2832144,"name":"Silberhausen","admin3":"16061","localeAltName":null},{"geonameid":2832106,"name":"Silbitz","admin3":"16074","localeAltName":null},{"geonameid":2832097,"name":"Silkerode","admin3":"16061","localeAltName":null},{"geonameid":2831787,"name":"Sitzendorf","admin3":"16073","localeAltName":null},{"geonameid":2831571,"name":"Solkwitz","admin3":"16075","localeAltName":null},{"geonameid":2831502,"name":"Sollstedt","admin3":"16064","localeAltName":null},{"geonameid":2831403,"name":"Sömmerda","admin3":"16068","localeAltName":null},{"geonameid":2831276,"name":"Sondershausen","admin3":"16065","localeAltName":null},{"geonameid":2831250,"name":"Sonneberg","admin3":"16072","localeAltName":null},{"geonameid":2831242,"name":"Sonneborn","admin3":"16067","localeAltName":null},{"geonameid":2830008,"name":"Springstille","admin3":"16066","localeAltName":null},{"geonameid":2829990,"name":"Sprötau","admin3":"16068","localeAltName":null},{"geonameid":2829765,"name":"Stadtilm","admin3":"16070","localeAltName":null},{"geonameid":2829759,"name":"Stadtlengsfeld","admin3":"16063","localeAltName":null},{"geonameid":2829750,"name":"Stadtroda","admin3":"16074","localeAltName":null},{"geonameid":2829641,"name":"Staitz","admin3":"16076","localeAltName":null},{"geonameid":2829568,"name":"Stanau","admin3":"16075","localeAltName":null},{"geonameid":2828907,"name":"Steinach","admin3":"16072","localeAltName":null},{"geonameid":2828788,"name":"Steinbach","admin3":"16061","localeAltName":null},{"geonameid":2828795,"name":"Steinbach","admin3":"16063","localeAltName":null},{"geonameid":2828723,"name":"Steinbach-Hallenberg","admin3":"16066","localeAltName":null},{"geonameid":2827999,"name":"Steinheid","admin3":"16072","localeAltName":null},{"geonameid":2827983,"name":"Steinheuterode","admin3":"16061","localeAltName":null},{"geonameid":2827702,"name":"Steinrode","admin3":"16061","localeAltName":null},{"geonameid":2827677,"name":"Steinsdorf","admin3":"16076","localeAltName":null},{"geonameid":2827638,"name":"Steinthaleben","admin3":"16065","localeAltName":null},{"geonameid":2827489,"name":"Stempeda","admin3":"16062","localeAltName":null},{"geonameid":2827414,"name":"Stepfershausen","admin3":"16066","localeAltName":null},{"geonameid":2826789,"name":"Stöckey","admin3":"16061","localeAltName":null},{"geonameid":2826073,"name":"Straußfurt","admin3":"16068","localeAltName":null},{"geonameid":2825273,"name":"Stützerbach","admin3":"16070","localeAltName":null},{"geonameid":2824948,"name":"Suhl","admin3":"16054","localeAltName":null},{"geonameid":2824858,"name":"Sulza","admin3":"16074","localeAltName":null},{"geonameid":2824739,"name":"Sülzfeld","admin3":"16066","localeAltName":null},{"geonameid":2824643,"name":"Sundhausen","admin3":"16067","localeAltName":null},{"geonameid":2824437,"name":"Tabarz","admin3":"16067","localeAltName":null},{"geonameid":2824285,"name":"Tambach-Dietharz","admin3":"16067","localeAltName":null},{"geonameid":2824227,"name":"Tanna","admin3":"16075","localeAltName":null},{"geonameid":2823951,"name":"Tastungen","admin3":"16061","localeAltName":null},{"geonameid":2823771,"name":"Tautenburg","admin3":"16074","localeAltName":null},{"geonameid":2823768,"name":"Tautendorf","admin3":"16074","localeAltName":null},{"geonameid":2823764,"name":"Tautenhain","admin3":"16074","localeAltName":null},{"geonameid":2823710,"name":"Tegau","admin3":"16075","localeAltName":null},{"geonameid":2823675,"name":"Tegkwitz","admin3":"16077","localeAltName":null},{"geonameid":2823626,"name":"Teichwitz","admin3":"16076","localeAltName":null},{"geonameid":2823625,"name":"Teichwolframsdorf","admin3":"16076","localeAltName":null},{"geonameid":2823603,"name":"Teistungen","admin3":"16061","localeAltName":null},{"geonameid":2823233,"name":"Teutleben","admin3":"16067","localeAltName":null},{"geonameid":2823162,"name":"Thal","admin3":"16063","localeAltName":null},{"geonameid":2823034,"name":"Thalwenden","admin3":"16061","localeAltName":null},{"geonameid":2822868,"name":"Themar","admin3":"16069","localeAltName":null},{"geonameid":2822739,"name":"Thierschneck","admin3":"16074","localeAltName":null},{"geonameid":2822660,"name":"Thonhausen","admin3":"16077","localeAltName":null},{"geonameid":2822541,"name":"Thüringenhausen","admin3":"16065","localeAltName":null},{"geonameid":2822368,"name":"Tiefenort","admin3":"16063","localeAltName":null},{"geonameid":2822088,"name":"Tissa","admin3":"16074","localeAltName":null},{"geonameid":2821919,"name":"Tömmelsdorf","admin3":"16075","localeAltName":null},{"geonameid":2821894,"name":"Tonndorf","admin3":"16071","localeAltName":null},{"geonameid":3207140,"name":"Topfstedt","admin3":"16065","localeAltName":null},{"geonameid":2821696,"name":"Töttleben","admin3":"16051","localeAltName":null},{"geonameid":2821454,"name":"Treben","admin3":"16077","localeAltName":null},{"geonameid":2821422,"name":"Trebra","admin3":"16065","localeAltName":null},{"geonameid":2821395,"name":"Treffurt","admin3":"16063","localeAltName":null},{"geonameid":2821192,"name":"Triebes","admin3":"16076","localeAltName":null},{"geonameid":2821094,"name":"Triptis","admin3":"16075","localeAltName":null},{"geonameid":2821069,"name":"Tröbnitz","admin3":"16074","localeAltName":null},{"geonameid":2821066,"name":"Tröchtelborn","admin3":"16067","localeAltName":null},{"geonameid":2821057,"name":"Trockenborn-Wolfersdorf","admin3":"16074","localeAltName":null},{"geonameid":2821028,"name":"Troistedt","admin3":"16071","localeAltName":null},{"geonameid":2820917,"name":"Trügleben","admin3":"16067","localeAltName":null},{"geonameid":2820882,"name":"Trusetal","admin3":"16066","localeAltName":null},{"geonameid":2820694,"name":"Tüttleben","admin3":"16067","localeAltName":null},{"geonameid":2820498,"name":"Uder","admin3":"16061","localeAltName":null},{"geonameid":2820491,"name":"Udestedt","admin3":"16068","localeAltName":null},{"geonameid":2820169,"name":"Ummerstadt","admin3":"16069","localeAltName":null},{"geonameid":2820164,"name":"Umpferstedt","admin3":"16071","localeAltName":null},{"geonameid":2819907,"name":"Unterbodnitz","admin3":"16074","localeAltName":null},{"geonameid":2819892,"name":"Unterbreizbach","admin3":"16063","localeAltName":null},{"geonameid":2819727,"name":"Unterellen","admin3":"16063","localeAltName":null},{"geonameid":2819262,"name":"Unterkatz","admin3":"16066","localeAltName":null},{"geonameid":2819100,"name":"Untermaßfeld","admin3":"16066","localeAltName":null},{"geonameid":2818743,"name":"Unterschönau","admin3":"16066","localeAltName":null},{"geonameid":2818448,"name":"Unterweid","admin3":"16066","localeAltName":null},{"geonameid":2818426,"name":"Unterweißbach","admin3":"16073","localeAltName":null},{"geonameid":2818418,"name":"Unterwellenborn","admin3":"16073","localeAltName":null},{"geonameid":2818243,"name":"Urbach","admin3":"16064","localeAltName":null},{"geonameid":3207142,"name":"Urleben","admin3":"16064","localeAltName":null},{"geonameid":2818177,"name":"Urnshausen","admin3":"16063","localeAltName":null},{"geonameid":2818073,"name":"Utendorf","admin3":"16066","localeAltName":null},{"geonameid":2818060,"name":"Uthleben","admin3":"16062","localeAltName":null},{"geonameid":2818002,"name":"Utzberg","admin3":"16071","localeAltName":null},{"geonameid":2817970,"name":"Vacha","admin3":"16063","localeAltName":null},{"geonameid":2817967,"name":"Vachdorf","admin3":"16066","localeAltName":null},{"geonameid":2817752,"name":"Veilsdorf","admin3":"16069","localeAltName":null},{"geonameid":2817325,"name":"Viernau","admin3":"16066","localeAltName":null},{"geonameid":2817149,"name":"Vippachedelhausen","admin3":"16071","localeAltName":null},{"geonameid":2816884,"name":"Vogelsberg","admin3":"16068","localeAltName":null},{"geonameid":2816734,"name":"Voigtstedt","admin3":"16065","localeAltName":null},{"geonameid":2816678,"name":"Volkerode","admin3":"16061","localeAltName":null},{"geonameid":2816660,"name":"Völkershausen","admin3":"16063","localeAltName":null},{"geonameid":2816625,"name":"Volkmannsdorf","admin3":"16075","localeAltName":null},{"geonameid":2816583,"name":"Vollenborn","admin3":"16065","localeAltName":null},{"geonameid":2816577,"name":"Vollersroda","admin3":"16071","localeAltName":null},{"geonameid":2816559,"name":"Vollmershain","admin3":"16077","localeAltName":null},{"geonameid":2815689,"name":"Wachstedt","admin3":"16061","localeAltName":null},{"geonameid":2815419,"name":"Wahlhausen","admin3":"16061","localeAltName":null},{"geonameid":2815373,"name":"Wahns","admin3":"16066","localeAltName":null},{"geonameid":2815102,"name":"Waldeck","admin3":"16074","localeAltName":null},{"geonameid":2814685,"name":"Wallbach","admin3":"16066","localeAltName":null},{"geonameid":2814668,"name":"Walldorf","admin3":"16066","localeAltName":null},{"geonameid":2814499,"name":"Walpernhain","admin3":"16074","localeAltName":null},{"geonameid":2814479,"name":"Walschleben","admin3":"16068","localeAltName":null},{"geonameid":2814406,"name":"Waltersdorf","admin3":"16074","localeAltName":null},{"geonameid":2814392,"name":"Waltershausen","admin3":"16067","localeAltName":null},{"geonameid":2814313,"name":"Wandersleben","admin3":"16067","localeAltName":null},{"geonameid":2814273,"name":"Wangenheim","admin3":"16067","localeAltName":null},{"geonameid":2813877,"name":"Warza","admin3":"16067","localeAltName":null},{"geonameid":2813701,"name":"Wasserthaleben","admin3":"16065","localeAltName":null},{"geonameid":2813685,"name":"Wasungen","admin3":"16066","localeAltName":null},{"geonameid":2813539,"name":"Weberstedt","admin3":"16064","localeAltName":null},{"geonameid":2813277,"name":"Wehnde","admin3":"16061","localeAltName":null},{"geonameid":2813110,"name":"Weida","admin3":"16076","localeAltName":null},{"geonameid":2812634,"name":"Weilar","admin3":"16063","localeAltName":null},{"geonameid":2812482,"name":"Weimar","admin3":"16055","localeAltName":null},{"geonameid":2812193,"name":"Weingarten","admin3":"16067","localeAltName":null},{"geonameid":2812118,"name":"Weira","admin3":"16075","localeAltName":null},{"geonameid":2812034,"name":"Weißbach","admin3":"16073","localeAltName":null},{"geonameid":2811934,"name":"Weißenborn","admin3":"16074","localeAltName":null},{"geonameid":2811927,"name":"Weißenborn-Lüderode","admin3":"16061","localeAltName":null},{"geonameid":2811905,"name":"Weißendorf","admin3":"16076","localeAltName":null},{"geonameid":2811860,"name":"Weißensee","admin3":"16068","localeAltName":null},{"geonameid":2810836,"name":"Wernburg","admin3":"16075","localeAltName":null},{"geonameid":2810801,"name":"Werningshausen","admin3":"16068","localeAltName":null},{"geonameid":2810775,"name":"Wernshausen","admin3":"16066","localeAltName":null},{"geonameid":2810522,"name":"Westenfeld","admin3":"16069","localeAltName":null},{"geonameid":2810143,"name":"Westgreußen","admin3":"16065","localeAltName":null},{"geonameid":2810134,"name":"Westhausen","admin3":"16067","localeAltName":null},{"geonameid":2810135,"name":"Westhausen","admin3":"16069","localeAltName":null},{"geonameid":2809796,"name":"Wichmar","admin3":"16074","localeAltName":null},{"geonameid":2809741,"name":"Wickerstedt","admin3":"16071","localeAltName":null},{"geonameid":2809677,"name":"Wiebelsdorf","admin3":"16076","localeAltName":null},{"geonameid":2809539,"name":"Wiegendorf","admin3":"16071","localeAltName":null},{"geonameid":2809524,"name":"Wiehe","admin3":"16065","localeAltName":null},{"geonameid":2809243,"name":"Wiesenfeld","admin3":"16061","localeAltName":null},{"geonameid":2809196,"name":"Wiesenthal","admin3":"16063","localeAltName":null},{"geonameid":2808964,"name":"Wildenbörten","admin3":"16077","localeAltName":null},{"geonameid":2808919,"name":"Wildenspring","admin3":"16070","localeAltName":null},{"geonameid":2808878,"name":"Wildetaube","admin3":"16076","localeAltName":null},{"geonameid":2808743,"name":"Wilhelmsdorf","admin3":"16075","localeAltName":null},{"geonameid":2808571,"name":"Willerstedt","admin3":"16071","localeAltName":null},{"geonameid":2808253,"name":"Windehausen","admin3":"16062","localeAltName":null},{"geonameid":2808143,"name":"Windischleuba","admin3":"16077","localeAltName":null},{"geonameid":2808067,"name":"Wingerode","admin3":"16061","localeAltName":null},{"geonameid":2807696,"name":"Wintersdorf","admin3":"16077","localeAltName":null},{"geonameid":2807654,"name":"Wintzingerode","admin3":"16061","localeAltName":null},{"geonameid":2807596,"name":"Wipperdorf","admin3":"16062","localeAltName":null},{"geonameid":2807300,"name":"Witterda","admin3":"16068","localeAltName":null},{"geonameid":2807285,"name":"Wittgendorf","admin3":"16073","localeAltName":null},{"geonameid":2807163,"name":"Witzleben","admin3":"16070","localeAltName":null},{"geonameid":2807033,"name":"Wohlsborn","admin3":"16071","localeAltName":null},{"geonameid":2806898,"name":"Wölferbütt","admin3":"16063","localeAltName":null},{"geonameid":2806872,"name":"Wolferschwenda","admin3":"16065","localeAltName":null},{"geonameid":2806856,"name":"Wölfershausen","admin3":"16066","localeAltName":null},{"geonameid":2806788,"name":"Wölfis","admin3":"16067","localeAltName":null},{"geonameid":2806775,"name":"Wolfmannshausen","admin3":"16066","localeAltName":null},{"geonameid":2806650,"name":"Wolfsburg-Unkeroda","admin3":"16063","localeAltName":null},{"geonameid":2806453,"name":"Wolkramshausen","admin3":"16062","localeAltName":null},{"geonameid":2806192,"name":"Worbis","admin3":"16061","localeAltName":null},{"geonameid":2805793,"name":"Wundersleben","admin3":"16068","localeAltName":null},{"geonameid":2805773,"name":"Wünschendorf","admin3":"16076","localeAltName":null},{"geonameid":2805623,"name":"Wurzbach","admin3":"16075","localeAltName":null},{"geonameid":2805463,"name":"Wüstheuterode","admin3":"16061","localeAltName":null},{"geonameid":2805329,"name":"Zadelsdorf","admin3":"16076","localeAltName":null},{"geonameid":2805095,"name":"Zedlitz","admin3":"16076","localeAltName":null},{"geonameid":2804876,"name":"Zella","admin3":"16063","localeAltName":null},{"geonameid":2804867,"name":"Zella-Mehlis","admin3":"16066","localeAltName":null},{"geonameid":2804654,"name":"Zeulenroda","admin3":"16076","localeAltName":null},{"geonameid":2804549,"name":"Ziegelheim","admin3":"16077","localeAltName":null},{"geonameid":2804368,"name":"Ziegenrück","admin3":"16075","localeAltName":null},{"geonameid":2804161,"name":"Zimmern","admin3":"16074","localeAltName":null},{"geonameid":2804158,"name":"Zimmernsupra","admin3":"16067","localeAltName":null},{"geonameid":2803917,"name":"Zöllnitz","admin3":"16074","localeAltName":null},{"geonameid":2803787,"name":"Zschorgula","admin3":"16074","localeAltName":null},{"geonameid":2803519,"name":"Zwinge","admin3":"16061","localeAltName":null}],"admin1":{"geonameid":2822542,"name":"Thuringia","admin1":"15","localeAltName":"Thüringen"},"admin2":"no-adm2","admin3":{"geonameid":2824945,"name":"Kreisfreie Stadt Suhl","country":"DE","admin1":"15","admin2":"00","admin3":"16054","latitude":"50.6102800","longitude":"10.7072200","localeAltName":null},"admin4":[{"geonameid":2810711,"name":"Werther","admin3":"16062","localeAltName":null},{"geonameid":2915313,"name":"Großlohra","admin3":"16062","localeAltName":null},{"geonameid":2953049,"name":"Ballhausen","admin3":"16064","localeAltName":null},{"geonameid":6547401,"name":"Lödla","admin3":"16077","localeAltName":null},{"geonameid":6547419,"name":"Bürgel","admin3":"16074","localeAltName":null},{"geonameid":6547473,"name":"Bornhagen","admin3":"16061","localeAltName":null},{"geonameid":6549746,"name":"Erfurt","admin3":"16051","localeAltName":"Erfurt"},{"geonameid":6549747,"name":"Gera","admin3":"16052","localeAltName":null},{"geonameid":6549748,"name":"Jena","admin3":"16053","localeAltName":null},{"geonameid":6549749,"name":"Suhl","admin3":"16054","localeAltName":null},{"geonameid":6549750,"name":"Weimar","admin3":"16055","localeAltName":null},{"geonameid":6549751,"name":"Arenshausen","admin3":"16061","localeAltName":null},{"geonameid":6549752,"name":"Asbach-Sickenberg","admin3":"16061","localeAltName":null},{"geonameid":6549753,"name":"Berlingerode","admin3":"16061","localeAltName":null},{"geonameid":6549754,"name":"Birkenfelde","admin3":"16061","localeAltName":null},{"geonameid":6549757,"name":"Bodenrode-Westhausen","admin3":"16061","localeAltName":null},{"geonameid":6549758,"name":"Brehme","admin3":"16061","localeAltName":null},{"geonameid":6549759,"name":"Breitenworbis","admin3":"16061","localeAltName":null},{"geonameid":6549760,"name":"Büttstedt","admin3":"16061","localeAltName":null},{"geonameid":6549761,"name":"Buhla","admin3":"16061","localeAltName":null},{"geonameid":6549762,"name":"Burgwalde","admin3":"16061","localeAltName":null},{"geonameid":6549764,"name":"Dieterode","admin3":"16061","localeAltName":null},{"geonameid":6549765,"name":"Dietzenrode/Vatterode","admin3":"16061","localeAltName":null},{"geonameid":6549766,"name":"Ecklingerode","admin3":"16061","localeAltName":null},{"geonameid":6549767,"name":"Effelder","admin3":"16061","localeAltName":null},{"geonameid":6549768,"name":"Eichstruth","admin3":"16061","localeAltName":null},{"geonameid":6549769,"name":"Ferna","admin3":"16061","localeAltName":null},{"geonameid":6549770,"name":"Freienhagen","admin3":"16061","localeAltName":null},{"geonameid":6549771,"name":"Fretterode","admin3":"16061","localeAltName":null},{"geonameid":6549772,"name":"Geisleden","admin3":"16061","localeAltName":null},{"geonameid":6549773,"name":"Geismar","admin3":"16061","localeAltName":null},{"geonameid":6549774,"name":"Gerbershausen","admin3":"16061","localeAltName":null},{"geonameid":6549775,"name":"Gernrode","admin3":"16061","localeAltName":null},{"geonameid":6549777,"name":"Glasehausen","admin3":"16061","localeAltName":null},{"geonameid":6549778,"name":"Großbartloff","admin3":"16061","localeAltName":null},{"geonameid":6549781,"name":"Haynrode","admin3":"16061","localeAltName":null},{"geonameid":6549783,"name":"Heuthen","admin3":"16061","localeAltName":null},{"geonameid":6549784,"name":"Hohengandern","admin3":"16061","localeAltName":null},{"geonameid":6549785,"name":"Hohes Kreuz","admin3":"16061","localeAltName":null},{"geonameid":6549791,"name":"Kella","admin3":"16061","localeAltName":null},{"geonameid":6549792,"name":"Kirchgandern","admin3":"16061","localeAltName":null},{"geonameid":6549793,"name":"Kirchworbis","admin3":"16061","localeAltName":null},{"geonameid":6549796,"name":"Krombach","admin3":"16061","localeAltName":null},{"geonameid":6549797,"name":"Küllstedt","admin3":"16061","localeAltName":null},{"geonameid":6549798,"name":"Lenterode","admin3":"16061","localeAltName":null},{"geonameid":6549799,"name":"Lindewerra","admin3":"16061","localeAltName":null},{"geonameid":6549800,"name":"Lutter","admin3":"16061","localeAltName":null},{"geonameid":6549801,"name":"Mackenrode","admin3":"16061","localeAltName":null},{"geonameid":6549802,"name":"Marth","admin3":"16061","localeAltName":null},{"geonameid":6549804,"name":"Niederorschel","admin3":"16061","localeAltName":null},{"geonameid":6549805,"name":"Pfaffschwende","admin3":"16061","localeAltName":null},{"geonameid":6549806,"name":"Reinholterode","admin3":"16061","localeAltName":null},{"geonameid":6549807,"name":"Röhrig","admin3":"16061","localeAltName":null},{"geonameid":6549808,"name":"Rohrberg","admin3":"16061","localeAltName":null},{"geonameid":6549809,"name":"Rustenfelde","admin3":"16061","localeAltName":null},{"geonameid":6549810,"name":"Schachtebich","admin3":"16061","localeAltName":null},{"geonameid":6549811,"name":"Schönhagen","admin3":"16061","localeAltName":null},{"geonameid":6549812,"name":"Schwobfeld","admin3":"16061","localeAltName":null},{"geonameid":6549813,"name":"Sickerode","admin3":"16061","localeAltName":null},{"geonameid":6549816,"name":"Steinbach","admin3":"16061","localeAltName":null},{"geonameid":6549817,"name":"Steinheuterode","admin3":"16061","localeAltName":null},{"geonameid":6549820,"name":"Tastungen","admin3":"16061","localeAltName":null},{"geonameid":6549821,"name":"Thalwenden","admin3":"16061","localeAltName":null},{"geonameid":6549822,"name":"Uder","admin3":"16061","localeAltName":null},{"geonameid":6549823,"name":"Volkerode","admin3":"16061","localeAltName":null},{"geonameid":6549825,"name":"Wachstedt","admin3":"16061","localeAltName":null},{"geonameid":6549826,"name":"Wahlhausen","admin3":"16061","localeAltName":null},{"geonameid":6549827,"name":"Wehnde","admin3":"16061","localeAltName":null},{"geonameid":6549829,"name":"Wiesenfeld","admin3":"16061","localeAltName":null},{"geonameid":6549830,"name":"Wüstheuterode","admin3":"16061","localeAltName":null},{"geonameid":6549832,"name":"Schimberg","admin3":"16061","localeAltName":null},{"geonameid":6549833,"name":"Teistungen","admin3":"16061","localeAltName":null},{"geonameid":6549838,"name":"Görsbach","admin3":"16062","localeAltName":null},{"geonameid":6549843,"name":"Kehmstedt","admin3":"16062","localeAltName":null},{"geonameid":6549845,"name":"Kleinfurra","admin3":"16062","localeAltName":null},{"geonameid":6549847,"name":"Lipprechterode","admin3":"16062","localeAltName":null},{"geonameid":6549848,"name":"Niedergebra","admin3":"16062","localeAltName":null},{"geonameid":6549856,"name":"Urbach","admin3":"16062","localeAltName":null},{"geonameid":6549861,"name":"Hohenstein","admin3":"16062","localeAltName":null},{"geonameid":6549863,"name":"Barchfeld-Immelborn","admin3":"16063","localeAltName":null},{"geonameid":6549864,"name":"Bischofroda","admin3":"16063","localeAltName":null},{"geonameid":6549866,"name":"Buttlar","admin3":"16063","localeAltName":null},{"geonameid":6549868,"name":"Dermbach","admin3":"16063","localeAltName":null},{"geonameid":6549872,"name":"Empfertshausen","admin3":"16063","localeAltName":null},{"geonameid":6549873,"name":"Frankenroda","admin3":"16063","localeAltName":null},{"geonameid":6549875,"name":"Gerstengrund","admin3":"16063","localeAltName":null},{"geonameid":6549877,"name":"Hallungen","admin3":"16063","localeAltName":null},{"geonameid":6549882,"name":"Krauthausen","admin3":"16063","localeAltName":null},{"geonameid":6549883,"name":"Lauterbach","admin3":"16063","localeAltName":null},{"geonameid":6549884,"name":"Leimbach","admin3":"16063","localeAltName":null},{"geonameid":6549889,"name":"Nazza","admin3":"16063","localeAltName":null},{"geonameid":6549891,"name":"Oechsen","admin3":"16063","localeAltName":null},{"geonameid":6549893,"name":"Schleid","admin3":"16063","localeAltName":null},{"geonameid":6549895,"name":"Seebach","admin3":"16063","localeAltName":null},{"geonameid":6549898,"name":"Unterbreizbach","admin3":"16063","localeAltName":null},{"geonameid":6549901,"name":"Weilar","admin3":"16063","localeAltName":null},{"geonameid":6549902,"name":"Wiesenthal","admin3":"16063","localeAltName":null},{"geonameid":6549905,"name":"Wutha-Farnroda","admin3":"16063","localeAltName":null},{"geonameid":6549906,"name":"Moorgrund","admin3":"16063","localeAltName":null},{"geonameid":6549909,"name":"Gerstungen","admin3":"16063","localeAltName":null},{"geonameid":6549911,"name":"Blankenburg","admin3":"16064","localeAltName":null},{"geonameid":6549913,"name":"Bruchstedt","admin3":"16064","localeAltName":null},{"geonameid":6549914,"name":"Dünwald","admin3":"16064","localeAltName":null},{"geonameid":6549917,"name":"Großvargula","admin3":"16064","localeAltName":null},{"geonameid":6549918,"name":"Haussömmern","admin3":"16064","localeAltName":null},{"geonameid":6549919,"name":"Herbsleben","admin3":"16064","localeAltName":null},{"geonameid":6549923,"name":"Hornsömmern","admin3":"16064","localeAltName":null},{"geonameid":6549925,"name":"Kammerforst","admin3":"16064","localeAltName":null},{"geonameid":6549926,"name":"Kirchheilingen","admin3":"16064","localeAltName":null},{"geonameid":6549929,"name":"Körner","admin3":"16064","localeAltName":null},{"geonameid":6549930,"name":"Kutzleben","admin3":"16064","localeAltName":null},{"geonameid":6549933,"name":"Marolterode","admin3":"16064","localeAltName":null},{"geonameid":6549934,"name":"Mittelsömmern","admin3":"16064","localeAltName":null},{"geonameid":6549940,"name":"Oppershausen","admin3":"16064","localeAltName":null},{"geonameid":6549941,"name":"Rodeberg","admin3":"16064","localeAltName":null},{"geonameid":6549942,"name":"Schönstedt","admin3":"16064","localeAltName":null},{"geonameid":6549943,"name":"Sundhausen","admin3":"16064","localeAltName":null},{"geonameid":6549944,"name":"Tottleben","admin3":"16064","localeAltName":null},{"geonameid":6549945,"name":"Urleben","admin3":"16064","localeAltName":null},{"geonameid":6549949,"name":"Unstruttal","admin3":"16064","localeAltName":null},{"geonameid":6549950,"name":"Menteroda","admin3":"16064","localeAltName":null},{"geonameid":6549951,"name":"Anrode","admin3":"16064","localeAltName":null},{"geonameid":6549952,"name":"Abtsbessingen","admin3":"16065","localeAltName":null},{"geonameid":6549954,"name":"Bellstedt","admin3":"16065","localeAltName":null},{"geonameid":6549956,"name":"Borxleben","admin3":"16065","localeAltName":null},{"geonameid":6549960,"name":"Etzleben","admin3":"16065","localeAltName":null},{"geonameid":6549961,"name":"Freienbessingen","admin3":"16065","localeAltName":null},{"geonameid":6549962,"name":"Gehofen","admin3":"16065","localeAltName":null},{"geonameid":6549968,"name":"Helbedündorf","admin3":"16065","localeAltName":null},{"geonameid":6549971,"name":"Holzsußra","admin3":"16065","localeAltName":null},{"geonameid":6549973,"name":"Kalbsrieth","admin3":"16065","localeAltName":null},{"geonameid":6549974,"name":"Mönchpfiffel-Nikolausrieth","admin3":"16065","localeAltName":null},{"geonameid":6549976,"name":"Niederbösa","admin3":"16065","localeAltName":null},{"geonameid":6549977,"name":"Oberbösa","admin3":"16065","localeAltName":null},{"geonameid":6549978,"name":"Oberheldrungen","admin3":"16065","localeAltName":null},{"geonameid":6549980,"name":"Reinsdorf","admin3":"16065","localeAltName":null},{"geonameid":6549982,"name":"Rockstedt","admin3":"16065","localeAltName":null},{"geonameid":6549987,"name":"Topfstedt","admin3":"16065","localeAltName":null},{"geonameid":6549988,"name":"Trebra","admin3":"16065","localeAltName":null},{"geonameid":6549990,"name":"Wasserthaleben","admin3":"16065","localeAltName":null},{"geonameid":6549991,"name":"Westgreußen","admin3":"16065","localeAltName":null},{"geonameid":6549992,"name":"Wolferschwenda","admin3":"16065","localeAltName":null},{"geonameid":6549998,"name":"Belrieth","admin3":"16066","localeAltName":null},{"geonameid":6550003,"name":"Birx","admin3":"16066","localeAltName":null},{"geonameid":6550004,"name":"Christes","admin3":"16066","localeAltName":null},{"geonameid":6550005,"name":"Dillstädt","admin3":"16066","localeAltName":null},{"geonameid":6550006,"name":"Einhausen","admin3":"16066","localeAltName":null},{"geonameid":6550007,"name":"Ellingshausen","admin3":"16066","localeAltName":null},{"geonameid":6550008,"name":"Erbenhausen","admin3":"16066","localeAltName":null},{"geonameid":6550010,"name":"Fambach","admin3":"16066","localeAltName":null},{"geonameid":6550011,"name":"Floh-Seligenthal","admin3":"16066","localeAltName":null},{"geonameid":6550012,"name":"Friedelshausen","admin3":"16066","localeAltName":null},{"geonameid":6550020,"name":"Kühndorf","admin3":"16066","localeAltName":null},{"geonameid":6550021,"name":"Leutersdorf","admin3":"16066","localeAltName":null},{"geonameid":6550022,"name":"Mehmels","admin3":"16066","localeAltName":null},{"geonameid":6550025,"name":"Neubrunn","admin3":"16066","localeAltName":null},{"geonameid":6550028,"name":"Obermaßfeld-Grimmenthal","admin3":"16066","localeAltName":null},{"geonameid":6550029,"name":"Oberweid","admin3":"16066","localeAltName":null},{"geonameid":6550033,"name":"Rippershausen","admin3":"16066","localeAltName":null},{"geonameid":6550034,"name":"Ritschenhausen","admin3":"16066","localeAltName":null},{"geonameid":6550035,"name":"Rohr","admin3":"16066","localeAltName":null},{"geonameid":6550036,"name":"Rosa","admin3":"16066","localeAltName":null},{"geonameid":6550037,"name":"Roßdorf","admin3":"16066","localeAltName":null},{"geonameid":6550039,"name":"Schwallungen","admin3":"16066","localeAltName":null},{"geonameid":6550040,"name":"Schwarza","admin3":"16066","localeAltName":null},{"geonameid":6550044,"name":"Sülzfeld","admin3":"16066","localeAltName":null},{"geonameid":6550045,"name":"Trusetal","admin3":"16066","localeAltName":null},{"geonameid":6550047,"name":"Untermaßfeld","admin3":"16066","localeAltName":null},{"geonameid":6550050,"name":"Utendorf","admin3":"16066","localeAltName":null},{"geonameid":6550051,"name":"Vachdorf","admin3":"16066","localeAltName":null},{"geonameid":6550059,"name":"Rhönblick","admin3":"16066","localeAltName":null},{"geonameid":6550063,"name":"Bienstädt","admin3":"16067","localeAltName":null},{"geonameid":6550067,"name":"Dachwig","admin3":"16067","localeAltName":null},{"geonameid":6550068,"name":"Döllstädt","admin3":"16067","localeAltName":null},{"geonameid":6550070,"name":"Emleben","admin3":"16067","localeAltName":null},{"geonameid":6550072,"name":"Eschenbergen","admin3":"16067","localeAltName":null},{"geonameid":6550075,"name":"Friemar","admin3":"16067","localeAltName":null},{"geonameid":6550081,"name":"Großfahner","admin3":"16067","localeAltName":null},{"geonameid":6550083,"name":"Herrenhof","admin3":"16067","localeAltName":null},{"geonameid":6550089,"name":"Luisenthal","admin3":"16067","localeAltName":null},{"geonameid":6550092,"name":"Molschleben","admin3":"16067","localeAltName":null},{"geonameid":6550095,"name":"Nottleben","admin3":"16067","localeAltName":null},{"geonameid":6550097,"name":"Pferdingsleben","admin3":"16067","localeAltName":null},{"geonameid":6550099,"name":"Schwabhausen","admin3":"16067","localeAltName":null},{"geonameid":6550101,"name":"Sonneborn","admin3":"16067","localeAltName":null},{"geonameid":6550103,"name":"Tonna","admin3":"16067","localeAltName":null},{"geonameid":6550104,"name":"Tröchtelborn","admin3":"16067","localeAltName":null},{"geonameid":6550106,"name":"Tüttleben","admin3":"16067","localeAltName":null},{"geonameid":6550113,"name":"Zimmernsupra","admin3":"16067","localeAltName":null},{"geonameid":6550115,"name":"Alperstedt","admin3":"16068","localeAltName":null},{"geonameid":6550116,"name":"Andisleben","admin3":"16068","localeAltName":null},{"geonameid":6550119,"name":"Büchel","admin3":"16068","localeAltName":null},{"geonameid":6550120,"name":"Eckstedt","admin3":"16068","localeAltName":null},{"geonameid":6550122,"name":"Elxleben","admin3":"16068","localeAltName":null},{"geonameid":6550125,"name":"Gangloffsömmern","admin3":"16068","localeAltName":null},{"geonameid":6550126,"name":"Griefstedt","admin3":"16068","localeAltName":null},{"geonameid":6550128,"name":"Großmölsen","admin3":"16068","localeAltName":null},{"geonameid":6550130,"name":"Großneuhausen","admin3":"16068","localeAltName":null},{"geonameid":6550131,"name":"Großrudestedt","admin3":"16068","localeAltName":null},{"geonameid":6550132,"name":"Günstedt","admin3":"16068","localeAltName":null},{"geonameid":6550135,"name":"Haßleben","admin3":"16068","localeAltName":null},{"geonameid":6550140,"name":"Kleinmölsen","admin3":"16068","localeAltName":null},{"geonameid":6550141,"name":"Kleinneuhausen","admin3":"16068","localeAltName":null},{"geonameid":6550143,"name":"Markvippach","admin3":"16068","localeAltName":null},{"geonameid":6550144,"name":"Nöda","admin3":"16068","localeAltName":null},{"geonameid":6550146,"name":"Ollendorf","admin3":"16068","localeAltName":null},{"geonameid":6550147,"name":"Ostramondra","admin3":"16068","localeAltName":null},{"geonameid":6550148,"name":"Riethgen","admin3":"16068","localeAltName":null},{"geonameid":6550149,"name":"Riethnordhausen","admin3":"16068","localeAltName":null},{"geonameid":6550150,"name":"Ringleben","admin3":"16068","localeAltName":null},{"geonameid":6550153,"name":"Schloßvippach","admin3":"16068","localeAltName":null},{"geonameid":6550154,"name":"Schwerstedt","admin3":"16068","localeAltName":null},{"geonameid":6550155,"name":"Sprötau","admin3":"16068","localeAltName":null},{"geonameid":6550156,"name":"Straußfurt","admin3":"16068","localeAltName":null},{"geonameid":6550157,"name":"Udestedt","admin3":"16068","localeAltName":null},{"geonameid":6550158,"name":"Vogelsberg","admin3":"16068","localeAltName":null},{"geonameid":6550159,"name":"Walschleben","admin3":"16068","localeAltName":null},{"geonameid":6550160,"name":"Werningshausen","admin3":"16068","localeAltName":null},{"geonameid":6550161,"name":"Witterda","admin3":"16068","localeAltName":null},{"geonameid":6550162,"name":"Wundersleben","admin3":"16068","localeAltName":null},{"geonameid":6550163,"name":"Ahlstädt","admin3":"16069","localeAltName":null},{"geonameid":6550164,"name":"Beinerstadt","admin3":"16069","localeAltName":null},{"geonameid":6550165,"name":"Bischofrod","admin3":"16069","localeAltName":null},{"geonameid":6550166,"name":"Dingsleben","admin3":"16069","localeAltName":null},{"geonameid":6550167,"name":"Ehrenberg","admin3":"16069","localeAltName":null},{"geonameid":6550168,"name":"Eichenberg","admin3":"16069","localeAltName":null},{"geonameid":6550171,"name":"Grimmelshausen","admin3":"16069","localeAltName":null},{"geonameid":6550173,"name":"Henfstädt","admin3":"16069","localeAltName":null},{"geonameid":6550174,"name":"Kloster Veßra","admin3":"16069","localeAltName":null},{"geonameid":6550175,"name":"Lengfeld","admin3":"16069","localeAltName":null},{"geonameid":6550176,"name":"Marisfeld","admin3":"16069","localeAltName":null},{"geonameid":6550178,"name":"Oberstadt","admin3":"16069","localeAltName":null},{"geonameid":6550179,"name":"Reurieth","admin3":"16069","localeAltName":null},{"geonameid":6550181,"name":"Schleusegrund","admin3":"16069","localeAltName":null},{"geonameid":6550182,"name":"Schmeheim","admin3":"16069","localeAltName":null},{"geonameid":6550183,"name":"St.Bernhard","admin3":"16069","localeAltName":null},{"geonameid":6550185,"name":"Straufhain","admin3":"16069","localeAltName":null},{"geonameid":6550186,"name":"Veilsdorf","admin3":"16069","localeAltName":null},{"geonameid":6550188,"name":"Westhausen","admin3":"16069","localeAltName":null},{"geonameid":6550189,"name":"Auengrund","admin3":"16069","localeAltName":null},{"geonameid":6550191,"name":"Masserberg","admin3":"16069","localeAltName":null},{"geonameid":6550192,"name":"Alkersleben","admin3":"16070","localeAltName":null},{"geonameid":6550195,"name":"Bösleben-Wüllersleben","admin3":"16070","localeAltName":null},{"geonameid":6550196,"name":"Dornheim","admin3":"16070","localeAltName":null},{"geonameid":6550197,"name":"Elgersburg","admin3":"16070","localeAltName":null},{"geonameid":6550198,"name":"Elleben","admin3":"16070","localeAltName":null},{"geonameid":6550199,"name":"Elxleben","admin3":"16070","localeAltName":null},{"geonameid":6550210,"name":"Amt Wachsenburg","admin3":"16070","localeAltName":null},{"geonameid":6550213,"name":"Martinroda","admin3":"16070","localeAltName":null},{"geonameid":6550217,"name":"Osthausen-Wülfershausen","admin3":"16070","localeAltName":null},{"geonameid":6550225,"name":"Witzleben","admin3":"16070","localeAltName":null},{"geonameid":6550228,"name":"Ballstedt","admin3":"16071","localeAltName":null},{"geonameid":6550231,"name":"Buchfart","admin3":"16071","localeAltName":null},{"geonameid":6550232,"name":"Döbritschen","admin3":"16071","localeAltName":null},{"geonameid":6550233,"name":"Eberstedt","admin3":"16071","localeAltName":null},{"geonameid":6550234,"name":"Ettersburg","admin3":"16071","localeAltName":null},{"geonameid":6550236,"name":"Frankendorf","admin3":"16071","localeAltName":null},{"geonameid":6550238,"name":"Großheringen","admin3":"16071","localeAltName":null},{"geonameid":6550240,"name":"Großschwabhausen","admin3":"16071","localeAltName":null},{"geonameid":6550242,"name":"Hammerstedt","admin3":"16071","localeAltName":null},{"geonameid":6550244,"name":"Hetschburg","admin3":"16071","localeAltName":null},{"geonameid":6550245,"name":"Hohenfelden","admin3":"16071","localeAltName":null},{"geonameid":6550250,"name":"Kapellendorf","admin3":"16071","localeAltName":null},{"geonameid":6550251,"name":"Kiliansroda","admin3":"16071","localeAltName":null},{"geonameid":6550253,"name":"Kleinschwabhausen","admin3":"16071","localeAltName":null},{"geonameid":6550254,"name":"Klettbach","admin3":"16071","localeAltName":null},{"geonameid":6550258,"name":"Lehnstedt","admin3":"16071","localeAltName":null},{"geonameid":6550262,"name":"Mechelroda","admin3":"16071","localeAltName":null},{"geonameid":6550263,"name":"Mellingen","admin3":"16071","localeAltName":null},{"geonameid":6550265,"name":"Nauendorf","admin3":"16071","localeAltName":null},{"geonameid":6550268,"name":"Niedertrebra","admin3":"16071","localeAltName":null},{"geonameid":6550273,"name":"Obertrebra","admin3":"16071","localeAltName":null},{"geonameid":6550274,"name":"Oettern","admin3":"16071","localeAltName":null},{"geonameid":6550278,"name":"Rannstedt","admin3":"16071","localeAltName":null},{"geonameid":6550280,"name":"Rittersdorf","admin3":"16071","localeAltName":null},{"geonameid":6550283,"name":"Schmiedehausen","admin3":"16071","localeAltName":null},{"geonameid":6550285,"name":"Tonndorf","admin3":"16071","localeAltName":null},{"geonameid":6550287,"name":"Umpferstedt","admin3":"16071","localeAltName":null},{"geonameid":6550290,"name":"Vollersroda","admin3":"16071","localeAltName":null},{"geonameid":6550292,"name":"Wiegendorf","admin3":"16071","localeAltName":null},{"geonameid":6550299,"name":"Goldisthal","admin3":"16072","localeAltName":null},{"geonameid":6550307,"name":"Allendorf","admin3":"16073","localeAltName":null},{"geonameid":6550308,"name":"Altenbeuthen","admin3":"16073","localeAltName":null},{"geonameid":6550310,"name":"Bechstedt","admin3":"16073","localeAltName":null},{"geonameid":6550312,"name":"Cursdorf","admin3":"16073","localeAltName":null},{"geonameid":6550313,"name":"Deesbach","admin3":"16073","localeAltName":null},{"geonameid":6550314,"name":"Döschnitz","admin3":"16073","localeAltName":null},{"geonameid":6550319,"name":"Hohenwarte","admin3":"16073","localeAltName":null},{"geonameid":6550321,"name":"Katzhütte","admin3":"16073","localeAltName":null},{"geonameid":6550322,"name":"Kaulsdorf","admin3":"16073","localeAltName":null},{"geonameid":6550326,"name":"Meura","admin3":"16073","localeAltName":null},{"geonameid":6550330,"name":"Probstzella","admin3":"16073","localeAltName":null},{"geonameid":6550332,"name":"Rohrbach","admin3":"16073","localeAltName":null},{"geonameid":6550335,"name":"Schwarzburg","admin3":"16073","localeAltName":null},{"geonameid":6550336,"name":"Sitzendorf","admin3":"16073","localeAltName":null},{"geonameid":6550337,"name":"Unterweißbach","admin3":"16073","localeAltName":null},{"geonameid":6550338,"name":"Unterwellenborn","admin3":"16073","localeAltName":null},{"geonameid":6550340,"name":"Drognitz","admin3":"16073","localeAltName":null},{"geonameid":6550342,"name":"Uhlstädt-Kirchhasel","admin3":"16073","localeAltName":null},{"geonameid":6550343,"name":"Albersdorf","admin3":"16074","localeAltName":null},{"geonameid":6550344,"name":"Altenberga","admin3":"16074","localeAltName":null},{"geonameid":6550345,"name":"Bad Klosterlausnitz","admin3":"16074","localeAltName":null},{"geonameid":6550346,"name":"Bibra","admin3":"16074","localeAltName":null},{"geonameid":6550347,"name":"Bobeck","admin3":"16074","localeAltName":null},{"geonameid":6550349,"name":"Bremsnitz","admin3":"16074","localeAltName":null},{"geonameid":6550350,"name":"Bucha","admin3":"16074","localeAltName":null},{"geonameid":6550351,"name":"Crossen an der Elster","admin3":"16074","localeAltName":null},{"geonameid":6550353,"name":"Eichenberg","admin3":"16074","localeAltName":null},{"geonameid":6550354,"name":"Eineborn","admin3":"16074","localeAltName":null},{"geonameid":6550355,"name":"Frauenprießnitz","admin3":"16074","localeAltName":null},{"geonameid":6550356,"name":"Freienorla","admin3":"16074","localeAltName":null},{"geonameid":6550357,"name":"Geisenhain","admin3":"16074","localeAltName":null},{"geonameid":6550358,"name":"Gneus","admin3":"16074","localeAltName":null},{"geonameid":6550359,"name":"Gösen","admin3":"16074","localeAltName":null},{"geonameid":6550360,"name":"Golmsdorf","admin3":"16074","localeAltName":null},{"geonameid":6550361,"name":"Großbockedra","admin3":"16074","localeAltName":null},{"geonameid":6550362,"name":"Großeutersdorf","admin3":"16074","localeAltName":null},{"geonameid":6550363,"name":"Großlöbichau","admin3":"16074","localeAltName":null},{"geonameid":6550364,"name":"Großpürschütz","admin3":"16074","localeAltName":null},{"geonameid":6550365,"name":"Gumperda","admin3":"16074","localeAltName":null},{"geonameid":6550366,"name":"Hainichen","admin3":"16074","localeAltName":null},{"geonameid":6550367,"name":"Hainspitz","admin3":"16074","localeAltName":null},{"geonameid":6550368,"name":"Hartmannsdorf","admin3":"16074","localeAltName":null},{"geonameid":6550369,"name":"Hummelshain","admin3":"16074","localeAltName":null},{"geonameid":6550370,"name":"Jenalöbnitz","admin3":"16074","localeAltName":null},{"geonameid":6550371,"name":"Karlsdorf","admin3":"16074","localeAltName":null},{"geonameid":6550372,"name":"Kleinbockedra","admin3":"16074","localeAltName":null},{"geonameid":6550373,"name":"Kleinebersdorf","admin3":"16074","localeAltName":null},{"geonameid":6550374,"name":"Kleineutersdorf","admin3":"16074","localeAltName":null},{"geonameid":6550375,"name":"Laasdorf","admin3":"16074","localeAltName":null},{"geonameid":6550376,"name":"Lehesten","admin3":"16074","localeAltName":null},{"geonameid":6550377,"name":"Lindig","admin3":"16074","localeAltName":null},{"geonameid":6550378,"name":"Lippersdorf-Erdmannsdorf","admin3":"16074","localeAltName":null},{"geonameid":6550379,"name":"Löberschütz","admin3":"16074","localeAltName":null},{"geonameid":6550380,"name":"Mertendorf","admin3":"16074","localeAltName":null},{"geonameid":6550381,"name":"Meusebach","admin3":"16074","localeAltName":null},{"geonameid":6550382,"name":"Milda","admin3":"16074","localeAltName":null},{"geonameid":6550383,"name":"Möckern","admin3":"16074","localeAltName":null},{"geonameid":6550384,"name":"Mörsdorf","admin3":"16074","localeAltName":null},{"geonameid":6550385,"name":"Nausnitz","admin3":"16074","localeAltName":null},{"geonameid":6550386,"name":"Neuengönna","admin3":"16074","localeAltName":null},{"geonameid":6550387,"name":"Oberbodnitz","admin3":"16074","localeAltName":null},{"geonameid":6550388,"name":"Ottendorf","admin3":"16074","localeAltName":null},{"geonameid":6550389,"name":"Petersberg","admin3":"16074","localeAltName":null},{"geonameid":6550390,"name":"Poxdorf","admin3":"16074","localeAltName":null},{"geonameid":6550392,"name":"Rattelsdorf","admin3":"16074","localeAltName":null},{"geonameid":6550393,"name":"Rauda","admin3":"16074","localeAltName":null},{"geonameid":6550394,"name":"Rauschwitz","admin3":"16074","localeAltName":null},{"geonameid":6550395,"name":"Rausdorf","admin3":"16074","localeAltName":null},{"geonameid":6550396,"name":"Reichenbach","admin3":"16074","localeAltName":null},{"geonameid":6550397,"name":"Reinstädt","admin3":"16074","localeAltName":null},{"geonameid":6550398,"name":"Renthendorf","admin3":"16074","localeAltName":null},{"geonameid":6550399,"name":"Rothenstein","admin3":"16074","localeAltName":null},{"geonameid":6550400,"name":"Ruttersdorf-Lotschen","admin3":"16074","localeAltName":null},{"geonameid":6550401,"name":"Scheiditz","admin3":"16074","localeAltName":null},{"geonameid":6550402,"name":"Schleifreisen","admin3":"16074","localeAltName":null},{"geonameid":6550403,"name":"Schlöben","admin3":"16074","localeAltName":null},{"geonameid":6550404,"name":"Schöngleina","admin3":"16074","localeAltName":null},{"geonameid":6550405,"name":"Schöps","admin3":"16074","localeAltName":null},{"geonameid":6550406,"name":"Seitenroda","admin3":"16074","localeAltName":null},{"geonameid":6550407,"name":"Serba","admin3":"16074","localeAltName":null},{"geonameid":6550408,"name":"Silbitz","admin3":"16074","localeAltName":null},{"geonameid":6550409,"name":"St.Gangloff","admin3":"16074","localeAltName":null},{"geonameid":6550410,"name":"Sulza","admin3":"16074","localeAltName":null},{"geonameid":6550411,"name":"Tautenburg","admin3":"16074","localeAltName":null},{"geonameid":6550412,"name":"Tautendorf","admin3":"16074","localeAltName":null},{"geonameid":6550413,"name":"Tautenhain","admin3":"16074","localeAltName":null},{"geonameid":6550414,"name":"Thierschneck","admin3":"16074","localeAltName":null},{"geonameid":6550415,"name":"Tissa","admin3":"16074","localeAltName":null},{"geonameid":6550416,"name":"Trockenborn-Wolfersdorf","admin3":"16074","localeAltName":null},{"geonameid":6550417,"name":"Tröbnitz","admin3":"16074","localeAltName":null},{"geonameid":6550418,"name":"Unterbodnitz","admin3":"16074","localeAltName":null},{"geonameid":6550419,"name":"Waldeck","admin3":"16074","localeAltName":null},{"geonameid":6550420,"name":"Walpernhain","admin3":"16074","localeAltName":null},{"geonameid":6550421,"name":"Waltersdorf","admin3":"16074","localeAltName":null},{"geonameid":6550422,"name":"Weißbach","admin3":"16074","localeAltName":null},{"geonameid":6550423,"name":"Weißenborn","admin3":"16074","localeAltName":null},{"geonameid":6550424,"name":"Wichmar","admin3":"16074","localeAltName":null},{"geonameid":6550425,"name":"Zimmern","admin3":"16074","localeAltName":null},{"geonameid":6550426,"name":"Zöllnitz","admin3":"16074","localeAltName":null},{"geonameid":6550430,"name":"Bodelwitz","admin3":"16075","localeAltName":null},{"geonameid":6550433,"name":"Dittersdorf","admin3":"16075","localeAltName":null},{"geonameid":6550434,"name":"Döbritz","admin3":"16075","localeAltName":null},{"geonameid":6550437,"name":"Dreitzsch","admin3":"16075","localeAltName":null},{"geonameid":6550438,"name":"Eßbach","admin3":"16075","localeAltName":null},{"geonameid":6550439,"name":"Geroda","admin3":"16075","localeAltName":null},{"geonameid":6550440,"name":"Gertewitz","admin3":"16075","localeAltName":null},{"geonameid":6550441,"name":"Görkwitz","admin3":"16075","localeAltName":null},{"geonameid":6550442,"name":"Göschitz","admin3":"16075","localeAltName":null},{"geonameid":6550443,"name":"Gössitz","admin3":"16075","localeAltName":null},{"geonameid":6550444,"name":"Grobengereuth","admin3":"16075","localeAltName":null},{"geonameid":6550446,"name":"Keila","admin3":"16075","localeAltName":null},{"geonameid":6550447,"name":"Kirschkau","admin3":"16075","localeAltName":null},{"geonameid":6550449,"name":"Langenorla","admin3":"16075","localeAltName":null},{"geonameid":6550450,"name":"Lemnitz","admin3":"16075","localeAltName":null},{"geonameid":6550451,"name":"Löhma","admin3":"16075","localeAltName":null},{"geonameid":6550452,"name":"Miesitz","admin3":"16075","localeAltName":null},{"geonameid":6550453,"name":"Mittelpöllnitz","admin3":"16075","localeAltName":null},{"geonameid":6550454,"name":"Moxa","admin3":"16075","localeAltName":null},{"geonameid":6550456,"name":"Neundorf (bei Schleiz)","admin3":"16075","localeAltName":null},{"geonameid":6550457,"name":"Nimritz","admin3":"16075","localeAltName":null},{"geonameid":6550458,"name":"Oberoppurg","admin3":"16075","localeAltName":null},{"geonameid":6550459,"name":"Oettersdorf","admin3":"16075","localeAltName":null},{"geonameid":6550460,"name":"Oppurg","admin3":"16075","localeAltName":null},{"geonameid":6550461,"name":"Paska","admin3":"16075","localeAltName":null},{"geonameid":6550462,"name":"Peuschen","admin3":"16075","localeAltName":null},{"geonameid":6550464,"name":"Plothen","admin3":"16075","localeAltName":null},{"geonameid":6550465,"name":"Pörmitz","admin3":"16075","localeAltName":null},{"geonameid":6550467,"name":"Quaschwitz","admin3":"16075","localeAltName":null},{"geonameid":6550468,"name":"Rosendorf","admin3":"16075","localeAltName":null},{"geonameid":6550470,"name":"Schmieritz","admin3":"16075","localeAltName":null},{"geonameid":6550471,"name":"Schmorda","admin3":"16075","localeAltName":null},{"geonameid":6550472,"name":"Schöndorf","admin3":"16075","localeAltName":null},{"geonameid":6550473,"name":"Seisla","admin3":"16075","localeAltName":null},{"geonameid":6550474,"name":"Solkwitz","admin3":"16075","localeAltName":null},{"geonameid":6550475,"name":"Tegau","admin3":"16075","localeAltName":null},{"geonameid":6550476,"name":"Tömmelsdorf","admin3":"16075","localeAltName":null},{"geonameid":6550477,"name":"Volkmannsdorf","admin3":"16075","localeAltName":null},{"geonameid":6550478,"name":"Weira","admin3":"16075","localeAltName":null},{"geonameid":6550479,"name":"Wernburg","admin3":"16075","localeAltName":null},{"geonameid":6550480,"name":"Wilhelmsdorf","admin3":"16075","localeAltName":null},{"geonameid":6550481,"name":"Krölpa","admin3":"16075","localeAltName":null},{"geonameid":6550482,"name":"Remptendorf","admin3":"16075","localeAltName":null},{"geonameid":6550483,"name":"Bethenhausen","admin3":"16076","localeAltName":null},{"geonameid":6550485,"name":"Brahmenau","admin3":"16076","localeAltName":null},{"geonameid":6550486,"name":"Braunichswalde","admin3":"16076","localeAltName":null},{"geonameid":6550488,"name":"Caaschwitz","admin3":"16076","localeAltName":null},{"geonameid":6550489,"name":"Crimla","admin3":"16076","localeAltName":null},{"geonameid":6550490,"name":"Endschütz","admin3":"16076","localeAltName":null},{"geonameid":6550491,"name":"Gauern","admin3":"16076","localeAltName":null},{"geonameid":6550493,"name":"Großenstein","admin3":"16076","localeAltName":null},{"geonameid":6550495,"name":"Hartmannsdorf","admin3":"16076","localeAltName":null},{"geonameid":6550496,"name":"Hilbersdorf","admin3":"16076","localeAltName":null},{"geonameid":6550497,"name":"Hirschfeld","admin3":"16076","localeAltName":null},{"geonameid":6550499,"name":"Hundhaupten","admin3":"16076","localeAltName":null},{"geonameid":6550500,"name":"Kauern","admin3":"16076","localeAltName":null},{"geonameid":6550501,"name":"Korbußen","admin3":"16076","localeAltName":null},{"geonameid":6550502,"name":"Kühdorf","admin3":"16076","localeAltName":null},{"geonameid":6550503,"name":"Langenwetzendorf","admin3":"16076","localeAltName":null},{"geonameid":6550504,"name":"Langenwolschendorf","admin3":"16076","localeAltName":null},{"geonameid":6550505,"name":"Lederhose","admin3":"16076","localeAltName":null},{"geonameid":6550506,"name":"Lindenkreuz","admin3":"16076","localeAltName":null},{"geonameid":6550511,"name":"Paitzdorf","admin3":"16076","localeAltName":null},{"geonameid":6550512,"name":"Pölzig","admin3":"16076","localeAltName":null},{"geonameid":6550513,"name":"Reichstädt","admin3":"16076","localeAltName":null},{"geonameid":6550514,"name":"Rückersdorf","admin3":"16076","localeAltName":null},{"geonameid":6550515,"name":"Saara","admin3":"16076","localeAltName":null},{"geonameid":6550517,"name":"Schwaara","admin3":"16076","localeAltName":null},{"geonameid":6550518,"name":"Schwarzbach","admin3":"16076","localeAltName":null},{"geonameid":6550519,"name":"Seelingstädt","admin3":"16076","localeAltName":null},{"geonameid":6550523,"name":"Teichwitz","admin3":"16076","localeAltName":null},{"geonameid":6550525,"name":"Weißendorf","admin3":"16076","localeAltName":null},{"geonameid":6550528,"name":"Zedlitz","admin3":"16076","localeAltName":null},{"geonameid":6550529,"name":"Kraftsdorf","admin3":"16076","localeAltName":null},{"geonameid":6550532,"name":"Dobitschen","admin3":"16077","localeAltName":null},{"geonameid":6550534,"name":"Fockendorf","admin3":"16077","localeAltName":null},{"geonameid":6550536,"name":"Gerstenberg","admin3":"16077","localeAltName":null},{"geonameid":6550537,"name":"Göhren","admin3":"16077","localeAltName":null},{"geonameid":6550538,"name":"Göllnitz","admin3":"16077","localeAltName":null},{"geonameid":6550539,"name":"Göpfersdorf","admin3":"16077","localeAltName":null},{"geonameid":6550541,"name":"Haselbach","admin3":"16077","localeAltName":null},{"geonameid":6550542,"name":"Heukewalde","admin3":"16077","localeAltName":null},{"geonameid":6550543,"name":"Jonaswalde","admin3":"16077","localeAltName":null},{"geonameid":6550545,"name":"Kriebitzsch","admin3":"16077","localeAltName":null},{"geonameid":6550546,"name":"Langenleuba-Niederhain","admin3":"16077","localeAltName":null},{"geonameid":6550547,"name":"Löbichau","admin3":"16077","localeAltName":null},{"geonameid":6550549,"name":"Mehna","admin3":"16077","localeAltName":null},{"geonameid":6550550,"name":"Monstab","admin3":"16077","localeAltName":null},{"geonameid":6550552,"name":"Nobitz","admin3":"16077","localeAltName":null},{"geonameid":6550554,"name":"Posterstein","admin3":"16077","localeAltName":null},{"geonameid":6550555,"name":"Rositz","admin3":"16077","localeAltName":null},{"geonameid":6550556,"name":"Starkenberg","admin3":"16077","localeAltName":null},{"geonameid":6550558,"name":"Thonhausen","admin3":"16077","localeAltName":null},{"geonameid":6550559,"name":"Treben","admin3":"16077","localeAltName":null},{"geonameid":6550560,"name":"Vollmershain","admin3":"16077","localeAltName":null},{"geonameid":6550562,"name":"Windischleuba","admin3":"16077","localeAltName":null},{"geonameid":6550568,"name":"Magdala","admin3":"16071","localeAltName":null},{"geonameid":6550569,"name":"Lauscha","admin3":"16072","localeAltName":null},{"geonameid":6550570,"name":"Ranis","admin3":"16075","localeAltName":null},{"geonameid":6550957,"name":"Eisenach","admin3":"16056","localeAltName":null},{"geonameid":6550959,"name":"Heilbad Heiligenstadt","admin3":"16061","localeAltName":null},{"geonameid":6550960,"name":"Ellrich","admin3":"16062","localeAltName":null},{"geonameid":6550961,"name":"Nordhausen","admin3":"16062","localeAltName":null},{"geonameid":6550962,"name":"Bad Liebenstein","admin3":"16063","localeAltName":null},{"geonameid":6550963,"name":"Bad Salzungen","admin3":"16063","localeAltName":null},{"geonameid":6550965,"name":"Geisa","admin3":"16063","localeAltName":null},{"geonameid":6550967,"name":"Ruhla","admin3":"16063","localeAltName":null},{"geonameid":6550969,"name":"Treffurt","admin3":"16063","localeAltName":null},{"geonameid":6550970,"name":"Vacha","admin3":"16063","localeAltName":null},{"geonameid":6550971,"name":"Bad Langensalza","admin3":"16064","localeAltName":null},{"geonameid":6550972,"name":"Bad Tennstedt","admin3":"16064","localeAltName":null},{"geonameid":6550973,"name":"Mühlhausen/Thüringen","admin3":"16064","localeAltName":null},{"geonameid":6550975,"name":"Clingen","admin3":"16065","localeAltName":null},{"geonameid":6550976,"name":"Ebeleben","admin3":"16065","localeAltName":null},{"geonameid":6550977,"name":"Greußen","admin3":"16065","localeAltName":null},{"geonameid":6550980,"name":"Sondershausen","admin3":"16065","localeAltName":null},{"geonameid":6550982,"name":"Großenehrich","admin3":"16065","localeAltName":null},{"geonameid":6550983,"name":"Oberhof","admin3":"16066","localeAltName":null},{"geonameid":6550984,"name":"Wasungen","admin3":"16066","localeAltName":null},{"geonameid":6550985,"name":"Zella-Mehlis","admin3":"16066","localeAltName":null},{"geonameid":6550986,"name":"Friedrichroda","admin3":"16067","localeAltName":null},{"geonameid":6550987,"name":"Gotha","admin3":"16067","localeAltName":null},{"geonameid":6550988,"name":"Ohrdruf","admin3":"16067","localeAltName":null},{"geonameid":6550989,"name":"Waltershausen","admin3":"16067","localeAltName":null},{"geonameid":6550991,"name":"Gebesee","admin3":"16068","localeAltName":null},{"geonameid":6550993,"name":"Kölleda","admin3":"16068","localeAltName":null},{"geonameid":6550994,"name":"Rastenberg","admin3":"16068","localeAltName":null},{"geonameid":6550995,"name":"Weißensee","admin3":"16068","localeAltName":null},{"geonameid":6550997,"name":"Eisfeld","admin3":"16069","localeAltName":null},{"geonameid":6550998,"name":"Römhild","admin3":"16069","localeAltName":null},{"geonameid":6550999,"name":"Schleusingen","admin3":"16069","localeAltName":null},{"geonameid":6551000,"name":"Themar","admin3":"16069","localeAltName":null},{"geonameid":6551001,"name":"Ummerstadt","admin3":"16069","localeAltName":null},{"geonameid":6551002,"name":"Arnstadt","admin3":"16070","localeAltName":null},{"geonameid":6551005,"name":"Ilmenau","admin3":"16070","localeAltName":null},{"geonameid":6551007,"name":"Plaue","admin3":"16070","localeAltName":null},{"geonameid":6551008,"name":"Stadtilm","admin3":"16070","localeAltName":null},{"geonameid":6551009,"name":"Apolda","admin3":"16071","localeAltName":null},{"geonameid":6551010,"name":"Bad Berka","admin3":"16071","localeAltName":null},{"geonameid":6551011,"name":"Bad Sulza","admin3":"16071","localeAltName":null},{"geonameid":6551012,"name":"Blankenhain","admin3":"16071","localeAltName":null},{"geonameid":6551014,"name":"Kranichfeld","admin3":"16071","localeAltName":null},{"geonameid":6551015,"name":"Neumark","admin3":"16071","localeAltName":null},{"geonameid":6551016,"name":"Neuhaus am Rennweg","admin3":"16072","localeAltName":null},{"geonameid":6551017,"name":"Schalkau","admin3":"16072","localeAltName":null},{"geonameid":6551018,"name":"Steinach","admin3":"16072","localeAltName":null},{"geonameid":6551019,"name":"Bad Blankenburg","admin3":"16073","localeAltName":null},{"geonameid":6551020,"name":"Gräfenthal","admin3":"16073","localeAltName":null},{"geonameid":6551022,"name":"Lehesten","admin3":"16073","localeAltName":null},{"geonameid":6551024,"name":"Leutenberg","admin3":"16073","localeAltName":null},{"geonameid":6551025,"name":"Camburg","admin3":"16074","localeAltName":null},{"geonameid":6551027,"name":"Eisenberg","admin3":"16074","localeAltName":null},{"geonameid":6551028,"name":"Hermsdorf","admin3":"16074","localeAltName":null},{"geonameid":6551029,"name":"Kahla","admin3":"16074","localeAltName":null},{"geonameid":6551030,"name":"Orlamünde","admin3":"16074","localeAltName":null},{"geonameid":6551031,"name":"Stadtroda","admin3":"16074","localeAltName":null},{"geonameid":6551032,"name":"Schkölen","admin3":"16074","localeAltName":null},{"geonameid":6551033,"name":"Hirschberg","admin3":"16075","localeAltName":null},{"geonameid":6551034,"name":"Pößneck","admin3":"16075","localeAltName":null},{"geonameid":6551035,"name":"Schleiz","admin3":"16075","localeAltName":null},{"geonameid":6551036,"name":"Triptis","admin3":"16075","localeAltName":null},{"geonameid":6551037,"name":"Ziegenrück","admin3":"16075","localeAltName":null},{"geonameid":6551038,"name":"Gefell","admin3":"16075","localeAltName":null},{"geonameid":6551039,"name":"Tanna","admin3":"16075","localeAltName":null},{"geonameid":6551040,"name":"Wurzbach","admin3":"16075","localeAltName":null},{"geonameid":6551041,"name":"Saalburg-Ebersdorf","admin3":"16075","localeAltName":null},{"geonameid":6551043,"name":"Bad Köstritz","admin3":"16076","localeAltName":null},{"geonameid":6551044,"name":"Greiz","admin3":"16076","localeAltName":null},{"geonameid":6551045,"name":"Hohenleuben","admin3":"16076","localeAltName":null},{"geonameid":6551046,"name":"Münchenbernsdorf","admin3":"16076","localeAltName":null},{"geonameid":6551047,"name":"Ronneburg","admin3":"16076","localeAltName":null},{"geonameid":6551049,"name":"Weida","admin3":"16076","localeAltName":null},{"geonameid":6551050,"name":"Zeulenroda","admin3":"16076","localeAltName":null},{"geonameid":6551051,"name":"Altenburg","admin3":"16077","localeAltName":null},{"geonameid":6551052,"name":"Gößnitz","admin3":"16077","localeAltName":null},{"geonameid":6551053,"name":"Lucka","admin3":"16077","localeAltName":null},{"geonameid":6551054,"name":"Meuselwitz","admin3":"16077","localeAltName":null},{"geonameid":6551055,"name":"Schmölln","admin3":"16077","localeAltName":null},{"geonameid":6551151,"name":"Meiningen","admin3":"16066","localeAltName":null},{"geonameid":6551152,"name":"Sömmerda","admin3":"16068","localeAltName":null},{"geonameid":6551153,"name":"Hildburghausen","admin3":"16069","localeAltName":null},{"geonameid":6551154,"name":"Sonneberg","admin3":"16072","localeAltName":null},{"geonameid":6551155,"name":"Rudolstadt","admin3":"16073","localeAltName":null},{"geonameid":6551156,"name":"Neustadt an der Orla","admin3":"16075","localeAltName":null},{"geonameid":6551157,"name":"Harth-Pöllnitz","admin3":"16076","localeAltName":null},{"geonameid":6551250,"name":"Berka v. d. Hainich","admin3":"16063","localeAltName":null},{"geonameid":6551252,"name":"Bad Frankenhausen/Kyffhäuser","admin3":"16065","localeAltName":null},{"geonameid":6551256,"name":"Schmalkalden, Kurort","admin3":"16066","localeAltName":null},{"geonameid":6551257,"name":"Steinbach-Hallenberg, Kurort","admin3":"16066","localeAltName":null},{"geonameid":6551258,"name":"Tambach-Dietharz/Thür. Wald","admin3":"16067","localeAltName":null},{"geonameid":6551263,"name":"Graitschen b. Bürgel","admin3":"16074","localeAltName":null},{"geonameid":6551264,"name":"Lausnitz b. Neustadt an der Orla","admin3":"16075","localeAltName":null},{"geonameid":6551266,"name":"Lobenstein, Moorbad","admin3":"16075","localeAltName":null},{"geonameid":6551267,"name":"Linda b. Weida","admin3":"16076","localeAltName":null},{"geonameid":6551278,"name":"Breitungen/Werra","admin3":"16066","localeAltName":null},{"geonameid":6551279,"name":"Frankenheim/Rhön","admin3":"16066","localeAltName":null},{"geonameid":6551281,"name":"Tabarz/Thür. Wald","admin3":"16067","localeAltName":null},{"geonameid":6551282,"name":"Brünn/Thür.","admin3":"16069","localeAltName":null},{"geonameid":6551284,"name":"Saalfeld/Saale","admin3":"16073","localeAltName":null},{"geonameid":6551286,"name":"Wünschendorf/Elster","admin3":"16076","localeAltName":null},{"geonameid":6559287,"name":"Wingerode","admin3":"16061","localeAltName":null},{"geonameid":6559291,"name":"Gierstädt","admin3":"16067","localeAltName":null},{"geonameid":6559293,"name":"Grub","admin3":"16069","localeAltName":null},{"geonameid":6559295,"name":"Schlechtsart","admin3":"16069","localeAltName":null},{"geonameid":6559296,"name":"Schweickershausen","admin3":"16069","localeAltName":null},{"geonameid":6559301,"name":"Kospoda","admin3":"16075","localeAltName":null},{"geonameid":6559302,"name":"Moßbach","admin3":"16075","localeAltName":null},{"geonameid":6559304,"name":"Bocka","admin3":"16076","localeAltName":null},{"geonameid":6559305,"name":"Heyersdorf","admin3":"16077","localeAltName":null},{"geonameid":7602288,"name":"Grabfeld","admin3":"16066","localeAltName":null},{"geonameid":7602425,"name":"Berga/Elster","admin3":"16076","localeAltName":null},{"geonameid":7602456,"name":"Heringen/Helme","admin3":"16062","localeAltName":null},{"geonameid":7602457,"name":"Ponitz","admin3":"16077","localeAltName":null},{"geonameid":7602474,"name":"Sollstedt","admin3":"16062","localeAltName":null},{"geonameid":7602636,"name":"Leinefelde-Worbis","admin3":"16061","localeAltName":null},{"geonameid":7602637,"name":"Hörselberg-Hainich","admin3":"16063","localeAltName":null},{"geonameid":7602638,"name":"Leinatal","admin3":"16067","localeAltName":null},{"geonameid":7602639,"name":"Nesse-Apfelstädt","admin3":"16067","localeAltName":null},{"geonameid":7602640,"name":"Heideland","admin3":"16074","localeAltName":null},{"geonameid":8658989,"name":"Am Ohmberg","admin3":"16061","localeAltName":null},{"geonameid":8658990,"name":"Sonnenstein","admin3":"16061","localeAltName":null},{"geonameid":8658991,"name":"Harztor","admin3":"16062","localeAltName":null},{"geonameid":8658992,"name":"Südeichsfeld","admin3":"16064","localeAltName":null},{"geonameid":8658993,"name":"Vogtei","admin3":"16064","localeAltName":null},{"geonameid":8658994,"name":"Kyffhäuserland","admin3":"16065","localeAltName":null},{"geonameid":8658996,"name":"Hörsel","admin3":"16067","localeAltName":null},{"geonameid":8658998,"name":"Frankenblick","admin3":"16072","localeAltName":null},{"geonameid":8658999,"name":"Königsee-Rottenbach","admin3":"16073","localeAltName":null},{"geonameid":8659000,"name":"Auma-Weidatal","admin3":"16076","localeAltName":null},{"geonameid":8659001,"name":"Mohlsdorf-Teichwolframsdorf","admin3":"16076","localeAltName":null},{"geonameid":10942652,"name":"Ilmtal-Weinstraße","admin3":"16071","localeAltName":null},{"geonameid":10942659,"name":"Krayenberggemeinde","admin3":"16063","localeAltName":null},{"geonameid":12032316,"name":"Föritztal","admin3":"16072","localeAltName":null},{"geonameid":12032317,"name":"Stadt Bleicherode","admin3":"16062","localeAltName":null},{"geonameid":12032318,"name":"Drei Gleichen","admin3":"16067","localeAltName":null},{"geonameid":12032319,"name":"Stadt Schwarzatal","admin3":"16073","localeAltName":null},{"geonameid":12032320,"name":"Stadt Kindelbrück","admin3":"16068","localeAltName":null},{"geonameid":12032321,"name":"Stadt An der Schmücke","admin3":"16065","localeAltName":null},{"geonameid":12032322,"name":"Stadt Artern","admin3":"16065","localeAltName":null},{"geonameid":12032323,"name":"Stadt Werra-Suhl-Tal","admin3":"16063","localeAltName":null},{"geonameid":12032324,"name":"Stadt Dingelstädt","admin3":"16061","localeAltName":null},{"geonameid":12032325,"name":"Stadt Kaltennordheim","admin3":"16066","localeAltName":null},{"geonameid":12032326,"name":"Stadt Großbreitenbach","admin3":"16070","localeAltName":null},{"geonameid":12032328,"name":"Stadt Buttstädt","admin3":"16068","localeAltName":null},{"geonameid":12032329,"name":"Rosenthal am Rennsteig","admin3":"16075","localeAltName":null},{"geonameid":12032330,"name":"Unstrut-Hainich","admin3":"16064","localeAltName":null},{"geonameid":12032331,"name":"Nessetal","admin3":"16067","localeAltName":null},{"geonameid":12032332,"name":"Stadt Heldburg","admin3":"16069","localeAltName":null},{"geonameid":12032333,"name":"Stadt Roßleben-Wiehe","admin3":"16065","localeAltName":null},{"geonameid":12032335,"name":"Stadt Am Ettersberg","admin3":"16071","localeAltName":null},{"geonameid":12032336,"name":"Geratal","admin3":"16070","localeAltName":null},{"geonameid":12165977,"name":"Grammetal","admin3":"16071","localeAltName":null},{"geonameid":12166099,"name":"Georgenthal","admin3":"16067","localeAltName":null},{"geonameid":12166102,"name":"Nottertal-Heilinger Höhen","admin3":"16064","localeAltName":null},{"geonameid":12166104,"name":"Amt Creuzburg","admin3":"16063","localeAltName":null}]},"__N_SSG":true}