{"pageProps":{"locale":"en","admin2":{"geonameid":4968996,"name":"Knox County","country":"US","admin1":"ME","admin2":"013","admin3":"","latitude":"44.0757500","longitude":"-69.1259800"},"admin1":{"geonameid":4971068,"name":"Maine","admin1":"ME"},"locations":[{"geonameid":4956815,"name":"Appleton","admin3":"01465"},{"geonameid":4959908,"name":"Camden","admin3":"09725"},{"geonameid":4961976,"name":"Cushing","admin3":"15780"},{"geonameid":4964943,"name":"Friendship","admin3":"26805"},{"geonameid":4832408,"name":"Hope","admin3":"33840"},{"geonameid":4974489,"name":"Owls Head","admin3":"56135"},{"geonameid":4832458,"name":"Rockland","admin3":"63590"},{"geonameid":4976817,"name":"Rockport","admin3":"63660"},{"geonameid":4977372,"name":"Saint George","admin3":"65130"},{"geonameid":4979277,"name":"South Thomaston","admin3":"72585"},{"geonameid":4980629,"name":"Thomaston","admin3":"76365"},{"geonameid":4832484,"name":"Union","admin3":"78115"},{"geonameid":4981804,"name":"Vinalhaven","admin3":"79130"},{"geonameid":4982137,"name":"Warren","admin3":"80215"},{"geonameid":4982172,"name":"Washington","admin3":"80425"}],"admin3":[{"geonameid":4956823,"name":"Town of Appleton","admin3":"01465"},{"geonameid":4959920,"name":"Town of Camden","admin3":"09725"},{"geonameid":4961986,"name":"Town of Cushing","admin3":"15780"},{"geonameid":4964949,"name":"Town of Friendship","admin3":"26805"},{"geonameid":4967439,"name":"Town of Hope","admin3":"33840"},{"geonameid":4968140,"name":"Town of Isle au Haut","admin3":"35135"},{"geonameid":4971418,"name":"Plantation of Matinicus Isle","admin3":"44165"},{"geonameid":4973058,"name":"Unorganized Territory of Muscle Ridge Islands","admin3":"47962"},{"geonameid":4973585,"name":"Town of North Haven","admin3":"51620"},{"geonameid":4974502,"name":"Town of Owls Head","admin3":"56135"},{"geonameid":4976816,"name":"City of Rockland","admin3":"63590"},{"geonameid":4976831,"name":"Town of Rockport","admin3":"63660"},{"geonameid":4977380,"name":"Town of Saint George","admin3":"65130"},{"geonameid":4979278,"name":"Town of South Thomaston","admin3":"72585"},{"geonameid":4980635,"name":"Town of Thomaston","admin3":"76365"},{"geonameid":4981466,"name":"Town of Union","admin3":"78115"},{"geonameid":4981808,"name":"Town of Vinalhaven","admin3":"79130"},{"geonameid":4982155,"name":"Town of Warren","admin3":"80215"},{"geonameid":4982195,"name":"Town of Washington","admin3":"80425"}],"alternateNames":[]},"__N_SSG":true}