{"pageProps":{"locale":"it","admin2":{"geonameid":3165770,"name":"Provincia di Terni","country":"IT","admin1":"18","admin2":"TR","admin3":"","latitude":"42.6833300","longitude":"12.3166700","localeAltName":"Terni"},"admin1":{"geonameid":3165048,"name":"Umbria","admin1":"18","localeAltName":null},"locations":[{"geonameid":3183508,"name":"Acquasparta","admin3":"055001","localeAltName":null},{"geonameid":3183113,"name":"Amelia","admin3":"055004","localeAltName":null},{"geonameid":3182798,"name":"Arrone","admin3":"055005","localeAltName":null},{"geonameid":3182693,"name":"Attigliano","admin3":"055006","localeAltName":null},{"geonameid":3182632,"name":"Avigliano Umbro","admin3":"055033","localeAltName":null},{"geonameid":3182317,"name":"Baschi","admin3":"055007","localeAltName":null},{"geonameid":3181146,"name":"Calvi dell'Umbria","admin3":"055008","localeAltName":null},{"geonameid":8950190,"name":"Canale Nuovo","admin3":"055023","localeAltName":null},{"geonameid":6698393,"name":"Castel dell'Aquila","admin3":"055017","localeAltName":null},{"geonameid":3179678,"name":"Castel Giorgio","admin3":"055009","localeAltName":null},{"geonameid":3179445,"name":"Castel Viscardo","admin3":"055010","localeAltName":null},{"geonameid":3179466,"name":"Casteltodino","admin3":"055017","localeAltName":null},{"geonameid":6543999,"name":"Cesi","admin3":"055032","localeAltName":null},{"geonameid":8948793,"name":"Ciconia","admin3":"055023","localeAltName":null},{"geonameid":3177313,"name":"Fabro","admin3":"055011","localeAltName":null},{"geonameid":9036376,"name":"Fabro Scalo","admin3":"055011","localeAltName":null},{"geonameid":3177103,"name":"Ferentillo","admin3":"055012","localeAltName":null},{"geonameid":3177030,"name":"Ficulle","admin3":"055013","localeAltName":null},{"geonameid":8949233,"name":"Fornole","admin3":"055004","localeAltName":null},{"geonameid":3176082,"name":"Giove","admin3":"055014","localeAltName":null},{"geonameid":3175714,"name":"Guardea","admin3":"055015","localeAltName":null},{"geonameid":3174496,"name":"Lugnano in Teverina","admin3":"055016","localeAltName":null},{"geonameid":3174907,"name":"Marmore","admin3":"055032","localeAltName":null},{"geonameid":3172998,"name":"Montecastrilli","admin3":"055017","localeAltName":null},{"geonameid":3172989,"name":"Montecchio","admin3":"055018","localeAltName":null},{"geonameid":3172916,"name":"Montefranco","admin3":"055019","localeAltName":null},{"geonameid":3172912,"name":"Montegabbione","admin3":"055020","localeAltName":null},{"geonameid":3172873,"name":"Monteleone d'Orvieto","admin3":"055021","localeAltName":null},{"geonameid":3172764,"name":"Monterubiaglio","admin3":"055010","localeAltName":null},{"geonameid":3172377,"name":"Narni","admin3":"055022","localeAltName":null},{"geonameid":3172376,"name":"Narni Scalo","admin3":"055022","localeAltName":null},{"geonameid":3171874,"name":"Orvieto","admin3":"055023","localeAltName":null},{"geonameid":9036359,"name":"Orvieto Scalo","admin3":"055023","localeAltName":null},{"geonameid":3171783,"name":"Otricoli","admin3":"055024","localeAltName":null},{"geonameid":3171251,"name":"Penna in Teverina","admin3":"055026","localeAltName":null},{"geonameid":8949646,"name":"Pianlungo","admin3":"055010","localeAltName":null},{"geonameid":8949865,"name":"Ponte San Lorenzo","admin3":"055022","localeAltName":null},{"geonameid":3170166,"name":"Porano","admin3":"055028","localeAltName":null},{"geonameid":3168348,"name":"San Gemini","admin3":"055029","localeAltName":null},{"geonameid":3168156,"name":"San Liberato","admin3":"055022","localeAltName":null},{"geonameid":3167215,"name":"San Venanzo","admin3":"055030","localeAltName":null},{"geonameid":8950152,"name":"Santa Maria","admin3":"055021","localeAltName":null},{"geonameid":8948991,"name":"Sferracavallo","admin3":"055023","localeAltName":null},{"geonameid":8949344,"name":"Stazione di Allerona","admin3":"055002","localeAltName":null},{"geonameid":3166083,"name":"Stroncone","admin3":"055031","localeAltName":null},{"geonameid":3165771,"name":"Terni","admin3":"055032","localeAltName":null},{"geonameid":8950194,"name":"Testaccio","admin3":"055022","localeAltName":null}],"admin3":[{"geonameid":6536885,"name":"Amelia","admin3":"055004","localeAltName":null},{"geonameid":6536886,"name":"Arrone","admin3":"055005","localeAltName":null},{"geonameid":6536887,"name":"Baschi","admin3":"055007","localeAltName":null},{"geonameid":6536888,"name":"Ferentillo","admin3":"055012","localeAltName":null},{"geonameid":6536889,"name":"Ficulle","admin3":"055013","localeAltName":null},{"geonameid":6536890,"name":"Montefranco","admin3":"055019","localeAltName":null},{"geonameid":6536891,"name":"Montegabbione","admin3":"055020","localeAltName":null},{"geonameid":6536892,"name":"Monteleone d'Orvieto","admin3":"055021","localeAltName":null},{"geonameid":6536893,"name":"Parrano","admin3":"055025"},{"geonameid":6536894,"name":"Stroncone","admin3":"055031","localeAltName":null},{"geonameid":6538619,"name":"Allerona","admin3":"055002","localeAltName":null},{"geonameid":6538620,"name":"Attigliano","admin3":"055006","localeAltName":null},{"geonameid":6538621,"name":"Castel Viscardo","admin3":"055010","localeAltName":null},{"geonameid":6538622,"name":"Fabro","admin3":"055011","localeAltName":null},{"geonameid":6538623,"name":"Guardea","admin3":"055015","localeAltName":null},{"geonameid":6538624,"name":"Montecastrilli","admin3":"055017","localeAltName":null},{"geonameid":6538625,"name":"Otricoli","admin3":"055024","localeAltName":null},{"geonameid":6538626,"name":"Polino","admin3":"055027"},{"geonameid":6538627,"name":"Porano","admin3":"055028","localeAltName":null},{"geonameid":6539745,"name":"Alviano","admin3":"055003"},{"geonameid":6539746,"name":"Castel Giorgio","admin3":"055009","localeAltName":null},{"geonameid":6539747,"name":"Montecchio","admin3":"055018","localeAltName":null},{"geonameid":6539748,"name":"Orvieto","admin3":"055023","localeAltName":null},{"geonameid":6539749,"name":"San Venanzo","admin3":"055030","localeAltName":null},{"geonameid":6539972,"name":"Narni","admin3":"055022","localeAltName":null},{"geonameid":6540494,"name":"Acquasparta","admin3":"055001","localeAltName":null},{"geonameid":6540495,"name":"San Gemini","admin3":"055029","localeAltName":null},{"geonameid":6541118,"name":"Lugnano in Teverina","admin3":"055016","localeAltName":null},{"geonameid":6541119,"name":"Penna in Teverina","admin3":"055026","localeAltName":null},{"geonameid":6542043,"name":"Giove","admin3":"055014","localeAltName":null},{"geonameid":6542114,"name":"Terni","admin3":"055032","localeAltName":null},{"geonameid":6542215,"name":"Calvi dell'Umbria","admin3":"055008","localeAltName":null},{"geonameid":6542257,"name":"Avigliano Umbro","admin3":"055033","localeAltName":null}],"alternateNames":[{"alternatenameId":1347621,"geonameid":3165770,"isoLanguage":"it","alternateName":"Terni","isPreferredName":true,"isShortName":true,"isColloquial":false,"isHistoric":false}]},"__N_SSG":true}