{"pageProps":{"locale":"en","admin2":{"geonameid":4885392,"name":"Boone County","country":"US","admin1":"IL","admin2":"007","admin3":"","latitude":"42.3230800","longitude":"-88.8233600"},"admin1":{"geonameid":4896861,"name":"Illinois","admin1":"IL","localeAltName":"Illinois"},"locations":[{"geonameid":4884453,"name":"Belvidere","admin3":"05105"},{"geonameid":4886584,"name":"Capron","admin3":"07328"},{"geonameid":4906482,"name":"Poplar Grove","admin3":"61158"}],"admin3":[{"geonameid":4884467,"name":"Township of Belvidere","admin3":"05105"},{"geonameid":4885300,"name":"Township of Bonus","admin3":"07302"},{"geonameid":4885311,"name":"Township of Boone","admin3":"07328"},{"geonameid":4886243,"name":"Township of Caledonia","admin3":"10435"},{"geonameid":4892668,"name":"Township of Flora","admin3":"26441"},{"geonameid":4899483,"name":"Township of LeRoy","admin3":"42951"},{"geonameid":4900955,"name":"Township of Manchester","admin3":"46318"},{"geonameid":4906487,"name":"Township of Poplar Grove","admin3":"61158"},{"geonameid":4912318,"name":"Township of Spring","admin3":"71578"}],"alternateNames":[{"alternatenameId":2089562,"geonameid":4896861,"isoLanguage":"en","alternateName":"Illinois","isPreferredName":true,"isShortName":true,"isColloquial":false,"isHistoric":false}]},"__N_SSG":true}