{"pageProps":{"locale":"en","admin2":{"geonameid":4235793,"name":"Christian County","country":"US","admin1":"IL","admin2":"021","admin3":"","latitude":"39.5457900","longitude":"-89.2772700"},"admin1":{"geonameid":4896861,"name":"Illinois","admin1":"IL","localeAltName":"Illinois"},"locations":[{"geonameid":4232987,"name":"Assumption","admin3":"02622"},{"geonameid":4237687,"name":"Edinburg","admin3":"09239"},{"geonameid":4242242,"name":"Kincaid","admin3":"70798"},{"geonameid":4244880,"name":"Morrisonville","admin3":"63797"},{"geonameid":4246595,"name":"Pana","admin3":"57485"},{"geonameid":4251141,"name":"Taylorville","admin3":"74587"}],"admin3":[{"geonameid":4232992,"name":"Township of Assumption","admin3":"02622"},{"geonameid":4233367,"name":"Township of Bear Creek","admin3":"04325"},{"geonameid":4234733,"name":"Township of Buckhart","admin3":"09239"},{"geonameid":4239903,"name":"Township of Greenwood","admin3":"31641"},{"geonameid":4241926,"name":"Township of Johnson","admin3":"38492"},{"geonameid":4242273,"name":"Township of King","admin3":"39948"},{"geonameid":4243389,"name":"Township of Locust","admin3":"44251"},{"geonameid":4244125,"name":"Township of May","admin3":"47631"},{"geonameid":4244959,"name":"Township of Mount Auburn","admin3":"50842"},{"geonameid":4244961,"name":"Township of Mosquito","admin3":"50686"},{"geonameid":4246607,"name":"Township of Pana","admin3":"57485"},{"geonameid":4247550,"name":"Township of Prairieton","admin3":"61730"},{"geonameid":4248094,"name":"Township of Ricks","admin3":"63797"},{"geonameid":4248440,"name":"Township of Rosamond","admin3":"65598"},{"geonameid":4250327,"name":"Township of South Fork","admin3":"70798"},{"geonameid":4250727,"name":"Township of Stonington","admin3":"72962"},{"geonameid":4251153,"name":"Township of Taylorville","admin3":"74587"}],"alternateNames":[{"alternatenameId":2089562,"geonameid":4896861,"isoLanguage":"en","alternateName":"Illinois","isPreferredName":true,"isShortName":true,"isColloquial":false,"isHistoric":false}]},"__N_SSG":true}