{"pageProps":{"locale":"en","admin2":{"geonameid":4235954,"name":"Clark County","country":"US","admin1":"IL","admin2":"023","admin3":"","latitude":"39.3335700","longitude":"-87.7877200"},"admin1":{"geonameid":4896861,"name":"Illinois","admin1":"IL","localeAltName":"Illinois"},"locations":[{"geonameid":4235334,"name":"Casey","admin3":"11631"},{"geonameid":4243951,"name":"Marshall","admin3":"47176"},{"geonameid":4244005,"name":"Martinsville","admin3":"47267"}],"admin3":[{"geonameid":4232763,"name":"Township of Anderson","admin3":"01465"},{"geonameid":4233041,"name":"Township of Auburn","admin3":"02908"},{"geonameid":4235353,"name":"Township of Casey","admin3":"11631"},{"geonameid":4236827,"name":"Township of Darwin","admin3":"18680"},{"geonameid":4237148,"name":"Township of Dolson","admin3":"20279"},{"geonameid":4237231,"name":"Township of Douglas","admin3":"20461"},{"geonameid":4241927,"name":"Township of Johnson","admin3":"38505"},{"geonameid":4243968,"name":"Township of Marshall","admin3":"47176"},{"geonameid":4244012,"name":"Township of Martinsville","admin3":"47267"},{"geonameid":4244374,"name":"Township of Melrose","admin3":"48229"},{"geonameid":4246435,"name":"Township of Orange","admin3":"56302"},{"geonameid":4246685,"name":"Township of Parker","admin3":"57667"},{"geonameid":4252264,"name":"Township of Wabash","admin3":"78279"},{"geonameid":4252900,"name":"Township of Westfield","admin3":"80294"},{"geonameid":4253561,"name":"Township of York","admin3":"83934"}],"alternateNames":[{"alternatenameId":2089562,"geonameid":4896861,"isoLanguage":"en","alternateName":"Illinois","isPreferredName":true,"isShortName":true,"isColloquial":false,"isHistoric":false}]},"__N_SSG":true}