{"pageProps":{"locale":"en","admin2":{"geonameid":4892729,"name":"Ford County","country":"US","admin1":"IL","admin2":"053","admin3":"","latitude":"40.5971800","longitude":"-88.2232600"},"admin1":{"geonameid":4896861,"name":"Illinois","admin1":"IL","localeAltName":"Illinois"},"locations":[{"geonameid":4893700,"name":"Gibson City","admin3":"20799"},{"geonameid":4905509,"name":"Paxton","admin3":"58122"}],"admin3":[{"geonameid":4885504,"name":"Township of Brenton","admin3":"07978"},{"geonameid":4886167,"name":"Township of Button","admin3":"10214"},{"geonameid":4889952,"name":"Township of Dix","admin3":"20110"},{"geonameid":4890190,"name":"Township of Drummer","admin3":"20799"},{"geonameid":4900713,"name":"Township of Lyman","admin3":"45252"},{"geonameid":4902493,"name":"Township of Mona","admin3":"49919"},{"geonameid":4905483,"name":"Township of Patton","admin3":"58122"},{"geonameid":4905551,"name":"Township of Peach Orchard","admin3":"58317"},{"geonameid":4905620,"name":"Township of Pella","admin3":"58512"},{"geonameid":4908041,"name":"Township of Rogers","admin3":"65273"},{"geonameid":4912833,"name":"Township of Sullivant","admin3":"73521"},{"geonameid":4915373,"name":"Township of Wall","admin3":"78474"}],"alternateNames":[{"alternatenameId":2089562,"geonameid":4896861,"isoLanguage":"en","alternateName":"Illinois","isPreferredName":true,"isShortName":true,"isColloquial":false,"isHistoric":false}]},"__N_SSG":true}