{"pageProps":{"locale":"en","admin2":{"geonameid":4241756,"name":"Jasper County","country":"US","admin1":"IL","admin2":"079","admin3":"","latitude":"39.0100300","longitude":"-88.1538100"},"admin1":{"geonameid":4896861,"name":"Illinois","admin1":"IL","localeAltName":"Illinois"},"locations":[{"geonameid":4828384,"name":"Newton","admin3":"78357"}],"admin3":[{"geonameid":4236651,"name":"Township of Crooked Creek","admin3":"17653"},{"geonameid":4238958,"name":"Township of Fox","admin3":"27390"},{"geonameid":4239709,"name":"Township of Grandville","admin3":"30887"},{"geonameid":4239978,"name":"Township of Grove","admin3":"31888"},{"geonameid":4241171,"name":"Township of Hunt City","admin3":"36659"},{"geonameid":4245835,"name":"Township of North Muddy","admin3":"54001"},{"geonameid":4250152,"name":"Township of Smallwood","admin3":"70200"},{"geonameid":4250348,"name":"Township of South Muddy","admin3":"71084"},{"geonameid":4252274,"name":"Township of Wade","admin3":"78357"},{"geonameid":4253214,"name":"Township of Willow Hill","admin3":"82023"}],"alternateNames":[{"alternatenameId":2089562,"geonameid":4896861,"isoLanguage":"en","alternateName":"Illinois","isPreferredName":true,"isShortName":true,"isColloquial":false,"isHistoric":false}]},"__N_SSG":true}