{"pageProps":{"locale":"en","admin2":{"geonameid":4241773,"name":"Jefferson County","country":"US","admin1":"IL","admin2":"081","admin3":"","latitude":"38.3005200","longitude":"-88.9240100"},"admin1":{"geonameid":4896861,"name":"Illinois","admin1":"IL","localeAltName":"Illinois"},"locations":[{"geonameid":4241354,"name":"Ina","admin3":"72039"},{"geonameid":4245152,"name":"Mount Vernon","admin3":"51193"}],"admin3":[{"geonameid":4233144,"name":"Township of Bald Hill","admin3":"03428"},{"geonameid":4234043,"name":"Township of Blissville","admin3":"06496"},{"geonameid":4235361,"name":"Township of Casner","admin3":"11670"},{"geonameid":4237120,"name":"Township of Dodds","admin3":"20227"},{"geonameid":4237794,"name":"Township of Elk Prairie","admin3":"23334"},{"geonameid":4238237,"name":"Township of Farrington","admin3":"25648"},{"geonameid":4238295,"name":"Township of Field","admin3":"25986"},{"geonameid":4239694,"name":"Township of Grand Prairie","admin3":"30731"},{"geonameid":4244178,"name":"Township of McClellan","admin3":"45512"},{"geonameid":4244825,"name":"Township of Moores Prairie","admin3":"50348"},{"geonameid":4245169,"name":"Township of Mount Vernon","admin3":"51193"},{"geonameid":4246807,"name":"Township of Pendleton","admin3":"58564"},{"geonameid":4248411,"name":"Township of Rome","admin3":"65377"},{"geonameid":4249966,"name":"Township of Shiloh","admin3":"69511"},{"geonameid":4250501,"name":"Township of Spring Garden","admin3":"72039"},{"geonameid":4252633,"name":"Township of Webber","admin3":"79514"}],"alternateNames":[{"alternatenameId":2089562,"geonameid":4896861,"isoLanguage":"en","alternateName":"Illinois","isPreferredName":true,"isShortName":true,"isColloquial":false,"isHistoric":false}]},"__N_SSG":true}