{"pageProps":{"locale":"en","admin2":{"geonameid":4242758,"name":"Lawrence County","country":"US","admin1":"IL","admin2":"101","admin3":"","latitude":"38.7199500","longitude":"-87.7267300"},"admin1":{"geonameid":4896861,"name":"Illinois","admin1":"IL","localeAltName":"Illinois"},"locations":[{"geonameid":4234416,"name":"Bridgeport","admin3":"08199"},{"geonameid":4242769,"name":"Lawrenceville","admin3":"42379"},{"geonameid":4250909,"name":"Sumner","admin3":"14299"}],"admin3":[{"geonameid":4232645,"name":"Township of Allison","admin3":"00906"},{"geonameid":4234197,"name":"Township of Bond","admin3":"07198"},{"geonameid":4234420,"name":"Township of Bridgeport","admin3":"08199"},{"geonameid":4235813,"name":"Township of Christy","admin3":"14299"},{"geonameid":4236975,"name":"Township of Denison","admin3":"19395"},{"geonameid":4242768,"name":"Township of Lawrence","admin3":"42379"},{"geonameid":4243632,"name":"Township of Lukin","admin3":"45200"},{"geonameid":4246886,"name":"Township of Petty","admin3":"59377"},{"geonameid":4248612,"name":"Township of Russell","admin3":"66378"}],"alternateNames":[{"alternatenameId":2089562,"geonameid":4896861,"isoLanguage":"en","alternateName":"Illinois","isPreferredName":true,"isShortName":true,"isColloquial":false,"isHistoric":false}]},"__N_SSG":true}