{"pageProps":{"locale":"en","admin2":{"geonameid":4901395,"name":"Mason County","country":"US","admin1":"IL","admin2":"125","admin3":"","latitude":"40.2396500","longitude":"-89.9167800"},"admin1":{"geonameid":4896861,"name":"Illinois","admin1":"IL","localeAltName":"Illinois"},"locations":[{"geonameid":4895336,"name":"Havana","admin3":"33526"},{"geonameid":4900970,"name":"Manito","admin3":"46396"},{"geonameid":4901390,"name":"Mason City","admin3":"47482"}],"admin3":[{"geonameid":4883157,"name":"Township of Allens Grove","admin3":"00844"},{"geonameid":4884212,"name":"Township of Bath","admin3":"04169"},{"geonameid":4889052,"name":"Township of Crane Creek","admin3":"17250"},{"geonameid":4892745,"name":"Township of Forest City","admin3":"26766"},{"geonameid":4895343,"name":"Township of Havana","admin3":"33526"},{"geonameid":4898475,"name":"Township of Kilbourne","admin3":"39870"},{"geonameid":4900716,"name":"Township of Lynchburg","admin3":"45265"},{"geonameid":4900974,"name":"Township of Manito","admin3":"46396"},{"geonameid":4901394,"name":"Township of Mason City","admin3":"47482"},{"geonameid":4905661,"name":"Township of Pennsylvania","admin3":"58629"},{"geonameid":4907029,"name":"Township of Quiver","admin3":"62419"},{"geonameid":4910461,"name":"Township of Salt Creek","admin3":"67353"},{"geonameid":4911320,"name":"Township of Sherman","admin3":"69329"}],"alternateNames":[{"alternatenameId":2089562,"geonameid":4896861,"isoLanguage":"en","alternateName":"Illinois","isPreferredName":true,"isShortName":true,"isColloquial":false,"isHistoric":false}]},"__N_SSG":true}