{"pageProps":{"locale":"en","admin2":{"geonameid":4252607,"name":"Wayne County","country":"US","admin1":"IL","admin2":"191","admin3":"","latitude":"38.4295600","longitude":"-88.4256100"},"admin1":{"geonameid":4896861,"name":"Illinois","admin1":"IL","localeAltName":"Illinois"},"locations":[{"geonameid":4238081,"name":"Fairfield","admin3":"31953"},{"geonameid":4252603,"name":"Wayne City","admin3":"56510"}],"admin3":[{"geonameid":4232908,"name":"Township of Arrington","admin3":"02297"},{"geonameid":4233235,"name":"Township of Barnhill","admin3":"03753"},{"geonameid":4233444,"name":"Township of Bedford","admin3":"04559"},{"geonameid":4233648,"name":"Township of Berry","admin3":"05521"},{"geonameid":4233890,"name":"Township of Big Mound","admin3":"05950"},{"geonameid":4237871,"name":"Township of Elm River","admin3":"23685"},{"geonameid":4238920,"name":"Township of Four Mile","admin3":"27364"},{"geonameid":4239250,"name":"Township of Garden Hill","admin3":"28534"},{"geonameid":4239979,"name":"Township of Grover","admin3":"31953"},{"geonameid":4240630,"name":"Township of Hickory Hill","admin3":"34501"},{"geonameid":4241425,"name":"Township of Indian Prairie","admin3":"37387"},{"geonameid":4241762,"name":"Township of Jasper","admin3":"38258"},{"geonameid":4242135,"name":"Township of Keith","admin3":"39285"},{"geonameid":4242673,"name":"Township of Lamard","admin3":"41755"},{"geonameid":4242824,"name":"Township of Leech","admin3":"42626"},{"geonameid":4244074,"name":"Township of Massilon","admin3":"47501"},{"geonameid":4245000,"name":"Township of Mount Erie","admin3":"50946"},{"geonameid":4246439,"name":"Township of Orchard","admin3":"56367"},{"geonameid":4246446,"name":"Township of Orel","admin3":"56510"},{"geonameid":4253612,"name":"Township of Zif","admin3":"84194"}],"alternateNames":[{"alternatenameId":2089562,"geonameid":4896861,"isoLanguage":"en","alternateName":"Illinois","isPreferredName":true,"isShortName":true,"isColloquial":false,"isHistoric":false}]},"__N_SSG":true}