{"pageProps":{"locale":"en","admin2":{"geonameid":4917010,"name":"Woodford County","country":"US","admin1":"IL","admin2":"203","admin3":"","latitude":"40.7882300","longitude":"-89.2111400"},"admin1":{"geonameid":4896861,"name":"Illinois","admin1":"IL","localeAltName":"Illinois"},"locations":[{"geonameid":4890813,"name":"El Paso","admin3":"23750"},{"geonameid":4891310,"name":"Eureka","admin3":"55821"},{"geonameid":4893670,"name":"Germantown Hills","admin3":"83544"},{"geonameid":4902065,"name":"Metamora","admin3":"48619"},{"geonameid":4902382,"name":"Minonk","admin3":"49581"},{"geonameid":4907773,"name":"Roanoke","admin3":"64603"},{"geonameid":4915543,"name":"Washburn","admin3":"11878"}],"admin3":[{"geonameid":4886809,"name":"Township of Cazenovia","admin3":"11878"},{"geonameid":4888159,"name":"Township of Clayton","admin3":"14793"},{"geonameid":4889215,"name":"Township of Cruger","admin3":"17861"},{"geonameid":4890822,"name":"Township of El Paso","admin3":"23750"},{"geonameid":4894672,"name":"Township of Greene","admin3":"31355"},{"geonameid":4898206,"name":"Township of Kansas","admin3":"39012"},{"geonameid":4900033,"name":"Township of Linn","admin3":"43835"},{"geonameid":4902071,"name":"Township of Metamora","admin3":"48619"},{"geonameid":4902385,"name":"Township of Minonk","admin3":"49581"},{"geonameid":4902566,"name":"Township of Montgomery","admin3":"50231"},{"geonameid":4904748,"name":"Township of Olio","admin3":"55821"},{"geonameid":4905226,"name":"Township of Palestine","admin3":"57290"},{"geonameid":4905286,"name":"Township of Panola","admin3":"57537"},{"geonameid":4905450,"name":"Township of Partridge","admin3":"58018"},{"geonameid":4907776,"name":"Township of Roanoke","admin3":"64603"},{"geonameid":4912198,"name":"Township of Spring Bay","admin3":"71611"},{"geonameid":4917180,"name":"Township of Worth","admin3":"83544"}],"alternateNames":[{"alternatenameId":2089562,"geonameid":4896861,"isoLanguage":"en","alternateName":"Illinois","isPreferredName":true,"isShortName":true,"isColloquial":false,"isHistoric":false}]},"__N_SSG":true}