{"pageProps":{"locale":"en","admin2":{"geonameid":6544261,"name":"Gemeente Westland","country":"NL","admin1":"11","admin2":"1783","admin3":"","latitude":"51.9967100","longitude":"4.2272900"},"admin1":{"geonameid":2743698,"name":"Provincie Zuid-Holland","admin1":"11"},"locations":[{"geonameid":2747364,"name":"'s-Gravenzande","admin3":""},{"geonameid":6544755,"name":"Baakwoning","admin3":""},{"geonameid":2758876,"name":"Blaker","admin3":""},{"geonameid":2758086,"name":"Burgersdijk","admin3":""},{"geonameid":6544754,"name":"De Driesprong","admin3":""},{"geonameid":2757336,"name":"De Lier","admin3":""},{"geonameid":2754684,"name":"Heenweg","admin3":""},{"geonameid":2753806,"name":"Honselersdijk","admin3":""},{"geonameid":2752130,"name":"Kwintsheul","admin3":""},{"geonameid":2751635,"name":"Lierhand","admin3":""},{"geonameid":2751296,"name":"Maasdijk","admin3":""},{"geonameid":2751173,"name":"Mariëndijk","admin3":""},{"geonameid":2750648,"name":"Molenwijk","admin3":""},{"geonameid":2750630,"name":"Monster","admin3":""},{"geonameid":2750523,"name":"Naaldwijk","admin3":""},{"geonameid":2750232,"name":"Nieuwe Tuinen","admin3":""},{"geonameid":2749538,"name":"Oostbuurt","admin3":""},{"geonameid":2748533,"name":"Poeldijk","admin3":""},{"geonameid":2747973,"name":"Rolpaal","admin3":""},{"geonameid":2746457,"name":"Ter Heijde","admin3":""},{"geonameid":3230181,"name":"Vluchtenburg","admin3":""},{"geonameid":2744973,"name":"Wateringen","admin3":""},{"geonameid":2744716,"name":"Westerlee","admin3":""}],"admin3":[],"alternateNames":[{"alternatenameId":11907789,"geonameid":2743698,"isoLanguage":"de","alternateName":"Südholland","isPreferredName":true,"isShortName":true,"isColloquial":false,"isHistoric":false}]},"__N_SSG":true}