{"pageProps":{"locale":"en","admin2":{"geonameid":8549513,"name":"Gemeente Goeree-Overflakkee","country":"NL","admin1":"11","admin2":"1924","admin3":"","latitude":"51.7535100","longitude":"4.1126400"},"admin1":{"geonameid":2743698,"name":"Provincie Zuid-Holland","admin1":"11"},"locations":[{"geonameid":2759983,"name":"Achthuizen","admin3":""},{"geonameid":2759377,"name":"Battenoord","admin3":""},{"geonameid":2757253,"name":"Den Bommel","admin3":""},{"geonameid":2756787,"name":"Dirksland","admin3":""},{"geonameid":2755485,"name":"Goedereede","admin3":""},{"geonameid":2754745,"name":"Havenhoofd","admin3":""},{"geonameid":2754350,"name":"Herkingen","admin3":""},{"geonameid":2752808,"name":"Klarebeek","admin3":""},{"geonameid":2752315,"name":"Kralingen","admin3":""},{"geonameid":2752299,"name":"Kranendijk","admin3":""},{"geonameid":2751890,"name":"Langstraat","admin3":""},{"geonameid":2750972,"name":"Melissant","admin3":""},{"geonameid":2750884,"name":"Middelharnis","admin3":""},{"geonameid":2750233,"name":"Nieuwe-Tonge","admin3":""},{"geonameid":2749560,"name":"Ooltgensplaat","admin3":""},{"geonameid":2749536,"name":"Oostdijk","admin3":""},{"geonameid":2749164,"name":"Ouddorp","admin3":""},{"geonameid":2749041,"name":"Oude Nieuwland","admin3":""},{"geonameid":2748994,"name":"Oude-Tonge","admin3":""},{"geonameid":2749092,"name":"Oudeland","admin3":""},{"geonameid":2747016,"name":"Sommelsdijk","admin3":""},{"geonameid":2746871,"name":"Stad aan 't Haringvliet","admin3":""},{"geonameid":2746739,"name":"Stellendam","admin3":""},{"geonameid":2744625,"name":"West-Nieuwland","admin3":""},{"geonameid":2743632,"name":"Zuidzijde","admin3":""}],"admin3":[],"alternateNames":[{"alternatenameId":11907789,"geonameid":2743698,"isoLanguage":"de","alternateName":"SÃ¼dholland","isPreferredName":true,"isShortName":true,"isColloquial":false,"isHistoric":false}]},"__N_SSG":true}