{"pageProps":{"locale":"it","admin2":{"geonameid":3174658,"name":"Provincia di Livorno","country":"IT","admin1":"16","admin2":"LI","admin3":"","latitude":"43.2333300","longitude":"10.5833300","localeAltName":"Livorno"},"admin1":{"geonameid":3165361,"name":"Toscana","admin1":"16","localeAltName":"Toscana"},"locations":[{"geonameid":3182058,"name":"Bibbona","admin3":"049001","localeAltName":null},{"geonameid":3181012,"name":"Campiglia Marittima","admin3":"049002","localeAltName":null},{"geonameid":6534703,"name":"Campo nell'Elba","admin3":"049003","localeAltName":null},{"geonameid":3180676,"name":"Capoliveri","admin3":"049004","localeAltName":null},{"geonameid":3179762,"name":"Castagneto Carducci","admin3":"049006","localeAltName":null},{"geonameid":3179529,"name":"Castelnuovo Misericordia","admin3":"049017","localeAltName":null},{"geonameid":3179267,"name":"Cavo","admin3":"049021","localeAltName":null},{"geonameid":3179235,"name":"Cecina","admin3":"049007","localeAltName":null},{"geonameid":3178349,"name":"Collesalvetti","admin3":"049008","localeAltName":null},{"geonameid":6698405,"name":"Donoratico","admin3":"049006","localeAltName":null},{"geonameid":3176449,"name":"Gabbro","admin3":"049017","localeAltName":null},{"geonameid":3175691,"name":"Guasticce","admin3":"049008","localeAltName":null},{"geonameid":6544060,"name":"La California","admin3":"049001","localeAltName":null},{"geonameid":3174659,"name":"Livorno","admin3":"049009","localeAltName":null},{"geonameid":3173996,"name":"Marciana Marina","admin3":"049011","localeAltName":null},{"geonameid":3173936,"name":"Marina di Campo","admin3":"049003","localeAltName":null},{"geonameid":3172276,"name":"Nibbiaia","admin3":"049017","localeAltName":null},{"geonameid":3172160,"name":"Nugola","admin3":"049008","localeAltName":null},{"geonameid":3170674,"name":"Piombino","admin3":"049012","localeAltName":null},{"geonameid":3170107,"name":"Porto Azzurro","admin3":"049013","localeAltName":null},{"geonameid":3170094,"name":"Portoferraio","admin3":"049014","localeAltName":null},{"geonameid":3169677,"name":"Quercianella","admin3":"049009","localeAltName":null},{"geonameid":3169330,"name":"Rio Marina","admin3":"049021","localeAltName":null},{"geonameid":3169347,"name":"Rio nell'Elba","admin3":"049021","localeAltName":null},{"geonameid":3168931,"name":"Rosignano Marittimo","admin3":"049017","localeAltName":null},{"geonameid":3168930,"name":"Rosignano Solvay-Castiglioncello","admin3":"049017","localeAltName":null},{"geonameid":8948863,"name":"S.P. in Palazzi","admin3":"049007","localeAltName":null},{"geonameid":3168280,"name":"San Giovanni","admin3":"049014","localeAltName":null},{"geonameid":3167867,"name":"San Piero in Campo","admin3":"049003","localeAltName":null},{"geonameid":3167207,"name":"San Vincenzo","admin3":"049018","localeAltName":null},{"geonameid":3166009,"name":"Suvereto","admin3":"049020","localeAltName":null},{"geonameid":3164994,"name":"Vada","admin3":"049017","localeAltName":null},{"geonameid":3164572,"name":"Venturina","admin3":"049002","localeAltName":null},{"geonameid":3164423,"name":"Vicarello","admin3":"049008","localeAltName":null},{"geonameid":3169323,"name":"Vignale Riotorto","admin3":"049012","localeAltName":null}],"admin3":[{"geonameid":3180938,"name":"Campo nell'Elba","admin3":"049003","localeAltName":null},{"geonameid":6536830,"name":"Marciana Marina","admin3":"049011","localeAltName":null},{"geonameid":6536831,"name":"Portoferraio","admin3":"049014","localeAltName":null},{"geonameid":6538568,"name":"Porto Azzurro","admin3":"049013","localeAltName":null},{"geonameid":6539735,"name":"Bibbona","admin3":"049001","localeAltName":null},{"geonameid":6539736,"name":"Cecina","admin3":"049007","localeAltName":null},{"geonameid":6539965,"name":"Marciana","admin3":"049010"},{"geonameid":6539966,"name":"Sassetta","admin3":"049019"},{"geonameid":6540122,"name":"Livorno","admin3":"049009","localeAltName":null},{"geonameid":6540474,"name":"Capoliveri","admin3":"049004","localeAltName":null},{"geonameid":6540475,"name":"San Vincenzo","admin3":"049018","localeAltName":null},{"geonameid":6540476,"name":"Suvereto","admin3":"049020","localeAltName":null},{"geonameid":6541091,"name":"Campiglia Marittima","admin3":"049002","localeAltName":null},{"geonameid":6541092,"name":"Castagneto Carducci","admin3":"049006","localeAltName":null},{"geonameid":6541093,"name":"Rosignano Marittimo","admin3":"049017","localeAltName":null},{"geonameid":6541646,"name":"Piombino","admin3":"049012","localeAltName":null},{"geonameid":6542255,"name":"Capraia Isola","admin3":"049005"},{"geonameid":6542256,"name":"Collesalvetti","admin3":"049008","localeAltName":null},{"geonameid":12032153,"name":"Rio","admin3":"049021","localeAltName":null}],"alternateNames":[{"alternatenameId":1347493,"geonameid":3165361,"isoLanguage":"it","alternateName":"Toscana","isPreferredName":true,"isShortName":true,"isColloquial":false,"isHistoric":false},{"alternatenameId":1350342,"geonameid":3174658,"isoLanguage":"it","alternateName":"Livorno","isPreferredName":true,"isShortName":true,"isColloquial":false,"isHistoric":false}]},"__N_SSG":true}