{"pageProps":{"locale":"de","admin2":{"geonameid":6458866,"name":"Lausanne District","country":"CH","admin1":"VD","admin2":"2225","admin3":"","latitude":"46.5213100","longitude":"6.6333400"},"admin1":{"geonameid":2658182,"name":"Canton de Vaud","admin1":"VD"},"locations":[{"geonameid":8521688,"name":"Blécherette","admin3":"5586"},{"geonameid":2661187,"name":"Cheseaux","admin3":"5582"},{"geonameid":2660884,"name":"Epalinges","admin3":"5584"},{"geonameid":2659994,"name":"Lausanne","admin3":"5586"},{"geonameid":2659959,"name":"Le Mont-sur-Lausanne","admin3":"5587"},{"geonameid":2658986,"name":"Romanel-sur-Lausanne","admin3":"5592"}],"admin3":[{"geonameid":7285501,"name":"Cheseaux-sur-Lausanne","admin3":"5582"},{"geonameid":7285738,"name":"Epalinges","admin3":"5584"},{"geonameid":7286167,"name":"Jouxtens-Mézery","admin3":"5585"},{"geonameid":7286283,"name":"Lausanne","admin3":"5586"},{"geonameid":7286310,"name":"Le Mont-sur-Lausanne","admin3":"5587"},{"geonameid":7286938,"name":"Romanel-sur-Lausanne","admin3":"5592"}],"alternateNames":[]},"__N_SSG":true}