{"pageProps":{"locale":"en","admin2":{"geonameid":2638655,"name":"Shropshire","country":"GB","admin1":"ENG","admin2":"L6","admin3":"","latitude":"52.6666700","longitude":"-2.7500000","localeAltName":"Shropshire"},"admin1":{"geonameid":6269131,"name":"England","admin1":"ENG","localeAltName":"England"},"locations":[{"geonameid":2657696,"name":"Acton","admin3":"00GG114","localeAltName":null},{"geonameid":2657693,"name":"Acton Burnell","admin3":"00GG002","localeAltName":null},{"geonameid":2657691,"name":"Acton Round","admin3":"00GG003","localeAltName":null},{"geonameid":2657690,"name":"Acton Scott","admin3":"00GG004","localeAltName":null},{"geonameid":2657683,"name":"Adderley","admin3":"00GG005","localeAltName":null},{"geonameid":2657572,"name":"Alberbury","admin3":"00GG006","localeAltName":null},{"geonameid":2657570,"name":"Albrighton","admin3":"00GG143","localeAltName":null},{"geonameid":2657571,"name":"Albrighton","admin3":"00GG007","localeAltName":null},{"geonameid":2657467,"name":"All Stretton","admin3":"00GG048","localeAltName":null},{"geonameid":2657393,"name":"Alveley","admin3":"00GG009","localeAltName":null},{"geonameid":9884044,"name":"Annscroft","admin3":"00GG109","localeAltName":null},{"geonameid":2656985,"name":"Ash","admin3":"00GG191","localeAltName":null},{"geonameid":2656951,"name":"Ashford Carbonell","admin3":"00GG011","localeAltName":null},{"geonameid":2656882,"name":"Asterley","admin3":"00GG145","localeAltName":null},{"geonameid":2656877,"name":"Astley","admin3":"00GG012","localeAltName":null},{"geonameid":2656875,"name":"Astley Abbots","admin3":"00GG013","localeAltName":null},{"geonameid":2656869,"name":"Aston","admin3":"00GG183","localeAltName":null},{"geonameid":2656866,"name":"Aston Botterell","admin3":"00GG014","localeAltName":null},{"geonameid":2656860,"name":"Aston Pigott","admin3":"00GG201","localeAltName":null},{"geonameid":2656852,"name":"Atcham","admin3":"00GG016","localeAltName":null},{"geonameid":2656649,"name":"Badger","admin3":"00GG017","localeAltName":null},{"geonameid":2656571,"name":"Ball","admin3":"00GG141","localeAltName":null},{"geonameid":2656247,"name":"Barrow Bridge","admin3":"00GG034","localeAltName":null},{"geonameid":2656197,"name":"Baschurch","admin3":"00GG019","localeAltName":null},{"geonameid":2656160,"name":"Battlefield","admin3":"00GG012","localeAltName":null},{"geonameid":2656129,"name":"Bayston Hill","admin3":"00GG020","localeAltName":null},{"geonameid":2656066,"name":"Beckbury","admin3":"00GG021","localeAltName":null},{"geonameid":2656034,"name":"Bedstone","admin3":"00GG022","localeAltName":null},{"geonameid":8063570,"name":"Benthall","admin3":"00GG018","localeAltName":null},{"geonameid":2655839,"name":"Berrington","admin3":"00GG023","localeAltName":null},{"geonameid":2655792,"name":"Bettws y Crwyn","admin3":"00GG024","localeAltName":null},{"geonameid":2655715,"name":"Bicton","admin3":"00GG025","localeAltName":null},{"geonameid":2655661,"name":"Billingsley","admin3":"00GG026","localeAltName":null},{"geonameid":2655572,"name":"Bishop's Castle","admin3":"00GG027","localeAltName":null},{"geonameid":2655539,"name":"Bitterley","admin3":"00GG028","localeAltName":null},{"geonameid":11669852,"name":"Bomere Heath","admin3":"00GG143","localeAltName":null},{"geonameid":2655196,"name":"Boraston","admin3":"00GG030","localeAltName":null},{"geonameid":10244229,"name":"Boreton","admin3":"00GG059","localeAltName":null},{"geonameid":2655090,"name":"Bourton","admin3":"00GG128","localeAltName":null},{"geonameid":2654731,"name":"Bridgnorth","admin3":"00GG032","localeAltName":null},{"geonameid":2654606,"name":"Brockton","admin3":"00GG201","localeAltName":null},{"geonameid":2654591,"name":"Bromfield","admin3":"00GG033","localeAltName":null},{"geonameid":2654586,"name":"Bromlow","admin3":"00GG201","localeAltName":null},{"geonameid":2654552,"name":"Broome","admin3":"00GG091","localeAltName":null},{"geonameid":2654539,"name":"Broseley","admin3":"00GG034","localeAltName":null},{"geonameid":2654389,"name":"Bucknell","admin3":"00GG035","localeAltName":null},{"geonameid":2654363,"name":"Buildwas","admin3":"00GG036","localeAltName":null},{"geonameid":2654284,"name":"Burlton","admin3":"00GG111","localeAltName":null},{"geonameid":2654197,"name":"Burwarton","admin3":"00GG038","localeAltName":null},{"geonameid":2653823,"name":"Cardeston","admin3":"00GG006","localeAltName":null},{"geonameid":2653812,"name":"Cardington","admin3":"00GG039","localeAltName":null},{"geonameid":2653461,"name":"Caynham","admin3":"00GG040","localeAltName":null},{"geonameid":2653214,"name":"Cheswardine","admin3":"00GG042","localeAltName":null},{"geonameid":2653209,"name":"Chetton","admin3":"00GG043","localeAltName":null},{"geonameid":2653171,"name":"Childs Ercall","admin3":"00GG044","localeAltName":null},{"geonameid":2653133,"name":"Chirbury","admin3":"00GG045","localeAltName":null},{"geonameid":2653025,"name":"Church Pulverbatch","admin3":"00GG047","localeAltName":null},{"geonameid":2653021,"name":"Church Stretton","admin3":"00GG048","localeAltName":null},{"geonameid":2652918,"name":"Claverley","admin3":"00GG049","localeAltName":null},{"geonameid":8224278,"name":"Clee Hill","admin3":"00GG040","localeAltName":null},{"geonameid":2652886,"name":"Clee Saint Margaret","admin3":"00GG050","localeAltName":null},{"geonameid":8199690,"name":"Cleestanton","admin3":"00GG171","localeAltName":null},{"geonameid":2652874,"name":"Cleobury Mortimer","admin3":"00GG051","localeAltName":null},{"geonameid":2652873,"name":"Cleobury North","admin3":"00GG052","localeAltName":null},{"geonameid":2652818,"name":"Clive","admin3":"00GG053","localeAltName":null},{"geonameid":2652757,"name":"Clun","admin3":"00GG054","localeAltName":null},{"geonameid":2652754,"name":"Clunbury","admin3":"00GG055","localeAltName":null},{"geonameid":2652748,"name":"Clungunford","admin3":"00GG056","localeAltName":null},{"geonameid":2652743,"name":"Clunton","admin3":"00GG055","localeAltName":null},{"geonameid":2652664,"name":"Cockshutt","admin3":"00GG057","localeAltName":null},{"geonameid":11239093,"name":"Coleham","admin3":"00GG162","localeAltName":null},{"geonameid":2652589,"name":"Colemere","admin3":"00GG182","localeAltName":null},{"geonameid":2652470,"name":"Condover","admin3":"00GG059","localeAltName":null},{"geonameid":2652376,"name":"Coreley","admin3":"00GG060","localeAltName":null},{"geonameid":11807695,"name":"Cosford","admin3":"00GG068","localeAltName":null},{"geonameid":2652274,"name":"Coton","admin3":"00GG183","localeAltName":null},{"geonameid":2652244,"name":"Cound","admin3":"00GG061","localeAltName":null},{"geonameid":2652172,"name":"Crackleybank","admin3":"00GG159","localeAltName":null},{"geonameid":2652061,"name":"Craven Arms","admin3":"00GG062","localeAltName":null},{"geonameid":2652013,"name":"Cressage","admin3":"00GG063","localeAltName":null},{"geonameid":2651734,"name":"Culmington","admin3":"00GG064","localeAltName":null},{"geonameid":2651267,"name":"Diddlebury","admin3":"00GG066","localeAltName":null},{"geonameid":2651204,"name":"Ditton Priors","admin3":"00GG067","localeAltName":null},{"geonameid":2651081,"name":"Dorrington","admin3":"00GG059","localeAltName":null},{"geonameid":9884052,"name":"Dovaston","admin3":"00GG101","localeAltName":null},{"geonameid":2650562,"name":"Eardington","admin3":"00GG069","localeAltName":null},{"geonameid":2650559,"name":"Eardiston","admin3":"00GG154","localeAltName":null},{"geonameid":2650413,"name":"Easthope","admin3":"00GG070","localeAltName":null},{"geonameid":6286256,"name":"Eaton","admin3":"00GG114","localeAltName":null},{"geonameid":2650300,"name":"Eaton","admin3":"00GG071","localeAltName":null},{"geonameid":2650229,"name":"Edgton","admin3":"00GG072","localeAltName":null},{"geonameid":2650205,"name":"Edstaston","admin3":"00GG183","localeAltName":null},{"geonameid":2650097,"name":"Ellesmere","admin3":"00GG074","localeAltName":null},{"geonameid":2649675,"name":"Farlow","admin3":"00GG075","localeAltName":null},{"geonameid":6255016,"name":"Fauls","admin3":"00GG146","localeAltName":null},{"geonameid":2649555,"name":"Fenngreen","admin3":"00GG009","localeAltName":null},{"geonameid":2649351,"name":"Fitz","admin3":"00GG143","localeAltName":null},{"geonameid":2649237,"name":"Ford","admin3":"00GG076","localeAltName":null},{"geonameid":2649094,"name":"Frankton","admin3":"00GG095","localeAltName":null},{"geonameid":11239095,"name":"Frankwell","admin3":"00GG162","localeAltName":null},{"geonameid":2649031,"name":"Frodesley","admin3":"00GG077","localeAltName":null},{"geonameid":2648553,"name":"Glazeley","admin3":"00GG078","localeAltName":null},{"geonameid":2648373,"name":"Gobowen","admin3":"00GG156","localeAltName":null},{"geonameid":11239094,"name":"Gravehill","admin3":"00GG162","localeAltName":null},{"geonameid":2648087,"name":"Great Hanwood","admin3":"00GG079","localeAltName":null},{"geonameid":2648051,"name":"Great Ness","admin3":"00GG080","localeAltName":null},{"geonameid":2647936,"name":"Greet","admin3":"00GG081","localeAltName":null},{"geonameid":9883979,"name":"Grimpo","admin3":"00GG186","localeAltName":null},{"geonameid":2647861,"name":"Grinshill","admin3":"00GG082","localeAltName":null},{"geonameid":2647707,"name":"Habberley","admin3":"00GG047","localeAltName":null},{"geonameid":2647673,"name":"Hadnall","admin3":"00GG083","localeAltName":null},{"geonameid":2647635,"name":"Halford","admin3":"00GG062","localeAltName":null},{"geonameid":2647602,"name":"Halston","admin3":"00GG145","localeAltName":null},{"geonameid":2647549,"name":"Hampton","admin3":"00GG041","localeAltName":null},{"geonameid":8260051,"name":"Hampton Loade","admin3":"00GG041","localeAltName":null},{"geonameid":2647469,"name":"Harlescott","admin3":"00GG162","localeAltName":null},{"geonameid":2647465,"name":"Harley","admin3":"00GG084","localeAltName":null},{"geonameid":10345353,"name":"Harton","admin3":"00GG071","localeAltName":null},{"geonameid":2647324,"name":"Haughton","admin3":"00GG186","localeAltName":null},{"geonameid":6947741,"name":"Hazler Hill","admin3":"00GG090","localeAltName":null},{"geonameid":2647228,"name":"Heathton","admin3":"00GG049","localeAltName":null},{"geonameid":9884051,"name":"Heathwaen","admin3":"00GG101","localeAltName":null},{"geonameid":6255018,"name":"Higher heath","admin3":"00GG146","localeAltName":null},{"geonameid":2646941,"name":"Highley","admin3":"00GG086","localeAltName":null},{"geonameid":2646874,"name":"Hilton","admin3":"00GG200","localeAltName":null},{"geonameid":2646864,"name":"Hindford","admin3":"00GG193","localeAltName":null},{"geonameid":2646853,"name":"Hinstock","admin3":"00GG087","localeAltName":null},{"geonameid":2646803,"name":"Hodnet","admin3":"00GG088","localeAltName":null},{"geonameid":9884043,"name":"Hook a Gate","admin3":"00GG109","localeAltName":null},{"geonameid":2646635,"name":"Hope Bagot","admin3":"00GG089","localeAltName":null},{"geonameid":2646634,"name":"Hope Bowdler","admin3":"00GG090","localeAltName":null},{"geonameid":2646628,"name":"Hopesay","admin3":"00GG091","localeAltName":null},{"geonameid":9884055,"name":"Hopton","admin3":"00GG080","localeAltName":null},{"geonameid":2646618,"name":"Hopton Cangeford","admin3":"00GG167","localeAltName":null},{"geonameid":2646617,"name":"Hoptonheath","admin3":"00GG022","localeAltName":null},{"geonameid":2646611,"name":"Horderley","admin3":"00GG196","localeAltName":null},{"geonameid":2646609,"name":"Hordley","admin3":"00GG095","localeAltName":null},{"geonameid":2646453,"name":"Hughley","admin3":"00GG096","localeAltName":null},{"geonameid":2646283,"name":"Ifton Heath","admin3":"00GG166","localeAltName":null},{"geonameid":2646281,"name":"Ightfield","admin3":"00GG097","localeAltName":null},{"geonameid":2645820,"name":"Kenley","admin3":"00GG099","localeAltName":null},{"geonameid":10376009,"name":"Kenwick","admin3":"00GG057","localeAltName":null},{"geonameid":11239096,"name":"Kingsland","admin3":"00GG162","localeAltName":null},{"geonameid":2645406,"name":"Kinlet","admin3":"00GG100","localeAltName":null},{"geonameid":2645376,"name":"Kinnerley","admin3":"00GG101","localeAltName":null},{"geonameid":2645359,"name":"Kinton","admin3":"00GG080","localeAltName":null},{"geonameid":2645116,"name":"Knockin","admin3":"00GG102","localeAltName":null},{"geonameid":8051260,"name":"Knowlegate","admin3":"00GG089","localeAltName":null},{"geonameid":9884053,"name":"Kynaston","admin3":"00GG101","localeAltName":null},{"geonameid":2644724,"name":"Leaton","admin3":"00GG143","localeAltName":null},{"geonameid":2644691,"name":"Lee Brockhurst","admin3":"00GG125","localeAltName":null},{"geonameid":2644692,"name":"Leebotwood","admin3":"00GG103","localeAltName":null},{"geonameid":2644655,"name":"Leighton","admin3":"00GG104","localeAltName":null},{"geonameid":2644445,"name":"Linley","admin3":"00GG170","localeAltName":null},{"geonameid":2644282,"name":"Little Ness","admin3":"00GG105","localeAltName":null},{"geonameid":2644242,"name":"Little Stretton","admin3":"00GG048","localeAltName":null},{"geonameid":2643927,"name":"Llanvair Waterdine","admin3":"00GG106","localeAltName":null},{"geonameid":2643904,"name":"Llanyblodwel","admin3":"00GG107","localeAltName":null},{"geonameid":2643871,"name":"Llynclys","admin3":"00GG107","localeAltName":null},{"geonameid":2643787,"name":"Lockleywood","admin3":"00GG087","localeAltName":null},{"geonameid":11593332,"name":"Longden","admin3":"00GG109","localeAltName":null},{"geonameid":2643693,"name":"Longford","admin3":"00GG126","localeAltName":null},{"geonameid":11072268,"name":"Longmynd","admin3":"00GG131","localeAltName":null},{"geonameid":2643651,"name":"Longnor","admin3":"00GG110","localeAltName":null},{"geonameid":2643616,"name":"Longville in the Dale","admin3":"00GG153","localeAltName":null},{"geonameid":2643599,"name":"Loppington","admin3":"00GG111","localeAltName":null},{"geonameid":2643556,"name":"Loughton","admin3":"00GG190","localeAltName":null},{"geonameid":6255019,"name":"Lower Heath","admin3":"00GG146","localeAltName":null},{"geonameid":2643425,"name":"Ludlow","admin3":"00GG113","localeAltName":null},{"geonameid":2643328,"name":"Lydbury North","admin3":"00GG114","localeAltName":null},{"geonameid":2643323,"name":"Lydham","admin3":"00GG115","localeAltName":null},{"geonameid":9884042,"name":"Lythwood","admin3":"00GG020","localeAltName":null},{"geonameid":2643220,"name":"Maesbury","admin3":"00GG141","localeAltName":null},{"geonameid":2643172,"name":"Mainstone","admin3":"00GG116","localeAltName":null},{"geonameid":2643069,"name":"Marchamley","admin3":"00GG088","localeAltName":null},{"geonameid":2643028,"name":"Market Drayton","admin3":"00GG117","localeAltName":null},{"geonameid":2642983,"name":"Marshbrook","admin3":"00GG048","localeAltName":null},{"geonameid":2642945,"name":"Marton","admin3":"00GG045","localeAltName":null},{"geonameid":2642854,"name":"Meadowtown","admin3":"00GG201","localeAltName":null},{"geonameid":2642760,"name":"Melverley","admin3":"00GG118","localeAltName":null},{"geonameid":2642737,"name":"Meole Brace","admin3":"00GG162","localeAltName":null},{"geonameid":2642722,"name":"Merrington","admin3":"00GG143","localeAltName":null},{"geonameid":6255015,"name":"Mickley","admin3":"00GG088","localeAltName":null},{"geonameid":2642598,"name":"Middleton","admin3":"00GG028","localeAltName":null},{"geonameid":2642433,"name":"Minsterley","admin3":"00GG121","localeAltName":null},{"geonameid":2642335,"name":"Monkhopton","admin3":"00GG122","localeAltName":null},{"geonameid":2642230,"name":"More","admin3":"00GG124","localeAltName":null},{"geonameid":2642203,"name":"Moreton Corbet","admin3":"00GG125","localeAltName":null},{"geonameid":2642197,"name":"Moreton Say","admin3":"00GG126","localeAltName":null},{"geonameid":2642153,"name":"Morville","admin3":"00GG127","localeAltName":null},{"geonameid":2642054,"name":"Much Wenlock","admin3":"00GG128","localeAltName":null},{"geonameid":2641957,"name":"Munslow","admin3":"00GG129","localeAltName":null},{"geonameid":2641934,"name":"Myddle","admin3":"00GG130","localeAltName":null},{"geonameid":2641820,"name":"Neen Savage","admin3":"00GG133","localeAltName":null},{"geonameid":2641819,"name":"Neenton","admin3":"00GG135","localeAltName":null},{"geonameid":9884054,"name":"Nesscliffe","admin3":"00GG080","localeAltName":null},{"geonameid":2641679,"name":"Newcastle","admin3":"00GG136","localeAltName":null},{"geonameid":9538897,"name":"Newington Arms","admin3":"00GG062","localeAltName":null},{"geonameid":2641465,"name":"Norbury","admin3":"00GG137","localeAltName":null},{"geonameid":2641201,"name":"Norton","admin3":"00GG170","localeAltName":null},{"geonameid":2641187,"name":"Norton in Hales","admin3":"00GG138","localeAltName":null},{"geonameid":2640961,"name":"Onibury","admin3":"00GG139","localeAltName":null},{"geonameid":9884047,"name":"Osbaston","admin3":"00GG102","localeAltName":null},{"geonameid":2640861,"name":"Oswestry","admin3":"00GG140","localeAltName":null},{"geonameid":2640646,"name":"Pant","admin3":"00GG108","localeAltName":null},{"geonameid":2640373,"name":"Peplow","admin3":"00GG088","localeAltName":null},{"geonameid":2640334,"name":"Petton","admin3":"00GG142","localeAltName":null},{"geonameid":2640309,"name":"Picklescott","admin3":"00GG165","localeAltName":null},{"geonameid":2640272,"name":"Pipe Gate","admin3":"00GG199","localeAltName":null},{"geonameid":2640261,"name":"Pitchford","admin3":"00GG144","localeAltName":null},{"geonameid":2640225,"name":"Plattlane","admin3":"00GG195","localeAltName":null},{"geonameid":2640220,"name":"Plealey","admin3":"00GG145","localeAltName":null},{"geonameid":2640212,"name":"Plowden","admin3":"00GG114","localeAltName":null},{"geonameid":2640129,"name":"Pontesbury","admin3":"00GG145","localeAltName":null},{"geonameid":2639935,"name":"Prees","admin3":"00GG146","localeAltName":null},{"geonameid":2639933,"name":"Prees green","admin3":"00GG146","localeAltName":null},{"geonameid":2639923,"name":"Presthope","admin3":"00GG128","localeAltName":null},{"geonameid":2639906,"name":"Preston Gubbals","admin3":"00GG143","localeAltName":null},{"geonameid":2639799,"name":"Quatford","admin3":"00GG032","localeAltName":null},{"geonameid":2639798,"name":"Quatt","admin3":"00GG147","localeAltName":null},{"geonameid":9883978,"name":"Queens Head","admin3":"00GG141","localeAltName":null},{"geonameid":2639610,"name":"Ratlinghope","admin3":"00GG148","localeAltName":null},{"geonameid":2639530,"name":"Rednal","admin3":"00GG186","localeAltName":null},{"geonameid":6693253,"name":"Rhydycroesau","admin3":"00GG141","localeAltName":null},{"geonameid":2639186,"name":"Romsley","admin3":"00GG150","localeAltName":null},{"geonameid":2638948,"name":"Rushbury","admin3":"00GG153","localeAltName":null},{"geonameid":2638917,"name":"Ruyton-XI-Towns","admin3":"00GG154","localeAltName":null},{"geonameid":2638894,"name":"Ryton","admin3":"00GG155","localeAltName":null},{"geonameid":9884046,"name":"Sandford","admin3":"00GG186","localeAltName":null},{"geonameid":6255014,"name":"Sandford","admin3":"00GG146","localeAltName":null},{"geonameid":2638237,"name":"Selattyn","admin3":"00GG156","localeAltName":null},{"geonameid":2638111,"name":"Shawbury","admin3":"00GG157","localeAltName":null},{"geonameid":2638054,"name":"Shelve","admin3":"00GG201","localeAltName":null},{"geonameid":2638023,"name":"Sheriff Hales","admin3":"00GG159","localeAltName":null},{"geonameid":2637985,"name":"Shifnal","admin3":"00GG160","localeAltName":null},{"geonameid":2637952,"name":"Shipton","admin3":"00GG043","localeAltName":null},{"geonameid":2637894,"name":"Shrawardine","admin3":"00GG123","localeAltName":null},{"geonameid":2637891,"name":"Shrewsbury","admin3":"00GG162","localeAltName":null},{"geonameid":2637872,"name":"Sibdon Carwood","admin3":"00GG163","localeAltName":null},{"geonameid":2637824,"name":"Silvington","admin3":"00GG190","localeAltName":null},{"geonameid":2637068,"name":"Stanlow","admin3":"00GG200","localeAltName":null},{"geonameid":2637041,"name":"Stanton Lacy","admin3":"00GG167","localeAltName":null},{"geonameid":2637040,"name":"Stanton Long","admin3":"00GG168","localeAltName":null},{"geonameid":2637037,"name":"Stanton upon Hine Heath","admin3":"00GG169","localeAltName":null},{"geonameid":2637012,"name":"Stapleton","admin3":"00GG059","localeAltName":null},{"geonameid":2636834,"name":"Stoke Saint Milborough","admin3":"00GG171","localeAltName":null},{"geonameid":2636829,"name":"Stoke upon Tern","admin3":"00GG172","localeAltName":null},{"geonameid":2636833,"name":"Stokesay","admin3":"00GG062","localeAltName":null},{"geonameid":2636781,"name":"Stottesdon","admin3":"00GG173","localeAltName":null},{"geonameid":2636762,"name":"Stow","admin3":"00GG174","localeAltName":null},{"geonameid":11591739,"name":"Sutton","admin3":"00GG162","localeAltName":null},{"geonameid":9883980,"name":"Sutton","admin3":"00GG186","localeAltName":null},{"geonameid":2636482,"name":"Sutton Maddock","admin3":"00GG175","localeAltName":null},{"geonameid":2636095,"name":"Ternhill","admin3":"00GG176","localeAltName":null},{"geonameid":2635858,"name":"Ticklerton","admin3":"00GG071","localeAltName":null},{"geonameid":2635830,"name":"Tilley","admin3":"00GG183","localeAltName":null},{"geonameid":2635814,"name":"Tilstock","admin3":"00GG191","localeAltName":null},{"geonameid":2635698,"name":"Tong","admin3":"00GG178","localeAltName":null},{"geonameid":2635534,"name":"Trefonen","admin3":"00GG141","localeAltName":null},{"geonameid":2635393,"name":"Tugford","admin3":"00GG001","localeAltName":null},{"geonameid":9883977,"name":"Twyford","admin3":"00GG186","localeAltName":null},{"geonameid":2635086,"name":"Upton Magna","admin3":"00GG181","localeAltName":null},{"geonameid":2634889,"name":"Walford","admin3":"00GG019","localeAltName":null},{"geonameid":9884045,"name":"Weirbrook","admin3":"00GG154","localeAltName":null},{"geonameid":2634563,"name":"Welshampton","admin3":"00GG182","localeAltName":null},{"geonameid":2634550,"name":"Wem","admin3":"00GG184","localeAltName":null},{"geonameid":2634528,"name":"Wentnor","admin3":"00GG185","localeAltName":null},{"geonameid":2634421,"name":"West Felton","admin3":"00GG186","localeAltName":null},{"geonameid":2634481,"name":"Westbury","admin3":"00GG187","localeAltName":null},{"geonameid":2634323,"name":"Weston","admin3":"00GG189","localeAltName":null},{"geonameid":2634315,"name":"Weston Lullingfields","admin3":"00GG019","localeAltName":null},{"geonameid":11592766,"name":"Weston Rhyn","admin3":"00GG188","localeAltName":null},{"geonameid":2634124,"name":"Whitchurch","admin3":"00GG192","localeAltName":null},{"geonameid":2634014,"name":"Whittington","admin3":"00GG193","localeAltName":null},{"geonameid":2633996,"name":"Whixall","admin3":"00GG195","localeAltName":null},{"geonameid":2633919,"name":"Wilcott","admin3":"00GG080","localeAltName":null},{"geonameid":2633904,"name":"Willey","admin3":"00GG018","localeAltName":null},{"geonameid":2633888,"name":"Willstone","admin3":"00GG039","localeAltName":null},{"geonameid":2633759,"name":"Wistanstow","admin3":"00GG196","localeAltName":null},{"geonameid":2633738,"name":"Withington","admin3":"00GG197","localeAltName":null},{"geonameid":6255017,"name":"Wolerton","admin3":"00GG088","localeAltName":null},{"geonameid":2633695,"name":"Wollaston","admin3":"00GG006","localeAltName":null},{"geonameid":2633611,"name":"Woofferton","admin3":"00GG149","localeAltName":null},{"geonameid":2633593,"name":"Woolstaston","admin3":"00GG198","localeAltName":null},{"geonameid":2633580,"name":"Woore","admin3":"00GG199","localeAltName":null},{"geonameid":2633556,"name":"Worfield","admin3":"00GG200","localeAltName":null},{"geonameid":2633523,"name":"Worthen","admin3":"00GG201","localeAltName":null},{"geonameid":2633473,"name":"Wroxeter","admin3":"00GG202","localeAltName":null},{"geonameid":2633355,"name":"Yockleton","admin3":"00GG187","localeAltName":null},{"geonameid":2633347,"name":"Yorton","admin3":"00GG130","localeAltName":null}],"admin3":[{"geonameid":7290750,"name":"Hodnet","admin3":"00GG088","localeAltName":null},{"geonameid":7290751,"name":"Hope Bagot","admin3":"00GG089","localeAltName":null},{"geonameid":7290974,"name":"Farlow","admin3":"00GG075","localeAltName":null},{"geonameid":7290975,"name":"Ford","admin3":"00GG076","localeAltName":null},{"geonameid":7290976,"name":"Heath","admin3":"00GG085"},{"geonameid":7290977,"name":"Hopesay","admin3":"00GG091","localeAltName":null},{"geonameid":7290978,"name":"Hughley","admin3":"00GG096","localeAltName":null},{"geonameid":7291713,"name":"Ashford Bowdler","admin3":"00GG010"},{"geonameid":7292218,"name":"Kenley","admin3":"00GG099","localeAltName":null},{"geonameid":7292219,"name":"Longnor","admin3":"00GG110","localeAltName":null},{"geonameid":7292247,"name":"Abdon","admin3":"00GG001","localeAltName":null},{"geonameid":7292248,"name":"Acton Burnell","admin3":"00GG002","localeAltName":null},{"geonameid":7292249,"name":"Albrighton","admin3":"00GG007","localeAltName":null},{"geonameid":7292250,"name":"Beckbury","admin3":"00GG021","localeAltName":null},{"geonameid":7292251,"name":"Billingsley","admin3":"00GG026","localeAltName":null},{"geonameid":7292252,"name":"Bitterley","admin3":"00GG028","localeAltName":null},{"geonameid":7292253,"name":"Boningale","admin3":"00GG029"},{"geonameid":7292254,"name":"Bridgnorth","admin3":"00GG032","localeAltName":null},{"geonameid":7292255,"name":"Buildwas","admin3":"00GG036","localeAltName":null},{"geonameid":7292256,"name":"Chelmarsh","admin3":"00GG041","localeAltName":null},{"geonameid":7292257,"name":"Chetton","admin3":"00GG043","localeAltName":null},{"geonameid":7292258,"name":"Child's Ercall","admin3":"00GG044","localeAltName":null},{"geonameid":7292259,"name":"Church Pulverbatch","admin3":"00GG047","localeAltName":null},{"geonameid":7292260,"name":"Claverley","admin3":"00GG049","localeAltName":null},{"geonameid":7292261,"name":"Clunbury","admin3":"00GG055","localeAltName":null},{"geonameid":7292262,"name":"Cockshutt","admin3":"00GG057","localeAltName":null},{"geonameid":7292263,"name":"Cound","admin3":"00GG061","localeAltName":null},{"geonameid":7292264,"name":"Craven Arms","admin3":"00GG062","localeAltName":null},{"geonameid":7292265,"name":"Culmington","admin3":"00GG064","localeAltName":null},{"geonameid":7292266,"name":"Deuxhill","admin3":"00GG065"},{"geonameid":7292267,"name":"Ditton Priors","admin3":"00GG067","localeAltName":null},{"geonameid":7292268,"name":"Ellesmere Urban","admin3":"00GG074","localeAltName":null},{"geonameid":7292269,"name":"Hadnall","admin3":"00GG083","localeAltName":null},{"geonameid":7292270,"name":"Highley","admin3":"00GG086","localeAltName":null},{"geonameid":7292271,"name":"Hope Bowdler","admin3":"00GG090","localeAltName":null},{"geonameid":7292272,"name":"Kinnerley","admin3":"00GG101","localeAltName":null},{"geonameid":7292273,"name":"Knockin","admin3":"00GG102","localeAltName":null},{"geonameid":7292274,"name":"Leighton and Eaton Constantine","admin3":"00GG104","localeAltName":null},{"geonameid":7292275,"name":"Little Ness","admin3":"00GG105","localeAltName":null},{"geonameid":7292276,"name":"Llanfair Waterdine","admin3":"00GG106","localeAltName":null},{"geonameid":7292277,"name":"Longden","admin3":"00GG109","localeAltName":null},{"geonameid":7292279,"name":"Milson","admin3":"00GG120"},{"geonameid":7292280,"name":"More","admin3":"00GG124","localeAltName":null},{"geonameid":7292281,"name":"Myddle and Broughton","admin3":"00GG130","localeAltName":null},{"geonameid":7292282,"name":"Norbury","admin3":"00GG137","localeAltName":null},{"geonameid":7292283,"name":"Onibury","admin3":"00GG139","localeAltName":null},{"geonameid":7292284,"name":"Oswestry","admin3":"00GG140","localeAltName":null},{"geonameid":7292285,"name":"Pimhill","admin3":"00GG143","localeAltName":null},{"geonameid":7292286,"name":"Prees","admin3":"00GG146","localeAltName":null},{"geonameid":7292287,"name":"Sheriffhales","admin3":"00GG159","localeAltName":null},{"geonameid":7292288,"name":"Sidbury","admin3":"00GG164"},{"geonameid":7292289,"name":"Stanton upon Hine Heath","admin3":"00GG169","localeAltName":null},{"geonameid":7292290,"name":"Stowe","admin3":"00GG174","localeAltName":null},{"geonameid":7292291,"name":"Sutton Maddock","admin3":"00GG175","localeAltName":null},{"geonameid":7292292,"name":"Uffington","admin3":"00GG179"},{"geonameid":7292293,"name":"Wem Rural","admin3":"00GG183","localeAltName":null},{"geonameid":7292294,"name":"Wentnor","admin3":"00GG185","localeAltName":null},{"geonameid":7292295,"name":"Westbury","admin3":"00GG187","localeAltName":null},{"geonameid":7292296,"name":"Worthen with Shelve","admin3":"00GG201","localeAltName":null},{"geonameid":7292297,"name":"Wroxeter and Uppington","admin3":"00GG202","localeAltName":null},{"geonameid":7292764,"name":"Market Drayton","admin3":"00GG117","localeAltName":null},{"geonameid":7292912,"name":"Munslow","admin3":"00GG129","localeAltName":null},{"geonameid":7292913,"name":"Neen Savage","admin3":"00GG133","localeAltName":null},{"geonameid":7292914,"name":"Newcastle on Clun","admin3":"00GG136","localeAltName":null},{"geonameid":7292915,"name":"Petton","admin3":"00GG142","localeAltName":null},{"geonameid":7292916,"name":"Pitchford","admin3":"00GG144","localeAltName":null},{"geonameid":7292917,"name":"Ratlinghope","admin3":"00GG148","localeAltName":null},{"geonameid":7292918,"name":"Richard's Castle (Shropshire)","admin3":"00GG149","localeAltName":null},{"geonameid":7292919,"name":"Ruyton-XI-Towns","admin3":"00GG154","localeAltName":null},{"geonameid":7292920,"name":"Selattyn and Gobowen","admin3":"00GG156","localeAltName":null},{"geonameid":7292921,"name":"Sibdon Carwood","admin3":"00GG163","localeAltName":null},{"geonameid":7292922,"name":"Smethcott","admin3":"00GG165","localeAltName":null},{"geonameid":7293112,"name":"Woore","admin3":"00GG199","localeAltName":null},{"geonameid":7293932,"name":"Grinshill","admin3":"00GG082","localeAltName":null},{"geonameid":7293933,"name":"Hopton Wafers","admin3":"00GG094"},{"geonameid":7293934,"name":"Ightfield","admin3":"00GG097","localeAltName":null},{"geonameid":7293935,"name":"Stoke St. Milborough","admin3":"00GG171","localeAltName":null},{"geonameid":7293936,"name":"West Felton","admin3":"00GG186","localeAltName":null},{"geonameid":7293937,"name":"Weston Rhyn","admin3":"00GG188","localeAltName":null},{"geonameid":7294001,"name":"Diddlebury","admin3":"00GG066","localeAltName":null},{"geonameid":7294002,"name":"Great Ness","admin3":"00GG080","localeAltName":null},{"geonameid":7294003,"name":"Weston-under-Redcastle","admin3":"00GG189","localeAltName":null},{"geonameid":7295997,"name":"Stockton","admin3":"00GG170","localeAltName":null},{"geonameid":7296067,"name":"Adderley","admin3":"00GG005","localeAltName":null},{"geonameid":7296085,"name":"Boraston","admin3":"00GG030","localeAltName":null},{"geonameid":7296087,"name":"Boscobel","admin3":"00GG031"},{"geonameid":7296130,"name":"Cheswardine","admin3":"00GG042","localeAltName":null},{"geonameid":7296132,"name":"Easthope","admin3":"00GG070","localeAltName":null},{"geonameid":7296136,"name":"Kemberton","admin3":"00GG098"},{"geonameid":7296138,"name":"Lydbury North","admin3":"00GG114","localeAltName":null},{"geonameid":7296141,"name":"Loppington","admin3":"00GG111","localeAltName":null},{"geonameid":7296149,"name":"Ludford","admin3":"00GG112"},{"geonameid":7296151,"name":"Lydham","admin3":"00GG115","localeAltName":null},{"geonameid":7296158,"name":"Monkhopton","admin3":"00GG122","localeAltName":null},{"geonameid":7296174,"name":"Montford","admin3":"00GG123","localeAltName":null},{"geonameid":7296176,"name":"Moreton Say","admin3":"00GG126","localeAltName":null},{"geonameid":7296188,"name":"Morville","admin3":"00GG127","localeAltName":null},{"geonameid":7296200,"name":"Stanton Long","admin3":"00GG168","localeAltName":null},{"geonameid":7296201,"name":"Stottesdon","admin3":"00GG173","localeAltName":null},{"geonameid":7296202,"name":"Tong","admin3":"00GG178","localeAltName":null},{"geonameid":7296203,"name":"Upton Cressett","admin3":"00GG180"},{"geonameid":7296204,"name":"Wheathill","admin3":"00GG190","localeAltName":null},{"geonameid":7296211,"name":"Wistanstow","admin3":"00GG196","localeAltName":null},{"geonameid":7297084,"name":"Alveley","admin3":"00GG009","localeAltName":null},{"geonameid":7297085,"name":"Ashford Carbonel","admin3":"00GG011","localeAltName":null},{"geonameid":7297086,"name":"Astley","admin3":"00GG012","localeAltName":null},{"geonameid":7297087,"name":"Aston Botterell","admin3":"00GG014","localeAltName":null},{"geonameid":7297088,"name":"Atcham","admin3":"00GG016","localeAltName":null},{"geonameid":7297089,"name":"Badger","admin3":"00GG017","localeAltName":null},{"geonameid":7297090,"name":"Barrow","admin3":"00GG018","localeAltName":null},{"geonameid":7297091,"name":"Bayston Hill","admin3":"00GG020","localeAltName":null},{"geonameid":7297092,"name":"Bedstone","admin3":"00GG022","localeAltName":null},{"geonameid":7297093,"name":"Bishop's Castle","admin3":"00GG027","localeAltName":null},{"geonameid":7297094,"name":"Chirbury with Brompton","admin3":"00GG045","localeAltName":null},{"geonameid":7297095,"name":"Church Stretton","admin3":"00GG048","localeAltName":null},{"geonameid":7297096,"name":"Cleobury Mortimer","admin3":"00GG051","localeAltName":null},{"geonameid":7297097,"name":"Clive","admin3":"00GG053","localeAltName":null},{"geonameid":7297098,"name":"Eaton-under-Heywood","admin3":"00GG071","localeAltName":null},{"geonameid":7297099,"name":"Edgton","admin3":"00GG072","localeAltName":null},{"geonameid":7297100,"name":"Frodesley","admin3":"00GG077","localeAltName":null},{"geonameid":7297101,"name":"Great Hanwood","admin3":"00GG079","localeAltName":null},{"geonameid":7297102,"name":"Hopton Castle","admin3":"00GG093"},{"geonameid":7297103,"name":"Llanyblodwel","admin3":"00GG107","localeAltName":null},{"geonameid":7297104,"name":"Melverley","admin3":"00GG118","localeAltName":null},{"geonameid":7297105,"name":"Neen Sollars","admin3":"00GG134"},{"geonameid":7297106,"name":"Neenton","admin3":"00GG135","localeAltName":null},{"geonameid":7297107,"name":"Norton in Hales","admin3":"00GG138","localeAltName":null},{"geonameid":7297108,"name":"Oswestry Rural","admin3":"00GG141","localeAltName":null},{"geonameid":7297109,"name":"Pontesbury","admin3":"00GG145","localeAltName":null},{"geonameid":7297110,"name":"Romsley","admin3":"00GG150","localeAltName":null},{"geonameid":7297111,"name":"Ruckley and Langley","admin3":"00GG151"},{"geonameid":7297112,"name":"Rushbury","admin3":"00GG153","localeAltName":null},{"geonameid":7297113,"name":"Shawbury","admin3":"00GG157","localeAltName":null},{"geonameid":7297114,"name":"Sheinton","admin3":"00GG158"},{"geonameid":7297115,"name":"Shrewsbury","admin3":"00GG162","localeAltName":null},{"geonameid":7297116,"name":"Sutton upon Tern","admin3":"00GG176","localeAltName":null},{"geonameid":7297117,"name":"Tasley","admin3":"00GG177"},{"geonameid":7297118,"name":"Upton Magna","admin3":"00GG181","localeAltName":null},{"geonameid":7297119,"name":"Welshampton and Lyneal","admin3":"00GG182","localeAltName":null},{"geonameid":7297120,"name":"Whittington","admin3":"00GG193","localeAltName":null},{"geonameid":7297121,"name":"Whixall","admin3":"00GG195","localeAltName":null},{"geonameid":7297122,"name":"Withington","admin3":"00GG197","localeAltName":null},{"geonameid":7297737,"name":"Alberbury with Cardeston","admin3":"00GG006","localeAltName":null},{"geonameid":7297738,"name":"Donington","admin3":"00GG068","localeAltName":null},{"geonameid":7297739,"name":"Ryton","admin3":"00GG155","localeAltName":null},{"geonameid":7297740,"name":"Wem Urban","admin3":"00GG184","localeAltName":null},{"geonameid":7297858,"name":"Burwarton","admin3":"00GG038","localeAltName":null},{"geonameid":7297859,"name":"Ellesmere Rural","admin3":"00GG073"},{"geonameid":7297860,"name":"Leebotwood","admin3":"00GG103","localeAltName":null},{"geonameid":7297861,"name":"Moreton Corbet and Lee Brockhurst","admin3":"00GG125","localeAltName":null},{"geonameid":7297862,"name":"Whitchurch Urban","admin3":"00GG192","localeAltName":null},{"geonameid":7298910,"name":"Cleobury North","admin3":"00GG052","localeAltName":null},{"geonameid":7301055,"name":"Acton Round","admin3":"00GG003","localeAltName":null},{"geonameid":7301056,"name":"Acton Scott","admin3":"00GG004","localeAltName":null},{"geonameid":7301057,"name":"All Stretton","admin3":"00GG008"},{"geonameid":7301058,"name":"Astley Abbotts","admin3":"00GG013","localeAltName":null},{"geonameid":7301059,"name":"Berrington","admin3":"00GG023","localeAltName":null},{"geonameid":7301060,"name":"Bettws-y-Crwyn","admin3":"00GG024","localeAltName":null},{"geonameid":7301061,"name":"Bicton","admin3":"00GG025","localeAltName":null},{"geonameid":7301062,"name":"Bucknell","admin3":"00GG035","localeAltName":null},{"geonameid":7301063,"name":"Cardington","admin3":"00GG039","localeAltName":null},{"geonameid":7301064,"name":"Caynham","admin3":"00GG040","localeAltName":null},{"geonameid":7301065,"name":"Church Preen","admin3":"00GG046"},{"geonameid":7301066,"name":"Clee St. Margaret","admin3":"00GG050","localeAltName":null},{"geonameid":7301067,"name":"Clungunford","admin3":"00GG056","localeAltName":null},{"geonameid":7301068,"name":"Colebatch","admin3":"00GG058"},{"geonameid":7301069,"name":"Condover","admin3":"00GG059","localeAltName":null},{"geonameid":7301070,"name":"Coreley","admin3":"00GG060","localeAltName":null},{"geonameid":7301071,"name":"Cressage","admin3":"00GG063","localeAltName":null},{"geonameid":7301072,"name":"Glazeley","admin3":"00GG078","localeAltName":null},{"geonameid":7301073,"name":"Greete","admin3":"00GG081","localeAltName":null},{"geonameid":7301074,"name":"Harley","admin3":"00GG084","localeAltName":null},{"geonameid":7301075,"name":"Hinstock","admin3":"00GG087","localeAltName":null},{"geonameid":7301076,"name":"Hopton Cangeford","admin3":"00GG092"},{"geonameid":7301077,"name":"Hordley","admin3":"00GG095","localeAltName":null},{"geonameid":7301078,"name":"Llanymynech and Pant","admin3":"00GG108","localeAltName":null},{"geonameid":7301079,"name":"Ludlow","admin3":"00GG113","localeAltName":null},{"geonameid":7301080,"name":"Mainstone","admin3":"00GG116","localeAltName":null},{"geonameid":7301081,"name":"Middleton Scriven","admin3":"00GG119"},{"geonameid":7301083,"name":"Minsterley","admin3":"00GG121","localeAltName":null},{"geonameid":7301084,"name":"Much Wenlock","admin3":"00GG128","localeAltName":null},{"geonameid":7301085,"name":"Quatt Malvern","admin3":"00GG147","localeAltName":null},{"geonameid":7301086,"name":"Rudge","admin3":"00GG152"},{"geonameid":7301087,"name":"Shifnal","admin3":"00GG160","localeAltName":null},{"geonameid":7301088,"name":"Shipton","admin3":"00GG161"},{"geonameid":7301089,"name":"St. Martin's","admin3":"00GG166","localeAltName":null},{"geonameid":7301090,"name":"Stanton Lacy","admin3":"00GG167","localeAltName":null},{"geonameid":7301092,"name":"Stoke upon Tern","admin3":"00GG172","localeAltName":null},{"geonameid":7301095,"name":"Whitchurch Rural","admin3":"00GG191","localeAltName":null},{"geonameid":7301096,"name":"Whitton","admin3":"00GG194"},{"geonameid":7301097,"name":"Woolstaston","admin3":"00GG198","localeAltName":null},{"geonameid":7301098,"name":"Worfield","admin3":"00GG200","localeAltName":null},{"geonameid":7301513,"name":"Clun","admin3":"00GG054","localeAltName":null},{"geonameid":7301586,"name":"Kinlet","admin3":"00GG100","localeAltName":null},{"geonameid":7301625,"name":"Aston Eyre","admin3":"00GG015"},{"geonameid":7301626,"name":"Baschurch","admin3":"00GG019","localeAltName":null},{"geonameid":7301666,"name":"Myndtown","admin3":"00GG131","localeAltName":null},{"geonameid":7301667,"name":"Nash","admin3":"00GG132"},{"geonameid":7301686,"name":"Bromfield","admin3":"00GG033","localeAltName":null},{"geonameid":7301687,"name":"Broseley","admin3":"00GG034","localeAltName":null},{"geonameid":7301688,"name":"Burford","admin3":"00GG037"},{"geonameid":7302055,"name":"Eardington","admin3":"00GG069","localeAltName":null}],"alternateNames":[{"alternatenameId":2254244,"geonameid":2638655,"isoLanguage":"en","alternateName":"Shropshire","isPreferredName":true,"isShortName":true,"isColloquial":false,"isHistoric":false},{"alternatenameId":1626647,"geonameid":6269131,"isoLanguage":"en","alternateName":"England","isPreferredName":true,"isShortName":true,"isColloquial":false,"isHistoric":false}]},"__N_SSG":true}