{"pageProps":{"locale":"it","admin2":{"geonameid":3176217,"name":"Provincia di Genova","country":"IT","admin1":"08","admin2":"GE","admin3":"","latitude":"44.5000000","longitude":"9.0666700","localeAltName":"Genova"},"admin1":{"geonameid":3174725,"name":"Liguria","admin1":"08","localeAltName":"Liguria"},"locations":[{"geonameid":3182887,"name":"Arenzano","admin3":"010001","localeAltName":null},{"geonameid":6534721,"name":"Avegno","admin3":"010002","localeAltName":null},{"geonameid":9036172,"name":"Avegno Chiesa","admin3":"010002","localeAltName":null},{"geonameid":3182357,"name":"Bargagli","admin3":"010003","localeAltName":null},{"geonameid":3181943,"name":"Bogliasco","admin3":"010004","localeAltName":null},{"geonameid":8949294,"name":"Borgo Fornari-Pieve","admin3":"010049","localeAltName":null},{"geonameid":3181707,"name":"Borzonasca","admin3":"010005","localeAltName":null},{"geonameid":3181383,"name":"Busalla","admin3":"010006","localeAltName":null},{"geonameid":3181071,"name":"Camogli","admin3":"010007","localeAltName":null},{"geonameid":3180957,"name":"Campo Ligure","admin3":"010008","localeAltName":null},{"geonameid":3180940,"name":"Campomorone","admin3":"010009","localeAltName":null},{"geonameid":3180583,"name":"Carasco","admin3":"010010","localeAltName":null},{"geonameid":6534382,"name":"Casarza Ligure","admin3":"010011","localeAltName":null},{"geonameid":3179920,"name":"Casella","admin3":"010012","localeAltName":null},{"geonameid":6534768,"name":"Ceranesi","admin3":"010014","localeAltName":null},{"geonameid":3178832,"name":"Chiavari","admin3":"010015","localeAltName":null},{"geonameid":3178727,"name":"Cicagna","admin3":"010016","localeAltName":null},{"geonameid":3178479,"name":"Cogoleto","admin3":"010017","localeAltName":null},{"geonameid":3224730,"name":"Cogorno","admin3":"010018","localeAltName":null},{"geonameid":3172350,"name":"Conscenti","admin3":"010040","localeAltName":null},{"geonameid":3177097,"name":"Ferrada","admin3":"010063","localeAltName":null},{"geonameid":8949928,"name":"Ferriera-Pontasso","admin3":"010014","localeAltName":null},{"geonameid":8950215,"name":"Gaiazza","admin3":"010014","localeAltName":null},{"geonameid":3176280,"name":"Gattorna","admin3":"010036","localeAltName":null},{"geonameid":3176219,"name":"Genoa","admin3":"010025","localeAltName":null},{"geonameid":3175430,"name":"Isola del Cantone","admin3":"010027","localeAltName":null},{"geonameid":8950065,"name":"Isorelle","admin3":"010057","localeAltName":null},{"geonameid":8949353,"name":"Isoverde","admin3":"010009","localeAltName":null},{"geonameid":3175024,"name":"Lavagna","admin3":"010028","localeAltName":null},{"geonameid":3224664,"name":"Leivi","admin3":"010029","localeAltName":null},{"geonameid":8950224,"name":"Lerca","admin3":"010017","localeAltName":null},{"geonameid":8948932,"name":"Manesseno","admin3":"010055","localeAltName":null},{"geonameid":3173780,"name":"Masone","admin3":"010032","localeAltName":null},{"geonameid":6535088,"name":"Mele","admin3":"010033","localeAltName":null},{"geonameid":3173504,"name":"Mezzanego","admin3":"010034","localeAltName":null},{"geonameid":3173441,"name":"Mignanego","admin3":"010035","localeAltName":null},{"geonameid":6534437,"name":"Moconesi","admin3":"010036","localeAltName":null},{"geonameid":3173159,"name":"Moneglia","admin3":"010037","localeAltName":null},{"geonameid":3172656,"name":"Montoggio","admin3":"010039","localeAltName":null},{"geonameid":8948772,"name":"Pedemonte","admin3":"010058","localeAltName":null},{"geonameid":3170739,"name":"Pieve Ligure","admin3":"010043","localeAltName":null},{"geonameid":3224129,"name":"Poggio Favaro-San Bernardo","admin3":"010004","localeAltName":null},{"geonameid":8950256,"name":"Prati","admin3":"010034","localeAltName":null},{"geonameid":8950357,"name":"Prelo","admin3":"010058","localeAltName":null},{"geonameid":3169602,"name":"Rapallo","admin3":"010046","localeAltName":null},{"geonameid":3169539,"name":"Recco","admin3":"010047","localeAltName":null},{"geonameid":8949700,"name":"Rivarola","admin3":"010010","localeAltName":null},{"geonameid":3168990,"name":"Ronco Scrivia","admin3":"010049","localeAltName":null},{"geonameid":3168908,"name":"Rossiglione","admin3":"010051","localeAltName":null},{"geonameid":3224724,"name":"San Salvatore","admin3":"010018","localeAltName":null},{"geonameid":3167595,"name":"Santa Margherita Ligure","admin3":"010054","localeAltName":null},{"geonameid":3167248,"name":"Santo Stefano d'Aveto","admin3":"010056","localeAltName":null},{"geonameid":6535089,"name":"Savignone","admin3":"010057","localeAltName":null},{"geonameid":8949062,"name":"Sciarborasca","admin3":"010017","localeAltName":null},{"geonameid":3166656,"name":"Serra Riccò","admin3":"010058","localeAltName":null},{"geonameid":3166595,"name":"Sestri Levante","admin3":"010059","localeAltName":null},{"geonameid":3166359,"name":"Sori","admin3":"010060","localeAltName":null},{"geonameid":8949761,"name":"Testana","admin3":"010002","localeAltName":null},{"geonameid":3165672,"name":"Tiglieto","admin3":"010061","localeAltName":null},{"geonameid":3165392,"name":"Torriglia","admin3":"010062","localeAltName":null},{"geonameid":6534723,"name":"Tribogna","admin3":"010063","localeAltName":null},{"geonameid":3165024,"name":"Uscio","admin3":"010064","localeAltName":null},{"geonameid":3163859,"name":"Zoagli","admin3":"010067","localeAltName":null}],"admin3":[{"geonameid":6536084,"name":"Fascia","admin3":"010022"},{"geonameid":6536090,"name":"Bargagli","admin3":"010003","localeAltName":null},{"geonameid":6536091,"name":"Busalla","admin3":"010006","localeAltName":null},{"geonameid":6536092,"name":"Chiavari","admin3":"010015","localeAltName":null},{"geonameid":6536093,"name":"Crocefieschi","admin3":"010020"},{"geonameid":6536094,"name":"Favale di Malvaro","admin3":"010023"},{"geonameid":6536096,"name":"Isola del Cantone","admin3":"010027","localeAltName":null},{"geonameid":6536097,"name":"Moneglia","admin3":"010037","localeAltName":null},{"geonameid":6536098,"name":"Montoggio","admin3":"010039","localeAltName":null},{"geonameid":6536099,"name":"Neirone","admin3":"010041"},{"geonameid":6536100,"name":"Propata","admin3":"010045"},{"geonameid":6536101,"name":"Rezzoaglio","admin3":"010048"},{"geonameid":6536102,"name":"Sori","admin3":"010060","localeAltName":null},{"geonameid":6536103,"name":"Uscio","admin3":"010064","localeAltName":null},{"geonameid":6536104,"name":"Zoagli","admin3":"010067","localeAltName":null},{"geonameid":6536366,"name":"Tiglieto","admin3":"010061","localeAltName":null},{"geonameid":6537056,"name":"Arenzano","admin3":"010001","localeAltName":null},{"geonameid":6537057,"name":"Borzonasca","admin3":"010005","localeAltName":null},{"geonameid":6537058,"name":"Camogli","admin3":"010007","localeAltName":null},{"geonameid":6537059,"name":"Campo Ligure","admin3":"010008","localeAltName":null},{"geonameid":6537060,"name":"Carasco","admin3":"010010","localeAltName":null},{"geonameid":6537061,"name":"Cogoleto","admin3":"010017","localeAltName":null},{"geonameid":6537062,"name":"Gorreto","admin3":"010026"},{"geonameid":6537063,"name":"Rapallo","admin3":"010046","localeAltName":null},{"geonameid":6537064,"name":"Rossiglione","admin3":"010051","localeAltName":null},{"geonameid":6537065,"name":"Santa Margherita Ligure","admin3":"010054","localeAltName":null},{"geonameid":6537066,"name":"Vobbia","admin3":"010066"},{"geonameid":6539460,"name":"Lorsica","admin3":"010030"},{"geonameid":6539461,"name":"Bogliasco","admin3":"010004","localeAltName":null},{"geonameid":6539611,"name":"Torriglia","admin3":"010062","localeAltName":null},{"geonameid":6539614,"name":"Mezzanego","admin3":"010034","localeAltName":null},{"geonameid":6539776,"name":"Casella","admin3":"010012","localeAltName":null},{"geonameid":6539777,"name":"Portofino","admin3":"010044"},{"geonameid":6540148,"name":"Fontanigorda","admin3":"010024"},{"geonameid":6540149,"name":"Ne","admin3":"010040","localeAltName":null},{"geonameid":6540150,"name":"Lavagna","admin3":"010028","localeAltName":null},{"geonameid":6540151,"name":"Mignanego","admin3":"010035","localeAltName":null},{"geonameid":6540152,"name":"Pieve Ligure","admin3":"010043","localeAltName":null},{"geonameid":6540153,"name":"Sestri Levante","admin3":"010059","localeAltName":null},{"geonameid":6540163,"name":"Leivi","admin3":"010029","localeAltName":null},{"geonameid":6540280,"name":"Castiglione Chiavarese","admin3":"010013"},{"geonameid":6540560,"name":"Campomorone","admin3":"010009","localeAltName":null},{"geonameid":6540561,"name":"Masone","admin3":"010032","localeAltName":null},{"geonameid":6540562,"name":"Montebruno","admin3":"010038"},{"geonameid":6540563,"name":"Recco","admin3":"010047","localeAltName":null},{"geonameid":6541486,"name":"Cogorno","admin3":"010018","localeAltName":null},{"geonameid":6541624,"name":"Cicagna","admin3":"010016","localeAltName":null},{"geonameid":6541625,"name":"Ronco Scrivia","admin3":"010049","localeAltName":null},{"geonameid":6542010,"name":"Santo Stefano d'Aveto","admin3":"010056","localeAltName":null},{"geonameid":6542031,"name":"Serra Riccò","admin3":"010058","localeAltName":null},{"geonameid":6542130,"name":"San Colombano Certenoli","admin3":"010053"},{"geonameid":6542282,"name":"Genova","admin3":"010025","localeAltName":"Genova"},{"geonameid":6542451,"name":"Casarza Ligure","admin3":"010011","localeAltName":null},{"geonameid":6542452,"name":"Davagna","admin3":"010021"},{"geonameid":6542453,"name":"Orero","admin3":"010042"},{"geonameid":6542459,"name":"Rondanina","admin3":"010050"},{"geonameid":6542460,"name":"Rovegno","admin3":"010052"},{"geonameid":6542503,"name":"Moconesi","admin3":"010036","localeAltName":null},{"geonameid":6542732,"name":"Lumarzo","admin3":"010031"},{"geonameid":6542756,"name":"Avegno","admin3":"010002","localeAltName":null},{"geonameid":6542757,"name":"Sant'Olcese","admin3":"010055","localeAltName":null},{"geonameid":6542758,"name":"Tribogna","admin3":"010063","localeAltName":null},{"geonameid":6542759,"name":"Valbrevenna","admin3":"010065"},{"geonameid":6542793,"name":"Ceranesi","admin3":"010014","localeAltName":null},{"geonameid":6543074,"name":"Mele","admin3":"010033","localeAltName":null},{"geonameid":6543075,"name":"Savignone","admin3":"010057","localeAltName":null},{"geonameid":6543717,"name":"Coreglia Ligure","admin3":"010019"}],"alternateNames":[{"alternatenameId":1350376,"geonameid":3174725,"isoLanguage":"it","alternateName":"Liguria","isPreferredName":true,"isShortName":true,"isColloquial":false,"isHistoric":false},{"alternatenameId":2254513,"geonameid":3174725,"isoLanguage":"en","alternateName":"Liguria","isPreferredName":true,"isShortName":true,"isColloquial":false,"isHistoric":false},{"alternatenameId":1350915,"geonameid":3176217,"isoLanguage":"de","alternateName":"Genua","isPreferredName":true,"isShortName":true,"isColloquial":false,"isHistoric":false},{"alternatenameId":1350916,"geonameid":3176217,"isoLanguage":"it","alternateName":"Genova","isPreferredName":true,"isShortName":true,"isColloquial":false,"isHistoric":false},{"alternatenameId":6910348,"geonameid":6542282,"isoLanguage":"it","alternateName":"Genova","isPreferredName":true,"isShortName":true,"isColloquial":false,"isHistoric":false}]},"__N_SSG":true}