{"pageProps":{"locale":"de","locations":[{"geonameid":2959885,"name":"Abbenrode","admin3":"15085","localeAltName":null},{"geonameid":2959876,"name":"Abberode","admin3":"15087","localeAltName":null},{"geonameid":2959778,"name":"Abtlöbnitz","admin3":"15084","localeAltName":null},{"geonameid":2959771,"name":"Abtsdorf","admin3":"15091","localeAltName":null},{"geonameid":2959607,"name":"Ackendorf","admin3":"15083","localeAltName":null},{"geonameid":2959181,"name":"Ahlsdorf","admin3":"15087","localeAltName":null},{"geonameid":2959169,"name":"Ahlum","admin3":"15081","localeAltName":null},{"geonameid":2958781,"name":"Aken","admin3":"15082","localeAltName":null},{"geonameid":2958700,"name":"Albersroda","admin3":"15088","localeAltName":null},{"geonameid":2958699,"name":"Alberstedt","admin3":"15088","localeAltName":null},{"geonameid":2958510,"name":"Algenstedt","admin3":"15081","localeAltName":null},{"geonameid":2958401,"name":"Alleringersleben","admin3":"15083","localeAltName":null},{"geonameid":2958268,"name":"Allrode","admin3":"15085","localeAltName":null},{"geonameid":2958266,"name":"Allstedt","admin3":"15087","localeAltName":null},{"geonameid":2958121,"name":"Alsleben","admin3":"15089","localeAltName":null},{"geonameid":2958052,"name":"Altbrandsleben","admin3":"15083","localeAltName":null},{"geonameid":2957815,"name":"Altenbrak","admin3":"15085","localeAltName":null},{"geonameid":2957631,"name":"Altenhausen","admin3":"15083","localeAltName":null},{"geonameid":2957497,"name":"Altenroda","admin3":"15084","localeAltName":null},{"geonameid":2957488,"name":"Altensalzwedel","admin3":"15081","localeAltName":null},{"geonameid":2957412,"name":"Altenzaun","admin3":"15090","localeAltName":null},{"geonameid":2957341,"name":"Alterode","admin3":"15087","localeAltName":null},{"geonameid":2957092,"name":"Altjeßnitz","admin3":"15082","localeAltName":null},{"geonameid":2956990,"name":"Altmersleben","admin3":"15081","localeAltName":null},{"geonameid":2956546,"name":"Amesdorf","admin3":"15089","localeAltName":null},{"geonameid":2956339,"name":"Amsdorf","admin3":"15087","localeAltName":null},{"geonameid":2956090,"name":"Angern","admin3":"15083","localeAltName":null},{"geonameid":2956081,"name":"Angersdorf","admin3":"15088","localeAltName":null},{"geonameid":2955999,"name":"Annaburg","admin3":"15091","localeAltName":null},{"geonameid":2955989,"name":"Annarode","admin3":"15087","localeAltName":null},{"geonameid":2955816,"name":"Apenburg","admin3":"15081","localeAltName":null},{"geonameid":2955768,"name":"Apollensdorf","admin3":"15091","localeAltName":null},{"geonameid":11821019,"name":"Apollensdorf-Nord","admin3":"15091","localeAltName":null},{"geonameid":2955635,"name":"Arensdorf","admin3":"15082","localeAltName":null},{"geonameid":2955519,"name":"Arneburg","admin3":"15090","localeAltName":null},{"geonameid":2955437,"name":"Arnstedt","admin3":"15087","localeAltName":null},{"geonameid":2955168,"name":"Aschersleben","admin3":"15089","localeAltName":null},{"geonameid":2955071,"name":"Aspenstedt","admin3":"15085","localeAltName":null},{"geonameid":2954963,"name":"Ateritz","admin3":"15091","localeAltName":null},{"geonameid":2954961,"name":"Athenstedt","admin3":"15085","localeAltName":null},{"geonameid":2954874,"name":"Atzendorf","admin3":"15089","localeAltName":null},{"geonameid":2954168,"name":"Augsdorf","admin3":"15087","localeAltName":null},{"geonameid":2954052,"name":"Aulosen","admin3":"15090","localeAltName":null},{"geonameid":2953970,"name":"Ausleben","admin3":"15083","localeAltName":null},{"geonameid":2953841,"name":"Axien","admin3":"15091","localeAltName":null},{"geonameid":2953810,"name":"Baalberge","admin3":"15089","localeAltName":null},{"geonameid":2953788,"name":"Baasdorf","admin3":"15082","localeAltName":null},{"geonameid":2953774,"name":"Baben","admin3":"15090","localeAltName":null},{"geonameid":2953542,"name":"Bad Bibra","admin3":"15084","localeAltName":null},{"geonameid":2953521,"name":"Bad Dürrenberg","admin3":"15088","localeAltName":null},{"geonameid":2953418,"name":"Bad Kösen","admin3":"15084","localeAltName":null},{"geonameid":2953412,"name":"Bad Lauchstädt","admin3":"15088","localeAltName":null},{"geonameid":2953350,"name":"Bad Schmiedeberg","admin3":"15091","localeAltName":null},{"geonameid":2953331,"name":"Bad Suderode","admin3":"15085","localeAltName":null},{"geonameid":2953513,"name":"Badel","admin3":"15081","localeAltName":null},{"geonameid":2953428,"name":"Badingen","admin3":"15090","localeAltName":null},{"geonameid":2953093,"name":"Balgstädt","admin3":"15084","localeAltName":null},{"geonameid":2953060,"name":"Ballenstedt","admin3":"15085","localeAltName":null},{"geonameid":2917019,"name":"Ballerstedt","admin3":"15090","localeAltName":null},{"geonameid":2952968,"name":"Bandau","admin3":"15081","localeAltName":null},{"geonameid":3205000,"name":"Barby","admin3":"15089","localeAltName":null},{"geonameid":2952564,"name":"Barleben","admin3":"15083","localeAltName":null},{"geonameid":2952514,"name":"Barneberg","admin3":"15083","localeAltName":null},{"geonameid":2952461,"name":"Barnstädt","admin3":"15088","localeAltName":null},{"geonameid":2952375,"name":"Bartensleben","admin3":"15083","localeAltName":null},{"geonameid":2952012,"name":"Baumersroda","admin3":"15084","localeAltName":null},{"geonameid":2951594,"name":"Beelitz","admin3":"15090","localeAltName":null},{"geonameid":2951588,"name":"Beendorf","admin3":"15083","localeAltName":null},{"geonameid":2951532,"name":"Beesenlaublingen","admin3":"15089","localeAltName":null},{"geonameid":2951531,"name":"Beesenstedt","admin3":"15088","localeAltName":null},{"geonameid":2951522,"name":"Beetzendorf","admin3":"15081","localeAltName":null},{"geonameid":2951479,"name":"Behnsdorf","admin3":"15083","localeAltName":null},{"geonameid":2951473,"name":"Behrendorf","admin3":"15090","localeAltName":null},{"geonameid":2951236,"name":"Belleben","admin3":"15089","localeAltName":null},{"geonameid":2951197,"name":"Bellingen","admin3":"15090","localeAltName":null},{"geonameid":2951065,"name":"Benkendorf","admin3":"15081","localeAltName":null},{"geonameid":2951046,"name":"Benndorf","admin3":"15087","localeAltName":null},{"geonameid":2951040,"name":"Benneckenstein","admin3":"15085","localeAltName":null},{"geonameid":2950999,"name":"Bennstedt","admin3":"15088","localeAltName":null},{"geonameid":2950998,"name":"Bennungen","admin3":"15087","localeAltName":null},{"geonameid":2950852,"name":"Berenbrock","admin3":"15083","localeAltName":null},{"geonameid":2950696,"name":"Berga","admin3":"15087","localeAltName":null},{"geonameid":2950661,"name":"Berge","admin3":"15081","localeAltName":null},{"geonameid":2950347,"name":"Bergisdorf","admin3":"15084","localeAltName":null},{"geonameid":2950228,"name":"Bergwitz","admin3":"15091","localeAltName":null},{"geonameid":2950202,"name":"Berkau","admin3":"15090","localeAltName":null},{"geonameid":2950073,"name":"Bernburg","admin3":"15089","localeAltName":null},{"geonameid":2949902,"name":"Berßel","admin3":"15085","localeAltName":null},{"geonameid":2949871,"name":"Bertingen","admin3":"15083","localeAltName":null},{"geonameid":2949867,"name":"Bertkow","admin3":"15090","localeAltName":null},{"geonameid":2949767,"name":"Bethau","admin3":"15091","localeAltName":null},{"geonameid":2949582,"name":"Beuna","admin3":"15088","localeAltName":null},{"geonameid":2949548,"name":"Beuster","admin3":"15090","localeAltName":null},{"geonameid":2949455,"name":"Beyernaumburg","admin3":"15087","localeAltName":null},{"geonameid":2949442,"name":"Bias","admin3":"15082","localeAltName":null},{"geonameid":2949221,"name":"Biederitz","admin3":"15086","localeAltName":null},{"geonameid":2949161,"name":"Biendorf","admin3":"15089","localeAltName":null},{"geonameid":2949103,"name":"Biere","admin3":"15089","localeAltName":null},{"geonameid":3208650,"name":"Bierstedt","admin3":"15081","localeAltName":null},{"geonameid":2949049,"name":"Biesenrode","admin3":"15087","localeAltName":null},{"geonameid":2948920,"name":"Billroda","admin3":"15084","localeAltName":null},{"geonameid":2948858,"name":"Binde","admin3":"15081","localeAltName":null},{"geonameid":2948440,"name":"Birkholz","admin3":"15090","localeAltName":null},{"geonameid":2948299,"name":"Bischofrode","admin3":"15087","localeAltName":null},{"geonameid":2948229,"name":"Bismark","admin3":"15090","localeAltName":null},{"geonameid":2948164,"name":"Bitterfeld-Wolfen","admin3":"15082","localeAltName":null},{"geonameid":2948154,"name":"Bittkau","admin3":"15090","localeAltName":null},{"geonameid":2948071,"name":"Blankenburg","admin3":"15085","localeAltName":null},{"geonameid":2948054,"name":"Blankenheim","admin3":"15087","localeAltName":null},{"geonameid":2947477,"name":"Bobbau","admin3":"15082","localeAltName":null},{"geonameid":2947192,"name":"Böddensell","admin3":"15083","localeAltName":null},{"geonameid":2946588,"name":"Bölsdorf","admin3":"15090","localeAltName":null},{"geonameid":2946473,"name":"Bonese","admin3":"15081","localeAltName":null},{"geonameid":2946397,"name":"Boock","admin3":"15090","localeAltName":null},{"geonameid":2946177,"name":"Born","admin3":"15083","localeAltName":null},{"geonameid":2946137,"name":"Borne","admin3":"15089","localeAltName":null},{"geonameid":2946062,"name":"Bornsen","admin3":"15081","localeAltName":null},{"geonameid":2946055,"name":"Bornstedt","admin3":"15083","localeAltName":null},{"geonameid":2946056,"name":"Bornstedt","admin3":"15087","localeAltName":null},{"geonameid":2946043,"name":"Bornum","admin3":"15082","localeAltName":null},{"geonameid":2945912,"name":"Bösdorf","admin3":"15083","localeAltName":null},{"geonameid":2945850,"name":"Boßdorf","admin3":"15091","localeAltName":null},{"geonameid":2945758,"name":"Bottmersdorf","admin3":"15083","localeAltName":null},{"geonameid":2945630,"name":"Brachstedt","admin3":"15088","localeAltName":null},{"geonameid":2945606,"name":"Brachwitz","admin3":"15088","localeAltName":null},{"geonameid":2945339,"name":"Branderoda","admin3":"15084","localeAltName":null},{"geonameid":2945285,"name":"Brandhorst","admin3":"15091","localeAltName":null},{"geonameid":2945151,"name":"Braschwitz","admin3":"15088","localeAltName":null},{"geonameid":2945149,"name":"Bräsen","admin3":"15091","localeAltName":null},{"geonameid":2945045,"name":"Bräunrode","admin3":"15087","localeAltName":null},{"geonameid":2945041,"name":"Braunsbedra","admin3":"15088","localeAltName":null},{"geonameid":2945022,"name":"Braunschwende","admin3":"15087","localeAltName":null},{"geonameid":2944840,"name":"Bregenstedt","admin3":"15083","localeAltName":null},{"geonameid":2944828,"name":"Brehna","admin3":"15082","localeAltName":null},{"geonameid":2944702,"name":"Breitenbach","admin3":"15087","localeAltName":null},{"geonameid":2944706,"name":"Breitenbach","admin3":"15084","localeAltName":null},{"geonameid":2944611,"name":"Breitenfeld","admin3":"15081","localeAltName":null},{"geonameid":2944598,"name":"Breitenhagen","admin3":"15089","localeAltName":null},{"geonameid":2944538,"name":"Breitenstein","admin3":"15087","localeAltName":null},{"geonameid":2944439,"name":"Breitungen","admin3":"15087","localeAltName":null},{"geonameid":2944206,"name":"Bretsch","admin3":"15090","localeAltName":null},{"geonameid":2944191,"name":"Brettin","admin3":"15086","localeAltName":null},{"geonameid":2944005,"name":"Bröckau","admin3":"15084","localeAltName":null},{"geonameid":2943485,"name":"Brücken","admin3":"15087","localeAltName":null},{"geonameid":2943292,"name":"Brumby","admin3":"15089","localeAltName":null},{"geonameid":2943278,"name":"Brunau","admin3":"15081","localeAltName":null},{"geonameid":2942831,"name":"Buch","admin3":"15090","localeAltName":null},{"geonameid":2942818,"name":"Bucha","admin3":"15084","localeAltName":null},{"geonameid":2942363,"name":"Buchholz","admin3":"15090","localeAltName":null},{"geonameid":2941941,"name":"Buhlendorf","admin3":"15082","localeAltName":null},{"geonameid":2941891,"name":"Bühne","admin3":"15081","localeAltName":null},{"geonameid":2941850,"name":"Buko","admin3":"15091","localeAltName":null},{"geonameid":2941744,"name":"Bülstringen","admin3":"15083","localeAltName":null},{"geonameid":2941707,"name":"Bülzig","admin3":"15091","localeAltName":null},{"geonameid":2941501,"name":"Burg bei Magdeburg","admin3":"15086","localeAltName":null},{"geonameid":2941231,"name":"Burgholzhausen","admin3":"15084","localeAltName":null},{"geonameid":2941221,"name":"Burgkemnitz","admin3":"15082","localeAltName":null},{"geonameid":2941185,"name":"Burgliebenau","admin3":"15088","localeAltName":null},{"geonameid":2941169,"name":"Burgscheidungen","admin3":"15084","localeAltName":null},{"geonameid":2941164,"name":"Burgsdorf","admin3":"15087","localeAltName":null},{"geonameid":2941116,"name":"Burgstall","admin3":"15083","localeAltName":null},{"geonameid":2941053,"name":"Burgwerben","admin3":"15084","localeAltName":null},{"geonameid":2941008,"name":"Burkersroda","admin3":"15084","localeAltName":null},{"geonameid":2940779,"name":"Buschkuhnsdorf","admin3":"15091","localeAltName":null},{"geonameid":2940679,"name":"Büste","admin3":"15090","localeAltName":null},{"geonameid":2940419,"name":"Calbe","admin3":"15089","localeAltName":null},{"geonameid":2940386,"name":"Calvörde","admin3":"15083","localeAltName":null},{"geonameid":2940247,"name":"Casekirchen","admin3":"15084","localeAltName":null},{"geonameid":2940227,"name":"Cattenstedt","admin3":"15085","localeAltName":null},{"geonameid":2940123,"name":"Chörau","admin3":"15082","localeAltName":null},{"geonameid":2940037,"name":"Chüden","admin3":"15081","localeAltName":null},{"geonameid":2939957,"name":"Cobbel","admin3":"15090","localeAltName":null},{"geonameid":2939956,"name":"Cobbelsdorf","admin3":"15091","localeAltName":null},{"geonameid":2939946,"name":"Cochstedt","admin3":"15089","localeAltName":null},{"geonameid":2939940,"name":"Colbitz","admin3":"15083","localeAltName":null},{"geonameid":2939848,"name":"Cörmigk","admin3":"15089","localeAltName":null},{"geonameid":2939841,"name":"Cosa","admin3":"15082","localeAltName":null},{"geonameid":2939833,"name":"Cösitz","admin3":"15082","localeAltName":null},{"geonameid":2939819,"name":"Coswig","admin3":"15091","localeAltName":null},{"geonameid":2939736,"name":"Cröchern","admin3":"15083","localeAltName":null},{"geonameid":2939625,"name":"Dabrun","admin3":"15091","localeAltName":null},{"geonameid":2939432,"name":"Dahlen","admin3":"15090","localeAltName":null},{"geonameid":2939420,"name":"Dahlenwarsleben","admin3":"15083","localeAltName":null},{"geonameid":2939365,"name":"Dähre","admin3":"15081","localeAltName":null},{"geonameid":2939016,"name":"Dankerode","admin3":"15085","localeAltName":null},{"geonameid":2938996,"name":"Dannefeld","admin3":"15081","localeAltName":null},{"geonameid":2938966,"name":"Dannigkow","admin3":"15086","localeAltName":null},{"geonameid":2938956,"name":"Danstedt","admin3":"15085","localeAltName":null},{"geonameid":2938918,"name":"Darlingerode","admin3":"15085","localeAltName":null},{"geonameid":2938610,"name":"Dederstedt","admin3":"15087","localeAltName":null},{"geonameid":2938588,"name":"Deetz","admin3":"15082","localeAltName":null},{"geonameid":2938525,"name":"Dehlitz","admin3":"15084","localeAltName":null},{"geonameid":2938377,"name":"Delitz am Berge","admin3":"15088","localeAltName":null},{"geonameid":2938294,"name":"Demker","admin3":"15090","localeAltName":null},{"geonameid":2938136,"name":"Derenburg","admin3":"15085","localeAltName":null},{"geonameid":2937959,"name":"Dessau","admin3":"15001","localeAltName":null},{"geonameid":2937873,"name":"Deuben","admin3":"15084","localeAltName":null},{"geonameid":2937587,"name":"Diebzig","admin3":"15082","localeAltName":null},{"geonameid":2937239,"name":"Diesdorf","admin3":"15003","localeAltName":null},{"geonameid":2937228,"name":"Dieskau","admin3":"15088","localeAltName":null},{"geonameid":2937132,"name":"Dietersdorf","admin3":"15087","localeAltName":null},{"geonameid":2937064,"name":"Dietrichsdorf","admin3":"15091","localeAltName":null},{"geonameid":2936766,"name":"Ditfurt","admin3":"15085","localeAltName":null},{"geonameid":2936685,"name":"Dobberkau","admin3":"15090","localeAltName":null},{"geonameid":2936603,"name":"Dobien","admin3":"15091","localeAltName":null},{"geonameid":2936574,"name":"Döblitz","admin3":"15088","localeAltName":null},{"geonameid":2936553,"name":"Döbris","admin3":"15084","localeAltName":null},{"geonameid":2936548,"name":"Dobritz","admin3":"15082","localeAltName":null},{"geonameid":2936468,"name":"Dohndorf","admin3":"15082","localeAltName":null},{"geonameid":2936457,"name":"Döhren","admin3":"15083","localeAltName":null},{"geonameid":2936431,"name":"Dölbau","admin3":"15088","localeAltName":null},{"geonameid":2936383,"name":"Dolle","admin3":"15083","localeAltName":null},{"geonameid":2936343,"name":"Döllnitz","admin3":"15088","localeAltName":null},{"geonameid":2936298,"name":"Domersleben","admin3":"15083","localeAltName":null},{"geonameid":2936278,"name":"Domnitz","admin3":"15088","localeAltName":null},{"geonameid":2936242,"name":"Dönitz","admin3":"15081","localeAltName":null},{"geonameid":2935805,"name":"Dorna","admin3":"15091","localeAltName":null},{"geonameid":2935745,"name":"Dornbock","admin3":"15082","localeAltName":null},{"geonameid":2935740,"name":"Dornburg","admin3":"15086","localeAltName":null},{"geonameid":2935665,"name":"Dörnitz","admin3":"15086","localeAltName":null},{"geonameid":2935645,"name":"Dornstedt","admin3":"15088","localeAltName":null},{"geonameid":2935533,"name":"Dorst","admin3":"15083","localeAltName":null},{"geonameid":2935483,"name":"Döschwitz","admin3":"15084","localeAltName":null},{"geonameid":2935456,"name":"Dößel","admin3":"15088","localeAltName":null},{"geonameid":2935381,"name":"Drackenstedt","admin3":"15083","localeAltName":null},{"geonameid":2935295,"name":"Drebsdorf","admin3":"15087","localeAltName":null},{"geonameid":2935139,"name":"Dreileben","admin3":"15083","localeAltName":null},{"geonameid":2934983,"name":"Drewitz","admin3":"15086","localeAltName":null},{"geonameid":2934892,"name":"Drohndorf","admin3":"15089","localeAltName":null},{"geonameid":2934870,"name":"Drosa","admin3":"15082","localeAltName":null},{"geonameid":2934852,"name":"Droßdorf","admin3":"15084","localeAltName":null},{"geonameid":2934835,"name":"Droyßig","admin3":"15084","localeAltName":null},{"geonameid":2934831,"name":"Drübeck","admin3":"15085","localeAltName":null},{"geonameid":2934798,"name":"Druxberge","admin3":"15083","localeAltName":null},{"geonameid":2934790,"name":"Düben","admin3":"15091","localeAltName":null},{"geonameid":2934260,"name":"Düsedau","admin3":"15090","localeAltName":null},{"geonameid":2934073,"name":"Ebendorf","admin3":"15083","localeAltName":null},{"geonameid":2933899,"name":"Ebersroda","admin3":"15084","localeAltName":null},{"geonameid":2933720,"name":"Eckartsberga","admin3":"15084","localeAltName":null},{"geonameid":2933485,"name":"Edderitz","admin3":"15082","localeAltName":null},{"geonameid":2933372,"name":"Edersleben","admin3":"15087","localeAltName":null},{"geonameid":2933343,"name":"Edlau","admin3":"15089","localeAltName":null},{"geonameid":2933256,"name":"Egeln","admin3":"15089","localeAltName":null},{"geonameid":2933103,"name":"Eggenstedt","admin3":"15083","localeAltName":null},{"geonameid":2933064,"name":"Eggersdorf","admin3":"15089","localeAltName":null},{"geonameid":2932376,"name":"Eichenbarleben","admin3":"15083","localeAltName":null},{"geonameid":2932067,"name":"Eichstedt","admin3":"15090","localeAltName":null},{"geonameid":2932011,"name":"Eickendorf","admin3":"15083","localeAltName":null},{"geonameid":2932012,"name":"Eickendorf","admin3":"15089","localeAltName":null},{"geonameid":2931842,"name":"Eilsdorf","admin3":"15085","localeAltName":null},{"geonameid":2931838,"name":"Eilsleben","admin3":"15083","localeAltName":null},{"geonameid":2931821,"name":"Eimersleben","admin3":"15083","localeAltName":null},{"geonameid":7284571,"name":"Eisleben Lutherstadt","admin3":"15087","localeAltName":null},{"geonameid":2931245,"name":"Elbingerode","admin3":"15085","localeAltName":null},{"geonameid":2931204,"name":"Elend","admin3":"15085","localeAltName":null},{"geonameid":2931077,"name":"Ellenberg","admin3":"15081","localeAltName":null},{"geonameid":2930707,"name":"Elsnigk","admin3":"15082","localeAltName":null},{"geonameid":2930695,"name":"Elster","admin3":"15091","localeAltName":null},{"geonameid":2930681,"name":"Elstervorstadt","admin3":"15091","localeAltName":null},{"geonameid":2930597,"name":"Emden","admin3":"15083","localeAltName":null},{"geonameid":2930444,"name":"Emseloh","admin3":"15087","localeAltName":null},{"geonameid":2916638,"name":"Engersen","admin3":"15081","localeAltName":null},{"geonameid":3204998,"name":"Erdeborn","admin3":"15087","localeAltName":null},{"geonameid":2929383,"name":"Ermlitz","admin3":"15088","localeAltName":null},{"geonameid":2929244,"name":"Erxleben","admin3":"15090","localeAltName":null},{"geonameid":2929245,"name":"Erxleben","admin3":"15083","localeAltName":null},{"geonameid":2929033,"name":"Eschenrode","admin3":"15083","localeAltName":null},{"geonameid":2928847,"name":"Esperstedt","admin3":"15088","localeAltName":null},{"geonameid":2928740,"name":"Estedt","admin3":"15081","localeAltName":null},{"geonameid":2928700,"name":"Etgersleben","admin3":"15089","localeAltName":null},{"geonameid":2928697,"name":"Etingen","admin3":"15083","localeAltName":null},{"geonameid":2928372,"name":"Eutzsch","admin3":"15091","localeAltName":null},{"geonameid":2928351,"name":"Everingen","admin3":"15083","localeAltName":null},{"geonameid":2927798,"name":"Farnstädt","admin3":"15088","localeAltName":null},{"geonameid":2927781,"name":"Farsleben","admin3":"15083","localeAltName":null},{"geonameid":2927152,"name":"Ferchland","admin3":"15086","localeAltName":null},{"geonameid":2926897,"name":"Fienstedt","admin3":"15088","localeAltName":null},{"geonameid":2926578,"name":"Fischbeck","admin3":"15090","localeAltName":null},{"geonameid":2926351,"name":"Flechtingen","admin3":"15083","localeAltName":null},{"geonameid":2926317,"name":"Fleetmark","admin3":"15081","localeAltName":null},{"geonameid":2926252,"name":"Flessau","admin3":"15090","localeAltName":null},{"geonameid":2925902,"name":"Förderstedt","admin3":"15089","localeAltName":null},{"geonameid":2925499,"name":"Frankleben","admin3":"15088","localeAltName":null},{"geonameid":2925456,"name":"Fraßdorf","admin3":"15082","localeAltName":null},{"geonameid":2925245,"name":"Freckleben","admin3":"15089","localeAltName":null},{"geonameid":2925028,"name":"Freist","admin3":"15087","localeAltName":null},{"geonameid":2924862,"name":"Freyburg","admin3":"15084","localeAltName":null},{"geonameid":2924789,"name":"Friedeburg","admin3":"15087","localeAltName":null},{"geonameid":2924787,"name":"Friedeburgerhütte","admin3":"15087","localeAltName":null},{"geonameid":2924716,"name":"Friedersdorf","admin3":"15082","localeAltName":null},{"geonameid":2924649,"name":"Friedrichsaue","admin3":"15089","localeAltName":null},{"geonameid":2924628,"name":"Friedrichsbrunn","admin3":"15085","localeAltName":null},{"geonameid":2924476,"name":"Friedrichstadt","admin3":"15091","localeAltName":null},{"geonameid":2924399,"name":"Friesdorf","admin3":"15087","localeAltName":null},{"geonameid":2924138,"name":"Frose","admin3":"15089","localeAltName":null},{"geonameid":2923408,"name":"Gadegast","admin3":"15091","localeAltName":null},{"geonameid":2923372,"name":"Gagel","admin3":"15090","localeAltName":null},{"geonameid":2922580,"name":"Gardelegen","admin3":"15081","localeAltName":null},{"geonameid":2922548,"name":"Garlipp","admin3":"15090","localeAltName":null},{"geonameid":2922342,"name":"Gatersleben","admin3":"15089","localeAltName":null},{"geonameid":2922105,"name":"Geestgottberg","admin3":"15090","localeAltName":null},{"geonameid":2922009,"name":"Gehrden","admin3":"15082","localeAltName":null},{"geonameid":2921309,"name":"Genthin","admin3":"15086","localeAltName":null},{"geonameid":2921168,"name":"Gerbitz","admin3":"15089","localeAltName":null},{"geonameid":2921164,"name":"Gerbstedt","admin3":"15087","localeAltName":null},{"geonameid":2921075,"name":"Gerlebogk","admin3":"15089","localeAltName":null},{"geonameid":2920999,"name":"Gernrode","admin3":"15085","localeAltName":null},{"geonameid":2920850,"name":"Gerwisch","admin3":"15086","localeAltName":null},{"geonameid":2920768,"name":"Geusa","admin3":"15088","localeAltName":null},{"geonameid":3209197,"name":"Geußnitz","admin3":"15084","localeAltName":null},{"geonameid":2920642,"name":"Gieckau","admin3":"15084","localeAltName":null},{"geonameid":2920582,"name":"Giersleben","admin3":"15089","localeAltName":null},{"geonameid":2920534,"name":"Gieseritz","admin3":"15081","localeAltName":null},{"geonameid":3208660,"name":"Gischau","admin3":"15081","localeAltName":null},{"geonameid":2920245,"name":"Gladau","admin3":"15086","localeAltName":null},{"geonameid":2920227,"name":"Gladigau","admin3":"15090","localeAltName":null},{"geonameid":2920017,"name":"Glauzig","admin3":"15082","localeAltName":null},{"geonameid":2920012,"name":"Glebitzsch","admin3":"15082","localeAltName":null},{"geonameid":2919979,"name":"Gleina","admin3":"15084","localeAltName":null},{"geonameid":2919882,"name":"Glinde","admin3":"15089","localeAltName":null},{"geonameid":2919877,"name":"Glindenberg","admin3":"15083","localeAltName":null},{"geonameid":2919794,"name":"Glöthe","admin3":"15089","localeAltName":null},{"geonameid":2919713,"name":"Gnadau","admin3":"15089","localeAltName":null},{"geonameid":2919681,"name":"Gnetsch","admin3":"15082","localeAltName":null},{"geonameid":2919551,"name":"Gödnitz","admin3":"15082","localeAltName":null},{"geonameid":2919491,"name":"Gohrau","admin3":"15091","localeAltName":null},{"geonameid":2919415,"name":"Goldbeck","admin3":"15090","localeAltName":null},{"geonameid":2919279,"name":"Goldschau","admin3":"15084","localeAltName":null},{"geonameid":2919240,"name":"Gollensdorf","admin3":"15090","localeAltName":null},{"geonameid":2919163,"name":"Golzen","admin3":"15084","localeAltName":null},{"geonameid":2919138,"name":"Gommern","admin3":"15086","localeAltName":null},{"geonameid":2919115,"name":"Gonna","admin3":"15087","localeAltName":null},{"geonameid":2919030,"name":"Gorenzen","admin3":"15087","localeAltName":null},{"geonameid":2918941,"name":"Görschen","admin3":"15084","localeAltName":null},{"geonameid":2918899,"name":"Görzig","admin3":"15082","localeAltName":null},{"geonameid":2918868,"name":"Goseck","admin3":"15084","localeAltName":null},{"geonameid":2918828,"name":"Gossa","admin3":"15082","localeAltName":null},{"geonameid":2918606,"name":"Göttnitz","admin3":"15082","localeAltName":null},{"geonameid":2918410,"name":"Grabow","admin3":"15086","localeAltName":null},{"geonameid":2918321,"name":"Gräfenhainichen","admin3":"15091","localeAltName":null},{"geonameid":2918127,"name":"Grana","admin3":"15084","localeAltName":null},{"geonameid":2918092,"name":"Granschütz","admin3":"15084","localeAltName":null},{"geonameid":2917975,"name":"Grassau","admin3":"15090","localeAltName":null},{"geonameid":2917901,"name":"Grauingen","admin3":"15083","localeAltName":null},{"geonameid":2917801,"name":"Greifenhagen","admin3":"15087","localeAltName":null},{"geonameid":2917626,"name":"Greppin","admin3":"15082","localeAltName":null},{"geonameid":2917504,"name":"Grieben","admin3":"15090","localeAltName":null},{"geonameid":2917493,"name":"Griebo","admin3":"15091","localeAltName":null},{"geonameid":2917431,"name":"Griesen","admin3":"15091","localeAltName":null},{"geonameid":2917353,"name":"Grillenberg","admin3":"15087","localeAltName":null},{"geonameid":2917320,"name":"Grimme","admin3":"15082","localeAltName":null},{"geonameid":2917230,"name":"Gröben","admin3":"15084","localeAltName":null},{"geonameid":2917218,"name":"Gröbern","admin3":"15082","localeAltName":null},{"geonameid":2917217,"name":"Gröbers","admin3":"15088","localeAltName":null},{"geonameid":2917216,"name":"Gröbitz","admin3":"15084","localeAltName":null},{"geonameid":2917214,"name":"Grobleben","admin3":"15090","localeAltName":null},{"geonameid":2917206,"name":"Gröbzig","admin3":"15082","localeAltName":null},{"geonameid":2917200,"name":"Grockstädt","admin3":"15088","localeAltName":null},{"geonameid":2917147,"name":"Gröna","admin3":"15089","localeAltName":null},{"geonameid":2917107,"name":"Gröningen","admin3":"15083","localeAltName":null},{"geonameid":2917046,"name":"Groß Ammensleben","admin3":"15083","localeAltName":null},{"geonameid":2916942,"name":"Groß Börnecke","admin3":"15089","localeAltName":null},{"geonameid":2915616,"name":"Groß Garz","admin3":"15090","localeAltName":null},{"geonameid":2915164,"name":"Groß Quenstedt","admin3":"15085","localeAltName":null},{"geonameid":2915131,"name":"Groß Rodensleben","admin3":"15083","localeAltName":null},{"geonameid":2915118,"name":"Groß Rosenburg","admin3":"15089","localeAltName":null},{"geonameid":2915095,"name":"Groß Santersleben","admin3":"15083","localeAltName":null},{"geonameid":2915077,"name":"Groß-Schierstedt","admin3":"15089","localeAltName":null},{"geonameid":2917023,"name":"Großbadegast","admin3":"15082","localeAltName":null},{"geonameid":2915589,"name":"Großgörschen","admin3":"15084","localeAltName":null},{"geonameid":2915434,"name":"Großkayna","admin3":"15088","localeAltName":null},{"geonameid":2915392,"name":"Großkorbetha","admin3":"15084","localeAltName":null},{"geonameid":2915367,"name":"Großkugel","admin3":"15088","localeAltName":null},{"geonameid":2915340,"name":"Großleinungen","admin3":"15087","localeAltName":null},{"geonameid":2915221,"name":"Größnitz","admin3":"15084","localeAltName":null},{"geonameid":2915201,"name":"Großörner","admin3":"15087","localeAltName":null},{"geonameid":2915187,"name":"Großpaschleben","admin3":"15082","localeAltName":null},{"geonameid":2914800,"name":"Großzöberitz","admin3":"15082","localeAltName":null},{"geonameid":2914795,"name":"Gröst","admin3":"15088","localeAltName":null},{"geonameid":2913915,"name":"Gübs","admin3":"15086","localeAltName":null},{"geonameid":2913626,"name":"Gunsleben","admin3":"15083","localeAltName":null},{"geonameid":2913600,"name":"Güntersberge","admin3":"15085","localeAltName":null},{"geonameid":2913571,"name":"Günthersdorf","admin3":"15088","localeAltName":null},{"geonameid":2913472,"name":"Güssefeld","admin3":"15081","localeAltName":null},{"geonameid":2913449,"name":"Güsten","admin3":"15089","localeAltName":null},{"geonameid":2913405,"name":"Gutenberg","admin3":"15088","localeAltName":null},{"geonameid":2913384,"name":"Gutenswegen","admin3":"15083","localeAltName":null},{"geonameid":2913375,"name":"Güterglück","admin3":"15082","localeAltName":null},{"geonameid":2912834,"name":"Hackpfüffel","admin3":"15087","localeAltName":null},{"geonameid":2912782,"name":"Hadmersleben","admin3":"15083","localeAltName":null},{"geonameid":2911779,"name":"Hainrode","admin3":"15087","localeAltName":null},{"geonameid":2911725,"name":"Hakeborn","admin3":"15089","localeAltName":null},{"geonameid":2911700,"name":"Hakenstedt","admin3":"15083","localeAltName":null},{"geonameid":2911665,"name":"Halberstadt","admin3":"15085","localeAltName":null},{"geonameid":2911584,"name":"Haldensleben I","admin3":"15083","localeAltName":null},{"geonameid":2911522,"name":"Halle (Saale)","admin3":"15002","localeAltName":null},{"geonameid":7289614,"name":"Halle Neustadt","admin3":"15002","localeAltName":null},{"geonameid":2911259,"name":"Hamersleben","admin3":"15083","localeAltName":null},{"geonameid":2911257,"name":"Hämerten","admin3":"15090","localeAltName":null},{"geonameid":2910748,"name":"Hanum","admin3":"15081","localeAltName":null},{"geonameid":2910694,"name":"Harbke","admin3":"15083","localeAltName":null},{"geonameid":2910463,"name":"Harkerode","admin3":"15087","localeAltName":null},{"geonameid":2910275,"name":"Harsleben","admin3":"15085","localeAltName":null},{"geonameid":2909944,"name":"Harzgerode","admin3":"15085","localeAltName":null},{"geonameid":2909445,"name":"Hassel","admin3":"15090","localeAltName":null},{"geonameid":2909386,"name":"Hasselfelde","admin3":"15085","localeAltName":null},{"geonameid":2908726,"name":"Hausneindorf","admin3":"15085","localeAltName":null},{"geonameid":2908644,"name":"Havelberg","admin3":"15090","localeAltName":null},{"geonameid":2908571,"name":"Hayn","admin3":"15087","localeAltName":null},{"geonameid":2908563,"name":"Haynsburg","admin3":"15084","localeAltName":null},{"geonameid":2908411,"name":"Hecklingen","admin3":"15089","localeAltName":null},{"geonameid":2908373,"name":"Hedersleben","admin3":"15085","localeAltName":null},{"geonameid":2908374,"name":"Hedersleben","admin3":"15087","localeAltName":null},{"geonameid":2908310,"name":"Heeren","admin3":"15090","localeAltName":null},{"geonameid":2907902,"name":"Heideloh","admin3":"15082","localeAltName":null},{"geonameid":2907598,"name":"Heiligenfelde","admin3":"15090","localeAltName":null},{"geonameid":2907533,"name":"Heiligenthal","admin3":"15087","localeAltName":null},{"geonameid":2907413,"name":"Heimburg","admin3":"15085","localeAltName":null},{"geonameid":2907254,"name":"Heinrichsberg","admin3":"15083","localeAltName":null},{"geonameid":2907018,"name":"Helbra","admin3":"15087","localeAltName":null},{"geonameid":2906497,"name":"Hemstedt","admin3":"15081","localeAltName":null},{"geonameid":2906323,"name":"Henningen","admin3":"15081","localeAltName":null},{"geonameid":2906098,"name":"Hergisdorf","admin3":"15087","localeAltName":null},{"geonameid":2905949,"name":"Hermerode","admin3":"15087","localeAltName":null},{"geonameid":2905905,"name":"Hermsdorf","admin3":"15083","localeAltName":null},{"geonameid":2905812,"name":"Herrengosserstedt","admin3":"15084","localeAltName":null},{"geonameid":2905250,"name":"Heteborn","admin3":"15085","localeAltName":null},{"geonameid":2905206,"name":"Hettstedt","admin3":"15087","localeAltName":null},{"geonameid":2908431,"name":"Heuckewalde","admin3":"15084","localeAltName":null},{"geonameid":2905058,"name":"Heudeber","admin3":"15085","localeAltName":null},{"geonameid":2904693,"name":"Hillersleben","admin3":"15083","localeAltName":null},{"geonameid":2904468,"name":"Hindenburg","admin3":"15090","localeAltName":null},{"geonameid":2904403,"name":"Hinsdorf","admin3":"15082","localeAltName":null},{"geonameid":2903580,"name":"Hirschroda","admin3":"15084","localeAltName":null},{"geonameid":2903420,"name":"Hobeck","admin3":"15086","localeAltName":null},{"geonameid":2902812,"name":"Hödingen","admin3":"15083","localeAltName":null},{"geonameid":2901900,"name":"Hohenberg-Krusemark","admin3":"15090","localeAltName":null},{"geonameid":2901839,"name":"Hohendodeleben","admin3":"15083","localeAltName":null},{"geonameid":2901749,"name":"Hohengöhren","admin3":"15090","localeAltName":null},{"geonameid":2901635,"name":"Hohenlepte","admin3":"15082","localeAltName":null},{"geonameid":2901601,"name":"Hohenmölsen","admin3":"15084","localeAltName":null},{"geonameid":2901397,"name":"Hohenthurm","admin3":"15088","localeAltName":null},{"geonameid":2901395,"name":"Hohentramm","admin3":"15081","localeAltName":null},{"geonameid":2901377,"name":"Hohenwarsleben","admin3":"15083","localeAltName":null},{"geonameid":2901358,"name":"Hohenwarthe","admin3":"15086","localeAltName":null},{"geonameid":2901353,"name":"Hohenweiden","admin3":"15088","localeAltName":null},{"geonameid":2901335,"name":"Hohenwulsch","admin3":"15090","localeAltName":null},{"geonameid":2901325,"name":"Hohenziatz","admin3":"15086","localeAltName":null},{"geonameid":2900849,"name":"Höhnstedt","admin3":"15088","localeAltName":null},{"geonameid":2900759,"name":"Holdenstedt","admin3":"15087","localeAltName":null},{"geonameid":2900617,"name":"Holleben","admin3":"15088","localeAltName":null},{"geonameid":2899961,"name":"Holzdorf","admin3":"15091","localeAltName":null},{"geonameid":2899777,"name":"Holzhausen","admin3":"15090","localeAltName":null},{"geonameid":2899539,"name":"Holzweißig","admin3":"15082","localeAltName":null},{"geonameid":2899003,"name":"Horla","admin3":"15087","localeAltName":null},{"geonameid":2898864,"name":"Hornburg","admin3":"15087","localeAltName":null},{"geonameid":2898829,"name":"Hornhausen","admin3":"15083","localeAltName":null},{"geonameid":2898696,"name":"Hörsingen","admin3":"15083","localeAltName":null},{"geonameid":2898615,"name":"Horstdorf","admin3":"15091","localeAltName":null},{"geonameid":2898435,"name":"Hötensleben","admin3":"15083","localeAltName":null},{"geonameid":2898424,"name":"Hottendorf","admin3":"15081","localeAltName":null},{"geonameid":2898329,"name":"Höwisch","admin3":"15081","localeAltName":null},{"geonameid":2898299,"name":"Hoym","admin3":"15089","localeAltName":null},{"geonameid":2898150,"name":"Hübitz","admin3":"15087","localeAltName":null},{"geonameid":2897601,"name":"Hundeluft","admin3":"15091","localeAltName":null},{"geonameid":2897185,"name":"Hüselitz","admin3":"15090","localeAltName":null},{"geonameid":2896933,"name":"Hüttenrode","admin3":"15085","localeAltName":null},{"geonameid":2896834,"name":"Huy-Neinstedt","admin3":"15085","localeAltName":null},{"geonameid":2896747,"name":"Iden","admin3":"15090","localeAltName":null},{"geonameid":2896650,"name":"Ihlewitz","admin3":"15087","localeAltName":null},{"geonameid":2896602,"name":"Ilberstedt","admin3":"15089","localeAltName":null},{"geonameid":2896483,"name":"Ilsenburg","admin3":"15085","localeAltName":null},{"geonameid":2896303,"name":"Immekath","admin3":"15081","localeAltName":null},{"geonameid":2895926,"name":"Insel","admin3":"15090","localeAltName":null},{"geonameid":2895731,"name":"Irxleben","admin3":"15083","localeAltName":null},{"geonameid":2895536,"name":"Ivenrode","admin3":"15083","localeAltName":null},{"geonameid":2895269,"name":"Jahrstedt","admin3":"15081","localeAltName":null},{"geonameid":2895207,"name":"Janisroda","admin3":"15084","localeAltName":null},{"geonameid":2895177,"name":"Jarchau","admin3":"15090","localeAltName":null},{"geonameid":2895117,"name":"Jävenitz","admin3":"15081","localeAltName":null},{"geonameid":2895112,"name":"Jeber-Bergfrieden","admin3":"15091","localeAltName":null},{"geonameid":2895084,"name":"Jeeben","admin3":"15081","localeAltName":null},{"geonameid":2895077,"name":"Jeetze","admin3":"15081","localeAltName":null},{"geonameid":2895074,"name":"Jeggau","admin3":"15081","localeAltName":null},{"geonameid":2895072,"name":"Jeggeleben","admin3":"15081","localeAltName":null},{"geonameid":2895014,"name":"Jerchel","admin3":"15090","localeAltName":null},{"geonameid":2895015,"name":"Jerchel","admin3":"15081","localeAltName":null},{"geonameid":2895008,"name":"Jerichow","admin3":"15086","localeAltName":null},{"geonameid":2894996,"name":"Jersleben","admin3":"15083","localeAltName":null},{"geonameid":2894971,"name":"Jeseritz","admin3":"15081","localeAltName":null},{"geonameid":2894962,"name":"Jessen","admin3":"15091","localeAltName":null},{"geonameid":2894948,"name":"Jeßnitz","admin3":"15082","localeAltName":null},{"geonameid":2894646,"name":"Jübar","admin3":"15081","localeAltName":null},{"geonameid":2894606,"name":"Jüdenberg","admin3":"15091","localeAltName":null},{"geonameid":2894393,"name":"Jütrichau","admin3":"15082","localeAltName":null},{"geonameid":2894342,"name":"Kade","admin3":"15086","localeAltName":null},{"geonameid":2894127,"name":"Kahlwinkel","admin3":"15084","localeAltName":null},{"geonameid":2894103,"name":"Kahrstedt","admin3":"15081","localeAltName":null},{"geonameid":2893963,"name":"Kakau","admin3":"15091","localeAltName":null},{"geonameid":2893953,"name":"Kakerbeck","admin3":"15081","localeAltName":null},{"geonameid":2893939,"name":"Kalbe","admin3":"15081","localeAltName":null},{"geonameid":2893430,"name":"Kamern","admin3":"15090","localeAltName":null},{"geonameid":3208666,"name":"Karith","admin3":"15086","localeAltName":null},{"geonameid":2892710,"name":"Karow","admin3":"15086","localeAltName":null},{"geonameid":2892652,"name":"Karsdorf","admin3":"15084","localeAltName":null},{"geonameid":2892502,"name":"Kassieck","admin3":"15081","localeAltName":null},{"geonameid":2892391,"name":"Katharinenrieth","admin3":"15087","localeAltName":null},{"geonameid":2892381,"name":"Käthen","admin3":"15090","localeAltName":null},{"geonameid":2892379,"name":"Kathendorf","admin3":"15083","localeAltName":null},{"geonameid":2892056,"name":"Kaulitz","admin3":"15081","localeAltName":null},{"geonameid":2891991,"name":"Kayna","admin3":"15084","localeAltName":null},{"geonameid":2891922,"name":"Kehnert","admin3":"15090","localeAltName":null},{"geonameid":2891844,"name":"Kelbra","admin3":"15087","localeAltName":null},{"geonameid":2891718,"name":"Kemberg","admin3":"15091","localeAltName":null},{"geonameid":2891575,"name":"Kerkau","admin3":"15081","localeAltName":null},{"geonameid":2890390,"name":"Kirchscheidungen","admin3":"15084","localeAltName":null},{"geonameid":2890139,"name":"Kläden","admin3":"15081","localeAltName":null},{"geonameid":2890140,"name":"Kläden","admin3":"15090","localeAltName":null},{"geonameid":2889801,"name":"Klein Ammensleben","admin3":"15083","localeAltName":null},{"geonameid":2888881,"name":"Klein Gartz","admin3":"15081","localeAltName":null},{"geonameid":2888470,"name":"Klein Mühlingen","admin3":"15089","localeAltName":null},{"geonameid":2888317,"name":"Klein Rodensleben","admin3":"15083","localeAltName":null},{"geonameid":2888047,"name":"Klein Wanzleben","admin3":"15083","localeAltName":null},{"geonameid":2888265,"name":"Klein-Schierstedt","admin3":"15089","localeAltName":null},{"geonameid":2889784,"name":"Kleinau","admin3":"15081","localeAltName":null},{"geonameid":2888769,"name":"Kleinhelmsdorf","admin3":"15084","localeAltName":null},{"geonameid":2888632,"name":"Kleinkorga","admin3":"15091","localeAltName":null},{"geonameid":2888570,"name":"Kleinleinungen","admin3":"15087","localeAltName":null},{"geonameid":2888398,"name":"Kleinpaschleben","admin3":"15082","localeAltName":null},{"geonameid":2887982,"name":"Kleinwittenberg","admin3":"15091","localeAltName":null},{"geonameid":2887812,"name":"Klieken","admin3":"15091","localeAltName":null},{"geonameid":2887805,"name":"Klietz","admin3":"15090","localeAltName":null},{"geonameid":3208799,"name":"Klitsche","admin3":"15086","localeAltName":null},{"geonameid":2887615,"name":"Klobikau","admin3":"15088","localeAltName":null},{"geonameid":2887599,"name":"Klöden","admin3":"15091","localeAltName":null},{"geonameid":2887576,"name":"Kloschwitz","admin3":"15088","localeAltName":null},{"geonameid":2887432,"name":"Kloster Neuendorf","admin3":"15081","localeAltName":null},{"geonameid":2887494,"name":"Klosterhäseler","admin3":"15084","localeAltName":null},{"geonameid":2887444,"name":"Klostermansfeld","admin3":"15087","localeAltName":null},{"geonameid":2887380,"name":"Klötze","admin3":"15081","localeAltName":null},{"geonameid":2887356,"name":"Klüden","admin3":"15083","localeAltName":null},{"geonameid":2887270,"name":"Knapendorf","admin3":"15088","localeAltName":null},{"geonameid":2886854,"name":"Köckte","admin3":"15081","localeAltName":null},{"geonameid":2885994,"name":"Königerode","admin3":"15085","localeAltName":null},{"geonameid":2885914,"name":"Königsborn","admin3":"15086","localeAltName":null},{"geonameid":2885810,"name":"Königshütte","admin3":"15085","localeAltName":null},{"geonameid":2885798,"name":"Königsmark","admin3":"15090","localeAltName":null},{"geonameid":2885716,"name":"Könnern","admin3":"15089","localeAltName":null},{"geonameid":2885710,"name":"Könnigde","admin3":"15090","localeAltName":null},{"geonameid":2885524,"name":"Körbelitz","admin3":"15086","localeAltName":null},{"geonameid":2885514,"name":"Korbetha","admin3":"15088","localeAltName":null},{"geonameid":2885343,"name":"Köselitz","admin3":"15091","localeAltName":null},{"geonameid":2885314,"name":"Kossebau","admin3":"15090","localeAltName":null},{"geonameid":2885237,"name":"Köthen","admin3":"15082","localeAltName":null},{"geonameid":2885196,"name":"Kötschlitz","admin3":"15088","localeAltName":null},{"geonameid":2885074,"name":"Kötzschau","admin3":"15088","localeAltName":null},{"geonameid":2884657,"name":"Krauschwitz","admin3":"15084","localeAltName":null},{"geonameid":2884407,"name":"Kremkau","admin3":"15090","localeAltName":null},{"geonameid":2884308,"name":"Kretzschau","admin3":"15084","localeAltName":null},{"geonameid":2884024,"name":"Krevese","admin3":"15090","localeAltName":null},{"geonameid":2884001,"name":"Kreypau","admin3":"15088","localeAltName":null},{"geonameid":2883895,"name":"Krina","admin3":"15082","localeAltName":null},{"geonameid":2883580,"name":"Kroppenstedt","admin3":"15083","localeAltName":null},{"geonameid":2883570,"name":"Kropstädt","admin3":"15091","localeAltName":null},{"geonameid":2883562,"name":"Krosigk","admin3":"15088","localeAltName":null},{"geonameid":2883476,"name":"Krüden","admin3":"15090","localeAltName":null},{"geonameid":2883246,"name":"Krumpa","admin3":"15088","localeAltName":null},{"geonameid":2883204,"name":"Krüssau","admin3":"15086","localeAltName":null},{"geonameid":2882875,"name":"Kuhfelde","admin3":"15081","localeAltName":null},{"geonameid":2882467,"name":"Kunrau","admin3":"15081","localeAltName":null},{"geonameid":2882264,"name":"Küsel","admin3":"15086","localeAltName":null},{"geonameid":2882260,"name":"Kusey","admin3":"15081","localeAltName":null},{"geonameid":2882208,"name":"Kütten","admin3":"15088","localeAltName":null},{"geonameid":2882060,"name":"Labetz","admin3":"15091","localeAltName":null},{"geonameid":2882057,"name":"Labrun","admin3":"15091","localeAltName":null},{"geonameid":2881988,"name":"Ladeburg","admin3":"15086","localeAltName":null},{"geonameid":2881942,"name":"Lagendorf","admin3":"15081","localeAltName":null},{"geonameid":2881508,"name":"Landsberg","admin3":"15088","localeAltName":null},{"geonameid":2881303,"name":"Langeln","admin3":"15085","localeAltName":null},{"geonameid":2881264,"name":"Langenapel","admin3":"15081","localeAltName":null},{"geonameid":2881150,"name":"Langenbogen","admin3":"15088","localeAltName":null},{"geonameid":2881107,"name":"Langendorf","admin3":"15084","localeAltName":null},{"geonameid":2881097,"name":"Langeneichstädt","admin3":"15088","localeAltName":null},{"geonameid":2880930,"name":"Langensalzwedel","admin3":"15090","localeAltName":null},{"geonameid":2880905,"name":"Langenstein","admin3":"15085","localeAltName":null},{"geonameid":2880356,"name":"Latdorf","admin3":"15089","localeAltName":null},{"geonameid":2880228,"name":"Laucha","admin3":"15084","localeAltName":null},{"geonameid":2879800,"name":"Lebien","admin3":"15091","localeAltName":null},{"geonameid":2879670,"name":"Leetza","admin3":"15091","localeAltName":null},{"geonameid":2879257,"name":"Leimbach","admin3":"15088","localeAltName":null},{"geonameid":2879111,"name":"Leislau","admin3":"15084","localeAltName":null},{"geonameid":2879106,"name":"Leißling","admin3":"15084","localeAltName":null},{"geonameid":2878986,"name":"Leitzkau","admin3":"15086","localeAltName":null},{"geonameid":2878876,"name":"Lengefeld","admin3":"15084","localeAltName":null},{"geonameid":2878650,"name":"Leppin","admin3":"15081","localeAltName":null},{"geonameid":2878641,"name":"Leps","admin3":"15082","localeAltName":null},{"geonameid":2878410,"name":"Letzlingen","admin3":"15081","localeAltName":null},{"geonameid":2878350,"name":"Leuna","admin3":"15088","localeAltName":null},{"geonameid":2878183,"name":"Libbesdorf","admin3":"15082","localeAltName":null},{"geonameid":2878180,"name":"Libehna","admin3":"15082","localeAltName":null},{"geonameid":2878020,"name":"Lichterfelde","admin3":"15090","localeAltName":null},{"geonameid":2877869,"name":"Liedersdorf","admin3":"15087","localeAltName":null},{"geonameid":2877767,"name":"Lieskau","admin3":"15088","localeAltName":null},{"geonameid":2877753,"name":"Liesten","admin3":"15081","localeAltName":null},{"geonameid":2877605,"name":"Linda","admin3":"15091","localeAltName":null},{"geonameid":2877546,"name":"Lindau","admin3":"15082","localeAltName":null},{"geonameid":2877112,"name":"Lindstedt","admin3":"15081","localeAltName":null},{"geonameid":2877106,"name":"Lindtorf","admin3":"15090","localeAltName":null},{"geonameid":2876832,"name":"Listerfehrda","admin3":"15091","localeAltName":null},{"geonameid":2876739,"name":"Löbejün","admin3":"15088","localeAltName":null},{"geonameid":2876735,"name":"Löben","admin3":"15091","localeAltName":null},{"geonameid":2876714,"name":"Löberitz","admin3":"15082","localeAltName":null},{"geonameid":2876705,"name":"Löbitz","admin3":"15084","localeAltName":null},{"geonameid":2876696,"name":"Löbnitz an der Linde","admin3":"15082","localeAltName":null},{"geonameid":2876682,"name":"Loburg","admin3":"15086","localeAltName":null},{"geonameid":2876645,"name":"Lochau","admin3":"15088","localeAltName":null},{"geonameid":2876513,"name":"Lödderitz","admin3":"15089","localeAltName":null},{"geonameid":2876048,"name":"Loitsche","admin3":"15083","localeAltName":null},{"geonameid":2875838,"name":"Losenrade","admin3":"15090","localeAltName":null},{"geonameid":2875822,"name":"Lossa","admin3":"15084","localeAltName":null},{"geonameid":2875814,"name":"Losse","admin3":"15090","localeAltName":null},{"geonameid":2875785,"name":"Lostau","admin3":"15086","localeAltName":null},{"geonameid":2875572,"name":"Lübs","admin3":"15086","localeAltName":null},{"geonameid":2875500,"name":"Luckenau","admin3":"15084","localeAltName":null},{"geonameid":2875467,"name":"Lückstedt","admin3":"15090","localeAltName":null},{"geonameid":2875464,"name":"Lüdelsen","admin3":"15081","localeAltName":null},{"geonameid":2875445,"name":"Lüderitz","admin3":"15090","localeAltName":null},{"geonameid":2955651,"name":"Luftkurort Arendsee","admin3":"15081","localeAltName":null},{"geonameid":2875002,"name":"Luso","admin3":"15082","localeAltName":null},{"geonameid":2874867,"name":"Lüttchendorf","admin3":"15087","localeAltName":null},{"geonameid":2874805,"name":"Lüttgenrode","admin3":"15085","localeAltName":null},{"geonameid":2874747,"name":"Lützen","admin3":"15084","localeAltName":null},{"geonameid":2874668,"name":"Maasdorf","admin3":"15082","localeAltName":null},{"geonameid":2874545,"name":"Magdeburg","admin3":"15003","localeAltName":null},{"geonameid":2874542,"name":"Magdeburgerforth","admin3":"15086","localeAltName":null},{"geonameid":2874446,"name":"Mahlwinkel","admin3":"15083","localeAltName":null},{"geonameid":2873892,"name":"Mannhausen","admin3":"15083","localeAltName":null},{"geonameid":2873852,"name":"Mansfeld","admin3":"15087","localeAltName":null},{"geonameid":2873621,"name":"Marienborn","admin3":"15083","localeAltName":null},{"geonameid":2873424,"name":"Marke","admin3":"15082","localeAltName":null},{"geonameid":2873268,"name":"Markwerben","admin3":"15084","localeAltName":null},{"geonameid":2873110,"name":"Martinsrieth","admin3":"15087","localeAltName":null},{"geonameid":2872621,"name":"Mechau","admin3":"15081","localeAltName":null},{"geonameid":2872404,"name":"Mehmke","admin3":"15081","localeAltName":null},{"geonameid":2872374,"name":"Mehringen","admin3":"15089","localeAltName":null},{"geonameid":2872288,"name":"Meilendorf","admin3":"15082","localeAltName":null},{"geonameid":2872235,"name":"Meineweh","admin3":"15084","localeAltName":null},{"geonameid":2872124,"name":"Meitzendorf","admin3":"15083","localeAltName":null},{"geonameid":2872058,"name":"Mellin","admin3":"15081","localeAltName":null},{"geonameid":2872053,"name":"Mellnitz","admin3":"15091","localeAltName":null},{"geonameid":2872005,"name":"Memleben","admin3":"15084","localeAltName":null},{"geonameid":2871879,"name":"Menz","admin3":"15086","localeAltName":null},{"geonameid":2871736,"name":"Merseburg","admin3":"15088","localeAltName":null},{"geonameid":2871722,"name":"Mertendorf","admin3":"15084","localeAltName":null},{"geonameid":2871659,"name":"Meseberg","admin3":"15090","localeAltName":null},{"geonameid":2871660,"name":"Meseberg","admin3":"15083","localeAltName":null},{"geonameid":2871638,"name":"Meßdorf","admin3":"15090","localeAltName":null},{"geonameid":2871454,"name":"Meuro","admin3":"15091","localeAltName":null},{"geonameid":2871316,"name":"Micheln","admin3":"15082","localeAltName":null},{"geonameid":2871183,"name":"Mieste","admin3":"15081","localeAltName":null},{"geonameid":2871182,"name":"Miesterhorst","admin3":"15081","localeAltName":null},{"geonameid":2871077,"name":"Miltern","admin3":"15090","localeAltName":null},{"geonameid":2871065,"name":"Milzau","admin3":"15088","localeAltName":null},{"geonameid":2870700,"name":"Mittelhausen","admin3":"15087","localeAltName":null},{"geonameid":2870303,"name":"Mochau","admin3":"15091","localeAltName":null},{"geonameid":2870278,"name":"Möckern","admin3":"15086","localeAltName":null},{"geonameid":2870190,"name":"Möhlau","admin3":"15091","localeAltName":null},{"geonameid":2870097,"name":"Molau","admin3":"15084","localeAltName":null},{"geonameid":2870034,"name":"Möllendorf","admin3":"15087","localeAltName":null},{"geonameid":2870021,"name":"Möllensdorf","admin3":"15091","localeAltName":null},{"geonameid":3207088,"name":"Möllern","admin3":"15084","localeAltName":null},{"geonameid":2869978,"name":"Molmerswende","admin3":"15087","localeAltName":null},{"geonameid":2869893,"name":"Mönchenhöfe","admin3":"15091","localeAltName":null},{"geonameid":2915245,"name":"Möringen","admin3":"15090","localeAltName":null},{"geonameid":2869251,"name":"Moritz","admin3":"15082","localeAltName":null},{"geonameid":2869229,"name":"Morl","admin3":"15088","localeAltName":null},{"geonameid":2869152,"name":"Morsleben","admin3":"15083","localeAltName":null},{"geonameid":2869132,"name":"Morungen","admin3":"15087","localeAltName":null},{"geonameid":2869129,"name":"Morxdorf","admin3":"15091","localeAltName":null},{"geonameid":2869053,"name":"Möser","admin3":"15086","localeAltName":null},{"geonameid":2869007,"name":"Mösthinsdorf","admin3":"15088","localeAltName":null},{"geonameid":2868933,"name":"Mücheln","admin3":"15088","localeAltName":null},{"geonameid":3209055,"name":"Mühlanger","admin3":"15091","localeAltName":null},{"geonameid":2868659,"name":"Mühlbeck","admin3":"15082","localeAltName":null},{"geonameid":2867850,"name":"Muldenstein","admin3":"15082","localeAltName":null},{"geonameid":2867396,"name":"Muschwitz","admin3":"15084","localeAltName":null},{"geonameid":2867304,"name":"Mützel","admin3":"15086","localeAltName":null},{"geonameid":2867245,"name":"Nachterstedt","admin3":"15089","localeAltName":null},{"geonameid":2867144,"name":"Nahrstedt","admin3":"15090","localeAltName":null},{"geonameid":2866925,"name":"Nauendorf","admin3":"15088","localeAltName":null},{"geonameid":2866906,"name":"Naumburg","admin3":"15084","localeAltName":null},{"geonameid":2866875,"name":"Naundorf","admin3":"15082","localeAltName":null},{"geonameid":2866793,"name":"Nebra","admin3":"15084","localeAltName":null},{"geonameid":2866718,"name":"Nedlitz","admin3":"15086","localeAltName":null},{"geonameid":2866710,"name":"Neehausen","admin3":"15087","localeAltName":null},{"geonameid":2866640,"name":"Nehlitz","admin3":"15088","localeAltName":null},{"geonameid":2866583,"name":"Neinstedt","admin3":"15085","localeAltName":null},{"geonameid":2866545,"name":"Nempitz","admin3":"15088","localeAltName":null},{"geonameid":3207089,"name":"Nemsdorf-Göhrendorf","admin3":"15088","localeAltName":null},{"geonameid":3209056,"name":"Nessa","admin3":"15084","localeAltName":null},{"geonameid":2866332,"name":"Nettgau","admin3":"15081","localeAltName":null},{"geonameid":2885978,"name":"Neu Königsaue","admin3":"15089","localeAltName":null},{"geonameid":2865962,"name":"Neudorf","admin3":"15085","localeAltName":null},{"geonameid":2864072,"name":"Neue Neustadt","admin3":"15003","localeAltName":null},{"geonameid":2865851,"name":"Neuekrug","admin3":"15081","localeAltName":null},{"geonameid":2865758,"name":"Neuendorf am Damm","admin3":"15081","localeAltName":null},{"geonameid":2865660,"name":"Neuenhofe","admin3":"15083","localeAltName":null},{"geonameid":2865467,"name":"Neuermark-Lübars","admin3":"15090","localeAltName":null},{"geonameid":2865459,"name":"Neuerstadt","admin3":"15091","localeAltName":null},{"geonameid":2865342,"name":"Neuferchau","admin3":"15081","localeAltName":null},{"geonameid":2865300,"name":"Neugattersleben","admin3":"15089","localeAltName":null},{"geonameid":2864740,"name":"Neukirchen","admin3":"15090","localeAltName":null},{"geonameid":2864602,"name":"Neulingen","admin3":"15081","localeAltName":null},{"geonameid":2864455,"name":"Neundorf","admin3":"15089","localeAltName":null},{"geonameid":3207091,"name":"Neutz-Lettewitz","admin3":"15088","localeAltName":null},{"geonameid":2863895,"name":"Neuwegersleben","admin3":"15083","localeAltName":null},{"geonameid":2863083,"name":"Niederndodeleben","admin3":"15083","localeAltName":null},{"geonameid":2862949,"name":"Niederröblingen","admin3":"15087","localeAltName":null},{"geonameid":2862651,"name":"Nielebock","admin3":"15086","localeAltName":null},{"geonameid":2862643,"name":"Niemberg","admin3":"15088","localeAltName":null},{"geonameid":2862621,"name":"Nienburg/Saale","admin3":"15089","localeAltName":null},{"geonameid":2862579,"name":"Nienhagen","admin3":"15085","localeAltName":null},{"geonameid":2862539,"name":"Nienstedt","admin3":"15087","localeAltName":null},{"geonameid":2862178,"name":"Nonnewitz","admin3":"15084","localeAltName":null},{"geonameid":2861998,"name":"Nordgermersleben","admin3":"15083","localeAltName":null},{"geonameid":2861698,"name":"Nudersdorf","admin3":"15091","localeAltName":null},{"geonameid":2861568,"name":"Nutha","admin3":"15082","localeAltName":null},{"geonameid":2859277,"name":"Oberröblingen","admin3":"15087","localeAltName":null},{"geonameid":2859056,"name":"Obersdorf","admin3":"15087","localeAltName":null},{"geonameid":2858426,"name":"Obhausen","admin3":"15088","localeAltName":null},{"geonameid":2857654,"name":"Öchlitz","admin3":"15088","localeAltName":null},{"geonameid":2858249,"name":"Ochtmersleben","admin3":"15083","localeAltName":null},{"geonameid":2857985,"name":"Oebisfelde","admin3":"15083","localeAltName":null},{"geonameid":2857984,"name":"Oebles-Schlechtewitz","admin3":"15088","localeAltName":null},{"geonameid":2857556,"name":"Ohrsleben","admin3":"15083","localeAltName":null},{"geonameid":2857142,"name":"Oppin","admin3":"15088","localeAltName":null},{"geonameid":2857131,"name":"Oranienbaum","admin3":"15091","localeAltName":null},{"geonameid":2856930,"name":"Oschersleben","admin3":"15083","localeAltName":null},{"geonameid":2856639,"name":"Osterburg","admin3":"15090","localeAltName":null},{"geonameid":2856591,"name":"Osterfeld","admin3":"15084","localeAltName":null},{"geonameid":2856562,"name":"Osterhausen","admin3":"15087","localeAltName":null},{"geonameid":2856413,"name":"Osternienburg","admin3":"15082","localeAltName":null},{"geonameid":8739828,"name":"Osternienburger Land","admin3":"15082","localeAltName":null},{"geonameid":2856330,"name":"Osterwieck","admin3":"15085","localeAltName":null},{"geonameid":2856319,"name":"Osterwohle","admin3":"15081","localeAltName":null},{"geonameid":2856262,"name":"Ostingersleben","admin3":"15083","localeAltName":null},{"geonameid":2856215,"name":"Ostrau","admin3":"15088","localeAltName":null},{"geonameid":2855872,"name":"Ovelgünne","admin3":"15083","localeAltName":null},{"geonameid":2855762,"name":"Packebusch","admin3":"15081","localeAltName":null},{"geonameid":2855480,"name":"Paplitz","admin3":"15086","localeAltName":null},{"geonameid":2855104,"name":"Peckfitz","admin3":"15081","localeAltName":null},{"geonameid":2855031,"name":"Peißen","admin3":"15089","localeAltName":null},{"geonameid":2855032,"name":"Peißen","admin3":"15088","localeAltName":null},{"geonameid":2854785,"name":"Peseckendorf","admin3":"15083","localeAltName":null},{"geonameid":2854701,"name":"Petersberg","admin3":"15088","localeAltName":null},{"geonameid":2854622,"name":"Petersroda","admin3":"15082","localeAltName":null},{"geonameid":2853776,"name":"Piesteritz","admin3":"15091","localeAltName":null},{"geonameid":2853771,"name":"Piethen","admin3":"15082","localeAltName":null},{"geonameid":2853762,"name":"Pietzpuhl","admin3":"15086","localeAltName":null},{"geonameid":2853554,"name":"Piskaborn","admin3":"15087","localeAltName":null},{"geonameid":2853172,"name":"Plodda","admin3":"15082","localeAltName":null},{"geonameid":2853141,"name":"Plossig","admin3":"15091","localeAltName":null},{"geonameid":2853131,"name":"Plötz","admin3":"15088","localeAltName":null},{"geonameid":2853114,"name":"Plötzkau","admin3":"15089","localeAltName":null},{"geonameid":2853113,"name":"Plötzky","admin3":"15089","localeAltName":null},{"geonameid":2853081,"name":"Pobzig","admin3":"15089","localeAltName":null},{"geonameid":2853058,"name":"Pödelist","admin3":"15084","localeAltName":null},{"geonameid":2852889,"name":"Polenzko","admin3":"15082","localeAltName":null},{"geonameid":2852883,"name":"Poley","admin3":"15089","localeAltName":null},{"geonameid":2852857,"name":"Polleben","admin3":"15087","localeAltName":null},{"geonameid":2852835,"name":"Pollitz","admin3":"15090","localeAltName":null},{"geonameid":2852814,"name":"Pölsfeld","admin3":"15087","localeAltName":null},{"geonameid":2852771,"name":"Pömmelte","admin3":"15089","localeAltName":null},{"geonameid":2852540,"name":"Poserna","admin3":"15084","localeAltName":null},{"geonameid":2852414,"name":"Potzehne","admin3":"15081","localeAltName":null},{"geonameid":2852400,"name":"Pouch","admin3":"15082","localeAltName":null},{"geonameid":2852316,"name":"Pratau","admin3":"15091","localeAltName":null},{"geonameid":2852168,"name":"Prettin","admin3":"15091","localeAltName":null},{"geonameid":2852160,"name":"Pretzien","admin3":"15089","localeAltName":null},{"geonameid":2852159,"name":"Pretzier","admin3":"15081","localeAltName":null},{"geonameid":2852156,"name":"Pretzsch","admin3":"15091","localeAltName":null},{"geonameid":2852158,"name":"Pretzsch","admin3":"15084","localeAltName":null},{"geonameid":2852141,"name":"Preußlitz","admin3":"15089","localeAltName":null},{"geonameid":2852080,"name":"Priesitz","admin3":"15091","localeAltName":null},{"geonameid":2852075,"name":"Prießnitz","admin3":"15084","localeAltName":null},{"geonameid":2851980,"name":"Prittitz","admin3":"15084","localeAltName":null},{"geonameid":2851924,"name":"Prödel","admin3":"15086","localeAltName":null},{"geonameid":2851871,"name":"Prosigk","admin3":"15082","localeAltName":null},{"geonameid":2851758,"name":"Püggen","admin3":"15081","localeAltName":null},{"geonameid":2851465,"name":"Quedlinburg","admin3":"15085","localeAltName":null},{"geonameid":2851455,"name":"Queis","admin3":"15088","localeAltName":null},{"geonameid":2851450,"name":"Quellendorf","admin3":"15082","localeAltName":null},{"geonameid":2851430,"name":"Quenstedt","admin3":"15087","localeAltName":null},{"geonameid":2851393,"name":"Querfurt","admin3":"15088","localeAltName":null},{"geonameid":2851373,"name":"Querstedt","admin3":"15090","localeAltName":null},{"geonameid":2851361,"name":"Questenberg","admin3":"15087","localeAltName":null},{"geonameid":2851354,"name":"Quetzdölsdorf","admin3":"15082","localeAltName":null},{"geonameid":2851119,"name":"Rackith","admin3":"15091","localeAltName":null},{"geonameid":2851092,"name":"Rade","admin3":"15091","localeAltName":null},{"geonameid":2851069,"name":"Radegast","admin3":"15082","localeAltName":null},{"geonameid":2851042,"name":"Rademin","admin3":"15081","localeAltName":null},{"geonameid":2850973,"name":"Radis","admin3":"15091","localeAltName":null},{"geonameid":2850972,"name":"Radisleben","admin3":"15085","localeAltName":null},{"geonameid":2850902,"name":"Ragösen","admin3":"15091","localeAltName":null},{"geonameid":2850894,"name":"Raguhn","admin3":"15082","localeAltName":null},{"geonameid":2850555,"name":"Ramsin","admin3":"15082","localeAltName":null},{"geonameid":2850485,"name":"Ranies","admin3":"15089","localeAltName":null},{"geonameid":2850266,"name":"Raßnitz","admin3":"15088","localeAltName":null},{"geonameid":3207095,"name":"Rathmannsdorf","admin3":"15089","localeAltName":null},{"geonameid":2850105,"name":"Rätzlingen","admin3":"15083","localeAltName":null},{"geonameid":2849626,"name":"Reddeber","admin3":"15085","localeAltName":null},{"geonameid":2849600,"name":"Redekin","admin3":"15086","localeAltName":null},{"geonameid":2849542,"name":"Reesdorf","admin3":"15086","localeAltName":null},{"geonameid":2849537,"name":"Reesen","admin3":"15086","localeAltName":null},{"geonameid":2849238,"name":"Rehsen","admin3":"15091","localeAltName":null},{"geonameid":2849211,"name":"Reichardtswerben","admin3":"15084","localeAltName":null},{"geonameid":2848991,"name":"Reicho","admin3":"15091","localeAltName":null},{"geonameid":2848718,"name":"Reinsdorf","admin3":"15091","localeAltName":null},{"geonameid":2848188,"name":"Renneritz","admin3":"15082","localeAltName":null},{"geonameid":2848105,"name":"Reppichau","admin3":"15082","localeAltName":null},{"geonameid":2847960,"name":"Retzau","admin3":"15082","localeAltName":null},{"geonameid":2847933,"name":"Reuden","admin3":"15082","localeAltName":null},{"geonameid":2847907,"name":"Reupzig","admin3":"15082","localeAltName":null},{"geonameid":2847887,"name":"Reußen","admin3":"15088","localeAltName":null},{"geonameid":2847560,"name":"Rhoden","admin3":"15085","localeAltName":null},{"geonameid":2847413,"name":"Riebau","admin3":"15081","localeAltName":null},{"geonameid":2847210,"name":"Rieder","admin3":"15085","localeAltName":null},{"geonameid":2846926,"name":"Riesdorf","admin3":"15082","localeAltName":null},{"geonameid":2846865,"name":"Riesigk","admin3":"15091","localeAltName":null},{"geonameid":2846854,"name":"Riestedt","admin3":"15087","localeAltName":null},{"geonameid":2846810,"name":"Riethnordhausen","admin3":"15087","localeAltName":null},{"geonameid":2846801,"name":"Rietzel","admin3":"15086","localeAltName":null},{"geonameid":2846608,"name":"Ringfurth","admin3":"15090","localeAltName":null},{"geonameid":2846508,"name":"Rippach","admin3":"15084","localeAltName":null},{"geonameid":2846438,"name":"Ristedt","admin3":"15081","localeAltName":null},{"geonameid":2846392,"name":"Ritterode","admin3":"15087","localeAltName":null},{"geonameid":2846327,"name":"Ritzgerode","admin3":"15087","localeAltName":null},{"geonameid":2846274,"name":"Röblingen am See","admin3":"15087","localeAltName":null},{"geonameid":2846267,"name":"Rochau","admin3":"15090","localeAltName":null},{"geonameid":2846238,"name":"Röcken","admin3":"15084","localeAltName":null},{"geonameid":2846133,"name":"Rodden","admin3":"15088","localeAltName":null},{"geonameid":2845945,"name":"Rödgen","admin3":"15082","localeAltName":null},{"geonameid":2845914,"name":"Rodleben","admin3":"15001","localeAltName":null},{"geonameid":2845885,"name":"Rogätz","admin3":"15083","localeAltName":null},{"geonameid":2845824,"name":"Röglitz","admin3":"15088","localeAltName":null},{"geonameid":2845652,"name":"Rohrberg","admin3":"15081","localeAltName":null},{"geonameid":2845475,"name":"Roitzsch","admin3":"15082","localeAltName":null},{"geonameid":2845170,"name":"Rösa","admin3":"15082","localeAltName":null},{"geonameid":2844897,"name":"Rosian","admin3":"15086","localeAltName":null},{"geonameid":2844854,"name":"Rossau","admin3":"15090","localeAltName":null},{"geonameid":2844750,"name":"Roßdorf","admin3":"15086","localeAltName":null},{"geonameid":2844658,"name":"Roßla","admin3":"15087","localeAltName":null},{"geonameid":2844654,"name":"Roßlau","admin3":"15001","localeAltName":null},{"geonameid":2844244,"name":"Rotha","admin3":"15087","localeAltName":null},{"geonameid":2844165,"name":"Rothemark","admin3":"15091","localeAltName":null},{"geonameid":2844061,"name":"Rothenburg","admin3":"15088","localeAltName":null},{"geonameid":2843987,"name":"Rothenschirmbach","admin3":"15087","localeAltName":null},{"geonameid":2843784,"name":"Rotta","admin3":"15091","localeAltName":null},{"geonameid":2843751,"name":"Rottelsdorf","admin3":"15087","localeAltName":null},{"geonameid":2843667,"name":"Rottleberode","admin3":"15087","localeAltName":null},{"geonameid":2843653,"name":"Rottmersleben","admin3":"15083","localeAltName":null},{"geonameid":2843593,"name":"Roxförde","admin3":"15081","localeAltName":null},{"geonameid":2843574,"name":"Rübeland","admin3":"15085","localeAltName":null},{"geonameid":2842584,"name":"Sachau","admin3":"15081","localeAltName":null},{"geonameid":2842539,"name":"Sachsendorf","admin3":"15089","localeAltName":null},{"geonameid":2842152,"name":"Salzfurtkapelle","admin3":"15082","localeAltName":null},{"geonameid":2842124,"name":"Salzmünde","admin3":"15088","localeAltName":null},{"geonameid":2842112,"name":"Salzwedel","admin3":"15081","localeAltName":null},{"geonameid":2842060,"name":"Samswegen","admin3":"15083","localeAltName":null},{"geonameid":2842033,"name":"Sandau","admin3":"15090","localeAltName":null},{"geonameid":2842030,"name":"Sandauerholz","admin3":"15090","localeAltName":null},{"geonameid":2842009,"name":"Sandbeiendorf","admin3":"15083","localeAltName":null},{"geonameid":2841879,"name":"Sandersdorf","admin3":"15082","localeAltName":null},{"geonameid":2841876,"name":"Sandersleben","admin3":"15087","localeAltName":null},{"geonameid":2841693,"name":"Sangerhausen","admin3":"15087","localeAltName":null},{"geonameid":2841453,"name":"Sanne","admin3":"15090","localeAltName":null},{"geonameid":2841414,"name":"Sargstedt","admin3":"15085","localeAltName":null},{"geonameid":2841249,"name":"Saubach","admin3":"15084","localeAltName":null},{"geonameid":2840902,"name":"Schackensleben","admin3":"15083","localeAltName":null},{"geonameid":2840901,"name":"Schackenthal","admin3":"15089","localeAltName":null},{"geonameid":2840898,"name":"Schackstedt","admin3":"15089","localeAltName":null},{"geonameid":2840882,"name":"Schadeleben","admin3":"15089","localeAltName":null},{"geonameid":2840647,"name":"Schafstädt","admin3":"15088","localeAltName":null},{"geonameid":2840408,"name":"Schäplitz","admin3":"15090","localeAltName":null},{"geonameid":2840185,"name":"Schauen","admin3":"15085","localeAltName":null},{"geonameid":2839889,"name":"Schelkau","admin3":"15084","localeAltName":null},{"geonameid":2839885,"name":"Schellbach","admin3":"15084","localeAltName":null},{"geonameid":2839876,"name":"Schelldorf","admin3":"15090","localeAltName":null},{"geonameid":2839739,"name":"Schenkenhorst","admin3":"15081","localeAltName":null},{"geonameid":2839672,"name":"Schermcke","admin3":"15083","localeAltName":null},{"geonameid":2839670,"name":"Schermen","admin3":"15086","localeAltName":null},{"geonameid":2839654,"name":"Schernebeck","admin3":"15090","localeAltName":null},{"geonameid":2839644,"name":"Schernikau","admin3":"15090","localeAltName":null},{"geonameid":2839608,"name":"Scheuder","admin3":"15082","localeAltName":null},{"geonameid":2839444,"name":"Schielo","admin3":"15085","localeAltName":null},{"geonameid":2839434,"name":"Schierau","admin3":"15082","localeAltName":null},{"geonameid":2839398,"name":"Schierke","admin3":"15085","localeAltName":null},{"geonameid":2839105,"name":"Schinne","admin3":"15090","localeAltName":null},{"geonameid":2839046,"name":"Schköna","admin3":"15091","localeAltName":null},{"geonameid":2839044,"name":"Schkopau","admin3":"15088","localeAltName":null},{"geonameid":2839041,"name":"Schkortleben","admin3":"15084","localeAltName":null},{"geonameid":2838975,"name":"Schlagenthin","admin3":"15086","localeAltName":null},{"geonameid":2838938,"name":"Schlaitz","admin3":"15082","localeAltName":null},{"geonameid":2838846,"name":"Schleberoda","admin3":"15084","localeAltName":null},{"geonameid":2838801,"name":"Schleesen","admin3":"15091","localeAltName":null},{"geonameid":2838032,"name":"Schmalzerode","admin3":"15087","localeAltName":null},{"geonameid":2837998,"name":"Schmatzfeld","admin3":"15085","localeAltName":null},{"geonameid":2837730,"name":"Schmilkendorf","admin3":"15091","localeAltName":null},{"geonameid":2837643,"name":"Schmon","admin3":"15088","localeAltName":null},{"geonameid":2837385,"name":"Schneidlingen","admin3":"15089","localeAltName":null},{"geonameid":2837354,"name":"Schnellin","admin3":"15091","localeAltName":null},{"geonameid":2837225,"name":"Schochwitz","admin3":"15088","localeAltName":null},{"geonameid":2836948,"name":"Schönberg","admin3":"15090","localeAltName":null},{"geonameid":2836834,"name":"Schönburg","admin3":"15084","localeAltName":null},{"geonameid":2836809,"name":"Schönebeck","admin3":"15089","localeAltName":null},{"geonameid":2836655,"name":"Schönfeld","admin3":"15090","localeAltName":null},{"geonameid":2836587,"name":"Schönhausen","admin3":"15090","localeAltName":null},{"geonameid":2836446,"name":"Schönwalde","admin3":"15090","localeAltName":null},{"geonameid":2836384,"name":"Schopsdorf","admin3":"15086","localeAltName":null},{"geonameid":2836288,"name":"Schorstedt","admin3":"15090","localeAltName":null},{"geonameid":2836281,"name":"Schortewitz","admin3":"15082","localeAltName":null},{"geonameid":2836192,"name":"Schrampe","admin3":"15081","localeAltName":null},{"geonameid":2836182,"name":"Schraplau","admin3":"15088","localeAltName":null},{"geonameid":2836110,"name":"Schrenz","admin3":"15082","localeAltName":null},{"geonameid":2835581,"name":"Schützberg","admin3":"15091","localeAltName":null},{"geonameid":2835292,"name":"Schwanebeck","admin3":"15085","localeAltName":null},{"geonameid":2835282,"name":"Schwanefeld","admin3":"15083","localeAltName":null},{"geonameid":2834726,"name":"Schwarzholz","admin3":"15090","localeAltName":null},{"geonameid":2834487,"name":"Schweinitz","admin3":"15086","localeAltName":null},{"geonameid":2834354,"name":"Schwemsal","admin3":"15082","localeAltName":null},{"geonameid":2834350,"name":"Schwenda","admin3":"15087","localeAltName":null},{"geonameid":2834257,"name":"Schwerz","admin3":"15088","localeAltName":null},{"geonameid":2834200,"name":"Schwiesau","admin3":"15081","localeAltName":null},{"geonameid":2833904,"name":"Seeburg","admin3":"15087","localeAltName":null},{"geonameid":2833800,"name":"Seehausen","admin3":"15090","localeAltName":null},{"geonameid":2833801,"name":"Seehausen","admin3":"15083","localeAltName":null},{"geonameid":2833570,"name":"Seethen","admin3":"15081","localeAltName":null},{"geonameid":2833518,"name":"Seggerde","admin3":"15083","localeAltName":null},{"geonameid":2833268,"name":"Selbitz","admin3":"15091","localeAltName":null},{"geonameid":2833012,"name":"Sennewitz","admin3":"15088","localeAltName":null},{"geonameid":2832988,"name":"Senst","admin3":"15091","localeAltName":null},{"geonameid":2832951,"name":"Serno","admin3":"15091","localeAltName":null},{"geonameid":2832835,"name":"Seyda","admin3":"15091","localeAltName":null},{"geonameid":2832803,"name":"Sichau","admin3":"15081","localeAltName":null},{"geonameid":2832644,"name":"Siebigerode","admin3":"15087","localeAltName":null},{"geonameid":2832590,"name":"Siedenlangenbeck","admin3":"15081","localeAltName":null},{"geonameid":2832331,"name":"Siersleben","admin3":"15087","localeAltName":null},{"geonameid":3208683,"name":"Siestedt","admin3":"15083","localeAltName":null},{"geonameid":2832304,"name":"Sietzsch","admin3":"15088","localeAltName":null},{"geonameid":2831834,"name":"Siptenfelde","admin3":"15085","localeAltName":null},{"geonameid":2831528,"name":"Söllichau","admin3":"15091","localeAltName":null},{"geonameid":2831491,"name":"Solpke","admin3":"15081","localeAltName":null},{"geonameid":2831344,"name":"Sommersdorf","admin3":"15083","localeAltName":null},{"geonameid":2830975,"name":"Sorge","admin3":"15085","localeAltName":null},{"geonameid":2830899,"name":"Sössen","admin3":"15084","localeAltName":null},{"geonameid":2830887,"name":"Sotterhausen","admin3":"15087","localeAltName":null},{"geonameid":2830620,"name":"Spergau","admin3":"15088","localeAltName":null},{"geonameid":2830573,"name":"Spickendorf","admin3":"15088","localeAltName":null},{"geonameid":2830487,"name":"Spielberg","admin3":"15084","localeAltName":null},{"geonameid":2830161,"name":"Spören","admin3":"15082","localeAltName":null},{"geonameid":2829953,"name":"Staats","admin3":"15090","localeAltName":null},{"geonameid":2829912,"name":"Stackelitz","admin3":"15091","localeAltName":null},{"geonameid":2829536,"name":"Stangerode","admin3":"15087","localeAltName":null},{"geonameid":2829513,"name":"Stapelburg","admin3":"15085","localeAltName":null},{"geonameid":2829490,"name":"Stappenbeck","admin3":"15081","localeAltName":null},{"geonameid":2829446,"name":"Starsiedel","admin3":"15084","localeAltName":null},{"geonameid":2829422,"name":"Staßfurt","admin3":"15089","localeAltName":null},{"geonameid":2829237,"name":"Stecklenberg","admin3":"15085","localeAltName":null},{"geonameid":2829210,"name":"Stedten","admin3":"15087","localeAltName":null},{"geonameid":2829011,"name":"Steigra","admin3":"15088","localeAltName":null},{"geonameid":2828972,"name":"Steimke","admin3":"15081","localeAltName":null},{"geonameid":2828288,"name":"Steinburg","admin3":"15084","localeAltName":null},{"geonameid":2828135,"name":"Steinfeld","admin3":"15090","localeAltName":null},{"geonameid":2827896,"name":"Steinitz","admin3":"15081","localeAltName":null},{"geonameid":2827479,"name":"Stendal","admin3":"15090","localeAltName":null},{"geonameid":2827189,"name":"Steuden","admin3":"15088","localeAltName":null},{"geonameid":2827179,"name":"Steutz","admin3":"15082","localeAltName":null},{"geonameid":2826594,"name":"Stolberg","admin3":"15087","localeAltName":null},{"geonameid":2826406,"name":"Storkau","admin3":"15090","localeAltName":null},{"geonameid":2826408,"name":"Storkau","admin3":"15084","localeAltName":null},{"geonameid":2826356,"name":"Stößen","admin3":"15084","localeAltName":null},{"geonameid":2826318,"name":"Straach","admin3":"15091","localeAltName":null},{"geonameid":2826302,"name":"Straguth","admin3":"15082","localeAltName":null},{"geonameid":2826183,"name":"Straßberg","admin3":"15085","localeAltName":null},{"geonameid":2825897,"name":"Strenznaundorf","admin3":"15089","localeAltName":null},{"geonameid":2825891,"name":"Stresow","admin3":"15086","localeAltName":null},{"geonameid":2825797,"name":"Ströbeck","admin3":"15085","localeAltName":null},{"geonameid":2825372,"name":"Stumsdorf","admin3":"15082","localeAltName":null},{"geonameid":2824609,"name":"Süplingen","admin3":"15083","localeAltName":null},{"geonameid":2824456,"name":"Sylda","admin3":"15087","localeAltName":null},{"geonameid":2824383,"name":"Tagewerben","admin3":"15084","localeAltName":null},{"geonameid":2824268,"name":"Tangeln","admin3":"15081","localeAltName":null},{"geonameid":2824255,"name":"Tangerhütte","admin3":"15090","localeAltName":null},{"geonameid":2824254,"name":"Tangermünde","admin3":"15090","localeAltName":null},{"geonameid":2824208,"name":"Tanne","admin3":"15085","localeAltName":null},{"geonameid":2823973,"name":"Tarthun","admin3":"15089","localeAltName":null},{"geonameid":2823837,"name":"Taucha","admin3":"15084","localeAltName":null},{"geonameid":2823803,"name":"Taugwitz","admin3":"15084","localeAltName":null},{"geonameid":2823667,"name":"Teicha","admin3":"15088","localeAltName":null},{"geonameid":2823358,"name":"Teuchel","admin3":"15091","localeAltName":null},{"geonameid":2823355,"name":"Teuchern","admin3":"15084","localeAltName":null},{"geonameid":2823230,"name":"Teutschenthal","admin3":"15088","localeAltName":null},{"geonameid":2823141,"name":"Thale","admin3":"15085","localeAltName":null},{"geonameid":2823078,"name":"Thalheim","admin3":"15082","localeAltName":null},{"geonameid":2823033,"name":"Thalwinkel","admin3":"15084","localeAltName":null},{"geonameid":2822909,"name":"Theeßen","admin3":"15086","localeAltName":null},{"geonameid":2822881,"name":"Theißen","admin3":"15084","localeAltName":null},{"geonameid":2822812,"name":"Thielbeer","admin3":"15081","localeAltName":null},{"geonameid":2822727,"name":"Thießen","admin3":"15091","localeAltName":null},{"geonameid":2822535,"name":"Thurland","admin3":"15082","localeAltName":null},{"geonameid":2822187,"name":"Tilleda","admin3":"15087","localeAltName":null},{"geonameid":2822159,"name":"Timmenrode","admin3":"15085","localeAltName":null},{"geonameid":2821930,"name":"Tollwitz","admin3":"15088","localeAltName":null},{"geonameid":2821785,"name":"Tornau","admin3":"15082","localeAltName":null},{"geonameid":2821777,"name":"Tornitz","admin3":"15089","localeAltName":null},{"geonameid":2821439,"name":"Trebitz","admin3":"15088","localeAltName":null},{"geonameid":2821430,"name":"Trebnitz","admin3":"15084","localeAltName":null},{"geonameid":2821276,"name":"Treseburg","admin3":"15085","localeAltName":null},{"geonameid":2821107,"name":"Trinum","admin3":"15082","localeAltName":null},{"geonameid":2821001,"name":"Tromsdorf","admin3":"15084","localeAltName":null},{"geonameid":2820873,"name":"Tryppehna","admin3":"15086","localeAltName":null},{"geonameid":2820856,"name":"Tucheim","admin3":"15086","localeAltName":null},{"geonameid":2820637,"name":"Tylsen","admin3":"15081","localeAltName":null},{"geonameid":2820538,"name":"Uchtdorf","admin3":"15090","localeAltName":null},{"geonameid":2820529,"name":"Uchtspringe","admin3":"15090","localeAltName":null},{"geonameid":2820452,"name":"Uenglingen","admin3":"15090","localeAltName":null},{"geonameid":2820413,"name":"Uftrungen","admin3":"15087","localeAltName":null},{"geonameid":2820318,"name":"Uhrsleben","admin3":"15083","localeAltName":null},{"geonameid":2820312,"name":"Uichteritz","admin3":"15084","localeAltName":null},{"geonameid":2820197,"name":"Ulzigerode","admin3":"15087","localeAltName":null},{"geonameid":2820178,"name":"Ummendorf","admin3":"15083","localeAltName":null},{"geonameid":2820071,"name":"Unseburg","admin3":"15089","localeAltName":null},{"geonameid":2819274,"name":"Unterkaka","admin3":"15084","localeAltName":null},{"geonameid":2818840,"name":"Unterrißdorf","admin3":"15087","localeAltName":null},{"geonameid":2818077,"name":"Utenbach","admin3":"15084","localeAltName":null},{"geonameid":2818063,"name":"Uthausen","admin3":"15091","localeAltName":null},{"geonameid":2817949,"name":"Vahldorf","admin3":"15083","localeAltName":null},{"geonameid":2817910,"name":"Valfitz","admin3":"15081","localeAltName":null},{"geonameid":2817816,"name":"Vatterode","admin3":"15087","localeAltName":null},{"geonameid":2817806,"name":"Veckenstedt","admin3":"15085","localeAltName":null},{"geonameid":2817769,"name":"Vehlitz","admin3":"15086","localeAltName":null},{"geonameid":2817678,"name":"Velsdorf","admin3":"15083","localeAltName":null},{"geonameid":2817395,"name":"Vienau","admin3":"15081","localeAltName":null},{"geonameid":2817158,"name":"Vinzelberg","admin3":"15090","localeAltName":null},{"geonameid":2817128,"name":"Vissum","admin3":"15081","localeAltName":null},{"geonameid":2817114,"name":"Vitzenburg","admin3":"15088","localeAltName":null},{"geonameid":2817080,"name":"Vockerode","admin3":"15091","localeAltName":null},{"geonameid":2816703,"name":"Volgfelde","admin3":"15090","localeAltName":null},{"geonameid":2816596,"name":"Volkstedt","admin3":"15087","localeAltName":null},{"geonameid":2816534,"name":"Völpke","admin3":"15083","localeAltName":null},{"geonameid":2815594,"name":"Wackersleben","admin3":"15083","localeAltName":null},{"geonameid":2815412,"name":"Wahlitz","admin3":"15086","localeAltName":null},{"geonameid":2815350,"name":"Wahrenberg","admin3":"15090","localeAltName":null},{"geonameid":2815254,"name":"Walbeck","admin3":"15083","localeAltName":null},{"geonameid":2815255,"name":"Walbeck","admin3":"15087","localeAltName":null},{"geonameid":2815170,"name":"Waldau","admin3":"15084","localeAltName":null},{"geonameid":2814640,"name":"Wallendorf","admin3":"15088","localeAltName":null},{"geonameid":2814570,"name":"Wallhausen","admin3":"15087","localeAltName":null},{"geonameid":2814518,"name":"Wallstawe","admin3":"15081","localeAltName":null},{"geonameid":2814511,"name":"Wallwitz","admin3":"15086","localeAltName":null},{"geonameid":2814512,"name":"Wallwitz","admin3":"15088","localeAltName":null},{"geonameid":2814466,"name":"Walsleben","admin3":"15090","localeAltName":null},{"geonameid":2814432,"name":"Walternienburg","admin3":"15082","localeAltName":null},{"geonameid":2814277,"name":"Wangen","admin3":"15084","localeAltName":null},{"geonameid":2814225,"name":"Wannefeld","admin3":"15081","localeAltName":null},{"geonameid":2814187,"name":"Wansleben","admin3":"15087","localeAltName":null},{"geonameid":2814184,"name":"Wanzer","admin3":"15090","localeAltName":null},{"geonameid":2814181,"name":"Wanzleben","admin3":"15083","localeAltName":null},{"geonameid":2814063,"name":"Warnau","admin3":"15090","localeAltName":null},{"geonameid":2813930,"name":"Wartenburg","admin3":"15091","localeAltName":null},{"geonameid":2813732,"name":"Wasserleben","admin3":"15085","localeAltName":null},{"geonameid":2813480,"name":"Weddersleben","admin3":"15085","localeAltName":null},{"geonameid":2813479,"name":"Wedderstedt","admin3":"15085","localeAltName":null},{"geonameid":2813447,"name":"Wedlitz","admin3":"15089","localeAltName":null},{"geonameid":2813407,"name":"Wefensleben","admin3":"15083","localeAltName":null},{"geonameid":2813405,"name":"Weferlingen","admin3":"15083","localeAltName":null},{"geonameid":2813383,"name":"Wegeleben","admin3":"15085","localeAltName":null},{"geonameid":2813377,"name":"Wegenstedt","admin3":"15083","localeAltName":null},{"geonameid":2813122,"name":"Weickelsdorf","admin3":"15084","localeAltName":null},{"geonameid":2812103,"name":"Weischütz","admin3":"15084","localeAltName":null},{"geonameid":2812043,"name":"Weißandt-Gölzau","admin3":"15082","localeAltName":null},{"geonameid":2811932,"name":"Weißenborn","admin3":"15084","localeAltName":null},{"geonameid":2811899,"name":"Weißenfels","admin3":"15084","localeAltName":null},{"geonameid":2811864,"name":"Weißenschirmbach","admin3":"15088","localeAltName":null},{"geonameid":2811735,"name":"Weißewarte","admin3":"15090","localeAltName":null},{"geonameid":2811584,"name":"Welbsleben","admin3":"15087","localeAltName":null},{"geonameid":2811564,"name":"Welfesholz","admin3":"15087","localeAltName":null},{"geonameid":2811532,"name":"Wellen","admin3":"15083","localeAltName":null},{"geonameid":2811387,"name":"Welsleben","admin3":"15089","localeAltName":null},{"geonameid":2811326,"name":"Wenddorf","admin3":"15083","localeAltName":null},{"geonameid":2811282,"name":"Wendemark","admin3":"15090","localeAltName":null},{"geonameid":2811156,"name":"Wengelsdorf","admin3":"15084","localeAltName":null},{"geonameid":2811022,"name":"Wenze","admin3":"15081","localeAltName":null},{"geonameid":2810983,"name":"Werben","admin3":"15090","localeAltName":null},{"geonameid":2810808,"name":"Wernigerode","admin3":"15085","localeAltName":null},{"geonameid":2810772,"name":"Wernstedt","admin3":"15081","localeAltName":null},{"geonameid":2810634,"name":"Wespen","admin3":"15089","localeAltName":null},{"geonameid":2810565,"name":"Westdorf","admin3":"15089","localeAltName":null},{"geonameid":2810395,"name":"Westeregeln","admin3":"15089","localeAltName":null},{"geonameid":2810345,"name":"Westerhausen","admin3":"15085","localeAltName":null},{"geonameid":2810024,"name":"Wethau","admin3":"15084","localeAltName":null},{"geonameid":2810000,"name":"Wettelrode","admin3":"15087","localeAltName":null},{"geonameid":2809944,"name":"Wetterzeube","admin3":"15084","localeAltName":null},{"geonameid":2809939,"name":"Wettin","admin3":"15088","localeAltName":null},{"geonameid":2809753,"name":"Wickerode","admin3":"15087","localeAltName":null},{"geonameid":2809670,"name":"Wieblitz-Eversdorf","admin3":"15081","localeAltName":null},{"geonameid":2809567,"name":"Wiederstedt","admin3":"15087","localeAltName":null},{"geonameid":2809535,"name":"Wieglitz","admin3":"15083","localeAltName":null},{"geonameid":2809450,"name":"Wiendorf","admin3":"15089","localeAltName":null},{"geonameid":2809437,"name":"Wienrode","admin3":"15085","localeAltName":null},{"geonameid":2809427,"name":"Wiepke","admin3":"15081","localeAltName":null},{"geonameid":2809151,"name":"Wieskau","admin3":"15082","localeAltName":null},{"geonameid":2808419,"name":"Wilsleben","admin3":"15089","localeAltName":null},{"geonameid":2808359,"name":"Wimmelburg","admin3":"15087","localeAltName":null},{"geonameid":2808276,"name":"Windberge","admin3":"15090","localeAltName":null},{"geonameid":2808016,"name":"Winkel","admin3":"15087","localeAltName":null},{"geonameid":2807951,"name":"Winkelstedt","admin3":"15081","localeAltName":null},{"geonameid":2807858,"name":"Winningen","admin3":"15089","localeAltName":null},{"geonameid":2807775,"name":"Winterfeld","admin3":"15081","localeAltName":null},{"geonameid":2807579,"name":"Wippra","admin3":"15087","localeAltName":null},{"geonameid":2807474,"name":"Wischroda","admin3":"15084","localeAltName":null},{"geonameid":7303020,"name":"Wittenberg","admin3":"15091","localeAltName":null},{"geonameid":2807317,"name":"Wittenmoor","admin3":"15090","localeAltName":null},{"geonameid":2807283,"name":"Wittgendorf","admin3":"15084","localeAltName":null},{"geonameid":2807042,"name":"Wohlmirstedt","admin3":"15084","localeAltName":null},{"geonameid":2807029,"name":"Wohlsdorf","admin3":"15089","localeAltName":null},{"geonameid":2806919,"name":"Wolfen","admin3":"15082","localeAltName":null},{"geonameid":2806884,"name":"Wolferode","admin3":"15087","localeAltName":null},{"geonameid":2806846,"name":"Wolferstedt","admin3":"15087","localeAltName":null},{"geonameid":2806685,"name":"Wolfsberg","admin3":"15087","localeAltName":null},{"geonameid":2806343,"name":"Wolmirsleben","admin3":"15089","localeAltName":null},{"geonameid":2806342,"name":"Wolmirstedt","admin3":"15083","localeAltName":null},{"geonameid":2806289,"name":"Woltersdorf","admin3":"15086","localeAltName":null},{"geonameid":2806187,"name":"Wörbzig","admin3":"15082","localeAltName":null},{"geonameid":2806162,"name":"Wörlitz","admin3":"15091","localeAltName":null},{"geonameid":2806141,"name":"Wormsdorf","admin3":"15083","localeAltName":null},{"geonameid":2806113,"name":"Wörpen","admin3":"15091","localeAltName":null},{"geonameid":2805945,"name":"Wulfen","admin3":"15082","localeAltName":null},{"geonameid":2805925,"name":"Wulferstedt","admin3":"15083","localeAltName":null},{"geonameid":2805866,"name":"Wulkau","admin3":"15090","localeAltName":null},{"geonameid":11072572,"name":"Wülperode","admin3":"15085","localeAltName":null},{"geonameid":2805727,"name":"Würchwitz","admin3":"15084","localeAltName":null},{"geonameid":2805567,"name":"Wust","admin3":"15090","localeAltName":null},{"geonameid":2805503,"name":"Wüstenjerichow","admin3":"15086","localeAltName":null},{"geonameid":2805370,"name":"Zabakuck","admin3":"15086","localeAltName":null},{"geonameid":2805363,"name":"Zabenstedt","admin3":"15087","localeAltName":null},{"geonameid":2805357,"name":"Zabitz","admin3":"15082","localeAltName":null},{"geonameid":2805313,"name":"Zahna","admin3":"15091","localeAltName":null},{"geonameid":2805223,"name":"Zappendorf","admin3":"15088","localeAltName":null},{"geonameid":2805100,"name":"Zeddenick","admin3":"15086","localeAltName":null},{"geonameid":2805076,"name":"Zehbitz","admin3":"15082","localeAltName":null},{"geonameid":2804922,"name":"Zeitz","admin3":"15084","localeAltName":null},{"geonameid":2804788,"name":"Zemnick","admin3":"15091","localeAltName":null},{"geonameid":2804768,"name":"Zens","admin3":"15089","localeAltName":null},{"geonameid":2804751,"name":"Zeppernick","admin3":"15086","localeAltName":null},{"geonameid":2804748,"name":"Zerbst","admin3":"15082","localeAltName":null},{"geonameid":2804725,"name":"Zernitz","admin3":"15082","localeAltName":null},{"geonameid":2804692,"name":"Zethlingen","admin3":"15081","localeAltName":null},{"geonameid":2804664,"name":"Zeuchfeld","admin3":"15084","localeAltName":null},{"geonameid":2804628,"name":"Zichtau","admin3":"15081","localeAltName":null},{"geonameid":2804485,"name":"Ziegelroda","admin3":"15088","localeAltName":null},{"geonameid":2804324,"name":"Zieko","admin3":"15091","localeAltName":null},{"geonameid":2804318,"name":"Zielitz","admin3":"15083","localeAltName":null},{"geonameid":2804315,"name":"Ziemendorf","admin3":"15081","localeAltName":null},{"geonameid":2803983,"name":"Zobbenitz","admin3":"15083","localeAltName":null},{"geonameid":2803892,"name":"Zorbau","admin3":"15084","localeAltName":null},{"geonameid":2803891,"name":"Zörbig","admin3":"15082","localeAltName":null},{"geonameid":2803879,"name":"Zörnigall","admin3":"15091","localeAltName":null},{"geonameid":2803875,"name":"Zöschen","admin3":"15088","localeAltName":null},{"geonameid":2803824,"name":"Zscherben","admin3":"15088","localeAltName":null},{"geonameid":2803825,"name":"Zscherben","admin3":"15088","localeAltName":null},{"geonameid":2803823,"name":"Zscherndorf","admin3":"15082","localeAltName":null},{"geonameid":2803781,"name":"Zschornewitz","admin3":"15091","localeAltName":null},{"geonameid":2803772,"name":"Zuchau","admin3":"15089","localeAltName":null},{"geonameid":2803598,"name":"Zweimen","admin3":"15088","localeAltName":null}],"admin1":{"geonameid":2842565,"name":"Saxony-Anhalt","admin1":"14","localeAltName":"Sachsen-Anhalt"},"admin2":"no-adm2","admin3":{"geonameid":3302155,"name":"Mansfeld-Südharz","country":"DE","admin1":"14","admin2":"00","admin3":"15087","latitude":"51.5686100","longitude":"11.5369400","localeAltName":null},"admin4":[{"geonameid":6547418,"name":"Huy","admin3":"15085","localeAltName":null},{"geonameid":6548860,"name":"Ilberstedt","admin3":"15089","localeAltName":null},{"geonameid":6548864,"name":"Plötzkau","admin3":"15089","localeAltName":null},{"geonameid":6548975,"name":"Wittenberg, Lutherstadt","admin3":"15091","localeAltName":null},{"geonameid":6548981,"name":"Balgstädt","admin3":"15084","localeAltName":null},{"geonameid":6548997,"name":"Droyßig","admin3":"15084","localeAltName":null},{"geonameid":6549001,"name":"Gleina","admin3":"15084","localeAltName":null},{"geonameid":6549013,"name":"Karsdorf","admin3":"15084","localeAltName":null},{"geonameid":6549017,"name":"Kretzschau","admin3":"15084","localeAltName":null},{"geonameid":6549023,"name":"Mertendorf","admin3":"15084","localeAltName":null},{"geonameid":6549034,"name":"Schönburg","admin3":"15084","localeAltName":null},{"geonameid":6549044,"name":"Wethau","admin3":"15084","localeAltName":null},{"geonameid":6549045,"name":"Wetterzeube","admin3":"15084","localeAltName":null},{"geonameid":6549052,"name":"Ahlsdorf","admin3":"15087","localeAltName":null},{"geonameid":6549059,"name":"Benndorf","admin3":"15087","localeAltName":null},{"geonameid":6549062,"name":"Bornstedt","admin3":"15087","localeAltName":null},{"geonameid":6549067,"name":"Eisleben, Lutherstadt","admin3":"15087","localeAltName":null},{"geonameid":6549077,"name":"Helbra","admin3":"15087","localeAltName":null},{"geonameid":6549078,"name":"Hergisdorf","admin3":"15087","localeAltName":null},{"geonameid":6549083,"name":"Klostermansfeld","admin3":"15087","localeAltName":null},{"geonameid":6549111,"name":"Wimmelburg","admin3":"15087","localeAltName":null},{"geonameid":6549117,"name":"Barnstädt","admin3":"15088","localeAltName":null},{"geonameid":6549121,"name":"Farnstädt","admin3":"15088","localeAltName":null},{"geonameid":6549137,"name":"Nemsdorf-Göhrendorf","admin3":"15088","localeAltName":null},{"geonameid":6549138,"name":"Obhausen","admin3":"15088","localeAltName":null},{"geonameid":6549143,"name":"Steigra","admin3":"15088","localeAltName":null},{"geonameid":6549178,"name":"Petersberg","admin3":"15088","localeAltName":null},{"geonameid":6549191,"name":"Teutschenthal","admin3":"15088","localeAltName":null},{"geonameid":6549195,"name":"Berga","admin3":"15087","localeAltName":null},{"geonameid":6549197,"name":"Blankenheim","admin3":"15087","localeAltName":null},{"geonameid":6549203,"name":"Edersleben","admin3":"15087","localeAltName":null},{"geonameid":6549232,"name":"Wallhausen","admin3":"15087","localeAltName":null},{"geonameid":6549239,"name":"Goseck","admin3":"15084","localeAltName":null},{"geonameid":6549266,"name":"Borne","admin3":"15089","localeAltName":null},{"geonameid":6549273,"name":"Giersleben","admin3":"15089","localeAltName":null},{"geonameid":6549288,"name":"Wolmirsleben","admin3":"15089","localeAltName":null},{"geonameid":6549290,"name":"Ausleben","admin3":"15083","localeAltName":null},{"geonameid":6549298,"name":"Eilsleben","admin3":"15083","localeAltName":null},{"geonameid":6549300,"name":"Harbke","admin3":"15083","localeAltName":null},{"geonameid":6549301,"name":"Hötensleben","admin3":"15083","localeAltName":null},{"geonameid":6549311,"name":"Sommersdorf","admin3":"15083","localeAltName":null},{"geonameid":6549312,"name":"Ummendorf","admin3":"15083","localeAltName":null},{"geonameid":6549313,"name":"Völpke","admin3":"15083","localeAltName":null},{"geonameid":6549315,"name":"Wefensleben","admin3":"15083","localeAltName":null},{"geonameid":6549318,"name":"Sülzetal","admin3":"15083","localeAltName":null},{"geonameid":6549324,"name":"Groß Quenstedt","admin3":"15085","localeAltName":null},{"geonameid":6549325,"name":"Harsleben","admin3":"15085","localeAltName":null},{"geonameid":6549333,"name":"Biederitz","admin3":"15086","localeAltName":null},{"geonameid":6549354,"name":"Möser","admin3":"15086","localeAltName":null},{"geonameid":6549378,"name":"Elbe-Parey","admin3":"15086","localeAltName":null},{"geonameid":6549381,"name":"Altenhausen","admin3":"15083","localeAltName":null},{"geonameid":6549382,"name":"Angern","admin3":"15083","localeAltName":null},{"geonameid":6549385,"name":"Beendorf","admin3":"15083","localeAltName":null},{"geonameid":6549394,"name":"Bülstringen","admin3":"15083","localeAltName":null},{"geonameid":6549395,"name":"Burgstall","admin3":"15083","localeAltName":null},{"geonameid":6549396,"name":"Colbitz","admin3":"15083","localeAltName":null},{"geonameid":6549405,"name":"Erxleben","admin3":"15083","localeAltName":null},{"geonameid":6549410,"name":"Flechtingen","admin3":"15083","localeAltName":null},{"geonameid":6549435,"name":"Rogätz","admin3":"15083","localeAltName":null},{"geonameid":6549450,"name":"Zielitz","admin3":"15083","localeAltName":null},{"geonameid":6549475,"name":"Eichstedt (Altmark)","admin3":"15090","localeAltName":null},{"geonameid":6549492,"name":"Hassel","admin3":"15090","localeAltName":null},{"geonameid":6549496,"name":"Hohenberg-Krusemark","admin3":"15090","localeAltName":null},{"geonameid":6549501,"name":"Iden","admin3":"15090","localeAltName":null},{"geonameid":6549506,"name":"Kamern","admin3":"15090","localeAltName":null},{"geonameid":6549510,"name":"Klietz","admin3":"15090","localeAltName":null},{"geonameid":6549534,"name":"Rochau","admin3":"15090","localeAltName":null},{"geonameid":6549545,"name":"Schönhausen (Elbe)","admin3":"15090","localeAltName":null},{"geonameid":6549547,"name":"Schollene","admin3":"15090","localeAltName":null},{"geonameid":6549571,"name":"Ditfurt","admin3":"15085","localeAltName":null},{"geonameid":6549574,"name":"Hedersleben","admin3":"15085","localeAltName":null},{"geonameid":6549640,"name":"Beetzendorf","admin3":"15081","localeAltName":null},{"geonameid":6549650,"name":"Dähre","admin3":"15081","localeAltName":null},{"geonameid":6549652,"name":"Diesdorf, Flecken","admin3":"15081","localeAltName":null},{"geonameid":6549674,"name":"Jübar","admin3":"15081","localeAltName":null},{"geonameid":6549685,"name":"Kuhfelde","admin3":"15081","localeAltName":null},{"geonameid":6549715,"name":"Rohrberg","admin3":"15081","localeAltName":null},{"geonameid":6549735,"name":"Wallstawe","admin3":"15081","localeAltName":null},{"geonameid":6550567,"name":"Sangerhausen","admin3":"15087","localeAltName":null},{"geonameid":6550879,"name":"Zerbst","admin3":"15082","localeAltName":null},{"geonameid":6550880,"name":"Alsleben (Saale)","admin3":"15089","localeAltName":null},{"geonameid":6550881,"name":"Güsten","admin3":"15089","localeAltName":null},{"geonameid":6550882,"name":"Könnern","admin3":"15089","localeAltName":null},{"geonameid":6550883,"name":"Nienburg (Saale)","admin3":"15089","localeAltName":null},{"geonameid":6550887,"name":"Zörbig","admin3":"15082","localeAltName":null},{"geonameid":6550890,"name":"Annaburg","admin3":"15091","localeAltName":null},{"geonameid":6550891,"name":"Bad Schmiedeberg","admin3":"15091","localeAltName":null},{"geonameid":6550892,"name":"Gräfenhainichen","admin3":"15091","localeAltName":null},{"geonameid":6550894,"name":"Bad Bibra","admin3":"15084","localeAltName":null},{"geonameid":6550896,"name":"Eckartsberga","admin3":"15084","localeAltName":null},{"geonameid":6550897,"name":"Osterfeld","admin3":"15084","localeAltName":null},{"geonameid":6550898,"name":"Stößen","admin3":"15084","localeAltName":null},{"geonameid":6550899,"name":"Zeitz","admin3":"15084","localeAltName":null},{"geonameid":6550900,"name":"Gerbstedt","admin3":"15087","localeAltName":null},{"geonameid":6550901,"name":"Hettstedt","admin3":"15087","localeAltName":null},{"geonameid":6550902,"name":"Mansfeld","admin3":"15087","localeAltName":null},{"geonameid":6550904,"name":"Bad Dürrenberg","admin3":"15088","localeAltName":null},{"geonameid":6550905,"name":"Bad Lauchstädt","admin3":"15088","localeAltName":null},{"geonameid":6550906,"name":"Braunsbedra","admin3":"15088","localeAltName":null},{"geonameid":6550907,"name":"Leuna","admin3":"15088","localeAltName":null},{"geonameid":6550908,"name":"Mücheln (Geiseltal)","admin3":"15088","localeAltName":null},{"geonameid":6550910,"name":"Schraplau","admin3":"15088","localeAltName":null},{"geonameid":6550911,"name":"Landsberg","admin3":"15088","localeAltName":null},{"geonameid":6550914,"name":"Allstedt","admin3":"15087","localeAltName":null},{"geonameid":6550916,"name":"Hohenmölsen","admin3":"15084","localeAltName":null},{"geonameid":6550917,"name":"Lützen","admin3":"15084","localeAltName":null},{"geonameid":6550918,"name":"Teuchern","admin3":"15084","localeAltName":null},{"geonameid":6550919,"name":"Egeln","admin3":"15089","localeAltName":null},{"geonameid":6550920,"name":"Hecklingen","admin3":"15089","localeAltName":null},{"geonameid":6550922,"name":"Gröningen","admin3":"15083","localeAltName":null},{"geonameid":6550924,"name":"Kroppenstedt","admin3":"15083","localeAltName":null},{"geonameid":6550926,"name":"Halberstadt","admin3":"15085","localeAltName":null},{"geonameid":6550927,"name":"Osterwieck","admin3":"15085","localeAltName":null},{"geonameid":6550928,"name":"Schwanebeck","admin3":"15085","localeAltName":null},{"geonameid":6550929,"name":"Wegeleben","admin3":"15085","localeAltName":null},{"geonameid":6550930,"name":"Burg","admin3":"15086","localeAltName":null},{"geonameid":6550931,"name":"Genthin","admin3":"15086","localeAltName":null},{"geonameid":6550932,"name":"Gommern","admin3":"15086","localeAltName":null},{"geonameid":6550933,"name":"Jerichow","admin3":"15086","localeAltName":null},{"geonameid":6550934,"name":"Möckern","admin3":"15086","localeAltName":null},{"geonameid":6550935,"name":"Haldensleben","admin3":"15083","localeAltName":null},{"geonameid":6550936,"name":"Oebisfelde-Weferlingen","admin3":"15083","localeAltName":null},{"geonameid":6550937,"name":"Wolmirstedt","admin3":"15083","localeAltName":null},{"geonameid":6550938,"name":"Arneburg","admin3":"15090","localeAltName":null},{"geonameid":6550939,"name":"Bismark (Altmark)","admin3":"15090","localeAltName":null},{"geonameid":6550940,"name":"Havelberg","admin3":"15090","localeAltName":null},{"geonameid":6550941,"name":"Sandau (Elbe)","admin3":"15090","localeAltName":null},{"geonameid":6550942,"name":"Stendal","admin3":"15090","localeAltName":null},{"geonameid":6550943,"name":"Tangerhütte","admin3":"15090","localeAltName":null},{"geonameid":6550944,"name":"Tangermünde","admin3":"15090","localeAltName":null},{"geonameid":6550945,"name":"Werben (Elbe)","admin3":"15090","localeAltName":null},{"geonameid":6550946,"name":"Ballenstedt","admin3":"15085","localeAltName":null},{"geonameid":6550949,"name":"Harzgerode","admin3":"15085","localeAltName":null},{"geonameid":6550950,"name":"Thale","admin3":"15085","localeAltName":null},{"geonameid":6550951,"name":"Schönebeck (Elbe)","admin3":"15089","localeAltName":null},{"geonameid":6550954,"name":"Gardelegen","admin3":"15081","localeAltName":null},{"geonameid":6550955,"name":"Kalbe (Milde)","admin3":"15081","localeAltName":null},{"geonameid":6550956,"name":"Klötze","admin3":"15081","localeAltName":null},{"geonameid":6551137,"name":"Jessen (Elster)","admin3":"15091","localeAltName":null},{"geonameid":6551138,"name":"Kemberg","admin3":"15091","localeAltName":null},{"geonameid":6551140,"name":"Merseburg","admin3":"15088","localeAltName":null},{"geonameid":6551141,"name":"Querfurt","admin3":"15088","localeAltName":null},{"geonameid":6551142,"name":"Schkopau","admin3":"15088","localeAltName":null},{"geonameid":6551143,"name":"Weißenfels","admin3":"15084","localeAltName":null},{"geonameid":6551144,"name":"Aschersleben","admin3":"15089","localeAltName":null},{"geonameid":6551145,"name":"Staßfurt","admin3":"15089","localeAltName":null},{"geonameid":6551147,"name":"Am Großen Bruch","admin3":"15083","localeAltName":null},{"geonameid":6551148,"name":"Quedlinburg","admin3":"15085","localeAltName":null},{"geonameid":6551149,"name":"Wernigerode","admin3":"15085","localeAltName":null},{"geonameid":6551150,"name":"Salzwedel","admin3":"15081","localeAltName":null},{"geonameid":6551213,"name":"Coswig (Anhalt)","admin3":"15091","localeAltName":null},{"geonameid":6551215,"name":"Bernburg (Saale)","admin3":"15089","localeAltName":null},{"geonameid":6551218,"name":"Aken (Elbe)","admin3":"15082","localeAltName":null},{"geonameid":6551219,"name":"Köthen (Anhalt)","admin3":"15082","localeAltName":null},{"geonameid":6551220,"name":"Halle (Saale)","admin3":"15002","localeAltName":null},{"geonameid":6551221,"name":"Freyburg (Unstrut)","admin3":"15084","localeAltName":null},{"geonameid":6551222,"name":"Laucha an der Unstrut","admin3":"15084","localeAltName":null},{"geonameid":6551223,"name":"Naumburg (Saale)","admin3":"15084","localeAltName":null},{"geonameid":6551224,"name":"Nebra (Unstrut)","admin3":"15084","localeAltName":null},{"geonameid":6551231,"name":"Kelbra (Kyffhäuser)","admin3":"15087","localeAltName":null},{"geonameid":6551235,"name":"Magdeburg, Landeshauptstadt","admin3":"15003","localeAltName":null},{"geonameid":6551236,"name":"Oschersleben (Bode)","admin3":"15083","localeAltName":null},{"geonameid":6551238,"name":"Calvörde","admin3":"15083","localeAltName":null},{"geonameid":6551240,"name":"Osterburg (Altmark)","admin3":"15090","localeAltName":null},{"geonameid":6551241,"name":"Seehausen (Altmark)","admin3":"15090","localeAltName":null},{"geonameid":6551242,"name":"Barby","admin3":"15089","localeAltName":null},{"geonameid":6551243,"name":"Calbe (Saale)","admin3":"15089","localeAltName":null},{"geonameid":6551245,"name":"Blankenburg (Harz)","admin3":"15085","localeAltName":null},{"geonameid":6551246,"name":"Oberharz am Brocken","admin3":"15085","localeAltName":null},{"geonameid":6551247,"name":"Ilsenburg (Harz)","admin3":"15085","localeAltName":null},{"geonameid":6551248,"name":"Arendsee (Altmark)","admin3":"15081","localeAltName":null},{"geonameid":6559281,"name":"Elsteraue","admin3":"15084","localeAltName":null},{"geonameid":6559284,"name":"Niedere Börde","admin3":"15083","localeAltName":null},{"geonameid":7602390,"name":"Zehrental","admin3":"15090","localeAltName":null},{"geonameid":7602396,"name":"Ingersleben","admin3":"15083","localeAltName":null},{"geonameid":7602401,"name":"An der Poststraße","admin3":"15084","localeAltName":null},{"geonameid":7602408,"name":"Goldbeck","admin3":"15090","localeAltName":null},{"geonameid":7602488,"name":"Barleben","admin3":"15083","localeAltName":null},{"geonameid":7602491,"name":"Kabelsketal","admin3":"15088","localeAltName":null},{"geonameid":7602604,"name":"Dessau-Roßlau","admin3":"15001","localeAltName":null},{"geonameid":7602605,"name":"Apenburg-Winterfeld, Flecken","admin3":"15081","localeAltName":null},{"geonameid":7602606,"name":"Bitterfeld-Wolfen","admin3":"15082","localeAltName":null},{"geonameid":7602607,"name":"Muldestausee","admin3":"15082","localeAltName":null},{"geonameid":7602608,"name":"Osternienburger Land","admin3":"15082","localeAltName":null},{"geonameid":7602609,"name":"Raguhn-Jeßnitz","admin3":"15082","localeAltName":null},{"geonameid":7602610,"name":"Sandersdorf-Brehna","admin3":"15082","localeAltName":null},{"geonameid":7602611,"name":"Südliches Anhalt","admin3":"15082","localeAltName":null},{"geonameid":7602612,"name":"Hohe Börde","admin3":"15083","localeAltName":null},{"geonameid":7602613,"name":"Loitsche-Heinrichsberg","admin3":"15083","localeAltName":null},{"geonameid":7602614,"name":"Wanzleben-Börde","admin3":"15083","localeAltName":null},{"geonameid":7602615,"name":"Meineweh","admin3":"15084","localeAltName":null},{"geonameid":7602616,"name":"Finne","admin3":"15084","localeAltName":null},{"geonameid":7602617,"name":"Finneland","admin3":"15084","localeAltName":null},{"geonameid":7602618,"name":"Gutenborn","admin3":"15084","localeAltName":null},{"geonameid":7602619,"name":"Kaiserpfalz","admin3":"15084","localeAltName":null},{"geonameid":7602620,"name":"Lanitz-Hassel-Tal","admin3":"15084","localeAltName":null},{"geonameid":7602621,"name":"Molauer Land","admin3":"15084","localeAltName":null},{"geonameid":7602622,"name":"Schnaudertal","admin3":"15084","localeAltName":null},{"geonameid":7602623,"name":"Nordharz","admin3":"15085","localeAltName":null},{"geonameid":7602624,"name":"Selke-Aue","admin3":"15085","localeAltName":null},{"geonameid":7602625,"name":"Brücken-Hackpfüffel","admin3":"15087","localeAltName":null},{"geonameid":7602626,"name":"Seegebiet Mansfelder Land","admin3":"15087","localeAltName":null},{"geonameid":7602627,"name":"Südharz","admin3":"15087","localeAltName":null},{"geonameid":7602628,"name":"Salzatal","admin3":"15088","localeAltName":null},{"geonameid":7602629,"name":"Bördeaue","admin3":"15089","localeAltName":null},{"geonameid":7602630,"name":"Bördeland","admin3":"15089","localeAltName":null},{"geonameid":7602631,"name":"Börde-Hakel","admin3":"15089","localeAltName":null},{"geonameid":7602632,"name":"Aland","admin3":"15090","localeAltName":null},{"geonameid":7602633,"name":"Altmärkische Höhe","admin3":"15090","localeAltName":null},{"geonameid":7602634,"name":"Altmärkische Wische","admin3":"15090","localeAltName":null},{"geonameid":7602635,"name":"Wust-Fischbeck","admin3":"15090","localeAltName":null},{"geonameid":7602664,"name":"Westheide","admin3":"15083","localeAltName":null},{"geonameid":7602665,"name":"Falkenstein/Harz","admin3":"15085","localeAltName":null},{"geonameid":7602666,"name":"Arnstein","admin3":"15087","localeAltName":null},{"geonameid":7602667,"name":"Seeland","admin3":"15089","localeAltName":null},{"geonameid":8658986,"name":"Wettin-Löbejün","admin3":"15088","localeAltName":null},{"geonameid":8658987,"name":"Oranienbaum-Wörlitz","admin3":"15091","localeAltName":null},{"geonameid":8658988,"name":"Zahna-Elster","admin3":"15091","localeAltName":null}]},"__N_SSG":true}