{"pageProps":{"locale":"en","admin2":{"geonameid":5020546,"name":"Cass County","country":"US","admin1":"MN","admin2":"021","admin3":"","latitude":"46.9495900","longitude":"-94.3253500"},"admin1":{"geonameid":5037779,"name":"Minnesota","admin1":"MN","localeAltName":"Minnesota"},"locations":[{"geonameid":5025001,"name":"East Gull Lake","admin3":"17630"},{"geonameid":5033918,"name":"Lake Shore","admin3":"34928"}],"admin3":[{"geonameid":5016457,"name":"Township of Ansel","admin3":"01738"},{"geonameid":5016960,"name":"City of Backus","admin3":"03124"},{"geonameid":5017160,"name":"Township of Barclay","admin3":"03538"},{"geonameid":5017682,"name":"Township of Becker","admin3":"04600"},{"geonameid":5017837,"name":"City of Bena","admin3":"05104"},{"geonameid":5018200,"name":"Township of Beulah","admin3":"05572"},{"geonameid":5018484,"name":"Township of Birch Lake","admin3":"06040"},{"geonameid":5018693,"name":"Township of Blind Lake","admin3":"06454"},{"geonameid":5019059,"name":"Township of Boy Lake","admin3":"07156"},{"geonameid":5019063,"name":"City of Boy River","admin3":"07174"},{"geonameid":5019064,"name":"Township of Boy River","admin3":"07192"},{"geonameid":5019674,"name":"Township of Bull Moose","admin3":"08560"},{"geonameid":5019715,"name":"Township of Bungo","admin3":"08596"},{"geonameid":5019901,"name":"Township of Byron","admin3":"09136"},{"geonameid":5020553,"name":"City of Cass Lake","admin3":"10252"},{"geonameid":5021005,"name":"City of Chickamaw Beach","admin3":"11296"},{"geonameid":5023459,"name":"Township of Crooked Lake","admin3":"13834"},{"geonameid":5024114,"name":"Township of Deerfield","admin3":"15220"},{"geonameid":5024986,"name":"Unorganized Territory of East Cass","admin3":"17495"},{"geonameid":5025003,"name":"City of East Gull Lake","admin3":"17630"},{"geonameid":5026165,"name":"Township of Fairview","admin3":"20366"},{"geonameid":5026381,"name":"City of Federal Dam","admin3":"20798"},{"geonameid":5028366,"name":"Township of Gould","admin3":"24686"},{"geonameid":5029086,"name":"City of Hackensack","admin3":"26378"},{"geonameid":5030272,"name":"Township of Hiram","admin3":"29366"},{"geonameid":5030567,"name":"Township of Home Brook","admin3":"29978"},{"geonameid":5031272,"name":"Township of Inguadona","admin3":"30986"},{"geonameid":5032969,"name":"Township of Kego","admin3":"32588"},{"geonameid":5033922,"name":"City of Lake Shore","admin3":"34928"},{"geonameid":5034420,"name":"Township of Leech Lake","admin3":"36224"},{"geonameid":5034623,"name":"Township of Lima","admin3":"37034"},{"geonameid":5035675,"name":"City of Longville","admin3":"38114"},{"geonameid":5035730,"name":"Township of Loon Lake","admin3":"38168"},{"geonameid":5036570,"name":"Township of Maple","admin3":"40076"},{"geonameid":5036893,"name":"Township of May","admin3":"41102"},{"geonameid":5037077,"name":"Township of McKinley","admin3":"39104"},{"geonameid":5037108,"name":"Township of Meadow Brook","admin3":"41354"},{"geonameid":5038165,"name":"Township of Moose Lake","admin3":"43990"},{"geonameid":5039457,"name":"Unorganized Territory of North Cass","admin3":"46825"},{"geonameid":5039464,"name":"Unorganized Territory of North Central Cass","admin3":"46826"},{"geonameid":5040519,"name":"Township of Otter Tail Peninsula","admin3":"49250"},{"geonameid":5041447,"name":"Township of Pike Bay","admin3":"50848"},{"geonameid":5041493,"name":"City of Pillager","admin3":"50902"},{"geonameid":5041633,"name":"Township of Pine Lake","admin3":"51172"},{"geonameid":5041673,"name":"City of Pine River","admin3":"51280"},{"geonameid":5041674,"name":"Township of Pine River","admin3":"51298"},{"geonameid":5042012,"name":"Township of Ponto Lake","admin3":"51928"},{"geonameid":5042094,"name":"Township of Poplar","admin3":"51964"},{"geonameid":5042222,"name":"Township of Powers","admin3":"52252"},{"geonameid":5042902,"name":"City of Remer","admin3":"53782"},{"geonameid":5042903,"name":"Township of Remer","admin3":"53800"},{"geonameid":5043617,"name":"Township of Rogers","admin3":"55168"},{"geonameid":5045774,"name":"Township of Salem","admin3":"58216"},{"geonameid":5047200,"name":"Township of Shingobee","admin3":"59872"},{"geonameid":5047581,"name":"Township of Slater","admin3":"60790"},{"geonameid":5047697,"name":"Township of Smoky Hollow","admin3":"60970"},{"geonameid":5049576,"name":"Township of Sylvan","admin3":"63958"},{"geonameid":5050079,"name":"Township of Thunder Lake","admin3":"64876"},{"geonameid":5050244,"name":"Township of Torrey","admin3":"65254"},{"geonameid":5050373,"name":"Township of Trelipe","admin3":"65434"},{"geonameid":5050672,"name":"Township of Turtle Lake","admin3":"65776"},{"geonameid":5051627,"name":"Township of Wabedo","admin3":"67414"},{"geonameid":5051721,"name":"Township of Walden","admin3":"67684"},{"geonameid":5051747,"name":"City of Walker","admin3":"67792"},{"geonameid":5052870,"name":"Township of Wilkinson","admin3":"70348"},{"geonameid":5053053,"name":"Township of Wilson","admin3":"70654"},{"geonameid":5053421,"name":"Township of Woodrow","admin3":"71608"}],"alternateNames":[{"alternatenameId":2089541,"geonameid":5037779,"isoLanguage":"en","alternateName":"Minnesota","isPreferredName":true,"isShortName":true,"isColloquial":false,"isHistoric":false}]},"__N_SSG":true}