{"pageProps":{"locale":"en","admin2":{"geonameid":5031682,"name":"Jackson County","country":"US","admin1":"MN","admin2":"063","admin3":"","latitude":"43.6741700","longitude":"-95.1541100"},"admin1":{"geonameid":5037779,"name":"Minnesota","admin1":"MN","localeAltName":"Minnesota"},"locations":[{"geonameid":5031678,"name":"Jackson","admin3":"31562"},{"geonameid":5033962,"name":"Lakefield","admin3":"34316"}],"admin3":[{"geonameid":5016001,"name":"Township of Alba","admin3":"00604"},{"geonameid":5016207,"name":"City of Alpha","admin3":"01162"},{"geonameid":5017802,"name":"Township of Belmont","admin3":"04978"},{"geonameid":5021184,"name":"Township of Christiania","admin3":"11476"},{"geonameid":5024136,"name":"Township of Delafield","admin3":"15436"},{"geonameid":5024228,"name":"Township of Des Moines","admin3":"15769"},{"geonameid":5025786,"name":"Township of Enterprise","admin3":"19484"},{"geonameid":5026039,"name":"Township of Ewington","admin3":"20042"},{"geonameid":5029973,"name":"City of Heron Lake","admin3":"28700"},{"geonameid":5029974,"name":"Township of Heron Lake","admin3":"28718"},{"geonameid":5030925,"name":"Township of Hunter","admin3":"30482"},{"geonameid":5031711,"name":"City of Jackson","admin3":"31562"},{"geonameid":5033227,"name":"Township of Kimball","admin3":"33146"},{"geonameid":5033596,"name":"Township of La Crosse","admin3":"33902"},{"geonameid":5033969,"name":"City of Lakefield","admin3":"34316"},{"geonameid":5037436,"name":"Township of Middletown","admin3":"41948"},{"geonameid":5037689,"name":"Township of Minneota","admin3":"43108"},{"geonameid":5040099,"name":"City of Okabena","admin3":"48184"},{"geonameid":5041236,"name":"Township of Petersburg","admin3":"50578"},{"geonameid":5043827,"name":"Township of Rost","admin3":"55996"},{"geonameid":5043931,"name":"Township of Round Lake","admin3":"56068"},{"geonameid":5047445,"name":"Township of Sioux Valley","admin3":"60574"},{"geonameid":5052201,"name":"Township of Weimer","admin3":"69016"},{"geonameid":5052399,"name":"Township of West Heron Lake","admin3":"69484"},{"geonameid":5052833,"name":"City of Wilder","admin3":"70258"},{"geonameid":5053229,"name":"Township of Wisconsin","admin3":"71212"}],"alternateNames":[{"alternatenameId":2089541,"geonameid":5037779,"isoLanguage":"en","alternateName":"Minnesota","isPreferredName":true,"isShortName":true,"isColloquial":false,"isHistoric":false}]},"__N_SSG":true}