{"pageProps":{"locale":"en","admin2":{"geonameid":5036797,"name":"Martin County","country":"US","admin1":"MN","admin2":"091","admin3":"","latitude":"43.6743600","longitude":"-94.5510700"},"admin1":{"geonameid":5037779,"name":"Minnesota","admin1":"MN","localeAltName":"Minnesota"},"locations":[{"geonameid":5026114,"name":"Fairmont","admin3":"20330"},{"geonameid":5047109,"name":"Sherburn","admin3":"59620"},{"geonameid":5050603,"name":"Truman","admin3":"65668"}],"admin3":[{"geonameid":5020706,"name":"Township of Cedar","admin3":"10378"},{"geonameid":5020739,"name":"Township of Center Creek","admin3":"10594"},{"geonameid":5020837,"name":"City of Ceylon","admin3":"10792"},{"geonameid":5024777,"name":"City of Dunnell","admin3":"17180"},{"geonameid":5024972,"name":"Township of East Chain","admin3":"17522"},{"geonameid":5025563,"name":"Township of Elm Creek","admin3":"18854"},{"geonameid":5026126,"name":"City of Fairmont","admin3":"20330"},{"geonameid":5026127,"name":"Township of Fairmont","admin3":"20348"},{"geonameid":5027277,"name":"Township of Fox Lake","admin3":"22256"},{"geonameid":5027365,"name":"Township of Fraser","admin3":"22436"},{"geonameid":5027636,"name":"Township of Galena","admin3":"23030"},{"geonameid":5028488,"name":"City of Granada","admin3":"24884"},{"geonameid":5031801,"name":"Township of Jay","admin3":"31778"},{"geonameid":5033704,"name":"Township of Lake Belt","admin3":"34082"},{"geonameid":5033786,"name":"Township of Lake Fremont","admin3":"34334"},{"geonameid":5036483,"name":"Township of Manyaska","admin3":"40058"},{"geonameid":5038916,"name":"Township of Nashville","admin3":"44962"},{"geonameid":5039703,"name":"City of Northrop","admin3":"47212"},{"geonameid":5040331,"name":"City of Ormsby","admin3":"48562"},{"geonameid":5041860,"name":"Township of Pleasant Prairie","admin3":"51622"},{"geonameid":5043634,"name":"Township of Rolling Green","admin3":"55258"},{"geonameid":5044111,"name":"Township of Rutland","admin3":"56500"},{"geonameid":5047118,"name":"City of Sherburn","admin3":"59620"},{"geonameid":5047382,"name":"Township of Silver Lake","admin3":"60412"},{"geonameid":5049829,"name":"Township of Tenhassen","admin3":"64372"},{"geonameid":5050381,"name":"City of Trimont","admin3":"65470"},{"geonameid":5050611,"name":"City of Truman","admin3":"65668"},{"geonameid":5052114,"name":"Township of Waverly","admin3":"68746"},{"geonameid":5052231,"name":"City of Welcome","admin3":"69070"},{"geonameid":5052551,"name":"Township of Westford","admin3":"69466"}],"alternateNames":[{"alternatenameId":2089541,"geonameid":5037779,"isoLanguage":"en","alternateName":"Minnesota","isPreferredName":true,"isShortName":true,"isColloquial":false,"isHistoric":false}]},"__N_SSG":true}