{"pageProps":{"locale":"en","admin2":{"geonameid":5038318,"name":"Morrison County","country":"US","admin1":"MN","admin2":"097","admin3":"","latitude":"46.0126200","longitude":"-94.2684200"},"admin1":{"geonameid":5037779,"name":"Minnesota","admin1":"MN","localeAltName":"Minnesota"},"locations":[{"geonameid":5034970,"name":"Little Falls","admin3":"37556"},{"geonameid":5041405,"name":"Pierz","admin3":"50776"},{"geonameid":5043955,"name":"Royalton","admin3":"56176"}],"admin3":[{"geonameid":5015956,"name":"Township of Agram","admin3":"00406"},{"geonameid":5017767,"name":"Township of Belle Prairie","admin3":"04888"},{"geonameid":5017779,"name":"Township of Bellevue","admin3":"04942"},{"geonameid":5019039,"name":"City of Bowlus","admin3":"07066"},{"geonameid":5019565,"name":"City of Buckman","admin3":"08416"},{"geonameid":5019566,"name":"Township of Buckman","admin3":"08434"},{"geonameid":5019663,"name":"Township of Buh","admin3":"08506"},{"geonameid":5023619,"name":"Township of Culdrum","admin3":"14248"},{"geonameid":5023666,"name":"Township of Cushing","admin3":"14356"},{"geonameid":5023872,"name":"Township of Darling","admin3":"14806"},{"geonameid":5025584,"name":"City of Elmdale","admin3":"18872"},{"geonameid":5025585,"name":"Township of Elmdale","admin3":"18890"},{"geonameid":5026937,"name":"City of Flensburg","admin3":"21266"},{"geonameid":5027803,"name":"City of Genola","admin3":"23444"},{"geonameid":5028608,"name":"Township of Granite","admin3":"25244"},{"geonameid":5028772,"name":"Township of Green Prairie","admin3":"25784"},{"geonameid":5029345,"name":"City of Harding","admin3":"27098"},{"geonameid":5030176,"name":"City of Hillman","admin3":"29150"},{"geonameid":5030178,"name":"Township of Hillman","admin3":"29168"},{"geonameid":5034075,"name":"Township of Lakin","admin3":"35252"},{"geonameid":5034225,"name":"City of Lastrup","admin3":"35720"},{"geonameid":5034439,"name":"Township of Leigh","admin3":"36350"},{"geonameid":5034981,"name":"City of Little Falls","admin3":"37556"},{"geonameid":5034982,"name":"Township of Little Falls","admin3":"37574"},{"geonameid":5038250,"name":"Township of Morrill","admin3":"44224"},{"geonameid":5038340,"name":"City of Motley","admin3":"44422"},{"geonameid":5038341,"name":"Township of Motley","admin3":"44440"},{"geonameid":5038399,"name":"Township of Mount Morris","admin3":"44602"},{"geonameid":5040843,"name":"Township of Parker","admin3":"49714"},{"geonameid":5041415,"name":"City of Pierz","admin3":"50776"},{"geonameid":5041416,"name":"Township of Pierz","admin3":"50794"},{"geonameid":5041452,"name":"Township of Pike Creek","admin3":"50866"},{"geonameid":5041865,"name":"Township of Platte","admin3":"51478"},{"geonameid":5042424,"name":"Township of Pulaski","admin3":"52720"},{"geonameid":5042592,"name":"City of Randall","admin3":"53080"},{"geonameid":5043188,"name":"Township of Richardson","admin3":"54178"},{"geonameid":5043280,"name":"Township of Ripley","admin3":"54520"},{"geonameid":5043813,"name":"Township of Rosing","admin3":"55906"},{"geonameid":5043963,"name":"City of Royalton","admin3":"56176"},{"geonameid":5046112,"name":"Township of Scandia Valley","admin3":"58918"},{"geonameid":5047774,"name":"City of Sobieski","admin3":"61006"},{"geonameid":5049434,"name":"Township of Swan River","admin3":"63760"},{"geonameid":5049448,"name":"City of Swanville","admin3":"63778"},{"geonameid":5049449,"name":"Township of Swanville","admin3":"63796"},{"geonameid":5050838,"name":"Township of Two Rivers","admin3":"66028"},{"geonameid":5051153,"name":"City of Upsala","admin3":"66334"}],"alternateNames":[{"alternatenameId":2089541,"geonameid":5037779,"isoLanguage":"en","alternateName":"Minnesota","isPreferredName":true,"isShortName":true,"isColloquial":false,"isHistoric":false}]},"__N_SSG":true}