{"pageProps":{"locale":"en","admin2":{"geonameid":5038458,"name":"Mower County","country":"US","admin1":"MN","admin2":"099","admin3":"","latitude":"43.6714700","longitude":"-92.7525100"},"admin1":{"geonameid":5037779,"name":"Minnesota","admin1":"MN","localeAltName":"Minnesota"},"locations":[{"geonameid":5016884,"name":"Austin","admin3":"02908"},{"geonameid":5028509,"name":"Grand Meadow","admin3":"25010"}],"admin3":[{"geonameid":5015867,"name":"Township of Adams","admin3":"00208"},{"geonameid":5015965,"name":"City of Adams","admin3":"00190"},{"geonameid":5016900,"name":"City of Austin","admin3":"02908"},{"geonameid":5016901,"name":"Township of Austin","admin3":"02926"},{"geonameid":5017876,"name":"Township of Bennington","admin3":"05176"},{"geonameid":5019451,"name":"City of Brownsdale","admin3":"08164"},{"geonameid":5021454,"name":"Township of Clayton","admin3":"11728"},{"geonameid":5024279,"name":"City of Dexter","admin3":"15886"},{"geonameid":5024280,"name":"Township of Dexter","admin3":"15904"},{"geonameid":5025501,"name":"City of Elkton","admin3":"18728"},{"geonameid":5027328,"name":"Township of Frankford","admin3":"22328"},{"geonameid":5028519,"name":"City of Grand Meadow","admin3":"25010"},{"geonameid":5028520,"name":"Township of Grand Meadow","admin3":"25028"},{"geonameid":5034169,"name":"Township of Lansing","admin3":"35576"},{"geonameid":5034321,"name":"City of Le Roy","admin3":"36620"},{"geonameid":5034322,"name":"Township of Le Roy","admin3":"36638"},{"geonameid":5035412,"name":"Township of Lodi","admin3":"37808"},{"geonameid":5036096,"name":"City of Lyle","admin3":"38654"},{"geonameid":5036097,"name":"Township of Lyle","admin3":"38672"},{"geonameid":5036587,"name":"City of Mapleview","admin3":"40346"},{"geonameid":5036755,"name":"Township of Marshall","admin3":"40706"},{"geonameid":5039062,"name":"Township of Nevada","admin3":"45322"},{"geonameid":5041881,"name":"Township of Pleasant Valley","admin3":"51640"},{"geonameid":5042509,"name":"City of Racine","admin3":"52882"},{"geonameid":5042510,"name":"Township of Racine","admin3":"52900"},{"geonameid":5042768,"name":"Township of Red Rock","admin3":"53584"},{"geonameid":5043720,"name":"City of Rose Creek","admin3":"55600"},{"geonameid":5045982,"name":"City of Sargeant","admin3":"58576"},{"geonameid":5045983,"name":"Township of Sargeant","admin3":"58594"},{"geonameid":5049724,"name":"City of Taopi","admin3":"64210"},{"geonameid":5050871,"name":"Township of Udolpho","admin3":"66118"},{"geonameid":5051795,"name":"City of Waltham","admin3":"67918"},{"geonameid":5051796,"name":"Township of Waltham","admin3":"67936"},{"geonameid":5053101,"name":"Township of Windom","admin3":"70816"}],"alternateNames":[{"alternatenameId":2089541,"geonameid":5037779,"isoLanguage":"en","alternateName":"Minnesota","isPreferredName":true,"isShortName":true,"isColloquial":false,"isHistoric":false}]},"__N_SSG":true}