{"pageProps":{"locale":"en","admin2":{"geonameid":5041121,"name":"Pennington County","country":"US","admin1":"MN","admin2":"113","admin3":"","latitude":"48.0662300","longitude":"-96.0366700"},"admin1":{"geonameid":5037779,"name":"Minnesota","admin1":"MN","localeAltName":"Minnesota"},"locations":[{"geonameid":5049970,"name":"Thief River Falls","admin3":"64570"}],"admin3":[{"geonameid":5018604,"name":"Township of Black River","admin3":"06364"},{"geonameid":5019166,"name":"Township of Bray","admin3":"07444"},{"geonameid":5021663,"name":"Township of Cloverleaf","admin3":"12304"},{"geonameid":5024097,"name":"Township of Deer Park","admin3":"15292"},{"geonameid":5028257,"name":"City of Goodridge","admin3":"24470"},{"geonameid":5028258,"name":"Township of Goodridge","admin3":"24488"},{"geonameid":5030022,"name":"Township of Hickory","admin3":"28808"},{"geonameid":5030098,"name":"Township of Highlanding","admin3":"29024"},{"geonameid":5033508,"name":"Township of Kratka","admin3":"33740"},{"geonameid":5036899,"name":"Township of Mayfield","admin3":"41156"},{"geonameid":5039366,"name":"Township of Norden","admin3":"46510"},{"geonameid":5039649,"name":"Township of North","admin3":"46762"},{"geonameid":5039811,"name":"Township of Numedal","admin3":"47590"},{"geonameid":5041969,"name":"Township of Polk Centre","admin3":"51802"},{"geonameid":5042888,"name":"Township of Reiner","admin3":"53746"},{"geonameid":5043293,"name":"Township of River Falls","admin3":"54574"},{"geonameid":5043569,"name":"Township of Rocksbury","admin3":"55060"},{"geonameid":5044552,"name":"City of Saint Hilaire","admin3":"57022"},{"geonameid":5045901,"name":"Township of Sanders","admin3":"58342"},{"geonameid":5047395,"name":"Township of Silverton","admin3":"60448"},{"geonameid":5047651,"name":"Township of Smiley","admin3":"60898"},{"geonameid":5048586,"name":"Township of Star","admin3":"62482"},{"geonameid":5049930,"name":"City of Thief River Falls","admin3":"64570"},{"geonameid":5053499,"name":"Township of Wyandotte","admin3":"71878"}],"alternateNames":[{"alternatenameId":2089541,"geonameid":5037779,"isoLanguage":"en","alternateName":"Minnesota","isPreferredName":true,"isShortName":true,"isColloquial":false,"isHistoric":false}]},"__N_SSG":true}