{"pageProps":{"locale":"en","admin2":{"geonameid":5042066,"name":"Pope County","country":"US","admin1":"MN","admin2":"121","admin3":"","latitude":"45.5860200","longitude":"-95.4444800"},"admin1":{"geonameid":5037779,"name":"Minnesota","admin1":"MN","localeAltName":"Minnesota"},"locations":[{"geonameid":5028087,"name":"Glenwood","admin3":"24074"},{"geonameid":5048587,"name":"Starbuck","admin3":"62500"}],"admin3":[{"geonameid":5017134,"name":"Township of Bangor","admin3":"03502"},{"geonameid":5017228,"name":"Township of Barsness","admin3":"03754"},{"geonameid":5017833,"name":"Township of Ben Wade","admin3":"05302"},{"geonameid":5018792,"name":"Township of Blue Mounds","admin3":"06760"},{"geonameid":5021049,"name":"Township of Chippewa Falls","admin3":"11332"},{"geonameid":5023704,"name":"City of Cyrus","admin3":"14446"},{"geonameid":5026341,"name":"City of Farwell","admin3":"20690"},{"geonameid":5027959,"name":"Township of Gilchrist","admin3":"23750"},{"geonameid":5028107,"name":"City of Glenwood","admin3":"24074"},{"geonameid":5028108,"name":"Township of Glenwood","admin3":"24092"},{"geonameid":5028964,"name":"Township of Grove Lake","admin3":"26162"},{"geonameid":5030318,"name":"Township of Hoff","admin3":"29456"},{"geonameid":5033829,"name":"Township of Lake Johanna","admin3":"34586"},{"geonameid":5034148,"name":"Township of Langhei","admin3":"35504"},{"geonameid":5034532,"name":"Township of Leven","admin3":"36764"},{"geonameid":5035472,"name":"City of Long Beach","admin3":"37970"},{"geonameid":5035948,"name":"City of Lowry","admin3":"38366"},{"geonameid":5037807,"name":"Township of Minnewaska","admin3":"43342"},{"geonameid":5039142,"name":"Township of New Prairie","admin3":"45844"},{"geonameid":5039351,"name":"Township of Nora","admin3":"46456"},{"geonameid":5042919,"name":"Township of Reno","admin3":"53854"},{"geonameid":5043641,"name":"Township of Rolling Forks","admin3":"55240"},{"geonameid":5046856,"name":"City of Sedan","admin3":"59188"},{"geonameid":5048597,"name":"City of Starbuck","admin3":"62500"},{"geonameid":5051437,"name":"City of Villard","admin3":"67144"},{"geonameid":5051722,"name":"Township of Walden","admin3":"67702"},{"geonameid":5052563,"name":"City of Westport","admin3":"69628"},{"geonameid":5052564,"name":"Township of Westport","admin3":"69646"},{"geonameid":5052662,"name":"Township of White Bear Lake","admin3":"69952"}],"alternateNames":[{"alternatenameId":2089541,"geonameid":5037779,"isoLanguage":"en","alternateName":"Minnesota","isPreferredName":true,"isShortName":true,"isColloquial":false,"isHistoric":false}]},"__N_SSG":true}