{"pageProps":{"locale":"en","admin2":{"geonameid":6691318,"name":"Bas-Saint-Laurent","country":"CA","admin1":"10","admin2":"01","admin3":"","latitude":"48.0503000","longitude":"-68.0226600"},"admin1":{"geonameid":6115047,"name":"Québec","admin1":"10"},"locations":[{"geonameid":6943488,"name":"Amqui","admin3":"07047"},{"geonameid":9034825,"name":"Baie-Des-Sables","admin3":"08080"},{"geonameid":8556301,"name":"Bic","admin3":"10043"},{"geonameid":6944109,"name":"Cabano","admin3":"13073"},{"geonameid":6695808,"name":"Cacouna","admin3":"12057"},{"geonameid":8616970,"name":"Causapscal","admin3":"07018"},{"geonameid":6945985,"name":"Dégelis","admin3":"13005"},{"geonameid":8379096,"name":"Estcourt","admin3":"13095"},{"geonameid":6325493,"name":"Kamouraska","admin3":"14050"},{"geonameid":6325526,"name":"L'Isle-Verte","admin3":"12043"},{"geonameid":7535692,"name":"La Pocatière","admin3":"14085"},{"geonameid":6943831,"name":"Lac-au-Saumon","admin3":"07057"},{"geonameid":11704322,"name":"Lac-Humqui","admin3":"07035"},{"geonameid":12076634,"name":"Le Bic","admin3":"10043"},{"geonameid":6944110,"name":"Les Escoumins","admin3":"11030"},{"geonameid":6052922,"name":"Les Méchins","admin3":"08005"},{"geonameid":12076629,"name":"Luceville","admin3":"09092"},{"geonameid":6696260,"name":"Matane","admin3":"08053"},{"geonameid":8593678,"name":"Métis-sur-Mer","admin3":"09048"},{"geonameid":6944113,"name":"Mont-Joli","admin3":"09077"},{"geonameid":8593816,"name":"Padoue","admin3":"09040"},{"geonameid":8379097,"name":"Pohénégamook","admin3":"13095"},{"geonameid":7304350,"name":"Pointe-au-Père","admin3":"10043"},{"geonameid":6354895,"name":"Rimouski","admin3":"10043"},{"geonameid":6354897,"name":"Rivière-du-Loup","admin3":"12072"},{"geonameid":11497449,"name":"Rivière-Ouelle","admin3":"14065"},{"geonameid":8593831,"name":"Routhierville","admin3":""},{"geonameid":11696031,"name":"Saint-Alexandre-de-Kamouraska","admin3":"14035"},{"geonameid":6354900,"name":"Saint-André","admin3":"14040"},{"geonameid":9408331,"name":"Saint-Antonin","admin3":"12015"},{"geonameid":11257145,"name":"Saint-Eugène de Ladrière","admin3":"10075"},{"geonameid":8556294,"name":"Saint-Fabien","admin3":"10070"},{"geonameid":8604721,"name":"Saint-Georges-de-Cacouna","admin3":"12057"},{"geonameid":8425788,"name":"Saint-Honoré-de-Témiscouata","admin3":"13090"},{"geonameid":8617397,"name":"Saint-Jean-de-Dieu","admin3":"11010"},{"geonameid":6944108,"name":"Saint-Juste-du-Lac","admin3":"13040"},{"geonameid":7283711,"name":"Saint-Mathieu-de-Rioux","admin3":"11050"},{"geonameid":6138808,"name":"Saint-Modeste","admin3":"12020"},{"geonameid":11748150,"name":"Saint-Narcisse-de-Rimouski","admin3":"10015"},{"geonameid":12076647,"name":"Saint-Pacôme","admin3":"14070"},{"geonameid":8593671,"name":"Saint-Pascal","admin3":"14018"},{"geonameid":9410023,"name":"Saint-René-de-Matane","admin3":"08035"},{"geonameid":8556300,"name":"Saint-Simon-de-Rimouski","admin3":"11055"},{"geonameid":8556261,"name":"Saint-Ulric","admin3":"08073"},{"geonameid":8593681,"name":"Sainte-Félicité","admin3":"08023"},{"geonameid":8593676,"name":"Sainte-Flavie","admin3":"09085"},{"geonameid":8556302,"name":"Sainte-Luce","admin3":"09092"},{"geonameid":6944114,"name":"Sainte-Marguerite","admin3":"07005"},{"geonameid":8605031,"name":"Sayabec","admin3":"07085"},{"geonameid":8593817,"name":"St-Anaclet","admin3":"10030"},{"geonameid":6944107,"name":"Sully","admin3":"13095"},{"geonameid":6942037,"name":"Trois Pistoles","admin3":"11040"},{"geonameid":8616969,"name":"Val-Brillant","admin3":"07080"}],"admin3":[{"geonameid":8672447,"name":"Saint-Paul-de-la-Croix","admin3":"12035"},{"geonameid":8672545,"name":"Saint-Ulric","admin3":"08073"},{"geonameid":8672557,"name":"Saint-Michel-du-Squatec","admin3":"13065"},{"geonameid":8672573,"name":"Saint-Octave-de-Métis","admin3":"09055"},{"geonameid":8672574,"name":"Saint-Pacôme","admin3":"14070"},{"geonameid":8672582,"name":"Grand-Métis","admin3":"09060"},{"geonameid":8672584,"name":"Saint-Éloi","admin3":"11035"},{"geonameid":8672594,"name":"Saint-Cyprien","admin3":"12005"},{"geonameid":8672607,"name":"Rivière-Ouelle","admin3":"14065"},{"geonameid":8672610,"name":"Baie-des-Sables","admin3":"08080"},{"geonameid":8672630,"name":"Saint-Simon","admin3":"11055"},{"geonameid":8672635,"name":"Notre-Dame-des-Neiges","admin3":"11045"},{"geonameid":8672637,"name":"Sainte-Marguerite-Marie","admin3":"07005"},{"geonameid":8672643,"name":"Lejeune","admin3":"13050"},{"geonameid":8672650,"name":"Biencourt","admin3":"13055"},{"geonameid":8672658,"name":"Grosses-Roches","admin3":"08015"},{"geonameid":8672667,"name":"Auclair","admin3":"13045"},{"geonameid":8672676,"name":"Saint-Marcellin","admin3":"10025"},{"geonameid":8672686,"name":"Notre-Dame-des-Sept-Douleurs","admin3":"12045"},{"geonameid":8672692,"name":"Saint-Gabriel-de-Rimouski","admin3":"09025"},{"geonameid":8672693,"name":"Sainte-Rita","admin3":"11015"},{"geonameid":8672695,"name":"Saint-Adelme","admin3":"08030"},{"geonameid":8672700,"name":"Saint-Antonin","admin3":"12015"},{"geonameid":8672706,"name":"Sainte-Angèle-de-Mérici","admin3":"09035"},{"geonameid":8672719,"name":"Saint-Joseph-de-Lepage","admin3":"09070"},{"geonameid":8672729,"name":"Saint-Jean-de-Cherbourg","admin3":"08010"},{"geonameid":8672734,"name":"La Trinité-des-Monts","admin3":"10010"},{"geonameid":8672740,"name":"Saint-Vianney","admin3":"07075"},{"geonameid":8672749,"name":"Saint-Jean-de-la-Lande","admin3":"13010"},{"geonameid":8672770,"name":"Saint-Léandre","admin3":"08065"},{"geonameid":8672779,"name":"Saint-Charles-Garnier","admin3":"09010"},{"geonameid":8672789,"name":"Rivière-Bleue","admin3":"13025"},{"geonameid":8672796,"name":"Saint-Guy","admin3":"11020"},{"geonameid":8672803,"name":"Sainte-Anne-de-la-Pocatière","admin3":"14090"},{"geonameid":8672809,"name":"Sainte-Hélène","admin3":"14025"},{"geonameid":8672826,"name":"Saint-Elzéar-de-Témiscouata","admin3":"13085"},{"geonameid":8672827,"name":"Saint-Hubert-de-Rivière-du-Loup","admin3":"12010"},{"geonameid":8672831,"name":"Sainte-Françoise","admin3":"11030"},{"geonameid":8672834,"name":"Les Hauteurs","admin3":"09015"},{"geonameid":8672835,"name":"Saint-Onésime-d'Ixworth","admin3":"14080"},{"geonameid":8672840,"name":"Saint-François-Xavier-de-Viger","admin3":"12025"},{"geonameid":8672863,"name":"Saint-Zénon-du-Lac-Humqui","admin3":"07035"},{"geonameid":8672866,"name":"Saint-Gabriel-Lalemant","admin3":"14075"},{"geonameid":8672870,"name":"Saint-Tharcisius","admin3":"07070"},{"geonameid":8672872,"name":"Notre-Dame-du-Portage","admin3":"12080"},{"geonameid":8672876,"name":"Saint-René-de-Matane","admin3":"08035"},{"geonameid":8672889,"name":"Saint-Alexandre-de-Kamouraska","admin3":"14035"},{"geonameid":8672890,"name":"Sainte-Florence","admin3":"07010"},{"geonameid":8672892,"name":"Saint-Athanase","admin3":"13100"},{"geonameid":8672895,"name":"Saint-Cléophas","admin3":"07090"},{"geonameid":8672902,"name":"Sainte-Paule","admin3":"08040"},{"geonameid":8672912,"name":"Trois-Pistoles","admin3":"11040"},{"geonameid":8672919,"name":"Saint-Médard","admin3":"11025"},{"geonameid":8672924,"name":"Saint-Germain","admin3":"14045"},{"geonameid":8672926,"name":"Saint-Eusèbe","admin3":"13030"},{"geonameid":8672975,"name":"Saint-Narcisse-de-Rimouski","admin3":"10015"},{"geonameid":8672976,"name":"Mont-Carmel","admin3":"14005"},{"geonameid":8672994,"name":"Packington","admin3":"13015"},{"geonameid":8673007,"name":"Saint-Eugène-de-Ladrière","admin3":"10075"},{"geonameid":8673022,"name":"Saint-Donat","admin3":"09030"},{"geonameid":8673025,"name":"Sainte-Irène","admin3":"07040"},{"geonameid":8673083,"name":"Saint-Valérien","admin3":"10060"},{"geonameid":8673090,"name":"Saint-Arsène","admin3":"12065"},{"geonameid":8673092,"name":"Padoue","admin3":"09040"},{"geonameid":8673096,"name":"La Rédemption","admin3":"09005"},{"geonameid":8673108,"name":"Saint-Damase","admin3":"07105"},{"geonameid":8673110,"name":"Saint-Marc-du-Lac-Long","admin3":"13020"},{"geonameid":8673138,"name":"Saint-André","admin3":"14040"},{"geonameid":8673258,"name":"Saint-Épiphane","admin3":"12030"},{"geonameid":8673263,"name":"Saint-Pierre-de-Lamy","admin3":"13075"},{"geonameid":8673279,"name":"Saint-Léon-le-Grand","admin3":"07030"},{"geonameid":8673305,"name":"Sainte-Félicité","admin3":"08023"},{"geonameid":8673311,"name":"Saint-Clément","admin3":"11005"},{"geonameid":8673315,"name":"Albertville","admin3":"07025"},{"geonameid":8673329,"name":"Saint-Moïse","admin3":"07095"},{"geonameid":8673331,"name":"Saint-Louis-du-Ha! Ha!","admin3":"13080"},{"geonameid":8673380,"name":"Saint-Honoré-de-Témiscouata","admin3":"13090"},{"geonameid":8673409,"name":"Saint-Anaclet-de-Lessard","admin3":"10030"},{"geonameid":8673426,"name":"Témiscouata-sur-le-Lac","admin3":"13073"},{"geonameid":8673449,"name":"Saint-Alexandre-des-Lacs","admin3":"07065"},{"geonameid":8673480,"name":"Price","admin3":"09065"},{"geonameid":8673518,"name":"Saint-Noël","admin3":"07100"},{"geonameid":8673521,"name":"Val-Brillant","admin3":"07080"},{"geonameid":8673580,"name":"Cacouna","admin3":"12057"},{"geonameid":8673581,"name":"Saint-Joseph-de-Kamouraska","admin3":"14030"},{"geonameid":8673621,"name":"Sainte-Jeanne-d'Arc","admin3":"09020"},{"geonameid":8673622,"name":"Kamouraska","admin3":"14050"},{"geonameid":8673623,"name":"Esprit-Saint","admin3":"10005"},{"geonameid":8673647,"name":"Lac-des-Aigles","admin3":"13060"},{"geonameid":8673654,"name":"Saint-Jean-de-Dieu","admin3":"11010"},{"geonameid":8673668,"name":"Saint-Denis-De La Bouteillerie","admin3":"14055"},{"geonameid":8673674,"name":"Saint-Bruno-de-Kamouraska","admin3":"14010"},{"geonameid":8673678,"name":"L'Isle-Verte","admin3":"12043"},{"geonameid":8673700,"name":"Saint-Philippe-de-Néri","admin3":"14060"},{"geonameid":8673731,"name":"Sayabec","admin3":"07085"},{"geonameid":8673786,"name":"Pohénégamook","admin3":"13095"},{"geonameid":8673820,"name":"Saint-Pascal","admin3":"14018"},{"geonameid":8673900,"name":"Sainte-Luce","admin3":"09092"},{"geonameid":8673908,"name":"Saint-Modeste","admin3":"12020"},{"geonameid":8673910,"name":"Lac-au-Saumon","admin3":"07057"},{"geonameid":8673912,"name":"Causapscal","admin3":"07018"},{"geonameid":8673916,"name":"Saint-Juste-du-Lac","admin3":"13040"},{"geonameid":8673971,"name":"La Pocatière","admin3":"14085"},{"geonameid":8673980,"name":"Métis-sur-Mer","admin3":"09048"},{"geonameid":8673984,"name":"Rivière-du-Loup","admin3":"12072"},{"geonameid":8674002,"name":"Amqui","admin3":"07047"},{"geonameid":8674009,"name":"Dégelis","admin3":"13005"},{"geonameid":8674018,"name":"Sainte-Flavie","admin3":"09085"},{"geonameid":8674058,"name":"Rimouski","admin3":"10043"},{"geonameid":8674082,"name":"Matane","admin3":"08053"},{"geonameid":8674146,"name":"Saint-Fabien","admin3":"10070"},{"geonameid":8674148,"name":"Les Méchins","admin3":"08005"},{"geonameid":8674178,"name":"Saint-Mathieu-de-Rioux","admin3":"11050"},{"geonameid":8674182,"name":"Mont-Joli","admin3":"09077"}],"alternateNames":[]},"__N_SSG":true}