{"pageProps":{"locale":"en","admin2":{"geonameid":6068167,"name":"Mauricie","country":"CA","admin1":"10","admin2":"04","admin3":"","latitude":"47.5500900","longitude":"-73.4158300"},"admin1":{"geonameid":6115047,"name":"Québec","admin1":"10"},"locations":[{"geonameid":5884105,"name":"Almaville-en-Bas","admin3":"36033"},{"geonameid":5884106,"name":"Almaville-en-Haut","admin3":"36033"},{"geonameid":5890167,"name":"Baie-de-Shawinigan","admin3":"36033"},{"geonameid":5890795,"name":"Baie-Jolie","admin3":"37067"},{"geonameid":5894566,"name":"Base-Radar","admin3":"90012"},{"geonameid":5894962,"name":"Batiscan","admin3":"37210"},{"geonameid":5905129,"name":"Bois-Blanc","admin3":"51045"},{"geonameid":5914896,"name":"Cann","admin3":"90012"},{"geonameid":5917119,"name":"Carignan","admin3":"90012"},{"geonameid":5917930,"name":"Casey","admin3":"90012"},{"geonameid":5919678,"name":"Champlain","admin3":"37220"},{"geonameid":5920054,"name":"Charette","admin3":"51080"},{"geonameid":5922523,"name":"Chutes-de-Sainte-Ursule","admin3":"51040"},{"geonameid":5924183,"name":"Clova","admin3":"90012"},{"geonameid":5928265,"name":"Cossetteville","admin3":"35027"},{"geonameid":5932523,"name":"Crique-Clair","admin3":"90012"},{"geonameid":5937903,"name":"De Normanville","admin3":"37067"},{"geonameid":5937714,"name":"Demontigny","admin3":"37067"},{"geonameid":5938529,"name":"Devault","admin3":"51035"},{"geonameid":5940874,"name":"Doheny","admin3":""},{"geonameid":5941051,"name":"Domaine-Beauchesne","admin3":"51065"},{"geonameid":5941117,"name":"Domaine-de-la-Tranquillité","admin3":"35015"},{"geonameid":5941127,"name":"Domaine-des-Bouleaux-Blancs","admin3":"51075"},{"geonameid":5941148,"name":"Domaine-des-Laurentides","admin3":"36033"},{"geonameid":5941129,"name":"Domaine-Deschamps","admin3":"36033"},{"geonameid":5941175,"name":"Domaine-du-Bois","admin3":"37067"},{"geonameid":5941189,"name":"Domaine-du-Lac-Georges","admin3":"35005"},{"geonameid":5941220,"name":"Domaine-Garceau","admin3":"37067"},{"geonameid":5941243,"name":"Domaine-Juneau","admin3":"36033"},{"geonameid":5941258,"name":"Domaine-Lavoie","admin3":"51090"},{"geonameid":5941272,"name":"Domaine-Louis-Riel","admin3":"37067"},{"geonameid":5941276,"name":"Domaine-Marchand","admin3":"51075"},{"geonameid":5941283,"name":"Domaine-Mauricien","admin3":"36033"},{"geonameid":5941300,"name":"Domaine-Ouellet","admin3":"51075"},{"geonameid":5941345,"name":"Domaine-Samson","admin3":"51075"},{"geonameid":5952471,"name":"Festubert","admin3":"90012"},{"geonameid":5953888,"name":"Fitzpatrick","admin3":"90012"},{"geonameid":5960238,"name":"Gendron","admin3":"51065"},{"geonameid":5964291,"name":"Grande-Anse","admin3":"35055"},{"geonameid":5964356,"name":"Grandes-Piles","admin3":"35040"},{"geonameid":11257139,"name":"Hérouxville","admin3":"35035"},{"geonameid":5974393,"name":"Hervey-Jonction","admin3":"35010"},{"geonameid":5974531,"name":"Hibbard","admin3":"90012"},{"geonameid":5978678,"name":"Hunterstown","admin3":"51060"},{"geonameid":5986059,"name":"Jean-XXIII","admin3":"37067"},{"geonameid":5994826,"name":"La Bostonnais","admin3":"90017"},{"geonameid":6040190,"name":"La Croche","admin3":"90012"},{"geonameid":6047966,"name":"La Grande-Acadie","admin3":"51020"},{"geonameid":6049683,"name":"La Petite-Acadie","admin3":"51020"},{"geonameid":6049772,"name":"La Petite-Rivière","admin3":"51020"},{"geonameid":6050273,"name":"La Station","admin3":"37210"},{"geonameid":6050416,"name":"La Tuque","admin3":"90012"},{"geonameid":5996085,"name":"Lac-à-la-Tortue","admin3":"36033"},{"geonameid":5998713,"name":"Lac-aux-Brochets","admin3":"90012"},{"geonameid":6004200,"name":"Lac-Chat","admin3":"90012"},{"geonameid":6004760,"name":"Lac-Clair","admin3":"90012"},{"geonameid":6012739,"name":"Lac-des-Piles","admin3":"36033"},{"geonameid":6012773,"name":"Lac-des-Pins","admin3":"37067"},{"geonameid":6019337,"name":"Lac-Édouard","admin3":"90027"},{"geonameid":6028315,"name":"Lac-Lafontaine","admin3":"36033"},{"geonameid":6032186,"name":"Lac-Masketsi","admin3":""},{"geonameid":6033652,"name":"Lac-Mondor","admin3":"36033"},{"geonameid":6038491,"name":"Lac-Pratte","admin3":"36033"},{"geonameid":6050747,"name":"Lavoie","admin3":"51090"},{"geonameid":6051232,"name":"Le Bas-de-Sainte-Anne","admin3":"37205"},{"geonameid":6051751,"name":"Le Fief","admin3":"37067"},{"geonameid":6051939,"name":"Le Grand-Ruisseau","admin3":"51020"},{"geonameid":6051941,"name":"Le Grand-Sainte-Marie","admin3":"37205"},{"geonameid":6052543,"name":"Le Petit-Poste","admin3":"51040"},{"geonameid":6052560,"name":"Le Petit-Sainte-Marie","admin3":"37205"},{"geonameid":6052566,"name":"Le Petit-Village","admin3":"51020"},{"geonameid":6053291,"name":"Le Village-d'Orvilliers","admin3":"37205"},{"geonameid":6051339,"name":"Lebrun","admin3":"51008"},{"geonameid":6052740,"name":"Les Arpents-Verts","admin3":"37067"},{"geonameid":6052778,"name":"Les Chenaux","admin3":"37067"},{"geonameid":6052956,"name":"Les Petites-Terres","admin3":"51020"},{"geonameid":6052996,"name":"Les Rivières","admin3":"37067"},{"geonameid":6053111,"name":"Les Vieilles-Forges","admin3":"37067"},{"geonameid":6060839,"name":"Louiseville","admin3":"51015"},{"geonameid":6067547,"name":"Maskinongé","admin3":"51008"},{"geonameid":6076743,"name":"Montauban-les-Mines","admin3":"35005"},{"geonameid":6079468,"name":"Moulin-Tourville","admin3":"51015"},{"geonameid":6091386,"name":"Notre-Dame-de-Montauban","admin3":"35005"},{"geonameid":6091399,"name":"Notre-Dame-des-Anges","admin3":"35005"},{"geonameid":6092202,"name":"Obedjiwan","admin3":""},{"geonameid":6093590,"name":"Olscamps","admin3":"35055"},{"geonameid":6097692,"name":"Parc-Isabeau","admin3":"37067"},{"geonameid":6098332,"name":"Parent","admin3":"90012"},{"geonameid":6103975,"name":"Picardie","admin3":"37220"},{"geonameid":6104830,"name":"Pincebec","admin3":"51065"},{"geonameid":6105869,"name":"Place-Alexandre","admin3":"37067"},{"geonameid":6105879,"name":"Place-Garceau","admin3":"51075"},{"geonameid":6107130,"name":"Pointe-aux-Ormes","admin3":"37067"},{"geonameid":6113791,"name":"Proulxville","admin3":"35020"},{"geonameid":6116631,"name":"Rapide-Blanc","admin3":"90012"},{"geonameid":6118472,"name":"Red Mill","admin3":"37067"},{"geonameid":6119508,"name":"Renversy","admin3":"51060"},{"geonameid":6124481,"name":"Rivière-Matawin","admin3":"35055"},{"geonameid":6128541,"name":"Rousseau","admin3":"35005"},{"geonameid":11257133,"name":"Saint-Alexis-des-Monts","admin3":"51065"},{"geonameid":6137529,"name":"Saint-Boniface","admin3":"51085"},{"geonameid":6137855,"name":"Saint-Édouard-de-Maskinongé","admin3":"51050"},{"geonameid":6137952,"name":"Saint-Élie","admin3":"51075"},{"geonameid":6138282,"name":"Saint-Georges","admin3":"36033"},{"geonameid":6138298,"name":"Saint-Gérard-des-Laurentides","admin3":"36033"},{"geonameid":6138477,"name":"Saint-Jean-des-Piles","admin3":"36033"},{"geonameid":6138563,"name":"Saint-Joseph-de-Mékinac","admin3":"35055"},{"geonameid":6138619,"name":"Saint-Léon","admin3":"51035"},{"geonameid":6138656,"name":"Saint-Louis-de-France","admin3":"37067"},{"geonameid":6138684,"name":"Saint-Luc-de-Vincennes","admin3":"37225"},{"geonameid":6138763,"name":"Saint-Mathieu-du-Parc","admin3":"51070"},{"geonameid":6138813,"name":"Saint-Narcisse","admin3":"37240"},{"geonameid":6138859,"name":"Saint-Patrick","admin3":"37067"},{"geonameid":6138892,"name":"Saint-Paulin","admin3":"51060"},{"geonameid":6138971,"name":"Saint-Prosper-de-Champlain","admin3":"37250"},{"geonameid":6139086,"name":"Saint-Stanislas","admin3":"37245"},{"geonameid":6139135,"name":"Saint-Thomas-de-Caxton","admin3":"51090"},{"geonameid":6139154,"name":"Saint-Tite","admin3":"35027"},{"geonameid":6137719,"name":"Sainte-Angèle-de-Prémont","admin3":"51055"},{"geonameid":6137740,"name":"Sainte-Anne-de-la-Pérade","admin3":"37205"},{"geonameid":6137781,"name":"Sainte-Catherine","admin3":"37067"},{"geonameid":6137889,"name":"Sainte-Flore","admin3":"36033"},{"geonameid":6137900,"name":"Sainte-Geneviève-de-Batiscan","admin3":"37215"},{"geonameid":6138118,"name":"Sainte-Thècle","admin3":"35050"},{"geonameid":6140958,"name":"Sanford","admin3":"90027"},{"geonameid":6141018,"name":"Sanmaur","admin3":"90012"},{"geonameid":6143666,"name":"Secteur-Lambert","admin3":"37067"},{"geonameid":6143667,"name":"Secteur-Laurentien","admin3":"37067"},{"geonameid":6145489,"name":"Shawinigan","admin3":"36033"},{"geonameid":6145491,"name":"Shawinigan-Nord","admin3":"36033"},{"geonameid":6153446,"name":"Spémont","admin3":"37067"},{"geonameid":6162998,"name":"Terrasse-Duvernay","admin3":"37067"},{"geonameid":6168749,"name":"Trenche","admin3":"90012"},{"geonameid":6169140,"name":"Trois-Rives","admin3":"35055"},{"geonameid":6169141,"name":"Trois-Rivières","admin3":"37067"},{"geonameid":6173240,"name":"Val-Mauricie","admin3":"36033"},{"geonameid":6173299,"name":"Van Bruyssel","admin3":"90012"},{"geonameid":6173373,"name":"Vandry","admin3":"90012"},{"geonameid":6174183,"name":"Vide-Poche","admin3":"51020"},{"geonameid":6174282,"name":"Village-des-Caron","admin3":"51020"},{"geonameid":6174285,"name":"Village-des-Crête","admin3":"37067"},{"geonameid":6174314,"name":"Village-Sainte-Marie","admin3":"37220"},{"geonameid":6943733,"name":"Weymontachie","admin3":""},{"geonameid":6182897,"name":"Windigo","admin3":"90012"},{"geonameid":6185138,"name":"Yamachiche","admin3":"51020"}],"admin3":[{"geonameid":5974270,"name":"Hérouxville","admin3":"35035"},{"geonameid":5999042,"name":"Lac-aux-Sables","admin3":"35010"},{"geonameid":6091450,"name":"Notre-Dame-du-Mont-Carmel","admin3":"37235"},{"geonameid":6137322,"name":"Saint-Adelphe","admin3":"35015"},{"geonameid":6137361,"name":"Saint-Alexis-des-Monts","admin3":"51065"},{"geonameid":6137471,"name":"Saint-Barnabé","admin3":"51025"},{"geonameid":6137898,"name":"Sainte-Geneviève-de-Batiscan","admin3":"37215"},{"geonameid":6138149,"name":"Saint-Étienne-des-Grès","admin3":"51090"},{"geonameid":6138171,"name":"Sainte-Ursule","admin3":"51040"},{"geonameid":6138593,"name":"Saint-Justin","admin3":"51045"},{"geonameid":6138630,"name":"Saint-Léon-le-Grand","admin3":"51035"},{"geonameid":6138770,"name":"Saint-Maurice","admin3":"37230"},{"geonameid":6138811,"name":"Saint-Narcisse","admin3":"37240"},{"geonameid":6139020,"name":"Saint-Roch-de-Mékinac","admin3":"35045"},{"geonameid":6139058,"name":"Saint-Sévère","admin3":"51030"},{"geonameid":6139061,"name":"Saint-Séverin","admin3":"35020"},{"geonameid":8672563,"name":"Yamachiche","admin3":"51020"},{"geonameid":8672638,"name":"Saint-Prosper-de-Champlain","admin3":"37250"},{"geonameid":8672672,"name":"Saint-Élie-de-Caxton","admin3":"51075"},{"geonameid":8672759,"name":"Saint-Boniface","admin3":"51085"},{"geonameid":8673128,"name":"Sainte-Anne-de-la-Pérade","admin3":"37205"},{"geonameid":8673212,"name":"Saint-Édouard-de-Maskinongé","admin3":"51050"},{"geonameid":8673273,"name":"Saint-Mathieu-du-Parc","admin3":"51070"},{"geonameid":8673320,"name":"Champlain","admin3":"37220"},{"geonameid":8673420,"name":"Saint-Stanislas","admin3":"37245"},{"geonameid":8673444,"name":"Sainte-Thècle","admin3":"35050"},{"geonameid":8673460,"name":"Notre-Dame-de-Montauban","admin3":"35005"},{"geonameid":8673504,"name":"Batiscan","admin3":"37210"},{"geonameid":8673509,"name":"Saint-Luc-de-Vincennes","admin3":"37225"},{"geonameid":8673527,"name":"La Bostonnais","admin3":"90017"},{"geonameid":8673690,"name":"Grandes-Piles","admin3":"35040"},{"geonameid":8673823,"name":"Sainte-Angèle-de-Prémont","admin3":"51055"},{"geonameid":8673824,"name":"Trois-Rives","admin3":"35055"},{"geonameid":8673859,"name":"Saint-Paulin","admin3":"51060"},{"geonameid":8673864,"name":"La Tuque","admin3":"90012"},{"geonameid":8673869,"name":"Charette","admin3":"51080"},{"geonameid":8673877,"name":"Maskinongé","admin3":"51008"},{"geonameid":8674014,"name":"Saint-Tite","admin3":"35027"},{"geonameid":8674033,"name":"Louiseville","admin3":"51015"},{"geonameid":8674166,"name":"Lac-Édouard","admin3":"90027"}],"alternateNames":[]},"__N_SSG":true}