{"pageProps":{"locale":"it","admin2":{"geonameid":3182996,"name":"Valle d'Aosta","country":"IT","admin1":"19","admin2":"AO","admin3":"","latitude":"45.7666700","longitude":"7.4166700","localeAltName":"Aosta"},"admin1":{"geonameid":3164857,"name":"Regione Autonoma Valle d'Aosta","admin1":"19","localeAltName":"Valle d’Aosta"},"locations":[{"geonameid":3182997,"name":"Aosta","admin3":"007003","localeAltName":null},{"geonameid":6534904,"name":"Arnad","admin3":"007004","localeAltName":null},{"geonameid":8950335,"name":"Arpuilles","admin3":"007003","localeAltName":null},{"geonameid":3182772,"name":"Arvier","admin3":"007005","localeAltName":null},{"geonameid":6534419,"name":"Ayas","admin3":"007007","localeAltName":null},{"geonameid":3182616,"name":"Aymavilles","admin3":"007008","localeAltName":null},{"geonameid":8950135,"name":"Berriat","admin3":"007043","localeAltName":null},{"geonameid":3181545,"name":"Breuil-Cervinia","admin3":"007071","localeAltName":null},{"geonameid":6534420,"name":"Challand-Saint-Anselme","admin3":"007013","localeAltName":null},{"geonameid":6534421,"name":"Challand-Saint-Victor","admin3":"007014","localeAltName":null},{"geonameid":8950363,"name":"Chantignan","admin3":"007054","localeAltName":null},{"geonameid":3178908,"name":"Charvensod","admin3":"007019","localeAltName":null},{"geonameid":3178905,"name":"Chatillon","admin3":"007020","localeAltName":null},{"geonameid":8948884,"name":"Chef-Lieu","admin3":"007058","localeAltName":null},{"geonameid":3178483,"name":"Cogne","admin3":"007021","localeAltName":null},{"geonameid":3177872,"name":"Courmayeur","admin3":"007022","localeAltName":null},{"geonameid":6535071,"name":"Donnas","admin3":"007023","localeAltName":null},{"geonameid":8949085,"name":"Fénis","admin3":"007027","localeAltName":null},{"geonameid":3175840,"name":"Gressan","admin3":"007031","localeAltName":null},{"geonameid":6534906,"name":"Hone","admin3":"007034","localeAltName":null},{"geonameid":6534425,"name":"Introd","admin3":"007035","localeAltName":null},{"geonameid":3175403,"name":"Issogne","admin3":"007037","localeAltName":null},{"geonameid":6535074,"name":"Jovencan","admin3":"007038","localeAltName":null},{"geonameid":3169075,"name":"La Cretaz-Roisan","admin3":"007057","localeAltName":null},{"geonameid":8949410,"name":"La Place","admin3":"007037","localeAltName":null},{"geonameid":3175093,"name":"La Salle","admin3":"007040","localeAltName":null},{"geonameid":3175062,"name":"La Thuile","admin3":"007041","localeAltName":null},{"geonameid":8950096,"name":"Lassolaz","admin3":"007051","localeAltName":null},{"geonameid":8948945,"name":"Montan-Angelin-Arensod","admin3":"007066","localeAltName":null},{"geonameid":3172658,"name":"Montjovet","admin3":"007043","localeAltName":null},{"geonameid":3172600,"name":"Morgex","admin3":"007044","localeAltName":null},{"geonameid":8949912,"name":"Neyran-Etabloz","admin3":"007011","localeAltName":null},{"geonameid":6535075,"name":"Nus","admin3":"007045","localeAltName":null},{"geonameid":8949440,"name":"Paquier","admin3":"007071","localeAltName":null},{"geonameid":8949510,"name":"Plan Felinaz-Felinaz","admin3":"007019","localeAltName":null},{"geonameid":3170374,"name":"Pollein","admin3":"007049","localeAltName":null},{"geonameid":8949931,"name":"Pont Suaz-Ampaillant","admin3":"007019","localeAltName":null},{"geonameid":3170190,"name":"Pont-Saint-Martin","admin3":"007052","localeAltName":null},{"geonameid":6534708,"name":"Pontey","admin3":"007051","localeAltName":null},{"geonameid":8950182,"name":"Porossan","admin3":"007003","localeAltName":null},{"geonameid":3169712,"name":"Quart","admin3":"007054","localeAltName":null},{"geonameid":6534762,"name":"Saint Marcel","admin3":"007060","localeAltName":null},{"geonameid":8948955,"name":"Saint Maurice","admin3":"007066","localeAltName":null},{"geonameid":6534761,"name":"Saint-Christophe","admin3":"007058","localeAltName":null},{"geonameid":3168714,"name":"Saint-Pierre","admin3":"007063","localeAltName":null},{"geonameid":3168712,"name":"Saint-Vincent","admin3":"007065","localeAltName":null},{"geonameid":6534766,"name":"Valtournenche","admin3":"007071","localeAltName":null},{"geonameid":8950254,"name":"Variney Chez Roncoz","admin3":"007030","localeAltName":null},{"geonameid":3164519,"name":"Verres","admin3":"007073","localeAltName":null},{"geonameid":8949040,"name":"Villair-Amerique","admin3":"007054","localeAltName":null},{"geonameid":3164104,"name":"Villefranche","admin3":"007011","localeAltName":null}],"admin3":[{"geonameid":6535869,"name":"Pont-Saint-Martin","admin3":"007052","localeAltName":null},{"geonameid":6535870,"name":"Saint-Oyen","admin3":"007062"},{"geonameid":6535873,"name":"Gressoney-La-Trinité","admin3":"007032"},{"geonameid":6535876,"name":"Saint-Vincent","admin3":"007065","localeAltName":null},{"geonameid":6535877,"name":"Saint-Pierre","admin3":"007063","localeAltName":null},{"geonameid":6535879,"name":"Antey-Saint-André","admin3":"007002"},{"geonameid":6535880,"name":"Gressoney-Saint-Jean","admin3":"007033"},{"geonameid":6535963,"name":"Pré-Saint-Didier","admin3":"007053"},{"geonameid":6535964,"name":"Rhêmes-Notre-Dame","admin3":"007055"},{"geonameid":6535966,"name":"Saint-Rhémy-en-Bosses","admin3":"007064"},{"geonameid":6535989,"name":"Saint-Denis","admin3":"007059"},{"geonameid":6535990,"name":"Challand-Saint-Anselme","admin3":"007013","localeAltName":null},{"geonameid":6535991,"name":"Challand-Saint-Victor","admin3":"007014","localeAltName":null},{"geonameid":6535999,"name":"Rhêmes-Saint-Georges","admin3":"007056"},{"geonameid":6536001,"name":"Saint-Christophe","admin3":"007058","localeAltName":null},{"geonameid":6536002,"name":"Saint-Marcel","admin3":"007060","localeAltName":null},{"geonameid":6536003,"name":"Saint-Nicolas","admin3":"007061"},{"geonameid":6536061,"name":"Pollein","admin3":"007049","localeAltName":null},{"geonameid":6536062,"name":"Verrès","admin3":"007073","localeAltName":null},{"geonameid":6536112,"name":"Issogne","admin3":"007037","localeAltName":null},{"geonameid":6536390,"name":"Torgnon","admin3":"007067"},{"geonameid":6536456,"name":"Bionaz","admin3":"007010"},{"geonameid":6536457,"name":"Chambave","admin3":"007015"},{"geonameid":6536458,"name":"Charvensod","admin3":"007019","localeAltName":null},{"geonameid":6536459,"name":"Etroubles","admin3":"007026"},{"geonameid":6536460,"name":"Gressan","admin3":"007031","localeAltName":null},{"geonameid":6536461,"name":"Issime","admin3":"007036"},{"geonameid":6536462,"name":"Morgex","admin3":"007044","localeAltName":null},{"geonameid":6537027,"name":"Aymavilles","admin3":"007008","localeAltName":null},{"geonameid":6537028,"name":"Brusson","admin3":"007012"},{"geonameid":6537029,"name":"Champdepraz","admin3":"007017"},{"geonameid":6537030,"name":"Gaby","admin3":"007029"},{"geonameid":6537031,"name":"La Salle","admin3":"007040","localeAltName":null},{"geonameid":6537032,"name":"La Thuile","admin3":"007041","localeAltName":null},{"geonameid":6537033,"name":"Lillianes","admin3":"007042"},{"geonameid":6540141,"name":"Valpelline","admin3":"007069"},{"geonameid":6540161,"name":"Brissogne","admin3":"007011","localeAltName":null},{"geonameid":6540275,"name":"Montjovet","admin3":"007043","localeAltName":null},{"geonameid":6540316,"name":"Bard","admin3":"007009"},{"geonameid":6540317,"name":"Cogne","admin3":"007021","localeAltName":null},{"geonameid":6540318,"name":"Courmayeur","admin3":"007022","localeAltName":null},{"geonameid":6540546,"name":"Arvier","admin3":"007005","localeAltName":null},{"geonameid":6540547,"name":"Oyace","admin3":"007047"},{"geonameid":6541471,"name":"Aosta","admin3":"007003","localeAltName":null},{"geonameid":6541473,"name":"Roisan","admin3":"007057","localeAltName":null},{"geonameid":6541518,"name":"Emarèse","admin3":"007025"},{"geonameid":6542029,"name":"La Magdeleine","admin3":"007039"},{"geonameid":6542030,"name":"Quart","admin3":"007054","localeAltName":null},{"geonameid":6542138,"name":"Châtillon","admin3":"007020","localeAltName":null},{"geonameid":6542426,"name":"Verrayes","admin3":"007072"},{"geonameid":6542488,"name":"Ayas","admin3":"007007","localeAltName":null},{"geonameid":6542489,"name":"Chamois","admin3":"007016"},{"geonameid":6542490,"name":"Champorcher","admin3":"007018"},{"geonameid":6542491,"name":"Fénis","admin3":"007027","localeAltName":null},{"geonameid":6542492,"name":"Introd","admin3":"007035","localeAltName":null},{"geonameid":6542744,"name":"Pontey","admin3":"007051","localeAltName":null},{"geonameid":6542789,"name":"Sarre","admin3":"007066","localeAltName":null},{"geonameid":6542790,"name":"Valsavarenche","admin3":"007070"},{"geonameid":6542791,"name":"Valtournenche","admin3":"007071","localeAltName":null},{"geonameid":6542892,"name":"Arnad","admin3":"007004","localeAltName":null},{"geonameid":6542893,"name":"Fontainemore","admin3":"007028"},{"geonameid":6542894,"name":"Hône","admin3":"007034","localeAltName":null},{"geonameid":6543055,"name":"Allein","admin3":"007001"},{"geonameid":6543056,"name":"Avise","admin3":"007006"},{"geonameid":6543057,"name":"Donnas","admin3":"007023","localeAltName":null},{"geonameid":6543058,"name":"Doues","admin3":"007024"},{"geonameid":6543059,"name":"Gignod","admin3":"007030","localeAltName":null},{"geonameid":6543060,"name":"Jovençan","admin3":"007038","localeAltName":null},{"geonameid":6543061,"name":"Nus","admin3":"007045","localeAltName":null},{"geonameid":6543062,"name":"Ollomont","admin3":"007046"},{"geonameid":6543063,"name":"Perloz","admin3":"007048"},{"geonameid":6543064,"name":"Pontboset","admin3":"007050"},{"geonameid":6543065,"name":"Valgrisenche","admin3":"007068"},{"geonameid":6543066,"name":"Villeneuve","admin3":"007074"}],"alternateNames":[{"alternatenameId":1347334,"geonameid":3164857,"isoLanguage":"it","alternateName":"Valle d’Aosta","isPreferredName":true,"isShortName":true,"isColloquial":false,"isHistoric":false},{"alternatenameId":1352864,"geonameid":3182996,"isoLanguage":"it","alternateName":"Aosta","isPreferredName":true,"isShortName":true,"isColloquial":false,"isHistoric":false}]},"__N_SSG":true}