{"pageProps":{"locale":"de","admin2":{"geonameid":6458762,"name":"Nidwalden","country":"CH","admin1":"NW","admin2":"700","admin3":"","latitude":"46.9535500","longitude":"8.3800000"},"admin1":{"geonameid":2659471,"name":"Kanton Nidwalden","admin1":"NW"},"locations":[{"geonameid":2661585,"name":"Beckenried","admin3":"1501"},{"geonameid":2661328,"name":"Buochs","admin3":"1502"},{"geonameid":2661053,"name":"Dallenwil","admin3":"1503"},{"geonameid":2660907,"name":"Emmetten","admin3":"1504"},{"geonameid":2660892,"name":"Ennetbürgen","admin3":"1505"},{"geonameid":2660367,"name":"Hergiswil","admin3":"1507"},{"geonameid":2658504,"name":"Stans","admin3":"1509"},{"geonameid":2658502,"name":"Stansstad","admin3":"1510"},{"geonameid":2657961,"name":"Wolfenschiessen","admin3":"1511"}],"admin3":[{"geonameid":7285174,"name":"Beckenried","admin3":"1501"},{"geonameid":7285384,"name":"Buochs","admin3":"1502"},{"geonameid":7285618,"name":"Dallenwil","admin3":"1503"},{"geonameid":7285726,"name":"Emmetten","admin3":"1504"},{"geonameid":7285734,"name":"Ennetbürgen","admin3":"1505"},{"geonameid":7285735,"name":"Ennetmoos","admin3":"1506"},{"geonameid":7286067,"name":"Hergiswil (NW)","admin3":"1507"},{"geonameid":7286681,"name":"Oberdorf (NW)","admin3":"1508"},{"geonameid":7287217,"name":"Stans","admin3":"1509"},{"geonameid":7287218,"name":"Stansstad","admin3":"1510"},{"geonameid":7287603,"name":"Wolfenschiessen","admin3":"1511"}],"alternateNames":[]},"__N_SSG":true}