{"pageProps":{"locale":"ro","admin2":{"geonameid":667609,"name":"Comuna Scoarţa","country":"RO","admin1":"19","admin2":"81861","admin3":"","latitude":"45.0287200","longitude":"23.4713100"},"admin1":{"geonameid":676898,"name":"Gorj","admin1":"19"},"locations":[{"geonameid":685512,"name":"Bălticel Andrei","admin3":""},{"geonameid":684828,"name":"Bârca","admin3":""},{"geonameid":684511,"name":"Bobu","admin3":""},{"geonameid":683424,"name":"Budieni","admin3":""},{"geonameid":681842,"name":"Câmpu Mare","admin3":""},{"geonameid":682394,"name":"Cerătu","admin3":""},{"geonameid":682392,"name":"Cerătu de Copăcioasa","admin3":""},{"geonameid":681108,"name":"Colibași","admin3":""},{"geonameid":680913,"name":"Copăcioasa","admin3":""},{"geonameid":674953,"name":"Lazuri","admin3":""},{"geonameid":674749,"name":"Lintea","admin3":""},{"geonameid":672954,"name":"Mogoșani","admin3":""},{"geonameid":670618,"name":"Pișteștii din Deal","admin3":""},{"geonameid":669413,"name":"Raba","admin3":""},{"geonameid":667612,"name":"Scoarţa","admin3":""},{"geonameid":663004,"name":"Viacu Mare","admin3":""},{"geonameid":663003,"name":"Viacu Mic","admin3":""}],"admin3":[],"alternateNames":[]},"__N_SSG":true}