{"pageProps":{"locale":"ro","admin2":{"geonameid":680066,"name":"Comuna Crușeț","country":"RO","admin1":"19","admin2":"79932","admin3":"","latitude":"44.6384800","longitude":"23.6724700"},"admin1":{"geonameid":676898,"name":"Gorj","admin1":"19"},"locations":[{"geonameid":684301,"name":"Bojinu","admin3":""},{"geonameid":684024,"name":"Bou de Sus","admin3":""},{"geonameid":680067,"name":"Crușeț","admin3":""},{"geonameid":680068,"name":"Cruşeţelu","admin3":""},{"geonameid":678802,"name":"Drumu Mare","admin3":""},{"geonameid":674067,"name":"Măiag","admin3":""},{"geonameid":673778,"name":"Marinești","admin3":""},{"geonameid":673437,"name":"Mierea","admin3":""},{"geonameid":673433,"name":"Mierea Moşneni","admin3":""},{"geonameid":673561,"name":"Miericeaua","admin3":""},{"geonameid":666778,"name":"Slămnești","admin3":""},{"geonameid":666731,"name":"Slăvuța","admin3":""},{"geonameid":666573,"name":"Socoteni","admin3":""},{"geonameid":666171,"name":"Stejerelul","admin3":""},{"geonameid":664186,"name":"Urda de Jos","admin3":""},{"geonameid":663231,"name":"Văluța","admin3":""},{"geonameid":663229,"name":"Văluţa de Jos","admin3":""}],"admin3":[],"alternateNames":[]},"__N_SSG":true}