{"pageProps":{"locale":"en","admin2":{"geonameid":5790164,"name":"Clallam County","country":"US","admin1":"WA","admin2":"009","admin3":"","latitude":"48.1104400","longitude":"-123.9343200","localeAltName":null},"admin1":{"geonameid":5815135,"name":"Washington","admin1":"WA","localeAltName":"Washington"},"locations":[{"geonameid":5786925,"name":"Bell Hill","admin3":"","localeAltName":null},{"geonameid":5789180,"name":"Carlsborg","admin3":"","localeAltName":null},{"geonameid":5794761,"name":"Forks","admin3":"","localeAltName":null},{"geonameid":5804537,"name":"Neah Bay","admin3":"","localeAltName":null},{"geonameid":5807212,"name":"Port Angeles","admin3":"","localeAltName":null},{"geonameid":7262139,"name":"Port Angeles East","admin3":"","localeAltName":null},{"geonameid":5809983,"name":"Sequim","admin3":"","localeAltName":null}],"admin3":[{"geonameid":7173440,"name":"City of Forks","admin3":"7173440"},{"geonameid":7174112,"name":"City of Port Angeles","admin3":"7174112"},{"geonameid":7174418,"name":"City of Sequim","admin3":"7174418"}],"alternateNames":[{"alternatenameId":2089568,"geonameid":5815135,"isoLanguage":"en","alternateName":"Washington","isPreferredName":true,"isShortName":true,"isColloquial":false,"isHistoric":false}]},"__N_SSG":true}