{"pageProps":{"locale":"en","admin2":{"geonameid":2635028,"name":"Vale of Glamorgan","country":"GB","admin1":"WLS","admin2":"Z3","admin3":"","latitude":"51.4166700","longitude":"-3.4166700","localeAltName":"Vale of Glamorgan"},"admin1":{"geonameid":2634895,"name":"Wales","admin1":"WLS","localeAltName":"Wales"},"locations":[{"geonameid":2657785,"name":"Aberthaw","admin3":"00PD018","localeAltName":null},{"geonameid":2656235,"name":"Barry","admin3":"00PD001","localeAltName":null},{"geonameid":2655206,"name":"Bonvilston","admin3":"00PD023","localeAltName":null},{"geonameid":2655084,"name":"Boverton","admin3":"00PD012","localeAltName":null},{"geonameid":2654105,"name":"Cadoxton","admin3":"00PD001","localeAltName":null},{"geonameid":9072592,"name":"Clemenstone","admin3":"00PD027","localeAltName":null},{"geonameid":2652643,"name":"Cogan","admin3":"00PD014","localeAltName":null},{"geonameid":11071857,"name":"Colcot","admin3":"00PD001","localeAltName":null},{"geonameid":3345312,"name":"Colwinston","admin3":"00PD002","localeAltName":null},{"geonameid":2652209,"name":"Cowbridge","admin3":"00PD003","localeAltName":null},{"geonameid":2651248,"name":"Dinas Powys","admin3":"00PD004","localeAltName":null},{"geonameid":3345298,"name":"Duffryn","admin3":"00PD026","localeAltName":null},{"geonameid":2650515,"name":"East Aberthaw","admin3":"00PD018","localeAltName":null},{"geonameid":3345294,"name":"Eglwys-Brewis","admin3":"00PD019","localeAltName":null},{"geonameid":2649821,"name":"Ewenny","admin3":"00PD005","localeAltName":null},{"geonameid":2649311,"name":"Flemingston","admin3":"00PD019","localeAltName":null},{"geonameid":11071855,"name":"Gibbons Down","admin3":"00PD001","localeAltName":null},{"geonameid":2648671,"name":"Gileston","admin3":"00PD019","localeAltName":null},{"geonameid":6619381,"name":"Hensol","admin3":"00PD015","localeAltName":null},{"geonameid":2644801,"name":"Lavernock","admin3":"00PD024","localeAltName":null},{"geonameid":2644712,"name":"Leckwith","admin3":"00PD013","localeAltName":null},{"geonameid":2644163,"name":"Llancarfan","admin3":"00PD006","localeAltName":null},{"geonameid":2644128,"name":"Llandough","admin3":"00PD009","localeAltName":null},{"geonameid":2644126,"name":"Llandow","admin3":"00PD008","localeAltName":null},{"geonameid":2644044,"name":"Llangan","admin3":"00PD010","localeAltName":null},{"geonameid":3345292,"name":"Llanmaes","admin3":"00PD011","localeAltName":null},{"geonameid":2643933,"name":"Llantwit Major","admin3":"00PD012","localeAltName":null},{"geonameid":2643865,"name":"Llysworney","admin3":"00PD008","localeAltName":null},{"geonameid":2643063,"name":"Marcross","admin3":"00PD021","localeAltName":null},{"geonameid":11071856,"name":"Merthyr Dyfan","admin3":"00PD001","localeAltName":null},{"geonameid":2642332,"name":"Monknash","admin3":"00PD021","localeAltName":null},{"geonameid":3345290,"name":"Ogmore","admin3":"00PD020","localeAltName":null},{"geonameid":3345313,"name":"Ogmore-by-Sea","admin3":"00PD020","localeAltName":null},{"geonameid":11071854,"name":"Palmerstown","admin3":"00PD001","localeAltName":null},{"geonameid":2640659,"name":"Pancross","admin3":"00PD006","localeAltName":null},{"geonameid":2640496,"name":"Penarth","admin3":"00PD014","localeAltName":null},{"geonameid":2640455,"name":"Penllyn","admin3":"00PD016","localeAltName":null},{"geonameid":2640450,"name":"Penmark","admin3":"00PD018","localeAltName":null},{"geonameid":2640343,"name":"Peterston-super-Ely","admin3":"00PD017","localeAltName":null},{"geonameid":2640047,"name":"Porthkerry","admin3":"00PD018","localeAltName":null},{"geonameid":2639444,"name":"Rhoose","admin3":"00PD018","localeAltName":null},{"geonameid":2638862,"name":"Saint Andrews Major","admin3":"00PD004","localeAltName":null},{"geonameid":2638841,"name":"Saint Brides Major","admin3":"00PD020","localeAltName":null},{"geonameid":2638811,"name":"Saint Donats","admin3":"00PD021","localeAltName":null},{"geonameid":3345297,"name":"Saint Hilary","admin3":"00PD009","localeAltName":null},{"geonameid":2638753,"name":"Saint Lythans","admin3":"00PD026","localeAltName":null},{"geonameid":3345293,"name":"Saint Mary Church","admin3":"00PD009","localeAltName":null},{"geonameid":2638716,"name":"Saint Nicholas","admin3":"00PD023","localeAltName":null},{"geonameid":2637431,"name":"Southerndown","admin3":"00PD020","localeAltName":null},{"geonameid":2638854,"name":"St Athan","admin3":"00PD019","localeAltName":null},{"geonameid":2636545,"name":"Sully","admin3":"00PD024","localeAltName":null},{"geonameid":3345311,"name":"Treoes","admin3":"00PD010","localeAltName":null},{"geonameid":2634525,"name":"Wenvoe","admin3":"00PD026","localeAltName":null},{"geonameid":2634518,"name":"West Aberthaw","admin3":"00PD019","localeAltName":null},{"geonameid":2633985,"name":"Wick","admin3":"00PD027","localeAltName":null},{"geonameid":2633331,"name":"Ystradowen","admin3":"00PD016","localeAltName":null}],"admin3":[{"geonameid":7292025,"name":"Welsh St. Donats","admin3":"00PD025"},{"geonameid":7292860,"name":"Colwinston","admin3":"00PD002","localeAltName":null},{"geonameid":7292861,"name":"Llangan","admin3":"00PD010","localeAltName":null},{"geonameid":7292862,"name":"Pendoylan","admin3":"00PD015","localeAltName":null},{"geonameid":7292863,"name":"Rhoose","admin3":"00PD018","localeAltName":null},{"geonameid":7292864,"name":"St. Georges-super-Ely","admin3":"00PD022"},{"geonameid":7294201,"name":"St. Nicholas and Bonvilston","admin3":"00PD023","localeAltName":null},{"geonameid":7294202,"name":"Sully","admin3":"00PD024","localeAltName":null},{"geonameid":7296357,"name":"Wick","admin3":"00PD027","localeAltName":null},{"geonameid":7297810,"name":"Ewenny","admin3":"00PD005","localeAltName":null},{"geonameid":7297811,"name":"Llancarfan","admin3":"00PD006","localeAltName":null},{"geonameid":7297812,"name":"Llandow","admin3":"00PD008","localeAltName":null},{"geonameid":7297918,"name":"Llan-Maes","admin3":"00PD011","localeAltName":null},{"geonameid":7298038,"name":"Wenvoe","admin3":"00PD026","localeAltName":null},{"geonameid":7299766,"name":"Llandough","admin3":"00PD007"},{"geonameid":7299767,"name":"Michaelston","admin3":"00PD013","localeAltName":null},{"geonameid":7299768,"name":"Penllyn","admin3":"00PD016","localeAltName":null},{"geonameid":7299769,"name":"St. Donats","admin3":"00PD021","localeAltName":null},{"geonameid":7300565,"name":"Barry","admin3":"00PD001","localeAltName":null},{"geonameid":7300566,"name":"Cowbridge with Llanblethian","admin3":"00PD003","localeAltName":null},{"geonameid":7300616,"name":"Dinas Powys","admin3":"00PD004","localeAltName":null},{"geonameid":7300617,"name":"St. Athan","admin3":"00PD019","localeAltName":null},{"geonameid":7301706,"name":"Llanfair","admin3":"00PD009","localeAltName":null},{"geonameid":7301707,"name":"Llantwit Major","admin3":"00PD012","localeAltName":null},{"geonameid":7301708,"name":"Penarth","admin3":"00PD014","localeAltName":null},{"geonameid":7301709,"name":"Peterston-super-Ely","admin3":"00PD017","localeAltName":null},{"geonameid":7301710,"name":"St. Bride's Major","admin3":"00PD020","localeAltName":null}],"alternateNames":[{"alternatenameId":1626654,"geonameid":2634895,"isoLanguage":"en","alternateName":"Wales","isPreferredName":true,"isShortName":true,"isColloquial":false,"isHistoric":false},{"alternatenameId":2254236,"geonameid":2635028,"isoLanguage":"en","alternateName":"Vale of Glamorgan","isPreferredName":true,"isShortName":true,"isColloquial":false,"isHistoric":false}]},"__N_SSG":true}