{"pageProps":{"locale":"en","admin2":{"geonameid":3333158,"name":"Kent","country":"GB","admin1":"ENG","admin2":"G5","admin3":"","latitude":"51.1666700","longitude":"0.6666700"},"admin1":{"geonameid":6269131,"name":"England","admin1":"ENG"},"locations":[{"geonameid":2657679,"name":"Addington"},{"geonameid":11592713,"name":"Adisham"},{"geonameid":2657531,"name":"Aldington"},{"geonameid":2657500,"name":"Alkham"},{"geonameid":2657473,"name":"Allington"},{"geonameid":11593083,"name":"Appledore"},{"geonameid":11073402,"name":"Arpinge"},{"geonameid":6695249,"name":"Ash"},{"geonameid":2656986,"name":"Ash"},{"geonameid":2656955,"name":"Ashford"},{"geonameid":10109471,"name":"Ashurst"},{"geonameid":2656716,"name":"Aylesford"},{"geonameid":7115300,"name":"Aylesham"},{"geonameid":2656646,"name":"Badlesmere"},{"geonameid":2656375,"name":"Bapchild"},{"geonameid":2656344,"name":"Barfreston"},{"geonameid":6620354,"name":"Barham"},{"geonameid":11073401,"name":"Beachborough"},{"geonameid":11592819,"name":"Bean"},{"geonameid":2656085,"name":"Bearsted"},{"geonameid":2655993,"name":"Bekesbourne"},{"geonameid":3209902,"name":"Beltinge"},{"geonameid":2655904,"name":"Benenden"},{"geonameid":2655805,"name":"Bethersden"},{"geonameid":2655716,"name":"Bicknor"},{"geonameid":2655714,"name":"Bidborough"},{"geonameid":2655713,"name":"Biddenden"},{"geonameid":2655656,"name":"Bilsington"},{"geonameid":2655627,"name":"Birchington-on-Sea"},{"geonameid":2655607,"name":"Birling"},{"geonameid":7284170,"name":"Bishopsbourne"},{"geonameid":3209901,"name":"Bishopstone"},{"geonameid":2655365,"name":"Blean"},{"geonameid":2655297,"name":"Bobbing"},{"geonameid":2655193,"name":"Borden"},{"geonameid":2655172,"name":"Borough Green"},{"geonameid":2655116,"name":"Boughton Aluph"},{"geonameid":2655115,"name":"Boughton Malherbe"},{"geonameid":2655114,"name":"Boughton Monchelsea"},{"geonameid":2655111,"name":"Boughton Street"},{"geonameid":2655040,"name":"Boxley"},{"geonameid":2655021,"name":"Brabourne"},{"geonameid":2654871,"name":"Brasted"},{"geonameid":2654809,"name":"Bredgar"},{"geonameid":2654808,"name":"Bredhurst"},{"geonameid":2654794,"name":"Brenchley"},{"geonameid":2654781,"name":"Brenzett"},{"geonameid":2654760,"name":"Bridge"},{"geonameid":2654635,"name":"Broadstairs"},{"geonameid":2654585,"name":"Brompton"},{"geonameid":2654569,"name":"Brook"},{"geonameid":2654564,"name":"Brookland"},{"geonameid":2654592,"name":"Broomfield"},{"geonameid":3209904,"name":"Broomfield"},{"geonameid":2654293,"name":"Burham"},{"geonameid":2654283,"name":"Burmarsh"},{"geonameid":2653877,"name":"Canterbury"},{"geonameid":10376294,"name":"Capel le Ferne"},{"geonameid":11593129,"name":"Challock"},{"geonameid":2653342,"name":"Charing"},{"geonameid":11593130,"name":"Chart Sutton"},{"geonameid":2653310,"name":"Chartham"},{"geonameid":2653305,"name":"Chatham"},{"geonameid":2653216,"name":"Chestfield"},{"geonameid":2653204,"name":"Chevening"},{"geonameid":2653181,"name":"Chiddingstone"},{"geonameid":2653167,"name":"Chilham"},{"geonameid":2653164,"name":"Chillenden"},{"geonameid":10246622,"name":"Chipstead, Kent"},{"geonameid":2653122,"name":"Chislet"},{"geonameid":10376303,"name":"Church Hougham"},{"geonameid":8224219,"name":"Cliffsend"},{"geonameid":3209887,"name":"Cliftonville"},{"geonameid":2652688,"name":"Cobham"},{"geonameid":2652604,"name":"Coldred"},{"geonameid":2652208,"name":"Cowden"},{"geonameid":11592732,"name":"Coxheath"},{"geonameid":2652088,"name":"Cranbrook"},{"geonameid":2651959,"name":"Crockham Hill"},{"geonameid":10104873,"name":"Crockhurst Street"},{"geonameid":2651799,"name":"Crundale"},{"geonameid":6690814,"name":"Culverstone Green"},{"geonameid":2651522,"name":"Darenth"},{"geonameid":2651500,"name":"Dartford"},{"geonameid":2651468,"name":"Deal"},{"geonameid":6619433,"name":"Densole"},{"geonameid":2651360,"name":"Denton"},{"geonameid":2651303,"name":"Detling"},{"geonameid":2651182,"name":"Doddington"},{"geonameid":2651048,"name":"Dover"},{"geonameid":9612894,"name":"Dungeness"},{"geonameid":2650712,"name":"Dunkirk"},{"geonameid":10246627,"name":"Dunton Green"},{"geonameid":2650589,"name":"Dymchurch"},{"geonameid":2650503,"name":"East Barming"},{"geonameid":2650447,"name":"East Farleigh"},{"geonameid":2650381,"name":"East Malling"},{"geonameid":2650357,"name":"East Peckham"},{"geonameid":2650331,"name":"East Stourmouth"},{"geonameid":2650482,"name":"Eastchurch"},{"geonameid":2650394,"name":"Eastling"},{"geonameid":2650341,"name":"Eastry"},{"geonameid":6640312,"name":"Ebbsfleet"},{"geonameid":11748127,"name":"Eddington"},{"geonameid":2650246,"name":"Edenbridge"},{"geonameid":2650194,"name":"Egerton"},{"geonameid":2650120,"name":"Elham"},{"geonameid":2650075,"name":"Elmley"},{"geonameid":2650070,"name":"Elmsted"},{"geonameid":2650069,"name":"Elmstone"},{"geonameid":2650030,"name":"Elvington"},{"geonameid":2649775,"name":"Eynsford"},{"geonameid":2649770,"name":"Eythorne"},{"geonameid":2649656,"name":"Farningham"},{"geonameid":2649622,"name":"Faversham"},{"geonameid":6693233,"name":"Fawkham"},{"geonameid":6693234,"name":"Fawkham Green"},{"geonameid":10104871,"name":"Five Oak Green"},{"geonameid":2649258,"name":"Folkestone"},{"geonameid":2649238,"name":"Ford"},{"geonameid":2649225,"name":"Fordwich"},{"geonameid":6690819,"name":"Four Elms"},{"geonameid":7302139,"name":"Fremlin Walk"},{"geonameid":2649037,"name":"Frittenden"},{"geonameid":11073400,"name":"Frogholt"},{"geonameid":10376012,"name":"Gads Hill Farm"},{"geonameid":2648870,"name":"Garlinge"},{"geonameid":2648657,"name":"Gillingham"},{"geonameid":2648368,"name":"Godmersham"},{"geonameid":10345362,"name":"Gold Street"},{"geonameid":2648328,"name":"Goodnestone"},{"geonameid":2648329,"name":"Goodnestone"},{"geonameid":2648263,"name":"Goudhurst"},{"geonameid":2648193,"name":"Graveney"},{"geonameid":2648187,"name":"Gravesend"},{"geonameid":2648138,"name":"Great Chart"},{"geonameid":2648054,"name":"Great Mongeham"},{"geonameid":8063679,"name":"Great Stonar"},{"geonameid":11071709,"name":"Greatstone"},{"geonameid":3209928,"name":"Greenhill"},{"geonameid":2647962,"name":"Greenhithe"},{"geonameid":2647835,"name":"Grove Ferry"},{"geonameid":2647699,"name":"Hackington"},{"geonameid":2647675,"name":"Hadlow"},{"geonameid":2647605,"name":"Halstead"},{"geonameid":2647541,"name":"Hamstreet"},{"geonameid":2647509,"name":"Harbledown"},{"geonameid":2647504,"name":"Harbrough"},{"geonameid":2647437,"name":"Harrietsham"},{"geonameid":2647398,"name":"Hartley"},{"geonameid":11592725,"name":"Hartlip"},{"geonameid":2647357,"name":"Hastingleigh"},{"geonameid":2647291,"name":"Hawkhurst"},{"geonameid":2647289,"name":"Hawkinge"},{"geonameid":11593294,"name":"Hawley"},{"geonameid":10377851,"name":"Hazel Street"},{"geonameid":2647240,"name":"Headcorn"},{"geonameid":2647058,"name":"Herne"},{"geonameid":2647057,"name":"Herne Bay"},{"geonameid":2647056,"name":"Hernhill"},{"geonameid":8604497,"name":"Hersden"},{"geonameid":2647015,"name":"Hever"},{"geonameid":2646954,"name":"High Halden"},{"geonameid":2646988,"name":"Higham"},{"geonameid":11551084,"name":"Higham Wood"},{"geonameid":2646959,"name":"Highgate"},{"geonameid":11593303,"name":"Highsted"},{"geonameid":2646906,"name":"Hildenborough"},{"geonameid":2646841,"name":"Hinxhill"},{"geonameid":2646822,"name":"Hoath"},{"geonameid":2646779,"name":"Holborough"},{"geonameid":2646748,"name":"Hollingbourne"},{"geonameid":10375993,"name":"Hook Green"},{"geonameid":10377313,"name":"Hook Green"},{"geonameid":2646552,"name":"Horsmonden"},{"geonameid":2646543,"name":"Horton Kirby"},{"geonameid":2646536,"name":"Hothfield"},{"geonameid":2646534,"name":"Hougham"},{"geonameid":2646381,"name":"Hunton"},{"geonameid":2646316,"name":"Hythe"},{"geonameid":2646295,"name":"Ide Hill"},{"geonameid":11593312,"name":"Ightham"},{"geonameid":2645987,"name":"Ivychurch"},{"geonameid":2645986,"name":"Iwade"},{"geonameid":2645910,"name":"Kearsney"},{"geonameid":2645830,"name":"Kemsing"},{"geonameid":2645804,"name":"Kennington"},{"geonameid":2645730,"name":"Key Street"},{"geonameid":10104068,"name":"Kilndown"},{"geonameid":6690167,"name":"Kings Hill"},{"geonameid":2645470,"name":"Kingsdown"},{"geonameid":2645471,"name":"Kingsdown"},{"geonameid":2645467,"name":"Kingsgate"},{"geonameid":2645452,"name":"Kingsnorth"},{"geonameid":2645435,"name":"Kingston"},{"geonameid":2645344,"name":"Kippings Cross"},{"geonameid":2645118,"name":"Knockholt"},{"geonameid":2645106,"name":"Knole"},{"geonameid":2645098,"name":"Knowlton"},{"geonameid":2645005,"name":"Lamberhurst"},{"geonameid":10103858,"name":"Lamberhurst Quarter"},{"geonameid":2644924,"name":"Langley"},{"geonameid":10109472,"name":"Langton Green"},{"geonameid":6693668,"name":"Larkfield"},{"geonameid":2644722,"name":"Leaveland"},{"geonameid":2644689,"name":"Leeds"},{"geonameid":2644665,"name":"Leigh"},{"geonameid":2644624,"name":"Lenham"},{"geonameid":2644544,"name":"Leysdown-on-Sea"},{"geonameid":2644436,"name":"Linton"},{"geonameid":2644352,"name":"Little Chart"},{"geonameid":2644366,"name":"Littlebourne"},{"geonameid":2644244,"name":"Littlestone"},{"geonameid":2643696,"name":"Longfield"},{"geonameid":2643604,"name":"Loose"},{"geonameid":2643519,"name":"Lower Halstow"},{"geonameid":2643518,"name":"Lower Hardres"},{"geonameid":2643436,"name":"Luddenham"},{"geonameid":2643435,"name":"Luddesdown"},{"geonameid":2643327,"name":"Lydd"},{"geonameid":10375979,"name":"Lydd-on-Sea"},{"geonameid":2643326,"name":"Lydden"},{"geonameid":2643313,"name":"Lyminge"},{"geonameid":2643308,"name":"Lympne"},{"geonameid":2643286,"name":"Lynsted"},{"geonameid":2643179,"name":"Maidstone"},{"geonameid":2643094,"name":"Manston"},{"geonameid":10246610,"name":"Maplescombe"},{"geonameid":2643060,"name":"Marden"},{"geonameid":2643044,"name":"Margate"},{"geonameid":2642957,"name":"Martin"},{"geonameid":2642915,"name":"Matfield"},{"geonameid":11550761,"name":"Maxton"},{"geonameid":2642733,"name":"Meopham"},{"geonameid":2642728,"name":"Mereworth"},{"geonameid":2642712,"name":"Mersham"},{"geonameid":10104875,"name":"Mile Oak"},{"geonameid":2642458,"name":"Milton Regis"},{"geonameid":2642434,"name":"Minster"},{"geonameid":2642435,"name":"Minster"},{"geonameid":2642373,"name":"Molash"},{"geonameid":2642319,"name":"Monkton"},{"geonameid":2641949,"name":"Murston"},{"geonameid":2641582,"name":"New Romney"},{"geonameid":2641668,"name":"Newchurch"},{"geonameid":2641652,"name":"Newenden"},{"geonameid":11073399,"name":"Newington"},{"geonameid":2641629,"name":"Newington"},{"geonameid":2641606,"name":"Newnham"},{"geonameid":11593347,"name":"Nonington"},{"geonameid":2641415,"name":"Northbourne"},{"geonameid":2641354,"name":"Northfleet"},{"geonameid":2641208,"name":"Norton"},{"geonameid":2641114,"name":"Oare"},{"geonameid":2641069,"name":"Offham"},{"geonameid":2640996,"name":"Old Romney"},{"geonameid":2640921,"name":"Orlestone"},{"geonameid":2640871,"name":"Ospringe"},{"geonameid":2640860,"name":"Otford"},{"geonameid":2640849,"name":"Otterden"},{"geonameid":2640691,"name":"Paddlesworth"},{"geonameid":2640690,"name":"Paddock Wood"},{"geonameid":10376296,"name":"Park Farm Industrial Estate"},{"geonameid":10104877,"name":"Pearson's Green"},{"geonameid":10377809,"name":"Pedlinge"},{"geonameid":11073398,"name":"Peene"},{"geonameid":2640498,"name":"Pembury"},{"geonameid":2640409,"name":"Penshurst"},{"geonameid":2640340,"name":"Petham"},{"geonameid":2640223,"name":"Plaxtol"},{"geonameid":2640211,"name":"Pluckley"},{"geonameid":2639980,"name":"Postling"},{"geonameid":2639920,"name":"Preston"},{"geonameid":10104870,"name":"Queen Street"},{"geonameid":2639796,"name":"Queenborough"},{"geonameid":10377781,"name":"Questor"},{"geonameid":2639691,"name":"Rainham"},{"geonameid":2639660,"name":"Ramsgate"},{"geonameid":2639570,"name":"Reculver"},{"geonameid":2639391,"name":"Richborough"},{"geonameid":2639368,"name":"Ridley"},{"geonameid":2639332,"name":"Ringwould"},{"geonameid":10104069,"name":"Riseden"},{"geonameid":2639301,"name":"River"},{"geonameid":10246620,"name":"Riverhead"},{"geonameid":2639201,"name":"Rolvenden"},{"geonameid":8299618,"name":"Romney Marsh"},{"geonameid":2639022,"name":"Royal Tunbridge Wells"},{"geonameid":2638999,"name":"Ruckinge"},{"geonameid":10278190,"name":"Rusthall"},{"geonameid":2638914,"name":"Ryarsh"},{"geonameid":2638748,"name":"Saint Margaretâ€™s at Cliffe"},{"geonameid":2638723,"name":"Saint Michaels"},{"geonameid":2638714,"name":"Saint Nicholas at Wade"},{"geonameid":2638703,"name":"Saint Peters"},{"geonameid":2638588,"name":"Sandgate"},{"geonameid":2638581,"name":"Sandhurst"},{"geonameid":2638542,"name":"Sandwich"},{"geonameid":2638500,"name":"Sarre"},{"geonameid":2638316,"name":"Seabrook"},{"geonameid":2638300,"name":"Seal"},{"geonameid":2638283,"name":"Seasalter"},{"geonameid":2638223,"name":"Sellindge"},{"geonameid":2638222,"name":"Selling"},{"geonameid":2638216,"name":"Selstead"},{"geonameid":2638187,"name":"Sevenoaks"},{"geonameid":11592599,"name":"Sevenoaks Weald"},{"geonameid":2638158,"name":"Shadoxhurst"},{"geonameid":11593387,"name":"Shalmsford Street"},{"geonameid":2638081,"name":"Sheerness"},{"geonameid":2638041,"name":"Shepherdswell"},{"geonameid":2637963,"name":"Shipbourne"},{"geonameid":2637924,"name":"Sholden"},{"geonameid":2637917,"name":"Shoreham"},{"geonameid":2637914,"name":"Shorncliffe Camp"},{"geonameid":2637913,"name":"Shorne"},{"geonameid":6690813,"name":"Singlewell"},{"geonameid":2637806,"name":"Sissinghurst"},{"geonameid":2637802,"name":"Sittingbourne"},{"geonameid":2637613,"name":"Smarden"},{"geonameid":2637610,"name":"Smeeth"},{"geonameid":2637593,"name":"Snargate"},{"geonameid":2637589,"name":"Snave"},{"geonameid":2637571,"name":"Snodland"},{"geonameid":2637547,"name":"Sole Street"},{"geonameid":11593396,"name":"South Darenth"},{"geonameid":2637474,"name":"Southborough"},{"geonameid":2637421,"name":"Southfleet"},{"geonameid":2637240,"name":"Speldhurst"},{"geonameid":7290316,"name":"St Margaret's Bay"},{"geonameid":11071710,"name":"St Mary in the Marsh"},{"geonameid":6955232,"name":"St Mary's Bay"},{"geonameid":2637109,"name":"Stalisfield"},{"geonameid":2637092,"name":"Stanford"},{"geonameid":2637053,"name":"Stansted"},{"geonameid":2637029,"name":"Staple"},{"geonameid":2637016,"name":"Staplehurst"},{"geonameid":2636958,"name":"Stelling"},{"geonameid":11592794,"name":"Stelling Minnis"},{"geonameid":2636893,"name":"Stockbury"},{"geonameid":2636804,"name":"Stone"},{"geonameid":2636826,"name":"Stone"},{"geonameid":2636746,"name":"Stowting"},{"geonameid":2636619,"name":"Strood"},{"geonameid":2636582,"name":"Sturry"},{"geonameid":2636525,"name":"Sundridge"},{"geonameid":2636491,"name":"Sutton at Hone"},{"geonameid":2636467,"name":"Sutton Valence"},{"geonameid":2636453,"name":"Swalecliffe"},{"geonameid":2636439,"name":"Swanley"},{"geonameid":2636433,"name":"Swanscombe"},{"geonameid":6693625,"name":"Swingate"},{"geonameid":2636381,"name":"Swingfield"},{"geonameid":6615508,"name":"Tankerton"},{"geonameid":2636119,"name":"Temple Ewell"},{"geonameid":2636101,"name":"Tenterden"},{"geonameid":11592634,"name":"Teston"},{"geonameid":2636069,"name":"Teynham"},{"geonameid":8063682,"name":"Thanington"},{"geonameid":2636054,"name":"Thannington"},{"geonameid":10104876,"name":"The Knowle"},{"geonameid":2635818,"name":"Tilmanstone"},{"geonameid":2635703,"name":"Tonbridge"},{"geonameid":2635433,"name":"Trottiscliffe"},{"geonameid":2635396,"name":"Tudeley"},{"geonameid":10104874,"name":"Tudeley Hale"},{"geonameid":2635356,"name":"Tunstall"},{"geonameid":2635204,"name":"Ulcombe"},{"geonameid":2635161,"name":"Upchurch"},{"geonameid":2635126,"name":"Upper Hardres"},{"geonameid":8063681,"name":"Upstreet"},{"geonameid":11468538,"name":"Vigo Village"},{"geonameid":2634899,"name":"Waldershare"},{"geonameid":6692987,"name":"Walderslade"},{"geonameid":2634863,"name":"Walmer"},{"geonameid":2634845,"name":"Waltham"},{"geonameid":2634791,"name":"Warden"},{"geonameid":2634654,"name":"Warehorne"},{"geonameid":7648437,"name":"Warren Street"},{"geonameid":2634690,"name":"Wateringbury"},{"geonameid":2634639,"name":"Weald"},{"geonameid":6697556,"name":"Weavering"},{"geonameid":10376304,"name":"West Hougham"},{"geonameid":2634384,"name":"West Hythe"},{"geonameid":10246613,"name":"West Kingsdown"},{"geonameid":2634371,"name":"West Langdon"},{"geonameid":2634349,"name":"West Malling"},{"geonameid":2634295,"name":"West Peckham"},{"geonameid":2634262,"name":"West Stourmouth"},{"geonameid":6693250,"name":"Westcliffe"},{"geonameid":2634445,"name":"Westenhanger"},{"geonameid":2634434,"name":"Westerham"},{"geonameid":2634413,"name":"Westgate on Sea"},{"geonameid":10104872,"name":"Whetsted"},{"geonameid":2634049,"name":"Whitfield"},{"geonameid":2634021,"name":"Whitstable"},{"geonameid":2633988,"name":"Wichling"},{"geonameid":2633908,"name":"Willesborough"},{"geonameid":9409562,"name":"Willesborough Lees"},{"geonameid":2633885,"name":"Wilmington"},{"geonameid":2633821,"name":"Wingham"},{"geonameid":2633726,"name":"Wittersham"},{"geonameid":2633680,"name":"Womenswold"},{"geonameid":2633666,"name":"Woodchurch"},{"geonameid":2633577,"name":"Wootton"},{"geonameid":2633533,"name":"Wormshill"},{"geonameid":2633525,"name":"Worth"},{"geonameid":2633508,"name":"Wouldham"},{"geonameid":2633478,"name":"Wrotham"},{"geonameid":2633460,"name":"Wye"},{"geonameid":2633424,"name":"Yalding"}],"admin3":[{"geonameid":2636057,"name":"Thanet District","admin3":"2636057"},{"geonameid":2643149,"name":"Borough of Tonbridge and Malling","admin3":"2643149"},{"geonameid":2648186,"name":"Borough of Gravesham","admin3":"29UG"},{"geonameid":2651049,"name":"Dover District","admin3":"29UE"},{"geonameid":6945806,"name":"Shepway District","admin3":"6945806"},{"geonameid":6945807,"name":"City of Canterbury","admin3":"6945807"},{"geonameid":6945809,"name":"Borough of Ashford","admin3":"6945809"},{"geonameid":6945810,"name":"Borough of Swale","admin3":"6945810"},{"geonameid":6945811,"name":"Borough of Tunbridge Wells","admin3":"6945811"},{"geonameid":6945812,"name":"Borough of Maidstone","admin3":"6945812"},{"geonameid":6945813,"name":"Borough of Dartford","admin3":"6945813"},{"geonameid":6945814,"name":"Sevenoaks District","admin3":"6945814"},{"geonameid":7290570,"name":"Ashford District","admin3":"29UB"},{"geonameid":7290571,"name":"Dartford District","admin3":"29UD"},{"geonameid":7290572,"name":"Maidstone District","admin3":"29UH"},{"geonameid":7290573,"name":"Swale District","admin3":"29UM"},{"geonameid":7290574,"name":"Tonbridge and Malling District","admin3":"29UP"},{"geonameid":7290575,"name":"Tunbridge Wells District","admin3":"29UQ"}],"alternateNames":[]},"__N_SSG":true}