{"pageProps":{"locale":"it","admin2":{"geonameid":3164567,"name":"Provincia Verbano-Cusio-Ossola","country":"IT","admin1":"12","admin2":"VB","admin3":"","latitude":"45.9333300","longitude":"8.5500000","localeAltName":"Verbano-Cusio-Ossola"},"admin1":{"geonameid":3170831,"name":"Piemonte","admin1":"12","localeAltName":null},"locations":[{"geonameid":3183418,"name":"Agrano","admin3":"103050","localeAltName":null},{"geonameid":6534833,"name":"Antrona Schieranco","admin3":"103001","localeAltName":null},{"geonameid":6535379,"name":"Arizzano","admin3":"103003","localeAltName":null},{"geonameid":3182262,"name":"Baveno","admin3":"103008","localeAltName":null},{"geonameid":6535727,"name":"Bee","admin3":"103009","localeAltName":null},{"geonameid":3182098,"name":"Beura","admin3":"103011","localeAltName":null},{"geonameid":8950337,"name":"Bieno","admin3":"103061","localeAltName":null},{"geonameid":6534834,"name":"Brovello-Carpugnino","admin3":"103013","localeAltName":null},{"geonameid":6534835,"name":"Calasca-Castiglione","admin3":"103014","localeAltName":null},{"geonameid":6535381,"name":"Cambiasca","admin3":"103015","localeAltName":null},{"geonameid":3180813,"name":"Cannero Riviera","admin3":"103016","localeAltName":null},{"geonameid":3180802,"name":"Cannobio","admin3":"103017","localeAltName":null},{"geonameid":3180221,"name":"Casale Corte Cerro","admin3":"103019","localeAltName":null},{"geonameid":6535558,"name":"Crevoladossola","admin3":"103025","localeAltName":null},{"geonameid":3177761,"name":"Crodo","admin3":"103026","localeAltName":null},{"geonameid":8949799,"name":"Croppo","admin3":"103068","localeAltName":null},{"geonameid":3177532,"name":"Domodossola","admin3":"103028","localeAltName":null},{"geonameid":3177469,"name":"Druogno","admin3":"103029","localeAltName":null},{"geonameid":6693886,"name":"Feriolo","admin3":"103008","localeAltName":null},{"geonameid":8714246,"name":"Fondotoce","admin3":"103072","localeAltName":null},{"geonameid":8949011,"name":"Gabbio-Cereda-Ramate","admin3":"103019","localeAltName":null},{"geonameid":3176170,"name":"Ghiffa","admin3":"103033","localeAltName":null},{"geonameid":8950396,"name":"Gonte","admin3":"103049","localeAltName":null},{"geonameid":3175864,"name":"Gravellona Toce","admin3":"103035","localeAltName":null},{"geonameid":3174366,"name":"Macugnaga","admin3":"103039","localeAltName":null},{"geonameid":3174182,"name":"Malesco","admin3":"103041","localeAltName":null},{"geonameid":3173801,"name":"Masera","admin3":"103042","localeAltName":null},{"geonameid":3173548,"name":"Mergozzo","admin3":"103044","localeAltName":null},{"geonameid":6534839,"name":"Oggebbio","admin3":"103049","localeAltName":null},{"geonameid":3172023,"name":"Omegna","admin3":"103050","localeAltName":null},{"geonameid":3171935,"name":"Ornavasso","admin3":"103051","localeAltName":null},{"geonameid":3175500,"name":"Pallanza-Intra-Suna","admin3":"103072","localeAltName":null},{"geonameid":3171590,"name":"Pallanzeno","admin3":"103052","localeAltName":null},{"geonameid":3170840,"name":"Piedimulera","admin3":"103053","localeAltName":null},{"geonameid":3170726,"name":"Pieve Vergonte","admin3":"103054","localeAltName":null},{"geonameid":8949729,"name":"Pontetto-Roldo","admin3":"103046","localeAltName":null},{"geonameid":3169859,"name":"Premosello-Chiovenda","admin3":"103057","localeAltName":null},{"geonameid":3169549,"name":"Re","admin3":"103060","localeAltName":null},{"geonameid":6534840,"name":"San Bernardino Verbano","admin3":"103061","localeAltName":null},{"geonameid":3167528,"name":"Santa Maria Maggiore","admin3":"103062","localeAltName":null},{"geonameid":3166101,"name":"Stresa","admin3":"103064","localeAltName":null},{"geonameid":6535737,"name":"Toceno","admin3":"103065","localeAltName":null},{"geonameid":6534841,"name":"Valstrona","admin3":"103069","localeAltName":null},{"geonameid":3164684,"name":"Varzo","admin3":"103071","localeAltName":null},{"geonameid":6457398,"name":"Verbania","admin3":"103072","localeAltName":null},{"geonameid":6535384,"name":"Vignone","admin3":"103074","localeAltName":null},{"geonameid":3164253,"name":"Villadossola","admin3":"103075","localeAltName":null},{"geonameid":3163992,"name":"Vogogna","admin3":"103077","localeAltName":null}],"admin3":[{"geonameid":3181941,"name":"Bognanco","admin3":"103012"},{"geonameid":6535872,"name":"Beura-Cardezza","admin3":"103011","localeAltName":null},{"geonameid":6535874,"name":"Premosello-Chiovenda","admin3":"103057","localeAltName":null},{"geonameid":6536024,"name":"Brovello-Carpugnino","admin3":"103013","localeAltName":null},{"geonameid":6536025,"name":"Calasca-Castiglione","admin3":"103014","localeAltName":null},{"geonameid":6536415,"name":"Macugnaga","admin3":"103039","localeAltName":null},{"geonameid":6536416,"name":"Vanzone con San Carlo","admin3":"103070"},{"geonameid":6538031,"name":"Baveno","admin3":"103008","localeAltName":null},{"geonameid":6538032,"name":"Belgirate","admin3":"103010"},{"geonameid":6538033,"name":"Cannero Riviera","admin3":"103016","localeAltName":null},{"geonameid":6538034,"name":"Cannobio","admin3":"103017","localeAltName":null},{"geonameid":6538035,"name":"Santa Maria Maggiore","admin3":"103062","localeAltName":null},{"geonameid":6538036,"name":"Varzo","admin3":"103071","localeAltName":null},{"geonameid":6538213,"name":"Craveggia","admin3":"103024"},{"geonameid":6538214,"name":"Druogno","admin3":"103029","localeAltName":null},{"geonameid":6538215,"name":"Ghiffa","admin3":"103033","localeAltName":null},{"geonameid":6538216,"name":"Malesco","admin3":"103041","localeAltName":null},{"geonameid":6538217,"name":"Pallanzeno","admin3":"103052","localeAltName":null},{"geonameid":6539439,"name":"Anzola d'Ossola","admin3":"103002"},{"geonameid":6539440,"name":"Baceno","admin3":"103006"},{"geonameid":6539441,"name":"Casale Corte Cerro","admin3":"103019","localeAltName":null},{"geonameid":6539442,"name":"Cesara","admin3":"103022"},{"geonameid":6539443,"name":"Crodo","admin3":"103026","localeAltName":null},{"geonameid":6539444,"name":"Domodossola","admin3":"103028","localeAltName":null},{"geonameid":6539446,"name":"Quarna Sopra","admin3":"103058"},{"geonameid":6539447,"name":"Stresa","admin3":"103064","localeAltName":null},{"geonameid":6539449,"name":"Villadossola","admin3":"103075","localeAltName":null},{"geonameid":6540087,"name":"Omegna","admin3":"103050","localeAltName":null},{"geonameid":6540088,"name":"Re","admin3":"103060","localeAltName":null},{"geonameid":6540303,"name":"Formazza","admin3":"103031"},{"geonameid":6540968,"name":"Masera","admin3":"103042","localeAltName":null},{"geonameid":6541399,"name":"Arola","admin3":"103004"},{"geonameid":6541400,"name":"Gignese","admin3":"103034"},{"geonameid":6541401,"name":"Mergozzo","admin3":"103044","localeAltName":null},{"geonameid":6541402,"name":"Miazzina","admin3":"103045"},{"geonameid":6541403,"name":"Ornavasso","admin3":"103051","localeAltName":null},{"geonameid":6541404,"name":"Piedimulera","admin3":"103053","localeAltName":null},{"geonameid":6541405,"name":"Vogogna","admin3":"103077","localeAltName":null},{"geonameid":6541808,"name":"Gravellona Toce","admin3":"103035","localeAltName":null},{"geonameid":6541809,"name":"Pieve Vergonte","admin3":"103054","localeAltName":null},{"geonameid":6541984,"name":"Premeno","admin3":"103055"},{"geonameid":6542004,"name":"Verbania","admin3":"103072","localeAltName":null},{"geonameid":6542203,"name":"Bannio Anzino","admin3":"103007"},{"geonameid":6542204,"name":"Trarego Viggiona","admin3":"103066"},{"geonameid":6542825,"name":"Antrona Schieranco","admin3":"103001","localeAltName":null},{"geonameid":6542826,"name":"Madonna del Sasso","admin3":"103040"},{"geonameid":6542827,"name":"Montescheno","admin3":"103047"},{"geonameid":6542828,"name":"Oggebbio","admin3":"103049","localeAltName":null},{"geonameid":6542829,"name":"San Bernardino Verbano","admin3":"103061","localeAltName":null},{"geonameid":6542830,"name":"Valstrona","admin3":"103069","localeAltName":null},{"geonameid":6543362,"name":"Arizzano","admin3":"103003","localeAltName":null},{"geonameid":6543363,"name":"Aurano","admin3":"103005"},{"geonameid":6543364,"name":"Cambiasca","admin3":"103015","localeAltName":null},{"geonameid":6543365,"name":"Quarna Sotto","admin3":"103059"},{"geonameid":6543367,"name":"Vignone","admin3":"103074","localeAltName":null},{"geonameid":6543368,"name":"Villette","admin3":"103076"},{"geonameid":6543539,"name":"Crevoladossola","admin3":"103025","localeAltName":null},{"geonameid":6543540,"name":"Germagno","admin3":"103032"},{"geonameid":6543541,"name":"Loreglia","admin3":"103038"},{"geonameid":6543701,"name":"Bee","admin3":"103009","localeAltName":null},{"geonameid":6543702,"name":"Caprezzo","admin3":"103018"},{"geonameid":6543703,"name":"Ceppo Morelli","admin3":"103021"},{"geonameid":6543704,"name":"Cossogno","admin3":"103023"},{"geonameid":6543705,"name":"Gurro","admin3":"103036"},{"geonameid":6543706,"name":"Intragna","admin3":"103037"},{"geonameid":6543707,"name":"Massiola","admin3":"103043"},{"geonameid":6543708,"name":"Montecrestese","admin3":"103046","localeAltName":null},{"geonameid":6543709,"name":"Nonio","admin3":"103048"},{"geonameid":6543710,"name":"Premia","admin3":"103056"},{"geonameid":6543711,"name":"Toceno","admin3":"103065","localeAltName":null},{"geonameid":6543712,"name":"Trasquera","admin3":"103067"},{"geonameid":6543713,"name":"Trontano","admin3":"103068","localeAltName":null},{"geonameid":11287691,"name":"Borgomezzavalle","admin3":"103078"},{"geonameid":12032180,"name":"Valle Cannobina","admin3":"103079"}],"alternateNames":[{"alternatenameId":2431326,"geonameid":3164567,"isoLanguage":"it","alternateName":"Verbano-Cusio-Ossola","isPreferredName":true,"isShortName":true,"isColloquial":false,"isHistoric":false}]},"__N_SSG":true}