{"pageProps":{"locale":"en","admin2":{"geonameid":5345659,"name":"El Dorado County","country":"US","admin1":"CA","admin2":"017","admin3":"","latitude":"38.7787400","longitude":"-120.5246500","localeAltName":null},"admin1":{"geonameid":5332921,"name":"California","admin1":"CA","localeAltName":"California"},"locations":[{"geonameid":5325230,"name":"Auburn Lake Trails","admin3":"","localeAltName":null},{"geonameid":5333282,"name":"Cameron Park","admin3":"","localeAltName":null},{"geonameid":5333295,"name":"Camino","admin3":"","localeAltName":null},{"geonameid":5338707,"name":"Coloma","admin3":"","localeAltName":null},{"geonameid":5284832,"name":"Cool","admin3":"","localeAltName":null},{"geonameid":5342252,"name":"Deer Park","admin3":"","localeAltName":null},{"geonameid":5343038,"name":"Diamond Springs","admin3":"","localeAltName":null},{"geonameid":5345679,"name":"El Dorado Hills","admin3":"","localeAltName":null},{"geonameid":5351983,"name":"Georgetown","admin3":"","localeAltName":null},{"geonameid":5383559,"name":"Placerville","admin3":"","localeAltName":null},{"geonameid":5384133,"name":"Pollock Pines","admin3":"","localeAltName":null},{"geonameid":5395351,"name":"Shingle Springs","admin3":"","localeAltName":null},{"geonameid":5397664,"name":"South Lake Tahoe","admin3":"","localeAltName":null}],"admin3":[{"geonameid":11788700,"name":"City of Placerville","admin3":"11788700"}],"alternateNames":[{"alternatenameId":1632217,"geonameid":5332921,"isoLanguage":"en","alternateName":"California","isPreferredName":true,"isShortName":true,"isColloquial":false,"isHistoric":false}]},"__N_SSG":true}