{"pageProps":{"locale":"en","admin1":{"geonameid":5909050,"name":"British Columbia","country":"CA","admin1":"02","latitude":"53.9998300","longitude":"-125.0032000"},"admin2":[{"geonameid":5916420,"name":"Capital Regional District","admin2":"5917"},{"geonameid":5916918,"name":"Cariboo Regional District","admin2":"5941"},{"geonameid":5919023,"name":"Central Coast Regional District","admin2":"5945"},{"geonameid":5926222,"name":"Columbia-Shuswap Regional District","admin2":"5939"},{"geonameid":8593703,"name":"Comox Valley Regional District","admin2":"5926"},{"geonameid":5931136,"name":"Cowichan Valley Regional District","admin2":"5919"},{"geonameid":5957659,"name":"Fraser Valley Regional District","admin2":"5909"},{"geonameid":5965814,"name":"Metro Vancouver Regional District","admin2":"5915"},{"geonameid":8593704,"name":"Northern Rockies Regional Municipality","admin2":"5959"},{"geonameid":6100076,"name":"Peace River Regional District","admin2":"5955"},{"geonameid":6112609,"name":"Powell River Regional District","admin2":"5927"},{"geonameid":6119125,"name":"Regional District of Alberni-Clayoquot","admin2":"5923"},{"geonameid":6119126,"name":"Regional District of Bulkley-Nechako","admin2":"5951"},{"geonameid":6119127,"name":"Regional District of Central Kootenay","admin2":"5903"},{"geonameid":6119128,"name":"Regional District of Central Okanagan","admin2":"5935"},{"geonameid":6119130,"name":"Regional District of East Kootenay","admin2":"5901"},{"geonameid":6119131,"name":"Regional District of Fraser-Fort George","admin2":"5953"},{"geonameid":6119132,"name":"Regional District of Kitimat-Stikine","admin2":"5949"},{"geonameid":6119133,"name":"Regional District of Kootenay-Boundary","admin2":"5905"},{"geonameid":6119134,"name":"Regional District of Mount Waddington","admin2":"5943"},{"geonameid":6119135,"name":"Regional District of Nanaimo","admin2":"5921"},{"geonameid":6119136,"name":"Regional District of North Okanagan","admin2":"5937"},{"geonameid":6119137,"name":"Regional District of Okanagan-Similkameen","admin2":"5907"},{"geonameid":6148773,"name":"Skeena-Queen Charlotte Regional District","admin2":"5947"},{"geonameid":6154640,"name":"Squamish-Lillooet Regional District","admin2":"5931"},{"geonameid":8593705,"name":"Stikine Region","admin2":"5957"},{"geonameid":8593707,"name":"Strathcona Regional District","admin2":"5924"},{"geonameid":6159746,"name":"Sunshine Coast Regional District","admin2":"5929"},{"geonameid":6165501,"name":"Thompson-Nicola Regional District","admin2":"5933"}],"admin3":[],"country":{"geonameid":6251999,"country":"CA","name":"Canada"},"alternateNames":[]},"__N_SSG":true}