{"pageProps":{"locale":"en","admin1":{"geonameid":6091530,"name":"Nova Scotia","country":"CA","admin1":"07","latitude":"45.0001500","longitude":"-62.9986500"},"admin2":[{"geonameid":5885415,"name":"Annapolis County","admin2":"1205"},{"geonameid":5886183,"name":"Antigonish County","admin2":"1214"},{"geonameid":5915565,"name":"Cape Breton County","admin2":"1217"},{"geonameid":5924982,"name":"Colchester","admin2":"1210"},{"geonameid":5933880,"name":"Cumberland County","admin2":"1211"},{"geonameid":5939237,"name":"Digby County","admin2":"1203"},{"geonameid":5968620,"name":"Guysborough County","admin2":"1213"},{"geonameid":5969424,"name":"Halifax Regional Municipality","admin2":"1209"},{"geonameid":5970408,"name":"Hants","admin2":"1208"},{"geonameid":5983629,"name":"Inverness County","admin2":"1215"},{"geonameid":5992377,"name":"Kings County","admin2":"1207"},{"geonameid":6062070,"name":"Lunenburg County","admin2":"1206"},{"geonameid":6104222,"name":"Pictou County","admin2":"1212"},{"geonameid":6115099,"name":"Queens County","admin2":"1204"},{"geonameid":6122075,"name":"Richmond County","admin2":"1216"},{"geonameid":6145888,"name":"Shelburne County","admin2":"1201"},{"geonameid":6174034,"name":"Victoria County","admin2":"1218"},{"geonameid":6185218,"name":"Yarmouth County","admin2":"1202"}],"admin3":[],"country":{"geonameid":6251999,"country":"CA","name":"Canada"},"alternateNames":[]},"__N_SSG":true}