{"pageProps":{"locale":"en","admin2":{"geonameid":6544280,"name":"Gemeente Reusel-De Mierden","country":"NL","admin1":"06","admin2":"1667","admin3":"","latitude":"51.3804700","longitude":"5.1579000"},"admin1":{"geonameid":2749990,"name":"Provincie Noord-Brabant","admin1":"06"},"locations":[{"geonameid":2760008,"name":"Achterste Heikant","admin3":""},{"geonameid":2758450,"name":"Braakhoek","admin3":""},{"geonameid":2757542,"name":"De Hoef","admin3":""},{"geonameid":2757537,"name":"De Hoek","admin3":""},{"geonameid":2754546,"name":"Heikant","admin3":""},{"geonameid":2753920,"name":"Holland","admin3":""},{"geonameid":2753736,"name":"Hooge Mierde","admin3":""},{"geonameid":2753447,"name":"Hulsel","admin3":""},{"geonameid":2753022,"name":"Kattenbosch","admin3":""},{"geonameid":2752821,"name":"Kippereind","admin3":""},{"geonameid":2752169,"name":"Kuilenrode","admin3":""},{"geonameid":2752028,"name":"Lage Mierde","admin3":""},{"geonameid":2751715,"name":"Lensheuvel","admin3":""},{"geonameid":2750787,"name":"Mispeleind","admin3":""},{"geonameid":2748217,"name":"Reusel","admin3":""},{"geonameid":2746043,"name":"Twisselt","admin3":""},{"geonameid":2745377,"name":"Vloeieind","admin3":""},{"geonameid":2745314,"name":"Vooreind","admin3":""},{"geonameid":2745287,"name":"Voorste Heikant","admin3":""},{"geonameid":2744889,"name":"Weijereind","admin3":""},{"geonameid":2744862,"name":"Wellenseind","admin3":""}],"admin3":[],"alternateNames":[{"alternatenameId":11907788,"geonameid":2749990,"isoLanguage":"de","alternateName":"Nordbrabant","isPreferredName":true,"isShortName":true,"isColloquial":false,"isHistoric":false}]},"__N_SSG":true}