{"pageProps":{"locale":"en","admin2":{"geonameid":2750800,"name":"Gemeente Mill en Sint Hubert","country":"NL","admin1":"06","admin2":"0815","admin3":"","latitude":"51.6871200","longitude":"5.7707700"},"admin1":{"geonameid":2749990,"name":"Provincie Noord-Brabant","admin1":"06"},"locations":[{"geonameid":6544867,"name":"Borneo","admin3":""},{"geonameid":2758201,"name":"Bruggen","admin3":""},{"geonameid":2757794,"name":"De Berg","admin3":""},{"geonameid":2757762,"name":"De Boer","admin3":""},{"geonameid":6544848,"name":"De Dellen","admin3":""},{"geonameid":2755776,"name":"De Gagel","admin3":""},{"geonameid":2757540,"name":"De Hoef","admin3":""},{"geonameid":2757301,"name":"De Maurik","admin3":""},{"geonameid":2751932,"name":"Langenboom","admin3":""},{"geonameid":2751052,"name":"Meeren","admin3":""},{"geonameid":2750802,"name":"Mill","admin3":""},{"geonameid":2750702,"name":"Molengat","admin3":""},{"geonameid":2750698,"name":"Molenheide","admin3":""},{"geonameid":2748454,"name":"Princepeel","admin3":""},{"geonameid":2747276,"name":"Sint Hubert","admin3":""},{"geonameid":2745513,"name":"Vilheide","admin3":""},{"geonameid":2744446,"name":"Wilbertoord","admin3":""},{"geonameid":2743796,"name":"Zuid Carolina","admin3":""}],"admin3":[],"alternateNames":[{"alternatenameId":11907788,"geonameid":2749990,"isoLanguage":"de","alternateName":"Nordbrabant","isPreferredName":true,"isShortName":true,"isColloquial":false,"isHistoric":false}]},"__N_SSG":true}