{"pageProps":{"locale":"en","admin2":{"geonameid":5261914,"name":"Marquette County","country":"US","admin1":"WI","admin2":"077","admin3":"","latitude":"43.8195800","longitude":"-89.3987500","localeAltName":null},"admin1":{"geonameid":5279468,"name":"Wisconsin","admin1":"WI","localeAltName":"Wisconsin"},"locations":[{"geonameid":5263366,"name":"Montello","admin3":"53875","localeAltName":null},{"geonameid":5266093,"name":"Oxford","admin3":"60875","localeAltName":null},{"geonameid":5278669,"name":"Westfield","admin3":"85575","localeAltName":null}],"admin3":[{"geonameid":5247126,"name":"Town of Buffalo","admin3":"11050"},{"geonameid":5249848,"name":"Town of Crystal Lake","admin3":"17900"},{"geonameid":5250846,"name":"Town of Douglas","admin3":"20525"},{"geonameid":5251998,"name":"Village of Endeavor","admin3":"24075"},{"geonameid":5255594,"name":"Town of Harris","admin3":"32775"},{"geonameid":5262467,"name":"Town of Mecan","admin3":"50350"},{"geonameid":5263375,"name":"Town of Montello","admin3":"53900"},{"geonameid":5263385,"name":"City of Montello","admin3":"53875","localeAltName":null},{"geonameid":5263632,"name":"Town of Moundville","admin3":"54600"},{"geonameid":5264340,"name":"Town of Neshkoro","admin3":"56150"},{"geonameid":5264341,"name":"Village of Neshkoro","admin3":"56125"},{"geonameid":5264563,"name":"Town of Newton","admin3":"57225"},{"geonameid":5266098,"name":"Town of Oxford","admin3":"60900"},{"geonameid":5266099,"name":"Village of Oxford","admin3":"60875","localeAltName":null},{"geonameid":5266124,"name":"Town of Packwaukee","admin3":"60962"},{"geonameid":5273038,"name":"Town of Shields","admin3":"73600"},{"geonameid":5274342,"name":"Town of Springfield","admin3":"75925"},{"geonameid":5278679,"name":"Town of Westfield","admin3":"85600"},{"geonameid":5278681,"name":"Village of Westfield","admin3":"85575","localeAltName":null}],"alternateNames":[{"alternatenameId":2089565,"geonameid":5279468,"isoLanguage":"en","alternateName":"Wisconsin","isPreferredName":true,"isShortName":true,"isColloquial":false,"isHistoric":false}]},"__N_SSG":true}