{"pageProps":{"locale":"en","admin2":{"geonameid":5265726,"name":"Oneida County","country":"US","admin1":"WI","admin2":"085","admin3":"","latitude":"45.7055900","longitude":"-89.5217100","localeAltName":null},"admin1":{"geonameid":5279468,"name":"Wisconsin","admin1":"WI","localeAltName":"Wisconsin"},"locations":[{"geonameid":5268720,"name":"Rhinelander","admin3":"67200","localeAltName":null},{"geonameid":5275717,"name":"Three Lakes","admin3":"79700","localeAltName":null},{"geonameid":5279667,"name":"Woodruff","admin3":"88950","localeAltName":null}],"admin3":[{"geonameid":5247966,"name":"Town of Cassian","admin3":"13025"},{"geonameid":5249723,"name":"Town of Crescent","admin3":"17625"},{"geonameid":5252053,"name":"Town of Enterprise","admin3":"24125"},{"geonameid":5255914,"name":"Town of Hazelhurst","admin3":"33575"},{"geonameid":5259283,"name":"Town of Lake Tomahawk","admin3":"41887"},{"geonameid":5260499,"name":"Town of Little Rice","admin3":"45150"},{"geonameid":5261388,"name":"Town of Lynne","admin3":"46650"},{"geonameid":5263165,"name":"Town of Minocqua","admin3":"53225"},{"geonameid":5263319,"name":"Town of Monico","admin3":"53662"},{"geonameid":5264521,"name":"Town of Newbold","admin3":"56425"},{"geonameid":5264662,"name":"Town of Nokomis","admin3":"57450"},{"geonameid":5266501,"name":"Town of Pelican","admin3":"61625"},{"geonameid":5266846,"name":"Town of Piehl","admin3":"62600"},{"geonameid":5267127,"name":"Town of Pine Lake","admin3":"62925"},{"geonameid":5268729,"name":"City of Rhinelander","admin3":"67200","localeAltName":null},{"geonameid":5272375,"name":"Town of Schoepke","admin3":"72125"},{"geonameid":5274597,"name":"Town of Stella","admin3":"76975"},{"geonameid":5274915,"name":"Town of Sugar Camp","admin3":"78075"},{"geonameid":5275723,"name":"Town of Three Lakes","admin3":"79700","localeAltName":null},{"geonameid":5279597,"name":"Town of Woodboro","admin3":"88625"},{"geonameid":5279671,"name":"Town of Woodruff","admin3":"88950","localeAltName":null}],"alternateNames":[{"alternatenameId":2089565,"geonameid":5279468,"isoLanguage":"en","alternateName":"Wisconsin","isPreferredName":true,"isShortName":true,"isColloquial":false,"isHistoric":false}]},"__N_SSG":true}