{"pageProps":{"locale":"en","admin2":{"geonameid":3333186,"name":"Redcar and Cleveland","country":"GB","admin1":"ENG","admin2":"K9","admin3":"","latitude":"54.5500000","longitude":"-1.0000000"},"admin1":{"geonameid":6269131,"name":"England","admin1":"ENG"},"locations":[{"geonameid":2655202,"name":"Boosbeck"},{"geonameid":12122709,"name":"Boulby"},{"geonameid":2654533,"name":"Brotton"},{"geonameid":7644888,"name":"Carlin How"},{"geonameid":6640029,"name":"Easington"},{"geonameid":2649886,"name":"Eston"},{"geonameid":2648212,"name":"Grangetown"},{"geonameid":2647785,"name":"Guisborough"},{"geonameid":2646923,"name":"High Throston"},{"geonameid":2645255,"name":"Kirkleatham"},{"geonameid":2645075,"name":"Lackenby"},{"geonameid":6284664,"name":"Lazenby"},{"geonameid":2644457,"name":"Lingdale"},{"geonameid":2644206,"name":"Liverton"},{"geonameid":2643773,"name":"Loftus"},{"geonameid":2643470,"name":"Low Throston"},{"geonameid":2642974,"name":"Marske-by-the-Sea"},{"geonameid":2642276,"name":"Moorsholm"},{"geonameid":6695793,"name":"New Marske"},{"geonameid":2640913,"name":"Ormesby"},{"geonameid":2639563,"name":"Redcar"},{"geonameid":2638650,"name":"Saltburn-by-the-Sea"},{"geonameid":2637746,"name":"Skelton"},{"geonameid":2637710,"name":"Skinningrove"},{"geonameid":2637483,"name":"South Bank"},{"geonameid":2635153,"name":"Upleatham"},{"geonameid":2634744,"name":"Warrenby"},{"geonameid":2633872,"name":"Wilton"},{"geonameid":2633393,"name":"Yearby"}],"admin3":[{"geonameid":7291323,"name":"Guisborough","admin3":"00EE001"},{"geonameid":7291324,"name":"Lockwood","admin3":"00EE002"},{"geonameid":7292204,"name":"Loftus","admin3":"00EE003"},{"geonameid":7292205,"name":"Saltburn, Marske and New Marske","admin3":"00EE004"},{"geonameid":7297060,"name":"Skelton and Brotton","admin3":"00EE005"}],"alternateNames":[]},"__N_SSG":true}