{"pageProps":{"locale":"ro","admin2":{"geonameid":679753,"name":"Comuna Dăneşti","country":"RO","admin1":"19","admin2":"80123","admin3":"","latitude":"44.9673500","longitude":"23.3439000"},"admin1":{"geonameid":676898,"name":"Gorj","admin1":"19"},"locations":[{"geonameid":686102,"name":"Arţaru","admin3":""},{"geonameid":685317,"name":"Barza","admin3":""},{"geonameid":684043,"name":"Botorogi","admin3":""},{"geonameid":683786,"name":"Brătuia","admin3":""},{"geonameid":683787,"name":"Brătuia","admin3":""},{"geonameid":683510,"name":"Bucureasa","admin3":""},{"geonameid":679760,"name":"Dăneşti","admin3":""},{"geonameid":674956,"name":"Lazu","admin3":""},{"geonameid":673567,"name":"Merfulești","admin3":""},{"geonameid":667940,"name":"Șasa","admin3":""},{"geonameid":665031,"name":"Țârculești","admin3":""},{"geonameid":664596,"name":"Trocani","admin3":""},{"geonameid":664238,"name":"Ungureni","admin3":""},{"geonameid":664081,"name":"Urzica","admin3":""},{"geonameid":664062,"name":"Uşurei","admin3":""},{"geonameid":664048,"name":"Văcarea","admin3":""}],"admin3":[],"alternateNames":[]},"__N_SSG":true}