{"pageProps":{"locale":"de","admin2":{"geonameid":2955470,"name":"Regierungsbezirk Arnsberg","country":"DE","admin1":"07","admin2":"059","admin3":"","latitude":"51.3296700","longitude":"8.0071000","localeAltName":null},"admin1":{"geonameid":2861876,"name":"Nordrhein-Westfalen","admin1":"07","localeAltName":"Nordrhein-Westfalen"},"locations":[{"geonameid":2957886,"name":"Altena","admin3":"05962","localeAltName":null},{"geonameid":2957798,"name":"Altenbüren","admin3":"05958","localeAltName":null},{"geonameid":2955940,"name":"Anröchte","admin3":"05974","localeAltName":null},{"geonameid":2955471,"name":"Arnsberg","admin3":"05958","localeAltName":null},{"geonameid":2954932,"name":"Attendorn","admin3":"05966","localeAltName":null},{"geonameid":2953545,"name":"Bad Berleburg","admin3":"05970","localeAltName":null},{"geonameid":2925240,"name":"Bad Fredeburg","admin3":"05958","localeAltName":null},{"geonameid":2882091,"name":"Bad Laasphe","admin3":"05970","localeAltName":null},{"geonameid":2953355,"name":"Bad Sassendorf","admin3":"05974","localeAltName":null},{"geonameid":2953003,"name":"Balve","admin3":"05962","localeAltName":null},{"geonameid":2952981,"name":"Bamenohl","admin3":"05966","localeAltName":null},{"geonameid":2950344,"name":"Bergkamen","admin3":"05978","localeAltName":null},{"geonameid":2949773,"name":"Bestwig","admin3":"05958","localeAltName":null},{"geonameid":2947416,"name":"Bochum","admin3":"05911","localeAltName":null},{"geonameid":6941055,"name":"Bochum-Hordel","admin3":"05911","localeAltName":null},{"geonameid":2946478,"name":"Bönen","admin3":"05978","localeAltName":null},{"geonameid":2944955,"name":"Breckerfeld","admin3":"05954","localeAltName":null},{"geonameid":2944079,"name":"Brilon","admin3":"05958","localeAltName":null},{"geonameid":2941595,"name":"Burbach","admin3":"05970","localeAltName":null},{"geonameid":2935517,"name":"Dortmund","admin3":"05913","localeAltName":null},{"geonameid":2934886,"name":"Drolshagen","admin3":"05966","localeAltName":null},{"geonameid":2930043,"name":"Ennepetal","admin3":"05954","localeAltName":null},{"geonameid":2929370,"name":"Erndtebrück","admin3":"05970","localeAltName":null},{"geonameid":2929247,"name":"Erwitte","admin3":"05974","localeAltName":null},{"geonameid":2928890,"name":"Eslohe","admin3":"05958","localeAltName":null},{"geonameid":2926716,"name":"Finnentrop","admin3":"05966","localeAltName":null},{"geonameid":2924915,"name":"Freudenberg","admin3":"05970","localeAltName":null},{"geonameid":2924206,"name":"Fröndenberg","admin3":"05978","localeAltName":null},{"geonameid":2920834,"name":"Geseke","admin3":"05974","localeAltName":null},{"geonameid":2920757,"name":"Gevelsberg","admin3":"05954","localeAltName":null},{"geonameid":2912621,"name":"Hagen","admin3":"05914","localeAltName":null},{"geonameid":2911514,"name":"Hallenberg","admin3":"05958","localeAltName":null},{"geonameid":2911384,"name":"Halver","admin3":"05962","localeAltName":null},{"geonameid":2911240,"name":"Hamm","admin3":"05915","localeAltName":null},{"geonameid":2909230,"name":"Hattingen","admin3":"05954","localeAltName":null},{"geonameid":2906595,"name":"Hemer","admin3":"05962","localeAltName":null},{"geonameid":2906152,"name":"Herdecke","admin3":"05954","localeAltName":null},{"geonameid":2905891,"name":"Herne","admin3":"05916","localeAltName":null},{"geonameid":2905587,"name":"Herscheid","admin3":"05962","localeAltName":null},{"geonameid":2904808,"name":"Hilchenbach","admin3":"05970","localeAltName":null},{"geonameid":2899538,"name":"Holzwickede","admin3":"05978","localeAltName":null},{"geonameid":2899069,"name":"Hordel","admin3":"05911","localeAltName":null},{"geonameid":2895669,"name":"Iserlohn","admin3":"05962","localeAltName":null},{"geonameid":2893438,"name":"Kamen","admin3":"05978","localeAltName":null},{"geonameid":2891014,"name":"Kierspe","admin3":"05962","localeAltName":null},{"geonameid":2890442,"name":"Kirchhundem","admin3":"05966","localeAltName":null},{"geonameid":2884050,"name":"Kreuztal","admin3":"05970","localeAltName":null},{"geonameid":2880489,"name":"Lanstrop","admin3":"05913","localeAltName":null},{"geonameid":2878784,"name":"Lennestadt","admin3":"05966","localeAltName":null},{"geonameid":2876865,"name":"Lippstadt","admin3":"05974","localeAltName":null},{"geonameid":2875457,"name":"Lüdenscheid","admin3":"05962","localeAltName":null},{"geonameid":2875107,"name":"Lünen","admin3":"05978","localeAltName":null},{"geonameid":2873211,"name":"Marsberg","admin3":"05958","localeAltName":null},{"geonameid":2872557,"name":"Medebach","admin3":"05958","localeAltName":null},{"geonameid":2872237,"name":"Meinerzhagen","admin3":"05962","localeAltName":null},{"geonameid":2871983,"name":"Menden","admin3":"05962","localeAltName":null},{"geonameid":2871668,"name":"Meschede","admin3":"05958","localeAltName":null},{"geonameid":3207377,"name":"Möhnesee","admin3":"05974","localeAltName":null},{"geonameid":2867252,"name":"Nachrodt-Wiblingwerde","admin3":"05962","localeAltName":null},{"geonameid":2866375,"name":"Netphen","admin3":"05970","localeAltName":null},{"geonameid":2865592,"name":"Neuenrade","admin3":"05962","localeAltName":null},{"geonameid":2864425,"name":"Neunkirchen","admin3":"05970","localeAltName":null},{"geonameid":2857306,"name":"Olpe","admin3":"05966","localeAltName":null},{"geonameid":2857291,"name":"Olsberg","admin3":"05958","localeAltName":null},{"geonameid":2853209,"name":"Plettenberg","admin3":"05962","localeAltName":null},{"geonameid":2842816,"name":"Rüthen","admin3":"05974","localeAltName":null},{"geonameid":2840555,"name":"Schalksmühle","admin3":"05962","localeAltName":null},{"geonameid":2838053,"name":"Schmallenberg","admin3":"05958","localeAltName":null},{"geonameid":2834372,"name":"Schwelm","admin3":"05954","localeAltName":null},{"geonameid":2834265,"name":"Schwerte","admin3":"05978","localeAltName":null},{"geonameid":2833170,"name":"Selm","admin3":"05978","localeAltName":null},{"geonameid":2832495,"name":"Siegen","admin3":"05970","localeAltName":null},{"geonameid":2832216,"name":"Silbach","admin3":"05958","localeAltName":null},{"geonameid":2831708,"name":"Soest","admin3":"05974","localeAltName":null},{"geonameid":2829998,"name":"Sprockhövel","admin3":"05954","localeAltName":null},{"geonameid":2825284,"name":"Stüttingshof","admin3":"05974","localeAltName":null},{"geonameid":2824655,"name":"Sundern","admin3":"05958","localeAltName":null},{"geonameid":2820087,"name":"Unna","admin3":"05978","localeAltName":null},{"geonameid":2814005,"name":"Warstein","admin3":"05974","localeAltName":null},{"geonameid":2811361,"name":"Welver","admin3":"05974","localeAltName":null},{"geonameid":2811278,"name":"Wenden","admin3":"05966","localeAltName":null},{"geonameid":2810919,"name":"Werdohl","admin3":"05962","localeAltName":null},{"geonameid":2810878,"name":"Werl","admin3":"05974","localeAltName":null},{"geonameid":2810833,"name":"Werne","admin3":"05978","localeAltName":null},{"geonameid":2809984,"name":"Wetter (Ruhr)","admin3":"05954","localeAltName":null},{"geonameid":2809778,"name":"Wickede","admin3":"05974","localeAltName":null},{"geonameid":2808461,"name":"Wilnsdorf","admin3":"05970","localeAltName":null},{"geonameid":2807788,"name":"Winterberg","admin3":"05958","localeAltName":null},{"geonameid":2807363,"name":"Witten","admin3":"05954","localeAltName":null}],"admin3":[{"geonameid":2803460,"name":"Märkischer Kreis","admin3":"05962","localeAltName":null},{"geonameid":2820086,"name":"Kreis Unna","admin3":"05978","localeAltName":null},{"geonameid":2930044,"name":"Ennepe-Ruhr-Kreis","admin3":"05954","localeAltName":null},{"geonameid":2935516,"name":"Kreisfreie Stadt Dortmund","admin3":"05913","localeAltName":null},{"geonameid":3221109,"name":"Kreisfreie Stadt Bochum","admin3":"05911","localeAltName":null},{"geonameid":3221110,"name":"Kreisfreie Stadt Hagen","admin3":"05914","localeAltName":null},{"geonameid":3221111,"name":"Kreisfreie Stadt Hamm","admin3":"05915","localeAltName":null},{"geonameid":3221114,"name":"Kreisfreie Stadt Herne","admin3":"05916","localeAltName":null},{"geonameid":3221121,"name":"Hochsauerlandkreis","admin3":"05958","localeAltName":null},{"geonameid":3221122,"name":"Kreis Olpe","admin3":"05966","localeAltName":null},{"geonameid":3221123,"name":"Kreis Siegen-Wittgenstein","admin3":"05970","localeAltName":null},{"geonameid":3221124,"name":"Kreis Soest","admin3":"05974","localeAltName":null}],"alternateNames":[{"alternatenameId":2080494,"geonameid":2861876,"isoLanguage":"de","alternateName":"Nordrhein-Westfalen","isPreferredName":true,"isShortName":true,"isColloquial":false,"isHistoric":false}]},"__N_SSG":true}