{"pageProps":{"locale":"de","admin2":{"geonameid":6458867,"name":"Bezirk Bülach","country":"CH","admin1":"ZH","admin2":"103","admin3":"","latitude":"47.4970600","longitude":"8.5676400"},"admin1":{"geonameid":2657895,"name":"Kanton Zürich","admin1":"ZH"},"locations":[{"geonameid":6291199,"name":"Aarüti","admin3":"58"},{"geonameid":6291101,"name":"Aegert","admin3":"54"},{"geonameid":6291418,"name":"Angelrain","admin3":"72"},{"geonameid":6291327,"name":"Au","admin3":"66"},{"geonameid":6291364,"name":"Au","admin3":"68"},{"geonameid":6291277,"name":"Augwil","admin3":"63"},{"geonameid":6291362,"name":"Ausserwiler","admin3":"68"},{"geonameid":2661651,"name":"Bachenbülach","admin3":"51"},{"geonameid":6291041,"name":"Bachtobel","admin3":"52"},{"geonameid":6291236,"name":"Bahnhof","admin3":"61"},{"geonameid":6291039,"name":"Baholz","admin3":"52"},{"geonameid":2661625,"name":"Baltenswil","admin3":"52"},{"geonameid":6291161,"name":"Baltsberg","admin3":"56"},{"geonameid":2661599,"name":"Bassersdorf","admin3":"52"},{"geonameid":6291200,"name":"Berg","admin3":"58"},{"geonameid":6291037,"name":"Berg","admin3":"52"},{"geonameid":6291372,"name":"Berghof","admin3":"68"},{"geonameid":6291158,"name":"Berghof","admin3":"56"},{"geonameid":6291033,"name":"Berghus","admin3":"51"},{"geonameid":6291150,"name":"Betzental","admin3":"56"},{"geonameid":6291088,"name":"Binz","admin3":"53"},{"geonameid":6291286,"name":"Birchwil","admin3":"64"},{"geonameid":6291412,"name":"Bitziberg","admin3":"72"},{"geonameid":2661413,"name":"Breite","admin3":"64"},{"geonameid":6291281,"name":"Breitenloo","admin3":"64"},{"geonameid":6291335,"name":"Brünnli/Hardacker","admin3":"66"},{"geonameid":6291417,"name":"Brütter","admin3":"72"},{"geonameid":6291391,"name":"Buchenloo","admin3":"71"},{"geonameid":6291228,"name":"Bückler-Dörnler","admin3":"60"},{"geonameid":6291130,"name":"Buechhof","admin3":"55"},{"geonameid":6291428,"name":"Büelhalden","admin3":"72"},{"geonameid":6291430,"name":"Büelhof","admin3":"72"},{"geonameid":6291432,"name":"Büelreben","admin3":"72"},{"geonameid":6291320,"name":"Bühlhof","admin3":"65"},{"geonameid":2661338,"name":"Bülach","admin3":"53"},{"geonameid":6291052,"name":"Bülach / Altstadt","admin3":"53"},{"geonameid":6291055,"name":"Bülach / Chröpfli","admin3":"53"},{"geonameid":6291059,"name":"Bülach / Grossstein","admin3":"53"},{"geonameid":6291058,"name":"Bülach / Gstückt","admin3":"53"},{"geonameid":6291060,"name":"Bülach / Herti","admin3":"53"},{"geonameid":6291054,"name":"Bülach / Irchel","admin3":"53"},{"geonameid":6291057,"name":"Bülach / Neuguet","admin3":"53"},{"geonameid":6291061,"name":"Bülach / Seematt","admin3":"53"},{"geonameid":6291056,"name":"Bülach / Soligänter","admin3":"53"},{"geonameid":6291396,"name":"Bürgelacker","admin3":"71"},{"geonameid":6291414,"name":"Bützen","admin3":"72"},{"geonameid":6291157,"name":"Chimenhof","admin3":"56"},{"geonameid":6291437,"name":"Chirchbüel","admin3":"72"},{"geonameid":6291433,"name":"Chlihölzli","admin3":"72"},{"geonameid":6291278,"name":"Chloosstrasse","admin3":"63"},{"geonameid":6291100,"name":"Chriesbach","admin3":"54"},{"geonameid":6291170,"name":"Chüng","admin3":"56"},{"geonameid":6291080,"name":"Dettenberg","admin3":"53"},{"geonameid":2661014,"name":"Dietlikon / Dietlikon (Dorf)","admin3":"54"},{"geonameid":6291103,"name":"Dietlikon / Eichwiesen","admin3":"54"},{"geonameid":6291102,"name":"Dietlikon / Industrie","admin3":"54"},{"geonameid":6291256,"name":"Egetswil","admin3":"62"},{"geonameid":2660934,"name":"Eglisau","admin3":"55"},{"geonameid":6291132,"name":"Eglisau / Bauelenzelg","admin3":"55"},{"geonameid":6291107,"name":"Eglisau / Burg","admin3":"55"},{"geonameid":6291133,"name":"Eglisau / Eigen","admin3":"55"},{"geonameid":6291105,"name":"Eglisau / Eigenacker","admin3":"55"},{"geonameid":6291104,"name":"Eglisau / Städtchen","admin3":"55"},{"geonameid":6291106,"name":"Eglisau / Steig","admin3":"55"},{"geonameid":6291261,"name":"Eigental","admin3":"62"},{"geonameid":2660913,"name":"Embrach","admin3":"56"},{"geonameid":6291168,"name":"Embrach / Bächli","admin3":"56"},{"geonameid":6291166,"name":"Embrach / Ebnet","admin3":"56"},{"geonameid":6291134,"name":"Embrach / Embrach (Dorfkern)","admin3":"56"},{"geonameid":6291165,"name":"Embrach / Embraport","admin3":"56"},{"geonameid":6291137,"name":"Embrach / Hard Nord","admin3":"56"},{"geonameid":6291163,"name":"Embrach / Hard Süd","admin3":"56"},{"geonameid":6291139,"name":"Embrach / Kellersacker","admin3":"56"},{"geonameid":6291135,"name":"Embrach / Klinik Hard","admin3":"56"},{"geonameid":6291138,"name":"Embrach / Stationsquartier","admin3":"56"},{"geonameid":6291136,"name":"Embrach / Studerwies","admin3":"56"},{"geonameid":6291167,"name":"Embrach / Wildbach","admin3":"56"},{"geonameid":6291092,"name":"Engelwisstrasse","admin3":"53"},{"geonameid":6291086,"name":"Eschenmosen","admin3":"53"},{"geonameid":6291348,"name":"Feldhof","admin3":"67"},{"geonameid":6291178,"name":"Feldhof","admin3":"57"},{"geonameid":6291395,"name":"Felsenegg","admin3":"71"},{"geonameid":6291349,"name":"Forenhof","admin3":"67"},{"geonameid":6291081,"name":"Franzrüti","admin3":"53"},{"geonameid":6291295,"name":"Fraubüechli","admin3":"64"},{"geonameid":6291171,"name":"Freienstein","admin3":"57"},{"geonameid":6291234,"name":"Fuchshof","admin3":"61"},{"geonameid":6291415,"name":"Geeren","admin3":"72"},{"geonameid":6291182,"name":"Geissstig","admin3":"57"},{"geonameid":6291259,"name":"Gerlisberg","admin3":"62"},{"geonameid":2660590,"name":"Glattbrugg","admin3":"66"},{"geonameid":6291337,"name":"Glattbrugg / Flughofstrasse","admin3":"66"},{"geonameid":6291332,"name":"Glattbrugg / Frohdörfli","admin3":"66"},{"geonameid":6291331,"name":"Glattbrugg / Hohenstieglen","admin3":"66"},{"geonameid":6291336,"name":"Glattbrugg / Rohr/Platten-Balsberg","admin3":"66"},{"geonameid":6291338,"name":"Glattbrugg / Sägereistrasse-Cher","admin3":"66"},{"geonameid":6291324,"name":"Glattbrugg / Wydacker/Bettacker/Lättenwiesen","admin3":"66"},{"geonameid":6291333,"name":"Glattbrugg / Zentrum Müllacker","admin3":"66"},{"geonameid":2660587,"name":"Glattfelden","admin3":"58"},{"geonameid":6291044,"name":"Grindel","admin3":"52"},{"geonameid":6291425,"name":"Grossacher","admin3":"72"},{"geonameid":6291325,"name":"Grossacker/Opfikon","admin3":"66"},{"geonameid":6291441,"name":"Grosswis","admin3":"72"},{"geonameid":6291098,"name":"Grund","admin3":"54"},{"geonameid":6291403,"name":"Grund","admin3":"71"},{"geonameid":6291275,"name":"Gsteig","admin3":"63"},{"geonameid":6291156,"name":"Gstein","admin3":"56"},{"geonameid":6291155,"name":"Guldenberg","admin3":"56"},{"geonameid":6291436,"name":"Hagenbuechen","admin3":"72"},{"geonameid":6291292,"name":"Hakab","admin3":"64"},{"geonameid":6291413,"name":"Halden","admin3":"72"},{"geonameid":6291169,"name":"Haller","admin3":"56"},{"geonameid":6291046,"name":"Hard","admin3":"52"},{"geonameid":6291438,"name":"Hargarten","admin3":"72"},{"geonameid":6291313,"name":"Hausen","admin3":"65"},{"geonameid":6291064,"name":"Heimgarten","admin3":"53"},{"geonameid":6291067,"name":"Herrenwis","admin3":"53"},{"geonameid":6291377,"name":"Herzogenmühle","admin3":"69"},{"geonameid":6291126,"name":"Hinter Stadtberg","admin3":"55"},{"geonameid":6291274,"name":"Hinter-Marchlen","admin3":"63"},{"geonameid":6291215,"name":"Hochfelden","admin3":"59"},{"geonameid":6291421,"name":"Hofacher","admin3":"72"},{"geonameid":6291334,"name":"Hohenbühl/Bubenholz","admin3":"66"},{"geonameid":6291226,"name":"Höri","admin3":"60"},{"geonameid":2660289,"name":"Hüntwangen","admin3":"61"},{"geonameid":6291426,"name":"Huser","admin3":"72"},{"geonameid":6291399,"name":"Hüslihof","admin3":"71"},{"geonameid":6291144,"name":"Illingen","admin3":"56"},{"geonameid":6291221,"name":"Im Jakobstal","admin3":"59"},{"geonameid":6291223,"name":"Im Schindlerbühl","admin3":"59"},{"geonameid":6291124,"name":"Im Stab","admin3":"55"},{"geonameid":6291036,"name":"Industrie","admin3":"51"},{"geonameid":6291078,"name":"Irchelstrasse","admin3":"53"},{"geonameid":6291093,"name":"Jfang","admin3":"53"},{"geonameid":6291043,"name":"Juchen","admin3":"52"},{"geonameid":6291282,"name":"Kleinhaus","admin3":"64"},{"geonameid":6291087,"name":"Klingenhof","admin3":"53"},{"geonameid":2660127,"name":"Kloten","admin3":"62"},{"geonameid":6291251,"name":"Kloten / Balsberg","admin3":"62"},{"geonameid":6291252,"name":"Kloten / Bramen","admin3":"62"},{"geonameid":6291244,"name":"Kloten / Chaseren","admin3":"62"},{"geonameid":6291243,"name":"Kloten / Freienberg (Chanzler-Chlini Chaseren)","admin3":"62"},{"geonameid":6291247,"name":"Kloten / Geissberg","admin3":"62"},{"geonameid":6291249,"name":"Kloten / Holberg","admin3":"62"},{"geonameid":6291246,"name":"Kloten / Horainli","admin3":"62"},{"geonameid":6291248,"name":"Kloten / Hostrass","admin3":"62"},{"geonameid":6291245,"name":"Kloten / Kaserne","admin3":"62"},{"geonameid":6291242,"name":"Kloten / Kloten (Zentrum)","admin3":"62"},{"geonameid":6291250,"name":"Kloten / Oberfeld","admin3":"62"},{"geonameid":6291254,"name":"Kloten / Rütlen","admin3":"62"},{"geonameid":6291253,"name":"Kloten / Spitz","admin3":"62"},{"geonameid":6291404,"name":"Landbühl","admin3":"71"},{"geonameid":6291339,"name":"Langenriet","admin3":"67"},{"geonameid":6291422,"name":"Lätten","admin3":"72"},{"geonameid":6291073,"name":"Läubberg","admin3":"53"},{"geonameid":6291197,"name":"Laubberg","admin3":"58"},{"geonameid":6291131,"name":"Laubi","admin3":"55"},{"geonameid":6291196,"name":"Letten","admin3":"58"},{"geonameid":6291329,"name":"Leutschenbach","admin3":"66"},{"geonameid":6291394,"name":"Lirenhof","admin3":"71"},{"geonameid":6291424,"name":"Lochwis","admin3":"72"},{"geonameid":6291429,"name":"Loo","admin3":"72"},{"geonameid":6291266,"name":"Lufingen","admin3":"63"},{"geonameid":6291434,"name":"Maas","admin3":"72"},{"geonameid":6291318,"name":"Madlikon","admin3":"65"},{"geonameid":6291094,"name":"Mettmenriet","admin3":"53"},{"geonameid":6291268,"name":"Moosbrunnen","admin3":"63"},{"geonameid":6291314,"name":"Mühlberg","admin3":"65"},{"geonameid":6291271,"name":"Müli","admin3":"63"},{"geonameid":6291363,"name":"Nauen","admin3":"68"},{"geonameid":6291091,"name":"Nebelwinkel-Erachfeld","admin3":"53"},{"geonameid":6291378,"name":"Neugut","admin3":"69"},{"geonameid":6291427,"name":"Niderrüti","admin3":"72"},{"geonameid":6291227,"name":"Nieder-Höri","admin3":"60"},{"geonameid":2659426,"name":"Nürensdorf","admin3":"64"},{"geonameid":6291079,"name":"Nussbaumen","admin3":"53"},{"geonameid":6291279,"name":"Ober-Augwil","admin3":"63"},{"geonameid":6291229,"name":"Ober-Höri","admin3":"60"},{"geonameid":6291304,"name":"Ober-Mettmenstetten","admin3":"65"},{"geonameid":6291176,"name":"Ober-Teufen","admin3":"57"},{"geonameid":6291305,"name":"Ober-Wagenburg","admin3":"65"},{"geonameid":2659396,"name":"Oberembrach","admin3":"65"},{"geonameid":2659380,"name":"Oberhausen-Böschenwiesen","admin3":"66"},{"geonameid":6291328,"name":"Oberhauserriet","admin3":"66"},{"geonameid":6291147,"name":"Obermühle","admin3":"56"},{"geonameid":6291435,"name":"Oberrüti","admin3":"72"},{"geonameid":6291283,"name":"Oberwil","admin3":"64"},{"geonameid":6291262,"name":"Obholz","admin3":"62"},{"geonameid":2659292,"name":"Opfikon","admin3":"66"},{"geonameid":6291300,"name":"Paradies","admin3":"65"},{"geonameid":6291047,"name":"Pöschen","admin3":"52"},{"geonameid":6291431,"name":"Pünten","admin3":"72"},{"geonameid":2659113,"name":"Rafz","admin3":"67"},{"geonameid":6291238,"name":"Raineten","admin3":"61"},{"geonameid":6291260,"name":"Rank","admin3":"62"},{"geonameid":6291065,"name":"Rheinsberghof","admin3":"53"},{"geonameid":6291195,"name":"Rheinsfelden (Höfe)","admin3":"58"},{"geonameid":6291369,"name":"Riet","admin3":"68"},{"geonameid":6291326,"name":"Rietgrabenhang","admin3":"66"},{"geonameid":6291310,"name":"Riethof","admin3":"65"},{"geonameid":2658974,"name":"Rorbas","admin3":"68"},{"geonameid":6291301,"name":"Rotenfluh","admin3":"65"},{"geonameid":6291085,"name":"Rotzibuch","admin3":"53"},{"geonameid":6291183,"name":"Rüedi","admin3":"57"},{"geonameid":6291398,"name":"Rüti","admin3":"71"},{"geonameid":6291269,"name":"Sandächer","admin3":"63"},{"geonameid":6291210,"name":"Schachen","admin3":"58"},{"geonameid":6291411,"name":"Scheidweg","admin3":"51"},{"geonameid":6291069,"name":"Schlattihof","admin3":"53"},{"geonameid":6291095,"name":"Schlaufenberg","admin3":"53"},{"geonameid":6291180,"name":"Schloss Teufen","admin3":"57"},{"geonameid":6291193,"name":"Schlossacher","admin3":"58"},{"geonameid":6291379,"name":"Schönenhof","admin3":"69"},{"geonameid":6291075,"name":"Schützenmatt","admin3":"53"},{"geonameid":6291420,"name":"Seeb","admin3":"72"},{"geonameid":6291423,"name":"Seehalden","admin3":"72"},{"geonameid":6295527,"name":"Seglingen","admin3":"55"},{"geonameid":6291108,"name":"Seglingen / Frauenhag","admin3":"55"},{"geonameid":6291109,"name":"Seglingen / Mettlen","admin3":"55"},{"geonameid":6291111,"name":"Seglingen / Ober-Seglingen","admin3":"55"},{"geonameid":6291110,"name":"Seglingen / Unter-Seglingen","admin3":"55"},{"geonameid":6291350,"name":"Solgen","admin3":"67"},{"geonameid":6291312,"name":"Sonnenberg","admin3":"65"},{"geonameid":6291347,"name":"Sonnenberg","admin3":"67"},{"geonameid":6291190,"name":"Sonnenberg","admin3":"57"},{"geonameid":6291316,"name":"Sonnenbühl","admin3":"65"},{"geonameid":6291116,"name":"Stampfi","admin3":"55"},{"geonameid":6291066,"name":"Station Glattfelden","admin3":"53"},{"geonameid":6291306,"name":"Stiegenhof","admin3":"65"},{"geonameid":6291319,"name":"Stürzikon","admin3":"65"},{"geonameid":6291330,"name":"Talacker","admin3":"66"},{"geonameid":6291149,"name":"Talegg","admin3":"56"},{"geonameid":6291179,"name":"Teufenbach","admin3":"57"},{"geonameid":2658339,"name":"Tössriederen","admin3":"55"},{"geonameid":6291299,"name":"Trinenmoos","admin3":"65"},{"geonameid":6291302,"name":"Unter-Mettmenstetten","admin3":"65"},{"geonameid":6291172,"name":"Unter-Teufen","admin3":"57"},{"geonameid":6291315,"name":"Unter-Wagenburg","admin3":"65"},{"geonameid":6291258,"name":"Vorder Bänikon","admin3":"62"},{"geonameid":6291276,"name":"Vorder-Marchlen","admin3":"63"},{"geonameid":6291367,"name":"Wagenbreche","admin3":"68"},{"geonameid":2658060,"name":"Wallisellen","admin3":"69"},{"geonameid":6291376,"name":"Wallisellen / Hof","admin3":"69"},{"geonameid":6291375,"name":"Wallisellen / Rieden","admin3":"69"},{"geonameid":6291374,"name":"Wallisellen / Wallisellen-Ost","admin3":"69"},{"geonameid":6291373,"name":"Wallisellen / Wallisellen-West","admin3":"69"},{"geonameid":2658044,"name":"Wasterkingen","admin3":"70"},{"geonameid":6291393,"name":"Wendelbuck","admin3":"71"},{"geonameid":6291076,"name":"Wiesli","admin3":"53"},{"geonameid":2657994,"name":"Wil","admin3":"71"},{"geonameid":6291440,"name":"Wilenhof","admin3":"72"},{"geonameid":6291117,"name":"Wiler","admin3":"55"},{"geonameid":6291219,"name":"Willenhof","admin3":"59"},{"geonameid":6291409,"name":"Winkel","admin3":"72"},{"geonameid":6291184,"name":"Wohnschule","admin3":"57"},{"geonameid":6291202,"name":"Wölflishalden","admin3":"58"},{"geonameid":6291270,"name":"Ziegeleistrasse","admin3":"63"},{"geonameid":6291142,"name":"Ziegelhütte","admin3":"56"},{"geonameid":6291198,"name":"Zweidlen-Dorf","admin3":"58"},{"geonameid":6291194,"name":"Zweidlen-Station","admin3":"58"}],"admin3":[{"geonameid":2658396,"name":"Freienstein-Teufen","admin3":"57"},{"geonameid":7285133,"name":"Bachenbülach","admin3":"51"},{"geonameid":7285165,"name":"Bassersdorf","admin3":"52"},{"geonameid":7285380,"name":"Bülach","admin3":"53"},{"geonameid":7285653,"name":"Dietlikon","admin3":"54"},{"geonameid":7285707,"name":"Eglisau","admin3":"55"},{"geonameid":7285724,"name":"Embrach","admin3":"56"},{"geonameid":7285927,"name":"Glattfelden","admin3":"58"},{"geonameid":7286092,"name":"Hochfelden","admin3":"59"},{"geonameid":7286110,"name":"Höri","admin3":"60"},{"geonameid":7286123,"name":"Hüntwangen","admin3":"61"},{"geonameid":7286210,"name":"Kloten","admin3":"62"},{"geonameid":7286382,"name":"Lufingen","admin3":"63"},{"geonameid":7286668,"name":"Nürensdorf","admin3":"64"},{"geonameid":7286684,"name":"Oberembrach","admin3":"65"},{"geonameid":7286743,"name":"Opfikon","admin3":"66"},{"geonameid":7286848,"name":"Rafz","admin3":"67"},{"geonameid":7286949,"name":"Rorbas","admin3":"68"},{"geonameid":7287529,"name":"Wallisellen","admin3":"69"},{"geonameid":7287547,"name":"Wasterkingen","admin3":"70"},{"geonameid":7287587,"name":"Wil (ZH)","admin3":"71"},{"geonameid":7287590,"name":"Winkel","admin3":"72"}],"alternateNames":[]},"__N_SSG":true}