{"pageProps":{"locale":"de","admin2":{"geonameid":6458808,"name":"Bezirk Winterthur","country":"CH","admin1":"ZH","admin2":"110","admin3":"","latitude":"47.5078100","longitude":"8.7690000"},"admin1":{"geonameid":2657895,"name":"Kanton Zürich","admin1":"ZH"},"locations":[{"geonameid":6294781,"name":"Aadorferfeld","admin3":"294"},{"geonameid":6295061,"name":"Alte Frauenfelderstrasse","admin3":"298"},{"geonameid":6295541,"name":"Altikon","admin3":"211"},{"geonameid":6294642,"name":"Altikon / Altikon (Dorf)","admin3":"211"},{"geonameid":6294658,"name":"Altikon / Thurtalstrasse","admin3":"211"},{"geonameid":6294981,"name":"Asp-Mettlen","admin3":"227"},{"geonameid":6295051,"name":"Attikon","admin3":"298"},{"geonameid":6294731,"name":"Bänk","admin3":"214"},{"geonameid":6294973,"name":"Baumschuel","admin3":"227"},{"geonameid":6294656,"name":"Berg","admin3":"211"},{"geonameid":6294725,"name":"Berg","admin3":"214"},{"geonameid":6295020,"name":"Berg","admin3":"228"},{"geonameid":6294959,"name":"Berg Waltenstein","admin3":"226"},{"geonameid":6294738,"name":"Berghof","admin3":"215"},{"geonameid":6294664,"name":"Bertschikon","admin3":"298"},{"geonameid":6294691,"name":"Bewangen","admin3":"298"},{"geonameid":6294697,"name":"Birch","admin3":"213"},{"geonameid":6294769,"name":"Birmenstal","admin3":"294"},{"geonameid":6294707,"name":"Blätzwisen","admin3":"213"},{"geonameid":6294742,"name":"Blumetshalde","admin3":"215"},{"geonameid":6294892,"name":"Breiten","admin3":"223"},{"geonameid":6295014,"name":"Breitenlandenberg","admin3":"228"},{"geonameid":6295223,"name":"Bruggäcker","admin3":"231"},{"geonameid":6294935,"name":"Bruni","admin3":"224"},{"geonameid":6294995,"name":"Brunnenwis","admin3":"227"},{"geonameid":6294934,"name":"Bruppach","admin3":"223"},{"geonameid":2661362,"name":"Brütten","admin3":"213"},{"geonameid":6295064,"name":"Buch","admin3":"298"},{"geonameid":6294899,"name":"Buck","admin3":"223"},{"geonameid":6294708,"name":"Buechli","admin3":"213"},{"geonameid":6294709,"name":"Buechmes","admin3":"213"},{"geonameid":6295018,"name":"Bühl","admin3":"228"},{"geonameid":6294794,"name":"Burghof","admin3":"294"},{"geonameid":6295025,"name":"Chäfer","admin3":"228"},{"geonameid":6295031,"name":"Chalchegg","admin3":"228"},{"geonameid":6295029,"name":"Chellersacher","admin3":"228"},{"geonameid":6294717,"name":"Dägerlen","admin3":"214"},{"geonameid":6294734,"name":"Dättlikon","admin3":"215"},{"geonameid":6294870,"name":"Dickbuch","admin3":"294"},{"geonameid":6294745,"name":"Dinhard","admin3":"216"},{"geonameid":6294907,"name":"Dorf Aesch","admin3":"223"},{"geonameid":6294897,"name":"Dorf Hünikon","admin3":"223"},{"geonameid":6294920,"name":"Dorf Riet","admin3":"223"},{"geonameid":6294813,"name":"Dunaspi","admin3":"218"},{"geonameid":2659024,"name":"Effretikon / Rikon","admin3":"231"},{"geonameid":6294843,"name":"Egghof","admin3":"220"},{"geonameid":6294984,"name":"Eichbüel","admin3":"227"},{"geonameid":6294762,"name":"Eichhof","admin3":"216"},{"geonameid":6294859,"name":"Eichmühle","admin3":"221"},{"geonameid":2660920,"name":"Elgg","admin3":"294"},{"geonameid":6294765,"name":"Elgg / Neu-Elgg","admin3":"294"},{"geonameid":6294764,"name":"Elgg / Städtchen und Umgebung","admin3":"294"},{"geonameid":2660918,"name":"Ellikon","admin3":"218"},{"geonameid":6295551,"name":"Elsau-Räterschen","admin3":"219"},{"geonameid":2660916,"name":"Elsau-Räterschen / Elsau (Dorf)","admin3":"219"},{"geonameid":2659095,"name":"Elsau-Räterschen / Räterschen","admin3":"219"},{"geonameid":6295216,"name":"Engelburg","admin3":"231"},{"geonameid":6294748,"name":"Eschlikon","admin3":"216"},{"geonameid":6294789,"name":"Fahrenhof","admin3":"294"},{"geonameid":6294653,"name":"Feldi","admin3":"211"},{"geonameid":6294985,"name":"Forrenberg","admin3":"227"},{"geonameid":6295026,"name":"Fräkmünd","admin3":"228"},{"geonameid":6294771,"name":"Freihof","admin3":"294"},{"geonameid":6294828,"name":"Frohberg","admin3":"219"},{"geonameid":6294827,"name":"Fulau","admin3":"219"},{"geonameid":6295034,"name":"Furrershus","admin3":"228"},{"geonameid":6295203,"name":"Garten","admin3":"231"},{"geonameid":6295037,"name":"Ger","admin3":"228"},{"geonameid":6294881,"name":"Geretswil","admin3":"294"},{"geonameid":6294773,"name":"Giesental","admin3":"294"},{"geonameid":2660605,"name":"Girenbad","admin3":"228"},{"geonameid":6294753,"name":"Giselstuden","admin3":"216"},{"geonameid":6295028,"name":"Gosswil","admin3":"228"},{"geonameid":6294672,"name":"Gundetswil","admin3":"298"},{"geonameid":6294692,"name":"Gündlikon","admin3":"298"},{"geonameid":6294987,"name":"Habermark","admin3":"227"},{"geonameid":2660427,"name":"Hagenbuch","admin3":"220"},{"geonameid":6294844,"name":"Hagenstal","admin3":"220"},{"geonameid":6294785,"name":"Haggenbergstrasse","admin3":"294"},{"geonameid":6294865,"name":"Halden","admin3":"221"},{"geonameid":6294908,"name":"Heerenweg","admin3":"223"},{"geonameid":6294960,"name":"Heidertal","admin3":"226"},{"geonameid":6294972,"name":"Heimenstein","admin3":"227"},{"geonameid":6294674,"name":"Heligsbüel","admin3":"298"},{"geonameid":6294677,"name":"Hellen","admin3":"298"},{"geonameid":2660353,"name":"Hettlingen","admin3":"221"},{"geonameid":6294848,"name":"Hettlingen / Auf Buch","admin3":"221"},{"geonameid":6294846,"name":"Hettlingen / Dorfkern","admin3":"221"},{"geonameid":6294849,"name":"Hettlingen / Gübel","admin3":"221"},{"geonameid":6294847,"name":"Hettlingen / Station","admin3":"221"},{"geonameid":6294799,"name":"Heurüti","admin3":"294"},{"geonameid":6294953,"name":"Hinter-Grüt","admin3":"225"},{"geonameid":6295053,"name":"Hinteregg","admin3":"298"},{"geonameid":6294913,"name":"Hinterhueb","admin3":"223"},{"geonameid":6294671,"name":"Hofacker","admin3":"298"},{"geonameid":6295652,"name":"Hofstetten","admin3":"228"},{"geonameid":2660324,"name":"Hofstetten","admin3":"294"},{"geonameid":6294782,"name":"Hohbühl","admin3":"294"},{"geonameid":6294793,"name":"Horben","admin3":"294"},{"geonameid":6294885,"name":"Huggenberg","admin3":"294"},{"geonameid":6294735,"name":"Im Boden","admin3":"215"},{"geonameid":6294873,"name":"Jakobstal","admin3":"294"},{"geonameid":6294963,"name":"Johannestal","admin3":"226"},{"geonameid":6294838,"name":"Kappel","admin3":"220"},{"geonameid":2660178,"name":"Kefikon","admin3":"298"},{"geonameid":6294912,"name":"Kehlhof","admin3":"223"},{"geonameid":6294659,"name":"Kellerhöfli","admin3":"211"},{"geonameid":2660154,"name":"Kirch-Dinhard","admin3":"216"},{"geonameid":6294852,"name":"Kohlgrub","admin3":"221"},{"geonameid":2660121,"name":"Kollbrunn","admin3":"231"},{"geonameid":6295191,"name":"Kollbrunn / Au","admin3":"231"},{"geonameid":6295187,"name":"Kollbrunn / Bolstern","admin3":"231"},{"geonameid":6295188,"name":"Kollbrunn / Bolsternbuck","admin3":"231"},{"geonameid":6295186,"name":"Kollbrunn / Kollbrunn (Dorfkern)","admin3":"231"},{"geonameid":6295192,"name":"Kollbrunn / Rutzen","admin3":"231"},{"geonameid":6295190,"name":"Kollbrunn / Steinhäldeli","admin3":"231"},{"geonameid":6295189,"name":"Kollbrunn / Terrassensiedlung","admin3":"231"},{"geonameid":6295057,"name":"Kreuzstrasse","admin3":"298"},{"geonameid":6295039,"name":"Krinnensberg","admin3":"228"},{"geonameid":6294853,"name":"Küchliberg","admin3":"221"},{"geonameid":6294804,"name":"Langbreiten","admin3":"218"},{"geonameid":6294747,"name":"Längerenrüti","admin3":"216"},{"geonameid":6295215,"name":"Lettenberg","admin3":"231"},{"geonameid":6294684,"name":"Liebensberg","admin3":"298"},{"geonameid":6295217,"name":"Lochfeld","admin3":"231"},{"geonameid":6295547,"name":"Mattenbach (Kreis 7)","admin3":"230"},{"geonameid":6295183,"name":"Mattenbach (Kreis 7) / Deutweg","admin3":"230"},{"geonameid":6295185,"name":"Mattenbach (Kreis 7) / Endliker","admin3":"230"},{"geonameid":6295182,"name":"Mattenbach (Kreis 7) / Eschenberg","admin3":"230"},{"geonameid":6295184,"name":"Mattenbach (Kreis 7) / Gutschick","admin3":"230"},{"geonameid":6295181,"name":"Mattenbach (Kreis 7) / Waldegg (westlicher Teil)","admin3":"230"},{"geonameid":6294807,"name":"Mattenhof","admin3":"218"},{"geonameid":6294678,"name":"Meisberg","admin3":"298"},{"geonameid":6295048,"name":"Menzengrüt","admin3":"298"},{"geonameid":6294840,"name":"Mittelschneit","admin3":"220"},{"geonameid":6294914,"name":"Mittlerhueb","admin3":"223"},{"geonameid":6294711,"name":"Moos","admin3":"213"},{"geonameid":6294956,"name":"Mottli","admin3":"225"},{"geonameid":6294652,"name":"Mühle","admin3":"211"},{"geonameid":6294759,"name":"Müli","admin3":"216"},{"geonameid":2659504,"name":"Neftenbach / Dorf Neftenbach","admin3":"223"},{"geonameid":6295004,"name":"Neubrunn","admin3":"228"},{"geonameid":6294999,"name":"Neugrüt","admin3":"228"},{"geonameid":6294834,"name":"Neuguet","admin3":"219"},{"geonameid":6294923,"name":"Neuwingert","admin3":"223"},{"geonameid":6294755,"name":"Neuwisen","admin3":"216"},{"geonameid":6294964,"name":"Nussberg","admin3":"226"},{"geonameid":6295196,"name":"Nussbergstrasse","admin3":"231"},{"geonameid":6295214,"name":"Ober Rüti","admin3":"231"},{"geonameid":6294686,"name":"Ober-Bertschikon","admin3":"298"},{"geonameid":6295199,"name":"Ober-Langenhard","admin3":"231"},{"geonameid":6294980,"name":"Ober-Ohringen","admin3":"227"},{"geonameid":6295021,"name":"Ober-Spitzwies","admin3":"228"},{"geonameid":6295205,"name":"Obere Rutzen","admin3":"231"},{"geonameid":6294850,"name":"Obere Steigen","admin3":"221"},{"geonameid":6294662,"name":"Oberherten","admin3":"211"},{"geonameid":6294786,"name":"Oberhof","admin3":"294"},{"geonameid":6295006,"name":"Oberhofen","admin3":"228"},{"geonameid":2659352,"name":"Oberschlatt","admin3":"226"},{"geonameid":6294839,"name":"Oberschneit","admin3":"220"},{"geonameid":6294720,"name":"Oberwil","admin3":"214"},{"geonameid":6295536,"name":"Oberwinterthur (Kreis 2)","admin3":"230"},{"geonameid":6295098,"name":"Oberwinterthur (Kreis 2) / Binzhof","admin3":"230"},{"geonameid":6295101,"name":"Oberwinterthur (Kreis 2) / Brunnenwiese","admin3":"230"},{"geonameid":6295099,"name":"Oberwinterthur (Kreis 2) / Essigfabrik","admin3":"230"},{"geonameid":6295097,"name":"Oberwinterthur (Kreis 2) / Freihof","admin3":"230"},{"geonameid":6295085,"name":"Oberwinterthur (Kreis 2) / Grundhof","admin3":"230"},{"geonameid":6295109,"name":"Oberwinterthur (Kreis 2) / Grüze","admin3":"230"},{"geonameid":6295102,"name":"Oberwinterthur (Kreis 2) / Guggenbühl","admin3":"230"},{"geonameid":2660394,"name":"Oberwinterthur (Kreis 2) / Hegi","admin3":"230"},{"geonameid":6295110,"name":"Oberwinterthur (Kreis 2) / Hegmatten","admin3":"230"},{"geonameid":6295093,"name":"Oberwinterthur (Kreis 2) / Loo","admin3":"230"},{"geonameid":6295105,"name":"Oberwinterthur (Kreis 2) / Maas","admin3":"230"},{"geonameid":6295084,"name":"Oberwinterthur (Kreis 2) / Mörsburg","admin3":"230"},{"geonameid":6295103,"name":"Oberwinterthur (Kreis 2) / Ober Ricketwil","admin3":"230"},{"geonameid":6295087,"name":"Oberwinterthur (Kreis 2) / Reutlingen","admin3":"230"},{"geonameid":6295108,"name":"Oberwinterthur (Kreis 2) / Stadel (Dorf)","admin3":"230"},{"geonameid":6295092,"name":"Oberwinterthur (Kreis 2) / Talacker","admin3":"230"},{"geonameid":6295107,"name":"Oberwinterthur (Kreis 2) / Unter Ricketwil","admin3":"230"},{"geonameid":6295106,"name":"Oberwinterthur (Kreis 2) / Weingarten","admin3":"230"},{"geonameid":6295089,"name":"Oberwinterthur (Kreis 2) / Zelgli","admin3":"230"},{"geonameid":6295111,"name":"Oberwinterthur (Kreis 2) / Zinzikon","admin3":"230"},{"geonameid":6294915,"name":"Oedenhof","admin3":"223"},{"geonameid":2659212,"name":"Pfungen","admin3":"224"},{"geonameid":6294670,"name":"Pünt","admin3":"298"},{"geonameid":6294977,"name":"Rainbuck","admin3":"227"},{"geonameid":2659111,"name":"Rämismühle","admin3":"231"},{"geonameid":6295003,"name":"Ramsberg","admin3":"228"},{"geonameid":6294810,"name":"Räuchler","admin3":"218"},{"geonameid":6295009,"name":"Rengerswil","admin3":"228"},{"geonameid":2659047,"name":"Rickenbach","admin3":"225"},{"geonameid":6294942,"name":"Rickenbach / Büel","admin3":"225"},{"geonameid":6294943,"name":"Rickenbach / Dorf-Neugut","admin3":"225"},{"geonameid":6294944,"name":"Rickenbach / Mühle-Hueb-Schweizi","admin3":"225"},{"geonameid":6294975,"name":"Riet","admin3":"221"},{"geonameid":6294763,"name":"Rietmüli","admin3":"216"},{"geonameid":6295195,"name":"Rikon / Hinter-Rikon","admin3":"231"},{"geonameid":6295194,"name":"Rikon / Rikon (Dorfkern)","admin3":"231"},{"geonameid":6295193,"name":"Rikon / Schöntal","admin3":"231"},{"geonameid":6294883,"name":"Ristall","admin3":"294"},{"geonameid":6294958,"name":"Römerhof","admin3":"225"},{"geonameid":6295005,"name":"Rossweid","admin3":"228"},{"geonameid":6294867,"name":"Ruchriet","admin3":"221"},{"geonameid":6294820,"name":"Rümikon","admin3":"219"},{"geonameid":6294941,"name":"Rumstal","admin3":"224"},{"geonameid":6295019,"name":"Ruppen","admin3":"228"},{"geonameid":6294965,"name":"Rüteren","admin3":"226"},{"geonameid":6294729,"name":"Rutschwil","admin3":"214"},{"geonameid":6294940,"name":"Salhof","admin3":"224"},{"geonameid":6294879,"name":"Scheunberg","admin3":"294"},{"geonameid":6294792,"name":"Schloss Elgg","admin3":"294"},{"geonameid":6295023,"name":"Schmidrüti","admin3":"228"},{"geonameid":6294826,"name":"Schnasberg","admin3":"219"},{"geonameid":6294650,"name":"Schneit","admin3":"211"},{"geonameid":6294842,"name":"Schneitberg","admin3":"220"},{"geonameid":6295204,"name":"Schoren","admin3":"231"},{"geonameid":6294832,"name":"Schottikon","admin3":"219"},{"geonameid":6294971,"name":"Schüracher Waltenstein","admin3":"226"},{"geonameid":6295008,"name":"Schürli","admin3":"228"},{"geonameid":6294966,"name":"Schwändi","admin3":"226"},{"geonameid":6295226,"name":"Seefeld","admin3":"231"},{"geonameid":6294998,"name":"Seelmatten","admin3":"228"},{"geonameid":6295531,"name":"Seen (Kreis 3)","admin3":"230"},{"geonameid":6295116,"name":"Seen (Kreis 3) / Boll","admin3":"230"},{"geonameid":6295126,"name":"Seen (Kreis 3) / Büelwiesen","admin3":"230"},{"geonameid":6295114,"name":"Seen (Kreis 3) / Chölberg","admin3":"230"},{"geonameid":6295125,"name":"Seen (Kreis 3) / Eidberg","admin3":"230"},{"geonameid":6295113,"name":"Seen (Kreis 3) / Floren","admin3":"230"},{"geonameid":6295133,"name":"Seen (Kreis 3) / Ganzenbühl","admin3":"230"},{"geonameid":6295120,"name":"Seen (Kreis 3) / Gotzenwil","admin3":"230"},{"geonameid":6295129,"name":"Seen (Kreis 3) / Iberg","admin3":"230"},{"geonameid":6295127,"name":"Seen (Kreis 3) / Mulchlingen","admin3":"230"},{"geonameid":6295135,"name":"Seen (Kreis 3) / Oberseen","admin3":"230"},{"geonameid":2658627,"name":"Seen (Kreis 3) / Sennhof","admin3":"230"},{"geonameid":6295134,"name":"Seen (Kreis 3) / Sonnenberg","admin3":"230"},{"geonameid":6295130,"name":"Seen (Kreis 3) / Thaa","admin3":"230"},{"geonameid":6295131,"name":"Seen (Kreis 3) / Waldegg","admin3":"230"},{"geonameid":6295112,"name":"Seen (Kreis 3) / Waldegg (östlicher Teil)","admin3":"230"},{"geonameid":6295121,"name":"Seen (Kreis 3) / Waser","admin3":"230"},{"geonameid":6295123,"name":"Seen (Kreis 3) / Weier","admin3":"230"},{"geonameid":6295122,"name":"Seen (Kreis 3) / Weierhöhe","admin3":"230"},{"geonameid":6295118,"name":"Seen (Kreis 3) / Ziegelhütte","admin3":"230"},{"geonameid":6295651,"name":"Sennhof","admin3":"294"},{"geonameid":2658614,"name":"Seuzach / Seuzach (Dorf)","admin3":"227"},{"geonameid":6295545,"name":"Seuzach Dorf","admin3":"227"},{"geonameid":6294994,"name":"Seuzach Dorf / Brandbüel","admin3":"227"},{"geonameid":6294993,"name":"Seuzach Dorf / Breite-Weid","admin3":"227"},{"geonameid":6294990,"name":"Seuzach Dorf / Erdbüel-Halden","admin3":"227"},{"geonameid":6294986,"name":"Seuzach Dorf / Hochgrüt-Scheidweg","admin3":"227"},{"geonameid":6294992,"name":"Seuzach Dorf / Kirchgasse","admin3":"227"},{"geonameid":6294991,"name":"Seuzach Dorf / Pünten-Ifang","admin3":"227"},{"geonameid":6294704,"name":"Sigiloch","admin3":"213"},{"geonameid":6295017,"name":"Sitzberg","admin3":"228"},{"geonameid":6294766,"name":"Sonnenhof","admin3":"294"},{"geonameid":6294874,"name":"Sonnental","admin3":"294"},{"geonameid":6295520,"name":"Stadt Winterthur (Kreis 1)","admin3":"230"},{"geonameid":6295077,"name":"Stadt Winterthur (Kreis 1) / Altstadt","admin3":"230"},{"geonameid":6295081,"name":"Stadt Winterthur (Kreis 1) / Brühlberg","admin3":"230"},{"geonameid":6295076,"name":"Stadt Winterthur (Kreis 1) / Eichliacker/Försterhaus","admin3":"230"},{"geonameid":6295079,"name":"Stadt Winterthur (Kreis 1) / Heiligberg","admin3":"230"},{"geonameid":6295078,"name":"Stadt Winterthur (Kreis 1) / Lind","admin3":"230"},{"geonameid":6295082,"name":"Stadt Winterthur (Kreis 1) / Neuwiesen","admin3":"230"},{"geonameid":6295080,"name":"Stadt Winterthur (Kreis 1) / Tössfeld","admin3":"230"},{"geonameid":6295074,"name":"Stadt Winterthur (Kreis 1) / Waldhof","admin3":"230"},{"geonameid":6294689,"name":"Stegen","admin3":"298"},{"geonameid":6294878,"name":"Steig","admin3":"294"},{"geonameid":6294712,"name":"Steighof","admin3":"213"},{"geonameid":6295211,"name":"Steinacker","admin3":"231"},{"geonameid":6294983,"name":"Steinbüel","admin3":"227"},{"geonameid":6294698,"name":"Strubikon","admin3":"213"},{"geonameid":6294938,"name":"Stubenwis","admin3":"224"},{"geonameid":6295525,"name":"Sulz","admin3":"225"},{"geonameid":6294951,"name":"Sulz / Brünnelacker","admin3":"225"},{"geonameid":6294952,"name":"Sulz / Dörnler","admin3":"225"},{"geonameid":6294949,"name":"Sulz / Felix","admin3":"225"},{"geonameid":6294947,"name":"Sulz / Gassenacker-Wiesacker","admin3":"225"},{"geonameid":6294948,"name":"Sulz / Steinler","admin3":"225"},{"geonameid":6294946,"name":"Sulz / Sulz Ost","admin3":"225"},{"geonameid":6294945,"name":"Sulz / Sulz West","admin3":"225"},{"geonameid":6294950,"name":"Sulz / Sunnezirkel","admin3":"225"},{"geonameid":6295027,"name":"Tablat","admin3":"228"},{"geonameid":6294803,"name":"Thuracher","admin3":"218"},{"geonameid":6294882,"name":"Tiefenstein","admin3":"294"},{"geonameid":6294835,"name":"Tolhusen","admin3":"219"},{"geonameid":2658344,"name":"Töss (Kreis 4)","admin3":"230"},{"geonameid":6295145,"name":"Töss (Kreis 4) / Eichliacker","admin3":"230"},{"geonameid":6295137,"name":"Töss (Kreis 4) / Mittel-Dättnau","admin3":"230"},{"geonameid":6295144,"name":"Töss (Kreis 4) / Rossberg","admin3":"230"},{"geonameid":6295143,"name":"Töss (Kreis 4) / Schlosstal","admin3":"230"},{"geonameid":6295140,"name":"Töss (Kreis 4) / Schützenhaus","admin3":"230"},{"geonameid":6295139,"name":"Töss (Kreis 4) / Steig","admin3":"230"},{"geonameid":6295138,"name":"Töss (Kreis 4) / Vorder-Dättnau","admin3":"230"},{"geonameid":6294931,"name":"Tössallmänt","admin3":"223"},{"geonameid":6295032,"name":"Truben","admin3":"228"},{"geonameid":2658289,"name":"Turbenthal","admin3":"228"},{"geonameid":6295197,"name":"Türliacker","admin3":"231"},{"geonameid":6294696,"name":"Unter-Eich","admin3":"213"},{"geonameid":6295206,"name":"Unter-Langenhard","admin3":"231"},{"geonameid":6294978,"name":"Unter-Ohringen","admin3":"227"},{"geonameid":6295001,"name":"Unter-Spitzwies","admin3":"228"},{"geonameid":6294802,"name":"Untergris","admin3":"218"},{"geonameid":6294661,"name":"Unterherten","admin3":"211"},{"geonameid":6294969,"name":"Unterschlatt","admin3":"226"},{"geonameid":6294841,"name":"Unterschneit","admin3":"220"},{"geonameid":6294673,"name":"Usserbreiten","admin3":"298"},{"geonameid":2658172,"name":"Veltheim (Kreis 5)","admin3":"230"},{"geonameid":6295148,"name":"Veltheim (Kreis 5) / Blumenau","admin3":"230"},{"geonameid":6295147,"name":"Veltheim (Kreis 5) / Rosenberg","admin3":"230"},{"geonameid":6294751,"name":"Vorder-Grüt","admin3":"216"},{"geonameid":6294666,"name":"Wagenstoss","admin3":"298"},{"geonameid":6294811,"name":"Wald","admin3":"218"},{"geonameid":6295054,"name":"Wallikon","admin3":"298"},{"geonameid":6294970,"name":"Waltenstein","admin3":"226"},{"geonameid":6294926,"name":"Wartguet","admin3":"223"},{"geonameid":6294888,"name":"Weidhof","admin3":"294"},{"geonameid":6295210,"name":"Weidli","admin3":"231"},{"geonameid":6294754,"name":"Welsikon","admin3":"216"},{"geonameid":6294877,"name":"Wenzikon","admin3":"294"},{"geonameid":6295043,"name":"Wiesendangen / Gässli","admin3":"298"},{"geonameid":6295045,"name":"Wiesendangen / Juch","admin3":"298"},{"geonameid":6295042,"name":"Wiesendangen / Leingrüebler-Wasserfuri","admin3":"298"},{"geonameid":6295046,"name":"Wiesendangen / Mühle und Oberhof","admin3":"298"},{"geonameid":6295044,"name":"Wiesendangen / Stationsstrasse","admin3":"298"},{"geonameid":6295041,"name":"Wiesendangen / Steinegg","admin3":"298"},{"geonameid":2658004,"name":"Wiesendangen / Wiesendangen (Dorf)","admin3":"298"},{"geonameid":6295047,"name":"Wiesendangen / Wiesengrund","admin3":"298"},{"geonameid":6294871,"name":"Wiesental","admin3":"294"},{"geonameid":6294976,"name":"Wiesental","admin3":"227"},{"geonameid":2657970,"name":"Winterthur","admin3":"230"},{"geonameid":6295200,"name":"Wolfsbrunnen","admin3":"231"},{"geonameid":6294861,"name":"Worbig","admin3":"221"},{"geonameid":6295524,"name":"Wülflingen (Kreis 6)","admin3":"230"},{"geonameid":6295170,"name":"Wülflingen (Kreis 6) / Aeschau","admin3":"230"},{"geonameid":6295168,"name":"Wülflingen (Kreis 6) / Guggenbühl","admin3":"230"},{"geonameid":6295155,"name":"Wülflingen (Kreis 6) / Hard","admin3":"230"},{"geonameid":6295178,"name":"Wülflingen (Kreis 6) / Hardau","admin3":"230"},{"geonameid":6295179,"name":"Wülflingen (Kreis 6) / Härti","admin3":"230"},{"geonameid":6295171,"name":"Wülflingen (Kreis 6) / Hinter Furt","admin3":"230"},{"geonameid":6295152,"name":"Wülflingen (Kreis 6) / Insel","admin3":"230"},{"geonameid":6295161,"name":"Wülflingen (Kreis 6) / Landwirtschaftliche Schule","admin3":"230"},{"geonameid":6295175,"name":"Wülflingen (Kreis 6) / Lantig","admin3":"230"},{"geonameid":6295159,"name":"Wülflingen (Kreis 6) / Lerchenbühl","admin3":"230"},{"geonameid":6295174,"name":"Wülflingen (Kreis 6) / Lindenplatz","admin3":"230"},{"geonameid":6295156,"name":"Wülflingen (Kreis 6) / Meienried","admin3":"230"},{"geonameid":6295173,"name":"Wülflingen (Kreis 6) / Neuburg (Dorf)","admin3":"230"},{"geonameid":6295177,"name":"Wülflingen (Kreis 6) / Niederfeld","admin3":"230"},{"geonameid":6295150,"name":"Wülflingen (Kreis 6) / Ober Radhof","admin3":"230"},{"geonameid":6295166,"name":"Wülflingen (Kreis 6) / Oberfeld","admin3":"230"},{"geonameid":6295160,"name":"Wülflingen (Kreis 6) / Rosengarten","admin3":"230"},{"geonameid":6295165,"name":"Wülflingen (Kreis 6) / Schweikhof","admin3":"230"},{"geonameid":6295163,"name":"Wülflingen (Kreis 6) / Stöcklirüti","admin3":"230"},{"geonameid":6295153,"name":"Wülflingen (Kreis 6) / Taggenberg","admin3":"230"},{"geonameid":6295180,"name":"Wülflingen (Kreis 6) / Taggenberg","admin3":"230"},{"geonameid":6295169,"name":"Wülflingen (Kreis 6) / Tössrain","admin3":"230"},{"geonameid":6295149,"name":"Wülflingen (Kreis 6) / Unter Radhof","admin3":"230"},{"geonameid":6295162,"name":"Wülflingen (Kreis 6) / Vorder-Rumstal","admin3":"230"},{"geonameid":6295164,"name":"Wülflingen (Kreis 6) / Weiertal","admin3":"230"},{"geonameid":6295157,"name":"Wülflingen (Kreis 6) / Weinberg","admin3":"230"},{"geonameid":6295167,"name":"Wülflingen (Kreis 6) / Wieshof","admin3":"230"},{"geonameid":2657930,"name":"Zell","admin3":"231"},{"geonameid":6294756,"name":"Ziegelhof","admin3":"216"},{"geonameid":6294930,"name":"Ziegelhütten","admin3":"223"},{"geonameid":6294693,"name":"Zünikon","admin3":"298"}],"admin3":[{"geonameid":2661011,"name":"Dinhard","admin3":"216"},{"geonameid":7285060,"name":"Altikon","admin3":"211"},{"geonameid":7285359,"name":"Brütten","admin3":"213"},{"geonameid":7285615,"name":"Dägerlen","admin3":"214"},{"geonameid":7285627,"name":"Dättlikon","admin3":"215"},{"geonameid":7285719,"name":"Elgg","admin3":"294"},{"geonameid":7285720,"name":"Ellikon an der Thur","admin3":"218"},{"geonameid":7285722,"name":"Elsau","admin3":"219"},{"geonameid":7286019,"name":"Hagenbuch","admin3":"220"},{"geonameid":7286080,"name":"Hettlingen","admin3":"221"},{"geonameid":7286616,"name":"Neftenbach","admin3":"223"},{"geonameid":7286792,"name":"Pfungen","admin3":"224"},{"geonameid":7286899,"name":"Rickenbach (ZH)","admin3":"225"},{"geonameid":7287090,"name":"Schlatt (ZH)","admin3":"226"},{"geonameid":7287158,"name":"Seuzach","admin3":"227"},{"geonameid":7287352,"name":"Turbenthal","admin3":"228"},{"geonameid":7287592,"name":"Winterthur","admin3":"230"},{"geonameid":7287629,"name":"Zell (ZH)","admin3":"231"},{"geonameid":8740940,"name":"Wiesendangen","admin3":"298"}],"alternateNames":[]},"__N_SSG":true}