{"pageProps":{"locale":"en","admin2":{"geonameid":2641429,"name":"Northamptonshire","country":"GB","admin1":"ENG","admin2":"J1","admin3":"","latitude":"52.2500000","longitude":"-0.8333300","localeAltName":"Northamptonshire"},"admin1":{"geonameid":6269131,"name":"England","admin1":"ENG","localeAltName":"England"},"locations":[{"geonameid":2657773,"name":"Abthorpe"},{"geonameid":2657708,"name":"Achurch"},{"geonameid":2657662,"name":"Adstone"},{"geonameid":2657523,"name":"Aldwincle St Peter"},{"geonameid":11670133,"name":"Althorp Estate"},{"geonameid":2657052,"name":"Armston"},{"geonameid":2657011,"name":"Arthingworth"},{"geonameid":2656967,"name":"Ashby St Ledgers"},{"geonameid":2656939,"name":"Ashley"},{"geonameid":2656921,"name":"Ashton"},{"geonameid":2656922,"name":"Ashton"},{"geonameid":9166013,"name":"Astrop"},{"geonameid":2656711,"name":"Aynho"},{"geonameid":2656662,"name":"Badby"},{"geonameid":2656366,"name":"Barby"},{"geonameid":2656275,"name":"Barnwell"},{"geonameid":2656244,"name":"Barrowden"},{"geonameid":2655905,"name":"Benefield"},{"geonameid":2655381,"name":"Blakesley"},{"geonameid":2655372,"name":"Blatherwycke"},{"geonameid":2655341,"name":"Blisworth"},{"geonameid":2655118,"name":"Boughton"},{"geonameid":2655026,"name":"Bozeat"},{"geonameid":2655012,"name":"Brackley"},{"geonameid":2654914,"name":"Brampton Ash"},{"geonameid":2654861,"name":"Braunston"},{"geonameid":2654851,"name":"Braybrooke"},{"geonameid":2654702,"name":"Brigstock"},{"geonameid":2654660,"name":"Brixworth"},{"geonameid":2654613,"name":"Brockhall"},{"geonameid":2654509,"name":"Broughton"},{"geonameid":2654372,"name":"Bugbrooke"},{"geonameid":2654337,"name":"Bulwick"},{"geonameid":2654208,"name":"Burton Latimer"},{"geonameid":2654137,"name":"Byfield"},{"geonameid":11887919,"name":"Caldecott"},{"geonameid":2653611,"name":"Castle Ashby"},{"geonameid":2653416,"name":"Chacombe"},{"geonameid":2653370,"name":"Chapel Brampton"},{"geonameid":2653308,"name":"Charwelton"},{"geonameid":2653260,"name":"Chelveston"},{"geonameid":2653136,"name":"Chipping Warden"},{"geonameid":2653046,"name":"Church Brampton"},{"geonameid":2653022,"name":"Church Stowe"},{"geonameid":2652822,"name":"Clipston"},{"geonameid":2652641,"name":"Cogenhoe"},{"geonameid":2652616,"name":"Cold Ashby"},{"geonameid":2652556,"name":"Collingtree"},{"geonameid":2652550,"name":"Collyweston"},{"geonameid":2652381,"name":"Corby"},{"geonameid":2652295,"name":"Cosgrove"},{"geonameid":2652266,"name":"Cotterstock"},{"geonameid":2652265,"name":"Cottesbrooke"},{"geonameid":2652263,"name":"Cottingham"},{"geonameid":2652231,"name":"Courteenhall"},{"geonameid":2652084,"name":"Cranford"},{"geonameid":11593160,"name":"Creaton"},{"geonameid":2651989,"name":"Crick"},{"geonameid":2651855,"name":"Croughton"},{"geonameid":2651719,"name":"Culworth"},{"geonameid":2651579,"name":"Dallington"},{"geonameid":2651485,"name":"Daventry"},{"geonameid":2651461,"name":"Deanshanger"},{"geonameid":2651425,"name":"Deene"},{"geonameid":2651424,"name":"Deenethorpe"},{"geonameid":2651380,"name":"Denford"},{"geonameid":2651359,"name":"Denton"},{"geonameid":2651311,"name":"Desborough"},{"geonameid":2651176,"name":"Dodford"},{"geonameid":2651012,"name":"Draughton"},{"geonameid":2650846,"name":"Duddington"},{"geonameid":2650552,"name":"Earls Barton"},{"geonameid":11001764,"name":"East Carlton"},{"geonameid":2650446,"name":"East Farndon"},{"geonameid":2650433,"name":"East Haddon"},{"geonameid":2650361,"name":"Easton on the Hill"},{"geonameid":2650263,"name":"Ecton"},{"geonameid":11593182,"name":"Evenley"},{"geonameid":11593185,"name":"Everdon"},{"geonameid":2649791,"name":"Eydon"},{"geonameid":2649640,"name":"Farthinghoe"},{"geonameid":2649639,"name":"Farthingstone"},{"geonameid":2649613,"name":"Fawsley"},{"geonameid":2649612,"name":"Faxton"},{"geonameid":2649428,"name":"Finedon"},{"geonameid":2649280,"name":"Flore"},{"geonameid":2649154,"name":"Fotheringhay"},{"geonameid":2648757,"name":"Gayton"},{"geonameid":2648739,"name":"Geddington"},{"geonameid":2648599,"name":"Glapthorn"},{"geonameid":2648239,"name":"Grafton Underwood"},{"geonameid":2648179,"name":"Great Addington"},{"geonameid":2648160,"name":"Great Billing"},{"geonameid":2648148,"name":"Great Brington"},{"geonameid":2648129,"name":"Great Creaton"},{"geonameid":2648122,"name":"Great Doddington"},{"geonameid":2648107,"name":"Great Everdon"},{"geonameid":2648075,"name":"Great Houghton"},{"geonameid":2648048,"name":"Great Oakley"},{"geonameid":2648042,"name":"Great Oxendon"},{"geonameid":2647988,"name":"Greatworth"},{"geonameid":11592587,"name":"Greens Norton"},{"geonameid":2647924,"name":"Grendon"},{"geonameid":2647907,"name":"Gretton"},{"geonameid":2647789,"name":"Guilsborough"},{"geonameid":2647698,"name":"Hackleton"},{"geonameid":2647497,"name":"Hardingstone"},{"geonameid":2647491,"name":"Hardwick"},{"geonameid":2647478,"name":"Hargrave"},{"geonameid":2647466,"name":"Harlestone"},{"geonameid":2647446,"name":"Harpole"},{"geonameid":2647436,"name":"Harrington"},{"geonameid":2647433,"name":"Harringworth"},{"geonameid":2647423,"name":"Harrowden"},{"geonameid":2647388,"name":"Hartwell"},{"geonameid":2647371,"name":"Haselbech"},{"geonameid":2647164,"name":"Hellidon"},{"geonameid":2647153,"name":"Helmdon"},{"geonameid":2647131,"name":"Hemington"},{"geonameid":2646985,"name":"Higham Ferrers"},{"geonameid":9389147,"name":"Hinton"},{"geonameid":2646844,"name":"Hinton in the Hedges"},{"geonameid":2646771,"name":"Holcot"},{"geonameid":11072274,"name":"Hollowell"},{"geonameid":2646546,"name":"Horton"},{"geonameid":2646055,"name":"Irchester"},{"geonameid":2646034,"name":"Irthlingborough"},{"geonameid":2646022,"name":"Isham"},{"geonameid":2646001,"name":"Islip"},{"geonameid":2645856,"name":"Kelmarsh"},{"geonameid":2645753,"name":"Kettering"},{"geonameid":2645551,"name":"Kilsby"},{"geonameid":2645477,"name":"Kings Cliffe"},{"geonameid":2645443,"name":"Kings Sutton"},{"geonameid":2645441,"name":"Kingsthorpe"},{"geonameid":2645176,"name":"Kislingbury"},{"geonameid":2644977,"name":"Lamport"},{"geonameid":2644775,"name":"Laxton"},{"geonameid":2644511,"name":"Lilbourne"},{"geonameid":2644388,"name":"Litchborough"},{"geonameid":11592624,"name":"Little Addington"},{"geonameid":11593323,"name":"Little Harrowden"},{"geonameid":11592610,"name":"Little Houghton"},{"geonameid":2644277,"name":"Little Oakley"},{"geonameid":2643786,"name":"Loddington"},{"geonameid":2643714,"name":"Long Buckby"},{"geonameid":2643483,"name":"Lowick"},{"geonameid":2643433,"name":"Luddington in the Brook"},{"geonameid":2643336,"name":"Lutton"},{"geonameid":2643181,"name":"Maidford"},{"geonameid":2643178,"name":"Maidwell"},{"geonameid":6619946,"name":"Mawsley"},{"geonameid":11592611,"name":"Mears Ashby"},{"geonameid":11001763,"name":"Middleton"},{"geonameid":11593337,"name":"Middleton Cheney"},{"geonameid":2642477,"name":"Milton"},{"geonameid":11593341,"name":"Milton Malsor"},{"geonameid":2642198,"name":"Moreton Pinkney"},{"geonameid":2642124,"name":"Moulton"},{"geonameid":2641874,"name":"Naseby"},{"geonameid":2641869,"name":"Nassington"},{"geonameid":6692751,"name":"Nether Heyford"},{"geonameid":11592762,"name":"Newnham"},{"geonameid":2641565,"name":"Newton"},{"geonameid":2641430,"name":"Northampton"},{"geonameid":2641203,"name":"Norton"},{"geonameid":11593354,"name":"Old Stratford"},{"geonameid":2640919,"name":"Orlingbury"},{"geonameid":2640825,"name":"Oundle"},{"geonameid":2640767,"name":"Overstone"},{"geonameid":2640585,"name":"Passenham"},{"geonameid":2640565,"name":"Pattishall"},{"geonameid":2640562,"name":"Paulerspury"},{"geonameid":2640304,"name":"Piddington"},{"geonameid":2640281,"name":"Pilton"},{"geonameid":2640245,"name":"Pitsford"},{"geonameid":2640176,"name":"Polebrook"},{"geonameid":2639969,"name":"Potterspury"},{"geonameid":2639907,"name":"Preston Capes"},{"geonameid":2639818,"name":"Pytchley"},{"geonameid":11592591,"name":"Quinton"},{"geonameid":2639714,"name":"Radstone"},{"geonameid":2639600,"name":"Raunds"},{"geonameid":11593378,"name":"Ravensthorpe"},{"geonameid":2639337,"name":"Ringstead"},{"geonameid":2639296,"name":"Roade"},{"geonameid":2639247,"name":"Rockingham"},{"geonameid":2639089,"name":"Rothersthorpe"},{"geonameid":2639074,"name":"Rothwell"},{"geonameid":2638946,"name":"Rushden"},{"geonameid":2638941,"name":"Rushton"},{"geonameid":6951838,"name":"Showsley"},{"geonameid":6951837,"name":"Shutlanger"},{"geonameid":2637873,"name":"Sibbertoft"},{"geonameid":2637827,"name":"Silverstone"},{"geonameid":2637666,"name":"Slapton"},{"geonameid":2637200,"name":"Spratton"},{"geonameid":2637086,"name":"Stanford on Avon"},{"geonameid":2637074,"name":"Stanion"},{"geonameid":2637034,"name":"Stanwick"},{"geonameid":2636989,"name":"Staverton"},{"geonameid":2636866,"name":"Stoke Albany"},{"geonameid":6951836,"name":"Stoke Bruerne"},{"geonameid":2636859,"name":"Stoke Doyle"},{"geonameid":2636650,"name":"Strixton"},{"geonameid":2636568,"name":"Sudborough"},{"geonameid":2636550,"name":"Sulgrave"},{"geonameid":2636342,"name":"Syresham"},{"geonameid":2636339,"name":"Sywell"},{"geonameid":2636255,"name":"Tansor"},{"geonameid":2636000,"name":"Thornby"},{"geonameid":2635941,"name":"Thorpe Waterville"},{"geonameid":2635937,"name":"Thrapston"},{"geonameid":2635887,"name":"Thurning"},{"geonameid":2635770,"name":"Titchmarsh"},{"geonameid":2635597,"name":"Towcester"},{"geonameid":2635289,"name":"Twywell"},{"geonameid":2635145,"name":"Upper Boddington"},{"geonameid":2634919,"name":"Wadenhoe"},{"geonameid":2634908,"name":"Wakerley"},{"geonameid":2634888,"name":"Walgrave"},{"geonameid":2634799,"name":"Wappenham"},{"geonameid":2634763,"name":"Warkworth"},{"geonameid":2634756,"name":"Warmington"},{"geonameid":2634676,"name":"Watford"},{"geonameid":2634613,"name":"Weedon Beck"},{"geonameid":2634610,"name":"Weekley"},{"geonameid":2634591,"name":"Weldon"},{"geonameid":2634589,"name":"Welford"},{"geonameid":2634578,"name":"Wellingborough"},{"geonameid":2634559,"name":"Welton"},{"geonameid":2634407,"name":"West Haddon"},{"geonameid":2634326,"name":"Weston"},{"geonameid":2634144,"name":"Whiston"},{"geonameid":2634048,"name":"Whitfield"},{"geonameid":2634011,"name":"Whittlebury"},{"geonameid":2633981,"name":"Wicken"},{"geonameid":2633927,"name":"Wilbarston"},{"geonameid":2633924,"name":"Wilby"},{"geonameid":2633697,"name":"Wollaston"},{"geonameid":2633657,"name":"Woodford"},{"geonameid":2633630,"name":"Woodnewton"},{"geonameid":2633574,"name":"Wootton"},{"geonameid":11592637,"name":"Yardley Gobion"},{"geonameid":2633418,"name":"Yardley Hastings"},{"geonameid":11592601,"name":"Yarwell"},{"geonameid":2633383,"name":"Yelvertoft"}],"admin3":[{"geonameid":2641431,"name":"Northampton","admin3":"34UF"},{"geonameid":7290600,"name":"Corby District","admin3":"34UB"},{"geonameid":7290601,"name":"Daventry District","admin3":"34UC"},{"geonameid":7290602,"name":"East Northamptonshire District","admin3":"34UD"},{"geonameid":7290603,"name":"Kettering District","admin3":"34UE"},{"geonameid":7290604,"name":"South Northamptonshire District","admin3":"34UG"},{"geonameid":7290605,"name":"Wellingborough District","admin3":"34UH"}],"alternateNames":[{"alternatenameId":2254253,"geonameid":2641429,"isoLanguage":"en","alternateName":"Northamptonshire","isPreferredName":true,"isShortName":true,"isColloquial":false,"isHistoric":false},{"alternatenameId":1626647,"geonameid":6269131,"isoLanguage":"en","alternateName":"England","isPreferredName":true,"isShortName":true,"isColloquial":false,"isHistoric":false}]},"__N_SSG":true}