{"pageProps":{"locale":"en","admin2":{"geonameid":2644667,"name":"Leicestershire","country":"GB","admin1":"ENG","admin2":"H5","admin3":"","latitude":"52.6666700","longitude":"-1.0000000","localeAltName":"Leicestershire"},"admin1":{"geonameid":6269131,"name":"England","admin1":"ENG","localeAltName":"England"},"locations":[{"geonameid":2657777,"name":"Ab Kettleby","admin3":"31UG","localeAltName":null},{"geonameid":2657478,"name":"Allexton","admin3":"31UD","localeAltName":null},{"geonameid":2657268,"name":"Anstey","admin3":"31UC","localeAltName":null},{"geonameid":2657238,"name":"Appleby Magna","admin3":"6896157","localeAltName":null},{"geonameid":2657045,"name":"Arnesby","admin3":"31UD","localeAltName":null},{"geonameid":8224214,"name":"Asfordby","admin3":"31UG","localeAltName":null},{"geonameid":8410829,"name":"Ashby Folville","admin3":"31UG","localeAltName":null},{"geonameid":2656969,"name":"Ashby Magna","admin3":"31UD","localeAltName":null},{"geonameid":2656968,"name":"Ashby Parva","admin3":"31UD","localeAltName":null},{"geonameid":2656970,"name":"Ashby-de-la-Zouch","admin3":"6896157","localeAltName":null},{"geonameid":2656628,"name":"Bagworth","admin3":"31UE","localeAltName":null},{"geonameid":2656322,"name":"Barlestone","admin3":"31UE","localeAltName":null},{"geonameid":2656239,"name":"Barrow upon Soar","admin3":"31UC","localeAltName":null},{"geonameid":2656229,"name":"Barsby","admin3":"31UG","localeAltName":null},{"geonameid":2656198,"name":"Barwell","admin3":"31UE","localeAltName":null},{"geonameid":2655980,"name":"Belgrave","admin3":"","localeAltName":null},{"geonameid":2655934,"name":"Belton","admin3":"6896157","localeAltName":null},{"geonameid":2655927,"name":"Belvoir","admin3":"31UG","localeAltName":null},{"geonameid":2655671,"name":"Billesdon","admin3":"31UD","localeAltName":null},{"geonameid":2655593,"name":"Birstall","admin3":"","localeAltName":null},{"geonameid":2655537,"name":"Bitteswell","admin3":"31UD","localeAltName":null},{"geonameid":2655532,"name":"Blaby","admin3":"31UB","localeAltName":null},{"geonameid":2655125,"name":"Bottesford","admin3":"31UG","localeAltName":null},{"geonameid":2654859,"name":"Braunstone","admin3":"31UB","localeAltName":null},{"geonameid":2654805,"name":"Breedon on the Hill","admin3":"6896157","localeAltName":null},{"geonameid":2654502,"name":"Broughton Astley","admin3":"31UD","localeAltName":null},{"geonameid":2654457,"name":"Bruntingthorpe","admin3":"31UD","localeAltName":null},{"geonameid":2654393,"name":"Buckminster","admin3":"31UG","localeAltName":null},{"geonameid":2654319,"name":"Burbage","admin3":"31UE","localeAltName":null},{"geonameid":6693811,"name":"Burton Lazars","admin3":"31UG","localeAltName":null},{"geonameid":2654206,"name":"Burton on the Wolds","admin3":"31UC","localeAltName":null},{"geonameid":2654205,"name":"Burton Overy","admin3":"31UD","localeAltName":null},{"geonameid":11669839,"name":"Bushby","admin3":"31UD","localeAltName":null},{"geonameid":2653769,"name":"Carlton","admin3":"31UE","localeAltName":null},{"geonameid":9538993,"name":"Carthorpe","admin3":"31UG","localeAltName":null},{"geonameid":2653591,"name":"Castle Donington","admin3":"6896157","localeAltName":null},{"geonameid":2653493,"name":"Catthorpe","admin3":"31UD","localeAltName":null},{"geonameid":2653409,"name":"Chadwell","admin3":"31UG","localeAltName":null},{"geonameid":2653174,"name":"Chilcote","admin3":"6896157","localeAltName":null},{"geonameid":2653031,"name":"Church Langton","admin3":"31UD","localeAltName":null},{"geonameid":2652913,"name":"Claybrooke Magna","admin3":"31UD","localeAltName":null},{"geonameid":2652912,"name":"Claybrooke Parva","admin3":"31UD","localeAltName":null},{"geonameid":2652698,"name":"Coalville","admin3":"6896157","localeAltName":null},{"geonameid":2652588,"name":"Coleorton","admin3":"6896157","localeAltName":null},{"geonameid":2652466,"name":"Congerstone","admin3":"31UE","localeAltName":null},{"geonameid":6947735,"name":"Copt Oak","admin3":"6896157","localeAltName":null},{"geonameid":2652298,"name":"Cosby","admin3":"31UB","localeAltName":null},{"geonameid":12195848,"name":"Cossington","admin3":"31UC","localeAltName":null},{"geonameid":2652287,"name":"Coston","admin3":"31UG","localeAltName":null},{"geonameid":2652283,"name":"Cotesbach","admin3":"31UD","localeAltName":null},{"geonameid":2652239,"name":"Countesthorpe","admin3":"31UB","localeAltName":null},{"geonameid":12173171,"name":"Cranoe","admin3":"31UD","localeAltName":null},{"geonameid":2651954,"name":"Croft","admin3":"31UB","localeAltName":null},{"geonameid":2651820,"name":"Croxton Kerrial","admin3":"31UG","localeAltName":null},{"geonameid":2651624,"name":"Dadlington","admin3":"31UE","localeAltName":null},{"geonameid":2651309,"name":"Desford","admin3":"31UE","localeAltName":null},{"geonameid":2651218,"name":"Diseworth","admin3":"6896157","localeAltName":null},{"geonameid":6900515,"name":"Donington le Heath","admin3":"6896157","localeAltName":null},{"geonameid":2651117,"name":"Donisthorpe","admin3":"6896157","localeAltName":null},{"geonameid":11593173,"name":"Dunton Bassett","admin3":"31UD","localeAltName":null},{"geonameid":6693007,"name":"Earl Shilton","admin3":"31UE","localeAltName":null},{"geonameid":11592764,"name":"East Goscote","admin3":"31UC","localeAltName":null},{"geonameid":2650402,"name":"East Langton","admin3":"31UD","localeAltName":null},{"geonameid":2650370,"name":"East Norton","admin3":"31UD","localeAltName":null},{"geonameid":2650317,"name":"Eastwell","admin3":"31UG","localeAltName":null},{"geonameid":2650299,"name":"Eaton","admin3":"31UG","localeAltName":null},{"geonameid":2650210,"name":"Edmondthorpe","admin3":"31UG","localeAltName":null},{"geonameid":2650076,"name":"Elmesthorpe","admin3":"31UB","localeAltName":null},{"geonameid":2650000,"name":"Enderby","admin3":"31UB","localeAltName":null},{"geonameid":2649830,"name":"Evington","admin3":"31UJ","localeAltName":null},{"geonameid":11001770,"name":"Fleckney","admin3":"31UD","localeAltName":null},{"geonameid":2649115,"name":"Foxton","admin3":"31UD","localeAltName":null},{"geonameid":2649082,"name":"Freeby","admin3":"31UG","localeAltName":null},{"geonameid":2649046,"name":"Frisby on the Wreak","admin3":"31UG","localeAltName":null},{"geonameid":2648957,"name":"Gaddesby","admin3":"31UG","localeAltName":null},{"geonameid":2648650,"name":"Gilmorton","admin3":"31UD","localeAltName":null},{"geonameid":2648448,"name":"Glen Parva","admin3":"31UB","localeAltName":null},{"geonameid":2648484,"name":"Glenfield","admin3":"31UB","localeAltName":null},{"geonameid":2648406,"name":"Glooston","admin3":"31UD","localeAltName":null},{"geonameid":2648382,"name":"Goadby","admin3":"31UD","localeAltName":null},{"geonameid":2648381,"name":"Goadby Marwood","admin3":"31UG","localeAltName":null},{"geonameid":2648153,"name":"Great Bowden","admin3":"31UD","localeAltName":null},{"geonameid":2648124,"name":"Great Dalby","admin3":"31UG","localeAltName":null},{"geonameid":2648115,"name":"Great Easton","admin3":"31UD","localeAltName":null},{"geonameid":2648097,"name":"Great Glen","admin3":"31UD","localeAltName":null},{"geonameid":2648012,"name":"Great Stretton","admin3":"31UD","localeAltName":null},{"geonameid":2647874,"name":"Grimston","admin3":"31UG","localeAltName":null},{"geonameid":11550905,"name":"Groby","admin3":"31UE","localeAltName":null},{"geonameid":2647766,"name":"Gumley","admin3":"31UD","localeAltName":null},{"geonameid":2647624,"name":"Hallaton","admin3":"31UD","localeAltName":null},{"geonameid":2647501,"name":"Harby","admin3":"31UG","localeAltName":null},{"geonameid":2647340,"name":"Hathern","admin3":"31UC","localeAltName":null},{"geonameid":2647219,"name":"Heather","admin3":"6896157","localeAltName":null},{"geonameid":2647024,"name":"Hethel","admin3":"31UB","localeAltName":null},{"geonameid":2646984,"name":"Higham on the Hill","admin3":"31UE","localeAltName":null},{"geonameid":2646867,"name":"Hinckley","admin3":"31UE","localeAltName":null},{"geonameid":2646819,"name":"Hoby","admin3":"31UG","localeAltName":null},{"geonameid":2646689,"name":"Holwell","admin3":"31UG","localeAltName":null},{"geonameid":2646587,"name":"Horninghold","admin3":"31UD","localeAltName":null},{"geonameid":2646540,"name":"Hose","admin3":"31UG","localeAltName":null},{"geonameid":8224213,"name":"Hoton","admin3":"31UC","localeAltName":null},{"geonameid":2646524,"name":"Houghton on the Hill","admin3":"31UD","localeAltName":null},{"geonameid":2646455,"name":"Hugglescote","admin3":"31UE","localeAltName":null},{"geonameid":11592771,"name":"Huncote","admin3":"31UB","localeAltName":null},{"geonameid":10626371,"name":"Hungarton","admin3":"31UD","localeAltName":null},{"geonameid":2646409,"name":"Hungerton","admin3":"31UD","localeAltName":null},{"geonameid":2646349,"name":"Husbands Bosworth","admin3":"31UD","localeAltName":null},{"geonameid":2646311,"name":"Ibstock","admin3":"6896157","localeAltName":null},{"geonameid":2646267,"name":"Illston on the Hill","admin3":"31UD","localeAltName":null},{"geonameid":2645891,"name":"Kegworth","admin3":"6896157","localeAltName":null},{"geonameid":2645752,"name":"Ketteringham","admin3":"31UB","localeAltName":null},{"geonameid":2645728,"name":"Kibworth Harcourt","admin3":"31UD","localeAltName":null},{"geonameid":2645701,"name":"Kilby","admin3":"31UB","localeAltName":null},{"geonameid":2645335,"name":"Kirby Muxloe","admin3":"31UB","localeAltName":null},{"geonameid":2645306,"name":"Kirkby Mallory","admin3":"31UE","localeAltName":null},{"geonameid":2645152,"name":"Knipton","admin3":"31UG","localeAltName":null},{"geonameid":2645104,"name":"Knossington","admin3":"31UG","localeAltName":null},{"geonameid":6941149,"name":"Langley Priory","admin3":"6896157","localeAltName":null},{"geonameid":11592630,"name":"Leire","admin3":"31UD","localeAltName":null},{"geonameid":2644342,"name":"Little Dalby","admin3":"31UG","localeAltName":null},{"geonameid":2644241,"name":"Little Stretton","admin3":"31UD","localeAltName":null},{"geonameid":2643785,"name":"Loddington","admin3":"31UD","localeAltName":null},{"geonameid":2643712,"name":"Long Clawson","admin3":"31UG","localeAltName":null},{"geonameid":2643615,"name":"Long Whatton","admin3":"6896157","localeAltName":null},{"geonameid":2643567,"name":"Loughborough","admin3":"31UC","localeAltName":null},{"geonameid":2643493,"name":"Lowesby","admin3":"31UD","localeAltName":null},{"geonameid":2643451,"name":"Lubenham","admin3":"31UD","localeAltName":null},{"geonameid":2643337,"name":"Lutterworth","admin3":"31UD","localeAltName":null},{"geonameid":2643055,"name":"Marefield","admin3":"31UD","localeAltName":null},{"geonameid":2643030,"name":"Market Bosworth","admin3":"31UE","localeAltName":null},{"geonameid":2643027,"name":"Market Harborough","admin3":"31UD","localeAltName":null},{"geonameid":2643019,"name":"Markfield","admin3":"31UE","localeAltName":null},{"geonameid":2642843,"name":"Measham","admin3":"6896157","localeAltName":null},{"geonameid":2642838,"name":"Medbourne","admin3":"31UD","localeAltName":null},{"geonameid":2642763,"name":"Melton Mowbray","admin3":"31UG","localeAltName":null},{"geonameid":2642377,"name":"Moira","admin3":"6896157","localeAltName":null},{"geonameid":2642096,"name":"Mountsorrel","admin3":"31UC","localeAltName":null},{"geonameid":2642078,"name":"Mowsley","admin3":"31UD","localeAltName":null},{"geonameid":9431019,"name":"Muston","admin3":"31UG","localeAltName":null},{"geonameid":11593343,"name":"Nailstone","admin3":"31UE","localeAltName":null},{"geonameid":2641884,"name":"Narborough","admin3":"31UB","localeAltName":null},{"geonameid":2641791,"name":"Nether Broughton","admin3":"31UG","localeAltName":null},{"geonameid":11778273,"name":"Newbold Heath","admin3":"31UE","localeAltName":null},{"geonameid":2641710,"name":"Newbold Verdon","admin3":"31UE","localeAltName":null},{"geonameid":2641514,"name":"Newtown Limford","admin3":"31UC","localeAltName":null},{"geonameid":2641442,"name":"Normanton le Heath","admin3":"6896157","localeAltName":null},{"geonameid":2641321,"name":"North Kilworth","admin3":"31UD","localeAltName":null},{"geonameid":2641186,"name":"Norton juxta Twycross","admin3":"31UE","localeAltName":null},{"geonameid":2641134,"name":"Oadby","admin3":"31UJ","localeAltName":null},{"geonameid":2641028,"name":"Old Dalby","admin3":"31UG","localeAltName":null},{"geonameid":2640887,"name":"Orton on the Hill","admin3":"31UE","localeAltName":null},{"geonameid":2640741,"name":"Owston","admin3":"31UD","localeAltName":null},{"geonameid":2640697,"name":"Packington","admin3":"6896157","localeAltName":null},{"geonameid":2640534,"name":"Peatling Magna","admin3":"31UD","localeAltName":null},{"geonameid":2640533,"name":"Peatling Parva","admin3":"31UD","localeAltName":null},{"geonameid":2639779,"name":"Queniborough","admin3":"31UC","localeAltName":null},{"geonameid":8063657,"name":"Quorn","admin3":"31UC","localeAltName":null},{"geonameid":2639755,"name":"Quorndon","admin3":"31UC","localeAltName":null},{"geonameid":11593491,"name":"RAF Wymeswold","admin3":"31UC","localeAltName":null},{"geonameid":2639701,"name":"Ragdale","admin3":"31UG","localeAltName":null},{"geonameid":11550906,"name":"Ratby","admin3":"31UE","localeAltName":null},{"geonameid":2639625,"name":"Ratcliffe on the Wreake","admin3":"31UC","localeAltName":null},{"geonameid":2639596,"name":"Ravenstone","admin3":"6896157","localeAltName":null},{"geonameid":2639575,"name":"Rearsby","admin3":"31UC","localeAltName":null},{"geonameid":2639533,"name":"Redmile","admin3":"31UG","localeAltName":null},{"geonameid":2639076,"name":"Rothley","admin3":"31UC","localeAltName":null},{"geonameid":2638882,"name":"Saddington","admin3":"31UD","localeAltName":null},{"geonameid":2638649,"name":"Saltby","admin3":"31UG","localeAltName":null},{"geonameid":2638515,"name":"Sapcote","admin3":"31UB","localeAltName":null},{"geonameid":2638471,"name":"Saxby","admin3":"31UG","localeAltName":null},{"geonameid":2638468,"name":"Saxelby","admin3":"31UG","localeAltName":null},{"geonameid":2638442,"name":"Scalford","admin3":"31UG","localeAltName":null},{"geonameid":2638305,"name":"Seagrave","admin3":"31UC","localeAltName":null},{"geonameid":2638178,"name":"Sewstern","admin3":"31UG","localeAltName":null},{"geonameid":2638161,"name":"Shackerstone","admin3":"31UE","localeAltName":null},{"geonameid":2638121,"name":"Sharnford","admin3":"31UB","localeAltName":null},{"geonameid":2638100,"name":"Shearsby","admin3":"31UD","localeAltName":null},{"geonameid":2638083,"name":"Sheepy","admin3":"31UE","localeAltName":null},{"geonameid":2638046,"name":"Shenton","admin3":"31UE","localeAltName":null},{"geonameid":2638036,"name":"Shepshed","admin3":"31UC","localeAltName":null},{"geonameid":2637869,"name":"Sibson","admin3":"31UE","localeAltName":null},{"geonameid":2637845,"name":"Sileby","admin3":"31UC","localeAltName":null},{"geonameid":2637767,"name":"Skeffington","admin3":"31UD","localeAltName":null},{"geonameid":2637661,"name":"Slawston","admin3":"31UD","localeAltName":null},{"geonameid":2637594,"name":"Snarestone","admin3":"6896157","localeAltName":null},{"geonameid":2637539,"name":"Somerby","admin3":"31UG","localeAltName":null},{"geonameid":11592737,"name":"South Croxton","admin3":"31UC","localeAltName":null},{"geonameid":11592613,"name":"South Kilworth","admin3":"31UD","localeAltName":null},{"geonameid":7302141,"name":"South Wigston","admin3":"31UJ","localeAltName":null},{"geonameid":2637180,"name":"Sproxton","admin3":"31UG","localeAltName":null},{"geonameid":2637023,"name":"Stapleford","admin3":"31UG","localeAltName":null},{"geonameid":2637002,"name":"Stathern","admin3":"31UG","localeAltName":null},{"geonameid":2636891,"name":"Stockerston","admin3":"31UD","localeAltName":null},{"geonameid":2636853,"name":"Stoke Golding","admin3":"31UE","localeAltName":null},{"geonameid":2636806,"name":"Stonesby","admin3":"31UG","localeAltName":null},{"geonameid":2636802,"name":"Stoney Stanton","admin3":"31UB","localeAltName":null},{"geonameid":11887922,"name":"Stoughton","admin3":"31UD","localeAltName":null},{"geonameid":6951016,"name":"Sutton Cheney","admin3":"31UE","localeAltName":null},{"geonameid":2636434,"name":"Swannington","admin3":"6896157","localeAltName":null},{"geonameid":2636382,"name":"Swinford","admin3":"31UD","localeAltName":null},{"geonameid":2636367,"name":"Swithland","admin3":"31UC","localeAltName":null},{"geonameid":2636341,"name":"Syston","admin3":"31UC","localeAltName":null},{"geonameid":2636043,"name":"Theddingworth","admin3":"31UD","localeAltName":null},{"geonameid":2635975,"name":"Thornton","admin3":"31UE","localeAltName":null},{"geonameid":2635951,"name":"Thorpe Langton","admin3":"31UD","localeAltName":null},{"geonameid":2635943,"name":"Thorpe Satchville","admin3":"31UG","localeAltName":null},{"geonameid":2635919,"name":"Thringstone","admin3":"31UC","localeAltName":null},{"geonameid":6620366,"name":"Thrussington","admin3":"31UC","localeAltName":null},{"geonameid":2635900,"name":"Thurcaston","admin3":"31UC","localeAltName":null},{"geonameid":11592736,"name":"Thurlaston","admin3":"31UB","localeAltName":null},{"geonameid":2635889,"name":"Thurnby","admin3":"31UD","localeAltName":null},{"geonameid":2635809,"name":"Tilton","admin3":"31UD","localeAltName":null},{"geonameid":2635696,"name":"Tonge","admin3":"6896157","localeAltName":null},{"geonameid":2635394,"name":"Tugby","admin3":"31UD","localeAltName":null},{"geonameid":2635345,"name":"Tur Langton","admin3":"31UD","localeAltName":null},{"geonameid":2635296,"name":"Twycross","admin3":"31UE","localeAltName":null},{"geonameid":2635293,"name":"Twyford","admin3":"31UG","localeAltName":null},{"geonameid":2635195,"name":"Ullesthorpe","admin3":"31UD","localeAltName":null},{"geonameid":2634840,"name":"Waltham on the Wolds","admin3":"31UG","localeAltName":null},{"geonameid":2634835,"name":"Walton","admin3":"31UD","localeAltName":null},{"geonameid":2634829,"name":"Walton le Wolds","admin3":"31UC","localeAltName":null},{"geonameid":2634728,"name":"Wartnaby","admin3":"31UG","localeAltName":null},{"geonameid":2634156,"name":"Whetstone","admin3":"31UB","localeAltName":null},{"geonameid":2633998,"name":"Whitwick","admin3":"31UC","localeAltName":null},{"geonameid":2633989,"name":"Wibtoft","admin3":"31UD","localeAltName":null},{"geonameid":2633936,"name":"Wigston Magna","admin3":"31UJ","localeAltName":null},{"geonameid":2633935,"name":"Wigston Parva","admin3":"31UB","localeAltName":null},{"geonameid":2633746,"name":"Withcote","admin3":"31UD","localeAltName":null},{"geonameid":2634043,"name":"Witherley","admin3":"31UE","localeAltName":null},{"geonameid":2633641,"name":"Woodhouse","admin3":"31UC","localeAltName":null},{"geonameid":12088715,"name":"Woodthorpe","admin3":"31UC","localeAltName":null},{"geonameid":2633592,"name":"Woolsthorpe by Belvoir","admin3":"31UG","localeAltName":null},{"geonameid":2633519,"name":"Worthington","admin3":"6896157","localeAltName":null},{"geonameid":2633448,"name":"Wymeswold","admin3":"31UC","localeAltName":null},{"geonameid":2633445,"name":"Wymondham","admin3":"31UG","localeAltName":null}],"admin3":[{"geonameid":2641133,"name":"Oadby and Wigston","admin3":"31UJ","localeAltName":null},{"geonameid":2655533,"name":"Blaby","admin3":"31UB","localeAltName":null},{"geonameid":6896157,"name":"North West Leicestershire","admin3":"6896157","localeAltName":null},{"geonameid":7290584,"name":"Charnwood District","admin3":"31UC","localeAltName":null},{"geonameid":7290585,"name":"Harborough District","admin3":"31UD","localeAltName":null},{"geonameid":7290586,"name":"Hinckley and Bosworth District","admin3":"31UE","localeAltName":null},{"geonameid":7290587,"name":"Melton District","admin3":"31UG","localeAltName":null}],"alternateNames":[{"alternatenameId":2254265,"geonameid":2644667,"isoLanguage":"en","alternateName":"Leicestershire","isPreferredName":true,"isShortName":true,"isColloquial":false,"isHistoric":false},{"alternatenameId":1626647,"geonameid":6269131,"isoLanguage":"en","alternateName":"England","isPreferredName":true,"isShortName":true,"isColloquial":false,"isHistoric":false}]},"__N_SSG":true}