{"pageProps":{"locale":"en","admin2":{"geonameid":4537854,"name":"Grady County","country":"US","admin1":"OK","admin2":"051","admin3":"","latitude":"35.0169400","longitude":"-97.8841100","localeAltName":null},"admin1":{"geonameid":4544379,"name":"Oklahoma","admin1":"OK","localeAltName":"Oklahoma"},"locations":[{"geonameid":4529220,"name":"Alex","admin3":"","localeAltName":null},{"geonameid":4533029,"name":"Chickasha","admin3":"","localeAltName":null},{"geonameid":4542876,"name":"Minco","admin3":"","localeAltName":null},{"geonameid":4543724,"name":"Ninnekah","admin3":"","localeAltName":null},{"geonameid":4549984,"name":"Rush Springs","admin3":"","localeAltName":null},{"geonameid":4553574,"name":"Tuttle","admin3":"","localeAltName":null},{"geonameid":4554400,"name":"Verden","admin3":"","localeAltName":null}],"admin3":[],"alternateNames":[{"alternatenameId":2089556,"geonameid":4544379,"isoLanguage":"en","alternateName":"Oklahoma","isPreferredName":true,"isShortName":true,"isColloquial":false,"isHistoric":false}]},"__N_SSG":true}