{"pageProps":{"locale":"en","admin2":{"geonameid":4302977,"name":"Ohio County","country":"US","admin1":"KY","admin2":"183","admin3":"","latitude":"37.4781900","longitude":"-86.8488900","localeAltName":null},"admin1":{"geonameid":6254925,"name":"Kentucky","admin1":"KY","localeAltName":"Kentucky"},"locations":[{"geonameid":4283557,"name":"Beaver Dam","admin3":"","localeAltName":null},{"geonameid":4292011,"name":"Fordsville","admin3":"","localeAltName":null},{"geonameid":4294195,"name":"Hartford","admin3":"","localeAltName":null},{"geonameid":4302828,"name":"Oak Grove","admin3":"","localeAltName":null}],"admin3":[{"geonameid":7169458,"name":"City of Fordsville","admin3":"7169458"},{"geonameid":7169584,"name":"City of Hartford","admin3":"7169584"},{"geonameid":7169597,"name":"City of Beaver Dam","admin3":"7169597"},{"geonameid":7169737,"name":"City of Centertown","admin3":"7169737"},{"geonameid":7170151,"name":"City of Rockport","admin3":"7170151"},{"geonameid":7170430,"name":"City of McHenry","admin3":"7170430"}],"alternateNames":[{"alternatenameId":6755489,"geonameid":6254925,"isoLanguage":"en","alternateName":"Kentucky","isPreferredName":true,"isShortName":true,"isColloquial":false,"isHistoric":false}]},"__N_SSG":true}