{"pageProps":{"locale":"en","admin2":{"geonameid":6691319,"name":"Capitale-Nationale","country":"CA","admin1":"10","admin2":"03","admin3":"","latitude":"47.3760000","longitude":"-71.1233700"},"admin1":{"geonameid":6115047,"name":"Québec","admin1":"10"},"locations":[{"geonameid":6690232,"name":"Baie-Saint-Paul","admin3":"16013"},{"geonameid":6639618,"name":"Baie-Sainte-Catherine","admin3":"15065"},{"geonameid":6325478,"name":"Beauport","admin3":"23027"},{"geonameid":6325479,"name":"Beaupré","admin3":"21025"},{"geonameid":6695248,"name":"Boischatel","admin3":"21045"},{"geonameid":7535673,"name":"Cap-Santé","admin3":"34030"},{"geonameid":6325485,"name":"Charlesbourg","admin3":"23027"},{"geonameid":6325486,"name":"Château-Richer","admin3":"21035"},{"geonameid":8593687,"name":"Clermont","admin3":"15035"},{"geonameid":5924245,"name":"Club-Dom-Est","admin3":"34090"},{"geonameid":8593828,"name":"Deschambault","admin3":"34058"},{"geonameid":5941122,"name":"Domaine-Denis","admin3":"34090"},{"geonameid":7535690,"name":"Donnacona","admin3":"34025"},{"geonameid":7116273,"name":"Fossambault-sur-le-Lac","admin3":"22010"},{"geonameid":5967329,"name":"Grondines","admin3":"34058"},{"geonameid":5967330,"name":"Grondines-Est","admin3":"34058"},{"geonameid":5967331,"name":"Grondines-Ouest","admin3":"34058"},{"geonameid":5967332,"name":"Grondines-Station","admin3":"34058"},{"geonameid":6534203,"name":"L'Ancienne-Lorette","admin3":"23057"},{"geonameid":6325516,"name":"L'Ange-Gardien","admin3":"21040"},{"geonameid":11838435,"name":"La Haute-Saint-Charles","admin3":"23027"},{"geonameid":6945986,"name":"La Malbaie","admin3":"15013"},{"geonameid":8063326,"name":"Lac Delage","admin3":"22030"},{"geonameid":8593821,"name":"Lac-Beauport","admin3":"22040"},{"geonameid":6000892,"name":"Lac-Blanc","admin3":"34090"},{"geonameid":6017086,"name":"Lac-du-Milieu","admin3":"34135"},{"geonameid":6051722,"name":"Le Faubourg","admin3":"34058"},{"geonameid":6051767,"name":"Le Frappe-Sacre","admin3":"34058"},{"geonameid":7290410,"name":"Les Éboulements","admin3":"16048"},{"geonameid":6945996,"name":"Loretteville","admin3":"23027"},{"geonameid":8593818,"name":"Mont-Murray","admin3":"15013"},{"geonameid":11838437,"name":"Neufchâtel-Est–Lebourgneuf","admin3":"23027"},{"geonameid":6325572,"name":"Neuville","admin3":"34007"},{"geonameid":11497407,"name":"Petite Riviere","admin3":"16005"},{"geonameid":8379100,"name":"Pont-Rouge","admin3":"34017"},{"geonameid":6354894,"name":"Portneuf","admin3":"34048"},{"geonameid":6325494,"name":"Québec","admin3":"23027"},{"geonameid":6122923,"name":"Rivière-à-Pierre","admin3":"34135"},{"geonameid":8593815,"name":"Saint-Aimé-des-Lacs","admin3":"15030"},{"geonameid":6137345,"name":"Saint-Alban","admin3":"34097"},{"geonameid":7535681,"name":"Saint-Augustin-de-Desmaures","admin3":"23072"},{"geonameid":9034823,"name":"Saint-Bernard-sur-Mer","admin3":"16023"},{"geonameid":6137560,"name":"Saint-Casimir","admin3":"34078"},{"geonameid":6137591,"name":"Saint-Charles-des-Grondines","admin3":"34058"},{"geonameid":7290234,"name":"Saint-Ferréol-les-Neiges","admin3":"21010"},{"geonameid":10128396,"name":"Saint-François-de-l'Île-d'Orléans","admin3":"20005"},{"geonameid":6138271,"name":"Saint-Gabriel-de-Valcartier","admin3":"22025"},{"geonameid":8593689,"name":"Saint-Hilarion","admin3":"16050"},{"geonameid":8593685,"name":"Saint-Irénée","admin3":"15005"},{"geonameid":6941063,"name":"Saint-Jean-de-l'Ile-d'Orléans","admin3":"20015"},{"geonameid":8224528,"name":"Saint-Joseph-de-la-Rive","admin3":"16048"},{"geonameid":11903570,"name":"Saint-Laurent-d'Orléans","admin3":"20020"},{"geonameid":6138629,"name":"Saint-Léonard-de-Portneuf","admin3":"34115"},{"geonameid":6138719,"name":"Saint-Marc-des-Carrières","admin3":"34065"},{"geonameid":8593824,"name":"Saint-Pierre-de-l'Île-d'Orléans","admin3":"20025"},{"geonameid":8593826,"name":"Saint-Raymond","admin3":"34128"},{"geonameid":8556258,"name":"Saint-Siméon","admin3":"15058"},{"geonameid":8593827,"name":"Saint-Tite-des-Caps","admin3":"21005"},{"geonameid":6139157,"name":"Saint-Ubalde","admin3":"34090"},{"geonameid":8593686,"name":"Saint-Urbain","admin3":"16055"},{"geonameid":6639619,"name":"Sainte Catherine de la Jacques Cartier","admin3":"22005"},{"geonameid":7522147,"name":"Sainte-Anne-de-Beaupré","admin3":"21030"},{"geonameid":8593682,"name":"Sainte-Brigitte-de-Laval","admin3":"22045"},{"geonameid":6137810,"name":"Sainte-Christine-d'Auvergne","admin3":"34105"},{"geonameid":6325488,"name":"Sainte-Foy","admin3":"23027"},{"geonameid":11497408,"name":"Sault au Cochon","admin3":""},{"geonameid":8354533,"name":"Shannon","admin3":"22020"},{"geonameid":8740849,"name":"Sillery","admin3":"23027"},{"geonameid":6951108,"name":"Stoneham","admin3":"22035"},{"geonameid":11838452,"name":"Val-Bélair","admin3":"23027"},{"geonameid":8740857,"name":"Wendake","admin3":""}],"admin3":[{"geonameid":6138312,"name":"Saint-Gilbert","admin3":"34060"},{"geonameid":6139145,"name":"Saint-Thuribe","admin3":"34085"},{"geonameid":8672550,"name":"Les Éboulements","admin3":"16048"},{"geonameid":8672556,"name":"Lac-Sergent","admin3":"34120"},{"geonameid":8672565,"name":"Saint-Urbain","admin3":"16055"},{"geonameid":8672598,"name":"Notre-Dame-des-Monts","admin3":"15025"},{"geonameid":8672614,"name":"Saint-Basile","admin3":"34038"},{"geonameid":8672628,"name":"Sainte-Famille","admin3":"20010"},{"geonameid":8672632,"name":"Sainte-Catherine-de-la-Jacques-Cartier","admin3":"22005"},{"geonameid":8672647,"name":"Saint-Joachim","admin3":"21020"},{"geonameid":8672668,"name":"Saint-Laurent-de-l'Île-d'Orléans","admin3":"20020"},{"geonameid":8672679,"name":"Lac-Saint-Joseph","admin3":"22015"},{"geonameid":8672697,"name":"Saint-Ferréol-les-Neiges","admin3":"21010"},{"geonameid":8672710,"name":"Saint-Jean-de-l'Île-d'Orléans","admin3":"20015"},{"geonameid":8672718,"name":"Deschambault-Grondines","admin3":"34058"},{"geonameid":8672730,"name":"Lac-Delage","admin3":"22030"},{"geonameid":8672746,"name":"L'Isle-aux-Coudres","admin3":"16023"},{"geonameid":8672918,"name":"Notre-Dame-des-Anges","admin3":"23015"},{"geonameid":8672931,"name":"Saint-Irénée","admin3":"15005"},{"geonameid":8672940,"name":"Pont-Rouge","admin3":"34017"},{"geonameid":8672981,"name":"Petite-Rivière-Saint-François","admin3":"16005"},{"geonameid":8672992,"name":"Sainte-Pétronille","admin3":"20030"},{"geonameid":8673009,"name":"Saint-Léonard-de-Portneuf","admin3":"34115"},{"geonameid":8673069,"name":"Saint-Louis-de-Gonzague-du-Cap-Tourmente","admin3":"21015"},{"geonameid":8673073,"name":"Stoneham-et-Tewkesbury","admin3":"22035"},{"geonameid":8673160,"name":"Shannon","admin3":"22020"},{"geonameid":8673165,"name":"Saint-Alban","admin3":"34097"},{"geonameid":8673338,"name":"Fossambault-sur-le-Lac","admin3":"22010"},{"geonameid":8673340,"name":"Sainte-Christine-d'Auvergne","admin3":"34105"},{"geonameid":8673467,"name":"Saint-Gabriel-de-Valcartier","admin3":"22025"},{"geonameid":8673513,"name":"Baie-Sainte-Catherine","admin3":"15065"},{"geonameid":8673525,"name":"Saint-Aimé-des-Lacs","admin3":"15030"},{"geonameid":8673543,"name":"Sainte-Anne-de-Beaupré","admin3":"21030"},{"geonameid":8673550,"name":"Saint-François-de-l'Île-d'Orléans","admin3":"20005"},{"geonameid":8673638,"name":"Saint-Ubalde","admin3":"34090"},{"geonameid":8673669,"name":"Saint-Siméon","admin3":"15058"},{"geonameid":8673718,"name":"Donnacona","admin3":"34025"},{"geonameid":8673720,"name":"Saint-Hilarion","admin3":"16050"},{"geonameid":8673778,"name":"Neuville","admin3":"34007"},{"geonameid":8673827,"name":"Saint-Marc-des-Carrières","admin3":"34065"},{"geonameid":8673828,"name":"Lac-Beauport","admin3":"22040"},{"geonameid":8673863,"name":"Saint-Raymond","admin3":"34128"},{"geonameid":8673878,"name":"Saint-Casimir","admin3":"34078"},{"geonameid":8673881,"name":"Château-Richer","admin3":"21035"},{"geonameid":8673892,"name":"L'Ange-Gardien","admin3":"21040"},{"geonameid":8673914,"name":"Clermont","admin3":"15035"},{"geonameid":8673964,"name":"Saint-Pierre-de-l'Île-d'Orléans","admin3":"20025"},{"geonameid":8674020,"name":"Québec","admin3":"23027"},{"geonameid":8674043,"name":"L'Ancienne-Lorette","admin3":"23057"},{"geonameid":8674051,"name":"La Malbaie","admin3":"15013"},{"geonameid":8674076,"name":"Rivière-à-Pierre","admin3":"34135"},{"geonameid":8674105,"name":"Beaupré","admin3":"21025"},{"geonameid":8674128,"name":"Cap-Santé","admin3":"34030"},{"geonameid":8674132,"name":"Sainte-Brigitte-de-Laval","admin3":"22045"},{"geonameid":8674165,"name":"Saint-Augustin-de-Desmaures","admin3":"23072"},{"geonameid":8674202,"name":"Saint-Tite-des-Caps","admin3":"21005"},{"geonameid":8674216,"name":"Portneuf","admin3":"34048"},{"geonameid":8674230,"name":"Baie-Saint-Paul","admin3":"16013"},{"geonameid":8674242,"name":"Boischatel","admin3":"21045"}],"alternateNames":[]},"__N_SSG":true}