{"pageProps":{"locale":"en","admin2":{"geonameid":5733351,"name":"Jackson County","country":"US","admin1":"OR","admin2":"029","admin3":"","latitude":"42.4321500","longitude":"-122.7284300","localeAltName":null},"admin1":{"geonameid":5744337,"name":"Oregon","admin1":"OR","localeAltName":"Oregon"},"locations":[{"geonameid":5711789,"name":"Ashland","admin3":"","localeAltName":null},{"geonameid":5718601,"name":"Central Point","admin3":"","localeAltName":null},{"geonameid":5724581,"name":"Eagle Point","admin3":"","localeAltName":null},{"geonameid":5727148,"name":"Foots Creek","admin3":"","localeAltName":null},{"geonameid":5728665,"name":"Gold Hill","admin3":"","localeAltName":null},{"geonameid":5733409,"name":"Jacksonville","admin3":"","localeAltName":null},{"geonameid":5740099,"name":"Medford","admin3":"","localeAltName":null},{"geonameid":5745656,"name":"Phoenix","admin3":"","localeAltName":null},{"geonameid":5749213,"name":"Rogue River","admin3":"","localeAltName":null},{"geonameid":5749630,"name":"Ruch","admin3":"","localeAltName":null},{"geonameid":5751253,"name":"Shady Cove","admin3":"","localeAltName":null},{"geonameid":5755890,"name":"Talent","admin3":"","localeAltName":null},{"geonameid":5757207,"name":"Trail","admin3":"","localeAltName":null},{"geonameid":5760396,"name":"White City","admin3":"","localeAltName":null},{"geonameid":5761293,"name":"Wimer","admin3":"","localeAltName":null}],"admin3":[],"alternateNames":[{"alternatenameId":1894740,"geonameid":5744337,"isoLanguage":"en","alternateName":"Oregon","isPreferredName":true,"isShortName":true,"isColloquial":false,"isHistoric":false}]},"__N_SSG":true}