{"pageProps":{"locale":"en","admin2":{"geonameid":5736713,"name":"Linn County","country":"US","admin1":"OR","admin2":"043","admin3":"","latitude":"44.4885700","longitude":"-122.5341900","localeAltName":null},"admin1":{"geonameid":5744337,"name":"Oregon","admin1":"OR","localeAltName":"Oregon"},"locations":[{"geonameid":5710756,"name":"Albany","admin3":"","localeAltName":null},{"geonameid":5716061,"name":"Brownsville","admin3":"","localeAltName":null},{"geonameid":5729974,"name":"Halsey","admin3":"","localeAltName":null},{"geonameid":5730389,"name":"Harrisburg","admin3":"","localeAltName":null},{"geonameid":5735576,"name":"Lacomb","admin3":"","localeAltName":null},{"geonameid":5736218,"name":"Lebanon","admin3":"","localeAltName":null},{"geonameid":5738587,"name":"Lyons","admin3":"","localeAltName":null},{"geonameid":5740602,"name":"Mill City","admin3":"","localeAltName":null},{"geonameid":5740834,"name":"Millersburg","admin3":"","localeAltName":null},{"geonameid":5750831,"name":"Scio","admin3":"","localeAltName":null},{"geonameid":5753466,"name":"South Lebanon","admin3":"","localeAltName":null},{"geonameid":5755674,"name":"Sweet Home","admin3":"","localeAltName":null},{"geonameid":5755975,"name":"Tangent","admin3":"","localeAltName":null}],"admin3":[{"geonameid":11788424,"name":"City of Sweet Home","admin3":"11788424"},{"geonameid":11788695,"name":"City of Mill City","admin3":"11788695"}],"alternateNames":[{"alternatenameId":1894740,"geonameid":5744337,"isoLanguage":"en","alternateName":"Oregon","isPreferredName":true,"isShortName":true,"isColloquial":false,"isHistoric":false}]},"__N_SSG":true}