{"pageProps":{"locale":"ro","admin2":{"geonameid":676556,"name":"Comuna Gura Caliţei","country":"RO","admin1":"40","admin2":"176338","admin3":"","latitude":"45.6135700","longitude":"26.9728400"},"admin1":{"geonameid":662447,"name":"Vrancea","admin1":"40","localeAltName":"Vrancea"},"locations":[{"geonameid":685692,"name":"Bălănești"},{"geonameid":683672,"name":"Brânzari"},{"geonameid":681192,"name":"Cocoșari"},{"geonameid":679628,"name":"Dealu Lung"},{"geonameid":677932,"name":"Frasinul"},{"geonameid":676691,"name":"Groapa Tufei"},{"geonameid":676557,"name":"Gura Caliţei"},{"geonameid":675105,"name":"Lacu lui Baban"},{"geonameid":670422,"name":"Plopu"},{"geonameid":670223,"name":"Poenile"},{"geonameid":669948,"name":"Pomii Cucilor"},{"geonameid":11048299,"name":"Rașca"},{"geonameid":667331,"name":"Şesu cu Plopi"},{"geonameid":666405,"name":"Şotârcari"}],"admin3":[],"alternateNames":[{"alternatenameId":391637,"geonameid":662447,"isoLanguage":"ro","alternateName":"Vrancea","isPreferredName":true,"isShortName":true,"isColloquial":false,"isHistoric":false}]},"__N_SSG":true}