{"pageProps":{"locale":"en","admin2":{"geonameid":12022125,"name":"Midden-Groningen","country":"NL","admin1":"04","admin2":"1952","admin3":"","latitude":"53.1511300","longitude":"6.8331300"},"admin1":{"geonameid":2755249,"name":"Provincie Groningen","admin1":"04"},"locations":[{"geonameid":2759204,"name":"Beneden Veensloot","admin3":""},{"geonameid":2758780,"name":"Blokum","admin3":""},{"geonameid":2758605,"name":"Borgweg","admin3":""},{"geonameid":2758471,"name":"Bovenstreek","admin3":""},{"geonameid":2758140,"name":"Buitenhuizen","admin3":""},{"geonameid":2757159,"name":"De Paauwen","admin3":""},{"geonameid":2757229,"name":"Denemarken","admin3":""},{"geonameid":2756478,"name":"Duurkenakker","admin3":""},{"geonameid":2755854,"name":"Foxham","admin3":""},{"geonameid":2755853,"name":"Foxhol","admin3":""},{"geonameid":2755852,"name":"Foxholsterbosch","admin3":""},{"geonameid":2755801,"name":"Froombosch","admin3":""},{"geonameid":2755792,"name":"Gaarland","admin3":""},{"geonameid":2754819,"name":"Harkstede","admin3":""},{"geonameid":11746710,"name":"Harkstede GN","admin3":""},{"geonameid":2754449,"name":"Hellum","admin3":""},{"geonameid":2754198,"name":"Het Veen","admin3":""},{"geonameid":2753706,"name":"Hoogezand","admin3":""},{"geonameid":2753280,"name":"Jagerswijk","admin3":""},{"geonameid":2753129,"name":"Kalkwijk","admin3":""},{"geonameid":2753130,"name":"Kalkwijk","admin3":""},{"geonameid":2752863,"name":"Kiel","admin3":""},{"geonameid":2744360,"name":"Kiel-Windeweer","admin3":""},{"geonameid":6544915,"name":"Klein Harkstede","admin3":""},{"geonameid":2752727,"name":"Kleinemeer","admin3":""},{"geonameid":2752534,"name":"Kolham","admin3":""},{"geonameid":2752431,"name":"Korengarst","admin3":""},{"geonameid":2752386,"name":"Kostverloren","admin3":""},{"geonameid":2752217,"name":"Kropswolde","admin3":""},{"geonameid":2752034,"name":"Lageland","admin3":""},{"geonameid":11746820,"name":"Lageland GN","admin3":""},{"geonameid":2751398,"name":"Luddeweer","admin3":""},{"geonameid":2751390,"name":"Lula","admin3":""},{"geonameid":2751115,"name":"Martenshoek","admin3":""},{"geonameid":2751068,"name":"Meeden","admin3":""},{"geonameid":11395901,"name":"Meerstad","admin3":""},{"geonameid":6544920,"name":"Meerwijck","admin3":""},{"geonameid":2750535,"name":"Muntendam","admin3":""},{"geonameid":2750340,"name":"Nieuwe Compagnie","admin3":""},{"geonameid":2749989,"name":"Noordbroek","admin3":""},{"geonameid":2749988,"name":"Noordbroeksterhamrik","admin3":""},{"geonameid":2749522,"name":"Oosteinde","admin3":""},{"geonameid":2749324,"name":"Oostwold","admin3":""},{"geonameid":2748825,"name":"Overschild","admin3":""},{"geonameid":2747823,"name":"Ruiten","admin3":""},{"geonameid":2747758,"name":"Sappemeer","admin3":""},{"geonameid":2747757,"name":"Sappemeer Noord","admin3":""},{"geonameid":2747740,"name":"Schaaphok","admin3":""},{"geonameid":2747677,"name":"Scharmer","admin3":""},{"geonameid":2747570,"name":"Schildwolde","admin3":""},{"geonameid":2747343,"name":"Siddeburen","admin3":""},{"geonameid":2747143,"name":"Slochteren","admin3":""},{"geonameid":2746917,"name":"Spitsbergen","admin3":""},{"geonameid":2746797,"name":"Steendam","admin3":""},{"geonameid":2746657,"name":"Stootshorn","admin3":""},{"geonameid":2754197,"name":"t Veen","admin3":""},{"geonameid":2746264,"name":"Tjuchem","admin3":""},{"geonameid":2746152,"name":"Tripscompagnie","admin3":""},{"geonameid":2746099,"name":"Tusschenloegen","admin3":""},{"geonameid":2746100,"name":"Tussenklappen","admin3":""},{"geonameid":2745986,"name":"Uiterburen","admin3":""},{"geonameid":2745763,"name":"Veenhuizen","admin3":""},{"geonameid":2745225,"name":"Vossenburg","admin3":""},{"geonameid":2744974,"name":"Waterhuizen","admin3":""},{"geonameid":2744792,"name":"Westeind","admin3":""},{"geonameid":2744764,"name":"Westerbroek","admin3":""},{"geonameid":2744436,"name":"Wilderhof","admin3":""},{"geonameid":2744214,"name":"Wolfsbarge","admin3":""},{"geonameid":2744164,"name":"Woudbloem","admin3":""},{"geonameid":2743800,"name":"Zuidbroek","admin3":""}],"admin3":[],"alternateNames":[{"alternatenameId":11907791,"geonameid":2755249,"isoLanguage":"de","alternateName":"Groningen","isPreferredName":true,"isShortName":true,"isColloquial":false,"isHistoric":false}]},"__N_SSG":true}