{"pageProps":{"locale":"ro","admin2":{"geonameid":685652,"name":"Oraş Bãlceşti","country":"RO","admin1":"39","admin2":"168452","admin3":"","latitude":"44.6294100","longitude":"23.9405200"},"admin1":{"geonameid":662892,"name":"Vâlcea","admin1":"39"},"locations":[{"geonameid":685657,"name":"Bălceşti"},{"geonameid":685650,"name":"Bălceţei"},{"geonameid":685357,"name":"Bărcăneşti"},{"geonameid":685109,"name":"Benești"},{"geonameid":684372,"name":"Boghia"},{"geonameid":681548,"name":"Cârlogani"},{"geonameid":682058,"name":"Chirculești"},{"geonameid":676877,"name":"Gorunești"},{"geonameid":675501,"name":"Irimești"},{"geonameid":672000,"name":"Oculeşti"},{"geonameid":671827,"name":"Olteţu"},{"geonameid":671594,"name":"Otetelișu"},{"geonameid":671457,"name":"Palei"},{"geonameid":670752,"name":"Pârâu"},{"geonameid":670205,"name":"Poenile"},{"geonameid":669673,"name":"Preotești"},{"geonameid":667790,"name":"Satu Poieni"},{"geonameid":664333,"name":"Ulicioiu"},{"geonameid":664211,"name":"Unguriţi"},{"geonameid":663127,"name":"Vasilaţi"}],"admin3":[],"alternateNames":[]},"__N_SSG":true}