{"pageProps":{"locale":"it","admin2":{"geonameid":3171456,"name":"Provincia di Parma","country":"IT","admin1":"05","admin2":"PR","admin3":"","latitude":"44.7000000","longitude":"10.0833300","localeAltName":"Parma"},"admin1":{"geonameid":3177401,"name":"Emilia-Romagna","admin1":"05","localeAltName":"Emilia-Romagna"},"locations":[{"geonameid":3183337,"name":"Albareto","admin3":"034001","localeAltName":null},{"geonameid":8949341,"name":"Alberi","admin3":"034027","localeAltName":null},{"geonameid":8948953,"name":"Baganzola","admin3":"034027","localeAltName":null},{"geonameid":6620343,"name":"Bagni di Tabiano","admin3":"034032","localeAltName":null},{"geonameid":3182366,"name":"Bardi","admin3":"034002","localeAltName":null},{"geonameid":8379438,"name":"Basilicagoiano","admin3":"034023","localeAltName":null},{"geonameid":3182307,"name":"Basilicanova","admin3":"034023","localeAltName":null},{"geonameid":3182249,"name":"Bedonia","admin3":"034003","localeAltName":null},{"geonameid":3182172,"name":"Berceto","admin3":"034004","localeAltName":null},{"geonameid":3181746,"name":"Borgo Val di Taro","admin3":"034006","localeAltName":null},{"geonameid":8949599,"name":"Botteghino","admin3":"034027","localeAltName":null},{"geonameid":3181364,"name":"Busseto","admin3":"034007","localeAltName":null},{"geonameid":3181197,"name":"Calestano","admin3":"034008","localeAltName":null},{"geonameid":3180512,"name":"Carignano","admin3":"034027","localeAltName":null},{"geonameid":8949468,"name":"Casale","admin3":"034051","localeAltName":null},{"geonameid":8950146,"name":"Cervara","admin3":"034027","localeAltName":null},{"geonameid":3178416,"name":"Collecchio","admin3":"034009","localeAltName":null},{"geonameid":3178263,"name":"Colorno","admin3":"034010","localeAltName":null},{"geonameid":3178257,"name":"Coltaro","admin3":"034049","localeAltName":null},{"geonameid":9036395,"name":"Corcagnano","admin3":"034027","localeAltName":null},{"geonameid":8950271,"name":"Eia","admin3":"034027","localeAltName":null},{"geonameid":3177129,"name":"Felegara","admin3":"034020","localeAltName":null},{"geonameid":3177125,"name":"Felino","admin3":"034013","localeAltName":null},{"geonameid":3177029,"name":"Fidenza","admin3":"034014","localeAltName":null},{"geonameid":3176808,"name":"Fontanellato","admin3":"034015","localeAltName":null},{"geonameid":7302672,"name":"Fontanelle","admin3":"034030","localeAltName":null},{"geonameid":3176782,"name":"Fontevivo","admin3":"034016","localeAltName":null},{"geonameid":3176682,"name":"Fornovo di Taro","admin3":"034017","localeAltName":null},{"geonameid":8949370,"name":"Gaiano","admin3":"034009","localeAltName":null},{"geonameid":8949455,"name":"Gaione","admin3":"034027","localeAltName":null},{"geonameid":3175163,"name":"Langhirano","admin3":"034018","localeAltName":null},{"geonameid":3174836,"name":"Lesignano de'Bagni","admin3":"034019","localeAltName":null},{"geonameid":8950014,"name":"Madregolo","admin3":"034009","localeAltName":null},{"geonameid":8950003,"name":"Mamiano","admin3":"034042","localeAltName":null},{"geonameid":3173814,"name":"Marzolara","admin3":"034008","localeAltName":null},{"geonameid":3173664,"name":"Medesano","admin3":"034020","localeAltName":null},{"geonameid":3173496,"name":"Mezzano Inferiore","admin3":"034051","localeAltName":null},{"geonameid":3173494,"name":"Mezzano Superiore","admin3":"034051","localeAltName":null},{"geonameid":6639617,"name":"Monticelli Terme","admin3":"034023","localeAltName":null},{"geonameid":8950257,"name":"Mulazzano Ponte","admin3":"034019","localeAltName":null},{"geonameid":3172241,"name":"Noceto","admin3":"034025","localeAltName":null},{"geonameid":8949325,"name":"Ozzano Taro","admin3":"034009","localeAltName":null},{"geonameid":3171516,"name":"Pannocchia","admin3":"034027","localeAltName":null},{"geonameid":3171457,"name":"Parma","admin3":"034027","localeAltName":null},{"geonameid":3170738,"name":"Pieveottoville","admin3":"034050","localeAltName":null},{"geonameid":8949929,"name":"Pilastrello","admin3":"034027","localeAltName":null},{"geonameid":8949355,"name":"Pilastro","admin3":"034018","localeAltName":null},{"geonameid":3170389,"name":"Polesine Parmense","admin3":"034050","localeAltName":null},{"geonameid":3170214,"name":"Ponte Taro","admin3":"034016","localeAltName":null},{"geonameid":3170135,"name":"Porporano","admin3":"034027","localeAltName":null},{"geonameid":8949145,"name":"Ramiola","admin3":"034020","localeAltName":null},{"geonameid":8949196,"name":"Ricc√≤","admin3":"034017","localeAltName":null},{"geonameid":8949589,"name":"Rivarolo","admin3":"034041","localeAltName":null},{"geonameid":3169199,"name":"Roccabianca","admin3":"034030","localeAltName":null},{"geonameid":8949925,"name":"Ronco Campo Canneto","admin3":"034049","localeAltName":null},{"geonameid":3168703,"name":"Sala Baganza","admin3":"034031","localeAltName":null},{"geonameid":8950380,"name":"Salita-Riola","admin3":"034017","localeAltName":null},{"geonameid":3168627,"name":"Salsomaggiore Terme","admin3":"034032","localeAltName":null},{"geonameid":8948997,"name":"San Michele Tiorre","admin3":"034013","localeAltName":null},{"geonameid":8199414,"name":"San Polo","admin3":"034041","localeAltName":null},{"geonameid":8949424,"name":"San Prospero","admin3":"034027","localeAltName":null},{"geonameid":3167737,"name":"San Secondo Parmense","admin3":"034033","localeAltName":null},{"geonameid":8949515,"name":"Sant'Andrea Bagni","admin3":"034020","localeAltName":null},{"geonameid":8949477,"name":"Santa Maria del Piano","admin3":"034019","localeAltName":null},{"geonameid":3166490,"name":"Sissa","admin3":"034049","localeAltName":null},{"geonameid":6535026,"name":"Solignano","admin3":"034035","localeAltName":null},{"geonameid":3166386,"name":"Soragna","admin3":"034036","localeAltName":null},{"geonameid":3166374,"name":"Sorbolo","admin3":"034051","localeAltName":null},{"geonameid":3165390,"name":"Torrile","admin3":"034041","localeAltName":null},{"geonameid":3165291,"name":"Traversetolo","admin3":"034042","localeAltName":null},{"geonameid":3165276,"name":"Trecasali","admin3":"034049","localeAltName":null},{"geonameid":3164712,"name":"Varano De' Melegari","admin3":"034045","localeAltName":null},{"geonameid":3164406,"name":"Vicofertile","admin3":"034027","localeAltName":null},{"geonameid":3164380,"name":"Vigatto","admin3":"034027","localeAltName":null},{"geonameid":3164357,"name":"Vignale","admin3":"034042","localeAltName":null},{"geonameid":3163874,"name":"Zibello","admin3":"034050","localeAltName":null}],"admin3":[{"geonameid":6536610,"name":"Bore","admin3":"034005"},{"geonameid":6536704,"name":"Bedonia","admin3":"034003","localeAltName":null},{"geonameid":6536705,"name":"Corniglio","admin3":"034012"},{"geonameid":6536706,"name":"Fornovo di Taro","admin3":"034017","localeAltName":null},{"geonameid":6536707,"name":"Lesignano de' Bagni","admin3":"034019","localeAltName":null},{"geonameid":6536708,"name":"Monchio delle Corti","admin3":"034022"},{"geonameid":6536709,"name":"Sala Baganza","admin3":"034031","localeAltName":null},{"geonameid":6536710,"name":"Salsomaggiore Terme","admin3":"034032","localeAltName":null},{"geonameid":6536711,"name":"Tizzano Val Parma","admin3":"034039"},{"geonameid":6537582,"name":"Busseto","admin3":"034007","localeAltName":null},{"geonameid":6538418,"name":"Albareto","admin3":"034001","localeAltName":null},{"geonameid":6538419,"name":"Calestano","admin3":"034008","localeAltName":null},{"geonameid":6538420,"name":"Collecchio","admin3":"034009","localeAltName":null},{"geonameid":6538421,"name":"Colorno","admin3":"034010","localeAltName":null},{"geonameid":6538422,"name":"Felino","admin3":"034013","localeAltName":null},{"geonameid":6538423,"name":"Fontanellato","admin3":"034015","localeAltName":null},{"geonameid":6538424,"name":"Langhirano","admin3":"034018","localeAltName":null},{"geonameid":6538425,"name":"Montechiarugolo","admin3":"034023","localeAltName":null},{"geonameid":6538426,"name":"Neviano degli Arduini","admin3":"034024"},{"geonameid":6538427,"name":"Palanzano","admin3":"034026"},{"geonameid":6538428,"name":"San Secondo Parmense","admin3":"034033","localeAltName":null},{"geonameid":6538429,"name":"Soragna","admin3":"034036","localeAltName":null},{"geonameid":6538430,"name":"Tornolo","admin3":"034040"},{"geonameid":6538432,"name":"Varano de' Melegari","admin3":"034045","localeAltName":null},{"geonameid":6539700,"name":"Bardi","admin3":"034002","localeAltName":null},{"geonameid":6539701,"name":"Borgo Val di Taro","admin3":"034006","localeAltName":null},{"geonameid":6539702,"name":"Medesano","admin3":"034020","localeAltName":null},{"geonameid":6539704,"name":"Terenzo","admin3":"034038"},{"geonameid":6539705,"name":"Varsi","admin3":"034046"},{"geonameid":6540120,"name":"Parma","admin3":"034027","localeAltName":null},{"geonameid":6540408,"name":"Fidenza","admin3":"034014","localeAltName":null},{"geonameid":6540409,"name":"Fontevivo","admin3":"034016","localeAltName":null},{"geonameid":6540410,"name":"Roccabianca","admin3":"034030","localeAltName":null},{"geonameid":6540412,"name":"Torrile","admin3":"034041","localeAltName":null},{"geonameid":6540413,"name":"Traversetolo","admin3":"034042","localeAltName":null},{"geonameid":6541025,"name":"Pellegrino Parmense","admin3":"034028"},{"geonameid":6541830,"name":"Compiano","admin3":"034011"},{"geonameid":6541831,"name":"Noceto","admin3":"034025","localeAltName":null},{"geonameid":6542707,"name":"Valmozzola","admin3":"034044"},{"geonameid":6543011,"name":"Berceto","admin3":"034004","localeAltName":null},{"geonameid":6543012,"name":"Solignano","admin3":"034035","localeAltName":null},{"geonameid":8658903,"name":"Sissa Trecasali","admin3":"034049","localeAltName":null},{"geonameid":11287687,"name":"Polesine Zibello","admin3":"034050","localeAltName":null},{"geonameid":12032188,"name":"Sorbolo Mezzani","admin3":"034051","localeAltName":null}],"alternateNames":[{"alternatenameId":2431279,"geonameid":3171456,"isoLanguage":"it","alternateName":"Parma","isPreferredName":true,"isShortName":true,"isColloquial":false,"isHistoric":false},{"alternatenameId":1351276,"geonameid":3177401,"isoLanguage":"it","alternateName":"Emilia-Romagna","isPreferredName":true,"isShortName":true,"isColloquial":false,"isHistoric":false}]},"__N_SSG":true}