{"pageProps":{"locale":"en","admin2":{"geonameid":4977278,"name":"Sagadahoc County","country":"US","admin1":"ME","admin2":"023","admin3":"","latitude":"43.9117300","longitude":"-69.8393100"},"admin1":{"geonameid":4971068,"name":"Maine","admin1":"ME"},"locations":[{"geonameid":4957570,"name":"Bath","admin3":"03355"},{"geonameid":4973457,"name":"North Bath","admin3":"03355"},{"geonameid":4975157,"name":"Phippsburg","admin3":"58515"},{"geonameid":4976528,"name":"Richmond","admin3":"62645"},{"geonameid":4980927,"name":"Topsham","admin3":"76960"},{"geonameid":4983504,"name":"Woolwich","admin3":"87460"}],"admin3":[{"geonameid":4956889,"name":"Town of Arrowsic","admin3":"01570"},{"geonameid":4957582,"name":"City of Bath","admin3":"03355"},{"geonameid":4959023,"name":"Town of Bowdoin","admin3":"06260"},{"geonameid":4959029,"name":"Town of Bowdoinham","admin3":"06365"},{"geonameid":4965169,"name":"Town of Georgetown","admin3":"27295"},{"geonameid":4975054,"name":"Unorganized Territory of Perkins","admin3":"58070"},{"geonameid":4975161,"name":"Town of Phippsburg","admin3":"58515"},{"geonameid":4976538,"name":"Town of Richmond","admin3":"62645"},{"geonameid":4980936,"name":"Town of Topsham","admin3":"76960"},{"geonameid":4982446,"name":"Town of West Bath","admin3":"81930"},{"geonameid":4983507,"name":"Town of Woolwich","admin3":"87460"}],"alternateNames":[]},"__N_SSG":true}