{"pageProps":{"locale":"de","admin2":{"geonameid":11611653,"name":"Region Albula","country":"CH","admin1":"GR","admin2":"1841","admin3":"","latitude":"46.6025500","longitude":"9.6515000"},"admin1":{"geonameid":2660522,"name":"Kanton Graubünden","admin1":"GR"},"locations":[{"geonameid":2661764,"name":"Alvaneu","admin3":"3542"},{"geonameid":2661763,"name":"Alvaschein","admin3":"3542"},{"geonameid":2661556,"name":"Bergün","admin3":"3544"},{"geonameid":2661484,"name":"Bivio","admin3":"3543"},{"geonameid":2661399,"name":"Brienz","admin3":"3542"},{"geonameid":2661131,"name":"Cunter","admin3":"3543"},{"geonameid":2660776,"name":"Filisur","admin3":"3544"},{"geonameid":2659953,"name":"Lenz","admin3":"3513"},{"geonameid":2659950,"name":"Lenzerheide","admin3":"3506"},{"geonameid":2659757,"name":"Marmorera","admin3":"3543"},{"geonameid":2659630,"name":"Mon","admin3":"3542"},{"geonameid":2659559,"name":"Mulegns","admin3":"3543"},{"geonameid":2658848,"name":"Salux","admin3":"3543"},{"geonameid":2658773,"name":"Savognin","admin3":"3543"},{"geonameid":2658719,"name":"Schmitten","admin3":"3514"},{"geonameid":2658466,"name":"Stierva","admin3":"3542"},{"geonameid":2658446,"name":"Surava","admin3":"3542"},{"geonameid":2658365,"name":"Tiefencastel","admin3":"3542"}],"admin3":[{"geonameid":7286264,"name":"Lantsch/Lenz","admin3":"3513"},{"geonameid":7287101,"name":"Schmitten (GR)","admin3":"3514"},{"geonameid":7287424,"name":"Vaz/Obervaz","admin3":"3506"},{"geonameid":11611705,"name":"Surses","admin3":"3543"},{"geonameid":11611718,"name":"Albula/Alvra","admin3":"3542"},{"geonameid":11980173,"name":"Bergün Filisur","admin3":"3544"}],"alternateNames":[]},"__N_SSG":true}