{"pageProps":{"locale":"de","admin2":{"geonameid":11611652,"name":"Region Imboden","country":"CH","admin1":"GR","admin2":"1844","admin3":"","latitude":"46.8487600","longitude":"9.3622500"},"admin1":{"geonameid":2660522,"name":"Kanton Graubünden","admin1":"GR"},"locations":[{"geonameid":2661453,"name":"Bonaduz","admin3":"3721"},{"geonameid":2661001,"name":"Domat","admin3":"3722"},{"geonameid":2660802,"name":"Felsberg","admin3":"3731"},{"geonameid":2660757,"name":"Flims","admin3":"3732"},{"geonameid":2659064,"name":"Rhäzüns","admin3":"3723"},{"geonameid":2658427,"name":"Tamins","admin3":"3733"}],"admin3":[{"geonameid":7285286,"name":"Bonaduz","admin3":"3721"},{"geonameid":7285659,"name":"Domat/Ems","admin3":"3722"},{"geonameid":7285804,"name":"Felsberg","admin3":"3731"},{"geonameid":7285840,"name":"Flims","admin3":"3732"},{"geonameid":7286890,"name":"Rhäzüns","admin3":"3723"},{"geonameid":7287277,"name":"Tamins","admin3":"3733"},{"geonameid":7287336,"name":"Trin","admin3":"3734"}],"alternateNames":[]},"__N_SSG":true}