{"pageProps":{"locale":"ro","admin2":{"geonameid":677081,"name":"Comuna Glăvile","country":"RO","admin1":"39","admin2":"170168","admin3":"","latitude":"44.8042300","longitude":"24.1225500"},"admin1":{"geonameid":662892,"name":"Vâlcea","admin1":"39"},"locations":[{"geonameid":686318,"name":"Aninoasa","admin3":""},{"geonameid":685265,"name":"Batârăşti","admin3":""},{"geonameid":681983,"name":"Chituci","admin3":""},{"geonameid":681600,"name":"Cireşoaia Mare","admin3":""},{"geonameid":681599,"name":"Cireşoaia Mică","admin3":""},{"geonameid":680842,"name":"Corcoteşti","admin3":""},{"geonameid":680103,"name":"Croitoreşti","admin3":""},{"geonameid":677276,"name":"Gâlculeşti","admin3":""},{"geonameid":671081,"name":"Glăvile","admin3":""},{"geonameid":662278,"name":"Jaroștea","admin3":""},{"geonameid":673776,"name":"Marineşti","admin3":""},{"geonameid":671854,"name":"Olteanca","admin3":""},{"geonameid":667056,"name":"Sinculeşti","admin3":""},{"geonameid":662537,"name":"Voiculeasa","admin3":""}],"admin3":[],"alternateNames":[]},"__N_SSG":true}