{"pageProps":{"locale":"ro","admin2":{"geonameid":8305907,"name":"Comuna Horea","country":"RO","admin1":"01","admin2":"4767","admin3":"","latitude":"46.5005800","longitude":"22.9491500"},"admin1":{"geonameid":686581,"name":"Alba","admin1":"01"},"locations":[{"geonameid":686252,"name":"Arada","admin3":""},{"geonameid":686002,"name":"Baba","admin3":""},{"geonameid":684141,"name":"Borta","admin3":""},{"geonameid":683155,"name":"Butești","admin3":""},{"geonameid":679326,"name":"Dârleşti","admin3":""},{"geonameid":679313,"name":"Diştină","admin3":""},{"geonameid":678336,"name":"Fereceţi","admin3":""},{"geonameid":678320,"name":"Fericet","admin3":""},{"geonameid":677105,"name":"Giurgiu","admin3":""},{"geonameid":677101,"name":"Giurgiuț","admin3":""},{"geonameid":676569,"name":"Gura Arăzii","admin3":""},{"geonameid":8305755,"name":"Horea","admin3":""},{"geonameid":673940,"name":"Măncești","admin3":""},{"geonameid":673669,"name":"Mătișești","admin3":""},{"geonameid":672234,"name":"Niculești","admin3":""},{"geonameid":672103,"name":"Oasa","admin3":""},{"geonameid":671250,"name":"Pătrușești","admin3":""},{"geonameid":671244,"name":"Pătuşeşti","admin3":""},{"geonameid":671010,"name":"Petreasa","admin3":""},{"geonameid":669838,"name":"Porjeşti","admin3":""},{"geonameid":669682,"name":"Preluca","admin3":""},{"geonameid":665325,"name":"Teiu","admin3":""},{"geonameid":665309,"name":"Teiu-Vărăşti","admin3":""},{"geonameid":664611,"name":"Trifești","admin3":""},{"geonameid":662306,"name":"Zânzești","admin3":""}],"admin3":[],"alternateNames":[]},"__N_SSG":true}