{"pageProps":{"locale":"en","admin2":{"geonameid":8593710,"name":"Victoria County","country":"CA","admin1":"04","admin2":"1312","admin3":"","latitude":"47.0729300","longitude":"-67.4141700"},"admin1":{"geonameid":6087430,"name":"New Brunswick/Nouveau-Brunswick","admin1":"04"},"locations":[{"geonameid":12096885,"name":"Anderson Road","admin3":""},{"geonameid":12096886,"name":"Anfield","admin3":""},{"geonameid":12097053,"name":"Arbuckle","admin3":""},{"geonameid":12096867,"name":"Argosy","admin3":""},{"geonameid":12096887,"name":"Aroostook","admin3":""},{"geonameid":12096888,"name":"Aroostook Junction","admin3":""},{"geonameid":12097055,"name":"Arthurette","admin3":""},{"geonameid":12097074,"name":"Bairdsville","admin3":""},{"geonameid":12097054,"name":"Bedford Road","admin3":""},{"geonameid":12097075,"name":"Beech Glen","admin3":""},{"geonameid":12096890,"name":"Bell Grove","admin3":""},{"geonameid":12097057,"name":"Beveridge","admin3":""},{"geonameid":12096891,"name":"Blue Bell Corner","admin3":""},{"geonameid":12097077,"name":"Blue Hill","admin3":""},{"geonameid":12096879,"name":"Blue Mountain Bend","admin3":""},{"geonameid":12096860,"name":"Burgess Settlement","admin3":""},{"geonameid":12097059,"name":"Burntland Brook","admin3":""},{"geonameid":12096861,"name":"Caldwell","admin3":""},{"geonameid":12096862,"name":"Canton","admin3":""},{"geonameid":12097078,"name":"Carlingford","admin3":""},{"geonameid":12096863,"name":"Colebrooke West","admin3":""},{"geonameid":12096892,"name":"Costigan","admin3":""},{"geonameid":12096681,"name":"Craig Flats","admin3":""},{"geonameid":12096900,"name":"Crombie Settlement","admin3":""},{"geonameid":12096893,"name":"Currie","admin3":""},{"geonameid":12096894,"name":"Currie Road","admin3":""},{"geonameid":12096864,"name":"Davis Mill","admin3":""},{"geonameid":12096865,"name":"Desjardins Road","admin3":""},{"geonameid":12097079,"name":"Dover Hill","admin3":""},{"geonameid":12077047,"name":"Drummond","admin3":""},{"geonameid":12096874,"name":"Ennishone","admin3":""},{"geonameid":12097060,"name":"Enterprise","admin3":""},{"geonameid":12096881,"name":"Everett","admin3":""},{"geonameid":12096897,"name":"Four Falls","admin3":""},{"geonameid":12096869,"name":"Gillespie Settlement","admin3":""},{"geonameid":12096898,"name":"Gladwyn","admin3":""},{"geonameid":12096694,"name":"Grand Falls Portage","admin3":""},{"geonameid":12096435,"name":"Grand Falls Station","admin3":""},{"geonameid":12096899,"name":"Hazeldean","admin3":""},{"geonameid":12096875,"name":"Hennigar Corner","admin3":""},{"geonameid":12096901,"name":"Hilldale Corner","admin3":""},{"geonameid":12097076,"name":"Inman","admin3":""},{"geonameid":12097080,"name":"Kilburn","admin3":""},{"geonameid":12097081,"name":"Kincardine","admin3":""},{"geonameid":12096902,"name":"Lake Edward","admin3":""},{"geonameid":12096896,"name":"Lerwick","admin3":""},{"geonameid":12097056,"name":"Licford","admin3":""},{"geonameid":12097065,"name":"Linton Corner","admin3":""},{"geonameid":12097067,"name":"Longley","admin3":""},{"geonameid":12097068,"name":"Lower Anfield","admin3":""},{"geonameid":12096871,"name":"Lower California","admin3":""},{"geonameid":12097082,"name":"Lower Kintore","admin3":""},{"geonameid":12096870,"name":"Lower Portage","admin3":""},{"geonameid":12097061,"name":"Mapleview","admin3":""},{"geonameid":12096868,"name":"McCluskey","admin3":""},{"geonameid":12097069,"name":"McLaughlin","admin3":""},{"geonameid":12096443,"name":"McManus Siding","admin3":""},{"geonameid":12096903,"name":"Medford","admin3":""},{"geonameid":12096872,"name":"Morrell Siding","admin3":""},{"geonameid":12097083,"name":"Muniac","admin3":""},{"geonameid":12123278,"name":"New Denmark","admin3":""},{"geonameid":12096876,"name":"New Denmark Station","admin3":""},{"geonameid":12096883,"name":"Nictau","admin3":""},{"geonameid":12123280,"name":"North Tilley","admin3":""},{"geonameid":12097062,"name":"North View","admin3":""},{"geonameid":12097058,"name":"Odell","admin3":""},{"geonameid":12096904,"name":"Ortonville","admin3":""},{"geonameid":12096882,"name":"Oxbow","admin3":""},{"geonameid":12096877,"name":"Price Road","admin3":""},{"geonameid":12096905,"name":"Quaker Brook","admin3":""},{"geonameid":12096873,"name":"Quatre-Coins","admin3":""},{"geonameid":12096906,"name":"Red Rapids","admin3":""},{"geonameid":12096884,"name":"Riley Brook","admin3":""},{"geonameid":12096907,"name":"Rowena","admin3":""},{"geonameid":12097072,"name":"Saint Almo","admin3":""},{"geonameid":12096908,"name":"Salmonhurst Corner","admin3":""},{"geonameid":12097070,"name":"Sisson","admin3":""},{"geonameid":12096859,"name":"Sisson Lake Reservoir","admin3":""},{"geonameid":12097071,"name":"Sisson Ridge","admin3":""},{"geonameid":12096909,"name":"South Tilley","admin3":""},{"geonameid":12096895,"name":"Tilley","admin3":""},{"geonameid":12096910,"name":"Tinker","admin3":""},{"geonameid":12096889,"name":"Tobique Narrows","admin3":""},{"geonameid":12097050,"name":"Turner Settlement","admin3":""},{"geonameid":12096880,"name":"Two Brooks","admin3":""},{"geonameid":12097051,"name":"Undine","admin3":""},{"geonameid":12097052,"name":"Upper California","admin3":""},{"geonameid":12097084,"name":"Upper Kintore","admin3":""},{"geonameid":12096858,"name":"Violette Brook","admin3":""},{"geonameid":12096878,"name":"Violette Station","admin3":""},{"geonameid":12097073,"name":"Wapske","admin3":""},{"geonameid":12097063,"name":"Weaver","admin3":""}],"admin3":[],"alternateNames":[]},"__N_SSG":true}