{"pageProps":{"locale":"en","admin2":{"geonameid":6185557,"name":"York County","country":"CA","admin1":"04","admin2":"1310","admin3":"","latitude":"46.1668000","longitude":"-66.9988800"},"admin1":{"geonameid":6087430,"name":"New Brunswick/Nouveau-Brunswick","admin1":"04"},"locations":[{"geonameid":12097168,"name":"Bantalor","admin3":""},{"geonameid":12097204,"name":"Barton","admin3":""},{"geonameid":12097205,"name":"Bates Settlement","admin3":""},{"geonameid":12097093,"name":"Boyds Corner","admin3":""},{"geonameid":12097206,"name":"Bull Lake","admin3":""},{"geonameid":12076658,"name":"Carlisle Road","admin3":""},{"geonameid":12097207,"name":"Caverhill","admin3":""},{"geonameid":11809523,"name":"Central Hainesville","admin3":""},{"geonameid":12097208,"name":"Clarkville","admin3":""},{"geonameid":12097209,"name":"County Line","admin3":""},{"geonameid":12097094,"name":"Cross Creek","admin3":""},{"geonameid":12097096,"name":"Cross Creek Station","admin3":""},{"geonameid":12097097,"name":"Currieburg","admin3":""},{"geonameid":12097091,"name":"Deersdale","admin3":""},{"geonameid":12097478,"name":"Estey's Bridge","admin3":""},{"geonameid":12097098,"name":"Fredericksburg","admin3":""},{"geonameid":12097099,"name":"Giants Glen","admin3":""},{"geonameid":12104747,"name":"Green Hill","admin3":""},{"geonameid":12097157,"name":"Greenhill","admin3":""},{"geonameid":12097210,"name":"Greenhill Lake","admin3":""},{"geonameid":12097092,"name":"Half Moon Pit","admin3":""},{"geonameid":12097211,"name":"Hartfield","admin3":""},{"geonameid":12097212,"name":"Hawkins Corner","admin3":""},{"geonameid":12097214,"name":"Hayne","admin3":""},{"geonameid":12097215,"name":"Howland Ridge","admin3":""},{"geonameid":12097158,"name":"Limekiln","admin3":""},{"geonameid":12097216,"name":"Lower Caverhill","admin3":""},{"geonameid":12097217,"name":"Lower Hainesville","admin3":""},{"geonameid":12123281,"name":"Lower St Marys","admin3":""},{"geonameid":12097159,"name":"Maple Grove","admin3":""},{"geonameid":12097160,"name":"Maple Grove Station","admin3":""},{"geonameid":12097218,"name":"Maple Ridge","admin3":""},{"geonameid":12097213,"name":"Maplewood","admin3":""},{"geonameid":12097161,"name":"Mavis Mills","admin3":""},{"geonameid":12097220,"name":"Middle Hainesville","admin3":""},{"geonameid":12097162,"name":"Napadogan","admin3":""},{"geonameid":6087704,"name":"New Maryland","admin3":""},{"geonameid":12097417,"name":"Nortondale","admin3":""},{"geonameid":12076663,"name":"Pepper Creek","admin3":""},{"geonameid":12097420,"name":"Pinder","admin3":""},{"geonameid":12088908,"name":"Richibucto Road","admin3":""},{"geonameid":12097421,"name":"Rossville","admin3":""},{"geonameid":12097164,"name":"South Portage","admin3":""},{"geonameid":12097472,"name":"Southampton Junction","admin3":""},{"geonameid":12097219,"name":"Staples Settlement","admin3":""},{"geonameid":12070760,"name":"Starlight Village","admin3":""},{"geonameid":12097165,"name":"Sutherland Siding","admin3":""},{"geonameid":12088909,"name":"Temperance Vale","admin3":""},{"geonameid":12097473,"name":"Upper Caverhill","admin3":""},{"geonameid":12097474,"name":"Upper Hainesville","admin3":""},{"geonameid":12088911,"name":"Upper Kingclear","admin3":""},{"geonameid":12097095,"name":"Ward Settlement","admin3":""},{"geonameid":12097475,"name":"Wiggins Mill","admin3":""},{"geonameid":12097166,"name":"Williamsburg","admin3":""},{"geonameid":12097476,"name":"Woodman","admin3":""},{"geonameid":12097477,"name":"Woodstock Road","admin3":""}],"admin3":[],"alternateNames":[]},"__N_SSG":true}