{"pageProps":{"locale":"ro","admin2":{"geonameid":8299670,"name":"Comuna Merișani","country":"RO","admin1":"03","admin2":"17101","admin3":"","latitude":"44.9667400","longitude":"24.7448200"},"admin1":{"geonameid":686192,"name":"Argeş","admin1":"03"},"locations":[{"geonameid":684192,"name":"Borlești","admin3":""},{"geonameid":683833,"name":"Brăteasca","admin3":""},{"geonameid":682819,"name":"Căpăţâneşti","admin3":""},{"geonameid":682762,"name":"Capu Piscului","admin3":""},{"geonameid":680234,"name":"Crâmpotani","admin3":""},{"geonameid":10941904,"name":"Dobrogostea","admin3":""},{"geonameid":673960,"name":"Malu Vânăt","admin3":""},{"geonameid":673553,"name":"Merişani","admin3":""},{"geonameid":664941,"name":"Târşeşti","admin3":""},{"geonameid":665142,"name":"Ţiganca","admin3":""},{"geonameid":662875,"name":"Vâlcelele","admin3":""},{"geonameid":663895,"name":"Valea Boierească","admin3":""},{"geonameid":663140,"name":"Vărzaru","admin3":""}],"admin3":[],"alternateNames":[]},"__N_SSG":true}