{"pageProps":{"locale":"en","admin2":{"geonameid":5244967,"name":"Bayfield County","country":"US","admin1":"WI","admin2":"007","admin3":"","latitude":"46.6354400","longitude":"-91.1806800","localeAltName":null},"admin1":{"geonameid":5279468,"name":"Wisconsin","admin1":"WI","localeAltName":"Wisconsin"},"locations":[{"geonameid":5257551,"name":"Iron River","admin3":"37200","localeAltName":null},{"geonameid":5277856,"name":"Washburn","admin3":"83525","localeAltName":null}],"admin3":[{"geonameid":5244685,"name":"Town of Barksdale","admin3":"04725"},{"geonameid":5244702,"name":"Town of Barnes","admin3":"04750"},{"geonameid":5244976,"name":"City of Bayfield","admin3":"05350"},{"geonameid":5244977,"name":"Town of Bayfield","admin3":"05375"},{"geonameid":5244989,"name":"Town of Bayview","admin3":"05475"},{"geonameid":5245341,"name":"Town of Bell","admin3":"06200"},{"geonameid":5247380,"name":"Town of Cable","admin3":"11675"},{"geonameid":5249015,"name":"Town of Clover","admin3":"15750"},{"geonameid":5250452,"name":"Town of Delta","admin3":"19662"},{"geonameid":5250917,"name":"Town of Drummond","admin3":"20887"},{"geonameid":5251611,"name":"Town of Eileen","admin3":"22925"},{"geonameid":5254788,"name":"Town of Grandview","admin3":"30175"},{"geonameid":5257100,"name":"Town of Hughes","admin3":"36300"},{"geonameid":5257557,"name":"Town of Iron River","admin3":"37200","localeAltName":null},{"geonameid":5258355,"name":"Town of Kelly","admin3":"39025"},{"geonameid":5258512,"name":"Town of Keystone","admin3":"39425"},{"geonameid":5260091,"name":"Town of Lincoln","admin3":"44275"},{"geonameid":5262049,"name":"Town of Mason","admin3":"49925"},{"geonameid":5262050,"name":"Village of Mason","admin3":"49900"},{"geonameid":5264125,"name":"Town of Namakagon","admin3":"55375"},{"geonameid":5265798,"name":"Town of Orienta","admin3":"60275"},{"geonameid":5265951,"name":"Town of Oulu","admin3":"60775"},{"geonameid":5266965,"name":"Town of Pilsen","admin3":"62700"},{"geonameid":5267784,"name":"Town of Port Wing","admin3":"64512"},{"geonameid":5269805,"name":"Town of Russell","admin3":"70300"},{"geonameid":5276283,"name":"Town of Tripp","admin3":"80750"},{"geonameid":5277873,"name":"City of Washburn","admin3":"83525","localeAltName":null},{"geonameid":5277874,"name":"Town of Washburn","admin3":"83550"}],"alternateNames":[{"alternatenameId":2089565,"geonameid":5279468,"isoLanguage":"en","alternateName":"Wisconsin","isPreferredName":true,"isShortName":true,"isColloquial":false,"isHistoric":false}]},"__N_SSG":true}