{"pageProps":{"locale":"en","admin2":{"geonameid":5254832,"name":"Grant County","country":"US","admin1":"WI","admin2":"043","admin3":"","latitude":"42.8674900","longitude":"-90.7062200","localeAltName":null},"admin1":{"geonameid":5279468,"name":"Wisconsin","admin1":"WI","localeAltName":"Wisconsin"},"locations":[{"geonameid":5246247,"name":"Bloomington","admin3":"08375","localeAltName":null},{"geonameid":5246509,"name":"Boscobel","admin3":"08850","localeAltName":null},{"geonameid":5247970,"name":"Cassville","admin3":"13050","localeAltName":null},{"geonameid":5249868,"name":"Cuba City","admin3":"17950","localeAltName":null},{"geonameid":5250593,"name":"Dickeyville","admin3":"20175","localeAltName":null},{"geonameid":5252610,"name":"Fennimore","admin3":"25600","localeAltName":null},{"geonameid":5255902,"name":"Hazel Green","admin3":"33500","localeAltName":null},{"geonameid":5259448,"name":"Lancaster","admin3":"42250","localeAltName":null},{"geonameid":5260658,"name":"Livingston","admin3":"45325","localeAltName":null},{"geonameid":4833942,"name":"Montfort","admin3":"53950","localeAltName":null},{"geonameid":5264038,"name":"Muscoda","admin3":"55200","localeAltName":null},{"geonameid":5267332,"name":"Platteville","admin3":"63250","localeAltName":null},{"geonameid":5267861,"name":"Potosi","admin3":"64625","localeAltName":null}],"admin3":[{"geonameid":5244507,"name":"Village of Bagley","admin3":"04250"},{"geonameid":5245298,"name":"Town of Beetown","admin3":"06100"},{"geonameid":5246248,"name":"Town of Bloomington","admin3":"08400"},{"geonameid":5246249,"name":"Village of Bloomington","admin3":"08375","localeAltName":null},{"geonameid":5246284,"name":"Village of Blue River","admin3":"08525"},{"geonameid":5246513,"name":"City of Boscobel","admin3":"08850","localeAltName":null},{"geonameid":5246514,"name":"Town of Boscobel","admin3":"08875"},{"geonameid":5247978,"name":"Village of Cassville","admin3":"13050","localeAltName":null},{"geonameid":5247980,"name":"Town of Cassville","admin3":"13075"},{"geonameid":5248000,"name":"Town of Castle Rock","admin3":"13100"},{"geonameid":5248965,"name":"Town of Clifton","admin3":"15500"},{"geonameid":5249869,"name":"City of Cuba City","admin3":"17950","localeAltName":null},{"geonameid":5250595,"name":"Village of Dickeyville","admin3":"20175","localeAltName":null},{"geonameid":5251742,"name":"Town of Ellenboro","admin3":"23400"},{"geonameid":5252616,"name":"City of Fennimore","admin3":"25600","localeAltName":null},{"geonameid":5252617,"name":"Town of Fennimore","admin3":"25625"},{"geonameid":5254368,"name":"Town of Glen Haven","admin3":"29525"},{"geonameid":5255615,"name":"Town of Harrison","admin3":"32825"},{"geonameid":5255903,"name":"Town of Hazel Green","admin3":"33525"},{"geonameid":5255904,"name":"Village of Hazel Green","admin3":"33500","localeAltName":null},{"geonameid":5256163,"name":"Town of Hickory Grove","admin3":"34300"},{"geonameid":5257746,"name":"Town of Jamestown","admin3":"37800"},{"geonameid":5259459,"name":"City of Lancaster","admin3":"42250","localeAltName":null},{"geonameid":5259904,"name":"Town of Liberty","admin3":"43825"},{"geonameid":5259965,"name":"Town of Lima","admin3":"44050"},{"geonameid":5260340,"name":"Town of Little Grant","admin3":"45025"},{"geonameid":5260666,"name":"Village of Livingston","admin3":"45325","localeAltName":null},{"geonameid":5261886,"name":"Town of Marion","admin3":"49350"},{"geonameid":5263061,"name":"Town of Millville","admin3":"52150"},{"geonameid":5263382,"name":"Village of Montfort","admin3":"53950","localeAltName":null},{"geonameid":5263665,"name":"Town of Mount Hope","admin3":"54700"},{"geonameid":5263666,"name":"Village of Mount Hope","admin3":"54675"},{"geonameid":5263676,"name":"Town of Mount Ida","admin3":"54775"},{"geonameid":5264041,"name":"Town of Muscoda","admin3":"55225"},{"geonameid":5264042,"name":"Village of Muscoda","admin3":"55200","localeAltName":null},{"geonameid":5264883,"name":"Town of North Lancaster","admin3":"58125"},{"geonameid":5266217,"name":"Town of Paris","admin3":"61150"},{"geonameid":5266314,"name":"Town of Patch Grove","admin3":"61450"},{"geonameid":5266315,"name":"Village of Patch Grove","admin3":"61425"},{"geonameid":5267337,"name":"City of Platteville","admin3":"63250","localeAltName":null},{"geonameid":5267338,"name":"Town of Platteville","admin3":"63275"},{"geonameid":5267868,"name":"Town of Potosi","admin3":"64650"},{"geonameid":5267869,"name":"Village of Potosi","admin3":"64625","localeAltName":null},{"geonameid":5273462,"name":"Town of Smelser","admin3":"74450"},{"geonameid":5273797,"name":"Town of South Lancaster","admin3":"75075"},{"geonameid":5275540,"name":"Village of Tennyson","admin3":"79250"},{"geonameid":5277998,"name":"Town of Waterloo","admin3":"83900"},{"geonameid":5278029,"name":"Town of Watterstown","admin3":"84075"},{"geonameid":5279333,"name":"Town of Wingville","admin3":"87800"},{"geonameid":5279658,"name":"Town of Woodman","admin3":"88850"},{"geonameid":5279659,"name":"Village of Woodman","admin3":"88825"},{"geonameid":5279770,"name":"Town of Wyalusing","admin3":"89250"}],"alternateNames":[{"alternatenameId":2089565,"geonameid":5279468,"isoLanguage":"en","alternateName":"Wisconsin","isPreferredName":true,"isShortName":true,"isColloquial":false,"isHistoric":false}]},"__N_SSG":true}