{"pageProps":{"locale":"en","admin2":{"geonameid":5257509,"name":"Iowa County","country":"US","admin1":"WI","admin2":"049","admin3":"","latitude":"43.0004800","longitude":"-90.1354300","localeAltName":null},"admin1":{"geonameid":5279468,"name":"Wisconsin","admin1":"WI","localeAltName":"Wisconsin"},"locations":[{"geonameid":5244125,"name":"Arena","admin3":"02550","localeAltName":null},{"geonameid":5244407,"name":"Avoca","admin3":"04025","localeAltName":null},{"geonameid":5244703,"name":"Barneveld","admin3":"04775","localeAltName":null},{"geonameid":5250703,"name":"Dodgeville","admin3":"20350","localeAltName":null},{"geonameid":5256232,"name":"Highland","admin3":"34450","localeAltName":null},{"geonameid":5260115,"name":"Linden","admin3":"44625","localeAltName":null},{"geonameid":5263113,"name":"Mineral Point","admin3":"53100","localeAltName":null},{"geonameid":5268900,"name":"Ridgeway","admin3":"67875","localeAltName":null}],"admin3":[{"geonameid":5244130,"name":"Town of Arena","admin3":"02575"},{"geonameid":5244131,"name":"Village of Arena","admin3":"02550","localeAltName":null},{"geonameid":5244412,"name":"Village of Avoca","admin3":"04025","localeAltName":null},{"geonameid":5244704,"name":"Village of Barneveld","admin3":"04775","localeAltName":null},{"geonameid":5246749,"name":"Town of Brigham","admin3":"09600"},{"geonameid":5249049,"name":"Town of Clyde","admin3":"15875"},{"geonameid":5249062,"name":"Village of Cobb","admin3":"15975"},{"geonameid":5250707,"name":"City of Dodgeville","admin3":"20350","localeAltName":null},{"geonameid":5250708,"name":"Town of Dodgeville","admin3":"20375"},{"geonameid":5251518,"name":"Town of Eden","admin3":"22525"},{"geonameid":5256270,"name":"Town of Highland","admin3":"34475"},{"geonameid":5256271,"name":"Village of Highland","admin3":"34450","localeAltName":null},{"geonameid":5256594,"name":"Village of Hollandale","admin3":"35400"},{"geonameid":5260121,"name":"Town of Linden","admin3":"44650"},{"geonameid":5260122,"name":"Village of Linden","admin3":"44625","localeAltName":null},{"geonameid":5262878,"name":"Town of Mifflin","admin3":"51725"},{"geonameid":5263117,"name":"City of Mineral Point","admin3":"53100","localeAltName":null},{"geonameid":5263118,"name":"Town of Mineral Point","admin3":"53125"},{"geonameid":5263553,"name":"Town of Moscow","admin3":"54425"},{"geonameid":5268161,"name":"Town of Pulaski","admin3":"65700"},{"geonameid":5268704,"name":"Village of Rewey","admin3":"67100"},{"geonameid":5268904,"name":"Town of Ridgeway","admin3":"67900"},{"geonameid":5268905,"name":"Village of Ridgeway","admin3":"67875","localeAltName":null},{"geonameid":5277714,"name":"Town of Waldwick","admin3":"83150"},{"geonameid":5279794,"name":"Town of Wyoming","admin3":"89350"}],"alternateNames":[{"alternatenameId":2089565,"geonameid":5279468,"isoLanguage":"en","alternateName":"Wisconsin","isPreferredName":true,"isShortName":true,"isColloquial":false,"isHistoric":false}]},"__N_SSG":true}