{"pageProps":{"locale":"en","admin2":{"geonameid":5868437,"name":"Matanuska-Susitna Borough","country":"US","admin1":"AK","admin2":"170","admin3":"","latitude":"62.5005600","longitude":"-150.0055600","localeAltName":null},"admin1":{"geonameid":5879092,"name":"Alaska","admin1":"AK","localeAltName":"Alaska"},"locations":[{"geonameid":5880661,"name":"Big Lake","admin3":"","localeAltName":null},{"geonameid":7262951,"name":"Buffalo Soapstone","admin3":"","localeAltName":null},{"geonameid":5858289,"name":"Butte","admin3":"","localeAltName":null},{"geonameid":7262859,"name":"Farm Loop","admin3":"","localeAltName":null},{"geonameid":7262861,"name":"Fishhook","admin3":"","localeAltName":null},{"geonameid":5862727,"name":"Gateway","admin3":"","localeAltName":null},{"geonameid":5864312,"name":"Houston","admin3":"","localeAltName":null},{"geonameid":7262896,"name":"Knik River","admin3":"","localeAltName":null},{"geonameid":7262897,"name":"Knik-Fairview","admin3":"","localeAltName":null},{"geonameid":7262905,"name":"Lakes","admin3":"","localeAltName":null},{"geonameid":5867241,"name":"Lazy Mountain","admin3":"","localeAltName":null},{"geonameid":5868651,"name":"Meadow Lakes","admin3":"","localeAltName":null},{"geonameid":5871146,"name":"Palmer","admin3":"","localeAltName":null},{"geonameid":5871780,"name":"Point MacKenzie","admin3":"","localeAltName":null},{"geonameid":7263043,"name":"Susitna North","admin3":"","localeAltName":null},{"geonameid":7263016,"name":"Sutton-Alpine","admin3":"","localeAltName":null},{"geonameid":5875745,"name":"Talkeetna","admin3":"","localeAltName":null},{"geonameid":5875796,"name":"Tanaina","admin3":"","localeAltName":null},{"geonameid":5877641,"name":"Wasilla","admin3":"","localeAltName":null},{"geonameid":5878102,"name":"Willow","admin3":"","localeAltName":null}],"admin3":[],"alternateNames":[{"alternatenameId":2089569,"geonameid":5879092,"isoLanguage":"en","alternateName":"Alaska","isPreferredName":true,"isShortName":true,"isColloquial":false,"isHistoric":false}]},"__N_SSG":true}