{"pageProps":{"locale":"en","admin2":{"geonameid":5251439,"name":"Eau Claire County","country":"US","admin1":"WI","admin2":"035","admin3":"","latitude":"44.7267700","longitude":"-91.2860000","localeAltName":null},"admin1":{"geonameid":5279468,"name":"Wisconsin","admin1":"WI","localeAltName":"Wisconsin"},"locations":[{"geonameid":5243819,"name":"Altoona","admin3":"01550","localeAltName":null},{"geonameid":5244365,"name":"Augusta","admin3":"03825","localeAltName":null},{"geonameid":5251436,"name":"Eau Claire","admin3":"22300","localeAltName":null},{"geonameid":5252325,"name":"Fairchild","admin3":"24825","localeAltName":null},{"geonameid":5252463,"name":"Fall Creek","admin3":"25125","localeAltName":null},{"geonameid":5272775,"name":"Seymour","admin3":"72675","localeAltName":null}],"admin3":[{"geonameid":5243830,"name":"City of Altoona","admin3":"01550","localeAltName":null},{"geonameid":5244372,"name":"City of Augusta","admin3":"03825","localeAltName":null},{"geonameid":5246757,"name":"Town of Bridge Creek","admin3":"09500"},{"geonameid":5246998,"name":"Town of Brunswick","admin3":"10625"},{"geonameid":5248880,"name":"Town of Clear Creek","admin3":"15200"},{"geonameid":5250884,"name":"Town of Drammen","admin3":"20800"},{"geonameid":5251455,"name":"City of Eau Claire","admin3":"22300","localeAltName":null},{"geonameid":5252331,"name":"Town of Fairchild","admin3":"24850"},{"geonameid":5252332,"name":"Village of Fairchild","admin3":"24825","localeAltName":null},{"geonameid":5252472,"name":"Village of Fall Creek","admin3":"25125","localeAltName":null},{"geonameid":5260094,"name":"Town of Lincoln","admin3":"44350"},{"geonameid":5261263,"name":"Town of Ludington","admin3":"46275"},{"geonameid":5265909,"name":"Town of Otter Creek","admin3":"60750"},{"geonameid":5267489,"name":"Town of Pleasant Valley","admin3":"63400"},{"geonameid":5272788,"name":"Town of Seymour","admin3":"72675","localeAltName":null},{"geonameid":5276761,"name":"Town of Union","admin3":"81550"},{"geonameid":5277963,"name":"Town of Washington","admin3":"83612"},{"geonameid":5279265,"name":"Town of Wilson","admin3":"87400"}],"alternateNames":[{"alternatenameId":2089565,"geonameid":5279468,"isoLanguage":"en","alternateName":"Wisconsin","isPreferredName":true,"isShortName":true,"isColloquial":false,"isHistoric":false}]},"__N_SSG":true}