{"pageProps":{"locale":"de","admin2":{"geonameid":7285002,"name":"Broye-Vully District","country":"CH","admin1":"VD","admin2":"2222","admin3":"","latitude":"46.7808200","longitude":"6.9016100"},"admin1":{"geonameid":2658182,"name":"Canton de Vaud","admin1":"VD"},"locations":[{"geonameid":2661661,"name":"Avenches","admin3":"5451"},{"geonameid":2661569,"name":"Bellerive","admin3":"5464"},{"geonameid":2661404,"name":"Brenles","admin3":"5675"},{"geonameid":2661230,"name":"Chabrey","admin3":"5464"},{"geonameid":2661181,"name":"Chevroux","admin3":"5813"},{"geonameid":2661139,"name":"Combremont-le-Petit","admin3":"5831"},{"geonameid":2661068,"name":"Cudrefin","admin3":"5456"},{"geonameid":2660995,"name":"Donatyre","admin3":"5451"},{"geonameid":2660822,"name":"Faoug","admin3":"5458"},{"geonameid":2660537,"name":"Grandcour","admin3":"5817"},{"geonameid":2660526,"name":"Granges","admin3":"5831"},{"geonameid":2659840,"name":"Lucens","admin3":"5675"},{"geonameid":2659569,"name":"Moudon","admin3":"5678"},{"geonameid":2659243,"name":"Payerne","admin3":"5822"},{"geonameid":2658975,"name":"Ropraz","admin3":"5798"},{"geonameid":2658658,"name":"Sédeilles","admin3":"5830"},{"geonameid":2658319,"name":"Trey","admin3":"5827"},{"geonameid":2658129,"name":"Villars-le-Grand","admin3":"5464"}],"admin3":[{"geonameid":7285126,"name":"Avenches","admin3":"5451"},{"geonameid":7285409,"name":"Bussy-sur-Moudon","admin3":"5663"},{"geonameid":7285468,"name":"Champtauroz","admin3":"5812"},{"geonameid":7285490,"name":"Chavannes-sur-Moudon","admin3":"5665"},{"geonameid":7285506,"name":"Chevroux","admin3":"5813"},{"geonameid":7285552,"name":"Corcelles-le-Jorat","admin3":"5785"},{"geonameid":7285554,"name":"Corcelles-près-Payerne","admin3":"5816"},{"geonameid":7285601,"name":"Cudrefin","admin3":"5456"},{"geonameid":7285613,"name":"Curtilles","admin3":"5669"},{"geonameid":7285664,"name":"Dompierre (VD)","admin3":"5671"},{"geonameid":7285796,"name":"Faoug","admin3":"5458"},{"geonameid":7285958,"name":"Grandcour","admin3":"5817"},{"geonameid":7286061,"name":"Henniez","admin3":"5819"},{"geonameid":7286070,"name":"Hermenches","admin3":"5673"},{"geonameid":7286376,"name":"Lovatens","admin3":"5674"},{"geonameid":7286378,"name":"Lucens","admin3":"5675"},{"geonameid":7286512,"name":"Missy","admin3":"5821"},{"geonameid":7286565,"name":"Moudon","admin3":"5678"},{"geonameid":7286775,"name":"Payerne","admin3":"5822"},{"geonameid":7286837,"name":"Prévonloup","admin3":"5683"},{"geonameid":7286948,"name":"Ropraz","admin3":"5798"},{"geonameid":7286954,"name":"Rossenges","admin3":"5684"},{"geonameid":7287272,"name":"Syens","admin3":"5688"},{"geonameid":7287327,"name":"Trey","admin3":"5827"},{"geonameid":7287329,"name":"Treytorrens (Payerne)","admin3":"5828"},{"geonameid":7287461,"name":"Villars-le-Comte","admin3":"5690"},{"geonameid":7287471,"name":"Villarzel","admin3":"5830"},{"geonameid":7287501,"name":"Vucherens","admin3":"5692"},{"geonameid":7287510,"name":"Vulliens","admin3":"5803"},{"geonameid":8260343,"name":"Valbroye","admin3":"5831"},{"geonameid":8260346,"name":"Vully-les-Lacs","admin3":"5464"}],"alternateNames":[]},"__N_SSG":true}