{"pageProps":{"locale":"de","admin2":{"geonameid":7285004,"name":"Jura-Nord vaudois District","country":"CH","admin1":"VD","admin2":"2224","admin3":"","latitude":"46.7298100","longitude":"6.4542900"},"admin1":{"geonameid":2658182,"name":"Canton de Vaud","admin1":"VD"},"locations":[{"geonameid":2661634,"name":"Ballaigues","admin3":"5744"},{"geonameid":2661594,"name":"Baulmes","admin3":"5745"},{"geonameid":2661591,"name":"Bavois","admin3":"5746"},{"geonameid":2661445,"name":"Bonvillars","admin3":"5551"},{"geonameid":2661336,"name":"Bullet","admin3":"5552"},{"geonameid":2661224,"name":"Champagne","admin3":"5553"},{"geonameid":2661220,"name":"Champvent","admin3":"5905"},{"geonameid":2661196,"name":"Chavannes-le-Chêne","admin3":"5907"},{"geonameid":2661194,"name":"Chavornay","admin3":"5749"},{"geonameid":2661190,"name":"Chêne-Pâquier","admin3":"5908"},{"geonameid":2661133,"name":"Concise","admin3":"5554"},{"geonameid":2660993,"name":"Donneloye","admin3":"5913"},{"geonameid":2660778,"name":"Fiez","admin3":"5556"},{"geonameid":2660529,"name":"Grandson","admin3":"5561"},{"geonameid":2660022,"name":"La Praz","admin3":"5758"},{"geonameid":2659974,"name":"Le Chenit","admin3":"5872"},{"geonameid":2659723,"name":"Mauborget","admin3":"5562"},{"geonameid":2659625,"name":"Montagny","admin3":"5922"},{"geonameid":2659619,"name":"Montcherand","admin3":"5756"},{"geonameid":2659434,"name":"Novalles","admin3":"5564"},{"geonameid":2659289,"name":"Orbe","admin3":"5757"},{"geonameid":2659131,"name":"Provence","admin3":"5566"},{"geonameid":2659108,"name":"Rances","admin3":"5760"},{"geonameid":2658942,"name":"Rovray","admin3":"5928"},{"geonameid":2658874,"name":"Sainte-Croix","admin3":"5568"},{"geonameid":2658462,"name":"Suchy","admin3":"5929"},{"geonameid":2658194,"name":"Vallorbe","admin3":"5764"},{"geonameid":2658179,"name":"Vaulion","admin3":"5765"},{"geonameid":8261496,"name":"Villars-Burquin","admin3":"5571"},{"geonameid":2658087,"name":"Vuiteboeuf","admin3":"5766"},{"geonameid":2657941,"name":"Yverdon-les-Bains","admin3":"5938"},{"geonameid":2657940,"name":"Yvonand","admin3":"5939"}],"admin3":[{"geonameid":7285040,"name":"Agiez","admin3":"5742"},{"geonameid":7285098,"name":"Arnex-sur-Orbe","admin3":"5743"},{"geonameid":7285142,"name":"Ballaigues","admin3":"5744"},{"geonameid":7285170,"name":"Baulmes","admin3":"5745"},{"geonameid":7285172,"name":"Bavois","admin3":"5746"},{"geonameid":7285193,"name":"Belmont-sur-Yverdon","admin3":"5902"},{"geonameid":7285250,"name":"Bioley-Magnoux","admin3":"5903"},{"geonameid":7285278,"name":"Bofflens","admin3":"5747"},{"geonameid":7285294,"name":"Bonvillars","admin3":"5551"},{"geonameid":7285330,"name":"Bretonnières","admin3":"5748"},{"geonameid":7285382,"name":"Bullet","admin3":"5552"},{"geonameid":7285463,"name":"Chamblon","admin3":"5904"},{"geonameid":7285465,"name":"Champagne","admin3":"5553"},{"geonameid":7285469,"name":"Champvent","admin3":"5905"},{"geonameid":7285487,"name":"Chavannes-le-Chêne","admin3":"5907"},{"geonameid":7285491,"name":"Chavornay","admin3":"5749"},{"geonameid":7285496,"name":"Chêne-Pâquier","admin3":"5908"},{"geonameid":7285500,"name":"Cheseaux-Noréaz","admin3":"5909"},{"geonameid":7285539,"name":"Concise","admin3":"5554"},{"geonameid":7285553,"name":"Corcelles-près-Concise","admin3":"5555"},{"geonameid":7285596,"name":"Cronay","admin3":"5910"},{"geonameid":7285597,"name":"Croy","admin3":"5752"},{"geonameid":7285600,"name":"Cuarny","admin3":"5911"},{"geonameid":7285635,"name":"Démoret","admin3":"5912"},{"geonameid":7285666,"name":"Donneloye","admin3":"5913"},{"geonameid":7285740,"name":"Ependes (VD)","admin3":"5914"},{"geonameid":7285822,"name":"Fiez","admin3":"5556"},{"geonameid":7285851,"name":"Fontaines-sur-Grandson","admin3":"5557"},{"geonameid":7285913,"name":"Giez","admin3":"5559"},{"geonameid":7285959,"name":"Grandevent","admin3":"5560"},{"geonameid":7285961,"name":"Grandson","admin3":"5561"},{"geonameid":7286168,"name":"Juriens","admin3":"5754"},{"geonameid":7286265,"name":"La Praz","admin3":"5758"},{"geonameid":7286298,"name":"Le Chenit","admin3":"5872"},{"geonameid":7286308,"name":"Le Lieu","admin3":"5873"},{"geonameid":7286325,"name":"Les Clées","admin3":"5750"},{"geonameid":7286351,"name":"Lignerolle","admin3":"5755"},{"geonameid":7286454,"name":"Mathod","admin3":"5919"},{"geonameid":7286462,"name":"Mauborget","admin3":"5562"},{"geonameid":7286521,"name":"Molondin","admin3":"5921"},{"geonameid":7286527,"name":"Montagny-près-Yverdon","admin3":"5922"},{"geonameid":7286531,"name":"Montcherand","admin3":"5756"},{"geonameid":7286605,"name":"Mutrux","admin3":"5563"},{"geonameid":7286662,"name":"Novalles","admin3":"5564"},{"geonameid":7286741,"name":"Onnens (VD)","admin3":"5565"},{"geonameid":7286746,"name":"Orbe","admin3":"5757"},{"geonameid":7286747,"name":"Orges","admin3":"5924"},{"geonameid":7286757,"name":"Orzens","admin3":"5925"},{"geonameid":7286811,"name":"Pomy","admin3":"5926"},{"geonameid":7286832,"name":"Premier","admin3":"5759"},{"geonameid":7286840,"name":"Provence","admin3":"5566"},{"geonameid":7286854,"name":"Rances","admin3":"5760"},{"geonameid":7286936,"name":"Romainmôtier-Envy","admin3":"5761"},{"geonameid":7286967,"name":"Rovray","admin3":"5928"},{"geonameid":7287026,"name":"Sainte-Croix","admin3":"5568"},{"geonameid":7287155,"name":"Sergey","admin3":"5762"},{"geonameid":7287255,"name":"Suchy","admin3":"5929"},{"geonameid":7287269,"name":"Suscévaz","admin3":"5930"},{"geonameid":7287328,"name":"Treycovagnes","admin3":"5931"},{"geonameid":7287394,"name":"Ursins","admin3":"5932"},{"geonameid":7287408,"name":"Valeyres-sous-Montagny","admin3":"5933"},{"geonameid":7287409,"name":"Valeyres-sous-Rances","admin3":"5763"},{"geonameid":7287410,"name":"Valeyres-sous-Ursins","admin3":"5934"},{"geonameid":7287412,"name":"Vallorbe","admin3":"5764"},{"geonameid":7287420,"name":"Vaulion","admin3":"5765"},{"geonameid":7287460,"name":"Villars-Epeney","admin3":"5935"},{"geonameid":7287504,"name":"Vugelles-La Mothe","admin3":"5937"},{"geonameid":7287509,"name":"Vuiteboeuf","admin3":"5766"},{"geonameid":7287620,"name":"Yverdon-les-Bains","admin3":"5938"},{"geonameid":7287621,"name":"Yvonand","admin3":"5939"},{"geonameid":7287676,"name":"L'Abbaye","admin3":"5871"},{"geonameid":7287679,"name":"L'Abergement","admin3":"5741"},{"geonameid":8260348,"name":"Tévenon","admin3":"5571"}],"alternateNames":[]},"__N_SSG":true}