{"pageProps":{"locale":"de","admin2":{"geonameid":7285005,"name":"Lavaux-Oron District","country":"CH","admin1":"VD","admin2":"2226","admin3":"","latitude":"46.5361800","longitude":"6.7708600"},"admin1":{"geonameid":2658182,"name":"Canton de Vaud","admin1":"VD"},"locations":[{"geonameid":2661564,"name":"Belmont-sur-Lausanne","admin3":"5581"},{"geonameid":2661180,"name":"Chexbres","admin3":"5601"},{"geonameid":2661063,"name":"Cully","admin3":"5613"},{"geonameid":2659976,"name":"Le Châtelard","admin3":"5606"},{"geonameid":2659914,"name":"Les Thioleyres","admin3":"5604"},{"geonameid":2659819,"name":"Lutry","admin3":"5606"},{"geonameid":2659767,"name":"Maracon","admin3":"5790"},{"geonameid":6290256,"name":"Montpreveyres","admin3":"5792"},{"geonameid":2659283,"name":"Oron-la-Ville","admin3":"5805"},{"geonameid":2659260,"name":"Palézieux","admin3":"5805"},{"geonameid":2659246,"name":"Paudex","admin3":"5590"},{"geonameid":2659129,"name":"Puidoux","admin3":"5607"},{"geonameid":2659127,"name":"Pully","admin3":"5590"},{"geonameid":2658774,"name":"Savigny","admin3":"5611"}],"admin3":[{"geonameid":7285192,"name":"Belmont-sur-Lausanne","admin3":"5581"},{"geonameid":7285507,"name":"Chexbres","admin3":"5601"},{"geonameid":7285772,"name":"Essertes","admin3":"5788"},{"geonameid":7285854,"name":"Forel (Lavaux)","admin3":"5604"},{"geonameid":7286403,"name":"Lutry","admin3":"5606"},{"geonameid":7286432,"name":"Maracon","admin3":"5790"},{"geonameid":7286541,"name":"Montpreveyres","admin3":"5792"},{"geonameid":7286774,"name":"Paudex","admin3":"5588"},{"geonameid":7286841,"name":"Puidoux","admin3":"5607"},{"geonameid":7286842,"name":"Pully","admin3":"5590"},{"geonameid":7286919,"name":"Rivaz","admin3":"5609"},{"geonameid":7287037,"name":"Saint-Saphorin (Lavaux)","admin3":"5610"},{"geonameid":7287065,"name":"Savigny","admin3":"5611"},{"geonameid":7287156,"name":"Servion","admin3":"5799"},{"geonameid":8260344,"name":"Oron","admin3":"5805"},{"geonameid":8260353,"name":"Bourg-en-Lavaux","admin3":"5613"},{"geonameid":11611714,"name":"Jorat-Mézières","admin3":"5806"}],"alternateNames":[]},"__N_SSG":true}