{"pageProps":{"locale":"de","admin2":{"geonameid":6458855,"name":"Morges District","country":"CH","admin1":"VD","admin2":"2227","admin3":"","latitude":"46.5357800","longitude":"6.4866200"},"admin1":{"geonameid":2658182,"name":"Canton de Vaud","admin1":"VD"},"locations":[{"geonameid":2661815,"name":"Allaman","admin3":"5851"},{"geonameid":2661738,"name":"Apples","admin3":"5421"},{"geonameid":2661687,"name":"Aubonne","admin3":"5422"},{"geonameid":2661633,"name":"Ballens","admin3":"5423"},{"geonameid":2661511,"name":"Bière","admin3":"5425"},{"geonameid":2661144,"name":"Colombier","admin3":"5634"},{"geonameid":2661104,"name":"Cossonay","admin3":"5477"},{"geonameid":2661006,"name":"Dizy","admin3":"5481"},{"geonameid":2660612,"name":"Gimel","admin3":"5428"},{"geonameid":2660569,"name":"Gollion","admin3":"5484"},{"geonameid":2660540,"name":"Grancy","admin3":"5485"},{"geonameid":2660012,"name":"La Sarraz","admin3":"5498"},{"geonameid":6620492,"name":"Lully VD","admin3":"5639"},{"geonameid":2659638,"name":"Mollens","admin3":"5431"},{"geonameid":2659603,"name":"Mont-la-Ville","admin3":"5491"},{"geonameid":2659600,"name":"Montricher","admin3":"5492"},{"geonameid":2659587,"name":"Morges","admin3":"5642"},{"geonameid":2659258,"name":"Pampigny","admin3":"5494"},{"geonameid":6639664,"name":"Préverenges","admin3":"5643"},{"geonameid":2658867,"name":"Saint-Livres","admin3":"5435"},{"geonameid":2658862,"name":"Saint-Prex","admin3":"5646"},{"geonameid":8379136,"name":"Saubraz","admin3":"5437"},{"geonameid":6619308,"name":"Vufflens-le-Château","admin3":"5653"},{"geonameid":2658086,"name":"Vullierens","admin3":"5654"},{"geonameid":2657942,"name":"Yens","admin3":"5655"}],"admin3":[{"geonameid":7285018,"name":"Aclens","admin3":"5621"},{"geonameid":7285049,"name":"Allaman","admin3":"5851"},{"geonameid":7285085,"name":"Apples","admin3":"5421"},{"geonameid":7285114,"name":"Aubonne","admin3":"5422"},{"geonameid":7285143,"name":"Ballens","admin3":"5423"},{"geonameid":7285215,"name":"Berolle","admin3":"5424"},{"geonameid":7285242,"name":"Bière","admin3":"5425"},{"geonameid":7285309,"name":"Bougy-Villars","admin3":"5426"},{"geonameid":7285323,"name":"Bremblens","admin3":"5622"},{"geonameid":7285369,"name":"Buchillon","admin3":"5623"},{"geonameid":7285407,"name":"Bussy-Chardonney","admin3":"5625"},{"geonameid":7285488,"name":"Chavannes-le-Veyron","admin3":"5475"},{"geonameid":7285505,"name":"Chevilly","admin3":"5476"},{"geonameid":7285511,"name":"Chigny","admin3":"5628"},{"geonameid":7285518,"name":"Clarmont","admin3":"5629"},{"geonameid":7285570,"name":"Cossonay","admin3":"5477"},{"geonameid":7285572,"name":"Cottens (VD)","admin3":"5478"},{"geonameid":7285599,"name":"Cuarnens","admin3":"5479"},{"geonameid":7285636,"name":"Denens","admin3":"5631"},{"geonameid":7285638,"name":"Denges","admin3":"5632"},{"geonameid":7285658,"name":"Dizy","admin3":"5481"},{"geonameid":7285690,"name":"Echandens","admin3":"5633"},{"geonameid":7285693,"name":"Echichens","admin3":"5634"},{"geonameid":7285695,"name":"Eclépens","admin3":"5482"},{"geonameid":7285779,"name":"Etoy","admin3":"5636"},{"geonameid":7285799,"name":"Féchy","admin3":"5427"},{"geonameid":7285813,"name":"Ferreyres","admin3":"5483"},{"geonameid":7285916,"name":"Gimel","admin3":"5428"},{"geonameid":7285936,"name":"Gollion","admin3":"5484"},{"geonameid":7285957,"name":"Grancy","admin3":"5485"},{"geonameid":7286239,"name":"La Chaux (Cossonay)","admin3":"5474"},{"geonameid":7286270,"name":"La Sarraz","admin3":"5498"},{"geonameid":7286290,"name":"Lavigny","admin3":"5637"},{"geonameid":7286370,"name":"Lonay","admin3":"5638"},{"geonameid":7286387,"name":"Lully (VD)","admin3":"5639"},{"geonameid":7286397,"name":"Lussy-sur-Morges","admin3":"5640"},{"geonameid":7286465,"name":"Mauraz","admin3":"5488"},{"geonameid":7286515,"name":"Moiry","admin3":"5490"},{"geonameid":7286518,"name":"Mollens (VD)","admin3":"5431"},{"geonameid":7286538,"name":"Mont-la-Ville","admin3":"5491"},{"geonameid":7286543,"name":"Montricher","admin3":"5492"},{"geonameid":7286554,"name":"Morges","admin3":"5642"},{"geonameid":7286750,"name":"Orny","admin3":"5493"},{"geonameid":7286770,"name":"Pampigny","admin3":"5494"},{"geonameid":7286810,"name":"Pompaples","admin3":"5497"},{"geonameid":7286835,"name":"Préverenges","admin3":"5643"},{"geonameid":7286889,"name":"Reverolle","admin3":"5644"},{"geonameid":7286939,"name":"Romanel-sur-Morges","admin3":"5645"},{"geonameid":7287032,"name":"Saint-Livres","admin3":"5435"},{"geonameid":7287035,"name":"Saint-Oyens","admin3":"5436"},{"geonameid":7287036,"name":"Saint-Prex","admin3":"5646"},{"geonameid":7287061,"name":"Saubraz","admin3":"5437"},{"geonameid":7287150,"name":"Senarclens","admin3":"5499"},{"geonameid":7287161,"name":"Sévery","admin3":"5500"},{"geonameid":7287316,"name":"Tolochenaz","admin3":"5649"},{"geonameid":7287423,"name":"Vaux-sur-Morges","admin3":"5650"},{"geonameid":7287467,"name":"Villars-sous-Yens","admin3":"5652"},{"geonameid":7287503,"name":"Vufflens-le-Château","admin3":"5653"},{"geonameid":7287511,"name":"Vullierens","admin3":"5654"},{"geonameid":7287619,"name":"Yens","admin3":"5655"},{"geonameid":7287677,"name":"L'Isle","admin3":"5486"}],"alternateNames":[]},"__N_SSG":true}