{"pageProps":{"locale":"en","admin2":{"geonameid":5240516,"name":"Rutland County","country":"US","admin1":"VT","admin2":"021","admin3":"","latitude":"43.5800900","longitude":"-73.0366100","localeAltName":null},"admin1":{"geonameid":5242283,"name":"Vermont","admin1":"VT","localeAltName":"Vermont"},"locations":[{"geonameid":5234101,"name":"Brandon","admin3":"07750","localeAltName":null},{"geonameid":5281166,"name":"Castleton","admin3":"11950","localeAltName":null},{"geonameid":5234855,"name":"Chittenden","admin3":"14350","localeAltName":null},{"geonameid":5234920,"name":"Clarendon","admin3":"14500","localeAltName":null},{"geonameid":5235340,"name":"Danby","admin3":"16825","localeAltName":null},{"geonameid":5236019,"name":"Fair Haven","admin3":"25375","localeAltName":null},{"geonameid":5238464,"name":"Mendon","admin3":"44125","localeAltName":null},{"geonameid":5238820,"name":"Mount Holly","admin3":"47200","localeAltName":null},{"geonameid":5239668,"name":"Pawlet","admin3":"54250","localeAltName":null},{"geonameid":5239840,"name":"Pittsfield","admin3":"55450","localeAltName":null},{"geonameid":5239844,"name":"Pittsford","admin3":"55600","localeAltName":null},{"geonameid":5239982,"name":"Poultney","admin3":"56875","localeAltName":null},{"geonameid":5240509,"name":"Rutland","admin3":"61225","localeAltName":null},{"geonameid":5242462,"name":"Wallingford","admin3":"75925","localeAltName":null},{"geonameid":5242754,"name":"West Pawlet","admin3":"54250","localeAltName":null},{"geonameid":5242764,"name":"West Rutland","admin3":"82300","localeAltName":null}],"admin3":[{"geonameid":5233771,"name":"Town of Benson","admin3":"05200"},{"geonameid":5234116,"name":"Town of Brandon","admin3":"07750","localeAltName":null},{"geonameid":5234655,"name":"Town of Castleton","admin3":"11950","localeAltName":null},{"geonameid":5234870,"name":"Town of Chittenden","admin3":"14350","localeAltName":null},{"geonameid":5234928,"name":"Town of Clarendon","admin3":"14500","localeAltName":null},{"geonameid":5235348,"name":"Town of Danby","admin3":"16825","localeAltName":null},{"geonameid":5236001,"name":"Town of Fair Haven","admin3":"25375","localeAltName":null},{"geonameid":5237231,"name":"Town of Hubbardton","admin3":"34450"},{"geonameid":5237382,"name":"Town of Ira","admin3":"35425"},{"geonameid":5237683,"name":"Town of Killington","admin3":"37685"},{"geonameid":5238470,"name":"Town of Mendon","admin3":"44125","localeAltName":null},{"geonameid":5238539,"name":"Town of Middletown Springs","admin3":"44800"},{"geonameid":5238826,"name":"Town of Mount Holly","admin3":"47200","localeAltName":null},{"geonameid":5238869,"name":"Town of Mount Tabor","admin3":"47425"},{"geonameid":5239665,"name":"Town of Pawlet","admin3":"54250","localeAltName":null},{"geonameid":5239843,"name":"Town of Pittsfield","admin3":"55450","localeAltName":null},{"geonameid":5239849,"name":"Town of Pittsford","admin3":"55600","localeAltName":null},{"geonameid":5239990,"name":"Town of Poultney","admin3":"56875","localeAltName":null},{"geonameid":5240028,"name":"Town of Proctor","admin3":"57250"},{"geonameid":5240539,"name":"City of Rutland","admin3":"61225","localeAltName":null},{"geonameid":5240540,"name":"Town of Rutland","admin3":"61300"},{"geonameid":5241089,"name":"Town of Shrewsbury","admin3":"65275"},{"geonameid":5241691,"name":"Town of Sudbury","admin3":"71050"},{"geonameid":5241979,"name":"Town of Tinmouth","admin3":"72925"},{"geonameid":5242471,"name":"Town of Wallingford","admin3":"75925","localeAltName":null},{"geonameid":5242620,"name":"Town of Wells","admin3":"77950"},{"geonameid":5242711,"name":"Town of West Haven","admin3":"80875"},{"geonameid":5242770,"name":"Town of West Rutland","admin3":"82300","localeAltName":null}],"alternateNames":[{"alternatenameId":1979591,"geonameid":5242283,"isoLanguage":"en","alternateName":"Vermont","isPreferredName":true,"isShortName":true,"isColloquial":false,"isHistoric":false}]},"__N_SSG":true}