{"pageProps":{"locale":"ro","admin2":{"geonameid":662436,"name":"Comuna Vrâncioaia","country":"RO","admin1":"40","admin2":"178750","admin3":"","latitude":"45.8716900","longitude":"26.7097100","localeAltName":null},"admin1":{"geonameid":662447,"name":"Vrancea","admin1":"40","localeAltName":"Vrancea"},"locations":[{"geonameid":684466,"name":"Bodești","admin3":"","localeAltName":null},{"geonameid":672693,"name":"Muncei","admin3":"","localeAltName":null},{"geonameid":670395,"name":"Ploştina","admin3":"","localeAltName":null},{"geonameid":670147,"name":"Poiana","admin3":"","localeAltName":null},{"geonameid":666355,"name":"Spinești","admin3":"","localeAltName":null},{"geonameid":663115,"name":"Văsui","admin3":"","localeAltName":null},{"geonameid":662437,"name":"Vrâncioaia","admin3":"","localeAltName":null}],"admin3":[],"alternateNames":[{"alternatenameId":391637,"geonameid":662447,"isoLanguage":"ro","alternateName":"Vrancea","isPreferredName":true,"isShortName":true,"isColloquial":false,"isHistoric":false}]},"__N_SSG":true}