{"pageProps":{"locale":"it","admin2":{"geonameid":3172391,"name":"Napoli","country":"IT","admin1":"04","admin2":"NA","admin3":"","latitude":"40.8833300","longitude":"14.4166700","localeAltName":"Napoli"},"admin1":{"geonameid":3181042,"name":"Campania","admin1":"04","localeAltName":"Campania"},"locations":[{"geonameid":3183541,"name":"Acerra","admin3":"063001","localeAltName":null},{"geonameid":3183455,"name":"Afragola","admin3":"063002","localeAltName":null},{"geonameid":3183446,"name":"Agerola","admin3":"063003","localeAltName":null},{"geonameid":8948981,"name":"Amodio-Massariola","admin3":"063034","localeAltName":null},{"geonameid":3183099,"name":"Anacapri","admin3":"063004","localeAltName":null},{"geonameid":12070064,"name":"Arenella","admin3":"063049","localeAltName":null},{"geonameid":3182816,"name":"Arola-Preazzano","admin3":"063086","localeAltName":null},{"geonameid":8948708,"name":"Arpino","admin3":"063023","localeAltName":null},{"geonameid":3182765,"name":"Arzano","admin3":"063005","localeAltName":null},{"geonameid":12070065,"name":"Avvocata","admin3":"063049","localeAltName":null},{"geonameid":3182599,"name":"Bacoli","admin3":"063006","localeAltName":null},{"geonameid":3182518,"name":"Bagnoli","admin3":"063049","localeAltName":null},{"geonameid":3182411,"name":"Barano d'Ischia","admin3":"063007","localeAltName":null},{"geonameid":3182336,"name":"Barra","admin3":"063049","localeAltName":null},{"geonameid":3181683,"name":"Boscoreale","admin3":"063008","localeAltName":null},{"geonameid":3181680,"name":"Boscotrecase","admin3":"063009","localeAltName":null},{"geonameid":3181471,"name":"Brusciano","admin3":"063010","localeAltName":null},{"geonameid":3181258,"name":"Caivano","admin3":"063011","localeAltName":null},{"geonameid":8949760,"name":"Calvanese","admin3":"063058","localeAltName":null},{"geonameid":3181140,"name":"Calvizzano","admin3":"063012","localeAltName":null},{"geonameid":3180918,"name":"Camposano","admin3":"063013","localeAltName":null},{"geonameid":8950141,"name":"Capo Mazzo","admin3":"063002","localeAltName":null},{"geonameid":3180630,"name":"Capri","admin3":"063014","localeAltName":null},{"geonameid":6535636,"name":"Carbonara di Nola","admin3":"063015","localeAltName":null},{"geonameid":3180541,"name":"Cardito","admin3":"063016","localeAltName":null},{"geonameid":3180172,"name":"Casalnuovo di Napoli","admin3":"063017","localeAltName":null},{"geonameid":3180141,"name":"Casamarciano","admin3":"063018","localeAltName":null},{"geonameid":6535295,"name":"Casamicciola Terme","admin3":"063019","localeAltName":null},{"geonameid":3180110,"name":"Casandrino","admin3":"063020","localeAltName":null},{"geonameid":8948913,"name":"Casarea","admin3":"063017","localeAltName":null},{"geonameid":6534267,"name":"Casavatore","admin3":"063021","localeAltName":null},{"geonameid":3179832,"name":"Casola di Napoli","admin3":"063022","localeAltName":null},{"geonameid":3179806,"name":"Casoria","admin3":"063023","localeAltName":null},{"geonameid":3179661,"name":"Castellammare di Stabia","admin3":"063024","localeAltName":null},{"geonameid":6535296,"name":"Castello di Cisterna","admin3":"063025","localeAltName":null},{"geonameid":8950285,"name":"Castello Monteleone","admin3":"063041","localeAltName":null},{"geonameid":3179109,"name":"Cercola","admin3":"063026","localeAltName":null},{"geonameid":12070058,"name":"Chiaia","admin3":"063049","localeAltName":null},{"geonameid":12070059,"name":"Chiaiano","admin3":"063049","localeAltName":null},{"geonameid":3178726,"name":"Cicciano","admin3":"063027","localeAltName":null},{"geonameid":3178683,"name":"Cimitile","admin3":"063028","localeAltName":null},{"geonameid":3178232,"name":"Comiziano","admin3":"063029","localeAltName":null},{"geonameid":8950128,"name":"Corigliano","admin3":"063012","localeAltName":null},{"geonameid":8949160,"name":"Country Park","admin3":"063034","localeAltName":null},{"geonameid":6534254,"name":"Crispano","admin3":"063030","localeAltName":null},{"geonameid":3177363,"name":"Ercolano","admin3":"063064","localeAltName":null},{"geonameid":8950191,"name":"Festinese","admin3":"063034","localeAltName":null},{"geonameid":3176748,"name":"Forio","admin3":"063031","localeAltName":null},{"geonameid":8949606,"name":"Fornillo","admin3":"063055","localeAltName":null},{"geonameid":8949227,"name":"Franche","admin3":"063054","localeAltName":null},{"geonameid":3176561,"name":"Frattamaggiore","admin3":"063032","localeAltName":null},{"geonameid":3176560,"name":"Frattaminore","admin3":"063033","localeAltName":null},{"geonameid":3176477,"name":"Fuorigrotta","admin3":"063049","localeAltName":null},{"geonameid":8950327,"name":"Gallo","admin3":"063029","localeAltName":null},{"geonameid":3176059,"name":"Giugliano in Campania","admin3":"063034","localeAltName":null},{"geonameid":3175952,"name":"Gragnano","admin3":"063035","localeAltName":null},{"geonameid":8949495,"name":"Grotta dell'Olmo I","admin3":"063034","localeAltName":null},{"geonameid":3175743,"name":"Grumo Nevano","admin3":"063036","localeAltName":null},{"geonameid":3175458,"name":"Ischia","admin3":"063037","localeAltName":null},{"geonameid":3175453,"name":"Ischia Porto","admin3":"063037","localeAltName":null},{"geonameid":3175335,"name":"Lacco Ameno","admin3":"063038","localeAltName":null},{"geonameid":6534758,"name":"Lettere","admin3":"063039","localeAltName":null},{"geonameid":3174666,"name":"Liveri","admin3":"063040","localeAltName":null},{"geonameid":3174021,"name":"Marano di Napoli","admin3":"063041","localeAltName":null},{"geonameid":3173946,"name":"Mariglianella","admin3":"063042","localeAltName":null},{"geonameid":3173945,"name":"Marigliano","admin3":"063043","localeAltName":null},{"geonameid":6535637,"name":"Massa di Somma","admin3":"063092","localeAltName":null},{"geonameid":3173760,"name":"Massa Lubrense","admin3":"063044","localeAltName":null},{"geonameid":8949264,"name":"Masseria Vecchia Ovest","admin3":"063034","localeAltName":null},{"geonameid":3173614,"name":"Melito di Napoli","admin3":"063045","localeAltName":null},{"geonameid":12070062,"name":"Mercato","admin3":"063049","localeAltName":null},{"geonameid":3173524,"name":"Meta","admin3":"063046","localeAltName":null},{"geonameid":3173473,"name":"Miano","admin3":"063049","localeAltName":null},{"geonameid":8948898,"name":"Moiano","admin3":"063086","localeAltName":null},{"geonameid":3172946,"name":"Monte di Procida","admin3":"063047","localeAltName":null},{"geonameid":12070066,"name":"Montecalvario","admin3":"063049","localeAltName":null},{"geonameid":8950156,"name":"Montechiaro","admin3":"063086","localeAltName":null},{"geonameid":8948704,"name":"Monterusciello","admin3":"063060","localeAltName":null},{"geonameid":3172472,"name":"Mugnano di Napoli","admin3":"063048","localeAltName":null},{"geonameid":8949181,"name":"Musci","admin3":"063056","localeAltName":null},{"geonameid":3172394,"name":"Naples","admin3":"063049","localeAltName":null},{"geonameid":3172227,"name":"Nola","admin3":"063050","localeAltName":null},{"geonameid":3171778,"name":"Ottaviano","admin3":"063051","localeAltName":null},{"geonameid":3171576,"name":"Palma Campania","admin3":"063052","localeAltName":null},{"geonameid":8950163,"name":"Parco Mazzola","admin3":"063034","localeAltName":null},{"geonameid":8948880,"name":"Pascarola","admin3":"063011","localeAltName":null},{"geonameid":8950109,"name":"Patierno","admin3":"063086","localeAltName":null},{"geonameid":12070063,"name":"Pendino","admin3":"063049","localeAltName":null},{"geonameid":8950124,"name":"Pezzalunga","admin3":"063001","localeAltName":null},{"geonameid":3170962,"name":"Pianillo","admin3":"063003","localeAltName":null},{"geonameid":3170943,"name":"Piano di Sorrento","admin3":"063053","localeAltName":null},{"geonameid":3170921,"name":"Pianura","admin3":"063049","localeAltName":null},{"geonameid":8948809,"name":"Piazza Roma","admin3":"063039","localeAltName":null},{"geonameid":8948800,"name":"Piazza-Tralia-Pendolo","admin3":"063054","localeAltName":null},{"geonameid":8948788,"name":"Piazzola","admin3":"063050","localeAltName":null},{"geonameid":9036122,"name":"Piazzolla","admin3":"063076","localeAltName":null},{"geonameid":3170699,"name":"Pimonte","admin3":"063054","localeAltName":null},{"geonameid":3170631,"name":"Piscinola","admin3":"063049","localeAltName":null},{"geonameid":3170457,"name":"Poggiomarino","admin3":"063055","localeAltName":null},{"geonameid":3170446,"name":"Poggioreale","admin3":"063049","localeAltName":null},{"geonameid":8949592,"name":"Pollastri","admin3":"063050","localeAltName":null},{"geonameid":6534255,"name":"Pollena Trocchia","admin3":"063056","localeAltName":null},{"geonameid":3170341,"name":"Pomigliano d'Arco","admin3":"063057","localeAltName":null},{"geonameid":3170335,"name":"Pompei","admin3":"063058","localeAltName":null},{"geonameid":8949439,"name":"Ponte di Ferro","admin3":"063072","localeAltName":null},{"geonameid":3170206,"name":"Ponticelli","admin3":"063049","localeAltName":null},{"geonameid":3170116,"name":"Portici","admin3":"063059","localeAltName":null},{"geonameid":12070072,"name":"Porto","admin3":"063049","localeAltName":null},{"geonameid":3170055,"name":"Posillipo","admin3":"063049","localeAltName":null},{"geonameid":3169984,"name":"Pozzuoli","admin3":"063060","localeAltName":null},{"geonameid":8949517,"name":"Priora","admin3":"063080","localeAltName":null},{"geonameid":3169807,"name":"Procida","admin3":"063061","localeAltName":null},{"geonameid":3169724,"name":"Qualiano","admin3":"063062","localeAltName":null},{"geonameid":6534256,"name":"Quarto","admin3":"063063","localeAltName":null},{"geonameid":3169147,"name":"Roccarainola","admin3":"063065","localeAltName":null},{"geonameid":10295350,"name":"San Carlo All'Arena","admin3":"063049","localeAltName":null},{"geonameid":12070061,"name":"San Ferdinando","admin3":"063049","localeAltName":null},{"geonameid":3168341,"name":"San Gennaro Vesuviano","admin3":"063066","localeAltName":null},{"geonameid":3168309,"name":"San Giorgio a Cremano","admin3":"063067","localeAltName":null},{"geonameid":3168257,"name":"San Giovanni a Teduccio","admin3":"063049","localeAltName":null},{"geonameid":12070068,"name":"San Giuseppe","admin3":"063049","localeAltName":null},{"geonameid":3168209,"name":"San Giuseppe Vesuviano","admin3":"063068","localeAltName":null},{"geonameid":12070070,"name":"San Lorenzo","admin3":"063049","localeAltName":null},{"geonameid":3167889,"name":"San Paolo Bel Sito","admin3":"063069","localeAltName":null},{"geonameid":8950125,"name":"San Pietro","admin3":"063012","localeAltName":null},{"geonameid":12070069,"name":"San Pietro a Patierno","admin3":"063049","localeAltName":null},{"geonameid":3167742,"name":"San Sebastiano al Vesuvio","admin3":"063070","localeAltName":null},{"geonameid":6535297,"name":"San Vitaliano","admin3":"063075","localeAltName":null},{"geonameid":3167644,"name":"Sant'Agata sui Due Golfi","admin3":"063044","localeAltName":null},{"geonameid":3167632,"name":"Sant'Agnello","admin3":"063071","localeAltName":null},{"geonameid":3167509,"name":"Sant'Anastasia","admin3":"063072","localeAltName":null},{"geonameid":7290531,"name":"Sant'Angelo","admin3":"063078","localeAltName":null},{"geonameid":3167419,"name":"Sant'Antimo","admin3":"063073","localeAltName":null},{"geonameid":3167393,"name":"Sant'Antonio Abate","admin3":"063074","localeAltName":null},{"geonameid":6534269,"name":"Santa Maria La Carità","admin3":"063090","localeAltName":null},{"geonameid":3167035,"name":"Saviano","admin3":"063076","localeAltName":null},{"geonameid":12070067,"name":"Scampia","admin3":"063049","localeAltName":null},{"geonameid":6535298,"name":"Scisciano","admin3":"063077","localeAltName":null},{"geonameid":3166830,"name":"Secondigliano","admin3":"063049","localeAltName":null},{"geonameid":3166657,"name":"Serrara Fontana","admin3":"063078","localeAltName":null},{"geonameid":3166465,"name":"Soccavo","admin3":"063049","localeAltName":null},{"geonameid":3166404,"name":"Somma Vesuviana","admin3":"063079","localeAltName":null},{"geonameid":3166350,"name":"Sorrento","admin3":"063080","localeAltName":null},{"geonameid":8949297,"name":"Spartimento","admin3":"063077","localeAltName":null},{"geonameid":8948864,"name":"Starza Vecchia","admin3":"063072","localeAltName":null},{"geonameid":10294260,"name":"Stella","admin3":"063049","localeAltName":null},{"geonameid":3166096,"name":"Striano","admin3":"063081","localeAltName":null},{"geonameid":8949812,"name":"Termini","admin3":"063044","localeAltName":null},{"geonameid":3165737,"name":"Terzigno","admin3":"063082","localeAltName":null},{"geonameid":8950042,"name":"Ticciano","admin3":"063086","localeAltName":null},{"geonameid":3165475,"name":"Torre Annunziata","admin3":"063083","localeAltName":null},{"geonameid":8948837,"name":"Torre Caracciolo","admin3":"063041","localeAltName":null},{"geonameid":3165456,"name":"Torre del Greco","admin3":"063084","localeAltName":null},{"geonameid":8948797,"name":"Torretta-Scalzapecora","admin3":"063087","localeAltName":null},{"geonameid":6534270,"name":"Trecase","admin3":"063091","localeAltName":null},{"geonameid":3165120,"name":"Tufino","admin3":"063085","localeAltName":null},{"geonameid":12070060,"name":"Vicaria","admin3":"063049","localeAltName":null},{"geonameid":8949859,"name":"Vico","admin3":"063052","localeAltName":null},{"geonameid":3164407,"name":"Vico Equense","admin3":"063086","localeAltName":null},{"geonameid":3164153,"name":"Villaricca","admin3":"063087","localeAltName":null},{"geonameid":3164057,"name":"Visciano","admin3":"063088","localeAltName":null},{"geonameid":6534268,"name":"Volla","admin3":"063089","localeAltName":null},{"geonameid":3163948,"name":"Vomero","admin3":"063049","localeAltName":null},{"geonameid":12070071,"name":"Zona Industriale","admin3":"063049","localeAltName":null}],"admin3":[{"geonameid":3172395,"name":"Napoli","admin3":"063049","localeAltName":null},{"geonameid":3174814,"name":"Lettere","admin3":"063039","localeAltName":null},{"geonameid":3180125,"name":"Casamicciola Terme","admin3":"063019","localeAltName":null},{"geonameid":6536385,"name":"Agerola","admin3":"063003","localeAltName":null},{"geonameid":6536388,"name":"Pimonte","admin3":"063054","localeAltName":null},{"geonameid":6537337,"name":"Acerra","admin3":"063001","localeAltName":null},{"geonameid":6537338,"name":"Casamarciano","admin3":"063018","localeAltName":null},{"geonameid":6537339,"name":"Casola di Napoli","admin3":"063022","localeAltName":null},{"geonameid":6537340,"name":"Cicciano","admin3":"063027","localeAltName":null},{"geonameid":6537341,"name":"Frattaminore","admin3":"063033","localeAltName":null},{"geonameid":6537342,"name":"Grumo Nevano","admin3":"063036","localeAltName":null},{"geonameid":6537343,"name":"Liveri","admin3":"063040","localeAltName":null},{"geonameid":6537344,"name":"Marano di Napoli","admin3":"063041","localeAltName":null},{"geonameid":6537345,"name":"Palma Campania","admin3":"063052","localeAltName":null},{"geonameid":6537346,"name":"Qualiano","admin3":"063062","localeAltName":null},{"geonameid":6537347,"name":"Roccarainola","admin3":"063065","localeAltName":null},{"geonameid":6537348,"name":"San Giorgio a Cremano","admin3":"063067","localeAltName":null},{"geonameid":6537349,"name":"San Giuseppe Vesuviano","admin3":"063068","localeAltName":null},{"geonameid":6537350,"name":"San Paolo Bel Sito","admin3":"063069","localeAltName":null},{"geonameid":6537351,"name":"Somma Vesuviana","admin3":"063079","localeAltName":null},{"geonameid":6537352,"name":"Striano","admin3":"063081","localeAltName":null},{"geonameid":6537353,"name":"Tufino","admin3":"063085","localeAltName":null},{"geonameid":6538755,"name":"Anacapri","admin3":"063004","localeAltName":null},{"geonameid":6538756,"name":"Calvizzano","admin3":"063012","localeAltName":null},{"geonameid":6538757,"name":"Camposano","admin3":"063013","localeAltName":null},{"geonameid":6538758,"name":"Casandrino","admin3":"063020","localeAltName":null},{"geonameid":6538759,"name":"Cercola","admin3":"063026","localeAltName":null},{"geonameid":6538760,"name":"Comiziano","admin3":"063029","localeAltName":null},{"geonameid":6538761,"name":"Lacco Ameno","admin3":"063038","localeAltName":null},{"geonameid":6538762,"name":"Mariglianella","admin3":"063042","localeAltName":null},{"geonameid":6538763,"name":"Melito di Napoli","admin3":"063045","localeAltName":null},{"geonameid":6538764,"name":"Monte di Procida","admin3":"063047","localeAltName":null},{"geonameid":6538765,"name":"Mugnano di Napoli","admin3":"063048","localeAltName":null},{"geonameid":6538766,"name":"Poggiomarino","admin3":"063055","localeAltName":null},{"geonameid":6538767,"name":"Pomigliano d'Arco","admin3":"063057","localeAltName":null},{"geonameid":6538768,"name":"Portici","admin3":"063059","localeAltName":null},{"geonameid":6538769,"name":"Sant'Agnello","admin3":"063071","localeAltName":null},{"geonameid":6538770,"name":"Saviano","admin3":"063076","localeAltName":null},{"geonameid":6539578,"name":"Boscotrecase","admin3":"063009","localeAltName":null},{"geonameid":6539810,"name":"Arzano","admin3":"063005","localeAltName":null},{"geonameid":6539811,"name":"Ischia","admin3":"063037","localeAltName":null},{"geonameid":6539812,"name":"Pompei","admin3":"063058","localeAltName":null},{"geonameid":6539813,"name":"Sant'Anastasia","admin3":"063072","localeAltName":null},{"geonameid":6539814,"name":"Sorrento","admin3":"063080","localeAltName":null},{"geonameid":6539990,"name":"Brusciano","admin3":"063010","localeAltName":null},{"geonameid":6539991,"name":"Capri","admin3":"063014","localeAltName":null},{"geonameid":6539992,"name":"Cardito","admin3":"063016","localeAltName":null},{"geonameid":6539993,"name":"Visciano","admin3":"063088","localeAltName":null},{"geonameid":6540680,"name":"Casalnuovo di Napoli","admin3":"063017","localeAltName":null},{"geonameid":6540681,"name":"Cimitile","admin3":"063028","localeAltName":null},{"geonameid":6540682,"name":"Forio","admin3":"063031","localeAltName":null},{"geonameid":6540683,"name":"Frattamaggiore","admin3":"063032","localeAltName":null},{"geonameid":6540684,"name":"Gragnano","admin3":"063035","localeAltName":null},{"geonameid":6540685,"name":"San Sebastiano al Vesuvio","admin3":"063070","localeAltName":null},{"geonameid":6540686,"name":"Sant'Antimo","admin3":"063073","localeAltName":null},{"geonameid":6540687,"name":"Villaricca","admin3":"063087","localeAltName":null},{"geonameid":6541162,"name":"Afragola","admin3":"063002","localeAltName":null},{"geonameid":6541163,"name":"Caivano","admin3":"063011","localeAltName":null},{"geonameid":6541164,"name":"Giugliano in Campania","admin3":"063034","localeAltName":null},{"geonameid":6541165,"name":"Ercolano","admin3":"063064","localeAltName":null},{"geonameid":6541166,"name":"Sant'Antonio Abate","admin3":"063074","localeAltName":null},{"geonameid":6541167,"name":"Serrara Fontana","admin3":"063078","localeAltName":null},{"geonameid":6541168,"name":"Torre Annunziata","admin3":"063083","localeAltName":null},{"geonameid":6541169,"name":"Vico Equense","admin3":"063086","localeAltName":null},{"geonameid":6541475,"name":"Marigliano","admin3":"063043","localeAltName":null},{"geonameid":6541679,"name":"Barano d'Ischia","admin3":"063007","localeAltName":null},{"geonameid":6541680,"name":"Casoria","admin3":"063023","localeAltName":null},{"geonameid":6541681,"name":"Pozzuoli","admin3":"063060","localeAltName":null},{"geonameid":6541682,"name":"Procida","admin3":"063061","localeAltName":null},{"geonameid":6541683,"name":"Terzigno","admin3":"063082","localeAltName":null},{"geonameid":6541903,"name":"Castellammare di Stabia","admin3":"063024","localeAltName":null},{"geonameid":6541904,"name":"Meta","admin3":"063046","localeAltName":null},{"geonameid":6541905,"name":"Nola","admin3":"063050","localeAltName":null},{"geonameid":6541906,"name":"Ottaviano","admin3":"063051","localeAltName":null},{"geonameid":6541907,"name":"Torre del Greco","admin3":"063084","localeAltName":null},{"geonameid":6542059,"name":"Bacoli","admin3":"063006","localeAltName":null},{"geonameid":6542060,"name":"Boscoreale","admin3":"063008","localeAltName":null},{"geonameid":6542061,"name":"Piano di Sorrento","admin3":"063053","localeAltName":null},{"geonameid":6542062,"name":"San Gennaro Vesuviano","admin3":"063066","localeAltName":null},{"geonameid":6542293,"name":"Massa Lubrense","admin3":"063044","localeAltName":null},{"geonameid":6542328,"name":"Crispano","admin3":"063030","localeAltName":null},{"geonameid":6542329,"name":"Pollena Trocchia","admin3":"063056","localeAltName":null},{"geonameid":6542330,"name":"Quarto","admin3":"063063","localeAltName":null},{"geonameid":6542339,"name":"Casavatore","admin3":"063021","localeAltName":null},{"geonameid":6542340,"name":"Volla","admin3":"063089","localeAltName":null},{"geonameid":6542341,"name":"Santa Maria la Carità","admin3":"063090","localeAltName":null},{"geonameid":6542342,"name":"Trecase","admin3":"063091","localeAltName":null},{"geonameid":6543280,"name":"Castello di Cisterna","admin3":"063025","localeAltName":null},{"geonameid":6543281,"name":"San Vitaliano","admin3":"063075","localeAltName":null},{"geonameid":6543282,"name":"Scisciano","admin3":"063077","localeAltName":null},{"geonameid":6543616,"name":"Carbonara di Nola","admin3":"063015","localeAltName":null},{"geonameid":6543617,"name":"Massa di Somma","admin3":"063092","localeAltName":null}],"alternateNames":[{"alternatenameId":1349642,"geonameid":3172391,"isoLanguage":"it","alternateName":"Napoli","isPreferredName":true,"isShortName":true,"isColloquial":false,"isHistoric":false},{"alternatenameId":2431265,"geonameid":3172391,"isoLanguage":"de","alternateName":"Neapel","isPreferredName":true,"isShortName":true,"isColloquial":false,"isHistoric":false},{"alternatenameId":1352304,"geonameid":3181042,"isoLanguage":"it","alternateName":"Campania","isPreferredName":true,"isShortName":true,"isColloquial":false,"isHistoric":false}]},"__N_SSG":true}