{"pageProps":{"locale":"en","admin1":{"geonameid":4197000,"name":"Georgia","country":"US","admin1":"GA","latitude":"32.7504200","longitude":"-83.5001800","localeAltName":"Georgia"},"admin2":[{"geonameid":4180088,"name":"Appling County","admin2":"001","localeAltName":null},{"geonameid":4180432,"name":"Atkinson County","admin2":"003","localeAltName":null},{"geonameid":4180711,"name":"Bacon County","admin2":"005","localeAltName":null},{"geonameid":4180816,"name":"Baker County","admin2":"007","localeAltName":null},{"geonameid":4180872,"name":"Baldwin County","admin2":"009","localeAltName":null},{"geonameid":4180965,"name":"Banks County","admin2":"011","localeAltName":null},{"geonameid":4181182,"name":"Barrow County","admin2":"013","localeAltName":null},{"geonameid":4181218,"name":"Bartow County","admin2":"015","localeAltName":null},{"geonameid":4181955,"name":"Ben Hill County","admin2":"017","localeAltName":null},{"geonameid":4182126,"name":"Berrien County","admin2":"019","localeAltName":null},{"geonameid":4182755,"name":"Bibb County","admin2":"021","localeAltName":null},{"geonameid":4183415,"name":"Bleckley County","admin2":"023","localeAltName":null},{"geonameid":4184153,"name":"Brantley County","admin2":"025","localeAltName":null},{"geonameid":4184557,"name":"Brooks County","admin2":"027","localeAltName":null},{"geonameid":4184899,"name":"Bryan County","admin2":"029","localeAltName":null},{"geonameid":4185202,"name":"Bulloch County","admin2":"031","localeAltName":null},{"geonameid":4185265,"name":"Burke County","admin2":"033","localeAltName":null},{"geonameid":4185484,"name":"Butts County","admin2":"035","localeAltName":null},{"geonameid":4185662,"name":"Calhoun County","admin2":"037","localeAltName":null},{"geonameid":4185838,"name":"Camden County","admin2":"039","localeAltName":null},{"geonameid":4186104,"name":"Candler County","admin2":"043","localeAltName":null},{"geonameid":4186396,"name":"Carroll County","admin2":"045","localeAltName":null},{"geonameid":4186713,"name":"Catoosa County","admin2":"047","localeAltName":null},{"geonameid":4187348,"name":"Charlton County","admin2":"049","localeAltName":null},{"geonameid":4187390,"name":"Chatham County","admin2":"051","localeAltName":null},{"geonameid":4187416,"name":"Chattahoochee County","admin2":"053","localeAltName":null},{"geonameid":4187459,"name":"Chattooga County","admin2":"055","localeAltName":null},{"geonameid":4187535,"name":"Cherokee County","admin2":"057","localeAltName":null},{"geonameid":4188191,"name":"Clarke County","admin2":"059","localeAltName":null},{"geonameid":4188258,"name":"Clay County","admin2":"061","localeAltName":null},{"geonameid":4188291,"name":"Clayton County","admin2":"063","localeAltName":null},{"geonameid":4188433,"name":"Clinch County","admin2":"065","localeAltName":null},{"geonameid":4188547,"name":"Cobb County","admin2":"067","localeAltName":null},{"geonameid":4188653,"name":"Coffee County","admin2":"069","localeAltName":null},{"geonameid":4188937,"name":"Colquitt County","admin2":"071","localeAltName":null},{"geonameid":4188957,"name":"Columbia County","admin2":"073","localeAltName":null},{"geonameid":4189236,"name":"Cook County","admin2":"075","localeAltName":null},{"geonameid":4189828,"name":"Coweta County","admin2":"077","localeAltName":null},{"geonameid":4189924,"name":"Crawford County","admin2":"079","localeAltName":null},{"geonameid":4190062,"name":"Crisp County","admin2":"081","localeAltName":null},{"geonameid":4190530,"name":"Dade County","admin2":"083","localeAltName":null},{"geonameid":4190959,"name":"Dawson County","admin2":"085","localeAltName":null},{"geonameid":4191127,"name":"Decatur County","admin2":"087","localeAltName":null},{"geonameid":4191014,"name":"DeKalb County","admin2":"089","localeAltName":null},{"geonameid":4191654,"name":"Dodge County","admin2":"091","localeAltName":null},{"geonameid":4191760,"name":"Dooly County","admin2":"093","localeAltName":null},{"geonameid":4191903,"name":"Dougherty County","admin2":"095","localeAltName":null},{"geonameid":4191928,"name":"Douglas County","admin2":"097","localeAltName":null},{"geonameid":4192532,"name":"Early County","admin2":"099","localeAltName":null},{"geonameid":4192932,"name":"Echols County","admin2":"101","localeAltName":null},{"geonameid":4193042,"name":"Effingham County","admin2":"103","localeAltName":null},{"geonameid":4193088,"name":"Elbert County","admin2":"105","localeAltName":null},{"geonameid":4193335,"name":"Emanuel County","admin2":"107","localeAltName":null},{"geonameid":4193705,"name":"Evans County","admin2":"109","localeAltName":null},{"geonameid":4194387,"name":"Fannin County","admin2":"111","localeAltName":null},{"geonameid":4194465,"name":"Fayette County","admin2":"113","localeAltName":null},{"geonameid":4195536,"name":"Floyd County","admin2":"115","localeAltName":null},{"geonameid":4195777,"name":"Forsyth County","admin2":"117","localeAltName":null},{"geonameid":4196096,"name":"Franklin County","admin2":"119","localeAltName":null},{"geonameid":4196508,"name":"Fulton County","admin2":"121","localeAltName":null},{"geonameid":4197146,"name":"Gilmer County","admin2":"123","localeAltName":null},{"geonameid":4197240,"name":"Glascock County","admin2":"125","localeAltName":null},{"geonameid":4197388,"name":"Glynn County","admin2":"127","localeAltName":null},{"geonameid":4197608,"name":"Gordon County","admin2":"129","localeAltName":null},{"geonameid":4197807,"name":"Grady County","admin2":"131","localeAltName":null},{"geonameid":4198160,"name":"Greene County","admin2":"133","localeAltName":null},{"geonameid":4198645,"name":"Gwinnett County","admin2":"135","localeAltName":null},{"geonameid":4198688,"name":"Habersham County","admin2":"137","localeAltName":null},{"geonameid":4198821,"name":"Hall County","admin2":"139","localeAltName":null},{"geonameid":4198997,"name":"Hancock County","admin2":"141","localeAltName":null},{"geonameid":4199102,"name":"Haralson County","admin2":"143","localeAltName":null},{"geonameid":4199416,"name":"Harris County","admin2":"145","localeAltName":null},{"geonameid":4199517,"name":"Hart County","admin2":"147","localeAltName":null},{"geonameid":4199820,"name":"Heard County","admin2":"149","localeAltName":null},{"geonameid":4200051,"name":"Henry County","admin2":"151","localeAltName":null},{"geonameid":4201512,"name":"Houston County","admin2":"153","localeAltName":null},{"geonameid":4202266,"name":"Irwin County","admin2":"155","localeAltName":null},{"geonameid":4202453,"name":"Jackson County","admin2":"157","localeAltName":null},{"geonameid":4202638,"name":"Jasper County","admin2":"159","localeAltName":null},{"geonameid":4202662,"name":"Jeff Davis County","admin2":"161","localeAltName":null},{"geonameid":4202678,"name":"Jefferson County","admin2":"163","localeAltName":null},{"geonameid":4202750,"name":"Jenkins County","admin2":"165","localeAltName":null},{"geonameid":4202983,"name":"Johnson County","admin2":"167","localeAltName":null},{"geonameid":4203171,"name":"Jones County","admin2":"169","localeAltName":null},{"geonameid":4204869,"name":"Lamar County","admin2":"171","localeAltName":null},{"geonameid":4205013,"name":"Lanier County","admin2":"173","localeAltName":null},{"geonameid":4205152,"name":"Laurens County","admin2":"175","localeAltName":null},{"geonameid":4205331,"name":"Lee County","admin2":"177","localeAltName":null},{"geonameid":4205615,"name":"Liberty County","admin2":"179","localeAltName":null},{"geonameid":4205780,"name":"Lincoln County","admin2":"181","localeAltName":null},{"geonameid":4048080,"name":"Long County","admin2":"183","localeAltName":null},{"geonameid":4207045,"name":"Lowndes County","admin2":"185","localeAltName":null},{"geonameid":4207132,"name":"Lumpkin County","admin2":"187","localeAltName":null},{"geonameid":4207403,"name":"Macon County","admin2":"193","localeAltName":null},{"geonameid":4207451,"name":"Madison County","admin2":"195","localeAltName":null},{"geonameid":4207805,"name":"Marion County","admin2":"197","localeAltName":null},{"geonameid":4208454,"name":"McDuffie County","admin2":"189","localeAltName":null},{"geonameid":4208544,"name":"McIntosh County","admin2":"191","localeAltName":null},{"geonameid":4208945,"name":"Meriwether County","admin2":"199","localeAltName":null},{"geonameid":4209479,"name":"Miller County","admin2":"201","localeAltName":null},{"geonameid":4209744,"name":"Mitchell County","admin2":"205","localeAltName":null},{"geonameid":4209889,"name":"Monroe County","admin2":"207","localeAltName":null},{"geonameid":4209939,"name":"Montgomery County","admin2":"209","localeAltName":null},{"geonameid":4210114,"name":"Morgan County","admin2":"211","localeAltName":null},{"geonameid":4211691,"name":"Murray County","admin2":"213","localeAltName":null},{"geonameid":4211716,"name":"Muscogee County","admin2":"215","localeAltName":null},{"geonameid":4212736,"name":"Newton County","admin2":"217","localeAltName":null},{"geonameid":4213838,"name":"Oconee County","admin2":"219","localeAltName":null},{"geonameid":4213930,"name":"Oglethorpe County","admin2":"221","localeAltName":null},{"geonameid":4214993,"name":"Paulding County","admin2":"223","localeAltName":null},{"geonameid":4215089,"name":"Peach County","admin2":"225","localeAltName":null},{"geonameid":4215637,"name":"Pickens County","admin2":"227","localeAltName":null},{"geonameid":4215697,"name":"Pierce County","admin2":"229","localeAltName":null},{"geonameid":4215755,"name":"Pike County","admin2":"231","localeAltName":null},{"geonameid":4216880,"name":"Polk County","admin2":"233","localeAltName":null},{"geonameid":4217563,"name":"Pulaski County","admin2":"235","localeAltName":null},{"geonameid":4217625,"name":"Putnam County","admin2":"237","localeAltName":null},{"geonameid":4217715,"name":"Quitman County","admin2":"239","localeAltName":null},{"geonameid":4217747,"name":"Rabun County","admin2":"241","localeAltName":null},{"geonameid":4217909,"name":"Randolph County","admin2":"243","localeAltName":null},{"geonameid":4218744,"name":"Richmond County","admin2":"245","localeAltName":null},{"geonameid":4219431,"name":"Rockdale County","admin2":"247","localeAltName":null},{"geonameid":4221659,"name":"Schley County","admin2":"249","localeAltName":null},{"geonameid":4221757,"name":"Screven County","admin2":"251","localeAltName":null},{"geonameid":4221942,"name":"Seminole County","admin2":"253","localeAltName":null},{"geonameid":4223848,"name":"Spalding County","admin2":"255","localeAltName":null},{"geonameid":4224510,"name":"Stephens County","admin2":"257","localeAltName":null},{"geonameid":4224592,"name":"Stewart County","admin2":"259","localeAltName":null},{"geonameid":4225168,"name":"Sumter County","admin2":"261","localeAltName":null},{"geonameid":4225609,"name":"Talbot County","admin2":"263","localeAltName":null},{"geonameid":4225621,"name":"Taliaferro County","admin2":"265","localeAltName":null},{"geonameid":4225814,"name":"Tattnall County","admin2":"267","localeAltName":null},{"geonameid":4225854,"name":"Taylor County","admin2":"269","localeAltName":null},{"geonameid":4225944,"name":"Telfair County","admin2":"271","localeAltName":null},{"geonameid":4226051,"name":"Terrell County","admin2":"273","localeAltName":null},{"geonameid":4226286,"name":"Thomas County","admin2":"275","localeAltName":null},{"geonameid":4226538,"name":"Tift County","admin2":"277","localeAltName":null},{"geonameid":4226802,"name":"Toombs County","admin2":"279","localeAltName":null},{"geonameid":4226924,"name":"Towns County","admin2":"281","localeAltName":null},{"geonameid":4227019,"name":"Treutlen County","admin2":"283","localeAltName":null},{"geonameid":4227166,"name":"Troup County","admin2":"285","localeAltName":null},{"geonameid":4227392,"name":"Turner County","admin2":"287","localeAltName":null},{"geonameid":4227499,"name":"Twiggs County","admin2":"289","localeAltName":null},{"geonameid":4227781,"name":"Union County","admin2":"291","localeAltName":null},{"geonameid":4228098,"name":"Upson County","admin2":"293","localeAltName":null},{"geonameid":4229163,"name":"Walker County","admin2":"295","localeAltName":null},{"geonameid":4229371,"name":"Walton County","admin2":"297","localeAltName":null},{"geonameid":4229446,"name":"Ware County","admin2":"299","localeAltName":null},{"geonameid":4229498,"name":"Warren County","admin2":"301","localeAltName":null},{"geonameid":4229557,"name":"Washington County","admin2":"303","localeAltName":null},{"geonameid":4229782,"name":"Wayne County","admin2":"305","localeAltName":null},{"geonameid":4229882,"name":"Webster County","admin2":"307","localeAltName":null},{"geonameid":4230492,"name":"Wheeler County","admin2":"309","localeAltName":null},{"geonameid":4230595,"name":"White County","admin2":"311","localeAltName":null},{"geonameid":4230822,"name":"Whitfield County","admin2":"313","localeAltName":null},{"geonameid":4230919,"name":"Wilcox County","admin2":"315","localeAltName":null},{"geonameid":4231029,"name":"Wilkes County","admin2":"317","localeAltName":null},{"geonameid":4231046,"name":"Wilkinson County","admin2":"319","localeAltName":null},{"geonameid":4231976,"name":"Worth County","admin2":"321","localeAltName":null}],"admin3":[],"country":{"geonameid":6252001,"country":"US","name":"United States","localeAltName":null},"alternateNames":[{"alternatenameId":2089570,"geonameid":4197000,"isoLanguage":"en","alternateName":"Georgia","isPreferredName":true,"isShortName":true,"isColloquial":false,"isHistoric":false},{"alternatenameId":2422318,"geonameid":6252001,"isoLanguage":"de","alternateName":"USA","isPreferredName":true,"isShortName":true,"isColloquial":false,"isHistoric":false}]},"__N_SSG":true}