{"pageProps":{"locale":"en","admin1":{"geonameid":4436296,"name":"Mississippi","country":"US","admin1":"MS","latitude":"32.7504100","longitude":"-89.7503600","localeAltName":"Mississippi"},"admin2":[{"geonameid":4415912,"name":"Adams County","admin2":"001","localeAltName":null},{"geonameid":4416012,"name":"Alcorn County","admin2":"003","localeAltName":null},{"geonameid":4416182,"name":"Amite County","admin2":"005","localeAltName":null},{"geonameid":4416669,"name":"Attala County","admin2":"007","localeAltName":null},{"geonameid":4417738,"name":"Benton County","admin2":"009","localeAltName":null},{"geonameid":4419012,"name":"Bolivar County","admin2":"011","localeAltName":null},{"geonameid":4420309,"name":"Calhoun County","admin2":"013","localeAltName":null},{"geonameid":4420741,"name":"Carroll County","admin2":"015","localeAltName":null},{"geonameid":4421449,"name":"Chickasaw County","admin2":"017","localeAltName":null},{"geonameid":4421547,"name":"Choctaw County","admin2":"019","localeAltName":null},{"geonameid":4421859,"name":"Claiborne County","admin2":"021","localeAltName":null},{"geonameid":4421913,"name":"Clarke County","admin2":"023","localeAltName":null},{"geonameid":4421964,"name":"Clay County","admin2":"025","localeAltName":null},{"geonameid":4422178,"name":"Coahoma County","admin2":"027","localeAltName":null},{"geonameid":4422700,"name":"Copiah County","admin2":"029","localeAltName":null},{"geonameid":4422907,"name":"Covington County","admin2":"031","localeAltName":null},{"geonameid":4423655,"name":"De Soto County","admin2":"033","localeAltName":null},{"geonameid":4426954,"name":"Forrest County","admin2":"035","localeAltName":null},{"geonameid":4427119,"name":"Franklin County","admin2":"037","localeAltName":null},{"geonameid":4427592,"name":"George County","admin2":"039","localeAltName":null},{"geonameid":4428420,"name":"Greene County","admin2":"041","localeAltName":null},{"geonameid":4428541,"name":"Grenada County","admin2":"043","localeAltName":null},{"geonameid":4428961,"name":"Hancock County","admin2":"045","localeAltName":null},{"geonameid":4429197,"name":"Harrison County","admin2":"047","localeAltName":null},{"geonameid":4429877,"name":"Hinds County","admin2":"049","localeAltName":null},{"geonameid":4430142,"name":"Holmes County","admin2":"051","localeAltName":null},{"geonameid":4430705,"name":"Humphreys County","admin2":"053","localeAltName":null},{"geonameid":4431269,"name":"Issaquena County","admin2":"055","localeAltName":null},{"geonameid":4431274,"name":"Itawamba County","admin2":"057","localeAltName":null},{"geonameid":4431425,"name":"Jackson County","admin2":"059","localeAltName":null},{"geonameid":4431565,"name":"Jasper County","admin2":"061","localeAltName":null},{"geonameid":4431608,"name":"Jefferson County","admin2":"063","localeAltName":null},{"geonameid":4431611,"name":"Jefferson Davis County","admin2":"065","localeAltName":null},{"geonameid":4431982,"name":"Jones County","admin2":"067","localeAltName":null},{"geonameid":4432218,"name":"Kemper County","admin2":"069","localeAltName":null},{"geonameid":4432670,"name":"Lafayette County","admin2":"071","localeAltName":null},{"geonameid":4432922,"name":"Lamar County","admin2":"073","localeAltName":null},{"geonameid":4433028,"name":"Lauderdale County","admin2":"075","localeAltName":null},{"geonameid":4433059,"name":"Lawrence County","admin2":"077","localeAltName":null},{"geonameid":4433110,"name":"Leake County","admin2":"079","localeAltName":null},{"geonameid":4433190,"name":"Lee County","admin2":"081","localeAltName":null},{"geonameid":4433243,"name":"Leflore County","admin2":"083","localeAltName":null},{"geonameid":4433521,"name":"Lincoln County","admin2":"085","localeAltName":null},{"geonameid":4434357,"name":"Lowndes County","admin2":"087","localeAltName":null},{"geonameid":4434666,"name":"Madison County","admin2":"089","localeAltName":null},{"geonameid":4434905,"name":"Marion County","admin2":"091","localeAltName":null},{"geonameid":4434977,"name":"Marshall County","admin2":"093","localeAltName":null},{"geonameid":4436465,"name":"Monroe County","admin2":"095","localeAltName":null},{"geonameid":4436434,"name":"Montgomery County","admin2":"097","localeAltName":null},{"geonameid":4438104,"name":"Neshoba County","admin2":"099","localeAltName":null},{"geonameid":4438827,"name":"Newton County","admin2":"101","localeAltName":null},{"geonameid":4439115,"name":"Noxubee County","admin2":"103","localeAltName":null},{"geonameid":4439581,"name":"Oktibbeha County","admin2":"105","localeAltName":null},{"geonameid":4440232,"name":"Panola County","admin2":"107","localeAltName":null},{"geonameid":4440578,"name":"Pearl River County","admin2":"109","localeAltName":null},{"geonameid":4440794,"name":"Perry County","admin2":"111","localeAltName":null},{"geonameid":4441053,"name":"Pike County","admin2":"113","localeAltName":null},{"geonameid":4442070,"name":"Pontotoc County","admin2":"115","localeAltName":null},{"geonameid":4442374,"name":"Prentiss County","admin2":"117","localeAltName":null},{"geonameid":4442697,"name":"Quitman County","admin2":"119","localeAltName":null},{"geonameid":4442841,"name":"Rankin County","admin2":"121","localeAltName":null},{"geonameid":4445321,"name":"Scott County","admin2":"123","localeAltName":null},{"geonameid":4445678,"name":"Sharkey County","admin2":"125","localeAltName":null},{"geonameid":4446158,"name":"Simpson County","admin2":"127","localeAltName":null},{"geonameid":4446378,"name":"Smith County","admin2":"129","localeAltName":null},{"geonameid":4447325,"name":"Stone County","admin2":"131","localeAltName":null},{"geonameid":4447584,"name":"Sunflower County","admin2":"133","localeAltName":null},{"geonameid":4447911,"name":"Tallahatchie County","admin2":"135","localeAltName":null},{"geonameid":4447998,"name":"Tate County","admin2":"137","localeAltName":null},{"geonameid":4448467,"name":"Tippah County","admin2":"139","localeAltName":null},{"geonameid":4448508,"name":"Tishomingo County","admin2":"141","localeAltName":null},{"geonameid":4448921,"name":"Tunica County","admin2":"143","localeAltName":null},{"geonameid":4449240,"name":"Union County","admin2":"145","localeAltName":null},{"geonameid":4450205,"name":"Walthall County","admin2":"147","localeAltName":null},{"geonameid":4450285,"name":"Warren County","admin2":"149","localeAltName":null},{"geonameid":4450315,"name":"Washington County","admin2":"151","localeAltName":null},{"geonameid":4450432,"name":"Wayne County","admin2":"153","localeAltName":null},{"geonameid":4450493,"name":"Webster County","admin2":"155","localeAltName":null},{"geonameid":4451213,"name":"Wilkinson County","admin2":"157","localeAltName":null},{"geonameid":4451480,"name":"Winston County","admin2":"159","localeAltName":null},{"geonameid":4451779,"name":"Yalobusha County","admin2":"161","localeAltName":null},{"geonameid":4451815,"name":"Yazoo County","admin2":"163","localeAltName":null}],"admin3":[],"country":{"geonameid":6252001,"country":"US","name":"United States","localeAltName":null},"alternateNames":[{"alternatenameId":2089554,"geonameid":4436296,"isoLanguage":"en","alternateName":"Mississippi","isPreferredName":true,"isShortName":true,"isColloquial":false,"isHistoric":false},{"alternatenameId":2422318,"geonameid":6252001,"isoLanguage":"de","alternateName":"USA","isPreferredName":true,"isShortName":true,"isColloquial":false,"isHistoric":false}]},"__N_SSG":true}