{"pageProps":{"locale":"en","admin1":{"geonameid":5224323,"name":"Rhode Island","country":"US","admin1":"RI","latitude":"41.7503800","longitude":"-71.4997800","localeAltName":"Rhode Island"},"admin2":[{"geonameid":5221078,"name":"Bristol County","admin2":"001","localeAltName":null},{"geonameid":5222961,"name":"Kent County","admin2":"003","localeAltName":null},{"geonameid":5223601,"name":"Newport County","admin2":"005","localeAltName":null},{"geonameid":5224162,"name":"Providence County","admin2":"007","localeAltName":null},{"geonameid":5225535,"name":"Washington County","admin2":"009","localeAltName":null}],"admin3":[],"country":{"geonameid":6252001,"country":"US","name":"United States","localeAltName":null},"alternateNames":[{"alternatenameId":2124823,"geonameid":5224323,"isoLanguage":"en","alternateName":"Rhode Island","isPreferredName":true,"isShortName":true,"isColloquial":false,"isHistoric":false},{"alternatenameId":2422318,"geonameid":6252001,"isoLanguage":"de","alternateName":"USA","isPreferredName":true,"isShortName":true,"isColloquial":false,"isHistoric":false}]},"__N_SSG":true}