{"pageProps":{"locale":"en","admin1":{"geonameid":5549030,"name":"Utah","country":"US","admin1":"UT","latitude":"39.2502400","longitude":"-111.7510300","localeAltName":"Utah"},"admin2":[{"geonameid":5534886,"name":"Beaver County","admin2":"001","localeAltName":null},{"geonameid":5771875,"name":"Box Elder County","admin2":"003","localeAltName":null},{"geonameid":5772317,"name":"Cache County","admin2":"005","localeAltName":null},{"geonameid":5536454,"name":"Carbon County","admin2":"007","localeAltName":null},{"geonameid":5773608,"name":"Daggett County","admin2":"009","localeAltName":null},{"geonameid":5773664,"name":"Davis County","admin2":"011","localeAltName":null},{"geonameid":5774137,"name":"Duchesne County","admin2":"013","localeAltName":null},{"geonameid":5538893,"name":"Emery County","admin2":"015","localeAltName":null},{"geonameid":5539525,"name":"Garfield County","admin2":"017","localeAltName":null},{"geonameid":5539784,"name":"Grand County","admin2":"019","localeAltName":null},{"geonameid":5541004,"name":"Iron County","admin2":"021","localeAltName":null},{"geonameid":5541372,"name":"Juab County","admin2":"023","localeAltName":null},{"geonameid":5541473,"name":"Kane County","admin2":"025","localeAltName":null},{"geonameid":5543199,"name":"Millard County","admin2":"027","localeAltName":null},{"geonameid":5778525,"name":"Morgan County","admin2":"029","localeAltName":null},{"geonameid":5545027,"name":"Piute County","admin2":"031","localeAltName":null},{"geonameid":5780377,"name":"Rich County","admin2":"033","localeAltName":null},{"geonameid":5781004,"name":"Salt Lake County","admin2":"035","localeAltName":null},{"geonameid":5546337,"name":"San Juan County","admin2":"037","localeAltName":null},{"geonameid":5546434,"name":"Sanpete County","admin2":"039","localeAltName":null},{"geonameid":5546669,"name":"Sevier County","admin2":"041","localeAltName":null},{"geonameid":5782267,"name":"Summit County","admin2":"043","localeAltName":null},{"geonameid":5783699,"name":"Tooele County","admin2":"045","localeAltName":null},{"geonameid":5783919,"name":"Uintah County","admin2":"047","localeAltName":null},{"geonameid":5784025,"name":"Utah County","admin2":"049","localeAltName":null},{"geonameid":5784339,"name":"Wasatch County","admin2":"051","localeAltName":null},{"geonameid":5549225,"name":"Washington County","admin2":"053","localeAltName":null},{"geonameid":5549318,"name":"Wayne County","admin2":"055","localeAltName":null},{"geonameid":5784440,"name":"Weber County","admin2":"057","localeAltName":null}],"admin3":[],"country":{"geonameid":6252001,"country":"US","name":"United States","localeAltName":null},"alternateNames":[{"alternatenameId":2089567,"geonameid":5549030,"isoLanguage":"en","alternateName":"Utah","isPreferredName":true,"isShortName":true,"isColloquial":false,"isHistoric":false},{"alternatenameId":2422318,"geonameid":6252001,"isoLanguage":"de","alternateName":"USA","isPreferredName":true,"isShortName":true,"isColloquial":false,"isHistoric":false}]},"__N_SSG":true}