{"pageProps":{"locale":"en","admin1":{"geonameid":5242283,"name":"Vermont","country":"US","admin1":"VT","latitude":"44.0003400","longitude":"-72.7498300","localeAltName":"Vermont"},"admin2":[{"geonameid":5233146,"name":"Addison County","admin2":"001","localeAltName":null},{"geonameid":5233748,"name":"Bennington County","admin2":"003","localeAltName":null},{"geonameid":5234484,"name":"Caledonia County","admin2":"005","localeAltName":null},{"geonameid":5234861,"name":"Chittenden County","admin2":"007","localeAltName":null},{"geonameid":5235945,"name":"Essex County","admin2":"009","localeAltName":null},{"geonameid":5236279,"name":"Franklin County","admin2":"011","localeAltName":null},{"geonameid":5236542,"name":"Grand Isle County","admin2":"013","localeAltName":null},{"geonameid":5237839,"name":"Lamoille County","admin2":"015","localeAltName":null},{"geonameid":5239504,"name":"Orange County","admin2":"017","localeAltName":null},{"geonameid":5239520,"name":"Orleans County","admin2":"019","localeAltName":null},{"geonameid":5240516,"name":"Rutland County","admin2":"021","localeAltName":null},{"geonameid":5242529,"name":"Washington County","admin2":"023","localeAltName":null},{"geonameid":5243051,"name":"Windham County","admin2":"025","localeAltName":null},{"geonameid":5243062,"name":"Windsor County","admin2":"027","localeAltName":null}],"admin3":[],"country":{"geonameid":6252001,"country":"US","name":"United States","localeAltName":null},"alternateNames":[{"alternatenameId":1979591,"geonameid":5242283,"isoLanguage":"en","alternateName":"Vermont","isPreferredName":true,"isShortName":true,"isColloquial":false,"isHistoric":false},{"alternatenameId":2422318,"geonameid":6252001,"isoLanguage":"de","alternateName":"USA","isPreferredName":true,"isShortName":true,"isColloquial":false,"isHistoric":false}]},"__N_SSG":true}