{"pageProps":{"locale":"de","admin2":{"geonameid":6458760,"name":"Bezirk Dietikon","country":"CH","admin1":"ZH","admin2":"111","admin3":"","latitude":"47.3880400","longitude":"8.4426000"},"admin1":{"geonameid":2657895,"name":"Kanton Zürich","admin1":"ZH"},"locations":[{"geonameid":6295270,"name":"Aemet","admin3":"242"},{"geonameid":6295535,"name":"Aesch","admin3":"241"},{"geonameid":6295242,"name":"Aesch / Brunnacker","admin3":"241"},{"geonameid":6295228,"name":"Aesch / Dorfkern Ost","admin3":"241"},{"geonameid":6295227,"name":"Aesch / Dorfkern West","admin3":"241"},{"geonameid":6295237,"name":"Aesch / Eichacher","admin3":"241"},{"geonameid":6295238,"name":"Aesch / Feld","admin3":"241"},{"geonameid":6295241,"name":"Aesch / Grossacker","admin3":"241"},{"geonameid":6295239,"name":"Aesch / Halden","admin3":"241"},{"geonameid":6295307,"name":"Basi","admin3":"243"},{"geonameid":6295284,"name":"Behmer","admin3":"242"},{"geonameid":6295362,"name":"Berg","admin3":"247"},{"geonameid":6295410,"name":"Bergermoos","admin3":"250"},{"geonameid":2661496,"name":"Birmensdorf","admin3":"242"},{"geonameid":6295258,"name":"Birmensdorf / Auf Dorf","admin3":"242"},{"geonameid":6295257,"name":"Birmensdorf / Brühl","admin3":"242"},{"geonameid":6295251,"name":"Birmensdorf / Güpf","admin3":"242"},{"geonameid":6295293,"name":"Birmensdorf / Haldenacher","admin3":"242"},{"geonameid":6295256,"name":"Birmensdorf / Haslen","admin3":"242"},{"geonameid":6295261,"name":"Birmensdorf / Kirchhalde","admin3":"242"},{"geonameid":6295264,"name":"Birmensdorf / Kratz","admin3":"242"},{"geonameid":6295653,"name":"Birmensdorf / Letten","admin3":"242"},{"geonameid":6295260,"name":"Birmensdorf / Lettenmatt","admin3":"242"},{"geonameid":6295265,"name":"Birmensdorf / Mühlematt","admin3":"242"},{"geonameid":6295249,"name":"Birmensdorf / Oberdorf","admin3":"242"},{"geonameid":6295254,"name":"Birmensdorf / Obere Risi","admin3":"242"},{"geonameid":6295252,"name":"Birmensdorf / Risi","admin3":"242"},{"geonameid":6295253,"name":"Birmensdorf / Risiloch","admin3":"242"},{"geonameid":6295266,"name":"Birmensdorf / Ruggen","admin3":"242"},{"geonameid":6295250,"name":"Birmensdorf / Schwerzgrub","admin3":"242"},{"geonameid":6295255,"name":"Birmensdorf / Sternen","admin3":"242"},{"geonameid":6295263,"name":"Birmensdorf / Unterdorf","admin3":"242"},{"geonameid":6295259,"name":"Birmensdorf / Weissenbrunnen","admin3":"242"},{"geonameid":6295262,"name":"Birmensdorf / Wullikon","admin3":"242"},{"geonameid":6295313,"name":"Blächen","admin3":"243"},{"geonameid":6295315,"name":"Bodacher","admin3":"243"},{"geonameid":6295417,"name":"Bruederberg","admin3":"251"},{"geonameid":6295427,"name":"Brunau","admin3":"251"},{"geonameid":6295407,"name":"Chilstig","admin3":"250"},{"geonameid":6295337,"name":"Chisbüel","admin3":"246"},{"geonameid":6295392,"name":"Chöpfli","admin3":"249"},{"geonameid":6295390,"name":"Churzen-Teilen (Zelgli)","admin3":"249"},{"geonameid":2661015,"name":"Dietikon","admin3":"243"},{"geonameid":6295299,"name":"Dietikon / Almend","admin3":"243"},{"geonameid":6295298,"name":"Dietikon / Fondli","admin3":"243"},{"geonameid":6295304,"name":"Dietikon / Guggenbühl","admin3":"243"},{"geonameid":6295305,"name":"Dietikon / Hofacker","admin3":"243"},{"geonameid":6295295,"name":"Dietikon / Im Berg","admin3":"243"},{"geonameid":6295302,"name":"Dietikon / Kreuzacker","admin3":"243"},{"geonameid":6295300,"name":"Dietikon / Oberdorf","admin3":"243"},{"geonameid":6295303,"name":"Dietikon / Rütematt","admin3":"243"},{"geonameid":6295306,"name":"Dietikon / Schönenwerd","admin3":"243"},{"geonameid":6295297,"name":"Dietikon / Unterdorf","admin3":"243"},{"geonameid":6295296,"name":"Dietikon / Vorstadt","admin3":"243"},{"geonameid":6295301,"name":"Dietikon / Weinbergstrasse","admin3":"243"},{"geonameid":6295378,"name":"Erziehungsanstalt","admin3":"248"},{"geonameid":6295310,"name":"Fahr","admin3":"243"},{"geonameid":6295529,"name":"Fahrweid (nördl. Teil)","admin3":"251"},{"geonameid":6295327,"name":"Fahrweid (nördl. Teil) / Fahrweid","admin3":"244"},{"geonameid":6295326,"name":"Fahrweid (nördl. Teil) / Giessacker","admin3":"244"},{"geonameid":6295429,"name":"Fahrweid (südl. Teil)","admin3":"251"},{"geonameid":6295537,"name":"Geroldswil","admin3":"244"},{"geonameid":6295319,"name":"Geroldswil / Bergacker","admin3":"244"},{"geonameid":6295322,"name":"Geroldswil / Buebenau","admin3":"244"},{"geonameid":6295325,"name":"Geroldswil / Haslern","admin3":"244"},{"geonameid":6295318,"name":"Geroldswil / Huebwiesen","admin3":"244"},{"geonameid":6295320,"name":"Geroldswil / Schweizäcker","admin3":"244"},{"geonameid":6295323,"name":"Geroldswil / Stetten","admin3":"244"},{"geonameid":6295324,"name":"Geroldswil / Talacker","admin3":"244"},{"geonameid":6295321,"name":"Geroldswil / Welbrig","admin3":"244"},{"geonameid":6295316,"name":"Giessen","admin3":"243"},{"geonameid":6295231,"name":"Grabenacker","admin3":"241"},{"geonameid":6295345,"name":"Grihalde/Zainli","admin3":"246"},{"geonameid":6295381,"name":"Grossmatt","admin3":"248"},{"geonameid":6295278,"name":"Hafnerberg","admin3":"242"},{"geonameid":6295426,"name":"Hängerten","admin3":"251"},{"geonameid":6295422,"name":"Hasennest","admin3":"251"},{"geonameid":6295425,"name":"Im Büel","admin3":"251"},{"geonameid":6295245,"name":"Kühwald","admin3":"241"},{"geonameid":6295281,"name":"Landikon","admin3":"242"},{"geonameid":6295311,"name":"Lerzen","admin3":"243"},{"geonameid":6295312,"name":"Lerzen/Moosmatt","admin3":"243"},{"geonameid":6295317,"name":"Lindenbüel","admin3":"243"},{"geonameid":6295288,"name":"Löffler","admin3":"242"},{"geonameid":6295411,"name":"Möhren","admin3":"250"},{"geonameid":6295272,"name":"Moorhau-Fürhoger","admin3":"242"},{"geonameid":6295367,"name":"Moosäcker","admin3":"247"},{"geonameid":6295363,"name":"Mülireben","admin3":"247"},{"geonameid":6295428,"name":"Muniwis","admin3":"251"},{"geonameid":2659392,"name":"Oberengstringen","admin3":"245"},{"geonameid":6295334,"name":"Oberengstringen / Eggbühl","admin3":"245"},{"geonameid":6295335,"name":"Oberengstringen / Kirchweg","admin3":"245"},{"geonameid":6295332,"name":"Oberengstringen / Rauchacher","admin3":"245"},{"geonameid":6295331,"name":"Oberengstringen / Sonnenberg","admin3":"245"},{"geonameid":6295333,"name":"Oberengstringen / Stalden","admin3":"245"},{"geonameid":6295329,"name":"Oberengstringen / Zentrum","admin3":"245"},{"geonameid":6295338,"name":"Oetwil / Bösgrüet","admin3":"246"},{"geonameid":6295336,"name":"Oetwil / Erlen/Cholhölzli","admin3":"246"},{"geonameid":6295339,"name":"Oetwil / Limmatwiese","admin3":"246"},{"geonameid":6295342,"name":"Oetwil / Oberfeld","admin3":"246"},{"geonameid":2659306,"name":"Oetwil / Oetwil an der Limmat","admin3":"246"},{"geonameid":6295341,"name":"Oetwil / Rebacker/Halde","admin3":"246"},{"geonameid":6295340,"name":"Oetwil / Sood","admin3":"246"},{"geonameid":6295368,"name":"Pfaffenwis","admin3":"247"},{"geonameid":6295309,"name":"Reppischhof","admin3":"243"},{"geonameid":6295269,"name":"Ristet","admin3":"242"},{"geonameid":6295379,"name":"Rüti","admin3":"248"},{"geonameid":6295229,"name":"Sägissen","admin3":"241"},{"geonameid":6295388,"name":"Schinzbrünneli","admin3":"249"},{"geonameid":2658724,"name":"Schlieren","admin3":"247"},{"geonameid":6295357,"name":"Schlieren / Boden","admin3":"247"},{"geonameid":6295355,"name":"Schlieren / Brunnacker","admin3":"247"},{"geonameid":6295347,"name":"Schlieren / Engstringerquartier","admin3":"247"},{"geonameid":6295352,"name":"Schlieren / Freiestrasse","admin3":"247"},{"geonameid":6295356,"name":"Schlieren / Gugel","admin3":"247"},{"geonameid":6295353,"name":"Schlieren / Guggisbühl","admin3":"247"},{"geonameid":6295358,"name":"Schlieren / Halde","admin3":"247"},{"geonameid":6295351,"name":"Schlieren / Heimeliweg","admin3":"247"},{"geonameid":6295359,"name":"Schlieren / Hübler","admin3":"247"},{"geonameid":6295366,"name":"Schlieren / Industrie Ost","admin3":"247"},{"geonameid":6295348,"name":"Schlieren / Industrie West","admin3":"247"},{"geonameid":6295354,"name":"Schlieren / Kamp","admin3":"247"},{"geonameid":6295350,"name":"Schlieren / Pflugstrasse","admin3":"247"},{"geonameid":6295349,"name":"Schlieren / Spital","admin3":"247"},{"geonameid":6295346,"name":"Schlieren / Zentrum","admin3":"247"},{"geonameid":6295413,"name":"Schüracher","admin3":"250"},{"geonameid":6295279,"name":"Schüren","admin3":"242"},{"geonameid":6295308,"name":"Schwarzmatt","admin3":"243"},{"geonameid":6295394,"name":"Seeberg","admin3":"249"},{"geonameid":6295387,"name":"Sonnenberg","admin3":"249"},{"geonameid":6295271,"name":"Sonnhalde","admin3":"242"},{"geonameid":6295386,"name":"Sparrenberg","admin3":"249"},{"geonameid":6295361,"name":"Station Urdorf","admin3":"247"},{"geonameid":6295314,"name":"Stierenmatt","admin3":"243"},{"geonameid":2658269,"name":"Uitikon","admin3":"248"},{"geonameid":6295371,"name":"Uitikon / Breitenacher","admin3":"248"},{"geonameid":6295372,"name":"Uitikon / Halde","admin3":"248"},{"geonameid":6295375,"name":"Uitikon / Ringlikon","admin3":"248"},{"geonameid":6295373,"name":"Uitikon / Schwerzgrub","admin3":"248"},{"geonameid":6295370,"name":"Uitikon / Uitikon (Dorfkern)","admin3":"248"},{"geonameid":6295374,"name":"Uitikon / Waldegg","admin3":"248"},{"geonameid":6295376,"name":"Uitikon / Wängi","admin3":"248"},{"geonameid":6295406,"name":"Unter Reppischtal","admin3":"250"},{"geonameid":2658253,"name":"Unterengstringen","admin3":"249"},{"geonameid":2659332,"name":"Urdorf","admin3":"250"},{"geonameid":6295405,"name":"Urdorf / Baumgarten","admin3":"250"},{"geonameid":6295397,"name":"Urdorf / Bodenfeld","admin3":"250"},{"geonameid":6295403,"name":"Urdorf / Fadmatt","admin3":"250"},{"geonameid":6295400,"name":"Urdorf / Heidenkeller","admin3":"250"},{"geonameid":6295398,"name":"Urdorf / Moos","admin3":"250"},{"geonameid":6295396,"name":"Urdorf / Nieder-Urdorf","admin3":"250"},{"geonameid":6295401,"name":"Urdorf / Ob der Bahn","admin3":"250"},{"geonameid":6295402,"name":"Urdorf / Oberurdorf","admin3":"250"},{"geonameid":6295404,"name":"Urdorf / Weihermatt","admin3":"250"},{"geonameid":6295399,"name":"Urdorf / Zentrum","admin3":"250"},{"geonameid":6295286,"name":"Vorder-Altenberg","admin3":"242"},{"geonameid":6295409,"name":"Wagenbach","admin3":"250"},{"geonameid":6295287,"name":"Weberhaus","admin3":"242"},{"geonameid":2658035,"name":"Weiningen","admin3":"251"},{"geonameid":6295360,"name":"Zelgli","admin3":"247"}],"admin3":[{"geonameid":7285032,"name":"Aesch (ZH)","admin3":"241"},{"geonameid":7285253,"name":"Birmensdorf (ZH)","admin3":"242"},{"geonameid":7285652,"name":"Dietikon","admin3":"243"},{"geonameid":7285906,"name":"Geroldswil","admin3":"244"},{"geonameid":7286686,"name":"Oberengstringen","admin3":"245"},{"geonameid":7286732,"name":"Oetwil an der Limmat","admin3":"246"},{"geonameid":7287094,"name":"Schlieren","admin3":"247"},{"geonameid":7287367,"name":"Uitikon","admin3":"248"},{"geonameid":7287377,"name":"Unterengstringen","admin3":"249"},{"geonameid":7287390,"name":"Urdorf","admin3":"250"},{"geonameid":7287556,"name":"Weiningen (ZH)","admin3":"251"}],"alternateNames":[]},"__N_SSG":true}