{"pageProps":{"locale":"ro","admin2":{"geonameid":684914,"name":"Comuna Bicaz Chei","country":"RO","admin1":"28","admin2":"121297","admin3":"","latitude":"46.8343500","longitude":"25.8723400"},"admin1":{"geonameid":672460,"name":"Neamţ","admin1":"28"},"locations":[{"geonameid":684780,"name":"Bârnadu","admin3":""},{"geonameid":684916,"name":"Bicaz Centru","admin3":""},{"geonameid":684915,"name":"Bicaz-Chei","admin3":""},{"geonameid":676543,"name":"Gura Dămuc","admin3":""},{"geonameid":675431,"name":"Ivaneș","admin3":""},{"geonameid":674468,"name":"Lunca","admin3":""},{"geonameid":674436,"name":"Lunca Bicazului","admin3":""},{"geonameid":671456,"name":"Palei","admin3":""},{"geonameid":670740,"name":"Pârâu Borviz","admin3":""},{"geonameid":670737,"name":"Pârâu Caprei","admin3":""},{"geonameid":670710,"name":"Pârâu Tepeşani","admin3":""},{"geonameid":669916,"name":"Popescu","admin3":""},{"geonameid":664948,"name":"Tiroş","admin3":""},{"geonameid":664704,"name":"Toşorog","admin3":""},{"geonameid":663877,"name":"Valea Bradului","admin3":""},{"geonameid":663872,"name":"Valea Brodulă","admin3":""}],"admin3":[],"alternateNames":[]},"__N_SSG":true}